{
"type": "FeatureCollection",
"features": [
	{"geometry":{"coordinates":[7.529872,47.213363],"type":"Point"},"properties":{"osm_id":"294918821","tag":{"amenity":"recycling","location":"overground","recycling:cans":"yes","recycling:glass_bottles":"yes","recycling_type":"container"}},"type":"Feature"},
	{"geometry":{"coordinates":[7.544995,47.217493],"type":"Point"},"properties":{"osm_id":"304186144","tag":{"amenity":"recycling"}},"type":"Feature"},
	{"geometry":{"coordinates":[7.545002,47.207573],"type":"Point"},"properties":{"osm_id":"668899485","tag":{"amenity":"recycling","location":"underground","recycling:cans":"yes","recycling:clothes":"yes","recycling:glass":"yes","recycling_type":"container"}},"type":"Feature"},
	{"geometry":{"coordinates":[7.557527,47.210704],"type":"Point"},"properties":{"osm_id":"668899487","tag":{"amenity":"recycling","recycling:batteries":"yes","recycling:cans":"yes","recycling:clothes":"yes","recycling:glass":"yes","recycling_type":"container"}},"type":"Feature"},
	{"geometry":{"coordinates":[7.539007,47.204192],"type":"Point"},"properties":{"osm_id":"939041588","tag":{"amenity":"recycling","opening_hours":"24/7","recycling:batteries":"no","recycling:books":"no","recycling:cans":"yes","recycling:cardboard":"no","recycling:cartons":"no","recycling:clothes":"yes","recycling:electrical_appliances":"no","recycling:glass":"no","recycling:glass_bottles":"yes","recycling:green_waste":"no","recycling:magazines":"no","recycling:newspaper":"no","recycling:paper":"no","recycling:paper_packaging":"no","recycling:plastic":"no","recycling:plastic_bottles":"no","recycling:plastic_packaging":"no","recycling:scrap_metal":"no","recycling:small_appliances":"no","recycling:waste":"no","recycling:wood":"no","recycling_type":"container"}},"type":"Feature"},
	{"geometry":{"coordinates":[7.549741,47.199399],"type":"Point"},"properties":{"osm_id":"1270161519","tag":{"amenity":"recycling"}},"type":"Feature"},
	{"geometry":{"coordinates":[7.554801,47.184257],"type":"Point"},"properties":{"osm_id":"1332081436","tag":{"amenity":"recycling","recycling:batteries":"no","recycling:books":"no","recycling:cans":"no","recycling:cardboard":"no","recycling:cartons":"no","recycling:clothes":"no","recycling:electrical_appliances":"no","recycling:glass":"yes","recycling:glass_bottles":"yes","recycling:green_waste":"no","recycling:magazines":"no","recycling:newspaper":"no","recycling:paper":"no","recycling:paper_packaging":"no","recycling:plastic":"no","recycling:plastic_bottles":"no","recycling:plastic_packaging":"no","recycling:scrap_metal":"yes","recycling:small_appliances":"no","recycling:waste":"no","recycling:wood":"no","recycling_type":"centre"}},"type":"Feature"},
	{"geometry":{"coordinates":[7.527832,47.163376],"type":"Point"},"properties":{"osm_id":"1446364246","tag":{"amenity":"recycling","location":"overground","recycling_type":"container"}},"type":"Feature"},
	{"geometry":{"coordinates":[7.540547,47.207324],"type":"Point"},"properties":{"osm_id":"1454193777","tag":{"amenity":"recycling","recycling:batteries":"no","recycling:books":"no","recycling:cans":"yes","recycling:cardboard":"no","recycling:cartons":"no","recycling:clothes":"yes","recycling:electrical_appliances":"no","recycling:glass":"no","recycling:glass_bottles":"yes","recycling:green_waste":"no","recycling:magazines":"no","recycling:newspaper":"no","recycling:paper":"no","recycling:paper_packaging":"no","recycling:plastic":"no","recycling:plastic_bottles":"no","recycling:plastic_packaging":"no","recycling:scrap_metal":"no","recycling:small_appliances":"no","recycling:waste":"no","recycling:wood":"no","recycling_type":"container"}},"type":"Feature"},
	{"geometry":{"coordinates":[7.534667,47.208172],"type":"Point"},"properties":{"osm_id":"2028320103","tag":{"amenity":"waste_basket"}},"type":"Feature"},
	{"geometry":{"coordinates":[7.534612,47.208082],"type":"Point"},"properties":{"osm_id":"2079838136","tag":{"amenity":"waste_basket"}},"type":"Feature"},
	{"geometry":{"coordinates":[7.534909,47.206296],"type":"Point"},"properties":{"osm_id":"2079838790","tag":{"amenity":"waste_basket"}},"type":"Feature"},
	{"geometry":{"coordinates":[7.535987,47.206023],"type":"Point"},"properties":{"osm_id":"2079839503","tag":{"amenity":"waste_basket"}},"type":"Feature"},
	{"geometry":{"coordinates":[7.536311,47.206108],"type":"Point"},"properties":{"osm_id":"2079842242","tag":{"amenity":"waste_basket"}},"type":"Feature"},
	{"geometry":{"coordinates":[7.536704,47.206268],"type":"Point"},"properties":{"osm_id":"2079842243","tag":{"amenity":"waste_basket"}},"type":"Feature"},
	{"geometry":{"coordinates":[7.536989,47.206385],"type":"Point"},"properties":{"osm_id":"2079844062","tag":{"amenity":"waste_basket"}},"type":"Feature"},
	{"geometry":{"coordinates":[7.538902,47.207233],"type":"Point"},"properties":{"osm_id":"2079844063","tag":{"amenity":"waste_basket"}},"type":"Feature"},
	{"geometry":{"coordinates":[7.53921,47.207265],"type":"Point"},"properties":{"osm_id":"2079844230","tag":{"amenity":"waste_basket"}},"type":"Feature"},
	{"geometry":{"coordinates":[7.53812,47.207161],"type":"Point"},"properties":{"osm_id":"2079844736","tag":{"amenity":"waste_basket"}},"type":"Feature"},
	{"geometry":{"coordinates":[7.53831,47.207144],"type":"Point"},"properties":{"osm_id":"2079844752","tag":{"amenity":"waste_basket"}},"type":"Feature"},
	{"geometry":{"coordinates":[7.538221,47.207456],"type":"Point"},"properties":{"osm_id":"2079844834","tag":{"amenity":"waste_basket"}},"type":"Feature"},
	{"geometry":{"coordinates":[7.537136,47.206963],"type":"Point"},"properties":{"osm_id":"2079846220","tag":{"amenity":"waste_basket"}},"type":"Feature"},
	{"geometry":{"coordinates":[7.537528,47.207468],"type":"Point"},"properties":{"osm_id":"2079848794","tag":{"amenity":"waste_basket"}},"type":"Feature"},
	{"geometry":{"coordinates":[7.537163,47.207416],"type":"Point"},"properties":{"osm_id":"2079850360","tag":{"amenity":"waste_basket"}},"type":"Feature"},
	{"geometry":{"coordinates":[7.535409,47.206555],"type":"Point"},"properties":{"osm_id":"2079853584","tag":{"amenity":"waste_basket"}},"type":"Feature"},
	{"geometry":{"coordinates":[7.535186,47.206714],"type":"Point"},"properties":{"osm_id":"2079854462","tag":{"amenity":"waste_basket"}},"type":"Feature"},
	{"geometry":{"coordinates":[7.535794,47.206756],"type":"Point"},"properties":{"osm_id":"2079854758","tag":{"amenity":"waste_basket"}},"type":"Feature"},
	{"geometry":{"coordinates":[7.536252,47.207129],"type":"Point"},"properties":{"osm_id":"2079855787","tag":{"amenity":"waste_basket"}},"type":"Feature"},
	{"geometry":{"coordinates":[7.536415,47.207389],"type":"Point"},"properties":{"osm_id":"2079856856","tag":{"amenity":"waste_basket"}},"type":"Feature"},
	{"geometry":{"coordinates":[7.536867,47.207701],"type":"Point"},"properties":{"osm_id":"2079857811","tag":{"amenity":"waste_basket"}},"type":"Feature"},
	{"geometry":{"coordinates":[7.536695,47.207911],"type":"Point"},"properties":{"osm_id":"2079858296","tag":{"amenity":"waste_basket"}},"type":"Feature"},
	{"geometry":{"coordinates":[7.536935,47.207877],"type":"Point"},"properties":{"osm_id":"2079858702","tag":{"amenity":"waste_basket"}},"type":"Feature"},
	{"geometry":{"coordinates":[7.537003,47.207836],"type":"Point"},"properties":{"osm_id":"2079859051","tag":{"amenity":"waste_basket"}},"type":"Feature"},
	{"geometry":{"coordinates":[7.537671,47.207805],"type":"Point"},"properties":{"osm_id":"2079859413","tag":{"amenity":"waste_basket"}},"type":"Feature"},
	{"geometry":{"coordinates":[7.537466,47.20789],"type":"Point"},"properties":{"osm_id":"2079860694","tag":{"amenity":"waste_basket"}},"type":"Feature"},
	{"geometry":{"coordinates":[7.536093,47.207674],"type":"Point"},"properties":{"osm_id":"2079861141","tag":{"amenity":"waste_basket"}},"type":"Feature"},
	{"geometry":{"coordinates":[7.535339,47.207266],"type":"Point"},"properties":{"osm_id":"2079862091","tag":{"amenity":"waste_basket"}},"type":"Feature"},
	{"geometry":{"coordinates":[7.535529,47.207319],"type":"Point"},"properties":{"osm_id":"2079862099","tag":{"amenity":"waste_basket"}},"type":"Feature"},
	{"geometry":{"coordinates":[7.534931,47.208086],"type":"Point"},"properties":{"osm_id":"2079865196","tag":{"amenity":"waste_basket"}},"type":"Feature"},
	{"geometry":{"coordinates":[7.535004,47.207775],"type":"Point"},"properties":{"osm_id":"2079866178","tag":{"amenity":"waste_basket"}},"type":"Feature"},
	{"geometry":{"coordinates":[7.536299,47.208004],"type":"Point"},"properties":{"osm_id":"2079866982","tag":{"amenity":"waste_basket"}},"type":"Feature"},
	{"geometry":{"coordinates":[7.535661,47.207975],"type":"Point"},"properties":{"osm_id":"2079867309","tag":{"amenity":"waste_basket"}},"type":"Feature"},
	{"geometry":{"coordinates":[7.535926,47.208041],"type":"Point"},"properties":{"osm_id":"2079867514","tag":{"amenity":"waste_basket"}},"type":"Feature"},
	{"geometry":{"coordinates":[7.536173,47.207933],"type":"Point"},"properties":{"osm_id":"2079867557","tag":{"amenity":"waste_basket"}},"type":"Feature"},
	{"geometry":{"coordinates":[7.537332,47.208682],"type":"Point"},"properties":{"osm_id":"2079867883","tag":{"amenity":"waste_basket"}},"type":"Feature"},
	{"geometry":{"coordinates":[7.537858,47.208846],"type":"Point"},"properties":{"osm_id":"2079868070","tag":{"amenity":"waste_basket"}},"type":"Feature"},
	{"geometry":{"coordinates":[7.536812,47.209564],"type":"Point"},"properties":{"osm_id":"2079869848","tag":{"amenity":"waste_basket"}},"type":"Feature"},
	{"geometry":{"coordinates":[7.537074,47.209598],"type":"Point"},"properties":{"osm_id":"2079870131","tag":{"amenity":"waste_basket"}},"type":"Feature"},
	{"geometry":{"coordinates":[7.536989,47.209402],"type":"Point"},"properties":{"osm_id":"2079870896","tag":{"amenity":"waste_basket"}},"type":"Feature"},
	{"geometry":{"coordinates":[7.536519,47.209402],"type":"Point"},"properties":{"osm_id":"2079872063","tag":{"amenity":"waste_basket"}},"type":"Feature"},
	{"geometry":{"coordinates":[7.535795,47.209055],"type":"Point"},"properties":{"osm_id":"2079873873","tag":{"amenity":"waste_basket"}},"type":"Feature"},
	{"geometry":{"coordinates":[7.534848,47.2088],"type":"Point"},"properties":{"osm_id":"2079874293","tag":{"amenity":"waste_basket"}},"type":"Feature"},
	{"geometry":{"coordinates":[7.534875,47.208948],"type":"Point"},"properties":{"osm_id":"2079874719","tag":{"amenity":"waste_basket"}},"type":"Feature"},
	{"geometry":{"coordinates":[7.534907,47.209105],"type":"Point"},"properties":{"osm_id":"2079874769","tag":{"amenity":"waste_basket"}},"type":"Feature"},
	{"geometry":{"coordinates":[7.535299,47.209054],"type":"Point"},"properties":{"osm_id":"2079875008","tag":{"amenity":"waste_basket"}},"type":"Feature"},
	{"geometry":{"coordinates":[7.53524,47.209219],"type":"Point"},"properties":{"osm_id":"2079875281","tag":{"amenity":"waste_basket"}},"type":"Feature"},
	{"geometry":{"coordinates":[7.53554,47.209464],"type":"Point"},"properties":{"osm_id":"2079875294","tag":{"amenity":"waste_basket"}},"type":"Feature"},
	{"geometry":{"coordinates":[7.535878,47.20919],"type":"Point"},"properties":{"osm_id":"2079875316","tag":{"amenity":"waste_basket"}},"type":"Feature"},
	{"geometry":{"coordinates":[7.540663,47.207219],"type":"Point"},"properties":{"osm_id":"2079880001","tag":{"amenity":"waste_basket"}},"type":"Feature"},
	{"geometry":{"coordinates":[7.540931,47.207184],"type":"Point"},"properties":{"osm_id":"2079880027","tag":{"amenity":"waste_basket"}},"type":"Feature"},
	{"geometry":{"coordinates":[7.541173,47.207262],"type":"Point"},"properties":{"osm_id":"2079880042","tag":{"amenity":"waste_basket"}},"type":"Feature"},
	{"geometry":{"coordinates":[7.541098,47.207807],"type":"Point"},"properties":{"osm_id":"2079881161","tag":{"amenity":"waste_basket"}},"type":"Feature"},
	{"geometry":{"coordinates":[7.540626,47.207988],"type":"Point"},"properties":{"osm_id":"2079881615","tag":{"amenity":"waste_basket"}},"type":"Feature"},
	{"geometry":{"coordinates":[7.541287,47.208278],"type":"Point"},"properties":{"osm_id":"2079882368","tag":{"amenity":"waste_basket"}},"type":"Feature"},
	{"geometry":{"coordinates":[7.540444,47.208284],"type":"Point"},"properties":{"osm_id":"2079882374","tag":{"amenity":"waste_basket"}},"type":"Feature"},
	{"geometry":{"coordinates":[7.540166,47.208446],"type":"Point"},"properties":{"osm_id":"2079882436","tag":{"amenity":"waste_basket"}},"type":"Feature"},
	{"geometry":{"coordinates":[7.541279,47.209016],"type":"Point"},"properties":{"osm_id":"2079882620","tag":{"amenity":"waste_basket"}},"type":"Feature"},
	{"geometry":{"coordinates":[7.540905,47.209535],"type":"Point"},"properties":{"osm_id":"2079884063","tag":{"amenity":"waste_basket"}},"type":"Feature"},
	{"geometry":{"coordinates":[7.54014,47.20944],"type":"Point"},"properties":{"osm_id":"2079884181","tag":{"amenity":"waste_basket"}},"type":"Feature"},
	{"geometry":{"coordinates":[7.539995,47.209012],"type":"Point"},"properties":{"osm_id":"2079884255","tag":{"amenity":"waste_basket"}},"type":"Feature"},
	{"geometry":{"coordinates":[7.539636,47.209024],"type":"Point"},"properties":{"osm_id":"2079885795","tag":{"amenity":"waste_basket"}},"type":"Feature"},
	{"geometry":{"coordinates":[7.539751,47.209156],"type":"Point"},"properties":{"osm_id":"2079885809","tag":{"amenity":"waste_basket"}},"type":"Feature"},
	{"geometry":{"coordinates":[7.539397,47.209491],"type":"Point"},"properties":{"osm_id":"2079885968","tag":{"amenity":"waste_basket"}},"type":"Feature"},
	{"geometry":{"coordinates":[7.538858,47.210161],"type":"Point"},"properties":{"osm_id":"2079886252","tag":{"amenity":"waste_basket"}},"type":"Feature"},
	{"geometry":{"coordinates":[7.539156,47.210027],"type":"Point"},"properties":{"osm_id":"2079886270","tag":{"amenity":"waste_basket"}},"type":"Feature"},
	{"geometry":{"coordinates":[7.539531,47.210539],"type":"Point"},"properties":{"osm_id":"2079886609","tag":{"amenity":"waste_basket"}},"type":"Feature"},
	{"geometry":{"coordinates":[7.538772,47.210568],"type":"Point"},"properties":{"osm_id":"2079887036","tag":{"amenity":"waste_basket"}},"type":"Feature"},
	{"geometry":{"coordinates":[7.538236,47.210827],"type":"Point"},"properties":{"osm_id":"2079887699","tag":{"amenity":"waste_basket"}},"type":"Feature"},
	{"geometry":{"coordinates":[7.537699,47.210225],"type":"Point"},"properties":{"osm_id":"2079888513","tag":{"amenity":"waste_basket"}},"type":"Feature"},
	{"geometry":{"coordinates":[7.537927,47.209928],"type":"Point"},"properties":{"osm_id":"2079888715","tag":{"amenity":"waste_basket"}},"type":"Feature"},
	{"geometry":{"coordinates":[7.537903,47.209411],"type":"Point"},"properties":{"osm_id":"2079890654","tag":{"amenity":"waste_basket"}},"type":"Feature"},
	{"geometry":{"coordinates":[7.538214,47.209518],"type":"Point"},"properties":{"osm_id":"2079890952","tag":{"amenity":"waste_basket"}},"type":"Feature"},
	{"geometry":{"coordinates":[7.538016,47.209103],"type":"Point"},"properties":{"osm_id":"2079891010","tag":{"amenity":"waste_basket"}},"type":"Feature"},
	{"geometry":{"coordinates":[7.538437,47.209161],"type":"Point"},"properties":{"osm_id":"2079891128","tag":{"amenity":"waste_basket"}},"type":"Feature"},
	{"geometry":{"coordinates":[7.538662,47.209469],"type":"Point"},"properties":{"osm_id":"2079891139","tag":{"amenity":"waste_basket"}},"type":"Feature"},
	{"geometry":{"coordinates":[7.538675,47.208199],"type":"Point"},"properties":{"osm_id":"2079891886","tag":{"amenity":"waste_basket"}},"type":"Feature"},
	{"geometry":{"coordinates":[7.53878,47.20799],"type":"Point"},"properties":{"osm_id":"2079891887","tag":{"amenity":"waste_basket"}},"type":"Feature"},
	{"geometry":{"coordinates":[7.539337,47.208452],"type":"Point"},"properties":{"osm_id":"2079892025","tag":{"amenity":"waste_basket"}},"type":"Feature"},
	{"geometry":{"coordinates":[7.538743,47.207873],"type":"Point"},"properties":{"osm_id":"2079901485","tag":{"amenity":"waste_basket"}},"type":"Feature"},
	{"geometry":{"coordinates":[7.535706,47.211284],"type":"Point"},"properties":{"osm_id":"2408852333","tag":{"amenity":"waste_basket"}},"type":"Feature"},
	{"geometry":{"coordinates":[7.53597,47.211355],"type":"Point"},"properties":{"osm_id":"2408852335","tag":{"amenity":"waste_basket"}},"type":"Feature"},
	{"geometry":{"coordinates":[7.535874,47.211498],"type":"Point"},"properties":{"osm_id":"2408852339","tag":{"amenity":"waste_basket"}},"type":"Feature"},
	{"geometry":{"coordinates":[7.53581,47.211591],"type":"Point"},"properties":{"osm_id":"2408852342","tag":{"amenity":"waste_basket"}},"type":"Feature"},
	{"geometry":{"coordinates":[7.536412,47.211669],"type":"Point"},"properties":{"osm_id":"2408852345","tag":{"amenity":"waste_basket"}},"type":"Feature"},
	{"geometry":{"coordinates":[7.536351,47.211758],"type":"Point"},"properties":{"osm_id":"2408852349","tag":{"amenity":"waste_basket"}},"type":"Feature"},
	{"geometry":{"coordinates":[7.54223,47.214218],"type":"Point"},"properties":{"osm_id":"2421177989","tag":{"amenity":"waste_basket"}},"type":"Feature"},
	{"geometry":{"coordinates":[7.544845,47.211949],"type":"Point"},"properties":{"osm_id":"2428410906","tag":{"amenity":"waste_basket"}},"type":"Feature"},
	{"geometry":{"coordinates":[7.516047,47.20937],"type":"Point"},"properties":{"osm_id":"2441525036","tag":{"amenity":"waste_basket"}},"type":"Feature"},
	{"geometry":{"coordinates":[7.543224,47.204378],"type":"Point"},"properties":{"osm_id":"3501639450","tag":{"amenity":"waste_basket"}},"type":"Feature"},
	{"geometry":{"coordinates":[7.53544,47.208092],"type":"Point"},"properties":{"osm_id":"3519642793","tag":{"amenity":"waste_basket"}},"type":"Feature"},
	{"geometry":{"coordinates":[7.537144,47.204641],"type":"Point"},"properties":{"osm_id":"3586392588","tag":{"amenity":"waste_basket"}},"type":"Feature"},
	{"geometry":{"coordinates":[7.555094,47.198215],"type":"Point"},"properties":{"osm_id":"3586434253","tag":{"amenity":"waste_basket"}},"type":"Feature"},
	{"geometry":{"coordinates":[7.546196,47.206235],"type":"Point"},"properties":{"osm_id":"4326012086","tag":{"amenity":"waste_basket"}},"type":"Feature"},
	{"geometry":{"coordinates":[7.533793,47.206136],"type":"Point"},"properties":{"osm_id":"4340222231","tag":{"amenity":"waste_basket"}},"type":"Feature"},
	{"geometry":{"coordinates":[7.534052,47.207598],"type":"Point"},"properties":{"osm_id":"4347358962","tag":{"amenity":"waste_basket"}},"type":"Feature"},
	{"geometry":{"coordinates":[7.537114,47.208634],"type":"Point"},"properties":{"osm_id":"4347358966","tag":{"amenity":"waste_basket"}},"type":"Feature"},
	{"geometry":{"coordinates":[7.537529,47.208644],"type":"Point"},"properties":{"osm_id":"4347358967","tag":{"amenity":"waste_basket"}},"type":"Feature"},
	{"geometry":{"coordinates":[7.533617,47.202338],"type":"Point"},"properties":{"osm_id":"4549439800","tag":{"amenity":"recycling","recycling:cans":"yes","recycling:clothes":"yes","recycling:glass_bottles":"yes","recycling_type":"container"}},"type":"Feature"},
	{"geometry":{"coordinates":[7.523584,47.21187],"type":"Point"},"properties":{"osm_id":"4685435455","tag":{"amenity":"recycling","recycling:bottles":"yes","recycling:cans":"yes","recycling_type":"container"}},"type":"Feature"},
	{"geometry":{"coordinates":[7.523596,47.211854],"type":"Point"},"properties":{"osm_id":"4685435457","tag":{"amenity":"recycling","operator":"Contex","recycling:clothes":"yes","recycling_type":"container"}},"type":"Feature"},
	{"geometry":{"coordinates":[7.528398,47.209904],"type":"Point"},"properties":{"osm_id":"4685435811","tag":{"amenity":"waste_basket"}},"type":"Feature"},
	{"geometry":{"coordinates":[7.527366,47.210451],"type":"Point"},"properties":{"osm_id":"4693764853","tag":{"amenity":"waste_basket"}},"type":"Feature"},
	{"geometry":{"coordinates":[7.539917,47.208121],"type":"Point"},"properties":{"osm_id":"4762778088","tag":{"amenity":"waste_basket"}},"type":"Feature"},
	{"geometry":{"coordinates":[7.528605,47.201301],"type":"Point"},"properties":{"osm_id":"4809921813","tag":{"amenity":"recycling","operator":"Tell-Tex GmbH","recycling:clothes":"yes","recycling_type":"container"}},"type":"Feature"},
	{"geometry":{"coordinates":[7.537519,47.21516],"type":"Point"},"properties":{"name":"Kleiderrecycling","osm_id":"5016367601","tag":{"amenity":"recycling","recycling:clothes":"yes","recycling_type":"container"}},"type":"Feature"},
	{"geometry":{"coordinates":[7.534179,47.212792],"type":"Point"},"properties":{"osm_id":"5020161895","tag":{"amenity":"waste_basket"}},"type":"Feature"},
	{"geometry":{"coordinates":[7.529288,47.218286],"type":"Point"},"properties":{"osm_id":"5020855429","tag":{"amenity":"waste_basket"}},"type":"Feature"},
	{"geometry":{"coordinates":[7.529849,47.21731],"type":"Point"},"properties":{"osm_id":"5020855430","tag":{"amenity":"waste_basket"}},"type":"Feature"},
	{"geometry":{"coordinates":[7.529736,47.219103],"type":"Point"},"properties":{"osm_id":"5020855431","tag":{"amenity":"waste_basket"}},"type":"Feature"},
	{"geometry":{"coordinates":[7.532422,47.211434],"type":"Point"},"properties":{"osm_id":"5021740021","tag":{"amenity":"waste_basket"}},"type":"Feature"},
	{"geometry":{"coordinates":[7.530273,47.209744],"type":"Point"},"properties":{"osm_id":"5021740122","tag":{"amenity":"waste_basket"}},"type":"Feature"},
	{"geometry":{"coordinates":[7.529394,47.210218],"type":"Point"},"properties":{"osm_id":"5021740221","tag":{"amenity":"waste_basket"}},"type":"Feature"},
	{"geometry":{"coordinates":[7.531715,47.212067],"type":"Point"},"properties":{"osm_id":"5022179385","tag":{"amenity":"waste_basket"}},"type":"Feature"},
	{"geometry":{"coordinates":[7.532363,47.213616],"type":"Point"},"properties":{"osm_id":"5022179386","tag":{"amenity":"waste_basket","payment:none":"yes","vending":"excrement_bags"}},"type":"Feature"},
	{"geometry":{"coordinates":[7.537676,47.214876],"type":"Point"},"properties":{"osm_id":"5034849521","tag":{"amenity":"waste_basket"}},"type":"Feature"},
	{"geometry":{"coordinates":[7.537155,47.214726],"type":"Point"},"properties":{"osm_id":"5034849522","tag":{"amenity":"waste_basket"}},"type":"Feature"},
	{"geometry":{"coordinates":[7.537513,47.214288],"type":"Point"},"properties":{"osm_id":"5034849523","tag":{"amenity":"waste_basket"}},"type":"Feature"},
	{"geometry":{"coordinates":[7.536474,47.214521],"type":"Point"},"properties":{"osm_id":"5034849524","tag":{"amenity":"waste_basket"}},"type":"Feature"},
	{"geometry":{"coordinates":[7.535833,47.214059],"type":"Point"},"properties":{"osm_id":"5034849525","tag":{"amenity":"waste_basket"}},"type":"Feature"},
	{"geometry":{"coordinates":[7.536278,47.213308],"type":"Point"},"properties":{"osm_id":"5034849526","tag":{"amenity":"waste_basket"}},"type":"Feature"},
	{"geometry":{"coordinates":[7.53754,47.214839],"type":"Point"},"properties":{"osm_id":"5034849621","tag":{"amenity":"waste_basket"}},"type":"Feature"},
	{"geometry":{"coordinates":[7.536976,47.214682],"type":"Point"},"properties":{"osm_id":"5034849622","tag":{"amenity":"waste_basket"}},"type":"Feature"},
	{"geometry":{"coordinates":[7.535986,47.214435],"type":"Point"},"properties":{"osm_id":"5034849821","tag":{"amenity":"waste_basket"}},"type":"Feature"},
	{"geometry":{"coordinates":[7.535791,47.214386],"type":"Point"},"properties":{"osm_id":"5034849823","tag":{"amenity":"waste_basket"}},"type":"Feature"},
	{"geometry":{"coordinates":[7.535487,47.214724],"type":"Point"},"properties":{"osm_id":"5034849921","tag":{"amenity":"waste_basket"}},"type":"Feature"},
	{"geometry":{"coordinates":[7.540699,47.203137],"type":"Point"},"properties":{"osm_id":"5079295615","tag":{"amenity":"waste_basket"}},"type":"Feature"},
	{"geometry":{"coordinates":[7.511636,47.218941],"type":"Point"},"properties":{"osm_id":"5154834056","tag":{"amenity":"waste_basket"}},"type":"Feature"},
	{"geometry":{"coordinates":[7.511885,47.218375],"type":"Point"},"properties":{"osm_id":"5154834057","tag":{"amenity":"waste_basket"}},"type":"Feature"},
	{"geometry":{"coordinates":[7.513184,47.21844],"type":"Point"},"properties":{"osm_id":"5154834064","tag":{"amenity":"waste_basket"}},"type":"Feature"},
	{"geometry":{"coordinates":[7.52754,47.211521],"type":"Point"},"properties":{"osm_id":"5154861875","tag":{"amenity":"waste_basket"}},"type":"Feature"},
	{"geometry":{"coordinates":[7.527525,47.21148],"type":"Point"},"properties":{"osm_id":"5154861876","tag":{"amenity":"waste_basket"}},"type":"Feature"},
	{"geometry":{"coordinates":[7.508248,47.209315],"type":"Point"},"properties":{"osm_id":"5496841868","tag":{"amenity":"recycling","recycling:aluminium":"yes","recycling:batteries":"yes","recycling:bottles":"yes","recycling:cans":"yes","recycling:clothes":"yes","recycling_type":"container"}},"type":"Feature"},
	{"geometry":{"coordinates":[7.521799,47.197974],"type":"Point"},"properties":{"osm_id":"5527985987","tag":{"amenity":"recycling","recycling_type":"container"}},"type":"Feature"},
	{"geometry":{"coordinates":[7.541203,47.208379],"type":"Point"},"properties":{"osm_id":"5536020249","tag":{"amenity":"waste_basket"}},"type":"Feature"},
	{"geometry":{"coordinates":[7.527992,47.210014],"type":"Point"},"properties":{"osm_id":"5798123058","tag":{"amenity":"recycling","contact:email":"info@tell-tex.ch","contact:phone":"+41 62 789 30 10","contact:website":"http://www.tell-tex.ch","recycling:clothes":"yes","recycling:shoes":"yes","recycling_type":"container"}},"type":"Feature"},
	{"geometry":{"coordinates":[7.535278,47.204564],"type":"Point"},"properties":{"osm_id":"5912556960","tag":{"amenity":"waste_basket"}},"type":"Feature"},
	{"geometry":{"coordinates":[7.542255,47.207333],"type":"Point"},"properties":{"osm_id":"5912556963","tag":{"amenity":"waste_basket"}},"type":"Feature"},
	{"geometry":{"coordinates":[7.541988,47.207932],"type":"Point"},"properties":{"osm_id":"5912556964","tag":{"amenity":"waste_basket"}},"type":"Feature"},
	{"geometry":{"coordinates":[7.543755,47.208965],"type":"Point"},"properties":{"osm_id":"5912556966","tag":{"amenity":"waste_basket"}},"type":"Feature"},
	{"geometry":{"coordinates":[7.551162,47.161814],"type":"Point"},"properties":{"osm_id":"6071186712","tag":{"amenity":"waste_basket"}},"type":"Feature"},
	{"geometry":{"coordinates":[7.552863,47.163299],"type":"Point"},"properties":{"osm_id":"6071186713","tag":{"amenity":"waste_basket"}},"type":"Feature"},
	{"geometry":{"coordinates":[7.553883,47.16411],"type":"Point"},"properties":{"osm_id":"6071186716","tag":{"amenity":"waste_basket"}},"type":"Feature"},
	{"geometry":{"coordinates":[7.556246,47.164554],"type":"Point"},"properties":{"osm_id":"6071285242","tag":{"amenity":"waste_basket"}},"type":"Feature"},
	{"geometry":{"coordinates":[7.49885,47.209225],"type":"Point"},"properties":{"name":"Almeta Recycling AG","osm_id":"6204587285","tag":{"addr:city":"Bellach","addr:housenumber":"15","addr:postcode":"4512","addr:street":"Gurzelenstrasse","amenity":"recycling","contact:email":"recycling@almeta.ch","contact:fax":"+41 32 617 40 55","contact:phone":"+41 32 617 40 40","contact:website":"https://www.almeta.ch","opening_hours":"Mo-Th 07:00-12:00,13:00-17:00; Fr 07:00-12:00,13:00-16:00","recycling:cans":"yes","recycling:electrical_appliances":"yes","recycling:glass":"yes","recycling:glass_bottles":"yes","recycling:plastic":"yes","recycling:plastic_bottles":"yes","recycling:plastic_packaging":"yes","recycling:scrap_metal":"yes","recycling:small_appliances":"yes","recycling:waste":"yes","recycling_type":"centre","website":"https://www.almeta.ch/"}},"type":"Feature"},
	{"geometry":{"coordinates":[7.551025,47.207857],"type":"Point"},"properties":{"osm_id":"6484414424","tag":{"amenity":"waste_basket"}},"type":"Feature"},
	{"geometry":{"coordinates":[7.533271,47.207565],"type":"Point"},"properties":{"name":"Labdoo","osm_id":"6543108222","tag":{"addr:city":"Solothurn","addr:housenumber":"6","addr:postcode":"4500","addr:street":"Westbahnhofstrasse","amenity":"recycling","brand":"Labdoo","charity":"yes","contact:website":"https://www.thomas-schneider.ch/%C3%BCber-uns-1/soziales-engagement/","description":"Bei Thomas Schneider Treuhand k\u00c3\u00b6nnen zu den \u00c3\u00bcblichen B\u00c3\u00bcrozeiten von Montag bis Freitag Laptops an der Rezeption mit dem Hinweis auf Herrn Thomas Schneider deponiert werden.","location":"indoor","operator":"Thomas Schneider Treuhand","recycling:computers":"yes","recycling:mobile_phones":"yes","service_times":"Mo-Fr","website":"https://www.labdoo.org/hub?h=25395"}},"type":"Feature"},
	{"geometry":{"coordinates":[7.528156,47.163683],"type":"Point"},"properties":{"name":"Neuenschwander Entsorgungscenter","osm_id":"6646439267","tag":{"addr:city":"Lohn-Ammannsegg","addr:housenumber":"2","addr:postcode":"4573","addr:street":"Industriestrasse","amenity":"recycling","description":"Einige Wertstoffe k\u00c3\u00b6nnen kostenlos abgegeben werden.","email":"info@entsorgung-neuenschwander.ch","fee":"yes","opening_hours":"Mo-Fr 07:15-09:00, 09:30-17:15; Sa 08:00-12:00","operator":"Neuenschwander AG","operator:type":"private_for_profit","payment:cash":"yes","payment:coins":"yes","phone":"+41 32 677 23 93","recycling:cans":"yes","recycling:cardboard":"yes","recycling:cartons":"yes","recycling:electrical_appliances":"yes","recycling:glass":"yes","recycling:glass_bottles":"yes","recycling:magazines":"yes","recycling:newspaper":"yes","recycling:paper":"yes","recycling:paper_packaging":"yes","recycling:plastic":"yes","recycling:plastic_bottles":"yes","recycling:scrap_metal":"yes","recycling:small_appliances":"yes","recycling:wood":"yes","recycling_type":"centre","website":"https://entsorgung-neuenschwander.ch"}},"type":"Feature"},
	{"geometry":{"coordinates":[7.558348,47.216747],"type":"Point"},"properties":{"osm_id":"6749529040","tag":{"amenity":"waste_basket"}},"type":"Feature"},
	{"geometry":{"coordinates":[7.52997,47.20946],"type":"Point"},"properties":{"osm_id":"6835888468","tag":{"amenity":"waste_basket"}},"type":"Feature"},
	{"geometry":{"coordinates":[7.544695,47.211186],"type":"Point"},"properties":{"osm_id":"7153700043","tag":{"amenity":"waste_basket"}},"type":"Feature"},
	{"geometry":{"coordinates":[7.544665,47.211202],"type":"Point"},"properties":{"osm_id":"7153700044","tag":{"amenity":"recycling","recycling:batteries":"yes","recycling:plastic_bottles":"yes","recycling_type":"container"}},"type":"Feature"},
	{"geometry":{"coordinates":[7.547963,47.207494],"type":"Point"},"properties":{"osm_id":"7159098114","tag":{"amenity":"waste_basket"}},"type":"Feature"},
	{"geometry":{"coordinates":[7.548938,47.207841],"type":"Point"},"properties":{"osm_id":"7159098115","tag":{"amenity":"waste_basket"}},"type":"Feature"},
	{"geometry":{"coordinates":[7.549461,47.208329],"type":"Point"},"properties":{"osm_id":"7159098122","tag":{"amenity":"waste_basket"}},"type":"Feature"},
	{"geometry":{"coordinates":[7.550636,47.21047],"type":"Point"},"properties":{"osm_id":"7159147831","tag":{"amenity":"waste_basket"}},"type":"Feature"},
	{"geometry":{"coordinates":[7.550359,47.210022],"type":"Point"},"properties":{"osm_id":"7159147832","tag":{"amenity":"waste_basket"}},"type":"Feature"},
	{"geometry":{"coordinates":[7.552938,47.211672],"type":"Point"},"properties":{"osm_id":"7159150523","tag":{"amenity":"waste_basket"}},"type":"Feature"},
	{"geometry":{"coordinates":[7.554272,47.214063],"type":"Point"},"properties":{"osm_id":"7159150525","tag":{"amenity":"waste_basket"}},"type":"Feature"},
	{"geometry":{"coordinates":[7.551022,47.204019],"type":"Point"},"properties":{"osm_id":"7296616134","tag":{"amenity":"recycling","recycling:cans":"yes","recycling:cardboard":"no","recycling:clothes":"yes","recycling:glass":"yes","recycling:glass_bottles":"yes","recycling:paper":"no","recycling:plastic":"no","recycling:plastic_bottles":"no","recycling:plastic_packaging":"no","recycling:waste":"no","recycling_type":"container","wheelchair":"yes"}},"type":"Feature"},
	{"geometry":{"coordinates":[7.557173,47.181277],"type":"Point"},"properties":{"osm_id":"7372087067","tag":{"amenity":"recycling","recycling:batteries":"no","recycling:books":"no","recycling:cans":"no","recycling:cardboard":"no","recycling:cartons":"no","recycling:electrical_appliances":"no","recycling:glass":"yes","recycling:glass_bottles":"yes","recycling:green_waste":"no","recycling:magazines":"no","recycling:newspaper":"no","recycling:paper":"no","recycling:paper_packaging":"no","recycling:plastic":"no","recycling:plastic_bottles":"no","recycling:plastic_packaging":"no","recycling:scrap_metal":"yes","recycling:small_appliances":"no","recycling:waste":"no","recycling:wood":"no","recycling_type":"container"}},"type":"Feature"},
	{"geometry":{"coordinates":[7.554571,47.173396],"type":"Point"},"properties":{"osm_id":"7603591703","tag":{"amenity":"waste_basket","payment:none":"yes","vending":"excrement_bags","waste":"dog_excrement"}},"type":"Feature"},
	{"geometry":{"coordinates":[7.556313,47.176349],"type":"Point"},"properties":{"osm_id":"7603591706","tag":{"amenity":"waste_basket"}},"type":"Feature"},
	{"geometry":{"coordinates":[7.556763,47.211824],"type":"Point"},"properties":{"osm_id":"7603710095","tag":{"amenity":"waste_basket","payment:none":"yes","vending":"excrement_bags","waste":"dog_excrement"}},"type":"Feature"},
	{"geometry":{"coordinates":[7.558518,47.20854],"type":"Point"},"properties":{"osm_id":"7603710096","tag":{"amenity":"waste_basket","payment:none":"yes","vending":"excrement_bags","waste":"dog_excrement"}},"type":"Feature"},
	{"geometry":{"coordinates":[7.558449,47.191505],"type":"Point"},"properties":{"osm_id":"7603710101","tag":{"amenity":"recycling","recycling:cans":"yes","recycling:clothes":"yes","recycling:glass_bottles":"yes","recycling_type":"container"}},"type":"Feature"},
	{"geometry":{"coordinates":[7.558446,47.190036],"type":"Point"},"properties":{"osm_id":"7603710102","tag":{"amenity":"waste_basket","payment:none":"yes","vending":"excrement_bags","waste":"dog_excrement"}},"type":"Feature"},
	{"geometry":{"coordinates":[7.557199,47.186397],"type":"Point"},"properties":{"osm_id":"7603710103","tag":{"amenity":"waste_basket","payment:none":"yes","vending":"excrement_bags","waste":"dog_excrement"}},"type":"Feature"},
	{"geometry":{"coordinates":[7.554741,47.184172],"type":"Point"},"properties":{"osm_id":"7603710104","tag":{"amenity":"waste_basket","payment:none":"yes","vending":"excrement_bags","waste":"dog_excrement"}},"type":"Feature"},
	{"geometry":{"coordinates":[7.553913,47.182043],"type":"Point"},"properties":{"osm_id":"7603710106","tag":{"amenity":"waste_basket","payment:none":"yes","vending":"excrement_bags","waste":"dog_excrement"}},"type":"Feature"},
	{"geometry":{"coordinates":[7.550275,47.179621],"type":"Point"},"properties":{"osm_id":"7603710107","tag":{"amenity":"waste_basket","payment:none":"yes","vending":"excrement_bags","waste":"dog_excrement"}},"type":"Feature"},
	{"geometry":{"coordinates":[7.54079,47.174283],"type":"Point"},"properties":{"osm_id":"7603710109","tag":{"amenity":"waste_basket","vending":"excrement_bags","waste":"dog_excrement"}},"type":"Feature"},
	{"geometry":{"coordinates":[7.511324,47.216529],"type":"Point"},"properties":{"osm_id":"7797505880","tag":{"amenity":"recycling","recycling:batteries":"yes","recycling:cans":"yes","recycling:clothes":"yes","recycling:coffee_capsules":"yes","recycling:glass_bottles":"yes","recycling_type":"container"}},"type":"Feature"}
]
}
