{
"type": "FeatureCollection",
"features": [
	{"geometry":{"coordinates":[7.550759,47.073166],"type":"Point"},"properties":{"osm_id":"281792519","tag":{"amenity":"recycling"}},"type":"Feature"},
	{"geometry":{"coordinates":[7.505088,47.049095],"type":"Point"},"properties":{"osm_id":"515758665","tag":{"amenity":"recycling","recycling:aluminium":"yes","recycling:cans":"yes","recycling:coffee_capsules":"yes","recycling:cork":"yes","recycling:glass_bottles":"yes"}},"type":"Feature"},
	{"geometry":{"coordinates":[7.555421,47.067812],"type":"Point"},"properties":{"osm_id":"945367310","tag":{"amenity":"recycling","recycling:garden_waste":"yes","recycling:green_waste":"yes"}},"type":"Feature"},
	{"geometry":{"coordinates":[7.523573,47.085348],"type":"Point"},"properties":{"osm_id":"1656132853","tag":{"amenity":"recycling","recycling:plastic_bottles":"yes","recycling_type":"container"}},"type":"Feature"},
	{"geometry":{"coordinates":[7.518583,47.096215],"type":"Point"},"properties":{"osm_id":"1656154292","tag":{"amenity":"recycling","recycling:cans":"yes","recycling:glass_bottles":"yes","recycling_type":"container"}},"type":"Feature"},
	{"geometry":{"coordinates":[7.524595,47.084213],"type":"Point"},"properties":{"osm_id":"1656322409","tag":{"amenity":"recycling","recycling:aluminium":"yes","recycling:glass_bottles":"yes","recycling:scrap_metal":"yes","recycling_type":"container"}},"type":"Feature"},
	{"geometry":{"coordinates":[7.537904,47.045773],"type":"Point"},"properties":{"osm_id":"1946090731","tag":{"amenity":"recycling","recycling:glass_bottles":"yes","recycling_type":"container"}},"type":"Feature"},
	{"geometry":{"coordinates":[7.545666,47.049667],"type":"Point"},"properties":{"osm_id":"2254699652","tag":{"amenity":"waste_basket"}},"type":"Feature"},
	{"geometry":{"coordinates":[7.510099,47.047603],"type":"Point"},"properties":{"osm_id":"5368757860","tag":{"amenity":"waste_basket"}},"type":"Feature"},
	{"geometry":{"coordinates":[7.50993,47.047486],"type":"Point"},"properties":{"osm_id":"5368757861","tag":{"amenity":"waste_basket"}},"type":"Feature"},
	{"geometry":{"coordinates":[7.511288,47.04806],"type":"Point"},"properties":{"osm_id":"5368757862","tag":{"amenity":"waste_basket"}},"type":"Feature"},
	{"geometry":{"coordinates":[7.509675,47.047016],"type":"Point"},"properties":{"osm_id":"5368757863","tag":{"amenity":"waste_basket"}},"type":"Feature"},
	{"geometry":{"coordinates":[7.508781,47.047592],"type":"Point"},"properties":{"osm_id":"5368757867","tag":{"amenity":"waste_basket"}},"type":"Feature"},
	{"geometry":{"coordinates":[7.508751,47.047612],"type":"Point"},"properties":{"osm_id":"5368757868","tag":{"amenity":"waste_basket"}},"type":"Feature"},
	{"geometry":{"coordinates":[7.547557,47.052685],"type":"Point"},"properties":{"osm_id":"6670364119","tag":{"amenity":"waste_basket"}},"type":"Feature"},
	{"geometry":{"coordinates":[7.548032,47.052175],"type":"Point"},"properties":{"osm_id":"6670364121","tag":{"amenity":"waste_basket"}},"type":"Feature"},
	{"geometry":{"coordinates":[7.52496,47.084292],"type":"Point"},"properties":{"osm_id":"7297268449","tag":{"amenity":"recycling","recycling:clothes":"yes","recycling_type":"container"}},"type":"Feature"}
]
}
