{
"type": "FeatureCollection",
"features": [
	{"geometry":{"coordinates":[7.483292,46.955741],"type":"Point"},"properties":{"osm_id":"452940481","tag":{"amenity":"recycling","location":"overground","recycling:cans":"yes","recycling:glass":"yes","recycling:glass_bottles":"yes","recycling_type":"container"}},"type":"Feature"},
	{"geometry":{"coordinates":[7.481154,46.939067],"type":"Point"},"properties":{"osm_id":"537538873","tag":{"amenity":"recycling","recycling:cans":"yes","recycling:clothes":"yes","recycling:glass":"yes"}},"type":"Feature"},
	{"geometry":{"coordinates":[7.473269,46.94495],"type":"Point"},"properties":{"osm_id":"538193875","tag":{"amenity":"recycling","location":"overground","opening_hours":"Mo-Sa 07:00-20:00; Su,PH off","operator":"Stadt Bern","operator:type":"public","recycling:aluminium":"yes","recycling:cans":"yes","recycling:glass_bottles":"yes","recycling:small_metal":"yes","recycling_type":"container"}},"type":"Feature"},
	{"geometry":{"coordinates":[7.480473,46.955214],"type":"Point"},"properties":{"osm_id":"663653129","tag":{"amenity":"recycling","opening_hours":"Mo-Sa 07:00-20:00; Su,PH closed","operator":"Gemeinde Ostermundigen","recycling:glass_bottles":"yes","recycling_type":"container"}},"type":"Feature"},
	{"geometry":{"coordinates":[7.503076,46.925899],"type":"Point"},"properties":{"osm_id":"932195672","tag":{"amenity":"recycling","recycling:electronics":"yes","recycling:nespresso":"yes"}},"type":"Feature"},
	{"geometry":{"coordinates":[7.475278,46.932983],"type":"Point"},"properties":{"osm_id":"1218735269","tag":{"amenity":"waste_basket","brand":"Robidog","vending":"excrement_bags"}},"type":"Feature"},
	{"geometry":{"coordinates":[7.472995,46.930281],"type":"Point"},"properties":{"osm_id":"1218735274","tag":{"amenity":"waste_basket"}},"type":"Feature"},
	{"geometry":{"coordinates":[7.477951,46.929955],"type":"Point"},"properties":{"osm_id":"1218735283","tag":{"amenity":"waste_basket"}},"type":"Feature"},
	{"geometry":{"coordinates":[7.475125,46.934356],"type":"Point"},"properties":{"osm_id":"1219387126","tag":{"amenity":"waste_basket","brand":"Robidog","vending":"excrement_bags"}},"type":"Feature"},
	{"geometry":{"coordinates":[7.477788,46.930867],"type":"Point"},"properties":{"osm_id":"1219387130","tag":{"amenity":"waste_basket","brand":"Robidog","vending":"excrement_bags"}},"type":"Feature"},
	{"geometry":{"coordinates":[7.497549,46.974088],"type":"Point"},"properties":{"osm_id":"2004126796","tag":{"amenity":"recycling","recycling:batteries":"yes","recycling:cans":"yes","recycling:clothes":"yes","recycling:glass":"yes","recycling:glass_bottles":"yes","recycling_type":"container"}},"type":"Feature"},
	{"geometry":{"coordinates":[7.4975,46.969868],"type":"Point"},"properties":{"osm_id":"2101701699","tag":{"amenity":"waste_basket"}},"type":"Feature"},
	{"geometry":{"coordinates":[7.498172,46.970105],"type":"Point"},"properties":{"osm_id":"2101701705","tag":{"amenity":"waste_basket"}},"type":"Feature"},
	{"geometry":{"coordinates":[7.503814,46.933044],"type":"Point"},"properties":{"osm_id":"2122420751","tag":{"addr:city":"G\u00c3\u00bcmligen","addr:country":"CH","addr:postcode":"3073","amenity":"recycling"}},"type":"Feature"},
	{"geometry":{"coordinates":[7.496271,46.970599],"type":"Point"},"properties":{"osm_id":"2135706090","tag":{"amenity":"waste_basket"}},"type":"Feature"},
	{"geometry":{"coordinates":[7.476752,46.936934],"type":"Point"},"properties":{"osm_id":"2209851081","tag":{"amenity":"recycling","recycling:aluminium":"yes","recycling:cans":"yes","recycling:glass_bottles":"yes","recycling_type":"container"}},"type":"Feature"},
	{"geometry":{"coordinates":[7.477634,46.946073],"type":"Point"},"properties":{"osm_id":"2538064100","tag":{"amenity":"waste_basket"}},"type":"Feature"},
	{"geometry":{"coordinates":[7.474631,46.947433],"type":"Point"},"properties":{"osm_id":"2562160390","tag":{"amenity":"waste_basket"}},"type":"Feature"},
	{"geometry":{"coordinates":[7.475087,46.947255],"type":"Point"},"properties":{"osm_id":"2562160391","tag":{"amenity":"waste_basket"}},"type":"Feature"},
	{"geometry":{"coordinates":[7.473492,46.949562],"type":"Point"},"properties":{"osm_id":"2574587127","tag":{"amenity":"waste_basket"}},"type":"Feature"},
	{"geometry":{"coordinates":[7.474553,46.947005],"type":"Point"},"properties":{"osm_id":"2578812573","tag":{"amenity":"waste_basket"}},"type":"Feature"},
	{"geometry":{"coordinates":[7.476038,46.947818],"type":"Point"},"properties":{"osm_id":"2578814639","tag":{"amenity":"waste_basket"}},"type":"Feature"},
	{"geometry":{"coordinates":[7.472771,46.950726],"type":"Point"},"properties":{"osm_id":"2578825067","tag":{"amenity":"waste_basket"}},"type":"Feature"},
	{"geometry":{"coordinates":[7.487145,46.930208],"type":"Point"},"properties":{"osm_id":"2589522378","tag":{"amenity":"recycling","recycling:cans":"no","recycling:clothes":"yes","recycling:glass":"yes","recycling:glass_bottles":"yes","recycling:paper":"no","recycling:plastic":"no"}},"type":"Feature"},
	{"geometry":{"coordinates":[7.478605,46.936071],"type":"Point"},"properties":{"osm_id":"2726883226","tag":{"amenity":"waste_basket"}},"type":"Feature"},
	{"geometry":{"coordinates":[7.479752,46.934003],"type":"Point"},"properties":{"osm_id":"2729269890","tag":{"amenity":"waste_basket"}},"type":"Feature"},
	{"geometry":{"coordinates":[7.47177,46.945061],"type":"Point"},"properties":{"osm_id":"3001771738","tag":{"amenity":"waste_basket"}},"type":"Feature"},
	{"geometry":{"coordinates":[7.480702,46.955398],"type":"Point"},"properties":{"osm_id":"3204461763","tag":{"amenity":"waste_basket"}},"type":"Feature"},
	{"geometry":{"coordinates":[7.524698,46.958246],"type":"Point"},"properties":{"osm_id":"3210751252","tag":{"amenity":"recycling"}},"type":"Feature"},
	{"geometry":{"coordinates":[7.472622,46.955938],"type":"Point"},"properties":{"name":"SPAETI Recycling","osm_id":"3323162327","tag":{"amenity":"recycling","contact:addr":"Libellenweg 13, 3006 Bern","contact:email":"info@spaeti-recycling.ch","contact:fax":"+41 31 3367374","contact:phone":"+41 31 3367373","opening_hours":"Mo-Fr 07:15-11:45, 13:00-16:45; Sa-Su off","operator":"H. Spaeti AG","recycling:aluminium":"yes","recycling:cans":"yes","recycling:computers":"yes","recycling:electrical_items":"yes","recycling:fluorescent_tubes":"yes","recycling:metal":"yes","recycling:mobile_phones":"yes","recycling:scrap_metal":"yes","recycling:sheet_metal":"yes","recycling:tv_monitor":"yes","recycling:white_goods":"yes","recycling_type":"centre","website":"http://www.spaeti-recycling.ch"}},"type":"Feature"},
	{"geometry":{"coordinates":[7.471182,46.955341],"type":"Point"},"properties":{"name":"SALVI Recycling","osm_id":"3323652873","tag":{"amenity":"recycling","contact:addr":"Libellenweg 7, 3006 Bern","contact:email":"info@salviag.ch","contact:fax":"+41 31 3314553","contact:phone":"+41 31 3318316","opening_hours":"Mo-Th 07:00-11:30, 13:00-17:00; Fr 07:00-11:30, 13:00-16:00; Sa-Su off","operator":"LUIGI SALVI Recycling AG","recycling_type":"centre","website":"http://www.pneu-egger.ch/de/filialen/detail/filiale_bern/"}},"type":"Feature"},
	{"geometry":{"coordinates":[7.474763,46.971521],"type":"Point"},"properties":{"name":"Sammelstelle Obereyfeldweg","osm_id":"3389530549","tag":{"amenity":"recycling","location":"overground","opening_hours":"Mo-Sa 07:00-12:00,13:00-20:00; Su,PH closed","operator":"Gemeinde Ittigen","operator:type":"government","recycling:aluminium":"yes","recycling:cans":"yes","recycling:glass_bottles":"yes","recycling_type":"container"}},"type":"Feature"},
	{"geometry":{"coordinates":[7.473681,46.944537],"type":"Point"},"properties":{"name":"Robidog","osm_id":"3585398694","tag":{"amenity":"waste_basket"}},"type":"Feature"},
	{"geometry":{"coordinates":[7.473615,46.947614],"type":"Point"},"properties":{"osm_id":"3585425500","tag":{"amenity":"waste_basket"}},"type":"Feature"},
	{"geometry":{"coordinates":[7.490488,46.9227],"type":"Point"},"properties":{"osm_id":"3774881024","tag":{"amenity":"waste_basket"}},"type":"Feature"},
	{"geometry":{"coordinates":[7.484359,46.974354],"type":"Point"},"properties":{"name":"Sammelstelle Talweg / Talgut-Zentrum","osm_id":"3899574146","tag":{"amenity":"recycling","opening_hours":"Mo-Sa 07:00-12:00, 13:00-20:00","recycling:cans":"yes","recycling:clothes":"yes","recycling:glass_bottles":"yes","recycling_type":"container"}},"type":"Feature"},
	{"geometry":{"coordinates":[7.480329,46.973196],"type":"Point"},"properties":{"osm_id":"3899890203","tag":{"amenity":"recycling","recycling:cans":"yes","recycling:clothes":"yes","recycling:cooking_oil":"yes","recycling:glass":"yes","recycling:glass_bottles":"yes","recycling:paper":"no","recycling:plastic":"no","recycling_type":"container"}},"type":"Feature"},
	{"geometry":{"coordinates":[7.472358,46.966792],"type":"Point"},"properties":{"name":"Recycling Sammelstelle","osm_id":"5036752448","tag":{"amenity":"recycling","recycling:aluminium":"yes","recycling:batteries":"yes","recycling:cans":"yes","recycling:cardboard":"yes","recycling:glass":"yes","recycling:glass_bottles":"yes","recycling:paper":"yes","recycling:plastic":"yes","recycling:plastic_bottles":"yes","recycling:plastic_packaging":"yes","recycling:scrap_metal":"yes","recycling_type":"container"}},"type":"Feature"},
	{"geometry":{"coordinates":[7.501054,46.932781],"type":"Point"},"properties":{"osm_id":"5129866722","tag":{"amenity":"waste_basket"}},"type":"Feature"},
	{"geometry":{"coordinates":[7.541666,46.930159],"type":"Point"},"properties":{"osm_id":"5600574170","tag":{"amenity":"waste_basket"}},"type":"Feature"},
	{"geometry":{"coordinates":[7.489466,46.939942],"type":"Point"},"properties":{"osm_id":"5667830999","tag":{"amenity":"waste_basket"}},"type":"Feature"},
	{"geometry":{"coordinates":[7.471482,46.956877],"type":"Point"},"properties":{"osm_id":"5672054637","tag":{"amenity":"waste_basket"}},"type":"Feature"},
	{"geometry":{"coordinates":[7.480871,46.940398],"type":"Point"},"properties":{"osm_id":"5693140656","tag":{"amenity":"waste_basket"}},"type":"Feature"},
	{"geometry":{"coordinates":[7.505681,46.934202],"type":"Point"},"properties":{"osm_id":"6243078376","tag":{"amenity":"waste_basket"}},"type":"Feature"},
	{"geometry":{"coordinates":[7.493762,46.95463],"type":"Point"},"properties":{"osm_id":"6254290058","tag":{"amenity":"waste_basket"}},"type":"Feature"},
	{"geometry":{"coordinates":[7.492935,46.954567],"type":"Point"},"properties":{"osm_id":"6254290060","tag":{"amenity":"waste_disposal"}},"type":"Feature"},
	{"geometry":{"coordinates":[7.492262,46.954311],"type":"Point"},"properties":{"osm_id":"6254290061","tag":{"amenity":"waste_disposal"}},"type":"Feature"},
	{"geometry":{"coordinates":[7.483934,46.95533],"type":"Point"},"properties":{"osm_id":"6254290062","tag":{"amenity":"recycling","recycling:coffee_capsules":"yes","recycling_type":"container"}},"type":"Feature"},
	{"geometry":{"coordinates":[7.49554,46.957078],"type":"Point"},"properties":{"osm_id":"6254297762","tag":{"amenity":"recycling","opening_hours":"Mo-Sa 07:00-20:00; Su,PH closed","operator":"Gemeinde Ostermundigen","recycling:aluminium":"yes","recycling:cans":"yes","recycling:glass_bottles":"yes","recycling_type":"container"}},"type":"Feature"},
	{"geometry":{"coordinates":[7.495549,46.956923],"type":"Point"},"properties":{"osm_id":"6254297763","tag":{"amenity":"recycling","opening_hours":"24/7","operator":"Migros","recycling:batteries":"yes","recycling:cds":"yes","recycling:coffee_capsules":"yes","recycling:cream_chargers":"yes","recycling:pet_drink_bottles":"yes","recycling:plastic_bottles":"yes","recycling:water_filter_cartridges":"yes","recycling_type":"container"}},"type":"Feature"},
	{"geometry":{"coordinates":[7.483866,46.955473],"type":"Point"},"properties":{"osm_id":"6254327441","tag":{"amenity":"recycling","recycling:batteries":"yes","recycling_type":"container"}},"type":"Feature"},
	{"geometry":{"coordinates":[7.493015,46.954441],"type":"Point"},"properties":{"osm_id":"6268577556","tag":{"amenity":"recycling","operator":"Texaid","recycling:clothes":"yes","recycling_type":"container"}},"type":"Feature"},
	{"geometry":{"coordinates":[7.483325,46.955655],"type":"Point"},"properties":{"osm_id":"6268577557","tag":{"amenity":"recycling","recycling:clothes":"yes","recycling_type":"container"}},"type":"Feature"},
	{"geometry":{"coordinates":[7.496826,46.957858],"type":"Point"},"properties":{"osm_id":"6268595564","tag":{"amenity":"waste_basket"}},"type":"Feature"},
	{"geometry":{"coordinates":[7.477113,46.931728],"type":"Point"},"properties":{"osm_id":"6312699589","tag":{"amenity":"waste_basket","vending":"excrement_bags"}},"type":"Feature"},
	{"geometry":{"coordinates":[7.477454,46.931243],"type":"Point"},"properties":{"osm_id":"6312699605","tag":{"amenity":"waste_basket"}},"type":"Feature"},
	{"geometry":{"coordinates":[7.473817,46.932669],"type":"Point"},"properties":{"osm_id":"6314569344","tag":{"amenity":"waste_basket"}},"type":"Feature"},
	{"geometry":{"coordinates":[7.490831,46.954307],"type":"Point"},"properties":{"osm_id":"6315651183","tag":{"amenity":"recycling","recycling:glass_bottles":"yes","recycling_type":"container"}},"type":"Feature"},
	{"geometry":{"coordinates":[7.490798,46.954242],"type":"Point"},"properties":{"osm_id":"6315651184","tag":{"amenity":"recycling","recycling:cardboard":"yes","recycling:green_waste":"yes","recycling:magazines":"yes","recycling:newspaper":"yes","recycling:newspapers":"yes","recycling:paper":"yes","recycling_type":"container"}},"type":"Feature"},
	{"geometry":{"coordinates":[7.523795,46.955088],"type":"Point"},"properties":{"osm_id":"6401288220","tag":{"amenity":"waste_basket","vending":"excrement_bags","waste":"trash"}},"type":"Feature"},
	{"geometry":{"coordinates":[7.523533,46.956782],"type":"Point"},"properties":{"osm_id":"6401288223","tag":{"amenity":"waste_basket","vending":"excrement_bags","waste":"trash"}},"type":"Feature"},
	{"geometry":{"coordinates":[7.515472,46.956039],"type":"Point"},"properties":{"osm_id":"6401288224","tag":{"amenity":"waste_basket","vending":"excrement_bags","waste":"trash"}},"type":"Feature"},
	{"geometry":{"coordinates":[7.505653,46.934322],"type":"Point"},"properties":{"osm_id":"6402127437","tag":{"amenity":"recycling","operator":"Texaid","recycling:clothes":"yes","recycling_type":"container"}},"type":"Feature"},
	{"geometry":{"coordinates":[7.472342,46.932318],"type":"Point"},"properties":{"osm_id":"6554865025","tag":{"amenity":"waste_basket"}},"type":"Feature"},
	{"geometry":{"coordinates":[7.471744,46.932334],"type":"Point"},"properties":{"osm_id":"6554880043","tag":{"amenity":"waste_basket"}},"type":"Feature"},
	{"geometry":{"coordinates":[7.472784,46.932623],"type":"Point"},"properties":{"osm_id":"6915686592","tag":{"amenity":"waste_basket"}},"type":"Feature"},
	{"geometry":{"coordinates":[7.483704,46.973475],"type":"Point"},"properties":{"osm_id":"7136267426","tag":{"amenity":"recycling","recycling_type":"container"}},"type":"Feature"},
	{"geometry":{"coordinates":[7.483944,46.973475],"type":"Point"},"properties":{"osm_id":"7136267429","tag":{"amenity":"recycling","recycling_type":"container"}},"type":"Feature"},
	{"geometry":{"coordinates":[7.480304,46.971377],"type":"Point"},"properties":{"osm_id":"7143020639","tag":{"amenity":"waste_basket","brand":"Robidog","vending":"excrement_bags"}},"type":"Feature"},
	{"geometry":{"coordinates":[7.476744,46.969629],"type":"Point"},"properties":{"osm_id":"7143020640","tag":{"amenity":"waste_basket","brand":"Robidog","vending":"excrement_bags"}},"type":"Feature"},
	{"geometry":{"coordinates":[7.474802,46.969529],"type":"Point"},"properties":{"osm_id":"7143020641","tag":{"amenity":"waste_basket"}},"type":"Feature"},
	{"geometry":{"coordinates":[7.484764,46.972514],"type":"Point"},"properties":{"osm_id":"7147242328","tag":{"amenity":"waste_basket","vending":"excrement_bags"}},"type":"Feature"},
	{"geometry":{"coordinates":[7.475628,46.956829],"type":"Point"},"properties":{"osm_id":"7159914927","tag":{"amenity":"recycling","operator":"Texaid","recycling:clothes":"yes","recycling_type":"container"}},"type":"Feature"},
	{"geometry":{"coordinates":[7.481176,46.956537],"type":"Point"},"properties":{"osm_id":"7160720984","tag":{"amenity":"recycling","operator":"Texaid","recycling:clothes":"yes","recycling_type":"container"}},"type":"Feature"},
	{"geometry":{"coordinates":[7.53664,46.977573],"type":"Point"},"properties":{"osm_id":"8119120424","tag":{"amenity":"waste_basket"}},"type":"Feature"},
	{"geometry":{"coordinates":[7.542904,46.971608],"type":"Point"},"properties":{"osm_id":"8119120437","tag":{"amenity":"waste_basket"}},"type":"Feature"},
	{"geometry":{"coordinates":[7.542391,46.971521],"type":"Point"},"properties":{"osm_id":"8119120439","tag":{"amenity":"waste_basket"}},"type":"Feature"},
	{"geometry":{"coordinates":[7.541231,46.971438],"type":"Point"},"properties":{"osm_id":"8119120441","tag":{"amenity":"waste_basket"}},"type":"Feature"},
	{"geometry":{"coordinates":[7.540798,46.971541],"type":"Point"},"properties":{"osm_id":"8119120443","tag":{"amenity":"waste_basket"}},"type":"Feature"},
	{"geometry":{"coordinates":[7.531939,46.967642],"type":"Point"},"properties":{"osm_id":"8119120461","tag":{"amenity":"recycling","recycling:clothes":"yes","recycling:glass_bottles":"yes","recycling_type":"container"}},"type":"Feature"},
	{"geometry":{"coordinates":[7.471762,46.940383],"type":"Point"},"properties":{"osm_id":"8201177568","tag":{"amenity":"recycling","operator":"Madame Frigo","recycling:food":"yes","website":"https://www.madamefrigo.ch/de/standorte/"}},"type":"Feature"},
	{"geometry":{"coordinates":[7.533966,46.929998],"type":"Point"},"properties":{"osm_id":"8867484892","tag":{"amenity":"waste_basket","waste":"trash"}},"type":"Feature"},
	{"geometry":{"coordinates":[7.477897,46.959298],"type":"Point"},"properties":{"osm_id":"8901978182","tag":{"amenity":"waste_basket"}},"type":"Feature"},
	{"geometry":{"coordinates":[7.477919,46.959401],"type":"Point"},"properties":{"osm_id":"8901978183","tag":{"amenity":"waste_basket"}},"type":"Feature"},
	{"geometry":{"coordinates":[7.474019,46.944091],"type":"Point"},"properties":{"osm_id":"8986592540","tag":{"amenity":"recycling","operator":"Contex","recycling:clothes":"yes","recycling_type":"container"}},"type":"Feature"},
	{"geometry":{"coordinates":[7.474778,46.971595],"type":"Point"},"properties":{"osm_id":"9067920966","tag":{"amenity":"recycling","operator":"Texaid","operator:type":"private","recycling:clothes":"yes","recycling_type":"container"}},"type":"Feature"},
	{"geometry":{"coordinates":[7.500243,46.95944],"type":"Point"},"properties":{"osm_id":"9124946769","tag":{"amenity":"recycling","opening_hours":"Mo-Sa 07:00-20:00; Su,PH closed","operator":"Gemeinde Ostermundigen","recycling:glass_bottles":"yes","recycling_type":"container"}},"type":"Feature"},
	{"geometry":{"coordinates":[7.485083,46.950477],"type":"Point"},"properties":{"osm_id":"9130442018","tag":{"amenity":"recycling","recycling:clothes":"yes","recycling_type":"container"}},"type":"Feature"},
	{"geometry":{"coordinates":[7.483352,46.947771],"type":"Point"},"properties":{"osm_id":"9132932763","tag":{"amenity":"recycling","opening_hours":"Mo-Sa 07:00-20:00; Su,PH closed","operator":"Gemeinde Ostermundigen","recycling:glass_bottles":"yes","recycling_type":"container"}},"type":"Feature"},
	{"geometry":{"coordinates":[7.497115,46.970167],"type":"Point"},"properties":{"osm_id":"9168380931","tag":{"amenity":"recycling","operator":"Landi","recycling:pet_drink_bottles":"yes","recycling_type":"container"}},"type":"Feature"}
]
}
