{
"type": "FeatureCollection",
"features": [
	{"geometry":{"coordinates":[7.499929,46.109291],"type":"Point"},"properties":{"osm_id":"1389366858","tag":{"amenity":"recycling"}},"type":"Feature"},
	{"geometry":{"coordinates":[7.508575,46.080944],"type":"Point"},"properties":{"osm_id":"1392528905","tag":{"amenity":"recycling","location":"underground","recycling_type":"container"}},"type":"Feature"},
	{"geometry":{"coordinates":[7.514319,46.103001],"type":"Point"},"properties":{"osm_id":"4944193516","tag":{"amenity":"recycling","recycling:paper":"yes","recycling:pet":"yes","recycling_type":"container"}},"type":"Feature"},
	{"geometry":{"coordinates":[7.513097,46.081042],"type":"Point"},"properties":{"name":"Centre de tri - L\u00c3\u00b9 Moulins","osm_id":"7375434512","tag":{"amenity":"recycling","opening_hours":"We 09:00 - 12:00, 17:00-19:30; Sa 10:00 - 12:00, 17:00 - 19:30","recycling_type":"centre"}},"type":"Feature"},
	{"geometry":{"coordinates":[7.518156,46.087527],"type":"Point"},"properties":{"osm_id":"9099044159","tag":{"amenity":"waste_disposal","waste":"trash"}},"type":"Feature"}
]
}
