{
"type": "FeatureCollection",
"features": [
	{"geometry":{"coordinates":[-77.171559,39.122745],"type":"Point"},"properties":{"name":"Shady Grove Recycling Center","osm_id":"599348960","tag":{"amenity":"recycling"}},"type":"Feature"},
	{"geometry":{"coordinates":[-77.171693,39.12057],"type":"Point"},"properties":{"osm_id":"599348987","tag":{"entrance":"yes"}},"type":"Feature"},
	{"geometry":{"coordinates":[-77.172635,39.121069],"type":"Point"},"properties":{"osm_id":"803789621","tag":{"entrance":"yes"}},"type":"Feature"},
	{"geometry":{"coordinates":[-77.172477,39.121228],"type":"Point"},"properties":{"osm_id":"803789656","tag":{"entrance":"yes"}},"type":"Feature"},
	{"geometry":{"coordinates":[-77.211544,39.112926],"type":"Point"},"properties":{"osm_id":"2147926629","tag":{"amenity":"waste_basket","leisure":"dog_park"}},"type":"Feature"},
	{"geometry":{"coordinates":[-77.232141,39.115129],"type":"Point"},"properties":{"osm_id":"3657815451","tag":{"amenity":"waste_basket"}},"type":"Feature"},
	{"geometry":{"coordinates":[-77.232056,39.118709],"type":"Point"},"properties":{"osm_id":"3657815452","tag":{"amenity":"waste_basket"}},"type":"Feature"},
	{"geometry":{"coordinates":[-77.231275,39.118748],"type":"Point"},"properties":{"osm_id":"3657815453","tag":{"amenity":"waste_basket"}},"type":"Feature"},
	{"geometry":{"coordinates":[-77.22967,39.115871],"type":"Point"},"properties":{"osm_id":"3657840645","tag":{"amenity":"waste_basket"}},"type":"Feature"},
	{"geometry":{"coordinates":[-77.227278,39.116814],"type":"Point"},"properties":{"osm_id":"3657840648","tag":{"amenity":"waste_basket"}},"type":"Feature"},
	{"geometry":{"coordinates":[-77.228447,39.117449],"type":"Point"},"properties":{"osm_id":"3657840649","tag":{"amenity":"waste_basket"}},"type":"Feature"},
	{"geometry":{"coordinates":[-77.228337,39.117962],"type":"Point"},"properties":{"osm_id":"3657840650","tag":{"amenity":"waste_basket"}},"type":"Feature"},
	{"geometry":{"coordinates":[-77.233893,39.11604],"type":"Point"},"properties":{"osm_id":"3657847875","tag":{"amenity":"waste_basket"}},"type":"Feature"},
	{"geometry":{"coordinates":[-77.235068,39.116278],"type":"Point"},"properties":{"osm_id":"3657847877","tag":{"amenity":"waste_basket"}},"type":"Feature"},
	{"geometry":{"coordinates":[-77.230984,39.117017],"type":"Point"},"properties":{"osm_id":"3662335533","tag":{"amenity":"waste_basket"}},"type":"Feature"}
]
}
