{
"type": "FeatureCollection",
"features": [
	{"geometry":{"coordinates":[-77.172201,38.835152],"type":"Point"},"properties":{"osm_id":"4638725931","tag":{"amenity":"waste_basket"}},"type":"Feature"},
	{"geometry":{"coordinates":[-77.191935,38.843398],"type":"Point"},"properties":{"osm_id":"4638975215","tag":{"amenity":"waste_basket"}},"type":"Feature"},
	{"geometry":{"coordinates":[-77.190809,38.843595],"type":"Point"},"properties":{"osm_id":"4638975216","tag":{"amenity":"waste_basket"}},"type":"Feature"},
	{"geometry":{"coordinates":[-77.242525,38.839534],"type":"Point"},"properties":{"osm_id":"4639082443","tag":{"amenity":"waste_disposal"}},"type":"Feature"},
	{"geometry":{"coordinates":[-77.211204,38.849068],"type":"Point"},"properties":{"osm_id":"4751261385","tag":{"amenity":"waste_disposal"}},"type":"Feature"},
	{"geometry":{"coordinates":[-77.228276,38.853401],"type":"Point"},"properties":{"osm_id":"4751339456","tag":{"amenity":"waste_basket"}},"type":"Feature"},
	{"geometry":{"coordinates":[-77.174727,38.824846],"type":"Point"},"properties":{"osm_id":"4787248568","tag":{"amenity":"waste_disposal"}},"type":"Feature"},
	{"geometry":{"coordinates":[-77.189552,38.829237],"type":"Point"},"properties":{"osm_id":"4792522477","tag":{"amenity":"waste_basket"}},"type":"Feature"},
	{"geometry":{"coordinates":[-77.20013,38.828981],"type":"Point"},"properties":{"osm_id":"4792526631","tag":{"amenity":"waste_disposal"}},"type":"Feature"},
	{"geometry":{"coordinates":[-77.175802,38.829716],"type":"Point"},"properties":{"osm_id":"4806388780","tag":{"amenity":"waste_basket"}},"type":"Feature"},
	{"geometry":{"coordinates":[-77.173503,38.835541],"type":"Point"},"properties":{"osm_id":"4879464680","tag":{"amenity":"recycling","recycling_type":"container"}},"type":"Feature"},
	{"geometry":{"coordinates":[-77.17351,38.835575],"type":"Point"},"properties":{"osm_id":"4879464681","tag":{"amenity":"waste_basket"}},"type":"Feature"},
	{"geometry":{"coordinates":[-77.173556,38.835613],"type":"Point"},"properties":{"osm_id":"4879464682","tag":{"amenity":"waste_basket"}},"type":"Feature"},
	{"geometry":{"coordinates":[-77.176493,38.834892],"type":"Point"},"properties":{"osm_id":"4879475248","tag":{"amenity":"waste_basket"}},"type":"Feature"},
	{"geometry":{"coordinates":[-77.174836,38.834592],"type":"Point"},"properties":{"osm_id":"4879475250","tag":{"amenity":"waste_basket"}},"type":"Feature"},
	{"geometry":{"coordinates":[-77.174796,38.834552],"type":"Point"},"properties":{"osm_id":"4879475251","tag":{"amenity":"waste_basket"}},"type":"Feature"},
	{"geometry":{"coordinates":[-77.174807,38.834508],"type":"Point"},"properties":{"osm_id":"4879475252","tag":{"amenity":"waste_basket"}},"type":"Feature"},
	{"geometry":{"coordinates":[-77.173724,38.828634],"type":"Point"},"properties":{"osm_id":"4879476012","tag":{"amenity":"waste_basket"}},"type":"Feature"},
	{"geometry":{"coordinates":[-77.173782,38.828697],"type":"Point"},"properties":{"osm_id":"4879476013","tag":{"amenity":"waste_basket"}},"type":"Feature"},
	{"geometry":{"coordinates":[-77.173222,38.824676],"type":"Point"},"properties":{"osm_id":"4881071379","tag":{"amenity":"waste_disposal"}},"type":"Feature"},
	{"geometry":{"coordinates":[-77.191333,38.831838],"type":"Point"},"properties":{"osm_id":"4881081570","tag":{"amenity":"waste_disposal"}},"type":"Feature"},
	{"geometry":{"coordinates":[-77.194322,38.831115],"type":"Point"},"properties":{"osm_id":"4881081573","tag":{"amenity":"waste_basket"}},"type":"Feature"},
	{"geometry":{"coordinates":[-77.195811,38.830566],"type":"Point"},"properties":{"osm_id":"4881081582","tag":{"amenity":"waste_basket"}},"type":"Feature"},
	{"geometry":{"coordinates":[-77.196208,38.830574],"type":"Point"},"properties":{"osm_id":"4881083881","tag":{"amenity":"waste_basket"}},"type":"Feature"},
	{"geometry":{"coordinates":[-77.173719,38.834528],"type":"Point"},"properties":{"osm_id":"4937205758","tag":{"amenity":"waste_basket"}},"type":"Feature"},
	{"geometry":{"coordinates":[-77.174955,38.83342],"type":"Point"},"properties":{"osm_id":"4949896240","tag":{"amenity":"waste_basket"}},"type":"Feature"},
	{"geometry":{"coordinates":[-77.176497,38.83344],"type":"Point"},"properties":{"osm_id":"5148676295","tag":{"amenity":"waste_basket"}},"type":"Feature"},
	{"geometry":{"coordinates":[-77.176278,38.833388],"type":"Point"},"properties":{"osm_id":"5148676300","tag":{"amenity":"waste_basket"}},"type":"Feature"},
	{"geometry":{"coordinates":[-77.186576,38.834234],"type":"Point"},"properties":{"osm_id":"5172195077","tag":{"amenity":"waste_basket"}},"type":"Feature"},
	{"geometry":{"coordinates":[-77.228234,38.854039],"type":"Point"},"properties":{"osm_id":"5175792337","tag":{"amenity":"waste_basket"}},"type":"Feature"},
	{"geometry":{"coordinates":[-77.228604,38.853301],"type":"Point"},"properties":{"osm_id":"5175797524","tag":{"amenity":"waste_basket"}},"type":"Feature"},
	{"geometry":{"coordinates":[-77.228624,38.853303],"type":"Point"},"properties":{"osm_id":"5175797525","tag":{"amenity":"waste_basket"}},"type":"Feature"},
	{"geometry":{"coordinates":[-77.174287,38.835474],"type":"Point"},"properties":{"osm_id":"5256908127","tag":{"amenity":"waste_basket"}},"type":"Feature"},
	{"geometry":{"coordinates":[-77.236125,38.836746],"type":"Point"},"properties":{"osm_id":"5365225213","tag":{"amenity":"waste_disposal"}},"type":"Feature"},
	{"geometry":{"coordinates":[-77.236348,38.865849],"type":"Point"},"properties":{"osm_id":"5554955626","tag":{"amenity":"waste_basket","waste":"dog_excrement"}},"type":"Feature"},
	{"geometry":{"coordinates":[-77.212448,38.824544],"type":"Point"},"properties":{"osm_id":"5599508548","tag":{"amenity":"waste_basket"}},"type":"Feature"},
	{"geometry":{"coordinates":[-77.212387,38.82475],"type":"Point"},"properties":{"osm_id":"5599508550","tag":{"amenity":"waste_basket"}},"type":"Feature"},
	{"geometry":{"coordinates":[-77.212014,38.824677],"type":"Point"},"properties":{"osm_id":"5599508555","tag":{"amenity":"waste_basket"}},"type":"Feature"},
	{"geometry":{"coordinates":[-77.211218,38.824582],"type":"Point"},"properties":{"osm_id":"5599508568","tag":{"amenity":"waste_basket"}},"type":"Feature"},
	{"geometry":{"coordinates":[-77.211044,38.824358],"type":"Point"},"properties":{"osm_id":"5599508569","tag":{"amenity":"waste_basket"}},"type":"Feature"},
	{"geometry":{"coordinates":[-77.211189,38.823847],"type":"Point"},"properties":{"osm_id":"5599508575","tag":{"amenity":"waste_basket"}},"type":"Feature"},
	{"geometry":{"coordinates":[-77.210889,38.824426],"type":"Point"},"properties":{"osm_id":"5599508613","tag":{"amenity":"waste_basket"}},"type":"Feature"},
	{"geometry":{"coordinates":[-77.230154,38.842483],"type":"Point"},"properties":{"osm_id":"5642904880","tag":{"amenity":"waste_basket"}},"type":"Feature"},
	{"geometry":{"coordinates":[-77.231107,38.869684],"type":"Point"},"properties":{"osm_id":"5798678058","tag":{"amenity":"waste_basket","waste":"trash"}},"type":"Feature"},
	{"geometry":{"coordinates":[-77.231484,38.869556],"type":"Point"},"properties":{"osm_id":"5802435237","tag":{"amenity":"waste_basket","waste":"trash"}},"type":"Feature"},
	{"geometry":{"coordinates":[-77.23117,38.869499],"type":"Point"},"properties":{"osm_id":"5806724449","tag":{"amenity":"waste_basket","waste":"trash"}},"type":"Feature"},
	{"geometry":{"coordinates":[-77.228027,38.882158],"type":"Point"},"properties":{"osm_id":"6013957497","tag":{"amenity":"waste_basket","waste":"trash"}},"type":"Feature"},
	{"geometry":{"coordinates":[-77.22795,38.882247],"type":"Point"},"properties":{"osm_id":"6013957499","tag":{"addr:street":"Gallows Road","amenity":"waste_basket","waste":"trash"}},"type":"Feature"},
	{"geometry":{"coordinates":[-77.253003,38.853497],"type":"Point"},"properties":{"osm_id":"6833715914","tag":{"amenity":"waste_basket"}},"type":"Feature"},
	{"geometry":{"coordinates":[-77.2529,38.853183],"type":"Point"},"properties":{"osm_id":"6833715922","tag":{"amenity":"waste_basket"}},"type":"Feature"},
	{"geometry":{"coordinates":[-77.242768,38.888717],"type":"Point"},"properties":{"osm_id":"7913212506","tag":{"amenity":"waste_basket"}},"type":"Feature"}
]
}
