{
"type": "FeatureCollection",
"features": [
	{"geometry":{"coordinates":[7.949438,53.388812],"type":"Point"},"properties":{"osm_id":"1808642385","tag":{"amenity":"waste_basket","building":"yes","layer":"3"}},"type":"Feature"},
	{"geometry":{"coordinates":[7.949793,53.388861],"type":"Point"},"properties":{"osm_id":"1808643623","tag":{"amenity":"waste_basket"}},"type":"Feature"},
	{"geometry":{"coordinates":[7.949748,53.389064],"type":"Point"},"properties":{"osm_id":"1808710928","tag":{"amenity":"waste_basket","layer":"3"}},"type":"Feature"},
	{"geometry":{"coordinates":[7.975405,53.408727],"type":"Point"},"properties":{"osm_id":"3104506939","tag":{"amenity":"recycling","recycling:clothes":"yes","recycling:glass":"yes","recycling_type":"container"}},"type":"Feature"},
	{"geometry":{"coordinates":[7.951868,53.386594],"type":"Point"},"properties":{"osm_id":"4483952285","tag":{"amenity":"recycling","recycling:clothes":"yes","recycling:glass":"yes","recycling:glass_bottles":"yes","recycling:shoes":"yes","recycling_type":"container"}},"type":"Feature"}
]
}
