{
"type": "FeatureCollection",
"features": [
	{"geometry":{"coordinates":[7.941428,53.144643],"type":"Point"},"properties":{"osm_id":"292856635","tag":{"amenity":"recycling","recycling:glass":"yes","recycling_type":"container"}},"type":"Feature"},
	{"geometry":{"coordinates":[7.990751,53.159914],"type":"Point"},"properties":{"osm_id":"295183360","tag":{"amenity":"recycling","recycling_type":"container"}},"type":"Feature"},
	{"geometry":{"coordinates":[7.923216,53.123866],"type":"Point"},"properties":{"osm_id":"305352019","tag":{"amenity":"recycling","recycling_type":"container"}},"type":"Feature"},
	{"geometry":{"coordinates":[7.936728,53.17076],"type":"Point"},"properties":{"osm_id":"322593343","tag":{"amenity":"recycling","recycling:clothes":"yes","recycling:glass":"yes","recycling_type":"container"}},"type":"Feature"},
	{"geometry":{"coordinates":[7.990295,53.140283],"type":"Point"},"properties":{"osm_id":"1830013916","tag":{"amenity":"recycling","recycling:clothes":"yes","recycling:glass":"yes","recycling_type":"container"}},"type":"Feature"},
	{"geometry":{"coordinates":[7.988827,53.131658],"type":"Point"},"properties":{"osm_id":"1886581004","tag":{"amenity":"recycling","recycling:clothes":"yes","recycling:glass":"yes","recycling_type":"container"}},"type":"Feature"},
	{"geometry":{"coordinates":[7.94149,53.144663],"type":"Point"},"properties":{"osm_id":"7202802252","tag":{"amenity":"recycling","operator":"DRK KV Ammerland","recycling:clothes":"yes","recycling_type":"container"}},"type":"Feature"}
]
}
