{
"type": "FeatureCollection",
"features": [
	{"geometry":{"coordinates":[7.951338,52.257121],"type":"Point"},"properties":{"osm_id":"310202871","tag":{"amenity":"recycling","recycling_type":"container"}},"type":"Feature"},
	{"geometry":{"coordinates":[7.95679,52.224697],"type":"Point"},"properties":{"osm_id":"2036223615","tag":{"amenity":"waste_basket"}},"type":"Feature"},
	{"geometry":{"coordinates":[7.971524,52.264144],"type":"Point"},"properties":{"osm_id":"7047647692","tag":{"amenity":"waste_disposal","operator":"Ikea","recycling:paper":"yes","waste":"recycling"}},"type":"Feature"},
	{"geometry":{"coordinates":[7.960854,52.21461],"type":"Point"},"properties":{"osm_id":"7296848407","tag":{"amenity":"waste_basket"}},"type":"Feature"},
	{"geometry":{"coordinates":[7.946265,52.21517],"type":"Point"},"properties":{"osm_id":"7296848408","tag":{"amenity":"waste_basket"}},"type":"Feature"},
	{"geometry":{"coordinates":[7.9604,52.223798],"type":"Point"},"properties":{"osm_id":"7297019782","tag":{"amenity":"waste_basket"}},"type":"Feature"},
	{"geometry":{"coordinates":[7.915326,52.249031],"type":"Point"},"properties":{"osm_id":"7734769383","tag":{"amenity":"waste_basket","material":"steel"}},"type":"Feature"}
]
}
