{
"type": "FeatureCollection",
"features": [
	{"geometry":{"coordinates":[7.913925,51.557064],"type":"Point"},"properties":{"osm_id":"1261320879","tag":{"amenity":"recycling","opening_hours":"07:00-20:00","recycling:clothes":"yes","recycling:glass_bottles":"yes","recycling_type":"container"}},"type":"Feature"},
	{"geometry":{"coordinates":[7.910395,51.554824],"type":"Point"},"properties":{"osm_id":"1264735808","tag":{"amenity":"waste_basket"}},"type":"Feature"},
	{"geometry":{"coordinates":[7.910753,51.553415],"type":"Point"},"properties":{"osm_id":"1264735814","tag":{"amenity":"waste_basket"}},"type":"Feature"},
	{"geometry":{"coordinates":[7.911671,51.556487],"type":"Point"},"properties":{"osm_id":"1264735850","tag":{"amenity":"waste_basket"}},"type":"Feature"},
	{"geometry":{"coordinates":[7.919406,51.549408],"type":"Point"},"properties":{"osm_id":"1264992329","tag":{"amenity":"recycling","recycling:glass_bottles":"yes","recycling_type":"container"}},"type":"Feature"},
	{"geometry":{"coordinates":[7.949767,51.514096],"type":"Point"},"properties":{"osm_id":"2052014236","tag":{"amenity":"recycling","recycling:clothes":"yes","recycling:glass_bottles":"yes","recycling:shoes":"yes","recycling_type":"container"}},"type":"Feature"},
	{"geometry":{"coordinates":[7.919444,51.549408],"type":"Point"},"properties":{"osm_id":"3204825689","tag":{"amenity":"recycling","recycling:clothes":"yes","recycling_type":"container"}},"type":"Feature"},
	{"geometry":{"coordinates":[7.917961,51.549399],"type":"Point"},"properties":{"osm_id":"3204825690","tag":{"amenity":"waste_basket"}},"type":"Feature"},
	{"geometry":{"coordinates":[7.916209,51.551461],"type":"Point"},"properties":{"osm_id":"3204968602","tag":{"amenity":"waste_basket"}},"type":"Feature"},
	{"geometry":{"coordinates":[7.922501,51.55482],"type":"Point"},"properties":{"osm_id":"4747474725","tag":{"amenity":"recycling","recycling:glass_bottles":"yes","recycling_type":"container"}},"type":"Feature"},
	{"geometry":{"coordinates":[7.997694,51.548086],"type":"Point"},"properties":{"osm_id":"5609775709","tag":{"access":"yes","amenity":"recycling","description":"Glascontainer f\u00c3\u00bcr Wei\u00c3\u009f-u. Buntglas. Benutzung an Werktagen zwischen 8-20 Uhr","recycling:clothes":"yes","recycling:glass_bottles":"yes","recycling:shoes":"yes","recycling_type":"container"}},"type":"Feature"},
	{"geometry":{"coordinates":[7.997846,51.547291],"type":"Point"},"properties":{"osm_id":"5609782026","tag":{"amenity":"waste_basket"}},"type":"Feature"},
	{"geometry":{"coordinates":[7.99736,51.546575],"type":"Point"},"properties":{"osm_id":"5609782089","tag":{"amenity":"waste_basket","description":"M\u00c3\u00bclltonne"}},"type":"Feature"},
	{"geometry":{"coordinates":[7.914364,51.558059],"type":"Point"},"properties":{"osm_id":"7820218442","tag":{"amenity":"waste_basket"}},"type":"Feature"},
	{"geometry":{"coordinates":[7.913701,51.558059],"type":"Point"},"properties":{"osm_id":"7820218443","tag":{"amenity":"waste_basket"}},"type":"Feature"}
]
}
