{
"type": "FeatureCollection",
"features": [
	{"geometry":{"coordinates":[7.97587,51.136201],"type":"Point"},"properties":{"osm_id":"411071202","tag":{"amenity":"recycling","recycling:clothes":"yes","recycling:glass":"yes"}},"type":"Feature"},
	{"geometry":{"coordinates":[7.914352,51.132124],"type":"Point"},"properties":{"osm_id":"684646127","tag":{"amenity":"recycling","recycling:clothes":"yes"}},"type":"Feature"},
	{"geometry":{"coordinates":[7.915152,51.142647],"type":"Point"},"properties":{"osm_id":"684646465","tag":{"amenity":"recycling","recycling:clothes":"yes","recycling:glass":"yes"}},"type":"Feature"},
	{"geometry":{"coordinates":[7.914944,51.147184],"type":"Point"},"properties":{"osm_id":"684736505","tag":{"amenity":"recycling","recycling:glass":"yes"}},"type":"Feature"},
	{"geometry":{"coordinates":[7.912937,51.127106],"type":"Point"},"properties":{"osm_id":"698803671","tag":{"amenity":"recycling","recycling:clothes":"yes","recycling:glass":"yes"}},"type":"Feature"},
	{"geometry":{"coordinates":[7.910517,51.133105],"type":"Point"},"properties":{"osm_id":"701333174","tag":{"amenity":"recycling","recycling:glass":"yes"}},"type":"Feature"},
	{"geometry":{"coordinates":[7.911078,51.132171],"type":"Point"},"properties":{"osm_id":"701358332","tag":{"amenity":"recycling","recycling:clothes":"yes"}},"type":"Feature"},
	{"geometry":{"coordinates":[7.953192,51.152147],"type":"Point"},"properties":{"osm_id":"762805084","tag":{"amenity":"recycling","recycling:glass":"yes","recycling_type":"container"}},"type":"Feature"},
	{"geometry":{"coordinates":[7.954506,51.149126],"type":"Point"},"properties":{"osm_id":"762805125","tag":{"amenity":"recycling","recycling:clothes":"yes","recycling_type":"container"}},"type":"Feature"},
	{"geometry":{"coordinates":[7.943591,51.156677],"type":"Point"},"properties":{"osm_id":"764607176","tag":{"amenity":"recycling","recycling:glass":"yes","recycling_type":"container"}},"type":"Feature"},
	{"geometry":{"coordinates":[7.988524,51.138396],"type":"Point"},"properties":{"osm_id":"847179326","tag":{"amenity":"recycling","recycling:clothes":"yes","recycling:glass":"yes"}},"type":"Feature"},
	{"geometry":{"coordinates":[7.987613,51.16261],"type":"Point"},"properties":{"osm_id":"2446062611","tag":{"amenity":"recycling","recycling:clothes":"yes","recycling:glass_bottles":"yes","recycling:paper":"yes","recycling:shoes":"yes","recycling_type":"container"}},"type":"Feature"},
	{"geometry":{"coordinates":[7.966193,51.17615],"type":"Point"},"properties":{"osm_id":"2448288647","tag":{"amenity":"recycling","recycling:clothes":"yes","recycling:glass_bottles":"yes","recycling:shoes":"yes","recycling_type":"container"}},"type":"Feature"},
	{"geometry":{"coordinates":[7.97525,51.135282],"type":"Point"},"properties":{"osm_id":"2464500926","tag":{"amenity":"recycling","recycling:clothes":"yes"}},"type":"Feature"},
	{"geometry":{"coordinates":[7.98135,51.1668],"type":"Point"},"properties":{"osm_id":"3773342157","tag":{"amenity":"recycling","recycling:clothes":"yes","recycling:glass_bottles":"yes","recycling_type":"container"}},"type":"Feature"},
	{"geometry":{"coordinates":[7.96864,51.174827],"type":"Point"},"properties":{"osm_id":"3811009635","ref":"Festhalle","tag":{"amenity":"recycling","recycling:paper":"yes","recycling_type":"container"}},"type":"Feature"},
	{"geometry":{"coordinates":[7.964628,51.172426],"type":"Point"},"properties":{"osm_id":"5359451959","tag":{"amenity":"waste_basket","level":"0"}},"type":"Feature"},
	{"geometry":{"coordinates":[7.96443,51.173072],"type":"Point"},"properties":{"osm_id":"5373411258","tag":{"amenity":"waste_basket","level":"0"}},"type":"Feature"},
	{"geometry":{"coordinates":[7.96436,51.172814],"type":"Point"},"properties":{"osm_id":"5373411262","tag":{"amenity":"waste_basket","level":"0"}},"type":"Feature"},
	{"geometry":{"coordinates":[7.96459,51.173074],"type":"Point"},"properties":{"osm_id":"5373661833","tag":{"amenity":"waste_basket","level":"0"}},"type":"Feature"},
	{"geometry":{"coordinates":[7.964903,51.172645],"type":"Point"},"properties":{"osm_id":"5437265672","tag":{"amenity":"waste_basket"}},"type":"Feature"},
	{"geometry":{"coordinates":[7.963807,51.173641],"type":"Point"},"properties":{"osm_id":"6978519364","tag":{"amenity":"waste_basket"}},"type":"Feature"},
	{"geometry":{"coordinates":[7.963316,51.17381],"type":"Point"},"properties":{"osm_id":"6978519365","tag":{"amenity":"waste_basket","waste":"dog_excrement"}},"type":"Feature"},
	{"geometry":{"coordinates":[7.964783,51.173113],"type":"Point"},"properties":{"osm_id":"6978519370","tag":{"amenity":"waste_basket"}},"type":"Feature"},
	{"geometry":{"coordinates":[7.965058,51.172778],"type":"Point"},"properties":{"osm_id":"6978519372","tag":{"amenity":"waste_basket"}},"type":"Feature"},
	{"geometry":{"coordinates":[7.964925,51.172794],"type":"Point"},"properties":{"osm_id":"6978519377","tag":{"amenity":"waste_basket"}},"type":"Feature"},
	{"geometry":{"coordinates":[7.964727,51.172829],"type":"Point"},"properties":{"osm_id":"6978519378","tag":{"amenity":"waste_basket"}},"type":"Feature"},
	{"geometry":{"coordinates":[7.97211,51.172863],"type":"Point"},"properties":{"osm_id":"6978557716","tag":{"amenity":"waste_basket"}},"type":"Feature"},
	{"geometry":{"coordinates":[7.97261,51.172739],"type":"Point"},"properties":{"osm_id":"6978557718","tag":{"amenity":"waste_basket"}},"type":"Feature"},
	{"geometry":{"coordinates":[7.972829,51.172832],"type":"Point"},"properties":{"osm_id":"6978557719","tag":{"amenity":"waste_basket"}},"type":"Feature"},
	{"geometry":{"coordinates":[7.972748,51.172823],"type":"Point"},"properties":{"osm_id":"6978557721","tag":{"amenity":"waste_basket"}},"type":"Feature"},
	{"geometry":{"coordinates":[7.976166,51.171096],"type":"Point"},"properties":{"osm_id":"6981262268","tag":{"amenity":"recycling","opening_hours":"Mo-Sa 07:00-20:00; Su,PH off","recycling:glass":"yes","recycling_type":"container"}},"type":"Feature"}
]
}
