{
"type": "FeatureCollection",
"features": [
	{"geometry":{"coordinates":[7.979061,50.937003],"type":"Point"},"properties":{"osm_id":"259071523","tag":{"amenity":"recycling","recycling:glass":"yes","recycling:paper":"yes"}},"type":"Feature"},
	{"geometry":{"coordinates":[7.997558,50.92853],"type":"Point"},"properties":{"osm_id":"262944701","tag":{"amenity":"recycling","recycling:clothes":"yes","recycling:glass":"yes","recycling:paper":"yes","recycling:shoes":"yes","recycling_type":"container"}},"type":"Feature"},
	{"geometry":{"coordinates":[7.951909,50.946193],"type":"Point"},"properties":{"osm_id":"265997748","tag":{"amenity":"recycling","recycling:glass":"yes"}},"type":"Feature"},
	{"geometry":{"coordinates":[7.99256,50.914513],"type":"Point"},"properties":{"osm_id":"300062448","tag":{"amenity":"recycling","recycling:glass":"yes","recycling:paper":"yes"}},"type":"Feature"},
	{"geometry":{"coordinates":[7.994686,50.908431],"type":"Point"},"properties":{"osm_id":"300125922","tag":{"amenity":"recycling","recycling:glass":"no"}},"type":"Feature"},
	{"geometry":{"coordinates":[7.99172,50.91763],"type":"Point"},"properties":{"osm_id":"302004281","tag":{"amenity":"recycling","location":"overground","recycling:clothes":"yes","recycling:glass":"yes","recycling:paper":"yes","recycling_type":"container"}},"type":"Feature"},
	{"geometry":{"coordinates":[7.989551,50.920528],"type":"Point"},"properties":{"osm_id":"302927931","tag":{"amenity":"recycling","recycling:glass":"yes","recycling:paper":"yes","recycling_type":"container","wheelchair":"no"}},"type":"Feature"},
	{"geometry":{"coordinates":[7.983347,50.910085],"type":"Point"},"properties":{"osm_id":"303953625","tag":{"amenity":"recycling","location":"overground","recycling:glass":"no","recycling:glass_bottles":"yes","recycling:paper":"yes","recycling_type":"container"}},"type":"Feature"},
	{"geometry":{"coordinates":[7.970692,50.916418],"type":"Point"},"properties":{"osm_id":"306504873","tag":{"amenity":"recycling"}},"type":"Feature"},
	{"geometry":{"coordinates":[7.994439,50.918554],"type":"Point"},"properties":{"osm_id":"381194581","tag":{"amenity":"recycling","recycling:glass":"yes","recycling:paper":"yes"}},"type":"Feature"},
	{"geometry":{"coordinates":[7.938456,50.941538],"type":"Point"},"properties":{"osm_id":"388369547","tag":{"amenity":"recycling","recycling:glass":"yes"}},"type":"Feature"},
	{"geometry":{"coordinates":[7.948078,50.913583],"type":"Point"},"properties":{"osm_id":"392108834","tag":{"amenity":"recycling","location":"overground","recycling:clothes":"yes","recycling:glass":"yes","recycling:paper":"yes","recycling_type":"container"}},"type":"Feature"},
	{"geometry":{"coordinates":[7.94571,50.934534],"type":"Point"},"properties":{"osm_id":"392899790","tag":{"amenity":"recycling","recycling:clothes":"yes","recycling:glass":"yes","recycling:paper":"yes"}},"type":"Feature"},
	{"geometry":{"coordinates":[7.926274,50.920114],"type":"Point"},"properties":{"osm_id":"395757022","tag":{"amenity":"recycling","recycling:clothes":"yes","recycling:glass":"yes","recycling:glass_bottles":"yes","recycling_type":"container"}},"type":"Feature"},
	{"geometry":{"coordinates":[7.996671,50.943584],"type":"Point"},"properties":{"osm_id":"414016383","tag":{"amenity":"recycling","recycling:glass":"yes","recycling:paper":"yes"}},"type":"Feature"},
	{"geometry":{"coordinates":[7.988718,50.952712],"type":"Point"},"properties":{"osm_id":"414016387","tag":{"amenity":"recycling","recycling:clothes":"yes","recycling:glass":"yes","recycling:paper":"yes"}},"type":"Feature"},
	{"geometry":{"coordinates":[7.986484,50.958084],"type":"Point"},"properties":{"osm_id":"414016403","tag":{"amenity":"recycling","recycling:clothes":"yes","recycling:glass":"yes","recycling:paper":"yes","recycling_type":"container"}},"type":"Feature"},
	{"geometry":{"coordinates":[7.991489,50.933368],"type":"Point"},"properties":{"osm_id":"414734090","tag":{"amenity":"recycling"}},"type":"Feature"},
	{"geometry":{"coordinates":[7.990431,50.90571],"type":"Point"},"properties":{"osm_id":"416661015","tag":{"amenity":"recycling","location":"overground","recycling:clothes":"yes","recycling:glass":"yes","recycling:paper":"yes","recycling_type":"container"}},"type":"Feature"},
	{"geometry":{"coordinates":[7.997968,50.956905],"type":"Point"},"properties":{"osm_id":"442564561","tag":{"amenity":"recycling","recycling:cardboard":"yes","recycling:glass":"yes","recycling:glass_bottles":"yes","recycling:paper":"yes","recycling_type":"container"}},"type":"Feature"},
	{"geometry":{"coordinates":[7.949663,50.954787],"type":"Point"},"properties":{"osm_id":"488153731","tag":{"amenity":"recycling","recycling:clothes":"yes","recycling:glass":"yes","recycling:paper":"yes"}},"type":"Feature"},
	{"geometry":{"coordinates":[7.939657,50.908057],"type":"Point"},"properties":{"osm_id":"773233164","tag":{"amenity":"recycling","recycling:glass":"yes","recycling_type":"container"}},"type":"Feature"},
	{"geometry":{"coordinates":[7.948323,50.907769],"type":"Point"},"properties":{"osm_id":"773250442","tag":{"amenity":"recycling","recycling:glass":"yes","recycling_type":"container"}},"type":"Feature"},
	{"geometry":{"coordinates":[7.996902,50.911887],"type":"Point"},"properties":{"osm_id":"820460088","tag":{"amenity":"recycling","recycling:clothes":"yes","recycling:glass":"yes","recycling:paper":"yes","recycling_type":"container"}},"type":"Feature"},
	{"geometry":{"coordinates":[7.93742,50.931168],"type":"Point"},"properties":{"osm_id":"855097771","tag":{"amenity":"waste_basket"}},"type":"Feature"},
	{"geometry":{"coordinates":[7.934503,50.924788],"type":"Point"},"properties":{"osm_id":"957275079","tag":{"amenity":"recycling","location":"overground","recycling:clothes":"yes","recycling:glass":"yes","recycling_type":"container"}},"type":"Feature"},
	{"geometry":{"coordinates":[7.99558,50.910263],"type":"Point"},"properties":{"osm_id":"957312919","tag":{"amenity":"waste_basket"}},"type":"Feature"},
	{"geometry":{"coordinates":[7.930965,50.923473],"type":"Point"},"properties":{"osm_id":"958725565","tag":{"amenity":"waste_basket"}},"type":"Feature"},
	{"geometry":{"coordinates":[7.935869,50.926113],"type":"Point"},"properties":{"osm_id":"970467701","tag":{"amenity":"waste_basket"}},"type":"Feature"},
	{"geometry":{"coordinates":[7.993487,50.910355],"type":"Point"},"properties":{"osm_id":"970501562","tag":{"amenity":"waste_basket"}},"type":"Feature"},
	{"geometry":{"coordinates":[7.932261,50.933083],"type":"Point"},"properties":{"osm_id":"1388476762","tag":{"amenity":"waste_basket"}},"type":"Feature"},
	{"geometry":{"coordinates":[7.940987,50.928485],"type":"Point"},"properties":{"osm_id":"1388480390","tag":{"amenity":"waste_basket"}},"type":"Feature"},
	{"geometry":{"coordinates":[7.926305,50.933931],"type":"Point"},"properties":{"osm_id":"1388497958","tag":{"amenity":"waste_basket"}},"type":"Feature"},
	{"geometry":{"coordinates":[7.92596,50.930089],"type":"Point"},"properties":{"osm_id":"1388501294","tag":{"amenity":"waste_basket"}},"type":"Feature"},
	{"geometry":{"coordinates":[7.928188,50.925123],"type":"Point"},"properties":{"osm_id":"1388510263","tag":{"amenity":"waste_basket"}},"type":"Feature"},
	{"geometry":{"coordinates":[7.991619,50.930601],"type":"Point"},"properties":{"osm_id":"1629840969","tag":{"amenity":"waste_basket"}},"type":"Feature"},
	{"geometry":{"coordinates":[7.986249,50.931421],"type":"Point"},"properties":{"osm_id":"1629840978","tag":{"amenity":"waste_basket"}},"type":"Feature"},
	{"geometry":{"coordinates":[7.985314,50.953033],"type":"Point"},"properties":{"osm_id":"2507461659","tag":{"amenity":"waste_basket"}},"type":"Feature"},
	{"geometry":{"coordinates":[7.967656,50.9227],"type":"Point"},"properties":{"osm_id":"2829132064","tag":{"amenity":"waste_basket"}},"type":"Feature"},
	{"geometry":{"coordinates":[7.948298,50.907748],"type":"Point"},"properties":{"osm_id":"2981482858","tag":{"amenity":"recycling","recycling:clothes":"yes","recycling:shoes":"yes","recycling_type":"container"}},"type":"Feature"},
	{"geometry":{"coordinates":[7.997356,50.911929],"type":"Point"},"properties":{"osm_id":"4320086526","tag":{"amenity":"waste_basket"}},"type":"Feature"},
	{"geometry":{"coordinates":[7.993278,50.914236],"type":"Point"},"properties":{"osm_id":"4320086567","tag":{"amenity":"waste_basket"}},"type":"Feature"},
	{"geometry":{"coordinates":[7.993004,50.914612],"type":"Point"},"properties":{"osm_id":"4320086572","tag":{"amenity":"waste_basket"}},"type":"Feature"},
	{"geometry":{"coordinates":[7.971248,50.93916],"type":"Point"},"properties":{"osm_id":"4338903939","tag":{"amenity":"waste_basket"}},"type":"Feature"},
	{"geometry":{"coordinates":[7.985621,50.907481],"type":"Point"},"properties":{"osm_id":"4340279131","tag":{"amenity":"waste_disposal"}},"type":"Feature"},
	{"geometry":{"coordinates":[7.991936,50.910619],"type":"Point"},"properties":{"osm_id":"4401232542","tag":{"amenity":"recycling","recycling:clothes":"yes","recycling_type":"container"}},"type":"Feature"},
	{"geometry":{"coordinates":[7.994284,50.9135],"type":"Point"},"properties":{"osm_id":"4401232575","tag":{"amenity":"waste_basket"}},"type":"Feature"},
	{"geometry":{"coordinates":[7.992045,50.956366],"type":"Point"},"properties":{"osm_id":"4589436386","tag":{"amenity":"waste_basket"}},"type":"Feature"},
	{"geometry":{"coordinates":[7.992511,50.956569],"type":"Point"},"properties":{"osm_id":"4589436388","tag":{"amenity":"waste_basket"}},"type":"Feature"},
	{"geometry":{"coordinates":[7.99306,50.956686],"type":"Point"},"properties":{"osm_id":"4589436789","tag":{"amenity":"recycling","recycling:clothes":"yes","recycling:glass_bottles":"no","recycling:paper":"no","recycling:shoes":"yes","recycling_type":"container"}},"type":"Feature"},
	{"geometry":{"coordinates":[7.98879,50.917875],"type":"Point"},"properties":{"osm_id":"4902203956","tag":{"amenity":"waste_basket"}},"type":"Feature"},
	{"geometry":{"coordinates":[7.966028,50.954086],"type":"Point"},"properties":{"osm_id":"5030291664","tag":{"amenity":"recycling","recycling:cardboard":"yes","recycling:glass":"yes","recycling:glass_bottles":"yes","recycling:paper":"yes","recycling_type":"container"}},"type":"Feature"},
	{"geometry":{"coordinates":[7.991668,50.957251],"type":"Point"},"properties":{"osm_id":"6641790571","tag":{"amenity":"waste_basket"}},"type":"Feature"},
	{"geometry":{"coordinates":[7.95291,50.937973],"type":"Point"},"properties":{"osm_id":"8037648181","tag":{"amenity":"waste_basket","waste":"trash"}},"type":"Feature"},
	{"geometry":{"coordinates":[7.995287,50.910808],"type":"Point"},"properties":{"osm_id":"8197472737","tag":{"amenity":"waste_basket"}},"type":"Feature"},
	{"geometry":{"coordinates":[7.997534,50.911244],"type":"Point"},"properties":{"osm_id":"8197472738","tag":{"amenity":"waste_basket"}},"type":"Feature"},
	{"geometry":{"coordinates":[7.99797,50.911216],"type":"Point"},"properties":{"osm_id":"8384275165","tag":{"amenity":"waste_basket","waste":"trash"}},"type":"Feature"},
	{"geometry":{"coordinates":[7.935689,50.935306],"type":"Point"},"properties":{"osm_id":"8416772079","tag":{"amenity":"waste_basket","waste":"trash"}},"type":"Feature"},
	{"geometry":{"coordinates":[7.940076,50.936412],"type":"Point"},"properties":{"osm_id":"8416772082","tag":{"amenity":"waste_basket","waste":"trash"}},"type":"Feature"},
	{"geometry":{"coordinates":[7.941044,50.937204],"type":"Point"},"properties":{"osm_id":"8416772084","tag":{"amenity":"waste_basket","waste":"trash"}},"type":"Feature"},
	{"geometry":{"coordinates":[7.942835,50.937694],"type":"Point"},"properties":{"osm_id":"8416772087","tag":{"amenity":"waste_basket","waste":"trash"}},"type":"Feature"},
	{"geometry":{"coordinates":[7.923093,50.931932],"type":"Point"},"properties":{"osm_id":"8566232583","tag":{"amenity":"waste_basket","waste":"trash"}},"type":"Feature"},
	{"geometry":{"coordinates":[7.987656,50.934592],"type":"Point"},"properties":{"osm_id":"8785689575","tag":{"amenity":"waste_basket","waste":"trash"}},"type":"Feature"}
]
}
