{
"type": "FeatureCollection",
"features": [
	{"geometry":{"coordinates":[7.92565,50.747239],"type":"Point"},"properties":{"osm_id":"314961216","tag":{"amenity":"recycling","recycling:clothes":"yes"}},"type":"Feature"},
	{"geometry":{"coordinates":[7.927005,50.74565],"type":"Point"},"properties":{"osm_id":"315093240","tag":{"amenity":"recycling","recycling:clothes":"yes","recycling:glass":"yes","recycling_type":"container"}},"type":"Feature"},
	{"geometry":{"coordinates":[7.964975,50.739466],"type":"Point"},"properties":{"osm_id":"317304395","tag":{"amenity":"recycling","recycling:glass":"yes"}},"type":"Feature"},
	{"geometry":{"coordinates":[7.973808,50.738182],"type":"Point"},"properties":{"osm_id":"320926501","tag":{"amenity":"recycling","recycling:clothes":"yes"}},"type":"Feature"},
	{"geometry":{"coordinates":[7.94828,50.748498],"type":"Point"},"properties":{"osm_id":"600871898","tag":{"amenity":"recycling","recycling:clothes":"yes","recycling:glass":"yes"}},"type":"Feature"},
	{"geometry":{"coordinates":[7.955507,50.746861],"type":"Point"},"properties":{"osm_id":"601063485","tag":{"amenity":"recycling","recycling:clothes":"yes","recycling:glass":"yes"}},"type":"Feature"},
	{"geometry":{"coordinates":[7.923831,50.770808],"type":"Point"},"properties":{"osm_id":"1346176823","tag":{"amenity":"recycling","recycling:green_waste":"yes"}},"type":"Feature"},
	{"geometry":{"coordinates":[7.915706,50.771619],"type":"Point"},"properties":{"osm_id":"1480222569","tag":{"amenity":"recycling"}},"type":"Feature"},
	{"geometry":{"coordinates":[7.980666,50.78265],"type":"Point"},"properties":{"osm_id":"1800209619","tag":{"amenity":"recycling","operator":"Arbeiterwohlfahrt","recycling:clothes":"yes","recycling:shoes":"yes"}},"type":"Feature"},
	{"geometry":{"coordinates":[7.980757,50.78267],"type":"Point"},"properties":{"osm_id":"1800209626","tag":{"amenity":"recycling","recycling:glass":"yes"}},"type":"Feature"},
	{"geometry":{"coordinates":[7.988362,50.785268],"type":"Point"},"properties":{"osm_id":"1801379953","tag":{"amenity":"recycling","recycling:glass":"yes"}},"type":"Feature"}
]
}
