{
"type": "FeatureCollection",
"lastupdate": "2020-08-01T00:00:00Z",
"features": [
	{"geometry":{"coordinates":[7.923371,50.507162],"type":"Point"},"properties":{"osm_id":"392456125","tag":{"amenity":"recycling","recycling:clothes":"yes","recycling:glass_bottles":"yes","recycling_type":"container"}},"type":"Feature"},
	{"geometry":{"coordinates":[7.958495,50.482528],"type":"Point"},"properties":{"osm_id":"893936878","tag":{"amenity":"recycling","recycling:glass_bottles":"yes","recycling_type":"container"}},"type":"Feature"},
	{"geometry":{"coordinates":[7.937506,50.509157],"type":"Point"},"properties":{"osm_id":"975711164","tag":{"amenity":"recycling","recycling:glass":"yes","recycling_type":"container"}},"type":"Feature"},
	{"geometry":{"coordinates":[7.923382,50.507119],"type":"Point"},"properties":{"osm_id":"4663248565","tag":{"amenity":"recycling","recycling:clothes":"yes","recycling_type":"container"}},"type":"Feature"},
	{"geometry":{"coordinates":[7.933158,50.457918],"type":"Point"},"properties":{"osm_id":"6537445705","tag":{"amenity":"recycling","operator":"BELLERSHEIM ABFALLWIRTSCHAFT","phone":"+49 260 292760","recycling:glass":"no","recycling:glass_bottles":"yes","recycling_type":"container"}},"type":"Feature"},
	{"geometry":{"coordinates":[7.940283,50.458906],"type":"Point"},"properties":{"osm_id":"6744417210","tag":{"amenity":"waste_basket"}},"type":"Feature"},
	{"geometry":{"coordinates":[7.937567,50.462055],"type":"Point"},"properties":{"osm_id":"6744431926","tag":{"amenity":"waste_basket"}},"type":"Feature"},
	{"geometry":{"coordinates":[7.93893,50.463291],"type":"Point"},"properties":{"osm_id":"6744436373","tag":{"amenity":"waste_basket"}},"type":"Feature"},
	{"geometry":{"coordinates":[7.932745,50.459287],"type":"Point"},"properties":{"osm_id":"7335550796","tag":{"amenity":"waste_basket"}},"type":"Feature"},
	{"geometry":{"coordinates":[7.933234,50.459307],"type":"Point"},"properties":{"osm_id":"7335550797","tag":{"amenity":"waste_basket"}},"type":"Feature"},
	{"geometry":{"coordinates":[7.950576,50.470014],"type":"Point"},"properties":{"osm_id":"7451688743","tag":{"amenity":"waste_basket","colour":"black","material":"plastic","waste":"trash"}},"type":"Feature"},
	{"geometry":{"coordinates":[7.931692,50.461544],"type":"Point"},"properties":{"osm_id":"7451688748","tag":{"amenity":"waste_basket","colour":"green","material":"plastic"}},"type":"Feature"},
	{"geometry":{"coordinates":[7.931195,50.459588],"type":"Point"},"properties":{"osm_id":"7484173932","tag":{"amenity":"waste_basket","colour":"blue","material":"steel","waste":"trash"}},"type":"Feature"},
	{"geometry":{"coordinates":[7.933135,50.457938],"type":"Point"},"properties":{"osm_id":"7484505883","tag":{"amenity":"recycling","recycling:clothes":"yes","recycling_type":"container"}},"type":"Feature"},
	{"geometry":{"coordinates":[7.937297,50.481512],"type":"Point"},"properties":{"osm_id":"7756082338","tag":{"amenity":"waste_basket","waste":"trash"}},"type":"Feature"},
	{"geometry":{"coordinates":[7.953377,50.476395],"type":"Point"},"properties":{"osm_id":"7756189523","tag":{"amenity":"waste_basket","waste":"trash"}},"type":"Feature"},
	{"geometry":{"coordinates":[7.929227,50.477592],"type":"Point"},"properties":{"osm_id":"7756398972","tag":{"amenity":"waste_basket","waste":"trash"}},"type":"Feature"}
]
}
