{
"type": "FeatureCollection",
"features": [
	{"geometry":{"coordinates":[7.970187,49.982433],"type":"Point"},"properties":{"osm_id":"262228817","tag":{"amenity":"recycling","recycling:glass_bottles":"yes","recycling_type":"container"}},"type":"Feature"},
	{"geometry":{"coordinates":[7.94929,50.00442],"type":"Point"},"properties":{"osm_id":"294556296","tag":{"amenity":"recycling","recycling:glass_bottles":"yes","recycling:shoes":"yes","recycling_type":"container"}},"type":"Feature"},
	{"geometry":{"coordinates":[7.957056,50.004719],"type":"Point"},"properties":{"osm_id":"299806044","tag":{"amenity":"recycling","recycling:glass_bottles":"yes","recycling_type":"container"}},"type":"Feature"},
	{"geometry":{"coordinates":[7.952265,50.004957],"type":"Point"},"properties":{"osm_id":"299806121","tag":{"amenity":"recycling","recycling:glass_bottles":"yes","recycling_type":"container"}},"type":"Feature"},
	{"geometry":{"coordinates":[7.956406,49.991407],"type":"Point"},"properties":{"osm_id":"331447451","tag":{"amenity":"recycling","recycling:glass_bottles":"yes","recycling_type":"container"}},"type":"Feature"},
	{"geometry":{"coordinates":[7.930191,49.980305],"type":"Point"},"properties":{"osm_id":"534956937","tag":{"amenity":"recycling","recycling:glass_bottles":"yes","recycling_type":"container"}},"type":"Feature"},
	{"geometry":{"coordinates":[7.923691,49.980925],"type":"Point"},"properties":{"osm_id":"644927869","tag":{"amenity":"recycling","recycling:glass_bottles":"yes","recycling_type":"container"}},"type":"Feature"},
	{"geometry":{"coordinates":[7.932524,49.998151],"type":"Point"},"properties":{"osm_id":"652557538","tag":{"amenity":"recycling","recycling:glass_bottles":"yes","recycling_type":"container"}},"type":"Feature"},
	{"geometry":{"coordinates":[7.926912,49.982216],"type":"Point"},"properties":{"osm_id":"823742656","tag":{"amenity":"waste_basket"}},"type":"Feature"},
	{"geometry":{"coordinates":[7.919227,49.953244],"type":"Point"},"properties":{"osm_id":"1238493520","tag":{"amenity":"recycling","location":"overground","recycling_type":"container"}},"type":"Feature"},
	{"geometry":{"coordinates":[7.934012,49.978945],"type":"Point"},"properties":{"osm_id":"1551029011","tag":{"amenity":"recycling","recycling:clothes":"yes","recycling:glass_bottles":"yes","recycling_type":"container"}},"type":"Feature"},
	{"geometry":{"coordinates":[7.930023,49.978274],"type":"Point"},"properties":{"osm_id":"1555776827","tag":{"amenity":"recycling","recycling:glass_bottles":"yes","recycling_type":"container"}},"type":"Feature"},
	{"geometry":{"coordinates":[7.945739,49.962052],"type":"Point"},"properties":{"osm_id":"1799285882","tag":{"amenity":"recycling","recycling:green_waste":"yes"}},"type":"Feature"},
	{"geometry":{"coordinates":[7.950543,49.993702],"type":"Point"},"properties":{"barrier":"gate","osm_id":"2101848611"},"type":"Feature"},
	{"geometry":{"coordinates":[7.910705,49.965665],"type":"Point"},"properties":{"osm_id":"2104476416","tag":{"amenity":"recycling","recycling:glass":"yes"}},"type":"Feature"},
	{"geometry":{"coordinates":[7.977134,49.987842],"type":"Point"},"properties":{"osm_id":"2122261878","tag":{"amenity":"recycling","recycling:glass_bottles":"yes","recycling_type":"container"}},"type":"Feature"},
	{"geometry":{"coordinates":[7.938001,49.969018],"type":"Point"},"properties":{"osm_id":"2203136007","tag":{"amenity":"recycling"}},"type":"Feature"},
	{"geometry":{"coordinates":[7.982206,50.003432],"type":"Point"},"properties":{"osm_id":"2939747164","tag":{"amenity":"recycling","recycling:glass_bottles":"yes","recycling_type":"container"}},"type":"Feature"},
	{"geometry":{"coordinates":[7.982209,50.005636],"type":"Point"},"properties":{"osm_id":"3020162649","tag":{"amenity":"recycling","recycling:glass_bottles":"yes","recycling_type":"container"}},"type":"Feature"},
	{"geometry":{"coordinates":[7.980118,49.99701],"type":"Point"},"properties":{"osm_id":"3581327649","tag":{"amenity":"recycling","operator":"Gurdulic-Knettenbrech","recycling:glass_bottles":"yes","recycling_type":"container"}},"type":"Feature"},
	{"geometry":{"coordinates":[7.919223,49.953259],"type":"Point"},"properties":{"osm_id":"4434395789","tag":{"amenity":"recycling","recycling:glass":"yes","recycling_type":"container"}},"type":"Feature"},
	{"geometry":{"coordinates":[7.914594,49.953224],"type":"Point"},"properties":{"osm_id":"4434395792","tag":{"amenity":"recycling","recycling:glass":"yes","recycling_type":"container"}},"type":"Feature"},
	{"geometry":{"coordinates":[7.972356,49.993129],"type":"Point"},"properties":{"osm_id":"4596566529","tag":{"amenity":"waste_basket"}},"type":"Feature"},
	{"geometry":{"coordinates":[7.933251,49.979225],"type":"Point"},"properties":{"osm_id":"5034651479","tag":{"amenity":"recycling","recycling:clothes":"yes","recycling_type":"container"}},"type":"Feature"},
	{"geometry":{"coordinates":[7.976495,49.98992],"type":"Point"},"properties":{"osm_id":"5248388930","tag":{"amenity":"recycling"}},"type":"Feature"},
	{"geometry":{"coordinates":[7.942944,50.006924],"type":"Point"},"properties":{"osm_id":"5420261835","tag":{"amenity":"waste_basket"}},"type":"Feature"},
	{"geometry":{"coordinates":[7.979918,49.989015],"type":"Point"},"properties":{"name":"pekutherm GmbH","osm_id":"6264699758","tag":{"addr:city":"Geisenheim","addr:housenumber":"19","addr:postcode":"65366","addr:street":"Chauvignystra\u00c3\u009fe","amenity":"recycling","website":"https://www.pekutherm.de/"}},"type":"Feature"},
	{"geometry":{"coordinates":[7.941086,50.006028],"type":"Point"},"properties":{"osm_id":"6286510170","tag":{"amenity":"waste_basket","waste":"trash"}},"type":"Feature"},
	{"geometry":{"coordinates":[7.966457,50.001302],"type":"Point"},"properties":{"osm_id":"6286515211","tag":{"amenity":"waste_basket","waste":"trash"}},"type":"Feature"},
	{"geometry":{"coordinates":[7.938644,50.005165],"type":"Point"},"properties":{"osm_id":"6319255645","tag":{"amenity":"waste_basket"}},"type":"Feature"},
	{"geometry":{"coordinates":[7.916338,49.977046],"type":"Point"},"properties":{"osm_id":"6873773483","tag":{"amenity":"waste_disposal"}},"type":"Feature"}
]
}
