{
"type": "FeatureCollection",
"lastupdate": "2020-08-03T00:00:00Z",
"features": [
	{"geometry":{"coordinates":[7.970076,48.749599],"type":"Point"},"properties":{"osm_id":"987554589","tag":{"amenity":"waste_basket"}},"type":"Feature"},
	{"geometry":{"coordinates":[7.971812,48.755213],"type":"Point"},"properties":{"osm_id":"987554825","tag":{"amenity":"waste_basket"}},"type":"Feature"},
	{"geometry":{"coordinates":[7.988102,48.800316],"type":"Point"},"properties":{"osm_id":"2096607701","tag":{"amenity":"recycling","recycling:glass_bottles":"yes","recycling:paper":"yes","recycling_type":"container"}},"type":"Feature"},
	{"geometry":{"coordinates":[7.988976,48.796691],"type":"Point"},"properties":{"osm_id":"2098019704","tag":{"amenity":"recycling","recycling:clothes":"yes","recycling_type":"container"}},"type":"Feature"},
	{"geometry":{"coordinates":[7.989339,48.796774],"type":"Point"},"properties":{"osm_id":"2098019736","tag":{"amenity":"recycling","recycling:clothes":"yes","recycling:glass_bottles":"yes","recycling:paper":"yes","recycling_type":"container"}},"type":"Feature"},
	{"geometry":{"coordinates":[7.971718,48.754093],"type":"Point"},"properties":{"osm_id":"4183924504","tag":{"amenity":"waste_basket"}},"type":"Feature"},
	{"geometry":{"coordinates":[7.954291,48.760187],"type":"Point"},"properties":{"osm_id":"4464816691","tag":{"amenity":"waste_basket"}},"type":"Feature"},
	{"geometry":{"coordinates":[7.954346,48.760531],"type":"Point"},"properties":{"osm_id":"4464817108","tag":{"amenity":"recycling","operator":"Croix Rouge Francaise","recycling:clothes":"yes","recycling:shoes":"yes","recycling_type":"container"}},"type":"Feature"},
	{"geometry":{"coordinates":[7.967675,48.755465],"type":"Point"},"properties":{"osm_id":"5128500214","tag":{"amenity":"waste_basket"}},"type":"Feature"},
	{"geometry":{"coordinates":[7.949053,48.76674],"type":"Point"},"properties":{"osm_id":"5418829181","tag":{"amenity":"recycling","recycling_type":"container"}},"type":"Feature"},
	{"geometry":{"coordinates":[7.966153,48.755527],"type":"Point"},"properties":{"osm_id":"5741988077","tag":{"amenity":"recycling","clothes":"yes","recycling":"container","shoes":"yes"}},"type":"Feature"}
]
}
