{
"type": "FeatureCollection",
"features": [
	{"geometry":{"coordinates":[7.966717,48.706004],"type":"Point"},"properties":{"osm_id":"447936008","tag":{"amenity":"recycling","recycling:clothes":"yes","recycling:glass":"yes","recycling_type":"container"}},"type":"Feature"},
	{"geometry":{"coordinates":[7.971882,48.704417],"type":"Point"},"properties":{"osm_id":"453150721","tag":{"amenity":"waste_basket"}},"type":"Feature"},
	{"geometry":{"coordinates":[7.996853,48.74847],"type":"Point"},"properties":{"osm_id":"472427905","tag":{"amenity":"waste_basket"}},"type":"Feature"},
	{"geometry":{"coordinates":[7.98011,48.735363],"type":"Point"},"properties":{"osm_id":"508700358","tag":{"amenity":"waste_basket"}},"type":"Feature"},
	{"geometry":{"coordinates":[7.994518,48.710769],"type":"Point"},"properties":{"osm_id":"508957668","tag":{"amenity":"waste_basket"}},"type":"Feature"},
	{"geometry":{"coordinates":[7.996909,48.710215],"type":"Point"},"properties":{"osm_id":"567986027","tag":{"amenity":"waste_basket"}},"type":"Feature"},
	{"geometry":{"coordinates":[7.994915,48.721692],"type":"Point"},"properties":{"osm_id":"801073759","tag":{"amenity":"recycling","recycling:batteries":"yes","recycling:clothes":"yes","recycling:electrical_items":"yes","recycling:mobile_phones":"yes","recycling_type":"container"}},"type":"Feature"},
	{"geometry":{"coordinates":[7.969309,48.736465],"type":"Point"},"properties":{"osm_id":"987554499","tag":{"amenity":"waste_basket"}},"type":"Feature"},
	{"geometry":{"coordinates":[7.969693,48.729857],"type":"Point"},"properties":{"osm_id":"987554547","tag":{"amenity":"waste_basket"}},"type":"Feature"},
	{"geometry":{"coordinates":[7.910342,48.727643],"type":"Point"},"properties":{"osm_id":"1930932020","tag":{"amenity":"waste_basket"}},"type":"Feature"},
	{"geometry":{"coordinates":[7.910185,48.727807],"type":"Point"},"properties":{"osm_id":"1930932062","tag":{"amenity":"waste_basket"}},"type":"Feature"},
	{"geometry":{"coordinates":[7.972469,48.709352],"type":"Point"},"properties":{"osm_id":"3740271618","tag":{"amenity":"recycling","location":"overground","recycling_type":"container"}},"type":"Feature"},
	{"geometry":{"coordinates":[7.97447,48.706445],"type":"Point"},"properties":{"osm_id":"3751716812","tag":{"amenity":"waste_basket"}},"type":"Feature"},
	{"geometry":{"coordinates":[7.985678,48.736946],"type":"Point"},"properties":{"osm_id":"4464731337","tag":{"amenity":"recycling","recycling:clothes":"yes","recycling:shoes":"yes","recycling_type":"container"}},"type":"Feature"},
	{"geometry":{"coordinates":[7.982761,48.735877],"type":"Point"},"properties":{"osm_id":"4893781449","tag":{"amenity":"waste_basket"}},"type":"Feature"},
	{"geometry":{"coordinates":[7.993812,48.710214],"type":"Point"},"properties":{"osm_id":"4894056844","tag":{"amenity":"recycling","recycling:clothes":"yes","recycling_type":"container"}},"type":"Feature"},
	{"geometry":{"coordinates":[7.9954,48.706057],"type":"Point"},"properties":{"osm_id":"5580598129","tag":{"amenity":"waste_basket"}},"type":"Feature"},
	{"geometry":{"coordinates":[7.966501,48.719644],"type":"Point"},"properties":{"osm_id":"6716158553","tag":{"amenity":"waste_basket","colour":"Gr\u00fcn"}},"type":"Feature"},
	{"geometry":{"coordinates":[7.965882,48.721821],"type":"Point"},"properties":{"osm_id":"7091095583","tag":{"amenity":"waste_basket"}},"type":"Feature"}
]
}
