{
"type": "FeatureCollection",
"features": [
	{"geometry":{"coordinates":[7.930784,48.667779],"type":"Point"},"properties":{"osm_id":"290985022","tag":{"amenity":"recycling","location":"overground","recycling:glass_bottles":"yes","recycling_type":"container"}},"type":"Feature"},
	{"geometry":{"coordinates":[7.940168,48.663743],"type":"Point"},"properties":{"osm_id":"291945600","tag":{"amenity":"recycling","location":"overground","recycling:clothes":"yes","recycling_type":"container"}},"type":"Feature"},
	{"geometry":{"coordinates":[7.951098,48.669964],"type":"Point"},"properties":{"osm_id":"294573157","tag":{"amenity":"recycling","location":"overground","recycling:glass_bottles":"yes","recycling_type":"container"}},"type":"Feature"},
	{"geometry":{"coordinates":[7.977941,48.684636],"type":"Point"},"properties":{"osm_id":"567985981","tag":{"amenity":"waste_basket"}},"type":"Feature"},
	{"geometry":{"coordinates":[7.982877,48.681839],"type":"Point"},"properties":{"osm_id":"568038471","tag":{"amenity":"waste_basket"}},"type":"Feature"},
	{"geometry":{"coordinates":[7.983262,48.683196],"type":"Point"},"properties":{"osm_id":"568061964","tag":{"amenity":"recycling","location":"overground","recycling:clothes":"yes","recycling_type":"container"}},"type":"Feature"},
	{"geometry":{"coordinates":[7.939031,48.666306],"type":"Point"},"properties":{"osm_id":"677164390","tag":{"amenity":"recycling","location":"overground","recycling_type":"container"}},"type":"Feature"},
	{"geometry":{"coordinates":[7.936511,48.648995],"type":"Point"},"properties":{"osm_id":"1080146755","tag":{"amenity":"recycling","location":"overground","recycling:clothes":"yes","recycling:glass":"yes","recycling_type":"container"}},"type":"Feature"},
	{"geometry":{"coordinates":[7.989595,48.676627],"type":"Point"},"properties":{"osm_id":"1239616841","tag":{"amenity":"recycling","recycling:glass":"yes"}},"type":"Feature"},
	{"geometry":{"coordinates":[7.98851,48.676038],"type":"Point"},"properties":{"osm_id":"1246060197","tag":{"amenity":"waste_basket"}},"type":"Feature"},
	{"geometry":{"coordinates":[7.931938,48.653847],"type":"Point"},"properties":{"osm_id":"1286542653","tag":{"amenity":"recycling","location":"overground","recycling:clothes":"yes","recycling:glass":"yes","recycling_type":"container"}},"type":"Feature"},
	{"geometry":{"coordinates":[7.980164,48.679185],"type":"Point"},"properties":{"osm_id":"1333729562","tag":{"amenity":"waste_basket"}},"type":"Feature"},
	{"geometry":{"coordinates":[7.98196,48.681847],"type":"Point"},"properties":{"osm_id":"1335909131","tag":{"amenity":"waste_basket","shelter":"yes"}},"type":"Feature"},
	{"geometry":{"coordinates":[7.976968,48.678068],"type":"Point"},"properties":{"osm_id":"1335909171","tag":{"amenity":"waste_basket"}},"type":"Feature"},
	{"geometry":{"coordinates":[7.979501,48.680201],"type":"Point"},"properties":{"osm_id":"1335909216","tag":{"amenity":"waste_basket"}},"type":"Feature"},
	{"geometry":{"coordinates":[7.937585,48.662688],"type":"Point"},"properties":{"osm_id":"4416530468","tag":{"amenity":"recycling","location":"overground","recycling:glass":"yes","recycling_type":"container"}},"type":"Feature"},
	{"geometry":{"coordinates":[7.93878,48.662311],"type":"Point"},"properties":{"osm_id":"4760078891","tag":{"amenity":"recycling","recycling:glass":"yes","recycling_type":"container"}},"type":"Feature"},
	{"geometry":{"coordinates":[7.940138,48.66459],"type":"Point"},"properties":{"osm_id":"4760228715","tag":{"amenity":"waste_basket"}},"type":"Feature"},
	{"geometry":{"coordinates":[7.940402,48.66501],"type":"Point"},"properties":{"osm_id":"4760229122","tag":{"amenity":"waste_basket"}},"type":"Feature"},
	{"geometry":{"coordinates":[7.946666,48.661265],"type":"Point"},"properties":{"osm_id":"4836717036","tag":{"amenity":"recycling","operator":"Deutsches Rotes Kreuz","recycling:clothes":"yes","recycling_type":"container"}},"type":"Feature"},
	{"geometry":{"coordinates":[7.924853,48.65187],"type":"Point"},"properties":{"osm_id":"5094095614","tag":{"amenity":"recycling","recycling:clothes":"yes","recycling_type":"container"}},"type":"Feature"},
	{"geometry":{"coordinates":[7.93561,48.667807],"type":"Point"},"properties":{"osm_id":"5542593021","tag":{"amenity":"waste_basket"}},"type":"Feature"},
	{"geometry":{"coordinates":[7.935686,48.667538],"type":"Point"},"properties":{"osm_id":"5542593121","tag":{"amenity":"waste_basket"}},"type":"Feature"},
	{"geometry":{"coordinates":[7.916036,48.685013],"type":"Point"},"properties":{"osm_id":"6624695757","tag":{"amenity":"waste_basket"}},"type":"Feature"},
	{"geometry":{"coordinates":[7.938584,48.665827],"type":"Point"},"properties":{"osm_id":"7022290091","tag":{"amenity":"recycling","recycling:clothes":"yes","recycling_type":"container"}},"type":"Feature"},
	{"geometry":{"coordinates":[7.929868,48.64487],"type":"Point"},"properties":{"osm_id":"7154570205","tag":{"amenity":"recycling","recycling:clothes":"yes","recycling:glass":"yes","recycling_type":"container"}},"type":"Feature"},
	{"geometry":{"coordinates":[7.938442,48.679238],"type":"Point"},"properties":{"osm_id":"7289424456","tag":{"amenity":"recycling","mapillary":"BKqjlJzJgnNQsDz9Qh5pYA","recycling:clothes":"yes","recycling:glass":"yes","recycling_type":"container"}},"type":"Feature"}
]
}
