{
"type": "FeatureCollection",
"features": [
	{"geometry":{"coordinates":[7.922474,48.545184],"type":"Point"},"properties":{"osm_id":"773916902","tag":{"amenity":"recycling","recycling_type":"container"}},"type":"Feature"},
	{"geometry":{"coordinates":[7.916462,48.53803],"type":"Point"},"properties":{"osm_id":"2157326822","tag":{"amenity":"recycling","recycling:glass_bottles":"yes","recycling_type":"container"}},"type":"Feature"},
	{"geometry":{"coordinates":[7.956137,48.536587],"type":"Point"},"properties":{"name":"Ortenauer Bauschutt-Recycling GmbH","osm_id":"3264472115","tag":{"addr:city":"Appenweier","addr:country":"DE","addr:housenumber":"31","addr:postcode":"77767","addr:street":"Sander Stra\u00c3\u009fe","amenity":"recycling","contact:phone":"+49 7805 99864","lastcheck":"2016-11-16","opening_hours":"Mo-Fr 08:00-12:30,13:00-16:45; Sa 08:00-12:00","operator":"MERB, Mittelbadische Entsorgungs- und Recyclingbetriebe GmbH","recycling_type":"centre"}},"type":"Feature"},
	{"geometry":{"coordinates":[7.98128,48.540144],"type":"Point"},"properties":{"osm_id":"4063084385","tag":{"amenity":"recycling","capacity":"2","lastcheck":"2016-03-16","operator":"HeDi","recycling:clothes":"yes","recycling_type":"container"}},"type":"Feature"},
	{"geometry":{"coordinates":[7.975849,48.535025],"type":"Point"},"properties":{"osm_id":"4444396121","tag":{"amenity":"recycling","lastcheck":"2016-10-12","operator":"CityGreenPoint","recycling:clothes":"yes","recycling_type":"container"}},"type":"Feature"},
	{"geometry":{"coordinates":[7.966183,48.51661],"type":"Point"},"properties":{"osm_id":"6109737572","tag":{"amenity":"waste_basket"}},"type":"Feature"},
	{"geometry":{"coordinates":[7.962746,48.529333],"type":"Point"},"properties":{"osm_id":"6109737574","tag":{"amenity":"waste_basket"}},"type":"Feature"},
	{"geometry":{"coordinates":[7.953151,48.548185],"type":"Point"},"properties":{"osm_id":"6109737576","tag":{"amenity":"waste_basket"}},"type":"Feature"},
	{"geometry":{"coordinates":[7.961878,48.549167],"type":"Point"},"properties":{"osm_id":"6109737578","tag":{"amenity":"waste_basket"}},"type":"Feature"},
	{"geometry":{"coordinates":[7.989603,48.528695],"type":"Point"},"properties":{"osm_id":"6109737581","tag":{"amenity":"waste_basket"}},"type":"Feature"},
	{"geometry":{"coordinates":[7.993381,48.52406],"type":"Point"},"properties":{"osm_id":"6109737583","tag":{"amenity":"waste_basket"}},"type":"Feature"},
	{"geometry":{"coordinates":[7.976608,48.560135],"type":"Point"},"properties":{"osm_id":"6907771965","tag":{"amenity":"recycling","capacity":"1","operator":"Wittmann","recycling:clothes":"yes","recycling_type":"container"}},"type":"Feature"},
	{"geometry":{"coordinates":[7.986774,48.538322],"type":"Point"},"properties":{"osm_id":"6925128530","tag":{"amenity":"recycling","recycling:glass":"yes","recycling_type":"container"}},"type":"Feature"},
	{"geometry":{"coordinates":[7.991216,48.537816],"type":"Point"},"properties":{"osm_id":"6925128531","tag":{"amenity":"waste_basket","waste":"dog_excrement"}},"type":"Feature"}
]
}
