{
"type": "FeatureCollection",
"lastupdate": "2020-08-04T00:00:00Z",
"features": [
	{"geometry":{"coordinates":[7.943707,47.290813],"type":"Point"},"properties":{"osm_id":"311643067","tag":{"amenity":"recycling","location":"underground","recycling:clothes":"yes","recycling:glass":"yes","recycling_type":"container"}},"type":"Feature"},
	{"geometry":{"coordinates":[7.945115,47.285992],"type":"Point"},"properties":{"osm_id":"311643068","tag":{"amenity":"recycling","location":"underground","recycling:clothes":"yes","recycling:glass":"yes","recycling_type":"container"}},"type":"Feature"},
	{"geometry":{"coordinates":[7.974357,47.320702],"type":"Point"},"properties":{"osm_id":"601731225","tag":{"amenity":"recycling"}},"type":"Feature"},
	{"geometry":{"coordinates":[7.940096,47.282913],"type":"Point"},"properties":{"osm_id":"955760476","tag":{"amenity":"recycling","location":"underground","recycling:aluminium":"yes","recycling:clothes":"yes","recycling:glass":"yes","recycling_type":"container"}},"type":"Feature"},
	{"geometry":{"coordinates":[7.93904,47.284706],"type":"Point"},"properties":{"osm_id":"2079782205","tag":{"amenity":"recycling","recycling_type":"centre"}},"type":"Feature"},
	{"geometry":{"coordinates":[7.9365,47.293349],"type":"Point"},"properties":{"name":"Gloor Recycling","osm_id":"2188095442","tag":{"amenity":"recycling","recycling_type":"centre"}},"type":"Feature"},
	{"geometry":{"coordinates":[7.940639,47.282529],"type":"Point"},"properties":{"osm_id":"4357848111","tag":{"amenity":"waste_basket"}},"type":"Feature"},
	{"geometry":{"coordinates":[7.94041,47.282871],"type":"Point"},"properties":{"osm_id":"4357848116","tag":{"amenity":"waste_basket"}},"type":"Feature"},
	{"geometry":{"coordinates":[7.940167,47.282934],"type":"Point"},"properties":{"osm_id":"4357848121","tag":{"amenity":"waste_basket"}},"type":"Feature"},
	{"geometry":{"coordinates":[7.943029,47.287801],"type":"Point"},"properties":{"osm_id":"5680448018","tag":{"amenity":"waste_basket","waste":"trash"}},"type":"Feature"},
	{"geometry":{"coordinates":[7.942928,47.28829],"type":"Point"},"properties":{"osm_id":"5680448020","tag":{"amenity":"waste_basket","waste":"trash"}},"type":"Feature"},
	{"geometry":{"coordinates":[7.942642,47.288746],"type":"Point"},"properties":{"osm_id":"5680448438","tag":{"amenity":"waste_basket","waste":"trash"}},"type":"Feature"}
]
}
