{
"type": "FeatureCollection",
"features": [
	{"geometry":{"coordinates":[7.924849,46.604733],"type":"Point"},"properties":{"osm_id":"4366876875","tag":{"amenity":"waste_disposal"}},"type":"Feature"},
	{"geometry":{"coordinates":[7.9608,46.585091],"type":"Point"},"properties":{"osm_id":"4552496167","tag":{"amenity":"recycling","recycling:cans":"no","recycling:clothes":"no","recycling:glass":"no","recycling:glass_bottles":"no","recycling:paper":"no","recycling:plastic":"yes","recycling_type":"container","wheelchair":"yes"}},"type":"Feature"},
	{"geometry":{"coordinates":[7.960956,46.585155],"type":"Point"},"properties":{"osm_id":"4552496171","tag":{"amenity":"waste_basket"}},"type":"Feature"},
	{"geometry":{"coordinates":[7.911056,46.616164],"type":"Point"},"properties":{"osm_id":"7737255473","tag":{"amenity":"waste_basket"}},"type":"Feature"},
	{"geometry":{"coordinates":[7.92007,46.605596],"type":"Point"},"properties":{"osm_id":"7748320075","tag":{"amenity":"recycling","level":"-1","recycling:PET":"yes","recycling:cans":"yes","recycling_type":"centre"}},"type":"Feature"},
	{"geometry":{"coordinates":[7.916729,46.608922],"type":"Point"},"properties":{"osm_id":"7748495969","tag":{"amenity":"recycling","description":"Aluminium, Stahlblech, Trash"}},"type":"Feature"},
	{"geometry":{"coordinates":[7.921257,46.60492],"type":"Point"},"properties":{"osm_id":"7801610770","tag":{"amenity":"recycling","opening_hours":"24/7","recycling:PET":"yes","recycling:cans":"yes","recycling_type":"container","wheelchair":"yes"}},"type":"Feature"},
	{"geometry":{"coordinates":[7.953537,46.57845],"type":"Point"},"properties":{"osm_id":"7841180379","tag":{"amenity":"waste_basket","waste":"trash"}},"type":"Feature"}
]
}
