{
"type": "FeatureCollection",
"lastupdate": "2020-07-31T00:00:00Z",
"features": [
	{"geometry":{"coordinates":[8.630926,53.616059],"type":"Point"},"properties":{"osm_id":"3594370298","tag":{"amenity":"waste_basket"}},"type":"Feature"},
	{"geometry":{"coordinates":[8.631329,53.616112],"type":"Point"},"properties":{"osm_id":"3594370300","tag":{"amenity":"waste_basket"}},"type":"Feature"},
	{"geometry":{"coordinates":[8.630142,53.617168],"type":"Point"},"properties":{"osm_id":"3594370302","tag":{"amenity":"waste_basket"}},"type":"Feature"},
	{"geometry":{"coordinates":[8.630786,53.617499],"type":"Point"},"properties":{"osm_id":"3594370304","tag":{"amenity":"waste_basket"}},"type":"Feature"},
	{"geometry":{"coordinates":[8.632355,53.618519],"type":"Point"},"properties":{"osm_id":"3594370307","tag":{"amenity":"recycling","operator":"EAST-WEST Textilrecycling Kursun GmbH","recycling:clothes":"yes","recycling_type":"container"}},"type":"Feature"},
	{"geometry":{"coordinates":[8.628548,53.616517],"type":"Point"},"properties":{"osm_id":"3594384225","tag":{"amenity":"waste_basket"}},"type":"Feature"},
	{"geometry":{"coordinates":[8.697174,53.641027],"type":"Point"},"properties":{"osm_id":"5197165260","tag":{"amenity":"recycling","recycling:glass_bottles":"yes","recycling_type":"container"}},"type":"Feature"},
	{"geometry":{"coordinates":[8.643072,53.622175],"type":"Point"},"properties":{"osm_id":"5703249528","tag":{"amenity":"recycling","recycling:clothes":"yes","recycling:glass_bottles":"yes","recycling_type":"container"}},"type":"Feature"},
	{"geometry":{"coordinates":[8.613495,53.615986],"type":"Point"},"properties":{"osm_id":"5764160786","tag":{"amenity":"recycling","recycling:clothes":"yes","recycling:shoes":"yes","recycling_type":"container"}},"type":"Feature"},
	{"geometry":{"coordinates":[8.637531,53.624121],"type":"Point"},"properties":{"osm_id":"5779314662","tag":{"amenity":"recycling","operator":"East-West Textilrecycling Kursun GmbH","recycling:clothes":"yes","recycling_type":"container"}},"type":"Feature"},
	{"geometry":{"coordinates":[8.637496,53.62412],"type":"Point"},"properties":{"osm_id":"6695021020","tag":{"amenity":"recycling","material":"metal","recycling:glass":"yes","recycling_type":"container"}},"type":"Feature"},
	{"geometry":{"coordinates":[8.660473,53.617009],"type":"Point"},"properties":{"osm_id":"7757230708","tag":{"amenity":"recycling","recycling:green_waste":"yes","recycling:wood":"yes","recycling_type":"container"}},"type":"Feature"},
	{"geometry":{"coordinates":[8.660444,53.615234],"type":"Point"},"properties":{"osm_id":"7757230709","tag":{"amenity":"recycling","description":"DE: Leuchtmittel, Elektro- / Elektronikger\u00e4te, Schrott, Holz, Papier","opening_hours:covid19":"open","recycling:aluminium":"yes","recycling:electrical_appliances":"yes","recycling_type":"centre"}},"type":"Feature"},
	{"geometry":{"coordinates":[8.659501,53.615639],"type":"Point"},"properties":{"osm_id":"7757230710","tag":{"amenity":"recycling","recycling_type":"centre"}},"type":"Feature"}
]
}
