{
"type": "FeatureCollection",
"features": [
	{"geometry":{"coordinates":[8.633979,53.469116],"type":"Point"},"properties":{"osm_id":"1386676716","tag":{"amenity":"recycling","recycling:glass_bottles":"yes","recycling_type":"container"}},"type":"Feature"},
	{"geometry":{"coordinates":[8.640399,53.465454],"type":"Point"},"properties":{"osm_id":"1386676724","tag":{"amenity":"recycling","contact:phone":"+49 180 5700864","operator":"ELKO-Trans KG","recycling:cans":"no","recycling:clothes":"yes","recycling:glass":"no","recycling:glass_bottles":"no","recycling:paper":"no","recycling:plastic":"no","recycling_type":"container"}},"type":"Feature"},
	{"geometry":{"coordinates":[8.651774,53.474476],"type":"Point"},"properties":{"osm_id":"2269546160","tag":{"amenity":"recycling","recycling:cans":"no","recycling:clothes":"yes","recycling:glass":"no","recycling:paper":"no","recycling_type":"container"}},"type":"Feature"},
	{"geometry":{"coordinates":[8.6552,53.475797],"type":"Point"},"properties":{"osm_id":"2269546173","tag":{"amenity":"recycling","recycling:clothes":"yes","recycling:glass":"yes","recycling_type":"container"}},"type":"Feature"},
	{"geometry":{"coordinates":[8.647231,53.468101],"type":"Point"},"properties":{"osm_id":"2612840697","tag":{"amenity":"recycling","recycling:cans":"no","recycling:clothes":"yes","recycling:glass":"yes","recycling:paper":"no","recycling_type":"container"}},"type":"Feature"},
	{"geometry":{"coordinates":[8.652029,53.472844],"type":"Point"},"properties":{"osm_id":"2615183376","tag":{"amenity":"recycling","operator":"Kolping Recycling GmbH","recycling:cans":"no","recycling:clothes":"yes","recycling:glass":"no","recycling:paper":"no","recycling_type":"container"}},"type":"Feature"},
	{"geometry":{"coordinates":[8.661124,53.460578],"type":"Point"},"properties":{"osm_id":"2904932349","tag":{"amenity":"recycling","recycling:clothes":"yes","recycling:glass":"yes","recycling:paper":"no","recycling_type":"container"}},"type":"Feature"},
	{"geometry":{"coordinates":[8.644783,53.462351],"type":"Point"},"properties":{"osm_id":"2932331865","tag":{"amenity":"waste_basket"}},"type":"Feature"},
	{"geometry":{"coordinates":[8.651036,53.472032],"type":"Point"},"properties":{"osm_id":"3138189266","tag":{"amenity":"waste_basket"}},"type":"Feature"},
	{"geometry":{"coordinates":[8.650494,53.471951],"type":"Point"},"properties":{"osm_id":"3138189267","tag":{"amenity":"waste_basket"}},"type":"Feature"},
	{"geometry":{"coordinates":[8.650322,53.471916],"type":"Point"},"properties":{"osm_id":"3138189268","tag":{"amenity":"waste_basket"}},"type":"Feature"},
	{"geometry":{"coordinates":[8.650339,53.472751],"type":"Point"},"properties":{"osm_id":"3138264844","tag":{"amenity":"waste_basket"}},"type":"Feature"},
	{"geometry":{"coordinates":[8.650586,53.47303],"type":"Point"},"properties":{"osm_id":"3138268299","tag":{"amenity":"waste_basket"}},"type":"Feature"},
	{"geometry":{"coordinates":[8.673135,53.46477],"type":"Point"},"properties":{"osm_id":"3268673007","tag":{"amenity":"waste_basket"}},"type":"Feature"},
	{"geometry":{"coordinates":[8.670683,53.467348],"type":"Point"},"properties":{"osm_id":"3268673008","tag":{"amenity":"waste_basket"}},"type":"Feature"},
	{"geometry":{"coordinates":[8.685754,53.478458],"type":"Point"},"properties":{"osm_id":"3268673009","tag":{"amenity":"waste_basket"}},"type":"Feature"},
	{"geometry":{"coordinates":[8.665775,53.458186],"type":"Point"},"properties":{"osm_id":"3268673027","tag":{"amenity":"waste_basket"}},"type":"Feature"},
	{"geometry":{"coordinates":[8.681563,53.460948],"type":"Point"},"properties":{"osm_id":"3276947848","tag":{"amenity":"waste_basket"}},"type":"Feature"},
	{"geometry":{"coordinates":[8.663456,53.455734],"type":"Point"},"properties":{"osm_id":"3280425072","tag":{"amenity":"waste_basket"}},"type":"Feature"},
	{"geometry":{"coordinates":[8.663531,53.450859],"type":"Point"},"properties":{"osm_id":"3296354028","tag":{"amenity":"waste_basket"}},"type":"Feature"},
	{"geometry":{"coordinates":[8.617934,53.450959],"type":"Point"},"properties":{"osm_id":"3296490881","tag":{"amenity":"waste_basket"}},"type":"Feature"},
	{"geometry":{"coordinates":[8.632133,53.441114],"type":"Point"},"properties":{"osm_id":"3300248348","tag":{"amenity":"waste_basket"}},"type":"Feature"},
	{"geometry":{"coordinates":[8.649271,53.470005],"type":"Point"},"properties":{"osm_id":"3305007965","tag":{"amenity":"waste_basket"}},"type":"Feature"},
	{"geometry":{"coordinates":[8.654531,53.47024],"type":"Point"},"properties":{"osm_id":"3376908552","tag":{"amenity":"recycling","recycling:cans":"no","recycling:clothes":"yes","recycling:glass":"yes","recycling:paper":"no","recycling_type":"container"}},"type":"Feature"},
	{"geometry":{"coordinates":[8.653966,53.47026],"type":"Point"},"properties":{"osm_id":"3376909731","tag":{"amenity":"waste_basket"}},"type":"Feature"},
	{"geometry":{"coordinates":[8.652676,53.469557],"type":"Point"},"properties":{"osm_id":"3394361670","tag":{"amenity":"waste_basket"}},"type":"Feature"},
	{"geometry":{"coordinates":[8.647062,53.466163],"type":"Point"},"properties":{"osm_id":"3461431624","tag":{"amenity":"waste_basket"}},"type":"Feature"},
	{"geometry":{"coordinates":[8.640082,53.46787],"type":"Point"},"properties":{"osm_id":"3495808773","tag":{"amenity":"waste_basket"}},"type":"Feature"},
	{"geometry":{"coordinates":[8.64031,53.467982],"type":"Point"},"properties":{"osm_id":"3495808774","tag":{"amenity":"waste_basket"}},"type":"Feature"},
	{"geometry":{"coordinates":[8.640932,53.46804],"type":"Point"},"properties":{"osm_id":"3495808775","tag":{"amenity":"waste_basket"}},"type":"Feature"},
	{"geometry":{"coordinates":[8.641128,53.468003],"type":"Point"},"properties":{"osm_id":"3495808776","tag":{"amenity":"waste_basket"}},"type":"Feature"},
	{"geometry":{"coordinates":[8.641383,53.467938],"type":"Point"},"properties":{"osm_id":"3495808777","tag":{"amenity":"waste_basket"}},"type":"Feature"},
	{"geometry":{"coordinates":[8.641823,53.467855],"type":"Point"},"properties":{"osm_id":"3495808778","tag":{"amenity":"waste_basket"}},"type":"Feature"},
	{"geometry":{"coordinates":[8.6416,53.467909],"type":"Point"},"properties":{"osm_id":"3495808779","tag":{"amenity":"waste_basket"}},"type":"Feature"},
	{"geometry":{"coordinates":[8.641807,53.468326],"type":"Point"},"properties":{"osm_id":"3495808781","tag":{"amenity":"waste_basket"}},"type":"Feature"},
	{"geometry":{"coordinates":[8.638671,53.467824],"type":"Point"},"properties":{"osm_id":"3495821800","tag":{"amenity":"waste_basket"}},"type":"Feature"},
	{"geometry":{"coordinates":[8.63964,53.468389],"type":"Point"},"properties":{"osm_id":"3495821801","tag":{"amenity":"waste_basket"}},"type":"Feature"},
	{"geometry":{"coordinates":[8.64025,53.46854],"type":"Point"},"properties":{"osm_id":"3495828250","tag":{"amenity":"waste_basket"}},"type":"Feature"},
	{"geometry":{"coordinates":[8.640283,53.468549],"type":"Point"},"properties":{"osm_id":"3495828251","tag":{"amenity":"waste_basket"}},"type":"Feature"},
	{"geometry":{"coordinates":[8.64073,53.468809],"type":"Point"},"properties":{"osm_id":"3495828252","tag":{"amenity":"waste_basket"}},"type":"Feature"},
	{"geometry":{"coordinates":[8.642499,53.46937],"type":"Point"},"properties":{"osm_id":"3495828253","tag":{"amenity":"waste_basket"}},"type":"Feature"},
	{"geometry":{"coordinates":[8.643899,53.468936],"type":"Point"},"properties":{"osm_id":"3495828254","tag":{"amenity":"waste_basket"}},"type":"Feature"},
	{"geometry":{"coordinates":[8.644819,53.470087],"type":"Point"},"properties":{"osm_id":"3495872151","tag":{"amenity":"waste_basket"}},"type":"Feature"},
	{"geometry":{"coordinates":[8.645345,53.470157],"type":"Point"},"properties":{"osm_id":"3495872153","tag":{"amenity":"waste_basket"}},"type":"Feature"},
	{"geometry":{"coordinates":[8.64562,53.470253],"type":"Point"},"properties":{"osm_id":"3495872156","tag":{"amenity":"waste_basket"}},"type":"Feature"},
	{"geometry":{"coordinates":[8.643234,53.471482],"type":"Point"},"properties":{"osm_id":"3499800853","tag":{"amenity":"waste_basket"}},"type":"Feature"},
	{"geometry":{"coordinates":[8.633597,53.46914],"type":"Point"},"properties":{"osm_id":"3499857423","tag":{"amenity":"waste_basket"}},"type":"Feature"},
	{"geometry":{"coordinates":[8.635448,53.466989],"type":"Point"},"properties":{"osm_id":"3499888472","tag":{"amenity":"waste_basket"}},"type":"Feature"},
	{"geometry":{"coordinates":[8.650199,53.470759],"type":"Point"},"properties":{"osm_id":"3512986376","tag":{"amenity":"waste_basket"}},"type":"Feature"},
	{"geometry":{"coordinates":[8.64991,53.472589],"type":"Point"},"properties":{"osm_id":"3513090192","tag":{"amenity":"waste_basket"}},"type":"Feature"},
	{"geometry":{"coordinates":[8.650322,53.472045],"type":"Point"},"properties":{"osm_id":"3513091172","tag":{"amenity":"waste_basket"}},"type":"Feature"},
	{"geometry":{"coordinates":[8.648099,53.471723],"type":"Point"},"properties":{"osm_id":"3513260009","tag":{"amenity":"waste_basket"}},"type":"Feature"},
	{"geometry":{"coordinates":[8.654231,53.474201],"type":"Point"},"properties":{"osm_id":"3513292908","tag":{"amenity":"waste_basket"}},"type":"Feature"},
	{"geometry":{"coordinates":[8.627284,53.45874],"type":"Point"},"properties":{"osm_id":"3528200475","tag":{"amenity":"recycling","recycling:clothes":"yes","recycling:glass":"yes","recycling:glass_bottles":"yes","recycling_type":"container"}},"type":"Feature"},
	{"geometry":{"coordinates":[8.645242,53.467438],"type":"Point"},"properties":{"osm_id":"3548124611","tag":{"amenity":"waste_basket"}},"type":"Feature"},
	{"geometry":{"coordinates":[8.645975,53.466275],"type":"Point"},"properties":{"osm_id":"3548124621","tag":{"amenity":"waste_basket"}},"type":"Feature"},
	{"geometry":{"coordinates":[8.644966,53.46606],"type":"Point"},"properties":{"osm_id":"3548124627","tag":{"amenity":"waste_basket"}},"type":"Feature"},
	{"geometry":{"coordinates":[8.644737,53.466769],"type":"Point"},"properties":{"osm_id":"3548124630","tag":{"amenity":"waste_basket"}},"type":"Feature"},
	{"geometry":{"coordinates":[8.645487,53.465769],"type":"Point"},"properties":{"osm_id":"3548124631","tag":{"amenity":"waste_basket"}},"type":"Feature"},
	{"geometry":{"coordinates":[8.648559,53.465405],"type":"Point"},"properties":{"osm_id":"3548165766","tag":{"amenity":"waste_basket"}},"type":"Feature"},
	{"geometry":{"coordinates":[8.652337,53.472871],"type":"Point"},"properties":{"osm_id":"3559356776","tag":{"amenity":"waste_basket"}},"type":"Feature"},
	{"geometry":{"coordinates":[8.649271,53.480757],"type":"Point"},"properties":{"osm_id":"3559388578","tag":{"amenity":"waste_basket"}},"type":"Feature"},
	{"geometry":{"coordinates":[8.650094,53.478357],"type":"Point"},"properties":{"osm_id":"3559388585","tag":{"amenity":"recycling","operator":"Malteser","recycling:clothes":"yes","recycling_type":"container"}},"type":"Feature"},
	{"geometry":{"coordinates":[8.645241,53.475794],"type":"Point"},"properties":{"osm_id":"3622543353","tag":{"amenity":"recycling","operator":"Deutsches Rotes Kreuz","recycling:clothes":"yes","recycling_type":"container"}},"type":"Feature"},
	{"geometry":{"coordinates":[8.650081,53.478367],"type":"Point"},"properties":{"osm_id":"3622547644","tag":{"amenity":"recycling","recycling:glass":"yes","recycling_type":"container"}},"type":"Feature"},
	{"geometry":{"coordinates":[8.649612,53.472918],"type":"Point"},"properties":{"osm_id":"3666402974","tag":{"amenity":"waste_basket"}},"type":"Feature"},
	{"geometry":{"coordinates":[8.639748,53.472062],"type":"Point"},"properties":{"osm_id":"3688435620","tag":{"amenity":"waste_basket"}},"type":"Feature"},
	{"geometry":{"coordinates":[8.647249,53.47014],"type":"Point"},"properties":{"osm_id":"3755510912","tag":{"amenity":"waste_basket"}},"type":"Feature"},
	{"geometry":{"coordinates":[8.64749,53.469447],"type":"Point"},"properties":{"osm_id":"3796123317","tag":{"amenity":"waste_basket"}},"type":"Feature"},
	{"geometry":{"coordinates":[8.650836,53.483854],"type":"Point"},"properties":{"osm_id":"3796218439","tag":{"amenity":"waste_basket"}},"type":"Feature"},
	{"geometry":{"coordinates":[8.651302,53.483134],"type":"Point"},"properties":{"osm_id":"3796218440","tag":{"amenity":"waste_basket"}},"type":"Feature"},
	{"geometry":{"coordinates":[8.651783,53.482268],"type":"Point"},"properties":{"osm_id":"3796218441","tag":{"amenity":"waste_basket"}},"type":"Feature"},
	{"geometry":{"coordinates":[8.652328,53.474516],"type":"Point"},"properties":{"osm_id":"4045213386","tag":{"amenity":"waste_basket"}},"type":"Feature"},
	{"geometry":{"coordinates":[8.65221,53.474502],"type":"Point"},"properties":{"osm_id":"4045213387","tag":{"amenity":"waste_basket"}},"type":"Feature"},
	{"geometry":{"coordinates":[8.65222,53.474427],"type":"Point"},"properties":{"osm_id":"4045213388","tag":{"amenity":"waste_basket"}},"type":"Feature"},
	{"geometry":{"coordinates":[8.652354,53.474443],"type":"Point"},"properties":{"osm_id":"4045213389","tag":{"amenity":"waste_basket"}},"type":"Feature"},
	{"geometry":{"coordinates":[8.652477,53.474441],"type":"Point"},"properties":{"osm_id":"4045219089","tag":{"amenity":"waste_basket"}},"type":"Feature"},
	{"geometry":{"coordinates":[8.653414,53.47525],"type":"Point"},"properties":{"osm_id":"4045219092","tag":{"amenity":"waste_basket"}},"type":"Feature"},
	{"geometry":{"coordinates":[8.654119,53.474699],"type":"Point"},"properties":{"osm_id":"4047379214","tag":{"amenity":"waste_basket"}},"type":"Feature"},
	{"geometry":{"coordinates":[8.616717,53.457723],"type":"Point"},"properties":{"osm_id":"4117282123","tag":{"amenity":"waste_basket"}},"type":"Feature"},
	{"geometry":{"coordinates":[8.625109,53.462241],"type":"Point"},"properties":{"osm_id":"4117295388","tag":{"amenity":"waste_basket"}},"type":"Feature"},
	{"geometry":{"coordinates":[8.656009,53.450203],"type":"Point"},"properties":{"osm_id":"4160440937","tag":{"amenity":"waste_basket"}},"type":"Feature"},
	{"geometry":{"coordinates":[8.657279,53.453619],"type":"Point"},"properties":{"osm_id":"4232477774","tag":{"amenity":"waste_basket"}},"type":"Feature"},
	{"geometry":{"coordinates":[8.684887,53.483087],"type":"Point"},"properties":{"osm_id":"4232507567","tag":{"amenity":"recycling","contact:phone":"+49 1805 721217","operator":"Jeva","recycling:glass_bottles":"yes","recycling_type":"container"}},"type":"Feature"},
	{"geometry":{"coordinates":[8.655727,53.475543],"type":"Point"},"properties":{"name":"Nehlsen","osm_id":"4357230431","tag":{"addr:city":"Loxstedt","addr:country":"DE","addr:housenumber":"2","addr:postcode":"27612","addr:street":"Rudolf-Diesel-Stra\u00c3\u009fe","amenity":"recycling","fax":"+49 4744 3899","phone":"+49 4744 92950","recycling_type":"centre","website":"https://www.nehlsen.com/"}},"type":"Feature"},
	{"geometry":{"coordinates":[8.640868,53.467196],"type":"Point"},"properties":{"osm_id":"4534853225","tag":{"amenity":"recycling","recycling:clothes":"yes","recycling:glass":"yes","recycling_type":"container"}},"type":"Feature"},
	{"geometry":{"coordinates":[8.684835,53.483094],"type":"Point"},"properties":{"osm_id":"7494459554","tag":{"amenity":"recycling","recycling:clothes":"yes","recycling_type":"container"}},"type":"Feature"}
]
}
