{
"type": "FeatureCollection",
"features": [
	{"geometry":{"coordinates":[8.667986,53.171468],"type":"Point"},"properties":{"osm_id":"253631710","tag":{"amenity":"recycling","recycling:clothes":"yes","recycling:glass":"yes","recycling_type":"container"}},"type":"Feature"},
	{"geometry":{"coordinates":[8.618161,53.163896],"type":"Point"},"properties":{"osm_id":"280808445","tag":{"amenity":"recycling","recycling_type":"container"}},"type":"Feature"},
	{"geometry":{"coordinates":[8.688983,53.17093],"type":"Point"},"properties":{"osm_id":"292381743","tag":{"amenity":"recycling","recycling:glass":"yes","recycling_type":"container"}},"type":"Feature"},
	{"geometry":{"coordinates":[8.696918,53.168626],"type":"Point"},"properties":{"osm_id":"295080732","tag":{"amenity":"recycling","recycling:clothes":"yes","recycling:glass":"yes","recycling_type":"container"}},"type":"Feature"},
	{"geometry":{"coordinates":[8.650456,53.164323],"type":"Point"},"properties":{"osm_id":"599917944","tag":{"amenity":"recycling","recycling:clothes":"yes","recycling:electrical_appliances":"yes","recycling:glass":"no","recycling:glass_bottles":"yes","recycling_type":"container"}},"type":"Feature"},
	{"geometry":{"coordinates":[8.640648,53.169585],"type":"Point"},"properties":{"osm_id":"708091704","tag":{"amenity":"recycling","recycling:clothes":"yes","recycling:glass":"yes","recycling_type":"container"}},"type":"Feature"},
	{"geometry":{"coordinates":[8.669518,53.168512],"type":"Point"},"properties":{"osm_id":"1122285759","tag":{"amenity":"waste_basket"}},"type":"Feature"},
	{"geometry":{"coordinates":[8.671485,53.16845],"type":"Point"},"properties":{"osm_id":"1122285793","tag":{"amenity":"waste_basket"}},"type":"Feature"},
	{"geometry":{"coordinates":[8.676369,53.165373],"type":"Point"},"properties":{"osm_id":"1122313682","tag":{"amenity":"waste_basket"}},"type":"Feature"},
	{"geometry":{"coordinates":[8.67647,53.16538],"type":"Point"},"properties":{"osm_id":"1122313840","tag":{"amenity":"waste_basket"}},"type":"Feature"},
	{"geometry":{"coordinates":[8.627391,53.171276],"type":"Point"},"properties":{"osm_id":"1210918270","tag":{"amenity":"recycling","recycling:clothes":"yes","recycling:glass":"yes","recycling_type":"container"}},"type":"Feature"},
	{"geometry":{"coordinates":[8.646928,53.161115],"type":"Point"},"properties":{"osm_id":"1581099621","ref":"WENDEKREIS AM WASSER","tag":{"amenity":"waste_basket","ref:tour":"HKB_5","waste_basket:excrement_bags":"yes"}},"type":"Feature"},
	{"geometry":{"coordinates":[8.658888,53.16131],"type":"Point"},"properties":{"osm_id":"1581099622","ref":"MEIERHOFSTRASSE/MAGDALENE-MELCHERS-WEG","tag":{"amenity":"waste_basket","ref:tour":"HKB_5","waste_basket:excrement_bags":"yes"}},"type":"Feature"},
	{"geometry":{"coordinates":[8.643073,53.161947],"type":"Point"},"properties":{"osm_id":"1581099623","ref":"AM WASSER / SPORTHAFEN GROHN","tag":{"amenity":"waste_basket","ref:tour":"HKB_5","waste_basket:excrement_bags":"yes"}},"type":"Feature"},
	{"geometry":{"coordinates":[8.670815,53.162511],"type":"Point"},"properties":{"osm_id":"1581099624","ref":"MAGDALENE-MELCHERS-WEG/KNOOPS PARK","tag":{"amenity":"waste_basket","ref:tour":"HKB_5","waste_basket:excrement_bags":"yes"}},"type":"Feature"},
	{"geometry":{"coordinates":[8.637531,53.166844],"type":"Point"},"properties":{"osm_id":"1581099637","ref":"FRIEDRICH HUMBERT STRASSE GEGENUEBER SPARKASSE","tag":{"amenity":"waste_basket","ref:tour":"HKB_5","waste_basket:excrement_bags":"yes"}},"type":"Feature"},
	{"geometry":{"coordinates":[8.631101,53.167005],"type":"Point"},"properties":{"osm_id":"1581099644","ref":"GROHNER MARKT FRIEDRICH HUMBERTSTRASSE","tag":{"amenity":"waste_basket","ref:tour":"HKB_5","waste_basket:excrement_bags":"yes"}},"type":"Feature"},
	{"geometry":{"coordinates":[8.693517,53.168418],"type":"Point"},"properties":{"osm_id":"1581099649","ref":"HINDENBURGSTRASSE VOR HAUS 24","tag":{"amenity":"waste_basket","ref:tour":"HKB_5","waste_basket:excrement_bags":"yes"}},"type":"Feature"},
	{"geometry":{"coordinates":[8.62032,53.169136],"type":"Point"},"properties":{"osm_id":"1581099653","ref":"VEGESACKER WESERPROMENADE SIGNALSTATION","tag":{"amenity":"waste_basket","ref:tour":"HKB_5","waste_basket:excrement_bags":"yes"}},"type":"Feature"},
	{"geometry":{"coordinates":[8.629012,53.170603],"type":"Point"},"properties":{"osm_id":"1581099658","ref":"WARNEM\u00c3\u009cNDER WEG /AM STADION","tag":{"amenity":"waste_basket","ref:tour":"HKB_5","waste_basket:excrement_bags":"yes"}},"type":"Feature"},
	{"geometry":{"coordinates":[8.626088,53.171453],"type":"Point"},"properties":{"osm_id":"1581099671","ref":"HARTMANNSTRASSE/BGM. WITTGENSTEINSTRASSE","tag":{"amenity":"waste_basket","ref:tour":"HKB_5","waste_basket:excrement_bags":"yes"}},"type":"Feature"},
	{"geometry":{"coordinates":[8.647464,53.168795],"type":"Point"},"properties":{"osm_id":"2192182593","tag":{"amenity":"recycling","recycling:glass":"yes","recycling_type":"container"}},"type":"Feature"},
	{"geometry":{"coordinates":[8.657524,53.158085],"type":"Point"},"properties":{"osm_id":"2390792502","tag":{"amenity":"waste_basket"}},"type":"Feature"},
	{"geometry":{"coordinates":[8.647102,53.159355],"type":"Point"},"properties":{"osm_id":"2395996293","tag":{"amenity":"waste_basket"}},"type":"Feature"},
	{"geometry":{"coordinates":[8.623757,53.128279],"type":"Point"},"properties":{"osm_id":"2704154797","tag":{"amenity":"recycling","recycling:glass":"yes","recycling_type":"container"}},"type":"Feature"},
	{"geometry":{"coordinates":[8.62191,53.135043],"type":"Point"},"properties":{"osm_id":"2704156716","tag":{"amenity":"recycling","recycling:glass":"yes","recycling_type":"container"}},"type":"Feature"},
	{"geometry":{"coordinates":[8.617432,53.158008],"type":"Point"},"properties":{"osm_id":"2704160897","tag":{"amenity":"recycling","recycling:glass":"yes","recycling_type":"container"}},"type":"Feature"},
	{"geometry":{"coordinates":[8.66689,53.121831],"type":"Point"},"properties":{"osm_id":"2752866388","tag":{"amenity":"recycling","recycling:glass_bottles":"yes","recycling_type":"container"}},"type":"Feature"},
	{"geometry":{"coordinates":[8.64271,53.163086],"type":"Point"},"properties":{"osm_id":"3058217082","tag":{"amenity":"recycling","recycling:clothes":"yes","recycling:glass":"yes","recycling_type":"container"}},"type":"Feature"},
	{"geometry":{"coordinates":[8.661203,53.167074],"type":"Point"},"properties":{"osm_id":"3058217093","tag":{"amenity":"recycling","recycling:clothes":"yes","recycling:glass":"yes","recycling_type":"container"}},"type":"Feature"},
	{"geometry":{"coordinates":[8.693982,53.167992],"type":"Point"},"properties":{"osm_id":"3058217125","tag":{"amenity":"recycling","recycling:clothes":"yes","recycling:glass":"yes","recycling_type":"container"}},"type":"Feature"},
	{"geometry":{"coordinates":[8.657592,53.168668],"type":"Point"},"properties":{"osm_id":"3058217269","tag":{"amenity":"recycling","recycling:clothes":"no","recycling:glass":"yes","recycling_type":"container"}},"type":"Feature"},
	{"geometry":{"coordinates":[8.653313,53.171336],"type":"Point"},"properties":{"osm_id":"3058217472","tag":{"amenity":"recycling","recycling:clothes":"yes","recycling:glass":"yes","recycling_type":"container"}},"type":"Feature"},
	{"geometry":{"coordinates":[8.621571,53.169467],"type":"Point"},"properties":{"osm_id":"3189045955","tag":{"access":"customers","amenity":"recycling","recycling:glass":"yes","recycling_type":"container"}},"type":"Feature"},
	{"geometry":{"coordinates":[8.638944,53.120947],"type":"Point"},"properties":{"osm_id":"4090752969","tag":{"amenity":"waste_basket"}},"type":"Feature"},
	{"geometry":{"coordinates":[8.624804,53.1684],"type":"Point"},"properties":{"osm_id":"4437574131","tag":{"amenity":"waste_basket"}},"type":"Feature"},
	{"geometry":{"coordinates":[8.626167,53.169335],"type":"Point"},"properties":{"osm_id":"4437574132","tag":{"amenity":"waste_basket"}},"type":"Feature"},
	{"geometry":{"coordinates":[8.627855,53.169051],"type":"Point"},"properties":{"osm_id":"4437574133","tag":{"amenity":"waste_basket"}},"type":"Feature"},
	{"geometry":{"coordinates":[8.627395,53.169309],"type":"Point"},"properties":{"osm_id":"4437574134","tag":{"amenity":"waste_basket"}},"type":"Feature"},
	{"geometry":{"coordinates":[8.626521,53.169438],"type":"Point"},"properties":{"osm_id":"4437574135","tag":{"amenity":"waste_basket"}},"type":"Feature"},
	{"geometry":{"coordinates":[8.623412,53.168141],"type":"Point"},"properties":{"osm_id":"4439439781","tag":{"amenity":"waste_basket"}},"type":"Feature"},
	{"geometry":{"coordinates":[8.623364,53.168217],"type":"Point"},"properties":{"osm_id":"4439440092","tag":{"amenity":"waste_basket"}},"type":"Feature"},
	{"geometry":{"coordinates":[8.623208,53.16822],"type":"Point"},"properties":{"osm_id":"4439440093","tag":{"amenity":"waste_basket"}},"type":"Feature"},
	{"geometry":{"coordinates":[8.623093,53.168354],"type":"Point"},"properties":{"osm_id":"4439440101","tag":{"amenity":"waste_basket"}},"type":"Feature"},
	{"geometry":{"coordinates":[8.624558,53.168698],"type":"Point"},"properties":{"osm_id":"4439440102","tag":{"amenity":"waste_basket"}},"type":"Feature"},
	{"geometry":{"coordinates":[8.624869,53.16885],"type":"Point"},"properties":{"osm_id":"4439440103","tag":{"amenity":"waste_basket"}},"type":"Feature"},
	{"geometry":{"coordinates":[8.627909,53.169026],"type":"Point"},"properties":{"osm_id":"4439440106","tag":{"amenity":"waste_basket"}},"type":"Feature"},
	{"geometry":{"coordinates":[8.62546,53.169041],"type":"Point"},"properties":{"osm_id":"4439440108","tag":{"amenity":"waste_basket"}},"type":"Feature"},
	{"geometry":{"coordinates":[8.62557,53.169177],"type":"Point"},"properties":{"osm_id":"4439440110","tag":{"amenity":"waste_basket"}},"type":"Feature"},
	{"geometry":{"coordinates":[8.62783,53.169745],"type":"Point"},"properties":{"osm_id":"4439440121","tag":{"amenity":"waste_basket"}},"type":"Feature"},
	{"geometry":{"coordinates":[8.628089,53.169939],"type":"Point"},"properties":{"osm_id":"4439440122","tag":{"amenity":"waste_basket"}},"type":"Feature"},
	{"geometry":{"coordinates":[8.665971,53.164027],"type":"Point"},"properties":{"osm_id":"4954492839","tag":{"amenity":"waste_basket"}},"type":"Feature"},
	{"geometry":{"coordinates":[8.630648,53.168954],"type":"Point"},"properties":{"osm_id":"5752764521","tag":{"amenity":"waste_basket"}},"type":"Feature"},
	{"geometry":{"coordinates":[8.622828,53.160846],"type":"Point"},"properties":{"osm_id":"5849962474","tag":{"amenity":"waste_basket","waste":"trash"}},"type":"Feature"},
	{"geometry":{"coordinates":[8.622364,53.160732],"type":"Point"},"properties":{"osm_id":"6340911087","tag":{"amenity":"waste_basket","waste":"trash"}},"type":"Feature"},
	{"geometry":{"coordinates":[8.699834,53.16822],"type":"Point"},"properties":{"osm_id":"6418534684","tag":{"amenity":"waste_basket","waste":"dog_excrement"}},"type":"Feature"},
	{"geometry":{"coordinates":[8.67633,53.169653],"type":"Point"},"properties":{"osm_id":"6419816737","tag":{"amenity":"waste_basket","waste":"trash"}},"type":"Feature"},
	{"geometry":{"coordinates":[8.67784,53.169042],"type":"Point"},"properties":{"osm_id":"6419816739","tag":{"amenity":"waste_basket","waste":"dog_excrement"}},"type":"Feature"},
	{"geometry":{"coordinates":[8.689573,53.165311],"type":"Point"},"properties":{"osm_id":"7707018804","ref":"ADMIRAL-BROMMY-WEG/AM LESUMHAFEN","tag":{"amenity":"waste_basket","ref:tour":"HKB_5","waste_basket:excrement_bags":"yes"}},"type":"Feature"}
]
}
