{
"type": "FeatureCollection",
"lastupdate": "2020-08-05T00:00:00Z",
"features": [
	{"geometry":{"coordinates":[8.673935,52.983368],"type":"Point"},"properties":{"osm_id":"4089033982","tag":{"amenity":"waste_basket"}},"type":"Feature"},
	{"geometry":{"coordinates":[8.676351,53.013393],"type":"Point"},"properties":{"osm_id":"5228944442","tag":{"amenity":"waste_basket","waste_basket:excrement_bags":"yes"}},"type":"Feature"},
	{"geometry":{"coordinates":[8.688284,53.014557],"type":"Point"},"properties":{"osm_id":"5689835971","tag":{"amenity":"waste_basket"}},"type":"Feature"},
	{"geometry":{"coordinates":[8.685197,53.011626],"type":"Point"},"properties":{"osm_id":"5689835972","tag":{"amenity":"waste_basket"}},"type":"Feature"},
	{"geometry":{"coordinates":[8.68269,53.009691],"type":"Point"},"properties":{"osm_id":"5689835974","tag":{"amenity":"waste_basket"}},"type":"Feature"},
	{"geometry":{"coordinates":[8.681217,53.008616],"type":"Point"},"properties":{"osm_id":"5689835976","tag":{"amenity":"waste_basket"}},"type":"Feature"}
]
}
