{
"type": "FeatureCollection",
"features": [
	{"geometry":{"coordinates":[8.695315,52.205752],"type":"Point"},"properties":{"name":"Kirchstra\u00c3\u009fe","osm_id":"32435235","tag":{"amenity":"recycling"}},"type":"Feature"},
	{"geometry":{"coordinates":[8.693844,52.209056],"type":"Point"},"properties":{"osm_id":"32435239","tag":{"amenity":"recycling"}},"type":"Feature"},
	{"geometry":{"coordinates":[8.689161,52.18429],"type":"Point"},"properties":{"osm_id":"32435246","tag":{"amenity":"recycling"}},"type":"Feature"},
	{"geometry":{"coordinates":[8.691239,52.185898],"type":"Point"},"properties":{"osm_id":"32435250","tag":{"amenity":"recycling"}},"type":"Feature"},
	{"geometry":{"coordinates":[8.678697,52.178589],"type":"Point"},"properties":{"osm_id":"32435282","tag":{"amenity":"recycling","recycling:glass_bottles":"yes","recycling_type":"container"}},"type":"Feature"},
	{"geometry":{"coordinates":[8.689941,52.187531],"type":"Point"},"properties":{"name":"Poststra\u00c3\u009fe","osm_id":"32435284","tag":{"amenity":"recycling"}},"type":"Feature"},
	{"geometry":{"coordinates":[8.69796,52.187965],"type":"Point"},"properties":{"name":"Sch\u00c3\u00bctzenplatz , Dickendorner Weg","osm_id":"32435303","tag":{"amenity":"recycling"}},"type":"Feature"},
	{"geometry":{"coordinates":[8.639263,52.186178],"type":"Point"},"properties":{"osm_id":"1899024971","tag":{"amenity":"recycling","recycling:clothes":"yes","recycling_type":"container"}},"type":"Feature"},
	{"geometry":{"coordinates":[8.613633,52.168208],"type":"Point"},"properties":{"osm_id":"2500427240","tag":{"amenity":"recycling","recycling:cans":"no","recycling:clothes":"yes","recycling:glass_bottles":"yes","recycling:paper":"no","recycling_type":"container"}},"type":"Feature"},
	{"geometry":{"coordinates":[8.617076,52.16468],"type":"Point"},"properties":{"osm_id":"2500427241","tag":{"amenity":"recycling","recycling:glass_bottles":"yes","recycling_type":"container"}},"type":"Feature"},
	{"geometry":{"coordinates":[8.618931,52.174725],"type":"Point"},"properties":{"osm_id":"3099067468","tag":{"amenity":"recycling","recycling:glass_bottles":"yes","recycling_type":"container"}},"type":"Feature"},
	{"geometry":{"coordinates":[8.626798,52.17477],"type":"Point"},"properties":{"osm_id":"3135176576","tag":{"amenity":"recycling","recycling:clothes":"no","recycling:glass":"yes","recycling:paper":"no"}},"type":"Feature"},
	{"geometry":{"coordinates":[8.628273,52.170764],"type":"Point"},"properties":{"osm_id":"3156286665","tag":{"amenity":"recycling","location":"overground","recycling:clothes":"yes","recycling:glass_bottles":"yes","recycling_type":"container"}},"type":"Feature"},
	{"geometry":{"coordinates":[8.665406,52.161459],"type":"Point"},"properties":{"osm_id":"3295156225","tag":{"amenity":"recycling","recycling:clothes":"yes","recycling:glass_bottles":"yes","recycling_type":"container"}},"type":"Feature"},
	{"geometry":{"coordinates":[8.634802,52.163245],"type":"Point"},"properties":{"osm_id":"5322324746","tag":{"amenity":"recycling","recycling:glass_bottles":"yes","recycling_type":"container"}},"type":"Feature"},
	{"geometry":{"coordinates":[8.674835,52.168454],"type":"Point"},"properties":{"osm_id":"5761307740","tag":{"amenity":"waste_basket"}},"type":"Feature"},
	{"geometry":{"coordinates":[8.672498,52.198519],"type":"Point"},"properties":{"osm_id":"5777489210","tag":{"amenity":"waste_basket"}},"type":"Feature"},
	{"geometry":{"coordinates":[8.62979,52.19874],"type":"Point"},"properties":{"osm_id":"5777489211","tag":{"amenity":"waste_basket"}},"type":"Feature"},
	{"geometry":{"coordinates":[8.658597,52.178565],"type":"Point"},"properties":{"osm_id":"6994049000","tag":{"amenity":"waste_basket","waste":"trash"}},"type":"Feature"}
]
}
