{
"type": "FeatureCollection",
"features": [
	{"geometry":{"coordinates":[8.659051,52.112129],"type":"Point"},"properties":{"osm_id":"140278329","tag":{"amenity":"recycling","recycling:clothes":"yes","recycling:glass_bottles":"yes","recycling_type":"container"}},"type":"Feature"},
	{"geometry":{"coordinates":[8.680911,52.113955],"type":"Point"},"properties":{"osm_id":"293957188","ref":"Salzufler Stra\u00c3\u009fe","tag":{"amenity":"recycling","recycling:glass_bottles":"yes","recycling_type":"container"}},"type":"Feature"},
	{"geometry":{"coordinates":[8.696645,52.112514],"type":"Point"},"properties":{"osm_id":"293989546","ref":"Stadtholzstra\u00c3\u009fe","tag":{"amenity":"recycling","recycling:glass_bottles":"yes","recycling_type":"container"}},"type":"Feature"},
	{"geometry":{"coordinates":[8.661728,52.116801],"type":"Point"},"properties":{"osm_id":"370529236","ref":"Wittekindstra\u00c3\u009fe","tag":{"amenity":"recycling","recycling:glass_bottles":"yes","recycling_type":"container"}},"type":"Feature"},
	{"geometry":{"coordinates":[8.689661,52.127327],"type":"Point"},"properties":{"osm_id":"383977613","ref":"Bonifatiusstra\u00c3\u009fe","tag":{"amenity":"recycling","recycling:glass_bottles":"yes","recycling:paper":"no","recycling_type":"container"}},"type":"Feature"},
	{"geometry":{"coordinates":[8.678645,52.126575],"type":"Point"},"properties":{"osm_id":"385308380","ref":"Eimterstra\u00c3\u009fe","tag":{"amenity":"recycling","recycling:glass_bottles":"yes","recycling_type":"container"}},"type":"Feature"},
	{"geometry":{"coordinates":[8.663384,52.141457],"type":"Point"},"properties":{"osm_id":"411059303","tag":{"amenity":"recycling","recycling:cans":"no","recycling:clothes":"no","recycling:glass_bottles":"yes","recycling:paper":"no","recycling_type":"container"}},"type":"Feature"},
	{"geometry":{"coordinates":[8.693762,52.111719],"type":"Point"},"properties":{"osm_id":"412563208","ref":"Langenbergstra\u00c3\u009fe","tag":{"amenity":"recycling","recycling:clothes":"yes","recycling:glass_bottles":"yes","recycling_type":"container"}},"type":"Feature"},
	{"geometry":{"coordinates":[8.686991,52.110113],"type":"Point"},"properties":{"osm_id":"412563235","ref":"Salzufler Stra\u00c3\u009fe","tag":{"amenity":"recycling","recycling:glass_bottles":"yes","recycling_type":"container"}},"type":"Feature"},
	{"geometry":{"coordinates":[8.701154,52.11899],"type":"Point"},"properties":{"osm_id":"412563335","ref":"Beethovenstra\u00c3\u009fe","tag":{"amenity":"recycling","recycling:glass_bottles":"yes","recycling_type":"container"}},"type":"Feature"},
	{"geometry":{"coordinates":[8.692796,52.122127],"type":"Point"},"properties":{"osm_id":"413250160","ref":"Maiwiese","tag":{"amenity":"recycling","recycling:glass_bottles":"yes","recycling_type":"container"}},"type":"Feature"},
	{"geometry":{"coordinates":[8.673526,52.113699],"type":"Point"},"properties":{"osm_id":"413680140","ref":"Tribenstra\u00c3\u009fe","tag":{"amenity":"recycling","recycling:glass_bottles":"yes","recycling_type":"container"}},"type":"Feature"},
	{"geometry":{"coordinates":[8.683322,52.146904],"type":"Point"},"properties":{"osm_id":"416405014","ref":"Knickweg","tag":{"amenity":"recycling","recycling:glass_bottles":"yes","recycling_type":"container"}},"type":"Feature"},
	{"geometry":{"coordinates":[8.683182,52.135654],"type":"Point"},"properties":{"osm_id":"416405261","ref":"Nachtigalstra\u00c3\u009fe","tag":{"amenity":"recycling","recycling:glass_bottles":"yes","recycling_type":"container"}},"type":"Feature"},
	{"geometry":{"coordinates":[8.617821,52.132417],"type":"Point"},"properties":{"osm_id":"445411461","ref":"Engerstra\u00c3\u009fe","tag":{"amenity":"recycling","recycling:clothes":"yes","recycling:glass_bottles":"yes","recycling_type":"container"}},"type":"Feature"},
	{"geometry":{"coordinates":[8.695615,52.134251],"type":"Point"},"properties":{"osm_id":"452065363","tag":{"amenity":"recycling","recycling:clothes":"yes","recycling_type":"container"}},"type":"Feature"},
	{"geometry":{"coordinates":[8.69726,52.137456],"type":"Point"},"properties":{"osm_id":"452973826","ref":"Magdeburger Stra\u00c3\u009fe","tag":{"amenity":"recycling","recycling:clothes":"yes","recycling:glass_bottles":"yes","recycling_type":"container"}},"type":"Feature"},
	{"geometry":{"coordinates":[8.672309,52.150574],"type":"Point"},"properties":{"osm_id":"508307081","tag":{"amenity":"recycling","recycling:clothes":"no","recycling:glass_bottles":"yes","recycling:paper":"no","recycling_type":"container"}},"type":"Feature"},
	{"geometry":{"coordinates":[8.650039,52.12963],"type":"Point"},"properties":{"osm_id":"1828892744","tag":{"amenity":"recycling","recycling:clothes":"yes","recycling:scrap_metal":"yes","recycling_type":"container"}},"type":"Feature"},
	{"geometry":{"coordinates":[8.671277,52.11493],"type":"Point"},"properties":{"osm_id":"1838212224","tag":{"amenity":"waste_basket"}},"type":"Feature"},
	{"geometry":{"coordinates":[8.653911,52.111122],"type":"Point"},"properties":{"osm_id":"1849700197","ref":"Westring","tag":{"amenity":"recycling","recycling:glass_bottles":"yes","recycling_type":"container"}},"type":"Feature"},
	{"geometry":{"coordinates":[8.652782,52.119232],"type":"Point"},"properties":{"barrier":"gate","osm_id":"1901597950"},"type":"Feature"},
	{"geometry":{"coordinates":[8.675772,52.117679],"type":"Point"},"properties":{"osm_id":"1918728310","tag":{"amenity":"waste_basket"}},"type":"Feature"},
	{"geometry":{"coordinates":[8.674789,52.108469],"type":"Point"},"properties":{"osm_id":"2011361825","ref":"Ahmser Stra\u00c3\u009fe","tag":{"amenity":"recycling","recycling:glass_bottles":"yes","recycling_type":"container"}},"type":"Feature"},
	{"geometry":{"coordinates":[8.692662,52.128797],"type":"Point"},"properties":{"osm_id":"2011361861","ref":"An der None","tag":{"amenity":"recycling","recycling:glass_bottles":"yes","recycling_type":"container"}},"type":"Feature"},
	{"geometry":{"coordinates":[8.664425,52.118338],"type":"Point"},"properties":{"osm_id":"2011361879","ref":"Bahnhofsvorplatz","tag":{"amenity":"recycling","recycling:glass_bottles":"yes","recycling_type":"container"}},"type":"Feature"},
	{"geometry":{"coordinates":[8.660495,52.131706],"type":"Point"},"properties":{"osm_id":"2011361886","ref":"Benter Weg","tag":{"amenity":"recycling","recycling:clothes":"yes","recycling:glass_bottles":"yes","recycling:shoes":"yes","recycling_type":"container"}},"type":"Feature"},
	{"geometry":{"coordinates":[8.643322,52.117066],"type":"Point"},"properties":{"osm_id":"2011361894","ref":"Dieselstra\u00c3\u009fe","tag":{"amenity":"recycling","recycling:glass_bottles":"yes","recycling_type":"container"}},"type":"Feature"},
	{"geometry":{"coordinates":[8.651931,52.12384],"type":"Point"},"properties":{"osm_id":"2011361932","ref":"Eupener Stra\u00c3\u009fe","tag":{"amenity":"recycling","recycling:glass_bottles":"yes","recycling_type":"container"}},"type":"Feature"},
	{"geometry":{"coordinates":[8.668465,52.124026],"type":"Point"},"properties":{"osm_id":"2011361937","ref":"Goebenstra\u00c3\u009fe","tag":{"amenity":"recycling","recycling:glass_bottles":"yes","recycling_type":"container"}},"type":"Feature"},
	{"geometry":{"coordinates":[8.689438,52.124453],"type":"Point"},"properties":{"osm_id":"2011361944","ref":"Graf-Kanitz-Stra\u00c3\u009fe","tag":{"amenity":"recycling","recycling:glass_bottles":"yes","recycling_type":"container"}},"type":"Feature"},
	{"geometry":{"coordinates":[8.644289,52.128597],"type":"Point"},"properties":{"osm_id":"2011361959","tag":{"amenity":"recycling","recycling:cans":"no","recycling:clothes":"yes","recycling:glass_bottles":"yes","recycling:paper":"no","recycling_type":"container"}},"type":"Feature"},
	{"geometry":{"coordinates":[8.691306,52.114241],"type":"Point"},"properties":{"osm_id":"2011361966","ref":"Liststra\u00c3\u009fe","tag":{"amenity":"recycling","recycling:glass_bottles":"yes","recycling_type":"container"}},"type":"Feature"},
	{"geometry":{"coordinates":[8.687017,52.114801],"type":"Point"},"properties":{"osm_id":"2011361974","ref":"Lutherstra\u00c3\u009fe","tag":{"amenity":"recycling","recycling:glass_bottles":"yes","recycling_type":"container"}},"type":"Feature"},
	{"geometry":{"coordinates":[8.693551,52.130455],"type":"Point"},"properties":{"osm_id":"2011361980","ref":"L\u00c3\u00bcbberlindenweg","tag":{"amenity":"recycling","recycling:glass_bottles":"yes","recycling_type":"container"}},"type":"Feature"},
	{"geometry":{"coordinates":[8.6907,52.119012],"type":"Point"},"properties":{"osm_id":"2011361983","ref":"Meierstra\u00c3\u009fe 47","tag":{"amenity":"recycling","recycling:glass_bottles":"yes","recycling_type":"container"}},"type":"Feature"},
	{"geometry":{"coordinates":[8.693611,52.120718],"type":"Point"},"properties":{"osm_id":"2011361987","ref":"Meierstra\u00c3\u009fe","tag":{"amenity":"recycling","recycling:glass_bottles":"yes","recycling_type":"container"}},"type":"Feature"},
	{"geometry":{"coordinates":[8.679465,52.120564],"type":"Point"},"properties":{"osm_id":"2011361994","ref":"Mindener Stra\u00c3\u009fe","tag":{"amenity":"recycling","recycling:glass_bottles":"yes","recycling_type":"container"}},"type":"Feature"},
	{"geometry":{"coordinates":[8.697158,52.118683],"type":"Point"},"properties":{"osm_id":"2011362002","ref":"Mozartstra\u00c3\u009fe","tag":{"amenity":"recycling","recycling:glass_bottles":"yes","recycling_type":"container"}},"type":"Feature"},
	{"geometry":{"coordinates":[8.696578,52.125414],"type":"Point"},"properties":{"osm_id":"2011362009","ref":"Ortsieker Weg","tag":{"amenity":"recycling","recycling:glass_bottles":"yes","recycling_type":"container"}},"type":"Feature"},
	{"geometry":{"coordinates":[8.647732,52.116014],"type":"Point"},"properties":{"osm_id":"2011362017","ref":"Otternbuschweg","tag":{"amenity":"recycling","recycling:clothes":"yes","recycling:glass_bottles":"yes","recycling_type":"container"}},"type":"Feature"},
	{"geometry":{"coordinates":[8.682064,52.114927],"type":"Point"},"properties":{"osm_id":"2011362025","ref":"Pagenmarkt","tag":{"amenity":"recycling","recycling:glass_bottles":"yes","recycling_type":"container"}},"type":"Feature"},
	{"geometry":{"coordinates":[8.683645,52.132354],"type":"Point"},"properties":{"osm_id":"2011362034","ref":"Steinbrink","tag":{"amenity":"recycling","recycling:glass_bottles":"yes","recycling_type":"container"}},"type":"Feature"},
	{"geometry":{"coordinates":[8.693938,52.160076],"type":"Point"},"properties":{"osm_id":"2011362056","tag":{"amenity":"recycling","recycling:clothes":"yes","recycling:glass_bottles":"yes","recycling_type":"container","wheelchair":"no"}},"type":"Feature"},
	{"geometry":{"coordinates":[8.662138,52.122183],"type":"Point"},"properties":{"osm_id":"2011362063","ref":"Wellbrocker Weg","tag":{"amenity":"recycling","recycling:glass_bottles":"yes","recycling_type":"container"}},"type":"Feature"},
	{"geometry":{"coordinates":[8.620307,52.107179],"type":"Point"},"properties":{"osm_id":"2298937754","tag":{"amenity":"waste_basket"}},"type":"Feature"},
	{"geometry":{"coordinates":[8.633662,52.109019],"type":"Point"},"properties":{"osm_id":"2298937809","tag":{"amenity":"waste_basket"}},"type":"Feature"},
	{"geometry":{"coordinates":[8.64156,52.110709],"type":"Point"},"properties":{"osm_id":"2298937829","tag":{"amenity":"waste_basket","wheelchair":"no"}},"type":"Feature"},
	{"geometry":{"coordinates":[8.671294,52.114016],"type":"Point"},"properties":{"osm_id":"2417733016","tag":{"amenity":"waste_basket"}},"type":"Feature"},
	{"geometry":{"coordinates":[8.666361,52.152075],"type":"Point"},"properties":{"osm_id":"2497378370","tag":{"amenity":"recycling","recycling:glass_bottles":"yes","recycling_type":"container"}},"type":"Feature"},
	{"geometry":{"coordinates":[8.613382,52.143032],"type":"Point"},"properties":{"osm_id":"2498710043","tag":{"amenity":"recycling","recycling:glass_bottles":"yes","recycling_type":"container"}},"type":"Feature"},
	{"geometry":{"coordinates":[8.674759,52.109226],"type":"Point"},"properties":{"osm_id":"2523719231","tag":{"amenity":"recycling","recycling:clothes":"yes","recycling_type":"container"}},"type":"Feature"},
	{"geometry":{"coordinates":[8.671804,52.114159],"type":"Point"},"properties":{"highway":"street_lamp","osm_id":"2629277479","ref":"15","tag":{"amenity":"waste_basket","lamp_mount":"straight_mast","lamp_type":"fluorescent"}},"type":"Feature"},
	{"geometry":{"coordinates":[8.672335,52.114665],"type":"Point"},"properties":{"highway":"street_lamp","osm_id":"2629277480","ref":"3","tag":{"amenity":"waste_basket","lamp_mount":"straight_mast","lamp_type":"fluorescent"}},"type":"Feature"},
	{"geometry":{"coordinates":[8.672909,52.114803],"type":"Point"},"properties":{"highway":"street_lamp","osm_id":"2629277481","ref":"8","tag":{"amenity":"waste_basket","lamp_mount":"straight_mast","lamp_type":"fluorescent"}},"type":"Feature"},
	{"geometry":{"coordinates":[8.671861,52.11425],"type":"Point"},"properties":{"highway":"street_lamp","osm_id":"2629277482","ref":"14","tag":{"amenity":"waste_basket","lamp_mount":"straight_mast","lamp_type":"fluorescent"}},"type":"Feature"},
	{"geometry":{"coordinates":[8.639442,52.153913],"type":"Point"},"properties":{"osm_id":"2698134634","tag":{"amenity":"recycling","recycling:clothes":"yes","recycling:glass_bottles":"yes","recycling_type":"container"}},"type":"Feature"},
	{"geometry":{"coordinates":[8.649963,52.13568],"type":"Point"},"properties":{"osm_id":"2744472197","tag":{"amenity":"recycling","recycling:clothes":"yes","recycling:glass_bottles":"yes","recycling_type":"container"}},"type":"Feature"},
	{"geometry":{"coordinates":[8.649427,52.137478],"type":"Point"},"properties":{"osm_id":"2744570671","tag":{"amenity":"recycling","recycling:glass_bottles":"yes","recycling_type":"container"}},"type":"Feature"},
	{"geometry":{"coordinates":[8.672579,52.114788],"type":"Point"},"properties":{"highway":"street_lamp","osm_id":"2984755395","ref":"6","tag":{"amenity":"waste_basket","lamp_mount":"straight_mast","lamp_type":"fluorescent"}},"type":"Feature"},
	{"geometry":{"coordinates":[8.673976,52.115335],"type":"Point"},"properties":{"osm_id":"2984755398","tag":{"amenity":"waste_basket"}},"type":"Feature"},
	{"geometry":{"coordinates":[8.676174,52.117275],"type":"Point"},"properties":{"osm_id":"2984755408","tag":{"amenity":"waste_basket"}},"type":"Feature"},
	{"geometry":{"coordinates":[8.66633,52.148516],"type":"Point"},"properties":{"osm_id":"3029474502","tag":{"amenity":"recycling","location":"underground","recycling:clothes":"yes","recycling:glass":"yes","recycling_type":"container"}},"type":"Feature"},
	{"geometry":{"coordinates":[8.69491,52.115624],"type":"Point"},"properties":{"osm_id":"3094086918","tag":{"amenity":"waste_basket"}},"type":"Feature"},
	{"geometry":{"coordinates":[8.671311,52.115312],"type":"Point"},"properties":{"osm_id":"3095930697","tag":{"amenity":"waste_basket"}},"type":"Feature"},
	{"geometry":{"coordinates":[8.671351,52.115393],"type":"Point"},"properties":{"osm_id":"3095930699","tag":{"amenity":"waste_basket"}},"type":"Feature"},
	{"geometry":{"coordinates":[8.671056,52.115299],"type":"Point"},"properties":{"osm_id":"3095930700","tag":{"amenity":"waste_basket"}},"type":"Feature"},
	{"geometry":{"coordinates":[8.620136,52.143461],"type":"Point"},"properties":{"osm_id":"3100463019","tag":{"amenity":"recycling","mapillary":"KNvVuegkLf4waDlJTYLdWA","recycling:cans":"no","recycling:clothes":"no","recycling:glass":"yes","recycling:paper":"no","recycling_type":"container","survey:date":"2018-06-29"}},"type":"Feature"},
	{"geometry":{"coordinates":[8.672039,52.11449],"type":"Point"},"properties":{"highway":"street_lamp","osm_id":"3269801763","ref":"1","tag":{"amenity":"waste_basket","lamp_mount":"straight_mast","lamp_type":"fluorescent"}},"type":"Feature"},
	{"geometry":{"coordinates":[8.67058,52.111994],"type":"Point"},"properties":{"osm_id":"3302822094","tag":{"amenity":"waste_basket"}},"type":"Feature"},
	{"geometry":{"coordinates":[8.670336,52.112075],"type":"Point"},"properties":{"osm_id":"3302822099","tag":{"amenity":"waste_basket"}},"type":"Feature"},
	{"geometry":{"coordinates":[8.680498,52.115367],"type":"Point"},"properties":{"osm_id":"3302822108","tag":{"amenity":"waste_basket","waste":"trash"}},"type":"Feature"},
	{"geometry":{"coordinates":[8.680299,52.115514],"type":"Point"},"properties":{"osm_id":"3302822115","tag":{"amenity":"waste_basket","waste":"trash"}},"type":"Feature"},
	{"geometry":{"coordinates":[8.676638,52.11845],"type":"Point"},"properties":{"osm_id":"3302822118","tag":{"amenity":"waste_basket"}},"type":"Feature"},
	{"geometry":{"coordinates":[8.666981,52.111979],"type":"Point"},"properties":{"osm_id":"3393315162","tag":{"amenity":"waste_basket"}},"type":"Feature"},
	{"geometry":{"coordinates":[8.661765,52.118889],"type":"Point"},"properties":{"osm_id":"3393323104","tag":{"amenity":"waste_basket"}},"type":"Feature"},
	{"geometry":{"coordinates":[8.661765,52.11892],"type":"Point"},"properties":{"osm_id":"3393323106","tag":{"amenity":"waste_basket"}},"type":"Feature"},
	{"geometry":{"coordinates":[8.624266,52.113369],"type":"Point"},"properties":{"osm_id":"3496953495","tag":{"amenity":"waste_basket"}},"type":"Feature"},
	{"geometry":{"coordinates":[8.665195,52.111765],"type":"Point"},"properties":{"osm_id":"4053368600","tag":{"amenity":"waste_basket"}},"type":"Feature"},
	{"geometry":{"coordinates":[8.672752,52.113854],"type":"Point"},"properties":{"osm_id":"4082088787","tag":{"amenity":"waste_basket","waste":"trash"}},"type":"Feature"},
	{"geometry":{"coordinates":[8.665922,52.109011],"type":"Point"},"properties":{"osm_id":"4117163562","tag":{"amenity":"waste_disposal"}},"type":"Feature"},
	{"geometry":{"coordinates":[8.66406,52.109018],"type":"Point"},"properties":{"osm_id":"4117163564","tag":{"amenity":"waste_disposal"}},"type":"Feature"},
	{"geometry":{"coordinates":[8.663083,52.10905],"type":"Point"},"properties":{"osm_id":"4117163567","tag":{"amenity":"waste_disposal"}},"type":"Feature"},
	{"geometry":{"coordinates":[8.666971,52.109101],"type":"Point"},"properties":{"osm_id":"4117163570","tag":{"amenity":"waste_basket"}},"type":"Feature"},
	{"geometry":{"coordinates":[8.66659,52.109296],"type":"Point"},"properties":{"osm_id":"4117163582","tag":{"amenity":"waste_disposal"}},"type":"Feature"},
	{"geometry":{"coordinates":[8.667749,52.1099],"type":"Point"},"properties":{"osm_id":"4117168711","tag":{"amenity":"waste_disposal"}},"type":"Feature"},
	{"geometry":{"coordinates":[8.665033,52.109921],"type":"Point"},"properties":{"osm_id":"4117168715","tag":{"amenity":"waste_disposal"}},"type":"Feature"},
	{"geometry":{"coordinates":[8.665771,52.11012],"type":"Point"},"properties":{"osm_id":"4117168725","tag":{"amenity":"waste_disposal"}},"type":"Feature"},
	{"geometry":{"coordinates":[8.66674,52.110406],"type":"Point"},"properties":{"osm_id":"4117168733","tag":{"amenity":"waste_disposal"}},"type":"Feature"},
	{"geometry":{"coordinates":[8.665441,52.110476],"type":"Point"},"properties":{"osm_id":"4117168739","tag":{"amenity":"waste_disposal"}},"type":"Feature"},
	{"geometry":{"coordinates":[8.665849,52.110491],"type":"Point"},"properties":{"osm_id":"4117168740","tag":{"amenity":"waste_disposal"}},"type":"Feature"},
	{"geometry":{"coordinates":[8.665964,52.11084],"type":"Point"},"properties":{"osm_id":"4117168753","tag":{"amenity":"waste_disposal"}},"type":"Feature"},
	{"geometry":{"coordinates":[8.667212,52.111195],"type":"Point"},"properties":{"osm_id":"4117168760","tag":{"amenity":"waste_basket"}},"type":"Feature"},
	{"geometry":{"coordinates":[8.667675,52.111263],"type":"Point"},"properties":{"osm_id":"4117168762","tag":{"amenity":"waste_basket"}},"type":"Feature"},
	{"geometry":{"coordinates":[8.666616,52.111294],"type":"Point"},"properties":{"osm_id":"4117168765","tag":{"amenity":"waste_basket"}},"type":"Feature"},
	{"geometry":{"coordinates":[8.666982,52.111569],"type":"Point"},"properties":{"osm_id":"4117168769","tag":{"amenity":"waste_basket"}},"type":"Feature"},
	{"geometry":{"coordinates":[8.66743,52.111785],"type":"Point"},"properties":{"osm_id":"4117168773","tag":{"amenity":"waste_basket"}},"type":"Feature"},
	{"geometry":{"coordinates":[8.667644,52.111952],"type":"Point"},"properties":{"osm_id":"4117168775","tag":{"amenity":"waste_basket"}},"type":"Feature"},
	{"geometry":{"coordinates":[8.666416,52.111964],"type":"Point"},"properties":{"osm_id":"4117168777","tag":{"amenity":"waste_basket"}},"type":"Feature"},
	{"geometry":{"coordinates":[8.665191,52.112141],"type":"Point"},"properties":{"osm_id":"4117168785","tag":{"amenity":"waste_basket"}},"type":"Feature"},
	{"geometry":{"coordinates":[8.667234,52.11233],"type":"Point"},"properties":{"osm_id":"4117168788","tag":{"amenity":"waste_basket"}},"type":"Feature"},
	{"geometry":{"coordinates":[8.667108,52.112486],"type":"Point"},"properties":{"osm_id":"4117168790","tag":{"amenity":"waste_basket"}},"type":"Feature"},
	{"geometry":{"coordinates":[8.678476,52.121115],"type":"Point"},"properties":{"osm_id":"4272061855","tag":{"amenity":"waste_basket"}},"type":"Feature"},
	{"geometry":{"coordinates":[8.677646,52.121296],"type":"Point"},"properties":{"osm_id":"4272061857","tag":{"amenity":"waste_basket"}},"type":"Feature"},
	{"geometry":{"coordinates":[8.684517,52.107501],"type":"Point"},"properties":{"osm_id":"4298895934","tag":{"amenity":"waste_basket"}},"type":"Feature"},
	{"geometry":{"coordinates":[8.676116,52.118837],"type":"Point"},"properties":{"osm_id":"4335834796","tag":{"amenity":"waste_basket"}},"type":"Feature"},
	{"geometry":{"coordinates":[8.675969,52.119266],"type":"Point"},"properties":{"osm_id":"4335834802","tag":{"amenity":"waste_basket"}},"type":"Feature"},
	{"geometry":{"coordinates":[8.675937,52.119413],"type":"Point"},"properties":{"osm_id":"4335834805","tag":{"amenity":"waste_basket"}},"type":"Feature"},
	{"geometry":{"coordinates":[8.675906,52.119533],"type":"Point"},"properties":{"osm_id":"4335834807","tag":{"amenity":"waste_basket"}},"type":"Feature"},
	{"geometry":{"coordinates":[8.676305,52.119665],"type":"Point"},"properties":{"osm_id":"4335834814","tag":{"amenity":"waste_basket"}},"type":"Feature"},
	{"geometry":{"coordinates":[8.675544,52.119842],"type":"Point"},"properties":{"osm_id":"4335834819","tag":{"amenity":"waste_basket"}},"type":"Feature"},
	{"geometry":{"coordinates":[8.675199,52.119855],"type":"Point"},"properties":{"osm_id":"4335834821","tag":{"amenity":"waste_basket"}},"type":"Feature"},
	{"geometry":{"coordinates":[8.67596,52.120922],"type":"Point"},"properties":{"osm_id":"4335834834","tag":{"amenity":"waste_basket"}},"type":"Feature"},
	{"geometry":{"coordinates":[8.674344,52.120079],"type":"Point"},"properties":{"osm_id":"4337444787","tag":{"amenity":"waste_basket"}},"type":"Feature"},
	{"geometry":{"coordinates":[8.695962,52.12817],"type":"Point"},"properties":{"osm_id":"4386032476","tag":{"amenity":"waste_basket"}},"type":"Feature"},
	{"geometry":{"coordinates":[8.697849,52.128807],"type":"Point"},"properties":{"osm_id":"4386032480","tag":{"amenity":"waste_basket"}},"type":"Feature"},
	{"geometry":{"coordinates":[8.695924,52.128924],"type":"Point"},"properties":{"osm_id":"4386032484","tag":{"amenity":"waste_basket"}},"type":"Feature"},
	{"geometry":{"coordinates":[8.695125,52.129013],"type":"Point"},"properties":{"osm_id":"4386032992","tag":{"amenity":"waste_basket"}},"type":"Feature"},
	{"geometry":{"coordinates":[8.696313,52.128967],"type":"Point"},"properties":{"osm_id":"4386032994","tag":{"amenity":"waste_basket"}},"type":"Feature"},
	{"geometry":{"coordinates":[8.696601,52.12905],"type":"Point"},"properties":{"osm_id":"4386032998","tag":{"amenity":"waste_basket"}},"type":"Feature"},
	{"geometry":{"coordinates":[8.697727,52.129173],"type":"Point"},"properties":{"osm_id":"4386032999","tag":{"amenity":"waste_basket"}},"type":"Feature"},
	{"geometry":{"coordinates":[8.698141,52.129192],"type":"Point"},"properties":{"osm_id":"4386033003","tag":{"amenity":"waste_basket"}},"type":"Feature"},
	{"geometry":{"coordinates":[8.667083,52.149121],"type":"Point"},"properties":{"osm_id":"4416369321","tag":{"amenity":"waste_basket"}},"type":"Feature"},
	{"geometry":{"coordinates":[8.678551,52.113943],"type":"Point"},"properties":{"osm_id":"4494744099","tag":{"amenity":"waste_basket"}},"type":"Feature"},
	{"geometry":{"coordinates":[8.678273,52.114219],"type":"Point"},"properties":{"osm_id":"4494744100","tag":{"amenity":"waste_basket"}},"type":"Feature"},
	{"geometry":{"coordinates":[8.67859,52.114406],"type":"Point"},"properties":{"osm_id":"4494744104","tag":{"amenity":"waste_basket"}},"type":"Feature"},
	{"geometry":{"coordinates":[8.700792,52.10745],"type":"Point"},"properties":{"osm_id":"4508810771","tag":{"amenity":"waste_basket"}},"type":"Feature"},
	{"geometry":{"coordinates":[8.700646,52.107153],"type":"Point"},"properties":{"osm_id":"4508810772","tag":{"amenity":"waste_basket"}},"type":"Feature"},
	{"geometry":{"coordinates":[8.674972,52.111445],"type":"Point"},"properties":{"osm_id":"4612225856","tag":{"amenity":"waste_basket"}},"type":"Feature"},
	{"geometry":{"coordinates":[8.678987,52.116955],"type":"Point"},"properties":{"osm_id":"4708675092","tag":{"amenity":"waste_basket"}},"type":"Feature"},
	{"geometry":{"coordinates":[8.690248,52.115224],"type":"Point"},"properties":{"osm_id":"4708675106","tag":{"amenity":"waste_basket"}},"type":"Feature"},
	{"geometry":{"coordinates":[8.690244,52.115124],"type":"Point"},"properties":{"osm_id":"4708675109","tag":{"amenity":"waste_basket"}},"type":"Feature"},
	{"geometry":{"coordinates":[8.684981,52.117197],"type":"Point"},"properties":{"osm_id":"4708675114","tag":{"amenity":"waste_basket"}},"type":"Feature"},
	{"geometry":{"coordinates":[8.698513,52.11506],"type":"Point"},"properties":{"osm_id":"4708675115","tag":{"amenity":"waste_basket"}},"type":"Feature"},
	{"geometry":{"coordinates":[8.683701,52.132345],"type":"Point"},"properties":{"osm_id":"4749423082","tag":{"amenity":"recycling","recycling:clothes":"yes","recycling_type":"container"}},"type":"Feature"},
	{"geometry":{"coordinates":[8.695039,52.149654],"type":"Point"},"properties":{"osm_id":"4799542402","tag":{"amenity":"waste_basket"}},"type":"Feature"},
	{"geometry":{"coordinates":[8.655413,52.127995],"type":"Point"},"properties":{"osm_id":"4833153454","tag":{"amenity":"waste_basket"}},"type":"Feature"},
	{"geometry":{"coordinates":[8.655487,52.12784],"type":"Point"},"properties":{"osm_id":"4833153455","tag":{"amenity":"waste_basket"}},"type":"Feature"},
	{"geometry":{"coordinates":[8.691465,52.112671],"type":"Point"},"properties":{"osm_id":"4879047509","tag":{"amenity":"waste_basket"}},"type":"Feature"},
	{"geometry":{"coordinates":[8.692987,52.112645],"type":"Point"},"properties":{"osm_id":"4879047511","tag":{"amenity":"waste_basket"}},"type":"Feature"},
	{"geometry":{"coordinates":[8.692211,52.112244],"type":"Point"},"properties":{"osm_id":"4879047513","tag":{"amenity":"waste_basket"}},"type":"Feature"},
	{"geometry":{"coordinates":[8.691973,52.112301],"type":"Point"},"properties":{"osm_id":"4879047515","tag":{"amenity":"waste_basket"}},"type":"Feature"},
	{"geometry":{"coordinates":[8.689659,52.113206],"type":"Point"},"properties":{"osm_id":"4879047518","tag":{"amenity":"waste_basket"}},"type":"Feature"},
	{"geometry":{"coordinates":[8.688725,52.113246],"type":"Point"},"properties":{"osm_id":"4879047520","tag":{"amenity":"waste_basket"}},"type":"Feature"},
	{"geometry":{"coordinates":[8.687576,52.112864],"type":"Point"},"properties":{"osm_id":"4879050122","tag":{"amenity":"waste_basket"}},"type":"Feature"},
	{"geometry":{"coordinates":[8.666767,52.111407],"type":"Point"},"properties":{"osm_id":"5262027590","tag":{"amenity":"waste_basket"}},"type":"Feature"},
	{"geometry":{"coordinates":[8.662115,52.110738],"type":"Point"},"properties":{"osm_id":"5262115914","tag":{"amenity":"waste_basket"}},"type":"Feature"},
	{"geometry":{"coordinates":[8.662773,52.111125],"type":"Point"},"properties":{"osm_id":"5262115916","tag":{"amenity":"waste_basket"}},"type":"Feature"},
	{"geometry":{"coordinates":[8.663659,52.111561],"type":"Point"},"properties":{"osm_id":"5262115918","tag":{"amenity":"waste_basket"}},"type":"Feature"},
	{"geometry":{"coordinates":[8.647735,52.115946],"type":"Point"},"properties":{"osm_id":"5262117323","tag":{"amenity":"waste_basket"}},"type":"Feature"},
	{"geometry":{"coordinates":[8.648615,52.115708],"type":"Point"},"properties":{"osm_id":"5262117326","tag":{"amenity":"waste_basket"}},"type":"Feature"},
	{"geometry":{"coordinates":[8.623018,52.113458],"type":"Point"},"properties":{"osm_id":"5262138228","tag":{"amenity":"waste_basket"}},"type":"Feature"},
	{"geometry":{"coordinates":[8.684609,52.109664],"type":"Point"},"properties":{"osm_id":"5343400616","tag":{"amenity":"waste_basket"}},"type":"Feature"},
	{"geometry":{"coordinates":[8.665202,52.119741],"type":"Point"},"properties":{"highway":"street_lamp","osm_id":"5406317648","ref":"1","tag":{"amenity":"waste_basket","lamp_mount":"straight_mast","lamp_type":"high_pressure_sodium"}},"type":"Feature"},
	{"geometry":{"coordinates":[8.663585,52.118505],"type":"Point"},"properties":{"highway":"street_lamp","osm_id":"5406317651","ref":"2","tag":{"amenity":"waste_basket","lamp_mount":"straight_mast","lamp_type":"led"}},"type":"Feature"},
	{"geometry":{"coordinates":[8.663774,52.118695],"type":"Point"},"properties":{"highway":"street_lamp","osm_id":"5406317653","ref":"1","tag":{"amenity":"waste_basket","lamp_mount":"straight_mast","lamp_type":"led"}},"type":"Feature"},
	{"geometry":{"coordinates":[8.664005,52.118929],"type":"Point"},"properties":{"highway":"street_lamp","osm_id":"5408126776","tag":{"amenity":"waste_basket","lamp_mount":"straight_mast","lamp_type":"led"}},"type":"Feature"},
	{"geometry":{"coordinates":[8.67135,52.115088],"type":"Point"},"properties":{"osm_id":"5411302449","tag":{"amenity":"waste_basket"}},"type":"Feature"},
	{"geometry":{"coordinates":[8.667781,52.114769],"type":"Point"},"properties":{"osm_id":"5411302476","tag":{"amenity":"waste_basket"}},"type":"Feature"},
	{"geometry":{"coordinates":[8.665564,52.115892],"type":"Point"},"properties":{"osm_id":"5411302494","tag":{"amenity":"waste_basket"}},"type":"Feature"},
	{"geometry":{"coordinates":[8.671143,52.114469],"type":"Point"},"properties":{"highway":"street_lamp","osm_id":"5412989446","ref":"6","tag":{"amenity":"waste_basket","lamp_mount":"straight_mast","lamp_type":"mercury","light:count":"2"}},"type":"Feature"},
	{"geometry":{"coordinates":[8.671123,52.114332],"type":"Point"},"properties":{"highway":"street_lamp","osm_id":"5412989493","ref":"5","tag":{"amenity":"waste_basket","lamp_mount":"straight_mast","lamp_type":"mercury","light:count":"2"}},"type":"Feature"},
	{"geometry":{"coordinates":[8.671061,52.113976],"type":"Point"},"properties":{"highway":"street_lamp","osm_id":"5412989495","ref":"3","tag":{"amenity":"waste_basket","lamp_mount":"straight_mast","lamp_type":"mercury","light:count":"2"}},"type":"Feature"},
	{"geometry":{"coordinates":[8.696625,52.125408],"type":"Point"},"properties":{"osm_id":"5457570759","tag":{"amenity":"recycling","recycling:clothes":"yes","recycling_type":"container"}},"type":"Feature"},
	{"geometry":{"coordinates":[8.632285,52.118457],"type":"Point"},"properties":{"osm_id":"5574318408","tag":{"amenity":"waste_basket"}},"type":"Feature"},
	{"geometry":{"coordinates":[8.643732,52.116566],"type":"Point"},"properties":{"osm_id":"5574318414","tag":{"amenity":"recycling","recycling:clothes":"yes","recycling_type":"container"}},"type":"Feature"},
	{"geometry":{"coordinates":[8.660573,52.126585],"type":"Point"},"properties":{"osm_id":"5732860172","tag":{"amenity":"waste_basket"}},"type":"Feature"},
	{"geometry":{"coordinates":[8.621857,52.141975],"type":"Point"},"properties":{"osm_id":"5777274469","tag":{"amenity":"waste_basket"}},"type":"Feature"},
	{"geometry":{"coordinates":[8.628566,52.140274],"type":"Point"},"properties":{"osm_id":"5777274471","tag":{"amenity":"waste_basket"}},"type":"Feature"},
	{"geometry":{"coordinates":[8.635372,52.136959],"type":"Point"},"properties":{"osm_id":"5777274472","tag":{"amenity":"waste_basket"}},"type":"Feature"},
	{"geometry":{"coordinates":[8.631976,52.138974],"type":"Point"},"properties":{"osm_id":"5777274473","tag":{"amenity":"waste_basket"}},"type":"Feature"},
	{"geometry":{"coordinates":[8.670774,52.118158],"type":"Point"},"properties":{"osm_id":"5964809538","tag":{"amenity":"waste_basket"}},"type":"Feature"},
	{"geometry":{"coordinates":[8.672042,52.116154],"type":"Point"},"properties":{"highway":"street_lamp","osm_id":"6350336025","ref":"12","tag":{"amenity":"waste_basket","lamp_mount":"straight_mast"}},"type":"Feature"},
	{"geometry":{"coordinates":[8.672451,52.115828],"type":"Point"},"properties":{"highway":"street_lamp","osm_id":"6350336027","ref":"10","tag":{"amenity":"waste_basket","lamp_mount":"straight_mast"}},"type":"Feature"},
	{"geometry":{"coordinates":[8.682954,52.12848],"type":"Point"},"properties":{"osm_id":"6372947216","tag":{"amenity":"waste_basket"}},"type":"Feature"},
	{"geometry":{"coordinates":[8.667741,52.142039],"type":"Point"},"properties":{"osm_id":"6391862929","tag":{"amenity":"waste_basket"}},"type":"Feature"},
	{"geometry":{"coordinates":[8.696602,52.112533],"type":"Point"},"properties":{"osm_id":"6543118499","tag":{"amenity":"recycling","recycling:clothes":"yes","recycling_type":"container"}},"type":"Feature"},
	{"geometry":{"coordinates":[8.692765,52.11205],"type":"Point"},"properties":{"osm_id":"6573558968","tag":{"amenity":"waste_basket"}},"type":"Feature"},
	{"geometry":{"coordinates":[8.663808,52.118421],"type":"Point"},"properties":{"osm_id":"6621489688","tag":{"amenity":"waste_basket"}},"type":"Feature"},
	{"geometry":{"coordinates":[8.663975,52.118588],"type":"Point"},"properties":{"osm_id":"6621489689","tag":{"amenity":"waste_basket"}},"type":"Feature"},
	{"geometry":{"coordinates":[8.664086,52.1187],"type":"Point"},"properties":{"osm_id":"6621489690","tag":{"amenity":"waste_basket"}},"type":"Feature"},
	{"geometry":{"coordinates":[8.664287,52.118902],"type":"Point"},"properties":{"osm_id":"6621489695","tag":{"amenity":"waste_basket"}},"type":"Feature"},
	{"geometry":{"coordinates":[8.664412,52.119029],"type":"Point"},"properties":{"osm_id":"6621489696","tag":{"amenity":"waste_basket"}},"type":"Feature"},
	{"geometry":{"coordinates":[8.664626,52.119235],"type":"Point"},"properties":{"osm_id":"6621489697","tag":{"amenity":"waste_basket"}},"type":"Feature"},
	{"geometry":{"coordinates":[8.664503,52.119283],"type":"Point"},"properties":{"osm_id":"6621489736","tag":{"amenity":"waste_basket"}},"type":"Feature"},
	{"geometry":{"coordinates":[8.674823,52.116059],"type":"Point"},"properties":{"osm_id":"6642062199","tag":{"amenity":"waste_basket"}},"type":"Feature"},
	{"geometry":{"coordinates":[8.666734,52.116441],"type":"Point"},"properties":{"osm_id":"6680614043","tag":{"amenity":"waste_basket"}},"type":"Feature"},
	{"geometry":{"coordinates":[8.667434,52.117695],"type":"Point"},"properties":{"osm_id":"6680614047","tag":{"amenity":"waste_basket"}},"type":"Feature"},
	{"geometry":{"coordinates":[8.672362,52.116728],"type":"Point"},"properties":{"osm_id":"6680614073","tag":{"amenity":"waste_basket"}},"type":"Feature"},
	{"geometry":{"coordinates":[8.667387,52.112889],"type":"Point"},"properties":{"osm_id":"6695300510","tag":{"amenity":"waste_basket"}},"type":"Feature"},
	{"geometry":{"coordinates":[8.642948,52.132816],"type":"Point"},"properties":{"osm_id":"6713317747","tag":{"amenity":"waste_basket"}},"type":"Feature"},
	{"geometry":{"coordinates":[8.638462,52.140782],"type":"Point"},"properties":{"osm_id":"6713317749","tag":{"amenity":"waste_basket"}},"type":"Feature"},
	{"geometry":{"coordinates":[8.628414,52.141815],"type":"Point"},"properties":{"osm_id":"6713317752","tag":{"amenity":"waste_basket"}},"type":"Feature"},
	{"geometry":{"coordinates":[8.667,52.115274],"type":"Point"},"properties":{"osm_id":"6716293852","tag":{"amenity":"waste_basket"}},"type":"Feature"},
	{"geometry":{"coordinates":[8.663428,52.115457],"type":"Point"},"properties":{"osm_id":"6716352600","tag":{"amenity":"waste_basket"}},"type":"Feature"},
	{"geometry":{"coordinates":[8.696528,52.118501],"type":"Point"},"properties":{"osm_id":"6818550243","tag":{"amenity":"waste_basket","waste":"trash"}},"type":"Feature"},
	{"geometry":{"coordinates":[8.695278,52.118348],"type":"Point"},"properties":{"osm_id":"6818550245","tag":{"amenity":"waste_basket","waste":"trash"}},"type":"Feature"},
	{"geometry":{"coordinates":[8.694289,52.118227],"type":"Point"},"properties":{"osm_id":"6818550247","tag":{"amenity":"waste_basket","waste":"trash"}},"type":"Feature"},
	{"geometry":{"coordinates":[8.674167,52.114998],"type":"Point"},"properties":{"osm_id":"6928161334","tag":{"amenity":"waste_basket","waste":"trash"}},"type":"Feature"},
	{"geometry":{"coordinates":[8.670805,52.113933],"type":"Point"},"properties":{"osm_id":"6946170703","tag":{"amenity":"waste_basket","waste":"trash"}},"type":"Feature"},
	{"geometry":{"coordinates":[8.670388,52.114013],"type":"Point"},"properties":{"osm_id":"6946170706","tag":{"amenity":"waste_basket","waste":"trash"}},"type":"Feature"},
	{"geometry":{"coordinates":[8.669952,52.114123],"type":"Point"},"properties":{"osm_id":"6946170708","tag":{"amenity":"waste_basket","waste":"trash"}},"type":"Feature"},
	{"geometry":{"coordinates":[8.681975,52.121453],"type":"Point"},"properties":{"osm_id":"6946699974","tag":{"amenity":"waste_basket","waste":"trash"}},"type":"Feature"},
	{"geometry":{"coordinates":[8.670088,52.11559],"type":"Point"},"properties":{"osm_id":"6967367279","tag":{"amenity":"waste_basket","waste":"trash"}},"type":"Feature"},
	{"geometry":{"coordinates":[8.67038,52.115591],"type":"Point"},"properties":{"osm_id":"6967367280","tag":{"amenity":"waste_basket","waste":"trash"}},"type":"Feature"},
	{"geometry":{"coordinates":[8.674819,52.117033],"type":"Point"},"properties":{"osm_id":"6976763021","tag":{"amenity":"waste_basket","waste":"trash"}},"type":"Feature"},
	{"geometry":{"coordinates":[8.675065,52.117109],"type":"Point"},"properties":{"osm_id":"6976763024","tag":{"amenity":"waste_basket","waste":"trash"}},"type":"Feature"},
	{"geometry":{"coordinates":[8.669097,52.114417],"type":"Point"},"properties":{"osm_id":"6981400274","tag":{"amenity":"waste_basket","waste":"trash"}},"type":"Feature"},
	{"geometry":{"coordinates":[8.669392,52.114305],"type":"Point"},"properties":{"osm_id":"6981400276","tag":{"amenity":"waste_basket","waste":"trash"}},"type":"Feature"},
	{"geometry":{"coordinates":[8.674141,52.111412],"type":"Point"},"properties":{"osm_id":"6981410901","tag":{"amenity":"waste_basket","waste":"trash"}},"type":"Feature"},
	{"geometry":{"coordinates":[8.680318,52.115077],"type":"Point"},"properties":{"osm_id":"7026888528","tag":{"amenity":"waste_basket","waste":"trash"}},"type":"Feature"},
	{"geometry":{"coordinates":[8.662161,52.122161],"type":"Point"},"properties":{"osm_id":"7047690764","tag":{"amenity":"recycling","recycling:clothes":"yes","recycling_type":"container"}},"type":"Feature"},
	{"geometry":{"coordinates":[8.653054,52.110784],"type":"Point"},"properties":{"osm_id":"7194095675","tag":{"amenity":"waste_basket","waste":"trash"}},"type":"Feature"},
	{"geometry":{"coordinates":[8.653418,52.110984],"type":"Point"},"properties":{"osm_id":"7194095676","tag":{"amenity":"waste_basket","waste":"trash"}},"type":"Feature"},
	{"geometry":{"coordinates":[8.684381,52.115651],"type":"Point"},"properties":{"osm_id":"7272886724","tag":{"amenity":"waste_basket","waste":"trash"}},"type":"Feature"},
	{"geometry":{"coordinates":[8.684541,52.115633],"type":"Point"},"properties":{"osm_id":"7272886726","tag":{"amenity":"waste_basket","waste":"trash"}},"type":"Feature"},
	{"geometry":{"coordinates":[8.683963,52.115661],"type":"Point"},"properties":{"osm_id":"7272886729","tag":{"amenity":"waste_basket","waste":"trash"}},"type":"Feature"},
	{"geometry":{"coordinates":[8.683685,52.115669],"type":"Point"},"properties":{"osm_id":"7272886730","tag":{"amenity":"waste_basket","waste":"trash"}},"type":"Feature"},
	{"geometry":{"coordinates":[8.683432,52.11567],"type":"Point"},"properties":{"osm_id":"7272886732","tag":{"amenity":"waste_basket","waste":"trash"}},"type":"Feature"},
	{"geometry":{"coordinates":[8.682692,52.115769],"type":"Point"},"properties":{"osm_id":"7272886734","tag":{"amenity":"waste_basket","waste":"trash"}},"type":"Feature"},
	{"geometry":{"coordinates":[8.682457,52.115336],"type":"Point"},"properties":{"osm_id":"7272886736","tag":{"amenity":"waste_basket","waste":"trash"}},"type":"Feature"},
	{"geometry":{"coordinates":[8.676419,52.118218],"type":"Point"},"properties":{"osm_id":"7293213903","tag":{"amenity":"waste_basket","waste":"trash"}},"type":"Feature"},
	{"geometry":{"coordinates":[8.67544,52.118535],"type":"Point"},"properties":{"osm_id":"7293213908","tag":{"amenity":"waste_basket","waste":"trash"}},"type":"Feature"},
	{"geometry":{"coordinates":[8.674634,52.118738],"type":"Point"},"properties":{"osm_id":"7293213912","tag":{"amenity":"waste_basket","waste":"trash"}},"type":"Feature"},
	{"geometry":{"coordinates":[8.664422,52.118328],"type":"Point"},"properties":{"osm_id":"7593783314","tag":{"amenity":"recycling","recycling:clothes":"yes","recycling_type":"container"}},"type":"Feature"},
	{"geometry":{"coordinates":[8.66144,52.111977],"type":"Point"},"properties":{"osm_id":"7741770360","tag":{"amenity":"waste_basket","waste":"trash"}},"type":"Feature"}
]
}
