{
"type": "FeatureCollection",
"features": [
	{"geometry":{"coordinates":[8.681146,52.071873],"type":"Point"},"properties":{"osm_id":"280120039","tag":{"amenity":"recycling","recycling:glass_bottles":"yes","recycling_type":"container"}},"type":"Feature"},
	{"geometry":{"coordinates":[8.665107,52.086541],"type":"Point"},"properties":{"osm_id":"286765171","ref":"Am Freibad (Parkplatz)","tag":{"amenity":"recycling","recycling:glass_bottles":"yes","recycling_type":"container"}},"type":"Feature"},
	{"geometry":{"coordinates":[8.690421,52.068602],"type":"Point"},"properties":{"osm_id":"395616090","tag":{"amenity":"recycling","recycling:glass_bottles":"yes","recycling_type":"container"}},"type":"Feature"},
	{"geometry":{"coordinates":[8.621477,52.064331],"type":"Point"},"properties":{"osm_id":"1569238125","tag":{"amenity":"recycling","recycling:glass_bottles":"yes","recycling_type":"container"}},"type":"Feature"},
	{"geometry":{"coordinates":[8.621028,52.084029],"type":"Point"},"properties":{"osm_id":"2011361836","ref":"Am H\u00c3\u00bcchtenbrink","tag":{"amenity":"recycling","recycling:glass_bottles":"yes","recycling_type":"container"}},"type":"Feature"},
	{"geometry":{"coordinates":[8.665084,52.104402],"type":"Point"},"properties":{"osm_id":"2011361845","ref":"Am Sennenbusch 23 / 25","tag":{"amenity":"recycling","recycling:glass_bottles":"yes","recycling_type":"container"}},"type":"Feature"},
	{"geometry":{"coordinates":[8.666409,52.103095],"type":"Point"},"properties":{"osm_id":"2011361854","ref":"Am Sennenbusch","tag":{"amenity":"recycling","recycling:glass_bottles":"yes","recycling_type":"container"}},"type":"Feature"},
	{"geometry":{"coordinates":[8.698699,52.105204],"type":"Point"},"properties":{"osm_id":"2011361904","ref":"Ellersieker Weg","tag":{"amenity":"recycling","recycling:glass_bottles":"yes","recycling_type":"container"}},"type":"Feature"},
	{"geometry":{"coordinates":[8.652035,52.084058],"type":"Point"},"properties":{"osm_id":"2011361922","ref":"Elverdisser Stra\u00c3\u009fe","tag":{"amenity":"recycling","recycling:clothes":"yes","recycling:glass_bottles":"yes","recycling_type":"container"}},"type":"Feature"},
	{"geometry":{"coordinates":[8.689143,52.104377],"type":"Point"},"properties":{"osm_id":"2011361927","ref":"Ernstmeierstra\u00c3\u009fe (Am Stadionparkplatz)","tag":{"amenity":"recycling","recycling:glass_bottles":"yes","recycling_type":"container"}},"type":"Feature"},
	{"geometry":{"coordinates":[8.681409,52.098463],"type":"Point"},"properties":{"osm_id":"2011361952","ref":"Hohe Warth","tag":{"amenity":"recycling","recycling:glass_bottles":"yes","recycling_type":"container"}},"type":"Feature"},
	{"geometry":{"coordinates":[8.618482,52.103407],"type":"Point"},"properties":{"osm_id":"2298937745","tag":{"amenity":"waste_basket"}},"type":"Feature"},
	{"geometry":{"coordinates":[8.696026,52.091252],"type":"Point"},"properties":{"osm_id":"2813827775","tag":{"amenity":"recycling","recycling:clothes":"yes","recycling:glass_bottles":"yes","recycling:shoes":"yes","recycling_type":"container"}},"type":"Feature"},
	{"geometry":{"coordinates":[8.68943,52.098838],"type":"Point"},"properties":{"osm_id":"3675270006","tag":{"amenity":"waste_basket"}},"type":"Feature"},
	{"geometry":{"coordinates":[8.681468,52.098472],"type":"Point"},"properties":{"osm_id":"4517744269","tag":{"amenity":"recycling","recycling:clothes":"yes","recycling_type":"container"}},"type":"Feature"},
	{"geometry":{"coordinates":[8.690983,52.097231],"type":"Point"},"properties":{"osm_id":"5343400604","tag":{"amenity":"waste_basket","waste":"trash"}},"type":"Feature"},
	{"geometry":{"coordinates":[8.698501,52.093538],"type":"Point"},"properties":{"osm_id":"5343400610","tag":{"amenity":"waste_basket"}},"type":"Feature"},
	{"geometry":{"coordinates":[8.693689,52.09691],"type":"Point"},"properties":{"osm_id":"5343400611","tag":{"amenity":"waste_basket"}},"type":"Feature"},
	{"geometry":{"coordinates":[8.690301,52.097739],"type":"Point"},"properties":{"osm_id":"5475880022","tag":{"amenity":"waste_basket"}},"type":"Feature"},
	{"geometry":{"coordinates":[8.685417,52.105752],"type":"Point"},"properties":{"osm_id":"5747682331","tag":{"amenity":"waste_basket"}},"type":"Feature"},
	{"geometry":{"coordinates":[8.687128,52.101551],"type":"Point"},"properties":{"osm_id":"5747682332","tag":{"amenity":"waste_basket"}},"type":"Feature"},
	{"geometry":{"coordinates":[8.68838,52.100258],"type":"Point"},"properties":{"osm_id":"5747682333","tag":{"amenity":"waste_basket"}},"type":"Feature"},
	{"geometry":{"coordinates":[8.68948,52.098773],"type":"Point"},"properties":{"osm_id":"5747682334","tag":{"amenity":"waste_basket"}},"type":"Feature"},
	{"geometry":{"coordinates":[8.692978,52.095414],"type":"Point"},"properties":{"osm_id":"5747682335","tag":{"amenity":"waste_basket"}},"type":"Feature"},
	{"geometry":{"coordinates":[8.691529,52.096631],"type":"Point"},"properties":{"osm_id":"5747682336","tag":{"amenity":"waste_basket"}},"type":"Feature"},
	{"geometry":{"coordinates":[8.699479,52.105742],"type":"Point"},"properties":{"osm_id":"6299751659","tag":{"amenity":"waste_basket"}},"type":"Feature"},
	{"geometry":{"coordinates":[8.699604,52.105997],"type":"Point"},"properties":{"osm_id":"6299751660","tag":{"amenity":"waste_basket"}},"type":"Feature"},
	{"geometry":{"coordinates":[8.633584,52.101872],"type":"Point"},"properties":{"osm_id":"6376975099","tag":{"amenity":"waste_basket"}},"type":"Feature"},
	{"geometry":{"coordinates":[8.647048,52.080053],"type":"Point"},"properties":{"osm_id":"6725311584","tag":{"amenity":"waste_basket"}},"type":"Feature"},
	{"geometry":{"coordinates":[8.622921,52.098842],"type":"Point"},"properties":{"osm_id":"6797380324","tag":{"amenity":"waste_basket"}},"type":"Feature"},
	{"geometry":{"coordinates":[8.691013,52.097209],"type":"Point"},"properties":{"osm_id":"6852557542","tag":{"amenity":"waste_basket","waste":"trash"}},"type":"Feature"},
	{"geometry":{"coordinates":[8.623156,52.086891],"type":"Point"},"properties":{"osm_id":"7221460336","tag":{"amenity":"waste_basket"}},"type":"Feature"},
	{"geometry":{"coordinates":[8.62103,52.083973],"type":"Point"},"properties":{"osm_id":"7221460351","tag":{"amenity":"recycling","recycling:clothes":"yes","recycling_type":"container"}},"type":"Feature"},
	{"geometry":{"coordinates":[8.61633,52.086426],"type":"Point"},"properties":{"osm_id":"7221484694","tag":{"amenity":"waste_basket"}},"type":"Feature"},
	{"geometry":{"coordinates":[8.651646,52.077361],"type":"Point"},"properties":{"osm_id":"7439967524","tag":{"amenity":"recycling","recycling:clothes":"yes","recycling_type":"container"}},"type":"Feature"}
]
}
