{
"type": "FeatureCollection",
"features": [
	{"geometry":{"coordinates":[8.62592,52.002313],"type":"Point"},"properties":{"osm_id":"348108542","tag":{"amenity":"recycling","recycling:glass_bottles":"yes","recycling_type":"container"}},"type":"Feature"},
	{"geometry":{"coordinates":[8.63712,52.034857],"type":"Point"},"properties":{"osm_id":"419855276","tag":{"amenity":"recycling","recycling:clothes":"yes","recycling:glass_bottles":"yes","recycling:shoes":"yes","recycling_type":"container"}},"type":"Feature"},
	{"geometry":{"coordinates":[8.638236,52.027696],"type":"Point"},"properties":{"osm_id":"1340563611","tag":{"amenity":"waste_basket"}},"type":"Feature"},
	{"geometry":{"coordinates":[8.638111,52.026204],"type":"Point"},"properties":{"osm_id":"1661091263","tag":{"amenity":"waste_basket"}},"type":"Feature"},
	{"geometry":{"coordinates":[8.638654,52.026243],"type":"Point"},"properties":{"osm_id":"1661091269","tag":{"amenity":"recycling","recycling:glass_bottles":"yes","recycling_type":"container"}},"type":"Feature"},
	{"geometry":{"coordinates":[8.638802,52.026378],"type":"Point"},"properties":{"osm_id":"1661091276","tag":{"amenity":"recycling","recycling:clothes":"yes","recycling:shoes":"yes","recycling_type":"container"}},"type":"Feature"},
	{"geometry":{"coordinates":[8.638682,52.044234],"type":"Point"},"properties":{"osm_id":"1682388507","tag":{"amenity":"recycling","recycling:clothes":"yes","recycling_type":"container"}},"type":"Feature"},
	{"geometry":{"coordinates":[8.625463,52.042884],"type":"Point"},"properties":{"osm_id":"1682539110","tag":{"amenity":"recycling","recycling:glass_bottles":"yes","recycling_type":"container"}},"type":"Feature"},
	{"geometry":{"coordinates":[8.621314,52.008023],"type":"Point"},"properties":{"osm_id":"2293167054","tag":{"amenity":"recycling","recycling:glass_bottles":"yes","recycling_type":"container"}},"type":"Feature"},
	{"geometry":{"coordinates":[8.614858,52.0246],"type":"Point"},"properties":{"osm_id":"2326760062","tag":{"amenity":"waste_basket"}},"type":"Feature"},
	{"geometry":{"coordinates":[8.615342,52.025292],"type":"Point"},"properties":{"osm_id":"2326760069","tag":{"amenity":"waste_basket"}},"type":"Feature"},
	{"geometry":{"coordinates":[8.615436,52.025481],"type":"Point"},"properties":{"osm_id":"2326760071","tag":{"amenity":"waste_basket"}},"type":"Feature"},
	{"geometry":{"coordinates":[8.616543,52.026272],"type":"Point"},"properties":{"osm_id":"2326760078","tag":{"amenity":"waste_basket"}},"type":"Feature"},
	{"geometry":{"coordinates":[8.616529,52.02624],"type":"Point"},"properties":{"osm_id":"2326760080","tag":{"amenity":"recycling","recycling:glass_bottles":"yes","recycling_type":"container"}},"type":"Feature"},
	{"geometry":{"coordinates":[8.624261,52.036947],"type":"Point"},"properties":{"osm_id":"2326760145","tag":{"amenity":"waste_basket"}},"type":"Feature"},
	{"geometry":{"coordinates":[8.618816,52.04332],"type":"Point"},"properties":{"osm_id":"2326760149","tag":{"amenity":"waste_basket"}},"type":"Feature"},
	{"geometry":{"coordinates":[8.634865,52.017773],"type":"Point"},"properties":{"osm_id":"2993949226","tag":{"amenity":"waste_basket"}},"type":"Feature"},
	{"geometry":{"coordinates":[8.676713,52.01579],"type":"Point"},"properties":{"osm_id":"4333764297","tag":{"amenity":"recycling","recycling:clothes":"yes","recycling:glass":"yes"}},"type":"Feature"},
	{"geometry":{"coordinates":[8.636767,52.041006],"type":"Point"},"properties":{"name":"Gebr. Habigtsberg Transport GmbH","osm_id":"7580862006","tag":{"amenity":"recycling","recycling_type":"centre"}},"type":"Feature"}
]
}
