{
"type": "FeatureCollection",
"features": [
	{"geometry":{"coordinates":[8.614038,51.921532],"type":"Point"},"properties":{"osm_id":"261747456","tag":{"amenity":"recycling","recycling:clothes":"yes","recycling:glass_bottles":"yes"}},"type":"Feature"},
	{"geometry":{"coordinates":[8.636495,51.904395],"type":"Point"},"properties":{"osm_id":"1535359056","tag":{"amenity":"recycling"}},"type":"Feature"},
	{"geometry":{"coordinates":[8.625345,51.935637],"type":"Point"},"properties":{"osm_id":"2348404630","tag":{"amenity":"waste_basket"}},"type":"Feature"},
	{"geometry":{"coordinates":[8.625396,51.935711],"type":"Point"},"properties":{"osm_id":"2348404631","tag":{"amenity":"waste_basket"}},"type":"Feature"},
	{"geometry":{"coordinates":[8.618114,51.939768],"type":"Point"},"properties":{"osm_id":"2348404632","tag":{"amenity":"waste_basket"}},"type":"Feature"},
	{"geometry":{"coordinates":[8.615703,51.940911],"type":"Point"},"properties":{"osm_id":"2348404633","tag":{"amenity":"waste_basket"}},"type":"Feature"},
	{"geometry":{"coordinates":[8.62878,51.90545],"type":"Point"},"properties":{"osm_id":"2684896109","tag":{"amenity":"waste_basket"}},"type":"Feature"},
	{"geometry":{"coordinates":[8.626703,51.906349],"type":"Point"},"properties":{"osm_id":"2684896120","tag":{"amenity":"waste_basket"}},"type":"Feature"},
	{"geometry":{"coordinates":[8.627969,51.907341],"type":"Point"},"properties":{"osm_id":"2684896150","tag":{"amenity":"waste_basket"}},"type":"Feature"},
	{"geometry":{"coordinates":[8.613808,51.904761],"type":"Point"},"properties":{"osm_id":"3129211343","tag":{"amenity":"waste_basket"}},"type":"Feature"},
	{"geometry":{"coordinates":[8.613956,51.90482],"type":"Point"},"properties":{"osm_id":"3129211345","tag":{"amenity":"waste_basket"}},"type":"Feature"},
	{"geometry":{"coordinates":[8.617598,51.90528],"type":"Point"},"properties":{"osm_id":"3129311965","tag":{"amenity":"recycling","recycling:clothes":"yes","recycling:glass":"yes","recycling_type":"container"}},"type":"Feature"},
	{"geometry":{"coordinates":[8.661228,51.926357],"type":"Point"},"properties":{"osm_id":"3667351680","tag":{"amenity":"waste_basket"}},"type":"Feature"},
	{"geometry":{"coordinates":[8.674103,51.935439],"type":"Point"},"properties":{"osm_id":"3667351707","tag":{"amenity":"waste_basket","colour":"brown","material":"wood","seats":"4"}},"type":"Feature"},
	{"geometry":{"coordinates":[8.672361,51.935875],"type":"Point"},"properties":{"osm_id":"3667351710","tag":{"amenity":"waste_basket","backrest":"yes","colour":"brown","material":"wood","seats":"3"}},"type":"Feature"},
	{"geometry":{"coordinates":[8.660188,51.926803],"type":"Point"},"properties":{"osm_id":"3667352623","tag":{"amenity":"waste_basket"}},"type":"Feature"},
	{"geometry":{"coordinates":[8.656723,51.927188],"type":"Point"},"properties":{"osm_id":"3667360329","tag":{"amenity":"waste_basket","colour":"brown","material":"wood","seats":"4"}},"type":"Feature"},
	{"geometry":{"coordinates":[8.665316,51.927158],"type":"Point"},"properties":{"osm_id":"3684247267","tag":{"amenity":"recycling","recycling:glass":"yes","recycling_type":"container"}},"type":"Feature"},
	{"geometry":{"coordinates":[8.632676,51.902195],"type":"Point"},"properties":{"osm_id":"4416197647","tag":{"amenity":"recycling","recycling:glass_bottles":"yes","recycling_type":"container"}},"type":"Feature"},
	{"geometry":{"coordinates":[8.632769,51.902193],"type":"Point"},"properties":{"osm_id":"4416197648","tag":{"amenity":"recycling","recycling:clothes":"yes","recycling_type":"container"}},"type":"Feature"},
	{"geometry":{"coordinates":[8.66874,51.929938],"type":"Point"},"properties":{"osm_id":"4745805642","tag":{"amenity":"waste_basket"}},"type":"Feature"},
	{"geometry":{"coordinates":[8.668463,51.929616],"type":"Point"},"properties":{"osm_id":"4749512416","tag":{"amenity":"waste_basket"}},"type":"Feature"},
	{"geometry":{"coordinates":[8.661345,51.919052],"type":"Point"},"properties":{"osm_id":"4936636559","tag":{"amenity":"recycling","recycling:clothes":"yes","recycling:glass":"yes","recycling_type":"container"}},"type":"Feature"},
	{"geometry":{"coordinates":[8.632018,51.938044],"type":"Point"},"properties":{"osm_id":"7628569991","tag":{"amenity":"waste_basket"}},"type":"Feature"},
	{"geometry":{"coordinates":[8.65048,51.937544],"type":"Point"},"properties":{"osm_id":"7689492514","tag":{"amenity":"waste_basket"}},"type":"Feature"},
	{"geometry":{"coordinates":[8.666481,51.917042],"type":"Point"},"properties":{"osm_id":"7690881141","tag":{"amenity":"waste_basket"}},"type":"Feature"},
	{"geometry":{"coordinates":[8.657394,51.928841],"type":"Point"},"properties":{"osm_id":"7690881143","tag":{"amenity":"waste_basket"}},"type":"Feature"},
	{"geometry":{"coordinates":[8.62452,51.896187],"type":"Point"},"properties":{"osm_id":"7902091357","tag":{"amenity":"recycling","recycling:clothes":"yes","recycling_type":"container"}},"type":"Feature"}
]
}
