{
"type": "FeatureCollection",
"features": [
	{"geometry":{"coordinates":[8.683945,50.681335],"type":"Point"},"properties":{"osm_id":"322576383","tag":{"amenity":"recycling","recycling:clothes":"yes","recycling:glass":"yes","recycling:paper":"yes","recycling_type":"container"}},"type":"Feature"},
	{"geometry":{"coordinates":[8.699343,50.706155],"type":"Point"},"properties":{"osm_id":"561202472","tag":{"amenity":"recycling","recycling:glass_bottles":"yes","recycling_type":"container"}},"type":"Feature"},
	{"geometry":{"coordinates":[8.697268,50.700775],"type":"Point"},"properties":{"osm_id":"570607211","tag":{"amenity":"recycling","opening_hours":"24/7","opening_hours:covid19":"open","recycling:clothes":"yes","recycling:shoes":"yes","recycling_type":"container"}},"type":"Feature"},
	{"geometry":{"coordinates":[8.697187,50.700775],"type":"Point"},"properties":{"osm_id":"570607232","tag":{"amenity":"recycling","opening_hours":"24/7","opening_hours:covid19":"open","recycling:glass":"yes","recycling_type":"container"}},"type":"Feature"},
	{"geometry":{"coordinates":[8.697253,50.70418],"type":"Point"},"properties":{"osm_id":"583257980","tag":{"amenity":"recycling","recycling:shoes":"yes"}},"type":"Feature"},
	{"geometry":{"coordinates":[8.697492,50.703905],"type":"Point"},"properties":{"osm_id":"583257981","tag":{"amenity":"recycling","recycling:clothes":"yes","recycling:shoes":"yes"}},"type":"Feature"},
	{"geometry":{"coordinates":[8.696728,50.700071],"type":"Point"},"properties":{"osm_id":"602554210","tag":{"amenity":"recycling","recycling:shoes":"yes","recycling_type":"container"}},"type":"Feature"},
	{"geometry":{"coordinates":[8.646907,50.727141],"type":"Point"},"properties":{"osm_id":"1276478493","tag":{"amenity":"recycling","recycling:glass":"yes","recycling_type":"container"}},"type":"Feature"},
	{"geometry":{"coordinates":[8.64776,50.719298],"type":"Point"},"properties":{"osm_id":"1276493555","tag":{"amenity":"recycling","recycling:glass":"yes","recycling_type":"container"}},"type":"Feature"},
	{"geometry":{"coordinates":[8.691156,50.700854],"type":"Point"},"properties":{"osm_id":"2048645759","tag":{"amenity":"recycling","recycling:glass":"yes"}},"type":"Feature"},
	{"geometry":{"coordinates":[8.688862,50.716128],"type":"Point"},"properties":{"osm_id":"2311483568","tag":{"amenity":"recycling","recycling:glass":"yes"}},"type":"Feature"},
	{"geometry":{"coordinates":[8.674023,50.728914],"type":"Point"},"properties":{"osm_id":"3779854239","tag":{"amenity":"recycling","recycling:cans":"yes","recycling:glass":"yes","recycling_type":"container"}},"type":"Feature"},
	{"geometry":{"coordinates":[8.638564,50.704877],"type":"Point"},"properties":{"osm_id":"4033018402","tag":{"amenity":"recycling","recycling:cans":"yes","recycling:glass":"yes","recycling_type":"container"}},"type":"Feature"},
	{"geometry":{"coordinates":[8.697752,50.70909],"type":"Point"},"properties":{"osm_id":"4374209178","tag":{"amenity":"recycling","recycling:clothes":"yes","recycling_type":"container"}},"type":"Feature"},
	{"geometry":{"coordinates":[8.697762,50.709126],"type":"Point"},"properties":{"osm_id":"4374209183","tag":{"amenity":"recycling","recycling:cans":"yes","recycling:glass":"yes","recycling:glass_bottles":"yes","recycling_type":"container"}},"type":"Feature"},
	{"geometry":{"coordinates":[8.617488,50.709931],"type":"Point"},"properties":{"osm_id":"4731801081","tag":{"amenity":"waste_basket"}},"type":"Feature"},
	{"geometry":{"coordinates":[8.669218,50.699843],"type":"Point"},"properties":{"osm_id":"5261959325","tag":{"amenity":"waste_basket"}},"type":"Feature"},
	{"geometry":{"coordinates":[8.697893,50.680995],"type":"Point"},"properties":{"osm_id":"6298147419","tag":{"amenity":"recycling","recycling:clothes":"yes","recycling:glass":"yes","recycling_type":"container"}},"type":"Feature"},
	{"geometry":{"coordinates":[8.695334,50.699826],"type":"Point"},"properties":{"osm_id":"6512152592","tag":{"amenity":"waste_basket"}},"type":"Feature"},
	{"geometry":{"coordinates":[8.621189,50.685861],"type":"Point"},"properties":{"osm_id":"6900575049","tag":{"amenity":"waste_basket"}},"type":"Feature"},
	{"geometry":{"coordinates":[8.681295,50.687285],"type":"Point"},"properties":{"osm_id":"7345857164","tag":{"amenity":"waste_basket"}},"type":"Feature"},
	{"geometry":{"coordinates":[8.671169,50.686527],"type":"Point"},"properties":{"osm_id":"7345857166","tag":{"amenity":"waste_basket"}},"type":"Feature"},
	{"geometry":{"coordinates":[8.658985,50.693869],"type":"Point"},"properties":{"osm_id":"7345857173","tag":{"amenity":"waste_basket"}},"type":"Feature"}
]
}
