{
"type": "FeatureCollection",
"features": [
	{"geometry":{"coordinates":[8.6443,50.562164],"type":"Point"},"properties":{"osm_id":"195979218","tag":{"amenity":"recycling","recycling:batteries":"no","recycling:books":"no","recycling:cartons":"no","recycling:glass_bottles":"yes","recycling:green_waste":"no","recycling:magazines":"no","recycling:newspaper":"no","recycling:paper":"no","recycling:paper_packaging":"no","recycling:plastic":"no","recycling_type":"container"}},"type":"Feature"},
	{"geometry":{"coordinates":[8.652124,50.559636],"type":"Point"},"properties":{"osm_id":"199507958","tag":{"amenity":"recycling","recycling:batteries":"no","recycling:books":"no","recycling:cartons":"no","recycling:clothes":"yes","recycling:glass_bottles":"yes","recycling:green_waste":"no","recycling:magazines":"no","recycling:newspaper":"no","recycling:paper":"no","recycling:paper_packaging":"no","recycling:plastic":"no","recycling_type":"container"}},"type":"Feature"},
	{"geometry":{"coordinates":[8.637211,50.553128],"type":"Point"},"properties":{"osm_id":"199508047","tag":{"amenity":"recycling","recycling:batteries":"no","recycling:books":"no","recycling:cartons":"no","recycling:glass_bottles":"yes","recycling:green_waste":"no","recycling:magazines":"no","recycling:newspaper":"no","recycling:paper":"no","recycling:paper_packaging":"no","recycling:plastic":"no","recycling_type":"container"}},"type":"Feature"},
	{"geometry":{"coordinates":[8.624615,50.554002],"type":"Point"},"properties":{"osm_id":"205263983","tag":{"amenity":"recycling","recycling:batteries":"no","recycling:books":"no","recycling:cartons":"no","recycling:glass_bottles":"yes","recycling:green_waste":"no","recycling:magazines":"no","recycling:newspaper":"no","recycling:paper":"no","recycling:paper_packaging":"no","recycling:plastic":"no","recycling_type":"container"}},"type":"Feature"},
	{"geometry":{"coordinates":[8.622347,50.534654],"type":"Point"},"properties":{"osm_id":"205286995","tag":{"amenity":"recycling","recycling:clothes":"yes","recycling:glass":"yes"}},"type":"Feature"},
	{"geometry":{"coordinates":[8.650288,50.532394],"type":"Point"},"properties":{"osm_id":"254648266","tag":{"amenity":"recycling","recycling_type":"container"}},"type":"Feature"},
	{"geometry":{"coordinates":[8.621415,50.515101],"type":"Point"},"properties":{"osm_id":"256722973","tag":{"amenity":"recycling","recycling:glass_bottles":"yes","recycling_type":"container"}},"type":"Feature"},
	{"geometry":{"coordinates":[8.668698,50.568433],"type":"Point"},"properties":{"osm_id":"270117711","tag":{"amenity":"recycling","recycling:batteries":"no","recycling:books":"no","recycling:cartons":"no","recycling:clothes":"yes","recycling:glass_bottles":"yes","recycling:green_waste":"no","recycling:magazines":"no","recycling:newspaper":"no","recycling:paper":"no","recycling:paper_packaging":"no","recycling:plastic":"no","recycling_type":"container"}},"type":"Feature"},
	{"geometry":{"coordinates":[8.676744,50.530486],"type":"Point"},"properties":{"osm_id":"310619604","tag":{"amenity":"recycling","recycling:glass_bottles":"yes","recycling_type":"container"}},"type":"Feature"},
	{"geometry":{"coordinates":[8.647336,50.555209],"type":"Point"},"properties":{"osm_id":"313840227","tag":{"amenity":"recycling","recycling:batteries":"no","recycling:books":"no","recycling:cartons":"no","recycling:clothes":"yes","recycling:glass_bottles":"yes","recycling:green_waste":"no","recycling:magazines":"no","recycling:newspaper":"no","recycling:paper":"no","recycling:paper_packaging":"no","recycling:plastic":"no","recycling:shoes":"yes","recycling_type":"container"}},"type":"Feature"},
	{"geometry":{"coordinates":[8.67809,50.537299],"type":"Point"},"properties":{"osm_id":"316812549","tag":{"amenity":"recycling","location":"overground","recycling:clothes":"yes","recycling:glass":"yes","recycling_type":"container"}},"type":"Feature"},
	{"geometry":{"coordinates":[8.671329,50.539575],"type":"Point"},"properties":{"osm_id":"317533114","tag":{"amenity":"recycling","recycling:clothes":"yes","recycling:glass":"yes"}},"type":"Feature"},
	{"geometry":{"coordinates":[8.656362,50.539138],"type":"Point"},"properties":{"osm_id":"318085893","tag":{"amenity":"recycling","recycling_type":"centre"}},"type":"Feature"},
	{"geometry":{"coordinates":[8.619174,50.527295],"type":"Point"},"properties":{"osm_id":"524699917","tag":{"amenity":"recycling","recycling:glass_bottles":"yes","recycling_type":"container"}},"type":"Feature"},
	{"geometry":{"coordinates":[8.661841,50.56511],"type":"Point"},"properties":{"osm_id":"563890014","tag":{"amenity":"recycling","recycling:batteries":"no","recycling:books":"no","recycling:cartons":"no","recycling:glass_bottles":"yes","recycling:green_waste":"no","recycling:magazines":"no","recycling:newspaper":"no","recycling:paper":"no","recycling:paper_packaging":"no","recycling:plastic":"no","recycling_type":"container"}},"type":"Feature"},
	{"geometry":{"coordinates":[8.645946,50.55845],"type":"Point"},"properties":{"osm_id":"765329994","tag":{"amenity":"recycling","recycling:batteries":"no","recycling:books":"no","recycling:cartons":"no","recycling:clothes":"yes","recycling:glass_bottles":"no","recycling:green_waste":"no","recycling:magazines":"no","recycling:newspaper":"no","recycling:paper":"no","recycling:paper_packaging":"no","recycling:plastic":"no","recycling_type":"container"}},"type":"Feature"},
	{"geometry":{"coordinates":[8.675822,50.565167],"type":"Point"},"properties":{"osm_id":"778177208","tag":{"amenity":"recycling","recycling:batteries":"no","recycling:books":"no","recycling:cartons":"no","recycling:clothes":"yes","recycling:glass_bottles":"yes","recycling:green_waste":"no","recycling:magazines":"no","recycling:newspaper":"no","recycling:paper":"no","recycling:paper_packaging":"no","recycling:plastic":"no","recycling_type":"container"}},"type":"Feature"},
	{"geometry":{"coordinates":[8.680532,50.525269],"type":"Point"},"properties":{"osm_id":"830584930","tag":{"amenity":"recycling","location":"overground","recycling:clothes":"yes","recycling:glass_bottles":"yes","recycling_type":"container"}},"type":"Feature"},
	{"geometry":{"coordinates":[8.682234,50.555741],"type":"Point"},"properties":{"osm_id":"954960335","tag":{"amenity":"recycling","location":"overground","recycling:clothes":"yes","recycling:glass":"yes","recycling_type":"container"}},"type":"Feature"},
	{"geometry":{"coordinates":[8.621154,50.535651],"type":"Point"},"properties":{"osm_id":"998718128","tag":{"amenity":"waste_basket"}},"type":"Feature"},
	{"geometry":{"coordinates":[8.625962,50.539091],"type":"Point"},"properties":{"osm_id":"1177573215","tag":{"amenity":"waste_basket"}},"type":"Feature"},
	{"geometry":{"coordinates":[8.627802,50.553419],"type":"Point"},"properties":{"osm_id":"1177573287","tag":{"amenity":"waste_basket"}},"type":"Feature"},
	{"geometry":{"coordinates":[8.617686,50.549358],"type":"Point"},"properties":{"osm_id":"1177573338","tag":{"amenity":"waste_basket"}},"type":"Feature"},
	{"geometry":{"coordinates":[8.626288,50.544239],"type":"Point"},"properties":{"osm_id":"1177573414","tag":{"amenity":"waste_basket"}},"type":"Feature"},
	{"geometry":{"coordinates":[8.61782,50.549002],"type":"Point"},"properties":{"osm_id":"1177573498","tag":{"amenity":"waste_basket"}},"type":"Feature"},
	{"geometry":{"coordinates":[8.622074,50.538291],"type":"Point"},"properties":{"osm_id":"1177573510","tag":{"amenity":"waste_basket"}},"type":"Feature"},
	{"geometry":{"coordinates":[8.627096,50.55338],"type":"Point"},"properties":{"osm_id":"1177573527","tag":{"amenity":"waste_basket"}},"type":"Feature"},
	{"geometry":{"coordinates":[8.626092,50.5442],"type":"Point"},"properties":{"osm_id":"1177573561","tag":{"amenity":"waste_basket"}},"type":"Feature"},
	{"geometry":{"coordinates":[8.667265,50.537756],"type":"Point"},"properties":{"osm_id":"1493342144","tag":{"amenity":"waste_basket"}},"type":"Feature"},
	{"geometry":{"coordinates":[8.667445,50.539075],"type":"Point"},"properties":{"osm_id":"1493342145","tag":{"amenity":"waste_basket"}},"type":"Feature"},
	{"geometry":{"coordinates":[8.665185,50.539856],"type":"Point"},"properties":{"osm_id":"1493342147","tag":{"amenity":"waste_basket"}},"type":"Feature"},
	{"geometry":{"coordinates":[8.667765,50.524787],"type":"Point"},"properties":{"osm_id":"1678047940","tag":{"amenity":"recycling","recycling:clothes":"yes","recycling:glass":"yes","recycling:glass_bottles":"yes","recycling_type":"container"}},"type":"Feature"},
	{"geometry":{"coordinates":[8.623744,50.537788],"type":"Point"},"properties":{"osm_id":"2583988217","tag":{"amenity":"waste_basket"}},"type":"Feature"},
	{"geometry":{"coordinates":[8.625033,50.540653],"type":"Point"},"properties":{"osm_id":"2583988227","tag":{"amenity":"waste_basket"}},"type":"Feature"},
	{"geometry":{"coordinates":[8.677844,50.564967],"type":"Point"},"properties":{"osm_id":"2583988262","tag":{"amenity":"waste_basket"}},"type":"Feature"},
	{"geometry":{"coordinates":[8.67183,50.567316],"type":"Point"},"properties":{"osm_id":"2583988278","tag":{"amenity":"waste_basket"}},"type":"Feature"},
	{"geometry":{"coordinates":[8.653934,50.567903],"type":"Point"},"properties":{"osm_id":"2583988285","tag":{"amenity":"waste_basket"}},"type":"Feature"},
	{"geometry":{"coordinates":[8.649605,50.562355],"type":"Point"},"properties":{"osm_id":"2635626512","tag":{"amenity":"recycling","recycling:batteries":"no","recycling:books":"no","recycling:cartons":"no","recycling:glass_bottles":"yes","recycling:green_waste":"no","recycling:magazines":"no","recycling:newspaper":"no","recycling:paper":"no","recycling:paper_packaging":"no","recycling:plastic":"no","recycling_type":"container"}},"type":"Feature"},
	{"geometry":{"coordinates":[8.659224,50.535061],"type":"Point"},"properties":{"name":"Recyclinghof Linden","osm_id":"2680825289","tag":{"amenity":"recycling","recycling:batteries":"no","recycling:cans":"no","recycling:cardboard":"yes","recycling:clothes":"no","recycling:glass":"yes","recycling:glass_bottles":"no","recycling:green_waste":"yes","recycling:paper":"no","recycling:plastic":"no","recycling:scrap_metal":"yes","recycling_type":"centre"}},"type":"Feature"},
	{"geometry":{"coordinates":[8.649673,50.563688],"type":"Point"},"properties":{"osm_id":"3930561666","tag":{"amenity":"waste_basket"}},"type":"Feature"},
	{"geometry":{"coordinates":[8.651269,50.566307],"type":"Point"},"properties":{"osm_id":"3930561667","tag":{"amenity":"recycling","recycling:batteries":"no","recycling:books":"no","recycling:cartons":"no","recycling:clothes":"yes","recycling:glass_bottles":"yes","recycling:green_waste":"no","recycling:magazines":"no","recycling:newspaper":"no","recycling:paper":"no","recycling:paper_packaging":"no","recycling:plastic":"no","recycling_type":"container"}},"type":"Feature"},
	{"geometry":{"coordinates":[8.620948,50.551884],"type":"Point"},"properties":{"osm_id":"3930785357","tag":{"amenity":"waste_basket"}},"type":"Feature"},
	{"geometry":{"coordinates":[8.667602,50.565514],"type":"Point"},"properties":{"osm_id":"3980007842","tag":{"amenity":"waste_basket"}},"type":"Feature"},
	{"geometry":{"coordinates":[8.666583,50.566072],"type":"Point"},"properties":{"osm_id":"3980007846","tag":{"amenity":"waste_basket"}},"type":"Feature"},
	{"geometry":{"coordinates":[8.66599,50.566535],"type":"Point"},"properties":{"osm_id":"3980007851","tag":{"amenity":"waste_basket"}},"type":"Feature"},
	{"geometry":{"coordinates":[8.664886,50.567617],"type":"Point"},"properties":{"osm_id":"3980010470","tag":{"amenity":"waste_basket"}},"type":"Feature"},
	{"geometry":{"coordinates":[8.665928,50.567701],"type":"Point"},"properties":{"osm_id":"3980010472","tag":{"amenity":"waste_basket"}},"type":"Feature"},
	{"geometry":{"coordinates":[8.66345,50.567833],"type":"Point"},"properties":{"osm_id":"3980010475","tag":{"amenity":"waste_basket"}},"type":"Feature"},
	{"geometry":{"coordinates":[8.663695,50.567952],"type":"Point"},"properties":{"osm_id":"3980010478","tag":{"amenity":"waste_basket"}},"type":"Feature"},
	{"geometry":{"coordinates":[8.666525,50.567984],"type":"Point"},"properties":{"osm_id":"3980010479","tag":{"amenity":"waste_basket"}},"type":"Feature"},
	{"geometry":{"coordinates":[8.666161,50.567997],"type":"Point"},"properties":{"osm_id":"3980010480","tag":{"amenity":"waste_basket"}},"type":"Feature"},
	{"geometry":{"coordinates":[8.663626,50.567999],"type":"Point"},"properties":{"osm_id":"3980010481","tag":{"amenity":"waste_basket"}},"type":"Feature"},
	{"geometry":{"coordinates":[8.664213,50.56801],"type":"Point"},"properties":{"osm_id":"3980010482","tag":{"amenity":"waste_basket"}},"type":"Feature"},
	{"geometry":{"coordinates":[8.663047,50.568056],"type":"Point"},"properties":{"osm_id":"3980010485","tag":{"amenity":"waste_basket"}},"type":"Feature"},
	{"geometry":{"coordinates":[8.669632,50.525919],"type":"Point"},"properties":{"osm_id":"3982679816","tag":{"amenity":"waste_basket"}},"type":"Feature"},
	{"geometry":{"coordinates":[8.687505,50.529532],"type":"Point"},"properties":{"osm_id":"3982679820","tag":{"amenity":"waste_basket"}},"type":"Feature"},
	{"geometry":{"coordinates":[8.65449,50.535117],"type":"Point"},"properties":{"osm_id":"3982712785","tag":{"amenity":"waste_basket"}},"type":"Feature"},
	{"geometry":{"coordinates":[8.654058,50.53531],"type":"Point"},"properties":{"osm_id":"3982712789","tag":{"amenity":"waste_basket"}},"type":"Feature"},
	{"geometry":{"coordinates":[8.638823,50.555006],"type":"Point"},"properties":{"osm_id":"3982775456","tag":{"amenity":"waste_basket"}},"type":"Feature"},
	{"geometry":{"coordinates":[8.64056,50.555961],"type":"Point"},"properties":{"osm_id":"3982788659","tag":{"amenity":"waste_basket"}},"type":"Feature"},
	{"geometry":{"coordinates":[8.639898,50.555983],"type":"Point"},"properties":{"osm_id":"3982788660","tag":{"amenity":"waste_basket"}},"type":"Feature"},
	{"geometry":{"coordinates":[8.640368,50.556087],"type":"Point"},"properties":{"osm_id":"3982788663","tag":{"amenity":"waste_basket"}},"type":"Feature"},
	{"geometry":{"coordinates":[8.640884,50.556093],"type":"Point"},"properties":{"osm_id":"3982788664","tag":{"amenity":"waste_basket"}},"type":"Feature"},
	{"geometry":{"coordinates":[8.640192,50.556202],"type":"Point"},"properties":{"osm_id":"3982788665","tag":{"amenity":"waste_basket"}},"type":"Feature"},
	{"geometry":{"coordinates":[8.654943,50.539366],"type":"Point"},"properties":{"osm_id":"3982821816","tag":{"amenity":"waste_basket"}},"type":"Feature"},
	{"geometry":{"coordinates":[8.654949,50.539401],"type":"Point"},"properties":{"osm_id":"3982821817","tag":{"amenity":"waste_basket"}},"type":"Feature"},
	{"geometry":{"coordinates":[8.674006,50.527227],"type":"Point"},"properties":{"osm_id":"4039899105","tag":{"amenity":"recycling","recycling:glass_bottles":"yes","recycling_type":"container"}},"type":"Feature"},
	{"geometry":{"coordinates":[8.661478,50.525065],"type":"Point"},"properties":{"osm_id":"4041952147","tag":{"amenity":"recycling","recycling:clothes":"yes","recycling:glass":"yes","recycling_type":"container"}},"type":"Feature"},
	{"geometry":{"coordinates":[8.639074,50.5576],"type":"Point"},"properties":{"osm_id":"4112423446","tag":{"amenity":"waste_basket"}},"type":"Feature"},
	{"geometry":{"coordinates":[8.648938,50.562401],"type":"Point"},"properties":{"osm_id":"4112423461","tag":{"amenity":"waste_basket","operator":"Wohnbau Gie\u00c3\u009fen"}},"type":"Feature"},
	{"geometry":{"coordinates":[8.648928,50.562548],"type":"Point"},"properties":{"osm_id":"4112423473","tag":{"amenity":"waste_basket","operator":"Wohnbau Gie\u00c3\u009fen"}},"type":"Feature"},
	{"geometry":{"coordinates":[8.648503,50.562722],"type":"Point"},"properties":{"osm_id":"4112423484","tag":{"amenity":"waste_basket","operator":"Wohnbau Gie\u00c3\u009fen"}},"type":"Feature"},
	{"geometry":{"coordinates":[8.648852,50.562729],"type":"Point"},"properties":{"osm_id":"4112423485","tag":{"amenity":"waste_basket","operator":"Wohnbau Gie\u00c3\u009fen"}},"type":"Feature"},
	{"geometry":{"coordinates":[8.651921,50.564249],"type":"Point"},"properties":{"osm_id":"4112426896","tag":{"amenity":"waste_basket"}},"type":"Feature"},
	{"geometry":{"coordinates":[8.66064,50.56756],"type":"Point"},"properties":{"osm_id":"4137059413","tag":{"amenity":"waste_basket"}},"type":"Feature"},
	{"geometry":{"coordinates":[8.660633,50.567583],"type":"Point"},"properties":{"osm_id":"4137059414","tag":{"amenity":"waste_basket"}},"type":"Feature"},
	{"geometry":{"coordinates":[8.661051,50.567621],"type":"Point"},"properties":{"osm_id":"4137059419","tag":{"amenity":"waste_basket"}},"type":"Feature"},
	{"geometry":{"coordinates":[8.661182,50.567626],"type":"Point"},"properties":{"osm_id":"4137059420","tag":{"amenity":"waste_basket"}},"type":"Feature"},
	{"geometry":{"coordinates":[8.660803,50.567657],"type":"Point"},"properties":{"osm_id":"4137059424","tag":{"amenity":"waste_basket"}},"type":"Feature"},
	{"geometry":{"coordinates":[8.660767,50.567661],"type":"Point"},"properties":{"osm_id":"4137059425","tag":{"amenity":"waste_basket"}},"type":"Feature"},
	{"geometry":{"coordinates":[8.661198,50.567698],"type":"Point"},"properties":{"osm_id":"4137059427","tag":{"amenity":"waste_basket"}},"type":"Feature"},
	{"geometry":{"coordinates":[8.661212,50.567876],"type":"Point"},"properties":{"osm_id":"4137059428","tag":{"amenity":"waste_basket"}},"type":"Feature"},
	{"geometry":{"coordinates":[8.661296,50.567918],"type":"Point"},"properties":{"osm_id":"4137059430","tag":{"amenity":"waste_basket"}},"type":"Feature"},
	{"geometry":{"coordinates":[8.695283,50.568974],"type":"Point"},"properties":{"osm_id":"4171132864","tag":{"amenity":"recycling","recycling:batteries":"no","recycling:books":"no","recycling:cartons":"no","recycling:glass_bottles":"yes","recycling:green_waste":"no","recycling:magazines":"no","recycling:newspaper":"no","recycling:paper":"no","recycling:paper_packaging":"no","recycling:plastic":"no","recycling_type":"container"}},"type":"Feature"},
	{"geometry":{"coordinates":[8.641029,50.55402],"type":"Point"},"properties":{"osm_id":"4200843399","tag":{"amenity":"waste_basket"}},"type":"Feature"},
	{"geometry":{"coordinates":[8.689728,50.568543],"type":"Point"},"properties":{"osm_id":"4212791086","tag":{"amenity":"waste_basket"}},"type":"Feature"},
	{"geometry":{"coordinates":[8.689447,50.568781],"type":"Point"},"properties":{"osm_id":"4212791087","tag":{"amenity":"waste_basket"}},"type":"Feature"},
	{"geometry":{"coordinates":[8.689288,50.569064],"type":"Point"},"properties":{"osm_id":"4212795491","tag":{"amenity":"waste_basket"}},"type":"Feature"},
	{"geometry":{"coordinates":[8.689142,50.569183],"type":"Point"},"properties":{"osm_id":"4212795494","tag":{"amenity":"waste_basket"}},"type":"Feature"},
	{"geometry":{"coordinates":[8.687723,50.569184],"type":"Point"},"properties":{"osm_id":"4212795495","tag":{"amenity":"waste_basket"}},"type":"Feature"},
	{"geometry":{"coordinates":[8.688737,50.569274],"type":"Point"},"properties":{"osm_id":"4212795498","tag":{"amenity":"waste_basket"}},"type":"Feature"},
	{"geometry":{"coordinates":[8.657497,50.521512],"type":"Point"},"properties":{"osm_id":"4228584715","tag":{"amenity":"waste_basket"}},"type":"Feature"},
	{"geometry":{"coordinates":[8.648131,50.524387],"type":"Point"},"properties":{"osm_id":"4228584730","tag":{"amenity":"waste_basket"}},"type":"Feature"},
	{"geometry":{"coordinates":[8.686839,50.565135],"type":"Point"},"properties":{"osm_id":"4241680993","tag":{"amenity":"waste_basket"}},"type":"Feature"},
	{"geometry":{"coordinates":[8.676693,50.56569],"type":"Point"},"properties":{"osm_id":"4245081827","tag":{"amenity":"waste_basket"}},"type":"Feature"},
	{"geometry":{"coordinates":[8.676661,50.565739],"type":"Point"},"properties":{"osm_id":"4245081829","tag":{"amenity":"waste_basket"}},"type":"Feature"},
	{"geometry":{"coordinates":[8.639217,50.553658],"type":"Point"},"properties":{"osm_id":"4262943196","tag":{"amenity":"waste_basket"}},"type":"Feature"},
	{"geometry":{"coordinates":[8.652661,50.559875],"type":"Point"},"properties":{"osm_id":"4262943200","tag":{"amenity":"waste_basket"}},"type":"Feature"},
	{"geometry":{"coordinates":[8.660054,50.566084],"type":"Point"},"properties":{"osm_id":"4262943208","tag":{"amenity":"waste_basket"}},"type":"Feature"},
	{"geometry":{"coordinates":[8.66008,50.566033],"type":"Point"},"properties":{"osm_id":"4262943209","tag":{"amenity":"waste_basket"}},"type":"Feature"},
	{"geometry":{"coordinates":[8.689457,50.522209],"type":"Point"},"properties":{"osm_id":"4309892217","tag":{"amenity":"waste_basket"}},"type":"Feature"},
	{"geometry":{"coordinates":[8.649199,50.533947],"type":"Point"},"properties":{"osm_id":"4309917844","tag":{"amenity":"waste_basket"}},"type":"Feature"},
	{"geometry":{"coordinates":[8.644913,50.536875],"type":"Point"},"properties":{"osm_id":"4309917849","tag":{"amenity":"waste_basket"}},"type":"Feature"},
	{"geometry":{"coordinates":[8.620248,50.549506],"type":"Point"},"properties":{"osm_id":"4313227870","tag":{"amenity":"waste_basket"}},"type":"Feature"},
	{"geometry":{"coordinates":[8.620719,50.549789],"type":"Point"},"properties":{"osm_id":"4313227882","tag":{"amenity":"waste_basket"}},"type":"Feature"},
	{"geometry":{"coordinates":[8.620204,50.550237],"type":"Point"},"properties":{"osm_id":"4313232213","tag":{"amenity":"waste_basket"}},"type":"Feature"},
	{"geometry":{"coordinates":[8.615151,50.550469],"type":"Point"},"properties":{"osm_id":"4313232220","tag":{"amenity":"waste_basket"}},"type":"Feature"},
	{"geometry":{"coordinates":[8.618406,50.551639],"type":"Point"},"properties":{"osm_id":"4313232238","tag":{"amenity":"waste_basket"}},"type":"Feature"},
	{"geometry":{"coordinates":[8.618815,50.55131],"type":"Point"},"properties":{"osm_id":"4313243709","tag":{"amenity":"waste_basket"}},"type":"Feature"},
	{"geometry":{"coordinates":[8.618525,50.551439],"type":"Point"},"properties":{"osm_id":"4313243712","tag":{"amenity":"waste_basket"}},"type":"Feature"},
	{"geometry":{"coordinates":[8.684138,50.532252],"type":"Point"},"properties":{"osm_id":"4323548913","tag":{"amenity":"waste_basket"}},"type":"Feature"},
	{"geometry":{"coordinates":[8.682901,50.533872],"type":"Point"},"properties":{"osm_id":"4323548915","tag":{"amenity":"waste_basket"}},"type":"Feature"},
	{"geometry":{"coordinates":[8.677832,50.538001],"type":"Point"},"properties":{"osm_id":"4323548930","tag":{"amenity":"waste_basket"}},"type":"Feature"},
	{"geometry":{"coordinates":[8.677691,50.521516],"type":"Point"},"properties":{"osm_id":"4323560155","tag":{"amenity":"waste_basket"}},"type":"Feature"},
	{"geometry":{"coordinates":[8.677983,50.522707],"type":"Point"},"properties":{"osm_id":"4323560156","tag":{"amenity":"waste_basket"}},"type":"Feature"},
	{"geometry":{"coordinates":[8.678102,50.523435],"type":"Point"},"properties":{"osm_id":"4323560157","tag":{"amenity":"waste_basket"}},"type":"Feature"},
	{"geometry":{"coordinates":[8.665523,50.524748],"type":"Point"},"properties":{"osm_id":"4323609058","tag":{"amenity":"waste_basket"}},"type":"Feature"},
	{"geometry":{"coordinates":[8.664517,50.52532],"type":"Point"},"properties":{"osm_id":"4323609066","tag":{"amenity":"waste_basket"}},"type":"Feature"},
	{"geometry":{"coordinates":[8.665501,50.525483],"type":"Point"},"properties":{"osm_id":"4323609073","tag":{"amenity":"waste_basket"}},"type":"Feature"},
	{"geometry":{"coordinates":[8.676308,50.529973],"type":"Point"},"properties":{"osm_id":"4323609818","tag":{"amenity":"waste_basket"}},"type":"Feature"},
	{"geometry":{"coordinates":[8.676463,50.530021],"type":"Point"},"properties":{"osm_id":"4323609820","tag":{"amenity":"waste_basket"}},"type":"Feature"},
	{"geometry":{"coordinates":[8.676671,50.530062],"type":"Point"},"properties":{"osm_id":"4323609821","tag":{"amenity":"waste_basket"}},"type":"Feature"},
	{"geometry":{"coordinates":[8.661901,50.528059],"type":"Point"},"properties":{"osm_id":"4323617513","tag":{"amenity":"waste_basket"}},"type":"Feature"},
	{"geometry":{"coordinates":[8.661926,50.528064],"type":"Point"},"properties":{"osm_id":"4323617514","tag":{"amenity":"waste_basket"}},"type":"Feature"},
	{"geometry":{"coordinates":[8.645654,50.532135],"type":"Point"},"properties":{"osm_id":"4329649588","tag":{"amenity":"waste_basket"}},"type":"Feature"},
	{"geometry":{"coordinates":[8.654009,50.541917],"type":"Point"},"properties":{"osm_id":"4329680751","tag":{"amenity":"waste_basket"}},"type":"Feature"},
	{"geometry":{"coordinates":[8.656151,50.565316],"type":"Point"},"properties":{"osm_id":"4350005998","tag":{"amenity":"waste_basket"}},"type":"Feature"},
	{"geometry":{"coordinates":[8.655708,50.565212],"type":"Point"},"properties":{"osm_id":"4350019392","tag":{"amenity":"waste_basket"}},"type":"Feature"},
	{"geometry":{"coordinates":[8.617427,50.55198],"type":"Point"},"properties":{"osm_id":"4371709261","tag":{"amenity":"waste_basket"}},"type":"Feature"},
	{"geometry":{"coordinates":[8.622429,50.534205],"type":"Point"},"properties":{"osm_id":"4374706961","tag":{"amenity":"waste_basket"}},"type":"Feature"},
	{"geometry":{"coordinates":[8.616896,50.537333],"type":"Point"},"properties":{"osm_id":"4374706970","tag":{"amenity":"waste_basket"}},"type":"Feature"},
	{"geometry":{"coordinates":[8.621743,50.537904],"type":"Point"},"properties":{"osm_id":"4374706974","tag":{"amenity":"waste_basket"}},"type":"Feature"},
	{"geometry":{"coordinates":[8.62679,50.554322],"type":"Point"},"properties":{"osm_id":"4401037519","tag":{"amenity":"waste_basket"}},"type":"Feature"},
	{"geometry":{"coordinates":[8.659887,50.566034],"type":"Point"},"properties":{"osm_id":"4693817338","tag":{"amenity":"waste_basket"}},"type":"Feature"},
	{"geometry":{"coordinates":[8.647118,50.562432],"type":"Point"},"properties":{"osm_id":"4729543955","tag":{"amenity":"waste_basket"}},"type":"Feature"},
	{"geometry":{"coordinates":[8.651346,50.524384],"type":"Point"},"properties":{"osm_id":"4744570536","tag":{"amenity":"waste_basket"}},"type":"Feature"},
	{"geometry":{"coordinates":[8.651441,50.524175],"type":"Point"},"properties":{"osm_id":"4744570541","tag":{"amenity":"waste_basket"}},"type":"Feature"},
	{"geometry":{"coordinates":[8.648151,50.554337],"type":"Point"},"properties":{"osm_id":"4769535754","tag":{"amenity":"waste_basket"}},"type":"Feature"},
	{"geometry":{"coordinates":[8.64831,50.554436],"type":"Point"},"properties":{"osm_id":"4769535757","tag":{"amenity":"waste_basket"}},"type":"Feature"},
	{"geometry":{"coordinates":[8.637358,50.555716],"type":"Point"},"properties":{"osm_id":"4769535765","tag":{"amenity":"waste_basket"}},"type":"Feature"},
	{"geometry":{"coordinates":[8.639284,50.554516],"type":"Point"},"properties":{"osm_id":"4769535776","tag":{"amenity":"waste_basket"}},"type":"Feature"},
	{"geometry":{"coordinates":[8.661146,50.568286],"type":"Point"},"properties":{"osm_id":"4839943947","tag":{"amenity":"waste_basket"}},"type":"Feature"},
	{"geometry":{"coordinates":[8.660625,50.568366],"type":"Point"},"properties":{"osm_id":"4839943948","tag":{"amenity":"waste_basket"}},"type":"Feature"},
	{"geometry":{"coordinates":[8.660841,50.568262],"type":"Point"},"properties":{"osm_id":"4839943949","tag":{"amenity":"waste_basket"}},"type":"Feature"},
	{"geometry":{"coordinates":[8.660696,50.568362],"type":"Point"},"properties":{"osm_id":"4839943950","tag":{"amenity":"waste_basket"}},"type":"Feature"},
	{"geometry":{"coordinates":[8.660769,50.568314],"type":"Point"},"properties":{"osm_id":"4839943951","tag":{"amenity":"waste_basket"}},"type":"Feature"},
	{"geometry":{"coordinates":[8.66119,50.528834],"type":"Point"},"properties":{"osm_id":"4897193948","tag":{"amenity":"waste_basket"}},"type":"Feature"},
	{"geometry":{"coordinates":[8.675124,50.569197],"type":"Point"},"properties":{"osm_id":"5002158131","tag":{"amenity":"waste_basket"}},"type":"Feature"},
	{"geometry":{"coordinates":[8.675628,50.569048],"type":"Point"},"properties":{"osm_id":"5002158138","tag":{"amenity":"waste_basket"}},"type":"Feature"},
	{"geometry":{"coordinates":[8.680908,50.524088],"type":"Point"},"properties":{"osm_id":"5075382581","tag":{"amenity":"waste_basket"}},"type":"Feature"},
	{"geometry":{"coordinates":[8.682308,50.522069],"type":"Point"},"properties":{"osm_id":"5075382584","tag":{"amenity":"waste_basket"}},"type":"Feature"},
	{"geometry":{"coordinates":[8.681273,50.526225],"type":"Point"},"properties":{"osm_id":"5075382590","tag":{"amenity":"waste_basket"}},"type":"Feature"},
	{"geometry":{"coordinates":[8.69076,50.517376],"type":"Point"},"properties":{"osm_id":"5145316650","tag":{"amenity":"waste_basket"}},"type":"Feature"},
	{"geometry":{"coordinates":[8.676573,50.566035],"type":"Point"},"properties":{"osm_id":"5223690548","tag":{"amenity":"waste_basket"}},"type":"Feature"},
	{"geometry":{"coordinates":[8.64786,50.53925],"type":"Point"},"properties":{"osm_id":"5288106076","tag":{"amenity":"waste_basket"}},"type":"Feature"},
	{"geometry":{"coordinates":[8.670316,50.538619],"type":"Point"},"properties":{"osm_id":"5627877216","tag":{"amenity":"recycling","recycling:glass_bottles":"yes","recycling_type":"container"}},"type":"Feature"},
	{"geometry":{"coordinates":[8.675213,50.568942],"type":"Point"},"properties":{"osm_id":"5684560847","tag":{"amenity":"waste_basket"}},"type":"Feature"},
	{"geometry":{"coordinates":[8.664846,50.520157],"type":"Point"},"properties":{"osm_id":"5761591928","tag":{"amenity":"waste_basket"}},"type":"Feature"},
	{"geometry":{"coordinates":[8.640424,50.537173],"type":"Point"},"properties":{"osm_id":"5763874427","tag":{"amenity":"waste_basket"}},"type":"Feature"},
	{"geometry":{"coordinates":[8.637844,50.553213],"type":"Point"},"properties":{"osm_id":"5801456092","tag":{"amenity":"waste_basket"}},"type":"Feature"},
	{"geometry":{"coordinates":[8.622684,50.550853],"type":"Point"},"properties":{"osm_id":"5801456102","tag":{"amenity":"waste_basket"}},"type":"Feature"},
	{"geometry":{"coordinates":[8.622133,50.549762],"type":"Point"},"properties":{"osm_id":"5801456105","tag":{"amenity":"waste_basket"}},"type":"Feature"},
	{"geometry":{"coordinates":[8.621284,50.548366],"type":"Point"},"properties":{"osm_id":"5801456106","tag":{"amenity":"waste_basket"}},"type":"Feature"},
	{"geometry":{"coordinates":[8.661035,50.543274],"type":"Point"},"properties":{"osm_id":"5808987982","tag":{"amenity":"waste_basket"}},"type":"Feature"},
	{"geometry":{"coordinates":[8.673331,50.569109],"type":"Point"},"properties":{"osm_id":"5930138035","tag":{"amenity":"waste_basket"}},"type":"Feature"},
	{"geometry":{"coordinates":[8.660303,50.568704],"type":"Point"},"properties":{"osm_id":"6150579405","tag":{"amenity":"waste_basket"}},"type":"Feature"},
	{"geometry":{"coordinates":[8.68938,50.53447],"type":"Point"},"properties":{"osm_id":"6169260485","tag":{"amenity":"waste_basket"}},"type":"Feature"},
	{"geometry":{"coordinates":[8.680915,50.537371],"type":"Point"},"properties":{"osm_id":"6308499001","tag":{"amenity":"waste_basket"}},"type":"Feature"},
	{"geometry":{"coordinates":[8.677287,50.52984],"type":"Point"},"properties":{"osm_id":"6390215421","tag":{"amenity":"waste_basket"}},"type":"Feature"},
	{"geometry":{"coordinates":[8.674686,50.529893],"type":"Point"},"properties":{"osm_id":"6390267402","tag":{"amenity":"waste_basket"}},"type":"Feature"},
	{"geometry":{"coordinates":[8.664699,50.523214],"type":"Point"},"properties":{"osm_id":"6390267410","tag":{"amenity":"waste_basket"}},"type":"Feature"},
	{"geometry":{"coordinates":[8.665087,50.523114],"type":"Point"},"properties":{"osm_id":"6390267411","tag":{"amenity":"waste_basket"}},"type":"Feature"},
	{"geometry":{"coordinates":[8.676003,50.527019],"type":"Point"},"properties":{"osm_id":"6390275049","tag":{"amenity":"waste_basket"}},"type":"Feature"},
	{"geometry":{"coordinates":[8.6466,50.541917],"type":"Point"},"properties":{"osm_id":"6391235845","tag":{"amenity":"waste_basket"}},"type":"Feature"},
	{"geometry":{"coordinates":[8.628224,50.541274],"type":"Point"},"properties":{"osm_id":"6391235865","tag":{"amenity":"recycling","recycling:batteries":"no","recycling:cans":"no","recycling:cardboard":"no","recycling:clothes":"yes","recycling:electrical_appliances":"no","recycling:glass":"no","recycling:glass_bottles":"yes","recycling:green_waste":"no","recycling:paper":"no","recycling:plastic":"no","recycling:plastic_bottles":"no","recycling:plastic_packaging":"no","recycling:scrap_metal":"no","recycling:shoes":"yes","recycling:small_appliances":"no","recycling:waste":"no","recycling_type":"container"}},"type":"Feature"},
	{"geometry":{"coordinates":[8.66091,50.524365],"type":"Point"},"properties":{"osm_id":"6391604226","tag":{"amenity":"waste_basket"}},"type":"Feature"},
	{"geometry":{"coordinates":[8.653366,50.526895],"type":"Point"},"properties":{"osm_id":"6391604256","tag":{"amenity":"waste_basket"}},"type":"Feature"},
	{"geometry":{"coordinates":[8.65331,50.526988],"type":"Point"},"properties":{"osm_id":"6391604257","tag":{"amenity":"waste_basket"}},"type":"Feature"},
	{"geometry":{"coordinates":[8.628032,50.521343],"type":"Point"},"properties":{"osm_id":"6444085897","tag":{"amenity":"waste_basket"}},"type":"Feature"},
	{"geometry":{"coordinates":[8.626733,50.516341],"type":"Point"},"properties":{"osm_id":"6444106020","tag":{"amenity":"waste_basket"}},"type":"Feature"},
	{"geometry":{"coordinates":[8.620106,50.551966],"type":"Point"},"properties":{"osm_id":"6814524608","tag":{"amenity":"waste_basket"}},"type":"Feature"},
	{"geometry":{"coordinates":[8.620215,50.552019],"type":"Point"},"properties":{"osm_id":"6814524609","tag":{"amenity":"waste_basket"}},"type":"Feature"},
	{"geometry":{"coordinates":[8.620452,50.551878],"type":"Point"},"properties":{"osm_id":"6814524610","tag":{"amenity":"waste_basket"}},"type":"Feature"},
	{"geometry":{"coordinates":[8.620287,50.552069],"type":"Point"},"properties":{"osm_id":"6814524611","tag":{"amenity":"waste_basket"}},"type":"Feature"},
	{"geometry":{"coordinates":[8.644029,50.544014],"type":"Point"},"properties":{"osm_id":"6948761708","tag":{"amenity":"waste_basket"}},"type":"Feature"},
	{"geometry":{"coordinates":[8.644864,50.544066],"type":"Point"},"properties":{"osm_id":"6948761712","tag":{"amenity":"waste_basket"}},"type":"Feature"},
	{"geometry":{"coordinates":[8.645792,50.544114],"type":"Point"},"properties":{"osm_id":"6948761713","tag":{"amenity":"waste_basket"}},"type":"Feature"},
	{"geometry":{"coordinates":[8.646621,50.543627],"type":"Point"},"properties":{"osm_id":"6948761718","tag":{"amenity":"waste_basket"}},"type":"Feature"},
	{"geometry":{"coordinates":[8.646702,50.543115],"type":"Point"},"properties":{"osm_id":"6948761719","tag":{"amenity":"waste_basket"}},"type":"Feature"},
	{"geometry":{"coordinates":[8.664401,50.534549],"type":"Point"},"properties":{"osm_id":"7118347587","tag":{"amenity":"waste_basket"}},"type":"Feature"},
	{"geometry":{"coordinates":[8.625962,50.518295],"type":"Point"},"properties":{"osm_id":"7840678034","tag":{"amenity":"recycling","operator:wikidata":"Q694104","recycling:clothes":"yes","recycling_type":"container"}},"type":"Feature"}
]
}
