{
"type": "FeatureCollection",
"features": [
	{"geometry":{"coordinates":[8.684741,50.417766],"type":"Point"},"properties":{"osm_id":"431360609","tag":{"amenity":"recycling","recycling:glass":"yes","recycling:paper":"yes"}},"type":"Feature"},
	{"geometry":{"coordinates":[8.686826,50.414298],"type":"Point"},"properties":{"osm_id":"431360824","tag":{"amenity":"recycling","recycling:clothes":"yes","recycling:glass":"yes","recycling:paper":"yes"}},"type":"Feature"},
	{"geometry":{"coordinates":[8.652802,50.44554],"type":"Point"},"properties":{"osm_id":"533745410","tag":{"amenity":"recycling","operator":"Weisgerber","recycling:glass":"yes","recycling_type":"container"}},"type":"Feature"},
	{"geometry":{"coordinates":[8.659232,50.434908],"type":"Point"},"properties":{"osm_id":"1882569907","tag":{"amenity":"recycling","recycling:clothes":"yes","recycling:glass":"yes","recycling_type":"container"}},"type":"Feature"},
	{"geometry":{"coordinates":[8.661714,50.429675],"type":"Point"},"properties":{"osm_id":"1888729506","tag":{"amenity":"recycling","recycling:glass":"yes","recycling_type":"container"}},"type":"Feature"},
	{"geometry":{"coordinates":[8.665628,50.429233],"type":"Point"},"properties":{"osm_id":"1904348059","tag":{"amenity":"recycling","check_date":"2021-06-10","recycling:clothes":"yes","recycling:glass":"yes","recycling_type":"container"}},"type":"Feature"},
	{"geometry":{"coordinates":[8.670544,50.42884],"type":"Point"},"properties":{"osm_id":"1939985718","tag":{"amenity":"recycling","recycling:glass":"yes","recycling_type":"container"}},"type":"Feature"},
	{"geometry":{"coordinates":[8.670495,50.436982],"type":"Point"},"properties":{"osm_id":"1942833931","tag":{"amenity":"recycling","recycling:glass":"yes","recycling_type":"container"}},"type":"Feature"},
	{"geometry":{"coordinates":[8.667071,50.440605],"type":"Point"},"properties":{"osm_id":"1942833960","tag":{"amenity":"recycling","check_date":"2021-06-10","recycling:glass":"no","recycling:glass_bottles":"yes","recycling_type":"container"}},"type":"Feature"},
	{"geometry":{"coordinates":[8.675322,50.406195],"type":"Point"},"properties":{"osm_id":"2009232143","tag":{"amenity":"waste_basket","check_date":"2021-06-11"}},"type":"Feature"},
	{"geometry":{"coordinates":[8.675369,50.406446],"type":"Point"},"properties":{"osm_id":"2009232147","tag":{"amenity":"waste_basket","check_date":"2021-06-11"}},"type":"Feature"},
	{"geometry":{"coordinates":[8.683738,50.432768],"type":"Point"},"properties":{"osm_id":"3751003867","tag":{"amenity":"recycling","recycling:cans":"no","recycling:clothes":"no","recycling:glass":"yes","recycling:glass_bottles":"yes","recycling:paper":"no","recycling:plastic":"no","recycling_type":"centre"}},"type":"Feature"},
	{"geometry":{"coordinates":[8.656348,50.435531],"type":"Point"},"properties":{"osm_id":"4293531662","tag":{"amenity":"waste_basket"}},"type":"Feature"},
	{"geometry":{"coordinates":[8.669205,50.42565],"type":"Point"},"properties":{"barrier":"gate","osm_id":"5301432345"},"type":"Feature"},
	{"geometry":{"coordinates":[8.625164,50.421557],"type":"Point"},"properties":{"osm_id":"6757977835","tag":{"amenity":"recycling","recycling:clothes":"yes","recycling_type":"container"}},"type":"Feature"},
	{"geometry":{"coordinates":[8.625142,50.42159],"type":"Point"},"properties":{"osm_id":"6757977836","tag":{"amenity":"recycling","recycling:glass_bottles":"yes","recycling_type":"container"}},"type":"Feature"},
	{"geometry":{"coordinates":[8.677554,50.433482],"type":"Point"},"properties":{"osm_id":"6790023133","tag":{"amenity":"waste_basket"}},"type":"Feature"},
	{"geometry":{"coordinates":[8.674046,50.432873],"type":"Point"},"properties":{"osm_id":"6790024224","tag":{"amenity":"waste_basket"}},"type":"Feature"},
	{"geometry":{"coordinates":[8.675675,50.433522],"type":"Point"},"properties":{"osm_id":"6790025846","tag":{"amenity":"waste_basket"}},"type":"Feature"},
	{"geometry":{"coordinates":[8.67504,50.432922],"type":"Point"},"properties":{"osm_id":"6790035789","tag":{"amenity":"waste_basket"}},"type":"Feature"},
	{"geometry":{"coordinates":[8.674855,50.432709],"type":"Point"},"properties":{"osm_id":"6805245083","tag":{"amenity":"waste_basket"}},"type":"Feature"},
	{"geometry":{"coordinates":[8.674862,50.432707],"type":"Point"},"properties":{"osm_id":"6805667855","tag":{"amenity":"waste_basket"}},"type":"Feature"},
	{"geometry":{"coordinates":[8.629261,50.403044],"type":"Point"},"properties":{"osm_id":"8071726410","tag":{"amenity":"recycling","recycling:glass":"yes","recycling_type":"centre"}},"type":"Feature"},
	{"geometry":{"coordinates":[8.66276,50.440922],"type":"Point"},"properties":{"osm_id":"8925819890","tag":{"amenity":"recycling","opening_hours":"Mo-Sa 07:00-20:00","recycling:glass_bottles":"yes","recycling_type":"container"}},"type":"Feature"},
	{"geometry":{"coordinates":[8.654731,50.430583],"type":"Point"},"properties":{"osm_id":"8980213018","tag":{"amenity":"waste_basket","waste":"trash"}},"type":"Feature"},
	{"geometry":{"coordinates":[8.668074,50.433017],"type":"Point"},"properties":{"osm_id":"9026185218","tag":{"amenity":"recycling","opening_hours":"Mo-Sa 07:00-20:00","operator":"Weisgerber","recycling:clothes":"yes","recycling:glass_bottles":"yes","recycling_type":"container"}},"type":"Feature"},
	{"geometry":{"coordinates":[8.668878,50.431095],"type":"Point"},"properties":{"osm_id":"9026524917","tag":{"amenity":"recycling","opening_hours":"Mo-Sa 07:00-21:00","operator":"Baliz Textilwerke","recycling:clothes":"yes","recycling_type":"container"}},"type":"Feature"},
	{"geometry":{"coordinates":[8.684501,50.436398],"type":"Point"},"properties":{"osm_id":"9052741217","tag":{"amenity":"recycling","opening_hours":"Mo-Sa 07:00-20:00","operator":"Baliz Textilwerke","recycling:clothes":"yes","recycling:shoes":"yes","recycling_type":"container"}},"type":"Feature"},
	{"geometry":{"coordinates":[8.677967,50.436302],"type":"Point"},"properties":{"osm_id":"9124757817","tag":{"amenity":"recycling","operator":"Malteser","recycling:clothes":"yes","recycling:shoes":"yes","recycling_type":"container"}},"type":"Feature"},
	{"geometry":{"coordinates":[8.652759,50.445495],"type":"Point"},"properties":{"osm_id":"9180362317","tag":{"amenity":"recycling","operator":"Malteser","recycling:clothes":"yes","recycling_type":"container"}},"type":"Feature"},
	{"geometry":{"coordinates":[8.652674,50.445499],"type":"Point"},"properties":{"osm_id":"9180362417","tag":{"amenity":"recycling","operator":"Bethel","recycling:clothes":"yes","recycling_type":"container"}},"type":"Feature"}
]
}
