{
"type": "FeatureCollection",
"features": [
	{"geometry":{"coordinates":[8.681412,50.168777],"type":"Point"},"properties":{"osm_id":"34148216","tag":{"amenity":"recycling","recycling_type":"container"}},"type":"Feature"},
	{"geometry":{"coordinates":[8.679619,50.166466],"type":"Point"},"properties":{"osm_id":"34148218","tag":{"amenity":"recycling","recycling_type":"container"}},"type":"Feature"},
	{"geometry":{"coordinates":[8.648092,50.128087],"type":"Point"},"properties":{"osm_id":"268258141","tag":{"amenity":"recycling","location":"overground","recycling:clothes":"yes","recycling:glass_bottles":"yes","recycling:shoes":"yes","recycling_type":"container"}},"type":"Feature"},
	{"geometry":{"coordinates":[8.642721,50.127394],"type":"Point"},"properties":{"osm_id":"268259327","tag":{"amenity":"recycling","recycling:glass_bottles":"yes","recycling_type":"container"}},"type":"Feature"},
	{"geometry":{"coordinates":[8.663676,50.137721],"type":"Point"},"properties":{"osm_id":"269452447","tag":{"amenity":"recycling","mapillary":"RgFvd9LwMgamZ4x_5eYJ9A","recycling_type":"container","survey:date":"2019-02-28"}},"type":"Feature"},
	{"geometry":{"coordinates":[8.664946,50.140138],"type":"Point"},"properties":{"osm_id":"269452449","tag":{"amenity":"recycling","location":"overground","recycling_type":"container"}},"type":"Feature"},
	{"geometry":{"coordinates":[8.659221,50.139166],"type":"Point"},"properties":{"osm_id":"269452592","tag":{"amenity":"recycling"}},"type":"Feature"},
	{"geometry":{"coordinates":[8.684438,50.137268],"type":"Point"},"properties":{"osm_id":"291358566","tag":{"amenity":"recycling","location":"overground","recycling:glass_bottles":"yes","recycling_type":"container"}},"type":"Feature"},
	{"geometry":{"coordinates":[8.697063,50.123949],"type":"Point"},"properties":{"osm_id":"301355766","tag":{"amenity":"recycling","location":"underground","recycling:glass_bottles":"yes","recycling_type":"container"}},"type":"Feature"},
	{"geometry":{"coordinates":[8.680661,50.149474],"type":"Point"},"properties":{"osm_id":"301893903","tag":{"amenity":"recycling","location":"overground","recycling:glass":"yes","recycling_type":"container"}},"type":"Feature"},
	{"geometry":{"coordinates":[8.697964,50.126618],"type":"Point"},"properties":{"osm_id":"302779210","tag":{"amenity":"recycling","location":"overground","recycling:glass_bottles":"yes","recycling_type":"container"}},"type":"Feature"},
	{"geometry":{"coordinates":[8.697258,50.126371],"type":"Point"},"properties":{"osm_id":"302779596","tag":{"amenity":"recycling","location":"overground","recycling:glass_bottles":"yes","recycling_type":"container"}},"type":"Feature"},
	{"geometry":{"coordinates":[8.69884,50.121703],"type":"Point"},"properties":{"osm_id":"303785787","tag":{"amenity":"recycling","recycling:clothes":"yes","recycling:glass_bottles":"yes","recycling_type":"container"}},"type":"Feature"},
	{"geometry":{"coordinates":[8.69526,50.132135],"type":"Point"},"properties":{"osm_id":"314204249","tag":{"amenity":"recycling","recycling:glass_bottles":"yes","recycling_type":"container"}},"type":"Feature"},
	{"geometry":{"coordinates":[8.671806,50.150508],"type":"Point"},"properties":{"osm_id":"317005261","tag":{"amenity":"recycling","location":"overground","recycling:glass":"yes","recycling_type":"container"}},"type":"Feature"},
	{"geometry":{"coordinates":[8.669884,50.150566],"type":"Point"},"properties":{"osm_id":"317005262","tag":{"amenity":"recycling","location":"overground","recycling:clothes":"yes","recycling_type":"container"}},"type":"Feature"},
	{"geometry":{"coordinates":[8.669931,50.150708],"type":"Point"},"properties":{"osm_id":"317292955","tag":{"amenity":"recycling","mapillary":"UTjXaeXjG1qFz9EroIlNBQ","recycling:glass":"yes","recycling_type":"container","survey:date":"2019-02-24"}},"type":"Feature"},
	{"geometry":{"coordinates":[8.671055,50.152743],"type":"Point"},"properties":{"osm_id":"317416419","tag":{"amenity":"recycling","location":"overground","recycling:clothes":"yes","recycling:glass":"yes","recycling_type":"container"}},"type":"Feature"},
	{"geometry":{"coordinates":[8.670943,50.148829],"type":"Point"},"properties":{"osm_id":"317599255","tag":{"amenity":"recycling","mapillary":"3DoIuyzTnolHA1cTWtaTpA","recycling:glass":"yes","recycling_type":"container","survey:date":"2019-02-15"}},"type":"Feature"},
	{"geometry":{"coordinates":[8.668317,50.153349],"type":"Point"},"properties":{"osm_id":"317948040","tag":{"amenity":"recycling","location":"overground","recycling:glass":"yes","recycling_type":"container"}},"type":"Feature"},
	{"geometry":{"coordinates":[8.673016,50.149781],"type":"Point"},"properties":{"osm_id":"318420548","tag":{"amenity":"recycling","mapillary":"68zdI2O_StYCV30clQlohA","recycling:clothes":"yes","recycling_type":"container","survey:date":"2019-02-24"}},"type":"Feature"},
	{"geometry":{"coordinates":[8.673046,50.149704],"type":"Point"},"properties":{"osm_id":"318420549","tag":{"amenity":"recycling","mapillary":"68zdI2O_StYCV30clQlohA","recycling:clothes":"no","recycling:glass":"yes","recycling_type":"container","survey:date":"2019-02-24"}},"type":"Feature"},
	{"geometry":{"coordinates":[8.667011,50.155732],"type":"Point"},"properties":{"osm_id":"319781078","tag":{"amenity":"recycling","location":"overground","recycling:clothes":"yes","recycling:glass":"no","recycling:glass_bottles":"yes","recycling_type":"container"}},"type":"Feature"},
	{"geometry":{"coordinates":[8.67921,50.149523],"type":"Point"},"properties":{"osm_id":"320262374","tag":{"amenity":"recycling","location":"overground","recycling:clothes":"yes","recycling_type":"container"}},"type":"Feature"},
	{"geometry":{"coordinates":[8.680447,50.153504],"type":"Point"},"properties":{"osm_id":"321359045","tag":{"amenity":"recycling","location":"overground","recycling:clothes":"yes","recycling:glass":"yes","recycling_type":"container"}},"type":"Feature"},
	{"geometry":{"coordinates":[8.67844,50.151992],"type":"Point"},"properties":{"osm_id":"321366718","tag":{"amenity":"recycling","recycling:clothes":"yes","recycling_type":"container"}},"type":"Feature"},
	{"geometry":{"coordinates":[8.668338,50.144839],"type":"Point"},"properties":{"osm_id":"321856893","tag":{"amenity":"recycling","location":"overground","recycling:glass_bottles":"yes","recycling_type":"container"}},"type":"Feature"},
	{"geometry":{"coordinates":[8.670314,50.140015],"type":"Point"},"properties":{"osm_id":"321871034","tag":{"amenity":"recycling","location":"overground","recycling:cans":"no","recycling:clothes":"yes","recycling:glass_bottles":"yes","recycling_type":"container"}},"type":"Feature"},
	{"geometry":{"coordinates":[8.679509,50.14355],"type":"Point"},"properties":{"osm_id":"322758262","tag":{"amenity":"recycling","location":"overground","recycling:clothes":"yes","recycling:glass_bottles":"yes","recycling_type":"container"}},"type":"Feature"},
	{"geometry":{"coordinates":[8.682535,50.1418],"type":"Point"},"properties":{"osm_id":"322806282","tag":{"amenity":"recycling","location":"overground","recycling:clothes":"yes","recycling:glass_bottles":"yes","recycling_type":"container"}},"type":"Feature"},
	{"geometry":{"coordinates":[8.677494,50.140503],"type":"Point"},"properties":{"osm_id":"322816241","tag":{"amenity":"recycling","location":"overground","recycling:glass_bottles":"yes","recycling_type":"container"}},"type":"Feature"},
	{"geometry":{"coordinates":[8.673695,50.140716],"type":"Point"},"properties":{"osm_id":"322828624","tag":{"amenity":"recycling","location":"overground","recycling:clothes":"yes","recycling:glass_bottles":"yes","recycling_type":"container"}},"type":"Feature"},
	{"geometry":{"coordinates":[8.664476,50.1617],"type":"Point"},"properties":{"osm_id":"337308715","tag":{"amenity":"recycling","recycling:glass_bottles":"yes","recycling_type":"container"}},"type":"Feature"},
	{"geometry":{"coordinates":[8.663589,50.161326],"type":"Point"},"properties":{"osm_id":"337469666","tag":{"amenity":"recycling","recycling:shoes":"yes","recycling_type":"container"}},"type":"Feature"},
	{"geometry":{"coordinates":[8.668455,50.142442],"type":"Point"},"properties":{"osm_id":"418170888","tag":{"amenity":"recycling","location":"overground","recycling:glass_bottles":"yes","recycling_type":"container"}},"type":"Feature"},
	{"geometry":{"coordinates":[8.671093,50.131715],"type":"Point"},"properties":{"osm_id":"430928261","tag":{"amenity":"recycling","location":"overground","recycling:glass_bottles":"yes","recycling_type":"container"}},"type":"Feature"},
	{"geometry":{"coordinates":[8.683883,50.124466],"type":"Point"},"properties":{"osm_id":"435771866","tag":{"amenity":"recycling","location":"overground","recycling:glass_bottles":"yes","recycling_type":"container"}},"type":"Feature"},
	{"geometry":{"coordinates":[8.681662,50.125269],"type":"Point"},"properties":{"osm_id":"435772118","tag":{"amenity":"recycling","location":"overground","recycling:glass_bottles":"yes","recycling_type":"container"}},"type":"Feature"},
	{"geometry":{"coordinates":[8.684586,50.128108],"type":"Point"},"properties":{"osm_id":"435772248","tag":{"amenity":"recycling","location":"underground","recycling:glass_bottles":"yes","recycling_type":"container"}},"type":"Feature"},
	{"geometry":{"coordinates":[8.68619,50.125403],"type":"Point"},"properties":{"osm_id":"437345204","tag":{"amenity":"recycling","location":"overground","recycling:glass_bottles":"yes","recycling_type":"container"}},"type":"Feature"},
	{"geometry":{"coordinates":[8.691965,50.154648],"type":"Point"},"properties":{"osm_id":"437971563","tag":{"amenity":"recycling","location":"overground","recycling:glass_bottles":"yes","recycling_type":"container"}},"type":"Feature"},
	{"geometry":{"coordinates":[8.637374,50.124962],"type":"Point"},"properties":{"osm_id":"438122477","tag":{"amenity":"recycling","operator":"FES","recycling:clothes":"yes","recycling:glass_bottles":"yes","recycling_type":"container"}},"type":"Feature"},
	{"geometry":{"coordinates":[8.666816,50.147791],"type":"Point"},"properties":{"osm_id":"567126223","tag":{"amenity":"recycling","location":"overground","recycling:glass_bottles":"yes","recycling_type":"container"}},"type":"Feature"},
	{"geometry":{"coordinates":[8.650484,50.167572],"type":"Point"},"properties":{"osm_id":"659553691","tag":{"amenity":"waste_basket"}},"type":"Feature"},
	{"geometry":{"coordinates":[8.650833,50.165155],"type":"Point"},"properties":{"osm_id":"659553928","tag":{"amenity":"waste_basket"}},"type":"Feature"},
	{"geometry":{"coordinates":[8.653054,50.161133],"type":"Point"},"properties":{"osm_id":"659554244","tag":{"amenity":"waste_basket"}},"type":"Feature"},
	{"geometry":{"coordinates":[8.626839,50.148319],"type":"Point"},"properties":{"osm_id":"659566454","tag":{"amenity":"waste_basket"}},"type":"Feature"},
	{"geometry":{"coordinates":[8.627907,50.149288],"type":"Point"},"properties":{"osm_id":"659566459","tag":{"amenity":"waste_basket"}},"type":"Feature"},
	{"geometry":{"coordinates":[8.643581,50.152603],"type":"Point"},"properties":{"osm_id":"659566469","tag":{"amenity":"waste_basket"}},"type":"Feature"},
	{"geometry":{"coordinates":[8.64507,50.153765],"type":"Point"},"properties":{"osm_id":"659566472","tag":{"amenity":"waste_basket"}},"type":"Feature"},
	{"geometry":{"coordinates":[8.65099,50.157398],"type":"Point"},"properties":{"osm_id":"659566478","tag":{"amenity":"waste_basket"}},"type":"Feature"},
	{"geometry":{"coordinates":[8.675863,50.122309],"type":"Point"},"properties":{"osm_id":"676929290","tag":{"amenity":"recycling","location":"overground","recycling:glass_bottles":"yes","recycling_type":"container"}},"type":"Feature"},
	{"geometry":{"coordinates":[8.628283,50.1628],"type":"Point"},"properties":{"osm_id":"708249734","tag":{"amenity":"recycling","recycling:glass_bottles":"yes","recycling_type":"container"}},"type":"Feature"},
	{"geometry":{"coordinates":[8.627358,50.172971],"type":"Point"},"properties":{"osm_id":"769421260","tag":{"access":"private","amenity":"recycling","recycling:cans":"yes","recycling:green_waste":"yes","recycling:paper":"yes","recycling:plastic":"yes","recycling_type":"container"}},"type":"Feature"},
	{"geometry":{"coordinates":[8.649937,50.160819],"type":"Point"},"properties":{"osm_id":"769800973","tag":{"amenity":"recycling","operator":"FES","recycling:glass_bottles":"yes","recycling_type":"container"}},"type":"Feature"},
	{"geometry":{"coordinates":[8.669069,50.142679],"type":"Point"},"properties":{"osm_id":"770735175","tag":{"amenity":"recycling","location":"overground","operator":"FES","recycling:glass_bottles":"yes","recycling_type":"container"}},"type":"Feature"},
	{"geometry":{"coordinates":[8.640766,50.158924],"type":"Point"},"properties":{"osm_id":"775342734","tag":{"amenity":"recycling","recycling:glass_bottles":"yes","recycling_type":"container"}},"type":"Feature"},
	{"geometry":{"coordinates":[8.636576,50.157849],"type":"Point"},"properties":{"osm_id":"775342735","tag":{"amenity":"recycling","recycling:glass_bottles":"yes","recycling_type":"container"}},"type":"Feature"},
	{"geometry":{"coordinates":[8.640788,50.15893],"type":"Point"},"properties":{"osm_id":"775342739","tag":{"amenity":"recycling","recycling:glass_bottles":"yes","recycling_type":"container"}},"type":"Feature"},
	{"geometry":{"coordinates":[8.660891,50.152877],"type":"Point"},"properties":{"osm_id":"796495195","tag":{"amenity":"recycling","location":"overground","operator":"FES","recycling:glass_bottles":"yes","recycling_type":"container"}},"type":"Feature"},
	{"geometry":{"coordinates":[8.667875,50.144768],"type":"Point"},"properties":{"osm_id":"796495196","tag":{"amenity":"recycling","location":"overground","operator":"FES","recycling:glass_bottles":"yes","recycling_type":"container"}},"type":"Feature"},
	{"geometry":{"coordinates":[8.66846,50.142422],"type":"Point"},"properties":{"osm_id":"796495200","tag":{"amenity":"recycling","location":"overground","operator":"FES","recycling:glass_bottles":"yes","recycling_type":"container"}},"type":"Feature"},
	{"geometry":{"coordinates":[8.665021,50.149495],"type":"Point"},"properties":{"osm_id":"797833486","tag":{"amenity":"recycling","location":"overground","operator":"FES","recycling:glass_bottles":"yes","recycling_type":"container"}},"type":"Feature"},
	{"geometry":{"coordinates":[8.660711,50.15351],"type":"Point"},"properties":{"osm_id":"797833488","tag":{"amenity":"recycling","operator":"FES","recycling:glass":"yes"}},"type":"Feature"},
	{"geometry":{"coordinates":[8.701105,50.121685],"type":"Point"},"properties":{"osm_id":"845207370","tag":{"amenity":"recycling","recycling:glass_bottles":"yes"}},"type":"Feature"},
	{"geometry":{"coordinates":[8.675001,50.147902],"type":"Point"},"properties":{"osm_id":"863713985","tag":{"amenity":"recycling","location":"overground","recycling:glass":"yes","recycling_type":"container"}},"type":"Feature"},
	{"geometry":{"coordinates":[8.689067,50.159548],"type":"Point"},"properties":{"osm_id":"894858366","tag":{"amenity":"recycling","location":"overground","recycling:glass_bottles":"yes","recycling_type":"container"}},"type":"Feature"},
	{"geometry":{"coordinates":[8.679298,50.167324],"type":"Point"},"properties":{"osm_id":"914207990","tag":{"amenity":"recycling","recycling_type":"container"}},"type":"Feature"},
	{"geometry":{"coordinates":[8.629837,50.149306],"type":"Point"},"properties":{"osm_id":"916542578","tag":{"amenity":"waste_basket"}},"type":"Feature"},
	{"geometry":{"coordinates":[8.629541,50.149297],"type":"Point"},"properties":{"osm_id":"916542596","tag":{"amenity":"waste_basket"}},"type":"Feature"},
	{"geometry":{"coordinates":[8.624282,50.148896],"type":"Point"},"properties":{"osm_id":"916547047","tag":{"amenity":"waste_basket"}},"type":"Feature"},
	{"geometry":{"coordinates":[8.621346,50.145],"type":"Point"},"properties":{"osm_id":"916547050","tag":{"amenity":"waste_basket"}},"type":"Feature"},
	{"geometry":{"coordinates":[8.61824,50.136617],"type":"Point"},"properties":{"osm_id":"916558662","tag":{"amenity":"waste_basket"}},"type":"Feature"},
	{"geometry":{"coordinates":[8.651826,50.156125],"type":"Point"},"properties":{"osm_id":"916558663","tag":{"amenity":"waste_basket"}},"type":"Feature"},
	{"geometry":{"coordinates":[8.649138,50.153638],"type":"Point"},"properties":{"osm_id":"916558664","tag":{"amenity":"waste_basket"}},"type":"Feature"},
	{"geometry":{"coordinates":[8.617304,50.140526],"type":"Point"},"properties":{"osm_id":"916558686","tag":{"amenity":"waste_basket"}},"type":"Feature"},
	{"geometry":{"coordinates":[8.651284,50.155638],"type":"Point"},"properties":{"osm_id":"916558690","tag":{"amenity":"waste_basket"}},"type":"Feature"},
	{"geometry":{"coordinates":[8.617576,50.139475],"type":"Point"},"properties":{"osm_id":"916558714","tag":{"amenity":"waste_basket"}},"type":"Feature"},
	{"geometry":{"coordinates":[8.632873,50.166873],"type":"Point"},"properties":{"osm_id":"916563821","tag":{"amenity":"waste_basket"}},"type":"Feature"},
	{"geometry":{"coordinates":[8.645323,50.130689],"type":"Point"},"properties":{"osm_id":"938097427","tag":{"amenity":"recycling","location":"overground","recycling:glass_bottles":"yes","recycling_type":"container"}},"type":"Feature"},
	{"geometry":{"coordinates":[8.624612,50.139057],"type":"Point"},"properties":{"osm_id":"938097435","tag":{"amenity":"recycling","location":"overground","recycling:clothes":"yes","recycling:glass_bottles":"yes","recycling_type":"container"}},"type":"Feature"},
	{"geometry":{"coordinates":[8.624333,50.137194],"type":"Point"},"properties":{"osm_id":"938889078","tag":{"amenity":"recycling","location":"overground","recycling:glass_bottles":"yes","recycling_type":"container"}},"type":"Feature"},
	{"geometry":{"coordinates":[8.627343,50.134401],"type":"Point"},"properties":{"osm_id":"938889079","tag":{"amenity":"recycling","location":"overground","recycling:clothes":"yes","recycling:glass":"yes","recycling_type":"container"}},"type":"Feature"},
	{"geometry":{"coordinates":[8.623043,50.12431],"type":"Point"},"properties":{"osm_id":"983580289","tag":{"amenity":"recycling","location":"overground","recycling:glass_bottles":"yes","recycling_type":"container"}},"type":"Feature"},
	{"geometry":{"coordinates":[8.668955,50.121928],"type":"Point"},"properties":{"osm_id":"1115529024","tag":{"amenity":"recycling","location":"overground","recycling:glass_bottles":"yes","recycling_type":"container"}},"type":"Feature"},
	{"geometry":{"coordinates":[8.66703,50.122486],"type":"Point"},"properties":{"osm_id":"1115529041","tag":{"amenity":"recycling","location":"overground","recycling:glass_bottles":"yes","recycling_type":"container"}},"type":"Feature"},
	{"geometry":{"coordinates":[8.649426,50.142552],"type":"Point"},"properties":{"osm_id":"1126931907","tag":{"amenity":"recycling","recycling:glass":"yes"}},"type":"Feature"},
	{"geometry":{"coordinates":[8.675559,50.131883],"type":"Point"},"properties":{"osm_id":"1127935696","tag":{"amenity":"recycling","location":"overground","recycling:glass_bottles":"yes","recycling_type":"container"}},"type":"Feature"},
	{"geometry":{"coordinates":[8.688645,50.121111],"type":"Point"},"properties":{"osm_id":"1225182909","tag":{"amenity":"recycling","location":"overground","recycling:glass_bottles":"yes","recycling_type":"container"}},"type":"Feature"},
	{"geometry":{"coordinates":[8.635556,50.167937],"type":"Point"},"properties":{"osm_id":"1293063907","tag":{"amenity":"recycling","recycling:glass_bottles":"yes","recycling_type":"container"}},"type":"Feature"},
	{"geometry":{"coordinates":[8.698984,50.12493],"type":"Point"},"properties":{"osm_id":"1303580913","tag":{"amenity":"recycling","location":"overground","recycling:glass_bottles":"yes","recycling_type":"container"}},"type":"Feature"},
	{"geometry":{"coordinates":[8.657242,50.152422],"type":"Point"},"properties":{"osm_id":"1400013002","tag":{"amenity":"recycling","recycling:glass_bottles":"yes","recycling_type":"container"}},"type":"Feature"},
	{"geometry":{"coordinates":[8.685321,50.168511],"type":"Point"},"properties":{"osm_id":"1508790151","tag":{"amenity":"recycling","recycling:clothes":"yes","recycling_type":"container"}},"type":"Feature"},
	{"geometry":{"coordinates":[8.625581,50.131106],"type":"Point"},"properties":{"osm_id":"1601725695","tag":{"amenity":"recycling","location":"overground","recycling:glass_bottles":"yes","recycling_type":"container"}},"type":"Feature"},
	{"geometry":{"coordinates":[8.665044,50.123493],"type":"Point"},"properties":{"osm_id":"1659510091","tag":{"amenity":"recycling","recycling:glass_bottles":"yes","recycling_type":"container"}},"type":"Feature"},
	{"geometry":{"coordinates":[8.690902,50.152482],"type":"Point"},"properties":{"osm_id":"1707453719","tag":{"amenity":"recycling","location":"overground","operator":"Deutsches Rotes Kreuz","recycling:clothes":"yes","recycling_type":"container"}},"type":"Feature"},
	{"geometry":{"coordinates":[8.687889,50.148347],"type":"Point"},"properties":{"osm_id":"1740650807","tag":{"amenity":"recycling","location":"overground","recycling:glass_bottles":"yes","recycling_type":"container"}},"type":"Feature"},
	{"geometry":{"coordinates":[8.68066,50.149436],"type":"Point"},"properties":{"osm_id":"1796228588","tag":{"amenity":"waste_basket"}},"type":"Feature"},
	{"geometry":{"coordinates":[8.684224,50.147854],"type":"Point"},"properties":{"osm_id":"1839484335","tag":{"amenity":"recycling","location":"overground","recycling:clothes":"yes","recycling:glass_bottles":"yes","recycling_type":"container"}},"type":"Feature"},
	{"geometry":{"coordinates":[8.649162,50.120689],"type":"Point"},"properties":{"osm_id":"1928093516","tag":{"amenity":"recycling","location":"overground","recycling:glass_bottles":"yes","recycling_type":"container"}},"type":"Feature"},
	{"geometry":{"coordinates":[8.633018,50.156829],"type":"Point"},"properties":{"osm_id":"2076204353","tag":{"amenity":"waste_basket"}},"type":"Feature"},
	{"geometry":{"coordinates":[8.649153,50.154932],"type":"Point"},"properties":{"osm_id":"2139138031","tag":{"amenity":"waste_basket"}},"type":"Feature"},
	{"geometry":{"coordinates":[8.649663,50.155257],"type":"Point"},"properties":{"osm_id":"2139138032","tag":{"amenity":"waste_basket"}},"type":"Feature"},
	{"geometry":{"coordinates":[8.645554,50.136993],"type":"Point"},"properties":{"osm_id":"2147750594","tag":{"amenity":"recycling","location":"overground","recycling:clothes":"yes","recycling_type":"container"}},"type":"Feature"},
	{"geometry":{"coordinates":[8.696038,50.13623],"type":"Point"},"properties":{"osm_id":"2255634767","tag":{"amenity":"recycling","location":"overground","recycling:glass_bottles":"yes","recycling_type":"container"}},"type":"Feature"},
	{"geometry":{"coordinates":[8.629653,50.172898],"type":"Point"},"properties":{"osm_id":"2262110387","tag":{"amenity":"waste_basket"}},"type":"Feature"},
	{"geometry":{"coordinates":[8.629453,50.173102],"type":"Point"},"properties":{"osm_id":"2262110488","tag":{"amenity":"waste_basket"}},"type":"Feature"},
	{"geometry":{"coordinates":[8.623835,50.126567],"type":"Point"},"properties":{"osm_id":"2502075389","tag":{"amenity":"recycling","location":"overground","recycling:glass_bottles":"yes","recycling_type":"container"}},"type":"Feature"},
	{"geometry":{"coordinates":[8.614978,50.121866],"type":"Point"},"properties":{"osm_id":"2526607232","tag":{"amenity":"recycling","recycling:glass_bottles":"yes","recycling_type":"container"}},"type":"Feature"},
	{"geometry":{"coordinates":[8.621901,50.125144],"type":"Point"},"properties":{"osm_id":"2557706935","tag":{"amenity":"recycling","location":"overground","opening_hours":"Mo-Sa 07:00-19:00; PH closed","recycling:glass_bottles":"yes","recycling_type":"container","wheelchair":"no"}},"type":"Feature"},
	{"geometry":{"coordinates":[8.689051,50.152403],"type":"Point"},"properties":{"osm_id":"2567880094","tag":{"amenity":"recycling","recycling:glass_bottles":"yes","recycling_type":"container"}},"type":"Feature"},
	{"geometry":{"coordinates":[8.687932,50.153922],"type":"Point"},"properties":{"osm_id":"2567880107","tag":{"amenity":"recycling","location":"overground","recycling:glass_bottles":"yes","recycling_type":"container"}},"type":"Feature"},
	{"geometry":{"coordinates":[8.628875,50.176344],"type":"Point"},"properties":{"osm_id":"2579730887","tag":{"amenity":"waste_basket"}},"type":"Feature"},
	{"geometry":{"coordinates":[8.631419,50.175931],"type":"Point"},"properties":{"osm_id":"2580180154","tag":{"amenity":"recycling","opening_hours":"Mo-Sa 07:00-19:00; PH closed","recycling:clothes":"yes","recycling:glass_bottles":"yes","recycling_type":"container","wheelchair":"no"}},"type":"Feature"},
	{"geometry":{"coordinates":[8.63017,50.127214],"type":"Point"},"properties":{"osm_id":"2611108399","tag":{"amenity":"recycling","recycling:glass_bottles":"yes","recycling_type":"container"}},"type":"Feature"},
	{"geometry":{"coordinates":[8.618429,50.131677],"type":"Point"},"properties":{"osm_id":"2679290883","tag":{"amenity":"waste_basket"}},"type":"Feature"},
	{"geometry":{"coordinates":[8.676011,50.129153],"type":"Point"},"properties":{"osm_id":"2688959496","tag":{"amenity":"recycling","location":"overground","recycling:glass":"no","recycling:glass_bottles":"yes","recycling_type":"container"}},"type":"Feature"},
	{"geometry":{"coordinates":[8.676113,50.128964],"type":"Point"},"properties":{"osm_id":"2688959497","tag":{"amenity":"recycling","location":"overground","recycling:clothes":"yes","recycling_type":"container"}},"type":"Feature"},
	{"geometry":{"coordinates":[8.688213,50.130792],"type":"Point"},"properties":{"osm_id":"2918666801","tag":{"amenity":"recycling","location":"overground","recycling:glass_bottles":"yes","recycling_type":"container"}},"type":"Feature"},
	{"geometry":{"coordinates":[8.690802,50.130178],"type":"Point"},"properties":{"osm_id":"2918667540","tag":{"amenity":"recycling","location":"overground","recycling:glass_bottles":"yes","recycling_type":"container"}},"type":"Feature"},
	{"geometry":{"coordinates":[8.687383,50.168292],"type":"Point"},"properties":{"osm_id":"2948823710","tag":{"amenity":"recycling","recycling:glass_bottles":"yes","recycling_type":"container"}},"type":"Feature"},
	{"geometry":{"coordinates":[8.642429,50.124716],"type":"Point"},"properties":{"osm_id":"3014536045","tag":{"amenity":"recycling","recycling:glass_bottles":"yes","recycling_type":"container"}},"type":"Feature"},
	{"geometry":{"coordinates":[8.687657,50.150493],"type":"Point"},"properties":{"osm_id":"3079907891","tag":{"amenity":"recycling","recycling:clothes":"yes","recycling_type":"container"}},"type":"Feature"},
	{"geometry":{"coordinates":[8.68769,50.1505],"type":"Point"},"properties":{"osm_id":"3079907892","tag":{"amenity":"recycling","recycling:glass_bottles":"yes","recycling_type":"container"}},"type":"Feature"},
	{"geometry":{"coordinates":[8.641238,50.130996],"type":"Point"},"properties":{"osm_id":"3133897965","tag":{"amenity":"waste_basket"}},"type":"Feature"},
	{"geometry":{"coordinates":[8.64523,50.131915],"type":"Point"},"properties":{"osm_id":"3133898008","tag":{"amenity":"recycling","recycling:glass_bottles":"yes","recycling_type":"container"}},"type":"Feature"},
	{"geometry":{"coordinates":[8.652475,50.14095],"type":"Point"},"properties":{"osm_id":"3263062264","tag":{"amenity":"recycling","recycling:cans":"no","recycling:clothes":"no","recycling:glass":"yes","recycling:paper":"no"}},"type":"Feature"},
	{"geometry":{"coordinates":[8.650376,50.144629],"type":"Point"},"properties":{"osm_id":"3285664986","tag":{"amenity":"recycling","location":"overground","recycling:cans":"no","recycling:clothes":"no","recycling:glass_bottles":"yes","recycling_type":"container"}},"type":"Feature"},
	{"geometry":{"coordinates":[8.653314,50.143894],"type":"Point"},"properties":{"osm_id":"3285665546","tag":{"amenity":"recycling","location":"overground","recycling:cans":"no","recycling:clothes":"yes","recycling:glass_bottles":"yes","recycling_type":"container"}},"type":"Feature"},
	{"geometry":{"coordinates":[8.686372,50.153301],"type":"Point"},"properties":{"osm_id":"3296305723","tag":{"amenity":"recycling","location":"overground","recycling:glass":"no","recycling:glass_bottles":"yes","recycling_type":"container"}},"type":"Feature"},
	{"geometry":{"coordinates":[8.657625,50.142396],"type":"Point"},"properties":{"osm_id":"3535403173","tag":{"amenity":"recycling","recycling:glass_bottles":"yes","recycling_type":"container"}},"type":"Feature"},
	{"geometry":{"coordinates":[8.622586,50.156687],"type":"Point"},"properties":{"osm_id":"3695652313","tag":{"amenity":"recycling","recycling:clothes":"yes"}},"type":"Feature"},
	{"geometry":{"coordinates":[8.622966,50.156728],"type":"Point"},"properties":{"osm_id":"3695652314","tag":{"amenity":"recycling","recycling:glass":"yes"}},"type":"Feature"},
	{"geometry":{"coordinates":[8.672961,50.142767],"type":"Point"},"properties":{"osm_id":"3777999258","tag":{"amenity":"recycling","recycling:clothes":"yes"}},"type":"Feature"},
	{"geometry":{"coordinates":[8.680794,50.122142],"type":"Point"},"properties":{"osm_id":"3815140086","tag":{"amenity":"recycling","location":"overground","operator":"FES","recycling:glass_bottles":"yes","recycling_type":"container"}},"type":"Feature"},
	{"geometry":{"coordinates":[8.68987,50.12327],"type":"Point"},"properties":{"osm_id":"4042660850","tag":{"amenity":"recycling","location":"overground","recycling:glass_bottles":"yes","recycling_type":"container"}},"type":"Feature"},
	{"geometry":{"coordinates":[8.645715,50.122649],"type":"Point"},"properties":{"osm_id":"4066963067","tag":{"amenity":"recycling","recycling:glass_bottles":"yes","recycling_type":"container"}},"type":"Feature"},
	{"geometry":{"coordinates":[8.642553,50.121731],"type":"Point"},"properties":{"osm_id":"4066966191","tag":{"amenity":"recycling","recycling:clothes":"yes","recycling_type":"container"}},"type":"Feature"},
	{"geometry":{"coordinates":[8.639149,50.123028],"type":"Point"},"properties":{"osm_id":"4066966192","tag":{"amenity":"recycling","recycling:clothes":"yes","recycling_type":"container"}},"type":"Feature"},
	{"geometry":{"coordinates":[8.622784,50.169099],"type":"Point"},"properties":{"osm_id":"4067606013","tag":{"amenity":"waste_basket"}},"type":"Feature"},
	{"geometry":{"coordinates":[8.622629,50.16919],"type":"Point"},"properties":{"osm_id":"4067606022","tag":{"amenity":"waste_basket"}},"type":"Feature"},
	{"geometry":{"coordinates":[8.622868,50.169197],"type":"Point"},"properties":{"osm_id":"4067606023","tag":{"amenity":"waste_basket"}},"type":"Feature"},
	{"geometry":{"coordinates":[8.622701,50.169295],"type":"Point"},"properties":{"osm_id":"4067606031","tag":{"amenity":"waste_basket"}},"type":"Feature"},
	{"geometry":{"coordinates":[8.622378,50.169482],"type":"Point"},"properties":{"osm_id":"4067606036","tag":{"amenity":"waste_basket"}},"type":"Feature"},
	{"geometry":{"coordinates":[8.683368,50.141865],"type":"Point"},"properties":{"osm_id":"4230083491","tag":{"amenity":"waste_basket"}},"type":"Feature"},
	{"geometry":{"coordinates":[8.683846,50.141016],"type":"Point"},"properties":{"osm_id":"4230091490","tag":{"amenity":"waste_basket"}},"type":"Feature"},
	{"geometry":{"coordinates":[8.682263,50.140682],"type":"Point"},"properties":{"osm_id":"4230091491","tag":{"amenity":"waste_basket"}},"type":"Feature"},
	{"geometry":{"coordinates":[8.683735,50.141075],"type":"Point"},"properties":{"osm_id":"4230091789","tag":{"amenity":"recycling","location":"overground","recycling:glass_bottles":"yes","recycling_type":"container"}},"type":"Feature"},
	{"geometry":{"coordinates":[8.681695,50.140452],"type":"Point"},"properties":{"osm_id":"4230091790","tag":{"amenity":"recycling","recycling:glass_bottles":"yes","recycling_type":"container"}},"type":"Feature"},
	{"geometry":{"coordinates":[8.645647,50.124403],"type":"Point"},"properties":{"osm_id":"4367650866","tag":{"amenity":"recycling","recycling:glass_bottles":"yes","recycling_type":"container"}},"type":"Feature"},
	{"geometry":{"coordinates":[8.643955,50.125613],"type":"Point"},"properties":{"osm_id":"4367650867","tag":{"amenity":"waste_basket"}},"type":"Feature"},
	{"geometry":{"coordinates":[8.643961,50.125728],"type":"Point"},"properties":{"osm_id":"4367650868","tag":{"amenity":"waste_basket"}},"type":"Feature"},
	{"geometry":{"coordinates":[8.642077,50.175295],"type":"Point"},"properties":{"osm_id":"4457583484","tag":{"amenity":"recycling","location":"overground","recycling:glass_bottles":"yes","recycling_type":"container"}},"type":"Feature"},
	{"geometry":{"coordinates":[8.670072,50.138459],"type":"Point"},"properties":{"osm_id":"4704336509","tag":{"amenity":"recycling","recycling:glass_bottles":"yes","recycling_type":"container"}},"type":"Feature"},
	{"geometry":{"coordinates":[8.642854,50.128848],"type":"Point"},"properties":{"osm_id":"4725353789","tag":{"amenity":"recycling","location":"overground","recycling_type":"container"}},"type":"Feature"},
	{"geometry":{"coordinates":[8.699408,50.13887],"type":"Point"},"properties":{"osm_id":"5032956712","tag":{"amenity":"waste_basket"}},"type":"Feature"},
	{"geometry":{"coordinates":[8.691677,50.129152],"type":"Point"},"properties":{"osm_id":"5039478894","tag":{"amenity":"recycling","location":"overground","recycling:glass_bottles":"yes","recycling_type":"container"}},"type":"Feature"},
	{"geometry":{"coordinates":[8.691669,50.125151],"type":"Point"},"properties":{"osm_id":"5039478895","tag":{"amenity":"recycling","location":"overground","recycling:glass_bottles":"yes","recycling_type":"container"}},"type":"Feature"},
	{"geometry":{"coordinates":[8.691638,50.124142],"type":"Point"},"properties":{"osm_id":"5039478896","tag":{"amenity":"recycling","location":"overground","recycling:glass_bottles":"yes","recycling_type":"container"}},"type":"Feature"},
	{"geometry":{"coordinates":[8.666037,50.158416],"type":"Point"},"properties":{"name":"Abfallverwertung","osm_id":"5203473780","tag":{"amenity":"recycling","mapillary":"bjcA96UMMWMANiXGALJ1BA","recycling:glass_bottles":"yes","recycling_type":"container","survey:date":"2019-02-24"}},"type":"Feature"},
	{"geometry":{"coordinates":[8.699119,50.140394],"type":"Point"},"properties":{"osm_id":"5310574844","tag":{"amenity":"waste_basket"}},"type":"Feature"},
	{"geometry":{"coordinates":[8.699654,50.14042],"type":"Point"},"properties":{"osm_id":"5310574848","tag":{"amenity":"waste_basket"}},"type":"Feature"},
	{"geometry":{"coordinates":[8.699717,50.140454],"type":"Point"},"properties":{"osm_id":"5310574849","tag":{"amenity":"waste_basket"}},"type":"Feature"},
	{"geometry":{"coordinates":[8.700029,50.140602],"type":"Point"},"properties":{"osm_id":"5310574852","tag":{"amenity":"waste_basket"}},"type":"Feature"},
	{"geometry":{"coordinates":[8.673556,50.121036],"type":"Point"},"properties":{"osm_id":"5617014432","tag":{"amenity":"recycling","recycling:glass_bottles":"yes","recycling_type":"container"}},"type":"Feature"},
	{"geometry":{"coordinates":[8.671715,50.121533],"type":"Point"},"properties":{"osm_id":"5617014433","tag":{"amenity":"recycling","recycling:glass_bottles":"yes","recycling_type":"container"}},"type":"Feature"},
	{"geometry":{"coordinates":[8.630298,50.13792],"type":"Point"},"properties":{"osm_id":"5711709721","tag":{"amenity":"waste_basket"}},"type":"Feature"},
	{"geometry":{"coordinates":[8.654469,50.158398],"type":"Point"},"properties":{"osm_id":"6051131874","tag":{"amenity":"recycling","recycling:clothes":"yes","recycling:shoes":"yes","recycling_type":"container"}},"type":"Feature"},
	{"geometry":{"coordinates":[8.654914,50.163848],"type":"Point"},"properties":{"osm_id":"6052309314","tag":{"amenity":"recycling","recycling:glass_bottles":"yes","recycling_type":"container","wheelchair":"yes"}},"type":"Feature"},
	{"geometry":{"coordinates":[8.671792,50.135315],"type":"Point"},"properties":{"osm_id":"6116879972","tag":{"amenity":"recycling","opening_hours":"24/7","recycling:glass_bottles":"yes","recycling_type":"container"}},"type":"Feature"},
	{"geometry":{"coordinates":[8.697873,50.170152],"type":"Point"},"properties":{"osm_id":"6180532903","tag":{"amenity":"waste_basket"}},"type":"Feature"},
	{"geometry":{"coordinates":[8.699531,50.139478],"type":"Point"},"properties":{"osm_id":"6180687554","tag":{"amenity":"waste_basket"}},"type":"Feature"},
	{"geometry":{"coordinates":[8.699813,50.139373],"type":"Point"},"properties":{"osm_id":"6180687556","tag":{"amenity":"waste_basket"}},"type":"Feature"},
	{"geometry":{"coordinates":[8.70015,50.139158],"type":"Point"},"properties":{"osm_id":"6180687565","tag":{"amenity":"recycling","location":"overground","recycling:glass_bottles":"yes","recycling_type":"container"}},"type":"Feature"},
	{"geometry":{"coordinates":[8.697977,50.141766],"type":"Point"},"properties":{"osm_id":"6187407410","tag":{"amenity":"recycling","location":"overground","recycling:glass_bottles":"yes","recycling_type":"container"}},"type":"Feature"},
	{"geometry":{"coordinates":[8.696632,50.14741],"type":"Point"},"properties":{"osm_id":"6195258907","tag":{"amenity":"recycling","location":"overground","recycling:glass_bottles":"yes","recycling_type":"container"}},"type":"Feature"},
	{"geometry":{"coordinates":[8.700338,50.145393],"type":"Point"},"properties":{"osm_id":"6195266994","tag":{"amenity":"recycling","location":"overground","recycling:clothes":"yes","recycling_type":"container"}},"type":"Feature"},
	{"geometry":{"coordinates":[8.70035,50.145395],"type":"Point"},"properties":{"osm_id":"6195266995","tag":{"amenity":"recycling","location":"overground","recycling:glass_bottles":"yes","recycling_type":"container"}},"type":"Feature"},
	{"geometry":{"coordinates":[8.697977,50.144841],"type":"Point"},"properties":{"osm_id":"6195266996","tag":{"amenity":"recycling","location":"overground","recycling:glass_bottles":"yes","recycling_type":"container"}},"type":"Feature"},
	{"geometry":{"coordinates":[8.694815,50.144414],"type":"Point"},"properties":{"osm_id":"6195266998","tag":{"amenity":"recycling","location":"overground","recycling:clothes":"yes","recycling_type":"container"}},"type":"Feature"},
	{"geometry":{"coordinates":[8.694831,50.144417],"type":"Point"},"properties":{"osm_id":"6195266999","tag":{"amenity":"recycling","location":"overground","recycling:glass_bottles":"yes","recycling_type":"container"}},"type":"Feature"},
	{"geometry":{"coordinates":[8.692071,50.146945],"type":"Point"},"properties":{"osm_id":"6195314698","tag":{"amenity":"recycling","location":"overground","recycling:glass_bottles":"yes","recycling_type":"container"}},"type":"Feature"},
	{"geometry":{"coordinates":[8.615422,50.142407],"type":"Point"},"properties":{"osm_id":"6263986145","tag":{"amenity":"waste_disposal"}},"type":"Feature"},
	{"geometry":{"coordinates":[8.618462,50.142579],"type":"Point"},"properties":{"osm_id":"6263990842","tag":{"amenity":"waste_basket"}},"type":"Feature"},
	{"geometry":{"coordinates":[8.61496,50.143727],"type":"Point"},"properties":{"osm_id":"6263990844","tag":{"amenity":"waste_basket"}},"type":"Feature"},
	{"geometry":{"coordinates":[8.690828,50.122221],"type":"Point"},"properties":{"osm_id":"6291259475","tag":{"amenity":"recycling","location":"overground","recycling:glass_bottles":"yes","recycling_type":"container"}},"type":"Feature"},
	{"geometry":{"coordinates":[8.684259,50.130128],"type":"Point"},"properties":{"osm_id":"6296472616","tag":{"amenity":"recycling","location":"overground","recycling:glass_bottles":"yes","recycling_type":"container"}},"type":"Feature"},
	{"geometry":{"coordinates":[8.681688,50.125266],"type":"Point"},"properties":{"osm_id":"6296472618","tag":{"amenity":"recycling","location":"overground","operator":"Deutsches Rotes Kreuz","recycling:clothes":"yes","recycling_type":"container"}},"type":"Feature"},
	{"geometry":{"coordinates":[8.681426,50.124028],"type":"Point"},"properties":{"osm_id":"6296472623","tag":{"amenity":"recycling","location":"overground","recycling:glass_bottles":"yes","recycling_type":"container"}},"type":"Feature"},
	{"geometry":{"coordinates":[8.69075,50.121098],"type":"Point"},"properties":{"osm_id":"6296472648","tag":{"amenity":"recycling","location":"overground","recycling:glass_bottles":"yes","recycling_type":"container"}},"type":"Feature"},
	{"geometry":{"coordinates":[8.691364,50.122306],"type":"Point"},"properties":{"osm_id":"6296472650","tag":{"amenity":"recycling","location":"overground","recycling:glass_bottles":"yes","recycling_type":"container"}},"type":"Feature"},
	{"geometry":{"coordinates":[8.679827,50.141222],"type":"Point"},"properties":{"osm_id":"6302862554","tag":{"amenity":"recycling","location":"overground","recycling:glass_bottles":"yes","recycling_type":"container"}},"type":"Feature"},
	{"geometry":{"coordinates":[8.635982,50.124039],"type":"Point"},"properties":{"osm_id":"6321329829","tag":{"amenity":"recycling","recycling:glass_bottles":"yes","recycling_type":"container"}},"type":"Feature"},
	{"geometry":{"coordinates":[8.635309,50.123628],"type":"Point"},"properties":{"osm_id":"6321329830","tag":{"amenity":"recycling","recycling:glass_bottles":"yes","recycling_type":"container"}},"type":"Feature"},
	{"geometry":{"coordinates":[8.636045,50.124053],"type":"Point"},"properties":{"osm_id":"6321333597","tag":{"amenity":"recycling","recycling:paper":"yes","recycling_type":"container"}},"type":"Feature"},
	{"geometry":{"coordinates":[8.625246,50.120872],"type":"Point"},"properties":{"osm_id":"6324184372","tag":{"amenity":"recycling","recycling:glass_bottles":"yes","recycling_type":"container"}},"type":"Feature"},
	{"geometry":{"coordinates":[8.633029,50.123425],"type":"Point"},"properties":{"osm_id":"6324184373","tag":{"amenity":"recycling","recycling:glass_bottles":"yes","recycling_type":"container"}},"type":"Feature"},
	{"geometry":{"coordinates":[8.633294,50.126997],"type":"Point"},"properties":{"osm_id":"6326237922","tag":{"amenity":"recycling","recycling:glass_bottles":"yes","recycling_type":"container"}},"type":"Feature"},
	{"geometry":{"coordinates":[8.6775,50.140493],"type":"Point"},"properties":{"osm_id":"6328741585","tag":{"amenity":"recycling","location":"overground","recycling:clothes":"yes","recycling_type":"container"}},"type":"Feature"},
	{"geometry":{"coordinates":[8.67428,50.139642],"type":"Point"},"properties":{"osm_id":"6328741586","tag":{"amenity":"recycling","location":"overground","recycling:glass_bottles":"yes","recycling_type":"container"}},"type":"Feature"},
	{"geometry":{"coordinates":[8.686407,50.123797],"type":"Point"},"properties":{"osm_id":"6331246349","tag":{"amenity":"recycling","location":"overground","recycling:glass_bottles":"yes","recycling_type":"container"}},"type":"Feature"},
	{"geometry":{"coordinates":[8.686389,50.123402],"type":"Point"},"properties":{"osm_id":"6331246353","tag":{"amenity":"recycling","location":"overground","recycling:clothes":"yes","recycling_type":"container"}},"type":"Feature"},
	{"geometry":{"coordinates":[8.643693,50.121063],"type":"Point"},"properties":{"osm_id":"6340260828","tag":{"amenity":"recycling","recycling:glass_bottles":"yes","recycling_type":"container"}},"type":"Feature"},
	{"geometry":{"coordinates":[8.693854,50.126493],"type":"Point"},"properties":{"osm_id":"6348293061","tag":{"amenity":"recycling","location":"overground","recycling:glass_bottles":"yes","recycling_type":"container"}},"type":"Feature"},
	{"geometry":{"coordinates":[8.691693,50.129131],"type":"Point"},"properties":{"osm_id":"6348295529","tag":{"amenity":"recycling","location":"overground","recycling:clothes":"yes","recycling_type":"container"}},"type":"Feature"},
	{"geometry":{"coordinates":[8.653809,50.125846],"type":"Point"},"properties":{"osm_id":"6354131021","tag":{"amenity":"waste_basket"}},"type":"Feature"},
	{"geometry":{"coordinates":[8.647013,50.126238],"type":"Point"},"properties":{"osm_id":"6357084781","tag":{"amenity":"recycling","location":"overground","recycling:glass_bottles":"yes","recycling_type":"container"}},"type":"Feature"},
	{"geometry":{"coordinates":[8.698034,50.170933],"type":"Point"},"properties":{"osm_id":"6373105001","tag":{"amenity":"recycling","recycling:glass_bottles":"yes","recycling_type":"container"}},"type":"Feature"},
	{"geometry":{"coordinates":[8.700933,50.129282],"type":"Point"},"properties":{"osm_id":"6389378841","tag":{"amenity":"recycling","location":"overground","recycling:glass_bottles":"yes","recycling_type":"container"}},"type":"Feature"},
	{"geometry":{"coordinates":[8.697576,50.128718],"type":"Point"},"properties":{"osm_id":"6389378853","tag":{"amenity":"recycling","location":"overground","recycling:clothes":"yes","recycling_type":"container"}},"type":"Feature"},
	{"geometry":{"coordinates":[8.696206,50.128264],"type":"Point"},"properties":{"osm_id":"6389378857","tag":{"amenity":"recycling","location":"overground","recycling:glass_bottles":"yes","recycling_type":"container"}},"type":"Feature"},
	{"geometry":{"coordinates":[8.69597,50.130029],"type":"Point"},"properties":{"osm_id":"6389378865","tag":{"amenity":"recycling","location":"overground","recycling:glass_bottles":"yes","recycling_type":"container"}},"type":"Feature"},
	{"geometry":{"coordinates":[8.699066,50.130526],"type":"Point"},"properties":{"osm_id":"6389378874","tag":{"amenity":"recycling","location":"overground","recycling:glass_bottles":"yes","recycling_type":"container"}},"type":"Feature"},
	{"geometry":{"coordinates":[8.699098,50.130492],"type":"Point"},"properties":{"osm_id":"6389378875","tag":{"amenity":"recycling","location":"overground","recycling:clothes":"yes","recycling_type":"container"}},"type":"Feature"},
	{"geometry":{"coordinates":[8.695303,50.13214],"type":"Point"},"properties":{"osm_id":"6389379407","tag":{"amenity":"recycling","recycling:clothes":"yes","recycling_type":"container"}},"type":"Feature"},
	{"geometry":{"coordinates":[8.638421,50.125628],"type":"Point"},"properties":{"osm_id":"6403492873","tag":{"amenity":"waste_basket"}},"type":"Feature"},
	{"geometry":{"coordinates":[8.638173,50.125408],"type":"Point"},"properties":{"osm_id":"6403494975","tag":{"amenity":"waste_basket"}},"type":"Feature"},
	{"geometry":{"coordinates":[8.6416,50.12809],"type":"Point"},"properties":{"osm_id":"6403505370","tag":{"amenity":"waste_basket"}},"type":"Feature"},
	{"geometry":{"coordinates":[8.644076,50.129786],"type":"Point"},"properties":{"osm_id":"6403510664","tag":{"amenity":"waste_basket"}},"type":"Feature"},
	{"geometry":{"coordinates":[8.644281,50.12976],"type":"Point"},"properties":{"osm_id":"6403769277","tag":{"amenity":"waste_basket"}},"type":"Feature"},
	{"geometry":{"coordinates":[8.644463,50.129896],"type":"Point"},"properties":{"osm_id":"6403769278","tag":{"amenity":"waste_basket"}},"type":"Feature"},
	{"geometry":{"coordinates":[8.642878,50.128825],"type":"Point"},"properties":{"osm_id":"6403769282","tag":{"amenity":"recycling","location":"overground","opening_hours":"24/7 open \"publicly accessible on the street\"","operator":"Arbeiter-Samariter-Bund","recycling:clothes":"yes","recycling:shoes":"yes","recycling_type":"container"}},"type":"Feature"},
	{"geometry":{"coordinates":[8.645084,50.130366],"type":"Point"},"properties":{"osm_id":"6403769283","tag":{"amenity":"waste_basket"}},"type":"Feature"},
	{"geometry":{"coordinates":[8.645187,50.130449],"type":"Point"},"properties":{"osm_id":"6403769284","tag":{"amenity":"waste_basket","waste":"trash"}},"type":"Feature"},
	{"geometry":{"coordinates":[8.665847,50.128649],"type":"Point"},"properties":{"osm_id":"6413675513","tag":{"amenity":"waste_basket"}},"type":"Feature"},
	{"geometry":{"coordinates":[8.667882,50.129158],"type":"Point"},"properties":{"osm_id":"6413718138","tag":{"amenity":"waste_basket"}},"type":"Feature"},
	{"geometry":{"coordinates":[8.667388,50.129091],"type":"Point"},"properties":{"osm_id":"6413719585","tag":{"amenity":"waste_basket"}},"type":"Feature"},
	{"geometry":{"coordinates":[8.667343,50.129079],"type":"Point"},"properties":{"osm_id":"6413719953","tag":{"amenity":"waste_basket"}},"type":"Feature"},
	{"geometry":{"coordinates":[8.668064,50.128882],"type":"Point"},"properties":{"osm_id":"6413734343","tag":{"amenity":"waste_basket"}},"type":"Feature"},
	{"geometry":{"coordinates":[8.668117,50.128998],"type":"Point"},"properties":{"osm_id":"6413734689","tag":{"amenity":"waste_basket"}},"type":"Feature"},
	{"geometry":{"coordinates":[8.668291,50.12889],"type":"Point"},"properties":{"osm_id":"6413742420","tag":{"amenity":"waste_basket"}},"type":"Feature"},
	{"geometry":{"coordinates":[8.668716,50.128864],"type":"Point"},"properties":{"osm_id":"6413746606","tag":{"access":"yes","amenity":"waste_basket","waste":"cigarettes"}},"type":"Feature"},
	{"geometry":{"coordinates":[8.669601,50.129068],"type":"Point"},"properties":{"osm_id":"6413750282","tag":{"amenity":"waste_basket","waste":"trash;cigarettes"}},"type":"Feature"},
	{"geometry":{"coordinates":[8.670538,50.128556],"type":"Point"},"properties":{"osm_id":"6413760697","tag":{"amenity":"waste_basket"}},"type":"Feature"},
	{"geometry":{"coordinates":[8.668311,50.128542],"type":"Point"},"properties":{"osm_id":"6425175676","tag":{"amenity":"waste_basket"}},"type":"Feature"},
	{"geometry":{"coordinates":[8.667183,50.12811],"type":"Point"},"properties":{"osm_id":"6425179839","tag":{"amenity":"waste_basket"}},"type":"Feature"},
	{"geometry":{"coordinates":[8.650914,50.120922],"type":"Point"},"properties":{"osm_id":"6436705817","tag":{"amenity":"waste_basket"}},"type":"Feature"},
	{"geometry":{"coordinates":[8.627638,50.130153],"type":"Point"},"properties":{"osm_id":"6446000455","tag":{"amenity":"recycling","location":"overground","recycling:glass_bottles":"yes","recycling_type":"container"}},"type":"Feature"},
	{"geometry":{"coordinates":[8.64538,50.122755],"type":"Point"},"properties":{"osm_id":"6448373525","tag":{"amenity":"waste_basket"}},"type":"Feature"},
	{"geometry":{"coordinates":[8.645125,50.122725],"type":"Point"},"properties":{"osm_id":"6448373966","tag":{"amenity":"waste_basket"}},"type":"Feature"},
	{"geometry":{"coordinates":[8.671315,50.126629],"type":"Point"},"properties":{"osm_id":"6458823455","tag":{"amenity":"waste_basket"}},"type":"Feature"},
	{"geometry":{"coordinates":[8.650795,50.121427],"type":"Point"},"properties":{"osm_id":"6462492173","tag":{"amenity":"waste_basket"}},"type":"Feature"},
	{"geometry":{"coordinates":[8.683587,50.142313],"type":"Point"},"properties":{"osm_id":"6470883282","tag":{"amenity":"recycling","location":"overground","recycling:glass_bottles":"yes","recycling_type":"container"}},"type":"Feature"},
	{"geometry":{"coordinates":[8.643115,50.125225],"type":"Point"},"properties":{"osm_id":"6490012393","tag":{"addr:street":"Basaltstra\u00c3\u009fe","amenity":"waste_basket"}},"type":"Feature"},
	{"geometry":{"coordinates":[8.700077,50.144121],"type":"Point"},"properties":{"osm_id":"6505941578","tag":{"amenity":"waste_basket"}},"type":"Feature"},
	{"geometry":{"coordinates":[8.662116,50.146414],"type":"Point"},"properties":{"osm_id":"6515605693","tag":{"amenity":"recycling","recycling:glass_bottles":"yes","recycling_type":"container"}},"type":"Feature"},
	{"geometry":{"coordinates":[8.656665,50.14886],"type":"Point"},"properties":{"osm_id":"6515654292","tag":{"amenity":"recycling","recycling:clothes":"yes","recycling_type":"container"}},"type":"Feature"},
	{"geometry":{"coordinates":[8.65494,50.146827],"type":"Point"},"properties":{"osm_id":"6515660181","tag":{"amenity":"recycling","recycling:glass_bottles":"yes","recycling_type":"container"}},"type":"Feature"},
	{"geometry":{"coordinates":[8.656694,50.148826],"type":"Point"},"properties":{"osm_id":"6515678272","tag":{"amenity":"recycling","recycling:glass_bottles":"yes","recycling_type":"container"}},"type":"Feature"},
	{"geometry":{"coordinates":[8.655348,50.145005],"type":"Point"},"properties":{"osm_id":"6515678283","tag":{"amenity":"recycling","recycling:glass_bottles":"yes","recycling_type":"container"}},"type":"Feature"},
	{"geometry":{"coordinates":[8.663864,50.147686],"type":"Point"},"properties":{"osm_id":"6515680878","tag":{"amenity":"recycling","recycling:glass_bottles":"yes","recycling_type":"container"}},"type":"Feature"},
	{"geometry":{"coordinates":[8.655399,50.144948],"type":"Point"},"properties":{"osm_id":"6515682888","tag":{"amenity":"recycling","recycling:clothes":"yes","recycling_type":"container"}},"type":"Feature"},
	{"geometry":{"coordinates":[8.647897,50.141806],"type":"Point"},"properties":{"osm_id":"6516354352","tag":{"amenity":"recycling","recycling:glass_bottles":"yes","recycling_type":"container"}},"type":"Feature"},
	{"geometry":{"coordinates":[8.64787,50.141777],"type":"Point"},"properties":{"osm_id":"6516372956","tag":{"amenity":"recycling","recycling:clothes":"yes","recycling_type":"container"}},"type":"Feature"},
	{"geometry":{"coordinates":[8.645197,50.130453],"type":"Point"},"properties":{"osm_id":"6549449849","tag":{"amenity":"waste_basket","waste":"cigarettes"}},"type":"Feature"},
	{"geometry":{"coordinates":[8.646661,50.139373],"type":"Point"},"properties":{"osm_id":"6553137070","tag":{"amenity":"recycling","recycling:glass_bottles":"yes","recycling_type":"container"}},"type":"Feature"},
	{"geometry":{"coordinates":[8.644974,50.130747],"type":"Point"},"properties":{"osm_id":"6563216849","tag":{"amenity":"waste_basket"}},"type":"Feature"},
	{"geometry":{"coordinates":[8.64536,50.13082],"type":"Point"},"properties":{"osm_id":"6563251285","tag":{"amenity":"waste_basket"}},"type":"Feature"},
	{"geometry":{"coordinates":[8.665518,50.128131],"type":"Point"},"properties":{"osm_id":"6571895325","tag":{"amenity":"waste_basket"}},"type":"Feature"},
	{"geometry":{"coordinates":[8.617561,50.14333],"type":"Point"},"properties":{"osm_id":"6572417076","tag":{"amenity":"waste_basket"}},"type":"Feature"},
	{"geometry":{"coordinates":[8.666093,50.127636],"type":"Point"},"properties":{"osm_id":"6576555827","tag":{"amenity":"waste_basket"}},"type":"Feature"},
	{"geometry":{"coordinates":[8.645257,50.121782],"type":"Point"},"properties":{"osm_id":"6578339241","tag":{"amenity":"recycling","recycling:glass":"no","recycling:glass_bottles":"yes","recycling_type":"container"}},"type":"Feature"},
	{"geometry":{"coordinates":[8.645351,50.121785],"type":"Point"},"properties":{"osm_id":"6578445244","tag":{"amenity":"recycling","recycling:clothes":"yes","recycling_type":"container"}},"type":"Feature"},
	{"geometry":{"coordinates":[8.684226,50.128093],"type":"Point"},"properties":{"osm_id":"6581203157","tag":{"amenity":"recycling","location":"overground","recycling:glass_bottles":"yes","recycling_type":"container"}},"type":"Feature"},
	{"geometry":{"coordinates":[8.693444,50.151942],"type":"Point"},"properties":{"osm_id":"6587069777","tag":{"amenity":"recycling","location":"overground","recycling:glass_bottles":"yes","recycling_type":"container"}},"type":"Feature"},
	{"geometry":{"coordinates":[8.699348,50.153414],"type":"Point"},"properties":{"osm_id":"6587076658","tag":{"amenity":"recycling","location":"overground","recycling:glass_bottles":"yes","recycling_type":"container"}},"type":"Feature"},
	{"geometry":{"coordinates":[8.697512,50.153003],"type":"Point"},"properties":{"osm_id":"6587089103","tag":{"amenity":"recycling","location":"overground","recycling:glass_bottles":"yes","recycling_type":"container"}},"type":"Feature"},
	{"geometry":{"coordinates":[8.671413,50.136932],"type":"Point"},"properties":{"osm_id":"6589666226","tag":{"amenity":"recycling","recycling:glass_bottles":"yes","recycling_type":"container"}},"type":"Feature"},
	{"geometry":{"coordinates":[8.670576,50.138979],"type":"Point"},"properties":{"osm_id":"6589674835","tag":{"amenity":"recycling","recycling:clothes":"yes","recycling_type":"container"}},"type":"Feature"},
	{"geometry":{"coordinates":[8.616512,50.128232],"type":"Point"},"properties":{"osm_id":"6597515766","tag":{"amenity":"recycling","opening_hours":"Mo-Sa 07:00-19:00; PH closed","recycling:glass_bottles":"yes","recycling_type":"container","wheelchair":"yes"}},"type":"Feature"},
	{"geometry":{"coordinates":[8.616347,50.129315],"type":"Point"},"properties":{"osm_id":"6613131754","tag":{"amenity":"recycling","opening_hours":"Mo-Sa 07:00-20:00; PH closed","operator":"TEXAID","recycling:clothes":"yes","recycling:shoes":"yes","recycling_type":"container","wheelchair":"no"}},"type":"Feature"},
	{"geometry":{"coordinates":[8.61852,50.131805],"type":"Point"},"properties":{"osm_id":"6613819728","tag":{"amenity":"recycling","operator":"Deutsches Rotes Kreuz","recycling:clothes":"yes","recycling:shoes":"yes","recycling_type":"container"}},"type":"Feature"},
	{"geometry":{"coordinates":[8.691592,50.149537],"type":"Point"},"properties":{"osm_id":"6617301743","tag":{"amenity":"recycling","location":"overground","recycling:glass_bottles":"yes","recycling_type":"container"}},"type":"Feature"},
	{"geometry":{"coordinates":[8.695365,50.152216],"type":"Point"},"properties":{"osm_id":"6621238414","tag":{"amenity":"recycling","location":"overground","recycling:glass_bottles":"yes","recycling_type":"container"}},"type":"Feature"},
	{"geometry":{"coordinates":[8.666257,50.127162],"type":"Point"},"properties":{"osm_id":"6665425146","tag":{"amenity":"waste_basket"}},"type":"Feature"},
	{"geometry":{"coordinates":[8.666483,50.126801],"type":"Point"},"properties":{"osm_id":"6665439080","tag":{"amenity":"waste_basket"}},"type":"Feature"},
	{"geometry":{"coordinates":[8.665231,50.128441],"type":"Point"},"properties":{"osm_id":"6665502662","tag":{"amenity":"waste_basket"}},"type":"Feature"},
	{"geometry":{"coordinates":[8.693102,50.153537],"type":"Point"},"properties":{"osm_id":"6706778850","tag":{"amenity":"recycling","location":"overground","recycling:glass_bottles":"yes","recycling_type":"container"}},"type":"Feature"},
	{"geometry":{"coordinates":[8.690487,50.147405],"type":"Point"},"properties":{"osm_id":"6709716669","tag":{"amenity":"recycling","location":"overground","operator":"Deutsches Rotes Kreuz","recycling:clothes":"yes","recycling_type":"container"}},"type":"Feature"},
	{"geometry":{"coordinates":[8.691848,50.144799],"type":"Point"},"properties":{"osm_id":"6709717280","tag":{"amenity":"recycling","location":"overground","recycling:glass_bottles":"yes","recycling_type":"container"}},"type":"Feature"},
	{"geometry":{"coordinates":[8.689342,50.149521],"type":"Point"},"properties":{"osm_id":"6725698254","tag":{"amenity":"recycling","location":"overground","recycling:glass_bottles":"yes","recycling_type":"container"}},"type":"Feature"},
	{"geometry":{"coordinates":[8.666084,50.128006],"type":"Point"},"properties":{"osm_id":"6750163271","tag":{"amenity":"waste_basket"}},"type":"Feature"},
	{"geometry":{"coordinates":[8.666384,50.126722],"type":"Point"},"properties":{"osm_id":"6752007342","tag":{"amenity":"waste_basket"}},"type":"Feature"},
	{"geometry":{"coordinates":[8.665628,50.127735],"type":"Point"},"properties":{"osm_id":"6752012656","tag":{"amenity":"waste_basket"}},"type":"Feature"},
	{"geometry":{"coordinates":[8.667372,50.125633],"type":"Point"},"properties":{"osm_id":"6752039072","tag":{"amenity":"waste_basket"}},"type":"Feature"},
	{"geometry":{"coordinates":[8.667572,50.12703],"type":"Point"},"properties":{"osm_id":"6752486669","tag":{"amenity":"waste_basket"}},"type":"Feature"},
	{"geometry":{"coordinates":[8.667351,50.127609],"type":"Point"},"properties":{"osm_id":"6752516479","tag":{"amenity":"waste_basket"}},"type":"Feature"},
	{"geometry":{"coordinates":[8.626202,50.174177],"type":"Point"},"properties":{"osm_id":"6783110123","tag":{"amenity":"recycling","opening_hours":"Mo-Sa 07:00-19:00; PH closed","recycling:glass":"no","recycling:glass_bottles":"yes","recycling_type":"container","wheelchair":"no"}},"type":"Feature"},
	{"geometry":{"coordinates":[8.618774,50.163416],"type":"Point"},"properties":{"osm_id":"6789929291","tag":{"amenity":"waste_basket"}},"type":"Feature"},
	{"geometry":{"coordinates":[8.621269,50.163051],"type":"Point"},"properties":{"osm_id":"6791348872","tag":{"amenity":"waste_basket"}},"type":"Feature"},
	{"geometry":{"coordinates":[8.662798,50.151674],"type":"Point"},"properties":{"osm_id":"6801074734","tag":{"amenity":"waste_basket"}},"type":"Feature"},
	{"geometry":{"coordinates":[8.657867,50.156032],"type":"Point"},"properties":{"osm_id":"6801074742","tag":{"amenity":"waste_basket"}},"type":"Feature"},
	{"geometry":{"coordinates":[8.695608,50.158969],"type":"Point"},"properties":{"osm_id":"6807681692","tag":{"amenity":"recycling","location":"overground","recycling:glass_bottles":"yes","recycling_type":"container"}},"type":"Feature"},
	{"geometry":{"coordinates":[8.689787,50.123182],"type":"Point"},"properties":{"osm_id":"6844702961","tag":{"amenity":"recycling","location":"overground","operator":"Malteser","recycling:clothes":"yes","recycling_type":"container"}},"type":"Feature"},
	{"geometry":{"coordinates":[8.68937,50.127013],"type":"Point"},"properties":{"osm_id":"6844724506","tag":{"amenity":"recycling","location":"overground","recycling:glass_bottles":"yes","recycling_type":"container"}},"type":"Feature"},
	{"geometry":{"coordinates":[8.693718,50.130798],"type":"Point"},"properties":{"osm_id":"6852307971","tag":{"amenity":"recycling","location":"overground","recycling:glass_bottles":"yes","recycling_type":"container"}},"type":"Feature"},
	{"geometry":{"coordinates":[8.688818,50.128855],"type":"Point"},"properties":{"osm_id":"6852328288","tag":{"amenity":"recycling","location":"overground","recycling:glass_bottles":"yes","recycling_type":"container"}},"type":"Feature"},
	{"geometry":{"coordinates":[8.688762,50.12885],"type":"Point"},"properties":{"osm_id":"6852328289","tag":{"amenity":"recycling","location":"overground","operator":"Deutsches Rotes Kreuz","recycling:clothes":"yes","recycling_type":"container"}},"type":"Feature"},
	{"geometry":{"coordinates":[8.640045,50.141351],"type":"Point"},"properties":{"osm_id":"6900625176","tag":{"amenity":"waste_basket"}},"type":"Feature"},
	{"geometry":{"coordinates":[8.639098,50.141296],"type":"Point"},"properties":{"osm_id":"6900631781","tag":{"amenity":"waste_basket"}},"type":"Feature"},
	{"geometry":{"coordinates":[8.632956,50.143201],"type":"Point"},"properties":{"osm_id":"6900662877","tag":{"amenity":"waste_basket"}},"type":"Feature"},
	{"geometry":{"coordinates":[8.634658,50.142911],"type":"Point"},"properties":{"osm_id":"6900664426","tag":{"amenity":"waste_basket"}},"type":"Feature"},
	{"geometry":{"coordinates":[8.635229,50.142071],"type":"Point"},"properties":{"osm_id":"6900668373","tag":{"amenity":"waste_basket"}},"type":"Feature"},
	{"geometry":{"coordinates":[8.630687,50.142088],"type":"Point"},"properties":{"osm_id":"6900671684","tag":{"amenity":"waste_basket"}},"type":"Feature"},
	{"geometry":{"coordinates":[8.63218,50.143136],"type":"Point"},"properties":{"osm_id":"6900672803","tag":{"amenity":"waste_basket"}},"type":"Feature"},
	{"geometry":{"coordinates":[8.63562,50.14138],"type":"Point"},"properties":{"osm_id":"6900677530","tag":{"amenity":"waste_basket"}},"type":"Feature"},
	{"geometry":{"coordinates":[8.626586,50.138449],"type":"Point"},"properties":{"osm_id":"6952418344","tag":{"amenity":"recycling","recycling_type":"container"}},"type":"Feature"},
	{"geometry":{"coordinates":[8.626641,50.138456],"type":"Point"},"properties":{"osm_id":"6952418345","tag":{"amenity":"recycling","recycling_type":"container"}},"type":"Feature"},
	{"geometry":{"coordinates":[8.626532,50.138454],"type":"Point"},"properties":{"osm_id":"6952418346","tag":{"amenity":"recycling","recycling_type":"container"}},"type":"Feature"},
	{"geometry":{"coordinates":[8.638314,50.152093],"type":"Point"},"properties":{"osm_id":"6956111230","tag":{"amenity":"recycling","recycling_type":"container"}},"type":"Feature"},
	{"geometry":{"coordinates":[8.64067,50.152279],"type":"Point"},"properties":{"osm_id":"6957010235","tag":{"amenity":"recycling","recycling_type":"container"}},"type":"Feature"},
	{"geometry":{"coordinates":[8.673947,50.123907],"type":"Point"},"properties":{"osm_id":"6974086680","tag":{"amenity":"recycling","recycling:glass":"no","recycling:glass_bottles":"yes","recycling_type":"container"}},"type":"Feature"},
	{"geometry":{"coordinates":[8.672293,50.131779],"type":"Point"},"properties":{"osm_id":"7063388738","tag":{"amenity":"waste_basket","level":"-2"}},"type":"Feature"},
	{"geometry":{"coordinates":[8.672319,50.131472],"type":"Point"},"properties":{"osm_id":"7063388739","tag":{"amenity":"waste_basket","level":"-2"}},"type":"Feature"},
	{"geometry":{"coordinates":[8.672292,50.131588],"type":"Point"},"properties":{"osm_id":"7063388747","tag":{"amenity":"waste_basket","level":"-2"}},"type":"Feature"},
	{"geometry":{"coordinates":[8.672294,50.131551],"type":"Point"},"properties":{"osm_id":"7063388752","tag":{"amenity":"waste_basket","level":"-2"}},"type":"Feature"},
	{"geometry":{"coordinates":[8.67229,50.131676],"type":"Point"},"properties":{"osm_id":"7063388753","tag":{"amenity":"waste_basket","level":"-2"}},"type":"Feature"},
	{"geometry":{"coordinates":[8.672079,50.131469],"type":"Point"},"properties":{"osm_id":"7063388757","tag":{"amenity":"waste_basket","level":"-2"}},"type":"Feature"},
	{"geometry":{"coordinates":[8.67209,50.131547],"type":"Point"},"properties":{"osm_id":"7063388762","tag":{"amenity":"waste_basket","level":"-2"}},"type":"Feature"},
	{"geometry":{"coordinates":[8.672088,50.131583],"type":"Point"},"properties":{"osm_id":"7063388766","tag":{"amenity":"waste_basket","level":"-2"}},"type":"Feature"},
	{"geometry":{"coordinates":[8.672085,50.131671],"type":"Point"},"properties":{"osm_id":"7063388769","tag":{"amenity":"waste_basket","level":"-2"}},"type":"Feature"},
	{"geometry":{"coordinates":[8.672063,50.131774],"type":"Point"},"properties":{"osm_id":"7063388775","tag":{"amenity":"waste_basket","level":"-2"}},"type":"Feature"},
	{"geometry":{"coordinates":[8.672185,50.131846],"type":"Point"},"properties":{"osm_id":"7063388854","tag":{"amenity":"waste_basket","level":"-1"}},"type":"Feature"},
	{"geometry":{"coordinates":[8.672103,50.131965],"type":"Point"},"properties":{"osm_id":"7063388879","tag":{"amenity":"waste_basket","level":"-1"}},"type":"Feature"},
	{"geometry":{"coordinates":[8.672249,50.131969],"type":"Point"},"properties":{"osm_id":"7063388901","tag":{"amenity":"waste_basket","level":"-1"}},"type":"Feature"},
	{"geometry":{"coordinates":[8.672986,50.131501],"type":"Point"},"properties":{"osm_id":"7063389003","tag":{"amenity":"waste_basket"}},"type":"Feature"},
	{"geometry":{"coordinates":[8.672197,50.131419],"type":"Point"},"properties":{"osm_id":"7063389016","tag":{"amenity":"waste_basket","level":"-1"}},"type":"Feature"},
	{"geometry":{"coordinates":[8.672276,50.131299],"type":"Point"},"properties":{"osm_id":"7063389024","tag":{"amenity":"waste_basket","level":"-1"}},"type":"Feature"},
	{"geometry":{"coordinates":[8.67213,50.131298],"type":"Point"},"properties":{"osm_id":"7063389042","tag":{"amenity":"waste_basket","level":"-1"}},"type":"Feature"},
	{"geometry":{"coordinates":[8.655241,50.156884],"type":"Point"},"properties":{"osm_id":"7158275804","tag":{"amenity":"recycling","recycling_type":"centre"}},"type":"Feature"},
	{"geometry":{"coordinates":[8.656148,50.127444],"type":"Point"},"properties":{"osm_id":"7161964130","tag":{"amenity":"recycling","location":"overground","recycling:glass_bottles":"yes","recycling_type":"container"}},"type":"Feature"},
	{"geometry":{"coordinates":[8.666804,50.127276],"type":"Point"},"properties":{"osm_id":"7168821038","tag":{"amenity":"waste_basket","waste":"trash"}},"type":"Feature"},
	{"geometry":{"coordinates":[8.667037,50.127605],"type":"Point"},"properties":{"osm_id":"7168831648","tag":{"amenity":"waste_basket","waste":"trash"}},"type":"Feature"},
	{"geometry":{"coordinates":[8.668629,50.127923],"type":"Point"},"properties":{"osm_id":"7168831649","tag":{"amenity":"waste_basket","waste":"trash"}},"type":"Feature"},
	{"geometry":{"coordinates":[8.668011,50.127369],"type":"Point"},"properties":{"osm_id":"7168836893","tag":{"amenity":"waste_basket","waste":"trash"}},"type":"Feature"},
	{"geometry":{"coordinates":[8.666891,50.127291],"type":"Point"},"properties":{"osm_id":"7168839226","tag":{"amenity":"waste_basket","waste":"trash"}},"type":"Feature"},
	{"geometry":{"coordinates":[8.650552,50.120623],"type":"Point"},"properties":{"osm_id":"7175442614","tag":{"access":"yes","amenity":"waste_basket","waste":"trash;cigarettes"}},"type":"Feature"},
	{"geometry":{"coordinates":[8.684864,50.163904],"type":"Point"},"properties":{"osm_id":"7182194933","tag":{"access":"public","amenity":"waste_basket","waste":"trash;cigarettes"}},"type":"Feature"},
	{"geometry":{"coordinates":[8.684919,50.163928],"type":"Point"},"properties":{"osm_id":"7182203485","tag":{"access":"public","amenity":"waste_basket","waste":"trash;cigarettes"}},"type":"Feature"},
	{"geometry":{"coordinates":[8.683475,50.142653],"type":"Point"},"properties":{"osm_id":"7221020362","tag":{"amenity":"recycling","location":"overground","operator":"Deutsches Rotes Kreuz","recycling:clothes":"yes","recycling_type":"container"}},"type":"Feature"},
	{"geometry":{"coordinates":[8.683629,50.142173],"type":"Point"},"properties":{"osm_id":"7221092156","tag":{"access":"public","amenity":"waste_basket","waste":"trash;cigarettes"}},"type":"Feature"},
	{"geometry":{"coordinates":[8.683631,50.142166],"type":"Point"},"properties":{"osm_id":"7221092995","tag":{"access":"public","amenity":"waste_basket","waste":"trash;cigarettes"}},"type":"Feature"},
	{"geometry":{"coordinates":[8.66683,50.128775],"type":"Point"},"properties":{"osm_id":"7227328981","tag":{"amenity":"waste_basket","waste":"trash"}},"type":"Feature"},
	{"geometry":{"coordinates":[8.668279,50.129307],"type":"Point"},"properties":{"osm_id":"7230806675","tag":{"access":"public","amenity":"waste_basket","waste":"trash;cigarettes"}},"type":"Feature"},
	{"geometry":{"coordinates":[8.668303,50.129229],"type":"Point"},"properties":{"osm_id":"7230823394","tag":{"access":"public","amenity":"waste_basket","waste":"trash;cigarettes"}},"type":"Feature"},
	{"geometry":{"coordinates":[8.623118,50.170331],"type":"Point"},"properties":{"osm_id":"7232307361","tag":{"access":"yes","amenity":"waste_basket"}},"type":"Feature"},
	{"geometry":{"coordinates":[8.622272,50.169656],"type":"Point"},"properties":{"osm_id":"7232310148","tag":{"amenity":"recycling","location":"overground","recycling:glass_bottles":"yes","recycling_type":"container"}},"type":"Feature"},
	{"geometry":{"coordinates":[8.640946,50.126131],"type":"Point"},"properties":{"osm_id":"7251357039","tag":{"amenity":"waste_basket","waste":"trash"}},"type":"Feature"},
	{"geometry":{"coordinates":[8.640964,50.126205],"type":"Point"},"properties":{"osm_id":"7251359603","tag":{"amenity":"waste_basket","waste":"trash"}},"type":"Feature"},
	{"geometry":{"coordinates":[8.684265,50.137344],"type":"Point"},"properties":{"osm_id":"7285171284","tag":{"amenity":"recycling","location":"overground","operator":"Deutsches Rotes Kreuz","recycling:clothes":"yes","recycling_type":"container"}},"type":"Feature"},
	{"geometry":{"coordinates":[8.68373,50.135184],"type":"Point"},"properties":{"osm_id":"7285172287","tag":{"amenity":"recycling","location":"overground","recycling:glass_bottles":"yes","recycling_type":"container"}},"type":"Feature"},
	{"geometry":{"coordinates":[8.683799,50.135059],"type":"Point"},"properties":{"osm_id":"7285172289","tag":{"amenity":"recycling","location":"overground","operator":"Deutsches Rotes Kreuz","recycling:clothes":"yes","recycling_type":"container"}},"type":"Feature"},
	{"geometry":{"coordinates":[8.683853,50.132742],"type":"Point"},"properties":{"osm_id":"7285172304","tag":{"amenity":"recycling","location":"overground","recycling:glass_bottles":"yes","recycling_type":"container"}},"type":"Feature"},
	{"geometry":{"coordinates":[8.615942,50.143407],"type":"Point"},"properties":{"osm_id":"7323828795","tag":{"amenity":"waste_basket"}},"type":"Feature"},
	{"geometry":{"coordinates":[8.686361,50.155294],"type":"Point"},"properties":{"osm_id":"7325859210","tag":{"amenity":"recycling","location":"overground","operator":"Deutsches Rotes Kreuz","recycling:clothes":"yes","recycling_type":"container"}},"type":"Feature"},
	{"geometry":{"coordinates":[8.687947,50.153902],"type":"Point"},"properties":{"osm_id":"7325859219","tag":{"amenity":"recycling","location":"overground","operator":"Deutsches Rotes Kreuz","recycling:clothes":"yes","recycling_type":"container"}},"type":"Feature"},
	{"geometry":{"coordinates":[8.615331,50.127125],"type":"Point"},"properties":{"osm_id":"7395437440","tag":{"amenity":"waste_basket","waste":"trash"}},"type":"Feature"},
	{"geometry":{"coordinates":[8.61388,50.127253],"type":"Point"},"properties":{"osm_id":"7395437454","tag":{"amenity":"waste_basket","waste":"trash"}},"type":"Feature"},
	{"geometry":{"coordinates":[8.614965,50.12672],"type":"Point"},"properties":{"osm_id":"7395437457","tag":{"amenity":"waste_basket","waste":"trash"}},"type":"Feature"},
	{"geometry":{"coordinates":[8.616583,50.128232],"type":"Point"},"properties":{"osm_id":"7395437459","tag":{"amenity":"waste_basket","waste":"trash"}},"type":"Feature"},
	{"geometry":{"coordinates":[8.616529,50.127492],"type":"Point"},"properties":{"osm_id":"7395545813","tag":{"amenity":"waste_basket","waste":"trash"}},"type":"Feature"},
	{"geometry":{"coordinates":[8.615855,50.128838],"type":"Point"},"properties":{"osm_id":"7397226964","tag":{"amenity":"recycling","recycling:glass_bottles":"yes","recycling_type":"container","wheelchair":"no"}},"type":"Feature"},
	{"geometry":{"coordinates":[8.618657,50.129958],"type":"Point"},"properties":{"osm_id":"7400621976","tag":{"amenity":"recycling","recycling:glass_bottles":"yes","recycling_type":"container","wheelchair":"yes"}},"type":"Feature"},
	{"geometry":{"coordinates":[8.700924,50.140542],"type":"Point"},"properties":{"osm_id":"7473868615","tag":{"amenity":"recycling","location":"overground","recycling:glass_bottles":"yes","recycling_type":"container"}},"type":"Feature"},
	{"geometry":{"coordinates":[8.615495,50.128706],"type":"Point"},"properties":{"osm_id":"7501578054","tag":{"amenity":"recycling","operator":"Deutsches Rotes Kreuz","recycling:clothes":"yes","recycling:shoes":"yes","recycling_type":"container","wheelchair":"no"}},"type":"Feature"},
	{"geometry":{"coordinates":[8.619621,50.125427],"type":"Point"},"properties":{"osm_id":"7548990721","tag":{"amenity":"recycling","operator":"FES","recycling:clothes":"yes","recycling:shoes":"yes","recycling_type":"container"}},"type":"Feature"},
	{"geometry":{"coordinates":[8.625771,50.127513],"type":"Point"},"properties":{"osm_id":"7551896759","tag":{"amenity":"recycling","operator":"CeBeeF","recycling:clothes":"yes","recycling_type":"container","wheelchair":"no"}},"type":"Feature"},
	{"geometry":{"coordinates":[8.656173,50.127574],"type":"Point"},"properties":{"osm_id":"7577551654","tag":{"amenity":"recycling","location":"overground","recycling:glass_bottles":"yes","recycling_type":"container"}},"type":"Feature"},
	{"geometry":{"coordinates":[8.645732,50.160405],"type":"Point"},"properties":{"highway":"street_lamp","osm_id":"7720766102","tag":{"amenity":"waste_basket","lamp_mount":"bent_mast","waste":"trash"}},"type":"Feature"},
	{"geometry":{"coordinates":[8.645575,50.160302],"type":"Point"},"properties":{"highway":"street_lamp","osm_id":"7720766103","tag":{"amenity":"waste_basket","lamp_mount":"straight_mast","waste":"trash"}},"type":"Feature"},
	{"geometry":{"coordinates":[8.68423,50.154345],"type":"Point"},"properties":{"osm_id":"7728966762","tag":{"amenity":"waste_basket"}},"type":"Feature"},
	{"geometry":{"coordinates":[8.673044,50.146507],"type":"Point"},"properties":{"osm_id":"7873613520","tag":{"amenity":"recycling","recycling:glass_bottles":"yes","recycling_type":"container"}},"type":"Feature"},
	{"geometry":{"coordinates":[8.635475,50.153049],"type":"Point"},"properties":{"osm_id":"7941573795","tag":{"amenity":"recycling","recycling:glass":"yes","recycling_type":"container"}},"type":"Feature"}
]
}
