{
"type": "FeatureCollection",
"features": [
	{"geometry":{"coordinates":[8.617714,50.101876],"type":"Point"},"properties":{"highway":"turning_circle","osm_id":"68884198"},"type":"Feature"},
	{"geometry":{"coordinates":[8.681749,50.112853],"type":"Point"},"properties":{"osm_id":"270127803","tag":{"amenity":"recycling","location":"overground","recycling:glass_bottles":"yes","recycling_type":"container"}},"type":"Feature"},
	{"geometry":{"coordinates":[8.691692,50.118306],"type":"Point"},"properties":{"osm_id":"282988626","tag":{"amenity":"recycling","location":"overground","recycling:glass_bottles":"yes","recycling_type":"container"}},"type":"Feature"},
	{"geometry":{"coordinates":[8.68465,50.112571],"type":"Point"},"properties":{"osm_id":"292379764","tag":{"amenity":"recycling","recycling:glass":"yes"}},"type":"Feature"},
	{"geometry":{"coordinates":[8.682511,50.095584],"type":"Point"},"properties":{"osm_id":"301223700","tag":{"amenity":"recycling","location":"overground","recycling:glass_bottles":"yes","recycling_type":"container"}},"type":"Feature"},
	{"geometry":{"coordinates":[8.646526,50.115903],"type":"Point"},"properties":{"osm_id":"317479064","tag":{"amenity":"recycling","location":"overground","recycling:clothes":"yes","recycling:glass_bottles":"yes","recycling_type":"container"}},"type":"Feature"},
	{"geometry":{"coordinates":[8.643295,50.117347],"type":"Point"},"properties":{"osm_id":"317479065","tag":{"amenity":"recycling","location":"overground","recycling:glass":"yes","recycling_type":"container"}},"type":"Feature"},
	{"geometry":{"coordinates":[8.641193,50.118497],"type":"Point"},"properties":{"osm_id":"317479066","tag":{"amenity":"recycling","location":"overground","recycling:glass":"yes","recycling_type":"container"}},"type":"Feature"},
	{"geometry":{"coordinates":[8.692483,50.113236],"type":"Point"},"properties":{"osm_id":"331635338","tag":{"amenity":"recycling","location":"overground","recycling:glass_bottles":"yes","recycling_type":"container"}},"type":"Feature"},
	{"geometry":{"coordinates":[8.686832,50.074557],"type":"Point"},"properties":{"osm_id":"335391872","tag":{"amenity":"waste_basket"}},"type":"Feature"},
	{"geometry":{"coordinates":[8.683985,50.079773],"type":"Point"},"properties":{"osm_id":"335393729","tag":{"amenity":"recycling","recycling:glass":"yes"}},"type":"Feature"},
	{"geometry":{"coordinates":[8.695077,50.102809],"type":"Point"},"properties":{"osm_id":"336254403","tag":{"amenity":"recycling","recycling:clothes":"yes","recycling:glass_bottles":"yes","recycling:shoes":"yes","recycling_type":"container"}},"type":"Feature"},
	{"geometry":{"coordinates":[8.691678,50.103923],"type":"Point"},"properties":{"osm_id":"336672748","tag":{"amenity":"recycling","location":"overground","recycling:clothes":"yes","recycling:glass_bottles":"yes","recycling_type":"container"}},"type":"Feature"},
	{"geometry":{"coordinates":[8.696216,50.113309],"type":"Point"},"properties":{"osm_id":"343065585","tag":{"amenity":"recycling","location":"overground","recycling:glass_bottles":"yes","recycling_type":"container"}},"type":"Feature"},
	{"geometry":{"coordinates":[8.692053,50.10062],"type":"Point"},"properties":{"osm_id":"345230910","tag":{"amenity":"recycling","recycling:glass_bottles":"yes","recycling_type":"container"}},"type":"Feature"},
	{"geometry":{"coordinates":[8.695077,50.101524],"type":"Point"},"properties":{"osm_id":"345231596","tag":{"amenity":"recycling","recycling:glass_bottles":"yes"}},"type":"Feature"},
	{"geometry":{"coordinates":[8.644451,50.086733],"type":"Point"},"properties":{"osm_id":"374085241","tag":{"amenity":"recycling","location":"overground","recycling_type":"container"}},"type":"Feature"},
	{"geometry":{"coordinates":[8.641949,50.104716],"type":"Point"},"properties":{"osm_id":"401795234","tag":{"amenity":"recycling","recycling_type":"container"}},"type":"Feature"},
	{"geometry":{"coordinates":[8.636163,50.104041],"type":"Point"},"properties":{"osm_id":"427549293","tag":{"amenity":"recycling","location":"underground","recycling:glass_bottles":"yes","recycling_type":"container","wheelchair":"yes"}},"type":"Feature"},
	{"geometry":{"coordinates":[8.643502,50.118948],"type":"Point"},"properties":{"osm_id":"431016818","tag":{"amenity":"recycling","location":"overground","recycling:glass_bottles":"yes","recycling_type":"container"}},"type":"Feature"},
	{"geometry":{"coordinates":[8.66847,50.108244],"type":"Point"},"properties":{"osm_id":"437334116","tag":{"amenity":"recycling","location":"overground","recycling:glass_bottles":"yes","recycling_type":"container"}},"type":"Feature"},
	{"geometry":{"coordinates":[8.650209,50.12005],"type":"Point"},"properties":{"osm_id":"449921474","tag":{"amenity":"recycling","recycling:glass_bottles":"yes","recycling_type":"container"}},"type":"Feature"},
	{"geometry":{"coordinates":[8.639102,50.100881],"type":"Point"},"properties":{"osm_id":"451681026","tag":{"amenity":"recycling","recycling:glass_bottles":"yes","recycling_type":"container"}},"type":"Feature"},
	{"geometry":{"coordinates":[8.636783,50.100315],"type":"Point"},"properties":{"osm_id":"452500535","tag":{"amenity":"recycling","recycling:glass_bottles":"yes","recycling_type":"container"}},"type":"Feature"},
	{"geometry":{"coordinates":[8.636664,50.101132],"type":"Point"},"properties":{"osm_id":"452500536","tag":{"amenity":"waste_basket"}},"type":"Feature"},
	{"geometry":{"coordinates":[8.636643,50.101269],"type":"Point"},"properties":{"osm_id":"452500537","tag":{"amenity":"waste_basket"}},"type":"Feature"},
	{"geometry":{"coordinates":[8.647628,50.082771],"type":"Point"},"properties":{"osm_id":"485648645","tag":{"amenity":"recycling","location":"overground","recycling_type":"container"}},"type":"Feature"},
	{"geometry":{"coordinates":[8.69118,50.100289],"type":"Point"},"properties":{"osm_id":"498562234","tag":{"amenity":"recycling","location":"overground","recycling:glass_bottles":"yes","recycling_type":"container"}},"type":"Feature"},
	{"geometry":{"coordinates":[8.647001,50.106586],"type":"Point"},"properties":{"osm_id":"503471575","tag":{"amenity":"recycling","location":"overground","recycling:glass_bottles":"yes","recycling_type":"container"}},"type":"Feature"},
	{"geometry":{"coordinates":[8.6497,50.118322],"type":"Point"},"properties":{"osm_id":"507005372","tag":{"amenity":"recycling","opening_hours":"Mo-Fr 07:00-19:00 open; PH,Sa,Su closed","recycling:glass_bottles":"yes","recycling_type":"container"}},"type":"Feature"},
	{"geometry":{"coordinates":[8.669237,50.099528],"type":"Point"},"properties":{"osm_id":"521376692","tag":{"amenity":"recycling","recycling:glass_bottles":"yes","recycling_type":"container"}},"type":"Feature"},
	{"geometry":{"coordinates":[8.690209,50.10421],"type":"Point"},"properties":{"osm_id":"533896518","tag":{"amenity":"recycling","recycling:glass_bottles":"yes","recycling_type":"container"}},"type":"Feature"},
	{"geometry":{"coordinates":[8.674373,50.101313],"type":"Point"},"properties":{"osm_id":"539513863","tag":{"amenity":"recycling","location":"overground","recycling:glass_bottles":"yes","recycling_type":"container"}},"type":"Feature"},
	{"geometry":{"coordinates":[8.680525,50.109919],"type":"Point"},"properties":{"osm_id":"567119980","tag":{"amenity":"recycling","location":"overground","recycling:glass_bottles":"yes","recycling_type":"container"}},"type":"Feature"},
	{"geometry":{"coordinates":[8.675068,50.10925],"type":"Point"},"properties":{"osm_id":"567123487","tag":{"amenity":"recycling","mapillary":"ym-OSMheq6PXm-FtR_zpsg","recycling:glass_bottles":"yes","recycling_type":"container","survey:date":"2017-05-06"}},"type":"Feature"},
	{"geometry":{"coordinates":[8.678455,50.104036],"type":"Point"},"properties":{"osm_id":"634220367","tag":{"amenity":"recycling","location":"overground","recycling:glass_bottles":"yes","recycling_type":"container"}},"type":"Feature"},
	{"geometry":{"coordinates":[8.66158,50.104812],"type":"Point"},"properties":{"osm_id":"654007008","tag":{"amenity":"recycling","recycling_type":"container"}},"type":"Feature"},
	{"geometry":{"coordinates":[8.686605,50.097133],"type":"Point"},"properties":{"osm_id":"687489148","tag":{"amenity":"recycling","location":"overground","recycling:glass_bottles":"yes","recycling_type":"container"}},"type":"Feature"},
	{"geometry":{"coordinates":[8.68415,50.079912],"type":"Point"},"properties":{"osm_id":"701850016","tag":{"amenity":"recycling","recycling:shoes":"yes"}},"type":"Feature"},
	{"geometry":{"coordinates":[8.689186,50.098153],"type":"Point"},"properties":{"osm_id":"701850021","tag":{"amenity":"recycling","location":"overground","recycling:glass_bottles":"yes","recycling_type":"container"}},"type":"Feature"},
	{"geometry":{"coordinates":[8.614803,50.113242],"type":"Point"},"properties":{"osm_id":"742746947","tag":{"amenity":"waste_basket"}},"type":"Feature"},
	{"geometry":{"coordinates":[8.639404,50.081462],"type":"Point"},"properties":{"osm_id":"756676319","tag":{"amenity":"recycling","location":"overground","recycling:clothes":"yes","recycling:glass_bottles":"yes","recycling_type":"container"}},"type":"Feature"},
	{"geometry":{"coordinates":[8.670677,50.095764],"type":"Point"},"properties":{"osm_id":"847798523","tag":{"amenity":"recycling","location":"overground","recycling_type":"container"}},"type":"Feature"},
	{"geometry":{"coordinates":[8.645876,50.119687],"type":"Point"},"properties":{"osm_id":"948875904","tag":{"amenity":"recycling","location":"overground","recycling:clothes":"yes","recycling_type":"container"}},"type":"Feature"},
	{"geometry":{"coordinates":[8.645891,50.119666],"type":"Point"},"properties":{"osm_id":"948875910","tag":{"amenity":"recycling","location":"overground","recycling:glass_bottles":"yes","recycling_type":"container"}},"type":"Feature"},
	{"geometry":{"coordinates":[8.684159,50.092153],"type":"Point"},"properties":{"osm_id":"1019557738","tag":{"amenity":"recycling","location":"overground","recycling:clothes":"yes","recycling_type":"container"}},"type":"Feature"},
	{"geometry":{"coordinates":[8.68415,50.092201],"type":"Point"},"properties":{"osm_id":"1019557745","tag":{"amenity":"recycling","location":"overground","recycling:glass_bottles":"yes","recycling_type":"container"}},"type":"Feature"},
	{"geometry":{"coordinates":[8.679878,50.092011],"type":"Point"},"properties":{"osm_id":"1019557763","tag":{"amenity":"recycling","recycling:clothes":"yes","recycling:glass_bottles":"yes","recycling_type":"container"}},"type":"Feature"},
	{"geometry":{"coordinates":[8.67906,50.097684],"type":"Point"},"properties":{"osm_id":"1022304506","tag":{"amenity":"recycling","location":"overground","recycling:glass_bottles":"yes","recycling_type":"container"}},"type":"Feature"},
	{"geometry":{"coordinates":[8.670603,50.104908],"type":"Point"},"properties":{"osm_id":"1115330828","tag":{"amenity":"recycling","location":"overground","recycling:glass_bottles":"yes","recycling_type":"container"}},"type":"Feature"},
	{"geometry":{"coordinates":[8.66501,50.103135],"type":"Point"},"properties":{"osm_id":"1115330850","tag":{"amenity":"recycling","location":"overground","recycling:glass_bottles":"yes","recycling_type":"container"}},"type":"Feature"},
	{"geometry":{"coordinates":[8.63885,50.118691],"type":"Point"},"properties":{"osm_id":"1115612502","tag":{"amenity":"recycling","location":"overground","recycling:clothes":"yes","recycling:glass_bottles":"yes","recycling_type":"container"}},"type":"Feature"},
	{"geometry":{"coordinates":[8.64445,50.104571],"type":"Point"},"properties":{"osm_id":"1127808297","tag":{"amenity":"recycling","recycling:glass_bottles":"yes","recycling_type":"container"}},"type":"Feature"},
	{"geometry":{"coordinates":[8.648713,50.10487],"type":"Point"},"properties":{"osm_id":"1127808299","tag":{"amenity":"recycling","recycling:glass":"yes"}},"type":"Feature"},
	{"geometry":{"coordinates":[8.656275,50.107895],"type":"Point"},"properties":{"osm_id":"1127824282","tag":{"amenity":"recycling","location":"overground","recycling:glass":"yes","recycling_type":"container"}},"type":"Feature"},
	{"geometry":{"coordinates":[8.659034,50.110454],"type":"Point"},"properties":{"osm_id":"1127898010","tag":{"amenity":"recycling","recycling:glass":"yes"}},"type":"Feature"},
	{"geometry":{"coordinates":[8.655152,50.100171],"type":"Point"},"properties":{"osm_id":"1133901598","tag":{"amenity":"recycling"}},"type":"Feature"},
	{"geometry":{"coordinates":[8.679715,50.103475],"type":"Point"},"properties":{"osm_id":"1164098071","tag":{"amenity":"recycling","location":"overground","recycling:glass_bottles":"yes","recycling_type":"container"}},"type":"Feature"},
	{"geometry":{"coordinates":[8.67969,50.103467],"type":"Point"},"properties":{"osm_id":"1164098077","tag":{"amenity":"recycling","location":"overground","recycling:glass_bottles":"yes","recycling_type":"container"}},"type":"Feature"},
	{"geometry":{"coordinates":[8.636297,50.116843],"type":"Point"},"properties":{"osm_id":"1264541263","tag":{"amenity":"recycling","location":"overground","recycling:glass_bottles":"yes","recycling_type":"container"}},"type":"Feature"},
	{"geometry":{"coordinates":[8.697796,50.084885],"type":"Point"},"properties":{"osm_id":"1267393232","tag":{"amenity":"recycling","recycling:clothes":"yes"}},"type":"Feature"},
	{"geometry":{"coordinates":[8.696686,50.0883],"type":"Point"},"properties":{"osm_id":"1267394171","tag":{"amenity":"recycling","recycling:glass_bottles":"yes"}},"type":"Feature"},
	{"geometry":{"coordinates":[8.692633,50.100874],"type":"Point"},"properties":{"osm_id":"1274539960","tag":{"amenity":"waste_basket"}},"type":"Feature"},
	{"geometry":{"coordinates":[8.694211,50.101293],"type":"Point"},"properties":{"osm_id":"1274539963","tag":{"amenity":"waste_basket"}},"type":"Feature"},
	{"geometry":{"coordinates":[8.69341,50.101002],"type":"Point"},"properties":{"osm_id":"1274539967","tag":{"amenity":"waste_basket"}},"type":"Feature"},
	{"geometry":{"coordinates":[8.693636,50.101051],"type":"Point"},"properties":{"osm_id":"1274539969","tag":{"amenity":"waste_basket"}},"type":"Feature"},
	{"geometry":{"coordinates":[8.692288,50.100605],"type":"Point"},"properties":{"osm_id":"1274539970","tag":{"amenity":"waste_basket"}},"type":"Feature"},
	{"geometry":{"coordinates":[8.694863,50.101715],"type":"Point"},"properties":{"osm_id":"1274545468","tag":{"amenity":"waste_basket"}},"type":"Feature"},
	{"geometry":{"coordinates":[8.693343,50.101121],"type":"Point"},"properties":{"osm_id":"1275761308","tag":{"amenity":"waste_basket"}},"type":"Feature"},
	{"geometry":{"coordinates":[8.694092,50.100436],"type":"Point"},"properties":{"osm_id":"1275761316","tag":{"amenity":"waste_basket"}},"type":"Feature"},
	{"geometry":{"coordinates":[8.692746,50.099796],"type":"Point"},"properties":{"osm_id":"1275791950","tag":{"amenity":"waste_basket"}},"type":"Feature"},
	{"geometry":{"coordinates":[8.697729,50.100089],"type":"Point"},"properties":{"osm_id":"1275791958","tag":{"amenity":"waste_basket"}},"type":"Feature"},
	{"geometry":{"coordinates":[8.695414,50.10091],"type":"Point"},"properties":{"osm_id":"1275791959","tag":{"amenity":"waste_basket"}},"type":"Feature"},
	{"geometry":{"coordinates":[8.701041,50.101047],"type":"Point"},"properties":{"osm_id":"1275812134","tag":{"amenity":"waste_basket"}},"type":"Feature"},
	{"geometry":{"coordinates":[8.699383,50.112723],"type":"Point"},"properties":{"osm_id":"1276490810","tag":{"amenity":"recycling","location":"overground","recycling:glass_bottles":"yes","recycling_type":"container"}},"type":"Feature"},
	{"geometry":{"coordinates":[8.697779,50.111201],"type":"Point"},"properties":{"osm_id":"1282692584","tag":{"amenity":"recycling","recycling:glass":"yes"}},"type":"Feature"},
	{"geometry":{"coordinates":[8.614614,50.113209],"type":"Point"},"properties":{"osm_id":"1287614809","tag":{"amenity":"waste_basket"}},"type":"Feature"},
	{"geometry":{"coordinates":[8.663667,50.101684],"type":"Point"},"properties":{"osm_id":"1398584235","tag":{"amenity":"recycling","recycling:glass_bottles":"yes","recycling_type":"container"}},"type":"Feature"},
	{"geometry":{"coordinates":[8.693636,50.104336],"type":"Point"},"properties":{"osm_id":"1438388112","tag":{"amenity":"waste_basket"}},"type":"Feature"},
	{"geometry":{"coordinates":[8.654937,50.118027],"type":"Point"},"properties":{"osm_id":"1510357158","tag":{"amenity":"recycling","opening_hours":"Mo-Sa 07:00-19:00; PH closed","recycling:glass_bottles":"yes","recycling_type":"container"}},"type":"Feature"},
	{"geometry":{"coordinates":[8.61867,50.113613],"type":"Point"},"properties":{"osm_id":"1561672109","tag":{"amenity":"recycling","recycling:glass_bottles":"yes","recycling_type":"container"}},"type":"Feature"},
	{"geometry":{"coordinates":[8.648879,50.071362],"type":"Point"},"properties":{"osm_id":"1574293387","tag":{"amenity":"waste_basket"}},"type":"Feature"},
	{"geometry":{"coordinates":[8.647238,50.069997],"type":"Point"},"properties":{"osm_id":"1574293390","tag":{"amenity":"waste_basket"}},"type":"Feature"},
	{"geometry":{"coordinates":[8.648224,50.071073],"type":"Point"},"properties":{"osm_id":"1574293392","tag":{"amenity":"waste_basket"}},"type":"Feature"},
	{"geometry":{"coordinates":[8.64743,50.07035],"type":"Point"},"properties":{"osm_id":"1574293393","tag":{"amenity":"waste_basket"}},"type":"Feature"},
	{"geometry":{"coordinates":[8.649093,50.071789],"type":"Point"},"properties":{"osm_id":"1574293398","tag":{"amenity":"waste_basket"}},"type":"Feature"},
	{"geometry":{"coordinates":[8.649748,50.072092],"type":"Point"},"properties":{"osm_id":"1574293400","tag":{"amenity":"waste_basket"}},"type":"Feature"},
	{"geometry":{"coordinates":[8.646819,50.069826],"type":"Point"},"properties":{"osm_id":"1574293403","tag":{"amenity":"waste_basket"}},"type":"Feature"},
	{"geometry":{"coordinates":[8.647956,50.070625],"type":"Point"},"properties":{"osm_id":"1574293405","tag":{"amenity":"waste_basket"}},"type":"Feature"},
	{"geometry":{"coordinates":[8.626105,50.103042],"type":"Point"},"properties":{"osm_id":"1582340133","tag":{"amenity":"recycling","recycling:cans":"no","recycling:clothes":"yes","recycling:glass_bottles":"yes","recycling_type":"container"}},"type":"Feature"},
	{"geometry":{"coordinates":[8.670616,50.099336],"type":"Point"},"properties":{"osm_id":"1617174053","tag":{"amenity":"recycling","recycling:glass_bottles":"yes","recycling_type":"container"}},"type":"Feature"},
	{"geometry":{"coordinates":[8.667275,50.089828],"type":"Point"},"properties":{"osm_id":"1640620888","tag":{"amenity":"recycling","recycling:glass_bottles":"yes","recycling_type":"container"}},"type":"Feature"},
	{"geometry":{"coordinates":[8.638551,50.086217],"type":"Point"},"properties":{"osm_id":"1669150289","tag":{"amenity":"recycling","location":"overground","recycling:glass_bottles":"yes","recycling_type":"container"}},"type":"Feature"},
	{"geometry":{"coordinates":[8.685878,50.100034],"type":"Point"},"properties":{"osm_id":"1726321826","tag":{"amenity":"recycling","recycling:glass_bottles":"yes","recycling_type":"container"}},"type":"Feature"},
	{"geometry":{"coordinates":[8.626857,50.10271],"type":"Point"},"properties":{"osm_id":"1746978658","tag":{"amenity":"recycling","recycling:batteries":"no","recycling:cans":"no","recycling:clothes":"yes","recycling:glass":"no","recycling:paper":"no","recycling:scrap_metal":"no","recycling_type":"container"}},"type":"Feature"},
	{"geometry":{"coordinates":[8.622185,50.104416],"type":"Point"},"properties":{"osm_id":"1746978678","tag":{"amenity":"recycling","recycling:cans":"no","recycling:clothes":"yes","recycling:glass_bottles":"yes","recycling_type":"container"}},"type":"Feature"},
	{"geometry":{"coordinates":[8.642385,50.082856],"type":"Point"},"properties":{"osm_id":"1788559641","tag":{"amenity":"recycling","recycling:glass_bottles":"yes","recycling_type":"container"}},"type":"Feature"},
	{"geometry":{"coordinates":[8.643247,50.082952],"type":"Point"},"properties":{"osm_id":"1788559642","tag":{"amenity":"recycling","recycling:clothes":"yes","recycling:glass_bottles":"yes","recycling_type":"container"}},"type":"Feature"},
	{"geometry":{"coordinates":[8.644087,50.083781],"type":"Point"},"properties":{"osm_id":"1788559643","tag":{"amenity":"recycling","recycling:clothes":"yes","recycling_type":"container"}},"type":"Feature"},
	{"geometry":{"coordinates":[8.655755,50.115313],"type":"Point"},"properties":{"osm_id":"1874139969","tag":{"amenity":"recycling","location":"overground","recycling:clothes":"yes","recycling:glass_bottles":"yes","recycling_type":"container"}},"type":"Feature"},
	{"geometry":{"coordinates":[8.668649,50.102807],"type":"Point"},"properties":{"osm_id":"1889910188","tag":{"amenity":"waste_basket"}},"type":"Feature"},
	{"geometry":{"coordinates":[8.675616,50.104436],"type":"Point"},"properties":{"osm_id":"1889910192","tag":{"amenity":"waste_basket"}},"type":"Feature"},
	{"geometry":{"coordinates":[8.670752,50.104797],"type":"Point"},"properties":{"osm_id":"1889910193","tag":{"amenity":"waste_basket"}},"type":"Feature"},
	{"geometry":{"coordinates":[8.684144,50.119169],"type":"Point"},"properties":{"osm_id":"1901118678","tag":{"amenity":"recycling","recycling:glass_bottles":"yes","recycling_type":"container"}},"type":"Feature"},
	{"geometry":{"coordinates":[8.688783,50.107077],"type":"Point"},"properties":{"osm_id":"1933706216","tag":{"amenity":"recycling","recycling:cans":"no","recycling:clothes":"no","recycling:glass_bottles":"yes","recycling_type":"container"}},"type":"Feature"},
	{"geometry":{"coordinates":[8.697784,50.102284],"type":"Point"},"properties":{"osm_id":"1933877426","tag":{"amenity":"recycling","recycling:batteries":"no","recycling:cans":"no","recycling:clothes":"yes","recycling:glass":"no","recycling:paper":"no","recycling:scrap_metal":"no","recycling_type":"container"}},"type":"Feature"},
	{"geometry":{"coordinates":[8.636447,50.102197],"type":"Point"},"properties":{"osm_id":"1972875103","tag":{"amenity":"recycling","recycling:glass_bottles":"yes","recycling_type":"container"}},"type":"Feature"},
	{"geometry":{"coordinates":[8.642162,50.104975],"type":"Point"},"properties":{"osm_id":"1972875117","tag":{"amenity":"recycling","recycling:clothes":"yes","recycling_type":"container"}},"type":"Feature"},
	{"geometry":{"coordinates":[8.641214,50.089435],"type":"Point"},"properties":{"osm_id":"2008893240","tag":{"amenity":"recycling","recycling:glass_bottles":"yes","recycling_type":"container"}},"type":"Feature"},
	{"geometry":{"coordinates":[8.691713,50.098742],"type":"Point"},"properties":{"osm_id":"2269926105","tag":{"amenity":"recycling","recycling:glass_bottles":"yes","recycling_type":"container"}},"type":"Feature"},
	{"geometry":{"coordinates":[8.663993,50.106474],"type":"Point"},"properties":{"osm_id":"2288176830","tag":{"amenity":"waste_basket"}},"type":"Feature"},
	{"geometry":{"coordinates":[8.663863,50.106613],"type":"Point"},"properties":{"osm_id":"2288176841","tag":{"amenity":"waste_basket"}},"type":"Feature"},
	{"geometry":{"coordinates":[8.663745,50.106779],"type":"Point"},"properties":{"osm_id":"2288176870","tag":{"amenity":"waste_basket"}},"type":"Feature"},
	{"geometry":{"coordinates":[8.697862,50.104713],"type":"Point"},"properties":{"osm_id":"2483749405","tag":{"amenity":"recycling","recycling:glass_bottles":"yes","recycling_type":"container"}},"type":"Feature"},
	{"geometry":{"coordinates":[8.695364,50.106791],"type":"Point"},"properties":{"osm_id":"2483749951","tag":{"amenity":"recycling","recycling:glass_bottles":"yes","recycling_type":"container"}},"type":"Feature"},
	{"geometry":{"coordinates":[8.658397,50.116317],"type":"Point"},"properties":{"osm_id":"2533661292","tag":{"amenity":"recycling","recycling:glass_bottles":"yes","recycling_type":"container"}},"type":"Feature"},
	{"geometry":{"coordinates":[8.659762,50.116327],"type":"Point"},"properties":{"osm_id":"2533667128","tag":{"amenity":"recycling","recycling:clothes":"yes","recycling_type":"container"}},"type":"Feature"},
	{"geometry":{"coordinates":[8.634955,50.074812],"type":"Point"},"properties":{"osm_id":"2555873312","tag":{"amenity":"recycling","recycling:cans":"no","recycling:clothes":"no","recycling:glass_bottles":"yes","recycling_type":"container"}},"type":"Feature"},
	{"geometry":{"coordinates":[8.658044,50.100759],"type":"Point"},"properties":{"osm_id":"2625363564","tag":{"amenity":"recycling","recycling:glass_bottles":"yes","recycling_type":"container"}},"type":"Feature"},
	{"geometry":{"coordinates":[8.683111,50.104737],"type":"Point"},"properties":{"osm_id":"2671143836","tag":{"amenity":"recycling","location":"overground","recycling_type":"container"}},"type":"Feature"},
	{"geometry":{"coordinates":[8.682366,50.101326],"type":"Point"},"properties":{"osm_id":"2671227830","tag":{"amenity":"recycling","location":"overground","recycling_type":"container"}},"type":"Feature"},
	{"geometry":{"coordinates":[8.686242,50.101416],"type":"Point"},"properties":{"osm_id":"2672746872","tag":{"amenity":"recycling","location":"overground","recycling_type":"container"}},"type":"Feature"},
	{"geometry":{"coordinates":[8.699882,50.097083],"type":"Point"},"properties":{"osm_id":"2752724569","tag":{"amenity":"recycling","operator":"Deutsches Rotes Kreuz","recycling:clothes":"yes","recycling_type":"container"}},"type":"Feature"},
	{"geometry":{"coordinates":[8.699367,50.097217],"type":"Point"},"properties":{"osm_id":"2752726139","tag":{"amenity":"recycling","recycling:cans":"no","recycling:clothes":"no","recycling:glass":"yes","recycling:paper":"no"}},"type":"Feature"},
	{"geometry":{"coordinates":[8.694584,50.100215],"type":"Point"},"properties":{"osm_id":"2805721348","tag":{"amenity":"recycling","recycling:glass":"yes"}},"type":"Feature"},
	{"geometry":{"coordinates":[8.6333,50.067881],"type":"Point"},"properties":{"osm_id":"2957111057","tag":{"amenity":"recycling","description":"Zwei Altkleidercontainer","recycling:clothes":"yes","recycling_type":"container"}},"type":"Feature"},
	{"geometry":{"coordinates":[8.688351,50.110262],"type":"Point"},"properties":{"osm_id":"2961310959","tag":{"amenity":"recycling","recycling:glass_bottles":"yes"}},"type":"Feature"},
	{"geometry":{"coordinates":[8.630727,50.065437],"type":"Point"},"properties":{"osm_id":"3022789564","tag":{"amenity":"waste_basket"}},"type":"Feature"},
	{"geometry":{"coordinates":[8.630927,50.065628],"type":"Point"},"properties":{"osm_id":"3022789570","tag":{"amenity":"waste_basket"}},"type":"Feature"},
	{"geometry":{"coordinates":[8.68411,50.094001],"type":"Point"},"properties":{"osm_id":"3065038081","tag":{"amenity":"recycling","location":"overground","recycling:glass_bottles":"yes","recycling_type":"container"}},"type":"Feature"},
	{"geometry":{"coordinates":[8.654338,50.073785],"type":"Point"},"properties":{"osm_id":"3065559782","tag":{"amenity":"waste_basket"}},"type":"Feature"},
	{"geometry":{"coordinates":[8.657182,50.076766],"type":"Point"},"properties":{"osm_id":"3065559787","tag":{"amenity":"waste_basket"}},"type":"Feature"},
	{"geometry":{"coordinates":[8.657301,50.08203],"type":"Point"},"properties":{"osm_id":"3065559792","tag":{"amenity":"waste_basket"}},"type":"Feature"},
	{"geometry":{"coordinates":[8.662283,50.086315],"type":"Point"},"properties":{"osm_id":"3065559797","tag":{"amenity":"waste_basket"}},"type":"Feature"},
	{"geometry":{"coordinates":[8.660195,50.087868],"type":"Point"},"properties":{"osm_id":"3065559799","tag":{"amenity":"waste_basket"}},"type":"Feature"},
	{"geometry":{"coordinates":[8.656063,50.070079],"type":"Point"},"properties":{"osm_id":"3066795200","tag":{"amenity":"waste_basket"}},"type":"Feature"},
	{"geometry":{"coordinates":[8.684762,50.096697],"type":"Point"},"properties":{"osm_id":"3068857341","tag":{"amenity":"recycling","location":"overground","recycling:glass_bottles":"yes","recycling_type":"container"}},"type":"Feature"},
	{"geometry":{"coordinates":[8.678808,50.068558],"type":"Point"},"properties":{"osm_id":"3070578932","tag":{"amenity":"waste_basket"}},"type":"Feature"},
	{"geometry":{"coordinates":[8.67856,50.069378],"type":"Point"},"properties":{"osm_id":"3070579634","tag":{"amenity":"waste_basket"}},"type":"Feature"},
	{"geometry":{"coordinates":[8.678177,50.07073],"type":"Point"},"properties":{"osm_id":"3070579638","tag":{"amenity":"waste_basket"}},"type":"Feature"},
	{"geometry":{"coordinates":[8.676065,50.071955],"type":"Point"},"properties":{"osm_id":"3071949840","tag":{"amenity":"waste_basket"}},"type":"Feature"},
	{"geometry":{"coordinates":[8.672426,50.075204],"type":"Point"},"properties":{"osm_id":"3073733523","tag":{"amenity":"waste_basket"}},"type":"Feature"},
	{"geometry":{"coordinates":[8.685358,50.070615],"type":"Point"},"properties":{"osm_id":"3107241132","tag":{"amenity":"waste_basket"}},"type":"Feature"},
	{"geometry":{"coordinates":[8.684448,50.070787],"type":"Point"},"properties":{"osm_id":"3107241134","tag":{"amenity":"waste_basket"}},"type":"Feature"},
	{"geometry":{"coordinates":[8.700667,50.102633],"type":"Point"},"properties":{"osm_id":"3164700361","tag":{"amenity":"recycling","recycling:cans":"no","recycling:clothes":"no","recycling:glass_bottles":"yes","recycling_type":"container"}},"type":"Feature"},
	{"geometry":{"coordinates":[8.656587,50.109396],"type":"Point"},"properties":{"osm_id":"3168924368","tag":{"amenity":"recycling","recycling:glass_bottles":"yes","recycling_type":"container"}},"type":"Feature"},
	{"geometry":{"coordinates":[8.689561,50.117148],"type":"Point"},"properties":{"osm_id":"3280386573","tag":{"amenity":"recycling","location":"overground","recycling:glass_bottles":"yes","recycling_type":"container"}},"type":"Feature"},
	{"geometry":{"coordinates":[8.644124,50.10681],"type":"Point"},"properties":{"osm_id":"3353642646","tag":{"amenity":"recycling","mapillary":"QowTlrOxIwY_f_9ZpqUCDw","recycling:cans":"no","recycling:glass":"yes","recycling:paper":"no","recycling_type":"container","survey:date":"2017-09-29"}},"type":"Feature"},
	{"geometry":{"coordinates":[8.696184,50.078045],"type":"Point"},"properties":{"osm_id":"3396961663","tag":{"amenity":"waste_basket"}},"type":"Feature"},
	{"geometry":{"coordinates":[8.684714,50.116426],"type":"Point"},"properties":{"osm_id":"3425169741","tag":{"amenity":"recycling","recycling:glass_bottles":"yes","recycling_type":"container"}},"type":"Feature"},
	{"geometry":{"coordinates":[8.684975,50.119077],"type":"Point"},"properties":{"name":"Clothes Recycling","osm_id":"3425169742","tag":{"amenity":"recycling","location":"overground","recycling:cans":"no","recycling:clothes":"yes","recycling:glass":"no","recycling:paper":"no","recycling_type":"container"}},"type":"Feature"},
	{"geometry":{"coordinates":[8.6754,50.094354],"type":"Point"},"properties":{"osm_id":"3563856599","tag":{"amenity":"recycling","recycling:glass_bottles":"yes","recycling_type":"container"}},"type":"Feature"},
	{"geometry":{"coordinates":[8.639444,50.10594],"type":"Point"},"properties":{"osm_id":"3807114317","tag":{"amenity":"recycling","operator":"FES","recycling:glass_bottles":"yes","recycling_type":"container"}},"type":"Feature"},
	{"geometry":{"coordinates":[8.639484,50.105942],"type":"Point"},"properties":{"osm_id":"3807114318","tag":{"amenity":"recycling","operator":"Deutsches Rotes Kreuz","recycling:clothes":"yes","recycling_type":"container"}},"type":"Feature"},
	{"geometry":{"coordinates":[8.676533,50.118188],"type":"Point"},"properties":{"osm_id":"3874459669","tag":{"amenity":"recycling","recycling:glass_bottles":"yes","recycling_type":"container"}},"type":"Feature"},
	{"geometry":{"coordinates":[8.676653,50.118234],"type":"Point"},"properties":{"osm_id":"3874459675","tag":{"amenity":"waste_basket"}},"type":"Feature"},
	{"geometry":{"coordinates":[8.697851,50.111679],"type":"Point"},"properties":{"osm_id":"3893520143","tag":{"amenity":"waste_basket"}},"type":"Feature"},
	{"geometry":{"coordinates":[8.697031,50.112493],"type":"Point"},"properties":{"osm_id":"3893520247","tag":{"amenity":"waste_basket","tunnel":"yes"}},"type":"Feature"},
	{"geometry":{"coordinates":[8.697723,50.111807],"type":"Point"},"properties":{"osm_id":"3893520259","tag":{"amenity":"waste_basket"}},"type":"Feature"},
	{"geometry":{"coordinates":[8.69763,50.111895],"type":"Point"},"properties":{"osm_id":"3893520273","tag":{"amenity":"waste_basket"}},"type":"Feature"},
	{"geometry":{"coordinates":[8.697578,50.111949],"type":"Point"},"properties":{"osm_id":"3893520280","tag":{"amenity":"waste_basket"}},"type":"Feature"},
	{"geometry":{"coordinates":[8.696867,50.112674],"type":"Point"},"properties":{"osm_id":"3893520314","tag":{"amenity":"waste_basket","tunnel":"yes"}},"type":"Feature"},
	{"geometry":{"coordinates":[8.696757,50.112761],"type":"Point"},"properties":{"osm_id":"3893520325","tag":{"amenity":"waste_basket","tunnel":"yes"}},"type":"Feature"},
	{"geometry":{"coordinates":[8.696628,50.11289],"type":"Point"},"properties":{"osm_id":"3893520347","tag":{"amenity":"waste_basket","tunnel":"yes"}},"type":"Feature"},
	{"geometry":{"coordinates":[8.697355,50.112167],"type":"Point"},"properties":{"osm_id":"3893520379","tag":{"amenity":"waste_basket"}},"type":"Feature"},
	{"geometry":{"coordinates":[8.697305,50.112219],"type":"Point"},"properties":{"osm_id":"3893520393","tag":{"amenity":"waste_basket"}},"type":"Feature"},
	{"geometry":{"coordinates":[8.696474,50.113026],"type":"Point"},"properties":{"osm_id":"3893520563","tag":{"amenity":"waste_basket","tunnel":"yes"}},"type":"Feature"},
	{"geometry":{"coordinates":[8.696235,50.113236],"type":"Point"},"properties":{"osm_id":"3893520593","tag":{"amenity":"waste_basket","tunnel":"yes"}},"type":"Feature"},
	{"geometry":{"coordinates":[8.670107,50.093887],"type":"Point"},"properties":{"osm_id":"3933431204","tag":{"amenity":"waste_basket"}},"type":"Feature"},
	{"geometry":{"coordinates":[8.670171,50.093914],"type":"Point"},"properties":{"osm_id":"3933431205","tag":{"amenity":"waste_basket"}},"type":"Feature"},
	{"geometry":{"coordinates":[8.670528,50.094064],"type":"Point"},"properties":{"osm_id":"3933431212","tag":{"amenity":"waste_basket"}},"type":"Feature"},
	{"geometry":{"coordinates":[8.670598,50.094095],"type":"Point"},"properties":{"osm_id":"3933431214","tag":{"amenity":"waste_basket"}},"type":"Feature"},
	{"geometry":{"coordinates":[8.670748,50.094127],"type":"Point"},"properties":{"osm_id":"3933431220","tag":{"amenity":"waste_basket"}},"type":"Feature"},
	{"geometry":{"coordinates":[8.670721,50.094157],"type":"Point"},"properties":{"osm_id":"3933431224","tag":{"amenity":"waste_basket"}},"type":"Feature"},
	{"geometry":{"coordinates":[8.670257,50.082938],"type":"Point"},"properties":{"osm_id":"3933431374","tag":{"amenity":"waste_basket"}},"type":"Feature"},
	{"geometry":{"coordinates":[8.670343,50.083426],"type":"Point"},"properties":{"osm_id":"3933431390","tag":{"amenity":"waste_basket"}},"type":"Feature"},
	{"geometry":{"coordinates":[8.670394,50.083754],"type":"Point"},"properties":{"osm_id":"3933431406","tag":{"amenity":"waste_basket"}},"type":"Feature"},
	{"geometry":{"coordinates":[8.670404,50.084038],"type":"Point"},"properties":{"osm_id":"3933431410","tag":{"amenity":"waste_basket"}},"type":"Feature"},
	{"geometry":{"coordinates":[8.670433,50.084206],"type":"Point"},"properties":{"osm_id":"3933431417","tag":{"amenity":"waste_basket"}},"type":"Feature"},
	{"geometry":{"coordinates":[8.671184,50.094307],"type":"Point"},"properties":{"osm_id":"3933431619","tag":{"amenity":"waste_basket","level":"1"}},"type":"Feature"},
	{"geometry":{"coordinates":[8.671157,50.094337],"type":"Point"},"properties":{"osm_id":"3933431622","tag":{"amenity":"waste_basket","level":"1"}},"type":"Feature"},
	{"geometry":{"coordinates":[8.671394,50.094391],"type":"Point"},"properties":{"osm_id":"3933431636","tag":{"amenity":"waste_basket"}},"type":"Feature"},
	{"geometry":{"coordinates":[8.671367,50.09442],"type":"Point"},"properties":{"osm_id":"3933431640","tag":{"amenity":"waste_basket"}},"type":"Feature"},
	{"geometry":{"coordinates":[8.671764,50.094524],"type":"Point"},"properties":{"osm_id":"3933431655","tag":{"amenity":"waste_basket"}},"type":"Feature"},
	{"geometry":{"coordinates":[8.671741,50.094548],"type":"Point"},"properties":{"osm_id":"3933431657","tag":{"amenity":"waste_basket"}},"type":"Feature"},
	{"geometry":{"coordinates":[8.661739,50.112982],"type":"Point"},"properties":{"osm_id":"4131026352","tag":{"amenity":"waste_basket"}},"type":"Feature"},
	{"geometry":{"coordinates":[8.658129,50.113866],"type":"Point"},"properties":{"osm_id":"4131026357","tag":{"amenity":"waste_basket"}},"type":"Feature"},
	{"geometry":{"coordinates":[8.658628,50.114616],"type":"Point"},"properties":{"osm_id":"4131026359","tag":{"amenity":"waste_basket"}},"type":"Feature"},
	{"geometry":{"coordinates":[8.680119,50.101671],"type":"Point"},"properties":{"osm_id":"4193528612","tag":{"amenity":"recycling","location":"overground","recycling_type":"container"}},"type":"Feature"},
	{"geometry":{"coordinates":[8.656719,50.090738],"type":"Point"},"properties":{"osm_id":"4342220123","tag":{"amenity":"waste_basket"}},"type":"Feature"},
	{"geometry":{"coordinates":[8.657602,50.090833],"type":"Point"},"properties":{"osm_id":"4342223276","tag":{"amenity":"waste_basket"}},"type":"Feature"},
	{"geometry":{"coordinates":[8.657203,50.090784],"type":"Point"},"properties":{"osm_id":"4342223813","tag":{"amenity":"waste_basket"}},"type":"Feature"},
	{"geometry":{"coordinates":[8.657893,50.090852],"type":"Point"},"properties":{"osm_id":"4342224732","tag":{"amenity":"waste_basket"}},"type":"Feature"},
	{"geometry":{"coordinates":[8.658199,50.090728],"type":"Point"},"properties":{"osm_id":"4342226929","tag":{"amenity":"waste_basket"}},"type":"Feature"},
	{"geometry":{"coordinates":[8.672523,50.093594],"type":"Point"},"properties":{"osm_id":"4350553122","tag":{"amenity":"recycling","recycling_type":"container"}},"type":"Feature"},
	{"geometry":{"coordinates":[8.673219,50.097177],"type":"Point"},"properties":{"osm_id":"4358175295","tag":{"amenity":"waste_basket"}},"type":"Feature"},
	{"geometry":{"coordinates":[8.673393,50.097162],"type":"Point"},"properties":{"osm_id":"4358175296","tag":{"amenity":"waste_basket"}},"type":"Feature"},
	{"geometry":{"coordinates":[8.646178,50.093457],"type":"Point"},"properties":{"osm_id":"4361449934","tag":{"amenity":"waste_basket"}},"type":"Feature"},
	{"geometry":{"coordinates":[8.647692,50.093624],"type":"Point"},"properties":{"osm_id":"4361449935","tag":{"amenity":"waste_basket"}},"type":"Feature"},
	{"geometry":{"coordinates":[8.647834,50.093681],"type":"Point"},"properties":{"osm_id":"4361449937","tag":{"amenity":"waste_basket"}},"type":"Feature"},
	{"geometry":{"coordinates":[8.647828,50.093829],"type":"Point"},"properties":{"osm_id":"4361449946","tag":{"amenity":"waste_basket"}},"type":"Feature"},
	{"geometry":{"coordinates":[8.647392,50.093911],"type":"Point"},"properties":{"osm_id":"4361449950","tag":{"amenity":"waste_basket"}},"type":"Feature"},
	{"geometry":{"coordinates":[8.649137,50.093985],"type":"Point"},"properties":{"osm_id":"4361449953","tag":{"amenity":"waste_basket"}},"type":"Feature"},
	{"geometry":{"coordinates":[8.648753,50.094025],"type":"Point"},"properties":{"osm_id":"4361449956","tag":{"amenity":"waste_basket"}},"type":"Feature"},
	{"geometry":{"coordinates":[8.64966,50.094117],"type":"Point"},"properties":{"osm_id":"4361449961","tag":{"amenity":"waste_basket"}},"type":"Feature"},
	{"geometry":{"coordinates":[8.650022,50.094156],"type":"Point"},"properties":{"osm_id":"4361449963","tag":{"amenity":"waste_basket"}},"type":"Feature"},
	{"geometry":{"coordinates":[8.650545,50.094206],"type":"Point"},"properties":{"osm_id":"4361449966","tag":{"amenity":"waste_basket"}},"type":"Feature"},
	{"geometry":{"coordinates":[8.651049,50.094298],"type":"Point"},"properties":{"osm_id":"4361449969","tag":{"amenity":"waste_basket"}},"type":"Feature"},
	{"geometry":{"coordinates":[8.651209,50.094329],"type":"Point"},"properties":{"osm_id":"4361449970","tag":{"amenity":"waste_basket"}},"type":"Feature"},
	{"geometry":{"coordinates":[8.651593,50.094362],"type":"Point"},"properties":{"osm_id":"4361449973","tag":{"amenity":"waste_basket"}},"type":"Feature"},
	{"geometry":{"coordinates":[8.652019,50.094483],"type":"Point"},"properties":{"osm_id":"4361449978","tag":{"amenity":"waste_basket"}},"type":"Feature"},
	{"geometry":{"coordinates":[8.652294,50.094535],"type":"Point"},"properties":{"osm_id":"4361449981","tag":{"amenity":"waste_basket"}},"type":"Feature"},
	{"geometry":{"coordinates":[8.661819,50.112964],"type":"Point"},"properties":{"osm_id":"4405559005","tag":{"amenity":"recycling","operator":"FES","recycling:glass_bottles":"yes","recycling_type":"container"}},"type":"Feature"},
	{"geometry":{"coordinates":[8.661802,50.113204],"type":"Point"},"properties":{"osm_id":"4405559009","tag":{"amenity":"waste_basket"}},"type":"Feature"},
	{"geometry":{"coordinates":[8.661615,50.113234],"type":"Point"},"properties":{"osm_id":"4405559010","tag":{"amenity":"waste_basket"}},"type":"Feature"},
	{"geometry":{"coordinates":[8.661873,50.113276],"type":"Point"},"properties":{"osm_id":"4405559012","tag":{"amenity":"waste_basket"}},"type":"Feature"},
	{"geometry":{"coordinates":[8.662254,50.113375],"type":"Point"},"properties":{"osm_id":"4405559019","tag":{"amenity":"waste_basket"}},"type":"Feature"},
	{"geometry":{"coordinates":[8.697787,50.111176],"type":"Point"},"properties":{"osm_id":"4687773963","tag":{"amenity":"waste_basket"}},"type":"Feature"},
	{"geometry":{"coordinates":[8.69557,50.102383],"type":"Point"},"properties":{"osm_id":"4753659782","tag":{"amenity":"recycling","location":"overground","recycling:clothes":"yes","recycling_type":"container"}},"type":"Feature"},
	{"geometry":{"coordinates":[8.621733,50.100795],"type":"Point"},"properties":{"osm_id":"4843341448","tag":{"amenity":"recycling","recycling:glass_bottles":"yes","recycling_type":"container"}},"type":"Feature"},
	{"geometry":{"coordinates":[8.666225,50.101987],"type":"Point"},"properties":{"osm_id":"4873051839","tag":{"amenity":"waste_basket"}},"type":"Feature"},
	{"geometry":{"coordinates":[8.666802,50.101914],"type":"Point"},"properties":{"osm_id":"4873051851","tag":{"amenity":"waste_basket"}},"type":"Feature"},
	{"geometry":{"coordinates":[8.686346,50.114779],"type":"Point"},"properties":{"osm_id":"5133756829","tag":{"amenity":"waste_basket","level":"0"}},"type":"Feature"},
	{"geometry":{"coordinates":[8.68755,50.114783],"type":"Point"},"properties":{"osm_id":"5133756832","tag":{"amenity":"waste_basket","lastcheck":"2018-01-19","level":"0"}},"type":"Feature"},
	{"geometry":{"coordinates":[8.687575,50.114706],"type":"Point"},"properties":{"osm_id":"5133756833","tag":{"amenity":"waste_basket","lastcheck":"2018-01-19","level":"0"}},"type":"Feature"},
	{"geometry":{"coordinates":[8.686315,50.114584],"type":"Point"},"properties":{"osm_id":"5133756836","tag":{"amenity":"waste_basket","level":"0"}},"type":"Feature"},
	{"geometry":{"coordinates":[8.686317,50.114552],"type":"Point"},"properties":{"osm_id":"5133756837","tag":{"amenity":"waste_basket","level":"0"}},"type":"Feature"},
	{"geometry":{"coordinates":[8.686313,50.114617],"type":"Point"},"properties":{"osm_id":"5133756838","tag":{"amenity":"waste_basket","level":"0"}},"type":"Feature"},
	{"geometry":{"coordinates":[8.690592,50.101608],"type":"Point"},"properties":{"osm_id":"5167108973","tag":{"amenity":"recycling","recycling:clothes":"yes","recycling:glass_bottles":"yes","recycling_type":"container"}},"type":"Feature"},
	{"geometry":{"coordinates":[8.695964,50.110788],"type":"Point"},"properties":{"osm_id":"5273559318","tag":{"amenity":"waste_basket"}},"type":"Feature"},
	{"geometry":{"coordinates":[8.697025,50.11102],"type":"Point"},"properties":{"osm_id":"5273559319","tag":{"amenity":"waste_basket"}},"type":"Feature"},
	{"geometry":{"coordinates":[8.694841,50.110548],"type":"Point"},"properties":{"osm_id":"5273565025","tag":{"amenity":"waste_disposal"}},"type":"Feature"},
	{"geometry":{"coordinates":[8.690786,50.088085],"type":"Point"},"properties":{"osm_id":"5354704160","tag":{"amenity":"recycling","recycling:clothes":"yes","recycling:glass_bottles":"yes","recycling_type":"container"}},"type":"Feature"},
	{"geometry":{"coordinates":[8.700855,50.113891],"type":"Point"},"properties":{"osm_id":"5470798378","tag":{"amenity":"recycling","recycling:glass_bottles":"yes","recycling_type":"container"}},"type":"Feature"},
	{"geometry":{"coordinates":[8.686801,50.103369],"type":"Point"},"properties":{"osm_id":"5518309808","tag":{"amenity":"recycling","recycling:glass_bottles":"yes","recycling_type":"container"}},"type":"Feature"},
	{"geometry":{"coordinates":[8.661518,50.104697],"type":"Point"},"properties":{"osm_id":"5683092927","tag":{"amenity":"recycling","opening_hours":"24/7","recycling:glass_bottles":"yes","recycling_type":"container"}},"type":"Feature"},
	{"geometry":{"coordinates":[8.679169,50.105886],"type":"Point"},"properties":{"osm_id":"5695862033","tag":{"amenity":"waste_basket"}},"type":"Feature"},
	{"geometry":{"coordinates":[8.679824,50.106151],"type":"Point"},"properties":{"osm_id":"5695862034","tag":{"amenity":"waste_basket"}},"type":"Feature"},
	{"geometry":{"coordinates":[8.680599,50.106476],"type":"Point"},"properties":{"osm_id":"5695862035","tag":{"amenity":"waste_basket"}},"type":"Feature"},
	{"geometry":{"coordinates":[8.675898,50.104559],"type":"Point"},"properties":{"osm_id":"5696619105","tag":{"amenity":"waste_basket"}},"type":"Feature"},
	{"geometry":{"coordinates":[8.687627,50.114216],"type":"Point"},"properties":{"osm_id":"5776917145","tag":{"amenity":"waste_basket","level":"0"}},"type":"Feature"},
	{"geometry":{"coordinates":[8.687612,50.114535],"type":"Point"},"properties":{"osm_id":"5868972288","tag":{"amenity":"waste_basket","level":"0"}},"type":"Feature"},
	{"geometry":{"coordinates":[8.699086,50.116755],"type":"Point"},"properties":{"osm_id":"6054978502","tag":{"amenity":"recycling","location":"overground","recycling:glass_bottles":"yes","recycling_type":"container"}},"type":"Feature"},
	{"geometry":{"coordinates":[8.697347,50.115855],"type":"Point"},"properties":{"osm_id":"6207603055","tag":{"amenity":"recycling","location":"overground","recycling:glass_bottles":"yes","recycling_type":"container"}},"type":"Feature"},
	{"geometry":{"coordinates":[8.686195,50.119295],"type":"Point"},"properties":{"osm_id":"6257357807","tag":{"amenity":"waste_basket"}},"type":"Feature"},
	{"geometry":{"coordinates":[8.683595,50.117037],"type":"Point"},"properties":{"osm_id":"6257392047","tag":{"amenity":"waste_basket"}},"type":"Feature"},
	{"geometry":{"coordinates":[8.669888,50.105495],"type":"Point"},"properties":{"osm_id":"6270059634","tag":{"amenity":"recycling","recycling:clothes":"yes","recycling_type":"container"}},"type":"Feature"},
	{"geometry":{"coordinates":[8.661153,50.111715],"type":"Point"},"properties":{"osm_id":"6278301178","tag":{"amenity":"recycling","location":"overground","recycling:clothes":"yes","recycling_type":"container"}},"type":"Feature"},
	{"geometry":{"coordinates":[8.696917,50.118416],"type":"Point"},"properties":{"osm_id":"6284198769","tag":{"amenity":"recycling","location":"overground","recycling:glass_bottles":"yes","recycling_type":"container"}},"type":"Feature"},
	{"geometry":{"coordinates":[8.617547,50.084465],"type":"Point"},"properties":{"osm_id":"6304510544","tag":{"amenity":"recycling","recycling:glass_bottles":"yes","recycling_type":"container"}},"type":"Feature"},
	{"geometry":{"coordinates":[8.617486,50.084655],"type":"Point"},"properties":{"osm_id":"6304510545","tag":{"amenity":"recycling","location":"overground","operator":"DRK Frankfurt","recycling:clothes":"yes","recycling_type":"container"}},"type":"Feature"},
	{"geometry":{"coordinates":[8.624428,50.094969],"type":"Point"},"properties":{"osm_id":"6309145432","tag":{"amenity":"recycling","recycling:glass_bottles":"yes","recycling_type":"container"}},"type":"Feature"},
	{"geometry":{"coordinates":[8.626377,50.09902],"type":"Point"},"properties":{"osm_id":"6309145433","tag":{"amenity":"recycling","recycling:glass_bottles":"yes","recycling_type":"container"}},"type":"Feature"},
	{"geometry":{"coordinates":[8.625264,50.100889],"type":"Point"},"properties":{"osm_id":"6309145434","tag":{"amenity":"recycling","recycling:glass_bottles":"yes","recycling_type":"container"}},"type":"Feature"},
	{"geometry":{"coordinates":[8.629424,50.082776],"type":"Point"},"properties":{"osm_id":"6320631323","tag":{"amenity":"recycling","recycling:glass_bottles":"yes","recycling_type":"container"}},"type":"Feature"},
	{"geometry":{"coordinates":[8.65693,50.113744],"type":"Point"},"properties":{"osm_id":"6333365762","tag":{"amenity":"recycling","location":"overground","recycling:clothes":"yes","recycling_type":"container"}},"type":"Feature"},
	{"geometry":{"coordinates":[8.656934,50.113727],"type":"Point"},"properties":{"osm_id":"6333365853","tag":{"amenity":"recycling","location":"overground","recycling:glass":"yes","recycling_type":"container"}},"type":"Feature"},
	{"geometry":{"coordinates":[8.613756,50.091198],"type":"Point"},"properties":{"osm_id":"6334230959","tag":{"amenity":"recycling","recycling:glass_bottles":"yes","recycling_type":"container"}},"type":"Feature"},
	{"geometry":{"coordinates":[8.628697,50.084492],"type":"Point"},"properties":{"osm_id":"6337601378","tag":{"amenity":"recycling","recycling:glass_bottles":"yes","recycling_type":"container"}},"type":"Feature"},
	{"geometry":{"coordinates":[8.694262,50.110541],"type":"Point"},"properties":{"osm_id":"6343412465","tag":{"amenity":"recycling","recycling:glass_bottles":"yes","recycling_type":"container"}},"type":"Feature"},
	{"geometry":{"coordinates":[8.638996,50.12013],"type":"Point"},"properties":{"osm_id":"6346530990","tag":{"amenity":"recycling","recycling:clothes":"yes","recycling_type":"container"}},"type":"Feature"},
	{"geometry":{"coordinates":[8.640007,50.119246],"type":"Point"},"properties":{"osm_id":"6346535555","tag":{"amenity":"recycling","recycling:glass_bottles":"yes","recycling_type":"container"}},"type":"Feature"},
	{"geometry":{"coordinates":[8.659128,50.119056],"type":"Point"},"properties":{"osm_id":"6348305982","tag":{"amenity":"recycling","location":"overground","recycling:clothes":"yes","recycling_type":"container"}},"type":"Feature"},
	{"geometry":{"coordinates":[8.659099,50.119023],"type":"Point"},"properties":{"osm_id":"6348305983","tag":{"amenity":"recycling","location":"overground","recycling:glass_bottles":"yes","recycling_type":"container"}},"type":"Feature"},
	{"geometry":{"coordinates":[8.687626,50.114901],"type":"Point"},"properties":{"osm_id":"6349788587","tag":{"amenity":"recycling","location":"overground","recycling:glass_bottles":"yes","recycling_type":"container"}},"type":"Feature"},
	{"geometry":{"coordinates":[8.694929,50.115659],"type":"Point"},"properties":{"osm_id":"6355945504","tag":{"amenity":"recycling","location":"overground","recycling:glass_bottles":"yes","recycling_type":"container"}},"type":"Feature"},
	{"geometry":{"coordinates":[8.692853,50.115267],"type":"Point"},"properties":{"osm_id":"6355945511","tag":{"amenity":"recycling","location":"overground","recycling:clothes":"yes","recycling_type":"container"}},"type":"Feature"},
	{"geometry":{"coordinates":[8.692889,50.115244],"type":"Point"},"properties":{"osm_id":"6355945512","tag":{"amenity":"recycling","location":"overground","recycling:glass_bottles":"yes","recycling_type":"container"}},"type":"Feature"},
	{"geometry":{"coordinates":[8.692374,50.114829],"type":"Point"},"properties":{"osm_id":"6355945515","tag":{"amenity":"recycling","location":"overground","recycling:glass_bottles":"yes","recycling_type":"container"}},"type":"Feature"},
	{"geometry":{"coordinates":[8.689425,50.11487],"type":"Point"},"properties":{"osm_id":"6355945529","tag":{"amenity":"recycling","location":"overground","recycling:glass_bottles":"yes","recycling_type":"container"}},"type":"Feature"},
	{"geometry":{"coordinates":[8.627938,50.097112],"type":"Point"},"properties":{"osm_id":"6374264299","tag":{"amenity":"recycling","recycling:glass_bottles":"yes","recycling_type":"container"}},"type":"Feature"},
	{"geometry":{"coordinates":[8.649277,50.116644],"type":"Point"},"properties":{"osm_id":"6374364896","tag":{"amenity":"waste_basket"}},"type":"Feature"},
	{"geometry":{"coordinates":[8.692435,50.113244],"type":"Point"},"properties":{"osm_id":"6383409789","tag":{"amenity":"recycling","location":"overground","recycling:clothes":"yes","recycling_type":"container"}},"type":"Feature"},
	{"geometry":{"coordinates":[8.675928,50.100526],"type":"Point"},"properties":{"osm_id":"6385712224","tag":{"amenity":"recycling","location":"overground","recycling:glass_bottles":"yes","recycling_type":"container"}},"type":"Feature"},
	{"geometry":{"coordinates":[8.675945,50.100517],"type":"Point"},"properties":{"osm_id":"6385712225","tag":{"amenity":"recycling","location":"overground","recycling:clothes":"yes","recycling_type":"container"}},"type":"Feature"},
	{"geometry":{"coordinates":[8.650655,50.119231],"type":"Point"},"properties":{"osm_id":"6400695509","tag":{"amenity":"waste_basket"}},"type":"Feature"},
	{"geometry":{"coordinates":[8.688211,50.110947],"type":"Point"},"properties":{"osm_id":"6402472231","tag":{"amenity":"recycling","location":"overground","recycling:glass_bottles":"yes","recycling_type":"container"}},"type":"Feature"},
	{"geometry":{"coordinates":[8.649582,50.118574],"type":"Point"},"properties":{"osm_id":"6413821368","tag":{"amenity":"waste_basket"}},"type":"Feature"},
	{"geometry":{"coordinates":[8.649812,50.118077],"type":"Point"},"properties":{"osm_id":"6413822542","tag":{"amenity":"waste_basket"}},"type":"Feature"},
	{"geometry":{"coordinates":[8.649691,50.117938],"type":"Point"},"properties":{"osm_id":"6413822548","tag":{"amenity":"waste_basket"}},"type":"Feature"},
	{"geometry":{"coordinates":[8.649667,50.11777],"type":"Point"},"properties":{"osm_id":"6413826645","tag":{"amenity":"waste_basket"}},"type":"Feature"},
	{"geometry":{"coordinates":[8.649401,50.117056],"type":"Point"},"properties":{"osm_id":"6413835202","tag":{"amenity":"waste_basket","waste":"trash;cigarettes"}},"type":"Feature"},
	{"geometry":{"coordinates":[8.649173,50.116888],"type":"Point"},"properties":{"osm_id":"6413842530","tag":{"amenity":"waste_basket"}},"type":"Feature"},
	{"geometry":{"coordinates":[8.649826,50.117052],"type":"Point"},"properties":{"osm_id":"6413848366","tag":{"amenity":"waste_basket","waste":"trash;cigarettes"}},"type":"Feature"},
	{"geometry":{"coordinates":[8.651297,50.120416],"type":"Point"},"properties":{"osm_id":"6423922098","tag":{"amenity":"waste_basket"}},"type":"Feature"},
	{"geometry":{"coordinates":[8.650194,50.118333],"type":"Point"},"properties":{"osm_id":"6429001216","tag":{"amenity":"waste_basket"}},"type":"Feature"},
	{"geometry":{"coordinates":[8.649914,50.116804],"type":"Point"},"properties":{"osm_id":"6432509283","tag":{"amenity":"waste_basket","waste":"trash;cigarettes"}},"type":"Feature"},
	{"geometry":{"coordinates":[8.683346,50.115597],"type":"Point"},"properties":{"osm_id":"6436238018","tag":{"amenity":"recycling","location":"overground","recycling:glass_bottles":"yes","recycling_type":"container"}},"type":"Feature"},
	{"geometry":{"coordinates":[8.688285,50.11368],"type":"Point"},"properties":{"osm_id":"6483364527","tag":{"amenity":"recycling","location":"overground","recycling:glass_bottles":"yes","recycling_type":"container"}},"type":"Feature"},
	{"geometry":{"coordinates":[8.692599,50.111089],"type":"Point"},"properties":{"osm_id":"6483364528","tag":{"amenity":"recycling","location":"overground","recycling:glass_bottles":"yes","recycling_type":"container"}},"type":"Feature"},
	{"geometry":{"coordinates":[8.67805,50.110155],"type":"Point"},"properties":{"osm_id":"6504183119","tag":{"amenity":"waste_basket"}},"type":"Feature"},
	{"geometry":{"coordinates":[8.679516,50.111344],"type":"Point"},"properties":{"osm_id":"6504183120","tag":{"amenity":"waste_basket"}},"type":"Feature"},
	{"geometry":{"coordinates":[8.679521,50.112169],"type":"Point"},"properties":{"osm_id":"6504183121","tag":{"amenity":"waste_basket"}},"type":"Feature"},
	{"geometry":{"coordinates":[8.679551,50.112764],"type":"Point"},"properties":{"osm_id":"6504183122","tag":{"amenity":"waste_basket"}},"type":"Feature"},
	{"geometry":{"coordinates":[8.679853,50.112628],"type":"Point"},"properties":{"osm_id":"6504183123","tag":{"amenity":"waste_basket"}},"type":"Feature"},
	{"geometry":{"coordinates":[8.686226,50.115673],"type":"Point"},"properties":{"osm_id":"6504183124","tag":{"amenity":"waste_basket"}},"type":"Feature"},
	{"geometry":{"coordinates":[8.68057,50.110691],"type":"Point"},"properties":{"osm_id":"6504183136","tag":{"amenity":"waste_basket"}},"type":"Feature"},
	{"geometry":{"coordinates":[8.678244,50.110101],"type":"Point"},"properties":{"osm_id":"6504183317","tag":{"amenity":"waste_basket"}},"type":"Feature"},
	{"geometry":{"coordinates":[8.67916,50.111676],"type":"Point"},"properties":{"osm_id":"6504183318","tag":{"amenity":"waste_basket"}},"type":"Feature"},
	{"geometry":{"coordinates":[8.679641,50.112584],"type":"Point"},"properties":{"osm_id":"6504183319","tag":{"amenity":"waste_basket"}},"type":"Feature"},
	{"geometry":{"coordinates":[8.679734,50.112802],"type":"Point"},"properties":{"osm_id":"6504183320","tag":{"amenity":"waste_basket"}},"type":"Feature"},
	{"geometry":{"coordinates":[8.683471,50.11435],"type":"Point"},"properties":{"osm_id":"6504183372","tag":{"amenity":"waste_basket"}},"type":"Feature"},
	{"geometry":{"coordinates":[8.681048,50.111425],"type":"Point"},"properties":{"osm_id":"6504183373","tag":{"amenity":"waste_basket"}},"type":"Feature"},
	{"geometry":{"coordinates":[8.678105,50.110045],"type":"Point"},"properties":{"osm_id":"6504183397","tag":{"amenity":"waste_basket"}},"type":"Feature"},
	{"geometry":{"coordinates":[8.679591,50.113469],"type":"Point"},"properties":{"osm_id":"6504183523","tag":{"amenity":"waste_basket"}},"type":"Feature"},
	{"geometry":{"coordinates":[8.679865,50.113599],"type":"Point"},"properties":{"osm_id":"6504183524","tag":{"amenity":"waste_basket"}},"type":"Feature"},
	{"geometry":{"coordinates":[8.679545,50.113681],"type":"Point"},"properties":{"osm_id":"6504183525","tag":{"amenity":"waste_basket"}},"type":"Feature"},
	{"geometry":{"coordinates":[8.679088,50.114132],"type":"Point"},"properties":{"osm_id":"6504183526","tag":{"amenity":"waste_basket"}},"type":"Feature"},
	{"geometry":{"coordinates":[8.680026,50.113973],"type":"Point"},"properties":{"osm_id":"6504183527","tag":{"amenity":"waste_basket"}},"type":"Feature"},
	{"geometry":{"coordinates":[8.686304,50.115815],"type":"Point"},"properties":{"osm_id":"6504183528","tag":{"amenity":"waste_basket"}},"type":"Feature"},
	{"geometry":{"coordinates":[8.68083,50.113248],"type":"Point"},"properties":{"osm_id":"6504183536","tag":{"amenity":"waste_basket"}},"type":"Feature"},
	{"geometry":{"coordinates":[8.675216,50.110773],"type":"Point"},"properties":{"osm_id":"6506737353","tag":{"amenity":"waste_basket"}},"type":"Feature"},
	{"geometry":{"coordinates":[8.67779,50.109609],"type":"Point"},"properties":{"osm_id":"6506737826","tag":{"amenity":"waste_basket"}},"type":"Feature"},
	{"geometry":{"coordinates":[8.68204,50.112256],"type":"Point"},"properties":{"osm_id":"6641797258","tag":{"amenity":"waste_basket"}},"type":"Feature"},
	{"geometry":{"coordinates":[8.649691,50.118371],"type":"Point"},"properties":{"osm_id":"6878718985","tag":{"amenity":"waste_basket"}},"type":"Feature"},
	{"geometry":{"coordinates":[8.671151,50.089396],"type":"Point"},"properties":{"osm_id":"6894689279","tag":{"amenity":"recycling","recycling:glass":"yes","recycling_type":"container"}},"type":"Feature"},
	{"geometry":{"coordinates":[8.652593,50.090862],"type":"Point"},"properties":{"osm_id":"6903108045","tag":{"amenity":"recycling","recycling:glass":"yes","recycling:glass_bottles":"yes","recycling_type":"container"}},"type":"Feature"},
	{"geometry":{"coordinates":[8.662439,50.105222],"type":"Point"},"properties":{"osm_id":"7086750778","tag":{"amenity":"waste_basket","colour":"blue","operator":"FES","waste":"trash"}},"type":"Feature"},
	{"geometry":{"coordinates":[8.662168,50.105127],"type":"Point"},"properties":{"osm_id":"7086795185","tag":{"amenity":"waste_basket","colour":"green","waste":"trash"}},"type":"Feature"},
	{"geometry":{"coordinates":[8.662801,50.105426],"type":"Point"},"properties":{"osm_id":"7086795195","tag":{"amenity":"waste_basket","colour":"green","waste":"trash"}},"type":"Feature"},
	{"geometry":{"coordinates":[8.662247,50.10516],"type":"Point"},"properties":{"osm_id":"7086795196","tag":{"amenity":"waste_basket","colour":"green","waste":"trash"}},"type":"Feature"},
	{"geometry":{"coordinates":[8.664265,50.105887],"type":"Point"},"properties":{"osm_id":"7086795214","tag":{"amenity":"waste_basket","colour":"green","waste":"trash"}},"type":"Feature"},
	{"geometry":{"coordinates":[8.663968,50.105783],"type":"Point"},"properties":{"osm_id":"7086795217","tag":{"amenity":"waste_basket","colour":"blue","operator":"FES","waste":"trash"}},"type":"Feature"},
	{"geometry":{"coordinates":[8.664228,50.105876],"type":"Point"},"properties":{"osm_id":"7086795218","tag":{"amenity":"waste_basket","colour":"green","waste":"trash"}},"type":"Feature"},
	{"geometry":{"coordinates":[8.650322,50.119709],"type":"Point"},"properties":{"osm_id":"7133588140","tag":{"amenity":"waste_basket"}},"type":"Feature"},
	{"geometry":{"coordinates":[8.650073,50.119189],"type":"Point"},"properties":{"osm_id":"7133601363","tag":{"amenity":"waste_basket"}},"type":"Feature"},
	{"geometry":{"coordinates":[8.650154,50.116804],"type":"Point"},"properties":{"osm_id":"7146420669","tag":{"amenity":"waste_basket"}},"type":"Feature"},
	{"geometry":{"coordinates":[8.629306,50.106319],"type":"Point"},"properties":{"osm_id":"7178916080","tag":{"amenity":"recycling","recycling:glass_bottles":"yes","recycling_type":"container"}},"type":"Feature"},
	{"geometry":{"coordinates":[8.650218,50.120032],"type":"Point"},"properties":{"osm_id":"7187107190","tag":{"amenity":"recycling","operator":"Deutsches Rotes Kreuz","recycling:clothes":"yes","recycling:shoes":"yes","recycling_type":"container"}},"type":"Feature"},
	{"geometry":{"coordinates":[8.631474,50.112298],"type":"Point"},"properties":{"osm_id":"7197775263","tag":{"amenity":"recycling","recycling:glass":"no","recycling:glass_bottles":"yes","recycling_type":"container"}},"type":"Feature"},
	{"geometry":{"coordinates":[8.685136,50.095143],"type":"Point"},"properties":{"osm_id":"7198946147","tag":{"amenity":"recycling","recycling:glass_bottles":"yes","recycling_type":"container","wheelchair":"yes"}},"type":"Feature"},
	{"geometry":{"coordinates":[8.643968,50.105897],"type":"Point"},"properties":{"osm_id":"7230266137","tag":{"amenity":"waste_basket","waste":"trash"}},"type":"Feature"},
	{"geometry":{"coordinates":[8.64395,50.105729],"type":"Point"},"properties":{"osm_id":"7230310060","tag":{"amenity":"waste_basket","waste":"trash"}},"type":"Feature"},
	{"geometry":{"coordinates":[8.686062,50.095457],"type":"Point"},"properties":{"osm_id":"7236981886","tag":{"access":"private","amenity":"recycling","operator":"FES","recycling:cardboard":"yes","recycling:paper":"yes","recycling:plastic_packaging":"yes","recycling:waste":"yes","recycling_type":"container","wheelchair":"yes"}},"type":"Feature"},
	{"geometry":{"coordinates":[8.685307,50.095198],"type":"Point"},"properties":{"osm_id":"7236981893","tag":{"amenity":"recycling","operator":"FES","recycling:cardboard":"yes","recycling:paper":"yes","recycling_type":"container"}},"type":"Feature"},
	{"geometry":{"coordinates":[8.685518,50.094838],"type":"Point"},"properties":{"osm_id":"7236981894","tag":{"amenity":"recycling","operator":"FES","recycling:cardboard":"yes","recycling:paper":"yes","recycling_type":"container"}},"type":"Feature"},
	{"geometry":{"coordinates":[8.684475,50.094943],"type":"Point"},"properties":{"osm_id":"7236981895","tag":{"access":"private","amenity":"recycling","operator":"FES","recycling:cardboard":"yes","recycling:paper":"yes","recycling:plastic_packaging":"yes","recycling:waste":"yes","recycling_type":"container","wheelchair":"yes"}},"type":"Feature"},
	{"geometry":{"coordinates":[8.671211,50.089818],"type":"Point"},"properties":{"osm_id":"7319256876","tag":{"amenity":"recycling","recycling:glass_bottles":"yes","recycling_type":"container"}},"type":"Feature"},
	{"geometry":{"coordinates":[8.671885,50.088031],"type":"Point"},"properties":{"osm_id":"7319295170","tag":{"amenity":"recycling","recycling:glass_bottles":"yes","recycling_type":"container"}},"type":"Feature"},
	{"geometry":{"coordinates":[8.66879,50.119266],"type":"Point"},"properties":{"osm_id":"7348469054","tag":{"amenity":"recycling","recycling:glass":"yes","recycling_type":"container"}},"type":"Feature"},
	{"geometry":{"coordinates":[8.649084,50.116962],"type":"Point"},"properties":{"osm_id":"7553310249","tag":{"amenity":"waste_basket","waste":"trash"}},"type":"Feature"},
	{"geometry":{"coordinates":[8.653807,50.118147],"type":"Point"},"properties":{"osm_id":"7553380235","tag":{"amenity":"waste_basket","waste":"trash"}},"type":"Feature"},
	{"geometry":{"coordinates":[8.631427,50.108564],"type":"Point"},"properties":{"osm_id":"7577412366","tag":{"amenity":"recycling","location":"overground","opening_hours":"Mo-Sa 07:00-19:00; PH closed","recycling:glass_bottles":"yes","recycling_type":"container"}},"type":"Feature"},
	{"geometry":{"coordinates":[8.624352,50.108288],"type":"Point"},"properties":{"osm_id":"7577471627","tag":{"amenity":"recycling","opening_hours":"Mo-Sa 07:00-19:00; PH closed","recycling:glass_bottles":"yes","recycling_type":"container","wheelchair":"no"}},"type":"Feature"},
	{"geometry":{"coordinates":[8.626315,50.111034],"type":"Point"},"properties":{"osm_id":"7602563470","tag":{"amenity":"waste_basket"}},"type":"Feature"},
	{"geometry":{"coordinates":[8.689462,50.104773],"type":"Point"},"properties":{"osm_id":"7773496168","tag":{"access":"yes","amenity":"waste_disposal","waste":"glass"}},"type":"Feature"},
	{"geometry":{"coordinates":[8.699018,50.11324],"type":"Point"},"properties":{"osm_id":"7811791202","tag":{"access":"yes","amenity":"waste_basket","waste":"trash;cigarettes"}},"type":"Feature"}
]
}
