{
"type": "FeatureCollection",
"features": [
	{"geometry":{"coordinates":[8.689808,50.013366],"type":"Point"},"properties":{"osm_id":"36117232","tag":{"amenity":"recycling","recycling:glass_bottles":"yes","recycling_type":"container"}},"type":"Feature"},
	{"geometry":{"coordinates":[8.695918,50.018959],"type":"Point"},"properties":{"osm_id":"347997076","tag":{"amenity":"waste_basket"}},"type":"Feature"},
	{"geometry":{"coordinates":[8.699058,50.017185],"type":"Point"},"properties":{"osm_id":"354871546","tag":{"amenity":"recycling","recycling:glass_bottles":"yes"}},"type":"Feature"},
	{"geometry":{"coordinates":[8.699018,50.017178],"type":"Point"},"properties":{"osm_id":"354871681","tag":{"amenity":"recycling","operator":"Deutsches Rotes Kreuz","recycling:clothes":"yes"}},"type":"Feature"},
	{"geometry":{"coordinates":[8.69832,50.00942],"type":"Point"},"properties":{"osm_id":"354877449","tag":{"amenity":"recycling","recycling:glass_bottles":"yes"}},"type":"Feature"},
	{"geometry":{"coordinates":[8.698277,50.009321],"type":"Point"},"properties":{"osm_id":"354877464","tag":{"amenity":"recycling","operator":"Deutsches Rotes Kreuz","recycling:clothes":"yes"}},"type":"Feature"},
	{"geometry":{"coordinates":[8.695657,50.018993],"type":"Point"},"properties":{"osm_id":"355276643","tag":{"amenity":"waste_basket"}},"type":"Feature"},
	{"geometry":{"coordinates":[8.69546,50.018879],"type":"Point"},"properties":{"osm_id":"355276664","tag":{"amenity":"waste_basket"}},"type":"Feature"},
	{"geometry":{"coordinates":[8.690252,50.016513],"type":"Point"},"properties":{"osm_id":"355294964","tag":{"amenity":"waste_basket"}},"type":"Feature"},
	{"geometry":{"coordinates":[8.690648,50.016374],"type":"Point"},"properties":{"osm_id":"355295910","tag":{"amenity":"waste_basket"}},"type":"Feature"},
	{"geometry":{"coordinates":[8.69027,50.016628],"type":"Point"},"properties":{"osm_id":"355296213","tag":{"amenity":"waste_basket"}},"type":"Feature"},
	{"geometry":{"coordinates":[8.690373,50.016623],"type":"Point"},"properties":{"osm_id":"355296428","tag":{"amenity":"recycling","location":"overground","recycling:glass_bottles":"yes","recycling_type":"container"}},"type":"Feature"},
	{"geometry":{"coordinates":[8.687804,50.018922],"type":"Point"},"properties":{"osm_id":"356172290","tag":{"amenity":"recycling","recycling:glass_bottles":"yes"}},"type":"Feature"},
	{"geometry":{"coordinates":[8.687823,50.018911],"type":"Point"},"properties":{"osm_id":"356172331","tag":{"amenity":"recycling","operator":"Malteser Hilfsdienst","recycling:clothes":"yes"}},"type":"Feature"},
	{"geometry":{"coordinates":[8.687307,50.018928],"type":"Point"},"properties":{"osm_id":"356172739","tag":{"amenity":"waste_basket"}},"type":"Feature"},
	{"geometry":{"coordinates":[8.688603,50.018702],"type":"Point"},"properties":{"osm_id":"356173248","tag":{"amenity":"waste_basket"}},"type":"Feature"},
	{"geometry":{"coordinates":[8.687641,50.017704],"type":"Point"},"properties":{"osm_id":"356173438","tag":{"amenity":"waste_basket"}},"type":"Feature"},
	{"geometry":{"coordinates":[8.698039,50.018627],"type":"Point"},"properties":{"osm_id":"356890376","tag":{"amenity":"waste_basket"}},"type":"Feature"},
	{"geometry":{"coordinates":[8.697653,50.017838],"type":"Point"},"properties":{"osm_id":"356891151","tag":{"amenity":"waste_basket"}},"type":"Feature"},
	{"geometry":{"coordinates":[8.697558,50.016167],"type":"Point"},"properties":{"osm_id":"356891305","tag":{"amenity":"waste_basket"}},"type":"Feature"},
	{"geometry":{"coordinates":[8.696169,50.014239],"type":"Point"},"properties":{"osm_id":"356892051","tag":{"amenity":"waste_basket"}},"type":"Feature"},
	{"geometry":{"coordinates":[8.696683,50.012394],"type":"Point"},"properties":{"osm_id":"356893318","tag":{"amenity":"waste_basket"}},"type":"Feature"},
	{"geometry":{"coordinates":[8.7007,50.007877],"type":"Point"},"properties":{"osm_id":"356901877","tag":{"amenity":"recycling","location":"overground","recycling:glass_bottles":"yes","recycling_type":"container"}},"type":"Feature"},
	{"geometry":{"coordinates":[8.698483,50.009652],"type":"Point"},"properties":{"osm_id":"356901991","tag":{"amenity":"recycling","operator":"Deutsches Rotes Kreuz","recycling:shoes":"yes"}},"type":"Feature"},
	{"geometry":{"coordinates":[8.697714,50.024065],"type":"Point"},"properties":{"name":"Malteser","osm_id":"358897025","tag":{"amenity":"recycling","operator":"Malteser Hilfsdienst","recycling:clothes":"yes"}},"type":"Feature"},
	{"geometry":{"coordinates":[8.697731,50.024109],"type":"Point"},"properties":{"osm_id":"358897045","tag":{"amenity":"waste_basket"}},"type":"Feature"},
	{"geometry":{"coordinates":[8.692102,50.01995],"type":"Point"},"properties":{"osm_id":"358958323","tag":{"amenity":"recycling","location":"overground","recycling:glass_bottles":"yes","recycling_type":"container"}},"type":"Feature"},
	{"geometry":{"coordinates":[8.686179,50.024126],"type":"Point"},"properties":{"osm_id":"837192554","tag":{"amenity":"recycling","recycling:glass_bottles":"yes","recycling_type":"container"}},"type":"Feature"},
	{"geometry":{"coordinates":[8.692953,50.024454],"type":"Point"},"properties":{"osm_id":"837193754","tag":{"amenity":"recycling","location":"overground","recycling:glass_bottles":"yes","recycling_type":"container"}},"type":"Feature"},
	{"geometry":{"coordinates":[8.692942,50.0245],"type":"Point"},"properties":{"osm_id":"839700519","tag":{"amenity":"recycling","operator":"Deutsches Rotes Kreuz","recycling:clothes":"yes"}},"type":"Feature"},
	{"geometry":{"coordinates":[8.686129,50.024142],"type":"Point"},"properties":{"osm_id":"839700521","tag":{"amenity":"recycling","recycling:clothes":"yes","recycling_type":"container"}},"type":"Feature"},
	{"geometry":{"coordinates":[8.670038,50.055704],"type":"Point"},"properties":{"osm_id":"1124338182","tag":{"amenity":"recycling","recycling:clothes":"yes","recycling:glass":"yes","recycling_type":"container"}},"type":"Feature"},
	{"geometry":{"coordinates":[8.679236,50.054427],"type":"Point"},"properties":{"osm_id":"1247734291","tag":{"amenity":"recycling","recycling:clothes":"yes","recycling:glass":"yes","recycling_type":"container"}},"type":"Feature"},
	{"geometry":{"coordinates":[8.6702,50.05246],"type":"Point"},"properties":{"osm_id":"1247734296","tag":{"amenity":"recycling","recycling:clothes":"yes","recycling:glass":"yes","recycling_type":"container"}},"type":"Feature"},
	{"geometry":{"coordinates":[8.688842,50.052879],"type":"Point"},"properties":{"osm_id":"1610344395","tag":{"amenity":"recycling","recycling:clothes":"yes","recycling:glass":"yes","recycling_type":"container"}},"type":"Feature"},
	{"geometry":{"coordinates":[8.698173,50.052904],"type":"Point"},"properties":{"osm_id":"1784904574","tag":{"amenity":"waste_basket"}},"type":"Feature"},
	{"geometry":{"coordinates":[8.697756,50.053748],"type":"Point"},"properties":{"osm_id":"1784904635","tag":{"amenity":"waste_basket"}},"type":"Feature"},
	{"geometry":{"coordinates":[8.697843,50.052981],"type":"Point"},"properties":{"osm_id":"1793234096","tag":{"amenity":"waste_basket","support":"pole"}},"type":"Feature"},
	{"geometry":{"coordinates":[8.697948,50.054535],"type":"Point"},"properties":{"osm_id":"2334904670","tag":{"amenity":"recycling","recycling:glass_bottles":"yes","recycling_type":"container"}},"type":"Feature"},
	{"geometry":{"coordinates":[8.690084,50.033177],"type":"Point"},"properties":{"osm_id":"2987287381","tag":{"amenity":"recycling","location":"overground","recycling:clothes":"yes","recycling:glass":"yes","recycling_type":"container"}},"type":"Feature"},
	{"geometry":{"coordinates":[8.69094,50.031601],"type":"Point"},"properties":{"osm_id":"2987287770","tag":{"amenity":"recycling","recycling:clothes":"yes","recycling:glass":"yes"}},"type":"Feature"},
	{"geometry":{"coordinates":[8.695,50.034367],"type":"Point"},"properties":{"osm_id":"2994456446","tag":{"amenity":"recycling","recycling:clothes":"yes","recycling:glass":"yes"}},"type":"Feature"},
	{"geometry":{"coordinates":[8.661165,50.05806],"type":"Point"},"properties":{"osm_id":"2999889845","tag":{"amenity":"waste_basket"}},"type":"Feature"},
	{"geometry":{"coordinates":[8.670254,50.047702],"type":"Point"},"properties":{"osm_id":"3055691612","tag":{"amenity":"waste_basket","support":"pole"}},"type":"Feature"},
	{"geometry":{"coordinates":[8.662397,50.056634],"type":"Point"},"properties":{"osm_id":"3066795173","tag":{"amenity":"waste_basket"}},"type":"Feature"},
	{"geometry":{"coordinates":[8.661706,50.05733],"type":"Point"},"properties":{"osm_id":"3066795175","tag":{"amenity":"waste_basket"}},"type":"Feature"},
	{"geometry":{"coordinates":[8.658867,50.06264],"type":"Point"},"properties":{"osm_id":"3066795190","tag":{"amenity":"waste_basket"}},"type":"Feature"},
	{"geometry":{"coordinates":[8.677234,50.057122],"type":"Point"},"properties":{"osm_id":"3070578924","tag":{"amenity":"waste_basket"}},"type":"Feature"},
	{"geometry":{"coordinates":[8.692644,50.029183],"type":"Point"},"properties":{"osm_id":"3130974169","tag":{"amenity":"recycling","recycling:clothes":"yes","recycling:glass":"yes"}},"type":"Feature"},
	{"geometry":{"coordinates":[8.695227,50.031694],"type":"Point"},"properties":{"osm_id":"3145676106","tag":{"amenity":"waste_basket"}},"type":"Feature"},
	{"geometry":{"coordinates":[8.685827,50.050648],"type":"Point"},"properties":{"osm_id":"3171109730","tag":{"amenity":"recycling","recycling:glass":"yes","recycling_type":"container"}},"type":"Feature"},
	{"geometry":{"coordinates":[8.684984,50.049964],"type":"Point"},"properties":{"osm_id":"3222279905","tag":{"amenity":"waste_basket"}},"type":"Feature"},
	{"geometry":{"coordinates":[8.613924,50.032703],"type":"Point"},"properties":{"osm_id":"3234119907","tag":{"amenity":"recycling","recycling:clothes":"yes"}},"type":"Feature"},
	{"geometry":{"coordinates":[8.613841,50.034319],"type":"Point"},"properties":{"osm_id":"3234234612","tag":{"amenity":"recycling","recycling:electronics":"yes","recycling:glass_bottles":"yes"}},"type":"Feature"},
	{"geometry":{"coordinates":[8.688779,50.050416],"type":"Point"},"properties":{"osm_id":"3257226279","tag":{"amenity":"waste_basket"}},"type":"Feature"},
	{"geometry":{"coordinates":[8.67638,50.048774],"type":"Point"},"properties":{"osm_id":"3306001138","tag":{"amenity":"waste_basket"}},"type":"Feature"},
	{"geometry":{"coordinates":[8.695385,50.05473],"type":"Point"},"properties":{"osm_id":"3427774147","tag":{"amenity":"waste_basket"}},"type":"Feature"},
	{"geometry":{"coordinates":[8.698782,50.056784],"type":"Point"},"properties":{"osm_id":"3522491986","tag":{"amenity":"waste_basket"}},"type":"Feature"},
	{"geometry":{"coordinates":[8.695339,50.05454],"type":"Point"},"properties":{"osm_id":"3535101816","tag":{"amenity":"waste_basket","support":"pole"}},"type":"Feature"},
	{"geometry":{"coordinates":[8.695102,50.054608],"type":"Point"},"properties":{"osm_id":"3535101829","tag":{"amenity":"waste_basket","support":"pole"}},"type":"Feature"},
	{"geometry":{"coordinates":[8.6981,50.054185],"type":"Point"},"properties":{"osm_id":"3635997462","tag":{"amenity":"recycling","operator":"Deutsches Rotes Kreuz","recycling:clothes":"yes","recycling_type":"container"}},"type":"Feature"},
	{"geometry":{"coordinates":[8.698088,50.052736],"type":"Point"},"properties":{"osm_id":"3642841278","tag":{"amenity":"waste_basket"}},"type":"Feature"},
	{"geometry":{"coordinates":[8.697274,50.054563],"type":"Point"},"properties":{"osm_id":"3662124680","tag":{"amenity":"waste_basket"}},"type":"Feature"},
	{"geometry":{"coordinates":[8.666736,50.053274],"type":"Point"},"properties":{"osm_id":"3687953090","tag":{"amenity":"recycling","recycling:cans":"no","recycling:clothes":"no","recycling:glass":"yes","recycling:paper":"no","recycling_type":"container"}},"type":"Feature"},
	{"geometry":{"coordinates":[8.675965,50.052316],"type":"Point"},"properties":{"osm_id":"3731415318","tag":{"amenity":"recycling","recycling:glass":"yes","recycling_type":"container"}},"type":"Feature"},
	{"geometry":{"coordinates":[8.680684,50.019716],"type":"Point"},"properties":{"osm_id":"3926933190","tag":{"amenity":"waste_basket"}},"type":"Feature"},
	{"geometry":{"coordinates":[8.679376,50.020156],"type":"Point"},"properties":{"osm_id":"3926933192","tag":{"amenity":"waste_basket"}},"type":"Feature"},
	{"geometry":{"coordinates":[8.667741,50.024082],"type":"Point"},"properties":{"osm_id":"3926933243","tag":{"amenity":"recycling","recycling:clothes":"yes","recycling:glass_bottles":"yes","recycling_type":"container"}},"type":"Feature"},
	{"geometry":{"coordinates":[8.683546,50.018592],"type":"Point"},"properties":{"osm_id":"3926950672","tag":{"amenity":"waste_basket"}},"type":"Feature"},
	{"geometry":{"coordinates":[8.680635,50.022408],"type":"Point"},"properties":{"osm_id":"3927864910","tag":{"amenity":"waste_basket"}},"type":"Feature"},
	{"geometry":{"coordinates":[8.683723,50.022557],"type":"Point"},"properties":{"osm_id":"3927864914","tag":{"amenity":"waste_basket"}},"type":"Feature"},
	{"geometry":{"coordinates":[8.684822,50.022613],"type":"Point"},"properties":{"osm_id":"3927864916","tag":{"amenity":"waste_basket"}},"type":"Feature"},
	{"geometry":{"coordinates":[8.677781,50.023265],"type":"Point"},"properties":{"osm_id":"3927864921","tag":{"amenity":"waste_basket"}},"type":"Feature"},
	{"geometry":{"coordinates":[8.680789,50.026308],"type":"Point"},"properties":{"osm_id":"3927864940","tag":{"amenity":"waste_basket"}},"type":"Feature"},
	{"geometry":{"coordinates":[8.678954,50.02715],"type":"Point"},"properties":{"osm_id":"3927864942","tag":{"amenity":"waste_basket"}},"type":"Feature"},
	{"geometry":{"coordinates":[8.678373,50.027891],"type":"Point"},"properties":{"osm_id":"3927864945","tag":{"amenity":"waste_basket"}},"type":"Feature"},
	{"geometry":{"coordinates":[8.680881,50.030931],"type":"Point"},"properties":{"osm_id":"3927903139","tag":{"amenity":"waste_basket"}},"type":"Feature"},
	{"geometry":{"coordinates":[8.678149,50.032998],"type":"Point"},"properties":{"osm_id":"3927903143","tag":{"amenity":"waste_basket"}},"type":"Feature"},
	{"geometry":{"coordinates":[8.689874,50.0231],"type":"Point"},"properties":{"osm_id":"3927926580","tag":{"amenity":"waste_basket"}},"type":"Feature"},
	{"geometry":{"coordinates":[8.694634,50.027243],"type":"Point"},"properties":{"osm_id":"3927926601","tag":{"amenity":"waste_basket"}},"type":"Feature"},
	{"geometry":{"coordinates":[8.693913,50.027593],"type":"Point"},"properties":{"osm_id":"3927926622","tag":{"amenity":"waste_basket"}},"type":"Feature"},
	{"geometry":{"coordinates":[8.689255,50.014978],"type":"Point"},"properties":{"osm_id":"3928833827","tag":{"amenity":"waste_basket"}},"type":"Feature"},
	{"geometry":{"coordinates":[8.695562,50.011111],"type":"Point"},"properties":{"osm_id":"3928846330","tag":{"amenity":"waste_basket"}},"type":"Feature"},
	{"geometry":{"coordinates":[8.667752,50.02414],"type":"Point"},"properties":{"osm_id":"3931149680","tag":{"amenity":"waste_basket"}},"type":"Feature"},
	{"geometry":{"coordinates":[8.679459,50.019207],"type":"Point"},"properties":{"osm_id":"3931310828","tag":{"amenity":"recycling","recycling:clothes":"yes","recycling:glass_bottles":"yes","recycling_type":"container"}},"type":"Feature"},
	{"geometry":{"coordinates":[8.683928,50.048745],"type":"Point"},"properties":{"osm_id":"3934089498","tag":{"amenity":"recycling","recycling:glass_bottles":"yes","recycling_type":"container"}},"type":"Feature"},
	{"geometry":{"coordinates":[8.666626,50.053288],"type":"Point"},"properties":{"osm_id":"3934743473","tag":{"amenity":"recycling","recycling:glass":"yes","recycling_type":"container"}},"type":"Feature"},
	{"geometry":{"coordinates":[8.676355,50.056113],"type":"Point"},"properties":{"osm_id":"3934743682","tag":{"amenity":"recycling","recycling:glass_bottles":"yes","recycling_type":"container"}},"type":"Feature"},
	{"geometry":{"coordinates":[8.698212,50.048878],"type":"Point"},"properties":{"osm_id":"4694314645","tag":{"amenity":"recycling","recycling:glass_bottles":"yes","recycling_type":"container"}},"type":"Feature"},
	{"geometry":{"coordinates":[8.689168,50.047918],"type":"Point"},"properties":{"osm_id":"4846370697","tag":{"amenity":"waste_basket"}},"type":"Feature"},
	{"geometry":{"coordinates":[8.688567,50.047602],"type":"Point"},"properties":{"osm_id":"4846370708","tag":{"amenity":"recycling","operator":"Malteser","recycling:clothes":"yes","recycling_type":"container"}},"type":"Feature"},
	{"geometry":{"coordinates":[8.68807,50.023486],"type":"Point"},"properties":{"osm_id":"5131964392","tag":{"amenity":"waste_basket"}},"type":"Feature"},
	{"geometry":{"coordinates":[8.688647,50.023098],"type":"Point"},"properties":{"osm_id":"5132738555","tag":{"amenity":"waste_basket"}},"type":"Feature"},
	{"geometry":{"coordinates":[8.688641,50.023207],"type":"Point"},"properties":{"osm_id":"5132738556","tag":{"amenity":"waste_basket"}},"type":"Feature"},
	{"geometry":{"coordinates":[8.688093,50.018453],"type":"Point"},"properties":{"osm_id":"5134677181","tag":{"amenity":"waste_basket"}},"type":"Feature"},
	{"geometry":{"coordinates":[8.678739,50.010784],"type":"Point"},"properties":{"osm_id":"5136347748","tag":{"amenity":"waste_basket"}},"type":"Feature"},
	{"geometry":{"coordinates":[8.674066,50.014163],"type":"Point"},"properties":{"osm_id":"5136347751","tag":{"amenity":"waste_basket"}},"type":"Feature"},
	{"geometry":{"coordinates":[8.691048,50.013407],"type":"Point"},"properties":{"osm_id":"5137253994","tag":{"amenity":"recycling","recycling:clothes":"yes","recycling_type":"container"}},"type":"Feature"},
	{"geometry":{"coordinates":[8.689724,50.021911],"type":"Point"},"properties":{"osm_id":"5140366496","tag":{"amenity":"waste_basket"}},"type":"Feature"},
	{"geometry":{"coordinates":[8.688721,50.022305],"type":"Point"},"properties":{"osm_id":"5140366497","tag":{"amenity":"waste_basket"}},"type":"Feature"},
	{"geometry":{"coordinates":[8.688749,50.028743],"type":"Point"},"properties":{"osm_id":"5142601720","tag":{"amenity":"waste_basket"}},"type":"Feature"},
	{"geometry":{"coordinates":[8.700094,50.044038],"type":"Point"},"properties":{"osm_id":"5162566032","tag":{"amenity":"recycling","operator":"Kirche Zum Heiligen Kreuz","recycling:clothes":"yes","recycling_type":"container"}},"type":"Feature"},
	{"geometry":{"coordinates":[8.693432,50.048564],"type":"Point"},"properties":{"osm_id":"5306648546","tag":{"amenity":"recycling","operator":"Texaid","recycling:clothes":"yes","recycling_type":"container"}},"type":"Feature"},
	{"geometry":{"coordinates":[8.646973,50.048443],"type":"Point"},"properties":{"osm_id":"5455249419","tag":{"amenity":"waste_basket"}},"type":"Feature"},
	{"geometry":{"coordinates":[8.65859,50.02786],"type":"Point"},"properties":{"name":"Lagerhof Buchschlag","osm_id":"5460449748","tag":{"amenity":"recycling","recycling_type":"centre"}},"type":"Feature"},
	{"geometry":{"coordinates":[8.659775,50.043094],"type":"Point"},"properties":{"osm_id":"5465342890","tag":{"amenity":"waste_basket"}},"type":"Feature"},
	{"geometry":{"coordinates":[8.645076,50.062628],"type":"Point"},"properties":{"osm_id":"5502162197","tag":{"amenity":"waste_basket"}},"type":"Feature"},
	{"geometry":{"coordinates":[8.617173,50.018929],"type":"Point"},"properties":{"osm_id":"5638190451","tag":{"amenity":"waste_basket"}},"type":"Feature"},
	{"geometry":{"coordinates":[8.620284,50.01973],"type":"Point"},"properties":{"osm_id":"5654850872","tag":{"amenity":"waste_basket"}},"type":"Feature"},
	{"geometry":{"coordinates":[8.616319,50.018806],"type":"Point"},"properties":{"osm_id":"5654850873","tag":{"amenity":"waste_basket"}},"type":"Feature"},
	{"geometry":{"coordinates":[8.69578,50.044315],"type":"Point"},"properties":{"osm_id":"5732386972","tag":{"amenity":"recycling","recycling:glass":"yes","recycling_type":"container"}},"type":"Feature"},
	{"geometry":{"coordinates":[8.695704,50.05576],"type":"Point"},"properties":{"osm_id":"5732386975","tag":{"amenity":"recycling","recycling:glass":"yes","recycling_type":"container"}},"type":"Feature"},
	{"geometry":{"coordinates":[8.690062,50.044751],"type":"Point"},"properties":{"osm_id":"5732386977","tag":{"amenity":"recycling","recycling:glass":"yes","recycling_type":"container"}},"type":"Feature"},
	{"geometry":{"coordinates":[8.690354,50.058213],"type":"Point"},"properties":{"osm_id":"5732386979","tag":{"amenity":"recycling","recycling:glass":"yes","recycling_type":"container"}},"type":"Feature"},
	{"geometry":{"coordinates":[8.697282,50.046239],"type":"Point"},"properties":{"osm_id":"5732386980","tag":{"amenity":"recycling","recycling:glass":"yes","recycling_type":"container"}},"type":"Feature"},
	{"geometry":{"coordinates":[8.694588,50.052875],"type":"Point"},"properties":{"osm_id":"5732386983","tag":{"amenity":"recycling","recycling:glass":"yes","recycling_type":"container"}},"type":"Feature"},
	{"geometry":{"coordinates":[8.687281,50.045373],"type":"Point"},"properties":{"osm_id":"5737098568","tag":{"amenity":"waste_basket"}},"type":"Feature"},
	{"geometry":{"coordinates":[8.698676,50.051322],"type":"Point"},"properties":{"osm_id":"5887068376","tag":{"amenity":"recycling","operator":"Baliz Textilwerk","recycling:clothes":"yes","recycling_type":"container"}},"type":"Feature"},
	{"geometry":{"coordinates":[8.688567,50.047598],"type":"Point"},"properties":{"osm_id":"5964301842","tag":{"amenity":"recycling","operator":"Deutsches Rotes Kreuz","recycling:clothes":"yes","recycling_type":"container"}},"type":"Feature"}
]
}
