{
"type": "FeatureCollection",
"features": [
	{"geometry":{"coordinates":[8.652153,49.807752],"type":"Point"},"properties":{"osm_id":"276476796","tag":{"amenity":"recycling","recycling:glass_bottles":"yes"}},"type":"Feature"},
	{"geometry":{"coordinates":[8.643057,49.809114],"type":"Point"},"properties":{"osm_id":"276476798","tag":{"amenity":"recycling","recycling:electrical_appliances":"yes","recycling:glass_bottles":"yes","recycling_type":"container"}},"type":"Feature"},
	{"geometry":{"coordinates":[8.635275,49.818245],"type":"Point"},"properties":{"osm_id":"281065494","tag":{"amenity":"recycling","recycling:glass":"yes","recycling_type":"container"}},"type":"Feature"},
	{"geometry":{"coordinates":[8.645269,49.806993],"type":"Point"},"properties":{"osm_id":"282319238","tag":{"amenity":"recycling","recycling:glass_bottles":"yes","recycling_type":"container"}},"type":"Feature"},
	{"geometry":{"coordinates":[8.645036,49.817658],"type":"Point"},"properties":{"osm_id":"282319241","tag":{"amenity":"recycling","recycling:clothes":"yes","recycling_type":"container"}},"type":"Feature"},
	{"geometry":{"coordinates":[8.647415,49.818514],"type":"Point"},"properties":{"osm_id":"283344910","tag":{"amenity":"recycling","recycling:glass":"yes","recycling:glass_bottles":"yes","recycling_type":"container"}},"type":"Feature"},
	{"geometry":{"coordinates":[8.634056,49.816102],"type":"Point"},"properties":{"osm_id":"355182213","tag":{"amenity":"waste_basket"}},"type":"Feature"},
	{"geometry":{"coordinates":[8.635952,49.814203],"type":"Point"},"properties":{"osm_id":"358352364","tag":{"amenity":"recycling","recycling:glass_bottles":"yes","recycling_type":"container"}},"type":"Feature"},
	{"geometry":{"coordinates":[8.625668,49.815188],"type":"Point"},"properties":{"osm_id":"473632715","tag":{"amenity":"recycling","recycling:clothes":"yes"}},"type":"Feature"},
	{"geometry":{"coordinates":[8.622108,49.81436],"type":"Point"},"properties":{"osm_id":"473632716","tag":{"amenity":"recycling","recycling:glass":"yes"}},"type":"Feature"},
	{"geometry":{"coordinates":[8.634286,49.815299],"type":"Point"},"properties":{"osm_id":"494956133","tag":{"amenity":"waste_basket"}},"type":"Feature"},
	{"geometry":{"coordinates":[8.639908,49.820837],"type":"Point"},"properties":{"osm_id":"494956141","tag":{"amenity":"recycling"}},"type":"Feature"},
	{"geometry":{"coordinates":[8.643192,49.824081],"type":"Point"},"properties":{"osm_id":"501950331","tag":{"amenity":"recycling","location":"overground","recycling:clothes":"yes","recycling:glass":"yes","recycling_type":"container"}},"type":"Feature"},
	{"geometry":{"coordinates":[8.615171,49.80059],"type":"Point"},"properties":{"osm_id":"527352753","tag":{"amenity":"recycling","recycling:clothes":"yes","recycling:glass":"yes","recycling:shoes":"yes","recycling:waste":"yes","recycling_type":"container"}},"type":"Feature"},
	{"geometry":{"coordinates":[8.616443,49.797075],"type":"Point"},"properties":{"osm_id":"528490329","tag":{"amenity":"recycling","recycling:clothes":"yes","recycling:glass":"yes","recycling:shoes":"yes","recycling_type":"container"}},"type":"Feature"},
	{"geometry":{"coordinates":[8.698672,49.822854],"type":"Point"},"properties":{"osm_id":"715430624","tag":{"amenity":"recycling","location":"overground","recycling:cans":"yes","recycling:glass":"yes","recycling_type":"container"}},"type":"Feature"},
	{"geometry":{"coordinates":[8.643678,49.814581],"type":"Point"},"properties":{"osm_id":"830412224","tag":{"amenity":"recycling","location":"overground","recycling:clothes":"yes","recycling:glass":"yes","recycling_type":"container"}},"type":"Feature"},
	{"geometry":{"coordinates":[8.63656,49.816262],"type":"Point"},"properties":{"osm_id":"834681893","tag":{"amenity":"recycling","recycling:clothes":"yes","recycling_type":"container"}},"type":"Feature"},
	{"geometry":{"coordinates":[8.690718,49.830384],"type":"Point"},"properties":{"osm_id":"848623902","tag":{"amenity":"recycling","location":"overground","recycling:cans":"yes","recycling:clothes":"yes","recycling:glass":"yes","recycling_type":"container"}},"type":"Feature"},
	{"geometry":{"coordinates":[8.645046,49.833346],"type":"Point"},"properties":{"osm_id":"871792564","tag":{"amenity":"recycling","mapillary":"7tgpRsj8IuUT5OyJcDjPPA","recycling:clothes":"yes","recycling:glass":"yes","recycling_type":"container","survey:date":"2018-09-18"}},"type":"Feature"},
	{"geometry":{"coordinates":[8.687801,49.827452],"type":"Point"},"properties":{"osm_id":"929819393","tag":{"amenity":"recycling","recycling:cans":"yes","recycling:clothes":"yes","recycling:glass":"yes"}},"type":"Feature"},
	{"geometry":{"coordinates":[8.695452,49.825514],"type":"Point"},"properties":{"osm_id":"941219928","tag":{"amenity":"recycling","location":"overground","recycling:glass":"yes","recycling_type":"container"}},"type":"Feature"},
	{"geometry":{"coordinates":[8.683921,49.824436],"type":"Point"},"properties":{"osm_id":"972683024","tag":{"amenity":"waste_basket"}},"type":"Feature"},
	{"geometry":{"coordinates":[8.700357,49.827564],"type":"Point"},"properties":{"osm_id":"993475197","tag":{"amenity":"recycling","location":"overground","recycling:cans":"yes","recycling:glass":"yes","recycling_type":"container"}},"type":"Feature"},
	{"geometry":{"coordinates":[8.646658,49.819576],"type":"Point"},"properties":{"osm_id":"1049549178","tag":{"amenity":"recycling"}},"type":"Feature"},
	{"geometry":{"coordinates":[8.700694,49.833797],"type":"Point"},"properties":{"osm_id":"1193612093","tag":{"amenity":"recycling","location":"overground","recycling:clothes":"yes","recycling:glass":"yes","recycling:shoes":"yes","recycling:waste":"yes","recycling_type":"container"}},"type":"Feature"},
	{"geometry":{"coordinates":[8.685837,49.820666],"type":"Point"},"properties":{"osm_id":"1234201124","tag":{"amenity":"waste_basket"}},"type":"Feature"},
	{"geometry":{"coordinates":[8.697285,49.827866],"type":"Point"},"properties":{"osm_id":"1235571273","tag":{"amenity":"recycling","recycling:glass":"yes"}},"type":"Feature"},
	{"geometry":{"coordinates":[8.637504,49.819624],"type":"Point"},"properties":{"osm_id":"1270474153","tag":{"amenity":"recycling"}},"type":"Feature"},
	{"geometry":{"coordinates":[8.639559,49.820133],"type":"Point"},"properties":{"osm_id":"1270474161","tag":{"amenity":"recycling"}},"type":"Feature"},
	{"geometry":{"coordinates":[8.652414,49.78932],"type":"Point"},"properties":{"osm_id":"1314898753","tag":{"amenity":"recycling","recycling:glass":"yes"}},"type":"Feature"},
	{"geometry":{"coordinates":[8.651413,49.794483],"type":"Point"},"properties":{"osm_id":"1314898763","tag":{"amenity":"recycling","recycling:glass":"yes"}},"type":"Feature"},
	{"geometry":{"coordinates":[8.673486,49.814435],"type":"Point"},"properties":{"name":"AZUR GmbH","osm_id":"1455708860","tag":{"addr:city":"M\u00c3\u00bchltal","addr:country":"DE","addr:housenumber":"48","addr:postcode":"64367","addr:street":"Rheinstra\u00c3\u009fe","amenity":"recycling","recycling:with_goods":"yes","recycling_type":"centre"}},"type":"Feature"},
	{"geometry":{"coordinates":[8.635944,49.814176],"type":"Point"},"properties":{"osm_id":"1617067553","tag":{"amenity":"recycling","recycling:glass_bottles":"yes"}},"type":"Feature"},
	{"geometry":{"coordinates":[8.642202,49.817203],"type":"Point"},"properties":{"osm_id":"1901917208","tag":{"amenity":"recycling","location":"overground","recycling:clothes":"yes","recycling:glass":"yes","recycling_type":"container"}},"type":"Feature"},
	{"geometry":{"coordinates":[8.647654,49.813478],"type":"Point"},"properties":{"osm_id":"2093621031","tag":{"amenity":"recycling","recycling:batteries":"no","recycling:books":"no","recycling:cans":"no","recycling:cardboard":"no","recycling:cartons":"no","recycling:clothes":"yes","recycling:electrical_appliances":"no","recycling:glass":"no","recycling:glass_bottles":"no","recycling:green_waste":"no","recycling:magazines":"no","recycling:newspaper":"no","recycling:paper":"no","recycling:paper_packaging":"no","recycling:plastic":"no","recycling:plastic_bottles":"no","recycling:plastic_packaging":"no","recycling:scrap_metal":"no","recycling:small_appliances":"no","recycling:waste":"no","recycling:wood":"no","recycling_type":"container"}},"type":"Feature"},
	{"geometry":{"coordinates":[8.689205,49.820078],"type":"Point"},"properties":{"osm_id":"2632086185","tag":{"amenity":"recycling","location":"overground","recycling:clothes":"yes","recycling:glass":"yes","recycling:scrap_metal":"yes","recycling_type":"container"}},"type":"Feature"},
	{"geometry":{"coordinates":[8.649039,49.790005],"type":"Point"},"properties":{"osm_id":"3893031682","tag":{"amenity":"waste_basket"}},"type":"Feature"},
	{"geometry":{"coordinates":[8.651102,49.789794],"type":"Point"},"properties":{"osm_id":"3893660818","tag":{"amenity":"waste_basket"}},"type":"Feature"},
	{"geometry":{"coordinates":[8.649442,49.790167],"type":"Point"},"properties":{"osm_id":"3893660819","tag":{"amenity":"waste_basket"}},"type":"Feature"},
	{"geometry":{"coordinates":[8.651448,49.789904],"type":"Point"},"properties":{"osm_id":"3893660820","tag":{"amenity":"waste_basket"}},"type":"Feature"},
	{"geometry":{"coordinates":[8.645652,49.80761],"type":"Point"},"properties":{"osm_id":"3895005861","tag":{"amenity":"waste_basket"}},"type":"Feature"},
	{"geometry":{"coordinates":[8.645655,49.807666],"type":"Point"},"properties":{"osm_id":"3895005862","tag":{"amenity":"waste_basket"}},"type":"Feature"},
	{"geometry":{"coordinates":[8.645658,49.807758],"type":"Point"},"properties":{"osm_id":"3895005863","tag":{"amenity":"waste_basket"}},"type":"Feature"},
	{"geometry":{"coordinates":[8.645471,49.807684],"type":"Point"},"properties":{"osm_id":"3895005864","tag":{"amenity":"waste_basket"}},"type":"Feature"},
	{"geometry":{"coordinates":[8.645791,49.807893],"type":"Point"},"properties":{"osm_id":"3895005868","tag":{"amenity":"waste_basket"}},"type":"Feature"},
	{"geometry":{"coordinates":[8.698403,49.819049],"type":"Point"},"properties":{"name":"Bauhof Gemeinde M\u00c3\u00bchltal","osm_id":"4107797591","tag":{"amenity":"recycling","recycling_type":"centre"}},"type":"Feature"},
	{"geometry":{"coordinates":[8.688758,49.834333],"type":"Point"},"properties":{"osm_id":"5050880778","tag":{"amenity":"waste_basket"}},"type":"Feature"},
	{"geometry":{"coordinates":[8.686653,49.829135],"type":"Point"},"properties":{"osm_id":"5050904402","tag":{"amenity":"waste_basket"}},"type":"Feature"},
	{"geometry":{"coordinates":[8.648192,49.823844],"type":"Point"},"properties":{"osm_id":"5696808886","tag":{"amenity":"recycling","mapillary":"uLGBt-7Hat9Nyg2a_g9S4g","recycling:clothes":"yes","recycling_type":"container","survey:date":"2018-06-15"}},"type":"Feature"},
	{"geometry":{"coordinates":[8.64734,49.829169],"type":"Point"},"properties":{"osm_id":"5697104393","tag":{"amenity":"recycling","recycling:clothes":"yes"}},"type":"Feature"},
	{"geometry":{"coordinates":[8.656233,49.789518],"type":"Point"},"properties":{"osm_id":"5787890509","tag":{"amenity":"waste_basket"}},"type":"Feature"},
	{"geometry":{"coordinates":[8.700814,49.786419],"type":"Point"},"properties":{"osm_id":"6420506589","tag":{"amenity":"waste_basket"}},"type":"Feature"},
	{"geometry":{"coordinates":[8.65106,49.822245],"type":"Point"},"properties":{"osm_id":"6492577397","tag":{"amenity":"waste_basket"}},"type":"Feature"}
]
}
