{
"type": "FeatureCollection",
"features": [
	{"geometry":{"coordinates":[8.62079,49.743888],"type":"Point"},"properties":{"osm_id":"282319191","tag":{"amenity":"recycling","recycling:clothes":"yes","recycling_type":"container"}},"type":"Feature"},
	{"geometry":{"coordinates":[8.647898,49.775467],"type":"Point"},"properties":{"osm_id":"282319232","tag":{"amenity":"recycling","mapillary":"Kgjh2W096xgmMPw7t9WbiA","recycling:bottles":"yes","recycling:cans":"yes","recycling:clothes":"yes","recycling_type":"container","survey:date":"2017-07-09"}},"type":"Feature"},
	{"geometry":{"coordinates":[8.644451,49.774387],"type":"Point"},"properties":{"osm_id":"288858915","tag":{"amenity":"recycling","recycling:glass":"yes"}},"type":"Feature"},
	{"geometry":{"coordinates":[8.616596,49.757558],"type":"Point"},"properties":{"osm_id":"483349184","tag":{"amenity":"recycling","recycling:glass":"yes","recycling_type":"container"}},"type":"Feature"},
	{"geometry":{"coordinates":[8.641573,49.760266],"type":"Point"},"properties":{"osm_id":"632426020","tag":{"amenity":"recycling"}},"type":"Feature"},
	{"geometry":{"coordinates":[8.640274,49.756006],"type":"Point"},"properties":{"osm_id":"807211275","tag":{"amenity":"recycling"}},"type":"Feature"},
	{"geometry":{"coordinates":[8.616656,49.737172],"type":"Point"},"properties":{"osm_id":"847861938","tag":{"amenity":"recycling","recycling_type":"container"}},"type":"Feature"},
	{"geometry":{"coordinates":[8.6331,49.755785],"type":"Point"},"properties":{"osm_id":"1606202558","tag":{"amenity":"recycling","recycling:batteries":"yes","recycling:cans":"yes","recycling:clothes":"no","recycling:glass":"yes","recycling:paper":"no"}},"type":"Feature"},
	{"geometry":{"coordinates":[8.638302,49.77554],"type":"Point"},"properties":{"name":"Bauhof","osm_id":"1638193166","tag":{"amenity":"recycling"}},"type":"Feature"},
	{"geometry":{"coordinates":[8.634447,49.756956],"type":"Point"},"properties":{"osm_id":"2985582612","tag":{"amenity":"recycling","recycling:clothes":"yes"}},"type":"Feature"},
	{"geometry":{"coordinates":[8.633209,49.755631],"type":"Point"},"properties":{"osm_id":"2985593456","tag":{"amenity":"waste_basket"}},"type":"Feature"},
	{"geometry":{"coordinates":[8.634032,49.755737],"type":"Point"},"properties":{"osm_id":"2985595252","tag":{"amenity":"waste_basket"}},"type":"Feature"},
	{"geometry":{"coordinates":[8.629898,49.765561],"type":"Point"},"properties":{"osm_id":"3660605946","tag":{"amenity":"waste_basket"}},"type":"Feature"},
	{"geometry":{"coordinates":[8.685432,49.765999],"type":"Point"},"properties":{"osm_id":"3697935405","tag":{"amenity":"recycling","recycling:cans":"yes","recycling:clothes":"yes","recycling:glass":"yes"}},"type":"Feature"},
	{"geometry":{"coordinates":[8.644884,49.766764],"type":"Point"},"properties":{"osm_id":"5462087959","tag":{"amenity":"waste_basket"}},"type":"Feature"},
	{"geometry":{"coordinates":[8.643002,49.769292],"type":"Point"},"properties":{"osm_id":"5465035445","tag":{"amenity":"waste_basket"}},"type":"Feature"},
	{"geometry":{"coordinates":[8.645621,49.766444],"type":"Point"},"properties":{"osm_id":"5470894599","tag":{"amenity":"waste_basket"}},"type":"Feature"},
	{"geometry":{"coordinates":[8.645356,49.766852],"type":"Point"},"properties":{"osm_id":"5470894604","tag":{"amenity":"waste_basket","lit":"yes"}},"type":"Feature"},
	{"geometry":{"coordinates":[8.645189,49.766292],"type":"Point"},"properties":{"osm_id":"5470894605","tag":{"amenity":"waste_basket"}},"type":"Feature"},
	{"geometry":{"coordinates":[8.645375,49.766161],"type":"Point"},"properties":{"osm_id":"5470894606","tag":{"amenity":"waste_basket"}},"type":"Feature"},
	{"geometry":{"coordinates":[8.646245,49.765224],"type":"Point"},"properties":{"osm_id":"5470945364","tag":{"amenity":"waste_basket"}},"type":"Feature"},
	{"geometry":{"coordinates":[8.646019,49.766029],"type":"Point"},"properties":{"osm_id":"5470945371","tag":{"amenity":"waste_basket"}},"type":"Feature"},
	{"geometry":{"coordinates":[8.646739,49.765937],"type":"Point"},"properties":{"osm_id":"5470945372","tag":{"amenity":"waste_basket"}},"type":"Feature"},
	{"geometry":{"coordinates":[8.646082,49.764694],"type":"Point"},"properties":{"osm_id":"5470945373","tag":{"amenity":"waste_basket"}},"type":"Feature"},
	{"geometry":{"coordinates":[8.634031,49.766483],"type":"Point"},"properties":{"osm_id":"5490078890","tag":{"amenity":"waste_basket"}},"type":"Feature"},
	{"geometry":{"coordinates":[8.634014,49.765945],"type":"Point"},"properties":{"osm_id":"5596614714","tag":{"amenity":"waste_basket"}},"type":"Feature"},
	{"geometry":{"coordinates":[8.628355,49.73641],"type":"Point"},"properties":{"osm_id":"6297627372","tag":{"amenity":"recycling","recycling:cans":"yes","recycling:clothes":"yes","recycling:glass":"yes","recycling:glass_bottles":"yes","recycling_type":"container"}},"type":"Feature"},
	{"geometry":{"coordinates":[8.628099,49.73188],"type":"Point"},"properties":{"osm_id":"6297783289","tag":{"amenity":"waste_basket","waste":"trash"}},"type":"Feature"},
	{"geometry":{"coordinates":[8.700252,49.761788],"type":"Point"},"properties":{"osm_id":"6420506594","tag":{"amenity":"waste_basket"}},"type":"Feature"},
	{"geometry":{"coordinates":[8.695832,49.757373],"type":"Point"},"properties":{"osm_id":"6420506620","tag":{"amenity":"waste_basket"}},"type":"Feature"},
	{"geometry":{"coordinates":[8.68648,49.764406],"type":"Point"},"properties":{"osm_id":"6421758622","tag":{"amenity":"waste_basket"}},"type":"Feature"},
	{"geometry":{"coordinates":[8.686016,49.763839],"type":"Point"},"properties":{"osm_id":"6421761529","tag":{"amenity":"waste_basket"}},"type":"Feature"},
	{"geometry":{"coordinates":[8.687373,49.762339],"type":"Point"},"properties":{"osm_id":"6421809620","tag":{"amenity":"waste_basket"}},"type":"Feature"},
	{"geometry":{"coordinates":[8.646104,49.766488],"type":"Point"},"properties":{"osm_id":"6773599865","tag":{"amenity":"waste_basket","material":"steel"}},"type":"Feature"},
	{"geometry":{"coordinates":[8.646201,49.766449],"type":"Point"},"properties":{"osm_id":"6773599866","tag":{"amenity":"waste_basket","material":"steel"}},"type":"Feature"},
	{"geometry":{"coordinates":[8.647353,49.766205],"type":"Point"},"properties":{"osm_id":"6794024051","tag":{"amenity":"waste_basket","covered":"no","indoor":"no","material":"steel"}},"type":"Feature"},
	{"geometry":{"coordinates":[8.647083,49.766401],"type":"Point"},"properties":{"osm_id":"6794050387","tag":{"amenity":"waste_basket","covered":"no","indoor":"no","material":"steel"}},"type":"Feature"},
	{"geometry":{"coordinates":[8.647649,49.766251],"type":"Point"},"properties":{"osm_id":"6797163670","tag":{"amenity":"waste_basket","covered":"no","indoor":"no","material":"steel"}},"type":"Feature"},
	{"geometry":{"coordinates":[8.646297,49.767898],"type":"Point"},"properties":{"osm_id":"7157607116","tag":{"amenity":"waste_basket","colour":"black","material":"plastic"}},"type":"Feature"},
	{"geometry":{"coordinates":[8.626182,49.756894],"type":"Point"},"properties":{"osm_id":"7249946624","tag":{"amenity":"waste_basket"}},"type":"Feature"},
	{"geometry":{"coordinates":[8.672068,49.778811],"type":"Point"},"properties":{"osm_id":"7419918151","tag":{"amenity":"waste_basket","colour":"Silver","covered":"no","material":"metal","waste":"trash"}},"type":"Feature"},
	{"geometry":{"coordinates":[8.696266,49.734201],"type":"Point"},"properties":{"osm_id":"7645935985","tag":{"amenity":"waste_basket","waste":"trash"}},"type":"Feature"}
]
}
