{
"type": "FeatureCollection",
"features": [
	{"geometry":{"coordinates":[8.622634,49.700242],"type":"Point"},"properties":{"osm_id":"301752623","tag":{"amenity":"recycling","recycling:glass":"yes"}},"type":"Feature"},
	{"geometry":{"coordinates":[8.616132,49.68264],"type":"Point"},"properties":{"osm_id":"370058135","tag":{"amenity":"recycling","location":"overground","recycling:beverage_cartons":"yes","recycling:clothes":"yes","recycling:electrical_appliances":"yes","recycling:glass":"yes","recycling:shoes":"yes","recycling_type":"container"}},"type":"Feature"},
	{"geometry":{"coordinates":[8.67767,49.685926],"type":"Point"},"properties":{"osm_id":"686353413","tag":{"amenity":"recycling","recycling:glass_bottles":"yes","recycling_type":"container","website":"https://www.kmb-bensheim.de/abfallbeseitigung/"}},"type":"Feature"},
	{"geometry":{"coordinates":[8.656483,49.695554],"type":"Point"},"properties":{"osm_id":"715801781","tag":{"amenity":"recycling","mapillary":"Y4n0O0-EyN6FMDurySlRXg","recycling_type":"container","survey:date":"2017-01-01"}},"type":"Feature"},
	{"geometry":{"coordinates":[8.616349,49.682332],"type":"Point"},"properties":{"osm_id":"1016413502","tag":{"amenity":"recycling","location":"overground","recycling:clothes":"yes","recycling_type":"container"}},"type":"Feature"},
	{"geometry":{"coordinates":[8.620124,49.718557],"type":"Point"},"properties":{"osm_id":"1322602314","tag":{"amenity":"waste_basket"}},"type":"Feature"},
	{"geometry":{"coordinates":[8.621228,49.671233],"type":"Point"},"properties":{"osm_id":"1452912454","tag":{"amenity":"recycling","recycling:glass":"yes","recycling_type":"container"}},"type":"Feature"},
	{"geometry":{"coordinates":[8.624515,49.671862],"type":"Point"},"properties":{"osm_id":"1452912498","tag":{"amenity":"recycling","opening_hours":"Mo-Fr 07:00-20:00; PH off","operator":"TEXAID Deutschland GmbH","phone":"+49 800 7262454","recycling:clothes":"yes","recycling_type":"container","website":"http://texaid.de"}},"type":"Feature"},
	{"geometry":{"coordinates":[8.623622,49.67743],"type":"Point"},"properties":{"osm_id":"1646769388","tag":{"amenity":"recycling","recycling:glass":"yes"}},"type":"Feature"},
	{"geometry":{"coordinates":[8.624852,49.68158],"type":"Point"},"properties":{"osm_id":"1646769613","tag":{"amenity":"recycling","recycling:glass":"yes","recycling_type":"container"}},"type":"Feature"},
	{"geometry":{"coordinates":[8.628572,49.674509],"type":"Point"},"properties":{"osm_id":"1646873410","tag":{"amenity":"recycling","mapillary":"6kVt4kluybFC8nmVJhL3ng","recycling:glass":"yes","recycling_type":"container","survey:date":"2017-06-04"}},"type":"Feature"},
	{"geometry":{"coordinates":[8.636492,49.684283],"type":"Point"},"properties":{"osm_id":"1648257077","tag":{"amenity":"recycling","recycling:clothes":"yes","recycling:glass":"yes"}},"type":"Feature"},
	{"geometry":{"coordinates":[8.638114,49.682209],"type":"Point"},"properties":{"osm_id":"1648292851","tag":{"amenity":"recycling","recycling:clothes":"yes","recycling:glass":"yes"}},"type":"Feature"},
	{"geometry":{"coordinates":[8.625787,49.675578],"type":"Point"},"properties":{"osm_id":"1693530330","tag":{"amenity":"recycling","recycling:green_waste":"yes"}},"type":"Feature"},
	{"geometry":{"coordinates":[8.625781,49.675583],"type":"Point"},"properties":{"osm_id":"1693530335","tag":{"amenity":"waste_basket"}},"type":"Feature"},
	{"geometry":{"coordinates":[8.624913,49.675759],"type":"Point"},"properties":{"osm_id":"1693530368","tag":{"amenity":"recycling","recycling:green_waste":"yes"}},"type":"Feature"},
	{"geometry":{"coordinates":[8.624907,49.675764],"type":"Point"},"properties":{"osm_id":"1693530380","tag":{"amenity":"waste_basket"}},"type":"Feature"},
	{"geometry":{"coordinates":[8.623129,49.675988],"type":"Point"},"properties":{"osm_id":"1693530413","tag":{"amenity":"recycling","recycling:green_waste":"yes"}},"type":"Feature"},
	{"geometry":{"coordinates":[8.623123,49.675993],"type":"Point"},"properties":{"osm_id":"1693530414","tag":{"amenity":"waste_basket"}},"type":"Feature"},
	{"geometry":{"coordinates":[8.624567,49.676613],"type":"Point"},"properties":{"osm_id":"1693530634","tag":{"amenity":"recycling","recycling:green_waste":"yes"}},"type":"Feature"},
	{"geometry":{"coordinates":[8.62456,49.676618],"type":"Point"},"properties":{"osm_id":"1693530636","tag":{"amenity":"waste_basket"}},"type":"Feature"},
	{"geometry":{"coordinates":[8.627678,49.673471],"type":"Point"},"properties":{"osm_id":"1773697207","ref":"131722","tag":{"amenity":"recycling","operator":"TEXAID Deutschland GmbH","recycling:clothes":"yes","recycling_type":"container"}},"type":"Feature"},
	{"geometry":{"coordinates":[8.62768,49.673458],"type":"Point"},"properties":{"osm_id":"1773697208","ref":"131924","tag":{"amenity":"recycling","operator":"TEXAID Deutschland GmbH","recycling:clothes":"yes","recycling_type":"container"}},"type":"Feature"},
	{"geometry":{"coordinates":[8.621929,49.699323],"type":"Point"},"properties":{"osm_id":"2998750693","tag":{"amenity":"waste_basket"}},"type":"Feature"},
	{"geometry":{"coordinates":[8.692412,49.713271],"type":"Point"},"properties":{"osm_id":"3122787793","tag":{"amenity":"waste_basket","source:geo":"Bing 2012"}},"type":"Feature"},
	{"geometry":{"coordinates":[8.615976,49.689763],"type":"Point"},"properties":{"osm_id":"3404680641","tag":{"amenity":"recycling","recycling:clothes":"yes","recycling:glass":"yes","recycling_type":"container"}},"type":"Feature"},
	{"geometry":{"coordinates":[8.614343,49.697026],"type":"Point"},"properties":{"osm_id":"3404680953","tag":{"amenity":"recycling","recycling:cans":"yes","recycling:clothes":"yes","recycling:glass":"yes","recycling:shoes":"yes"}},"type":"Feature"},
	{"geometry":{"coordinates":[8.620578,49.701657],"type":"Point"},"properties":{"osm_id":"3700180887","tag":{"amenity":"waste_basket"}},"type":"Feature"},
	{"geometry":{"coordinates":[8.62046,49.701718],"type":"Point"},"properties":{"osm_id":"3700180890","tag":{"amenity":"waste_basket"}},"type":"Feature"},
	{"geometry":{"coordinates":[8.619004,49.702744],"type":"Point"},"properties":{"osm_id":"3700180904","tag":{"amenity":"waste_basket"}},"type":"Feature"},
	{"geometry":{"coordinates":[8.619155,49.702785],"type":"Point"},"properties":{"osm_id":"3700180905","tag":{"amenity":"waste_basket"}},"type":"Feature"},
	{"geometry":{"coordinates":[8.61917,49.703102],"type":"Point"},"properties":{"osm_id":"3700180909","tag":{"amenity":"waste_basket"}},"type":"Feature"},
	{"geometry":{"coordinates":[8.619411,49.70315],"type":"Point"},"properties":{"osm_id":"3700180910","tag":{"amenity":"waste_basket"}},"type":"Feature"},
	{"geometry":{"coordinates":[8.619968,49.670506],"type":"Point"},"properties":{"osm_id":"3941906623","tag":{"amenity":"recycling","recycling:glass_bottles":"yes","recycling_type":"container"}},"type":"Feature"},
	{"geometry":{"coordinates":[8.621308,49.699184],"type":"Point"},"properties":{"osm_id":"4781711631","tag":{"amenity":"recycling","recycling:glass":"yes","recycling_type":"container"}},"type":"Feature"},
	{"geometry":{"coordinates":[8.617887,49.671909],"type":"Point"},"properties":{"name":"Zirec Kabelaufbereitungs- GmbH","osm_id":"4840631622","tag":{"amenity":"recycling","operator":"Petra Zieringer","phone":"+49 6251 10030","recycling_type":"centre","website":"http://www.zirec.de"}},"type":"Feature"},
	{"geometry":{"coordinates":[8.660262,49.683092],"type":"Point"},"properties":{"osm_id":"4923473249","tag":{"amenity":"recycling","recycling:clothes":"yes","recycling:glass_bottles":"yes","recycling:paper":"yes","recycling_type":"container","website":"https://www.kmb-bensheim.de/abfallbeseitigung/"}},"type":"Feature"},
	{"geometry":{"coordinates":[8.616287,49.680761],"type":"Point"},"properties":{"osm_id":"4943518413","tag":{"amenity":"recycling","recycling:computer":"yes","recycling:computers":"yes","recycling:glass_bottles":"yes","recycling:mobile_phones":"yes","recycling_type":"container","website":"https://www.kmb-bensheim.de/abfallbeseitigung/"}},"type":"Feature"},
	{"geometry":{"coordinates":[8.624836,49.681567],"type":"Point"},"properties":{"osm_id":"5741883533","tag":{"amenity":"recycling","capacity":"1","lastcheck":"2018-07-05","operator":"Kolping","recycling:clothes":"yes","recycling_type":"container"}},"type":"Feature"},
	{"geometry":{"coordinates":[8.616399,49.690037],"type":"Point"},"properties":{"osm_id":"6027053205","tag":{"amenity":"waste_basket"}},"type":"Feature"},
	{"geometry":{"coordinates":[8.617399,49.681448],"type":"Point"},"properties":{"osm_id":"6027053209","tag":{"amenity":"waste_basket"}},"type":"Feature"},
	{"geometry":{"coordinates":[8.61879,49.682314],"type":"Point"},"properties":{"osm_id":"6049109924","tag":{"amenity":"waste_basket"}},"type":"Feature"},
	{"geometry":{"coordinates":[8.618931,49.682444],"type":"Point"},"properties":{"osm_id":"6049109925","tag":{"amenity":"waste_basket"}},"type":"Feature"},
	{"geometry":{"coordinates":[8.619894,49.682815],"type":"Point"},"properties":{"osm_id":"6049172140","tag":{"amenity":"waste_basket"}},"type":"Feature"},
	{"geometry":{"coordinates":[8.620297,49.685212],"type":"Point"},"properties":{"osm_id":"6049172144","tag":{"amenity":"waste_basket"}},"type":"Feature"},
	{"geometry":{"coordinates":[8.619536,49.688749],"type":"Point"},"properties":{"osm_id":"6049172145","tag":{"amenity":"waste_basket"}},"type":"Feature"},
	{"geometry":{"coordinates":[8.626779,49.687606],"type":"Point"},"properties":{"osm_id":"6281737396","tag":{"amenity":"waste_basket"}},"type":"Feature"},
	{"geometry":{"coordinates":[8.633579,49.709199],"type":"Point"},"properties":{"osm_id":"6297792993","tag":{"amenity":"waste_basket","waste":"trash"}},"type":"Feature"},
	{"geometry":{"coordinates":[8.61961,49.68294],"type":"Point"},"properties":{"osm_id":"6304662669","tag":{"amenity":"waste_basket"}},"type":"Feature"},
	{"geometry":{"coordinates":[8.620093,49.683242],"type":"Point"},"properties":{"osm_id":"6304662671","tag":{"amenity":"waste_basket","layer":"-1"}},"type":"Feature"},
	{"geometry":{"coordinates":[8.630016,49.669485],"type":"Point"},"properties":{"osm_id":"6348351774","tag":{"amenity":"waste_basket"}},"type":"Feature"},
	{"geometry":{"coordinates":[8.613586,49.701972],"type":"Point"},"properties":{"osm_id":"6400891647","tag":{"amenity":"waste_basket","waste":"dog_excrement"}},"type":"Feature"},
	{"geometry":{"coordinates":[8.614841,49.693763],"type":"Point"},"properties":{"osm_id":"6422042247","tag":{"amenity":"recycling","recycling:clothes":"yes","recycling_type":"container"}},"type":"Feature"},
	{"geometry":{"coordinates":[8.616395,49.674951],"type":"Point"},"properties":{"osm_id":"6438969312","tag":{"amenity":"recycling","recycling:glass":"yes","recycling_type":"container"}},"type":"Feature"},
	{"geometry":{"coordinates":[8.623955,49.709059],"type":"Point"},"properties":{"osm_id":"6441671021","tag":{"amenity":"waste_basket"}},"type":"Feature"},
	{"geometry":{"coordinates":[8.625647,49.682102],"type":"Point"},"properties":{"osm_id":"7416076134","tag":{"amenity":"waste_basket"}},"type":"Feature"},
	{"geometry":{"coordinates":[8.642265,49.679415],"type":"Point"},"properties":{"osm_id":"7420300641","tag":{"amenity":"waste_basket","colour":"green","material":"metal","waste":"mixed"}},"type":"Feature"},
	{"geometry":{"coordinates":[8.672021,49.70288],"type":"Point"},"properties":{"osm_id":"7511559109","tag":{"amenity":"waste_disposal"}},"type":"Feature"},
	{"geometry":{"coordinates":[8.655137,49.688833],"type":"Point"},"properties":{"osm_id":"7524645399","tag":{"amenity":"waste_basket"}},"type":"Feature"},
	{"geometry":{"coordinates":[8.664871,49.714371],"type":"Point"},"properties":{"osm_id":"7645907242","tag":{"amenity":"waste_basket","waste":"trash"}},"type":"Feature"}
]
}
