{
"type": "FeatureCollection",
"features": [
	{"geometry":{"coordinates":[8.624613,49.643132],"type":"Point"},"properties":{"osm_id":"249060725","tag":{"amenity":"recycling","recycling:clothes":"yes","recycling:glass":"yes","recycling_type":"container"}},"type":"Feature"},
	{"geometry":{"coordinates":[8.638982,49.634604],"type":"Point"},"properties":{"osm_id":"281949760","tag":{"amenity":"recycling","recycling:clothes":"yes","recycling_type":"container"}},"type":"Feature"},
	{"geometry":{"coordinates":[8.699023,49.624751],"type":"Point"},"properties":{"osm_id":"296554446","tag":{"amenity":"recycling","recycling:glass":"yes","recycling_type":"container","survey:date":"2020-07-03"}},"type":"Feature"},
	{"geometry":{"coordinates":[8.634952,49.649318],"type":"Point"},"properties":{"osm_id":"301737898","tag":{"amenity":"recycling","mapillary":"KA5b-91W3aioyuhBJx6SHA","recycling:clothes":"yes","recycling:glass_bottles":"yes","recycling:shoes":"yes","recycling_type":"container","survey:date":"2017-01-29"}},"type":"Feature"},
	{"geometry":{"coordinates":[8.640464,49.63602],"type":"Point"},"properties":{"osm_id":"308345008","tag":{"amenity":"recycling","recycling:glass":"yes","recycling_type":"container"}},"type":"Feature"},
	{"geometry":{"coordinates":[8.624572,49.649163],"type":"Point"},"properties":{"osm_id":"367046384","tag":{"amenity":"recycling","recycling:glass_bottles":"yes"}},"type":"Feature"},
	{"geometry":{"coordinates":[8.625401,49.63216],"type":"Point"},"properties":{"osm_id":"370674271","tag":{"amenity":"recycling","recycling:batteries":"yes","recycling:clothes":"yes","recycling:glass":"yes","recycling_type":"container"}},"type":"Feature"},
	{"geometry":{"coordinates":[8.632749,49.633724],"type":"Point"},"properties":{"osm_id":"370926725","tag":{"amenity":"recycling","recycling:batteries":"yes","recycling:clothes":"yes","recycling:glass":"yes"}},"type":"Feature"},
	{"geometry":{"coordinates":[8.636048,49.630282],"type":"Point"},"properties":{"osm_id":"370938518","tag":{"amenity":"recycling","recycling:glass":"yes","recycling:shoes":"yes"}},"type":"Feature"},
	{"geometry":{"coordinates":[8.695153,49.62355],"type":"Point"},"properties":{"osm_id":"530005815","tag":{"amenity":"waste_basket"}},"type":"Feature"},
	{"geometry":{"coordinates":[8.695253,49.623472],"type":"Point"},"properties":{"osm_id":"530005820","tag":{"amenity":"waste_basket"}},"type":"Feature"},
	{"geometry":{"coordinates":[8.649821,49.64162],"type":"Point"},"properties":{"osm_id":"537095100","tag":{"amenity":"waste_basket"}},"type":"Feature"},
	{"geometry":{"coordinates":[8.677759,49.645063],"type":"Point"},"properties":{"osm_id":"538057328","tag":{"amenity":"waste_basket"}},"type":"Feature"},
	{"geometry":{"coordinates":[8.629336,49.63343],"type":"Point"},"properties":{"osm_id":"1337931044","tag":{"amenity":"recycling","mapillary":"o5IViK_4AgaYOV9YopRPBw","recycling:glass":"yes","recycling_type":"container","survey:date":"2020-01-18"}},"type":"Feature"},
	{"geometry":{"coordinates":[8.630228,49.632869],"type":"Point"},"properties":{"osm_id":"1337931056","tag":{"amenity":"recycling","recycling:clothes":"yes","recycling:shoes":"yes"}},"type":"Feature"},
	{"geometry":{"coordinates":[8.632798,49.641421],"type":"Point"},"properties":{"osm_id":"1342145854","tag":{"amenity":"waste_basket"}},"type":"Feature"},
	{"geometry":{"coordinates":[8.632942,49.641358],"type":"Point"},"properties":{"osm_id":"1342145867","tag":{"amenity":"waste_basket"}},"type":"Feature"},
	{"geometry":{"coordinates":[8.63284,49.641339],"type":"Point"},"properties":{"osm_id":"1342145868","tag":{"amenity":"waste_basket"}},"type":"Feature"},
	{"geometry":{"coordinates":[8.632908,49.641438],"type":"Point"},"properties":{"osm_id":"1342145869","tag":{"amenity":"waste_basket"}},"type":"Feature"},
	{"geometry":{"coordinates":[8.6329,49.641731],"type":"Point"},"properties":{"osm_id":"1342634457","tag":{"amenity":"waste_basket"}},"type":"Feature"},
	{"geometry":{"coordinates":[8.635357,49.637855],"type":"Point"},"properties":{"osm_id":"1343143382","tag":{"amenity":"recycling","location":"overground","recycling:clothes":"yes","recycling:glass":"yes","recycling_type":"container"}},"type":"Feature"},
	{"geometry":{"coordinates":[8.634364,49.637521],"type":"Point"},"properties":{"osm_id":"1362132159","tag":{"amenity":"waste_basket"}},"type":"Feature"},
	{"geometry":{"coordinates":[8.629478,49.636335],"type":"Point"},"properties":{"osm_id":"1369705882","tag":{"amenity":"recycling","location":"overground","recycling:glass":"yes","recycling_type":"container"}},"type":"Feature"},
	{"geometry":{"coordinates":[8.630684,49.641186],"type":"Point"},"properties":{"osm_id":"1369705964","tag":{"amenity":"waste_basket"}},"type":"Feature"},
	{"geometry":{"coordinates":[8.66917,49.614549],"type":"Point"},"properties":{"osm_id":"1603400147","tag":{"amenity":"waste_basket"}},"type":"Feature"},
	{"geometry":{"coordinates":[8.621598,49.633249],"type":"Point"},"properties":{"osm_id":"2276905035","tag":{"amenity":"waste_basket"}},"type":"Feature"},
	{"geometry":{"coordinates":[8.620225,49.633595],"type":"Point"},"properties":{"osm_id":"2284338182","tag":{"amenity":"waste_basket"}},"type":"Feature"},
	{"geometry":{"coordinates":[8.621298,49.633713],"type":"Point"},"properties":{"osm_id":"2284338246","tag":{"amenity":"waste_basket"}},"type":"Feature"},
	{"geometry":{"coordinates":[8.61955,49.634189],"type":"Point"},"properties":{"osm_id":"2284342415","tag":{"amenity":"waste_basket"}},"type":"Feature"},
	{"geometry":{"coordinates":[8.651644,49.650678],"type":"Point"},"properties":{"osm_id":"2332325033","tag":{"amenity":"recycling","recycling:glass":"yes","recycling_type":"container"}},"type":"Feature"},
	{"geometry":{"coordinates":[8.651827,49.650572],"type":"Point"},"properties":{"osm_id":"2334653527","tag":{"amenity":"waste_basket"}},"type":"Feature"},
	{"geometry":{"coordinates":[8.619994,49.634276],"type":"Point"},"properties":{"osm_id":"2820315964","tag":{"amenity":"recycling","location":"overground","recycling_type":"container"}},"type":"Feature"},
	{"geometry":{"coordinates":[8.633298,49.641494],"type":"Point"},"properties":{"osm_id":"2835082605","tag":{"amenity":"waste_basket"}},"type":"Feature"},
	{"geometry":{"coordinates":[8.632536,49.629351],"type":"Point"},"properties":{"osm_id":"6044387999","tag":{"amenity":"waste_basket"}},"type":"Feature"},
	{"geometry":{"coordinates":[8.63601,49.625798],"type":"Point"},"properties":{"osm_id":"6044388007","tag":{"amenity":"waste_basket","waste_basket:excrement_bags":"yes"}},"type":"Feature"},
	{"geometry":{"coordinates":[8.634296,49.625536],"type":"Point"},"properties":{"osm_id":"6044388010","tag":{"amenity":"waste_basket","waste_basket:excrement_bags":"yes"}},"type":"Feature"},
	{"geometry":{"coordinates":[8.633526,49.625838],"type":"Point"},"properties":{"osm_id":"6044388011","tag":{"amenity":"waste_basket"}},"type":"Feature"},
	{"geometry":{"coordinates":[8.632772,49.626443],"type":"Point"},"properties":{"osm_id":"6044388012","tag":{"amenity":"waste_basket"}},"type":"Feature"},
	{"geometry":{"coordinates":[8.669275,49.613291],"type":"Point"},"properties":{"osm_id":"7542405246","tag":{"amenity":"waste_basket","waste":"trash"}},"type":"Feature"}
]
}
