{
"type": "FeatureCollection",
"features": [
	{"geometry":{"coordinates":[8.665881,49.550445],"type":"Point"},"properties":{"osm_id":"16257528","tag":{"amenity":"recycling","recycling:cork":"yes"}},"type":"Feature"},
	{"geometry":{"coordinates":[8.670469,49.547115],"type":"Point"},"properties":{"osm_id":"296363991","tag":{"amenity":"recycling","location":"overground","recycling:glass":"yes","recycling_type":"container"}},"type":"Feature"},
	{"geometry":{"coordinates":[8.664994,49.517283],"type":"Point"},"properties":{"osm_id":"326033067","tag":{"amenity":"recycling","recycling:clothes":"yes","recycling:glass":"yes","recycling_type":"container"}},"type":"Feature"},
	{"geometry":{"coordinates":[8.645044,49.54367],"type":"Point"},"properties":{"osm_id":"364771908","tag":{"amenity":"recycling","recycling:glass":"yes"}},"type":"Feature"},
	{"geometry":{"coordinates":[8.645043,49.543618],"type":"Point"},"properties":{"osm_id":"364771920","tag":{"amenity":"recycling","recycling:clothes":"yes","recycling_type":"container"}},"type":"Feature"},
	{"geometry":{"coordinates":[8.646394,49.54354],"type":"Point"},"properties":{"osm_id":"364771923","tag":{"amenity":"recycling","mapillary":"Oc_RXPZy-onkAR--Yy4tSw","recycling:clothes":"yes","recycling_type":"container","survey:date":"2016-10-02"}},"type":"Feature"},
	{"geometry":{"coordinates":[8.649658,49.546592],"type":"Point"},"properties":{"osm_id":"1690210433","tag":{"amenity":"recycling","recycling:clothes":"yes"}},"type":"Feature"},
	{"geometry":{"coordinates":[8.645157,49.548241],"type":"Point"},"properties":{"osm_id":"1740268334","tag":{"amenity":"recycling","recycling:clothes":"yes"}},"type":"Feature"},
	{"geometry":{"coordinates":[8.656363,49.546666],"type":"Point"},"properties":{"osm_id":"1746999081","tag":{"amenity":"recycling","recycling:clothes":"yes"}},"type":"Feature"},
	{"geometry":{"coordinates":[8.639486,49.542318],"type":"Point"},"properties":{"osm_id":"2029738142","tag":{"amenity":"recycling","recycling:clothes":"yes"}},"type":"Feature"},
	{"geometry":{"coordinates":[8.636375,49.542151],"type":"Point"},"properties":{"osm_id":"2046675770","tag":{"amenity":"recycling","mapillary":"15XGhO81EBNi4y_4wXnMUA","recycling:clothes":"yes","recycling_type":"container","survey:date":"2016-11-12"}},"type":"Feature"},
	{"geometry":{"coordinates":[8.631261,49.544491],"type":"Point"},"properties":{"osm_id":"2046751772","tag":{"amenity":"recycling","recycling:clothes":"yes"}},"type":"Feature"},
	{"geometry":{"coordinates":[8.63639,49.543387],"type":"Point"},"properties":{"osm_id":"2051623198","tag":{"amenity":"recycling","recycling:clothes":"yes"}},"type":"Feature"},
	{"geometry":{"coordinates":[8.656978,49.526745],"type":"Point"},"properties":{"osm_id":"3152019972","tag":{"amenity":"waste_basket"}},"type":"Feature"},
	{"geometry":{"coordinates":[8.657355,49.527035],"type":"Point"},"properties":{"osm_id":"3152019979","tag":{"amenity":"waste_basket"}},"type":"Feature"},
	{"geometry":{"coordinates":[8.656015,49.509223],"type":"Point"},"properties":{"osm_id":"3152020316","tag":{"amenity":"waste_basket"}},"type":"Feature"},
	{"geometry":{"coordinates":[8.656616,49.514042],"type":"Point"},"properties":{"osm_id":"3152020413","tag":{"amenity":"waste_basket"}},"type":"Feature"},
	{"geometry":{"coordinates":[8.656799,49.514106],"type":"Point"},"properties":{"osm_id":"3152020423","tag":{"amenity":"waste_basket"}},"type":"Feature"},
	{"geometry":{"coordinates":[8.655258,49.520201],"type":"Point"},"properties":{"osm_id":"3152020509","tag":{"amenity":"waste_basket"}},"type":"Feature"},
	{"geometry":{"coordinates":[8.655364,49.520651],"type":"Point"},"properties":{"osm_id":"3152020521","tag":{"amenity":"waste_basket"}},"type":"Feature"},
	{"geometry":{"coordinates":[8.658245,49.532752],"type":"Point"},"properties":{"osm_id":"3152020637","tag":{"amenity":"waste_basket"}},"type":"Feature"},
	{"geometry":{"coordinates":[8.65854,49.533047],"type":"Point"},"properties":{"osm_id":"3152020648","tag":{"amenity":"waste_basket"}},"type":"Feature"},
	{"geometry":{"coordinates":[8.658597,49.533154],"type":"Point"},"properties":{"osm_id":"3152020657","tag":{"amenity":"waste_basket"}},"type":"Feature"},
	{"geometry":{"coordinates":[8.660708,49.54093],"type":"Point"},"properties":{"osm_id":"3152020926","tag":{"amenity":"waste_basket"}},"type":"Feature"},
	{"geometry":{"coordinates":[8.660986,49.541206],"type":"Point"},"properties":{"osm_id":"3152020930","tag":{"amenity":"waste_basket"}},"type":"Feature"},
	{"geometry":{"coordinates":[8.664997,49.548815],"type":"Point"},"properties":{"osm_id":"3152020959","tag":{"amenity":"waste_basket"}},"type":"Feature"},
	{"geometry":{"coordinates":[8.665165,49.549014],"type":"Point"},"properties":{"osm_id":"3152021068","tag":{"amenity":"waste_basket"}},"type":"Feature"},
	{"geometry":{"coordinates":[8.665052,49.54903],"type":"Point"},"properties":{"osm_id":"3152021073","tag":{"amenity":"waste_basket"}},"type":"Feature"},
	{"geometry":{"coordinates":[8.664911,49.549031],"type":"Point"},"properties":{"osm_id":"3152021074","tag":{"amenity":"waste_basket"}},"type":"Feature"},
	{"geometry":{"coordinates":[8.655367,49.498187],"type":"Point"},"properties":{"osm_id":"4007718740","tag":{"amenity":"recycling","mapillary":"VJH6FhJvAdarvAWJ0bpETQ","recycling:clothes":"yes","recycling_type":"container","survey:date":"2018-09-15"}},"type":"Feature"},
	{"geometry":{"coordinates":[8.615079,49.514705],"type":"Point"},"properties":{"osm_id":"4497366135","tag":{"amenity":"waste_basket"}},"type":"Feature"},
	{"geometry":{"coordinates":[8.617234,49.51561],"type":"Point"},"properties":{"osm_id":"4497366141","tag":{"amenity":"waste_basket"}},"type":"Feature"},
	{"geometry":{"coordinates":[8.617869,49.51588],"type":"Point"},"properties":{"osm_id":"4497366143","tag":{"amenity":"waste_basket"}},"type":"Feature"},
	{"geometry":{"coordinates":[8.618754,49.516339],"type":"Point"},"properties":{"osm_id":"4497366147","tag":{"amenity":"waste_basket"}},"type":"Feature"},
	{"geometry":{"coordinates":[8.619385,49.516591],"type":"Point"},"properties":{"osm_id":"4497366156","tag":{"amenity":"waste_basket"}},"type":"Feature"},
	{"geometry":{"coordinates":[8.619849,49.516725],"type":"Point"},"properties":{"osm_id":"4497366157","tag":{"amenity":"waste_basket"}},"type":"Feature"},
	{"geometry":{"coordinates":[8.620544,49.517289],"type":"Point"},"properties":{"osm_id":"4497366158","tag":{"amenity":"waste_basket"}},"type":"Feature"},
	{"geometry":{"coordinates":[8.6213,49.517509],"type":"Point"},"properties":{"osm_id":"4497366161","tag":{"amenity":"waste_basket"}},"type":"Feature"},
	{"geometry":{"coordinates":[8.621997,49.518262],"type":"Point"},"properties":{"osm_id":"4497366164","tag":{"amenity":"waste_basket"}},"type":"Feature"},
	{"geometry":{"coordinates":[8.622988,49.518995],"type":"Point"},"properties":{"osm_id":"4497366171","tag":{"amenity":"waste_basket"}},"type":"Feature"},
	{"geometry":{"coordinates":[8.622472,49.51039],"type":"Point"},"properties":{"osm_id":"4497366179","tag":{"amenity":"waste_basket"}},"type":"Feature"},
	{"geometry":{"coordinates":[8.616037,49.515026],"type":"Point"},"properties":{"osm_id":"4617197843","tag":{"amenity":"waste_basket"}},"type":"Feature"},
	{"geometry":{"coordinates":[8.61565,49.514736],"type":"Point"},"properties":{"osm_id":"4617197844","tag":{"amenity":"waste_basket"}},"type":"Feature"},
	{"geometry":{"coordinates":[8.616338,49.519382],"type":"Point"},"properties":{"osm_id":"4749835793","tag":{"amenity":"waste_basket"}},"type":"Feature"},
	{"geometry":{"coordinates":[8.652019,49.528956],"type":"Point"},"properties":{"osm_id":"6090864589","tag":{"amenity":"waste_basket","waste":"trash"}},"type":"Feature"},
	{"geometry":{"coordinates":[8.674294,49.530861],"type":"Point"},"properties":{"osm_id":"6361466772","tag":{"amenity":"waste_basket","waste":"trash"}},"type":"Feature"},
	{"geometry":{"coordinates":[8.674453,49.529911],"type":"Point"},"properties":{"osm_id":"6361469193","tag":{"amenity":"waste_basket","waste":"trash"}},"type":"Feature"},
	{"geometry":{"coordinates":[8.675222,49.530704],"type":"Point"},"properties":{"osm_id":"6361469201","tag":{"amenity":"waste_basket","waste":"trash"}},"type":"Feature"},
	{"geometry":{"coordinates":[8.667849,49.55229],"type":"Point"},"properties":{"osm_id":"6361469291","tag":{"amenity":"waste_basket","waste":"trash"}},"type":"Feature"},
	{"geometry":{"coordinates":[8.677234,49.546445],"type":"Point"},"properties":{"osm_id":"6418457953","tag":{"amenity":"waste_basket"}},"type":"Feature"},
	{"geometry":{"coordinates":[8.677031,49.546118],"type":"Point"},"properties":{"osm_id":"6418457964","tag":{"amenity":"waste_basket"}},"type":"Feature"},
	{"geometry":{"coordinates":[8.63793,49.537283],"type":"Point"},"properties":{"osm_id":"6615900415","tag":{"amenity":"waste_basket"}},"type":"Feature"},
	{"geometry":{"coordinates":[8.637541,49.537021],"type":"Point"},"properties":{"osm_id":"6615914916","tag":{"amenity":"waste_basket"}},"type":"Feature"},
	{"geometry":{"coordinates":[8.63804,49.536853],"type":"Point"},"properties":{"osm_id":"6632999298","tag":{"amenity":"waste_basket","waste":"trash"}},"type":"Feature"},
	{"geometry":{"coordinates":[8.641861,49.52975],"type":"Point"},"properties":{"osm_id":"6852728502","tag":{"amenity":"waste_basket","waste":"trash"}},"type":"Feature"},
	{"geometry":{"coordinates":[8.646097,49.534365],"type":"Point"},"properties":{"osm_id":"6852731419","tag":{"amenity":"waste_basket","waste":"trash"}},"type":"Feature"},
	{"geometry":{"coordinates":[8.660451,49.511731],"type":"Point"},"properties":{"osm_id":"7096926957","tag":{"amenity":"waste_basket","waste":"trash"}},"type":"Feature"},
	{"geometry":{"coordinates":[8.657288,49.512827],"type":"Point"},"properties":{"osm_id":"7140271862","tag":{"amenity":"waste_basket","waste":"trash"}},"type":"Feature"},
	{"geometry":{"coordinates":[8.614677,49.498172],"type":"Point"},"properties":{"osm_id":"7685905047","tag":{"amenity":"waste_basket"}},"type":"Feature"},
	{"geometry":{"coordinates":[8.617927,49.509731],"type":"Point"},"properties":{"osm_id":"7727358849","tag":{"amenity":"waste_basket"}},"type":"Feature"}
]
}
