{
"type": "FeatureCollection",
"features": [
	{"geometry":{"coordinates":[8.683914,49.475298],"type":"Point"},"properties":{"osm_id":"335872288","tag":{"amenity":"recycling","operator":"AVR","recycling:glass_bottles":"yes","recycling_type":"container"}},"type":"Feature"},
	{"geometry":{"coordinates":[8.664881,49.46463],"type":"Point"},"properties":{"osm_id":"420356823","tag":{"amenity":"recycling","recycling:glass":"yes"}},"type":"Feature"},
	{"geometry":{"coordinates":[8.690263,49.451521],"type":"Point"},"properties":{"osm_id":"563236590","tag":{"amenity":"waste_basket"}},"type":"Feature"},
	{"geometry":{"coordinates":[8.613998,49.471657],"type":"Point"},"properties":{"osm_id":"1565035473","tag":{"amenity":"recycling","operator":"Johanniter","recycling:clothes":"yes","recycling:shoes":"yes","recycling_type":"container"}},"type":"Feature"},
	{"geometry":{"coordinates":[8.676664,49.442026],"type":"Point"},"properties":{"barrier":"gate","osm_id":"1588257834","tag":{"access":"private"}},"type":"Feature"},
	{"geometry":{"coordinates":[8.616136,49.446248],"type":"Point"},"properties":{"osm_id":"1792575008","tag":{"amenity":"waste_basket"}},"type":"Feature"},
	{"geometry":{"coordinates":[8.615126,49.446887],"type":"Point"},"properties":{"osm_id":"1792575009","tag":{"amenity":"waste_basket"}},"type":"Feature"},
	{"geometry":{"coordinates":[8.614521,49.447436],"type":"Point"},"properties":{"osm_id":"1792575012","tag":{"amenity":"waste_basket"}},"type":"Feature"},
	{"geometry":{"coordinates":[8.613547,49.448347],"type":"Point"},"properties":{"osm_id":"1792575014","tag":{"amenity":"waste_basket"}},"type":"Feature"},
	{"geometry":{"coordinates":[8.676621,49.442324],"type":"Point"},"properties":{"barrier":"gate","osm_id":"2072616036","tag":{"access":"destination"}},"type":"Feature"},
	{"geometry":{"coordinates":[8.651765,49.474477],"type":"Point"},"properties":{"osm_id":"2330876481","tag":{"amenity":"recycling","recycling:glass":"yes","recycling_type":"container"}},"type":"Feature"},
	{"geometry":{"coordinates":[8.678503,49.458771],"type":"Point"},"properties":{"osm_id":"2331630531","tag":{"amenity":"waste_basket"}},"type":"Feature"},
	{"geometry":{"coordinates":[8.6816,49.450165],"type":"Point"},"properties":{"osm_id":"2774186073","tag":{"amenity":"waste_basket"}},"type":"Feature"},
	{"geometry":{"coordinates":[8.685623,49.447029],"type":"Point"},"properties":{"osm_id":"2833296037","tag":{"amenity":"waste_basket","source:position":"HiRes aerial imagery"}},"type":"Feature"},
	{"geometry":{"coordinates":[8.684538,49.445747],"type":"Point"},"properties":{"osm_id":"2833296169","tag":{"amenity":"waste_basket","source:position":"HiRes aerial imagery"}},"type":"Feature"},
	{"geometry":{"coordinates":[8.686737,49.44646],"type":"Point"},"properties":{"osm_id":"2833296190","tag":{"amenity":"waste_basket"}},"type":"Feature"},
	{"geometry":{"coordinates":[8.685296,49.447468],"type":"Point"},"properties":{"osm_id":"2833296315","tag":{"amenity":"waste_basket","source:position":"HiRes aerial imagery"}},"type":"Feature"},
	{"geometry":{"coordinates":[8.675136,49.492934],"type":"Point"},"properties":{"osm_id":"2905904748","tag":{"amenity":"waste_basket"}},"type":"Feature"},
	{"geometry":{"coordinates":[8.615071,49.441265],"type":"Point"},"properties":{"osm_id":"3152018977","tag":{"amenity":"waste_basket"}},"type":"Feature"},
	{"geometry":{"coordinates":[8.614754,49.441386],"type":"Point"},"properties":{"osm_id":"3152018986","tag":{"amenity":"waste_basket"}},"type":"Feature"},
	{"geometry":{"coordinates":[8.663678,49.463239],"type":"Point"},"properties":{"osm_id":"3152019500","tag":{"amenity":"waste_basket"}},"type":"Feature"},
	{"geometry":{"coordinates":[8.663575,49.463552],"type":"Point"},"properties":{"osm_id":"3152019512","tag":{"amenity":"waste_basket"}},"type":"Feature"},
	{"geometry":{"coordinates":[8.677372,49.456808],"type":"Point"},"properties":{"osm_id":"3277741886","tag":{"amenity":"waste_basket"}},"type":"Feature"},
	{"geometry":{"coordinates":[8.677542,49.457014],"type":"Point"},"properties":{"osm_id":"3277741888","tag":{"amenity":"waste_basket"}},"type":"Feature"},
	{"geometry":{"coordinates":[8.678656,49.458687],"type":"Point"},"properties":{"osm_id":"3277741895","tag":{"amenity":"waste_basket"}},"type":"Feature"},
	{"geometry":{"coordinates":[8.6789,49.458822],"type":"Point"},"properties":{"osm_id":"3277741896","tag":{"amenity":"waste_basket"}},"type":"Feature"},
	{"geometry":{"coordinates":[8.679703,49.459417],"type":"Point"},"properties":{"osm_id":"3277741900","tag":{"amenity":"waste_basket"}},"type":"Feature"},
	{"geometry":{"coordinates":[8.674755,49.446628],"type":"Point"},"properties":{"osm_id":"3402876079","tag":{"amenity":"recycling","operator":"Sehbehinderten Selbsthilfe Kurpfalz-Odenwald e.V.","recycling:clothes":"yes","recycling:shoes":"yes","recycling_type":"container","source:geometry":"Bing 2012"}},"type":"Feature"},
	{"geometry":{"coordinates":[8.690108,49.447832],"type":"Point"},"properties":{"osm_id":"4078536581","tag":{"amenity":"waste_basket"}},"type":"Feature"},
	{"geometry":{"coordinates":[8.689942,49.44797],"type":"Point"},"properties":{"osm_id":"4078537514","tag":{"amenity":"waste_basket"}},"type":"Feature"},
	{"geometry":{"coordinates":[8.688647,49.448367],"type":"Point"},"properties":{"osm_id":"4078537574","tag":{"amenity":"waste_basket"}},"type":"Feature"},
	{"geometry":{"coordinates":[8.618083,49.473844],"type":"Point"},"properties":{"osm_id":"4171968246","tag":{"amenity":"waste_basket"}},"type":"Feature"},
	{"geometry":{"coordinates":[8.628405,49.445676],"type":"Point"},"properties":{"osm_id":"4256150569","tag":{"amenity":"waste_basket"}},"type":"Feature"},
	{"geometry":{"coordinates":[8.631756,49.444016],"type":"Point"},"properties":{"osm_id":"4263594843","tag":{"amenity":"waste_basket"}},"type":"Feature"},
	{"geometry":{"coordinates":[8.668175,49.477023],"type":"Point"},"properties":{"osm_id":"4430642577","tag":{"amenity":"waste_basket"}},"type":"Feature"},
	{"geometry":{"coordinates":[8.669841,49.477911],"type":"Point"},"properties":{"osm_id":"4430643296","tag":{"amenity":"waste_basket"}},"type":"Feature"},
	{"geometry":{"coordinates":[8.67445,49.48138],"type":"Point"},"properties":{"osm_id":"4430643523","tag":{"amenity":"waste_basket"}},"type":"Feature"},
	{"geometry":{"coordinates":[8.674129,49.481391],"type":"Point"},"properties":{"osm_id":"4430643524","tag":{"amenity":"waste_basket"}},"type":"Feature"},
	{"geometry":{"coordinates":[8.664903,49.475232],"type":"Point"},"properties":{"osm_id":"4437862951","tag":{"amenity":"waste_basket"}},"type":"Feature"},
	{"geometry":{"coordinates":[8.666261,49.475513],"type":"Point"},"properties":{"osm_id":"4437863109","tag":{"amenity":"waste_basket"}},"type":"Feature"},
	{"geometry":{"coordinates":[8.663843,49.475558],"type":"Point"},"properties":{"osm_id":"4437863119","tag":{"amenity":"waste_basket"}},"type":"Feature"},
	{"geometry":{"coordinates":[8.666355,49.476242],"type":"Point"},"properties":{"osm_id":"4437863190","tag":{"amenity":"waste_basket"}},"type":"Feature"},
	{"geometry":{"coordinates":[8.665479,49.476446],"type":"Point"},"properties":{"osm_id":"4437863298","tag":{"amenity":"waste_basket"}},"type":"Feature"},
	{"geometry":{"coordinates":[8.684596,49.484929],"type":"Point"},"properties":{"osm_id":"4439508430","tag":{"amenity":"waste_basket"}},"type":"Feature"},
	{"geometry":{"coordinates":[8.670928,49.470291],"type":"Point"},"properties":{"osm_id":"4452299861","tag":{"amenity":"waste_basket"}},"type":"Feature"},
	{"geometry":{"coordinates":[8.670324,49.473941],"type":"Point"},"properties":{"osm_id":"4452299866","tag":{"amenity":"waste_basket"}},"type":"Feature"},
	{"geometry":{"coordinates":[8.668813,49.474353],"type":"Point"},"properties":{"osm_id":"4452299868","tag":{"amenity":"waste_basket"}},"type":"Feature"},
	{"geometry":{"coordinates":[8.614533,49.466936],"type":"Point"},"properties":{"osm_id":"4524119369","tag":{"amenity":"waste_basket"}},"type":"Feature"},
	{"geometry":{"coordinates":[8.614206,49.466965],"type":"Point"},"properties":{"osm_id":"4524119915","tag":{"amenity":"waste_basket"}},"type":"Feature"},
	{"geometry":{"coordinates":[8.66546,49.453073],"type":"Point"},"properties":{"osm_id":"5625240815","tag":{"amenity":"recycling","contact:phone":"+49 157 36056429","recycling:clothes":"yes","recycling_type":"container"}},"type":"Feature"},
	{"geometry":{"coordinates":[8.675975,49.444885],"type":"Point"},"properties":{"osm_id":"5638460513","tag":{"amenity":"recycling","contact:phone":"+49 6431 580039","operator":"Baliz Textilwerke","recycling:clothes":"yes","recycling_type":"container"}},"type":"Feature"},
	{"geometry":{"coordinates":[8.654334,49.444193],"type":"Point"},"properties":{"osm_id":"6465141469","tag":{"amenity":"waste_basket"}},"type":"Feature"},
	{"geometry":{"coordinates":[8.676091,49.471721],"type":"Point"},"properties":{"osm_id":"6723563402","tag":{"amenity":"waste_basket","waste":"trash"}},"type":"Feature"},
	{"geometry":{"coordinates":[8.668847,49.474429],"type":"Point"},"properties":{"osm_id":"6723563404","tag":{"amenity":"waste_basket","waste":"trash"}},"type":"Feature"},
	{"geometry":{"coordinates":[8.677194,49.439734],"type":"Point"},"properties":{"osm_id":"6820715169","tag":{"amenity":"waste_basket","waste":"trash"}},"type":"Feature"},
	{"geometry":{"coordinates":[8.669959,49.4485],"type":"Point"},"properties":{"osm_id":"7003946602","tag":{"amenity":"waste_basket","waste":"trash"}},"type":"Feature"},
	{"geometry":{"coordinates":[8.669766,49.448645],"type":"Point"},"properties":{"osm_id":"7003946603","tag":{"amenity":"waste_basket","waste":"trash"}},"type":"Feature"},
	{"geometry":{"coordinates":[8.667746,49.479393],"type":"Point"},"properties":{"osm_id":"7094044899","tag":{"amenity":"waste_basket","waste":"trash"}},"type":"Feature"}
]
}
