{
"type": "FeatureCollection",
"features": [
	{"geometry":{"coordinates":[8.691572,49.38049],"type":"Point"},"properties":{"osm_id":"61171983","tag":{"amenity":"recycling","recycling:glass":"yes","recycling_type":"container"}},"type":"Feature"},
	{"geometry":{"coordinates":[8.682347,49.382116],"type":"Point"},"properties":{"osm_id":"257217601","tag":{"amenity":"recycling","location":"overground","operator":"Alba","recycling:glass_bottles":"yes","recycling_type":"container","website":"https://www.alba.info/"}},"type":"Feature"},
	{"geometry":{"coordinates":[8.700197,49.364793],"type":"Point"},"properties":{"name":"Recyclinghof Emmertsgrund","osm_id":"309705274","tag":{"addr:city":"Heidelberg","addr:postcode":"69126","addr:street":"Jaspersstra\u00c3\u009fe","amenity":"recycling","description":"Abgabem\u00c3\u00b6glichkeit f\u00c3\u00bcr B\u00c3\u00bcrger*innen und Gewerbe aus Heidelberg. Abk\u00c3\u00bcrzung: E","email":"abfallwirtschaft@heidelberg.de","opening_hours":"Mo-Fr 08:00-12:00, 13:00-16:00; Sa 08:00-15:00","opening_hours:covid19":"open","operator":"Stadt Heidelberg","operator:type":"government","phone":"+4962215829999","recycling:aluminium":"yes","recycling:batteries":"yes","recycling:beverage_cartons":"yes","recycling:books":"yes","recycling:cans":"yes","recycling:cartons":"yes","recycling:clothes":"yes","recycling:electrical_appliances":"yes","recycling:glass_bottles":"yes","recycling:green_waste":"yes","recycling:magazines":"yes","recycling:newspaper":"yes","recycling:organic":"yes","recycling:paper":"yes","recycling:paper_packaging":"yes","recycling:plastic":"yes","recycling:plastic_bottles":"yes","recycling:plastic_packaging":"yes","recycling:scrap_metal":"yes","recycling:shoes":"yes","recycling:small_appliances":"yes","recycling:waste":"yes","recycling:wood":"yes","recycling_type":"centre","website":"https://www.heidelberg.de/hd/HD/Rathaus/Recyclinghoefe.html","wheelchair":"yes"}},"type":"Feature"},
	{"geometry":{"coordinates":[8.65915,49.378478],"type":"Point"},"properties":{"osm_id":"310548102","tag":{"addr:city":"Heidelberg","addr:postcode":"69124","addr:street":"Schwarzwaldstra\u00c3\u009fe","amenity":"recycling","operator":"Stadt Heidelberg","recycling:glass_bottles":"yes","recycling_type":"container"}},"type":"Feature"},
	{"geometry":{"coordinates":[8.664628,49.378937],"type":"Point"},"properties":{"osm_id":"310797727","tag":{"amenity":"recycling","location":"overground","recycling:glass":"no","recycling:glass_bottles":"yes","recycling_type":"container"}},"type":"Feature"},
	{"geometry":{"coordinates":[8.688947,49.38035],"type":"Point"},"properties":{"osm_id":"364061001","tag":{"amenity":"recycling","recycling:glass":"yes","recycling_type":"container"}},"type":"Feature"},
	{"geometry":{"coordinates":[8.688688,49.376866],"type":"Point"},"properties":{"osm_id":"364816177","tag":{"amenity":"recycling","recycling:clothes":"yes","recycling:shoes":"yes","recycling_type":"container"}},"type":"Feature"},
	{"geometry":{"coordinates":[8.664368,49.37789],"type":"Point"},"properties":{"osm_id":"370686135","tag":{"amenity":"recycling","location":"overground","recycling:glass":"yes","recycling_type":"container"}},"type":"Feature"},
	{"geometry":{"coordinates":[8.675636,49.378758],"type":"Point"},"properties":{"osm_id":"370686213","tag":{"amenity":"recycling","recycling:glass":"yes","recycling_type":"container"}},"type":"Feature"},
	{"geometry":{"coordinates":[8.669279,49.377183],"type":"Point"},"properties":{"osm_id":"391316395","tag":{"amenity":"recycling","recycling:glass_bottles":"yes","recycling_type":"container"}},"type":"Feature"},
	{"geometry":{"coordinates":[8.615881,49.374962],"type":"Point"},"properties":{"osm_id":"433220222","tag":{"amenity":"recycling","recycling:glass":"yes"}},"type":"Feature"},
	{"geometry":{"coordinates":[8.688698,49.374198],"type":"Point"},"properties":{"osm_id":"540939071","tag":{"amenity":"recycling","recycling:glass":"yes","recycling:shoes":"yes","recycling_type":"container"}},"type":"Feature"},
	{"geometry":{"coordinates":[8.677134,49.376284],"type":"Point"},"properties":{"osm_id":"570161708","tag":{"amenity":"recycling","opening_hours":"Mo-Sa 07:00-19:00","operator":"Rhenus Logistics","recycling:clothes":"yes","recycling:glass":"yes","recycling_type":"container"}},"type":"Feature"},
	{"geometry":{"coordinates":[8.68248,49.376655],"type":"Point"},"properties":{"osm_id":"570161767","tag":{"amenity":"recycling","location":"overground","recycling:clothes":"yes","recycling:glass":"yes","recycling_type":"container"}},"type":"Feature"},
	{"geometry":{"coordinates":[8.659759,49.376179],"type":"Point"},"properties":{"osm_id":"764396730","tag":{"amenity":"waste_basket","check_date":"2021-03-06"}},"type":"Feature"},
	{"geometry":{"coordinates":[8.659434,49.376369],"type":"Point"},"properties":{"osm_id":"764396743","tag":{"amenity":"waste_basket"}},"type":"Feature"},
	{"geometry":{"coordinates":[8.658157,49.377088],"type":"Point"},"properties":{"osm_id":"764396748","tag":{"amenity":"waste_basket","check_date":"2021-03-06"}},"type":"Feature"},
	{"geometry":{"coordinates":[8.658839,49.376704],"type":"Point"},"properties":{"osm_id":"764396757","tag":{"amenity":"waste_basket","check_date":"2021-03-06"}},"type":"Feature"},
	{"geometry":{"coordinates":[8.657607,49.377452],"type":"Point"},"properties":{"osm_id":"764396760","tag":{"amenity":"waste_basket","check_date":"2021-03-06"}},"type":"Feature"},
	{"geometry":{"coordinates":[8.672771,49.380081],"type":"Point"},"properties":{"osm_id":"776424432","tag":{"amenity":"recycling","location":"overground","recycling:glass":"no","recycling:glass_bottles":"yes","recycling_type":"container"}},"type":"Feature"},
	{"geometry":{"coordinates":[8.681666,49.380277],"type":"Point"},"properties":{"osm_id":"778261504","tag":{"amenity":"recycling","operator":"Alba","recycling:glass_bottles":"yes","recycling_type":"container"}},"type":"Feature"},
	{"geometry":{"coordinates":[8.678356,49.379468],"type":"Point"},"properties":{"osm_id":"778267622","tag":{"amenity":"recycling","operator":"Alba","recycling:glass_bottles":"yes","recycling_type":"container","website":"https://www.alba.info/"}},"type":"Feature"},
	{"geometry":{"coordinates":[8.670917,49.381176],"type":"Point"},"properties":{"osm_id":"801790670","tag":{"amenity":"waste_disposal"}},"type":"Feature"},
	{"geometry":{"coordinates":[8.677541,49.380469],"type":"Point"},"properties":{"osm_id":"850152800","tag":{"amenity":"recycling","location":"overground","recycling:glass_bottles":"yes","recycling_type":"container"}},"type":"Feature"},
	{"geometry":{"coordinates":[8.682504,49.373738],"type":"Point"},"properties":{"osm_id":"1627286640","tag":{"amenity":"recycling","recycling:clothes":"yes","recycling:glass":"yes","recycling_type":"container"}},"type":"Feature"},
	{"geometry":{"coordinates":[8.682304,49.382116],"type":"Point"},"properties":{"osm_id":"1650757245","tag":{"amenity":"recycling","recycling:clothes":"yes","recycling:shoes":"yes","recycling_type":"container"}},"type":"Feature"},
	{"geometry":{"coordinates":[8.678685,49.374562],"type":"Point"},"properties":{"osm_id":"1661258782","tag":{"amenity":"recycling","location":"overground","recycling:glass_bottles":"yes","recycling_type":"container"}},"type":"Feature"},
	{"geometry":{"coordinates":[8.677209,49.377187],"type":"Point"},"properties":{"osm_id":"1721141582","tag":{"amenity":"recycling","recycling:clothes":"yes","recycling_type":"container"}},"type":"Feature"},
	{"geometry":{"coordinates":[8.6784,49.379468],"type":"Point"},"properties":{"osm_id":"1721141605","tag":{"amenity":"recycling","location":"overground","operator":"Textilverbund AG Frankfurt","recycling:clothes":"yes","recycling:shoes":"yes","recycling_type":"container"}},"type":"Feature"},
	{"geometry":{"coordinates":[8.671598,49.350945],"type":"Point"},"properties":{"osm_id":"1944753716","tag":{"amenity":"waste_basket"}},"type":"Feature"},
	{"geometry":{"coordinates":[8.66709,49.381264],"type":"Point"},"properties":{"osm_id":"1985230273","tag":{"amenity":"recycling","recycling:glass":"no","recycling:glass_bottles":"yes","recycling_type":"container"}},"type":"Feature"},
	{"geometry":{"coordinates":[8.688544,49.347989],"type":"Point"},"properties":{"osm_id":"2342170493","tag":{"amenity":"recycling","recycling:clothes":"yes","recycling_type":"container"}},"type":"Feature"},
	{"geometry":{"coordinates":[8.688827,49.364766],"type":"Point"},"properties":{"osm_id":"2430794381","tag":{"amenity":"waste_basket"}},"type":"Feature"},
	{"geometry":{"coordinates":[8.692431,49.349419],"type":"Point"},"properties":{"osm_id":"2515213061","tag":{"amenity":"waste_basket"}},"type":"Feature"},
	{"geometry":{"coordinates":[8.688201,49.339488],"type":"Point"},"properties":{"osm_id":"2574491308","tag":{"amenity":"recycling","recycling:clothes":"yes","recycling_type":"container"}},"type":"Feature"},
	{"geometry":{"coordinates":[8.669047,49.341296],"type":"Point"},"properties":{"osm_id":"2655454282","tag":{"amenity":"waste_basket","check_date":"2021-04-26","source:position":"HiRes aerial imagery"}},"type":"Feature"},
	{"geometry":{"coordinates":[8.681896,49.354839],"type":"Point"},"properties":{"osm_id":"2696629956","tag":{"amenity":"recycling","recycling:clothes":"yes","recycling_type":"container"}},"type":"Feature"},
	{"geometry":{"coordinates":[8.687069,49.351332],"type":"Point"},"properties":{"osm_id":"2697492100","tag":{"amenity":"waste_basket","check_date":"2021-03-07","source:position":"HiRes aerial imagery"}},"type":"Feature"},
	{"geometry":{"coordinates":[8.682219,49.35504],"type":"Point"},"properties":{"osm_id":"2697492133","tag":{"amenity":"waste_basket"}},"type":"Feature"},
	{"geometry":{"coordinates":[8.666217,49.376722],"type":"Point"},"properties":{"osm_id":"2731031707","tag":{"amenity":"waste_basket","check_date":"2021-01-11"}},"type":"Feature"},
	{"geometry":{"coordinates":[8.687983,49.340687],"type":"Point"},"properties":{"osm_id":"2756042664","tag":{"amenity":"waste_basket"}},"type":"Feature"},
	{"geometry":{"coordinates":[8.688583,49.340906],"type":"Point"},"properties":{"osm_id":"2756042692","tag":{"amenity":"waste_basket"}},"type":"Feature"},
	{"geometry":{"coordinates":[8.662807,49.374097],"type":"Point"},"properties":{"osm_id":"2760041157","tag":{"addr:city":"Heidelberg","addr:postcode":"69124","addr:street":"Bruchh\u00c3\u00a4user Weg","amenity":"recycling","opening_hours":"Mo-Sa 07:00-19:00; PH closed","operator":"Stadt Heidelberg","recycling:glass_bottles":"yes","recycling_type":"container"}},"type":"Feature"},
	{"geometry":{"coordinates":[8.688768,49.346214],"type":"Point"},"properties":{"osm_id":"3022456060","tag":{"amenity":"recycling","recycling:clothes":"yes","recycling_type":"container"}},"type":"Feature"},
	{"geometry":{"coordinates":[8.68832,49.347311],"type":"Point"},"properties":{"osm_id":"3022456063","tag":{"amenity":"recycling","recycling:clothes":"yes","recycling_type":"container"}},"type":"Feature"},
	{"geometry":{"coordinates":[8.688016,49.348201],"type":"Point"},"properties":{"osm_id":"3022456065","tag":{"amenity":"recycling","recycling:clothes":"yes","recycling_type":"container"}},"type":"Feature"},
	{"geometry":{"coordinates":[8.685884,49.349026],"type":"Point"},"properties":{"osm_id":"3022456066","tag":{"amenity":"recycling","recycling:clothes":"yes","recycling_type":"container"}},"type":"Feature"},
	{"geometry":{"coordinates":[8.68773,49.327889],"type":"Point"},"properties":{"osm_id":"3247368817","tag":{"amenity":"waste_basket"}},"type":"Feature"},
	{"geometry":{"coordinates":[8.689503,49.327516],"type":"Point"},"properties":{"osm_id":"3249066469","tag":{"amenity":"waste_basket"}},"type":"Feature"},
	{"geometry":{"coordinates":[8.684004,49.328156],"type":"Point"},"properties":{"osm_id":"3249935871","tag":{"amenity":"recycling","recycling:clothes":"yes","recycling:shoes":"yes","recycling_type":"container"}},"type":"Feature"},
	{"geometry":{"coordinates":[8.683478,49.328695],"type":"Point"},"properties":{"osm_id":"3249935888","tag":{"amenity":"recycling","recycling:clothes":"yes","recycling:shoes":"yes","recycling_type":"container"}},"type":"Feature"},
	{"geometry":{"coordinates":[8.685468,49.349027],"type":"Point"},"properties":{"osm_id":"3279759322","tag":{"amenity":"waste_basket"}},"type":"Feature"},
	{"geometry":{"coordinates":[8.672322,49.374775],"type":"Point"},"properties":{"osm_id":"3420113513","tag":{"amenity":"recycling","opening_hours":"Mo-Sa 07:00-12:00,14:00-19:00; PH closed","recycling:glass_bottles":"yes","recycling_type":"container"}},"type":"Feature"},
	{"geometry":{"coordinates":[8.691552,49.379133],"type":"Point"},"properties":{"osm_id":"3424722012","tag":{"amenity":"waste_basket"}},"type":"Feature"},
	{"geometry":{"coordinates":[8.691852,49.3793],"type":"Point"},"properties":{"osm_id":"3424722455","tag":{"amenity":"waste_basket"}},"type":"Feature"},
	{"geometry":{"coordinates":[8.691149,49.379397],"type":"Point"},"properties":{"osm_id":"3424722457","tag":{"amenity":"waste_basket"}},"type":"Feature"},
	{"geometry":{"coordinates":[8.679903,49.364356],"type":"Point"},"properties":{"osm_id":"3479528823","tag":{"amenity":"recycling","recycling:clothes":"yes","recycling:glass":"yes","recycling:shoes":"yes"}},"type":"Feature"},
	{"geometry":{"coordinates":[8.699725,49.376735],"type":"Point"},"properties":{"osm_id":"3611243187","tag":{"amenity":"waste_basket"}},"type":"Feature"},
	{"geometry":{"coordinates":[8.647231,49.336079],"type":"Point"},"properties":{"osm_id":"3697236599","tag":{"amenity":"recycling","recycling:clothes":"yes","recycling:shoes":"yes","recycling_type":"container"}},"type":"Feature"},
	{"geometry":{"coordinates":[8.653506,49.351974],"type":"Point"},"properties":{"osm_id":"3697342064","tag":{"amenity":"recycling","recycling:clothes":"yes","recycling:shoes":"yes","recycling_type":"container"}},"type":"Feature"},
	{"geometry":{"coordinates":[8.66014,49.347409],"type":"Point"},"properties":{"osm_id":"3698467722","tag":{"amenity":"recycling","recycling:clothes":"yes","recycling:shoes":"yes","recycling_type":"container"}},"type":"Feature"},
	{"geometry":{"coordinates":[8.69455,49.327063],"type":"Point"},"properties":{"osm_id":"3759832313","tag":{"amenity":"recycling","recycling:clothes":"yes","recycling:shoes":"yes","recycling_type":"container"}},"type":"Feature"},
	{"geometry":{"coordinates":[8.669916,49.345739],"type":"Point"},"properties":{"osm_id":"3784409535","tag":{"amenity":"recycling","recycling:clothes":"yes","recycling_type":"container"}},"type":"Feature"},
	{"geometry":{"coordinates":[8.650765,49.343268],"type":"Point"},"properties":{"osm_id":"3812492574","tag":{"amenity":"waste_basket"}},"type":"Feature"},
	{"geometry":{"coordinates":[8.691388,49.348747],"type":"Point"},"properties":{"osm_id":"4058949192","tag":{"amenity":"waste_basket","check_date":"2021-02-20","source:position":"HiRes aerial imagery"}},"type":"Feature"},
	{"geometry":{"coordinates":[8.691301,49.348771],"type":"Point"},"properties":{"osm_id":"4058949194","tag":{"amenity":"waste_basket","check_date":"2021-02-20","source:position":"HiRes aerial imagery"}},"type":"Feature"},
	{"geometry":{"coordinates":[8.70042,49.350632],"type":"Point"},"properties":{"osm_id":"4060635502","tag":{"amenity":"waste_basket"}},"type":"Feature"},
	{"geometry":{"coordinates":[8.685848,49.333674],"type":"Point"},"properties":{"osm_id":"4064183890","tag":{"amenity":"waste_basket"}},"type":"Feature"},
	{"geometry":{"coordinates":[8.700489,49.333966],"type":"Point"},"properties":{"osm_id":"4064183893","tag":{"amenity":"waste_basket"}},"type":"Feature"},
	{"geometry":{"coordinates":[8.700848,49.336389],"type":"Point"},"properties":{"osm_id":"4064183896","tag":{"amenity":"waste_basket"}},"type":"Feature"},
	{"geometry":{"coordinates":[8.693065,49.343429],"type":"Point"},"properties":{"osm_id":"4067844894","tag":{"amenity":"waste_basket","source:position":"HiRes aerial imagery"}},"type":"Feature"},
	{"geometry":{"coordinates":[8.69328,49.343512],"type":"Point"},"properties":{"osm_id":"4067844902","tag":{"amenity":"waste_basket","source:position":"HiRes aerial imagery"}},"type":"Feature"},
	{"geometry":{"coordinates":[8.693488,49.343531],"type":"Point"},"properties":{"osm_id":"4067844905","tag":{"amenity":"waste_basket","source:position":"HiRes aerial imagery"}},"type":"Feature"},
	{"geometry":{"coordinates":[8.691805,49.348578],"type":"Point"},"properties":{"osm_id":"4067844923","tag":{"amenity":"waste_basket","check_date":"2021-02-20"}},"type":"Feature"},
	{"geometry":{"coordinates":[8.687776,49.380195],"type":"Point"},"properties":{"osm_id":"4082881940","tag":{"amenity":"waste_basket","check_date":"2021-03-08"}},"type":"Feature"},
	{"geometry":{"coordinates":[8.693235,49.346829],"type":"Point"},"properties":{"osm_id":"4094293650","tag":{"amenity":"waste_basket"}},"type":"Feature"},
	{"geometry":{"coordinates":[8.700779,49.331275],"type":"Point"},"properties":{"osm_id":"4094294569","tag":{"amenity":"waste_basket"}},"type":"Feature"},
	{"geometry":{"coordinates":[8.691445,49.348443],"type":"Point"},"properties":{"osm_id":"4094295002","tag":{"amenity":"waste_basket","check_date":"2021-02-20"}},"type":"Feature"},
	{"geometry":{"coordinates":[8.684903,49.342989],"type":"Point"},"properties":{"osm_id":"4094295116","tag":{"amenity":"waste_basket"}},"type":"Feature"},
	{"geometry":{"coordinates":[8.691561,49.348527],"type":"Point"},"properties":{"osm_id":"4094295119","tag":{"amenity":"waste_basket","check_date":"2021-02-20"}},"type":"Feature"},
	{"geometry":{"coordinates":[8.698768,49.351337],"type":"Point"},"properties":{"osm_id":"4094295130","tag":{"amenity":"recycling","recycling:clothes":"yes","recycling_type":"container"}},"type":"Feature"},
	{"geometry":{"coordinates":[8.698783,49.351345],"type":"Point"},"properties":{"osm_id":"4094295131","tag":{"amenity":"recycling","recycling:shoes":"yes","recycling_type":"container"}},"type":"Feature"},
	{"geometry":{"coordinates":[8.690152,49.373757],"type":"Point"},"properties":{"osm_id":"4122004201","tag":{"amenity":"waste_basket"}},"type":"Feature"},
	{"geometry":{"coordinates":[8.691596,49.37376],"type":"Point"},"properties":{"osm_id":"4122004204","tag":{"amenity":"waste_basket","source:position":"HiRes aerial imagery"}},"type":"Feature"},
	{"geometry":{"coordinates":[8.689961,49.373958],"type":"Point"},"properties":{"osm_id":"4122004210","tag":{"amenity":"waste_basket"}},"type":"Feature"},
	{"geometry":{"coordinates":[8.690865,49.374056],"type":"Point"},"properties":{"osm_id":"4122004231","tag":{"amenity":"waste_basket"}},"type":"Feature"},
	{"geometry":{"coordinates":[8.690767,49.37378],"type":"Point"},"properties":{"osm_id":"4122004292","tag":{"amenity":"waste_basket"}},"type":"Feature"},
	{"geometry":{"coordinates":[8.692027,49.374051],"type":"Point"},"properties":{"osm_id":"4122021602","tag":{"amenity":"waste_basket","source:position":"HiRes aerial imagery"}},"type":"Feature"},
	{"geometry":{"coordinates":[8.691254,49.374076],"type":"Point"},"properties":{"osm_id":"4122021606","tag":{"amenity":"waste_basket","source:position":"HiRes aerial imagery"}},"type":"Feature"},
	{"geometry":{"coordinates":[8.690673,49.341269],"type":"Point"},"properties":{"osm_id":"4127114574","tag":{"amenity":"waste_basket","source:position":"HiRes aerial imagery"}},"type":"Feature"},
	{"geometry":{"coordinates":[8.700837,49.335097],"type":"Point"},"properties":{"osm_id":"4144108321","tag":{"amenity":"waste_basket"}},"type":"Feature"},
	{"geometry":{"coordinates":[8.669419,49.341298],"type":"Point"},"properties":{"osm_id":"4164103411","tag":{"amenity":"waste_basket","check_date":"2021-04-26"}},"type":"Feature"},
	{"geometry":{"coordinates":[8.67115,49.341353],"type":"Point"},"properties":{"osm_id":"4164103416","tag":{"amenity":"waste_basket"}},"type":"Feature"},
	{"geometry":{"coordinates":[8.669709,49.344204],"type":"Point"},"properties":{"osm_id":"4164105633","tag":{"amenity":"waste_basket","check_date":"2021-04-26"}},"type":"Feature"},
	{"geometry":{"coordinates":[8.671483,49.335241],"type":"Point"},"properties":{"osm_id":"4164105774","tag":{"amenity":"waste_basket"}},"type":"Feature"},
	{"geometry":{"coordinates":[8.67144,49.33532],"type":"Point"},"properties":{"osm_id":"4164105777","tag":{"amenity":"waste_basket"}},"type":"Feature"},
	{"geometry":{"coordinates":[8.671264,49.335642],"type":"Point"},"properties":{"osm_id":"4164105783","tag":{"amenity":"waste_basket"}},"type":"Feature"},
	{"geometry":{"coordinates":[8.669073,49.340969],"type":"Point"},"properties":{"osm_id":"4164106794","tag":{"amenity":"waste_basket","check_date":"2021-04-26","source:position":"HiRes aerial imagery"}},"type":"Feature"},
	{"geometry":{"coordinates":[8.670464,49.342712],"type":"Point"},"properties":{"osm_id":"4164106895","tag":{"amenity":"waste_basket"}},"type":"Feature"},
	{"geometry":{"coordinates":[8.693972,49.342376],"type":"Point"},"properties":{"osm_id":"4173494205","tag":{"amenity":"waste_basket"}},"type":"Feature"},
	{"geometry":{"coordinates":[8.675887,49.344349],"type":"Point"},"properties":{"osm_id":"4208775572","tag":{"amenity":"waste_basket"}},"type":"Feature"},
	{"geometry":{"coordinates":[8.674537,49.345835],"type":"Point"},"properties":{"osm_id":"4208775584","tag":{"amenity":"waste_basket"}},"type":"Feature"},
	{"geometry":{"coordinates":[8.673961,49.346538],"type":"Point"},"properties":{"osm_id":"4208775586","tag":{"amenity":"waste_basket","check_date":"2021-03-16"}},"type":"Feature"},
	{"geometry":{"coordinates":[8.672789,49.352072],"type":"Point"},"properties":{"osm_id":"4208776100","tag":{"amenity":"waste_basket"}},"type":"Feature"},
	{"geometry":{"coordinates":[8.656562,49.37877],"type":"Point"},"properties":{"osm_id":"4460340111","tag":{"amenity":"waste_basket","check_date":"2021-03-06"}},"type":"Feature"},
	{"geometry":{"coordinates":[8.656448,49.379126],"type":"Point"},"properties":{"osm_id":"4460340115","tag":{"amenity":"waste_basket","check_date":"2021-03-06"}},"type":"Feature"},
	{"geometry":{"coordinates":[8.656555,49.380335],"type":"Point"},"properties":{"osm_id":"4460340118","tag":{"amenity":"waste_basket","check_date":"2021-03-06"}},"type":"Feature"},
	{"geometry":{"coordinates":[8.656634,49.380458],"type":"Point"},"properties":{"osm_id":"4460340120","tag":{"amenity":"waste_basket","check_date":"2021-03-06"}},"type":"Feature"},
	{"geometry":{"coordinates":[8.656795,49.380604],"type":"Point"},"properties":{"osm_id":"4460340130","tag":{"amenity":"waste_basket","check_date":"2021-03-06"}},"type":"Feature"},
	{"geometry":{"coordinates":[8.696982,49.377456],"type":"Point"},"properties":{"osm_id":"4594188776","tag":{"amenity":"waste_basket","source:position":"HiRes aerial imagery"}},"type":"Feature"},
	{"geometry":{"coordinates":[8.672626,49.343968],"type":"Point"},"properties":{"osm_id":"4597040299","tag":{"amenity":"recycling","recycling:clothes":"yes","recycling:shoes":"yes","recycling_type":"container"}},"type":"Feature"},
	{"geometry":{"coordinates":[8.672729,49.343865],"type":"Point"},"properties":{"osm_id":"4597040300","tag":{"amenity":"recycling","recycling:clothes":"yes","recycling:shoes":"yes","recycling_type":"container"}},"type":"Feature"},
	{"geometry":{"coordinates":[8.632383,49.350918],"type":"Point"},"properties":{"osm_id":"4875645934","tag":{"amenity":"waste_basket"}},"type":"Feature"},
	{"geometry":{"coordinates":[8.682246,49.380049],"type":"Point"},"properties":{"osm_id":"4961901744","tag":{"amenity":"waste_basket"}},"type":"Feature"},
	{"geometry":{"coordinates":[8.68213,49.380072],"type":"Point"},"properties":{"osm_id":"4961901745","tag":{"amenity":"waste_basket"}},"type":"Feature"},
	{"geometry":{"coordinates":[8.693216,49.373059],"type":"Point"},"properties":{"osm_id":"5012759310","tag":{"amenity":"waste_basket"}},"type":"Feature"},
	{"geometry":{"coordinates":[8.682141,49.382001],"type":"Point"},"properties":{"osm_id":"5116923263","tag":{"amenity":"waste_basket"}},"type":"Feature"},
	{"geometry":{"coordinates":[8.666116,49.376715],"type":"Point"},"properties":{"osm_id":"5291860596","tag":{"amenity":"recycling","description":"glass recycling","recycling:glass_bottles":"yes","recycling_type":"container"}},"type":"Feature"},
	{"geometry":{"coordinates":[8.661281,49.38027],"type":"Point"},"properties":{"osm_id":"5291860608","tag":{"amenity":"waste_basket"}},"type":"Feature"},
	{"geometry":{"coordinates":[8.661299,49.380003],"type":"Point"},"properties":{"osm_id":"5291860609","tag":{"amenity":"waste_basket"}},"type":"Feature"},
	{"geometry":{"coordinates":[8.66132,49.379744],"type":"Point"},"properties":{"osm_id":"5291860610","tag":{"amenity":"waste_basket"}},"type":"Feature"},
	{"geometry":{"coordinates":[8.666899,49.376257],"type":"Point"},"properties":{"osm_id":"5291860611","tag":{"amenity":"waste_basket"}},"type":"Feature"},
	{"geometry":{"coordinates":[8.661327,49.37918],"type":"Point"},"properties":{"osm_id":"5295840505","tag":{"amenity":"waste_basket"}},"type":"Feature"},
	{"geometry":{"coordinates":[8.661409,49.379287],"type":"Point"},"properties":{"osm_id":"5295840506","tag":{"amenity":"waste_basket"}},"type":"Feature"},
	{"geometry":{"coordinates":[8.661477,49.379298],"type":"Point"},"properties":{"osm_id":"5295840507","tag":{"amenity":"waste_basket"}},"type":"Feature"},
	{"geometry":{"coordinates":[8.66164,49.379244],"type":"Point"},"properties":{"osm_id":"5295840508","tag":{"amenity":"waste_basket"}},"type":"Feature"},
	{"geometry":{"coordinates":[8.662582,49.379215],"type":"Point"},"properties":{"osm_id":"5295840509","tag":{"amenity":"waste_basket"}},"type":"Feature"},
	{"geometry":{"coordinates":[8.661884,49.3792],"type":"Point"},"properties":{"osm_id":"5295840510","tag":{"amenity":"waste_basket"}},"type":"Feature"},
	{"geometry":{"coordinates":[8.671766,49.379869],"type":"Point"},"properties":{"osm_id":"5297622439","tag":{"amenity":"waste_basket"}},"type":"Feature"},
	{"geometry":{"coordinates":[8.671585,49.37976],"type":"Point"},"properties":{"osm_id":"5297622440","tag":{"amenity":"waste_basket"}},"type":"Feature"},
	{"geometry":{"coordinates":[8.67952,49.373635],"type":"Point"},"properties":{"osm_id":"5329367123","tag":{"amenity":"recycling","recycling:clothes":"yes","recycling:glass":"no","recycling:glass_bottles":"yes","recycling:shoes":"yes","recycling_type":"container"}},"type":"Feature"},
	{"geometry":{"coordinates":[8.686298,49.37388],"type":"Point"},"properties":{"osm_id":"5329403920","tag":{"amenity":"recycling","recycling:glass":"yes","recycling_type":"container"}},"type":"Feature"},
	{"geometry":{"coordinates":[8.681018,49.378287],"type":"Point"},"properties":{"osm_id":"5329414356","tag":{"amenity":"waste_basket","waste":"dog_excrement"}},"type":"Feature"},
	{"geometry":{"coordinates":[8.691544,49.377123],"type":"Point"},"properties":{"osm_id":"5419741199","tag":{"amenity":"waste_basket"}},"type":"Feature"},
	{"geometry":{"coordinates":[8.668563,49.340953],"type":"Point"},"properties":{"osm_id":"5714211839","tag":{"amenity":"waste_basket","waste":"trash"}},"type":"Feature"},
	{"geometry":{"coordinates":[8.668589,49.341124],"type":"Point"},"properties":{"osm_id":"5714211840","tag":{"amenity":"waste_basket","waste":"trash"}},"type":"Feature"},
	{"geometry":{"coordinates":[8.6722,49.374781],"type":"Point"},"properties":{"osm_id":"6535733710","tag":{"amenity":"recycling","opening_hours":"Mo-Su 07:00-20:00","operator":"D\u00c3\u00a4sa Wiederverwertungs GmbH","recycling:clothes":"yes","recycling:shoes":"yes","recycling_type":"container"}},"type":"Feature"},
	{"geometry":{"coordinates":[8.662753,49.374082],"type":"Point"},"properties":{"osm_id":"6535733712","tag":{"amenity":"recycling","opening_hours":"Mo-Su 07:00-20:00","recycling:clothes":"yes","recycling:shoes":"yes","recycling_type":"container"}},"type":"Feature"},
	{"geometry":{"coordinates":[8.69488,49.326604],"type":"Point"},"properties":{"osm_id":"6725247398","tag":{"amenity":"waste_basket","waste":"trash"}},"type":"Feature"},
	{"geometry":{"coordinates":[8.691723,49.379108],"type":"Point"},"properties":{"osm_id":"6725270763","tag":{"amenity":"waste_basket","waste":"trash"}},"type":"Feature"},
	{"geometry":{"coordinates":[8.695005,49.326652],"type":"Point"},"properties":{"osm_id":"6725272192","tag":{"amenity":"waste_basket","waste":"trash"}},"type":"Feature"},
	{"geometry":{"coordinates":[8.694812,49.326514],"type":"Point"},"properties":{"osm_id":"6725272197","tag":{"amenity":"waste_basket","waste":"trash"}},"type":"Feature"},
	{"geometry":{"coordinates":[8.694567,49.372425],"type":"Point"},"properties":{"osm_id":"6731321805","tag":{"amenity":"waste_basket","waste":"trash"}},"type":"Feature"},
	{"geometry":{"coordinates":[8.695757,49.377143],"type":"Point"},"properties":{"osm_id":"6753748307","tag":{"amenity":"waste_basket","waste":"trash"}},"type":"Feature"},
	{"geometry":{"coordinates":[8.686396,49.346091],"type":"Point"},"properties":{"osm_id":"6775764999","tag":{"amenity":"waste_basket","waste":"trash"}},"type":"Feature"},
	{"geometry":{"coordinates":[8.683105,49.368551],"type":"Point"},"properties":{"osm_id":"6780758118","tag":{"amenity":"waste_basket"}},"type":"Feature"},
	{"geometry":{"coordinates":[8.693136,49.381869],"type":"Point"},"properties":{"osm_id":"7313702843","tag":{"amenity":"waste_basket"}},"type":"Feature"},
	{"geometry":{"coordinates":[8.675262,49.37965],"type":"Point"},"properties":{"osm_id":"7340734011","tag":{"amenity":"waste_basket","waste":"trash"}},"type":"Feature"},
	{"geometry":{"coordinates":[8.675186,49.379156],"type":"Point"},"properties":{"osm_id":"7340734015","tag":{"amenity":"waste_basket","waste":"trash"}},"type":"Feature"},
	{"geometry":{"coordinates":[8.675435,49.379152],"type":"Point"},"properties":{"osm_id":"7340734021","tag":{"amenity":"waste_basket","waste":"trash"}},"type":"Feature"},
	{"geometry":{"coordinates":[8.675243,49.378703],"type":"Point"},"properties":{"osm_id":"7340734033","tag":{"amenity":"waste_basket","layer":"1","level":"1","waste":"trash"}},"type":"Feature"},
	{"geometry":{"coordinates":[8.675245,49.378832],"type":"Point"},"properties":{"osm_id":"7340734067","tag":{"amenity":"waste_basket","layer":"1","level":"1","waste":"trash"}},"type":"Feature"},
	{"geometry":{"coordinates":[8.699888,49.365909],"type":"Point"},"properties":{"osm_id":"7363436233","tag":{"amenity":"waste_basket"}},"type":"Feature"},
	{"geometry":{"coordinates":[8.693919,49.357201],"type":"Point"},"properties":{"osm_id":"7369321742","tag":{"amenity":"waste_basket"}},"type":"Feature"},
	{"geometry":{"coordinates":[8.687354,49.37279],"type":"Point"},"properties":{"osm_id":"7376293239","tag":{"amenity":"waste_basket"}},"type":"Feature"},
	{"geometry":{"coordinates":[8.68721,49.372478],"type":"Point"},"properties":{"osm_id":"7376293241","tag":{"amenity":"waste_basket"}},"type":"Feature"},
	{"geometry":{"coordinates":[8.701072,49.37206],"type":"Point"},"properties":{"osm_id":"7392809312","tag":{"amenity":"waste_basket"}},"type":"Feature"},
	{"geometry":{"coordinates":[8.684529,49.370734],"type":"Point"},"properties":{"osm_id":"7393113448","tag":{"amenity":"waste_basket"}},"type":"Feature"},
	{"geometry":{"coordinates":[8.63964,49.353468],"type":"Point"},"properties":{"osm_id":"7394704390","tag":{"amenity":"waste_basket"}},"type":"Feature"},
	{"geometry":{"coordinates":[8.635095,49.354329],"type":"Point"},"properties":{"osm_id":"7394704391","tag":{"amenity":"waste_basket"}},"type":"Feature"},
	{"geometry":{"coordinates":[8.697166,49.377511],"type":"Point"},"properties":{"osm_id":"7425839941","tag":{"amenity":"waste_basket"}},"type":"Feature"},
	{"geometry":{"coordinates":[8.675852,49.371692],"type":"Point"},"properties":{"osm_id":"7446785843","tag":{"amenity":"waste_basket"}},"type":"Feature"},
	{"geometry":{"coordinates":[8.685798,49.374058],"type":"Point"},"properties":{"osm_id":"7468163300","tag":{"amenity":"recycling","recycling:clothes":"yes","recycling:shoes":"yes","recycling_type":"container"}},"type":"Feature"},
	{"geometry":{"coordinates":[8.686038,49.374047],"type":"Point"},"properties":{"osm_id":"7470551892","tag":{"amenity":"waste_basket"}},"type":"Feature"},
	{"geometry":{"coordinates":[8.686567,49.3739],"type":"Point"},"properties":{"osm_id":"7470551893","tag":{"amenity":"waste_basket"}},"type":"Feature"},
	{"geometry":{"coordinates":[8.69161,49.374016],"type":"Point"},"properties":{"osm_id":"7473242953","tag":{"amenity":"waste_basket"}},"type":"Feature"},
	{"geometry":{"coordinates":[8.689811,49.377175],"type":"Point"},"properties":{"osm_id":"7477038509","tag":{"amenity":"waste_basket"}},"type":"Feature"},
	{"geometry":{"coordinates":[8.690919,49.38046],"type":"Point"},"properties":{"osm_id":"7480315893","tag":{"amenity":"waste_basket"}},"type":"Feature"},
	{"geometry":{"coordinates":[8.642253,49.352933],"type":"Point"},"properties":{"osm_id":"7486457499","tag":{"amenity":"waste_basket"}},"type":"Feature"},
	{"geometry":{"coordinates":[8.686987,49.37268],"type":"Point"},"properties":{"osm_id":"7486577480","tag":{"amenity":"recycling","recycling:glass":"yes","recycling_type":"container"}},"type":"Feature"},
	{"geometry":{"coordinates":[8.686985,49.372653],"type":"Point"},"properties":{"osm_id":"7486577481","tag":{"amenity":"recycling","recycling:clothes":"yes","recycling:shoes":"yes","recycling_type":"container"}},"type":"Feature"},
	{"geometry":{"coordinates":[8.688721,49.382036],"type":"Point"},"properties":{"osm_id":"7490547759","tag":{"amenity":"waste_basket"}},"type":"Feature"},
	{"geometry":{"coordinates":[8.654818,49.369836],"type":"Point"},"properties":{"osm_id":"7511915874","tag":{"amenity":"recycling","recycling:glass":"yes","recycling_type":"container"}},"type":"Feature"},
	{"geometry":{"coordinates":[8.679892,49.373655],"type":"Point"},"properties":{"osm_id":"7514587833","tag":{"amenity":"recycling","recycling:clothes":"yes","recycling_type":"container"}},"type":"Feature"},
	{"geometry":{"coordinates":[8.691597,49.379342],"type":"Point"},"properties":{"osm_id":"7527235925","tag":{"amenity":"waste_basket"}},"type":"Feature"},
	{"geometry":{"coordinates":[8.691809,49.379267],"type":"Point"},"properties":{"osm_id":"7527235926","tag":{"amenity":"waste_basket"}},"type":"Feature"},
	{"geometry":{"coordinates":[8.687106,49.380565],"type":"Point"},"properties":{"osm_id":"7553604099","tag":{"amenity":"waste_basket"}},"type":"Feature"},
	{"geometry":{"coordinates":[8.687119,49.380079],"type":"Point"},"properties":{"osm_id":"7553604111","tag":{"amenity":"waste_basket"}},"type":"Feature"},
	{"geometry":{"coordinates":[8.687433,49.380579],"type":"Point"},"properties":{"osm_id":"7553620414","tag":{"amenity":"waste_basket"}},"type":"Feature"},
	{"geometry":{"coordinates":[8.687393,49.38045],"type":"Point"},"properties":{"osm_id":"7553620415","tag":{"amenity":"waste_basket"}},"type":"Feature"},
	{"geometry":{"coordinates":[8.691373,49.380361],"type":"Point"},"properties":{"osm_id":"7554559917","tag":{"amenity":"waste_basket"}},"type":"Feature"},
	{"geometry":{"coordinates":[8.69134,49.380258],"type":"Point"},"properties":{"osm_id":"7554559918","tag":{"amenity":"waste_basket"}},"type":"Feature"},
	{"geometry":{"coordinates":[8.691302,49.380142],"type":"Point"},"properties":{"osm_id":"7554559919","tag":{"amenity":"waste_basket"}},"type":"Feature"},
	{"geometry":{"coordinates":[8.687136,49.365384],"type":"Point"},"properties":{"osm_id":"7557083975","tag":{"amenity":"recycling","recycling:clothes":"yes","recycling_type":"container"}},"type":"Feature"},
	{"geometry":{"coordinates":[8.679568,49.368421],"type":"Point"},"properties":{"osm_id":"7563710392","tag":{"amenity":"waste_basket"}},"type":"Feature"},
	{"geometry":{"coordinates":[8.656559,49.338935],"type":"Point"},"properties":{"osm_id":"7572199971","tag":{"amenity":"waste_basket","waste":"trash"}},"type":"Feature"},
	{"geometry":{"coordinates":[8.656506,49.339123],"type":"Point"},"properties":{"osm_id":"7572199972","tag":{"amenity":"waste_basket","waste":"trash"}},"type":"Feature"},
	{"geometry":{"coordinates":[8.684728,49.367865],"type":"Point"},"properties":{"osm_id":"7598031862","tag":{"amenity":"recycling","recycling:glass":"yes","recycling_type":"container"}},"type":"Feature"},
	{"geometry":{"coordinates":[8.679179,49.381121],"type":"Point"},"properties":{"osm_id":"7603642709","tag":{"amenity":"waste_basket"}},"type":"Feature"},
	{"geometry":{"coordinates":[8.679461,49.381121],"type":"Point"},"properties":{"osm_id":"7603642710","tag":{"amenity":"waste_basket"}},"type":"Feature"},
	{"geometry":{"coordinates":[8.680791,49.381112],"type":"Point"},"properties":{"osm_id":"7603642712","tag":{"amenity":"waste_basket"}},"type":"Feature"},
	{"geometry":{"coordinates":[8.680413,49.381104],"type":"Point"},"properties":{"osm_id":"7603642713","tag":{"amenity":"waste_basket"}},"type":"Feature"},
	{"geometry":{"coordinates":[8.68381,49.382056],"type":"Point"},"properties":{"osm_id":"7603649024","tag":{"amenity":"waste_basket"}},"type":"Feature"},
	{"geometry":{"coordinates":[8.689693,49.378535],"type":"Point"},"properties":{"osm_id":"7610026808","tag":{"amenity":"waste_basket"}},"type":"Feature"},
	{"geometry":{"coordinates":[8.689562,49.378521],"type":"Point"},"properties":{"osm_id":"7610026809","tag":{"amenity":"waste_basket"}},"type":"Feature"},
	{"geometry":{"coordinates":[8.689441,49.378458],"type":"Point"},"properties":{"osm_id":"7610026811","tag":{"amenity":"waste_basket"}},"type":"Feature"},
	{"geometry":{"coordinates":[8.687255,49.377718],"type":"Point"},"properties":{"osm_id":"7612600192","tag":{"amenity":"waste_basket"}},"type":"Feature"},
	{"geometry":{"coordinates":[8.682473,49.376725],"type":"Point"},"properties":{"osm_id":"7612632575","tag":{"amenity":"waste_basket"}},"type":"Feature"},
	{"geometry":{"coordinates":[8.68056,49.376497],"type":"Point"},"properties":{"osm_id":"7612632580","tag":{"amenity":"waste_basket"}},"type":"Feature"},
	{"geometry":{"coordinates":[8.642485,49.360896],"type":"Point"},"properties":{"osm_id":"7637705227","tag":{"amenity":"waste_basket"}},"type":"Feature"},
	{"geometry":{"coordinates":[8.688722,49.381961],"type":"Point"},"properties":{"osm_id":"7638374882","tag":{"amenity":"waste_basket"}},"type":"Feature"},
	{"geometry":{"coordinates":[8.690895,49.38037],"type":"Point"},"properties":{"osm_id":"7640774062","tag":{"amenity":"waste_basket"}},"type":"Feature"},
	{"geometry":{"coordinates":[8.690904,49.380503],"type":"Point"},"properties":{"osm_id":"7640774063","tag":{"amenity":"waste_basket","waste":"dog_excrement"}},"type":"Feature"},
	{"geometry":{"coordinates":[8.690676,49.380202],"type":"Point"},"properties":{"osm_id":"7653531947","tag":{"amenity":"waste_basket"}},"type":"Feature"},
	{"geometry":{"coordinates":[8.690691,49.380286],"type":"Point"},"properties":{"osm_id":"7653531948","tag":{"amenity":"waste_basket"}},"type":"Feature"},
	{"geometry":{"coordinates":[8.690767,49.380336],"type":"Point"},"properties":{"osm_id":"7653531949","tag":{"amenity":"waste_basket"}},"type":"Feature"},
	{"geometry":{"coordinates":[8.686026,49.363109],"type":"Point"},"properties":{"osm_id":"7717621492","tag":{"amenity":"waste_basket"}},"type":"Feature"},
	{"geometry":{"coordinates":[8.626941,49.338616],"type":"Point"},"properties":{"osm_id":"7889770906","tag":{"amenity":"waste_basket","waste":"trash"}},"type":"Feature"},
	{"geometry":{"coordinates":[8.617926,49.346508],"type":"Point"},"properties":{"osm_id":"8150714228","tag":{"amenity":"waste_basket","waste":"trash"}},"type":"Feature"},
	{"geometry":{"coordinates":[8.641396,49.327426],"type":"Point"},"properties":{"osm_id":"8150714229","tag":{"amenity":"waste_basket","waste":"trash"}},"type":"Feature"},
	{"geometry":{"coordinates":[8.691118,49.373867],"type":"Point"},"properties":{"osm_id":"8247741834","tag":{"amenity":"waste_basket"}},"type":"Feature"},
	{"geometry":{"coordinates":[8.691022,49.373191],"type":"Point"},"properties":{"osm_id":"8291719796","tag":{"amenity":"waste_basket"}},"type":"Feature"},
	{"geometry":{"coordinates":[8.690703,49.373143],"type":"Point"},"properties":{"osm_id":"8291719797","tag":{"amenity":"waste_basket"}},"type":"Feature"},
	{"geometry":{"coordinates":[8.656246,49.332715],"type":"Point"},"properties":{"osm_id":"8640317921","tag":{"amenity":"waste_basket"}},"type":"Feature"},
	{"geometry":{"coordinates":[8.656707,49.328823],"type":"Point"},"properties":{"osm_id":"8640371231","tag":{"amenity":"waste_basket"}},"type":"Feature"},
	{"geometry":{"coordinates":[8.656444,49.331058],"type":"Point"},"properties":{"osm_id":"8640378250","tag":{"amenity":"waste_basket"}},"type":"Feature"},
	{"geometry":{"coordinates":[8.669535,49.368818],"type":"Point"},"properties":{"osm_id":"8931206028","tag":{"amenity":"waste_basket"}},"type":"Feature"},
	{"geometry":{"coordinates":[8.669496,49.368635],"type":"Point"},"properties":{"osm_id":"8931206029","tag":{"amenity":"waste_basket"}},"type":"Feature"},
	{"geometry":{"coordinates":[8.626485,49.348169],"type":"Point"},"properties":{"osm_id":"9006486110","tag":{"amenity":"waste_basket"}},"type":"Feature"},
	{"geometry":{"coordinates":[8.676553,49.378717],"type":"Point"},"properties":{"osm_id":"9014601524","tag":{"amenity":"recycling","recycling:glass":"yes","recycling_type":"container"}},"type":"Feature"},
	{"geometry":{"coordinates":[8.676921,49.375516],"type":"Point"},"properties":{"osm_id":"9014602763","tag":{"amenity":"waste_basket"}},"type":"Feature"},
	{"geometry":{"coordinates":[8.698892,49.375362],"type":"Point"},"properties":{"osm_id":"9032805423","tag":{"amenity":"waste_basket"}},"type":"Feature"}
]
}
