{
"type": "FeatureCollection",
"features": [
	{"geometry":{"coordinates":[8.627685,49.30897],"type":"Point"},"properties":{"name":"H\u00c3\u00a4ckselplatz Walldorf","osm_id":"354506013","tag":{"amenity":"recycling","recycling:batteries":"yes","recycling:scrap_metal":"yes"}},"type":"Feature"},
	{"geometry":{"coordinates":[8.695553,49.291729],"type":"Point"},"properties":{"osm_id":"1370605994","tag":{"amenity":"waste_basket"}},"type":"Feature"},
	{"geometry":{"coordinates":[8.638026,49.301846],"type":"Point"},"properties":{"osm_id":"1799783818","tag":{"amenity":"waste_basket"}},"type":"Feature"},
	{"geometry":{"coordinates":[8.638903,49.301944],"type":"Point"},"properties":{"osm_id":"1799783830","tag":{"amenity":"waste_basket"}},"type":"Feature"},
	{"geometry":{"coordinates":[8.669659,49.303581],"type":"Point"},"properties":{"barrier":"gate","osm_id":"2088575631"},"type":"Feature"},
	{"geometry":{"coordinates":[8.641146,49.312902],"type":"Point"},"properties":{"osm_id":"2629373717","tag":{"amenity":"waste_basket"}},"type":"Feature"},
	{"geometry":{"coordinates":[8.640992,49.313182],"type":"Point"},"properties":{"osm_id":"2629373721","tag":{"amenity":"waste_basket"}},"type":"Feature"},
	{"geometry":{"coordinates":[8.641863,49.313495],"type":"Point"},"properties":{"osm_id":"2629373725","tag":{"amenity":"waste_basket"}},"type":"Feature"},
	{"geometry":{"coordinates":[8.69418,49.269745],"type":"Point"},"properties":{"osm_id":"2698612607","tag":{"amenity":"recycling","recycling:paper":"yes"}},"type":"Feature"},
	{"geometry":{"coordinates":[8.672062,49.319882],"type":"Point"},"properties":{"osm_id":"3002960282","tag":{"amenity":"waste_basket"}},"type":"Feature"},
	{"geometry":{"coordinates":[8.678589,49.318259],"type":"Point"},"properties":{"osm_id":"3007028116","tag":{"amenity":"recycling","recycling:clothes":"yes","recycling:shoes":"yes","recycling_type":"container"}},"type":"Feature"},
	{"geometry":{"coordinates":[8.649796,49.303647],"type":"Point"},"properties":{"osm_id":"3020105733","tag":{"amenity":"recycling","recycling:clothes":"yes","recycling_type":"container"}},"type":"Feature"},
	{"geometry":{"coordinates":[8.650826,49.306084],"type":"Point"},"properties":{"osm_id":"3020105815","tag":{"amenity":"recycling","recycling:clothes":"yes"}},"type":"Feature"},
	{"geometry":{"coordinates":[8.651388,49.302754],"type":"Point"},"properties":{"osm_id":"3041957313","tag":{"amenity":"recycling","recycling:clothes":"yes"}},"type":"Feature"},
	{"geometry":{"coordinates":[8.696164,49.303994],"type":"Point"},"properties":{"osm_id":"3050186009","tag":{"amenity":"recycling","recycling:clothes":"yes"}},"type":"Feature"},
	{"geometry":{"coordinates":[8.694811,49.306036],"type":"Point"},"properties":{"osm_id":"3050186753","tag":{"amenity":"recycling","recycling:clothes":"yes"}},"type":"Feature"},
	{"geometry":{"coordinates":[8.637253,49.311495],"type":"Point"},"properties":{"osm_id":"3118319735","tag":{"amenity":"waste_basket"}},"type":"Feature"},
	{"geometry":{"coordinates":[8.686254,49.322045],"type":"Point"},"properties":{"osm_id":"3237662199","tag":{"amenity":"recycling","recycling:clothes":"yes","recycling_type":"container"}},"type":"Feature"},
	{"geometry":{"coordinates":[8.650876,49.308423],"type":"Point"},"properties":{"osm_id":"3244404739","tag":{"amenity":"waste_basket"}},"type":"Feature"},
	{"geometry":{"coordinates":[8.684058,49.324146],"type":"Point"},"properties":{"osm_id":"3348105111","tag":{"amenity":"waste_basket"}},"type":"Feature"},
	{"geometry":{"coordinates":[8.681562,49.304636],"type":"Point"},"properties":{"osm_id":"3362892954","tag":{"amenity":"waste_basket"}},"type":"Feature"},
	{"geometry":{"coordinates":[8.63787,49.310019],"type":"Point"},"properties":{"osm_id":"3394221562","tag":{"amenity":"waste_basket"}},"type":"Feature"},
	{"geometry":{"coordinates":[8.634446,49.308469],"type":"Point"},"properties":{"osm_id":"3450051947","tag":{"amenity":"recycling","location":"overground","recycling:clothes":"yes","recycling_type":"container"}},"type":"Feature"},
	{"geometry":{"coordinates":[8.641946,49.307285],"type":"Point"},"properties":{"osm_id":"3454232577","tag":{"amenity":"recycling","recycling:clothes":"yes","recycling:shoes":"yes"}},"type":"Feature"},
	{"geometry":{"coordinates":[8.686464,49.313092],"type":"Point"},"properties":{"osm_id":"3751123682","tag":{"amenity":"waste_basket"}},"type":"Feature"},
	{"geometry":{"coordinates":[8.640702,49.302092],"type":"Point"},"properties":{"osm_id":"3899830426","tag":{"amenity":"waste_basket"}},"type":"Feature"},
	{"geometry":{"coordinates":[8.635514,49.306974],"type":"Point"},"properties":{"osm_id":"3899830428","tag":{"amenity":"waste_basket","waste":"dog_excrement"}},"type":"Feature"},
	{"geometry":{"coordinates":[8.63399,49.30857],"type":"Point"},"properties":{"osm_id":"3899830429","tag":{"amenity":"waste_basket","waste":"dog_excrement"}},"type":"Feature"},
	{"geometry":{"coordinates":[8.636998,49.302685],"type":"Point"},"properties":{"osm_id":"3909235549","tag":{"amenity":"waste_basket"}},"type":"Feature"},
	{"geometry":{"coordinates":[8.695995,49.322552],"type":"Point"},"properties":{"osm_id":"4187023956","tag":{"amenity":"waste_basket"}},"type":"Feature"},
	{"geometry":{"coordinates":[8.695919,49.322562],"type":"Point"},"properties":{"osm_id":"4187023959","tag":{"amenity":"waste_basket"}},"type":"Feature"},
	{"geometry":{"coordinates":[8.696175,49.322632],"type":"Point"},"properties":{"osm_id":"4187023966","tag":{"amenity":"waste_basket"}},"type":"Feature"},
	{"geometry":{"coordinates":[8.696212,49.322695],"type":"Point"},"properties":{"osm_id":"4187023969","tag":{"amenity":"waste_basket"}},"type":"Feature"},
	{"geometry":{"coordinates":[8.695876,49.322766],"type":"Point"},"properties":{"osm_id":"4187023974","tag":{"amenity":"waste_basket"}},"type":"Feature"},
	{"geometry":{"coordinates":[8.695891,49.322804],"type":"Point"},"properties":{"osm_id":"4187023978","tag":{"amenity":"waste_basket"}},"type":"Feature"},
	{"geometry":{"coordinates":[8.696156,49.321426],"type":"Point"},"properties":{"osm_id":"4189252859","tag":{"amenity":"waste_basket"}},"type":"Feature"},
	{"geometry":{"coordinates":[8.696677,49.32084],"type":"Point"},"properties":{"osm_id":"4189253826","tag":{"amenity":"waste_basket"}},"type":"Feature"},
	{"geometry":{"coordinates":[8.69656,49.321283],"type":"Point"},"properties":{"osm_id":"4189255531","tag":{"amenity":"waste_basket"}},"type":"Feature"},
	{"geometry":{"coordinates":[8.696627,49.320926],"type":"Point"},"properties":{"osm_id":"4189255710","tag":{"amenity":"waste_basket"}},"type":"Feature"},
	{"geometry":{"coordinates":[8.696307,49.321037],"type":"Point"},"properties":{"osm_id":"4189255720","tag":{"amenity":"waste_basket"}},"type":"Feature"},
	{"geometry":{"coordinates":[8.696391,49.321207],"type":"Point"},"properties":{"osm_id":"4189255729","tag":{"amenity":"waste_basket"}},"type":"Feature"},
	{"geometry":{"coordinates":[8.696321,49.320369],"type":"Point"},"properties":{"osm_id":"4189309540","tag":{"amenity":"waste_basket"}},"type":"Feature"},
	{"geometry":{"coordinates":[8.696002,49.293619],"type":"Point"},"properties":{"osm_id":"4196210307","tag":{"amenity":"waste_basket"}},"type":"Feature"},
	{"geometry":{"coordinates":[8.695825,49.293716],"type":"Point"},"properties":{"osm_id":"4196210310","tag":{"amenity":"waste_basket"}},"type":"Feature"},
	{"geometry":{"coordinates":[8.683087,49.292811],"type":"Point"},"properties":{"osm_id":"4196210393","tag":{"amenity":"waste_basket"}},"type":"Feature"},
	{"geometry":{"coordinates":[8.664453,49.291185],"type":"Point"},"properties":{"osm_id":"4198336171","tag":{"amenity":"waste_basket"}},"type":"Feature"},
	{"geometry":{"coordinates":[8.691522,49.292869],"type":"Point"},"properties":{"osm_id":"4198336172","tag":{"amenity":"waste_basket"}},"type":"Feature"},
	{"geometry":{"coordinates":[8.682392,49.291624],"type":"Point"},"properties":{"osm_id":"4202031632","tag":{"amenity":"waste_basket"}},"type":"Feature"},
	{"geometry":{"coordinates":[8.686616,49.291691],"type":"Point"},"properties":{"osm_id":"4202031638","tag":{"amenity":"waste_basket"}},"type":"Feature"},
	{"geometry":{"coordinates":[8.665107,49.290772],"type":"Point"},"properties":{"osm_id":"4202033060","tag":{"amenity":"waste_basket"}},"type":"Feature"},
	{"geometry":{"coordinates":[8.696143,49.291322],"type":"Point"},"properties":{"osm_id":"4202033086","tag":{"amenity":"waste_basket"}},"type":"Feature"},
	{"geometry":{"coordinates":[8.685548,49.291958],"type":"Point"},"properties":{"osm_id":"4202033420","tag":{"amenity":"waste_basket","source:position":"Bing 2012"}},"type":"Feature"},
	{"geometry":{"coordinates":[8.681379,49.293018],"type":"Point"},"properties":{"osm_id":"4202033449","tag":{"amenity":"waste_basket"}},"type":"Feature"},
	{"geometry":{"coordinates":[8.699367,49.292929],"type":"Point"},"properties":{"osm_id":"4215665581","tag":{"amenity":"waste_basket"}},"type":"Feature"},
	{"geometry":{"coordinates":[8.699168,49.293355],"type":"Point"},"properties":{"osm_id":"4215672502","tag":{"amenity":"waste_basket"}},"type":"Feature"},
	{"geometry":{"coordinates":[8.696353,49.291025],"type":"Point"},"properties":{"osm_id":"4222799056","tag":{"amenity":"waste_basket"}},"type":"Feature"},
	{"geometry":{"coordinates":[8.664486,49.291036],"type":"Point"},"properties":{"osm_id":"4223418338","tag":{"amenity":"waste_basket"}},"type":"Feature"},
	{"geometry":{"coordinates":[8.664417,49.291042],"type":"Point"},"properties":{"osm_id":"4223418342","tag":{"amenity":"waste_basket","description":"im Warteraum","level":"0"}},"type":"Feature"},
	{"geometry":{"coordinates":[8.664444,49.290893],"type":"Point"},"properties":{"osm_id":"4223420553","tag":{"amenity":"waste_basket"}},"type":"Feature"},
	{"geometry":{"coordinates":[8.665215,49.291167],"type":"Point"},"properties":{"osm_id":"4226760412","tag":{"amenity":"waste_basket","layer":"2","level":"2"}},"type":"Feature"},
	{"geometry":{"coordinates":[8.665123,49.291199],"type":"Point"},"properties":{"osm_id":"4226760418","tag":{"amenity":"waste_basket","layer":"2","level":"2"}},"type":"Feature"},
	{"geometry":{"coordinates":[8.665034,49.291234],"type":"Point"},"properties":{"osm_id":"4226760421","tag":{"amenity":"waste_basket","layer":"2","level":"2"}},"type":"Feature"},
	{"geometry":{"coordinates":[8.664946,49.291272],"type":"Point"},"properties":{"osm_id":"4226761003","tag":{"amenity":"waste_basket","layer":"2","level":"2"}},"type":"Feature"},
	{"geometry":{"coordinates":[8.664861,49.291306],"type":"Point"},"properties":{"osm_id":"4226761006","tag":{"amenity":"waste_basket","layer":"2","level":"2"}},"type":"Feature"},
	{"geometry":{"coordinates":[8.658454,49.324434],"type":"Point"},"properties":{"osm_id":"4331362129","tag":{"amenity":"waste_basket"}},"type":"Feature"},
	{"geometry":{"coordinates":[8.699462,49.295795],"type":"Point"},"properties":{"osm_id":"4343760826","tag":{"amenity":"waste_basket"}},"type":"Feature"},
	{"geometry":{"coordinates":[8.699847,49.295089],"type":"Point"},"properties":{"osm_id":"4343760922","tag":{"amenity":"waste_basket"}},"type":"Feature"},
	{"geometry":{"coordinates":[8.699833,49.295133],"type":"Point"},"properties":{"osm_id":"4343760929","tag":{"amenity":"waste_basket"}},"type":"Feature"},
	{"geometry":{"coordinates":[8.699215,49.293618],"type":"Point"},"properties":{"osm_id":"4608359192","tag":{"amenity":"waste_basket"}},"type":"Feature"},
	{"geometry":{"coordinates":[8.694775,49.30447],"type":"Point"},"properties":{"osm_id":"4779453750","tag":{"amenity":"waste_basket"}},"type":"Feature"},
	{"geometry":{"coordinates":[8.666598,49.293031],"type":"Point"},"properties":{"osm_id":"4782248393","tag":{"amenity":"waste_basket"}},"type":"Feature"},
	{"geometry":{"coordinates":[8.664714,49.292054],"type":"Point"},"properties":{"osm_id":"5754819322","tag":{"amenity":"waste_basket","level":"0","waste":"trash"}},"type":"Feature"},
	{"geometry":{"coordinates":[8.663745,49.290099],"type":"Point"},"properties":{"osm_id":"5754819362","tag":{"amenity":"waste_basket","level":"0","waste":"trash"}},"type":"Feature"},
	{"geometry":{"coordinates":[8.664475,49.291038],"type":"Point"},"properties":{"osm_id":"5757193807","tag":{"amenity":"waste_basket","level":"0","waste":"trash"}},"type":"Feature"},
	{"geometry":{"coordinates":[8.664307,49.290956],"type":"Point"},"properties":{"osm_id":"5757194645","tag":{"amenity":"waste_basket","waste":"trash"}},"type":"Feature"},
	{"geometry":{"coordinates":[8.664032,49.291112],"type":"Point"},"properties":{"osm_id":"5761810861","tag":{"amenity":"waste_basket","waste":"trash"}},"type":"Feature"},
	{"geometry":{"coordinates":[8.664118,49.291057],"type":"Point"},"properties":{"osm_id":"5761885664","tag":{"amenity":"waste_basket","level":"0","waste":"trash"}},"type":"Feature"},
	{"geometry":{"coordinates":[8.696548,49.287681],"type":"Point"},"properties":{"osm_id":"5808524228","tag":{"amenity":"waste_basket"}},"type":"Feature"},
	{"geometry":{"coordinates":[8.696714,49.287555],"type":"Point"},"properties":{"osm_id":"5808524231","tag":{"amenity":"waste_basket"}},"type":"Feature"},
	{"geometry":{"coordinates":[8.626723,49.269851],"type":"Point"},"properties":{"osm_id":"6166199957","tag":{"amenity":"waste_basket"}},"type":"Feature"},
	{"geometry":{"coordinates":[8.697618,49.322333],"type":"Point"},"properties":{"osm_id":"6725268256","tag":{"amenity":"waste_basket","waste":"trash"}},"type":"Feature"},
	{"geometry":{"coordinates":[8.699924,49.321266],"type":"Point"},"properties":{"osm_id":"6725268258","tag":{"amenity":"waste_basket","waste":"trash"}},"type":"Feature"},
	{"geometry":{"coordinates":[8.677354,49.323425],"type":"Point"},"properties":{"osm_id":"6775716771","tag":{"amenity":"waste_basket","waste":"trash"}},"type":"Feature"},
	{"geometry":{"coordinates":[8.675772,49.320327],"type":"Point"},"properties":{"osm_id":"6775716776","tag":{"amenity":"waste_basket","waste":"trash"}},"type":"Feature"},
	{"geometry":{"coordinates":[8.675307,49.319168],"type":"Point"},"properties":{"osm_id":"6775760433","tag":{"amenity":"waste_basket","waste":"trash"}},"type":"Feature"},
	{"geometry":{"coordinates":[8.64171,49.282146],"type":"Point"},"properties":{"osm_id":"7556231214","tag":{"amenity":"waste_basket","leisure":"outdoor_seating","waste":"trash"}},"type":"Feature"},
	{"geometry":{"coordinates":[8.639463,49.28026],"type":"Point"},"properties":{"osm_id":"7556231215","tag":{"amenity":"waste_basket","leisure":"outdoor_seating"}},"type":"Feature"},
	{"geometry":{"coordinates":[8.637876,49.281113],"type":"Point"},"properties":{"osm_id":"7556231216","tag":{"amenity":"waste_basket"}},"type":"Feature"},
	{"geometry":{"coordinates":[8.634201,49.277172],"type":"Point"},"properties":{"osm_id":"7556231217","tag":{"amenity":"waste_basket"}},"type":"Feature"},
	{"geometry":{"coordinates":[8.639605,49.280766],"type":"Point"},"properties":{"osm_id":"7556231218","tag":{"amenity":"waste_basket","leisure":"outdoor_seating","waste":"trash"}},"type":"Feature"}
]
}
