{
"type": "FeatureCollection",
"features": [
	{"geometry":{"coordinates":[8.640133,49.208509],"type":"Point"},"properties":{"osm_id":"278429265","tag":{"amenity":"recycling","recycling:batteries":"no","recycling:clothes":"yes","recycling:glass":"yes","recycling_type":"container"}},"type":"Feature"},
	{"geometry":{"coordinates":[8.625811,49.163635],"type":"Point"},"properties":{"osm_id":"279198556","tag":{"amenity":"recycling","recycling:clothes":"yes","recycling:glass":"yes"}},"type":"Feature"},
	{"geometry":{"coordinates":[8.628723,49.161677],"type":"Point"},"properties":{"osm_id":"279198557","tag":{"amenity":"recycling","recycling:clothes":"yes","recycling:glass":"yes"}},"type":"Feature"},
	{"geometry":{"coordinates":[8.635798,49.161464],"type":"Point"},"properties":{"osm_id":"279198558","tag":{"amenity":"recycling","recycling:glass":"yes"}},"type":"Feature"},
	{"geometry":{"coordinates":[8.633831,49.156092],"type":"Point"},"properties":{"osm_id":"324311043","tag":{"amenity":"recycling","recycling:clothes":"yes","recycling:glass":"yes"}},"type":"Feature"},
	{"geometry":{"coordinates":[8.629318,49.165477],"type":"Point"},"properties":{"osm_id":"359217410","tag":{"amenity":"recycling","recycling:glass":"yes"}},"type":"Feature"},
	{"geometry":{"coordinates":[8.649539,49.204904],"type":"Point"},"properties":{"osm_id":"363846411","tag":{"amenity":"recycling","recycling:glass":"yes","recycling_type":"container"}},"type":"Feature"},
	{"geometry":{"coordinates":[8.622179,49.16717],"type":"Point"},"properties":{"osm_id":"442116754","tag":{"amenity":"recycling","recycling:glass":"yes","recycling_type":"container"}},"type":"Feature"},
	{"geometry":{"coordinates":[8.693335,49.154854],"type":"Point"},"properties":{"osm_id":"611216226","tag":{"amenity":"recycling","mapillary":"r-lIFzfxXHy39yFHHquI4A","recycling:glass":"yes","recycling_type":"container","survey:date":"2016-11-12"}},"type":"Feature"},
	{"geometry":{"coordinates":[8.621764,49.164031],"type":"Point"},"properties":{"osm_id":"1759345561","tag":{"amenity":"recycling","opening_hours":"24/7","recycling:clothes":"yes","recycling:glass":"yes","recycling_type":"container","wheelchair":"yes"}},"type":"Feature"},
	{"geometry":{"coordinates":[8.6219,49.16758],"type":"Point"},"properties":{"osm_id":"1759437467","tag":{"amenity":"recycling","recycling:clothes":"yes"}},"type":"Feature"},
	{"geometry":{"coordinates":[8.626487,49.177446],"type":"Point"},"properties":{"osm_id":"1759437468","tag":{"amenity":"recycling","recycling:batteries":"yes","recycling:clothes":"yes","recycling:glass":"yes"}},"type":"Feature"},
	{"geometry":{"coordinates":[8.64037,49.183006],"type":"Point"},"properties":{"osm_id":"1759437472","tag":{"amenity":"recycling","recycling:clothes":"yes","recycling:glass":"yes","recycling_type":"container"}},"type":"Feature"},
	{"geometry":{"coordinates":[8.630579,49.160568],"type":"Point"},"properties":{"osm_id":"1767397088","tag":{"amenity":"waste_basket"}},"type":"Feature"},
	{"geometry":{"coordinates":[8.62852,49.161784],"type":"Point"},"properties":{"osm_id":"1767397101","tag":{"amenity":"waste_basket"}},"type":"Feature"},
	{"geometry":{"coordinates":[8.63494,49.163956],"type":"Point"},"properties":{"osm_id":"1767397102","tag":{"amenity":"waste_basket"}},"type":"Feature"},
	{"geometry":{"coordinates":[8.637116,49.165156],"type":"Point"},"properties":{"osm_id":"1767397104","tag":{"amenity":"waste_basket"}},"type":"Feature"},
	{"geometry":{"coordinates":[8.638897,49.165947],"type":"Point"},"properties":{"osm_id":"1767397106","tag":{"amenity":"waste_basket"}},"type":"Feature"},
	{"geometry":{"coordinates":[8.643251,49.166587],"type":"Point"},"properties":{"osm_id":"1767397108","tag":{"amenity":"waste_basket"}},"type":"Feature"},
	{"geometry":{"coordinates":[8.668899,49.177182],"type":"Point"},"properties":{"osm_id":"1767397132","tag":{"amenity":"recycling","recycling:clothes":"yes","recycling:glass":"yes","recycling_type":"container"}},"type":"Feature"},
	{"geometry":{"coordinates":[8.632619,49.168938],"type":"Point"},"properties":{"osm_id":"1791024290","tag":{"amenity":"waste_basket"}},"type":"Feature"},
	{"geometry":{"coordinates":[8.637735,49.174775],"type":"Point"},"properties":{"osm_id":"1791024292","tag":{"amenity":"waste_basket"}},"type":"Feature"},
	{"geometry":{"coordinates":[8.640715,49.177688],"type":"Point"},"properties":{"osm_id":"1791024295","tag":{"amenity":"waste_basket"}},"type":"Feature"},
	{"geometry":{"coordinates":[8.652481,49.163429],"type":"Point"},"properties":{"osm_id":"1791156024","tag":{"amenity":"waste_basket"}},"type":"Feature"},
	{"geometry":{"coordinates":[8.618293,49.186243],"type":"Point"},"properties":{"osm_id":"1797964111","tag":{"amenity":"waste_basket"}},"type":"Feature"},
	{"geometry":{"coordinates":[8.674984,49.168237],"type":"Point"},"properties":{"osm_id":"1797984220","tag":{"amenity":"waste_basket"}},"type":"Feature"},
	{"geometry":{"coordinates":[8.622715,49.186623],"type":"Point"},"properties":{"osm_id":"1832852858","tag":{"amenity":"waste_basket"}},"type":"Feature"},
	{"geometry":{"coordinates":[8.62442,49.176724],"type":"Point"},"properties":{"osm_id":"1871470756","tag":{"amenity":"waste_basket"}},"type":"Feature"},
	{"geometry":{"coordinates":[8.624809,49.176875],"type":"Point"},"properties":{"osm_id":"1871470771","tag":{"amenity":"waste_basket"}},"type":"Feature"},
	{"geometry":{"coordinates":[8.624039,49.176848],"type":"Point"},"properties":{"osm_id":"1871470776","tag":{"amenity":"waste_basket"}},"type":"Feature"},
	{"geometry":{"coordinates":[8.624725,49.177328],"type":"Point"},"properties":{"osm_id":"1871470801","tag":{"amenity":"waste_basket"}},"type":"Feature"},
	{"geometry":{"coordinates":[8.624301,49.177427],"type":"Point"},"properties":{"osm_id":"1871470809","tag":{"amenity":"waste_basket"}},"type":"Feature"},
	{"geometry":{"coordinates":[8.626216,49.159157],"type":"Point"},"properties":{"osm_id":"2592430178","tag":{"amenity":"waste_basket"}},"type":"Feature"},
	{"geometry":{"coordinates":[8.626308,49.159241],"type":"Point"},"properties":{"osm_id":"2592430180","tag":{"amenity":"waste_basket"}},"type":"Feature"},
	{"geometry":{"coordinates":[8.626054,49.15725],"type":"Point"},"properties":{"osm_id":"2853044817","tag":{"amenity":"waste_basket"}},"type":"Feature"},
	{"geometry":{"coordinates":[8.644988,49.15592],"type":"Point"},"properties":{"osm_id":"2937002643","tag":{"amenity":"waste_basket"}},"type":"Feature"},
	{"geometry":{"coordinates":[8.616845,49.175271],"type":"Point"},"properties":{"osm_id":"3045625533","tag":{"amenity":"recycling","recycling:clothes":"yes","recycling:glass":"yes","recycling_type":"container"}},"type":"Feature"},
	{"geometry":{"coordinates":[8.624703,49.161012],"type":"Point"},"properties":{"osm_id":"3045663296","tag":{"amenity":"waste_basket","waste":"dog_excrement"}},"type":"Feature"},
	{"geometry":{"coordinates":[8.62171,49.164023],"type":"Point"},"properties":{"osm_id":"3045663297","tag":{"amenity":"waste_basket","waste":"dog_excrement"}},"type":"Feature"},
	{"geometry":{"coordinates":[8.633615,49.183599],"type":"Point"},"properties":{"barrier":"gate","osm_id":"3340512947","tag":{"access":"private"}},"type":"Feature"},
	{"geometry":{"coordinates":[8.627338,49.184923],"type":"Point"},"properties":{"osm_id":"3342736380","tag":{"amenity":"recycling","recycling:clothes":"yes","recycling:glass":"yes","recycling_type":"container"}},"type":"Feature"},
	{"geometry":{"coordinates":[8.618383,49.171458],"type":"Point"},"properties":{"osm_id":"3452961948","tag":{"amenity":"recycling","recycling:clothes":"yes"}},"type":"Feature"},
	{"geometry":{"coordinates":[8.641807,49.199873],"type":"Point"},"properties":{"osm_id":"3478125429","tag":{"amenity":"waste_basket"}},"type":"Feature"},
	{"geometry":{"coordinates":[8.641816,49.199901],"type":"Point"},"properties":{"osm_id":"3478125431","tag":{"amenity":"waste_basket"}},"type":"Feature"},
	{"geometry":{"coordinates":[8.642052,49.200015],"type":"Point"},"properties":{"osm_id":"3478125435","tag":{"amenity":"waste_basket"}},"type":"Feature"},
	{"geometry":{"coordinates":[8.642094,49.200183],"type":"Point"},"properties":{"osm_id":"3478125440","tag":{"amenity":"waste_basket"}},"type":"Feature"},
	{"geometry":{"coordinates":[8.641931,49.200332],"type":"Point"},"properties":{"osm_id":"3478125445","tag":{"amenity":"waste_basket"}},"type":"Feature"},
	{"geometry":{"coordinates":[8.618261,49.181352],"type":"Point"},"properties":{"osm_id":"3656942409","tag":{"amenity":"waste_basket"}},"type":"Feature"},
	{"geometry":{"coordinates":[8.648517,49.199163],"type":"Point"},"properties":{"osm_id":"3657706198","tag":{"amenity":"recycling","recycling:cans":"yes","recycling:clothes":"yes","recycling:glass":"yes","recycling:paper":"no"}},"type":"Feature"},
	{"geometry":{"coordinates":[8.6639,49.183489],"type":"Point"},"properties":{"osm_id":"3905786619","tag":{"amenity":"waste_basket"}},"type":"Feature"},
	{"geometry":{"coordinates":[8.663952,49.183583],"type":"Point"},"properties":{"osm_id":"3905786632","tag":{"amenity":"waste_basket"}},"type":"Feature"},
	{"geometry":{"coordinates":[8.663779,49.195972],"type":"Point"},"properties":{"osm_id":"3905787126","tag":{"amenity":"waste_basket"}},"type":"Feature"},
	{"geometry":{"coordinates":[8.62542,49.156656],"type":"Point"},"properties":{"osm_id":"3911768896","tag":{"amenity":"waste_basket"}},"type":"Feature"},
	{"geometry":{"coordinates":[8.623016,49.166663],"type":"Point"},"properties":{"osm_id":"3938677541","tag":{"amenity":"waste_basket"}},"type":"Feature"},
	{"geometry":{"coordinates":[8.623439,49.166949],"type":"Point"},"properties":{"osm_id":"3938677553","tag":{"amenity":"waste_basket"}},"type":"Feature"},
	{"geometry":{"coordinates":[8.623262,49.16697],"type":"Point"},"properties":{"osm_id":"3938687957","tag":{"amenity":"waste_basket"}},"type":"Feature"},
	{"geometry":{"coordinates":[8.621175,49.16347],"type":"Point"},"properties":{"osm_id":"3976871248","tag":{"amenity":"waste_basket"}},"type":"Feature"},
	{"geometry":{"coordinates":[8.642097,49.199739],"type":"Point"},"properties":{"osm_id":"7340280299","tag":{"amenity":"waste_basket","waste":"trash"}},"type":"Feature"},
	{"geometry":{"coordinates":[8.64208,49.200261],"type":"Point"},"properties":{"osm_id":"7340280305","tag":{"amenity":"waste_basket","waste":"trash"}},"type":"Feature"},
	{"geometry":{"coordinates":[8.641451,49.199212],"type":"Point"},"properties":{"osm_id":"7340280320","tag":{"amenity":"waste_basket","waste":"trash"}},"type":"Feature"},
	{"geometry":{"coordinates":[8.643578,49.178817],"type":"Point"},"properties":{"osm_id":"7414021470","tag":{"amenity":"waste_basket","waste":"trash"}},"type":"Feature"}
]
}
