{
"type": "FeatureCollection",
"features": [
	{"geometry":{"coordinates":[8.650694,49.024411],"type":"Point"},"properties":{"osm_id":"267263427","tag":{"amenity":"recycling","recycling_type":"container"}},"type":"Feature"},
	{"geometry":{"coordinates":[8.61479,49.006462],"type":"Point"},"properties":{"osm_id":"321297502","tag":{"amenity":"recycling","recycling:glass":"yes","recycling_type":"container"}},"type":"Feature"},
	{"geometry":{"coordinates":[8.666795,49.00583],"type":"Point"},"properties":{"name":"Wertstoffhof Bretten-Sprantal \"Damenknie\"","osm_id":"462004833","tag":{"amenity":"recycling","opening_hours":"Sa 09:00-13:00; Nov-Mar: We 13:00-17:00; Apr-Oct: We 13:00-18:00","recycling_type":"centre","website":"https://www.ebrd.de/"}},"type":"Feature"},
	{"geometry":{"coordinates":[8.68676,49.032011],"type":"Point"},"properties":{"osm_id":"1164350520","tag":{"amenity":"recycling","recycling:clothes":"yes","recycling:glass":"yes","recycling_type":"container"}},"type":"Feature"},
	{"geometry":{"coordinates":[8.68253,49.033468],"type":"Point"},"properties":{"osm_id":"1164397614","tag":{"amenity":"recycling","recycling:clothes":"yes","recycling:glass":"yes","recycling:paper":"no","recycling_type":"container"}},"type":"Feature"},
	{"geometry":{"coordinates":[8.697809,49.029303],"type":"Point"},"properties":{"osm_id":"1250522856","tag":{"amenity":"recycling","recycling:glass":"yes","recycling_type":"container"}},"type":"Feature"},
	{"geometry":{"coordinates":[8.695892,49.037709],"type":"Point"},"properties":{"osm_id":"2151027428","tag":{"amenity":"recycling","recycling:clothes":"yes","recycling_type":"container"}},"type":"Feature"},
	{"geometry":{"coordinates":[8.666285,49.006042],"type":"Point"},"properties":{"name":"Deponie/Recyclinganlage Bretten-Sprantal \"Damenknie\"","osm_id":"2493958455","tag":{"amenity":"recycling","opening_hours":"Mo-Fr 07:30-12:30,13:00-17:00; Sa 07:30-12:30","recycling_type":"centre","website":"https://www.ebrd.de/"}},"type":"Feature"},
	{"geometry":{"coordinates":[8.695479,49.034043],"type":"Point"},"properties":{"osm_id":"3591096772","tag":{"amenity":"recycling","recycling:clothes":"yes","recycling_type":"container"}},"type":"Feature"},
	{"geometry":{"coordinates":[8.683318,49.016097],"type":"Point"},"properties":{"osm_id":"4154209612","tag":{"amenity":"waste_basket"}},"type":"Feature"},
	{"geometry":{"coordinates":[8.680817,49.016956],"type":"Point"},"properties":{"osm_id":"4154209621","tag":{"amenity":"waste_basket"}},"type":"Feature"},
	{"geometry":{"coordinates":[8.678869,49.011341],"type":"Point"},"properties":{"osm_id":"4157153076","tag":{"amenity":"waste_basket"}},"type":"Feature"},
	{"geometry":{"coordinates":[8.678992,49.012747],"type":"Point"},"properties":{"osm_id":"4163893621","tag":{"amenity":"waste_basket"}},"type":"Feature"},
	{"geometry":{"coordinates":[8.68596,49.027797],"type":"Point"},"properties":{"osm_id":"4164306794","tag":{"amenity":"waste_basket"}},"type":"Feature"},
	{"geometry":{"coordinates":[8.687562,49.007336],"type":"Point"},"properties":{"osm_id":"4171475711","tag":{"amenity":"waste_basket"}},"type":"Feature"},
	{"geometry":{"coordinates":[8.686707,49.007143],"type":"Point"},"properties":{"osm_id":"4190115806","tag":{"amenity":"waste_basket"}},"type":"Feature"},
	{"geometry":{"coordinates":[8.685791,48.989585],"type":"Point"},"properties":{"osm_id":"4239147794","tag":{"amenity":"waste_basket"}},"type":"Feature"},
	{"geometry":{"coordinates":[8.698806,49.016023],"type":"Point"},"properties":{"osm_id":"4265649189","tag":{"amenity":"waste_basket"}},"type":"Feature"},
	{"geometry":{"coordinates":[8.64898,49.02521],"type":"Point"},"properties":{"osm_id":"4351614260","tag":{"amenity":"waste_basket"}},"type":"Feature"},
	{"geometry":{"coordinates":[8.693999,49.037163],"type":"Point"},"properties":{"osm_id":"5180617851","tag":{"amenity":"waste_basket","level":"0"}},"type":"Feature"},
	{"geometry":{"coordinates":[8.693719,49.036816],"type":"Point"},"properties":{"osm_id":"5180618930","tag":{"amenity":"waste_basket","level":"0"}},"type":"Feature"},
	{"geometry":{"coordinates":[8.693667,49.036994],"type":"Point"},"properties":{"osm_id":"5182122719","tag":{"amenity":"waste_basket","level":"0"}},"type":"Feature"},
	{"geometry":{"coordinates":[8.693482,49.037107],"type":"Point"},"properties":{"osm_id":"5182123238","tag":{"amenity":"waste_basket","level":"0"}},"type":"Feature"},
	{"geometry":{"coordinates":[8.693275,49.037092],"type":"Point"},"properties":{"osm_id":"5182123243","tag":{"amenity":"waste_basket","level":"0"}},"type":"Feature"},
	{"geometry":{"coordinates":[8.69952,49.032202],"type":"Point"},"properties":{"osm_id":"6302250952","tag":{"amenity":"waste_basket"}},"type":"Feature"},
	{"geometry":{"coordinates":[8.696685,49.031594],"type":"Point"},"properties":{"osm_id":"6302250953","tag":{"amenity":"waste_basket","material":"metal"}},"type":"Feature"},
	{"geometry":{"coordinates":[8.694497,49.031793],"type":"Point"},"properties":{"osm_id":"6302250954","tag":{"amenity":"waste_basket","material":"metal"}},"type":"Feature"},
	{"geometry":{"coordinates":[8.69507,49.030695],"type":"Point"},"properties":{"osm_id":"6302250955","tag":{"amenity":"waste_basket","material":"metal"}},"type":"Feature"},
	{"geometry":{"coordinates":[8.632782,49.001424],"type":"Point"},"properties":{"osm_id":"7417962667","tag":{"amenity":"waste_basket","waste":"trash"}},"type":"Feature"}
]
}
