{
"type": "FeatureCollection",
"features": [
	{"geometry":{"coordinates":[8.663972,48.486969],"type":"Point"},"properties":{"osm_id":"269335308","tag":{"amenity":"recycling","recycling_type":"container"}},"type":"Feature"},
	{"geometry":{"coordinates":[8.690247,48.505851],"type":"Point"},"properties":{"osm_id":"919771779","tag":{"amenity":"recycling"}},"type":"Feature"},
	{"geometry":{"coordinates":[8.658766,48.49208],"type":"Point"},"properties":{"name":"Horb Talheim","osm_id":"8292336617","tag":{"amenity":"recycling","recycling_type":"container"}},"type":"Feature"},
	{"geometry":{"coordinates":[8.660318,48.467728],"type":"Point"},"properties":{"osm_id":"8616928219","tag":{"amenity":"waste_basket","waste":"trash"}},"type":"Feature"},
	{"geometry":{"coordinates":[8.660029,48.467638],"type":"Point"},"properties":{"osm_id":"8719648609","tag":{"amenity":"waste_basket","level":"1","waste":"trash"}},"type":"Feature"},
	{"geometry":{"coordinates":[8.660627,48.467924],"type":"Point"},"properties":{"osm_id":"8719679023","tag":{"amenity":"waste_basket","level":"1","waste":"trash"}},"type":"Feature"}
]
}
