{
"type": "FeatureCollection",
"features": [
	{"geometry":{"coordinates":[8.680994,47.542231],"type":"Point"},"properties":{"osm_id":"685191496","tag":{"amenity":"recycling"}},"type":"Feature"},
	{"geometry":{"coordinates":[8.626344,47.524332],"type":"Point"},"properties":{"name":"Sammelstelle","osm_id":"960451618","tag":{"amenity":"recycling"}},"type":"Feature"},
	{"geometry":{"coordinates":[8.644223,47.517497],"type":"Point"},"properties":{"osm_id":"1203245877","tag":{"amenity":"recycling"}},"type":"Feature"},
	{"geometry":{"coordinates":[8.670946,47.576136],"type":"Point"},"properties":{"name":"TRELAG AG","osm_id":"1272546606","tag":{"amenity":"recycling","opening_hours":"Mo-Sa 07:00-18:00","recycling:aluminium":"yes","recycling:batteries":"yes","recycling:fluorescent_tubes":"yes","recycling:fridge_and_freezer":"yes","recycling:light_bulbs":"yes","recycling:low_energy_bulbs":"yes","recycling:mobile_phones":"yes","recycling:printer_cartridges":"yes","recycling:scrap_metal":"yes","recycling:small_appliances":"yes","recycling:tv_monitor":"yes","website":"http://www.trelag.ch"}},"type":"Feature"},
	{"geometry":{"coordinates":[8.682964,47.564294],"type":"Point"},"properties":{"osm_id":"1620046091","tag":{"amenity":"recycling","recycling:cans":"yes","recycling:glass":"yes","recycling_type":"container"}},"type":"Feature"},
	{"geometry":{"coordinates":[8.680915,47.565516],"type":"Point"},"properties":{"name":"Kleider, Oel","osm_id":"1620046113","tag":{"amenity":"recycling"}},"type":"Feature"},
	{"geometry":{"coordinates":[8.683105,47.564106],"type":"Point"},"properties":{"osm_id":"1620046126","tag":{"amenity":"recycling","recycling:PET":"yes","recycling:clothes":"yes","recycling_type":"container"}},"type":"Feature"},
	{"geometry":{"coordinates":[8.684588,47.574725],"type":"Point"},"properties":{"osm_id":"2177450583","tag":{"amenity":"waste_basket"}},"type":"Feature"},
	{"geometry":{"coordinates":[8.684376,47.574911],"type":"Point"},"properties":{"osm_id":"2177450657","tag":{"amenity":"waste_basket"}},"type":"Feature"},
	{"geometry":{"coordinates":[8.684638,47.574942],"type":"Point"},"properties":{"osm_id":"2177450681","tag":{"amenity":"waste_basket"}},"type":"Feature"},
	{"geometry":{"coordinates":[8.684151,47.575269],"type":"Point"},"properties":{"osm_id":"2177450708","tag":{"amenity":"waste_basket"}},"type":"Feature"},
	{"geometry":{"coordinates":[8.684317,47.575412],"type":"Point"},"properties":{"osm_id":"2177450735","tag":{"amenity":"waste_basket"}},"type":"Feature"},
	{"geometry":{"coordinates":[8.623313,47.541891],"type":"Point"},"properties":{"osm_id":"2721566399","tag":{"amenity":"waste_basket"}},"type":"Feature"},
	{"geometry":{"coordinates":[8.692295,47.545639],"type":"Point"},"properties":{"osm_id":"3537256545","tag":{"amenity":"recycling","recycling:clothes":"yes","recycling_type":"container","wheelchair":"yes"}},"type":"Feature"},
	{"geometry":{"coordinates":[8.692669,47.545847],"type":"Point"},"properties":{"name":"FABI Recycling GmbH","osm_id":"4249935796","tag":{"addr:city":"Hettlingen","addr:housenumber":"4","addr:postcode":"8442","addr:street":"Aeschemerstrasse","amenity":"recycling","website":"https://www.fabirecycling.ch/"}},"type":"Feature"},
	{"geometry":{"coordinates":[8.674486,47.52845],"type":"Point"},"properties":{"osm_id":"6096823519","tag":{"amenity":"recycling","recycling:batteries":"yes","recycling:beverage_cartons":"yes","recycling:cans":"yes","recycling:cartons":"yes","recycling:clothes":"yes","recycling:electrical_appliances":"yes","recycling:glass_bottles":"yes","recycling:magazines":"yes","recycling:newspaper":"yes","recycling:paper":"yes","recycling_type":"centre"}},"type":"Feature"},
	{"geometry":{"coordinates":[8.68242,47.571244],"type":"Point"},"properties":{"osm_id":"6823639764","tag":{"amenity":"waste_basket","waste":"trash"}},"type":"Feature"}
]
}
