{
"type": "FeatureCollection",
"features": [
	{"geometry":{"coordinates":[8.688117,47.510863],"type":"Point"},"properties":{"osm_id":"29744663","tag":{"amenity":"recycling","recycling:clothes":"no","recycling:glass_bottles":"yes","recycling:paper":"no","recycling_type":"container"}},"type":"Feature"},
	{"geometry":{"coordinates":[8.69191,47.509779],"type":"Point"},"properties":{"name":"Sammelstelle Lindenplatz","osm_id":"29744664","tag":{"amenity":"recycling","recycling:aluminium":"yes","recycling:batteries":"yes","recycling:cans":"yes","recycling:clothes":"yes","recycling:glass_bottles":"yes","recycling:oil":"yes","recycling:paper":"no","recycling:scrap_metal":"yes","recycling_type":"container"}},"type":"Feature"},
	{"geometry":{"coordinates":[8.643798,47.507481],"type":"Point"},"properties":{"osm_id":"476525715","tag":{"amenity":"recycling"}},"type":"Feature"},
	{"geometry":{"coordinates":[8.680072,47.516293],"type":"Point"},"properties":{"osm_id":"4695819135","tag":{"amenity":"recycling","recycling:aluminium":"yes","recycling:batteries":"yes","recycling:pet":"yes","recycling:plastic_bottles":"yes","recycling_type":"container"}},"type":"Feature"},
	{"geometry":{"coordinates":[8.679918,47.516325],"type":"Point"},"properties":{"osm_id":"4695819136","tag":{"amenity":"recycling","recycling:clothes":"yes","recycling_type":"container"}},"type":"Feature"},
	{"geometry":{"coordinates":[8.685163,47.513872],"type":"Point"},"properties":{"osm_id":"4761686927","tag":{"amenity":"waste_basket"}},"type":"Feature"},
	{"geometry":{"coordinates":[8.691776,47.510089],"type":"Point"},"properties":{"osm_id":"4761686968","tag":{"amenity":"recycling","recycling:clothes":"yes","recycling_type":"container"}},"type":"Feature"},
	{"geometry":{"coordinates":[8.691734,47.510078],"type":"Point"},"properties":{"osm_id":"4761686983","tag":{"amenity":"recycling","recycling:aerosol_cans":"yes","recycling:batteries":"yes","recycling:pet":"yes","recycling:plastic_bottles":"yes","recycling_type":"container"}},"type":"Feature"},
	{"geometry":{"coordinates":[8.683136,47.515057],"type":"Point"},"properties":{"osm_id":"4762013242","tag":{"amenity":"waste_basket"}},"type":"Feature"},
	{"geometry":{"coordinates":[8.68624,47.51464],"type":"Point"},"properties":{"osm_id":"4825712626","tag":{"amenity":"waste_basket"}},"type":"Feature"},
	{"geometry":{"coordinates":[8.697999,47.510899],"type":"Point"},"properties":{"osm_id":"4825734749","tag":{"amenity":"waste_basket"}},"type":"Feature"},
	{"geometry":{"coordinates":[8.688282,47.512207],"type":"Point"},"properties":{"osm_id":"4844241151","tag":{"amenity":"waste_basket"}},"type":"Feature"},
	{"geometry":{"coordinates":[8.689405,47.511845],"type":"Point"},"properties":{"osm_id":"4844261248","tag":{"amenity":"waste_basket"}},"type":"Feature"},
	{"geometry":{"coordinates":[8.694711,47.510579],"type":"Point"},"properties":{"osm_id":"4980204206","tag":{"amenity":"waste_basket"}},"type":"Feature"},
	{"geometry":{"coordinates":[8.69416,47.510723],"type":"Point"},"properties":{"osm_id":"4980204209","tag":{"amenity":"waste_basket"}},"type":"Feature"},
	{"geometry":{"coordinates":[8.693332,47.51063],"type":"Point"},"properties":{"osm_id":"4993241324","tag":{"amenity":"waste_basket"}},"type":"Feature"},
	{"geometry":{"coordinates":[8.697574,47.511014],"type":"Point"},"properties":{"osm_id":"4993241326","tag":{"amenity":"waste_basket"}},"type":"Feature"},
	{"geometry":{"coordinates":[8.701157,47.510427],"type":"Point"},"properties":{"osm_id":"4993245732","tag":{"amenity":"waste_basket"}},"type":"Feature"},
	{"geometry":{"coordinates":[8.679905,47.515585],"type":"Point"},"properties":{"osm_id":"4997734951","tag":{"amenity":"waste_basket"}},"type":"Feature"},
	{"geometry":{"coordinates":[8.679806,47.515676],"type":"Point"},"properties":{"osm_id":"4997734952","tag":{"amenity":"waste_basket"}},"type":"Feature"},
	{"geometry":{"coordinates":[8.680056,47.515791],"type":"Point"},"properties":{"osm_id":"4997734962","tag":{"amenity":"waste_basket"}},"type":"Feature"},
	{"geometry":{"coordinates":[8.681548,47.513184],"type":"Point"},"properties":{"osm_id":"5012025221","tag":{"amenity":"waste_basket"}},"type":"Feature"},
	{"geometry":{"coordinates":[8.68156,47.513191],"type":"Point"},"properties":{"osm_id":"5013740628","tag":{"amenity":"waste_basket"}},"type":"Feature"},
	{"geometry":{"coordinates":[8.685793,47.513415],"type":"Point"},"properties":{"osm_id":"5051132233","tag":{"amenity":"waste_basket"}},"type":"Feature"},
	{"geometry":{"coordinates":[8.686202,47.512904],"type":"Point"},"properties":{"osm_id":"5054119659","tag":{"amenity":"recycling","recycling:clothes":"yes","recycling_type":"container"}},"type":"Feature"},
	{"geometry":{"coordinates":[8.680136,47.51577],"type":"Point"},"properties":{"osm_id":"5069622299","tag":{"amenity":"recycling","recycling:PET":"yes","recycling_type":"container"}},"type":"Feature"},
	{"geometry":{"coordinates":[8.68286,47.515178],"type":"Point"},"properties":{"osm_id":"5232709683","tag":{"amenity":"waste_basket"}},"type":"Feature"},
	{"geometry":{"coordinates":[8.616149,47.461989],"type":"Point"},"properties":{"osm_id":"6974047824","tag":{"amenity":"waste_basket","waste":"trash"}},"type":"Feature"},
	{"geometry":{"coordinates":[8.619312,47.487182],"type":"Point"},"properties":{"osm_id":"7040512980","tag":{"amenity":"waste_basket","waste":"trash"}},"type":"Feature"},
	{"geometry":{"coordinates":[8.634793,47.45845],"type":"Point"},"properties":{"osm_id":"7286030270","tag":{"amenity":"waste_basket","waste":"trash"}},"type":"Feature"},
	{"geometry":{"coordinates":[8.641458,47.470435],"type":"Point"},"properties":{"osm_id":"7287621658","tag":{"amenity":"waste_basket","waste":"trash"}},"type":"Feature"},
	{"geometry":{"coordinates":[8.648694,47.497368],"type":"Point"},"properties":{"osm_id":"7289441627","tag":{"amenity":"waste_basket","waste":"trash"}},"type":"Feature"},
	{"geometry":{"coordinates":[8.647351,47.496461],"type":"Point"},"properties":{"osm_id":"7289441657","tag":{"amenity":"waste_basket","waste":"trash"}},"type":"Feature"},
	{"geometry":{"coordinates":[8.700067,47.505493],"type":"Point"},"properties":{"osm_id":"7463465402","tag":{"amenity":"waste_basket","waste":"trash"}},"type":"Feature"},
	{"geometry":{"coordinates":[8.696965,47.503875],"type":"Point"},"properties":{"osm_id":"7464894195","tag":{"amenity":"waste_basket","waste":"dog_excrement"}},"type":"Feature"}
]
}
