{
"type": "FeatureCollection",
"features": [
	{"geometry":{"coordinates":[8.636541,47.372641],"type":"Point"},"properties":{"osm_id":"247333911","tag":{"amenity":"recycling","recycling:glass":"yes"}},"type":"Feature"},
	{"geometry":{"coordinates":[8.642136,47.370185],"type":"Point"},"properties":{"osm_id":"282951410","tag":{"amenity":"recycling","recycling:cans":"yes","recycling:clothes":"yes","recycling:glass":"no","recycling:glass_bottles":"yes","recycling:scrap_metal":"yes","recycling_type":"underfloor-container"}},"type":"Feature"},
	{"geometry":{"coordinates":[8.637769,47.36959],"type":"Point"},"properties":{"name":"Kadaversammelstelle","osm_id":"282951411","tag":{"amenity":"recycling"}},"type":"Feature"},
	{"geometry":{"coordinates":[8.681524,47.388254],"type":"Point"},"properties":{"osm_id":"304684466","tag":{"amenity":"recycling"}},"type":"Feature"},
	{"geometry":{"coordinates":[8.676361,47.39291],"type":"Point"},"properties":{"osm_id":"304690385","tag":{"amenity":"recycling","recycling_type":"centre"}},"type":"Feature"},
	{"geometry":{"coordinates":[8.69407,47.350099],"type":"Point"},"properties":{"osm_id":"318350184","tag":{"amenity":"recycling","recycling:cans":"yes","recycling:glass":"yes"}},"type":"Feature"},
	{"geometry":{"coordinates":[8.66824,47.340533],"type":"Point"},"properties":{"osm_id":"336464471","tag":{"amenity":"recycling"}},"type":"Feature"},
	{"geometry":{"coordinates":[8.64257,47.351009],"type":"Point"},"properties":{"osm_id":"342578491","tag":{"amenity":"recycling","location":"overground","recycling_type":"container"}},"type":"Feature"},
	{"geometry":{"coordinates":[8.633566,47.360602],"type":"Point"},"properties":{"osm_id":"367310598","tag":{"amenity":"recycling","location":"overground","recycling:paper":"yes","recycling:waste":"yes","recycling_type":"container"}},"type":"Feature"},
	{"geometry":{"coordinates":[8.638342,47.35321],"type":"Point"},"properties":{"osm_id":"723185034","tag":{"amenity":"recycling"}},"type":"Feature"},
	{"geometry":{"coordinates":[8.680714,47.364973],"type":"Point"},"properties":{"osm_id":"1041337343","tag":{"amenity":"recycling","description":"http://www.greifensee.ch/de/verwaltung/abfall/abfallorte/welcome.php?action=show&object_id=5","recycling:batteries":"no","recycling:books":"no","recycling:cans":"no","recycling:cardboard":"no","recycling:cartons":"no","recycling:clothes":"no","recycling:electrical_appliances":"no","recycling:glass":"no","recycling:glass_bottles":"no","recycling:green_waste":"no","recycling:magazines":"no","recycling:newspaper":"no","recycling:paper":"no","recycling:paper_packaging":"no","recycling:plastic":"no","recycling:plastic_bottles":"no","recycling:plastic_packaging":"no","recycling:scrap_metal":"yes","recycling:small_appliances":"no","recycling:waste":"no","recycling:wood":"no","recycling_type":"container"}},"type":"Feature"},
	{"geometry":{"coordinates":[8.633263,47.395854],"type":"Point"},"properties":{"name":"Hauptsammelstelle D\u00c3\u00bcbendorf","osm_id":"1403172310","tag":{"amenity":"recycling","operator":"City D\u00c3\u00bcbendorf","recycling:cans":"yes","recycling:clothes":"yes","recycling:glass":"yes","recycling:paper":"yes","recycling:scrap_metal":"yes","recycling_type":"centre","website":"http://www.duebendorf.ch/de/verwaltung/abfall/abfallorte/welcome.php?action=show&object_id=2158"}},"type":"Feature"},
	{"geometry":{"coordinates":[8.658475,47.379895],"type":"Point"},"properties":{"osm_id":"1768097425","tag":{"amenity":"recycling"}},"type":"Feature"},
	{"geometry":{"coordinates":[8.62459,47.354203],"type":"Point"},"properties":{"osm_id":"1828441836","tag":{"amenity":"waste_basket"}},"type":"Feature"},
	{"geometry":{"coordinates":[8.701103,47.347272],"type":"Point"},"properties":{"osm_id":"1956516977","tag":{"amenity":"recycling","recycling:cans":"yes","recycling:clothes":"yes","recycling:glass_bottles":"yes","recycling_type":"container"}},"type":"Feature"},
	{"geometry":{"coordinates":[8.692344,47.370513],"type":"Point"},"properties":{"osm_id":"1978546898","tag":{"amenity":"recycling","recycling:batteries":"yes","recycling:books":"no","recycling:cans":"no","recycling:cardboard":"no","recycling:cartons":"no","recycling:clothes":"no","recycling:electrical_appliances":"no","recycling:glass":"no","recycling:glass_bottles":"yes","recycling:green_waste":"no","recycling:magazines":"no","recycling:newspaper":"no","recycling:paper":"no","recycling:paper_packaging":"no","recycling:plastic":"no","recycling:plastic_bottles":"no","recycling:plastic_packaging":"no","recycling:scrap_metal":"no","recycling:small_appliances":"no","recycling:waste":"no","recycling:wood":"no","recycling_type":"container"}},"type":"Feature"},
	{"geometry":{"coordinates":[8.688151,47.370458],"type":"Point"},"properties":{"osm_id":"1978554361","tag":{"amenity":"recycling","recycling:books":"no","recycling:cans":"no","recycling:cardboard":"no","recycling:cartons":"no","recycling:clothes":"yes","recycling:electrical_appliances":"no","recycling:glass":"no","recycling:glass_bottles":"no","recycling:green_waste":"no","recycling:magazines":"no","recycling:newspaper":"no","recycling:paper":"no","recycling:paper_packaging":"no","recycling:plastic":"no","recycling:plastic_bottles":"no","recycling:plastic_packaging":"no","recycling:scrap_metal":"no","recycling:small_appliances":"no","recycling:waste":"no","recycling:wood":"no","recycling_type":"container"}},"type":"Feature"},
	{"geometry":{"coordinates":[8.684899,47.37034],"type":"Point"},"properties":{"osm_id":"1978560002","tag":{"amenity":"recycling","recycling:batteries":"no","recycling:books":"no","recycling:cans":"yes","recycling:cardboard":"no","recycling:cartons":"no","recycling:clothes":"yes","recycling:electrical_appliances":"no","recycling:glass":"no","recycling:glass_bottles":"yes","recycling:green_waste":"no","recycling:magazines":"no","recycling:newspaper":"no","recycling:paper":"no","recycling:paper_packaging":"no","recycling:plastic":"no","recycling:plastic_bottles":"no","recycling:plastic_packaging":"no","recycling:scrap_metal":"no","recycling:small_appliances":"no","recycling:waste":"no","recycling:wood":"no","recycling_type":"container"}},"type":"Feature"},
	{"geometry":{"coordinates":[8.70082,47.363097],"type":"Point"},"properties":{"osm_id":"1978572171","tag":{"amenity":"recycling","recycling:batteries":"no","recycling:books":"no","recycling:cans":"yes","recycling:cardboard":"no","recycling:cartons":"no","recycling:clothes":"no","recycling:electrical_appliances":"no","recycling:glass":"no","recycling:glass_bottles":"yes","recycling:green_waste":"no","recycling:magazines":"no","recycling:newspaper":"no","recycling:paper":"no","recycling:paper_packaging":"no","recycling:plastic":"no","recycling:plastic_bottles":"no","recycling:plastic_packaging":"no","recycling:scrap_metal":"no","recycling:small_appliances":"no","recycling:waste":"no","recycling:wood":"no","recycling_type":"container"}},"type":"Feature"},
	{"geometry":{"coordinates":[8.679031,47.367658],"type":"Point"},"properties":{"osm_id":"2251012924","tag":{"amenity":"recycling","recycling:batteries":"no","recycling:books":"no","recycling:cans":"yes","recycling:cardboard":"no","recycling:cartons":"no","recycling:clothes":"no","recycling:electrical_appliances":"no","recycling:glass":"no","recycling:glass_bottles":"yes","recycling:green_waste":"no","recycling:magazines":"no","recycling:newspaper":"no","recycling:paper":"no","recycling:paper_packaging":"no","recycling:plastic":"no","recycling:plastic_bottles":"no","recycling:plastic_packaging":"no","recycling:scrap_metal":"no","recycling:small_appliances":"no","recycling:waste":"no","recycling:wood":"no","recycling_type":"container"}},"type":"Feature"},
	{"geometry":{"coordinates":[8.619084,47.397002],"type":"Point"},"properties":{"osm_id":"2375321374","tag":{"amenity":"recycling","recycling:aluminium":"yes","recycling:cans":"yes","recycling:clothes":"yes","recycling:glass":"yes","recycling:glass_bottles":"yes","recycling:scrap_metal":"yes","recycling_type":"container","wheelchair":"yes"}},"type":"Feature"},
	{"geometry":{"coordinates":[8.646771,47.379878],"type":"Point"},"properties":{"osm_id":"2507260444","tag":{"natural":"tree"}},"type":"Feature"},
	{"geometry":{"coordinates":[8.64672,47.379984],"type":"Point"},"properties":{"osm_id":"2507260449","tag":{"natural":"tree"}},"type":"Feature"},
	{"geometry":{"coordinates":[8.627343,47.38764],"type":"Point"},"properties":{"osm_id":"2548927533","tag":{"amenity":"waste_basket"}},"type":"Feature"},
	{"geometry":{"coordinates":[8.645082,47.380252],"type":"Point"},"properties":{"osm_id":"2548927541","tag":{"amenity":"waste_basket"}},"type":"Feature"},
	{"geometry":{"coordinates":[8.649365,47.37696],"type":"Point"},"properties":{"osm_id":"2548927542","tag":{"amenity":"waste_basket"}},"type":"Feature"},
	{"geometry":{"coordinates":[8.631962,47.382158],"type":"Point"},"properties":{"osm_id":"2548927545","tag":{"amenity":"waste_basket"}},"type":"Feature"},
	{"geometry":{"coordinates":[8.64404,47.380478],"type":"Point"},"properties":{"osm_id":"2548927546","tag":{"amenity":"waste_basket"}},"type":"Feature"},
	{"geometry":{"coordinates":[8.635106,47.381304],"type":"Point"},"properties":{"osm_id":"2548927547","tag":{"amenity":"waste_basket"}},"type":"Feature"},
	{"geometry":{"coordinates":[8.655888,47.372787],"type":"Point"},"properties":{"osm_id":"2548927551","tag":{"amenity":"waste_basket"}},"type":"Feature"},
	{"geometry":{"coordinates":[8.627019,47.388674],"type":"Point"},"properties":{"osm_id":"2548968833","tag":{"amenity":"waste_basket"}},"type":"Feature"},
	{"geometry":{"coordinates":[8.626072,47.389691],"type":"Point"},"properties":{"osm_id":"2548968835","tag":{"amenity":"waste_basket"}},"type":"Feature"},
	{"geometry":{"coordinates":[8.626157,47.390247],"type":"Point"},"properties":{"osm_id":"2548968851","tag":{"amenity":"waste_basket"}},"type":"Feature"},
	{"geometry":{"coordinates":[8.627192,47.388266],"type":"Point"},"properties":{"osm_id":"2548968854","tag":{"amenity":"waste_basket"}},"type":"Feature"},
	{"geometry":{"coordinates":[8.62666,47.390399],"type":"Point"},"properties":{"osm_id":"2548971736","tag":{"amenity":"waste_basket"}},"type":"Feature"},
	{"geometry":{"coordinates":[8.625007,47.395015],"type":"Point"},"properties":{"osm_id":"2548994771","tag":{"amenity":"waste_basket"}},"type":"Feature"},
	{"geometry":{"coordinates":[8.62461,47.395569],"type":"Point"},"properties":{"osm_id":"2548994775","tag":{"amenity":"waste_basket"}},"type":"Feature"},
	{"geometry":{"coordinates":[8.623605,47.395485],"type":"Point"},"properties":{"osm_id":"2549011479","tag":{"amenity":"waste_basket"}},"type":"Feature"},
	{"geometry":{"coordinates":[8.623524,47.396629],"type":"Point"},"properties":{"osm_id":"2549031187","tag":{"amenity":"waste_basket"}},"type":"Feature"},
	{"geometry":{"coordinates":[8.623818,47.396715],"type":"Point"},"properties":{"osm_id":"2549031188","tag":{"amenity":"waste_basket"}},"type":"Feature"},
	{"geometry":{"coordinates":[8.622531,47.397512],"type":"Point"},"properties":{"osm_id":"2549031192","tag":{"amenity":"waste_basket"}},"type":"Feature"},
	{"geometry":{"coordinates":[8.622235,47.397759],"type":"Point"},"properties":{"osm_id":"2549031194","tag":{"amenity":"waste_basket"}},"type":"Feature"},
	{"geometry":{"coordinates":[8.6226,47.39786],"type":"Point"},"properties":{"osm_id":"2549031197","tag":{"amenity":"waste_basket"}},"type":"Feature"},
	{"geometry":{"coordinates":[8.622374,47.398072],"type":"Point"},"properties":{"osm_id":"2549031199","tag":{"amenity":"waste_basket"}},"type":"Feature"},
	{"geometry":{"coordinates":[8.6216,47.398231],"type":"Point"},"properties":{"osm_id":"2549055700","tag":{"amenity":"waste_basket"}},"type":"Feature"},
	{"geometry":{"coordinates":[8.622028,47.397946],"type":"Point"},"properties":{"osm_id":"2549055714","tag":{"amenity":"waste_basket"}},"type":"Feature"},
	{"geometry":{"coordinates":[8.65576,47.37284],"type":"Point"},"properties":{"osm_id":"2576922932","tag":{"amenity":"waste_basket"}},"type":"Feature"},
	{"geometry":{"coordinates":[8.643047,47.393166],"type":"Point"},"properties":{"osm_id":"2708561851","tag":{"amenity":"recycling","recycling:clothes":"yes","recycling:glass":"yes","recycling_type":"container"}},"type":"Feature"},
	{"geometry":{"coordinates":[8.696969,47.390207],"type":"Point"},"properties":{"osm_id":"3826798805","tag":{"amenity":"waste_basket"}},"type":"Feature"},
	{"geometry":{"coordinates":[8.691848,47.389578],"type":"Point"},"properties":{"osm_id":"3826798874","tag":{"amenity":"waste_basket"}},"type":"Feature"},
	{"geometry":{"coordinates":[8.692323,47.388131],"type":"Point"},"properties":{"osm_id":"3826798879","tag":{"amenity":"waste_basket"}},"type":"Feature"},
	{"geometry":{"coordinates":[8.690985,47.393306],"type":"Point"},"properties":{"osm_id":"3828415559","tag":{"addr:city":"Volketswil","addr:postcode":"8604","addr:street":"H\u00c3\u00b6henweg","amenity":"waste_basket"}},"type":"Feature"},
	{"geometry":{"coordinates":[8.690176,47.393439],"type":"Point"},"properties":{"osm_id":"3828415857","tag":{"amenity":"waste_basket"}},"type":"Feature"},
	{"geometry":{"coordinates":[8.69,47.389579],"type":"Point"},"properties":{"osm_id":"3832383629","tag":{"amenity":"waste_basket"}},"type":"Feature"},
	{"geometry":{"coordinates":[8.688832,47.389693],"type":"Point"},"properties":{"osm_id":"3832383632","tag":{"amenity":"waste_basket"}},"type":"Feature"},
	{"geometry":{"coordinates":[8.687997,47.389893],"type":"Point"},"properties":{"osm_id":"3832383638","tag":{"amenity":"waste_basket"}},"type":"Feature"},
	{"geometry":{"coordinates":[8.646118,47.390505],"type":"Point"},"properties":{"osm_id":"3842569457","tag":{"amenity":"waste_basket"}},"type":"Feature"},
	{"geometry":{"coordinates":[8.644285,47.391359],"type":"Point"},"properties":{"osm_id":"3842569460","tag":{"amenity":"waste_basket"}},"type":"Feature"},
	{"geometry":{"coordinates":[8.636518,47.391983],"type":"Point"},"properties":{"osm_id":"3842569466","tag":{"amenity":"waste_basket"}},"type":"Feature"},
	{"geometry":{"coordinates":[8.637496,47.392537],"type":"Point"},"properties":{"osm_id":"3842569467","tag":{"amenity":"waste_basket"}},"type":"Feature"},
	{"geometry":{"coordinates":[8.635975,47.391389],"type":"Point"},"properties":{"osm_id":"3842569761","tag":{"amenity":"waste_basket"}},"type":"Feature"},
	{"geometry":{"coordinates":[8.636135,47.391306],"type":"Point"},"properties":{"osm_id":"3842569865","tag":{"amenity":"waste_basket"}},"type":"Feature"},
	{"geometry":{"coordinates":[8.638399,47.39312],"type":"Point"},"properties":{"osm_id":"3842569962","tag":{"amenity":"waste_basket"}},"type":"Feature"},
	{"geometry":{"coordinates":[8.640038,47.389668],"type":"Point"},"properties":{"osm_id":"3842570158","tag":{"amenity":"waste_basket"}},"type":"Feature"},
	{"geometry":{"coordinates":[8.660848,47.391426],"type":"Point"},"properties":{"osm_id":"3844728962","tag":{"amenity":"waste_basket"}},"type":"Feature"},
	{"geometry":{"coordinates":[8.665017,47.388284],"type":"Point"},"properties":{"osm_id":"3844729675","tag":{"amenity":"waste_basket"}},"type":"Feature"},
	{"geometry":{"coordinates":[8.659703,47.388771],"type":"Point"},"properties":{"osm_id":"3844729676","tag":{"amenity":"waste_basket"}},"type":"Feature"},
	{"geometry":{"coordinates":[8.663204,47.389004],"type":"Point"},"properties":{"osm_id":"3844729677","tag":{"amenity":"waste_basket"}},"type":"Feature"},
	{"geometry":{"coordinates":[8.663737,47.390109],"type":"Point"},"properties":{"osm_id":"3844729678","tag":{"amenity":"waste_basket"}},"type":"Feature"},
	{"geometry":{"coordinates":[8.665883,47.389418],"type":"Point"},"properties":{"osm_id":"3844729682","tag":{"amenity":"waste_basket"}},"type":"Feature"},
	{"geometry":{"coordinates":[8.669141,47.388074],"type":"Point"},"properties":{"osm_id":"3844729684","tag":{"amenity":"waste_basket"}},"type":"Feature"},
	{"geometry":{"coordinates":[8.670919,47.387306],"type":"Point"},"properties":{"osm_id":"3844729685","tag":{"amenity":"waste_basket"}},"type":"Feature"},
	{"geometry":{"coordinates":[8.671966,47.388126],"type":"Point"},"properties":{"osm_id":"3844729686","tag":{"amenity":"waste_basket"}},"type":"Feature"},
	{"geometry":{"coordinates":[8.660619,47.390275],"type":"Point"},"properties":{"osm_id":"3844730260","tag":{"amenity":"waste_basket"}},"type":"Feature"},
	{"geometry":{"coordinates":[8.660136,47.38986],"type":"Point"},"properties":{"osm_id":"3844730266","tag":{"amenity":"waste_basket"}},"type":"Feature"},
	{"geometry":{"coordinates":[8.685654,47.387706],"type":"Point"},"properties":{"osm_id":"3854564364","tag":{"amenity":"waste_basket"}},"type":"Feature"},
	{"geometry":{"coordinates":[8.683426,47.389056],"type":"Point"},"properties":{"osm_id":"3854566963","tag":{"amenity":"waste_basket"}},"type":"Feature"},
	{"geometry":{"coordinates":[8.683873,47.389402],"type":"Point"},"properties":{"osm_id":"3854566964","tag":{"amenity":"waste_basket"}},"type":"Feature"},
	{"geometry":{"coordinates":[8.684862,47.389092],"type":"Point"},"properties":{"osm_id":"3854605358","tag":{"amenity":"waste_basket"}},"type":"Feature"},
	{"geometry":{"coordinates":[8.685,47.38849],"type":"Point"},"properties":{"osm_id":"3854606160","tag":{"amenity":"waste_basket"}},"type":"Feature"},
	{"geometry":{"coordinates":[8.685294,47.387506],"type":"Point"},"properties":{"osm_id":"3854606161","tag":{"amenity":"waste_basket"}},"type":"Feature"},
	{"geometry":{"coordinates":[8.6863,47.387309],"type":"Point"},"properties":{"osm_id":"3854606162","tag":{"amenity":"waste_basket"}},"type":"Feature"},
	{"geometry":{"coordinates":[8.686692,47.387635],"type":"Point"},"properties":{"osm_id":"3854606163","tag":{"amenity":"waste_basket"}},"type":"Feature"},
	{"geometry":{"coordinates":[8.683227,47.388631],"type":"Point"},"properties":{"osm_id":"3854606259","tag":{"amenity":"waste_basket"}},"type":"Feature"},
	{"geometry":{"coordinates":[8.684928,47.388805],"type":"Point"},"properties":{"osm_id":"3854606657","tag":{"amenity":"waste_basket"}},"type":"Feature"},
	{"geometry":{"coordinates":[8.685939,47.387284],"type":"Point"},"properties":{"osm_id":"3854606658","tag":{"amenity":"waste_basket"}},"type":"Feature"},
	{"geometry":{"coordinates":[8.68491,47.387502],"type":"Point"},"properties":{"osm_id":"3854606759","tag":{"amenity":"waste_basket"}},"type":"Feature"},
	{"geometry":{"coordinates":[8.686657,47.387946],"type":"Point"},"properties":{"osm_id":"3854606760","tag":{"amenity":"waste_basket"}},"type":"Feature"},
	{"geometry":{"coordinates":[8.685104,47.388049],"type":"Point"},"properties":{"osm_id":"3854606857","tag":{"amenity":"waste_basket"}},"type":"Feature"},
	{"geometry":{"coordinates":[8.616457,47.392249],"type":"Point"},"properties":{"osm_id":"3905369960","tag":{"amenity":"waste_basket"}},"type":"Feature"},
	{"geometry":{"coordinates":[8.615605,47.395],"type":"Point"},"properties":{"osm_id":"3909113662","tag":{"amenity":"waste_basket"}},"type":"Feature"},
	{"geometry":{"coordinates":[8.614528,47.391956],"type":"Point"},"properties":{"osm_id":"3909174892","tag":{"amenity":"waste_basket"}},"type":"Feature"},
	{"geometry":{"coordinates":[8.617647,47.394618],"type":"Point"},"properties":{"osm_id":"3909175065","tag":{"amenity":"waste_basket"}},"type":"Feature"},
	{"geometry":{"coordinates":[8.617165,47.393215],"type":"Point"},"properties":{"osm_id":"3909175067","tag":{"amenity":"waste_basket"}},"type":"Feature"},
	{"geometry":{"coordinates":[8.617272,47.391316],"type":"Point"},"properties":{"osm_id":"3909175068","tag":{"amenity":"waste_basket"}},"type":"Feature"},
	{"geometry":{"coordinates":[8.61483,47.391542],"type":"Point"},"properties":{"osm_id":"3909175077","tag":{"amenity":"waste_basket"}},"type":"Feature"},
	{"geometry":{"coordinates":[8.617077,47.391532],"type":"Point"},"properties":{"osm_id":"3909187957","tag":{"amenity":"waste_basket"}},"type":"Feature"},
	{"geometry":{"coordinates":[8.622878,47.38778],"type":"Point"},"properties":{"osm_id":"3931848173","tag":{"amenity":"waste_basket"}},"type":"Feature"},
	{"geometry":{"coordinates":[8.65246,47.365756],"type":"Point"},"properties":{"osm_id":"4424924585","tag":{"amenity":"waste_basket"}},"type":"Feature"},
	{"geometry":{"coordinates":[8.639793,47.359847],"type":"Point"},"properties":{"osm_id":"4792116304","tag":{"amenity":"waste_basket"}},"type":"Feature"},
	{"geometry":{"coordinates":[8.619722,47.398318],"type":"Point"},"properties":{"osm_id":"5167005222","tag":{"amenity":"waste_basket"}},"type":"Feature"},
	{"geometry":{"coordinates":[8.62854,47.385789],"type":"Point"},"properties":{"osm_id":"5271948581","tag":{"amenity":"waste_basket"}},"type":"Feature"},
	{"geometry":{"coordinates":[8.641309,47.366734],"type":"Point"},"properties":{"osm_id":"5283952634","tag":{"amenity":"waste_basket"}},"type":"Feature"},
	{"geometry":{"coordinates":[8.66006,47.373881],"type":"Point"},"properties":{"osm_id":"5284877502","tag":{"amenity":"waste_basket"}},"type":"Feature"},
	{"geometry":{"coordinates":[8.660298,47.373433],"type":"Point"},"properties":{"osm_id":"5284877511","tag":{"amenity":"waste_basket"}},"type":"Feature"},
	{"geometry":{"coordinates":[8.635683,47.382877],"type":"Point"},"properties":{"osm_id":"5292140658","tag":{"amenity":"waste_basket"}},"type":"Feature"},
	{"geometry":{"coordinates":[8.626936,47.384952],"type":"Point"},"properties":{"osm_id":"5310456438","tag":{"amenity":"waste_basket","waste":"trash"}},"type":"Feature"},
	{"geometry":{"coordinates":[8.666611,47.395416],"type":"Point"},"properties":{"osm_id":"5318621404","tag":{"amenity":"waste_basket","waste":"trash"}},"type":"Feature"},
	{"geometry":{"coordinates":[8.654169,47.390608],"type":"Point"},"properties":{"osm_id":"5321471091","tag":{"amenity":"waste_basket","waste":"trash"}},"type":"Feature"},
	{"geometry":{"coordinates":[8.621955,47.398334],"type":"Point"},"properties":{"osm_id":"5490859294","tag":{"amenity":"waste_basket","waste":"trash"}},"type":"Feature"},
	{"geometry":{"coordinates":[8.661794,47.380981],"type":"Point"},"properties":{"osm_id":"5524734425","tag":{"amenity":"waste_basket","waste":"trash"}},"type":"Feature"},
	{"geometry":{"coordinates":[8.658605,47.379181],"type":"Point"},"properties":{"osm_id":"5524734428","tag":{"amenity":"waste_basket","waste":"trash"}},"type":"Feature"},
	{"geometry":{"coordinates":[8.674675,47.372778],"type":"Point"},"properties":{"osm_id":"5532083246","tag":{"amenity":"waste_basket","waste":"trash"}},"type":"Feature"},
	{"geometry":{"coordinates":[8.66001,47.373814],"type":"Point"},"properties":{"osm_id":"5532083247","tag":{"amenity":"waste_basket","waste":"trash"}},"type":"Feature"},
	{"geometry":{"coordinates":[8.682801,47.371087],"type":"Point"},"properties":{"osm_id":"5532083253","tag":{"amenity":"waste_basket","waste":"trash"}},"type":"Feature"},
	{"geometry":{"coordinates":[8.665392,47.374087],"type":"Point"},"properties":{"osm_id":"5532083260","tag":{"amenity":"waste_basket","waste":"trash"}},"type":"Feature"},
	{"geometry":{"coordinates":[8.686651,47.368968],"type":"Point"},"properties":{"osm_id":"5532706934","tag":{"amenity":"waste_basket","waste":"trash"}},"type":"Feature"},
	{"geometry":{"coordinates":[8.687169,47.37257],"type":"Point"},"properties":{"osm_id":"5532785609","tag":{"amenity":"waste_basket","waste":"trash"}},"type":"Feature"},
	{"geometry":{"coordinates":[8.658741,47.385015],"type":"Point"},"properties":{"osm_id":"5532959199","tag":{"amenity":"waste_basket","waste":"trash"}},"type":"Feature"},
	{"geometry":{"coordinates":[8.658548,47.385066],"type":"Point"},"properties":{"osm_id":"5532959202","tag":{"amenity":"waste_basket","waste":"trash"}},"type":"Feature"},
	{"geometry":{"coordinates":[8.65866,47.385243],"type":"Point"},"properties":{"osm_id":"5532959211","tag":{"amenity":"waste_basket","waste":"trash"}},"type":"Feature"},
	{"geometry":{"coordinates":[8.65901,47.384504],"type":"Point"},"properties":{"osm_id":"5532959214","tag":{"amenity":"waste_basket","waste":"trash"}},"type":"Feature"},
	{"geometry":{"coordinates":[8.658837,47.384497],"type":"Point"},"properties":{"osm_id":"5533575944","tag":{"amenity":"waste_basket","waste":"trash"}},"type":"Feature"},
	{"geometry":{"coordinates":[8.6658,47.380561],"type":"Point"},"properties":{"osm_id":"5533575948","tag":{"amenity":"waste_basket","waste":"trash"}},"type":"Feature"},
	{"geometry":{"coordinates":[8.664667,47.381131],"type":"Point"},"properties":{"osm_id":"5533575950","tag":{"amenity":"waste_basket","waste":"trash"}},"type":"Feature"},
	{"geometry":{"coordinates":[8.667904,47.379411],"type":"Point"},"properties":{"osm_id":"5533575951","tag":{"amenity":"waste_basket","waste":"trash"}},"type":"Feature"},
	{"geometry":{"coordinates":[8.701117,47.385622],"type":"Point"},"properties":{"osm_id":"5535479178","tag":{"amenity":"waste_basket","waste":"trash"}},"type":"Feature"},
	{"geometry":{"coordinates":[8.689823,47.371011],"type":"Point"},"properties":{"osm_id":"5535571297","tag":{"amenity":"waste_basket","waste":"trash"}},"type":"Feature"},
	{"geometry":{"coordinates":[8.692386,47.370529],"type":"Point"},"properties":{"osm_id":"5535571302","tag":{"amenity":"waste_basket","waste":"trash"}},"type":"Feature"},
	{"geometry":{"coordinates":[8.692152,47.370597],"type":"Point"},"properties":{"osm_id":"5535571303","tag":{"amenity":"recycling","recycling:PET":"yes","recycling_type":"container"}},"type":"Feature"},
	{"geometry":{"coordinates":[8.692945,47.368193],"type":"Point"},"properties":{"osm_id":"5538175515","tag":{"amenity":"waste_basket","waste":"trash"}},"type":"Feature"},
	{"geometry":{"coordinates":[8.685796,47.384844],"type":"Point"},"properties":{"osm_id":"5538756411","tag":{"amenity":"waste_basket","waste":"trash"}},"type":"Feature"},
	{"geometry":{"coordinates":[8.694559,47.349852],"type":"Point"},"properties":{"osm_id":"5751866630","tag":{"amenity":"waste_disposal"}},"type":"Feature"},
	{"geometry":{"coordinates":[8.691767,47.351743],"type":"Point"},"properties":{"osm_id":"5751866631","tag":{"amenity":"waste_basket","waste":"trash"}},"type":"Feature"},
	{"geometry":{"coordinates":[8.691956,47.351844],"type":"Point"},"properties":{"osm_id":"5751888424","tag":{"amenity":"waste_basket"}},"type":"Feature"},
	{"geometry":{"coordinates":[8.665409,47.345094],"type":"Point"},"properties":{"osm_id":"5751897824","tag":{"amenity":"waste_basket"}},"type":"Feature"},
	{"geometry":{"coordinates":[8.665248,47.344946],"type":"Point"},"properties":{"osm_id":"5751897825","tag":{"amenity":"waste_disposal"}},"type":"Feature"},
	{"geometry":{"coordinates":[8.656169,47.35733],"type":"Point"},"properties":{"osm_id":"5751897922","tag":{"amenity":"waste_basket"}},"type":"Feature"},
	{"geometry":{"coordinates":[8.651238,47.346659],"type":"Point"},"properties":{"osm_id":"6377701747","tag":{"amenity":"waste_basket","waste":"trash"}},"type":"Feature"},
	{"geometry":{"coordinates":[8.687783,47.363922],"type":"Point"},"properties":{"osm_id":"6400042327","tag":{"amenity":"waste_basket","waste":"dog_excrement"}},"type":"Feature"},
	{"geometry":{"coordinates":[8.690235,47.362862],"type":"Point"},"properties":{"osm_id":"6400042328","tag":{"amenity":"waste_basket","waste":"dog_excrement"}},"type":"Feature"},
	{"geometry":{"coordinates":[8.690653,47.364409],"type":"Point"},"properties":{"osm_id":"6400042329","tag":{"amenity":"waste_basket","waste":"dog_excrement"}},"type":"Feature"},
	{"geometry":{"coordinates":[8.691412,47.366213],"type":"Point"},"properties":{"osm_id":"6400042331","tag":{"amenity":"waste_basket","hiking":"yes","information":"guidepost","tourism":"information","waste":"dog_excrement"}},"type":"Feature"},
	{"geometry":{"coordinates":[8.693931,47.344686],"type":"Point"},"properties":{"osm_id":"6456190863","tag":{"amenity":"waste_basket","waste":"trash"}},"type":"Feature"},
	{"geometry":{"coordinates":[8.694751,47.345141],"type":"Point"},"properties":{"osm_id":"6456190866","tag":{"amenity":"waste_basket","waste":"trash"}},"type":"Feature"},
	{"geometry":{"coordinates":[8.698866,47.345006],"type":"Point"},"properties":{"osm_id":"6456463262","tag":{"amenity":"waste_basket","waste":"trash"}},"type":"Feature"},
	{"geometry":{"coordinates":[8.693112,47.344275],"type":"Point"},"properties":{"osm_id":"6459836744","tag":{"amenity":"waste_basket","waste":"trash"}},"type":"Feature"},
	{"geometry":{"coordinates":[8.649691,47.339001],"type":"Point"},"properties":{"osm_id":"6502217038","tag":{"amenity":"waste_basket"}},"type":"Feature"},
	{"geometry":{"coordinates":[8.657715,47.385405],"type":"Point"},"properties":{"osm_id":"6718020195","tag":{"amenity":"recycling","recycling:batteries":"yes","recycling:clothes":"yes","recycling:glass":"yes","recycling:metal_packaging":"yes","recycling:oil":"yes","recycling:shoes":"yes","recycling_type":"container"}},"type":"Feature"},
	{"geometry":{"coordinates":[8.658726,47.385061],"type":"Point"},"properties":{"osm_id":"6718332862","tag":{"amenity":"recycling","collection_times":"Mo-Sa 07:00 - 20:00","operator":"VOI","recycling:batteries":"yes","recycling:plastic_bottles":"yes","recycling_type":"container"}},"type":"Feature"},
	{"geometry":{"coordinates":[8.671876,47.366943],"type":"Point"},"properties":{"osm_id":"6835207349","tag":{"amenity":"waste_basket","material":"steel"}},"type":"Feature"},
	{"geometry":{"coordinates":[8.635193,47.395697],"type":"Point"},"properties":{"osm_id":"6942633513","tag":{"amenity":"waste_basket","waste":"trash"}},"type":"Feature"},
	{"geometry":{"coordinates":[8.654075,47.385014],"type":"Point"},"properties":{"osm_id":"6942755403","tag":{"amenity":"waste_basket","waste":"trash"}},"type":"Feature"},
	{"geometry":{"coordinates":[8.654315,47.385648],"type":"Point"},"properties":{"osm_id":"6942755404","tag":{"amenity":"waste_basket","waste":"trash"}},"type":"Feature"},
	{"geometry":{"coordinates":[8.65427,47.385399],"type":"Point"},"properties":{"osm_id":"6942755405","tag":{"amenity":"waste_basket","waste":"trash"}},"type":"Feature"},
	{"geometry":{"coordinates":[8.649529,47.380888],"type":"Point"},"properties":{"osm_id":"7042092286","tag":{"amenity":"waste_basket","waste":"trash"}},"type":"Feature"},
	{"geometry":{"coordinates":[8.649594,47.38096],"type":"Point"},"properties":{"osm_id":"7042092293","tag":{"amenity":"waste_basket","waste":"trash"}},"type":"Feature"},
	{"geometry":{"coordinates":[8.62875,47.391095],"type":"Point"},"properties":{"osm_id":"7230891144","tag":{"amenity":"waste_basket","waste":"trash"}},"type":"Feature"},
	{"geometry":{"coordinates":[8.625184,47.388235],"type":"Point"},"properties":{"osm_id":"7230891145","tag":{"amenity":"waste_basket","waste":"trash"}},"type":"Feature"},
	{"geometry":{"coordinates":[8.625907,47.386865],"type":"Point"},"properties":{"osm_id":"7230891150","tag":{"amenity":"waste_basket","waste":"trash"}},"type":"Feature"},
	{"geometry":{"coordinates":[8.657837,47.380317],"type":"Point"},"properties":{"osm_id":"7264696206","tag":{"amenity":"waste_basket","waste":"trash"}},"type":"Feature"},
	{"geometry":{"coordinates":[8.651195,47.388419],"type":"Point"},"properties":{"osm_id":"7330887430","tag":{"amenity":"waste_basket","waste":"trash"}},"type":"Feature"},
	{"geometry":{"coordinates":[8.624267,47.395274],"type":"Point"},"properties":{"osm_id":"7375773746","tag":{"amenity":"waste_basket","waste":"trash"}},"type":"Feature"},
	{"geometry":{"coordinates":[8.628933,47.356481],"type":"Point"},"properties":{"osm_id":"7508361622","tag":{"amenity":"waste_basket","waste":"trash"}},"type":"Feature"}
]
}
