{
"type": "FeatureCollection",
"features": [
	{"geometry":{"coordinates":[8.690417,47.208861],"type":"Point"},"properties":{"osm_id":"281380675","tag":{"amenity":"recycling","recycling:cans":"yes","recycling:clothes":"yes","recycling:glass":"yes"}},"type":"Feature"},
	{"geometry":{"coordinates":[8.687747,47.199571],"type":"Point"},"properties":{"osm_id":"1613055812","tag":{"amenity":"recycling"}},"type":"Feature"},
	{"geometry":{"coordinates":[8.664483,47.213573],"type":"Point"},"properties":{"osm_id":"1690045004","tag":{"amenity":"waste_basket","material":"steel","waste":"trash"}},"type":"Feature"},
	{"geometry":{"coordinates":[8.64407,47.192358],"type":"Point"},"properties":{"osm_id":"2657922193","tag":{"amenity":"recycling","recycling_type":"container"}},"type":"Feature"},
	{"geometry":{"coordinates":[8.61874,47.211424],"type":"Point"},"properties":{"name":"Nespresso Kapseln","osm_id":"5478178621","tag":{"amenity":"recycling","operator":"Gerber H.P Elektro AG","phone":"+41 44 729 99 11","website":"http://www.gerberelektroag.ch"}},"type":"Feature"},
	{"geometry":{"coordinates":[8.617784,47.20747],"type":"Point"},"properties":{"osm_id":"5478178824","tag":{"amenity":"waste_basket"}},"type":"Feature"},
	{"geometry":{"coordinates":[8.700646,47.207911],"type":"Point"},"properties":{"osm_id":"5734174322","tag":{"amenity":"waste_basket"}},"type":"Feature"},
	{"geometry":{"coordinates":[8.671863,47.211897],"type":"Point"},"properties":{"osm_id":"5761897760","tag":{"amenity":"waste_basket"}},"type":"Feature"},
	{"geometry":{"coordinates":[8.67237,47.211375],"type":"Point"},"properties":{"osm_id":"5761899269","tag":{"amenity":"waste_basket"}},"type":"Feature"},
	{"geometry":{"coordinates":[8.61877,47.210917],"type":"Point"},"properties":{"osm_id":"6561852485","tag":{"amenity":"waste_basket"}},"type":"Feature"},
	{"geometry":{"coordinates":[8.62756,47.214458],"type":"Point"},"properties":{"osm_id":"6561852685","tag":{"amenity":"waste_basket"}},"type":"Feature"}
]
}
