{
"type": "FeatureCollection",
"features": [
	{"geometry":{"coordinates":[8.69066,47.128392],"type":"Point"},"properties":{"name":"belloo","osm_id":"858927837","tag":{"amenity":"waste_basket","vending":"excrement_bags"}},"type":"Feature"},
	{"geometry":{"coordinates":[8.669189,47.113946],"type":"Point"},"properties":{"name":"belloo","osm_id":"858927987","tag":{"amenity":"waste_basket","vending":"excrement_bags"}},"type":"Feature"},
	{"geometry":{"coordinates":[8.666716,47.123364],"type":"Point"},"properties":{"name":"Robidog","osm_id":"858928700","tag":{"amenity":"waste_basket","vending":"excrement_bags"}},"type":"Feature"},
	{"geometry":{"coordinates":[8.642597,47.106826],"type":"Point"},"properties":{"osm_id":"1351709914","tag":{"amenity":"waste_basket"}},"type":"Feature"},
	{"geometry":{"coordinates":[8.642655,47.106968],"type":"Point"},"properties":{"osm_id":"1351709930","tag":{"amenity":"waste_basket"}},"type":"Feature"},
	{"geometry":{"coordinates":[8.674731,47.105131],"type":"Point"},"properties":{"osm_id":"3452107467","tag":{"amenity":"recycling","opening_hours":"24/7","recycling:PET":"yes","recycling:aluminium":"yes","recycling:cans":"yes","recycling:clothes":"yes","recycling:glass":"no","recycling:glass_bottles":"yes","recycling_type":"container"}},"type":"Feature"},
	{"geometry":{"coordinates":[8.660433,47.142371],"type":"Point"},"properties":{"osm_id":"4972252423","tag":{"amenity":"waste_basket"}},"type":"Feature"},
	{"geometry":{"coordinates":[8.658218,47.140793],"type":"Point"},"properties":{"osm_id":"5017881824","tag":{"amenity":"waste_basket"}},"type":"Feature"},
	{"geometry":{"coordinates":[8.696048,47.131622],"type":"Point"},"properties":{"osm_id":"5245524411","tag":{"amenity":"waste_basket"}},"type":"Feature"},
	{"geometry":{"coordinates":[8.685789,47.136284],"type":"Point"},"properties":{"osm_id":"5245524831","tag":{"amenity":"waste_basket","vending":"excrement_bags"}},"type":"Feature"},
	{"geometry":{"coordinates":[8.664962,47.141318],"type":"Point"},"properties":{"osm_id":"5245524835","tag":{"amenity":"waste_basket","vending":"excrement_bags"}},"type":"Feature"},
	{"geometry":{"coordinates":[8.664205,47.141674],"type":"Point"},"properties":{"osm_id":"5245524836","tag":{"amenity":"waste_basket"}},"type":"Feature"},
	{"geometry":{"coordinates":[8.66367,47.142067],"type":"Point"},"properties":{"osm_id":"5245524843","tag":{"amenity":"waste_basket"}},"type":"Feature"},
	{"geometry":{"coordinates":[8.647816,47.152715],"type":"Point"},"properties":{"osm_id":"5245524867","tag":{"amenity":"waste_basket","vending":"excrement_bags"}},"type":"Feature"},
	{"geometry":{"coordinates":[8.652599,47.155085],"type":"Point"},"properties":{"osm_id":"5245524882","tag":{"amenity":"waste_basket","vending":"excrement_bags"}},"type":"Feature"},
	{"geometry":{"coordinates":[8.665168,47.13393],"type":"Point"},"properties":{"osm_id":"7655521625","tag":{"amenity":"waste_basket"}},"type":"Feature"},
	{"geometry":{"coordinates":[8.665273,47.133927],"type":"Point"},"properties":{"osm_id":"7655521631","tag":{"amenity":"waste_basket"}},"type":"Feature"}
]
}
