{
"type": "FeatureCollection",
"features": [
	{"geometry":{"coordinates":[8.698292,46.03281],"type":"Point"},"properties":{"osm_id":"4275523108","tag":{"amenity":"waste_disposal"}},"type":"Feature"},
	{"geometry":{"coordinates":[8.698295,46.033007],"type":"Point"},"properties":{"osm_id":"4275523109","tag":{"amenity":"recycling","recycling_type":"centre"}},"type":"Feature"},
	{"geometry":{"coordinates":[8.691065,46.030483],"type":"Point"},"properties":{"osm_id":"4275523110","tag":{"amenity":"waste_disposal"}},"type":"Feature"},
	{"geometry":{"coordinates":[8.631816,46.070959],"type":"Point"},"properties":{"osm_id":"4644958969","tag":{"amenity":"recycling","recycling_type":"container"}},"type":"Feature"},
	{"geometry":{"coordinates":[8.688916,46.026366],"type":"Point"},"properties":{"osm_id":"5052317650","tag":{"amenity":"waste_disposal"}},"type":"Feature"},
	{"geometry":{"coordinates":[8.685717,46.06947],"type":"Point"},"properties":{"osm_id":"5782886647","tag":{"amenity":"waste_disposal"}},"type":"Feature"},
	{"geometry":{"coordinates":[8.693422,46.071705],"type":"Point"},"properties":{"osm_id":"6382063128","tag":{"access":"customers","amenity":"recycling","opening_hours":"24/7","recycling:cardboard":"yes","recycling:glass":"yes","recycling:paper":"yes","recycling:plastic":"yes","recycling:waste":"yes","recycling_type":"container","wheelchair":"yes"}},"type":"Feature"},
	{"geometry":{"coordinates":[8.693479,46.071433],"type":"Point"},"properties":{"osm_id":"6382063130","tag":{"access":"customers","amenity":"recycling","opening_hours":"24/7","recycling:cardboard":"yes","recycling:glass":"yes","recycling:paper":"yes","recycling:plastic":"yes","recycling:waste":"yes","recycling_type":"container","wheelchair":"yes"}},"type":"Feature"},
	{"geometry":{"coordinates":[8.689815,46.030803],"type":"Point"},"properties":{"osm_id":"7857804466","tag":{"amenity":"waste_disposal"}},"type":"Feature"},
	{"geometry":{"coordinates":[8.691039,46.067127],"type":"Point"},"properties":{"osm_id":"8024799687","tag":{"amenity":"waste_basket"}},"type":"Feature"},
	{"geometry":{"coordinates":[8.686732,46.072331],"type":"Point"},"properties":{"osm_id":"8024803485","tag":{"amenity":"waste_basket"}},"type":"Feature"},
	{"geometry":{"coordinates":[8.686521,46.072883],"type":"Point"},"properties":{"osm_id":"8024803586","tag":{"amenity":"waste_basket"}},"type":"Feature"},
	{"geometry":{"coordinates":[8.689355,46.066563],"type":"Point"},"properties":{"osm_id":"8024803588","tag":{"amenity":"waste_basket"}},"type":"Feature"}
]
}
