{
"type": "FeatureCollection",
"features": [
	{"geometry":{"coordinates":[8.619177,44.924163],"type":"Point"},"properties":{"osm_id":"1481035903","tag":{"amenity":"recycling","recycling_type":"container"}},"type":"Feature"},
	{"geometry":{"coordinates":[8.619302,44.924361],"type":"Point"},"properties":{"osm_id":"1481035904","tag":{"amenity":"recycling","recycling_type":"container"}},"type":"Feature"},
	{"geometry":{"coordinates":[8.618688,44.924313],"type":"Point"},"properties":{"osm_id":"1481035909","tag":{"amenity":"recycling","recycling_type":"container"}},"type":"Feature"},
	{"geometry":{"coordinates":[8.619464,44.925468],"type":"Point"},"properties":{"osm_id":"1481035911","tag":{"amenity":"recycling","recycling_type":"container"}},"type":"Feature"},
	{"geometry":{"coordinates":[8.615788,44.922785],"type":"Point"},"properties":{"osm_id":"1887945275","tag":{"amenity":"recycling","recycling:cans":"yes","recycling_type":"container"}},"type":"Feature"},
	{"geometry":{"coordinates":[8.629437,44.905246],"type":"Point"},"properties":{"osm_id":"2260911241","tag":{"amenity":"recycling","recycling:cans":"yes","recycling:glass":"yes","recycling:organic":"yes","recycling:paper":"yes","recycling:plastic":"yes","recycling_type":"container"}},"type":"Feature"},
	{"geometry":{"coordinates":[8.629385,44.905258],"type":"Point"},"properties":{"osm_id":"2260911242","tag":{"amenity":"waste_disposal"}},"type":"Feature"},
	{"geometry":{"coordinates":[8.626954,44.905596],"type":"Point"},"properties":{"osm_id":"2260911247","tag":{"amenity":"waste_disposal"}},"type":"Feature"},
	{"geometry":{"coordinates":[8.626965,44.905616],"type":"Point"},"properties":{"osm_id":"2260911249","tag":{"amenity":"recycling","recycling:cans":"yes","recycling:glass":"yes","recycling:organic":"yes","recycling:paper":"yes","recycling:plastic":"yes","recycling_type":"container"}},"type":"Feature"},
	{"geometry":{"coordinates":[8.616669,44.903166],"type":"Point"},"properties":{"osm_id":"2267825681","tag":{"amenity":"recycling","recycling:cans":"yes","recycling:glass":"yes","recycling:organic":"yes","recycling:paper":"yes","recycling:plastic":"yes","recycling_type":"container"}},"type":"Feature"},
	{"geometry":{"coordinates":[8.616668,44.903183],"type":"Point"},"properties":{"osm_id":"2267825682","tag":{"amenity":"waste_disposal"}},"type":"Feature"},
	{"geometry":{"coordinates":[8.618253,44.922558],"type":"Point"},"properties":{"osm_id":"2888535458","tag":{"amenity":"waste_basket"}},"type":"Feature"},
	{"geometry":{"coordinates":[8.632563,44.920228],"type":"Point"},"properties":{"osm_id":"3683950247","tag":{"amenity":"waste_basket","designation":"cestino gettacarta"}},"type":"Feature"},
	{"geometry":{"coordinates":[8.622535,44.908228],"type":"Point"},"properties":{"osm_id":"4212699905","tag":{"amenity":"recycling"}},"type":"Feature"},
	{"geometry":{"coordinates":[8.622299,44.909446],"type":"Point"},"properties":{"osm_id":"4212700013","tag":{"amenity":"recycling"}},"type":"Feature"}
]
}
