{
"type": "FeatureCollection",
"features": [
	{"geometry":{"coordinates":[8.642628,44.388083],"type":"Point"},"properties":{"osm_id":"491949535","tag":{"amenity":"recycling","colour":"white","recycling:paper":"yes","recycling_type":"container"}},"type":"Feature"},
	{"geometry":{"coordinates":[8.63424,44.380337],"type":"Point"},"properties":{"osm_id":"492619911","tag":{"amenity":"recycling","recycling_type":"container"}},"type":"Feature"},
	{"geometry":{"coordinates":[8.615378,44.401245],"type":"Point"},"properties":{"osm_id":"492621806","tag":{"amenity":"recycling","recycling_type":"container"}},"type":"Feature"},
	{"geometry":{"coordinates":[8.632389,44.384901],"type":"Point"},"properties":{"osm_id":"1234187739","tag":{"amenity":"recycling","recycling:cans":"yes","recycling:paper":"yes","recycling_type":"container"}},"type":"Feature"},
	{"geometry":{"coordinates":[8.618917,44.395382],"type":"Point"},"properties":{"osm_id":"1251850365","tag":{"amenity":"recycling","recycling:cans":"yes","recycling:glass":"yes","recycling:paper":"yes","recycling_type":"container"}},"type":"Feature"},
	{"geometry":{"coordinates":[8.684305,44.401637],"type":"Point"},"properties":{"osm_id":"1351178177","tag":{"amenity":"waste_basket"}},"type":"Feature"},
	{"geometry":{"coordinates":[8.683321,44.40177],"type":"Point"},"properties":{"osm_id":"1351178658","tag":{"amenity":"waste_basket"}},"type":"Feature"},
	{"geometry":{"coordinates":[8.68221,44.402105],"type":"Point"},"properties":{"osm_id":"1351183178","tag":{"amenity":"waste_basket"}},"type":"Feature"},
	{"geometry":{"coordinates":[8.68453,44.401522],"type":"Point"},"properties":{"osm_id":"1351224696","tag":{"amenity":"recycling","operator":"Amiu","recycling_type":"container"}},"type":"Feature"},
	{"geometry":{"coordinates":[8.68232,44.4023],"type":"Point"},"properties":{"osm_id":"1351224699","tag":{"amenity":"waste_basket"}},"type":"Feature"},
	{"geometry":{"coordinates":[8.681971,44.401606],"type":"Point"},"properties":{"osm_id":"1650210406","tag":{"amenity":"waste_basket","colour":"black","material":"steel"}},"type":"Feature"},
	{"geometry":{"coordinates":[8.658839,44.401856],"type":"Point"},"properties":{"osm_id":"1745235611","tag":{"amenity":"recycling","operator":"Amiu","recycling:glass_bottles":"yes","recycling_type":"container"}},"type":"Feature"},
	{"geometry":{"coordinates":[8.616748,44.402025],"type":"Point"},"properties":{"osm_id":"1745235613","tag":{"amenity":"recycling","recycling_type":"container"}},"type":"Feature"},
	{"geometry":{"coordinates":[8.663534,44.402031],"type":"Point"},"properties":{"osm_id":"1745235614","tag":{"amenity":"recycling","operator":"Amiu","recycling_type":"container"}},"type":"Feature"},
	{"geometry":{"coordinates":[8.642223,44.391577],"type":"Point"},"properties":{"osm_id":"2146342913","tag":{"amenity":"recycling","recycling_type":"container"}},"type":"Feature"},
	{"geometry":{"coordinates":[8.635098,44.382685],"type":"Point"},"properties":{"osm_id":"2151860412","tag":{"amenity":"recycling","recycling:glass":"yes","recycling:paper":"yes","recycling_type":"container"}},"type":"Feature"},
	{"geometry":{"coordinates":[8.621599,44.402376],"type":"Point"},"properties":{"osm_id":"2546167949","tag":{"amenity":"recycling","recycling:cans":"yes","recycling:glass":"yes","recycling:paper":"yes","recycling_type":"container"}},"type":"Feature"},
	{"geometry":{"coordinates":[8.663551,44.401846],"type":"Point"},"properties":{"osm_id":"2705219107","tag":{"amenity":"recycling","operator":"Amiu","recycling:glass":"yes","recycling_type":"container"}},"type":"Feature"},
	{"geometry":{"coordinates":[8.685081,44.400662],"type":"Point"},"properties":{"osm_id":"2749395851","tag":{"amenity":"waste_disposal"}},"type":"Feature"},
	{"geometry":{"coordinates":[8.685063,44.400666],"type":"Point"},"properties":{"osm_id":"2749395852","tag":{"amenity":"recycling","operator":"Amiu","recycling:glass":"yes","recycling:paper":"yes","recycling:plastic":"yes","recycling_type":"container"}},"type":"Feature"},
	{"geometry":{"coordinates":[8.637535,44.384435],"type":"Point"},"properties":{"osm_id":"3742658735","tag":{"amenity":"recycling","colour":"yellow","recycling:cans":"yes","recycling:plastic":"yes","recycling_type":"container","wheelchair":"no"}},"type":"Feature"},
	{"geometry":{"coordinates":[8.637487,44.384998],"type":"Point"},"properties":{"osm_id":"3742658736","tag":{"amenity":"recycling","recycling_type":"container"}},"type":"Feature"},
	{"geometry":{"coordinates":[8.644538,44.388569],"type":"Point"},"properties":{"osm_id":"3742658745","tag":{"amenity":"recycling","colour":"Verde","opening_hours":"24/7","opening_hours:covid19":"same","recycling:glass":"yes","recycling_type":"container"}},"type":"Feature"},
	{"geometry":{"coordinates":[8.638582,44.392605],"type":"Point"},"properties":{"barrier":"gate","osm_id":"3745489671","tag":{"access":"delivery","bicycle":"yes","foot":"yes","motorcar":"yes","motorcycle":"yes"}},"type":"Feature"},
	{"geometry":{"coordinates":[8.674282,44.399448],"type":"Point"},"properties":{"osm_id":"3754052821","tag":{"amenity":"recycling","operator":"Amiu","recycling:cooking_oil":"yes","recycling_type":"container"}},"type":"Feature"},
	{"geometry":{"coordinates":[8.674282,44.399457],"type":"Point"},"properties":{"osm_id":"3754052822","tag":{"amenity":"recycling","operator":"Amiu","recycling:cans":"yes","recycling:glass":"yes","recycling:glass_bottles":"yes","recycling:paper":"yes","recycling:plastic":"yes","recycling:plastic_bottles":"yes","recycling:waste":"yes","recycling_type":"container"}},"type":"Feature"},
	{"geometry":{"coordinates":[8.672861,44.398963],"type":"Point"},"properties":{"osm_id":"3947915018","tag":{"access":"private","amenity":"recycling","operator":"Amiu","recycling:plastic":"yes","recycling_type":"container"}},"type":"Feature"},
	{"geometry":{"coordinates":[8.673819,44.399771],"type":"Point"},"properties":{"osm_id":"3947925165","tag":{"amenity":"recycling","operator":"Amiu","recycling:glass":"yes","recycling:glass_bottles":"yes","recycling:green_waste":"yes","recycling:paper":"yes","recycling:plastic":"yes","recycling:plastic_bottles":"yes","recycling:plastic_packaging":"yes","recycling:waste":"yes","recycling_type":"container"}},"type":"Feature"},
	{"geometry":{"coordinates":[8.673826,44.399792],"type":"Point"},"properties":{"osm_id":"3947925167","tag":{"amenity":"waste_disposal"}},"type":"Feature"},
	{"geometry":{"coordinates":[8.636794,44.383101],"type":"Point"},"properties":{"osm_id":"3970919496","tag":{"amenity":"recycling","recycling:clothes":"yes","recycling_type":"container"}},"type":"Feature"},
	{"geometry":{"coordinates":[8.664216,44.402377],"type":"Point"},"properties":{"osm_id":"4009050604","tag":{"amenity":"waste_basket","colour":"black","material":"metal"}},"type":"Feature"},
	{"geometry":{"coordinates":[8.664212,44.40239],"type":"Point"},"properties":{"osm_id":"4009050606","tag":{"amenity":"waste_basket","colour":"green","material":"plastic"}},"type":"Feature"},
	{"geometry":{"coordinates":[8.664245,44.400036],"type":"Point"},"properties":{"osm_id":"4009091565","tag":{"amenity":"waste_basket","colour":"red","material":"metal"}},"type":"Feature"},
	{"geometry":{"coordinates":[8.664299,44.400322],"type":"Point"},"properties":{"osm_id":"4009091567","tag":{"amenity":"waste_basket","colour":"red","material":"metal"}},"type":"Feature"},
	{"geometry":{"coordinates":[8.664272,44.400413],"type":"Point"},"properties":{"osm_id":"4009091573","tag":{"amenity":"waste_basket","colour":"gray","material":"metal"}},"type":"Feature"},
	{"geometry":{"coordinates":[8.663819,44.40236],"type":"Point"},"properties":{"osm_id":"4009091584","tag":{"amenity":"waste_basket","colour":"green","material":"plastic"}},"type":"Feature"},
	{"geometry":{"coordinates":[8.6653,44.399507],"type":"Point"},"properties":{"osm_id":"4009113100","tag":{"amenity":"waste_basket","colour":"green","material":"plastic"}},"type":"Feature"},
	{"geometry":{"coordinates":[8.680388,44.400808],"type":"Point"},"properties":{"osm_id":"4176512194","tag":{"amenity":"waste_basket","colour":"black","material":"metal"}},"type":"Feature"},
	{"geometry":{"coordinates":[8.681358,44.402006],"type":"Point"},"properties":{"osm_id":"4196948321","tag":{"amenity":"waste_basket"}},"type":"Feature"},
	{"geometry":{"coordinates":[8.645027,44.389099],"type":"Point"},"properties":{"osm_id":"4360663640","tag":{"amenity":"recycling","recycling:batteries":"yes","recycling_type":"container"}},"type":"Feature"},
	{"geometry":{"coordinates":[8.645024,44.389104],"type":"Point"},"properties":{"osm_id":"4360663641","tag":{"amenity":"waste_basket"}},"type":"Feature"},
	{"geometry":{"coordinates":[8.647137,44.389347],"type":"Point"},"properties":{"osm_id":"4360663646","tag":{"amenity":"waste_basket"}},"type":"Feature"},
	{"geometry":{"coordinates":[8.646035,44.390126],"type":"Point"},"properties":{"osm_id":"4360663649","tag":{"amenity":"waste_basket"}},"type":"Feature"},
	{"geometry":{"coordinates":[8.646046,44.390127],"type":"Point"},"properties":{"osm_id":"4360663650","tag":{"amenity":"recycling","recycling:batteries":"yes","recycling_type":"container"}},"type":"Feature"},
	{"geometry":{"coordinates":[8.675489,44.40143],"type":"Point"},"properties":{"osm_id":"5581888889","tag":{"amenity":"waste_basket","colour":"green","material":"plastic","operator":"ARAL","survey:date":"2018-07-28","waste":"trash"}},"type":"Feature"},
	{"geometry":{"coordinates":[8.674549,44.399659],"type":"Point"},"properties":{"osm_id":"5690731982","tag":{"amenity":"waste_basket","colour":"red","material":"metal"}},"type":"Feature"},
	{"geometry":{"coordinates":[8.664287,44.400367],"type":"Point"},"properties":{"osm_id":"5690784974","tag":{"amenity":"waste_basket","description":"in metallo grigio/nero alto 1.20 con pubblicit\u00c3\u00a0 monofacciale dal lato opposto pensilina","waste":"trash"}},"type":"Feature"},
	{"geometry":{"coordinates":[8.672831,44.398938],"type":"Point"},"properties":{"osm_id":"5755784448","tag":{"access":"private","amenity":"recycling","operator":"Amiu","recycling:paper":"yes","recycling_type":"container"}},"type":"Feature"},
	{"geometry":{"coordinates":[8.672847,44.39895],"type":"Point"},"properties":{"osm_id":"5755784449","tag":{"access":"private","amenity":"recycling","operator":"Amiu","recycling:waste":"yes","recycling_type":"container"}},"type":"Feature"},
	{"geometry":{"coordinates":[8.672854,44.398956],"type":"Point"},"properties":{"osm_id":"5755784450","tag":{"access":"private","amenity":"recycling","operator":"Amiu","recycling:waste":"yes","recycling_type":"container"}},"type":"Feature"},
	{"geometry":{"coordinates":[8.672838,44.398945],"type":"Point"},"properties":{"osm_id":"5755784451","tag":{"access":"private","amenity":"recycling","operator":"Amiu","recycling:paper":"yes","recycling_type":"container"}},"type":"Feature"},
	{"geometry":{"coordinates":[8.672821,44.398931],"type":"Point"},"properties":{"osm_id":"5755784452","tag":{"access":"private","amenity":"recycling","operator":"Amiu","recycling:waste":"yes","recycling_type":"container"}},"type":"Feature"},
	{"geometry":{"coordinates":[8.672812,44.398924],"type":"Point"},"properties":{"osm_id":"5755784453","tag":{"access":"private","amenity":"recycling","operator":"Amiu","recycling:waste":"yes","recycling_type":"container"}},"type":"Feature"},
	{"geometry":{"coordinates":[8.682513,44.401849],"type":"Point"},"properties":{"osm_id":"5786533625","tag":{"amenity":"recycling","operator":"Amiu","recycling:batteries":"yes","recycling_type":"container","wheelchair":"limited"}},"type":"Feature"},
	{"geometry":{"coordinates":[8.678303,44.401607],"type":"Point"},"properties":{"osm_id":"5800770178","tag":{"amenity":"recycling","colour":"green","operator":"Amiu","recycling:waste":"yes","recycling_type":"container","survey:date":"2018-07-31"}},"type":"Feature"},
	{"geometry":{"coordinates":[8.678292,44.401614],"type":"Point"},"properties":{"osm_id":"5800770179","tag":{"amenity":"recycling","colour":"green","operator":"Amiu","recycling:paper":"yes","recycling_type":"container","survey:date":"2018-07-31"}},"type":"Feature"},
	{"geometry":{"coordinates":[8.678281,44.401623],"type":"Point"},"properties":{"osm_id":"5800770180","tag":{"amenity":"recycling","colour":"green","operator":"Amiu","recycling:plastic":"yes","recycling_type":"container","survey:date":"2018-07-31"}},"type":"Feature"},
	{"geometry":{"coordinates":[8.677754,44.401784],"type":"Point"},"properties":{"osm_id":"5800770181","tag":{"amenity":"recycling","colour":"green","operator":"Amiu","recycling:plastic":"yes","recycling_type":"container","survey:date":"2018-07-31"}},"type":"Feature"},
	{"geometry":{"coordinates":[8.678487,44.401329],"type":"Point"},"properties":{"osm_id":"5800770182","tag":{"amenity":"recycling","colour":"green","operator":"Amiu","recycling:glass_bottles":"yes","recycling_type":"container","survey:date":"2018-07-28"}},"type":"Feature"},
	{"geometry":{"coordinates":[8.67906,44.401335],"type":"Point"},"properties":{"osm_id":"5800800972","tag":{"amenity":"recycling","colour":"brown","operator":"Amiu","recycling:waste":"yes","recycling_type":"container","survey:date":"2018-07-31","waste":"trash"}},"type":"Feature"},
	{"geometry":{"coordinates":[8.679044,44.401353],"type":"Point"},"properties":{"osm_id":"5800800973","tag":{"amenity":"recycling","colour":"gray","operator":"Amiu","recycling:glass":"yes","recycling_type":"container","survey:date":"2018-07-31"}},"type":"Feature"},
	{"geometry":{"coordinates":[8.679065,44.401327],"type":"Point"},"properties":{"osm_id":"5800800974","tag":{"amenity":"recycling","colour":"green","operator":"Amiu","recycling:waste":"yes","recycling_type":"container","survey:date":"2018-07-31"}},"type":"Feature"},
	{"geometry":{"coordinates":[8.679054,44.401343],"type":"Point"},"properties":{"osm_id":"5800800975","tag":{"amenity":"recycling","colour":"gray","operator":"Amiu","recycling:plastic":"yes","recycling_type":"container","survey:date":"2018-07-31"}},"type":"Feature"},
	{"geometry":{"coordinates":[8.644236,44.389347],"type":"Point"},"properties":{"osm_id":"5824481214","tag":{"amenity":"waste_basket","waste":"trash"}},"type":"Feature"},
	{"geometry":{"coordinates":[8.642473,44.390641],"type":"Point"},"properties":{"osm_id":"5824481216","tag":{"amenity":"recycling","recycling:cooking_oil":"yes","recycling_type":"container"}},"type":"Feature"},
	{"geometry":{"coordinates":[8.642467,44.390656],"type":"Point"},"properties":{"osm_id":"5824481217","tag":{"amenity":"recycling","capacity":"5","recycling:glass":"yes","recycling:glass_bottles":"yes","recycling:paper":"yes","recycling:plastic":"yes","recycling:plastic_bottles":"yes","recycling_type":"container"}},"type":"Feature"},
	{"geometry":{"coordinates":[8.637712,44.384883],"type":"Point"},"properties":{"osm_id":"5824483554","tag":{"amenity":"waste_basket","colour":"black","waste":"trash"}},"type":"Feature"},
	{"geometry":{"coordinates":[8.642827,44.389964],"type":"Point"},"properties":{"osm_id":"5824495720","tag":{"amenity":"waste_basket","waste":"trash"}},"type":"Feature"},
	{"geometry":{"coordinates":[8.642668,44.390071],"type":"Point"},"properties":{"osm_id":"5824534541","tag":{"amenity":"recycling","recycling:clothes":"yes","recycling_type":"container","wheelchair":"no"}},"type":"Feature"},
	{"geometry":{"coordinates":[8.636637,44.382367],"type":"Point"},"properties":{"osm_id":"5835225943","tag":{"amenity":"waste_basket","colour":"black","waste":"trash"}},"type":"Feature"},
	{"geometry":{"coordinates":[8.645817,44.390767],"type":"Point"},"properties":{"osm_id":"5835234301","tag":{"amenity":"recycling","colour":"green","recycling:glass":"yes","recycling_type":"container"}},"type":"Feature"},
	{"geometry":{"coordinates":[8.644295,44.390385],"type":"Point"},"properties":{"osm_id":"5835234302","tag":{"amenity":"recycling","recycling:glass":"yes","recycling_type":"container"}},"type":"Feature"},
	{"geometry":{"coordinates":[8.644318,44.390386],"type":"Point"},"properties":{"osm_id":"5835234303","tag":{"amenity":"recycling","recycling:paper":"yes","recycling_type":"container"}},"type":"Feature"},
	{"geometry":{"coordinates":[8.644331,44.390388],"type":"Point"},"properties":{"osm_id":"5835234304","tag":{"amenity":"recycling","recycling:plastic":"yes","recycling_type":"container"}},"type":"Feature"},
	{"geometry":{"coordinates":[8.663836,44.391044],"type":"Point"},"properties":{"osm_id":"5835280130","tag":{"amenity":"recycling","recycling:plastic":"yes","recycling_type":"container"}},"type":"Feature"},
	{"geometry":{"coordinates":[8.663857,44.391043],"type":"Point"},"properties":{"osm_id":"5835280131","tag":{"amenity":"recycling","recycling:paper":"yes","recycling_type":"container"}},"type":"Feature"},
	{"geometry":{"coordinates":[8.663876,44.391043],"type":"Point"},"properties":{"osm_id":"5835280132","tag":{"amenity":"recycling","recycling:glass":"yes","recycling_type":"container"}},"type":"Feature"},
	{"geometry":{"coordinates":[8.647592,44.390138],"type":"Point"},"properties":{"osm_id":"5835280133","tag":{"amenity":"recycling","recycling:plastic":"yes","recycling_type":"container"}},"type":"Feature"},
	{"geometry":{"coordinates":[8.64764,44.390134],"type":"Point"},"properties":{"osm_id":"5835280134","tag":{"amenity":"recycling","recycling:glass":"yes","recycling_type":"container"}},"type":"Feature"},
	{"geometry":{"coordinates":[8.647616,44.390136],"type":"Point"},"properties":{"osm_id":"5835280135","tag":{"amenity":"recycling","recycling:paper":"yes","recycling_type":"container"}},"type":"Feature"},
	{"geometry":{"coordinates":[8.645885,44.390115],"type":"Point"},"properties":{"osm_id":"5835280136","tag":{"amenity":"recycling","recycling:plastic":"yes","recycling_type":"container"}},"type":"Feature"},
	{"geometry":{"coordinates":[8.645921,44.390122],"type":"Point"},"properties":{"osm_id":"5835280137","tag":{"amenity":"recycling","recycling:glass":"yes","recycling_type":"container"}},"type":"Feature"},
	{"geometry":{"coordinates":[8.645903,44.390118],"type":"Point"},"properties":{"osm_id":"5835280138","tag":{"amenity":"recycling","recycling:paper":"yes","recycling_type":"container"}},"type":"Feature"},
	{"geometry":{"coordinates":[8.645801,44.390779],"type":"Point"},"properties":{"osm_id":"5835375619","tag":{"amenity":"recycling","colour":"yellow","recycling:plastic":"yes","recycling_type":"container"}},"type":"Feature"},
	{"geometry":{"coordinates":[8.645783,44.390794],"type":"Point"},"properties":{"osm_id":"5835375620","tag":{"amenity":"recycling","colour":"white","recycling:paper":"yes","recycling_type":"container"}},"type":"Feature"},
	{"geometry":{"coordinates":[8.645552,44.389963],"type":"Point"},"properties":{"osm_id":"5835380151","tag":{"amenity":"recycling","colour":"white","recycling:paper":"yes","recycling_type":"container"}},"type":"Feature"},
	{"geometry":{"coordinates":[8.645531,44.389959],"type":"Point"},"properties":{"osm_id":"5835380152","tag":{"amenity":"recycling","colour":"green","recycling:glass":"yes","recycling_type":"container"}},"type":"Feature"},
	{"geometry":{"coordinates":[8.645508,44.389953],"type":"Point"},"properties":{"osm_id":"5835380153","tag":{"amenity":"recycling","colour":"yellow","recycling:plastic":"yes","recycling_type":"container"}},"type":"Feature"},
	{"geometry":{"coordinates":[8.64622,44.38919],"type":"Point"},"properties":{"osm_id":"5835380326","tag":{"amenity":"recycling","colour":"green","recycling:glass":"yes","recycling_type":"container"}},"type":"Feature"},
	{"geometry":{"coordinates":[8.646213,44.389203],"type":"Point"},"properties":{"osm_id":"5835380327","tag":{"amenity":"recycling","colour":"yellow","recycling:plastic":"yes","recycling_type":"container"}},"type":"Feature"},
	{"geometry":{"coordinates":[8.646221,44.389176],"type":"Point"},"properties":{"osm_id":"5835380328","tag":{"amenity":"recycling","colour":"white","recycling:paper":"yes","recycling_type":"container"}},"type":"Feature"},
	{"geometry":{"coordinates":[8.6369,44.382727],"type":"Point"},"properties":{"osm_id":"5835430185","tag":{"amenity":"waste_basket","colour":"black","waste":"trash"}},"type":"Feature"},
	{"geometry":{"coordinates":[8.637502,44.384392],"type":"Point"},"properties":{"osm_id":"5835433970","tag":{"amenity":"recycling","colour":"green","recycling:glass":"yes","recycling_type":"container","wheelchair":"no"}},"type":"Feature"},
	{"geometry":{"coordinates":[8.637515,44.384409],"type":"Point"},"properties":{"osm_id":"5835433971","tag":{"amenity":"recycling","colour":"gray","recycling_type":"container","wheelchair":"no"}},"type":"Feature"},
	{"geometry":{"coordinates":[8.637527,44.384422],"type":"Point"},"properties":{"osm_id":"5835433972","tag":{"amenity":"recycling","colour":"white","recycling_type":"container","wheelchair":"no"}},"type":"Feature"},
	{"geometry":{"coordinates":[8.63726,44.383972],"type":"Point"},"properties":{"osm_id":"5835433974","tag":{"amenity":"waste_basket","colour":"black","waste":"trash"}},"type":"Feature"},
	{"geometry":{"coordinates":[8.642637,44.388071],"type":"Point"},"properties":{"osm_id":"5835456858","tag":{"amenity":"recycling","colour":"white","recycling:paper":"yes","recycling_type":"container"}},"type":"Feature"},
	{"geometry":{"coordinates":[8.641852,44.387438],"type":"Point"},"properties":{"osm_id":"5835456861","tag":{"amenity":"recycling","recycling:batteries":"yes","recycling_type":"container","wheelchair":"yes"}},"type":"Feature"},
	{"geometry":{"coordinates":[8.639022,44.386374],"type":"Point"},"properties":{"osm_id":"5835456864","tag":{"amenity":"recycling","colour":"white","recycling:paper":"yes","recycling_type":"container","wheelchair":"no"}},"type":"Feature"},
	{"geometry":{"coordinates":[8.638993,44.386396],"type":"Point"},"properties":{"osm_id":"5835456865","tag":{"amenity":"recycling","colour":"white","recycling:paper":"yes","recycling_type":"container","wheelchair":"no"}},"type":"Feature"},
	{"geometry":{"coordinates":[8.639007,44.386385],"type":"Point"},"properties":{"osm_id":"5835456866","tag":{"amenity":"recycling","colour":"yellow","recycling:cans":"yes","recycling:plastic":"yes","recycling_type":"container","wheelchair":"no"}},"type":"Feature"},
	{"geometry":{"coordinates":[8.637773,44.384579],"type":"Point"},"properties":{"osm_id":"5835456867","tag":{"amenity":"waste_basket","colour":"black","waste":"trash"}},"type":"Feature"},
	{"geometry":{"coordinates":[8.643421,44.389488],"type":"Point"},"properties":{"osm_id":"5835462215","tag":{"amenity":"waste_basket","colour":"black","waste":"trash"}},"type":"Feature"},
	{"geometry":{"coordinates":[8.642896,44.390057],"type":"Point"},"properties":{"osm_id":"5835463335","tag":{"amenity":"recycling","colour":"white","recycling:paper":"yes","recycling_type":"container"}},"type":"Feature"},
	{"geometry":{"coordinates":[8.642854,44.390043],"type":"Point"},"properties":{"osm_id":"5835463336","tag":{"amenity":"recycling","colour":"green","recycling:glass":"yes","recycling_type":"container"}},"type":"Feature"},
	{"geometry":{"coordinates":[8.642877,44.390046],"type":"Point"},"properties":{"osm_id":"5835463337","tag":{"amenity":"recycling","colour":"yellow","recycling:cans":"yes","recycling:plastic":"yes","recycling_type":"container"}},"type":"Feature"},
	{"geometry":{"coordinates":[8.681935,44.40144],"type":"Point"},"properties":{"osm_id":"6012670947","tag":{"amenity":"waste_basket","waste":"trash"}},"type":"Feature"},
	{"geometry":{"coordinates":[8.680333,44.399849],"type":"Point"},"properties":{"osm_id":"6178484541","tag":{"amenity":"waste_disposal","waste":"trash"}},"type":"Feature"},
	{"geometry":{"coordinates":[8.680341,44.399861],"type":"Point"},"properties":{"osm_id":"6178484542","tag":{"amenity":"waste_disposal","waste":"trash"}},"type":"Feature"},
	{"geometry":{"coordinates":[8.680351,44.399872],"type":"Point"},"properties":{"osm_id":"6178484543","tag":{"amenity":"waste_disposal","waste":"trash"}},"type":"Feature"},
	{"geometry":{"coordinates":[8.679852,44.399246],"type":"Point"},"properties":{"osm_id":"6178484544","tag":{"amenity":"recycling","operator":"Amiu","recycling:paper":"yes","recycling:plastic":"yes","recycling_type":"container","waste":"trash"}},"type":"Feature"},
	{"geometry":{"coordinates":[8.679857,44.399256],"type":"Point"},"properties":{"osm_id":"6178484545","tag":{"amenity":"recycling","operator":"Amiu","recycling:paper":"yes","recycling:plastic":"yes","recycling_type":"container","waste":"trash"}},"type":"Feature"},
	{"geometry":{"coordinates":[8.679865,44.399268],"type":"Point"},"properties":{"osm_id":"6178484546","tag":{"amenity":"recycling","operator":"Amiu","recycling:paper":"yes","recycling:plastic":"yes","recycling_type":"container","waste":"trash"}},"type":"Feature"},
	{"geometry":{"coordinates":[8.679787,44.39932],"type":"Point"},"properties":{"osm_id":"6178484547","tag":{"amenity":"waste_disposal","waste":"trash"}},"type":"Feature"},
	{"geometry":{"coordinates":[8.679779,44.399307],"type":"Point"},"properties":{"osm_id":"6178484548","tag":{"amenity":"waste_disposal","waste":"trash"}},"type":"Feature"},
	{"geometry":{"coordinates":[8.679771,44.399294],"type":"Point"},"properties":{"osm_id":"6178484549","tag":{"amenity":"waste_disposal","waste":"trash"}},"type":"Feature"},
	{"geometry":{"coordinates":[8.679767,44.399284],"type":"Point"},"properties":{"osm_id":"6178484550","tag":{"amenity":"waste_disposal","waste":"trash"}},"type":"Feature"},
	{"geometry":{"coordinates":[8.679761,44.399274],"type":"Point"},"properties":{"osm_id":"6178484551","tag":{"amenity":"waste_disposal","waste":"trash"}},"type":"Feature"},
	{"geometry":{"coordinates":[8.679753,44.399265],"type":"Point"},"properties":{"osm_id":"6178484552","tag":{"amenity":"waste_disposal","waste":"trash"}},"type":"Feature"},
	{"geometry":{"coordinates":[8.679747,44.399256],"type":"Point"},"properties":{"osm_id":"6178484553","tag":{"amenity":"waste_disposal","waste":"trash"}},"type":"Feature"},
	{"geometry":{"coordinates":[8.67974,44.399245],"type":"Point"},"properties":{"osm_id":"6178484554","tag":{"amenity":"waste_disposal","waste":"trash"}},"type":"Feature"},
	{"geometry":{"coordinates":[8.685171,44.399994],"type":"Point"},"properties":{"osm_id":"6178591646","tag":{"amenity":"recycling","operator":"Amiu","recycling:glass":"yes","recycling_type":"container"}},"type":"Feature"},
	{"geometry":{"coordinates":[8.68085,44.401707],"type":"Point"},"properties":{"osm_id":"6417441690","tag":{"amenity":"waste_basket","colour":"black","material":"steel","operator":"Ar.A.l.","start_date":"2019","waste":"trash"}},"type":"Feature"},
	{"geometry":{"coordinates":[8.648007,44.39113],"type":"Point"},"properties":{"osm_id":"6754430250","tag":{"amenity":"recycling","recycling:electrical_items":"yes","recycling:glass":"yes","recycling:paper":"yes","recycling:plastic":"yes","recycling_type":"container"}},"type":"Feature"},
	{"geometry":{"coordinates":[8.678495,44.401324],"type":"Point"},"properties":{"osm_id":"8378540714","tag":{"amenity":"recycling","operator":"Lo staccapanni","recycling:clothes":"yes","recycling_type":"container"}},"type":"Feature"},
	{"geometry":{"coordinates":[8.643935,44.388484],"type":"Point"},"properties":{"osm_id":"8628236656","tag":{"amenity":"waste_basket"}},"type":"Feature"},
	{"geometry":{"coordinates":[8.644226,44.388849],"type":"Point"},"properties":{"osm_id":"8634735138","tag":{"amenity":"waste_basket"}},"type":"Feature"},
	{"geometry":{"coordinates":[8.64317,44.387992],"type":"Point"},"properties":{"osm_id":"8639957298","tag":{"amenity":"waste_basket"}},"type":"Feature"},
	{"geometry":{"coordinates":[8.644561,44.388568],"type":"Point"},"properties":{"osm_id":"8661304907","tag":{"amenity":"recycling","colour":"Blu","opening_hours":"24/7","opening_hours:covid19":"same","recycling:paper":"yes","recycling_type":"container"}},"type":"Feature"},
	{"geometry":{"coordinates":[8.644514,44.388574],"type":"Point"},"properties":{"osm_id":"8661304908","tag":{"amenity":"recycling","colour":"Giallo","opening_hours":"24/7","opening_hours:covid19":"same","recycling:plastic":"yes","recycling_type":"container"}},"type":"Feature"},
	{"geometry":{"coordinates":[8.625379,44.379608],"type":"Point"},"properties":{"osm_id":"9161325209","tag":{"amenity":"recycling","recycling_type":"container"}},"type":"Feature"},
	{"geometry":{"coordinates":[8.625464,44.37889],"type":"Point"},"properties":{"osm_id":"9161338528","tag":{"amenity":"recycling","recycling:glass":"yes","recycling_type":"container"}},"type":"Feature"}
]
}
