{
"type": "FeatureCollection",
"features": [
	{"geometry":{"coordinates":[-122.194829,47.620767],"type":"Point"},"properties":{"osm_id":"697212582","tag":{"amenity":"waste_basket","project":"opensidewalks"}},"type":"Feature"},
	{"geometry":{"coordinates":[-122.194098,47.620442],"type":"Point"},"properties":{"osm_id":"697212584","tag":{"amenity":"waste_basket"}},"type":"Feature"},
	{"geometry":{"coordinates":[-122.1941,47.620423],"type":"Point"},"properties":{"osm_id":"697212585","tag":{"amenity":"recycling","recycling_type":"container"}},"type":"Feature"},
	{"geometry":{"coordinates":[-122.178032,47.609486],"type":"Point"},"properties":{"name":"rubbish+recycle","osm_id":"1954303654","tag":{"amenity":"recycling","recycling_type":"container"}},"type":"Feature"},
	{"geometry":{"coordinates":[-122.178054,47.609494],"type":"Point"},"properties":{"osm_id":"1954303655","tag":{"amenity":"waste_basket"}},"type":"Feature"},
	{"geometry":{"coordinates":[-122.17952,47.608799],"type":"Point"},"properties":{"osm_id":"1954303688","tag":{"amenity":"waste_basket"}},"type":"Feature"},
	{"geometry":{"coordinates":[-122.182895,47.612337],"type":"Point"},"properties":{"osm_id":"3357249415","tag":{"amenity":"waste_disposal"}},"type":"Feature"},
	{"geometry":{"coordinates":[-122.193912,47.619841],"type":"Point"},"properties":{"osm_id":"3579614494","tag":{"amenity":"waste_basket","project":"opensidewalks"}},"type":"Feature"},
	{"geometry":{"coordinates":[-122.202654,47.593832],"type":"Point"},"properties":{"osm_id":"3611827418","tag":{"amenity":"waste_basket"}},"type":"Feature"},
	{"geometry":{"coordinates":[-122.226193,47.591845],"type":"Point"},"properties":{"osm_id":"3653021113","tag":{"amenity":"waste_basket"}},"type":"Feature"},
	{"geometry":{"coordinates":[-122.204222,47.61783],"type":"Point"},"properties":{"osm_id":"3921542486","tag":{"amenity":"waste_basket"}},"type":"Feature"},
	{"geometry":{"coordinates":[-122.204064,47.61771],"type":"Point"},"properties":{"osm_id":"3921542487","tag":{"amenity":"waste_basket"}},"type":"Feature"},
	{"geometry":{"coordinates":[-122.203893,47.617708],"type":"Point"},"properties":{"osm_id":"3921542488","tag":{"amenity":"waste_basket"}},"type":"Feature"},
	{"geometry":{"coordinates":[-122.203731,47.617707],"type":"Point"},"properties":{"osm_id":"3921542491","tag":{"amenity":"waste_basket"}},"type":"Feature"},
	{"geometry":{"coordinates":[-122.225961,47.590022],"type":"Point"},"properties":{"osm_id":"4303507992","tag":{"amenity":"waste_basket"}},"type":"Feature"},
	{"geometry":{"coordinates":[-122.225792,47.590174],"type":"Point"},"properties":{"osm_id":"4303510792","tag":{"amenity":"waste_basket"}},"type":"Feature"},
	{"geometry":{"coordinates":[-122.226177,47.59223],"type":"Point"},"properties":{"osm_id":"4305367791","tag":{"amenity":"waste_basket"}},"type":"Feature"},
	{"geometry":{"coordinates":[-122.22615,47.592225],"type":"Point"},"properties":{"osm_id":"4305367889","tag":{"amenity":"recycling"}},"type":"Feature"},
	{"geometry":{"coordinates":[-122.205267,47.615594],"type":"Point"},"properties":{"osm_id":"4485882528","tag":{"amenity":"waste_basket","project":"opensidewalks"}},"type":"Feature"},
	{"geometry":{"coordinates":[-122.205266,47.61553],"type":"Point"},"properties":{"osm_id":"4485882529","tag":{"amenity":"waste_basket","project":"opensidewalks"}},"type":"Feature"},
	{"geometry":{"coordinates":[-122.193465,47.61644],"type":"Point"},"properties":{"osm_id":"4636893387","tag":{"amenity":"waste_basket","project":"opensidewalks"}},"type":"Feature"},
	{"geometry":{"coordinates":[-122.194611,47.615611],"type":"Point"},"properties":{"osm_id":"4636893388","tag":{"amenity":"waste_basket","project":"opensidewalks"}},"type":"Feature"},
	{"geometry":{"coordinates":[-122.19452,47.61523],"type":"Point"},"properties":{"osm_id":"4636893589","tag":{"amenity":"waste_basket","project":"opensidewalks"}},"type":"Feature"},
	{"geometry":{"coordinates":[-122.195353,47.615291],"type":"Point"},"properties":{"osm_id":"4636893590","tag":{"amenity":"waste_basket"}},"type":"Feature"},
	{"geometry":{"coordinates":[-122.194548,47.614327],"type":"Point"},"properties":{"osm_id":"4636893591","tag":{"amenity":"waste_basket","project":"opensidewalks"}},"type":"Feature"},
	{"geometry":{"coordinates":[-122.191242,47.61869],"type":"Point"},"properties":{"osm_id":"4640632695","tag":{"amenity":"waste_basket","project":"opensidewalks"}},"type":"Feature"},
	{"geometry":{"coordinates":[-122.190207,47.6204],"type":"Point"},"properties":{"osm_id":"4640632696","tag":{"amenity":"waste_basket","project":"opensidewalks"}},"type":"Feature"},
	{"geometry":{"coordinates":[-122.192565,47.614516],"type":"Point"},"properties":{"osm_id":"4646602728","tag":{"amenity":"waste_basket","level":"1","project":"opensidewalks"}},"type":"Feature"},
	{"geometry":{"coordinates":[-122.194729,47.614569],"type":"Point"},"properties":{"osm_id":"4646602731","tag":{"amenity":"waste_basket","project":"opensidewalks"}},"type":"Feature"},
	{"geometry":{"coordinates":[-122.201903,47.615004],"type":"Point"},"properties":{"osm_id":"4646602732","tag":{"amenity":"waste_basket","project":"opensidewalks"}},"type":"Feature"},
	{"geometry":{"coordinates":[-122.192854,47.614681],"type":"Point"},"properties":{"osm_id":"4650603690","tag":{"amenity":"waste_basket","level":"2"}},"type":"Feature"},
	{"geometry":{"coordinates":[-122.192672,47.614701],"type":"Point"},"properties":{"osm_id":"4650603691","tag":{"amenity":"waste_basket","level":"1","project":"opensidewalks"}},"type":"Feature"},
	{"geometry":{"coordinates":[-122.191562,47.61396],"type":"Point"},"properties":{"osm_id":"4650603696","tag":{"amenity":"waste_basket","project":"opensidewalks"}},"type":"Feature"},
	{"geometry":{"coordinates":[-122.190372,47.614312],"type":"Point"},"properties":{"osm_id":"4650603697","tag":{"amenity":"waste_basket"}},"type":"Feature"},
	{"geometry":{"coordinates":[-122.193343,47.614078],"type":"Point"},"properties":{"osm_id":"4650603698","tag":{"amenity":"waste_basket","project":"opensidewalks"}},"type":"Feature"},
	{"geometry":{"coordinates":[-122.193196,47.61408],"type":"Point"},"properties":{"osm_id":"4650603699","tag":{"amenity":"waste_basket","project":"opensidewalks"}},"type":"Feature"},
	{"geometry":{"coordinates":[-122.19335,47.614364],"type":"Point"},"properties":{"osm_id":"4650603701","tag":{"amenity":"waste_basket","project":"opensidewalks"}},"type":"Feature"},
	{"geometry":{"coordinates":[-122.194538,47.614327],"type":"Point"},"properties":{"osm_id":"4650603702","tag":{"amenity":"recycling","project":"opensidewalks","recycling_type":"container"}},"type":"Feature"},
	{"geometry":{"coordinates":[-122.195925,47.613898],"type":"Point"},"properties":{"osm_id":"4650603705","tag":{"amenity":"waste_basket"}},"type":"Feature"},
	{"geometry":{"coordinates":[-122.196176,47.615209],"type":"Point"},"properties":{"osm_id":"4650603706","tag":{"amenity":"waste_basket","project":"opensidewalks"}},"type":"Feature"},
	{"geometry":{"coordinates":[-122.196175,47.615274],"type":"Point"},"properties":{"osm_id":"4650603707","tag":{"amenity":"waste_basket","project":"opensidewalks"}},"type":"Feature"},
	{"geometry":{"coordinates":[-122.198333,47.615396],"type":"Point"},"properties":{"osm_id":"4650603708","tag":{"amenity":"waste_basket","project":"opensidewalks"}},"type":"Feature"},
	{"geometry":{"coordinates":[-122.198385,47.615462],"type":"Point"},"properties":{"osm_id":"4650603709","tag":{"amenity":"waste_basket","project":"opensidewalks"}},"type":"Feature"},
	{"geometry":{"coordinates":[-122.198498,47.615559],"type":"Point"},"properties":{"osm_id":"4650603710","tag":{"amenity":"waste_basket","project":"opensidewalks"}},"type":"Feature"},
	{"geometry":{"coordinates":[-122.198717,47.615506],"type":"Point"},"properties":{"osm_id":"4650603711","tag":{"amenity":"waste_basket","project":"opensidewalks"}},"type":"Feature"},
	{"geometry":{"coordinates":[-122.19859,47.61575],"type":"Point"},"properties":{"osm_id":"4650603712","tag":{"amenity":"waste_basket","project":"opensidewalks"}},"type":"Feature"},
	{"geometry":{"coordinates":[-122.195956,47.615552],"type":"Point"},"properties":{"osm_id":"4650603715","tag":{"amenity":"waste_basket","project":"opensidewalks"}},"type":"Feature"},
	{"geometry":{"coordinates":[-122.195617,47.615492],"type":"Point"},"properties":{"osm_id":"4650603716","tag":{"amenity":"recycling","project":"opensidewalks","recycling_type":"container"}},"type":"Feature"},
	{"geometry":{"coordinates":[-122.195546,47.615537],"type":"Point"},"properties":{"osm_id":"4650603717","tag":{"amenity":"waste_basket","project":"opensidewalks"}},"type":"Feature"},
	{"geometry":{"coordinates":[-122.195136,47.61554],"type":"Point"},"properties":{"osm_id":"4650603718","tag":{"amenity":"waste_basket","project":"opensidewalks"}},"type":"Feature"},
	{"geometry":{"coordinates":[-122.19213,47.617895],"type":"Point"},"properties":{"osm_id":"4658727694","tag":{"amenity":"waste_basket"}},"type":"Feature"},
	{"geometry":{"coordinates":[-122.189945,47.620297],"type":"Point"},"properties":{"osm_id":"4658727699","tag":{"amenity":"waste_basket","project":"opensidewalks"}},"type":"Feature"},
	{"geometry":{"coordinates":[-122.19323,47.616185],"type":"Point"},"properties":{"osm_id":"4658727725","tag":{"amenity":"waste_basket","project":"opensidewalks"}},"type":"Feature"},
	{"geometry":{"coordinates":[-122.225172,47.587824],"type":"Point"},"properties":{"osm_id":"4911652990","tag":{"amenity":"waste_basket"}},"type":"Feature"},
	{"geometry":{"coordinates":[-122.225469,47.590768],"type":"Point"},"properties":{"osm_id":"5059255575","tag":{"amenity":"waste_basket"}},"type":"Feature"},
	{"geometry":{"coordinates":[-122.225514,47.590767],"type":"Point"},"properties":{"osm_id":"5059255578","tag":{"amenity":"recycling","recycling_type":"container"}},"type":"Feature"},
	{"geometry":{"coordinates":[-122.225808,47.591327],"type":"Point"},"properties":{"osm_id":"5059263543","tag":{"amenity":"waste_basket"}},"type":"Feature"},
	{"geometry":{"coordinates":[-122.225883,47.591326],"type":"Point"},"properties":{"osm_id":"5059263545","tag":{"amenity":"waste_basket"}},"type":"Feature"},
	{"geometry":{"coordinates":[-122.225366,47.591388],"type":"Point"},"properties":{"osm_id":"5059264647","tag":{"amenity":"waste_basket"}},"type":"Feature"},
	{"geometry":{"coordinates":[-122.183609,47.608579],"type":"Point"},"properties":{"osm_id":"5233784589","tag":{"amenity":"recycling","recycling_type":"container"}},"type":"Feature"},
	{"geometry":{"coordinates":[-122.183561,47.608579],"type":"Point"},"properties":{"osm_id":"5233784590","tag":{"amenity":"waste_disposal"}},"type":"Feature"},
	{"geometry":{"coordinates":[-122.20091,47.61375],"type":"Point"},"properties":{"osm_id":"5235764163","tag":{"amenity":"waste_basket"}},"type":"Feature"},
	{"geometry":{"coordinates":[-122.20043,47.613746],"type":"Point"},"properties":{"osm_id":"5235764166","tag":{"amenity":"waste_basket"}},"type":"Feature"},
	{"geometry":{"coordinates":[-122.197739,47.615569],"type":"Point"},"properties":{"osm_id":"5295058091","tag":{"amenity":"waste_basket","project":"opensidewalks"}},"type":"Feature"},
	{"geometry":{"coordinates":[-122.20287,47.619142],"type":"Point"},"properties":{"osm_id":"5752777689","tag":{"amenity":"waste_basket"}},"type":"Feature"},
	{"geometry":{"coordinates":[-122.201917,47.613968],"type":"Point"},"properties":{"osm_id":"5752777704","tag":{"amenity":"waste_basket","project":"opensidewalks"}},"type":"Feature"},
	{"geometry":{"coordinates":[-122.201895,47.6165],"type":"Point"},"properties":{"osm_id":"5752777707","tag":{"amenity":"waste_basket","project":"opensidewalks"}},"type":"Feature"},
	{"geometry":{"coordinates":[-122.202014,47.619131],"type":"Point"},"properties":{"osm_id":"5752777710","tag":{"amenity":"waste_basket"}},"type":"Feature"},
	{"geometry":{"coordinates":[-122.178207,47.609248],"type":"Point"},"properties":{"osm_id":"5924719624","tag":{"amenity":"waste_basket"}},"type":"Feature"},
	{"geometry":{"coordinates":[-122.177445,47.609062],"type":"Point"},"properties":{"osm_id":"5924719625","tag":{"amenity":"waste_basket"}},"type":"Feature"},
	{"geometry":{"coordinates":[-122.200688,47.62803],"type":"Point"},"properties":{"osm_id":"5983821851","tag":{"amenity":"waste_basket"}},"type":"Feature"},
	{"geometry":{"coordinates":[-122.197096,47.621562],"type":"Point"},"properties":{"osm_id":"5983821856","tag":{"amenity":"waste_basket","project":"opensidewalks"}},"type":"Feature"},
	{"geometry":{"coordinates":[-122.196466,47.621431],"type":"Point"},"properties":{"osm_id":"5983845761","tag":{"amenity":"waste_basket","project":"opensidewalks"}},"type":"Feature"},
	{"geometry":{"coordinates":[-122.197829,47.621397],"type":"Point"},"properties":{"osm_id":"6001450282","tag":{"amenity":"waste_basket","project":"opensidewalks"}},"type":"Feature"},
	{"geometry":{"coordinates":[-122.191398,47.621255],"type":"Point"},"properties":{"osm_id":"6001559726","tag":{"amenity":"waste_basket"}},"type":"Feature"},
	{"geometry":{"coordinates":[-122.194758,47.619435],"type":"Point"},"properties":{"osm_id":"6001586624","tag":{"amenity":"waste_basket","project":"opensidewalks"}},"type":"Feature"},
	{"geometry":{"coordinates":[-122.177771,47.606399],"type":"Point"},"properties":{"osm_id":"6517112486","tag":{"amenity":"waste_basket"}},"type":"Feature"},
	{"geometry":{"coordinates":[-122.169029,47.577193],"type":"Point"},"properties":{"osm_id":"6668227927","tag":{"amenity":"waste_basket","indoor":"no"}},"type":"Feature"},
	{"geometry":{"coordinates":[-122.168697,47.577396],"type":"Point"},"properties":{"osm_id":"6668246279","tag":{"amenity":"waste_basket","covered":"no"}},"type":"Feature"},
	{"geometry":{"coordinates":[-122.179492,47.580319],"type":"Point"},"properties":{"osm_id":"7278336886","tag":{"amenity":"waste_basket"}},"type":"Feature"},
	{"geometry":{"coordinates":[-122.197209,47.579002],"type":"Point"},"properties":{"osm_id":"7278413785","tag":{"amenity":"waste_basket"}},"type":"Feature"},
	{"geometry":{"coordinates":[-122.192316,47.621258],"type":"Point"},"properties":{"osm_id":"7624367406","tag":{"amenity":"waste_basket","project":"opensidewalks"}},"type":"Feature"},
	{"geometry":{"coordinates":[-122.192965,47.613896],"type":"Point"},"properties":{"osm_id":"7668588344","tag":{"amenity":"waste_basket","project":"opensidewalks"}},"type":"Feature"},
	{"geometry":{"coordinates":[-122.227534,47.595172],"type":"Point"},"properties":{"osm_id":"7797182729","tag":{"amenity":"recycling","recycling_type":"container"}},"type":"Feature"},
	{"geometry":{"coordinates":[-122.224664,47.587783],"type":"Point"},"properties":{"osm_id":"7797182731","tag":{"amenity":"recycling","recycling_type":"container"}},"type":"Feature"},
	{"geometry":{"coordinates":[-122.227925,47.595023],"type":"Point"},"properties":{"osm_id":"7797182738","tag":{"amenity":"waste_basket"}},"type":"Feature"},
	{"geometry":{"coordinates":[-122.224854,47.588046],"type":"Point"},"properties":{"osm_id":"7797182740","tag":{"amenity":"waste_basket"}},"type":"Feature"},
	{"geometry":{"coordinates":[-122.227947,47.595047],"type":"Point"},"properties":{"osm_id":"7797182746","tag":{"amenity":"recycling","recycling_type":"container"}},"type":"Feature"},
	{"geometry":{"coordinates":[-122.224613,47.587778],"type":"Point"},"properties":{"osm_id":"7797182748","tag":{"amenity":"waste_basket"}},"type":"Feature"},
	{"geometry":{"coordinates":[-122.227546,47.595199],"type":"Point"},"properties":{"osm_id":"7797182749","tag":{"amenity":"waste_basket"}},"type":"Feature"},
	{"geometry":{"coordinates":[-122.22509,47.587602],"type":"Point"},"properties":{"osm_id":"7797182752","tag":{"amenity":"waste_basket"}},"type":"Feature"},
	{"geometry":{"coordinates":[-122.186887,47.621628],"type":"Point"},"properties":{"osm_id":"7826331467","tag":{"amenity":"waste_basket","project":"opensidewalks"}},"type":"Feature"},
	{"geometry":{"coordinates":[-122.186338,47.620947],"type":"Point"},"properties":{"osm_id":"7826331474","tag":{"amenity":"waste_basket","project":"opensidewalks"}},"type":"Feature"},
	{"geometry":{"coordinates":[-122.210013,47.610602],"type":"Point"},"properties":{"osm_id":"7850600516","tag":{"amenity":"waste_basket","project":"opensidewalks"}},"type":"Feature"},
	{"geometry":{"coordinates":[-122.199088,47.615189],"type":"Point"},"properties":{"osm_id":"7863434608","tag":{"amenity":"waste_basket","project":"opensidewalks"}},"type":"Feature"},
	{"geometry":{"coordinates":[-122.198783,47.616102],"type":"Point"},"properties":{"osm_id":"7944342353","tag":{"amenity":"waste_basket","project":"opensidewalks"}},"type":"Feature"},
	{"geometry":{"coordinates":[-122.198781,47.615964],"type":"Point"},"properties":{"osm_id":"7944342354","tag":{"amenity":"waste_basket","project":"opensidewalks"}},"type":"Feature"},
	{"geometry":{"coordinates":[-122.201091,47.615656],"type":"Point"},"properties":{"osm_id":"7944989307","tag":{"amenity":"waste_basket","project":"opensidewalks"}},"type":"Feature"}
]
}
