{
"type": "FeatureCollection",
"features": [
	{"geometry":{"coordinates":[-122.196192,47.478452],"type":"Point"},"properties":{"osm_id":"1611114378","tag":{"amenity":"waste_basket"}},"type":"Feature"},
	{"geometry":{"coordinates":[-122.243039,47.460065],"type":"Point"},"properties":{"osm_id":"2527033719","tag":{"amenity":"waste_basket","power":"pole"}},"type":"Feature"},
	{"geometry":{"coordinates":[-122.175836,47.488238],"type":"Point"},"properties":{"osm_id":"3543194607","tag":{"amenity":"waste_disposal"}},"type":"Feature"},
	{"geometry":{"coordinates":[-122.175699,47.488322],"type":"Point"},"properties":{"osm_id":"3543194632","tag":{"amenity":"waste_disposal"}},"type":"Feature"},
	{"geometry":{"coordinates":[-122.220122,47.471434],"type":"Point"},"properties":{"osm_id":"3675523894","tag":{"amenity":"recycling","recycling:clothes":"yes","recycling_type":"container"}},"type":"Feature"},
	{"geometry":{"coordinates":[-122.220398,47.4716],"type":"Point"},"properties":{"osm_id":"3675523897","tag":{"amenity":"waste_basket"}},"type":"Feature"},
	{"geometry":{"coordinates":[-122.208486,47.516357],"type":"Point"},"properties":{"osm_id":"4129362289","tag":{"amenity":"waste_disposal"}},"type":"Feature"},
	{"geometry":{"coordinates":[-122.210506,47.479475],"type":"Point"},"properties":{"osm_id":"4238294639","tag":{"amenity":"recycling","operator":"USAgain","recycling:clothes":"yes","recycling_type":"container"}},"type":"Feature"},
	{"geometry":{"coordinates":[-122.209587,47.481337],"type":"Point"},"properties":{"osm_id":"4238462694","tag":{"amenity":"recycling","operator":"USAgain"}},"type":"Feature"},
	{"geometry":{"coordinates":[-122.216038,47.479607],"type":"Point"},"properties":{"osm_id":"4238535190","tag":{"amenity":"recycling","operator":"USAgain","recycling:clothes":"yes","recycling_type":"container"}},"type":"Feature"},
	{"geometry":{"coordinates":[-122.213422,47.481352],"type":"Point"},"properties":{"osm_id":"4238754513","tag":{"amenity":"recycling","recycling:clothes":"yes","recycling_type":"container"}},"type":"Feature"},
	{"geometry":{"coordinates":[-122.214262,47.481432],"type":"Point"},"properties":{"osm_id":"4238754521","tag":{"amenity":"recycling","recycling:books":"yes","recycling_type":"container"}},"type":"Feature"},
	{"geometry":{"coordinates":[-122.202679,47.482451],"type":"Point"},"properties":{"osm_id":"4386156190","tag":{"amenity":"waste_basket"}},"type":"Feature"},
	{"geometry":{"coordinates":[-122.204888,47.483669],"type":"Point"},"properties":{"osm_id":"4386171189","tag":{"amenity":"waste_basket"}},"type":"Feature"},
	{"geometry":{"coordinates":[-122.208063,47.479583],"type":"Point"},"properties":{"osm_id":"4386203790","tag":{"amenity":"waste_basket"}},"type":"Feature"},
	{"geometry":{"coordinates":[-122.201299,47.503632],"type":"Point"},"properties":{"osm_id":"4386223090","tag":{"amenity":"waste_basket"}},"type":"Feature"},
	{"geometry":{"coordinates":[-122.201969,47.507862],"type":"Point"},"properties":{"osm_id":"4386223091","tag":{"amenity":"waste_basket"}},"type":"Feature"},
	{"geometry":{"coordinates":[-122.202261,47.503413],"type":"Point"},"properties":{"osm_id":"4386224092","tag":{"amenity":"waste_basket"}},"type":"Feature"},
	{"geometry":{"coordinates":[-122.203697,47.509914],"type":"Point"},"properties":{"osm_id":"4386224096","tag":{"amenity":"waste_basket"}},"type":"Feature"},
	{"geometry":{"coordinates":[-122.20185,47.503516],"type":"Point"},"properties":{"osm_id":"4386224302","tag":{"amenity":"waste_basket"}},"type":"Feature"},
	{"geometry":{"coordinates":[-122.201412,47.503903],"type":"Point"},"properties":{"osm_id":"4386224497","tag":{"amenity":"waste_basket"}},"type":"Feature"},
	{"geometry":{"coordinates":[-122.202828,47.509619],"type":"Point"},"properties":{"osm_id":"4386224597","tag":{"amenity":"waste_basket"}},"type":"Feature"},
	{"geometry":{"coordinates":[-122.201684,47.505537],"type":"Point"},"properties":{"osm_id":"4386285890","tag":{"amenity":"waste_basket"}},"type":"Feature"},
	{"geometry":{"coordinates":[-122.202648,47.508752],"type":"Point"},"properties":{"osm_id":"4386286493","tag":{"amenity":"waste_basket"}},"type":"Feature"},
	{"geometry":{"coordinates":[-122.202041,47.505075],"type":"Point"},"properties":{"osm_id":"4386295590","tag":{"amenity":"waste_basket"}},"type":"Feature"},
	{"geometry":{"coordinates":[-122.201988,47.505724],"type":"Point"},"properties":{"osm_id":"4386295591","tag":{"amenity":"waste_basket"}},"type":"Feature"},
	{"geometry":{"coordinates":[-122.203906,47.511716],"type":"Point"},"properties":{"osm_id":"4386298091","tag":{"amenity":"waste_basket"}},"type":"Feature"},
	{"geometry":{"coordinates":[-122.204711,47.513169],"type":"Point"},"properties":{"osm_id":"4386298092","tag":{"amenity":"waste_basket"}},"type":"Feature"},
	{"geometry":{"coordinates":[-122.20576,47.513961],"type":"Point"},"properties":{"osm_id":"4386298093","tag":{"amenity":"waste_basket"}},"type":"Feature"},
	{"geometry":{"coordinates":[-122.202636,47.50919],"type":"Point"},"properties":{"osm_id":"4386304290","tag":{"amenity":"waste_basket"}},"type":"Feature"},
	{"geometry":{"coordinates":[-122.202092,47.506305],"type":"Point"},"properties":{"osm_id":"4386307490","tag":{"amenity":"waste_basket"}},"type":"Feature"},
	{"geometry":{"coordinates":[-122.206574,47.514588],"type":"Point"},"properties":{"osm_id":"4386308393","tag":{"amenity":"waste_basket"}},"type":"Feature"},
	{"geometry":{"coordinates":[-122.20192,47.507078],"type":"Point"},"properties":{"osm_id":"4386308989","tag":{"amenity":"waste_basket"}},"type":"Feature"},
	{"geometry":{"coordinates":[-122.205319,47.513564],"type":"Point"},"properties":{"osm_id":"4386327989","tag":{"amenity":"waste_basket"}},"type":"Feature"},
	{"geometry":{"coordinates":[-122.203344,47.510545],"type":"Point"},"properties":{"osm_id":"4386359090","tag":{"amenity":"waste_basket"}},"type":"Feature"},
	{"geometry":{"coordinates":[-122.203942,47.504218],"type":"Point"},"properties":{"osm_id":"4522285191","tag":{"amenity":"waste_basket"}},"type":"Feature"},
	{"geometry":{"coordinates":[-122.190288,47.514273],"type":"Point"},"properties":{"osm_id":"4677857664","tag":{"amenity":"waste_basket"}},"type":"Feature"},
	{"geometry":{"coordinates":[-122.202182,47.50416],"type":"Point"},"properties":{"osm_id":"5140180521","tag":{"amenity":"waste_basket"}},"type":"Feature"},
	{"geometry":{"coordinates":[-122.179219,47.51328],"type":"Point"},"properties":{"osm_id":"5434472392","tag":{"amenity":"waste_basket"}},"type":"Feature"},
	{"geometry":{"coordinates":[-122.197738,47.480606],"type":"Point"},"properties":{"osm_id":"5739798424","tag":{"amenity":"waste_basket"}},"type":"Feature"},
	{"geometry":{"coordinates":[-122.198144,47.48076],"type":"Point"},"properties":{"osm_id":"5739798430","tag":{"amenity":"waste_basket"}},"type":"Feature"},
	{"geometry":{"coordinates":[-122.198248,47.480725],"type":"Point"},"properties":{"osm_id":"5739798435","tag":{"amenity":"waste_basket"}},"type":"Feature"},
	{"geometry":{"coordinates":[-122.197734,47.480515],"type":"Point"},"properties":{"osm_id":"5739798444","tag":{"amenity":"waste_basket"}},"type":"Feature"},
	{"geometry":{"coordinates":[-122.195795,47.481051],"type":"Point"},"properties":{"osm_id":"5811108255","tag":{"amenity":"waste_basket"}},"type":"Feature"},
	{"geometry":{"coordinates":[-122.180642,47.47617],"type":"Point"},"properties":{"osm_id":"5811108261","tag":{"amenity":"waste_basket"}},"type":"Feature"},
	{"geometry":{"coordinates":[-122.199326,47.480292],"type":"Point"},"properties":{"osm_id":"5811108655","tag":{"amenity":"waste_basket"}},"type":"Feature"},
	{"geometry":{"coordinates":[-122.175985,47.475061],"type":"Point"},"properties":{"osm_id":"5811108663","tag":{"amenity":"waste_basket"}},"type":"Feature"},
	{"geometry":{"coordinates":[-122.193348,47.478093],"type":"Point"},"properties":{"osm_id":"5811109354","tag":{"amenity":"waste_basket"}},"type":"Feature"},
	{"geometry":{"coordinates":[-122.196216,47.481104],"type":"Point"},"properties":{"osm_id":"5811109753","tag":{"amenity":"waste_basket"}},"type":"Feature"},
	{"geometry":{"coordinates":[-122.190473,47.476828],"type":"Point"},"properties":{"osm_id":"5811110755","tag":{"amenity":"waste_basket"}},"type":"Feature"},
	{"geometry":{"coordinates":[-122.188464,47.475908],"type":"Point"},"properties":{"osm_id":"5811110756","tag":{"amenity":"waste_basket"}},"type":"Feature"},
	{"geometry":{"coordinates":[-122.17657,47.47554],"type":"Point"},"properties":{"osm_id":"5811110757","tag":{"amenity":"waste_basket"}},"type":"Feature"},
	{"geometry":{"coordinates":[-122.177425,47.475315],"type":"Point"},"properties":{"osm_id":"5811112153","tag":{"amenity":"waste_basket"}},"type":"Feature"},
	{"geometry":{"coordinates":[-122.179833,47.475603],"type":"Point"},"properties":{"osm_id":"5811112753","tag":{"amenity":"waste_basket"}},"type":"Feature"},
	{"geometry":{"coordinates":[-122.201624,47.506438],"type":"Point"},"properties":{"osm_id":"5819355565","tag":{"amenity":"waste_basket"}},"type":"Feature"},
	{"geometry":{"coordinates":[-122.201801,47.506745],"type":"Point"},"properties":{"osm_id":"5819355567","tag":{"amenity":"waste_basket"}},"type":"Feature"},
	{"geometry":{"coordinates":[-122.196971,47.499197],"type":"Point"},"properties":{"name":"Recycling","osm_id":"5908953688","tag":{"amenity":"recycling","recycling_type":"centre"}},"type":"Feature"},
	{"geometry":{"coordinates":[-122.17968,47.477031],"type":"Point"},"properties":{"osm_id":"6285163286","tag":{"amenity":"waste_basket"}},"type":"Feature"},
	{"geometry":{"coordinates":[-122.180419,47.477157],"type":"Point"},"properties":{"osm_id":"6285163287","tag":{"amenity":"waste_basket"}},"type":"Feature"},
	{"geometry":{"coordinates":[-122.180893,47.477212],"type":"Point"},"properties":{"osm_id":"6285163288","tag":{"amenity":"waste_basket"}},"type":"Feature"},
	{"geometry":{"coordinates":[-122.246013,47.45931],"type":"Point"},"properties":{"osm_id":"6733759885","tag":{"amenity":"waste_basket"}},"type":"Feature"},
	{"geometry":{"coordinates":[-122.220379,47.471703],"type":"Point"},"properties":{"osm_id":"6927986750","tag":{"amenity":"waste_basket"}},"type":"Feature"},
	{"geometry":{"coordinates":[-122.220379,47.471838],"type":"Point"},"properties":{"osm_id":"6927986755","tag":{"amenity":"waste_basket"}},"type":"Feature"},
	{"geometry":{"coordinates":[-122.218229,47.47235],"type":"Point"},"properties":{"osm_id":"6927986760","tag":{"amenity":"waste_basket"}},"type":"Feature"},
	{"geometry":{"coordinates":[-122.218063,47.473001],"type":"Point"},"properties":{"osm_id":"6927998554","tag":{"amenity":"waste_basket","covered":"no"}},"type":"Feature"},
	{"geometry":{"coordinates":[-122.218285,47.473292],"type":"Point"},"properties":{"osm_id":"6927998561","tag":{"amenity":"waste_basket"}},"type":"Feature"},
	{"geometry":{"coordinates":[-122.198901,47.508768],"type":"Point"},"properties":{"osm_id":"7192221175","tag":{"access":"private","amenity":"waste_disposal","waste":"trash;household"}},"type":"Feature"},
	{"geometry":{"coordinates":[-122.212515,47.492033],"type":"Point"},"properties":{"osm_id":"7198950994","tag":{"amenity":"waste_basket"}},"type":"Feature"},
	{"geometry":{"coordinates":[-122.212969,47.494044],"type":"Point"},"properties":{"osm_id":"7198950996","tag":{"amenity":"waste_basket"}},"type":"Feature"},
	{"geometry":{"coordinates":[-122.200437,47.481647],"type":"Point"},"properties":{"osm_id":"7198951086","tag":{"amenity":"waste_basket"}},"type":"Feature"},
	{"geometry":{"coordinates":[-122.213361,47.495151],"type":"Point"},"properties":{"osm_id":"7198951089","tag":{"amenity":"waste_basket"}},"type":"Feature"},
	{"geometry":{"coordinates":[-122.21462,47.498492],"type":"Point"},"properties":{"osm_id":"7198951091","tag":{"amenity":"waste_basket"}},"type":"Feature"},
	{"geometry":{"coordinates":[-122.214214,47.500983],"type":"Point"},"properties":{"osm_id":"7198951097","tag":{"amenity":"waste_basket"}},"type":"Feature"},
	{"geometry":{"coordinates":[-122.199997,47.481568],"type":"Point"},"properties":{"osm_id":"7198951185","tag":{"amenity":"waste_basket"}},"type":"Feature"},
	{"geometry":{"coordinates":[-122.215118,47.49928],"type":"Point"},"properties":{"osm_id":"7198951198","tag":{"amenity":"waste_basket"}},"type":"Feature"},
	{"geometry":{"coordinates":[-122.214976,47.500241],"type":"Point"},"properties":{"osm_id":"7198951199","tag":{"amenity":"waste_basket"}},"type":"Feature"},
	{"geometry":{"coordinates":[-122.214753,47.500903],"type":"Point"},"properties":{"osm_id":"7198951200","tag":{"amenity":"waste_basket"}},"type":"Feature"},
	{"geometry":{"coordinates":[-122.213074,47.494915],"type":"Point"},"properties":{"osm_id":"7198951386","tag":{"amenity":"waste_basket"}},"type":"Feature"},
	{"geometry":{"coordinates":[-122.213438,47.495181],"type":"Point"},"properties":{"osm_id":"7198951387","tag":{"amenity":"waste_basket"}},"type":"Feature"},
	{"geometry":{"coordinates":[-122.214036,47.497456],"type":"Point"},"properties":{"osm_id":"7198951390","tag":{"amenity":"waste_basket"}},"type":"Feature"},
	{"geometry":{"coordinates":[-122.214324,47.497998],"type":"Point"},"properties":{"osm_id":"7198951391","tag":{"amenity":"waste_basket"}},"type":"Feature"},
	{"geometry":{"coordinates":[-122.214812,47.499702],"type":"Point"},"properties":{"osm_id":"7198951392","tag":{"amenity":"waste_basket"}},"type":"Feature"},
	{"geometry":{"coordinates":[-122.210933,47.488258],"type":"Point"},"properties":{"osm_id":"7198951485","tag":{"amenity":"waste_basket"}},"type":"Feature"},
	{"geometry":{"coordinates":[-122.215277,47.499747],"type":"Point"},"properties":{"osm_id":"7198951488","tag":{"amenity":"waste_basket"}},"type":"Feature"},
	{"geometry":{"coordinates":[-122.204561,47.48292],"type":"Point"},"properties":{"osm_id":"7198975087","tag":{"amenity":"waste_basket"}},"type":"Feature"},
	{"geometry":{"coordinates":[-122.203394,47.482387],"type":"Point"},"properties":{"osm_id":"7198975091","tag":{"amenity":"waste_basket"}},"type":"Feature"},
	{"geometry":{"coordinates":[-122.213834,47.496289],"type":"Point"},"properties":{"osm_id":"7198977985","tag":{"amenity":"waste_basket"}},"type":"Feature"},
	{"geometry":{"coordinates":[-122.209209,47.486323],"type":"Point"},"properties":{"osm_id":"7198978087","tag":{"amenity":"waste_basket"}},"type":"Feature"},
	{"geometry":{"coordinates":[-122.206705,47.484152],"type":"Point"},"properties":{"osm_id":"7198978089","tag":{"amenity":"waste_basket"}},"type":"Feature"},
	{"geometry":{"coordinates":[-122.213476,47.495244],"type":"Point"},"properties":{"osm_id":"7198978285","tag":{"amenity":"waste_basket"}},"type":"Feature"},
	{"geometry":{"coordinates":[-122.207985,47.484957],"type":"Point"},"properties":{"osm_id":"7198981385","tag":{"amenity":"waste_basket"}},"type":"Feature"},
	{"geometry":{"coordinates":[-122.205144,47.48323],"type":"Point"},"properties":{"osm_id":"7198983485","tag":{"amenity":"waste_basket"}},"type":"Feature"},
	{"geometry":{"coordinates":[-122.201348,47.482446],"type":"Point"},"properties":{"osm_id":"7198983686","tag":{"amenity":"waste_basket"}},"type":"Feature"},
	{"geometry":{"coordinates":[-122.201366,47.482335],"type":"Point"},"properties":{"osm_id":"7198983687","tag":{"amenity":"waste_basket"}},"type":"Feature"},
	{"geometry":{"coordinates":[-122.216228,47.480683],"type":"Point"},"properties":{"osm_id":"7573478704","tag":{"amenity":"waste_disposal"}},"type":"Feature"}
]
}
