{
"type": "FeatureCollection",
"features": [
	{"geometry":{"coordinates":[-122.238509,37.875182],"type":"Point"},"properties":{"osm_id":"3257400039","tag":{"amenity":"recycling","recycling:cans":"yes","recycling:glass":"yes","recycling_type":"container"}},"type":"Feature"},
	{"geometry":{"coordinates":[-122.180789,37.878489],"type":"Point"},"properties":{"osm_id":"6874385916","tag":{"amenity":"recycling","opening_hours":"24/7","recycling:clothes":"yes","recycling:shoes":"yes","recycling_type":"container","wheelchair":"limited"}},"type":"Feature"},
	{"geometry":{"coordinates":[-122.181595,37.87858],"type":"Point"},"properties":{"osm_id":"6875925339","tag":{"amenity":"waste_basket","opening_hours":"24/7","wheelchair":"yes"}},"type":"Feature"},
	{"geometry":{"coordinates":[-122.181488,37.878625],"type":"Point"},"properties":{"osm_id":"6875925350","tag":{"amenity":"waste_basket","opening_hours":"24/7","wheelchair":"yes"}},"type":"Feature"},
	{"geometry":{"coordinates":[-122.181273,37.878732],"type":"Point"},"properties":{"osm_id":"6875925380","tag":{"amenity":"waste_basket","opening_hours":"24/7","wheelchair":"yes"}},"type":"Feature"},
	{"geometry":{"coordinates":[-122.181511,37.878861],"type":"Point"},"properties":{"osm_id":"6875925381","tag":{"amenity":"waste_basket","opening_hours":"24/7","wheelchair":"yes"}},"type":"Feature"},
	{"geometry":{"coordinates":[-122.246506,37.905063],"type":"Point"},"properties":{"osm_id":"7330287244","tag":{"amenity":"waste_basket"}},"type":"Feature"},
	{"geometry":{"coordinates":[-122.251056,37.91522],"type":"Point"},"properties":{"osm_id":"7476933167","tag":{"amenity":"waste_basket"}},"type":"Feature"},
	{"geometry":{"coordinates":[-122.233541,37.886948],"type":"Point"},"properties":{"osm_id":"7557238993","tag":{"amenity":"waste_basket"}},"type":"Feature"},
	{"geometry":{"coordinates":[-122.244256,37.880526],"type":"Point"},"properties":{"osm_id":"7818294197","tag":{"amenity":"waste_basket"}},"type":"Feature"},
	{"geometry":{"coordinates":[-122.24958,37.89673],"type":"Point"},"properties":{"osm_id":"7903346863","tag":{"amenity":"waste_basket"}},"type":"Feature"},
	{"geometry":{"coordinates":[-122.249386,37.896119],"type":"Point"},"properties":{"osm_id":"7903351694","tag":{"amenity":"waste_basket"}},"type":"Feature"},
	{"geometry":{"coordinates":[-122.243538,37.880365],"type":"Point"},"properties":{"osm_id":"7924216116","tag":{"amenity":"waste_basket","covered":"yes","material":"metal","waste":"trash"}},"type":"Feature"}
]
}
