{
"type": "FeatureCollection",
"features": [
	{"geometry":{"coordinates":[134.061002,34.628066],"type":"Point"},"properties":{"osm_id":"5021492900","tag":{"amenity":"recycling","recycling:cans":"yes","recycling:magazines":"yes","recycling:newspaper":"yes","recycling:paper":"yes","recycling_type":"container"}},"type":"Feature"},
	{"geometry":{"coordinates":[134.080973,34.602239],"type":"Point"},"properties":{"osm_id":"5061443661","tag":{"amenity":"waste_disposal"}},"type":"Feature"},
	{"geometry":{"coordinates":[134.09116,34.624382],"type":"Point"},"properties":{"osm_id":"5063228428","tag":{"amenity":"waste_disposal"}},"type":"Feature"},
	{"geometry":{"coordinates":[134.063308,34.610177],"type":"Point"},"properties":{"osm_id":"5076417345","tag":{"amenity":"waste_disposal"}},"type":"Feature"},
	{"geometry":{"coordinates":[134.070212,34.609464],"type":"Point"},"properties":{"osm_id":"5138699427","tag":{"amenity":"waste_disposal"}},"type":"Feature"},
	{"geometry":{"coordinates":[134.0712,34.607395],"type":"Point"},"properties":{"osm_id":"5138699428","tag":{"amenity":"waste_disposal"}},"type":"Feature"},
	{"geometry":{"coordinates":[134.053793,34.61106],"type":"Point"},"properties":{"osm_id":"5154565402","tag":{"amenity":"waste_disposal"}},"type":"Feature"},
	{"geometry":{"coordinates":[134.05663,34.610962],"type":"Point"},"properties":{"osm_id":"5154565414","tag":{"amenity":"waste_disposal"}},"type":"Feature"},
	{"geometry":{"coordinates":[134.068231,34.615539],"type":"Point"},"properties":{"osm_id":"5166710587","tag":{"amenity":"waste_disposal"}},"type":"Feature"},
	{"geometry":{"coordinates":[134.065703,34.615104],"type":"Point"},"properties":{"osm_id":"5166710588","tag":{"amenity":"recycling","recycling_type":"container"}},"type":"Feature"},
	{"geometry":{"coordinates":[134.064117,34.61465],"type":"Point"},"properties":{"osm_id":"5166710589","tag":{"amenity":"waste_disposal"}},"type":"Feature"},
	{"geometry":{"coordinates":[134.059762,34.60905],"type":"Point"},"properties":{"osm_id":"5168325934","tag":{"amenity":"waste_disposal"}},"type":"Feature"},
	{"geometry":{"coordinates":[134.061135,34.608025],"type":"Point"},"properties":{"osm_id":"5168325942","tag":{"amenity":"waste_disposal"}},"type":"Feature"},
	{"geometry":{"coordinates":[134.062949,34.6087],"type":"Point"},"properties":{"osm_id":"5173975638","tag":{"amenity":"waste_disposal"}},"type":"Feature"},
	{"geometry":{"coordinates":[134.064896,34.61754],"type":"Point"},"properties":{"osm_id":"5187499115","tag":{"amenity":"waste_disposal"}},"type":"Feature"},
	{"geometry":{"coordinates":[134.050352,34.610009],"type":"Point"},"properties":{"osm_id":"5203407847","tag":{"amenity":"waste_disposal"}},"type":"Feature"},
	{"geometry":{"coordinates":[134.047027,34.607575],"type":"Point"},"properties":{"osm_id":"5203407881","tag":{"amenity":"waste_disposal"}},"type":"Feature"},
	{"geometry":{"coordinates":[134.066496,34.611287],"type":"Point"},"properties":{"osm_id":"5237358126","tag":{"amenity":"waste_disposal"}},"type":"Feature"},
	{"geometry":{"coordinates":[134.057764,34.613734],"type":"Point"},"properties":{"osm_id":"5242054660","tag":{"amenity":"waste_disposal"}},"type":"Feature"},
	{"geometry":{"coordinates":[134.088217,34.606364],"type":"Point"},"properties":{"osm_id":"5243955807","tag":{"amenity":"waste_disposal"}},"type":"Feature"},
	{"geometry":{"coordinates":[134.074461,34.615532],"type":"Point"},"properties":{"osm_id":"5261333733","tag":{"amenity":"waste_disposal"}},"type":"Feature"},
	{"geometry":{"coordinates":[134.071666,34.624564],"type":"Point"},"properties":{"osm_id":"5272947641","tag":{"amenity":"waste_disposal"}},"type":"Feature"},
	{"geometry":{"coordinates":[134.052092,34.628273],"type":"Point"},"properties":{"osm_id":"5287042879","tag":{"amenity":"waste_disposal"}},"type":"Feature"},
	{"geometry":{"coordinates":[134.058004,34.611489],"type":"Point"},"properties":{"osm_id":"5288886890","tag":{"amenity":"recycling","recycling:glass_bottles":"yes","recycling:paper":"yes","recycling_type":"container"}},"type":"Feature"},
	{"geometry":{"coordinates":[134.059322,34.609459],"type":"Point"},"properties":{"osm_id":"5288886891","tag":{"amenity":"waste_disposal"}},"type":"Feature"},
	{"geometry":{"coordinates":[134.054269,34.625915],"type":"Point"},"properties":{"osm_id":"5301565564","tag":{"amenity":"waste_disposal"}},"type":"Feature"},
	{"geometry":{"coordinates":[134.064277,34.604819],"type":"Point"},"properties":{"osm_id":"5309893925","tag":{"amenity":"waste_disposal"}},"type":"Feature"},
	{"geometry":{"coordinates":[134.063087,34.597294],"type":"Point"},"properties":{"osm_id":"5324858754","tag":{"amenity":"waste_disposal"}},"type":"Feature"},
	{"geometry":{"coordinates":[134.064455,34.601455],"type":"Point"},"properties":{"osm_id":"5351933005","tag":{"amenity":"waste_disposal"}},"type":"Feature"},
	{"geometry":{"coordinates":[134.064454,34.601438],"type":"Point"},"properties":{"osm_id":"5351933006","tag":{"amenity":"recycling","recycling_type":"container"}},"type":"Feature"},
	{"geometry":{"coordinates":[134.067278,34.600367],"type":"Point"},"properties":{"osm_id":"5351933007","tag":{"amenity":"waste_disposal"}},"type":"Feature"},
	{"geometry":{"coordinates":[134.062044,34.608661],"type":"Point"},"properties":{"osm_id":"5351933012","tag":{"amenity":"recycling","recycling_type":"container"}},"type":"Feature"},
	{"geometry":{"coordinates":[134.069145,34.604489],"type":"Point"},"properties":{"osm_id":"5434459969","tag":{"amenity":"waste_disposal"}},"type":"Feature"},
	{"geometry":{"coordinates":[134.077343,34.602604],"type":"Point"},"properties":{"osm_id":"5434459970","tag":{"amenity":"recycling","recycling_type":"container"}},"type":"Feature"},
	{"geometry":{"coordinates":[134.085458,34.603637],"type":"Point"},"properties":{"osm_id":"5483840294","tag":{"amenity":"recycling","recycling_type":"container"}},"type":"Feature"},
	{"geometry":{"coordinates":[134.039224,34.663962],"type":"Point"},"properties":{"osm_id":"5537650532","tag":{"amenity":"recycling","recycling_type":"container"}},"type":"Feature"},
	{"geometry":{"coordinates":[134.047103,34.602673],"type":"Point"},"properties":{"osm_id":"5585653749","tag":{"amenity":"waste_disposal"}},"type":"Feature"},
	{"geometry":{"coordinates":[134.047084,34.602651],"type":"Point"},"properties":{"osm_id":"5585653750","tag":{"amenity":"recycling","recycling_type":"container"}},"type":"Feature"},
	{"geometry":{"coordinates":[134.052149,34.626631],"type":"Point"},"properties":{"osm_id":"5587479269","tag":{"amenity":"waste_disposal"}},"type":"Feature"},
	{"geometry":{"coordinates":[134.050973,34.626705],"type":"Point"},"properties":{"osm_id":"5587479270","tag":{"amenity":"waste_disposal"}},"type":"Feature"},
	{"geometry":{"coordinates":[134.04947,34.629693],"type":"Point"},"properties":{"osm_id":"5587479295","tag":{"amenity":"waste_disposal"}},"type":"Feature"},
	{"geometry":{"coordinates":[134.045914,34.635488],"type":"Point"},"properties":{"osm_id":"5587481629","tag":{"amenity":"waste_disposal"}},"type":"Feature"},
	{"geometry":{"coordinates":[134.055472,34.627445],"type":"Point"},"properties":{"osm_id":"5587764134","tag":{"amenity":"waste_disposal"}},"type":"Feature"},
	{"geometry":{"coordinates":[134.063606,34.622101],"type":"Point"},"properties":{"osm_id":"5587765918","tag":{"amenity":"waste_disposal"}},"type":"Feature"},
	{"geometry":{"coordinates":[134.06878,34.606911],"type":"Point"},"properties":{"osm_id":"5589454765","tag":{"amenity":"recycling","recycling_type":"container"}},"type":"Feature"},
	{"geometry":{"coordinates":[134.073077,34.624964],"type":"Point"},"properties":{"osm_id":"5598057207","tag":{"amenity":"waste_disposal"}},"type":"Feature"},
	{"geometry":{"coordinates":[134.072248,34.600925],"type":"Point"},"properties":{"osm_id":"6035710486","tag":{"amenity":"waste_disposal"}},"type":"Feature"}
]
}
