{
"type": "FeatureCollection",
"features": [
	{"geometry":{"coordinates":[-2.643701,53.708156],"type":"Point"},"properties":{"osm_id":"583590141","tag":{"amenity":"recycling"}},"type":"Feature"},
	{"geometry":{"coordinates":[-2.644553,53.743329],"type":"Point"},"properties":{"osm_id":"2431319140","tag":{"amenity":"waste_basket"}},"type":"Feature"},
	{"geometry":{"coordinates":[-2.661605,53.708208],"type":"Point"},"properties":{"osm_id":"2789271260","tag":{"amenity":"waste_basket","waste":"dog_excrement"}},"type":"Feature"},
	{"geometry":{"coordinates":[-2.659761,53.708906],"type":"Point"},"properties":{"osm_id":"2789350507","tag":{"amenity":"waste_basket","waste":"dog_excrement"}},"type":"Feature"},
	{"geometry":{"coordinates":[-2.659023,53.709798],"type":"Point"},"properties":{"osm_id":"2789350639","tag":{"amenity":"waste_basket","waste":"dog_excrement"}},"type":"Feature"},
	{"geometry":{"coordinates":[-2.644928,53.743849],"type":"Point"},"properties":{"osm_id":"2853012526","tag":{"amenity":"waste_basket"}},"type":"Feature"},
	{"geometry":{"coordinates":[-2.641219,53.740797],"type":"Point"},"properties":{"osm_id":"2855183412","tag":{"amenity":"waste_basket","waste":"trash;dog_excrement"}},"type":"Feature"},
	{"geometry":{"coordinates":[-2.641809,53.741932],"type":"Point"},"properties":{"osm_id":"2867125802","tag":{"amenity":"waste_basket","waste":"trash;dog_excrement"}},"type":"Feature"},
	{"geometry":{"coordinates":[-2.642867,53.742615],"type":"Point"},"properties":{"osm_id":"2867125806","tag":{"amenity":"waste_basket","waste":"trash;dog_excrement"}},"type":"Feature"},
	{"geometry":{"coordinates":[-2.643471,53.742748],"type":"Point"},"properties":{"osm_id":"2867125807","tag":{"amenity":"waste_basket","waste":"trash;dog_excrement"}},"type":"Feature"},
	{"geometry":{"coordinates":[-2.644174,53.743062],"type":"Point"},"properties":{"osm_id":"2867125810","tag":{"amenity":"waste_basket","waste":"trash;dog_excrement"}},"type":"Feature"},
	{"geometry":{"coordinates":[-2.654252,53.7109],"type":"Point"},"properties":{"osm_id":"3489455504","tag":{"amenity":"waste_basket","waste":"dog_excrement"}},"type":"Feature"},
	{"geometry":{"coordinates":[-2.669216,53.730121],"type":"Point"},"properties":{"osm_id":"3509189050","tag":{"amenity":"waste_basket","check_date":"2021-01-10"}},"type":"Feature"},
	{"geometry":{"coordinates":[-2.713321,53.698324],"type":"Point"},"properties":{"osm_id":"4086543783","tag":{"amenity":"waste_basket"}},"type":"Feature"},
	{"geometry":{"coordinates":[-2.704169,53.697201],"type":"Point"},"properties":{"osm_id":"4088097168","tag":{"amenity":"waste_basket"}},"type":"Feature"},
	{"geometry":{"coordinates":[-2.689534,53.697631],"type":"Point"},"properties":{"osm_id":"4088557857","tag":{"amenity":"waste_basket","check_date":"2021-03-04","colour":"blue","material":"metal","operator":"South Ribble Borough Council","waste":"trash;dog_excrement"}},"type":"Feature"},
	{"geometry":{"coordinates":[-2.690545,53.698082],"type":"Point"},"properties":{"osm_id":"4097050932","tag":{"amenity":"waste_basket","check_date":"2021-03-05"}},"type":"Feature"},
	{"geometry":{"coordinates":[-2.685975,53.70014],"type":"Point"},"properties":{"osm_id":"4097418541","tag":{"amenity":"waste_basket","check_date":"2021-02-09"}},"type":"Feature"},
	{"geometry":{"coordinates":[-2.684402,53.701899],"type":"Point"},"properties":{"osm_id":"4097419647","tag":{"amenity":"waste_basket","check_date":"2021-02-09"}},"type":"Feature"},
	{"geometry":{"coordinates":[-2.684269,53.702661],"type":"Point"},"properties":{"osm_id":"4097419791","tag":{"amenity":"waste_basket","check_date":"2021-02-09"}},"type":"Feature"},
	{"geometry":{"coordinates":[-2.680491,53.703549],"type":"Point"},"properties":{"osm_id":"4097476463","tag":{"amenity":"waste_basket","check_date":"2021-02-14"}},"type":"Feature"},
	{"geometry":{"coordinates":[-2.656185,53.731386],"type":"Point"},"properties":{"osm_id":"4405875538","tag":{"amenity":"waste_basket","check_date":"2021-01-19","colour":"blue","material":"metal","operator":"South Ribble Borough Council","waste":"trash;dog_excrement"}},"type":"Feature"},
	{"geometry":{"coordinates":[-2.684021,53.702903],"type":"Point"},"properties":{"osm_id":"4812388636","tag":{"amenity":"waste_basket","check_date":"2021-02-09"}},"type":"Feature"},
	{"geometry":{"coordinates":[-2.6944,53.703016],"type":"Point"},"properties":{"osm_id":"6937783006","tag":{"amenity":"waste_basket","waste":"dog_excrement"}},"type":"Feature"},
	{"geometry":{"coordinates":[-2.690388,53.733602],"type":"Point"},"properties":{"osm_id":"8326298129","tag":{"amenity":"waste_basket","colour":"Blue","material":"metal","operator":"South Ribble Borough Council","waste":"trash;dog_excrement"}},"type":"Feature"},
	{"geometry":{"coordinates":[-2.672485,53.73906],"type":"Point"},"properties":{"osm_id":"8326327466","tag":{"amenity":"waste_basket","colour":"blue","material":"metal","operator":"South Ribble Borough Council","waste":"trash;dog_excrement"}},"type":"Feature"},
	{"geometry":{"coordinates":[-2.668032,53.73746],"type":"Point"},"properties":{"osm_id":"8326328940","tag":{"amenity":"waste_basket","colour":"Blue","material":"metal","operator":"South Ribble Borough Council","waste":"trash;dog_excrement"}},"type":"Feature"},
	{"geometry":{"coordinates":[-2.680815,53.727411],"type":"Point"},"properties":{"osm_id":"8332341429","tag":{"amenity":"waste_basket","colour":"blue","material":"metal","operator":"South Ribble Borough Council","waste":"trash;dog_excrement"}},"type":"Feature"},
	{"geometry":{"coordinates":[-2.707806,53.738974],"type":"Point"},"properties":{"osm_id":"8336320350","tag":{"amenity":"waste_basket","colour":"blue","material":"metal","operator":"South Ribble Borough Council","waste":"trash;dog_excrement"}},"type":"Feature"},
	{"geometry":{"coordinates":[-2.704826,53.737112],"type":"Point"},"properties":{"osm_id":"8336339382","tag":{"amenity":"recycling","opening_hours":"24/7","operator":"College for International Co-operation and Development","recycling:clothes":"yes","recycling:shoes":"yes","recycling_type":"container"}},"type":"Feature"},
	{"geometry":{"coordinates":[-2.656045,53.729157],"type":"Point"},"properties":{"osm_id":"8340393853","tag":{"amenity":"waste_basket","colour":"blue","material":"metal","operator":"South Ribble Borough Council","waste":"trash;dog_excrement"}},"type":"Feature"},
	{"geometry":{"coordinates":[-2.662985,53.733826],"type":"Point"},"properties":{"osm_id":"8341490162","tag":{"amenity":"waste_basket","colour":"blue","material":"metal","operator":"South Ribble Borough Council","waste":"trash;dog_excrement"}},"type":"Feature"},
	{"geometry":{"coordinates":[-2.662766,53.734171],"type":"Point"},"properties":{"osm_id":"8341490163","tag":{"amenity":"waste_basket","colour":"blue","material":"metal","operator":"South Ribble Borough Council","waste":"trash;dog_excrement"}},"type":"Feature"},
	{"geometry":{"coordinates":[-2.662947,53.733018],"type":"Point"},"properties":{"osm_id":"8341490164","tag":{"amenity":"waste_basket","colour":"blue","material":"metal","operator":"South Ribble Borough Council","waste":"trash;dog_excrement"}},"type":"Feature"},
	{"geometry":{"coordinates":[-2.708935,53.736893],"type":"Point"},"properties":{"osm_id":"8341713057","tag":{"amenity":"waste_basket","colour":"blue","material":"metal","operator":"South Ribble Borough Council","waste":"trash;dog_excrement"}},"type":"Feature"},
	{"geometry":{"coordinates":[-2.669641,53.734238],"type":"Point"},"properties":{"osm_id":"8353499215","tag":{"amenity":"waste_basket","colour":"blue","material":"metal","operator":"South Ribble Borough Council","waste":"trash;dog_excrement"}},"type":"Feature"},
	{"geometry":{"coordinates":[-2.698836,53.724002],"type":"Point"},"properties":{"osm_id":"8382371073","tag":{"amenity":"waste_basket","colour":"blue","material":"metal","operator":"South Ribble Borough Council","waste":"trash;dog_excrement"}},"type":"Feature"},
	{"geometry":{"coordinates":[-2.681958,53.72246],"type":"Point"},"properties":{"osm_id":"8421736435","tag":{"amenity":"waste_basket","colour":"blue","material":"metal","operator":"South Ribble Borough Council","waste":"trash;dog_excrement"}},"type":"Feature"},
	{"geometry":{"coordinates":[-2.647405,53.720437],"type":"Point"},"properties":{"osm_id":"8449334840","tag":{"amenity":"waste_basket","colour":"black","material":"metal","operator":"South Ribble Borough Council","waste":"trash"}},"type":"Feature"},
	{"geometry":{"coordinates":[-2.680946,53.736887],"type":"Point"},"properties":{"osm_id":"8454556211","tag":{"amenity":"waste_basket","colour":"blue","material":"metal","operator":"South Ribble Borough Council","waste":"trash;dog_excrement"}},"type":"Feature"},
	{"geometry":{"coordinates":[-2.674757,53.743543],"type":"Point"},"properties":{"osm_id":"8464011811","tag":{"amenity":"waste_basket","colour":"blue","material":"metal","operator":"South Ribble Borough Council","waste":"trash;dog_excrement"}},"type":"Feature"},
	{"geometry":{"coordinates":[-2.67851,53.742973],"type":"Point"},"properties":{"osm_id":"8464976427","tag":{"amenity":"waste_basket","colour":"blue","material":"metal","operator":"South Ribble Borough Council","waste":"trash;dog_excrement"}},"type":"Feature"},
	{"geometry":{"coordinates":[-2.672325,53.74426],"type":"Point"},"properties":{"osm_id":"8464976431","tag":{"amenity":"waste_basket","colour":"blue","material":"metal","operator":"South Ribble Borough Council","waste":"trash;dog_excrement"}},"type":"Feature"},
	{"geometry":{"coordinates":[-2.689635,53.697613],"type":"Point"},"properties":{"osm_id":"8487471295","tag":{"amenity":"waste_basket","check_date":"2021-03-04","colour":"black","material":"metal","operator":"South Ribble Borough Council","waste":"trash"}},"type":"Feature"},
	{"geometry":{"coordinates":[-2.68931,53.69793],"type":"Point"},"properties":{"osm_id":"8487471296","tag":{"amenity":"waste_basket","check_date":"2021-03-04","colour":"black","material":"metal","operator":"South Ribble Borough Council","waste":"trash"}},"type":"Feature"},
	{"geometry":{"coordinates":[-2.682783,53.699169],"type":"Point"},"properties":{"osm_id":"8490573850","tag":{"amenity":"waste_basket","colour":"blue","material":"metal","operator":"South Ribble Borough Council","waste":"trash;dog_excrement"}},"type":"Feature"},
	{"geometry":{"coordinates":[-2.696644,53.734352],"type":"Point"},"properties":{"osm_id":"8519267763","tag":{"amenity":"waste_basket","colour":"blue","material":"metal","operator":"South Ribble Borough Council","waste":"trash;dog_excrement"}},"type":"Feature"},
	{"geometry":{"coordinates":[-2.674456,53.736419],"type":"Point"},"properties":{"osm_id":"8526637714","tag":{"amenity":"waste_basket","colour":"blue","material":"metal","operator":"South Ribble Borough Council","waste":"trash;dog_excrement"}},"type":"Feature"},
	{"geometry":{"coordinates":[-2.66708,53.697107],"type":"Point"},"properties":{"osm_id":"8589608511","tag":{"amenity":"waste_basket","colour":"black","material":"metal","operator":"South Ribble Borough Council","waste":"trash;dog_excrement"}},"type":"Feature"},
	{"geometry":{"coordinates":[-2.702883,53.717086],"type":"Point"},"properties":{"osm_id":"8653664662","tag":{"amenity":"waste_basket","colour":"blue","material":"metal","operator":"South Ribble Borough Council","waste":"trash;dog_excrement"}},"type":"Feature"},
	{"geometry":{"coordinates":[-2.719528,53.748564],"type":"Point"},"properties":{"osm_id":"8806118831","tag":{"amenity":"waste_basket","operator":"South Ribble Borough Council"}},"type":"Feature"},
	{"geometry":{"coordinates":[-2.719509,53.744279],"type":"Point"},"properties":{"osm_id":"8806118837","tag":{"amenity":"waste_basket","colour":"Blue","operator":"South Ribble Borough Council","waste":"mixed"}},"type":"Feature"}
]
}
