{
"type": "FeatureCollection",
"features": [
	{"geometry":{"coordinates":[-2.640634,53.449791],"type":"Point"},"properties":{"barrier":"height_restrictor","osm_id":"6757209663"},"type":"Feature"},
	{"geometry":{"coordinates":[-2.643836,53.460848],"type":"Point"},"properties":{"osm_id":"7600895993","tag":{"amenity":"waste_basket","waste":"dog_excrement"}},"type":"Feature"},
	{"geometry":{"coordinates":[-2.643729,53.462186],"type":"Point"},"properties":{"osm_id":"7600895994","tag":{"amenity":"waste_basket","waste":"dog_excrement"}},"type":"Feature"},
	{"geometry":{"coordinates":[-2.702815,53.451349],"type":"Point"},"properties":{"osm_id":"8548292332","tag":{"amenity":"waste_basket","waste":"dog_excrement"}},"type":"Feature"},
	{"geometry":{"coordinates":[-2.702788,53.451354],"type":"Point"},"properties":{"osm_id":"8548292333","tag":{"amenity":"waste_basket"}},"type":"Feature"},
	{"geometry":{"coordinates":[-2.701483,53.452047],"type":"Point"},"properties":{"osm_id":"8552674383","tag":{"amenity":"waste_basket"}},"type":"Feature"},
	{"geometry":{"coordinates":[-2.701483,53.45236],"type":"Point"},"properties":{"osm_id":"8552674385","tag":{"amenity":"waste_basket"}},"type":"Feature"},
	{"geometry":{"coordinates":[-2.700554,53.452632],"type":"Point"},"properties":{"osm_id":"8552674387","tag":{"amenity":"waste_basket"}},"type":"Feature"},
	{"geometry":{"coordinates":[-2.700185,53.452933],"type":"Point"},"properties":{"osm_id":"8552674388","tag":{"amenity":"waste_basket","waste":"dog_excrement"}},"type":"Feature"},
	{"geometry":{"coordinates":[-2.701394,53.453091],"type":"Point"},"properties":{"osm_id":"8552674395","tag":{"amenity":"waste_basket"}},"type":"Feature"},
	{"geometry":{"coordinates":[-2.702944,53.452926],"type":"Point"},"properties":{"osm_id":"8552674396","tag":{"amenity":"waste_basket"}},"type":"Feature"},
	{"geometry":{"coordinates":[-2.702929,53.452937],"type":"Point"},"properties":{"osm_id":"8552674397","tag":{"amenity":"waste_basket","waste":"dog_excrement"}},"type":"Feature"},
	{"geometry":{"coordinates":[-2.705215,53.453098],"type":"Point"},"properties":{"osm_id":"8552705440","tag":{"amenity":"waste_basket","waste":"dog_excrement"}},"type":"Feature"},
	{"geometry":{"coordinates":[-2.701648,53.452285],"type":"Point"},"properties":{"osm_id":"8552988490","tag":{"amenity":"waste_basket"}},"type":"Feature"},
	{"geometry":{"coordinates":[-2.704492,53.452436],"type":"Point"},"properties":{"osm_id":"8552988494","tag":{"amenity":"waste_basket"}},"type":"Feature"},
	{"geometry":{"coordinates":[-2.704504,53.452458],"type":"Point"},"properties":{"osm_id":"8552988495","tag":{"amenity":"waste_basket","waste":"dog_excrement"}},"type":"Feature"},
	{"geometry":{"coordinates":[-2.640676,53.449803],"type":"Point"},"properties":{"barrier":"height_restrictor","osm_id":"8632989981"},"type":"Feature"},
	{"geometry":{"coordinates":[-2.66498,53.44201],"type":"Point"},"properties":{"osm_id":"8999428275","tag":{"amenity":"waste_basket"}},"type":"Feature"}
]
}
