{
"type": "FeatureCollection",
"features": [
	{"geometry":{"coordinates":[-2.688486,47.687012],"type":"Point"},"properties":{"osm_id":"2030476506","tag":{"amenity":"recycling","operator":"Le Relais","recycling:cans":"no","recycling:clothes":"yes","recycling:glass":"no","recycling:glass_bottles":"no","recycling:paper":"no","recycling:plastic":"no","recycling_type":"container","wheelchair":"no"}},"type":"Feature"},
	{"geometry":{"coordinates":[-2.682601,47.648936],"type":"Point"},"properties":{"osm_id":"2459925456","tag":{"amenity":"recycling","recycling_type":"centre"}},"type":"Feature"},
	{"geometry":{"coordinates":[-2.720478,47.659749],"type":"Point"},"properties":{"osm_id":"3376856726","tag":{"amenity":"recycling","recycling:glass":"yes","recycling_type":"container"}},"type":"Feature"},
	{"geometry":{"coordinates":[-2.688608,47.686987],"type":"Point"},"properties":{"osm_id":"3623070419","tag":{"amenity":"recycling","operator":"Vannes Agglo-Golfe du Morbihan","recycling:cans":"yes","recycling:clothes":"no","recycling:glass":"no","recycling:glass_bottles":"no","recycling:paper":"yes","recycling:plastic":"yes","recycling_type":"container","wheelchair":"no"}},"type":"Feature"},
	{"geometry":{"coordinates":[-2.688565,47.686997],"type":"Point"},"properties":{"osm_id":"3831843574","tag":{"amenity":"recycling","operator":"Vannes Agglo-Golfe du Morbihan","recycling:cans":"yes","recycling:clothes":"no","recycling:glass":"no","recycling:glass_bottles":"no","recycling:paper":"yes","recycling:plastic":"yes","recycling_type":"container","wheelchair":"no"}},"type":"Feature"},
	{"geometry":{"coordinates":[-2.688525,47.687005],"type":"Point"},"properties":{"osm_id":"3831843575","tag":{"amenity":"recycling","operator":"Vannes Agglo-Golfe du Morbihan","recycling:cans":"no","recycling:clothes":"no","recycling:glass":"yes","recycling:glass_bottles":"yes","recycling:paper":"no","recycling:plastic":"no","recycling_type":"container","wheelchair":"no"}},"type":"Feature"},
	{"geometry":{"coordinates":[-2.703438,47.680788],"type":"Point"},"properties":{"osm_id":"3831857858","tag":{"amenity":"recycling","operator":"Sysem","recycling:cans":"no","recycling:clothes":"no","recycling:glass":"yes","recycling:glass_bottles":"yes","recycling:paper":"no","recycling:plastic":"no","recycling_type":"container","wheelchair":"no"}},"type":"Feature"},
	{"geometry":{"coordinates":[-2.703478,47.680809],"type":"Point"},"properties":{"osm_id":"3831857859","tag":{"amenity":"recycling","operator":"Sysem","recycling:cans":"yes","recycling:clothes":"no","recycling:glass":"yes","recycling:glass_bottles":"no","recycling:paper":"no","recycling:plastic":"no","recycling_type":"container","wheelchair":"no"}},"type":"Feature"},
	{"geometry":{"coordinates":[-2.703517,47.680835],"type":"Point"},"properties":{"osm_id":"3831857860","tag":{"amenity":"recycling","operator":"Sysem","recycling:cans":"yes","recycling:clothes":"no","recycling:glass":"no","recycling:glass_bottles":"no","recycling:paper":"yes","recycling:plastic":"yes","recycling_type":"container","wheelchair":"no"}},"type":"Feature"},
	{"geometry":{"coordinates":[-2.724084,47.64521],"type":"Point"},"properties":{"osm_id":"4537607973","tag":{"amenity":"recycling","recycling:glass_bottles":"yes","recycling_type":"container"}},"type":"Feature"}
]
}
