{
"type": "FeatureCollection",
"features": [
	{"geometry":{"coordinates":[-70.744776,-33.728303],"type":"Point"},"properties":{"osm_id":"3697993830","tag":{"addr:city":"Buin","addr:street":"Manuel Rodr\u00c3\u00adguez","denotation":"garden","genus":"Phoenix","leaf_cycle":"evergreen","leaf_type":"broadleaved","natural":"tree","species":"Phoenix canariensis","species:es":"Palmera Canaria"}},"type":"Feature"},
	{"geometry":{"coordinates":[-70.745806,-33.733355],"type":"Point"},"properties":{"name":"Cedrus libani","osm_id":"8235025688","tag":{"denotation":"\u00c3\u0081rbol_urbano","description":"Ejemplar singular","diameter":"100 cm","height":"25","leaf_cycle":"evergreen","leaf_type":"needleleaved","natural":"tree"}},"type":"Feature"},
	{"geometry":{"coordinates":[-70.748494,-33.731555],"type":"Point"},"properties":{"osm_id":"8235080275","tag":{"denotation":"\u00c3\u0081rbol_urbano_singular","diameter":"150 cm","height":"25","leaf_cycle":"evergreen","leaf_type":"broadleaved","natural":"tree"}},"type":"Feature"},
	{"geometry":{"coordinates":[-70.744474,-33.72834],"type":"Point"},"properties":{"osm_id":"9049523405","tag":{"addr:city":"Buin","addr:street":"Manuel Rodr\u00c3\u00adguez","denotation":"garden","genus":"Phoenix","leaf_cycle":"evergreen","leaf_type":"broadleaved","natural":"tree","species":"Phoenix canariensis","species:es":"Palmera Canaria"}},"type":"Feature"},
	{"geometry":{"coordinates":[-70.744551,-33.728611],"type":"Point"},"properties":{"osm_id":"9049523406","tag":{"addr:city":"Buin","addr:street":"Manuel Rodr\u00c3\u00adguez","denotation":"avenue","leaf_cycle":"evergreen","leaf_type":"broadleaved","natural":"tree"}},"type":"Feature"},
	{"geometry":{"coordinates":[-70.744661,-33.728596],"type":"Point"},"properties":{"osm_id":"9049523411","tag":{"addr:city":"Buin","addr:street":"Manuel Rodr\u00c3\u00adguez","denotation":"avenue","leaf_cycle":"evergreen","leaf_type":"broadleaved","natural":"tree"}},"type":"Feature"},
	{"geometry":{"coordinates":[-70.744731,-33.72859],"type":"Point"},"properties":{"osm_id":"9049523412","tag":{"addr:city":"Buin","addr:street":"Manuel Rodr\u00c3\u00adguez","denotation":"avenue","leaf_cycle":"evergreen","leaf_type":"broadleaved","natural":"tree"}},"type":"Feature"},
	{"geometry":{"coordinates":[-70.744467,-33.728625],"type":"Point"},"properties":{"osm_id":"9049523413","tag":{"addr:city":"Buin","addr:street":"Manuel Rodr\u00c3\u00adguez","denotation":"avenue","leaf_cycle":"evergreen","leaf_type":"broadleaved","natural":"tree"}},"type":"Feature"},
	{"geometry":{"coordinates":[-70.744449,-33.728707],"type":"Point"},"properties":{"osm_id":"9049523414","tag":{"addr:city":"Buin","addr:street":"Manuel Rodr\u00c3\u00adguez","denotation":"street","leaf_cycle":"evergreen","leaf_type":"palm","natural":"tree"}},"type":"Feature"},
	{"geometry":{"coordinates":[-70.744421,-33.728711],"type":"Point"},"properties":{"osm_id":"9049523415","tag":{"addr:city":"Buin","addr:street":"Manuel Rodr\u00c3\u00adguez","denotation":"street","leaf_cycle":"evergreen","leaf_type":"palm","natural":"tree"}},"type":"Feature"}
]
}
