{
"type": "FeatureCollection",
"features": [
	{"geometry":{"coordinates":[-80.257947,25.787805],"type":"Point"},"properties":{"osm_id":"4076009292","tag":{"amenity":"waste_basket"}},"type":"Feature"},
	{"geometry":{"coordinates":[-80.284107,25.794869],"type":"Point"},"properties":{"osm_id":"5296705421","tag":{"amenity":"waste_disposal"}},"type":"Feature"},
	{"geometry":{"coordinates":[-80.277078,25.758795],"type":"Point"},"properties":{"osm_id":"5900602522","tag":{"amenity":"waste_basket","waste":"dog_excrement"}},"type":"Feature"},
	{"geometry":{"coordinates":[-80.277051,25.758783],"type":"Point"},"properties":{"osm_id":"5900602523","tag":{"amenity":"waste_basket"}},"type":"Feature"},
	{"geometry":{"coordinates":[-80.270733,25.74385],"type":"Point"},"properties":{"osm_id":"5900602524","tag":{"amenity":"waste_basket","waste":"dog_excrement"}},"type":"Feature"},
	{"geometry":{"coordinates":[-80.283649,25.761454],"type":"Point"},"properties":{"osm_id":"5900705590","tag":{"amenity":"waste_basket","waste":"dog_excrement"}},"type":"Feature"},
	{"geometry":{"coordinates":[-80.283652,25.761618],"type":"Point"},"properties":{"osm_id":"5900705591","tag":{"amenity":"waste_basket","waste":"dog_excrement"}},"type":"Feature"},
	{"geometry":{"coordinates":[-80.286678,25.762781],"type":"Point"},"properties":{"osm_id":"5900748825","tag":{"amenity":"waste_basket","operator":"City of Coral Gables","waste":"dog_excrement"}},"type":"Feature"},
	{"geometry":{"coordinates":[-80.283814,25.751377],"type":"Point"},"properties":{"osm_id":"5900748827","tag":{"amenity":"waste_basket","waste":"dog_excrement"}},"type":"Feature"},
	{"geometry":{"coordinates":[-80.27412,25.752712],"type":"Point"},"properties":{"osm_id":"5900748828","tag":{"amenity":"waste_basket","waste":"dog_excrement"}},"type":"Feature"},
	{"geometry":{"coordinates":[-80.271148,25.748217],"type":"Point"},"properties":{"osm_id":"5900748829","tag":{"amenity":"waste_basket","waste":"dog_excrement"}},"type":"Feature"},
	{"geometry":{"coordinates":[-80.274937,25.750112],"type":"Point"},"properties":{"osm_id":"5902897469","tag":{"amenity":"waste_basket","waste":"dog_excrement"}},"type":"Feature"},
	{"geometry":{"coordinates":[-80.274951,25.751608],"type":"Point"},"properties":{"osm_id":"5902899039","tag":{"amenity":"waste_basket","waste":"dog_excrement"}},"type":"Feature"},
	{"geometry":{"coordinates":[-80.269956,25.732302],"type":"Point"},"properties":{"osm_id":"5904381734","tag":{"amenity":"waste_basket","waste":"dog_excrement"}},"type":"Feature"},
	{"geometry":{"coordinates":[-80.310407,25.733342],"type":"Point"},"properties":{"osm_id":"6587458447","tag":{"amenity":"waste_basket"}},"type":"Feature"},
	{"geometry":{"coordinates":[-80.283223,25.753775],"type":"Point"},"properties":{"osm_id":"7140412279","tag":{"amenity":"waste_basket","waste":"dog_excrement"}},"type":"Feature"},
	{"geometry":{"coordinates":[-80.302517,25.759783],"type":"Point"},"properties":{"osm_id":"7389725866","tag":{"amenity":"waste_basket","operator":"City of West Miami"}},"type":"Feature"},
	{"geometry":{"coordinates":[-80.302625,25.75966],"type":"Point"},"properties":{"osm_id":"7389725867","tag":{"amenity":"waste_basket","operator":"City of West Miami"}},"type":"Feature"},
	{"geometry":{"coordinates":[-80.300775,25.75358],"type":"Point"},"properties":{"osm_id":"7520692851","tag":{"amenity":"waste_basket","operator":"City of West Miami"}},"type":"Feature"},
	{"geometry":{"coordinates":[-80.300616,25.753576],"type":"Point"},"properties":{"osm_id":"7520692852","tag":{"amenity":"waste_basket","operator":"City of West Miami"}},"type":"Feature"},
	{"geometry":{"coordinates":[-80.303764,25.761833],"type":"Point"},"properties":{"osm_id":"7526729174","tag":{"amenity":"waste_basket","operator":"City of West Miami"}},"type":"Feature"},
	{"geometry":{"coordinates":[-80.30367,25.758675],"type":"Point"},"properties":{"osm_id":"7526729175","tag":{"amenity":"waste_basket","operator":"City of West Miami"}},"type":"Feature"},
	{"geometry":{"coordinates":[-80.303621,25.757175],"type":"Point"},"properties":{"osm_id":"7526729176","tag":{"amenity":"waste_basket","operator":"City of West Miami"}},"type":"Feature"},
	{"geometry":{"coordinates":[-80.303534,25.752687],"type":"Point"},"properties":{"osm_id":"7526729177","tag":{"amenity":"waste_basket","operator":"City of West Miami"}},"type":"Feature"},
	{"geometry":{"coordinates":[-80.303458,25.748272],"type":"Point"},"properties":{"osm_id":"7526729178","tag":{"amenity":"waste_basket","operator":"City of West Miami"}},"type":"Feature"},
	{"geometry":{"coordinates":[-80.288697,25.763453],"type":"Point"},"properties":{"osm_id":"7526737714","tag":{"amenity":"waste_basket","operator":"City of West Miami"}},"type":"Feature"},
	{"geometry":{"coordinates":[-80.29352,25.763306],"type":"Point"},"properties":{"osm_id":"7526737715","tag":{"amenity":"waste_basket","operator":"City of West Miami"}},"type":"Feature"},
	{"geometry":{"coordinates":[-80.299475,25.763144],"type":"Point"},"properties":{"osm_id":"7526737716","tag":{"amenity":"waste_basket","operator":"City of West Miami"}},"type":"Feature"},
	{"geometry":{"coordinates":[-80.301247,25.763094],"type":"Point"},"properties":{"osm_id":"7526737717","tag":{"amenity":"waste_basket","operator":"City of West Miami"}},"type":"Feature"},
	{"geometry":{"coordinates":[-80.302986,25.763046],"type":"Point"},"properties":{"osm_id":"7526737718","tag":{"amenity":"waste_basket","operator":"City of West Miami"}},"type":"Feature"},
	{"geometry":{"coordinates":[-80.296497,25.75442],"type":"Point"},"properties":{"osm_id":"7526738949","tag":{"amenity":"waste_basket","operator":"City of West Miami"}},"type":"Feature"},
	{"geometry":{"coordinates":[-80.287752,25.757715],"type":"Point"},"properties":{"osm_id":"7526752637","tag":{"amenity":"waste_basket","operator":"City of West Miami"}},"type":"Feature"},
	{"geometry":{"coordinates":[-80.287932,25.76258],"type":"Point"},"properties":{"osm_id":"7526752638","tag":{"amenity":"waste_basket","operator":"City of West Miami"}},"type":"Feature"},
	{"geometry":{"coordinates":[-80.28674,25.768339],"type":"Point"},"properties":{"osm_id":"7535613380","tag":{"amenity":"waste_basket"}},"type":"Feature"},
	{"geometry":{"coordinates":[-80.286483,25.768238],"type":"Point"},"properties":{"osm_id":"7535613383","tag":{"amenity":"waste_basket","waste":"dog_excrement"}},"type":"Feature"},
	{"geometry":{"coordinates":[-80.286462,25.768236],"type":"Point"},"properties":{"osm_id":"7535613384","tag":{"amenity":"waste_basket"}},"type":"Feature"},
	{"geometry":{"coordinates":[-80.286304,25.768419],"type":"Point"},"properties":{"osm_id":"7535619886","tag":{"amenity":"waste_basket"}},"type":"Feature"},
	{"geometry":{"coordinates":[-80.28618,25.768525],"type":"Point"},"properties":{"osm_id":"7535619889","tag":{"amenity":"waste_basket"}},"type":"Feature"},
	{"geometry":{"coordinates":[-80.286147,25.768747],"type":"Point"},"properties":{"osm_id":"7535619891","tag":{"amenity":"waste_basket"}},"type":"Feature"},
	{"geometry":{"coordinates":[-80.286211,25.768773],"type":"Point"},"properties":{"osm_id":"7535619893","tag":{"amenity":"waste_basket"}},"type":"Feature"},
	{"geometry":{"coordinates":[-80.27894,25.779456],"type":"Point"},"properties":{"osm_id":"7535627918","tag":{"amenity":"waste_basket"}},"type":"Feature"},
	{"geometry":{"coordinates":[-80.278838,25.779564],"type":"Point"},"properties":{"osm_id":"7535627925","tag":{"amenity":"waste_basket"}},"type":"Feature"},
	{"geometry":{"coordinates":[-80.278863,25.779527],"type":"Point"},"properties":{"osm_id":"7535627926","tag":{"amenity":"waste_basket"}},"type":"Feature"},
	{"geometry":{"coordinates":[-80.278874,25.779266],"type":"Point"},"properties":{"osm_id":"7535627927","tag":{"amenity":"waste_basket"}},"type":"Feature"},
	{"geometry":{"coordinates":[-80.278782,25.779126],"type":"Point"},"properties":{"osm_id":"7535627928","tag":{"amenity":"waste_basket"}},"type":"Feature"},
	{"geometry":{"coordinates":[-80.278774,25.778886],"type":"Point"},"properties":{"osm_id":"7535627929","tag":{"amenity":"waste_basket"}},"type":"Feature"},
	{"geometry":{"coordinates":[-80.293719,25.767163],"type":"Point"},"properties":{"osm_id":"7539313014","tag":{"amenity":"waste_basket"}},"type":"Feature"},
	{"geometry":{"coordinates":[-80.293708,25.76729],"type":"Point"},"properties":{"osm_id":"7539313015","tag":{"amenity":"waste_basket"}},"type":"Feature"},
	{"geometry":{"coordinates":[-80.293494,25.767296],"type":"Point"},"properties":{"osm_id":"7539313016","tag":{"amenity":"waste_basket"}},"type":"Feature"},
	{"geometry":{"coordinates":[-80.293468,25.76717],"type":"Point"},"properties":{"osm_id":"7539313017","tag":{"amenity":"waste_basket"}},"type":"Feature"},
	{"geometry":{"coordinates":[-80.250512,25.75012],"type":"Point"},"properties":{"osm_id":"7590207361","tag":{"amenity":"waste_basket"}},"type":"Feature"},
	{"geometry":{"coordinates":[-80.250105,25.750154],"type":"Point"},"properties":{"osm_id":"7590207362","tag":{"amenity":"waste_basket"}},"type":"Feature"},
	{"geometry":{"coordinates":[-80.249922,25.75016],"type":"Point"},"properties":{"osm_id":"7590207363","tag":{"amenity":"waste_basket","waste":"dog_excrement"}},"type":"Feature"},
	{"geometry":{"coordinates":[-80.249883,25.750162],"type":"Point"},"properties":{"osm_id":"7590207364","tag":{"amenity":"waste_basket"}},"type":"Feature"},
	{"geometry":{"coordinates":[-80.249582,25.750169],"type":"Point"},"properties":{"osm_id":"7590207366","tag":{"amenity":"waste_basket"}},"type":"Feature"},
	{"geometry":{"coordinates":[-80.249224,25.750182],"type":"Point"},"properties":{"osm_id":"7590207367","tag":{"amenity":"waste_basket"}},"type":"Feature"},
	{"geometry":{"coordinates":[-80.269285,25.74705],"type":"Point"},"properties":{"osm_id":"7620703791","tag":{"amenity":"waste_basket","waste":"dog_excrement"}},"type":"Feature"}
]
}
