{
"type": "FeatureCollection",
"features": [
	{"geometry":{"coordinates":[-1.856063,48.670396],"type":"Point"},"properties":{"osm_id":"5582729276","tag":{"amenity":"recycling","recycling:cans":"yes","recycling:cardboard":"yes","recycling:glass_bottles":"yes","recycling:paper":"yes","recycling:plastic_bottles":"yes","recycling_type":"container"}},"type":"Feature"},
	{"geometry":{"coordinates":[-1.865255,48.673556],"type":"Point"},"properties":{"osm_id":"6343519882","tag":{"amenity":"recycling","recycling:glass":"yes","recycling_type":"container"}},"type":"Feature"},
	{"geometry":{"coordinates":[-1.850501,48.676837],"type":"Point"},"properties":{"osm_id":"6343539242","tag":{"amenity":"recycling","recycling:glass":"yes","recycling:paper":"yes","recycling:waste":"yes","recycling_type":"container"}},"type":"Feature"},
	{"geometry":{"coordinates":[-1.865514,48.669901],"type":"Point"},"properties":{"osm_id":"6343726837","tag":{"amenity":"recycling","recycling:glass":"yes","recycling:paper":"yes","recycling:plastic_bottles":"yes","recycling_type":"container"}},"type":"Feature"},
	{"geometry":{"coordinates":[-1.852177,48.675268],"type":"Point"},"properties":{"osm_id":"7110863023","tag":{"amenity":"recycling","recycling:glass_bottles":"yes","recycling_type":"container"}},"type":"Feature"},
	{"geometry":{"coordinates":[-1.852189,48.675289],"type":"Point"},"properties":{"osm_id":"7110863024","tag":{"amenity":"waste_basket","waste":"trash"}},"type":"Feature"},
	{"geometry":{"coordinates":[-1.868136,48.665752],"type":"Point"},"properties":{"osm_id":"7115774474","tag":{"addr:place":"Terrlabou\u00c3\u00abt","amenity":"recycling","recycling:glass_bottles":"yes","recycling_type":"container"}},"type":"Feature"},
	{"geometry":{"coordinates":[-1.850105,48.675346],"type":"Point"},"properties":{"osm_id":"8022247679","tag":{"amenity":"recycling","recycling_type":"container"}},"type":"Feature"},
	{"geometry":{"coordinates":[-1.932446,48.690051],"type":"Point"},"properties":{"osm_id":"8569800522","tag":{"amenity":"waste_disposal","waste":"glass"}},"type":"Feature"},
	{"geometry":{"coordinates":[-1.93247,48.69005],"type":"Point"},"properties":{"osm_id":"8569800523","tag":{"amenity":"waste_disposal","waste":"trash"}},"type":"Feature"},
	{"geometry":{"coordinates":[-1.93249,48.690048],"type":"Point"},"properties":{"osm_id":"8569800524","tag":{"amenity":"waste_disposal","waste":"recycling"}},"type":"Feature"},
	{"geometry":{"coordinates":[-1.904323,48.637064],"type":"Point"},"properties":{"osm_id":"8731331104","tag":{"amenity":"recycling","recycling_type":"container"}},"type":"Feature"},
	{"geometry":{"coordinates":[-1.903077,48.636927],"type":"Point"},"properties":{"osm_id":"8731384241","tag":{"amenity":"recycling","recycling_type":"container"}},"type":"Feature"},
	{"geometry":{"coordinates":[-1.859759,48.668784],"type":"Point"},"properties":{"osm_id":"8769966279","tag":{"amenity":"waste_basket"}},"type":"Feature"},
	{"geometry":{"coordinates":[-1.860918,48.668674],"type":"Point"},"properties":{"osm_id":"8770121894","tag":{"amenity":"waste_basket"}},"type":"Feature"},
	{"geometry":{"coordinates":[-1.858597,48.668983],"type":"Point"},"properties":{"osm_id":"8770145729","tag":{"amenity":"waste_basket"}},"type":"Feature"}
]
}
