{
"type": "FeatureCollection",
"features": [
	{"geometry":{"coordinates":[-1.852894,48.17671],"type":"Point"},"properties":{"osm_id":"469468590","tag":{"amenity":"recycling","recycling:glass_bottles":"yes","recycling_type":"container"}},"type":"Feature"},
	{"geometry":{"coordinates":[-1.849918,48.180429],"type":"Point"},"properties":{"osm_id":"469468673","tag":{"amenity":"recycling","recycling:glass_bottles":"yes","recycling_type":"container"}},"type":"Feature"},
	{"geometry":{"coordinates":[-1.848952,48.180791],"type":"Point"},"properties":{"osm_id":"469468676","tag":{"amenity":"recycling","recycling_type":"container"}},"type":"Feature"},
	{"geometry":{"coordinates":[-1.852816,48.176487],"type":"Point"},"properties":{"osm_id":"2727381373","tag":{"amenity":"recycling","recycling:glass_bottles":"yes","recycling_type":"container"}},"type":"Feature"},
	{"geometry":{"coordinates":[-1.853402,48.178131],"type":"Point"},"properties":{"osm_id":"2727381382","tag":{"amenity":"recycling","recycling:glass_bottles":"yes","recycling_type":"container"}},"type":"Feature"},
	{"geometry":{"coordinates":[-1.89278,48.214061],"type":"Point"},"properties":{"osm_id":"6189371990","tag":{"amenity":"recycling","operator":"Rennes M\u00c3\u00a9tropole","recycling:glass_bottles":"yes","recycling_type":"container"}},"type":"Feature"}
]
}
