{
"type": "FeatureCollection",
"features": [
	{"geometry":{"coordinates":[-1.862925,47.695705],"type":"Point"},"properties":{"osm_id":"3980679015","tag":{"amenity":"waste_basket"}},"type":"Feature"},
	{"geometry":{"coordinates":[-1.866448,47.701297],"type":"Point"},"properties":{"osm_id":"4217109425","tag":{"amenity":"waste_basket","waste":"trash"}},"type":"Feature"},
	{"geometry":{"coordinates":[-1.867227,47.701077],"type":"Point"},"properties":{"name":"Gu\u00c3\u00a9m\u00c3\u00a9n\u00c3\u00a9 Panfao - Besl\u00c3\u00a9 - Le Port - 13","osm_id":"4823350665","tag":{"amenity":"recycling","operator":"Communaut\u00c3\u00a9 de Communes du Pays de Redon","recycling:glass_bottles":"yes","recycling_type":"container"}},"type":"Feature"},
	{"geometry":{"coordinates":[-1.852859,47.718991],"type":"Point"},"properties":{"name":"Langon - Salle Polyvalente - 4","osm_id":"4823350668","tag":{"amenity":"recycling","operator":"Communaut\u00c3\u00a9 de Communes du Pays de Redon","recycling:glass_bottles":"yes","recycling_type":"container"}},"type":"Feature"},
	{"geometry":{"coordinates":[-1.846728,47.69892],"type":"Point"},"properties":{"name":"Pierric - Brangouin - 1","osm_id":"4823350675","tag":{"amenity":"recycling","operator":"Communaut\u00c3\u00a9 de Communes du Pays de Redon","recycling:glass_bottles":"yes","recycling_type":"container"}},"type":"Feature"},
	{"geometry":{"coordinates":[-1.931303,47.700505],"type":"Point"},"properties":{"name":"La Chapelle du Brain - Cimeti\u00c3\u00a8re - 1","osm_id":"4823352153","tag":{"amenity":"recycling","operator":"Communaut\u00c3\u00a9 de Communes du Pays de Redon","recycling:glass_bottles":"yes","recycling_type":"container"}},"type":"Feature"},
	{"geometry":{"coordinates":[-1.891217,47.696676],"type":"Point"},"properties":{"name":"La Chapelle du Brain - Place Abbaye - 4","osm_id":"4823352154","tag":{"amenity":"recycling","operator":"Communaut\u00c3\u00a9 de Communes du Pays de Redon","recycling:glass_bottles":"yes","recycling_type":"container"}},"type":"Feature"},
	{"geometry":{"coordinates":[-1.885637,47.737663],"type":"Point"},"properties":{"name":"Langon - Ballac - 3","osm_id":"4823352157","tag":{"amenity":"recycling","operator":"Communaut\u00c3\u00a9 de Communes du Pays de Redon","recycling:glass_bottles":"yes","recycling_type":"container"}},"type":"Feature"},
	{"geometry":{"coordinates":[-1.865121,47.697952],"type":"Point"},"properties":{"name":"Gu\u00c3\u00a9m\u00c3\u00a9n\u00c3\u00a9 Penfao - Besl\u00c3\u00a9 - Salle Polyvalente - 12","osm_id":"4823352159","tag":{"amenity":"recycling","operator":"Communaut\u00c3\u00a9 de Communes du Pays de Redon","recycling:glass_bottles":"yes","recycling_type":"container"}},"type":"Feature"},
	{"geometry":{"coordinates":[-1.93209,47.715588],"type":"Point"},"properties":{"name":"Renac - D\u00c3\u00a9cheterie","osm_id":"4823352162","tag":{"amenity":"recycling","operator":"Communaut\u00c3\u00a9 de Communes du Pays de Redon","recycling:glass_bottles":"yes","recycling_type":"container"}},"type":"Feature"},
	{"geometry":{"coordinates":[-1.867086,47.708937],"type":"Point"},"properties":{"name":"Langon - La Louzais - 1","osm_id":"4823352177","tag":{"amenity":"recycling","operator":"Communaut\u00c3\u00a9 de Communes du Pays de Redon","recycling:glass_bottles":"yes","recycling_type":"container"}},"type":"Feature"},
	{"geometry":{"coordinates":[-1.850266,47.72394],"type":"Point"},"properties":{"name":"Langon - Cimeti\u00c3\u00a8re - 2","osm_id":"4823352184","tag":{"amenity":"recycling","operator":"Communaut\u00c3\u00a9 de Communes du Pays de Redon","recycling:glass_bottles":"yes","recycling_type":"container"}},"type":"Feature"},
	{"geometry":{"coordinates":[-1.897976,47.697527],"type":"Point"},"properties":{"name":"La Chapelle du Brain - Rue du Murier - 3","osm_id":"4823352185","tag":{"amenity":"recycling","operator":"Communaut\u00c3\u00a9 de Communes du Pays de Redon","recycling:glass_bottles":"yes","recycling_type":"container"}},"type":"Feature"},
	{"geometry":{"coordinates":[-1.865664,47.701487],"type":"Point"},"properties":{"osm_id":"6740188173","tag":{"amenity":"waste_basket"}},"type":"Feature"}
]
}
