{
"type": "FeatureCollection",
"features": [
	{"geometry":{"coordinates":[-1.887775,47.536999],"type":"Point"},"properties":{"osm_id":"598482711","tag":{"amenity":"waste_basket"}},"type":"Feature"},
	{"geometry":{"coordinates":[-1.887393,47.540129],"type":"Point"},"properties":{"osm_id":"598975909","tag":{"amenity":"waste_disposal"}},"type":"Feature"},
	{"geometry":{"coordinates":[-1.888354,47.54646],"type":"Point"},"properties":{"osm_id":"599021470","tag":{"amenity":"recycling","recycling:paper":"yes"}},"type":"Feature"},
	{"geometry":{"coordinates":[-1.887384,47.544857],"type":"Point"},"properties":{"osm_id":"599028504","tag":{"amenity":"waste_basket"}},"type":"Feature"},
	{"geometry":{"coordinates":[-1.886725,47.546267],"type":"Point"},"properties":{"osm_id":"601050660","tag":{"amenity":"waste_disposal"}},"type":"Feature"},
	{"geometry":{"coordinates":[-1.884139,47.538377],"type":"Point"},"properties":{"osm_id":"601390267","tag":{"amenity":"waste_basket"}},"type":"Feature"},
	{"geometry":{"coordinates":[-1.883136,47.538076],"type":"Point"},"properties":{"osm_id":"601390272","tag":{"amenity":"waste_basket"}},"type":"Feature"},
	{"geometry":{"coordinates":[-1.882971,47.538519],"type":"Point"},"properties":{"osm_id":"601390273","tag":{"amenity":"waste_basket"}},"type":"Feature"},
	{"geometry":{"coordinates":[-1.881915,47.538653],"type":"Point"},"properties":{"osm_id":"601390294","tag":{"amenity":"waste_basket"}},"type":"Feature"},
	{"geometry":{"coordinates":[-1.882262,47.538595],"type":"Point"},"properties":{"osm_id":"601390295","tag":{"amenity":"waste_basket"}},"type":"Feature"},
	{"geometry":{"coordinates":[-1.881212,47.538283],"type":"Point"},"properties":{"osm_id":"601390314","tag":{"amenity":"waste_basket"}},"type":"Feature"},
	{"geometry":{"coordinates":[-1.885527,47.536142],"type":"Point"},"properties":{"osm_id":"601404579","tag":{"amenity":"waste_basket"}},"type":"Feature"},
	{"geometry":{"coordinates":[-1.885234,47.535901],"type":"Point"},"properties":{"osm_id":"601404597","tag":{"amenity":"waste_basket"}},"type":"Feature"},
	{"geometry":{"coordinates":[-1.886069,47.530125],"type":"Point"},"properties":{"osm_id":"601451528","tag":{"amenity":"recycling","recycling:paper":"yes","recycling_type":"container"}},"type":"Feature"},
	{"geometry":{"coordinates":[-1.88618,47.531644],"type":"Point"},"properties":{"osm_id":"601459770","tag":{"amenity":"waste_disposal"}},"type":"Feature"},
	{"geometry":{"coordinates":[-1.886755,47.538175],"type":"Point"},"properties":{"osm_id":"601516268","tag":{"amenity":"waste_basket"}},"type":"Feature"},
	{"geometry":{"coordinates":[-1.876737,47.542408],"type":"Point"},"properties":{"osm_id":"986742232","tag":{"amenity":"waste_basket"}},"type":"Feature"},
	{"geometry":{"coordinates":[-1.870616,47.556443],"type":"Point"},"properties":{"osm_id":"1278414578","tag":{"amenity":"waste_basket"}},"type":"Feature"},
	{"geometry":{"coordinates":[-1.872771,47.552036],"type":"Point"},"properties":{"osm_id":"1278414584","tag":{"amenity":"waste_basket"}},"type":"Feature"},
	{"geometry":{"coordinates":[-1.873088,47.551249],"type":"Point"},"properties":{"osm_id":"1278414604","tag":{"amenity":"waste_basket"}},"type":"Feature"},
	{"geometry":{"coordinates":[-1.871857,47.554727],"type":"Point"},"properties":{"osm_id":"1278414616","tag":{"amenity":"waste_basket"}},"type":"Feature"},
	{"geometry":{"coordinates":[-1.894149,47.543883],"type":"Point"},"properties":{"osm_id":"1281184390","tag":{"amenity":"recycling"}},"type":"Feature"},
	{"geometry":{"coordinates":[-1.894225,47.543837],"type":"Point"},"properties":{"osm_id":"1281184528","tag":{"amenity":"waste_basket"}},"type":"Feature"},
	{"geometry":{"coordinates":[-1.893835,47.543786],"type":"Point"},"properties":{"osm_id":"1281184606","tag":{"amenity":"recycling","recycling:paper":"yes"}},"type":"Feature"},
	{"geometry":{"coordinates":[-1.919668,47.53442],"type":"Point"},"properties":{"name":"Pless\u00c3\u00a9 - D\u00c3\u00a9cheterie - 4","osm_id":"4823350698","tag":{"amenity":"recycling","operator":"Communaut\u00c3\u00a9 de Communes du Pays de Redon","recycling:glass_bottles":"yes","recycling_type":"container"}},"type":"Feature"},
	{"geometry":{"coordinates":[-1.882803,47.527746],"type":"Point"},"properties":{"name":"Pless\u00c3\u00a9 - La Ville Dinais - 6","osm_id":"4823350707","tag":{"amenity":"recycling","operator":"Communaut\u00c3\u00a9 de Communes du Pays de Redon","recycling:glass_bottles":"yes","recycling_type":"container"}},"type":"Feature"},
	{"geometry":{"coordinates":[-1.877144,47.546409],"type":"Point"},"properties":{"name":"Pless\u00c3\u00a9 - Le Thoet - 10","osm_id":"4823350714","tag":{"amenity":"recycling","operator":"Communaut\u00c3\u00a9 de Communes du Pays de Redon","recycling:glass_bottles":"yes","recycling_type":"container"}},"type":"Feature"},
	{"geometry":{"coordinates":[-1.888227,47.546487],"type":"Point"},"properties":{"name":"Pless\u00c3\u00a9 - Stade - 9","osm_id":"4823350715","tag":{"amenity":"recycling","operator":"Communaut\u00c3\u00a9 de Communes du Pays de Redon","recycling:glass_bottles":"yes","recycling_type":"container"}},"type":"Feature"},
	{"geometry":{"coordinates":[-1.87628,47.542646],"type":"Point"},"properties":{"name":"Pless\u00c3\u00a9 - Cimeti\u00c3\u00a8re - 7","osm_id":"4823350718","tag":{"amenity":"recycling","operator":"Communaut\u00c3\u00a9 de Communes du Pays de Redon","recycling:glass_bottles":"yes","recycling_type":"container"}},"type":"Feature"}
]
}
