{
"type": "FeatureCollection",
"features": [
	{"geometry":{"coordinates":[-1.890538,47.10781],"type":"Point"},"properties":{"osm_id":"1227625055","ref":"SHC n\u00c2\u00b02","tag":{"amenity":"waste_disposal"}},"type":"Feature"},
	{"geometry":{"coordinates":[-1.910916,47.101463],"type":"Point"},"properties":{"osm_id":"1263055534","ref":"SHC n\u00c2\u00b04","tag":{"amenity":"waste_disposal"}},"type":"Feature"},
	{"geometry":{"coordinates":[-1.911439,47.100087],"type":"Point"},"properties":{"osm_id":"1263055535","ref":"SHC n\u00c2\u00b05","tag":{"amenity":"recycling","recycling_type":"container"}},"type":"Feature"},
	{"geometry":{"coordinates":[-1.908271,47.101292],"type":"Point"},"properties":{"osm_id":"1263055536","ref":"SHC n\u00c2\u00b03","tag":{"amenity":"waste_disposal"}},"type":"Feature"},
	{"geometry":{"coordinates":[-1.885829,47.109138],"type":"Point"},"properties":{"osm_id":"1263055537","ref":"SHC n\u00c2\u00b01","tag":{"amenity":"recycling"}},"type":"Feature"},
	{"geometry":{"coordinates":[-1.886322,47.104442],"type":"Point"},"properties":{"osm_id":"1263061418","ref":"SHC n\u00c2\u00b014","tag":{"amenity":"recycling"}},"type":"Feature"},
	{"geometry":{"coordinates":[-1.864781,47.1024],"type":"Point"},"properties":{"osm_id":"1263065909","ref":"SHC n\u00c2\u00b035","tag":{"amenity":"recycling"}},"type":"Feature"},
	{"geometry":{"coordinates":[-1.867567,47.102683],"type":"Point"},"properties":{"osm_id":"1263065910","ref":"SHC n\u00c2\u00b036","tag":{"amenity":"recycling"}},"type":"Feature"},
	{"geometry":{"coordinates":[-1.869344,47.102602],"type":"Point"},"properties":{"osm_id":"1263065911","ref":"SHC n\u00c2\u00b037","tag":{"amenity":"recycling"}},"type":"Feature"},
	{"geometry":{"coordinates":[-1.868881,47.104882],"type":"Point"},"properties":{"osm_id":"1263065913","ref":"SHC n\u00c2\u00b038","tag":{"amenity":"recycling"}},"type":"Feature"},
	{"geometry":{"coordinates":[-1.868763,47.105634],"type":"Point"},"properties":{"osm_id":"1263065915","ref":"SHC n\u00c2\u00b039","tag":{"amenity":"recycling"}},"type":"Feature"},
	{"geometry":{"coordinates":[-1.863124,47.102316],"type":"Point"},"properties":{"osm_id":"1263947215","ref":"SHC n\u00c2\u00b045","tag":{"amenity":"recycling"}},"type":"Feature"},
	{"geometry":{"coordinates":[-1.863202,47.10559],"type":"Point"},"properties":{"osm_id":"1263947218","ref":"SHC n\u00c2\u00b054","tag":{"amenity":"recycling"}},"type":"Feature"},
	{"geometry":{"coordinates":[-1.851343,47.108143],"type":"Point"},"properties":{"osm_id":"1263947222","ref":"SHC n\u00c2\u00b053","tag":{"amenity":"recycling"}},"type":"Feature"},
	{"geometry":{"coordinates":[-1.868724,47.106587],"type":"Point"},"properties":{"osm_id":"1263947228","ref":"SHC n\u00c2\u00b041","tag":{"amenity":"recycling"}},"type":"Feature"},
	{"geometry":{"coordinates":[-1.848917,47.102475],"type":"Point"},"properties":{"osm_id":"1263947230","ref":"SHC n\u00c2\u00b049","tag":{"amenity":"recycling"}},"type":"Feature"},
	{"geometry":{"coordinates":[-1.861428,47.102216],"type":"Point"},"properties":{"osm_id":"1263947233","ref":"SHC n\u00c2\u00b046","tag":{"amenity":"recycling"}},"type":"Feature"},
	{"geometry":{"coordinates":[-1.865224,47.104597],"type":"Point"},"properties":{"osm_id":"1263947246","ref":"SHC n\u00c2\u00b042","tag":{"amenity":"recycling"}},"type":"Feature"},
	{"geometry":{"coordinates":[-1.870254,47.106389],"type":"Point"},"properties":{"osm_id":"1263947247","ref":"SHC n\u00c2\u00b040","tag":{"amenity":"recycling"}},"type":"Feature"},
	{"geometry":{"coordinates":[-1.863427,47.104113],"type":"Point"},"properties":{"osm_id":"1263947249","ref":"SHC n\u00c2\u00b044","tag":{"amenity":"recycling"}},"type":"Feature"},
	{"geometry":{"coordinates":[-1.914299,47.122399],"type":"Point"},"properties":{"osm_id":"3760080810","tag":{"amenity":"waste_basket","material":"metal"}},"type":"Feature"},
	{"geometry":{"coordinates":[-1.914047,47.122522],"type":"Point"},"properties":{"osm_id":"3760080811","tag":{"amenity":"waste_basket","material":"metal"}},"type":"Feature"},
	{"geometry":{"coordinates":[-1.913954,47.122286],"type":"Point"},"properties":{"osm_id":"3760081144","tag":{"amenity":"waste_basket","material":"metal"}},"type":"Feature"},
	{"geometry":{"coordinates":[-1.914141,47.12217],"type":"Point"},"properties":{"osm_id":"3760141603","tag":{"amenity":"waste_basket","material":"metal"}},"type":"Feature"},
	{"geometry":{"coordinates":[-1.91822,47.118032],"type":"Point"},"properties":{"osm_id":"3760170184","tag":{"amenity":"waste_basket","material":"wood"}},"type":"Feature"},
	{"geometry":{"coordinates":[-1.912393,47.123075],"type":"Point"},"properties":{"osm_id":"3760198969","tag":{"amenity":"waste_basket"}},"type":"Feature"},
	{"geometry":{"coordinates":[-1.913778,47.122394],"type":"Point"},"properties":{"osm_id":"3760216211","tag":{"amenity":"waste_basket","material":"metal"}},"type":"Feature"},
	{"geometry":{"coordinates":[-1.916175,47.121729],"type":"Point"},"properties":{"osm_id":"3760236023","tag":{"amenity":"waste_basket"}},"type":"Feature"},
	{"geometry":{"coordinates":[-1.916838,47.125762],"type":"Point"},"properties":{"osm_id":"3760364864","tag":{"amenity":"waste_basket"}},"type":"Feature"},
	{"geometry":{"coordinates":[-1.918146,47.125931],"type":"Point"},"properties":{"osm_id":"3760364871","tag":{"amenity":"waste_basket"}},"type":"Feature"},
	{"geometry":{"coordinates":[-1.914219,47.125977],"type":"Point"},"properties":{"osm_id":"3760364873","tag":{"amenity":"waste_basket"}},"type":"Feature"},
	{"geometry":{"coordinates":[-1.914633,47.1251],"type":"Point"},"properties":{"osm_id":"3760409155","tag":{"amenity":"waste_basket"}},"type":"Feature"},
	{"geometry":{"coordinates":[-1.913504,47.124739],"type":"Point"},"properties":{"osm_id":"3761231331","tag":{"amenity":"waste_basket"}},"type":"Feature"},
	{"geometry":{"coordinates":[-1.912625,47.125551],"type":"Point"},"properties":{"osm_id":"3761274108","tag":{"amenity":"waste_basket"}},"type":"Feature"},
	{"geometry":{"coordinates":[-1.912458,47.125632],"type":"Point"},"properties":{"osm_id":"3761274110","tag":{"amenity":"waste_basket"}},"type":"Feature"},
	{"geometry":{"coordinates":[-1.921254,47.114558],"type":"Point"},"properties":{"osm_id":"3761462757","tag":{"amenity":"waste_basket"}},"type":"Feature"},
	{"geometry":{"coordinates":[-1.916146,47.115703],"type":"Point"},"properties":{"osm_id":"3761478590","tag":{"amenity":"waste_basket"}},"type":"Feature"},
	{"geometry":{"coordinates":[-1.917101,47.112562],"type":"Point"},"properties":{"osm_id":"3761483896","tag":{"amenity":"recycling","recycling:glass":"yes","recycling:glass_bottles":"yes","recycling_type":"container"}},"type":"Feature"},
	{"geometry":{"coordinates":[-1.921615,47.128034],"type":"Point"},"properties":{"osm_id":"3833053944","tag":{"amenity":"recycling","recycling:glass":"yes","recycling:paper":"yes","recycling_type":"container"}},"type":"Feature"},
	{"geometry":{"coordinates":[-1.912605,47.125916],"type":"Point"},"properties":{"osm_id":"3833053945","tag":{"amenity":"recycling","recycling:glass":"yes","recycling:paper":"yes","recycling_type":"container"}},"type":"Feature"},
	{"geometry":{"coordinates":[-1.909661,47.119234],"type":"Point"},"properties":{"osm_id":"3833053946","tag":{"addr:city":"Chaumes-en-Retz","addr:postcode":"44680","addr:street":"Rue de Saint-Hilaire","amenity":"recycling","recycling:glass":"yes","recycling:paper":"yes","recycling_type":"container"}},"type":"Feature"},
	{"geometry":{"coordinates":[-1.931021,47.117581],"type":"Point"},"properties":{"osm_id":"4822255744","tag":{"addr:city":"Chaumes-en-Retz","addr:postcode":"44320","addr:street":"All\u00c3\u00a9e des Pierres Rousses","amenity":"recycling","recycling:cardboard":"yes","recycling:glass_bottles":"yes","recycling:paper":"yes","recycling_type":"container"}},"type":"Feature"},
	{"geometry":{"coordinates":[-1.930168,47.131273],"type":"Point"},"properties":{"osm_id":"4822279701","tag":{"amenity":"recycling","recycling:cardboard":"yes","recycling:glass_bottles":"yes","recycling:paper":"yes","recycling_type":"container"}},"type":"Feature"},
	{"geometry":{"coordinates":[-1.921356,47.129011],"type":"Point"},"properties":{"osm_id":"4949011151","tag":{"amenity":"recycling","recycling:glass_bottles":"yes","recycling:paper":"yes","recycling_type":"container"}},"type":"Feature"}
]
}
