{
"type": "FeatureCollection",
"features": [
	{"geometry":{"coordinates":[-70.276606,43.650097],"type":"Point"},"properties":{"osm_id":"7955526030","tag":{"amenity":"waste_basket"}},"type":"Feature"},
	{"geometry":{"coordinates":[-70.276016,43.646892],"type":"Point"},"properties":{"osm_id":"7955526055","tag":{"amenity":"waste_basket"}},"type":"Feature"},
	{"geometry":{"coordinates":[-70.2611,43.647867],"type":"Point"},"properties":{"osm_id":"7955673602","tag":{"amenity":"waste_basket"}},"type":"Feature"},
	{"geometry":{"coordinates":[-70.260409,43.648546],"type":"Point"},"properties":{"osm_id":"7955673608","tag":{"amenity":"waste_basket"}},"type":"Feature"},
	{"geometry":{"coordinates":[-70.272643,43.658365],"type":"Point"},"properties":{"osm_id":"7977434872","tag":{"amenity":"waste_basket"}},"type":"Feature"},
	{"geometry":{"coordinates":[-70.262261,43.66231],"type":"Point"},"properties":{"osm_id":"7978560444","tag":{"amenity":"waste_basket"}},"type":"Feature"},
	{"geometry":{"coordinates":[-70.234882,43.689707],"type":"Point"},"properties":{"osm_id":"8573204116","tag":{"amenity":"waste_basket"}},"type":"Feature"},
	{"geometry":{"coordinates":[-70.308958,43.647551],"type":"Point"},"properties":{"osm_id":"8986796510","tag":{"access":"customers","amenity":"waste_basket","brand":"Eagle","colour":"yellow","covered":"no","description":"Safe Cigarette Disposal","height":".5","lit":"yes","manufacturer":"Eagle","material":"plastic;metal","smoking":"outside","waste":"cigarettes"}},"type":"Feature"},
	{"geometry":{"coordinates":[-70.308941,43.64777],"type":"Point"},"properties":{"osm_id":"8986796515","tag":{"amenity":"waste_basket","waste":"trash"}},"type":"Feature"},
	{"geometry":{"coordinates":[-70.241021,43.666612],"type":"Point"},"properties":{"osm_id":"9201408577","tag":{"amenity":"waste_basket"}},"type":"Feature"}
]
}
