{
"type": "FeatureCollection",
"features": [
	{"geometry":{"coordinates":[-70.29735,-18.460324],"type":"Point"},"properties":{"name":"Reciclaje","osm_id":"3422968593","tag":{"amenity":"recycling","recycling:cans":"yes","recycling:clothes":"no","recycling:glass":"no","recycling:paper":"yes","recycling_type":"centre"}},"type":"Feature"},
	{"geometry":{"coordinates":[-70.29137,-18.465271],"type":"Point"},"properties":{"osm_id":"4547083668","tag":{"amenity":"recycling","recycling:scrap_metal":"yes","recycling_type":"centre"}},"type":"Feature"},
	{"geometry":{"coordinates":[-70.300512,-18.47882],"type":"Point"},"properties":{"osm_id":"5406505114","tag":{"amenity":"waste_disposal","waste":"trash"}},"type":"Feature"},
	{"geometry":{"coordinates":[-70.300648,-18.47843],"type":"Point"},"properties":{"osm_id":"5406506304","tag":{"amenity":"waste_disposal","waste":"trash"}},"type":"Feature"},
	{"geometry":{"coordinates":[-70.293273,-18.428145],"type":"Point"},"properties":{"osm_id":"6363137278","tag":{"amenity":"recycling","recycling_type":"container"}},"type":"Feature"},
	{"geometry":{"coordinates":[-70.292327,-18.439533],"type":"Point"},"properties":{"osm_id":"6366215039","tag":{"addr:city":"Arica","addr:street":"Soldado Eleodoro Guti\u00c3\u00a9rrez","amenity":"recycling","recycling_type":"container"}},"type":"Feature"},
	{"geometry":{"coordinates":[-70.293104,-18.439868],"type":"Point"},"properties":{"osm_id":"6366215041","tag":{"addr:city":"Arica","addr:street":"Avenida El Roble","amenity":"recycling","recycling_type":"container"}},"type":"Feature"},
	{"geometry":{"coordinates":[-70.293771,-18.445902],"type":"Point"},"properties":{"osm_id":"6366220437","tag":{"amenity":"recycling","recycling_type":"container"}},"type":"Feature"}
]
}
