{
"type": "FeatureCollection",
"features": [
	{"geometry":{"coordinates":[120.767432,24.279507],"type":"Point"},"properties":{"osm_id":"2906599201","tag":{"amenity":"waste_basket"}},"type":"Feature"},
	{"geometry":{"coordinates":[120.769013,24.279762],"type":"Point"},"properties":{"osm_id":"2906742136","tag":{"amenity":"waste_basket"}},"type":"Feature"},
	{"geometry":{"coordinates":[120.768197,24.27974],"type":"Point"},"properties":{"osm_id":"2906742138","tag":{"amenity":"waste_basket"}},"type":"Feature"},
	{"geometry":{"coordinates":[120.769156,24.279572],"type":"Point"},"properties":{"osm_id":"2906742147","tag":{"amenity":"waste_basket"}},"type":"Feature"},
	{"geometry":{"coordinates":[120.767969,24.279102],"type":"Point"},"properties":{"osm_id":"2906796334","tag":{"amenity":"waste_basket"}},"type":"Feature"},
	{"geometry":{"coordinates":[120.768203,24.279211],"type":"Point"},"properties":{"osm_id":"2906796343","tag":{"amenity":"waste_basket"}},"type":"Feature"},
	{"geometry":{"coordinates":[120.812324,24.279957],"type":"Point"},"properties":{"osm_id":"2955455869","tag":{"amenity":"waste_basket"}},"type":"Feature"},
	{"geometry":{"coordinates":[120.825712,24.272723],"type":"Point"},"properties":{"osm_id":"2972450473","tag":{"amenity":"waste_basket"}},"type":"Feature"},
	{"geometry":{"coordinates":[120.828232,24.27003],"type":"Point"},"properties":{"osm_id":"2972450497","tag":{"amenity":"waste_basket"}},"type":"Feature"},
	{"geometry":{"coordinates":[120.831944,24.257217],"type":"Point"},"properties":{"osm_id":"2973901525","tag":{"amenity":"waste_basket"}},"type":"Feature"},
	{"geometry":{"coordinates":[120.832091,24.257231],"type":"Point"},"properties":{"osm_id":"2973904334","tag":{"amenity":"waste_basket"}},"type":"Feature"},
	{"geometry":{"coordinates":[120.790323,24.274916],"type":"Point"},"properties":{"osm_id":"2973997965","tag":{"amenity":"waste_basket"}},"type":"Feature"},
	{"geometry":{"coordinates":[120.776606,24.277073],"type":"Point"},"properties":{"osm_id":"2976816670","tag":{"amenity":"waste_basket"}},"type":"Feature"},
	{"geometry":{"coordinates":[120.778062,24.276445],"type":"Point"},"properties":{"osm_id":"2987296595","tag":{"amenity":"waste_basket"}},"type":"Feature"},
	{"geometry":{"coordinates":[120.805325,24.274336],"type":"Point"},"properties":{"osm_id":"2995269086","tag":{"amenity":"waste_basket"}},"type":"Feature"},
	{"geometry":{"coordinates":[120.775894,24.27736],"type":"Point"},"properties":{"osm_id":"2995285658","tag":{"amenity":"waste_basket"}},"type":"Feature"},
	{"geometry":{"coordinates":[120.792982,24.274036],"type":"Point"},"properties":{"osm_id":"2995285669","tag":{"amenity":"waste_basket"}},"type":"Feature"},
	{"geometry":{"coordinates":[120.774128,24.274551],"type":"Point"},"properties":{"osm_id":"3033854921","tag":{"amenity":"waste_basket"}},"type":"Feature"},
	{"geometry":{"coordinates":[120.80007,24.269044],"type":"Point"},"properties":{"name":"\u00e5\u009e\u0083\u00e5\u009c\u00be\u00e6\u00a1\u00b6","osm_id":"3167921372","tag":{"amenity":"waste_basket"}},"type":"Feature"},
	{"geometry":{"coordinates":[120.832072,24.262322],"type":"Point"},"properties":{"osm_id":"6821576675","tag":{"addr:city":"\u00e5\u008f\u00b0\u00e4\u00b8\u00ad\u00e5\u00b8\u0082","addr:district":"\u00e6\u009d\u00b1\u00e5\u008b\u00a2","addr:housenumber":"91","addr:street":"\u00e5\u008b\u00a2\u00e6\u009e\u0097\u00e8\u00a1\u0097"}},"type":"Feature"},
	{"geometry":{"coordinates":[120.823468,24.261502],"type":"Point"},"properties":{"osm_id":"6824328820","tag":{"addr:city":"\u00e8\u0087\u00ba\u00e4\u00b8\u00ad\u00e5\u00b8\u0082","addr:district":"\u00e6\u009d\u00b1\u00e5\u008b\u00a2\u00e5\u008d\u0080","addr:housenumber":"815","addr:street":"\u00e8\u00b1\u0090\u00e5\u008b\u00a2\u00e8\u00b7\u00af"}},"type":"Feature"},
	{"geometry":{"coordinates":[120.83877,24.213294],"type":"Point"},"properties":{"osm_id":"6833766124","tag":{"addr:city":"\u00e5\u008f\u00b0\u00e4\u00b8\u00ad\u00e5\u00b8\u0082","addr:district":"\u00e6\u009d\u00b1\u00e5\u008b\u00a2\u00e5\u008d\u0080","addr:housenumber":"850","addr:street":"\u00e6\u009d\u00b1\u00e9\u0097\u009c\u00e8\u00b7\u00af\u00e4\u00ba\u0094\u00e6\u00ae\u00b5"}},"type":"Feature"}
]
}
