{
"type": "FeatureCollection",
"features": [
	{"geometry":{"coordinates":[175.069575,-41.128466],"type":"Point"},"properties":{"name":"Earth Link","osm_id":"1203834302","tag":{"amenity":"recycling"}},"type":"Feature"},
	{"geometry":{"coordinates":[175.064808,-41.1318],"type":"Point"},"properties":{"osm_id":"1253187355","tag":{"amenity":"recycling"}},"type":"Feature"},
	{"geometry":{"coordinates":[174.999327,-41.164259],"type":"Point"},"properties":{"osm_id":"1270746521","tag":{"amenity":"recycling"}},"type":"Feature"},
	{"geometry":{"coordinates":[175.013294,-41.14896],"type":"Point"},"properties":{"osm_id":"3183699056","tag":{"amenity":"waste_basket"}},"type":"Feature"},
	{"geometry":{"coordinates":[175.012792,-41.148685],"type":"Point"},"properties":{"osm_id":"3183699057","tag":{"amenity":"waste_basket"}},"type":"Feature"},
	{"geometry":{"coordinates":[175.011629,-41.15197],"type":"Point"},"properties":{"osm_id":"3183726065","tag":{"amenity":"waste_basket"}},"type":"Feature"},
	{"geometry":{"coordinates":[175.077097,-41.124977],"type":"Point"},"properties":{"name":"Upper Hutt Community Recycling Station","osm_id":"6856593664","tag":{"amenity":"recycling","opening_hours":"24/7","operator":"Upper Hutt City Council","recycling:cans":"yes","recycling:cardboard":"yes","recycling:glass_bottles":"yes","recycling:paper":"yes","recycling:plastic_bottles":"yes","recycling_type":"container","wheelchair":"yes"}},"type":"Feature"}
]
}
