{
"type": "FeatureCollection",
"features": [
	{"geometry":{"coordinates":[-66.651386,45.994016],"type":"Point"},"properties":{"name":"Brookside Mall Recycling Depot","osm_id":"1820633416","tag":{"amenity":"recycling"}},"type":"Feature"},
	{"geometry":{"coordinates":[-66.660848,45.959676],"type":"Point"},"properties":{"name":"Capital Winter Club Recycling Depot","osm_id":"1820633419","tag":{"addr:city":"Fredericton","addr:housenumber":"232","addr:street":"Rookwood Avenue","amenity":"recycling","description":"Parking lot on side of building"}},"type":"Feature"},
	{"geometry":{"coordinates":[-66.627472,45.987781],"type":"Point"},"properties":{"name":"Smart Centres Shopping Mall Recycling Depot","osm_id":"1820633420","tag":{"amenity":"recycling"}},"type":"Feature"},
	{"geometry":{"coordinates":[-66.658983,45.980457],"type":"Point"},"properties":{"osm_id":"4360622117","tag":{"amenity":"waste_basket"}},"type":"Feature"},
	{"geometry":{"coordinates":[-66.625008,45.959685],"type":"Point"},"properties":{"osm_id":"5526541136","tag":{"amenity":"waste_basket"}},"type":"Feature"},
	{"geometry":{"coordinates":[-66.625938,45.961496],"type":"Point"},"properties":{"osm_id":"5526541137","tag":{"amenity":"waste_basket"}},"type":"Feature"},
	{"geometry":{"coordinates":[-66.626173,45.962085],"type":"Point"},"properties":{"osm_id":"5526541138","tag":{"amenity":"waste_basket"}},"type":"Feature"},
	{"geometry":{"coordinates":[-66.641687,45.973073],"type":"Point"},"properties":{"osm_id":"6355200522","tag":{"amenity":"waste_basket"}},"type":"Feature"},
	{"geometry":{"coordinates":[-66.633612,45.957344],"type":"Point"},"properties":{"osm_id":"6450807430","tag":{"amenity":"waste_basket"}},"type":"Feature"},
	{"geometry":{"coordinates":[-66.633825,45.957659],"type":"Point"},"properties":{"osm_id":"6450807431","tag":{"amenity":"waste_basket"}},"type":"Feature"},
	{"geometry":{"coordinates":[-66.634628,45.958798],"type":"Point"},"properties":{"osm_id":"6450807432","tag":{"amenity":"waste_basket"}},"type":"Feature"},
	{"geometry":{"coordinates":[-66.647165,45.97635],"type":"Point"},"properties":{"name":"RecycleNB","osm_id":"6883892596","tag":{"amenity":"recycling","recycling_type":"centre"}},"type":"Feature"},
	{"geometry":{"coordinates":[-66.638464,45.962887],"type":"Point"},"properties":{"osm_id":"7041774315","tag":{"amenity":"waste_basket"}},"type":"Feature"},
	{"geometry":{"coordinates":[-66.639278,45.953128],"type":"Point"},"properties":{"osm_id":"7332897336","tag":{"amenity":"waste_basket"}},"type":"Feature"}
]
}
