{
"type": "FeatureCollection",
"features": [
	{"geometry":{"coordinates":[-71.008615,42.385264],"type":"Point"},"properties":{"osm_id":"1424535807","tag":{"amenity":"waste_basket"}},"type":"Feature"},
	{"geometry":{"coordinates":[-70.984867,42.386992],"type":"Point"},"properties":{"name":"Winthrop Leaf Dump","osm_id":"1934569205","tag":{"amenity":"recycling","recycling_type":"centre"}},"type":"Feature"},
	{"geometry":{"coordinates":[-70.929905,42.41917],"type":"Point"},"properties":{"osm_id":"2483356978","tag":{"amenity":"waste_basket"}},"type":"Feature"},
	{"geometry":{"coordinates":[-71.013531,42.408399],"type":"Point"},"properties":{"osm_id":"3081841647","tag":{"amenity":"waste_basket"}},"type":"Feature"},
	{"geometry":{"coordinates":[-71.013708,42.410416],"type":"Point"},"properties":{"osm_id":"3081841678","tag":{"amenity":"waste_basket"}},"type":"Feature"},
	{"geometry":{"coordinates":[-71.008424,42.386017],"type":"Point"},"properties":{"osm_id":"4456091925","tag":{"amenity":"waste_basket"}},"type":"Feature"},
	{"geometry":{"coordinates":[-70.991606,42.407893],"type":"Point"},"properties":{"osm_id":"5443784260","tag":{"amenity":"waste_basket"}},"type":"Feature"},
	{"geometry":{"coordinates":[-70.980727,42.390391],"type":"Point"},"properties":{"osm_id":"5779497894","tag":{"amenity":"waste_basket","waste":"dog_excrement"}},"type":"Feature"},
	{"geometry":{"coordinates":[-70.980798,42.390465],"type":"Point"},"properties":{"osm_id":"5779497895","tag":{"amenity":"waste_basket"}},"type":"Feature"},
	{"geometry":{"coordinates":[-70.980056,42.390328],"type":"Point"},"properties":{"osm_id":"5779497909","tag":{"amenity":"waste_basket"}},"type":"Feature"},
	{"geometry":{"coordinates":[-70.97665,42.3857],"type":"Point"},"properties":{"osm_id":"6167419498","tag":{"amenity":"waste_basket"}},"type":"Feature"},
	{"geometry":{"coordinates":[-70.975007,42.386246],"type":"Point"},"properties":{"osm_id":"6167419520","tag":{"amenity":"waste_basket"}},"type":"Feature"},
	{"geometry":{"coordinates":[-70.974779,42.38561],"type":"Point"},"properties":{"osm_id":"6167419715","tag":{"amenity":"waste_basket"}},"type":"Feature"},
	{"geometry":{"coordinates":[-70.974918,42.385854],"type":"Point"},"properties":{"osm_id":"6167419837","tag":{"amenity":"waste_basket"}},"type":"Feature"},
	{"geometry":{"coordinates":[-70.972111,42.366892],"type":"Point"},"properties":{"osm_id":"6177472673","tag":{"amenity":"waste_basket"}},"type":"Feature"},
	{"geometry":{"coordinates":[-70.9721,42.366657],"type":"Point"},"properties":{"osm_id":"6177472674","tag":{"amenity":"waste_basket"}},"type":"Feature"},
	{"geometry":{"coordinates":[-70.992944,42.399683],"type":"Point"},"properties":{"osm_id":"7792392243","tag":{"amenity":"waste_basket"}},"type":"Feature"}
]
}
