{
"type": "FeatureCollection",
"features": [
	{"geometry":{"coordinates":[55.992078,54.721905],"type":"Point"},"properties":{"osm_id":"1224552706","tag":{"amenity":"waste_disposal","waste":"trash"}},"type":"Feature"},
	{"geometry":{"coordinates":[55.995474,54.71755],"type":"Point"},"properties":{"osm_id":"1359265796","tag":{"amenity":"waste_disposal"}},"type":"Feature"},
	{"geometry":{"coordinates":[56.006095,54.713454],"type":"Point"},"properties":{"name":"\u00d0\u00a2\u00d0\u00b0\u00d0\u00b1\u00d0\u00b8\u00d0\u00b3\u00d0\u00b0\u00d1\u0082","osm_id":"1594501350","tag":{"amenity":"recycling","recycling:computers":"yes","recycling:fluorescent_tubes":"yes","recycling:paper":"yes","recycling_type":"centre","website":"http://www.tabigat.ru/"}},"type":"Feature"},
	{"geometry":{"coordinates":[55.987765,54.696245],"type":"Point"},"properties":{"osm_id":"1986845548","tag":{"amenity":"waste_disposal"}},"type":"Feature"},
	{"geometry":{"coordinates":[56.003347,54.690367],"type":"Point"},"properties":{"osm_id":"4350842516","tag":{"amenity":"waste_disposal"}},"type":"Feature"}
]
}
