{
"type": "FeatureCollection",
"features": [
	{"geometry":{"coordinates":[20.971814,64.757087],"type":"Point"},"properties":{"osm_id":"1377313320","tag":{"amenity":"recycling"}},"type":"Feature"},
	{"geometry":{"coordinates":[20.959798,64.752479],"type":"Point"},"properties":{"osm_id":"1377868436","tag":{"amenity":"recycling"}},"type":"Feature"},
	{"geometry":{"coordinates":[20.950067,64.74438],"type":"Point"},"properties":{"osm_id":"1378079582","tag":{"amenity":"recycling"}},"type":"Feature"},
	{"geometry":{"coordinates":[20.989925,64.745308],"type":"Point"},"properties":{"name":"ANDERSTORP, Anderson Trail 2 at Handlar'n","osm_id":"1729363796","tag":{"amenity":"recycling","recycling_type":"centre"}},"type":"Feature"},
	{"geometry":{"coordinates":[20.946439,64.748435],"type":"Point"},"properties":{"osm_id":"2357828402","tag":{"amenity":"waste_basket"}},"type":"Feature"},
	{"geometry":{"coordinates":[20.936378,64.750169],"type":"Point"},"properties":{"osm_id":"3725983227","tag":{"amenity":"waste_basket"}},"type":"Feature"},
	{"geometry":{"coordinates":[20.972846,64.762899],"type":"Point"},"properties":{"osm_id":"7741490756","tag":{"amenity":"waste_basket"}},"type":"Feature"},
	{"geometry":{"coordinates":[20.953325,64.760799],"type":"Point"},"properties":{"osm_id":"7745172829","tag":{"amenity":"waste_basket"}},"type":"Feature"},
	{"geometry":{"coordinates":[20.953513,64.76071],"type":"Point"},"properties":{"osm_id":"7745174133","tag":{"amenity":"waste_basket"}},"type":"Feature"}
]
}
