{
"type": "FeatureCollection",
"features": [
	{"geometry":{"coordinates":[20.943733,52.332177],"type":"Point"},"properties":{"osm_id":"1836562173","tag":{"amenity":"waste_basket"}},"type":"Feature"},
	{"geometry":{"coordinates":[20.937557,52.332596],"type":"Point"},"properties":{"osm_id":"1836562180","tag":{"amenity":"waste_basket"}},"type":"Feature"},
	{"geometry":{"coordinates":[20.939469,52.332597],"type":"Point"},"properties":{"osm_id":"1836562183","tag":{"amenity":"waste_basket"}},"type":"Feature"},
	{"geometry":{"coordinates":[20.936264,52.33301],"type":"Point"},"properties":{"osm_id":"1836562219","tag":{"amenity":"waste_basket"}},"type":"Feature"},
	{"geometry":{"coordinates":[20.936604,52.334727],"type":"Point"},"properties":{"osm_id":"1836562448","tag":{"amenity":"waste_basket"}},"type":"Feature"},
	{"geometry":{"coordinates":[20.962049,52.335881],"type":"Point"},"properties":{"osm_id":"1837865384","tag":{"addr:city":"Warszawa","addr:country":"PL","addr:street":"J\u00c3\u00b3zefa Mehoffera","amenity":"recycling","recycling:paper":"yes","recycling:scrap_metal":"yes","recycling_type":"centre"}},"type":"Feature"},
	{"geometry":{"coordinates":[20.944548,52.334798],"type":"Point"},"properties":{"osm_id":"1914537273","tag":{"amenity":"waste_basket"}},"type":"Feature"},
	{"geometry":{"coordinates":[20.945595,52.328932],"type":"Point"},"properties":{"osm_id":"2244974108","tag":{"amenity":"waste_basket"}},"type":"Feature"},
	{"geometry":{"coordinates":[20.956942,52.331471],"type":"Point"},"properties":{"osm_id":"2393742494","tag":{"amenity":"waste_basket"}},"type":"Feature"},
	{"geometry":{"coordinates":[20.951926,52.343698],"type":"Point"},"properties":{"osm_id":"2393742510","tag":{"amenity":"waste_basket"}},"type":"Feature"},
	{"geometry":{"coordinates":[20.951704,52.34393],"type":"Point"},"properties":{"osm_id":"2393742513","tag":{"amenity":"waste_basket"}},"type":"Feature"},
	{"geometry":{"coordinates":[20.95329,52.344008],"type":"Point"},"properties":{"osm_id":"2393742515","tag":{"amenity":"waste_basket"}},"type":"Feature"},
	{"geometry":{"coordinates":[20.95157,52.344052],"type":"Point"},"properties":{"osm_id":"2393742518","tag":{"amenity":"waste_basket"}},"type":"Feature"},
	{"geometry":{"coordinates":[20.946267,52.349524],"type":"Point"},"properties":{"osm_id":"2400591016","tag":{"amenity":"waste_basket"}},"type":"Feature"},
	{"geometry":{"coordinates":[20.945753,52.350127],"type":"Point"},"properties":{"osm_id":"2400591017","tag":{"amenity":"waste_basket"}},"type":"Feature"},
	{"geometry":{"coordinates":[20.946005,52.350614],"type":"Point"},"properties":{"osm_id":"2400591018","tag":{"amenity":"waste_basket"}},"type":"Feature"},
	{"geometry":{"coordinates":[20.964842,52.322825],"type":"Point"},"properties":{"osm_id":"2419861309","tag":{"amenity":"waste_basket"}},"type":"Feature"},
	{"geometry":{"coordinates":[20.962983,52.322918],"type":"Point"},"properties":{"osm_id":"2419861311","tag":{"amenity":"waste_basket"}},"type":"Feature"},
	{"geometry":{"coordinates":[20.962442,52.323045],"type":"Point"},"properties":{"osm_id":"2419861315","tag":{"amenity":"waste_basket"}},"type":"Feature"},
	{"geometry":{"coordinates":[20.962255,52.323089],"type":"Point"},"properties":{"osm_id":"2419861317","tag":{"amenity":"waste_basket"}},"type":"Feature"},
	{"geometry":{"coordinates":[20.960354,52.324154],"type":"Point"},"properties":{"osm_id":"2419861330","tag":{"amenity":"waste_basket"}},"type":"Feature"},
	{"geometry":{"coordinates":[20.959058,52.325142],"type":"Point"},"properties":{"osm_id":"2419861352","tag":{"amenity":"waste_basket"}},"type":"Feature"},
	{"geometry":{"coordinates":[20.958503,52.325553],"type":"Point"},"properties":{"osm_id":"2419861380","tag":{"amenity":"waste_basket"}},"type":"Feature"},
	{"geometry":{"coordinates":[20.957616,52.326223],"type":"Point"},"properties":{"osm_id":"2419861419","tag":{"amenity":"waste_basket"}},"type":"Feature"},
	{"geometry":{"coordinates":[20.957278,52.33171],"type":"Point"},"properties":{"osm_id":"2419861597","tag":{"amenity":"waste_basket"}},"type":"Feature"},
	{"geometry":{"coordinates":[20.961561,52.334599],"type":"Point"},"properties":{"osm_id":"2419861689","tag":{"amenity":"waste_basket"}},"type":"Feature"},
	{"geometry":{"coordinates":[20.932394,52.333503],"type":"Point"},"properties":{"osm_id":"2610113948","tag":{"amenity":"recycling","recycling:cans":"yes","recycling:glass":"yes","recycling:paper":"yes","recycling_type":"container"}},"type":"Feature"},
	{"geometry":{"coordinates":[20.932399,52.333537],"type":"Point"},"properties":{"osm_id":"2610113949","tag":{"amenity":"waste_disposal","waste":"trash"}},"type":"Feature"},
	{"geometry":{"coordinates":[20.936204,52.333858],"type":"Point"},"properties":{"osm_id":"2610113954","tag":{"amenity":"recycling","recycling:cans":"yes","recycling:glass":"yes","recycling:paper":"yes","recycling_type":"container"}},"type":"Feature"},
	{"geometry":{"coordinates":[20.933568,52.333903],"type":"Point"},"properties":{"osm_id":"2610113955","tag":{"amenity":"waste_disposal","waste":"trash"}},"type":"Feature"},
	{"geometry":{"coordinates":[20.934741,52.334265],"type":"Point"},"properties":{"osm_id":"2610113956","tag":{"amenity":"waste_disposal","waste":"trash"}},"type":"Feature"},
	{"geometry":{"coordinates":[20.935131,52.334388],"type":"Point"},"properties":{"osm_id":"2610113957","tag":{"amenity":"waste_disposal","waste":"trash"}},"type":"Feature"},
	{"geometry":{"coordinates":[20.93552,52.334506],"type":"Point"},"properties":{"osm_id":"2610113958","tag":{"amenity":"waste_disposal","waste":"trash"}},"type":"Feature"},
	{"geometry":{"coordinates":[20.936626,52.334046],"type":"Point"},"properties":{"osm_id":"3060042780","tag":{"amenity":"waste_basket"}},"type":"Feature"},
	{"geometry":{"coordinates":[20.93935,52.332385],"type":"Point"},"properties":{"osm_id":"3060592345","tag":{"amenity":"waste_basket"}},"type":"Feature"},
	{"geometry":{"coordinates":[20.938538,52.332425],"type":"Point"},"properties":{"osm_id":"3060592352","tag":{"amenity":"waste_basket"}},"type":"Feature"},
	{"geometry":{"coordinates":[20.946383,52.325116],"type":"Point"},"properties":{"osm_id":"7485855595","tag":{"amenity":"waste_basket"}},"type":"Feature"},
	{"geometry":{"coordinates":[20.947959,52.325868],"type":"Point"},"properties":{"osm_id":"7485855617","tag":{"amenity":"waste_basket"}},"type":"Feature"},
	{"geometry":{"coordinates":[20.954034,52.344956],"type":"Point"},"properties":{"osm_id":"7707891487","tag":{"amenity":"recycling","recycling:clothes":"yes","recycling_type":"container"}},"type":"Feature"}
]
}
