{
"type": "FeatureCollection",
"features": [
	{"geometry":{"coordinates":[20.958803,52.313391],"type":"Point"},"properties":{"osm_id":"419282116","tag":{"amenity":"recycling"}},"type":"Feature"},
	{"geometry":{"coordinates":[20.960511,52.312808],"type":"Point"},"properties":{"osm_id":"1874156482","tag":{"amenity":"recycling"}},"type":"Feature"},
	{"geometry":{"coordinates":[20.978147,52.3176],"type":"Point"},"properties":{"osm_id":"2419861223","tag":{"amenity":"waste_basket"}},"type":"Feature"},
	{"geometry":{"coordinates":[20.974709,52.31651],"type":"Point"},"properties":{"osm_id":"2419861233","tag":{"amenity":"waste_basket"}},"type":"Feature"},
	{"geometry":{"coordinates":[20.969771,52.320006],"type":"Point"},"properties":{"osm_id":"2419861269","tag":{"amenity":"waste_basket"}},"type":"Feature"},
	{"geometry":{"coordinates":[20.969228,52.320346],"type":"Point"},"properties":{"osm_id":"2419861280","tag":{"amenity":"waste_basket"}},"type":"Feature"},
	{"geometry":{"coordinates":[20.96837,52.320942],"type":"Point"},"properties":{"osm_id":"2419861294","tag":{"amenity":"waste_basket"}},"type":"Feature"},
	{"geometry":{"coordinates":[20.972378,52.321193],"type":"Point"},"properties":{"osm_id":"2419861300","tag":{"amenity":"waste_basket"}},"type":"Feature"},
	{"geometry":{"coordinates":[20.961921,52.313536],"type":"Point"},"properties":{"osm_id":"2638930312","tag":{"amenity":"recycling"}},"type":"Feature"},
	{"geometry":{"coordinates":[20.950442,52.281175],"type":"Point"},"properties":{"osm_id":"3179087362","tag":{"amenity":"waste_basket"}},"type":"Feature"},
	{"geometry":{"coordinates":[20.950348,52.281206],"type":"Point"},"properties":{"osm_id":"3179087363","tag":{"amenity":"waste_basket"}},"type":"Feature"},
	{"geometry":{"coordinates":[20.950656,52.281347],"type":"Point"},"properties":{"osm_id":"3179087364","tag":{"amenity":"waste_basket"}},"type":"Feature"},
	{"geometry":{"coordinates":[20.950415,52.280633],"type":"Point"},"properties":{"osm_id":"3179087365","tag":{"amenity":"waste_basket"}},"type":"Feature"},
	{"geometry":{"coordinates":[20.961172,52.274238],"type":"Point"},"properties":{"osm_id":"3181074130","tag":{"amenity":"waste_basket"}},"type":"Feature"},
	{"geometry":{"coordinates":[20.951642,52.275636],"type":"Point"},"properties":{"osm_id":"3377117379","tag":{"entrance":"yes"}},"type":"Feature"},
	{"geometry":{"coordinates":[20.951662,52.275696],"type":"Point"},"properties":{"osm_id":"3377117382","tag":{"entrance":"yes"}},"type":"Feature"},
	{"geometry":{"coordinates":[20.934664,52.271107],"type":"Point"},"properties":{"osm_id":"3475496238","tag":{"amenity":"waste_basket"}},"type":"Feature"},
	{"geometry":{"coordinates":[20.959546,52.313152],"type":"Point"},"properties":{"osm_id":"3510874734","tag":{"amenity":"recycling"}},"type":"Feature"},
	{"geometry":{"coordinates":[20.978484,52.273968],"type":"Point"},"properties":{"osm_id":"3562213738","tag":{"entrance":"main"}},"type":"Feature"},
	{"geometry":{"coordinates":[20.971942,52.274448],"type":"Point"},"properties":{"barrier":"gate","osm_id":"4008047997"},"type":"Feature"},
	{"geometry":{"coordinates":[20.942862,52.275285],"type":"Point"},"properties":{"osm_id":"4051105645","tag":{"amenity":"waste_basket"}},"type":"Feature"},
	{"geometry":{"coordinates":[20.947608,52.277087],"type":"Point"},"properties":{"osm_id":"4052077001","tag":{"amenity":"waste_basket"}},"type":"Feature"},
	{"geometry":{"coordinates":[20.94789,52.277063],"type":"Point"},"properties":{"osm_id":"4052077002","tag":{"amenity":"waste_basket"}},"type":"Feature"},
	{"geometry":{"coordinates":[20.947373,52.276927],"type":"Point"},"properties":{"osm_id":"4052077003","tag":{"amenity":"waste_basket"}},"type":"Feature"},
	{"geometry":{"coordinates":[20.958818,52.277468],"type":"Point"},"properties":{"osm_id":"4261836173","tag":{"amenity":"waste_basket"}},"type":"Feature"},
	{"geometry":{"coordinates":[20.960293,52.317425],"type":"Point"},"properties":{"osm_id":"4336523397","tag":{"amenity":"waste_basket","source:position":"geoportal.gov.pl:ortofoto"}},"type":"Feature"},
	{"geometry":{"coordinates":[20.960845,52.317733],"type":"Point"},"properties":{"osm_id":"4353447692","tag":{"amenity":"waste_basket"}},"type":"Feature"},
	{"geometry":{"coordinates":[20.944242,52.270911],"type":"Point"},"properties":{"osm_id":"4498427600","tag":{"amenity":"waste_basket"}},"type":"Feature"},
	{"geometry":{"coordinates":[20.944293,52.271278],"type":"Point"},"properties":{"osm_id":"4498427605","tag":{"amenity":"waste_basket"}},"type":"Feature"},
	{"geometry":{"coordinates":[20.943938,52.27135],"type":"Point"},"properties":{"osm_id":"4498427617","tag":{"amenity":"waste_basket"}},"type":"Feature"},
	{"geometry":{"coordinates":[20.944064,52.271343],"type":"Point"},"properties":{"osm_id":"4498427629","tag":{"amenity":"waste_basket"}},"type":"Feature"},
	{"geometry":{"coordinates":[20.945119,52.271599],"type":"Point"},"properties":{"osm_id":"4498427639","tag":{"amenity":"waste_basket"}},"type":"Feature"},
	{"geometry":{"coordinates":[20.944364,52.271926],"type":"Point"},"properties":{"osm_id":"4498427654","tag":{"amenity":"waste_basket"}},"type":"Feature"},
	{"geometry":{"coordinates":[20.946006,52.271673],"type":"Point"},"properties":{"osm_id":"4498427655","tag":{"amenity":"waste_basket"}},"type":"Feature"},
	{"geometry":{"coordinates":[20.945513,52.271609],"type":"Point"},"properties":{"osm_id":"4498427656","tag":{"amenity":"waste_basket"}},"type":"Feature"},
	{"geometry":{"coordinates":[20.945419,52.271636],"type":"Point"},"properties":{"osm_id":"4498427657","tag":{"amenity":"waste_basket"}},"type":"Feature"},
	{"geometry":{"coordinates":[20.976045,52.281768],"type":"Point"},"properties":{"osm_id":"4834514522","tag":{"amenity":"waste_basket"}},"type":"Feature"},
	{"geometry":{"coordinates":[20.978314,52.281359],"type":"Point"},"properties":{"osm_id":"4834531321","tag":{"amenity":"waste_basket"}},"type":"Feature"},
	{"geometry":{"coordinates":[20.974842,52.281638],"type":"Point"},"properties":{"osm_id":"4834605682","tag":{"amenity":"waste_basket"}},"type":"Feature"},
	{"geometry":{"coordinates":[20.975862,52.281751],"type":"Point"},"properties":{"osm_id":"4834683654","tag":{"amenity":"waste_basket"}},"type":"Feature"},
	{"geometry":{"coordinates":[20.975594,52.281717],"type":"Point"},"properties":{"osm_id":"4834683655","tag":{"amenity":"waste_basket"}},"type":"Feature"},
	{"geometry":{"coordinates":[20.976157,52.281573],"type":"Point"},"properties":{"osm_id":"4834683657","tag":{"amenity":"waste_basket"}},"type":"Feature"},
	{"geometry":{"coordinates":[20.975869,52.282301],"type":"Point"},"properties":{"osm_id":"4834683658","tag":{"amenity":"waste_basket"}},"type":"Feature"},
	{"geometry":{"coordinates":[20.977968,52.282509],"type":"Point"},"properties":{"osm_id":"4834683674","tag":{"amenity":"waste_basket"}},"type":"Feature"},
	{"geometry":{"coordinates":[20.978204,52.282533],"type":"Point"},"properties":{"osm_id":"4834683676","tag":{"amenity":"waste_basket"}},"type":"Feature"},
	{"geometry":{"coordinates":[20.97809,52.282144],"type":"Point"},"properties":{"osm_id":"4836929474","tag":{"amenity":"waste_basket"}},"type":"Feature"},
	{"geometry":{"coordinates":[20.978731,52.281516],"type":"Point"},"properties":{"osm_id":"4841084881","tag":{"amenity":"waste_basket"}},"type":"Feature"},
	{"geometry":{"coordinates":[20.980188,52.281631],"type":"Point"},"properties":{"osm_id":"4841377028","tag":{"amenity":"waste_basket"}},"type":"Feature"},
	{"geometry":{"coordinates":[20.979884,52.281659],"type":"Point"},"properties":{"osm_id":"4841377037","tag":{"amenity":"waste_basket"}},"type":"Feature"},
	{"geometry":{"coordinates":[20.980133,52.281396],"type":"Point"},"properties":{"osm_id":"4841377042","tag":{"amenity":"waste_basket"}},"type":"Feature"},
	{"geometry":{"coordinates":[20.980116,52.281321],"type":"Point"},"properties":{"osm_id":"4841377043","tag":{"amenity":"waste_basket"}},"type":"Feature"},
	{"geometry":{"coordinates":[20.980259,52.281181],"type":"Point"},"properties":{"osm_id":"4841377049","tag":{"amenity":"waste_basket"}},"type":"Feature"},
	{"geometry":{"coordinates":[20.979472,52.281574],"type":"Point"},"properties":{"osm_id":"4841377061","tag":{"amenity":"waste_basket"}},"type":"Feature"},
	{"geometry":{"coordinates":[20.979629,52.281513],"type":"Point"},"properties":{"osm_id":"4841377064","tag":{"amenity":"waste_basket"}},"type":"Feature"},
	{"geometry":{"coordinates":[20.978262,52.281832],"type":"Point"},"properties":{"osm_id":"4875344921","tag":{"amenity":"waste_basket"}},"type":"Feature"},
	{"geometry":{"coordinates":[20.978245,52.28177],"type":"Point"},"properties":{"osm_id":"4875345021","tag":{"amenity":"waste_basket"}},"type":"Feature"},
	{"geometry":{"coordinates":[20.975544,52.282081],"type":"Point"},"properties":{"osm_id":"4875878986","tag":{"amenity":"waste_basket"}},"type":"Feature"},
	{"geometry":{"coordinates":[20.974667,52.281481],"type":"Point"},"properties":{"osm_id":"4889695307","tag":{"amenity":"waste_basket"}},"type":"Feature"},
	{"geometry":{"coordinates":[20.975798,52.281257],"type":"Point"},"properties":{"osm_id":"4892525419","tag":{"amenity":"waste_basket"}},"type":"Feature"},
	{"geometry":{"coordinates":[20.975946,52.280963],"type":"Point"},"properties":{"osm_id":"4892525420","tag":{"amenity":"waste_basket"}},"type":"Feature"},
	{"geometry":{"coordinates":[20.976336,52.280477],"type":"Point"},"properties":{"osm_id":"4894029157","tag":{"amenity":"waste_basket"}},"type":"Feature"},
	{"geometry":{"coordinates":[20.978948,52.281588],"type":"Point"},"properties":{"osm_id":"4912617885","tag":{"amenity":"waste_basket"}},"type":"Feature"},
	{"geometry":{"coordinates":[20.9785,52.280086],"type":"Point"},"properties":{"osm_id":"5462145840","tag":{"amenity":"waste_basket"}},"type":"Feature"},
	{"geometry":{"coordinates":[20.976381,52.281277],"type":"Point"},"properties":{"osm_id":"5462193510","tag":{"amenity":"waste_basket"}},"type":"Feature"},
	{"geometry":{"coordinates":[20.976089,52.281251],"type":"Point"},"properties":{"osm_id":"5462197211","tag":{"amenity":"waste_basket"}},"type":"Feature"},
	{"geometry":{"coordinates":[20.978162,52.28111],"type":"Point"},"properties":{"osm_id":"5619917969","tag":{"amenity":"waste_basket","waste":"trash"}},"type":"Feature"},
	{"geometry":{"coordinates":[20.978202,52.280954],"type":"Point"},"properties":{"osm_id":"5619917975","tag":{"amenity":"waste_basket","waste":"trash"}},"type":"Feature"},
	{"geometry":{"coordinates":[20.979475,52.282932],"type":"Point"},"properties":{"osm_id":"5684659795","tag":{"amenity":"waste_basket"}},"type":"Feature"},
	{"geometry":{"coordinates":[20.976454,52.281146],"type":"Point"},"properties":{"osm_id":"5693784470","tag":{"amenity":"waste_basket","waste":"trash"}},"type":"Feature"},
	{"geometry":{"coordinates":[20.978667,52.283678],"type":"Point"},"properties":{"osm_id":"5696867627","tag":{"amenity":"waste_basket"}},"type":"Feature"},
	{"geometry":{"coordinates":[20.978773,52.283311],"type":"Point"},"properties":{"osm_id":"5696867629","tag":{"amenity":"waste_basket"}},"type":"Feature"},
	{"geometry":{"coordinates":[20.980722,52.276495],"type":"Point"},"properties":{"name":"Zbi\u00c3\u00b3rka odzie\u00c5\u00bcy u\u00c5\u00bcywanej","osm_id":"5779306532","tag":{"amenity":"recycling","recycling:clothes":"yes","recycling:shoes":"yes","recycling:textiles":"yes","recycling_type":"container"}},"type":"Feature"},
	{"geometry":{"coordinates":[20.980739,52.276476],"type":"Point"},"properties":{"name":"Zbi\u00c3\u00b3rka odzie\u00c5\u00bcy u\u00c5\u00bcywanej","osm_id":"5779306533","tag":{"amenity":"recycling","recycling:clothes":"yes","recycling:shoes":"yes","recycling:textiles":"yes","recycling_type":"container"}},"type":"Feature"},
	{"geometry":{"coordinates":[20.979982,52.277396],"type":"Point"},"properties":{"name":"Zbi\u00c3\u00b3rka odzie\u00c5\u00bcy u\u00c5\u00bcywanej","osm_id":"5779306534","tag":{"amenity":"recycling","recycling:clothes":"yes","recycling:shoes":"yes","recycling:textiles":"yes","recycling_type":"container"}},"type":"Feature"},
	{"geometry":{"coordinates":[20.979966,52.277415],"type":"Point"},"properties":{"name":"Zbi\u00c3\u00b3rka odzie\u00c5\u00bcy u\u00c5\u00bcywanej","osm_id":"5779306535","tag":{"amenity":"recycling","recycling:clothes":"yes","recycling:shoes":"yes","recycling:textiles":"yes","recycling_type":"container"}},"type":"Feature"},
	{"geometry":{"coordinates":[20.97995,52.277436],"type":"Point"},"properties":{"name":"Zbi\u00c3\u00b3rka odzie\u00c5\u00bcy u\u00c5\u00bcywanej","osm_id":"5779306536","tag":{"amenity":"recycling","recycling:clothes":"yes","recycling:shoes":"yes","recycling:textiles":"yes","recycling_type":"container"}},"type":"Feature"},
	{"geometry":{"coordinates":[20.979433,52.278276],"type":"Point"},"properties":{"name":"Zbi\u00c3\u00b3rka odzie\u00c5\u00bcy u\u00c5\u00bcywanej","osm_id":"5779306537","tag":{"amenity":"recycling","operator":"Polski Czerwony Krzy\u00c5\u00bc","recycling:clothes":"yes","recycling:shoes":"yes","recycling:textiles":"yes","recycling_type":"container"}},"type":"Feature"},
	{"geometry":{"coordinates":[20.981965,52.275896],"type":"Point"},"properties":{"name":"Zbi\u00c3\u00b3rka odzie\u00c5\u00bcy u\u00c5\u00bcywanej","osm_id":"5779324807","tag":{"amenity":"recycling","recycling:clothes":"yes","recycling:shoes":"yes","recycling:textiles":"yes","recycling_type":"container"}},"type":"Feature"},
	{"geometry":{"coordinates":[20.981973,52.275902],"type":"Point"},"properties":{"name":"Zbi\u00c3\u00b3rka odzie\u00c5\u00bcy u\u00c5\u00bcywanej","osm_id":"5779324808","tag":{"amenity":"recycling","recycling:clothes":"yes","recycling:shoes":"yes","recycling:textiles":"yes","recycling_type":"container"}},"type":"Feature"},
	{"geometry":{"coordinates":[20.991289,52.268294],"type":"Point"},"properties":{"osm_id":"6086989027","tag":{"amenity":"waste_basket"}},"type":"Feature"},
	{"geometry":{"coordinates":[20.927794,52.319966],"type":"Point"},"properties":{"osm_id":"6203752197","tag":{"amenity":"waste_basket"}},"type":"Feature"},
	{"geometry":{"coordinates":[20.92775,52.319988],"type":"Point"},"properties":{"osm_id":"6203752198","tag":{"amenity":"waste_basket"}},"type":"Feature"},
	{"geometry":{"coordinates":[20.927642,52.320031],"type":"Point"},"properties":{"osm_id":"6203752201","tag":{"amenity":"waste_basket"}},"type":"Feature"},
	{"geometry":{"coordinates":[20.927703,52.320003],"type":"Point"},"properties":{"osm_id":"6203752202","tag":{"amenity":"waste_basket"}},"type":"Feature"},
	{"geometry":{"coordinates":[20.927626,52.320082],"type":"Point"},"properties":{"osm_id":"6203752205","tag":{"amenity":"waste_basket"}},"type":"Feature"},
	{"geometry":{"coordinates":[20.927607,52.320118],"type":"Point"},"properties":{"osm_id":"6203752206","tag":{"amenity":"waste_basket"}},"type":"Feature"},
	{"geometry":{"coordinates":[20.927105,52.320248],"type":"Point"},"properties":{"osm_id":"6203752209","tag":{"amenity":"waste_basket"}},"type":"Feature"},
	{"geometry":{"coordinates":[20.927164,52.320227],"type":"Point"},"properties":{"osm_id":"6203752210","tag":{"amenity":"waste_basket"}},"type":"Feature"},
	{"geometry":{"coordinates":[20.978412,52.285349],"type":"Point"},"properties":{"osm_id":"6204187712","tag":{"amenity":"waste_basket","waste":"trash"}},"type":"Feature"},
	{"geometry":{"coordinates":[20.978395,52.285369],"type":"Point"},"properties":{"osm_id":"6204187713","tag":{"amenity":"waste_basket","waste":"trash"}},"type":"Feature"},
	{"geometry":{"coordinates":[20.978232,52.288113],"type":"Point"},"properties":{"osm_id":"6402528145","tag":{"amenity":"waste_basket"}},"type":"Feature"},
	{"geometry":{"coordinates":[20.97818,52.288569],"type":"Point"},"properties":{"osm_id":"6402528371","tag":{"amenity":"waste_basket"}},"type":"Feature"},
	{"geometry":{"coordinates":[20.970764,52.285224],"type":"Point"},"properties":{"osm_id":"6402996550","tag":{"amenity":"waste_basket"}},"type":"Feature"},
	{"geometry":{"coordinates":[20.993688,52.275295],"type":"Point"},"properties":{"osm_id":"6403010497","tag":{"amenity":"waste_basket"}},"type":"Feature"},
	{"geometry":{"coordinates":[20.994198,52.274952],"type":"Point"},"properties":{"osm_id":"6403010498","tag":{"amenity":"waste_basket"}},"type":"Feature"},
	{"geometry":{"coordinates":[20.99481,52.274308],"type":"Point"},"properties":{"osm_id":"6403010501","tag":{"amenity":"waste_basket"}},"type":"Feature"},
	{"geometry":{"coordinates":[20.979473,52.286369],"type":"Point"},"properties":{"osm_id":"6404109158","tag":{"amenity":"waste_basket"}},"type":"Feature"},
	{"geometry":{"coordinates":[20.978848,52.287302],"type":"Point"},"properties":{"osm_id":"6404109166","tag":{"amenity":"waste_basket"}},"type":"Feature"},
	{"geometry":{"coordinates":[20.977595,52.287741],"type":"Point"},"properties":{"osm_id":"6404109169","tag":{"amenity":"waste_basket"}},"type":"Feature"},
	{"geometry":{"coordinates":[20.978752,52.286563],"type":"Point"},"properties":{"osm_id":"6404109176","tag":{"amenity":"waste_basket"}},"type":"Feature"},
	{"geometry":{"coordinates":[20.976843,52.288846],"type":"Point"},"properties":{"osm_id":"6404126302","tag":{"amenity":"waste_basket"}},"type":"Feature"},
	{"geometry":{"coordinates":[20.977514,52.289374],"type":"Point"},"properties":{"osm_id":"6404126305","tag":{"amenity":"waste_basket"}},"type":"Feature"},
	{"geometry":{"coordinates":[20.977132,52.28939],"type":"Point"},"properties":{"osm_id":"6404126306","tag":{"amenity":"waste_basket"}},"type":"Feature"},
	{"geometry":{"coordinates":[20.993301,52.27591],"type":"Point"},"properties":{"osm_id":"6404130100","tag":{"amenity":"waste_basket"}},"type":"Feature"},
	{"geometry":{"coordinates":[20.989073,52.279378],"type":"Point"},"properties":{"osm_id":"6404130103","tag":{"amenity":"waste_basket"}},"type":"Feature"},
	{"geometry":{"coordinates":[20.977906,52.284597],"type":"Point"},"properties":{"osm_id":"6404138132","tag":{"amenity":"waste_basket"}},"type":"Feature"},
	{"geometry":{"coordinates":[20.977503,52.284084],"type":"Point"},"properties":{"osm_id":"6404138138","tag":{"amenity":"waste_basket"}},"type":"Feature"},
	{"geometry":{"coordinates":[20.977435,52.283704],"type":"Point"},"properties":{"osm_id":"6404138140","tag":{"amenity":"waste_basket"}},"type":"Feature"},
	{"geometry":{"coordinates":[20.976435,52.281059],"type":"Point"},"properties":{"osm_id":"6418533992","tag":{"amenity":"waste_basket"}},"type":"Feature"},
	{"geometry":{"coordinates":[20.975332,52.281301],"type":"Point"},"properties":{"osm_id":"6418536871","tag":{"amenity":"waste_basket"}},"type":"Feature"},
	{"geometry":{"coordinates":[20.976227,52.28085],"type":"Point"},"properties":{"osm_id":"6418955411","tag":{"amenity":"waste_basket"}},"type":"Feature"},
	{"geometry":{"coordinates":[20.990329,52.280416],"type":"Point"},"properties":{"osm_id":"6456269528","tag":{"amenity":"waste_basket"}},"type":"Feature"},
	{"geometry":{"coordinates":[20.976506,52.280365],"type":"Point"},"properties":{"osm_id":"6467004101","tag":{"amenity":"waste_basket"}},"type":"Feature"},
	{"geometry":{"coordinates":[20.978214,52.281317],"type":"Point"},"properties":{"osm_id":"6467004106","tag":{"amenity":"waste_basket","waste":"trash"}},"type":"Feature"},
	{"geometry":{"coordinates":[20.977404,52.280305],"type":"Point"},"properties":{"osm_id":"6467004115","tag":{"amenity":"waste_basket"}},"type":"Feature"},
	{"geometry":{"coordinates":[20.977503,52.279673],"type":"Point"},"properties":{"osm_id":"6467004121","tag":{"amenity":"waste_basket"}},"type":"Feature"},
	{"geometry":{"coordinates":[20.978618,52.281346],"type":"Point"},"properties":{"osm_id":"6468522276","tag":{"amenity":"waste_basket"}},"type":"Feature"},
	{"geometry":{"coordinates":[20.979283,52.280972],"type":"Point"},"properties":{"osm_id":"6468522279","tag":{"amenity":"waste_basket"}},"type":"Feature"},
	{"geometry":{"coordinates":[20.979059,52.281014],"type":"Point"},"properties":{"osm_id":"6468522280","tag":{"amenity":"waste_basket"}},"type":"Feature"},
	{"geometry":{"coordinates":[20.991323,52.278255],"type":"Point"},"properties":{"osm_id":"6469963714","tag":{"amenity":"waste_basket"}},"type":"Feature"},
	{"geometry":{"coordinates":[20.991152,52.279067],"type":"Point"},"properties":{"osm_id":"6469963717","tag":{"amenity":"waste_basket"}},"type":"Feature"},
	{"geometry":{"coordinates":[20.990842,52.277562],"type":"Point"},"properties":{"osm_id":"6469963749","tag":{"amenity":"waste_basket"}},"type":"Feature"},
	{"geometry":{"coordinates":[20.991122,52.279598],"type":"Point"},"properties":{"osm_id":"6469963780","tag":{"amenity":"waste_basket"}},"type":"Feature"},
	{"geometry":{"coordinates":[20.989797,52.279728],"type":"Point"},"properties":{"osm_id":"6469963782","tag":{"amenity":"waste_basket"}},"type":"Feature"},
	{"geometry":{"coordinates":[20.990519,52.278275],"type":"Point"},"properties":{"osm_id":"6469965587","tag":{"amenity":"waste_basket"}},"type":"Feature"},
	{"geometry":{"coordinates":[20.990672,52.277932],"type":"Point"},"properties":{"osm_id":"6469965590","tag":{"amenity":"waste_basket"}},"type":"Feature"},
	{"geometry":{"coordinates":[20.990354,52.278627],"type":"Point"},"properties":{"osm_id":"6469965600","tag":{"amenity":"waste_basket"}},"type":"Feature"},
	{"geometry":{"coordinates":[20.992017,52.275226],"type":"Point"},"properties":{"osm_id":"6472664902","tag":{"amenity":"waste_basket"}},"type":"Feature"},
	{"geometry":{"coordinates":[20.990485,52.276715],"type":"Point"},"properties":{"osm_id":"6472664906","tag":{"amenity":"waste_basket"}},"type":"Feature"},
	{"geometry":{"coordinates":[20.989368,52.278605],"type":"Point"},"properties":{"osm_id":"6472664909","tag":{"amenity":"waste_basket"}},"type":"Feature"},
	{"geometry":{"coordinates":[20.989427,52.278362],"type":"Point"},"properties":{"osm_id":"6472664910","tag":{"amenity":"waste_basket"}},"type":"Feature"},
	{"geometry":{"coordinates":[20.989231,52.279247],"type":"Point"},"properties":{"osm_id":"6472664913","tag":{"amenity":"waste_basket"}},"type":"Feature"},
	{"geometry":{"coordinates":[20.983393,52.28287],"type":"Point"},"properties":{"osm_id":"6472664947","tag":{"amenity":"waste_basket"}},"type":"Feature"},
	{"geometry":{"coordinates":[20.943478,52.273974],"type":"Point"},"properties":{"osm_id":"6689841962","tag":{"amenity":"waste_basket","waste":"trash"}},"type":"Feature"},
	{"geometry":{"coordinates":[20.982763,52.269895],"type":"Point"},"properties":{"osm_id":"6864479666","tag":{"amenity":"waste_basket"}},"type":"Feature"},
	{"geometry":{"coordinates":[20.982524,52.269943],"type":"Point"},"properties":{"osm_id":"6864479667","tag":{"amenity":"waste_basket"}},"type":"Feature"},
	{"geometry":{"coordinates":[20.948752,52.297876],"type":"Point"},"properties":{"osm_id":"6883259823","tag":{"amenity":"waste_basket"}},"type":"Feature"},
	{"geometry":{"coordinates":[20.948932,52.297635],"type":"Point"},"properties":{"osm_id":"6883259825","tag":{"amenity":"waste_basket"}},"type":"Feature"},
	{"geometry":{"coordinates":[20.949315,52.297174],"type":"Point"},"properties":{"osm_id":"6883259826","tag":{"amenity":"waste_basket"}},"type":"Feature"},
	{"geometry":{"coordinates":[20.9493,52.296856],"type":"Point"},"properties":{"osm_id":"6883259827","tag":{"amenity":"waste_basket"}},"type":"Feature"},
	{"geometry":{"coordinates":[20.978196,52.288342],"type":"Point"},"properties":{"osm_id":"7146485877","tag":{"amenity":"waste_basket"}},"type":"Feature"},
	{"geometry":{"coordinates":[20.981904,52.2832],"type":"Point"},"properties":{"osm_id":"7196192516","tag":{"amenity":"waste_basket"}},"type":"Feature"},
	{"geometry":{"coordinates":[20.981084,52.283778],"type":"Point"},"properties":{"osm_id":"7196192523","tag":{"amenity":"waste_basket"}},"type":"Feature"},
	{"geometry":{"coordinates":[20.973982,52.279568],"type":"Point"},"properties":{"osm_id":"7196192576","tag":{"amenity":"waste_basket"}},"type":"Feature"},
	{"geometry":{"coordinates":[20.973115,52.279396],"type":"Point"},"properties":{"osm_id":"7196192577","tag":{"amenity":"waste_basket"}},"type":"Feature"},
	{"geometry":{"coordinates":[20.972556,52.283474],"type":"Point"},"properties":{"osm_id":"7196211334","tag":{"amenity":"waste_basket"}},"type":"Feature"},
	{"geometry":{"coordinates":[20.972577,52.283265],"type":"Point"},"properties":{"osm_id":"7196211335","tag":{"amenity":"waste_basket"}},"type":"Feature"},
	{"geometry":{"coordinates":[20.978355,52.287727],"type":"Point"},"properties":{"osm_id":"7196262933","tag":{"amenity":"waste_basket"}},"type":"Feature"},
	{"geometry":{"coordinates":[20.978127,52.288911],"type":"Point"},"properties":{"osm_id":"7196262936","tag":{"amenity":"waste_basket"}},"type":"Feature"},
	{"geometry":{"coordinates":[20.976956,52.289318],"type":"Point"},"properties":{"osm_id":"7196262945","tag":{"amenity":"waste_basket"}},"type":"Feature"},
	{"geometry":{"coordinates":[20.97677,52.288948],"type":"Point"},"properties":{"osm_id":"7196262948","tag":{"amenity":"waste_basket"}},"type":"Feature"},
	{"geometry":{"coordinates":[20.977044,52.288591],"type":"Point"},"properties":{"osm_id":"7196262951","tag":{"amenity":"waste_basket"}},"type":"Feature"},
	{"geometry":{"coordinates":[20.977278,52.288457],"type":"Point"},"properties":{"osm_id":"7196262953","tag":{"amenity":"waste_basket"}},"type":"Feature"},
	{"geometry":{"coordinates":[20.977453,52.288132],"type":"Point"},"properties":{"osm_id":"7196262955","tag":{"amenity":"waste_basket"}},"type":"Feature"},
	{"geometry":{"coordinates":[20.978338,52.287052],"type":"Point"},"properties":{"osm_id":"7196262963","tag":{"amenity":"waste_basket"}},"type":"Feature"},
	{"geometry":{"coordinates":[20.977948,52.28742],"type":"Point"},"properties":{"osm_id":"7196262964","tag":{"amenity":"waste_basket"}},"type":"Feature"},
	{"geometry":{"coordinates":[20.990496,52.279797],"type":"Point"},"properties":{"osm_id":"7284997167","tag":{"amenity":"waste_basket"}},"type":"Feature"},
	{"geometry":{"coordinates":[20.990395,52.279788],"type":"Point"},"properties":{"osm_id":"7284997168","tag":{"amenity":"waste_basket"}},"type":"Feature"},
	{"geometry":{"coordinates":[20.990283,52.279764],"type":"Point"},"properties":{"osm_id":"7284997169","tag":{"amenity":"waste_basket"}},"type":"Feature"},
	{"geometry":{"coordinates":[20.990206,52.279714],"type":"Point"},"properties":{"osm_id":"7284997170","tag":{"amenity":"waste_basket"}},"type":"Feature"},
	{"geometry":{"coordinates":[20.991256,52.280055],"type":"Point"},"properties":{"osm_id":"7285394437","tag":{"amenity":"waste_basket"}},"type":"Feature"},
	{"geometry":{"coordinates":[20.990979,52.280061],"type":"Point"},"properties":{"osm_id":"7285394438","tag":{"amenity":"waste_basket"}},"type":"Feature"},
	{"geometry":{"coordinates":[20.990858,52.279906],"type":"Point"},"properties":{"osm_id":"7285394443","tag":{"amenity":"waste_basket"}},"type":"Feature"},
	{"geometry":{"coordinates":[20.991279,52.279715],"type":"Point"},"properties":{"osm_id":"7285394444","tag":{"amenity":"waste_basket"}},"type":"Feature"},
	{"geometry":{"coordinates":[20.990697,52.279936],"type":"Point"},"properties":{"osm_id":"7285394451","tag":{"amenity":"waste_basket"}},"type":"Feature"},
	{"geometry":{"coordinates":[20.977074,52.281333],"type":"Point"},"properties":{"osm_id":"7532165980","tag":{"amenity":"waste_basket"}},"type":"Feature"},
	{"geometry":{"coordinates":[20.944748,52.291271],"type":"Point"},"properties":{"osm_id":"7553833385","tag":{"amenity":"waste_basket"}},"type":"Feature"}
]
}
