{
"type": "FeatureCollection",
"features": [
	{"geometry":{"coordinates":[20.921766,52.245057],"type":"Point"},"properties":{"osm_id":"1201392302","tag":{"amenity":"recycling","recycling:batteries":"no","recycling:glass":"yes","recycling:paper":"yes"}},"type":"Feature"},
	{"geometry":{"coordinates":[20.922647,52.245214],"type":"Point"},"properties":{"osm_id":"1201392309","tag":{"amenity":"recycling","recycling:glass":"yes","recycling:paper":"yes","recycling:plastic":"yes"}},"type":"Feature"},
	{"geometry":{"coordinates":[20.960954,52.232662],"type":"Point"},"properties":{"osm_id":"1774608764","tag":{"amenity":"waste_basket"}},"type":"Feature"},
	{"geometry":{"coordinates":[20.961144,52.232416],"type":"Point"},"properties":{"osm_id":"1774608766","tag":{"amenity":"waste_basket"}},"type":"Feature"},
	{"geometry":{"coordinates":[20.963627,52.232679],"type":"Point"},"properties":{"osm_id":"1774645925","tag":{"amenity":"waste_basket"}},"type":"Feature"},
	{"geometry":{"coordinates":[20.964802,52.233459],"type":"Point"},"properties":{"osm_id":"1774677104","tag":{"amenity":"waste_basket"}},"type":"Feature"},
	{"geometry":{"coordinates":[20.965516,52.233564],"type":"Point"},"properties":{"osm_id":"1774681998","tag":{"amenity":"waste_basket"}},"type":"Feature"},
	{"geometry":{"coordinates":[20.965763,52.233657],"type":"Point"},"properties":{"osm_id":"1774686446","tag":{"amenity":"waste_basket"}},"type":"Feature"},
	{"geometry":{"coordinates":[20.965669,52.233598],"type":"Point"},"properties":{"osm_id":"1774686448","tag":{"amenity":"waste_basket"}},"type":"Feature"},
	{"geometry":{"coordinates":[20.96604,52.233745],"type":"Point"},"properties":{"osm_id":"1774690878","tag":{"amenity":"waste_basket"}},"type":"Feature"},
	{"geometry":{"coordinates":[20.966315,52.233713],"type":"Point"},"properties":{"osm_id":"1774699847","tag":{"amenity":"waste_basket"}},"type":"Feature"},
	{"geometry":{"coordinates":[20.966574,52.233656],"type":"Point"},"properties":{"osm_id":"1774750550","tag":{"amenity":"waste_basket"}},"type":"Feature"},
	{"geometry":{"coordinates":[20.967837,52.233989],"type":"Point"},"properties":{"osm_id":"1774754695","tag":{"amenity":"waste_basket"}},"type":"Feature"},
	{"geometry":{"coordinates":[20.971376,52.234769],"type":"Point"},"properties":{"osm_id":"1774804322","tag":{"amenity":"waste_basket"}},"type":"Feature"},
	{"geometry":{"coordinates":[20.971506,52.234792],"type":"Point"},"properties":{"osm_id":"1774804326","tag":{"amenity":"waste_basket"}},"type":"Feature"},
	{"geometry":{"coordinates":[20.979365,52.236951],"type":"Point"},"properties":{"osm_id":"1774828731","tag":{"amenity":"waste_basket"}},"type":"Feature"},
	{"geometry":{"coordinates":[20.979794,52.236593],"type":"Point"},"properties":{"osm_id":"1774829521","tag":{"amenity":"waste_basket"}},"type":"Feature"},
	{"geometry":{"coordinates":[20.981193,52.237397],"type":"Point"},"properties":{"osm_id":"1774837417","tag":{"amenity":"waste_basket"}},"type":"Feature"},
	{"geometry":{"coordinates":[20.987392,52.239573],"type":"Point"},"properties":{"osm_id":"1774848706","tag":{"amenity":"waste_basket"}},"type":"Feature"},
	{"geometry":{"coordinates":[20.987494,52.239758],"type":"Point"},"properties":{"osm_id":"1774848707","tag":{"amenity":"waste_basket"}},"type":"Feature"},
	{"geometry":{"coordinates":[20.986869,52.239904],"type":"Point"},"properties":{"osm_id":"1774850937","tag":{"amenity":"waste_basket"}},"type":"Feature"},
	{"geometry":{"coordinates":[20.987143,52.239988],"type":"Point"},"properties":{"osm_id":"1774850939","tag":{"amenity":"waste_basket"}},"type":"Feature"},
	{"geometry":{"coordinates":[20.987486,52.240118],"type":"Point"},"properties":{"osm_id":"1774851334","tag":{"amenity":"recycling"}},"type":"Feature"},
	{"geometry":{"coordinates":[20.992067,52.241734],"type":"Point"},"properties":{"osm_id":"1774862450","tag":{"amenity":"waste_basket"}},"type":"Feature"},
	{"geometry":{"coordinates":[20.9937,52.242174],"type":"Point"},"properties":{"osm_id":"1774870013","tag":{"amenity":"waste_basket"}},"type":"Feature"},
	{"geometry":{"coordinates":[20.993873,52.242162],"type":"Point"},"properties":{"osm_id":"1774870015","tag":{"amenity":"waste_basket"}},"type":"Feature"},
	{"geometry":{"coordinates":[20.996315,52.239043],"type":"Point"},"properties":{"osm_id":"1775042310","tag":{"amenity":"waste_basket"}},"type":"Feature"},
	{"geometry":{"coordinates":[20.996643,52.237715],"type":"Point"},"properties":{"osm_id":"1775050699","tag":{"amenity":"waste_basket"}},"type":"Feature"},
	{"geometry":{"coordinates":[20.996603,52.237811],"type":"Point"},"properties":{"osm_id":"1775050706","tag":{"amenity":"waste_basket"}},"type":"Feature"},
	{"geometry":{"coordinates":[21.003032,52.237451],"type":"Point"},"properties":{"osm_id":"1775070779","tag":{"amenity":"waste_basket"}},"type":"Feature"},
	{"geometry":{"coordinates":[20.998714,52.233565],"type":"Point"},"properties":{"osm_id":"1775081046","tag":{"amenity":"waste_basket"}},"type":"Feature"},
	{"geometry":{"coordinates":[20.961254,52.232967],"type":"Point"},"properties":{"osm_id":"1775389541","tag":{"amenity":"waste_basket"}},"type":"Feature"},
	{"geometry":{"coordinates":[20.961238,52.232622],"type":"Point"},"properties":{"osm_id":"1775391313","tag":{"amenity":"waste_basket"}},"type":"Feature"},
	{"geometry":{"coordinates":[20.96329,52.233215],"type":"Point"},"properties":{"osm_id":"1775402394","tag":{"amenity":"waste_basket"}},"type":"Feature"},
	{"geometry":{"coordinates":[20.963926,52.233312],"type":"Point"},"properties":{"osm_id":"1775405499","tag":{"amenity":"waste_basket"}},"type":"Feature"},
	{"geometry":{"coordinates":[21.003699,52.231017],"type":"Point"},"properties":{"osm_id":"1775421415","tag":{"amenity":"waste_disposal"}},"type":"Feature"},
	{"geometry":{"coordinates":[21.00339,52.229178],"type":"Point"},"properties":{"osm_id":"1775444600","tag":{"amenity":"waste_basket","level":"0"}},"type":"Feature"},
	{"geometry":{"coordinates":[21.002965,52.229091],"type":"Point"},"properties":{"osm_id":"1775444613","tag":{"amenity":"waste_basket","level":"0"}},"type":"Feature"},
	{"geometry":{"coordinates":[21.002794,52.228639],"type":"Point"},"properties":{"osm_id":"1775475187","tag":{"amenity":"waste_basket","level":"0"}},"type":"Feature"},
	{"geometry":{"coordinates":[21.003236,52.22857],"type":"Point"},"properties":{"osm_id":"1775483818","tag":{"amenity":"waste_basket","level":"0"}},"type":"Feature"},
	{"geometry":{"coordinates":[21.003047,52.228533],"type":"Point"},"properties":{"osm_id":"1775483823","tag":{"amenity":"waste_basket","level":"0"}},"type":"Feature"},
	{"geometry":{"coordinates":[21.003357,52.228597],"type":"Point"},"properties":{"osm_id":"1775488119","tag":{"amenity":"waste_basket","level":"0"}},"type":"Feature"},
	{"geometry":{"coordinates":[21.003521,52.228632],"type":"Point"},"properties":{"osm_id":"1775489267","tag":{"amenity":"waste_basket","level":"0"}},"type":"Feature"},
	{"geometry":{"coordinates":[21.003791,52.2287],"type":"Point"},"properties":{"osm_id":"1775495527","tag":{"amenity":"waste_basket","level":"0"}},"type":"Feature"},
	{"geometry":{"coordinates":[20.964837,52.221391],"type":"Point"},"properties":{"osm_id":"1775822685","tag":{"amenity":"waste_basket"}},"type":"Feature"},
	{"geometry":{"coordinates":[21.002262,52.244795],"type":"Point"},"properties":{"osm_id":"1777805486","tag":{"amenity":"waste_basket"}},"type":"Feature"},
	{"geometry":{"coordinates":[20.994611,52.242066],"type":"Point"},"properties":{"osm_id":"1777807915","tag":{"amenity":"waste_basket"}},"type":"Feature"},
	{"geometry":{"coordinates":[20.994692,52.242099],"type":"Point"},"properties":{"osm_id":"1777807916","tag":{"amenity":"waste_basket"}},"type":"Feature"},
	{"geometry":{"coordinates":[20.988331,52.225573],"type":"Point"},"properties":{"osm_id":"1777824393","tag":{"amenity":"waste_basket","layer":"1"}},"type":"Feature"},
	{"geometry":{"coordinates":[20.988598,52.225617],"type":"Point"},"properties":{"osm_id":"1777824394","tag":{"amenity":"waste_basket","layer":"1"}},"type":"Feature"},
	{"geometry":{"coordinates":[20.98839,52.225496],"type":"Point"},"properties":{"osm_id":"1777824395","tag":{"amenity":"waste_basket","layer":"1"}},"type":"Feature"},
	{"geometry":{"coordinates":[20.988657,52.225546],"type":"Point"},"properties":{"osm_id":"1777824403","tag":{"amenity":"waste_basket","layer":"1"}},"type":"Feature"},
	{"geometry":{"coordinates":[20.988223,52.226538],"type":"Point"},"properties":{"osm_id":"1777824858","tag":{"amenity":"waste_disposal"}},"type":"Feature"},
	{"geometry":{"coordinates":[20.988204,52.226558],"type":"Point"},"properties":{"osm_id":"1777824859","tag":{"amenity":"waste_basket"}},"type":"Feature"},
	{"geometry":{"coordinates":[20.988392,52.22632],"type":"Point"},"properties":{"osm_id":"1777825649","tag":{"amenity":"waste_basket"}},"type":"Feature"},
	{"geometry":{"coordinates":[20.988345,52.226393],"type":"Point"},"properties":{"osm_id":"1777825652","tag":{"amenity":"waste_basket"}},"type":"Feature"},
	{"geometry":{"coordinates":[20.987308,52.22759],"type":"Point"},"properties":{"osm_id":"1777827698","tag":{"amenity":"waste_basket"}},"type":"Feature"},
	{"geometry":{"coordinates":[20.987531,52.227969],"type":"Point"},"properties":{"osm_id":"1777830041","tag":{"amenity":"waste_basket"}},"type":"Feature"},
	{"geometry":{"coordinates":[20.928535,52.22318],"type":"Point"},"properties":{"osm_id":"1788564989","tag":{"amenity":"waste_basket"}},"type":"Feature"},
	{"geometry":{"coordinates":[20.929082,52.223385],"type":"Point"},"properties":{"osm_id":"1788564991","tag":{"amenity":"waste_basket"}},"type":"Feature"},
	{"geometry":{"coordinates":[20.92938,52.223414],"type":"Point"},"properties":{"osm_id":"1788564993","tag":{"amenity":"waste_disposal"}},"type":"Feature"},
	{"geometry":{"coordinates":[20.929676,52.223466],"type":"Point"},"properties":{"osm_id":"1788565001","tag":{"amenity":"waste_basket"}},"type":"Feature"},
	{"geometry":{"coordinates":[20.92835,52.223134],"type":"Point"},"properties":{"osm_id":"1788565002","tag":{"amenity":"waste_basket"}},"type":"Feature"},
	{"geometry":{"coordinates":[20.929402,52.22369],"type":"Point"},"properties":{"osm_id":"1788571344","tag":{"amenity":"waste_basket"}},"type":"Feature"},
	{"geometry":{"coordinates":[20.92926,52.223404],"type":"Point"},"properties":{"osm_id":"1788571345","tag":{"amenity":"waste_basket"}},"type":"Feature"},
	{"geometry":{"coordinates":[20.929172,52.223502],"type":"Point"},"properties":{"osm_id":"1788571346","tag":{"amenity":"waste_basket"}},"type":"Feature"},
	{"geometry":{"coordinates":[20.92842,52.223756],"type":"Point"},"properties":{"osm_id":"1793074845","tag":{"amenity":"waste_basket"}},"type":"Feature"},
	{"geometry":{"coordinates":[20.960628,52.232201],"type":"Point"},"properties":{"osm_id":"1793086812","tag":{"amenity":"waste_basket"}},"type":"Feature"},
	{"geometry":{"coordinates":[20.986809,52.222832],"type":"Point"},"properties":{"osm_id":"1795354138","tag":{"amenity":"waste_basket"}},"type":"Feature"},
	{"geometry":{"coordinates":[20.983346,52.219182],"type":"Point"},"properties":{"osm_id":"1795393635","tag":{"amenity":"waste_basket"}},"type":"Feature"},
	{"geometry":{"coordinates":[20.983191,52.218958],"type":"Point"},"properties":{"osm_id":"1795393637","tag":{"amenity":"waste_basket"}},"type":"Feature"},
	{"geometry":{"coordinates":[20.984054,52.218759],"type":"Point"},"properties":{"osm_id":"1795404461","tag":{"amenity":"waste_basket"}},"type":"Feature"},
	{"geometry":{"coordinates":[20.983519,52.218812],"type":"Point"},"properties":{"osm_id":"1795404471","tag":{"amenity":"waste_basket"}},"type":"Feature"},
	{"geometry":{"coordinates":[20.983809,52.218918],"type":"Point"},"properties":{"osm_id":"1795404493","tag":{"amenity":"waste_basket"}},"type":"Feature"},
	{"geometry":{"coordinates":[21.00067,52.228888],"type":"Point"},"properties":{"osm_id":"2454271759","tag":{"amenity":"waste_basket"}},"type":"Feature"},
	{"geometry":{"coordinates":[21.001223,52.227273],"type":"Point"},"properties":{"osm_id":"2455632606","tag":{"amenity":"waste_basket"}},"type":"Feature"},
	{"geometry":{"coordinates":[21.001215,52.22733],"type":"Point"},"properties":{"osm_id":"2455632638","tag":{"amenity":"waste_basket"}},"type":"Feature"},
	{"geometry":{"coordinates":[21.000113,52.226562],"type":"Point"},"properties":{"osm_id":"2456402752","tag":{"amenity":"waste_basket"}},"type":"Feature"},
	{"geometry":{"coordinates":[21.000115,52.226611],"type":"Point"},"properties":{"osm_id":"2456402753","tag":{"amenity":"waste_basket"}},"type":"Feature"},
	{"geometry":{"coordinates":[21.000061,52.226649],"type":"Point"},"properties":{"osm_id":"2456402754","tag":{"amenity":"waste_basket"}},"type":"Feature"},
	{"geometry":{"coordinates":[21.00005,52.226724],"type":"Point"},"properties":{"osm_id":"2456402755","tag":{"amenity":"waste_basket"}},"type":"Feature"},
	{"geometry":{"coordinates":[20.999996,52.22676],"type":"Point"},"properties":{"osm_id":"2456402757","tag":{"amenity":"waste_basket"}},"type":"Feature"},
	{"geometry":{"coordinates":[21.000005,52.226811],"type":"Point"},"properties":{"osm_id":"2456402761","tag":{"amenity":"waste_basket"}},"type":"Feature"},
	{"geometry":{"coordinates":[20.918522,52.227358],"type":"Point"},"properties":{"osm_id":"2716206819","tag":{"amenity":"recycling"}},"type":"Feature"},
	{"geometry":{"coordinates":[20.919295,52.229305],"type":"Point"},"properties":{"osm_id":"2718758430","tag":{"amenity":"recycling"}},"type":"Feature"},
	{"geometry":{"coordinates":[20.921026,52.224517],"type":"Point"},"properties":{"osm_id":"3063005622","tag":{"amenity":"waste_basket"}},"type":"Feature"},
	{"geometry":{"coordinates":[20.920807,52.22453],"type":"Point"},"properties":{"osm_id":"3063005625","tag":{"amenity":"waste_basket"}},"type":"Feature"},
	{"geometry":{"coordinates":[20.921005,52.224652],"type":"Point"},"properties":{"osm_id":"3063006207","tag":{"amenity":"waste_basket"}},"type":"Feature"},
	{"geometry":{"coordinates":[20.919784,52.224741],"type":"Point"},"properties":{"osm_id":"3063006755","tag":{"amenity":"waste_basket"}},"type":"Feature"},
	{"geometry":{"coordinates":[20.920812,52.224756],"type":"Point"},"properties":{"osm_id":"3063006766","tag":{"amenity":"waste_basket"}},"type":"Feature"},
	{"geometry":{"coordinates":[20.9198,52.224795],"type":"Point"},"properties":{"osm_id":"3063006789","tag":{"amenity":"waste_basket"}},"type":"Feature"},
	{"geometry":{"coordinates":[20.919262,52.224924],"type":"Point"},"properties":{"osm_id":"3063006817","tag":{"amenity":"waste_basket"}},"type":"Feature"},
	{"geometry":{"coordinates":[20.918713,52.225199],"type":"Point"},"properties":{"osm_id":"3063007275","tag":{"amenity":"waste_basket"}},"type":"Feature"},
	{"geometry":{"coordinates":[20.918772,52.225434],"type":"Point"},"properties":{"osm_id":"3063007324","tag":{"amenity":"waste_basket"}},"type":"Feature"},
	{"geometry":{"coordinates":[20.918597,52.225436],"type":"Point"},"properties":{"osm_id":"3063007325","tag":{"amenity":"waste_basket"}},"type":"Feature"},
	{"geometry":{"coordinates":[20.9181,52.225963],"type":"Point"},"properties":{"osm_id":"3063007764","tag":{"amenity":"waste_basket"}},"type":"Feature"},
	{"geometry":{"coordinates":[20.918482,52.220777],"type":"Point"},"properties":{"osm_id":"3063731383","tag":{"amenity":"waste_basket"}},"type":"Feature"},
	{"geometry":{"coordinates":[20.918205,52.22081],"type":"Point"},"properties":{"osm_id":"3063731384","tag":{"amenity":"waste_basket"}},"type":"Feature"},
	{"geometry":{"coordinates":[20.923722,52.221677],"type":"Point"},"properties":{"osm_id":"3064840402","tag":{"amenity":"waste_basket"}},"type":"Feature"},
	{"geometry":{"coordinates":[20.922407,52.221719],"type":"Point"},"properties":{"osm_id":"3064840410","tag":{"amenity":"waste_basket"}},"type":"Feature"},
	{"geometry":{"coordinates":[20.922373,52.22179],"type":"Point"},"properties":{"osm_id":"3064840418","tag":{"amenity":"waste_basket"}},"type":"Feature"},
	{"geometry":{"coordinates":[20.923208,52.222098],"type":"Point"},"properties":{"osm_id":"3064872085","tag":{"amenity":"waste_basket"}},"type":"Feature"},
	{"geometry":{"coordinates":[20.918118,52.223768],"type":"Point"},"properties":{"osm_id":"3065171978","tag":{"amenity":"waste_basket"}},"type":"Feature"},
	{"geometry":{"coordinates":[20.91821,52.224121],"type":"Point"},"properties":{"osm_id":"3065172174","tag":{"amenity":"waste_basket"}},"type":"Feature"},
	{"geometry":{"coordinates":[20.918783,52.224248],"type":"Point"},"properties":{"osm_id":"3065172223","tag":{"amenity":"waste_basket"}},"type":"Feature"},
	{"geometry":{"coordinates":[20.918079,52.224424],"type":"Point"},"properties":{"osm_id":"3065172516","tag":{"amenity":"waste_basket"}},"type":"Feature"},
	{"geometry":{"coordinates":[20.920151,52.223261],"type":"Point"},"properties":{"osm_id":"3065373357","tag":{"amenity":"waste_basket"}},"type":"Feature"},
	{"geometry":{"coordinates":[20.919701,52.223782],"type":"Point"},"properties":{"osm_id":"3065373661","tag":{"amenity":"waste_basket"}},"type":"Feature"},
	{"geometry":{"coordinates":[20.919639,52.223898],"type":"Point"},"properties":{"osm_id":"3065373691","tag":{"amenity":"waste_basket"}},"type":"Feature"},
	{"geometry":{"coordinates":[20.920674,52.222847],"type":"Point"},"properties":{"osm_id":"3065409811","tag":{"amenity":"waste_basket"}},"type":"Feature"},
	{"geometry":{"coordinates":[20.921904,52.223455],"type":"Point"},"properties":{"osm_id":"3065413993","tag":{"amenity":"waste_basket"}},"type":"Feature"},
	{"geometry":{"coordinates":[20.922197,52.223485],"type":"Point"},"properties":{"osm_id":"3065414003","tag":{"amenity":"waste_basket"}},"type":"Feature"},
	{"geometry":{"coordinates":[20.921194,52.223669],"type":"Point"},"properties":{"osm_id":"3065414012","tag":{"amenity":"waste_basket"}},"type":"Feature"},
	{"geometry":{"coordinates":[20.921191,52.223739],"type":"Point"},"properties":{"osm_id":"3065414014","tag":{"amenity":"waste_basket"}},"type":"Feature"},
	{"geometry":{"coordinates":[20.921372,52.224002],"type":"Point"},"properties":{"osm_id":"3065414034","tag":{"amenity":"waste_basket"}},"type":"Feature"},
	{"geometry":{"coordinates":[20.921177,52.224017],"type":"Point"},"properties":{"osm_id":"3065414037","tag":{"amenity":"waste_basket"}},"type":"Feature"},
	{"geometry":{"coordinates":[20.921328,52.224105],"type":"Point"},"properties":{"osm_id":"3065414056","tag":{"amenity":"waste_basket"}},"type":"Feature"},
	{"geometry":{"coordinates":[20.921511,52.224225],"type":"Point"},"properties":{"osm_id":"3065414081","tag":{"amenity":"waste_basket"}},"type":"Feature"},
	{"geometry":{"coordinates":[20.952435,52.244445],"type":"Point"},"properties":{"osm_id":"3369726015","tag":{"amenity":"waste_basket"}},"type":"Feature"},
	{"geometry":{"coordinates":[20.951943,52.244577],"type":"Point"},"properties":{"osm_id":"3372629700","tag":{"amenity":"waste_basket"}},"type":"Feature"},
	{"geometry":{"coordinates":[20.953103,52.244449],"type":"Point"},"properties":{"osm_id":"3372895269","tag":{"amenity":"waste_basket"}},"type":"Feature"},
	{"geometry":{"coordinates":[20.953242,52.243938],"type":"Point"},"properties":{"osm_id":"3375708554","tag":{"amenity":"waste_basket"}},"type":"Feature"},
	{"geometry":{"coordinates":[20.953503,52.243923],"type":"Point"},"properties":{"osm_id":"3375708930","tag":{"amenity":"waste_basket"}},"type":"Feature"},
	{"geometry":{"coordinates":[20.955829,52.243906],"type":"Point"},"properties":{"osm_id":"3376098929","tag":{"amenity":"waste_basket"}},"type":"Feature"},
	{"geometry":{"coordinates":[20.955634,52.244123],"type":"Point"},"properties":{"osm_id":"3376098953","tag":{"amenity":"waste_basket"}},"type":"Feature"},
	{"geometry":{"coordinates":[20.954544,52.24505],"type":"Point"},"properties":{"osm_id":"3380491455","tag":{"amenity":"waste_basket"}},"type":"Feature"},
	{"geometry":{"coordinates":[20.955533,52.245407],"type":"Point"},"properties":{"osm_id":"3380492957","tag":{"amenity":"waste_basket"}},"type":"Feature"},
	{"geometry":{"coordinates":[20.955624,52.245411],"type":"Point"},"properties":{"osm_id":"3380492964","tag":{"amenity":"waste_basket"}},"type":"Feature"},
	{"geometry":{"coordinates":[20.955505,52.245455],"type":"Point"},"properties":{"osm_id":"3380493001","tag":{"amenity":"waste_basket"}},"type":"Feature"},
	{"geometry":{"coordinates":[20.955614,52.245464],"type":"Point"},"properties":{"osm_id":"3380493009","tag":{"amenity":"waste_basket"}},"type":"Feature"},
	{"geometry":{"coordinates":[20.956112,52.245484],"type":"Point"},"properties":{"osm_id":"3380493022","tag":{"amenity":"waste_basket"}},"type":"Feature"},
	{"geometry":{"coordinates":[20.953859,52.244669],"type":"Point"},"properties":{"osm_id":"3382140355","tag":{"amenity":"waste_basket"}},"type":"Feature"},
	{"geometry":{"coordinates":[20.95381,52.245118],"type":"Point"},"properties":{"osm_id":"3382140403","tag":{"amenity":"waste_basket"}},"type":"Feature"},
	{"geometry":{"coordinates":[20.953787,52.245293],"type":"Point"},"properties":{"osm_id":"3382140423","tag":{"amenity":"waste_basket"}},"type":"Feature"},
	{"geometry":{"coordinates":[20.953445,52.245325],"type":"Point"},"properties":{"osm_id":"3382140433","tag":{"amenity":"waste_basket"}},"type":"Feature"},
	{"geometry":{"coordinates":[20.95391,52.246171],"type":"Point"},"properties":{"osm_id":"3382140574","tag":{"amenity":"waste_basket"}},"type":"Feature"},
	{"geometry":{"coordinates":[20.949378,52.243756],"type":"Point"},"properties":{"osm_id":"3386702144","tag":{"amenity":"waste_basket"}},"type":"Feature"},
	{"geometry":{"coordinates":[20.949853,52.244025],"type":"Point"},"properties":{"osm_id":"3386702387","tag":{"amenity":"waste_basket"}},"type":"Feature"},
	{"geometry":{"coordinates":[20.949496,52.244122],"type":"Point"},"properties":{"osm_id":"3386702449","tag":{"amenity":"waste_basket"}},"type":"Feature"},
	{"geometry":{"coordinates":[20.950618,52.244163],"type":"Point"},"properties":{"osm_id":"3386702491","tag":{"amenity":"waste_basket"}},"type":"Feature"},
	{"geometry":{"coordinates":[20.95209,52.241236],"type":"Point"},"properties":{"osm_id":"3393259132","tag":{"amenity":"waste_basket"}},"type":"Feature"},
	{"geometry":{"coordinates":[20.953774,52.241304],"type":"Point"},"properties":{"osm_id":"3393259135","tag":{"amenity":"waste_basket"}},"type":"Feature"},
	{"geometry":{"coordinates":[20.952311,52.241403],"type":"Point"},"properties":{"osm_id":"3393259146","tag":{"amenity":"waste_basket"}},"type":"Feature"},
	{"geometry":{"coordinates":[20.952132,52.2415],"type":"Point"},"properties":{"osm_id":"3393259159","tag":{"amenity":"waste_basket"}},"type":"Feature"},
	{"geometry":{"coordinates":[20.952521,52.241496],"type":"Point"},"properties":{"osm_id":"3393259161","tag":{"amenity":"waste_basket"}},"type":"Feature"},
	{"geometry":{"coordinates":[20.953595,52.241513],"type":"Point"},"properties":{"osm_id":"3393259165","tag":{"amenity":"waste_basket"}},"type":"Feature"},
	{"geometry":{"coordinates":[20.952018,52.241515],"type":"Point"},"properties":{"osm_id":"3393259166","tag":{"amenity":"waste_basket"}},"type":"Feature"},
	{"geometry":{"coordinates":[20.953021,52.241588],"type":"Point"},"properties":{"osm_id":"3393259176","tag":{"amenity":"waste_basket"}},"type":"Feature"},
	{"geometry":{"coordinates":[20.953316,52.241652],"type":"Point"},"properties":{"osm_id":"3393259186","tag":{"amenity":"waste_basket"}},"type":"Feature"},
	{"geometry":{"coordinates":[20.953478,52.241789],"type":"Point"},"properties":{"osm_id":"3393269900","tag":{"amenity":"waste_basket"}},"type":"Feature"},
	{"geometry":{"coordinates":[20.952969,52.241801],"type":"Point"},"properties":{"osm_id":"3393269906","tag":{"amenity":"waste_basket"}},"type":"Feature"},
	{"geometry":{"coordinates":[20.951558,52.241846],"type":"Point"},"properties":{"osm_id":"3393269919","tag":{"amenity":"waste_basket"}},"type":"Feature"},
	{"geometry":{"coordinates":[20.95321,52.241923],"type":"Point"},"properties":{"osm_id":"3393269926","tag":{"amenity":"waste_basket"}},"type":"Feature"},
	{"geometry":{"coordinates":[20.951902,52.241945],"type":"Point"},"properties":{"osm_id":"3393269929","tag":{"amenity":"waste_basket"}},"type":"Feature"},
	{"geometry":{"coordinates":[20.951746,52.241954],"type":"Point"},"properties":{"osm_id":"3393269931","tag":{"amenity":"waste_basket"}},"type":"Feature"},
	{"geometry":{"coordinates":[20.952135,52.24197],"type":"Point"},"properties":{"osm_id":"3393269934","tag":{"amenity":"waste_basket"}},"type":"Feature"},
	{"geometry":{"coordinates":[20.952882,52.242045],"type":"Point"},"properties":{"osm_id":"3393269941","tag":{"amenity":"waste_basket"}},"type":"Feature"},
	{"geometry":{"coordinates":[20.952713,52.242042],"type":"Point"},"properties":{"osm_id":"3393269945","tag":{"amenity":"waste_basket"}},"type":"Feature"},
	{"geometry":{"coordinates":[20.950552,52.242144],"type":"Point"},"properties":{"osm_id":"3393269954","tag":{"amenity":"waste_basket"}},"type":"Feature"},
	{"geometry":{"coordinates":[20.950351,52.242207],"type":"Point"},"properties":{"osm_id":"3393269964","tag":{"amenity":"waste_basket"}},"type":"Feature"},
	{"geometry":{"coordinates":[20.950325,52.242366],"type":"Point"},"properties":{"osm_id":"3393269971","tag":{"amenity":"waste_basket"}},"type":"Feature"},
	{"geometry":{"coordinates":[20.950213,52.242591],"type":"Point"},"properties":{"osm_id":"3393269980","tag":{"amenity":"waste_basket"}},"type":"Feature"},
	{"geometry":{"coordinates":[20.949381,52.242601],"type":"Point"},"properties":{"osm_id":"3393269981","tag":{"amenity":"waste_basket"}},"type":"Feature"},
	{"geometry":{"coordinates":[20.949995,52.242653],"type":"Point"},"properties":{"osm_id":"3393269990","tag":{"amenity":"waste_basket"}},"type":"Feature"},
	{"geometry":{"coordinates":[20.950502,52.242961],"type":"Point"},"properties":{"osm_id":"3393270030","tag":{"amenity":"waste_basket"}},"type":"Feature"},
	{"geometry":{"coordinates":[20.951656,52.243],"type":"Point"},"properties":{"osm_id":"3393270037","tag":{"amenity":"waste_basket"}},"type":"Feature"},
	{"geometry":{"coordinates":[20.951683,52.243029],"type":"Point"},"properties":{"osm_id":"3393270042","tag":{"amenity":"waste_basket"}},"type":"Feature"},
	{"geometry":{"coordinates":[20.95205,52.243032],"type":"Point"},"properties":{"osm_id":"3393270052","tag":{"amenity":"waste_basket"}},"type":"Feature"},
	{"geometry":{"coordinates":[20.952163,52.243226],"type":"Point"},"properties":{"osm_id":"3393270074","tag":{"amenity":"waste_basket"}},"type":"Feature"},
	{"geometry":{"coordinates":[20.957153,52.244232],"type":"Point"},"properties":{"osm_id":"3393270124","tag":{"amenity":"waste_basket"}},"type":"Feature"},
	{"geometry":{"coordinates":[20.948298,52.246901],"type":"Point"},"properties":{"osm_id":"3397268882","tag":{"entrance":"yes"}},"type":"Feature"},
	{"geometry":{"coordinates":[20.95637,52.245289],"type":"Point"},"properties":{"osm_id":"3397800370","tag":{"entrance":"yes"}},"type":"Feature"},
	{"geometry":{"coordinates":[20.949747,52.243746],"type":"Point"},"properties":{"osm_id":"3399863039","tag":{"amenity":"waste_basket"}},"type":"Feature"},
	{"geometry":{"coordinates":[20.947954,52.244139],"type":"Point"},"properties":{"osm_id":"3399863321","tag":{"amenity":"waste_basket"}},"type":"Feature"},
	{"geometry":{"coordinates":[20.948246,52.244996],"type":"Point"},"properties":{"osm_id":"3400369973","tag":{"amenity":"waste_basket"}},"type":"Feature"},
	{"geometry":{"coordinates":[20.948682,52.245009],"type":"Point"},"properties":{"osm_id":"3400369975","tag":{"amenity":"waste_basket"}},"type":"Feature"},
	{"geometry":{"coordinates":[20.948232,52.245069],"type":"Point"},"properties":{"osm_id":"3400369989","tag":{"amenity":"waste_basket"}},"type":"Feature"},
	{"geometry":{"coordinates":[20.949877,52.245243],"type":"Point"},"properties":{"osm_id":"3402879333","tag":{"amenity":"waste_basket"}},"type":"Feature"},
	{"geometry":{"coordinates":[20.95102,52.245257],"type":"Point"},"properties":{"osm_id":"3402879343","tag":{"amenity":"waste_basket"}},"type":"Feature"},
	{"geometry":{"coordinates":[20.95058,52.245276],"type":"Point"},"properties":{"osm_id":"3402879364","tag":{"amenity":"waste_basket"}},"type":"Feature"},
	{"geometry":{"coordinates":[20.954496,52.239275],"type":"Point"},"properties":{"osm_id":"3406234702","tag":{"amenity":"waste_basket"}},"type":"Feature"},
	{"geometry":{"coordinates":[20.95443,52.239437],"type":"Point"},"properties":{"osm_id":"3406234720","tag":{"amenity":"waste_basket"}},"type":"Feature"},
	{"geometry":{"coordinates":[20.954386,52.239544],"type":"Point"},"properties":{"osm_id":"3406234726","tag":{"amenity":"waste_basket"}},"type":"Feature"},
	{"geometry":{"coordinates":[20.957118,52.244647],"type":"Point"},"properties":{"osm_id":"3410408211","tag":{"amenity":"waste_basket"}},"type":"Feature"},
	{"geometry":{"coordinates":[20.957081,52.244954],"type":"Point"},"properties":{"osm_id":"3411102455","tag":{"amenity":"waste_basket"}},"type":"Feature"},
	{"geometry":{"coordinates":[20.95704,52.245266],"type":"Point"},"properties":{"osm_id":"3411102480","tag":{"amenity":"waste_basket"}},"type":"Feature"},
	{"geometry":{"coordinates":[20.951575,52.246047],"type":"Point"},"properties":{"osm_id":"3412588827","tag":{"amenity":"recycling","recycling:clothes":"yes"}},"type":"Feature"},
	{"geometry":{"coordinates":[20.951035,52.243595],"type":"Point"},"properties":{"osm_id":"3413600344","tag":{"amenity":"waste_basket"}},"type":"Feature"},
	{"geometry":{"coordinates":[20.951751,52.243632],"type":"Point"},"properties":{"osm_id":"3413600372","tag":{"amenity":"waste_basket"}},"type":"Feature"},
	{"geometry":{"coordinates":[20.952334,52.243662],"type":"Point"},"properties":{"osm_id":"3413600598","tag":{"amenity":"waste_basket"}},"type":"Feature"},
	{"geometry":{"coordinates":[20.948784,52.2437],"type":"Point"},"properties":{"osm_id":"3413600621","tag":{"amenity":"waste_basket"}},"type":"Feature"},
	{"geometry":{"coordinates":[20.949363,52.24392],"type":"Point"},"properties":{"osm_id":"3413867005","tag":{"entrance":"yes"}},"type":"Feature"},
	{"geometry":{"coordinates":[20.949415,52.243947],"type":"Point"},"properties":{"osm_id":"3413867030","tag":{"amenity":"recycling","recycling:clothes":"yes"}},"type":"Feature"},
	{"geometry":{"coordinates":[20.949738,52.24456],"type":"Point"},"properties":{"osm_id":"3417990859","tag":{"amenity":"waste_basket"}},"type":"Feature"},
	{"geometry":{"coordinates":[20.949515,52.244823],"type":"Point"},"properties":{"osm_id":"3417990884","tag":{"amenity":"waste_basket"}},"type":"Feature"},
	{"geometry":{"coordinates":[20.949085,52.24569],"type":"Point"},"properties":{"osm_id":"3418130327","tag":{"amenity":"waste_basket"}},"type":"Feature"},
	{"geometry":{"coordinates":[20.949065,52.245786],"type":"Point"},"properties":{"osm_id":"3418130333","tag":{"amenity":"waste_basket"}},"type":"Feature"},
	{"geometry":{"coordinates":[20.949053,52.245899],"type":"Point"},"properties":{"osm_id":"3418130340","tag":{"amenity":"waste_basket"}},"type":"Feature"},
	{"geometry":{"coordinates":[20.94903,52.246041],"type":"Point"},"properties":{"osm_id":"3418130356","tag":{"amenity":"waste_basket"}},"type":"Feature"},
	{"geometry":{"coordinates":[20.949027,52.246081],"type":"Point"},"properties":{"osm_id":"3418130369","tag":{"amenity":"waste_basket"}},"type":"Feature"},
	{"geometry":{"coordinates":[20.948993,52.246178],"type":"Point"},"properties":{"osm_id":"3418130382","tag":{"amenity":"waste_basket"}},"type":"Feature"},
	{"geometry":{"coordinates":[20.94968,52.246213],"type":"Point"},"properties":{"osm_id":"3418130387","tag":{"amenity":"waste_basket"}},"type":"Feature"},
	{"geometry":{"coordinates":[20.951131,52.245749],"type":"Point"},"properties":{"osm_id":"3418590826","tag":{"amenity":"waste_basket"}},"type":"Feature"},
	{"geometry":{"coordinates":[20.950986,52.245846],"type":"Point"},"properties":{"osm_id":"3418590847","tag":{"amenity":"waste_basket"}},"type":"Feature"},
	{"geometry":{"coordinates":[20.950588,52.245856],"type":"Point"},"properties":{"osm_id":"3418590851","tag":{"amenity":"waste_basket"}},"type":"Feature"},
	{"geometry":{"coordinates":[20.950014,52.245898],"type":"Point"},"properties":{"osm_id":"3418590870","tag":{"amenity":"waste_basket"}},"type":"Feature"},
	{"geometry":{"coordinates":[20.950829,52.245997],"type":"Point"},"properties":{"osm_id":"3418590886","tag":{"amenity":"waste_basket"}},"type":"Feature"},
	{"geometry":{"coordinates":[20.950501,52.246061],"type":"Point"},"properties":{"osm_id":"3418591110","tag":{"amenity":"waste_basket"}},"type":"Feature"},
	{"geometry":{"coordinates":[20.951164,52.246066],"type":"Point"},"properties":{"osm_id":"3418591113","tag":{"amenity":"waste_basket"}},"type":"Feature"},
	{"geometry":{"coordinates":[20.950733,52.246072],"type":"Point"},"properties":{"osm_id":"3418591118","tag":{"amenity":"waste_basket"}},"type":"Feature"},
	{"geometry":{"coordinates":[20.951076,52.246296],"type":"Point"},"properties":{"osm_id":"3418591202","tag":{"amenity":"waste_basket"}},"type":"Feature"},
	{"geometry":{"coordinates":[20.950008,52.246308],"type":"Point"},"properties":{"osm_id":"3418591209","tag":{"amenity":"waste_basket"}},"type":"Feature"},
	{"geometry":{"coordinates":[20.949984,52.245556],"type":"Point"},"properties":{"osm_id":"3419077414","tag":{"amenity":"waste_basket"}},"type":"Feature"},
	{"geometry":{"coordinates":[20.950335,52.245719],"type":"Point"},"properties":{"osm_id":"3419077443","tag":{"amenity":"waste_basket"}},"type":"Feature"},
	{"geometry":{"coordinates":[20.950201,52.245832],"type":"Point"},"properties":{"osm_id":"3419077465","tag":{"amenity":"waste_basket"}},"type":"Feature"},
	{"geometry":{"coordinates":[20.94971,52.24482],"type":"Point"},"properties":{"osm_id":"3423055058","tag":{"amenity":"waste_basket"}},"type":"Feature"},
	{"geometry":{"coordinates":[20.950353,52.244631],"type":"Point"},"properties":{"osm_id":"3423468176","tag":{"amenity":"waste_basket"}},"type":"Feature"},
	{"geometry":{"coordinates":[20.955862,52.244021],"type":"Point"},"properties":{"osm_id":"3425344534","tag":{"amenity":"waste_basket"}},"type":"Feature"},
	{"geometry":{"coordinates":[20.955901,52.244027],"type":"Point"},"properties":{"osm_id":"3425344536","tag":{"amenity":"waste_basket"}},"type":"Feature"},
	{"geometry":{"coordinates":[20.955046,52.244178],"type":"Point"},"properties":{"osm_id":"3425344551","tag":{"amenity":"waste_basket"}},"type":"Feature"},
	{"geometry":{"coordinates":[20.956626,52.244208],"type":"Point"},"properties":{"osm_id":"3425344557","tag":{"amenity":"waste_basket"}},"type":"Feature"},
	{"geometry":{"coordinates":[20.956359,52.244245],"type":"Point"},"properties":{"osm_id":"3425344567","tag":{"amenity":"waste_basket"}},"type":"Feature"},
	{"geometry":{"coordinates":[20.95653,52.244252],"type":"Point"},"properties":{"osm_id":"3425344572","tag":{"amenity":"waste_basket"}},"type":"Feature"},
	{"geometry":{"coordinates":[20.956599,52.244632],"type":"Point"},"properties":{"osm_id":"3425349758","tag":{"amenity":"waste_basket"}},"type":"Feature"},
	{"geometry":{"coordinates":[20.956648,52.244904],"type":"Point"},"properties":{"osm_id":"3425349946","tag":{"amenity":"waste_basket"}},"type":"Feature"},
	{"geometry":{"coordinates":[20.956456,52.245207],"type":"Point"},"properties":{"osm_id":"3425350105","tag":{"amenity":"waste_basket"}},"type":"Feature"},
	{"geometry":{"coordinates":[20.957725,52.243117],"type":"Point"},"properties":{"osm_id":"3426275540","tag":{"amenity":"waste_basket"}},"type":"Feature"},
	{"geometry":{"coordinates":[20.957742,52.243187],"type":"Point"},"properties":{"osm_id":"3426275541","tag":{"amenity":"waste_basket"}},"type":"Feature"},
	{"geometry":{"coordinates":[20.953978,52.246749],"type":"Point"},"properties":{"osm_id":"3426993302","tag":{"amenity":"waste_basket"}},"type":"Feature"},
	{"geometry":{"coordinates":[20.954421,52.246028],"type":"Point"},"properties":{"osm_id":"3429135791","tag":{"amenity":"waste_basket"}},"type":"Feature"},
	{"geometry":{"coordinates":[20.954443,52.24722],"type":"Point"},"properties":{"osm_id":"3429343221","tag":{"amenity":"waste_basket"}},"type":"Feature"},
	{"geometry":{"coordinates":[20.955187,52.247261],"type":"Point"},"properties":{"osm_id":"3429343262","tag":{"amenity":"waste_basket"}},"type":"Feature"},
	{"geometry":{"coordinates":[20.957028,52.247265],"type":"Point"},"properties":{"osm_id":"3429343268","tag":{"amenity":"waste_basket"}},"type":"Feature"},
	{"geometry":{"coordinates":[20.956084,52.246868],"type":"Point"},"properties":{"osm_id":"3430737842","tag":{"amenity":"waste_basket"}},"type":"Feature"},
	{"geometry":{"coordinates":[20.956579,52.246921],"type":"Point"},"properties":{"osm_id":"3430737850","tag":{"entrance":"yes"}},"type":"Feature"},
	{"geometry":{"coordinates":[20.955068,52.246883],"type":"Point"},"properties":{"osm_id":"3432172334","tag":{"amenity":"waste_basket"}},"type":"Feature"},
	{"geometry":{"coordinates":[20.953686,52.247444],"type":"Point"},"properties":{"osm_id":"3432172425","tag":{"amenity":"waste_basket"}},"type":"Feature"},
	{"geometry":{"coordinates":[20.956685,52.246554],"type":"Point"},"properties":{"osm_id":"3439190642","tag":{"amenity":"waste_basket"}},"type":"Feature"},
	{"geometry":{"coordinates":[20.955467,52.243028],"type":"Point"},"properties":{"osm_id":"3441049009","tag":{"amenity":"waste_basket"}},"type":"Feature"},
	{"geometry":{"coordinates":[20.955732,52.243166],"type":"Point"},"properties":{"osm_id":"3441049055","tag":{"amenity":"waste_basket"}},"type":"Feature"},
	{"geometry":{"coordinates":[20.954784,52.2432],"type":"Point"},"properties":{"osm_id":"3441049057","tag":{"amenity":"waste_basket"}},"type":"Feature"},
	{"geometry":{"coordinates":[20.955324,52.243276],"type":"Point"},"properties":{"osm_id":"3441049071","tag":{"amenity":"waste_basket"}},"type":"Feature"},
	{"geometry":{"coordinates":[20.955172,52.241892],"type":"Point"},"properties":{"osm_id":"3441449464","tag":{"amenity":"waste_basket"}},"type":"Feature"},
	{"geometry":{"coordinates":[20.955157,52.24235],"type":"Point"},"properties":{"osm_id":"3441450343","tag":{"amenity":"waste_basket"}},"type":"Feature"},
	{"geometry":{"coordinates":[20.955984,52.24244],"type":"Point"},"properties":{"osm_id":"3441450389","tag":{"amenity":"waste_basket"}},"type":"Feature"},
	{"geometry":{"coordinates":[20.95573,52.242751],"type":"Point"},"properties":{"osm_id":"3441450566","tag":{"amenity":"waste_basket"}},"type":"Feature"},
	{"geometry":{"coordinates":[20.955288,52.242814],"type":"Point"},"properties":{"osm_id":"3441450581","tag":{"amenity":"waste_basket"}},"type":"Feature"},
	{"geometry":{"coordinates":[20.956052,52.242814],"type":"Point"},"properties":{"osm_id":"3441450582","tag":{"amenity":"waste_basket"}},"type":"Feature"},
	{"geometry":{"coordinates":[20.953999,52.241556],"type":"Point"},"properties":{"osm_id":"3443400155","tag":{"amenity":"waste_basket"}},"type":"Feature"},
	{"geometry":{"coordinates":[20.95483,52.241557],"type":"Point"},"properties":{"osm_id":"3443400157","tag":{"amenity":"waste_basket"}},"type":"Feature"},
	{"geometry":{"coordinates":[20.955253,52.241587],"type":"Point"},"properties":{"osm_id":"3443400186","tag":{"amenity":"waste_basket"}},"type":"Feature"},
	{"geometry":{"coordinates":[20.954517,52.241751],"type":"Point"},"properties":{"osm_id":"3443400610","tag":{"amenity":"waste_basket"}},"type":"Feature"},
	{"geometry":{"coordinates":[20.953754,52.241793],"type":"Point"},"properties":{"osm_id":"3443400645","tag":{"amenity":"waste_basket"}},"type":"Feature"},
	{"geometry":{"coordinates":[20.95428,52.241806],"type":"Point"},"properties":{"osm_id":"3443400656","tag":{"amenity":"waste_basket"}},"type":"Feature"},
	{"geometry":{"coordinates":[20.956356,52.241807],"type":"Point"},"properties":{"osm_id":"3443400659","tag":{"amenity":"waste_basket"}},"type":"Feature"},
	{"geometry":{"coordinates":[20.954281,52.239797],"type":"Point"},"properties":{"osm_id":"3445697334","tag":{"amenity":"waste_basket"}},"type":"Feature"},
	{"geometry":{"coordinates":[20.952114,52.242802],"type":"Point"},"properties":{"osm_id":"3476052104","tag":{"amenity":"waste_basket"}},"type":"Feature"},
	{"geometry":{"coordinates":[20.952148,52.242871],"type":"Point"},"properties":{"osm_id":"3476052116","tag":{"amenity":"waste_basket"}},"type":"Feature"},
	{"geometry":{"coordinates":[20.949195,52.242206],"type":"Point"},"properties":{"osm_id":"3476571500","tag":{"amenity":"waste_basket"}},"type":"Feature"},
	{"geometry":{"coordinates":[20.949167,52.242353],"type":"Point"},"properties":{"osm_id":"3476571506","tag":{"amenity":"waste_basket"}},"type":"Feature"},
	{"geometry":{"coordinates":[20.949373,52.242356],"type":"Point"},"properties":{"osm_id":"3476571508","tag":{"amenity":"waste_basket"}},"type":"Feature"},
	{"geometry":{"coordinates":[20.949076,52.242512],"type":"Point"},"properties":{"osm_id":"3476571520","tag":{"amenity":"waste_basket"}},"type":"Feature"},
	{"geometry":{"coordinates":[20.949133,52.2427],"type":"Point"},"properties":{"osm_id":"3476571542","tag":{"amenity":"waste_basket"}},"type":"Feature"},
	{"geometry":{"coordinates":[20.949548,52.242788],"type":"Point"},"properties":{"osm_id":"3476571572","tag":{"amenity":"waste_basket"}},"type":"Feature"},
	{"geometry":{"coordinates":[20.95178,52.242789],"type":"Point"},"properties":{"osm_id":"3476571573","tag":{"amenity":"waste_basket"}},"type":"Feature"},
	{"geometry":{"coordinates":[20.94977,52.242877],"type":"Point"},"properties":{"osm_id":"3476617394","tag":{"amenity":"waste_basket"}},"type":"Feature"},
	{"geometry":{"coordinates":[20.948985,52.242897],"type":"Point"},"properties":{"osm_id":"3476617405","tag":{"amenity":"waste_basket"}},"type":"Feature"},
	{"geometry":{"coordinates":[20.94921,52.242911],"type":"Point"},"properties":{"osm_id":"3476617409","tag":{"amenity":"waste_basket"}},"type":"Feature"},
	{"geometry":{"coordinates":[20.950093,52.242931],"type":"Point"},"properties":{"osm_id":"3476617419","tag":{"amenity":"waste_basket"}},"type":"Feature"},
	{"geometry":{"coordinates":[20.950823,52.242944],"type":"Point"},"properties":{"osm_id":"3476617423","tag":{"amenity":"waste_basket"}},"type":"Feature"},
	{"geometry":{"coordinates":[20.949212,52.243028],"type":"Point"},"properties":{"osm_id":"3476617483","tag":{"amenity":"waste_basket"}},"type":"Feature"},
	{"geometry":{"coordinates":[20.948669,52.243053],"type":"Point"},"properties":{"osm_id":"3476617702","tag":{"amenity":"waste_basket"}},"type":"Feature"},
	{"geometry":{"coordinates":[20.951262,52.243063],"type":"Point"},"properties":{"osm_id":"3476617705","tag":{"amenity":"waste_basket"}},"type":"Feature"},
	{"geometry":{"coordinates":[20.949089,52.243067],"type":"Point"},"properties":{"osm_id":"3476617706","tag":{"amenity":"waste_basket"}},"type":"Feature"},
	{"geometry":{"coordinates":[20.949348,52.243088],"type":"Point"},"properties":{"osm_id":"3476617716","tag":{"amenity":"waste_basket"}},"type":"Feature"},
	{"geometry":{"coordinates":[20.949588,52.243096],"type":"Point"},"properties":{"osm_id":"3476617724","tag":{"amenity":"waste_basket"}},"type":"Feature"},
	{"geometry":{"coordinates":[20.949983,52.243116],"type":"Point"},"properties":{"osm_id":"3476617734","tag":{"amenity":"waste_basket"}},"type":"Feature"},
	{"geometry":{"coordinates":[20.950569,52.243152],"type":"Point"},"properties":{"osm_id":"3476617741","tag":{"amenity":"waste_basket"}},"type":"Feature"},
	{"geometry":{"coordinates":[20.951198,52.243181],"type":"Point"},"properties":{"osm_id":"3476617748","tag":{"amenity":"waste_basket"}},"type":"Feature"},
	{"geometry":{"coordinates":[21.003705,52.23574],"type":"Point"},"properties":{"osm_id":"3476714153","tag":{"amenity":"waste_basket"}},"type":"Feature"},
	{"geometry":{"coordinates":[20.947436,52.246524],"type":"Point"},"properties":{"osm_id":"3478667190","tag":{"amenity":"waste_basket"}},"type":"Feature"},
	{"geometry":{"coordinates":[20.947431,52.246571],"type":"Point"},"properties":{"osm_id":"3478668998","tag":{"amenity":"waste_basket"}},"type":"Feature"},
	{"geometry":{"coordinates":[20.95817,52.247314],"type":"Point"},"properties":{"osm_id":"3478669063","tag":{"amenity":"waste_basket"}},"type":"Feature"},
	{"geometry":{"coordinates":[20.9564,52.247484],"type":"Point"},"properties":{"osm_id":"3478669127","tag":{"amenity":"waste_basket"}},"type":"Feature"},
	{"geometry":{"coordinates":[20.955552,52.237183],"type":"Point"},"properties":{"osm_id":"3479401771","tag":{"amenity":"waste_basket"}},"type":"Feature"},
	{"geometry":{"coordinates":[20.955559,52.237269],"type":"Point"},"properties":{"osm_id":"3479401781","tag":{"amenity":"waste_basket"}},"type":"Feature"},
	{"geometry":{"coordinates":[20.957231,52.237652],"type":"Point"},"properties":{"osm_id":"3479402923","tag":{"amenity":"waste_basket"}},"type":"Feature"},
	{"geometry":{"coordinates":[20.957356,52.237654],"type":"Point"},"properties":{"osm_id":"3479402924","tag":{"amenity":"waste_basket"}},"type":"Feature"},
	{"geometry":{"coordinates":[20.9553,52.237734],"type":"Point"},"properties":{"osm_id":"3479402951","tag":{"amenity":"waste_basket"}},"type":"Feature"},
	{"geometry":{"coordinates":[20.951811,52.238492],"type":"Point"},"properties":{"osm_id":"3479403097","tag":{"amenity":"waste_basket"}},"type":"Feature"},
	{"geometry":{"coordinates":[20.950785,52.23859],"type":"Point"},"properties":{"osm_id":"3479403108","tag":{"amenity":"waste_basket"}},"type":"Feature"},
	{"geometry":{"coordinates":[20.948905,52.238759],"type":"Point"},"properties":{"osm_id":"3479403120","tag":{"amenity":"waste_basket"}},"type":"Feature"},
	{"geometry":{"coordinates":[20.958265,52.24309],"type":"Point"},"properties":{"osm_id":"3479403134","tag":{"amenity":"waste_basket"}},"type":"Feature"},
	{"geometry":{"coordinates":[20.958283,52.243154],"type":"Point"},"properties":{"osm_id":"3479403140","tag":{"amenity":"waste_basket"}},"type":"Feature"},
	{"geometry":{"coordinates":[20.947872,52.243536],"type":"Point"},"properties":{"osm_id":"3479737472","tag":{"amenity":"waste_basket"}},"type":"Feature"},
	{"geometry":{"coordinates":[20.947863,52.243599],"type":"Point"},"properties":{"osm_id":"3479737479","tag":{"amenity":"waste_basket"}},"type":"Feature"},
	{"geometry":{"coordinates":[20.948781,52.239691],"type":"Point"},"properties":{"osm_id":"3479844190","tag":{"amenity":"waste_basket"}},"type":"Feature"},
	{"geometry":{"coordinates":[20.94962,52.238377],"type":"Point"},"properties":{"osm_id":"3480033079","tag":{"amenity":"waste_basket"}},"type":"Feature"},
	{"geometry":{"coordinates":[20.94886,52.238498],"type":"Point"},"properties":{"osm_id":"3480033088","tag":{"amenity":"waste_basket"}},"type":"Feature"},
	{"geometry":{"coordinates":[20.95699,52.247491],"type":"Point"},"properties":{"osm_id":"3487568512","tag":{"amenity":"waste_basket"}},"type":"Feature"},
	{"geometry":{"coordinates":[20.994676,52.258336],"type":"Point"},"properties":{"osm_id":"3510888852","tag":{"amenity":"waste_basket"}},"type":"Feature"},
	{"geometry":{"coordinates":[20.95619,52.24798],"type":"Point"},"properties":{"osm_id":"3516047464","tag":{"amenity":"waste_basket"}},"type":"Feature"},
	{"geometry":{"coordinates":[20.955943,52.248087],"type":"Point"},"properties":{"osm_id":"3516047487","tag":{"amenity":"waste_basket"}},"type":"Feature"},
	{"geometry":{"coordinates":[20.955748,52.248194],"type":"Point"},"properties":{"osm_id":"3516047502","tag":{"amenity":"waste_basket"}},"type":"Feature"},
	{"geometry":{"coordinates":[20.955598,52.248394],"type":"Point"},"properties":{"osm_id":"3516047546","tag":{"amenity":"waste_basket"}},"type":"Feature"},
	{"geometry":{"coordinates":[20.956294,52.248152],"type":"Point"},"properties":{"osm_id":"3519952012","tag":{"amenity":"waste_basket"}},"type":"Feature"},
	{"geometry":{"coordinates":[20.956186,52.248365],"type":"Point"},"properties":{"osm_id":"3519952022","tag":{"amenity":"waste_basket"}},"type":"Feature"},
	{"geometry":{"coordinates":[20.953992,52.249273],"type":"Point"},"properties":{"osm_id":"3521158750","tag":{"amenity":"waste_basket"}},"type":"Feature"},
	{"geometry":{"coordinates":[20.954501,52.249668],"type":"Point"},"properties":{"osm_id":"3521158783","tag":{"amenity":"waste_basket"}},"type":"Feature"},
	{"geometry":{"coordinates":[20.95548,52.25001],"type":"Point"},"properties":{"osm_id":"3521160109","tag":{"amenity":"waste_basket"}},"type":"Feature"},
	{"geometry":{"coordinates":[20.955719,52.248863],"type":"Point"},"properties":{"osm_id":"3521853251","tag":{"amenity":"waste_basket"}},"type":"Feature"},
	{"geometry":{"coordinates":[20.955164,52.249325],"type":"Point"},"properties":{"osm_id":"3523677815","tag":{"amenity":"waste_basket"}},"type":"Feature"},
	{"geometry":{"coordinates":[20.955398,52.249377],"type":"Point"},"properties":{"osm_id":"3523677827","tag":{"amenity":"waste_basket"}},"type":"Feature"},
	{"geometry":{"coordinates":[20.956729,52.247334],"type":"Point"},"properties":{"osm_id":"3529184711","tag":{"amenity":"waste_basket"}},"type":"Feature"},
	{"geometry":{"coordinates":[20.956347,52.247399],"type":"Point"},"properties":{"osm_id":"3529184713","tag":{"amenity":"waste_basket"}},"type":"Feature"},
	{"geometry":{"coordinates":[20.955616,52.247447],"type":"Point"},"properties":{"osm_id":"3529184715","tag":{"amenity":"waste_basket"}},"type":"Feature"},
	{"geometry":{"coordinates":[20.955745,52.247495],"type":"Point"},"properties":{"osm_id":"3529184731","tag":{"amenity":"waste_basket"}},"type":"Feature"},
	{"geometry":{"coordinates":[20.955914,52.247527],"type":"Point"},"properties":{"osm_id":"3529184741","tag":{"amenity":"waste_basket"}},"type":"Feature"},
	{"geometry":{"coordinates":[20.956019,52.247605],"type":"Point"},"properties":{"osm_id":"3529184757","tag":{"amenity":"waste_basket"}},"type":"Feature"},
	{"geometry":{"coordinates":[20.954565,52.247696],"type":"Point"},"properties":{"osm_id":"3529184774","tag":{"amenity":"waste_basket"}},"type":"Feature"},
	{"geometry":{"coordinates":[20.954727,52.248019],"type":"Point"},"properties":{"osm_id":"3529186430","tag":{"amenity":"waste_basket"}},"type":"Feature"},
	{"geometry":{"coordinates":[20.954881,52.248066],"type":"Point"},"properties":{"osm_id":"3529186453","tag":{"amenity":"waste_basket"}},"type":"Feature"},
	{"geometry":{"coordinates":[20.953056,52.247388],"type":"Point"},"properties":{"osm_id":"3531787600","tag":{"amenity":"waste_basket"}},"type":"Feature"},
	{"geometry":{"coordinates":[20.953094,52.248113],"type":"Point"},"properties":{"osm_id":"3533832351","tag":{"amenity":"waste_basket"}},"type":"Feature"},
	{"geometry":{"coordinates":[20.952709,52.248561],"type":"Point"},"properties":{"osm_id":"3547709430","tag":{"amenity":"recycling","recycling:clothes":"yes","recycling_type":"container"}},"type":"Feature"},
	{"geometry":{"coordinates":[20.952902,52.248992],"type":"Point"},"properties":{"osm_id":"3547709492","tag":{"amenity":"recycling","recycling:clothes":"yes","recycling_type":"container"}},"type":"Feature"},
	{"geometry":{"coordinates":[20.953018,52.249263],"type":"Point"},"properties":{"osm_id":"3548474460","tag":{"amenity":"waste_basket"}},"type":"Feature"},
	{"geometry":{"coordinates":[20.953475,52.249474],"type":"Point"},"properties":{"osm_id":"3548474463","tag":{"amenity":"waste_basket"}},"type":"Feature"},
	{"geometry":{"coordinates":[20.95194,52.249017],"type":"Point"},"properties":{"osm_id":"3559462186","tag":{"amenity":"waste_basket"}},"type":"Feature"},
	{"geometry":{"coordinates":[20.952685,52.249235],"type":"Point"},"properties":{"osm_id":"3559462249","tag":{"amenity":"waste_basket"}},"type":"Feature"},
	{"geometry":{"coordinates":[20.966872,52.233486],"type":"Point"},"properties":{"osm_id":"3559660079","tag":{"amenity":"waste_basket"}},"type":"Feature"},
	{"geometry":{"coordinates":[20.967068,52.233518],"type":"Point"},"properties":{"osm_id":"3559660083","tag":{"amenity":"waste_basket"}},"type":"Feature"},
	{"geometry":{"coordinates":[20.964983,52.237006],"type":"Point"},"properties":{"osm_id":"3559661042","tag":{"amenity":"waste_basket"}},"type":"Feature"},
	{"geometry":{"coordinates":[20.964864,52.237082],"type":"Point"},"properties":{"osm_id":"3559661047","tag":{"amenity":"waste_basket"}},"type":"Feature"},
	{"geometry":{"coordinates":[20.965291,52.238102],"type":"Point"},"properties":{"osm_id":"3559661083","tag":{"amenity":"waste_basket"}},"type":"Feature"},
	{"geometry":{"coordinates":[20.96531,52.238162],"type":"Point"},"properties":{"osm_id":"3559661090","tag":{"amenity":"waste_basket"}},"type":"Feature"},
	{"geometry":{"coordinates":[20.965479,52.238584],"type":"Point"},"properties":{"osm_id":"3559661129","tag":{"amenity":"waste_basket"}},"type":"Feature"},
	{"geometry":{"coordinates":[20.947348,52.247915],"type":"Point"},"properties":{"osm_id":"3584137002","tag":{"amenity":"waste_basket"}},"type":"Feature"},
	{"geometry":{"coordinates":[20.947332,52.248754],"type":"Point"},"properties":{"osm_id":"3584137219","tag":{"amenity":"waste_basket"}},"type":"Feature"},
	{"geometry":{"coordinates":[20.95015,52.245993],"type":"Point"},"properties":{"osm_id":"3601165103","tag":{"amenity":"waste_basket"}},"type":"Feature"},
	{"geometry":{"coordinates":[20.949702,52.246095],"type":"Point"},"properties":{"osm_id":"3601165121","tag":{"amenity":"waste_basket"}},"type":"Feature"},
	{"geometry":{"coordinates":[20.947721,52.246448],"type":"Point"},"properties":{"osm_id":"3601165133","tag":{"amenity":"waste_basket"}},"type":"Feature"},
	{"geometry":{"coordinates":[20.947715,52.246502],"type":"Point"},"properties":{"osm_id":"3601165136","tag":{"amenity":"waste_basket"}},"type":"Feature"},
	{"geometry":{"coordinates":[20.947739,52.246626],"type":"Point"},"properties":{"osm_id":"3601165149","tag":{"amenity":"waste_basket"}},"type":"Feature"},
	{"geometry":{"coordinates":[20.947361,52.246946],"type":"Point"},"properties":{"osm_id":"3601165196","tag":{"amenity":"waste_basket"}},"type":"Feature"},
	{"geometry":{"coordinates":[20.947828,52.246969],"type":"Point"},"properties":{"osm_id":"3601165202","tag":{"amenity":"waste_basket"}},"type":"Feature"},
	{"geometry":{"coordinates":[20.947201,52.247111],"type":"Point"},"properties":{"osm_id":"3601165207","tag":{"amenity":"waste_basket"}},"type":"Feature"},
	{"geometry":{"coordinates":[20.947583,52.247138],"type":"Point"},"properties":{"osm_id":"3601165224","tag":{"amenity":"waste_basket"}},"type":"Feature"},
	{"geometry":{"coordinates":[20.947976,52.24718],"type":"Point"},"properties":{"osm_id":"3601165235","tag":{"amenity":"waste_basket"}},"type":"Feature"},
	{"geometry":{"coordinates":[20.948811,52.250145],"type":"Point"},"properties":{"osm_id":"3601288724","tag":{"amenity":"waste_basket"}},"type":"Feature"},
	{"geometry":{"coordinates":[20.954868,52.251672],"type":"Point"},"properties":{"osm_id":"3601789619","tag":{"amenity":"waste_basket"}},"type":"Feature"},
	{"geometry":{"coordinates":[20.95484,52.251729],"type":"Point"},"properties":{"osm_id":"3601789624","tag":{"amenity":"waste_basket"}},"type":"Feature"},
	{"geometry":{"coordinates":[20.955336,52.25183],"type":"Point"},"properties":{"osm_id":"3601789628","tag":{"amenity":"waste_basket"}},"type":"Feature"},
	{"geometry":{"coordinates":[20.955292,52.251909],"type":"Point"},"properties":{"osm_id":"3601789637","tag":{"amenity":"waste_basket"}},"type":"Feature"},
	{"geometry":{"coordinates":[20.957842,52.246796],"type":"Point"},"properties":{"osm_id":"3603487275","tag":{"amenity":"waste_basket","layer":"1"}},"type":"Feature"},
	{"geometry":{"coordinates":[20.957823,52.246856],"type":"Point"},"properties":{"osm_id":"3603487278","tag":{"amenity":"waste_basket","layer":"1"}},"type":"Feature"},
	{"geometry":{"coordinates":[20.957763,52.247528],"type":"Point"},"properties":{"osm_id":"3605948560","tag":{"amenity":"waste_basket"}},"type":"Feature"},
	{"geometry":{"coordinates":[20.957991,52.247309],"type":"Point"},"properties":{"osm_id":"3606686423","tag":{"amenity":"waste_basket"}},"type":"Feature"},
	{"geometry":{"coordinates":[20.961289,52.247109],"type":"Point"},"properties":{"osm_id":"3607373104","tag":{"amenity":"waste_basket"}},"type":"Feature"},
	{"geometry":{"coordinates":[20.950009,52.231886],"type":"Point"},"properties":{"osm_id":"3607446372","tag":{"amenity":"waste_basket"}},"type":"Feature"},
	{"geometry":{"coordinates":[20.950031,52.232216],"type":"Point"},"properties":{"osm_id":"3607446699","tag":{"amenity":"waste_basket"}},"type":"Feature"},
	{"geometry":{"coordinates":[20.949998,52.232455],"type":"Point"},"properties":{"osm_id":"3607446741","tag":{"amenity":"waste_basket"}},"type":"Feature"},
	{"geometry":{"coordinates":[20.949974,52.232601],"type":"Point"},"properties":{"osm_id":"3607446762","tag":{"amenity":"waste_basket"}},"type":"Feature"},
	{"geometry":{"coordinates":[20.949919,52.232933],"type":"Point"},"properties":{"osm_id":"3607446921","tag":{"amenity":"waste_basket"}},"type":"Feature"},
	{"geometry":{"coordinates":[20.949853,52.233281],"type":"Point"},"properties":{"osm_id":"3607446981","tag":{"amenity":"waste_basket"}},"type":"Feature"},
	{"geometry":{"coordinates":[20.9497,52.234051],"type":"Point"},"properties":{"osm_id":"3607447311","tag":{"amenity":"waste_basket"}},"type":"Feature"},
	{"geometry":{"coordinates":[20.950916,52.232163],"type":"Point"},"properties":{"osm_id":"3607617726","tag":{"amenity":"waste_basket"}},"type":"Feature"},
	{"geometry":{"coordinates":[20.950369,52.23308],"type":"Point"},"properties":{"osm_id":"3607617779","tag":{"amenity":"waste_basket"}},"type":"Feature"},
	{"geometry":{"coordinates":[20.950522,52.233326],"type":"Point"},"properties":{"osm_id":"3607619295","tag":{"amenity":"waste_basket"}},"type":"Feature"},
	{"geometry":{"coordinates":[20.950265,52.233356],"type":"Point"},"properties":{"osm_id":"3607619301","tag":{"amenity":"waste_basket"}},"type":"Feature"},
	{"geometry":{"coordinates":[20.950397,52.233431],"type":"Point"},"properties":{"osm_id":"3607619303","tag":{"amenity":"waste_basket"}},"type":"Feature"},
	{"geometry":{"coordinates":[20.950325,52.233501],"type":"Point"},"properties":{"osm_id":"3607619307","tag":{"amenity":"waste_basket"}},"type":"Feature"},
	{"geometry":{"coordinates":[20.950024,52.234121],"type":"Point"},"properties":{"osm_id":"3607619340","tag":{"amenity":"waste_basket"}},"type":"Feature"},
	{"geometry":{"coordinates":[20.950106,52.234743],"type":"Point"},"properties":{"osm_id":"3607619380","tag":{"amenity":"waste_basket"}},"type":"Feature"},
	{"geometry":{"coordinates":[20.94918,52.231641],"type":"Point"},"properties":{"osm_id":"3607776777","tag":{"amenity":"waste_basket"}},"type":"Feature"},
	{"geometry":{"coordinates":[20.949703,52.231795],"type":"Point"},"properties":{"osm_id":"3607776783","tag":{"amenity":"waste_basket"}},"type":"Feature"},
	{"geometry":{"coordinates":[20.95127,52.232275],"type":"Point"},"properties":{"osm_id":"3608486838","tag":{"amenity":"waste_basket"}},"type":"Feature"},
	{"geometry":{"coordinates":[20.951633,52.232366],"type":"Point"},"properties":{"osm_id":"3608486845","tag":{"amenity":"waste_basket"}},"type":"Feature"},
	{"geometry":{"coordinates":[20.951924,52.23245],"type":"Point"},"properties":{"osm_id":"3608486855","tag":{"amenity":"waste_basket"}},"type":"Feature"},
	{"geometry":{"coordinates":[20.952214,52.232536],"type":"Point"},"properties":{"osm_id":"3608486870","tag":{"amenity":"waste_basket"}},"type":"Feature"},
	{"geometry":{"coordinates":[20.951851,52.232957],"type":"Point"},"properties":{"osm_id":"3608486882","tag":{"amenity":"waste_basket"}},"type":"Feature"},
	{"geometry":{"coordinates":[20.951054,52.233026],"type":"Point"},"properties":{"osm_id":"3608486892","tag":{"amenity":"waste_basket"}},"type":"Feature"},
	{"geometry":{"coordinates":[20.952303,52.233036],"type":"Point"},"properties":{"osm_id":"3608487194","tag":{"amenity":"waste_basket"}},"type":"Feature"},
	{"geometry":{"coordinates":[20.950175,52.23368],"type":"Point"},"properties":{"osm_id":"3608487222","tag":{"amenity":"waste_basket"}},"type":"Feature"},
	{"geometry":{"coordinates":[20.952015,52.232662],"type":"Point"},"properties":{"osm_id":"3610647524","tag":{"amenity":"waste_basket"}},"type":"Feature"},
	{"geometry":{"coordinates":[20.949774,52.233639],"type":"Point"},"properties":{"osm_id":"3610647725","tag":{"amenity":"waste_basket"}},"type":"Feature"},
	{"geometry":{"coordinates":[20.952512,52.233308],"type":"Point"},"properties":{"osm_id":"3610764020","tag":{"amenity":"waste_basket"}},"type":"Feature"},
	{"geometry":{"coordinates":[20.952656,52.233504],"type":"Point"},"properties":{"osm_id":"3610764027","tag":{"amenity":"waste_basket"}},"type":"Feature"},
	{"geometry":{"coordinates":[20.952791,52.233931],"type":"Point"},"properties":{"osm_id":"3610764070","tag":{"amenity":"waste_basket"}},"type":"Feature"},
	{"geometry":{"coordinates":[20.952646,52.234499],"type":"Point"},"properties":{"osm_id":"3610846542","tag":{"amenity":"waste_basket"}},"type":"Feature"},
	{"geometry":{"coordinates":[20.952378,52.234821],"type":"Point"},"properties":{"osm_id":"3610846576","tag":{"amenity":"waste_basket"}},"type":"Feature"},
	{"geometry":{"coordinates":[20.952182,52.235019],"type":"Point"},"properties":{"osm_id":"3610846710","tag":{"amenity":"waste_basket"}},"type":"Feature"},
	{"geometry":{"coordinates":[20.951238,52.235123],"type":"Point"},"properties":{"osm_id":"3610846750","tag":{"amenity":"waste_basket"}},"type":"Feature"},
	{"geometry":{"coordinates":[20.950858,52.235226],"type":"Point"},"properties":{"osm_id":"3610846767","tag":{"amenity":"waste_basket"}},"type":"Feature"},
	{"geometry":{"coordinates":[20.951908,52.235297],"type":"Point"},"properties":{"osm_id":"3610846770","tag":{"amenity":"waste_basket"}},"type":"Feature"},
	{"geometry":{"coordinates":[20.95314,52.247151],"type":"Point"},"properties":{"osm_id":"3611315530","tag":{"amenity":"waste_basket"}},"type":"Feature"},
	{"geometry":{"coordinates":[20.952728,52.246556],"type":"Point"},"properties":{"osm_id":"3611388873","tag":{"entrance":"yes"}},"type":"Feature"},
	{"geometry":{"coordinates":[20.9532,52.24663],"type":"Point"},"properties":{"osm_id":"3611388889","tag":{"amenity":"waste_basket"}},"type":"Feature"},
	{"geometry":{"coordinates":[20.95219,52.247119],"type":"Point"},"properties":{"osm_id":"3611389943","tag":{"amenity":"waste_basket"}},"type":"Feature"},
	{"geometry":{"coordinates":[20.952836,52.247148],"type":"Point"},"properties":{"osm_id":"3611389947","tag":{"amenity":"waste_basket"}},"type":"Feature"},
	{"geometry":{"coordinates":[20.952765,52.247194],"type":"Point"},"properties":{"osm_id":"3611389952","tag":{"amenity":"waste_basket"}},"type":"Feature"},
	{"geometry":{"coordinates":[20.952183,52.24688],"type":"Point"},"properties":{"osm_id":"3611455772","tag":{"entrance":"yes"}},"type":"Feature"},
	{"geometry":{"coordinates":[20.951679,52.246553],"type":"Point"},"properties":{"osm_id":"3613298141","tag":{"amenity":"waste_basket"}},"type":"Feature"},
	{"geometry":{"coordinates":[20.94937,52.24684],"type":"Point"},"properties":{"osm_id":"3613298277","tag":{"amenity":"waste_basket"}},"type":"Feature"},
	{"geometry":{"coordinates":[20.950427,52.246902],"type":"Point"},"properties":{"osm_id":"3613298313","tag":{"amenity":"waste_basket"}},"type":"Feature"},
	{"geometry":{"coordinates":[20.94881,52.246956],"type":"Point"},"properties":{"osm_id":"3613298344","tag":{"amenity":"waste_basket"}},"type":"Feature"},
	{"geometry":{"coordinates":[20.949321,52.246985],"type":"Point"},"properties":{"osm_id":"3613298360","tag":{"amenity":"waste_basket"}},"type":"Feature"},
	{"geometry":{"coordinates":[20.949969,52.247011],"type":"Point"},"properties":{"osm_id":"3613298372","tag":{"amenity":"waste_basket"}},"type":"Feature"},
	{"geometry":{"coordinates":[20.95159,52.247011],"type":"Point"},"properties":{"osm_id":"3613298373","tag":{"amenity":"waste_basket"}},"type":"Feature"},
	{"geometry":{"coordinates":[20.950412,52.247034],"type":"Point"},"properties":{"osm_id":"3613298382","tag":{"amenity":"waste_basket"}},"type":"Feature"},
	{"geometry":{"coordinates":[20.951983,52.248869],"type":"Point"},"properties":{"osm_id":"3615584116","tag":{"amenity":"waste_basket"}},"type":"Feature"},
	{"geometry":{"coordinates":[20.951273,52.248898],"type":"Point"},"properties":{"osm_id":"3615584135","tag":{"amenity":"waste_basket"}},"type":"Feature"},
	{"geometry":{"coordinates":[20.947084,52.24692],"type":"Point"},"properties":{"osm_id":"3623690691","tag":{"amenity":"waste_basket"}},"type":"Feature"},
	{"geometry":{"coordinates":[20.947284,52.247198],"type":"Point"},"properties":{"osm_id":"3623691523","tag":{"amenity":"waste_basket"}},"type":"Feature"},
	{"geometry":{"coordinates":[20.948118,52.247546],"type":"Point"},"properties":{"osm_id":"3625610245","tag":{"amenity":"waste_basket"}},"type":"Feature"},
	{"geometry":{"coordinates":[20.949246,52.247557],"type":"Point"},"properties":{"osm_id":"3625610252","tag":{"amenity":"waste_basket"}},"type":"Feature"},
	{"geometry":{"coordinates":[20.949288,52.247575],"type":"Point"},"properties":{"osm_id":"3625610266","tag":{"amenity":"waste_basket"}},"type":"Feature"},
	{"geometry":{"coordinates":[20.949219,52.24762],"type":"Point"},"properties":{"osm_id":"3625610497","tag":{"amenity":"waste_basket"}},"type":"Feature"},
	{"geometry":{"coordinates":[20.95022,52.247644],"type":"Point"},"properties":{"osm_id":"3625610512","tag":{"amenity":"waste_basket"}},"type":"Feature"},
	{"geometry":{"coordinates":[20.951493,52.247669],"type":"Point"},"properties":{"osm_id":"3625610528","tag":{"amenity":"waste_basket"}},"type":"Feature"},
	{"geometry":{"coordinates":[20.951433,52.247705],"type":"Point"},"properties":{"osm_id":"3625610550","tag":{"amenity":"waste_basket"}},"type":"Feature"},
	{"geometry":{"coordinates":[20.952645,52.247761],"type":"Point"},"properties":{"osm_id":"3625610586","tag":{"amenity":"waste_basket"}},"type":"Feature"},
	{"geometry":{"coordinates":[20.955193,52.230726],"type":"Point"},"properties":{"osm_id":"3683081970","tag":{"amenity":"waste_basket"}},"type":"Feature"},
	{"geometry":{"coordinates":[20.954891,52.230767],"type":"Point"},"properties":{"osm_id":"3683081978","tag":{"amenity":"waste_basket"}},"type":"Feature"},
	{"geometry":{"coordinates":[20.955392,52.230778],"type":"Point"},"properties":{"osm_id":"3683081981","tag":{"amenity":"waste_basket"}},"type":"Feature"},
	{"geometry":{"coordinates":[20.985276,52.251081],"type":"Point"},"properties":{"osm_id":"3708408470","tag":{"amenity":"waste_basket"}},"type":"Feature"},
	{"geometry":{"coordinates":[20.984462,52.251892],"type":"Point"},"properties":{"osm_id":"3708412343","tag":{"amenity":"waste_basket"}},"type":"Feature"},
	{"geometry":{"coordinates":[20.983618,52.252913],"type":"Point"},"properties":{"osm_id":"3708412378","tag":{"amenity":"waste_basket"}},"type":"Feature"},
	{"geometry":{"coordinates":[20.981702,52.253459],"type":"Point"},"properties":{"osm_id":"3708412401","tag":{"amenity":"waste_basket"}},"type":"Feature"},
	{"geometry":{"coordinates":[20.981371,52.253625],"type":"Point"},"properties":{"osm_id":"3708412526","tag":{"amenity":"waste_basket"}},"type":"Feature"},
	{"geometry":{"coordinates":[20.982665,52.254019],"type":"Point"},"properties":{"osm_id":"3708412595","tag":{"amenity":"waste_basket"}},"type":"Feature"},
	{"geometry":{"coordinates":[20.982559,52.254112],"type":"Point"},"properties":{"osm_id":"3708412616","tag":{"amenity":"waste_basket"}},"type":"Feature"},
	{"geometry":{"coordinates":[20.986089,52.250831],"type":"Point"},"properties":{"osm_id":"3709129049","tag":{"amenity":"waste_basket"}},"type":"Feature"},
	{"geometry":{"coordinates":[20.985554,52.250846],"type":"Point"},"properties":{"osm_id":"3709129053","tag":{"amenity":"waste_basket"}},"type":"Feature"},
	{"geometry":{"coordinates":[20.986206,52.251028],"type":"Point"},"properties":{"osm_id":"3709129081","tag":{"amenity":"waste_basket"}},"type":"Feature"},
	{"geometry":{"coordinates":[20.986014,52.251226],"type":"Point"},"properties":{"osm_id":"3709129107","tag":{"amenity":"waste_basket"}},"type":"Feature"},
	{"geometry":{"coordinates":[20.985818,52.250491],"type":"Point"},"properties":{"osm_id":"3709218861","tag":{"amenity":"waste_basket"}},"type":"Feature"},
	{"geometry":{"coordinates":[20.985768,52.250558],"type":"Point"},"properties":{"osm_id":"3709218870","tag":{"amenity":"waste_basket"}},"type":"Feature"},
	{"geometry":{"coordinates":[20.98519,52.25119],"type":"Point"},"properties":{"osm_id":"3709218874","tag":{"amenity":"waste_basket"}},"type":"Feature"},
	{"geometry":{"coordinates":[20.98208,52.256725],"type":"Point"},"properties":{"osm_id":"3738993468","tag":{"amenity":"waste_basket"}},"type":"Feature"},
	{"geometry":{"coordinates":[20.954093,52.247663],"type":"Point"},"properties":{"osm_id":"3740510144","tag":{"amenity":"waste_basket"}},"type":"Feature"},
	{"geometry":{"coordinates":[20.955289,52.234462],"type":"Point"},"properties":{"osm_id":"3741952538","tag":{"amenity":"waste_basket"}},"type":"Feature"},
	{"geometry":{"coordinates":[20.955471,52.238301],"type":"Point"},"properties":{"osm_id":"3744427142","tag":{"amenity":"waste_basket"}},"type":"Feature"},
	{"geometry":{"coordinates":[20.951452,52.241317],"type":"Point"},"properties":{"osm_id":"3744602801","tag":{"amenity":"waste_basket"}},"type":"Feature"},
	{"geometry":{"coordinates":[20.951662,52.241447],"type":"Point"},"properties":{"osm_id":"3744602819","tag":{"amenity":"waste_basket"}},"type":"Feature"},
	{"geometry":{"coordinates":[20.951105,52.241527],"type":"Point"},"properties":{"osm_id":"3744607341","tag":{"amenity":"waste_basket"}},"type":"Feature"},
	{"geometry":{"coordinates":[20.950323,52.241631],"type":"Point"},"properties":{"osm_id":"3744607361","tag":{"amenity":"waste_basket"}},"type":"Feature"},
	{"geometry":{"coordinates":[20.950996,52.241655],"type":"Point"},"properties":{"osm_id":"3744607370","tag":{"amenity":"waste_basket"}},"type":"Feature"},
	{"geometry":{"coordinates":[20.951339,52.241785],"type":"Point"},"properties":{"osm_id":"3744607410","tag":{"amenity":"waste_basket"}},"type":"Feature"},
	{"geometry":{"coordinates":[20.952552,52.241831],"type":"Point"},"properties":{"osm_id":"3744607421","tag":{"amenity":"waste_basket"}},"type":"Feature"},
	{"geometry":{"coordinates":[20.952225,52.241918],"type":"Point"},"properties":{"osm_id":"3744607457","tag":{"amenity":"waste_basket"}},"type":"Feature"},
	{"geometry":{"coordinates":[20.952587,52.241986],"type":"Point"},"properties":{"osm_id":"3744607468","tag":{"amenity":"waste_basket"}},"type":"Feature"},
	{"geometry":{"coordinates":[20.951616,52.242014],"type":"Point"},"properties":{"osm_id":"3744607471","tag":{"amenity":"waste_basket"}},"type":"Feature"},
	{"geometry":{"coordinates":[20.953407,52.242102],"type":"Point"},"properties":{"osm_id":"3744607480","tag":{"amenity":"waste_basket"}},"type":"Feature"},
	{"geometry":{"coordinates":[20.953688,52.242144],"type":"Point"},"properties":{"osm_id":"3744607487","tag":{"amenity":"waste_basket"}},"type":"Feature"},
	{"geometry":{"coordinates":[20.945889,52.250021],"type":"Point"},"properties":{"osm_id":"3768890559","tag":{"amenity":"waste_basket"}},"type":"Feature"},
	{"geometry":{"coordinates":[20.947649,52.250464],"type":"Point"},"properties":{"osm_id":"3768943070","tag":{"amenity":"waste_basket"}},"type":"Feature"},
	{"geometry":{"coordinates":[20.94592,52.250356],"type":"Point"},"properties":{"osm_id":"3768945263","tag":{"amenity":"waste_basket"}},"type":"Feature"},
	{"geometry":{"coordinates":[20.946891,52.250872],"type":"Point"},"properties":{"osm_id":"3768945472","tag":{"amenity":"waste_basket"}},"type":"Feature"},
	{"geometry":{"coordinates":[20.947613,52.250959],"type":"Point"},"properties":{"osm_id":"3768945473","tag":{"amenity":"waste_basket"}},"type":"Feature"},
	{"geometry":{"coordinates":[20.947451,52.24994],"type":"Point"},"properties":{"osm_id":"3768946862","tag":{"amenity":"waste_basket"}},"type":"Feature"},
	{"geometry":{"coordinates":[20.94725,52.249397],"type":"Point"},"properties":{"osm_id":"3768962057","tag":{"amenity":"waste_basket"}},"type":"Feature"},
	{"geometry":{"coordinates":[20.943666,52.249529],"type":"Point"},"properties":{"osm_id":"3768962260","tag":{"amenity":"waste_basket"}},"type":"Feature"},
	{"geometry":{"coordinates":[20.943446,52.249378],"type":"Point"},"properties":{"osm_id":"3768962261","tag":{"amenity":"waste_basket"}},"type":"Feature"},
	{"geometry":{"coordinates":[20.945824,52.249623],"type":"Point"},"properties":{"osm_id":"3768963157","tag":{"amenity":"waste_basket"}},"type":"Feature"},
	{"geometry":{"coordinates":[20.944186,52.250077],"type":"Point"},"properties":{"osm_id":"3768963158","tag":{"amenity":"waste_basket"}},"type":"Feature"},
	{"geometry":{"coordinates":[20.943659,52.249871],"type":"Point"},"properties":{"osm_id":"3768966057","tag":{"amenity":"waste_basket"}},"type":"Feature"},
	{"geometry":{"coordinates":[20.943039,52.248583],"type":"Point"},"properties":{"osm_id":"3768974257","tag":{"amenity":"waste_basket"}},"type":"Feature"},
	{"geometry":{"coordinates":[20.919928,52.243738],"type":"Point"},"properties":{"osm_id":"3769081562","tag":{"amenity":"waste_basket"}},"type":"Feature"},
	{"geometry":{"coordinates":[20.920205,52.243647],"type":"Point"},"properties":{"osm_id":"3769108658","tag":{"amenity":"waste_basket"}},"type":"Feature"},
	{"geometry":{"coordinates":[20.951454,52.240112],"type":"Point"},"properties":{"osm_id":"3775349081","tag":{"amenity":"waste_basket"}},"type":"Feature"},
	{"geometry":{"coordinates":[20.952124,52.240147],"type":"Point"},"properties":{"osm_id":"3775349085","tag":{"amenity":"waste_basket"}},"type":"Feature"},
	{"geometry":{"coordinates":[20.951584,52.240167],"type":"Point"},"properties":{"osm_id":"3775349088","tag":{"amenity":"waste_basket"}},"type":"Feature"},
	{"geometry":{"coordinates":[20.950105,52.241723],"type":"Point"},"properties":{"osm_id":"3775349146","tag":{"amenity":"waste_basket"}},"type":"Feature"},
	{"geometry":{"coordinates":[20.948869,52.24188],"type":"Point"},"properties":{"osm_id":"3775349282","tag":{"amenity":"waste_basket"}},"type":"Feature"},
	{"geometry":{"coordinates":[20.949069,52.241973],"type":"Point"},"properties":{"osm_id":"3775349312","tag":{"amenity":"waste_basket"}},"type":"Feature"},
	{"geometry":{"coordinates":[20.949125,52.242039],"type":"Point"},"properties":{"osm_id":"3775349337","tag":{"amenity":"waste_basket"}},"type":"Feature"},
	{"geometry":{"coordinates":[20.948755,52.24206],"type":"Point"},"properties":{"osm_id":"3775349345","tag":{"amenity":"waste_basket"}},"type":"Feature"},
	{"geometry":{"coordinates":[20.948895,52.242068],"type":"Point"},"properties":{"osm_id":"3775349347","tag":{"amenity":"waste_basket"}},"type":"Feature"},
	{"geometry":{"coordinates":[20.948696,52.242142],"type":"Point"},"properties":{"osm_id":"3775349558","tag":{"amenity":"waste_basket"}},"type":"Feature"},
	{"geometry":{"coordinates":[20.948931,52.242223],"type":"Point"},"properties":{"osm_id":"3775349570","tag":{"amenity":"waste_basket"}},"type":"Feature"},
	{"geometry":{"coordinates":[20.948953,52.242373],"type":"Point"},"properties":{"osm_id":"3775349587","tag":{"amenity":"waste_basket"}},"type":"Feature"},
	{"geometry":{"coordinates":[20.948723,52.242374],"type":"Point"},"properties":{"osm_id":"3775349589","tag":{"amenity":"waste_basket"}},"type":"Feature"},
	{"geometry":{"coordinates":[20.948791,52.242564],"type":"Point"},"properties":{"osm_id":"3775349607","tag":{"amenity":"waste_basket"}},"type":"Feature"},
	{"geometry":{"coordinates":[20.948637,52.242652],"type":"Point"},"properties":{"osm_id":"3775349618","tag":{"amenity":"waste_basket"}},"type":"Feature"},
	{"geometry":{"coordinates":[20.948402,52.242762],"type":"Point"},"properties":{"osm_id":"3775349627","tag":{"amenity":"waste_basket"}},"type":"Feature"},
	{"geometry":{"coordinates":[20.942208,52.249409],"type":"Point"},"properties":{"osm_id":"3789276160","tag":{"amenity":"waste_basket"}},"type":"Feature"},
	{"geometry":{"coordinates":[20.942123,52.249631],"type":"Point"},"properties":{"osm_id":"3789276258","tag":{"amenity":"waste_basket"}},"type":"Feature"},
	{"geometry":{"coordinates":[20.940866,52.249569],"type":"Point"},"properties":{"osm_id":"3789276259","tag":{"amenity":"waste_basket"}},"type":"Feature"},
	{"geometry":{"coordinates":[20.940225,52.24943],"type":"Point"},"properties":{"osm_id":"3789276260","tag":{"amenity":"waste_basket"}},"type":"Feature"},
	{"geometry":{"coordinates":[20.94246,52.249978],"type":"Point"},"properties":{"osm_id":"3789276559","tag":{"amenity":"waste_basket"}},"type":"Feature"},
	{"geometry":{"coordinates":[20.940409,52.249626],"type":"Point"},"properties":{"osm_id":"3789276565","tag":{"amenity":"waste_basket"}},"type":"Feature"},
	{"geometry":{"coordinates":[20.941381,52.249507],"type":"Point"},"properties":{"osm_id":"3789278560","tag":{"amenity":"waste_basket"}},"type":"Feature"},
	{"geometry":{"coordinates":[20.947693,52.251477],"type":"Point"},"properties":{"osm_id":"3789278663","tag":{"amenity":"waste_basket"}},"type":"Feature"},
	{"geometry":{"coordinates":[20.939877,52.24743],"type":"Point"},"properties":{"osm_id":"3789357161","tag":{"amenity":"waste_basket"}},"type":"Feature"},
	{"geometry":{"coordinates":[20.939245,52.247169],"type":"Point"},"properties":{"osm_id":"3789357163","tag":{"amenity":"waste_basket"}},"type":"Feature"},
	{"geometry":{"coordinates":[20.940239,52.248831],"type":"Point"},"properties":{"osm_id":"3789372657","tag":{"amenity":"waste_basket"}},"type":"Feature"},
	{"geometry":{"coordinates":[20.960902,52.217063],"type":"Point"},"properties":{"osm_id":"4264184962","tag":{"amenity":"waste_basket"}},"type":"Feature"},
	{"geometry":{"coordinates":[20.960798,52.217186],"type":"Point"},"properties":{"osm_id":"4264184981","tag":{"amenity":"waste_basket"}},"type":"Feature"},
	{"geometry":{"coordinates":[20.952596,52.227845],"type":"Point"},"properties":{"osm_id":"4297085768","tag":{"amenity":"waste_basket"}},"type":"Feature"},
	{"geometry":{"coordinates":[20.95271,52.227853],"type":"Point"},"properties":{"osm_id":"4297085776","tag":{"amenity":"waste_basket"}},"type":"Feature"},
	{"geometry":{"coordinates":[20.957137,52.231095],"type":"Point"},"properties":{"osm_id":"4300873159","tag":{"amenity":"waste_basket"}},"type":"Feature"},
	{"geometry":{"coordinates":[20.956972,52.231515],"type":"Point"},"properties":{"osm_id":"4303407446","tag":{"amenity":"waste_basket"}},"type":"Feature"},
	{"geometry":{"coordinates":[20.956763,52.231607],"type":"Point"},"properties":{"osm_id":"4303407452","tag":{"amenity":"waste_basket"}},"type":"Feature"},
	{"geometry":{"coordinates":[20.956753,52.231747],"type":"Point"},"properties":{"osm_id":"4303407483","tag":{"amenity":"waste_basket"}},"type":"Feature"},
	{"geometry":{"coordinates":[20.966976,52.228346],"type":"Point"},"properties":{"osm_id":"4305120180","tag":{"amenity":"waste_basket"}},"type":"Feature"},
	{"geometry":{"coordinates":[20.96703,52.22875],"type":"Point"},"properties":{"osm_id":"4308047283","tag":{"amenity":"waste_basket"}},"type":"Feature"},
	{"geometry":{"coordinates":[20.967558,52.228859],"type":"Point"},"properties":{"osm_id":"4308048189","tag":{"amenity":"waste_basket"}},"type":"Feature"},
	{"geometry":{"coordinates":[20.966914,52.23022],"type":"Point"},"properties":{"osm_id":"4308048292","tag":{"amenity":"waste_basket"}},"type":"Feature"},
	{"geometry":{"coordinates":[20.965811,52.24732],"type":"Point"},"properties":{"osm_id":"4313488328","tag":{"amenity":"waste_basket"}},"type":"Feature"},
	{"geometry":{"coordinates":[20.961648,52.246264],"type":"Point"},"properties":{"osm_id":"4319924034","tag":{"amenity":"waste_basket"}},"type":"Feature"},
	{"geometry":{"coordinates":[20.961642,52.246356],"type":"Point"},"properties":{"osm_id":"4319924035","tag":{"amenity":"waste_basket"}},"type":"Feature"},
	{"geometry":{"coordinates":[20.962297,52.246531],"type":"Point"},"properties":{"osm_id":"4320334981","tag":{"amenity":"waste_basket"}},"type":"Feature"},
	{"geometry":{"coordinates":[20.962287,52.24484],"type":"Point"},"properties":{"osm_id":"4323978742","tag":{"amenity":"waste_basket"}},"type":"Feature"},
	{"geometry":{"coordinates":[20.964466,52.244986],"type":"Point"},"properties":{"osm_id":"4324204353","tag":{"amenity":"waste_basket"}},"type":"Feature"},
	{"geometry":{"coordinates":[20.964106,52.245139],"type":"Point"},"properties":{"osm_id":"4324204356","tag":{"amenity":"waste_basket"}},"type":"Feature"},
	{"geometry":{"coordinates":[20.963865,52.245268],"type":"Point"},"properties":{"osm_id":"4324204363","tag":{"amenity":"waste_basket"}},"type":"Feature"},
	{"geometry":{"coordinates":[20.963626,52.245394],"type":"Point"},"properties":{"osm_id":"4324204369","tag":{"amenity":"waste_basket"}},"type":"Feature"},
	{"geometry":{"coordinates":[20.963402,52.245512],"type":"Point"},"properties":{"osm_id":"4324204375","tag":{"amenity":"waste_basket"}},"type":"Feature"},
	{"geometry":{"coordinates":[20.963131,52.245659],"type":"Point"},"properties":{"osm_id":"4324204386","tag":{"amenity":"waste_basket"}},"type":"Feature"},
	{"geometry":{"coordinates":[20.962684,52.245978],"type":"Point"},"properties":{"osm_id":"4324204501","tag":{"amenity":"waste_basket"}},"type":"Feature"},
	{"geometry":{"coordinates":[21.003664,52.22782],"type":"Point"},"properties":{"osm_id":"4381510325","tag":{"amenity":"waste_basket"}},"type":"Feature"},
	{"geometry":{"coordinates":[21.003506,52.227794],"type":"Point"},"properties":{"osm_id":"4381510326","tag":{"amenity":"waste_basket"}},"type":"Feature"},
	{"geometry":{"coordinates":[20.943516,52.238648],"type":"Point"},"properties":{"osm_id":"4548107597","tag":{"amenity":"waste_basket"}},"type":"Feature"},
	{"geometry":{"coordinates":[20.946931,52.238633],"type":"Point"},"properties":{"osm_id":"4548107683","tag":{"amenity":"waste_basket"}},"type":"Feature"},
	{"geometry":{"coordinates":[20.935229,52.239805],"type":"Point"},"properties":{"osm_id":"4548183047","tag":{"amenity":"waste_basket"}},"type":"Feature"},
	{"geometry":{"coordinates":[20.946671,52.238978],"type":"Point"},"properties":{"osm_id":"4548561330","tag":{"amenity":"waste_basket"}},"type":"Feature"},
	{"geometry":{"coordinates":[20.945885,52.239067],"type":"Point"},"properties":{"osm_id":"4548561345","tag":{"amenity":"waste_basket"}},"type":"Feature"},
	{"geometry":{"coordinates":[20.943083,52.239704],"type":"Point"},"properties":{"osm_id":"4548561516","tag":{"amenity":"waste_basket"}},"type":"Feature"},
	{"geometry":{"coordinates":[20.956657,52.238068],"type":"Point"},"properties":{"osm_id":"4548930849","tag":{"amenity":"waste_basket"}},"type":"Feature"},
	{"geometry":{"coordinates":[20.961974,52.237255],"type":"Point"},"properties":{"osm_id":"4549148244","tag":{"amenity":"waste_basket"}},"type":"Feature"},
	{"geometry":{"coordinates":[20.963929,52.237141],"type":"Point"},"properties":{"osm_id":"4549148274","tag":{"amenity":"waste_basket"}},"type":"Feature"},
	{"geometry":{"coordinates":[20.966283,52.236924],"type":"Point"},"properties":{"osm_id":"4549148397","tag":{"amenity":"waste_basket"}},"type":"Feature"},
	{"geometry":{"coordinates":[20.965562,52.237029],"type":"Point"},"properties":{"osm_id":"4549148483","tag":{"amenity":"waste_basket"}},"type":"Feature"},
	{"geometry":{"coordinates":[20.964014,52.237481],"type":"Point"},"properties":{"osm_id":"4549148494","tag":{"amenity":"waste_basket"}},"type":"Feature"},
	{"geometry":{"coordinates":[20.964908,52.237329],"type":"Point"},"properties":{"osm_id":"4549148547","tag":{"amenity":"waste_basket"}},"type":"Feature"},
	{"geometry":{"coordinates":[20.963857,52.237491],"type":"Point"},"properties":{"osm_id":"4549148548","tag":{"amenity":"waste_basket"}},"type":"Feature"},
	{"geometry":{"coordinates":[20.962771,52.237255],"type":"Point"},"properties":{"osm_id":"4549148591","tag":{"amenity":"waste_basket"}},"type":"Feature"},
	{"geometry":{"coordinates":[20.963435,52.23757],"type":"Point"},"properties":{"osm_id":"4549148600","tag":{"amenity":"waste_basket"}},"type":"Feature"},
	{"geometry":{"coordinates":[20.961839,52.237296],"type":"Point"},"properties":{"osm_id":"4549417458","tag":{"amenity":"waste_basket"}},"type":"Feature"},
	{"geometry":{"coordinates":[20.967132,52.238497],"type":"Point"},"properties":{"osm_id":"4553129950","tag":{"amenity":"waste_basket"}},"type":"Feature"},
	{"geometry":{"coordinates":[20.967943,52.238689],"type":"Point"},"properties":{"osm_id":"4553130475","tag":{"amenity":"waste_basket"}},"type":"Feature"},
	{"geometry":{"coordinates":[20.967983,52.238586],"type":"Point"},"properties":{"osm_id":"4553130491","tag":{"amenity":"waste_basket"}},"type":"Feature"},
	{"geometry":{"coordinates":[20.969653,52.238777],"type":"Point"},"properties":{"osm_id":"4553130532","tag":{"amenity":"waste_basket"}},"type":"Feature"},
	{"geometry":{"coordinates":[20.969589,52.238913],"type":"Point"},"properties":{"osm_id":"4553130554","tag":{"amenity":"waste_basket"}},"type":"Feature"},
	{"geometry":{"coordinates":[20.971135,52.239015],"type":"Point"},"properties":{"osm_id":"4553130714","tag":{"amenity":"waste_basket"}},"type":"Feature"},
	{"geometry":{"coordinates":[20.972036,52.237297],"type":"Point"},"properties":{"osm_id":"4554503280","tag":{"amenity":"waste_basket"}},"type":"Feature"},
	{"geometry":{"coordinates":[20.971824,52.236864],"type":"Point"},"properties":{"osm_id":"4554503707","tag":{"amenity":"waste_basket"}},"type":"Feature"},
	{"geometry":{"coordinates":[20.972195,52.237263],"type":"Point"},"properties":{"osm_id":"4554503725","tag":{"amenity":"waste_basket"}},"type":"Feature"},
	{"geometry":{"coordinates":[20.972821,52.236969],"type":"Point"},"properties":{"osm_id":"4554503896","tag":{"amenity":"waste_basket"}},"type":"Feature"},
	{"geometry":{"coordinates":[20.972443,52.23697],"type":"Point"},"properties":{"osm_id":"4554503950","tag":{"amenity":"waste_basket"}},"type":"Feature"},
	{"geometry":{"coordinates":[20.972179,52.236809],"type":"Point"},"properties":{"osm_id":"4554504139","tag":{"amenity":"waste_basket"}},"type":"Feature"},
	{"geometry":{"coordinates":[20.97198,52.237701],"type":"Point"},"properties":{"osm_id":"4554679828","tag":{"amenity":"recycling","recycling:clothes":"yes","recycling_type":"container"}},"type":"Feature"},
	{"geometry":{"coordinates":[20.971623,52.237192],"type":"Point"},"properties":{"osm_id":"4557971298","tag":{"amenity":"waste_basket"}},"type":"Feature"},
	{"geometry":{"coordinates":[20.971586,52.237782],"type":"Point"},"properties":{"osm_id":"4557971313","tag":{"amenity":"waste_basket"}},"type":"Feature"},
	{"geometry":{"coordinates":[20.973722,52.237587],"type":"Point"},"properties":{"osm_id":"4558258684","tag":{"amenity":"waste_basket"}},"type":"Feature"},
	{"geometry":{"coordinates":[20.973,52.237457],"type":"Point"},"properties":{"osm_id":"4558261515","tag":{"amenity":"waste_basket"}},"type":"Feature"},
	{"geometry":{"coordinates":[20.973864,52.237267],"type":"Point"},"properties":{"osm_id":"4558261675","tag":{"amenity":"waste_basket"}},"type":"Feature"},
	{"geometry":{"coordinates":[20.971326,52.239165],"type":"Point"},"properties":{"osm_id":"4558552580","tag":{"amenity":"waste_basket"}},"type":"Feature"},
	{"geometry":{"coordinates":[20.971766,52.238448],"type":"Point"},"properties":{"osm_id":"4558553219","tag":{"amenity":"waste_basket"}},"type":"Feature"},
	{"geometry":{"coordinates":[20.970739,52.240702],"type":"Point"},"properties":{"osm_id":"4558843800","tag":{"amenity":"waste_basket"}},"type":"Feature"},
	{"geometry":{"coordinates":[20.970797,52.24055],"type":"Point"},"properties":{"osm_id":"4558843818","tag":{"amenity":"waste_basket"}},"type":"Feature"},
	{"geometry":{"coordinates":[20.965912,52.244613],"type":"Point"},"properties":{"osm_id":"4558978315","tag":{"amenity":"waste_basket"}},"type":"Feature"},
	{"geometry":{"coordinates":[20.967081,52.244199],"type":"Point"},"properties":{"osm_id":"4558978380","tag":{"amenity":"waste_basket"}},"type":"Feature"},
	{"geometry":{"coordinates":[20.968243,52.24312],"type":"Point"},"properties":{"osm_id":"4558978501","tag":{"amenity":"waste_basket"}},"type":"Feature"},
	{"geometry":{"coordinates":[20.970366,52.240983],"type":"Point"},"properties":{"osm_id":"4558978833","tag":{"amenity":"waste_basket"}},"type":"Feature"},
	{"geometry":{"coordinates":[20.970431,52.240893],"type":"Point"},"properties":{"osm_id":"4558978842","tag":{"amenity":"waste_basket"}},"type":"Feature"},
	{"geometry":{"coordinates":[21.001351,52.234946],"type":"Point"},"properties":{"osm_id":"4559294432","tag":{"amenity":"waste_basket"}},"type":"Feature"},
	{"geometry":{"coordinates":[21.001748,52.234926],"type":"Point"},"properties":{"osm_id":"4559294463","tag":{"amenity":"waste_basket"}},"type":"Feature"},
	{"geometry":{"coordinates":[21.001844,52.235105],"type":"Point"},"properties":{"osm_id":"4559294464","tag":{"amenity":"waste_basket"}},"type":"Feature"},
	{"geometry":{"coordinates":[21.000889,52.236581],"type":"Point"},"properties":{"osm_id":"4560340836","tag":{"amenity":"waste_basket"}},"type":"Feature"},
	{"geometry":{"coordinates":[21.001259,52.236293],"type":"Point"},"properties":{"osm_id":"4560340858","tag":{"amenity":"waste_basket"}},"type":"Feature"},
	{"geometry":{"coordinates":[20.999537,52.236751],"type":"Point"},"properties":{"osm_id":"4560833764","tag":{"amenity":"waste_basket"}},"type":"Feature"},
	{"geometry":{"coordinates":[20.999157,52.237997],"type":"Point"},"properties":{"osm_id":"4562626790","tag":{"amenity":"waste_basket"}},"type":"Feature"},
	{"geometry":{"coordinates":[20.999033,52.23802],"type":"Point"},"properties":{"osm_id":"4562626809","tag":{"amenity":"waste_basket"}},"type":"Feature"},
	{"geometry":{"coordinates":[20.998715,52.237708],"type":"Point"},"properties":{"osm_id":"4562626823","tag":{"amenity":"waste_basket"}},"type":"Feature"},
	{"geometry":{"coordinates":[20.997667,52.237832],"type":"Point"},"properties":{"osm_id":"4564300737","tag":{"amenity":"waste_basket"}},"type":"Feature"},
	{"geometry":{"coordinates":[20.998157,52.238207],"type":"Point"},"properties":{"osm_id":"4564300788","tag":{"amenity":"waste_basket"}},"type":"Feature"},
	{"geometry":{"coordinates":[20.997536,52.238107],"type":"Point"},"properties":{"osm_id":"4564300889","tag":{"amenity":"waste_basket"}},"type":"Feature"},
	{"geometry":{"coordinates":[20.997896,52.238068],"type":"Point"},"properties":{"osm_id":"4564300894","tag":{"amenity":"waste_basket"}},"type":"Feature"},
	{"geometry":{"coordinates":[20.998464,52.238163],"type":"Point"},"properties":{"osm_id":"4564300936","tag":{"amenity":"waste_basket"}},"type":"Feature"},
	{"geometry":{"coordinates":[20.998604,52.237934],"type":"Point"},"properties":{"osm_id":"4564300942","tag":{"amenity":"waste_basket"}},"type":"Feature"},
	{"geometry":{"coordinates":[20.998968,52.238234],"type":"Point"},"properties":{"osm_id":"4564300945","tag":{"amenity":"waste_basket"}},"type":"Feature"},
	{"geometry":{"coordinates":[20.999744,52.238362],"type":"Point"},"properties":{"osm_id":"4564300950","tag":{"amenity":"waste_basket"}},"type":"Feature"},
	{"geometry":{"coordinates":[20.996223,52.23889],"type":"Point"},"properties":{"osm_id":"4565874831","tag":{"amenity":"waste_basket"}},"type":"Feature"},
	{"geometry":{"coordinates":[20.996352,52.238939],"type":"Point"},"properties":{"osm_id":"4565874832","tag":{"amenity":"waste_basket"}},"type":"Feature"},
	{"geometry":{"coordinates":[20.99665,52.238716],"type":"Point"},"properties":{"osm_id":"4565874854","tag":{"amenity":"waste_basket"}},"type":"Feature"},
	{"geometry":{"coordinates":[20.996627,52.23878],"type":"Point"},"properties":{"osm_id":"4565874855","tag":{"amenity":"waste_basket"}},"type":"Feature"},
	{"geometry":{"coordinates":[20.967716,52.236756],"type":"Point"},"properties":{"osm_id":"4570260123","tag":{"amenity":"waste_basket"}},"type":"Feature"},
	{"geometry":{"coordinates":[20.967448,52.236775],"type":"Point"},"properties":{"osm_id":"4570260125","tag":{"amenity":"waste_basket"}},"type":"Feature"},
	{"geometry":{"coordinates":[20.967251,52.236714],"type":"Point"},"properties":{"osm_id":"4570260126","tag":{"amenity":"waste_basket"}},"type":"Feature"},
	{"geometry":{"coordinates":[20.996075,52.239612],"type":"Point"},"properties":{"osm_id":"4573884845","tag":{"amenity":"waste_basket"}},"type":"Feature"},
	{"geometry":{"coordinates":[20.996252,52.238738],"type":"Point"},"properties":{"osm_id":"4573884990","tag":{"amenity":"waste_basket"}},"type":"Feature"},
	{"geometry":{"coordinates":[20.994086,52.241733],"type":"Point"},"properties":{"osm_id":"4574038929","tag":{"amenity":"waste_basket"}},"type":"Feature"},
	{"geometry":{"coordinates":[20.994149,52.241609],"type":"Point"},"properties":{"osm_id":"4574038930","tag":{"amenity":"waste_basket"}},"type":"Feature"},
	{"geometry":{"coordinates":[20.994553,52.241206],"type":"Point"},"properties":{"osm_id":"4574038973","tag":{"amenity":"waste_basket"}},"type":"Feature"},
	{"geometry":{"coordinates":[20.994618,52.241119],"type":"Point"},"properties":{"osm_id":"4574038974","tag":{"amenity":"waste_basket"}},"type":"Feature"},
	{"geometry":{"coordinates":[20.994821,52.240873],"type":"Point"},"properties":{"osm_id":"4574038984","tag":{"amenity":"waste_basket"}},"type":"Feature"},
	{"geometry":{"coordinates":[20.995317,52.240436],"type":"Point"},"properties":{"osm_id":"4574039098","tag":{"amenity":"waste_basket"}},"type":"Feature"},
	{"geometry":{"coordinates":[20.999161,52.234154],"type":"Point"},"properties":{"osm_id":"4578412488","tag":{"amenity":"recycling","recycling:clothes":"yes","recycling_type":"container"}},"type":"Feature"},
	{"geometry":{"coordinates":[21.00016,52.234551],"type":"Point"},"properties":{"osm_id":"4578412740","tag":{"amenity":"waste_basket"}},"type":"Feature"},
	{"geometry":{"coordinates":[20.998066,52.234472],"type":"Point"},"properties":{"osm_id":"4582574567","tag":{"amenity":"waste_basket"}},"type":"Feature"},
	{"geometry":{"coordinates":[20.998388,52.234066],"type":"Point"},"properties":{"osm_id":"4582574588","tag":{"amenity":"waste_basket"}},"type":"Feature"},
	{"geometry":{"coordinates":[20.998532,52.234181],"type":"Point"},"properties":{"osm_id":"4582574664","tag":{"amenity":"waste_basket"}},"type":"Feature"},
	{"geometry":{"coordinates":[21.001281,52.236589],"type":"Point"},"properties":{"osm_id":"4582943808","tag":{"amenity":"waste_basket"}},"type":"Feature"},
	{"geometry":{"coordinates":[21.001194,52.236776],"type":"Point"},"properties":{"osm_id":"4582943811","tag":{"amenity":"waste_basket"}},"type":"Feature"},
	{"geometry":{"coordinates":[21.001106,52.236987],"type":"Point"},"properties":{"osm_id":"4582943812","tag":{"amenity":"waste_basket"}},"type":"Feature"},
	{"geometry":{"coordinates":[21.001076,52.237211],"type":"Point"},"properties":{"osm_id":"4582943822","tag":{"amenity":"waste_basket"}},"type":"Feature"},
	{"geometry":{"coordinates":[21.001089,52.237064],"type":"Point"},"properties":{"osm_id":"4582943827","tag":{"amenity":"waste_basket"}},"type":"Feature"},
	{"geometry":{"coordinates":[20.99795,52.236],"type":"Point"},"properties":{"osm_id":"4582944298","tag":{"amenity":"waste_basket"}},"type":"Feature"},
	{"geometry":{"coordinates":[20.997776,52.235944],"type":"Point"},"properties":{"osm_id":"4582944299","tag":{"amenity":"waste_basket"}},"type":"Feature"},
	{"geometry":{"coordinates":[20.997507,52.235604],"type":"Point"},"properties":{"osm_id":"4582944346","tag":{"amenity":"waste_basket"}},"type":"Feature"},
	{"geometry":{"coordinates":[20.997592,52.235618],"type":"Point"},"properties":{"osm_id":"4582944350","tag":{"amenity":"waste_basket"}},"type":"Feature"},
	{"geometry":{"coordinates":[20.997697,52.235592],"type":"Point"},"properties":{"osm_id":"4582944353","tag":{"amenity":"waste_basket"}},"type":"Feature"},
	{"geometry":{"coordinates":[20.997692,52.235541],"type":"Point"},"properties":{"osm_id":"4582944354","tag":{"amenity":"waste_basket"}},"type":"Feature"},
	{"geometry":{"coordinates":[20.997754,52.235424],"type":"Point"},"properties":{"osm_id":"4582944359","tag":{"amenity":"waste_basket"}},"type":"Feature"},
	{"geometry":{"coordinates":[21.002231,52.23543],"type":"Point"},"properties":{"osm_id":"4584290393","tag":{"amenity":"waste_basket"}},"type":"Feature"},
	{"geometry":{"coordinates":[21.001969,52.235461],"type":"Point"},"properties":{"osm_id":"4584380389","tag":{"amenity":"waste_basket"}},"type":"Feature"},
	{"geometry":{"coordinates":[21.001899,52.235553],"type":"Point"},"properties":{"osm_id":"4584380390","tag":{"amenity":"waste_basket"}},"type":"Feature"},
	{"geometry":{"coordinates":[21.001853,52.235623],"type":"Point"},"properties":{"osm_id":"4584380391","tag":{"amenity":"waste_basket"}},"type":"Feature"},
	{"geometry":{"coordinates":[20.965817,52.244545],"type":"Point"},"properties":{"osm_id":"4584458732","tag":{"amenity":"waste_basket"}},"type":"Feature"},
	{"geometry":{"coordinates":[20.964227,52.2455],"type":"Point"},"properties":{"osm_id":"4584458745","tag":{"amenity":"waste_basket"}},"type":"Feature"},
	{"geometry":{"coordinates":[20.974319,52.235553],"type":"Point"},"properties":{"osm_id":"4584575602","tag":{"amenity":"waste_basket"}},"type":"Feature"},
	{"geometry":{"coordinates":[20.97233,52.236536],"type":"Point"},"properties":{"osm_id":"4584575808","tag":{"amenity":"waste_basket"}},"type":"Feature"},
	{"geometry":{"coordinates":[20.972324,52.236552],"type":"Point"},"properties":{"osm_id":"4584575809","tag":{"amenity":"waste_basket"}},"type":"Feature"},
	{"geometry":{"coordinates":[20.999359,52.233505],"type":"Point"},"properties":{"osm_id":"4586170815","tag":{"amenity":"waste_basket"}},"type":"Feature"},
	{"geometry":{"coordinates":[21.001424,52.236396],"type":"Point"},"properties":{"osm_id":"4586170822","tag":{"amenity":"waste_basket"}},"type":"Feature"},
	{"geometry":{"coordinates":[20.974267,52.235065],"type":"Point"},"properties":{"osm_id":"4588164803","tag":{"amenity":"waste_basket","material":"concrete"}},"type":"Feature"},
	{"geometry":{"coordinates":[20.974056,52.235009],"type":"Point"},"properties":{"osm_id":"4588164805","tag":{"amenity":"waste_basket","material":"concrete"}},"type":"Feature"},
	{"geometry":{"coordinates":[20.972405,52.235142],"type":"Point"},"properties":{"osm_id":"4588164817","tag":{"amenity":"waste_basket","material":"concrete"}},"type":"Feature"},
	{"geometry":{"coordinates":[20.972425,52.235081],"type":"Point"},"properties":{"osm_id":"4588164818","tag":{"amenity":"waste_basket","material":"concrete"}},"type":"Feature"},
	{"geometry":{"coordinates":[20.966944,52.243502],"type":"Point"},"properties":{"osm_id":"4588165307","tag":{"amenity":"waste_basket"}},"type":"Feature"},
	{"geometry":{"coordinates":[20.966404,52.243459],"type":"Point"},"properties":{"osm_id":"4588165316","tag":{"amenity":"waste_basket"}},"type":"Feature"},
	{"geometry":{"coordinates":[20.962162,52.246217],"type":"Point"},"properties":{"osm_id":"4588165337","tag":{"amenity":"waste_basket"}},"type":"Feature"},
	{"geometry":{"coordinates":[20.946247,52.241775],"type":"Point"},"properties":{"osm_id":"4591558527","tag":{"amenity":"waste_basket"}},"type":"Feature"},
	{"geometry":{"coordinates":[20.946306,52.241671],"type":"Point"},"properties":{"osm_id":"4591558528","tag":{"amenity":"waste_basket"}},"type":"Feature"},
	{"geometry":{"coordinates":[20.947218,52.244158],"type":"Point"},"properties":{"osm_id":"4593210611","tag":{"amenity":"waste_basket"}},"type":"Feature"},
	{"geometry":{"coordinates":[20.947427,52.244168],"type":"Point"},"properties":{"osm_id":"4593210612","tag":{"amenity":"waste_basket"}},"type":"Feature"},
	{"geometry":{"coordinates":[20.94733,52.243973],"type":"Point"},"properties":{"osm_id":"4593210613","tag":{"amenity":"waste_basket"}},"type":"Feature"},
	{"geometry":{"coordinates":[20.946926,52.243867],"type":"Point"},"properties":{"osm_id":"4593210616","tag":{"amenity":"waste_basket"}},"type":"Feature"},
	{"geometry":{"coordinates":[20.947584,52.243853],"type":"Point"},"properties":{"osm_id":"4593210628","tag":{"amenity":"waste_basket"}},"type":"Feature"},
	{"geometry":{"coordinates":[20.94722,52.243683],"type":"Point"},"properties":{"osm_id":"4593210678","tag":{"amenity":"recycling","recycling:clothes":"yes","recycling_type":"container"}},"type":"Feature"},
	{"geometry":{"coordinates":[20.946911,52.243642],"type":"Point"},"properties":{"osm_id":"4593210912","tag":{"amenity":"waste_basket"}},"type":"Feature"},
	{"geometry":{"coordinates":[20.946741,52.243632],"type":"Point"},"properties":{"osm_id":"4593210935","tag":{"amenity":"waste_basket"}},"type":"Feature"},
	{"geometry":{"coordinates":[20.946055,52.243634],"type":"Point"},"properties":{"osm_id":"4593211252","tag":{"amenity":"waste_basket"}},"type":"Feature"},
	{"geometry":{"coordinates":[20.945589,52.243647],"type":"Point"},"properties":{"osm_id":"4593211393","tag":{"amenity":"waste_basket"}},"type":"Feature"},
	{"geometry":{"coordinates":[20.944428,52.243317],"type":"Point"},"properties":{"osm_id":"4593535154","tag":{"amenity":"waste_basket"}},"type":"Feature"},
	{"geometry":{"coordinates":[20.944613,52.243277],"type":"Point"},"properties":{"osm_id":"4593535172","tag":{"amenity":"waste_basket"}},"type":"Feature"},
	{"geometry":{"coordinates":[20.945702,52.241145],"type":"Point"},"properties":{"osm_id":"4598911622","tag":{"amenity":"waste_basket"}},"type":"Feature"},
	{"geometry":{"coordinates":[20.94477,52.24107],"type":"Point"},"properties":{"osm_id":"4598911891","tag":{"amenity":"waste_basket"}},"type":"Feature"},
	{"geometry":{"coordinates":[20.943973,52.243436],"type":"Point"},"properties":{"osm_id":"4598912034","tag":{"amenity":"waste_basket"}},"type":"Feature"},
	{"geometry":{"coordinates":[20.995157,52.239555],"type":"Point"},"properties":{"osm_id":"4602946319","tag":{"amenity":"waste_basket"}},"type":"Feature"},
	{"geometry":{"coordinates":[20.994239,52.240468],"type":"Point"},"properties":{"osm_id":"4602946387","tag":{"amenity":"waste_basket"}},"type":"Feature"},
	{"geometry":{"coordinates":[20.993849,52.241171],"type":"Point"},"properties":{"osm_id":"4602946651","tag":{"amenity":"waste_basket"}},"type":"Feature"},
	{"geometry":{"coordinates":[20.993763,52.241275],"type":"Point"},"properties":{"osm_id":"4602946652","tag":{"amenity":"waste_basket"}},"type":"Feature"},
	{"geometry":{"coordinates":[20.993029,52.241498],"type":"Point"},"properties":{"osm_id":"4602946680","tag":{"amenity":"waste_basket"}},"type":"Feature"},
	{"geometry":{"coordinates":[20.992767,52.241553],"type":"Point"},"properties":{"osm_id":"4602946698","tag":{"amenity":"waste_basket"}},"type":"Feature"},
	{"geometry":{"coordinates":[20.993298,52.241586],"type":"Point"},"properties":{"osm_id":"4602946715","tag":{"amenity":"waste_basket"}},"type":"Feature"},
	{"geometry":{"coordinates":[20.992925,52.241603],"type":"Point"},"properties":{"osm_id":"4602946720","tag":{"amenity":"waste_basket"}},"type":"Feature"},
	{"geometry":{"coordinates":[20.996127,52.237381],"type":"Point"},"properties":{"osm_id":"4604699905","tag":{"amenity":"waste_basket"}},"type":"Feature"},
	{"geometry":{"coordinates":[20.996111,52.237475],"type":"Point"},"properties":{"osm_id":"4604699906","tag":{"amenity":"waste_basket"}},"type":"Feature"},
	{"geometry":{"coordinates":[20.995735,52.238652],"type":"Point"},"properties":{"osm_id":"4604700104","tag":{"amenity":"waste_basket"}},"type":"Feature"},
	{"geometry":{"coordinates":[20.99573,52.238595],"type":"Point"},"properties":{"osm_id":"4604700119","tag":{"amenity":"waste_basket"}},"type":"Feature"},
	{"geometry":{"coordinates":[20.995417,52.23862],"type":"Point"},"properties":{"osm_id":"4604700157","tag":{"amenity":"waste_basket"}},"type":"Feature"},
	{"geometry":{"coordinates":[20.995586,52.238772],"type":"Point"},"properties":{"osm_id":"4604700196","tag":{"amenity":"waste_basket"}},"type":"Feature"},
	{"geometry":{"coordinates":[20.995208,52.23929],"type":"Point"},"properties":{"osm_id":"4604700258","tag":{"amenity":"waste_basket"}},"type":"Feature"},
	{"geometry":{"coordinates":[20.996156,52.236919],"type":"Point"},"properties":{"osm_id":"4605316586","tag":{"amenity":"waste_basket"}},"type":"Feature"},
	{"geometry":{"coordinates":[20.997058,52.235557],"type":"Point"},"properties":{"osm_id":"4613145407","tag":{"amenity":"waste_basket"}},"type":"Feature"},
	{"geometry":{"coordinates":[20.996625,52.235939],"type":"Point"},"properties":{"osm_id":"4613145459","tag":{"amenity":"waste_basket"}},"type":"Feature"},
	{"geometry":{"coordinates":[20.9973,52.234162],"type":"Point"},"properties":{"osm_id":"4613692119","tag":{"amenity":"waste_basket"}},"type":"Feature"},
	{"geometry":{"coordinates":[20.998173,52.233785],"type":"Point"},"properties":{"osm_id":"4613692122","tag":{"amenity":"waste_basket"}},"type":"Feature"},
	{"geometry":{"coordinates":[20.998098,52.23388],"type":"Point"},"properties":{"osm_id":"4613692123","tag":{"amenity":"waste_basket"}},"type":"Feature"},
	{"geometry":{"coordinates":[20.998028,52.233997],"type":"Point"},"properties":{"osm_id":"4613692124","tag":{"amenity":"waste_basket"}},"type":"Feature"},
	{"geometry":{"coordinates":[20.998454,52.233755],"type":"Point"},"properties":{"osm_id":"4614842137","tag":{"amenity":"waste_basket"}},"type":"Feature"},
	{"geometry":{"coordinates":[20.997589,52.233293],"type":"Point"},"properties":{"osm_id":"4614842183","tag":{"amenity":"waste_basket"}},"type":"Feature"},
	{"geometry":{"coordinates":[20.997646,52.233477],"type":"Point"},"properties":{"osm_id":"4614842184","tag":{"amenity":"waste_basket"}},"type":"Feature"},
	{"geometry":{"coordinates":[20.9992,52.236072],"type":"Point"},"properties":{"osm_id":"4619364485","tag":{"amenity":"waste_basket"}},"type":"Feature"},
	{"geometry":{"coordinates":[20.999237,52.235989],"type":"Point"},"properties":{"osm_id":"4619364487","tag":{"amenity":"waste_basket"}},"type":"Feature"},
	{"geometry":{"coordinates":[20.999487,52.235983],"type":"Point"},"properties":{"osm_id":"4619366189","tag":{"amenity":"recycling","recycling:glass":"yes","recycling:paper":"yes","recycling:plastic":"yes","recycling_type":"container"}},"type":"Feature"},
	{"geometry":{"coordinates":[20.997228,52.236266],"type":"Point"},"properties":{"osm_id":"4621485993","tag":{"amenity":"waste_basket"}},"type":"Feature"},
	{"geometry":{"coordinates":[20.997356,52.236155],"type":"Point"},"properties":{"osm_id":"4621486006","tag":{"amenity":"waste_basket"}},"type":"Feature"},
	{"geometry":{"coordinates":[21.001382,52.233968],"type":"Point"},"properties":{"osm_id":"4621890634","tag":{"amenity":"waste_basket"}},"type":"Feature"},
	{"geometry":{"coordinates":[21.001111,52.233899],"type":"Point"},"properties":{"osm_id":"4621890636","tag":{"amenity":"waste_basket"}},"type":"Feature"},
	{"geometry":{"coordinates":[21.001823,52.23414],"type":"Point"},"properties":{"osm_id":"4621890650","tag":{"amenity":"waste_basket"}},"type":"Feature"},
	{"geometry":{"coordinates":[20.968109,52.233632],"type":"Point"},"properties":{"osm_id":"4633549326","tag":{"amenity":"waste_basket"}},"type":"Feature"},
	{"geometry":{"coordinates":[20.968388,52.233619],"type":"Point"},"properties":{"osm_id":"4633549329","tag":{"amenity":"waste_basket"}},"type":"Feature"},
	{"geometry":{"coordinates":[20.968641,52.233823],"type":"Point"},"properties":{"osm_id":"4633549338","tag":{"amenity":"waste_basket"}},"type":"Feature"},
	{"geometry":{"coordinates":[20.948305,52.24076],"type":"Point"},"properties":{"osm_id":"4638705893","tag":{"amenity":"waste_basket"}},"type":"Feature"},
	{"geometry":{"coordinates":[20.946297,52.240324],"type":"Point"},"properties":{"osm_id":"4638706119","tag":{"amenity":"recycling","operator":"Polski Czerwony Krzy\u00c5\u00bc","recycling:clothes":"yes","recycling_type":"container"}},"type":"Feature"},
	{"geometry":{"coordinates":[20.946797,52.241291],"type":"Point"},"properties":{"osm_id":"4638706199","tag":{"amenity":"recycling","recycling:clothes":"yes","recycling_type":"container"}},"type":"Feature"},
	{"geometry":{"coordinates":[20.947447,52.241275],"type":"Point"},"properties":{"osm_id":"4638706241","tag":{"amenity":"waste_basket"}},"type":"Feature"},
	{"geometry":{"coordinates":[20.948167,52.241579],"type":"Point"},"properties":{"osm_id":"4638706312","tag":{"amenity":"waste_basket"}},"type":"Feature"},
	{"geometry":{"coordinates":[20.948072,52.242275],"type":"Point"},"properties":{"osm_id":"4638706342","tag":{"amenity":"waste_basket"}},"type":"Feature"},
	{"geometry":{"coordinates":[20.948157,52.242019],"type":"Point"},"properties":{"osm_id":"4638706347","tag":{"amenity":"waste_basket"}},"type":"Feature"},
	{"geometry":{"coordinates":[20.948275,52.242021],"type":"Point"},"properties":{"osm_id":"4638706348","tag":{"amenity":"waste_basket"}},"type":"Feature"},
	{"geometry":{"coordinates":[20.951708,52.243209],"type":"Point"},"properties":{"osm_id":"4638706349","tag":{"amenity":"waste_basket"}},"type":"Feature"},
	{"geometry":{"coordinates":[20.948355,52.237456],"type":"Point"},"properties":{"osm_id":"4640853751","tag":{"amenity":"waste_basket"}},"type":"Feature"},
	{"geometry":{"coordinates":[20.948126,52.237436],"type":"Point"},"properties":{"osm_id":"4640853752","tag":{"amenity":"waste_basket"}},"type":"Feature"},
	{"geometry":{"coordinates":[20.948137,52.237477],"type":"Point"},"properties":{"osm_id":"4640853753","tag":{"amenity":"waste_basket"}},"type":"Feature"},
	{"geometry":{"coordinates":[20.948533,52.238126],"type":"Point"},"properties":{"osm_id":"4640854105","tag":{"amenity":"waste_basket"}},"type":"Feature"},
	{"geometry":{"coordinates":[20.948218,52.238534],"type":"Point"},"properties":{"osm_id":"4640854168","tag":{"amenity":"waste_basket"}},"type":"Feature"},
	{"geometry":{"coordinates":[20.948417,52.238814],"type":"Point"},"properties":{"osm_id":"4640854172","tag":{"amenity":"waste_basket"}},"type":"Feature"},
	{"geometry":{"coordinates":[20.948272,52.239157],"type":"Point"},"properties":{"osm_id":"4640854188","tag":{"amenity":"waste_basket"}},"type":"Feature"},
	{"geometry":{"coordinates":[20.981389,52.229998],"type":"Point"},"properties":{"osm_id":"4649727010","tag":{"amenity":"waste_basket"}},"type":"Feature"},
	{"geometry":{"coordinates":[20.980648,52.229897],"type":"Point"},"properties":{"osm_id":"4649727022","tag":{"amenity":"waste_basket"}},"type":"Feature"},
	{"geometry":{"coordinates":[20.980635,52.229941],"type":"Point"},"properties":{"osm_id":"4649727043","tag":{"amenity":"waste_basket"}},"type":"Feature"},
	{"geometry":{"coordinates":[20.980972,52.230236],"type":"Point"},"properties":{"osm_id":"4649727070","tag":{"amenity":"waste_basket"}},"type":"Feature"},
	{"geometry":{"coordinates":[20.982028,52.230482],"type":"Point"},"properties":{"osm_id":"4649727086","tag":{"amenity":"waste_basket"}},"type":"Feature"},
	{"geometry":{"coordinates":[20.98222,52.230277],"type":"Point"},"properties":{"osm_id":"4649727232","tag":{"amenity":"waste_basket"}},"type":"Feature"},
	{"geometry":{"coordinates":[20.982536,52.230383],"type":"Point"},"properties":{"osm_id":"4649727243","tag":{"amenity":"waste_basket"}},"type":"Feature"},
	{"geometry":{"coordinates":[20.983019,52.230453],"type":"Point"},"properties":{"osm_id":"4649727272","tag":{"amenity":"waste_basket"}},"type":"Feature"},
	{"geometry":{"coordinates":[20.982569,52.230869],"type":"Point"},"properties":{"osm_id":"4649727273","tag":{"amenity":"waste_basket"}},"type":"Feature"},
	{"geometry":{"coordinates":[20.982901,52.230844],"type":"Point"},"properties":{"osm_id":"4649727275","tag":{"amenity":"waste_basket"}},"type":"Feature"},
	{"geometry":{"coordinates":[20.983565,52.230662],"type":"Point"},"properties":{"osm_id":"4649727562","tag":{"amenity":"waste_basket"}},"type":"Feature"},
	{"geometry":{"coordinates":[20.983484,52.230829],"type":"Point"},"properties":{"osm_id":"4649727587","tag":{"amenity":"waste_basket"}},"type":"Feature"},
	{"geometry":{"coordinates":[20.98382,52.230903],"type":"Point"},"properties":{"osm_id":"4649727711","tag":{"amenity":"waste_basket"}},"type":"Feature"},
	{"geometry":{"coordinates":[20.983939,52.230757],"type":"Point"},"properties":{"osm_id":"4649727712","tag":{"amenity":"waste_basket"}},"type":"Feature"},
	{"geometry":{"coordinates":[20.983439,52.230058],"type":"Point"},"properties":{"osm_id":"4650897891","tag":{"amenity":"waste_basket"}},"type":"Feature"},
	{"geometry":{"coordinates":[20.983151,52.230017],"type":"Point"},"properties":{"osm_id":"4650897892","tag":{"amenity":"waste_basket"}},"type":"Feature"},
	{"geometry":{"coordinates":[20.98321,52.230175],"type":"Point"},"properties":{"osm_id":"4650897893","tag":{"amenity":"waste_basket"}},"type":"Feature"},
	{"geometry":{"coordinates":[20.982989,52.230135],"type":"Point"},"properties":{"osm_id":"4650897894","tag":{"amenity":"waste_basket"}},"type":"Feature"},
	{"geometry":{"coordinates":[21.000689,52.234073],"type":"Point"},"properties":{"osm_id":"4663379553","tag":{"amenity":"recycling","recycling:clothes":"yes","recycling_type":"container"}},"type":"Feature"},
	{"geometry":{"coordinates":[21.000554,52.233836],"type":"Point"},"properties":{"osm_id":"4663379607","tag":{"amenity":"waste_basket"}},"type":"Feature"},
	{"geometry":{"coordinates":[21.00012,52.233748],"type":"Point"},"properties":{"osm_id":"4663379618","tag":{"amenity":"waste_basket"}},"type":"Feature"},
	{"geometry":{"coordinates":[20.999798,52.23369],"type":"Point"},"properties":{"osm_id":"4663379619","tag":{"amenity":"waste_basket"}},"type":"Feature"},
	{"geometry":{"coordinates":[20.999123,52.232668],"type":"Point"},"properties":{"osm_id":"4663428406","tag":{"amenity":"waste_basket"}},"type":"Feature"},
	{"geometry":{"coordinates":[20.999013,52.233044],"type":"Point"},"properties":{"osm_id":"4663428409","tag":{"amenity":"waste_basket"}},"type":"Feature"},
	{"geometry":{"coordinates":[20.999926,52.233329],"type":"Point"},"properties":{"osm_id":"4663428413","tag":{"amenity":"waste_basket"}},"type":"Feature"},
	{"geometry":{"coordinates":[21.000072,52.233355],"type":"Point"},"properties":{"osm_id":"4663428420","tag":{"amenity":"waste_basket"}},"type":"Feature"},
	{"geometry":{"coordinates":[21.001978,52.233768],"type":"Point"},"properties":{"osm_id":"4663428432","tag":{"amenity":"waste_basket"}},"type":"Feature"},
	{"geometry":{"coordinates":[21.001003,52.233486],"type":"Point"},"properties":{"osm_id":"4663428438","tag":{"amenity":"waste_basket"}},"type":"Feature"},
	{"geometry":{"coordinates":[21.000824,52.233449],"type":"Point"},"properties":{"osm_id":"4663428446","tag":{"amenity":"waste_basket"}},"type":"Feature"},
	{"geometry":{"coordinates":[21.003153,52.235863],"type":"Point"},"properties":{"osm_id":"4665939870","tag":{"amenity":"waste_basket"}},"type":"Feature"},
	{"geometry":{"coordinates":[21.002044,52.234799],"type":"Point"},"properties":{"osm_id":"4666396837","tag":{"amenity":"waste_basket"}},"type":"Feature"},
	{"geometry":{"coordinates":[21.002221,52.234516],"type":"Point"},"properties":{"osm_id":"4666396841","tag":{"amenity":"waste_basket"}},"type":"Feature"},
	{"geometry":{"coordinates":[21.002752,52.234122],"type":"Point"},"properties":{"osm_id":"4666397097","tag":{"amenity":"waste_basket"}},"type":"Feature"},
	{"geometry":{"coordinates":[21.002339,52.234176],"type":"Point"},"properties":{"osm_id":"4666397105","tag":{"amenity":"waste_basket"}},"type":"Feature"},
	{"geometry":{"coordinates":[21.002037,52.234101],"type":"Point"},"properties":{"osm_id":"4666397129","tag":{"amenity":"waste_basket"}},"type":"Feature"},
	{"geometry":{"coordinates":[20.930579,52.256584],"type":"Point"},"properties":{"osm_id":"4687824929","tag":{"amenity":"waste_basket"}},"type":"Feature"},
	{"geometry":{"coordinates":[20.965469,52.237382],"type":"Point"},"properties":{"osm_id":"4689661109","tag":{"amenity":"waste_basket"}},"type":"Feature"},
	{"geometry":{"coordinates":[20.966208,52.237304],"type":"Point"},"properties":{"osm_id":"4689661147","tag":{"amenity":"waste_basket"}},"type":"Feature"},
	{"geometry":{"coordinates":[20.966437,52.237315],"type":"Point"},"properties":{"osm_id":"4689661152","tag":{"amenity":"waste_basket"}},"type":"Feature"},
	{"geometry":{"coordinates":[20.967225,52.237241],"type":"Point"},"properties":{"osm_id":"4689661188","tag":{"amenity":"waste_basket"}},"type":"Feature"},
	{"geometry":{"coordinates":[20.969305,52.236689],"type":"Point"},"properties":{"osm_id":"4689661301","tag":{"amenity":"waste_basket"}},"type":"Feature"},
	{"geometry":{"coordinates":[20.966113,52.236938],"type":"Point"},"properties":{"osm_id":"4690076792","tag":{"amenity":"waste_basket"}},"type":"Feature"},
	{"geometry":{"coordinates":[20.965422,52.235986],"type":"Point"},"properties":{"osm_id":"4691310820","tag":{"amenity":"waste_basket"}},"type":"Feature"},
	{"geometry":{"coordinates":[20.965547,52.234635],"type":"Point"},"properties":{"osm_id":"4696384050","tag":{"amenity":"waste_basket"}},"type":"Feature"},
	{"geometry":{"coordinates":[20.965606,52.235049],"type":"Point"},"properties":{"osm_id":"4696384079","tag":{"amenity":"waste_basket"}},"type":"Feature"},
	{"geometry":{"coordinates":[20.965947,52.23427],"type":"Point"},"properties":{"osm_id":"4696835825","tag":{"amenity":"waste_basket"}},"type":"Feature"},
	{"geometry":{"coordinates":[20.965976,52.234575],"type":"Point"},"properties":{"osm_id":"4696835868","tag":{"amenity":"waste_basket"}},"type":"Feature"},
	{"geometry":{"coordinates":[20.966873,52.233211],"type":"Point"},"properties":{"osm_id":"4702500619","tag":{"amenity":"waste_basket"}},"type":"Feature"},
	{"geometry":{"coordinates":[20.967275,52.233255],"type":"Point"},"properties":{"osm_id":"4702500638","tag":{"amenity":"waste_basket"}},"type":"Feature"},
	{"geometry":{"coordinates":[20.967728,52.2332],"type":"Point"},"properties":{"osm_id":"4702500657","tag":{"amenity":"waste_basket"}},"type":"Feature"},
	{"geometry":{"coordinates":[20.967843,52.23331],"type":"Point"},"properties":{"osm_id":"4702500678","tag":{"amenity":"waste_basket"}},"type":"Feature"},
	{"geometry":{"coordinates":[20.967755,52.233952],"type":"Point"},"properties":{"osm_id":"4702500758","tag":{"amenity":"waste_basket"}},"type":"Feature"},
	{"geometry":{"coordinates":[20.967093,52.233653],"type":"Point"},"properties":{"osm_id":"4702500765","tag":{"amenity":"waste_basket"}},"type":"Feature"},
	{"geometry":{"coordinates":[20.966864,52.233616],"type":"Point"},"properties":{"osm_id":"4702500767","tag":{"amenity":"waste_basket"}},"type":"Feature"},
	{"geometry":{"coordinates":[20.948478,52.236857],"type":"Point"},"properties":{"osm_id":"4707843922","tag":{"amenity":"waste_disposal"}},"type":"Feature"},
	{"geometry":{"coordinates":[21.003177,52.232034],"type":"Point"},"properties":{"osm_id":"4709081892","tag":{"amenity":"waste_basket"}},"type":"Feature"},
	{"geometry":{"coordinates":[21.003228,52.231939],"type":"Point"},"properties":{"osm_id":"4709081915","tag":{"amenity":"waste_basket"}},"type":"Feature"},
	{"geometry":{"coordinates":[21.003577,52.231809],"type":"Point"},"properties":{"osm_id":"4709081924","tag":{"amenity":"waste_basket"}},"type":"Feature"},
	{"geometry":{"coordinates":[21.002085,52.23358],"type":"Point"},"properties":{"osm_id":"4709495538","tag":{"amenity":"waste_basket"}},"type":"Feature"},
	{"geometry":{"coordinates":[21.002306,52.233715],"type":"Point"},"properties":{"osm_id":"4709495541","tag":{"amenity":"waste_basket"}},"type":"Feature"},
	{"geometry":{"coordinates":[21.002217,52.233612],"type":"Point"},"properties":{"osm_id":"4709495543","tag":{"amenity":"waste_basket"}},"type":"Feature"},
	{"geometry":{"coordinates":[21.002223,52.233393],"type":"Point"},"properties":{"osm_id":"4709495550","tag":{"amenity":"waste_basket"}},"type":"Feature"},
	{"geometry":{"coordinates":[21.002306,52.233408],"type":"Point"},"properties":{"osm_id":"4709495551","tag":{"amenity":"waste_basket"}},"type":"Feature"},
	{"geometry":{"coordinates":[21.003144,52.233248],"type":"Point"},"properties":{"osm_id":"4709499988","tag":{"amenity":"waste_basket"}},"type":"Feature"},
	{"geometry":{"coordinates":[21.003194,52.233146],"type":"Point"},"properties":{"osm_id":"4709500089","tag":{"amenity":"waste_basket"}},"type":"Feature"},
	{"geometry":{"coordinates":[20.969806,52.228938],"type":"Point"},"properties":{"osm_id":"4716250836","tag":{"amenity":"waste_basket"}},"type":"Feature"},
	{"geometry":{"coordinates":[20.969514,52.229058],"type":"Point"},"properties":{"osm_id":"4716250837","tag":{"amenity":"waste_basket"}},"type":"Feature"},
	{"geometry":{"coordinates":[20.969184,52.228896],"type":"Point"},"properties":{"osm_id":"4716250848","tag":{"amenity":"waste_basket"}},"type":"Feature"},
	{"geometry":{"coordinates":[20.968581,52.228891],"type":"Point"},"properties":{"osm_id":"4716250874","tag":{"amenity":"waste_basket"}},"type":"Feature"},
	{"geometry":{"coordinates":[20.96834,52.228882],"type":"Point"},"properties":{"osm_id":"4716250883","tag":{"amenity":"waste_basket"}},"type":"Feature"},
	{"geometry":{"coordinates":[20.965797,52.228716],"type":"Point"},"properties":{"osm_id":"4716250933","tag":{"amenity":"waste_basket"}},"type":"Feature"},
	{"geometry":{"coordinates":[20.959598,52.228309],"type":"Point"},"properties":{"osm_id":"4716251178","tag":{"amenity":"waste_basket"}},"type":"Feature"},
	{"geometry":{"coordinates":[20.97947,52.229389],"type":"Point"},"properties":{"osm_id":"4716965694","tag":{"amenity":"waste_basket"}},"type":"Feature"},
	{"geometry":{"coordinates":[20.979437,52.229518],"type":"Point"},"properties":{"osm_id":"4716965695","tag":{"amenity":"waste_basket"}},"type":"Feature"},
	{"geometry":{"coordinates":[20.979264,52.229498],"type":"Point"},"properties":{"osm_id":"4716965696","tag":{"amenity":"waste_basket"}},"type":"Feature"},
	{"geometry":{"coordinates":[20.979253,52.22937],"type":"Point"},"properties":{"osm_id":"4716965697","tag":{"amenity":"waste_basket"}},"type":"Feature"},
	{"geometry":{"coordinates":[20.978273,52.229664],"type":"Point"},"properties":{"osm_id":"4716965730","tag":{"amenity":"waste_basket"}},"type":"Feature"},
	{"geometry":{"coordinates":[20.971239,52.228978],"type":"Point"},"properties":{"osm_id":"4716966032","tag":{"amenity":"waste_basket"}},"type":"Feature"},
	{"geometry":{"coordinates":[20.998817,52.232258],"type":"Point"},"properties":{"osm_id":"4719437781","tag":{"amenity":"waste_basket"}},"type":"Feature"},
	{"geometry":{"coordinates":[20.998745,52.232348],"type":"Point"},"properties":{"osm_id":"4719437782","tag":{"amenity":"waste_basket"}},"type":"Feature"},
	{"geometry":{"coordinates":[20.996814,52.232876],"type":"Point"},"properties":{"osm_id":"4719437902","tag":{"amenity":"waste_basket"}},"type":"Feature"},
	{"geometry":{"coordinates":[20.996967,52.232918],"type":"Point"},"properties":{"osm_id":"4719437903","tag":{"amenity":"waste_basket"}},"type":"Feature"},
	{"geometry":{"coordinates":[20.997169,52.232947],"type":"Point"},"properties":{"osm_id":"4719437904","tag":{"amenity":"waste_basket"}},"type":"Feature"},
	{"geometry":{"coordinates":[20.995368,52.23271],"type":"Point"},"properties":{"osm_id":"4719437961","tag":{"amenity":"waste_basket"}},"type":"Feature"},
	{"geometry":{"coordinates":[20.993338,52.232162],"type":"Point"},"properties":{"osm_id":"4719438066","tag":{"amenity":"waste_basket"}},"type":"Feature"},
	{"geometry":{"coordinates":[20.992539,52.232196],"type":"Point"},"properties":{"osm_id":"4719438131","tag":{"amenity":"waste_basket"}},"type":"Feature"},
	{"geometry":{"coordinates":[20.993389,52.232053],"type":"Point"},"properties":{"osm_id":"4719438135","tag":{"amenity":"waste_basket"}},"type":"Feature"},
	{"geometry":{"coordinates":[20.993212,52.232017],"type":"Point"},"properties":{"osm_id":"4719438136","tag":{"amenity":"waste_basket"}},"type":"Feature"},
	{"geometry":{"coordinates":[20.993133,52.232116],"type":"Point"},"properties":{"osm_id":"4719438137","tag":{"amenity":"waste_basket"}},"type":"Feature"},
	{"geometry":{"coordinates":[20.992442,52.232271],"type":"Point"},"properties":{"osm_id":"4719438152","tag":{"amenity":"waste_basket"}},"type":"Feature"},
	{"geometry":{"coordinates":[20.992362,52.232399],"type":"Point"},"properties":{"osm_id":"4719438153","tag":{"amenity":"waste_basket"}},"type":"Feature"},
	{"geometry":{"coordinates":[20.992107,52.231965],"type":"Point"},"properties":{"osm_id":"4719438175","tag":{"amenity":"waste_basket"}},"type":"Feature"},
	{"geometry":{"coordinates":[20.991098,52.231762],"type":"Point"},"properties":{"osm_id":"4719438192","tag":{"amenity":"waste_basket"}},"type":"Feature"},
	{"geometry":{"coordinates":[20.990971,52.231736],"type":"Point"},"properties":{"osm_id":"4719438193","tag":{"amenity":"waste_basket"}},"type":"Feature"},
	{"geometry":{"coordinates":[20.98933,52.231496],"type":"Point"},"properties":{"osm_id":"4719438301","tag":{"amenity":"waste_basket"}},"type":"Feature"},
	{"geometry":{"coordinates":[20.984745,52.23084],"type":"Point"},"properties":{"osm_id":"4719438470","tag":{"amenity":"waste_basket"}},"type":"Feature"},
	{"geometry":{"coordinates":[20.939442,52.24729],"type":"Point"},"properties":{"osm_id":"4775794604","tag":{"amenity":"waste_basket"}},"type":"Feature"},
	{"geometry":{"coordinates":[20.939504,52.247281],"type":"Point"},"properties":{"osm_id":"4775794605","tag":{"amenity":"waste_basket"}},"type":"Feature"},
	{"geometry":{"coordinates":[20.939139,52.247004],"type":"Point"},"properties":{"osm_id":"4775794613","tag":{"amenity":"waste_basket"}},"type":"Feature"},
	{"geometry":{"coordinates":[20.940471,52.247195],"type":"Point"},"properties":{"osm_id":"4775794725","tag":{"amenity":"waste_basket"}},"type":"Feature"},
	{"geometry":{"coordinates":[20.940704,52.247561],"type":"Point"},"properties":{"osm_id":"4775794726","tag":{"amenity":"waste_basket"}},"type":"Feature"},
	{"geometry":{"coordinates":[20.940654,52.247486],"type":"Point"},"properties":{"osm_id":"4775794727","tag":{"amenity":"waste_basket"}},"type":"Feature"},
	{"geometry":{"coordinates":[20.940578,52.247351],"type":"Point"},"properties":{"osm_id":"4775794728","tag":{"amenity":"waste_basket"}},"type":"Feature"},
	{"geometry":{"coordinates":[20.940538,52.247221],"type":"Point"},"properties":{"osm_id":"4775794729","tag":{"amenity":"waste_basket"}},"type":"Feature"},
	{"geometry":{"coordinates":[20.940507,52.247092],"type":"Point"},"properties":{"osm_id":"4775794730","tag":{"amenity":"waste_basket"}},"type":"Feature"},
	{"geometry":{"coordinates":[20.940478,52.246961],"type":"Point"},"properties":{"osm_id":"4775794731","tag":{"amenity":"waste_basket"}},"type":"Feature"},
	{"geometry":{"coordinates":[20.939972,52.248039],"type":"Point"},"properties":{"osm_id":"4775794739","tag":{"amenity":"waste_basket"}},"type":"Feature"},
	{"geometry":{"coordinates":[20.940115,52.248384],"type":"Point"},"properties":{"osm_id":"4775794751","tag":{"amenity":"waste_basket"}},"type":"Feature"},
	{"geometry":{"coordinates":[20.939821,52.248105],"type":"Point"},"properties":{"osm_id":"4775794752","tag":{"amenity":"waste_basket"}},"type":"Feature"},
	{"geometry":{"coordinates":[20.939743,52.24822],"type":"Point"},"properties":{"osm_id":"4775794753","tag":{"amenity":"waste_basket"}},"type":"Feature"},
	{"geometry":{"coordinates":[20.939687,52.248312],"type":"Point"},"properties":{"osm_id":"4775794754","tag":{"amenity":"waste_basket"}},"type":"Feature"},
	{"geometry":{"coordinates":[20.939642,52.248471],"type":"Point"},"properties":{"osm_id":"4775794759","tag":{"amenity":"waste_basket"}},"type":"Feature"},
	{"geometry":{"coordinates":[20.939586,52.248563],"type":"Point"},"properties":{"osm_id":"4775794760","tag":{"amenity":"waste_basket"}},"type":"Feature"},
	{"geometry":{"coordinates":[20.939512,52.248728],"type":"Point"},"properties":{"osm_id":"4775794761","tag":{"amenity":"waste_basket"}},"type":"Feature"},
	{"geometry":{"coordinates":[20.941091,52.24874],"type":"Point"},"properties":{"osm_id":"4775794765","tag":{"amenity":"waste_basket"}},"type":"Feature"},
	{"geometry":{"coordinates":[20.939977,52.248925],"type":"Point"},"properties":{"osm_id":"4775794769","tag":{"amenity":"waste_basket"}},"type":"Feature"},
	{"geometry":{"coordinates":[20.939649,52.248904],"type":"Point"},"properties":{"osm_id":"4775794770","tag":{"amenity":"waste_basket"}},"type":"Feature"},
	{"geometry":{"coordinates":[20.939526,52.249787],"type":"Point"},"properties":{"osm_id":"4775794791","tag":{"amenity":"waste_basket"}},"type":"Feature"},
	{"geometry":{"coordinates":[20.939377,52.249498],"type":"Point"},"properties":{"osm_id":"4775794796","tag":{"amenity":"waste_basket"}},"type":"Feature"},
	{"geometry":{"coordinates":[20.939436,52.249656],"type":"Point"},"properties":{"osm_id":"4775794797","tag":{"amenity":"waste_basket"}},"type":"Feature"},
	{"geometry":{"coordinates":[20.939736,52.249863],"type":"Point"},"properties":{"osm_id":"4775794807","tag":{"amenity":"waste_basket"}},"type":"Feature"},
	{"geometry":{"coordinates":[20.940734,52.250253],"type":"Point"},"properties":{"osm_id":"4775794808","tag":{"amenity":"waste_basket"}},"type":"Feature"},
	{"geometry":{"coordinates":[20.942259,52.250515],"type":"Point"},"properties":{"osm_id":"4775794809","tag":{"amenity":"waste_basket"}},"type":"Feature"},
	{"geometry":{"coordinates":[20.942517,52.250535],"type":"Point"},"properties":{"osm_id":"4775794817","tag":{"amenity":"waste_basket"}},"type":"Feature"},
	{"geometry":{"coordinates":[20.943042,52.250041],"type":"Point"},"properties":{"osm_id":"4775794821","tag":{"amenity":"waste_basket"}},"type":"Feature"},
	{"geometry":{"coordinates":[20.94303,52.25048],"type":"Point"},"properties":{"osm_id":"4775794827","tag":{"amenity":"waste_basket"}},"type":"Feature"},
	{"geometry":{"coordinates":[20.943356,52.250711],"type":"Point"},"properties":{"osm_id":"4775794828","tag":{"amenity":"waste_basket"}},"type":"Feature"},
	{"geometry":{"coordinates":[20.943886,52.251026],"type":"Point"},"properties":{"osm_id":"4775794830","tag":{"amenity":"waste_basket"}},"type":"Feature"},
	{"geometry":{"coordinates":[20.944258,52.250916],"type":"Point"},"properties":{"osm_id":"4775794833","tag":{"amenity":"waste_basket"}},"type":"Feature"},
	{"geometry":{"coordinates":[20.944534,52.25073],"type":"Point"},"properties":{"osm_id":"4775794834","tag":{"amenity":"waste_basket"}},"type":"Feature"},
	{"geometry":{"coordinates":[20.945379,52.250419],"type":"Point"},"properties":{"osm_id":"4775794838","tag":{"amenity":"waste_basket"}},"type":"Feature"},
	{"geometry":{"coordinates":[20.944865,52.250469],"type":"Point"},"properties":{"osm_id":"4775794840","tag":{"amenity":"waste_basket"}},"type":"Feature"},
	{"geometry":{"coordinates":[20.944923,52.250584],"type":"Point"},"properties":{"osm_id":"4775794841","tag":{"amenity":"waste_basket"}},"type":"Feature"},
	{"geometry":{"coordinates":[20.945562,52.250669],"type":"Point"},"properties":{"osm_id":"4775794842","tag":{"amenity":"waste_basket"}},"type":"Feature"},
	{"geometry":{"coordinates":[20.946559,52.249409],"type":"Point"},"properties":{"osm_id":"4775794855","tag":{"amenity":"waste_basket"}},"type":"Feature"},
	{"geometry":{"coordinates":[20.942554,52.246718],"type":"Point"},"properties":{"osm_id":"4777751966","tag":{"amenity":"waste_basket"}},"type":"Feature"},
	{"geometry":{"coordinates":[20.942418,52.246663],"type":"Point"},"properties":{"osm_id":"4777752000","tag":{"amenity":"waste_basket"}},"type":"Feature"},
	{"geometry":{"coordinates":[20.942519,52.246894],"type":"Point"},"properties":{"osm_id":"4777752005","tag":{"amenity":"waste_basket"}},"type":"Feature"},
	{"geometry":{"coordinates":[20.941516,52.246846],"type":"Point"},"properties":{"osm_id":"4777752211","tag":{"amenity":"waste_basket"}},"type":"Feature"},
	{"geometry":{"coordinates":[20.94048,52.246799],"type":"Point"},"properties":{"osm_id":"4777752407","tag":{"amenity":"waste_basket"}},"type":"Feature"},
	{"geometry":{"coordinates":[20.940024,52.246571],"type":"Point"},"properties":{"osm_id":"4777752422","tag":{"amenity":"waste_basket"}},"type":"Feature"},
	{"geometry":{"coordinates":[20.939752,52.24657],"type":"Point"},"properties":{"osm_id":"4777752423","tag":{"amenity":"waste_basket"}},"type":"Feature"},
	{"geometry":{"coordinates":[20.939437,52.246576],"type":"Point"},"properties":{"osm_id":"4777752448","tag":{"amenity":"waste_basket"}},"type":"Feature"},
	{"geometry":{"coordinates":[20.939185,52.246842],"type":"Point"},"properties":{"osm_id":"4777752452","tag":{"amenity":"waste_basket"}},"type":"Feature"},
	{"geometry":{"coordinates":[20.942879,52.246946],"type":"Point"},"properties":{"osm_id":"4778191251","tag":{"amenity":"waste_basket"}},"type":"Feature"},
	{"geometry":{"coordinates":[20.942998,52.246664],"type":"Point"},"properties":{"osm_id":"4778191253","tag":{"amenity":"waste_basket"}},"type":"Feature"},
	{"geometry":{"coordinates":[20.943639,52.246763],"type":"Point"},"properties":{"osm_id":"4779745151","tag":{"amenity":"waste_basket"}},"type":"Feature"},
	{"geometry":{"coordinates":[20.943477,52.24694],"type":"Point"},"properties":{"osm_id":"4779745171","tag":{"amenity":"waste_basket"}},"type":"Feature"},
	{"geometry":{"coordinates":[20.946611,52.246889],"type":"Point"},"properties":{"osm_id":"4779913715","tag":{"amenity":"waste_basket"}},"type":"Feature"},
	{"geometry":{"coordinates":[20.94608,52.246732],"type":"Point"},"properties":{"osm_id":"4779913725","tag":{"amenity":"waste_basket"}},"type":"Feature"},
	{"geometry":{"coordinates":[20.944571,52.246678],"type":"Point"},"properties":{"osm_id":"4779913964","tag":{"amenity":"waste_basket"}},"type":"Feature"},
	{"geometry":{"coordinates":[20.945304,52.246667],"type":"Point"},"properties":{"osm_id":"4779913965","tag":{"amenity":"waste_basket"}},"type":"Feature"},
	{"geometry":{"coordinates":[20.965079,52.247375],"type":"Point"},"properties":{"osm_id":"4781702883","tag":{"amenity":"waste_basket"}},"type":"Feature"},
	{"geometry":{"coordinates":[20.967227,52.24537],"type":"Point"},"properties":{"osm_id":"4781903726","tag":{"amenity":"waste_basket"}},"type":"Feature"},
	{"geometry":{"coordinates":[20.967328,52.244995],"type":"Point"},"properties":{"osm_id":"4781903786","tag":{"amenity":"waste_basket"}},"type":"Feature"},
	{"geometry":{"coordinates":[21.002725,52.235986],"type":"Point"},"properties":{"osm_id":"4781937668","tag":{"amenity":"waste_basket"}},"type":"Feature"},
	{"geometry":{"coordinates":[21.003014,52.236617],"type":"Point"},"properties":{"osm_id":"4781937687","tag":{"amenity":"waste_basket"}},"type":"Feature"},
	{"geometry":{"coordinates":[21.002985,52.236536],"type":"Point"},"properties":{"osm_id":"4781937688","tag":{"amenity":"waste_basket"}},"type":"Feature"},
	{"geometry":{"coordinates":[21.00311,52.237118],"type":"Point"},"properties":{"osm_id":"4781937706","tag":{"amenity":"waste_basket"}},"type":"Feature"},
	{"geometry":{"coordinates":[20.964923,52.24053],"type":"Point"},"properties":{"osm_id":"4782623009","tag":{"amenity":"waste_basket"}},"type":"Feature"},
	{"geometry":{"coordinates":[20.965137,52.240883],"type":"Point"},"properties":{"osm_id":"4782623123","tag":{"amenity":"waste_basket"}},"type":"Feature"},
	{"geometry":{"coordinates":[20.964774,52.241205],"type":"Point"},"properties":{"osm_id":"4782623151","tag":{"amenity":"waste_basket"}},"type":"Feature"},
	{"geometry":{"coordinates":[20.965152,52.242407],"type":"Point"},"properties":{"osm_id":"4782623206","tag":{"amenity":"waste_basket"}},"type":"Feature"},
	{"geometry":{"coordinates":[20.965667,52.242543],"type":"Point"},"properties":{"osm_id":"4782623456","tag":{"amenity":"waste_basket"}},"type":"Feature"},
	{"geometry":{"coordinates":[20.96509,52.237789],"type":"Point"},"properties":{"osm_id":"4782910447","tag":{"amenity":"waste_basket"}},"type":"Feature"},
	{"geometry":{"coordinates":[20.965191,52.238014],"type":"Point"},"properties":{"osm_id":"4782910453","tag":{"amenity":"waste_basket"}},"type":"Feature"},
	{"geometry":{"coordinates":[20.965024,52.240111],"type":"Point"},"properties":{"osm_id":"4782910895","tag":{"amenity":"waste_basket"}},"type":"Feature"},
	{"geometry":{"coordinates":[20.965314,52.233545],"type":"Point"},"properties":{"osm_id":"4791205868","tag":{"amenity":"waste_basket"}},"type":"Feature"},
	{"geometry":{"coordinates":[20.964789,52.233625],"type":"Point"},"properties":{"osm_id":"4791213524","tag":{"amenity":"recycling","recycling:clothes":"yes","recycling_type":"container"}},"type":"Feature"},
	{"geometry":{"coordinates":[20.96408,52.232744],"type":"Point"},"properties":{"osm_id":"4792416561","tag":{"amenity":"waste_basket"}},"type":"Feature"},
	{"geometry":{"coordinates":[20.965536,52.232185],"type":"Point"},"properties":{"osm_id":"4792849834","tag":{"amenity":"waste_basket"}},"type":"Feature"},
	{"geometry":{"coordinates":[20.969018,52.228513],"type":"Point"},"properties":{"osm_id":"4794748895","tag":{"amenity":"waste_basket"}},"type":"Feature"},
	{"geometry":{"coordinates":[20.967671,52.229467],"type":"Point"},"properties":{"osm_id":"4794748958","tag":{"amenity":"recycling","recycling:clothes":"yes","recycling_type":"container"}},"type":"Feature"},
	{"geometry":{"coordinates":[20.987384,52.230688],"type":"Point"},"properties":{"osm_id":"4795849082","tag":{"amenity":"waste_basket"}},"type":"Feature"},
	{"geometry":{"coordinates":[20.985269,52.230161],"type":"Point"},"properties":{"osm_id":"4795849435","tag":{"amenity":"waste_basket"}},"type":"Feature"},
	{"geometry":{"coordinates":[20.985073,52.229813],"type":"Point"},"properties":{"osm_id":"4795849451","tag":{"amenity":"waste_basket"}},"type":"Feature"},
	{"geometry":{"coordinates":[20.984082,52.229883],"type":"Point"},"properties":{"osm_id":"4795849469","tag":{"amenity":"waste_basket"}},"type":"Feature"},
	{"geometry":{"coordinates":[20.983331,52.22981],"type":"Point"},"properties":{"osm_id":"4795849500","tag":{"amenity":"waste_basket"}},"type":"Feature"},
	{"geometry":{"coordinates":[20.982565,52.229744],"type":"Point"},"properties":{"osm_id":"4795849509","tag":{"amenity":"waste_basket"}},"type":"Feature"},
	{"geometry":{"coordinates":[20.98166,52.229592],"type":"Point"},"properties":{"osm_id":"4795849646","tag":{"amenity":"waste_basket"}},"type":"Feature"},
	{"geometry":{"coordinates":[20.980475,52.229354],"type":"Point"},"properties":{"osm_id":"4795849661","tag":{"amenity":"waste_basket"}},"type":"Feature"},
	{"geometry":{"coordinates":[20.980386,52.22934],"type":"Point"},"properties":{"osm_id":"4795849662","tag":{"amenity":"waste_basket"}},"type":"Feature"},
	{"geometry":{"coordinates":[20.979636,52.229237],"type":"Point"},"properties":{"osm_id":"4795849676","tag":{"amenity":"waste_basket"}},"type":"Feature"},
	{"geometry":{"coordinates":[20.979468,52.229215],"type":"Point"},"properties":{"osm_id":"4795849677","tag":{"amenity":"waste_basket"}},"type":"Feature"},
	{"geometry":{"coordinates":[20.996037,52.232876],"type":"Point"},"properties":{"osm_id":"4796210332","tag":{"amenity":"waste_basket"}},"type":"Feature"},
	{"geometry":{"coordinates":[20.992273,52.231726],"type":"Point"},"properties":{"osm_id":"4796210383","tag":{"amenity":"waste_basket"}},"type":"Feature"},
	{"geometry":{"coordinates":[20.990598,52.231369],"type":"Point"},"properties":{"osm_id":"4796210396","tag":{"amenity":"waste_basket"}},"type":"Feature"},
	{"geometry":{"coordinates":[20.973714,52.236101],"type":"Point"},"properties":{"osm_id":"4797286422","tag":{"amenity":"waste_basket"}},"type":"Feature"},
	{"geometry":{"coordinates":[20.974012,52.2361],"type":"Point"},"properties":{"osm_id":"4797286423","tag":{"amenity":"waste_basket"}},"type":"Feature"},
	{"geometry":{"coordinates":[20.974208,52.236173],"type":"Point"},"properties":{"osm_id":"4797286424","tag":{"amenity":"waste_basket"}},"type":"Feature"},
	{"geometry":{"coordinates":[20.974306,52.235957],"type":"Point"},"properties":{"osm_id":"4797286429","tag":{"amenity":"waste_basket"}},"type":"Feature"},
	{"geometry":{"coordinates":[20.973939,52.235631],"type":"Point"},"properties":{"osm_id":"4797286434","tag":{"amenity":"waste_basket"}},"type":"Feature"},
	{"geometry":{"coordinates":[20.974086,52.235766],"type":"Point"},"properties":{"osm_id":"4797286435","tag":{"amenity":"waste_basket"}},"type":"Feature"},
	{"geometry":{"coordinates":[20.974122,52.23583],"type":"Point"},"properties":{"osm_id":"4797286436","tag":{"amenity":"waste_basket"}},"type":"Feature"},
	{"geometry":{"coordinates":[20.943207,52.239851],"type":"Point"},"properties":{"osm_id":"4798624073","tag":{"amenity":"waste_basket"}},"type":"Feature"},
	{"geometry":{"coordinates":[20.943333,52.239721],"type":"Point"},"properties":{"osm_id":"4798624103","tag":{"amenity":"waste_basket"}},"type":"Feature"},
	{"geometry":{"coordinates":[20.943877,52.239645],"type":"Point"},"properties":{"osm_id":"4798624109","tag":{"amenity":"waste_basket"}},"type":"Feature"},
	{"geometry":{"coordinates":[20.944076,52.239776],"type":"Point"},"properties":{"osm_id":"4798624157","tag":{"amenity":"waste_basket"}},"type":"Feature"},
	{"geometry":{"coordinates":[20.945003,52.239984],"type":"Point"},"properties":{"osm_id":"4798624345","tag":{"amenity":"waste_basket"}},"type":"Feature"},
	{"geometry":{"coordinates":[20.945166,52.239587],"type":"Point"},"properties":{"osm_id":"4798624381","tag":{"amenity":"waste_basket"}},"type":"Feature"},
	{"geometry":{"coordinates":[20.944929,52.239448],"type":"Point"},"properties":{"osm_id":"4798624389","tag":{"amenity":"waste_basket"}},"type":"Feature"},
	{"geometry":{"coordinates":[20.946241,52.239292],"type":"Point"},"properties":{"osm_id":"4798624720","tag":{"amenity":"waste_basket"}},"type":"Feature"},
	{"geometry":{"coordinates":[20.947094,52.239214],"type":"Point"},"properties":{"osm_id":"4798624749","tag":{"amenity":"waste_basket"}},"type":"Feature"},
	{"geometry":{"coordinates":[20.938769,52.240257],"type":"Point"},"properties":{"osm_id":"4799747253","tag":{"amenity":"waste_basket"}},"type":"Feature"},
	{"geometry":{"coordinates":[20.940881,52.240092],"type":"Point"},"properties":{"osm_id":"4799747565","tag":{"amenity":"waste_basket"}},"type":"Feature"},
	{"geometry":{"coordinates":[20.941287,52.24013],"type":"Point"},"properties":{"osm_id":"4799747602","tag":{"amenity":"waste_basket"}},"type":"Feature"},
	{"geometry":{"coordinates":[20.941228,52.239915],"type":"Point"},"properties":{"osm_id":"4799747614","tag":{"amenity":"waste_basket"}},"type":"Feature"},
	{"geometry":{"coordinates":[20.941961,52.239923],"type":"Point"},"properties":{"osm_id":"4799747623","tag":{"amenity":"waste_basket"}},"type":"Feature"},
	{"geometry":{"coordinates":[20.942765,52.240108],"type":"Point"},"properties":{"osm_id":"4799747687","tag":{"amenity":"waste_basket"}},"type":"Feature"},
	{"geometry":{"coordinates":[20.936652,52.240466],"type":"Point"},"properties":{"osm_id":"4809779320","tag":{"amenity":"waste_basket"}},"type":"Feature"},
	{"geometry":{"coordinates":[20.937878,52.240469],"type":"Point"},"properties":{"osm_id":"4809779537","tag":{"amenity":"waste_basket"}},"type":"Feature"},
	{"geometry":{"coordinates":[20.948911,52.238296],"type":"Point"},"properties":{"osm_id":"4932019902","tag":{"amenity":"waste_basket"}},"type":"Feature"},
	{"geometry":{"coordinates":[20.948665,52.238194],"type":"Point"},"properties":{"osm_id":"4932019910","tag":{"amenity":"waste_basket"}},"type":"Feature"},
	{"geometry":{"coordinates":[20.942722,52.23851],"type":"Point"},"properties":{"osm_id":"4932019960","tag":{"amenity":"waste_basket"}},"type":"Feature"},
	{"geometry":{"coordinates":[20.947898,52.2344],"type":"Point"},"properties":{"osm_id":"4934038615","tag":{"amenity":"waste_basket"}},"type":"Feature"},
	{"geometry":{"coordinates":[20.948051,52.234827],"type":"Point"},"properties":{"osm_id":"4934045047","tag":{"amenity":"waste_basket"}},"type":"Feature"},
	{"geometry":{"coordinates":[20.954804,52.234225],"type":"Point"},"properties":{"osm_id":"4934418317","tag":{"amenity":"waste_basket"}},"type":"Feature"},
	{"geometry":{"coordinates":[20.953867,52.23438],"type":"Point"},"properties":{"osm_id":"4934418318","tag":{"amenity":"waste_basket"}},"type":"Feature"},
	{"geometry":{"coordinates":[20.95004,52.236027],"type":"Point"},"properties":{"osm_id":"4934418790","tag":{"amenity":"waste_basket"}},"type":"Feature"},
	{"geometry":{"coordinates":[20.949898,52.235532],"type":"Point"},"properties":{"osm_id":"4934418807","tag":{"amenity":"waste_basket"}},"type":"Feature"},
	{"geometry":{"coordinates":[20.949804,52.23515],"type":"Point"},"properties":{"osm_id":"4934418811","tag":{"amenity":"waste_basket"}},"type":"Feature"},
	{"geometry":{"coordinates":[20.99437,52.231927],"type":"Point"},"properties":{"osm_id":"4934955864","tag":{"amenity":"waste_basket"}},"type":"Feature"},
	{"geometry":{"coordinates":[20.994853,52.232153],"type":"Point"},"properties":{"osm_id":"4934955884","tag":{"amenity":"waste_basket"}},"type":"Feature"},
	{"geometry":{"coordinates":[20.995581,52.232323],"type":"Point"},"properties":{"osm_id":"4934955925","tag":{"amenity":"waste_basket"}},"type":"Feature"},
	{"geometry":{"coordinates":[20.997354,52.232644],"type":"Point"},"properties":{"osm_id":"4934955953","tag":{"amenity":"waste_basket"}},"type":"Feature"},
	{"geometry":{"coordinates":[20.998184,52.232558],"type":"Point"},"properties":{"osm_id":"4934955955","tag":{"amenity":"waste_basket"}},"type":"Feature"},
	{"geometry":{"coordinates":[20.999034,52.232793],"type":"Point"},"properties":{"osm_id":"4934955959","tag":{"amenity":"waste_basket"}},"type":"Feature"},
	{"geometry":{"coordinates":[20.99258,52.231474],"type":"Point"},"properties":{"osm_id":"4942905312","tag":{"amenity":"waste_basket"}},"type":"Feature"},
	{"geometry":{"coordinates":[20.992865,52.231712],"type":"Point"},"properties":{"osm_id":"4942905320","tag":{"amenity":"waste_basket"}},"type":"Feature"},
	{"geometry":{"coordinates":[20.992519,52.231581],"type":"Point"},"properties":{"osm_id":"4942905421","tag":{"amenity":"waste_basket"}},"type":"Feature"},
	{"geometry":{"coordinates":[20.993363,52.23178],"type":"Point"},"properties":{"osm_id":"4942905433","tag":{"amenity":"waste_basket"}},"type":"Feature"},
	{"geometry":{"coordinates":[20.993657,52.231954],"type":"Point"},"properties":{"osm_id":"4942905447","tag":{"amenity":"waste_basket"}},"type":"Feature"},
	{"geometry":{"coordinates":[20.976859,52.228831],"type":"Point"},"properties":{"osm_id":"4945646480","tag":{"amenity":"waste_basket"}},"type":"Feature"},
	{"geometry":{"coordinates":[20.976927,52.228824],"type":"Point"},"properties":{"osm_id":"4945646481","tag":{"amenity":"waste_basket"}},"type":"Feature"},
	{"geometry":{"coordinates":[20.978207,52.228999],"type":"Point"},"properties":{"osm_id":"4945646563","tag":{"amenity":"waste_basket"}},"type":"Feature"},
	{"geometry":{"coordinates":[20.978675,52.229175],"type":"Point"},"properties":{"osm_id":"4945646585","tag":{"amenity":"waste_basket"}},"type":"Feature"},
	{"geometry":{"coordinates":[20.970315,52.228547],"type":"Point"},"properties":{"osm_id":"4946138651","tag":{"amenity":"waste_basket"}},"type":"Feature"},
	{"geometry":{"coordinates":[20.970495,52.228554],"type":"Point"},"properties":{"osm_id":"4946138669","tag":{"amenity":"waste_basket"}},"type":"Feature"},
	{"geometry":{"coordinates":[20.957378,52.228573],"type":"Point"},"properties":{"osm_id":"4946184470","tag":{"amenity":"waste_basket"}},"type":"Feature"},
	{"geometry":{"coordinates":[20.959522,52.227951],"type":"Point"},"properties":{"osm_id":"4946195437","tag":{"amenity":"waste_basket"}},"type":"Feature"},
	{"geometry":{"coordinates":[20.961978,52.228014],"type":"Point"},"properties":{"osm_id":"4946195451","tag":{"amenity":"waste_basket"}},"type":"Feature"},
	{"geometry":{"coordinates":[20.96471,52.228173],"type":"Point"},"properties":{"osm_id":"4946195466","tag":{"amenity":"waste_basket"}},"type":"Feature"},
	{"geometry":{"coordinates":[20.967283,52.228303],"type":"Point"},"properties":{"osm_id":"4946195468","tag":{"amenity":"waste_basket"}},"type":"Feature"},
	{"geometry":{"coordinates":[20.967352,52.228019],"type":"Point"},"properties":{"osm_id":"4946195492","tag":{"amenity":"waste_basket"}},"type":"Feature"},
	{"geometry":{"coordinates":[20.967339,52.228097],"type":"Point"},"properties":{"osm_id":"4946195493","tag":{"amenity":"waste_basket"}},"type":"Feature"},
	{"geometry":{"coordinates":[20.967583,52.228225],"type":"Point"},"properties":{"osm_id":"4946195511","tag":{"amenity":"waste_basket"}},"type":"Feature"},
	{"geometry":{"coordinates":[20.967836,52.228419],"type":"Point"},"properties":{"osm_id":"4946195624","tag":{"amenity":"waste_basket"}},"type":"Feature"},
	{"geometry":{"coordinates":[20.95463,52.237847],"type":"Point"},"properties":{"osm_id":"4946580506","tag":{"amenity":"waste_basket"}},"type":"Feature"},
	{"geometry":{"coordinates":[20.955915,52.231401],"type":"Point"},"properties":{"osm_id":"4946580840","tag":{"amenity":"waste_basket"}},"type":"Feature"},
	{"geometry":{"coordinates":[20.949495,52.238387],"type":"Point"},"properties":{"osm_id":"4955675240","tag":{"amenity":"waste_basket"}},"type":"Feature"},
	{"geometry":{"coordinates":[20.953369,52.238022],"type":"Point"},"properties":{"osm_id":"4955675269","tag":{"amenity":"waste_basket"}},"type":"Feature"},
	{"geometry":{"coordinates":[20.950961,52.241227],"type":"Point"},"properties":{"osm_id":"4955725122","tag":{"amenity":"waste_basket"}},"type":"Feature"},
	{"geometry":{"coordinates":[20.951234,52.241178],"type":"Point"},"properties":{"osm_id":"4955725148","tag":{"amenity":"waste_basket"}},"type":"Feature"},
	{"geometry":{"coordinates":[20.950183,52.240619],"type":"Point"},"properties":{"osm_id":"4955725175","tag":{"amenity":"waste_basket"}},"type":"Feature"},
	{"geometry":{"coordinates":[20.94958,52.240295],"type":"Point"},"properties":{"osm_id":"4955725194","tag":{"amenity":"waste_basket"}},"type":"Feature"},
	{"geometry":{"coordinates":[20.949423,52.239902],"type":"Point"},"properties":{"osm_id":"4955725200","tag":{"amenity":"waste_basket"}},"type":"Feature"},
	{"geometry":{"coordinates":[20.949337,52.23936],"type":"Point"},"properties":{"osm_id":"4955725207","tag":{"amenity":"waste_basket"}},"type":"Feature"},
	{"geometry":{"coordinates":[20.94888,52.239128],"type":"Point"},"properties":{"osm_id":"4955725216","tag":{"amenity":"waste_basket"}},"type":"Feature"},
	{"geometry":{"coordinates":[20.948861,52.239077],"type":"Point"},"properties":{"osm_id":"4955725219","tag":{"amenity":"waste_basket"}},"type":"Feature"},
	{"geometry":{"coordinates":[20.961623,52.24561],"type":"Point"},"properties":{"osm_id":"4956147953","tag":{"amenity":"waste_basket"}},"type":"Feature"},
	{"geometry":{"coordinates":[20.961613,52.245802],"type":"Point"},"properties":{"osm_id":"4956147954","tag":{"amenity":"waste_basket"}},"type":"Feature"},
	{"geometry":{"coordinates":[20.961851,52.245926],"type":"Point"},"properties":{"osm_id":"4956147962","tag":{"amenity":"waste_basket"}},"type":"Feature"},
	{"geometry":{"coordinates":[20.962243,52.24335],"type":"Point"},"properties":{"osm_id":"4957486534","tag":{"amenity":"waste_basket"}},"type":"Feature"},
	{"geometry":{"coordinates":[20.962203,52.243444],"type":"Point"},"properties":{"osm_id":"4957486537","tag":{"amenity":"waste_basket"}},"type":"Feature"},
	{"geometry":{"coordinates":[20.96236,52.24455],"type":"Point"},"properties":{"osm_id":"4957486540","tag":{"amenity":"waste_basket"}},"type":"Feature"},
	{"geometry":{"coordinates":[20.962128,52.244631],"type":"Point"},"properties":{"osm_id":"4957486545","tag":{"amenity":"waste_basket"}},"type":"Feature"},
	{"geometry":{"coordinates":[20.962713,52.245904],"type":"Point"},"properties":{"osm_id":"4957486550","tag":{"amenity":"waste_basket"}},"type":"Feature"},
	{"geometry":{"coordinates":[20.962333,52.245861],"type":"Point"},"properties":{"osm_id":"4957486553","tag":{"amenity":"waste_basket"}},"type":"Feature"},
	{"geometry":{"coordinates":[20.962314,52.245642],"type":"Point"},"properties":{"osm_id":"4957486559","tag":{"amenity":"waste_basket"}},"type":"Feature"},
	{"geometry":{"coordinates":[20.977569,52.239845],"type":"Point"},"properties":{"osm_id":"4958062664","tag":{"amenity":"waste_basket"}},"type":"Feature"},
	{"geometry":{"coordinates":[20.977419,52.239711],"type":"Point"},"properties":{"osm_id":"4958062671","tag":{"amenity":"waste_basket"}},"type":"Feature"},
	{"geometry":{"coordinates":[20.977717,52.239791],"type":"Point"},"properties":{"osm_id":"4958062672","tag":{"amenity":"waste_basket"}},"type":"Feature"},
	{"geometry":{"coordinates":[20.977527,52.239424],"type":"Point"},"properties":{"osm_id":"4958066756","tag":{"amenity":"waste_basket"}},"type":"Feature"},
	{"geometry":{"coordinates":[20.975742,52.239824],"type":"Point"},"properties":{"osm_id":"4958067246","tag":{"amenity":"waste_basket"}},"type":"Feature"},
	{"geometry":{"coordinates":[20.975743,52.239741],"type":"Point"},"properties":{"osm_id":"4958067257","tag":{"amenity":"waste_basket"}},"type":"Feature"},
	{"geometry":{"coordinates":[20.979613,52.239829],"type":"Point"},"properties":{"osm_id":"4958642894","tag":{"amenity":"waste_basket"}},"type":"Feature"},
	{"geometry":{"coordinates":[20.97795,52.239887],"type":"Point"},"properties":{"osm_id":"4958643430","tag":{"amenity":"waste_basket"}},"type":"Feature"},
	{"geometry":{"coordinates":[20.97788,52.239436],"type":"Point"},"properties":{"osm_id":"4958643455","tag":{"amenity":"waste_basket"}},"type":"Feature"},
	{"geometry":{"coordinates":[20.982682,52.240245],"type":"Point"},"properties":{"osm_id":"4959577245","tag":{"amenity":"waste_basket"}},"type":"Feature"},
	{"geometry":{"coordinates":[20.982552,52.24022],"type":"Point"},"properties":{"osm_id":"4959577246","tag":{"amenity":"waste_basket"}},"type":"Feature"},
	{"geometry":{"coordinates":[20.980827,52.240161],"type":"Point"},"properties":{"osm_id":"4959577550","tag":{"amenity":"waste_basket"}},"type":"Feature"},
	{"geometry":{"coordinates":[20.980149,52.240212],"type":"Point"},"properties":{"osm_id":"4959577579","tag":{"amenity":"waste_basket"}},"type":"Feature"},
	{"geometry":{"coordinates":[20.980184,52.240119],"type":"Point"},"properties":{"osm_id":"4959577580","tag":{"amenity":"waste_basket"}},"type":"Feature"},
	{"geometry":{"coordinates":[20.996772,52.235705],"type":"Point"},"properties":{"osm_id":"4962826921","tag":{"amenity":"waste_basket"}},"type":"Feature"},
	{"geometry":{"coordinates":[20.959066,52.231666],"type":"Point"},"properties":{"osm_id":"4964789402","tag":{"amenity":"waste_basket"}},"type":"Feature"},
	{"geometry":{"coordinates":[20.958727,52.231588],"type":"Point"},"properties":{"osm_id":"4964789403","tag":{"amenity":"waste_basket"}},"type":"Feature"},
	{"geometry":{"coordinates":[20.962759,52.228516],"type":"Point"},"properties":{"osm_id":"4966945088","tag":{"amenity":"waste_basket"}},"type":"Feature"},
	{"geometry":{"coordinates":[20.960357,52.228525],"type":"Point"},"properties":{"osm_id":"4966946286","tag":{"amenity":"waste_basket"}},"type":"Feature"},
	{"geometry":{"coordinates":[20.968864,52.227296],"type":"Point"},"properties":{"osm_id":"4973145408","tag":{"amenity":"waste_basket"}},"type":"Feature"},
	{"geometry":{"coordinates":[20.968647,52.226823],"type":"Point"},"properties":{"osm_id":"4973145463","tag":{"amenity":"recycling","operator":"Eco Textil","recycling:clothes":"yes","recycling_type":"container"}},"type":"Feature"},
	{"geometry":{"coordinates":[20.938975,52.235473],"type":"Point"},"properties":{"osm_id":"5184800470","tag":{"amenity":"waste_disposal"}},"type":"Feature"},
	{"geometry":{"coordinates":[20.93433,52.232478],"type":"Point"},"properties":{"osm_id":"5194598345","tag":{"amenity":"waste_disposal"}},"type":"Feature"},
	{"geometry":{"coordinates":[20.934493,52.233025],"type":"Point"},"properties":{"osm_id":"5194598346","tag":{"amenity":"waste_disposal"}},"type":"Feature"},
	{"geometry":{"coordinates":[20.934102,52.233722],"type":"Point"},"properties":{"osm_id":"5194598347","tag":{"amenity":"waste_disposal"}},"type":"Feature"},
	{"geometry":{"coordinates":[20.96865,52.2374],"type":"Point"},"properties":{"osm_id":"5224797774","tag":{"amenity":"waste_basket"}},"type":"Feature"},
	{"geometry":{"coordinates":[20.967921,52.236456],"type":"Point"},"properties":{"osm_id":"5253631933","tag":{"amenity":"waste_basket"}},"type":"Feature"},
	{"geometry":{"coordinates":[20.967793,52.236399],"type":"Point"},"properties":{"osm_id":"5253631936","tag":{"amenity":"waste_basket"}},"type":"Feature"},
	{"geometry":{"coordinates":[20.967982,52.237452],"type":"Point"},"properties":{"osm_id":"5267824884","tag":{"amenity":"waste_basket"}},"type":"Feature"},
	{"geometry":{"coordinates":[20.968583,52.23777],"type":"Point"},"properties":{"osm_id":"5274972711","tag":{"amenity":"waste_basket"}},"type":"Feature"},
	{"geometry":{"coordinates":[20.968914,52.237743],"type":"Point"},"properties":{"osm_id":"5274972713","tag":{"amenity":"waste_basket"}},"type":"Feature"},
	{"geometry":{"coordinates":[20.969123,52.23782],"type":"Point"},"properties":{"osm_id":"5274972720","tag":{"amenity":"waste_basket"}},"type":"Feature"},
	{"geometry":{"coordinates":[20.968939,52.237531],"type":"Point"},"properties":{"osm_id":"5274973263","tag":{"amenity":"waste_basket"}},"type":"Feature"},
	{"geometry":{"coordinates":[20.968383,52.237808],"type":"Point"},"properties":{"osm_id":"5274973280","tag":{"amenity":"waste_basket"}},"type":"Feature"},
	{"geometry":{"coordinates":[20.967109,52.237716],"type":"Point"},"properties":{"osm_id":"5280005574","tag":{"amenity":"waste_basket"}},"type":"Feature"},
	{"geometry":{"coordinates":[20.967475,52.235166],"type":"Point"},"properties":{"osm_id":"5284443164","tag":{"amenity":"waste_basket"}},"type":"Feature"},
	{"geometry":{"coordinates":[20.966787,52.236881],"type":"Point"},"properties":{"osm_id":"5285716463","tag":{"amenity":"waste_basket"}},"type":"Feature"},
	{"geometry":{"coordinates":[20.96561,52.238052],"type":"Point"},"properties":{"osm_id":"5289893501","tag":{"amenity":"waste_basket"}},"type":"Feature"},
	{"geometry":{"coordinates":[20.965748,52.238646],"type":"Point"},"properties":{"osm_id":"5289898771","tag":{"amenity":"waste_basket"}},"type":"Feature"},
	{"geometry":{"coordinates":[20.969609,52.237543],"type":"Point"},"properties":{"osm_id":"5296175132","tag":{"amenity":"waste_basket"}},"type":"Feature"},
	{"geometry":{"coordinates":[20.998508,52.229115],"type":"Point"},"properties":{"osm_id":"5304388805","tag":{"amenity":"waste_basket"}},"type":"Feature"},
	{"geometry":{"coordinates":[20.951419,52.229666],"type":"Point"},"properties":{"osm_id":"5326909313","tag":{"amenity":"waste_basket"}},"type":"Feature"},
	{"geometry":{"coordinates":[20.951668,52.229917],"type":"Point"},"properties":{"osm_id":"5326909946","tag":{"amenity":"waste_basket"}},"type":"Feature"},
	{"geometry":{"coordinates":[20.969526,52.23815],"type":"Point"},"properties":{"osm_id":"5332045410","tag":{"amenity":"waste_basket"}},"type":"Feature"},
	{"geometry":{"coordinates":[20.991145,52.267129],"type":"Point"},"properties":{"osm_id":"5384892480","tag":{"amenity":"waste_disposal","waste":"trash"}},"type":"Feature"},
	{"geometry":{"coordinates":[20.991205,52.267417],"type":"Point"},"properties":{"osm_id":"5384892481","tag":{"amenity":"waste_disposal","waste":"trash"}},"type":"Feature"},
	{"geometry":{"coordinates":[20.991227,52.267511],"type":"Point"},"properties":{"osm_id":"5384892482","tag":{"amenity":"waste_disposal","waste":"trash"}},"type":"Feature"},
	{"geometry":{"coordinates":[20.95303,52.230549],"type":"Point"},"properties":{"osm_id":"5406007149","tag":{"amenity":"waste_basket"}},"type":"Feature"},
	{"geometry":{"coordinates":[20.952882,52.2304],"type":"Point"},"properties":{"osm_id":"5406007156","tag":{"amenity":"waste_basket"}},"type":"Feature"},
	{"geometry":{"coordinates":[20.952777,52.230369],"type":"Point"},"properties":{"osm_id":"5406007157","tag":{"amenity":"waste_basket"}},"type":"Feature"},
	{"geometry":{"coordinates":[20.950181,52.230736],"type":"Point"},"properties":{"osm_id":"5406013774","tag":{"amenity":"waste_basket"}},"type":"Feature"},
	{"geometry":{"coordinates":[20.990165,52.268109],"type":"Point"},"properties":{"osm_id":"5406262582","tag":{"amenity":"waste_disposal"}},"type":"Feature"},
	{"geometry":{"coordinates":[20.964658,52.234633],"type":"Point"},"properties":{"osm_id":"5419178172","tag":{"amenity":"waste_basket"}},"type":"Feature"},
	{"geometry":{"coordinates":[20.964868,52.233722],"type":"Point"},"properties":{"osm_id":"5419178426","tag":{"amenity":"waste_basket"}},"type":"Feature"},
	{"geometry":{"coordinates":[20.941222,52.248371],"type":"Point"},"properties":{"osm_id":"5429409268","tag":{"amenity":"waste_basket"}},"type":"Feature"},
	{"geometry":{"coordinates":[20.941653,52.248837],"type":"Point"},"properties":{"osm_id":"5429409269","tag":{"amenity":"waste_basket"}},"type":"Feature"},
	{"geometry":{"coordinates":[20.94153,52.248606],"type":"Point"},"properties":{"osm_id":"5429409270","tag":{"amenity":"waste_basket"}},"type":"Feature"},
	{"geometry":{"coordinates":[21.003534,52.228708],"type":"Point"},"properties":{"osm_id":"5433318886","tag":{"amenity":"waste_basket","level":"0"}},"type":"Feature"},
	{"geometry":{"coordinates":[21.004458,52.228994],"type":"Point"},"properties":{"osm_id":"5434805620","tag":{"amenity":"waste_basket","level":"-2"}},"type":"Feature"},
	{"geometry":{"coordinates":[21.004557,52.228817],"type":"Point"},"properties":{"osm_id":"5434807021","tag":{"amenity":"waste_basket","level":"-2"}},"type":"Feature"},
	{"geometry":{"coordinates":[21.004721,52.229254],"type":"Point"},"properties":{"osm_id":"5434807022","tag":{"amenity":"waste_basket","level":"-2"}},"type":"Feature"},
	{"geometry":{"coordinates":[21.004976,52.229307],"type":"Point"},"properties":{"osm_id":"5434807023","tag":{"amenity":"waste_basket","level":"-2"}},"type":"Feature"},
	{"geometry":{"coordinates":[21.00488,52.229485],"type":"Point"},"properties":{"osm_id":"5434807024","tag":{"amenity":"waste_basket","level":"-2"}},"type":"Feature"},
	{"geometry":{"coordinates":[21.004621,52.229436],"type":"Point"},"properties":{"osm_id":"5434807025","tag":{"amenity":"waste_basket","level":"-2"}},"type":"Feature"},
	{"geometry":{"coordinates":[21.003508,52.229198],"type":"Point"},"properties":{"osm_id":"5434807026","tag":{"amenity":"waste_basket","level":"-2"}},"type":"Feature"},
	{"geometry":{"coordinates":[21.003606,52.229017],"type":"Point"},"properties":{"osm_id":"5434807027","tag":{"amenity":"waste_basket","level":"-2"}},"type":"Feature"},
	{"geometry":{"coordinates":[21.003708,52.228835],"type":"Point"},"properties":{"osm_id":"5434807028","tag":{"amenity":"waste_basket","level":"-2"}},"type":"Feature"},
	{"geometry":{"coordinates":[21.003808,52.228651],"type":"Point"},"properties":{"osm_id":"5434807029","tag":{"amenity":"waste_basket","level":"-2"}},"type":"Feature"},
	{"geometry":{"coordinates":[21.002631,52.228401],"type":"Point"},"properties":{"osm_id":"5434807030","tag":{"amenity":"waste_basket","level":"-2"}},"type":"Feature"},
	{"geometry":{"coordinates":[21.002531,52.228583],"type":"Point"},"properties":{"osm_id":"5434807031","tag":{"amenity":"waste_basket","level":"-2"}},"type":"Feature"},
	{"geometry":{"coordinates":[21.002432,52.228766],"type":"Point"},"properties":{"osm_id":"5434807032","tag":{"amenity":"waste_basket","level":"-2"}},"type":"Feature"},
	{"geometry":{"coordinates":[21.002329,52.228947],"type":"Point"},"properties":{"osm_id":"5434807033","tag":{"amenity":"waste_basket","level":"-2"}},"type":"Feature"},
	{"geometry":{"coordinates":[21.002017,52.22888],"type":"Point"},"properties":{"osm_id":"5434807034","tag":{"amenity":"waste_basket","level":"-2"}},"type":"Feature"},
	{"geometry":{"coordinates":[21.002118,52.2287],"type":"Point"},"properties":{"osm_id":"5434807035","tag":{"amenity":"waste_basket","level":"-2"}},"type":"Feature"},
	{"geometry":{"coordinates":[21.00222,52.228518],"type":"Point"},"properties":{"osm_id":"5434807036","tag":{"amenity":"waste_basket","level":"-2"}},"type":"Feature"},
	{"geometry":{"coordinates":[21.002324,52.228335],"type":"Point"},"properties":{"osm_id":"5434807037","tag":{"amenity":"waste_basket","level":"-2"}},"type":"Feature"},
	{"geometry":{"coordinates":[21.002013,52.228269],"type":"Point"},"properties":{"osm_id":"5434807038","tag":{"amenity":"waste_basket","level":"-2"}},"type":"Feature"},
	{"geometry":{"coordinates":[21.001911,52.228451],"type":"Point"},"properties":{"osm_id":"5434807039","tag":{"amenity":"waste_basket","level":"-2"}},"type":"Feature"},
	{"geometry":{"coordinates":[21.001812,52.228634],"type":"Point"},"properties":{"osm_id":"5434807040","tag":{"amenity":"waste_basket","level":"-2"}},"type":"Feature"},
	{"geometry":{"coordinates":[21.001709,52.228817],"type":"Point"},"properties":{"osm_id":"5434807041","tag":{"amenity":"waste_basket","level":"-2"}},"type":"Feature"},
	{"geometry":{"coordinates":[21.000794,52.22862],"type":"Point"},"properties":{"osm_id":"5434807042","tag":{"amenity":"waste_basket","level":"-2"}},"type":"Feature"},
	{"geometry":{"coordinates":[21.000887,52.228441],"type":"Point"},"properties":{"osm_id":"5434807043","tag":{"amenity":"waste_basket","level":"-2"}},"type":"Feature"},
	{"geometry":{"coordinates":[21.001092,52.228075],"type":"Point"},"properties":{"osm_id":"5434807044","tag":{"amenity":"waste_basket","level":"-2"}},"type":"Feature"},
	{"geometry":{"coordinates":[21.000993,52.228257],"type":"Point"},"properties":{"osm_id":"5434807045","tag":{"amenity":"waste_basket","level":"-2"}},"type":"Feature"},
	{"geometry":{"coordinates":[20.987424,52.216449],"type":"Point"},"properties":{"osm_id":"5448967355","tag":{"amenity":"waste_basket"}},"type":"Feature"},
	{"geometry":{"coordinates":[20.987271,52.216425],"type":"Point"},"properties":{"osm_id":"5448967356","tag":{"amenity":"waste_basket"}},"type":"Feature"},
	{"geometry":{"coordinates":[20.94131,52.248706],"type":"Point"},"properties":{"osm_id":"5522541231","tag":{"amenity":"waste_basket"}},"type":"Feature"},
	{"geometry":{"coordinates":[20.940849,52.247934],"type":"Point"},"properties":{"osm_id":"5522657837","tag":{"amenity":"waste_basket"}},"type":"Feature"},
	{"geometry":{"coordinates":[20.941176,52.248533],"type":"Point"},"properties":{"osm_id":"5522657875","tag":{"amenity":"waste_basket"}},"type":"Feature"},
	{"geometry":{"coordinates":[20.94116,52.248397],"type":"Point"},"properties":{"osm_id":"5522657876","tag":{"amenity":"waste_basket"}},"type":"Feature"},
	{"geometry":{"coordinates":[20.952127,52.226003],"type":"Point"},"properties":{"osm_id":"5590191963","tag":{"amenity":"waste_basket"}},"type":"Feature"},
	{"geometry":{"coordinates":[20.95245,52.226157],"type":"Point"},"properties":{"osm_id":"5590191964","tag":{"amenity":"waste_basket"}},"type":"Feature"},
	{"geometry":{"coordinates":[20.952469,52.226253],"type":"Point"},"properties":{"osm_id":"5590191965","tag":{"amenity":"waste_basket"}},"type":"Feature"},
	{"geometry":{"coordinates":[20.95203,52.22648],"type":"Point"},"properties":{"osm_id":"5590191966","tag":{"amenity":"waste_basket"}},"type":"Feature"},
	{"geometry":{"coordinates":[20.936393,52.223027],"type":"Point"},"properties":{"osm_id":"5594857077","tag":{"amenity":"waste_basket"}},"type":"Feature"},
	{"geometry":{"coordinates":[20.936657,52.223151],"type":"Point"},"properties":{"osm_id":"5594857080","tag":{"amenity":"waste_basket"}},"type":"Feature"},
	{"geometry":{"coordinates":[20.937384,52.237131],"type":"Point"},"properties":{"osm_id":"5633396792","tag":{"amenity":"waste_basket","waste":"trash"}},"type":"Feature"},
	{"geometry":{"coordinates":[20.937771,52.238222],"type":"Point"},"properties":{"osm_id":"5636064621","tag":{"amenity":"waste_basket","waste":"trash"}},"type":"Feature"},
	{"geometry":{"coordinates":[20.937424,52.238131],"type":"Point"},"properties":{"osm_id":"5636064670","tag":{"amenity":"waste_basket","waste":"trash"}},"type":"Feature"},
	{"geometry":{"coordinates":[20.937565,52.23801],"type":"Point"},"properties":{"osm_id":"5636064682","tag":{"amenity":"waste_basket","waste":"trash"}},"type":"Feature"},
	{"geometry":{"coordinates":[20.937874,52.237183],"type":"Point"},"properties":{"osm_id":"5636064736","tag":{"amenity":"waste_basket","waste":"trash"}},"type":"Feature"},
	{"geometry":{"coordinates":[20.948356,52.227506],"type":"Point"},"properties":{"osm_id":"5653922047","tag":{"amenity":"waste_basket","waste":"trash"}},"type":"Feature"},
	{"geometry":{"coordinates":[20.949002,52.227705],"type":"Point"},"properties":{"osm_id":"5653922441","tag":{"amenity":"waste_basket","waste":"trash"}},"type":"Feature"},
	{"geometry":{"coordinates":[20.924145,52.245207],"type":"Point"},"properties":{"osm_id":"5663406015","tag":{"amenity":"waste_basket"}},"type":"Feature"},
	{"geometry":{"coordinates":[20.92452,52.245064],"type":"Point"},"properties":{"osm_id":"5663406016","tag":{"amenity":"waste_disposal"}},"type":"Feature"},
	{"geometry":{"coordinates":[20.923947,52.256024],"type":"Point"},"properties":{"osm_id":"5685405978","tag":{"amenity":"waste_basket","waste":"trash"}},"type":"Feature"},
	{"geometry":{"coordinates":[20.924249,52.256283],"type":"Point"},"properties":{"osm_id":"5685405979","tag":{"amenity":"waste_basket","waste":"trash"}},"type":"Feature"},
	{"geometry":{"coordinates":[20.996875,52.245769],"type":"Point"},"properties":{"osm_id":"5775565048","tag":{"amenity":"waste_disposal"}},"type":"Feature"},
	{"geometry":{"coordinates":[20.996626,52.245668],"type":"Point"},"properties":{"osm_id":"5775565520","tag":{"amenity":"recycling","recycling:clothes":"yes"}},"type":"Feature"},
	{"geometry":{"coordinates":[20.992568,52.239682],"type":"Point"},"properties":{"osm_id":"5775565945","tag":{"amenity":"waste_basket"}},"type":"Feature"},
	{"geometry":{"coordinates":[20.993155,52.239907],"type":"Point"},"properties":{"osm_id":"5775621355","tag":{"amenity":"waste_basket"}},"type":"Feature"},
	{"geometry":{"coordinates":[20.990882,52.237759],"type":"Point"},"properties":{"osm_id":"5775621741","tag":{"amenity":"waste_basket"}},"type":"Feature"},
	{"geometry":{"coordinates":[20.981268,52.232647],"type":"Point"},"properties":{"osm_id":"5814932309","tag":{"amenity":"waste_basket","waste":"trash"}},"type":"Feature"},
	{"geometry":{"coordinates":[20.981111,52.232775],"type":"Point"},"properties":{"osm_id":"5814932310","tag":{"amenity":"waste_basket","waste":"trash"}},"type":"Feature"},
	{"geometry":{"coordinates":[20.981053,52.232564],"type":"Point"},"properties":{"osm_id":"5814932311","tag":{"amenity":"waste_basket","waste":"trash"}},"type":"Feature"},
	{"geometry":{"coordinates":[20.980913,52.232554],"type":"Point"},"properties":{"osm_id":"5814932312","tag":{"amenity":"waste_basket","waste":"trash"}},"type":"Feature"},
	{"geometry":{"coordinates":[20.988974,52.266455],"type":"Point"},"properties":{"osm_id":"6123476555","tag":{"amenity":"waste_basket"}},"type":"Feature"},
	{"geometry":{"coordinates":[20.984839,52.267076],"type":"Point"},"properties":{"osm_id":"6137455958","tag":{"amenity":"waste_basket"}},"type":"Feature"},
	{"geometry":{"coordinates":[20.984814,52.267137],"type":"Point"},"properties":{"osm_id":"6137455959","tag":{"amenity":"waste_basket"}},"type":"Feature"},
	{"geometry":{"coordinates":[21.005767,52.238098],"type":"Point"},"properties":{"osm_id":"6259276536","tag":{"amenity":"waste_basket"}},"type":"Feature"},
	{"geometry":{"coordinates":[20.989079,52.237576],"type":"Point"},"properties":{"osm_id":"6549126422","tag":{"amenity":"waste_basket"}},"type":"Feature"},
	{"geometry":{"coordinates":[20.989408,52.266583],"type":"Point"},"properties":{"osm_id":"6628809082","tag":{"amenity":"waste_basket"}},"type":"Feature"},
	{"geometry":{"coordinates":[21.001648,52.260106],"type":"Point"},"properties":{"osm_id":"6725107963","tag":{"amenity":"waste_basket"}},"type":"Feature"},
	{"geometry":{"coordinates":[20.99599,52.267397],"type":"Point"},"properties":{"osm_id":"6743543630","tag":{"amenity":"waste_basket"}},"type":"Feature"},
	{"geometry":{"coordinates":[20.965561,52.245187],"type":"Point"},"properties":{"osm_id":"6913930628","tag":{"amenity":"waste_basket"}},"type":"Feature"},
	{"geometry":{"coordinates":[20.965879,52.245071],"type":"Point"},"properties":{"osm_id":"6913930629","tag":{"amenity":"waste_basket"}},"type":"Feature"},
	{"geometry":{"coordinates":[20.965541,52.244949],"type":"Point"},"properties":{"osm_id":"6913930630","tag":{"amenity":"waste_basket"}},"type":"Feature"},
	{"geometry":{"coordinates":[20.973861,52.23661],"type":"Point"},"properties":{"osm_id":"7342239302","tag":{"amenity":"waste_basket"}},"type":"Feature"},
	{"geometry":{"coordinates":[20.949397,52.239223],"type":"Point"},"properties":{"osm_id":"7573270772","tag":{"amenity":"waste_basket"}},"type":"Feature"},
	{"geometry":{"coordinates":[20.943206,52.249348],"type":"Point"},"properties":{"osm_id":"7574907896","tag":{"amenity":"waste_basket"}},"type":"Feature"},
	{"geometry":{"coordinates":[20.941871,52.249454],"type":"Point"},"properties":{"osm_id":"7574907900","tag":{"amenity":"waste_basket"}},"type":"Feature"},
	{"geometry":{"coordinates":[20.994359,52.234314],"type":"Point"},"properties":{"osm_id":"7787611655","tag":{"amenity":"waste_basket"}},"type":"Feature"},
	{"geometry":{"coordinates":[20.994411,52.234219],"type":"Point"},"properties":{"osm_id":"7787611656","tag":{"amenity":"waste_basket"}},"type":"Feature"},
	{"geometry":{"coordinates":[20.99434,52.233952],"type":"Point"},"properties":{"osm_id":"7787611657","tag":{"amenity":"waste_basket"}},"type":"Feature"},
	{"geometry":{"coordinates":[20.993487,52.234792],"type":"Point"},"properties":{"osm_id":"7787611658","tag":{"amenity":"waste_basket"}},"type":"Feature"},
	{"geometry":{"coordinates":[20.993624,52.234459],"type":"Point"},"properties":{"osm_id":"7787611659","tag":{"amenity":"waste_basket"}},"type":"Feature"},
	{"geometry":{"coordinates":[20.994027,52.234521],"type":"Point"},"properties":{"osm_id":"7787611660","tag":{"amenity":"waste_basket"}},"type":"Feature"},
	{"geometry":{"coordinates":[20.993906,52.234815],"type":"Point"},"properties":{"osm_id":"7787611661","tag":{"amenity":"waste_basket"}},"type":"Feature"},
	{"geometry":{"coordinates":[20.994399,52.234031],"type":"Point"},"properties":{"osm_id":"7787611671","tag":{"amenity":"waste_basket"}},"type":"Feature"},
	{"geometry":{"coordinates":[20.99434,52.233992],"type":"Point"},"properties":{"osm_id":"7787611672","tag":{"amenity":"waste_basket"}},"type":"Feature"},
	{"geometry":{"coordinates":[20.977825,52.244448],"type":"Point"},"properties":{"osm_id":"7836229407","tag":{"amenity":"waste_basket"}},"type":"Feature"},
	{"geometry":{"coordinates":[20.977114,52.244581],"type":"Point"},"properties":{"osm_id":"7836229408","tag":{"amenity":"waste_basket"}},"type":"Feature"},
	{"geometry":{"coordinates":[20.977014,52.244312],"type":"Point"},"properties":{"osm_id":"7836229409","tag":{"amenity":"waste_basket"}},"type":"Feature"},
	{"geometry":{"coordinates":[20.983042,52.246154],"type":"Point"},"properties":{"osm_id":"7836229410","tag":{"amenity":"waste_basket"}},"type":"Feature"},
	{"geometry":{"coordinates":[20.985364,52.246379],"type":"Point"},"properties":{"osm_id":"7836229411","tag":{"amenity":"waste_basket"}},"type":"Feature"},
	{"geometry":{"coordinates":[20.985677,52.246508],"type":"Point"},"properties":{"osm_id":"7836229412","tag":{"amenity":"waste_basket"}},"type":"Feature"},
	{"geometry":{"coordinates":[20.986019,52.246408],"type":"Point"},"properties":{"osm_id":"7836229413","tag":{"amenity":"waste_basket"}},"type":"Feature"},
	{"geometry":{"coordinates":[20.985921,52.24638],"type":"Point"},"properties":{"osm_id":"7836229414","tag":{"amenity":"waste_basket"}},"type":"Feature"},
	{"geometry":{"coordinates":[20.985619,52.245605],"type":"Point"},"properties":{"osm_id":"7836229418","tag":{"amenity":"waste_basket"}},"type":"Feature"},
	{"geometry":{"coordinates":[20.985822,52.245666],"type":"Point"},"properties":{"osm_id":"7836229419","tag":{"amenity":"waste_basket"}},"type":"Feature"},
	{"geometry":{"coordinates":[20.985405,52.246228],"type":"Point"},"properties":{"osm_id":"7836229420","tag":{"amenity":"waste_basket"}},"type":"Feature"},
	{"geometry":{"coordinates":[20.984874,52.246237],"type":"Point"},"properties":{"osm_id":"7836229421","tag":{"amenity":"waste_basket"}},"type":"Feature"},
	{"geometry":{"coordinates":[20.978676,52.244412],"type":"Point"},"properties":{"osm_id":"7836229422","tag":{"amenity":"waste_basket"}},"type":"Feature"},
	{"geometry":{"coordinates":[20.97941,52.244362],"type":"Point"},"properties":{"osm_id":"7836229423","tag":{"amenity":"waste_basket"}},"type":"Feature"},
	{"geometry":{"coordinates":[20.97936,52.244444],"type":"Point"},"properties":{"osm_id":"7836229424","tag":{"amenity":"waste_basket"}},"type":"Feature"},
	{"geometry":{"coordinates":[20.980193,52.24482],"type":"Point"},"properties":{"osm_id":"7836229425","tag":{"amenity":"waste_basket"}},"type":"Feature"},
	{"geometry":{"coordinates":[20.980232,52.24495],"type":"Point"},"properties":{"osm_id":"7836229426","tag":{"amenity":"waste_basket"}},"type":"Feature"},
	{"geometry":{"coordinates":[20.98054,52.244894],"type":"Point"},"properties":{"osm_id":"7836229427","tag":{"amenity":"waste_basket"}},"type":"Feature"},
	{"geometry":{"coordinates":[20.995152,52.249041],"type":"Point"},"properties":{"osm_id":"7857124639","tag":{"amenity":"waste_basket"}},"type":"Feature"},
	{"geometry":{"coordinates":[20.992533,52.248662],"type":"Point"},"properties":{"osm_id":"7857124644","tag":{"amenity":"waste_basket"}},"type":"Feature"},
	{"geometry":{"coordinates":[20.992388,52.248809],"type":"Point"},"properties":{"osm_id":"7857124645","tag":{"amenity":"waste_basket"}},"type":"Feature"},
	{"geometry":{"coordinates":[20.992195,52.248999],"type":"Point"},"properties":{"osm_id":"7857124646","tag":{"amenity":"waste_basket"}},"type":"Feature"},
	{"geometry":{"coordinates":[20.991366,52.248797],"type":"Point"},"properties":{"osm_id":"7857124647","tag":{"amenity":"waste_basket"}},"type":"Feature"},
	{"geometry":{"coordinates":[20.991859,52.249219],"type":"Point"},"properties":{"osm_id":"7857124648","tag":{"amenity":"waste_basket"}},"type":"Feature"},
	{"geometry":{"coordinates":[20.991693,52.249035],"type":"Point"},"properties":{"osm_id":"7857124649","tag":{"amenity":"waste_basket"}},"type":"Feature"},
	{"geometry":{"coordinates":[20.935441,52.22907],"type":"Point"},"properties":{"osm_id":"7874619940","tag":{"amenity":"waste_basket","waste":"mixed"}},"type":"Feature"},
	{"geometry":{"coordinates":[20.935023,52.229696],"type":"Point"},"properties":{"osm_id":"7874619941","tag":{"amenity":"waste_basket","waste":"mixed"}},"type":"Feature"},
	{"geometry":{"coordinates":[20.935508,52.228891],"type":"Point"},"properties":{"osm_id":"7874619943","tag":{"amenity":"waste_basket","waste":"mixed"}},"type":"Feature"},
	{"geometry":{"coordinates":[20.935291,52.228779],"type":"Point"},"properties":{"osm_id":"7874619945","tag":{"amenity":"waste_basket","waste":"mixed"}},"type":"Feature"},
	{"geometry":{"coordinates":[20.999275,52.230443],"type":"Point"},"properties":{"osm_id":"7903388929","tag":{"amenity":"waste_basket"}},"type":"Feature"},
	{"geometry":{"coordinates":[20.999415,52.230603],"type":"Point"},"properties":{"osm_id":"7903388930","tag":{"amenity":"waste_basket"}},"type":"Feature"},
	{"geometry":{"coordinates":[20.973626,52.234858],"type":"Point"},"properties":{"osm_id":"7911116402","tag":{"amenity":"waste_basket","material":"concrete"}},"type":"Feature"},
	{"geometry":{"coordinates":[20.973594,52.234907],"type":"Point"},"properties":{"osm_id":"7911116403","tag":{"amenity":"waste_basket","material":"concrete"}},"type":"Feature"},
	{"geometry":{"coordinates":[20.929205,52.223397],"type":"Point"},"properties":{"osm_id":"7945654566","tag":{"amenity":"waste_basket"}},"type":"Feature"},
	{"geometry":{"coordinates":[20.92903,52.22348],"type":"Point"},"properties":{"osm_id":"7945654567","tag":{"amenity":"waste_basket"}},"type":"Feature"},
	{"geometry":{"coordinates":[20.930161,52.224781],"type":"Point"},"properties":{"osm_id":"7945654568","tag":{"amenity":"waste_basket"}},"type":"Feature"},
	{"geometry":{"coordinates":[20.930003,52.224879],"type":"Point"},"properties":{"osm_id":"7945654569","tag":{"amenity":"waste_basket"}},"type":"Feature"},
	{"geometry":{"coordinates":[20.930744,52.224889],"type":"Point"},"properties":{"osm_id":"7945654570","tag":{"amenity":"waste_basket"}},"type":"Feature"},
	{"geometry":{"coordinates":[20.930716,52.225009],"type":"Point"},"properties":{"osm_id":"7945654571","tag":{"amenity":"waste_basket"}},"type":"Feature"},
	{"geometry":{"coordinates":[20.930753,52.22339],"type":"Point"},"properties":{"osm_id":"7945654572","tag":{"amenity":"waste_basket"}},"type":"Feature"},
	{"geometry":{"coordinates":[20.930573,52.223338],"type":"Point"},"properties":{"osm_id":"7945654573","tag":{"amenity":"waste_basket"}},"type":"Feature"}
]
}
