{
"type": "FeatureCollection",
"features": [
	{"geometry":{"coordinates":[20.966142,52.194555],"type":"Point"},"properties":{"osm_id":"1244184539","tag":{"amenity":"waste_disposal"}},"type":"Feature"},
	{"geometry":{"coordinates":[20.981991,52.209754],"type":"Point"},"properties":{"osm_id":"1777820234","tag":{"amenity":"waste_basket"}},"type":"Feature"},
	{"geometry":{"coordinates":[20.982534,52.210247],"type":"Point"},"properties":{"osm_id":"1777820235","tag":{"amenity":"waste_basket"}},"type":"Feature"},
	{"geometry":{"coordinates":[20.973217,52.169738],"type":"Point"},"properties":{"osm_id":"1779398948","tag":{"amenity":"waste_basket","waste":"trash"}},"type":"Feature"},
	{"geometry":{"coordinates":[20.973088,52.169823],"type":"Point"},"properties":{"osm_id":"1779419912","tag":{"amenity":"waste_basket","waste":"trash"}},"type":"Feature"},
	{"geometry":{"coordinates":[20.973148,52.169888],"type":"Point"},"properties":{"osm_id":"1779450572","tag":{"amenity":"waste_basket"}},"type":"Feature"},
	{"geometry":{"coordinates":[20.97288,52.169821],"type":"Point"},"properties":{"osm_id":"1779450574","tag":{"amenity":"waste_basket"}},"type":"Feature"},
	{"geometry":{"coordinates":[20.940166,52.181233],"type":"Point"},"properties":{"barrier":"gate","osm_id":"2074361617","tag":{"bicycle":"yes","foot":"yes","motorcar":"yes","motorcycle":"yes"}},"type":"Feature"},
	{"geometry":{"coordinates":[20.990746,52.208281],"type":"Point"},"properties":{"osm_id":"3453808099","tag":{"amenity":"waste_disposal"}},"type":"Feature"},
	{"geometry":{"coordinates":[20.991015,52.186785],"type":"Point"},"properties":{"osm_id":"4798483845","tag":{"amenity":"waste_basket"}},"type":"Feature"},
	{"geometry":{"coordinates":[20.990511,52.186824],"type":"Point"},"properties":{"osm_id":"4798483851","tag":{"amenity":"waste_basket"}},"type":"Feature"},
	{"geometry":{"coordinates":[20.998328,52.185619],"type":"Point"},"properties":{"osm_id":"4798547457","ref":"UDM-43","tag":{"amenity":"waste_basket"}},"type":"Feature"},
	{"geometry":{"coordinates":[21.00163,52.185644],"type":"Point"},"properties":{"osm_id":"4798547458","ref":"3480","tag":{"amenity":"waste_basket"}},"type":"Feature"},
	{"geometry":{"coordinates":[20.999338,52.185634],"type":"Point"},"properties":{"osm_id":"4798547459","ref":"UDM-50","tag":{"amenity":"waste_basket"}},"type":"Feature"},
	{"geometry":{"coordinates":[20.997866,52.185591],"type":"Point"},"properties":{"osm_id":"4798547460","ref":"4053","tag":{"amenity":"waste_basket"}},"type":"Feature"},
	{"geometry":{"coordinates":[20.983702,52.17784],"type":"Point"},"properties":{"osm_id":"4799344821","tag":{"amenity":"waste_basket"}},"type":"Feature"},
	{"geometry":{"coordinates":[20.986983,52.211832],"type":"Point"},"properties":{"osm_id":"5111706626","tag":{"amenity":"waste_basket"}},"type":"Feature"},
	{"geometry":{"coordinates":[20.986175,52.212327],"type":"Point"},"properties":{"osm_id":"5111706627","tag":{"amenity":"waste_basket"}},"type":"Feature"},
	{"geometry":{"coordinates":[20.986215,52.212415],"type":"Point"},"properties":{"osm_id":"5111706628","tag":{"amenity":"waste_basket"}},"type":"Feature"},
	{"geometry":{"coordinates":[20.986518,52.212567],"type":"Point"},"properties":{"osm_id":"5111706637","tag":{"amenity":"waste_basket"}},"type":"Feature"},
	{"geometry":{"coordinates":[20.986161,52.212681],"type":"Point"},"properties":{"osm_id":"5111706642","tag":{"amenity":"waste_basket"}},"type":"Feature"},
	{"geometry":{"coordinates":[20.985965,52.2127],"type":"Point"},"properties":{"osm_id":"5111706647","tag":{"amenity":"waste_basket"}},"type":"Feature"},
	{"geometry":{"coordinates":[20.98527,52.212612],"type":"Point"},"properties":{"osm_id":"5111706648","tag":{"amenity":"waste_basket"}},"type":"Feature"},
	{"geometry":{"coordinates":[20.985756,52.212572],"type":"Point"},"properties":{"osm_id":"5111706653","tag":{"amenity":"waste_basket"}},"type":"Feature"},
	{"geometry":{"coordinates":[21.004334,52.210786],"type":"Point"},"properties":{"osm_id":"5664416913","tag":{"amenity":"waste_basket","waste":"trash"}},"type":"Feature"},
	{"geometry":{"coordinates":[21.004346,52.210455],"type":"Point"},"properties":{"osm_id":"5664416915","tag":{"amenity":"waste_basket","waste":"trash"}},"type":"Feature"},
	{"geometry":{"coordinates":[20.995761,52.209617],"type":"Point"},"properties":{"osm_id":"5664416917","tag":{"amenity":"waste_basket","waste":"trash"}},"type":"Feature"},
	{"geometry":{"coordinates":[20.973316,52.213681],"type":"Point"},"properties":{"osm_id":"5836247532","tag":{"amenity":"waste_basket","waste":"trash"}},"type":"Feature"},
	{"geometry":{"coordinates":[20.982227,52.211155],"type":"Point"},"properties":{"osm_id":"6044650725","tag":{"amenity":"waste_basket","waste":"trash"}},"type":"Feature"},
	{"geometry":{"coordinates":[20.982373,52.203214],"type":"Point"},"properties":{"osm_id":"6468377966","tag":{"amenity":"waste_disposal"}},"type":"Feature"},
	{"geometry":{"coordinates":[20.984266,52.202893],"type":"Point"},"properties":{"osm_id":"6468377967","tag":{"amenity":"waste_disposal"}},"type":"Feature"},
	{"geometry":{"coordinates":[20.98511,52.204853],"type":"Point"},"properties":{"osm_id":"6468377968","tag":{"amenity":"waste_disposal"}},"type":"Feature"},
	{"geometry":{"coordinates":[20.982314,52.201252],"type":"Point"},"properties":{"osm_id":"6468385894","tag":{"amenity":"waste_disposal"}},"type":"Feature"},
	{"geometry":{"coordinates":[20.981517,52.200012],"type":"Point"},"properties":{"osm_id":"6499103239","tag":{"amenity":"waste_disposal"}},"type":"Feature"},
	{"geometry":{"coordinates":[20.992549,52.163017],"type":"Point"},"properties":{"osm_id":"6512041400","tag":{"amenity":"waste_basket"}},"type":"Feature"},
	{"geometry":{"coordinates":[20.935004,52.167401],"type":"Point"},"properties":{"osm_id":"6534261291","tag":{"amenity":"waste_basket"}},"type":"Feature"},
	{"geometry":{"coordinates":[21.005823,52.20174],"type":"Point"},"properties":{"osm_id":"6617114984","tag":{"amenity":"waste_disposal"}},"type":"Feature"},
	{"geometry":{"coordinates":[20.964317,52.195826],"type":"Point"},"properties":{"name":"Kontenery na \u00c5\u009bmieci","osm_id":"6723793144","tag":{"amenity":"waste_basket"}},"type":"Feature"},
	{"geometry":{"coordinates":[20.983736,52.180111],"type":"Point"},"properties":{"osm_id":"6845637742","tag":{"amenity":"waste_basket"}},"type":"Feature"},
	{"geometry":{"coordinates":[20.990917,52.193274],"type":"Point"},"properties":{"osm_id":"6913930185","tag":{"amenity":"waste_disposal"}},"type":"Feature"},
	{"geometry":{"coordinates":[20.989512,52.191312],"type":"Point"},"properties":{"osm_id":"6913930241","tag":{"amenity":"waste_disposal"}},"type":"Feature"},
	{"geometry":{"coordinates":[20.989955,52.192292],"type":"Point"},"properties":{"osm_id":"6913930242","tag":{"amenity":"waste_disposal"}},"type":"Feature"},
	{"geometry":{"coordinates":[20.991629,52.177043],"type":"Point"},"properties":{"osm_id":"7123004558","tag":{"amenity":"waste_basket"}},"type":"Feature"},
	{"geometry":{"coordinates":[20.983712,52.167571],"type":"Point"},"properties":{"osm_id":"7133855781","tag":{"amenity":"waste_basket"}},"type":"Feature"},
	{"geometry":{"coordinates":[20.984806,52.203724],"type":"Point"},"properties":{"osm_id":"7528083753","tag":{"amenity":"waste_disposal"}},"type":"Feature"},
	{"geometry":{"coordinates":[20.976994,52.206455],"type":"Point"},"properties":{"osm_id":"7835167768","tag":{"amenity":"waste_disposal"}},"type":"Feature"},
	{"geometry":{"coordinates":[20.977415,52.206954],"type":"Point"},"properties":{"osm_id":"7835167769","tag":{"amenity":"waste_disposal"}},"type":"Feature"},
	{"geometry":{"coordinates":[20.960958,52.208149],"type":"Point"},"properties":{"osm_id":"7855928375","tag":{"amenity":"waste_basket"}},"type":"Feature"},
	{"geometry":{"coordinates":[20.961077,52.2084],"type":"Point"},"properties":{"osm_id":"7855928376","tag":{"amenity":"waste_basket"}},"type":"Feature"},
	{"geometry":{"coordinates":[20.961838,52.208383],"type":"Point"},"properties":{"osm_id":"7855928377","tag":{"amenity":"waste_basket"}},"type":"Feature"},
	{"geometry":{"coordinates":[20.961685,52.208228],"type":"Point"},"properties":{"osm_id":"7855928378","tag":{"amenity":"waste_basket"}},"type":"Feature"},
	{"geometry":{"coordinates":[20.961355,52.20788],"type":"Point"},"properties":{"osm_id":"7855928379","tag":{"amenity":"waste_basket"}},"type":"Feature"},
	{"geometry":{"coordinates":[20.961006,52.207628],"type":"Point"},"properties":{"osm_id":"7855928380","tag":{"amenity":"waste_basket"}},"type":"Feature"},
	{"geometry":{"coordinates":[20.955545,52.205222],"type":"Point"},"properties":{"osm_id":"7855983224","tag":{"amenity":"waste_basket"}},"type":"Feature"},
	{"geometry":{"coordinates":[20.955979,52.204275],"type":"Point"},"properties":{"osm_id":"7855983226","tag":{"amenity":"waste_basket"}},"type":"Feature"},
	{"geometry":{"coordinates":[20.956072,52.203362],"type":"Point"},"properties":{"osm_id":"7855983234","tag":{"amenity":"waste_basket"}},"type":"Feature"},
	{"geometry":{"coordinates":[20.956056,52.203218],"type":"Point"},"properties":{"osm_id":"7855983235","tag":{"amenity":"waste_basket"}},"type":"Feature"},
	{"geometry":{"coordinates":[20.956107,52.203021],"type":"Point"},"properties":{"osm_id":"7855983236","tag":{"amenity":"waste_basket"}},"type":"Feature"},
	{"geometry":{"coordinates":[20.957865,52.202596],"type":"Point"},"properties":{"osm_id":"7855983310","tag":{"amenity":"waste_basket"}},"type":"Feature"},
	{"geometry":{"coordinates":[20.956147,52.20286],"type":"Point"},"properties":{"osm_id":"7855983316","tag":{"amenity":"waste_basket"}},"type":"Feature"},
	{"geometry":{"coordinates":[20.956788,52.202525],"type":"Point"},"properties":{"osm_id":"7855983317","tag":{"amenity":"waste_basket"}},"type":"Feature"},
	{"geometry":{"coordinates":[20.957212,52.202498],"type":"Point"},"properties":{"osm_id":"7855983318","tag":{"amenity":"waste_basket"}},"type":"Feature"},
	{"geometry":{"coordinates":[20.957477,52.202489],"type":"Point"},"properties":{"osm_id":"7855983319","tag":{"amenity":"waste_basket"}},"type":"Feature"},
	{"geometry":{"coordinates":[20.957497,52.202544],"type":"Point"},"properties":{"osm_id":"7855983320","tag":{"amenity":"waste_basket"}},"type":"Feature"},
	{"geometry":{"coordinates":[20.963008,52.204065],"type":"Point"},"properties":{"osm_id":"7858061983","tag":{"amenity":"waste_basket"}},"type":"Feature"},
	{"geometry":{"coordinates":[20.962757,52.203947],"type":"Point"},"properties":{"osm_id":"7858061984","tag":{"amenity":"waste_basket"}},"type":"Feature"},
	{"geometry":{"coordinates":[20.962699,52.204144],"type":"Point"},"properties":{"osm_id":"7858061985","tag":{"amenity":"waste_basket"}},"type":"Feature"},
	{"geometry":{"coordinates":[20.962668,52.204344],"type":"Point"},"properties":{"osm_id":"7858061986","tag":{"amenity":"waste_basket"}},"type":"Feature"},
	{"geometry":{"coordinates":[20.962568,52.204555],"type":"Point"},"properties":{"osm_id":"7858061987","tag":{"amenity":"waste_basket"}},"type":"Feature"},
	{"geometry":{"coordinates":[20.962532,52.204622],"type":"Point"},"properties":{"osm_id":"7858061988","tag":{"amenity":"waste_basket"}},"type":"Feature"},
	{"geometry":{"coordinates":[20.962476,52.207037],"type":"Point"},"properties":{"osm_id":"7858062218","tag":{"amenity":"waste_basket"}},"type":"Feature"},
	{"geometry":{"coordinates":[20.962463,52.206959],"type":"Point"},"properties":{"osm_id":"7858062219","tag":{"amenity":"waste_basket"}},"type":"Feature"},
	{"geometry":{"coordinates":[20.958781,52.20815],"type":"Point"},"properties":{"osm_id":"7858062365","tag":{"amenity":"waste_basket"}},"type":"Feature"},
	{"geometry":{"coordinates":[20.959328,52.208249],"type":"Point"},"properties":{"osm_id":"7858062366","tag":{"amenity":"waste_basket"}},"type":"Feature"},
	{"geometry":{"coordinates":[20.959445,52.208271],"type":"Point"},"properties":{"osm_id":"7858062367","tag":{"amenity":"waste_basket"}},"type":"Feature"},
	{"geometry":{"coordinates":[20.959608,52.208306],"type":"Point"},"properties":{"osm_id":"7858062368","tag":{"amenity":"waste_basket"}},"type":"Feature"},
	{"geometry":{"coordinates":[20.959862,52.208282],"type":"Point"},"properties":{"osm_id":"7858062369","tag":{"amenity":"waste_basket"}},"type":"Feature"},
	{"geometry":{"coordinates":[20.960037,52.208376],"type":"Point"},"properties":{"osm_id":"7858062370","tag":{"amenity":"waste_basket"}},"type":"Feature"},
	{"geometry":{"coordinates":[20.960276,52.208417],"type":"Point"},"properties":{"osm_id":"7858062371","tag":{"amenity":"waste_basket"}},"type":"Feature"},
	{"geometry":{"coordinates":[20.962073,52.207881],"type":"Point"},"properties":{"osm_id":"7858062556","tag":{"amenity":"waste_basket"}},"type":"Feature"},
	{"geometry":{"coordinates":[20.961981,52.208127],"type":"Point"},"properties":{"osm_id":"7858062557","tag":{"amenity":"waste_basket"}},"type":"Feature"},
	{"geometry":{"coordinates":[20.960721,52.204796],"type":"Point"},"properties":{"osm_id":"7880781769","tag":{"amenity":"waste_basket"}},"type":"Feature"},
	{"geometry":{"coordinates":[20.96068,52.204863],"type":"Point"},"properties":{"osm_id":"7880781770","tag":{"amenity":"waste_basket"}},"type":"Feature"},
	{"geometry":{"coordinates":[20.960638,52.20492],"type":"Point"},"properties":{"osm_id":"7880781771","tag":{"amenity":"waste_basket"}},"type":"Feature"},
	{"geometry":{"coordinates":[20.960452,52.20508],"type":"Point"},"properties":{"osm_id":"7880781772","tag":{"amenity":"waste_basket"}},"type":"Feature"},
	{"geometry":{"coordinates":[20.960599,52.205229],"type":"Point"},"properties":{"osm_id":"7880781773","tag":{"amenity":"waste_basket"}},"type":"Feature"},
	{"geometry":{"coordinates":[20.960951,52.205383],"type":"Point"},"properties":{"osm_id":"7880781774","tag":{"amenity":"waste_basket"}},"type":"Feature"},
	{"geometry":{"coordinates":[20.960187,52.206435],"type":"Point"},"properties":{"osm_id":"7880781776","tag":{"amenity":"waste_basket"}},"type":"Feature"},
	{"geometry":{"coordinates":[20.95952,52.206183],"type":"Point"},"properties":{"osm_id":"7880784487","tag":{"amenity":"waste_basket"}},"type":"Feature"},
	{"geometry":{"coordinates":[20.959691,52.206119],"type":"Point"},"properties":{"osm_id":"7880784488","tag":{"amenity":"waste_basket"}},"type":"Feature"},
	{"geometry":{"coordinates":[20.960112,52.206372],"type":"Point"},"properties":{"osm_id":"7880784489","tag":{"amenity":"waste_basket"}},"type":"Feature"},
	{"geometry":{"coordinates":[20.959675,52.206276],"type":"Point"},"properties":{"osm_id":"7880784500","tag":{"amenity":"waste_basket"}},"type":"Feature"},
	{"geometry":{"coordinates":[20.959863,52.206209],"type":"Point"},"properties":{"osm_id":"7880784501","tag":{"amenity":"waste_basket"}},"type":"Feature"},
	{"geometry":{"coordinates":[20.960263,52.206302],"type":"Point"},"properties":{"osm_id":"7880784502","tag":{"amenity":"waste_basket"}},"type":"Feature"},
	{"geometry":{"coordinates":[20.960045,52.206415],"type":"Point"},"properties":{"osm_id":"7880784503","tag":{"amenity":"waste_basket"}},"type":"Feature"},
	{"geometry":{"coordinates":[20.959996,52.206408],"type":"Point"},"properties":{"osm_id":"7880784504","tag":{"amenity":"waste_basket"}},"type":"Feature"},
	{"geometry":{"coordinates":[20.959881,52.206399],"type":"Point"},"properties":{"osm_id":"7880784505","tag":{"amenity":"waste_basket"}},"type":"Feature"},
	{"geometry":{"coordinates":[20.95975,52.206382],"type":"Point"},"properties":{"osm_id":"7880784506","tag":{"amenity":"waste_basket"}},"type":"Feature"},
	{"geometry":{"coordinates":[20.959637,52.206369],"type":"Point"},"properties":{"osm_id":"7880784507","tag":{"amenity":"waste_basket"}},"type":"Feature"},
	{"geometry":{"coordinates":[20.961909,52.20768],"type":"Point"},"properties":{"osm_id":"7881771800","tag":{"amenity":"waste_basket"}},"type":"Feature"},
	{"geometry":{"coordinates":[20.963182,52.208363],"type":"Point"},"properties":{"osm_id":"7881771817","tag":{"amenity":"waste_basket"}},"type":"Feature"}
]
}
