{
"type": "FeatureCollection",
"features": [
	{"geometry":{"coordinates":[21.00394,47.200766],"type":"Point"},"properties":{"osm_id":"6778902043","tag":{"amenity":"waste_basket","colour":"green","material":"steel"}},"type":"Feature"},
	{"geometry":{"coordinates":[21.002252,47.201744],"type":"Point"},"properties":{"osm_id":"6778902054","tag":{"amenity":"waste_basket","colour":"green","material":"steel"}},"type":"Feature"},
	{"geometry":{"coordinates":[21.001193,47.201974],"type":"Point"},"properties":{"osm_id":"6778902057","tag":{"amenity":"recycling","recycling_type":"container"}},"type":"Feature"},
	{"geometry":{"coordinates":[21.001286,47.20232],"type":"Point"},"properties":{"osm_id":"6778902058","tag":{"amenity":"waste_basket","colour":"green","material":"steel"}},"type":"Feature"},
	{"geometry":{"coordinates":[21.000559,47.202484],"type":"Point"},"properties":{"osm_id":"6778902060","tag":{"amenity":"waste_basket","colour":"green","material":"steel"}},"type":"Feature"},
	{"geometry":{"coordinates":[20.999597,47.203296],"type":"Point"},"properties":{"osm_id":"6778902064","tag":{"amenity":"waste_basket","colour":"brown","material":"wood"}},"type":"Feature"},
	{"geometry":{"coordinates":[20.997293,47.204615],"type":"Point"},"properties":{"osm_id":"6778902070","tag":{"amenity":"waste_basket","colour":"green","material":"steel"}},"type":"Feature"},
	{"geometry":{"coordinates":[20.992872,47.206933],"type":"Point"},"properties":{"osm_id":"6778902072","tag":{"amenity":"recycling","recycling_type":"container"}},"type":"Feature"},
	{"geometry":{"coordinates":[20.990198,47.208686],"type":"Point"},"properties":{"osm_id":"6778902076","tag":{"amenity":"waste_basket","colour":"green","material":"steel"}},"type":"Feature"},
	{"geometry":{"coordinates":[20.985958,47.211219],"type":"Point"},"properties":{"osm_id":"6778902078","tag":{"amenity":"recycling","recycling_type":"container"}},"type":"Feature"}
]
}
