{
"type": "FeatureCollection",
"features": [
	{"geometry":{"coordinates":[-121.456908,49.092855],"type":"Point"},"properties":{"osm_id":"7785756728","tag":{"amenity":"waste_basket","colour":"brown","material":"steel","operator":"BC Parks","waste":"recycling;trash"}},"type":"Feature"},
	{"geometry":{"coordinates":[-121.45615,49.090333],"type":"Point"},"properties":{"osm_id":"7885197816","tag":{"amenity":"recycling"}},"type":"Feature"},
	{"geometry":{"coordinates":[-121.453404,49.087545],"type":"Point"},"properties":{"osm_id":"7885197821","tag":{"amenity":"waste_basket"}},"type":"Feature"},
	{"geometry":{"coordinates":[-121.453784,49.089621],"type":"Point"},"properties":{"osm_id":"7885197847","tag":{"amenity":"waste_basket"}},"type":"Feature"},
	{"geometry":{"coordinates":[-121.45305,49.088461],"type":"Point"},"properties":{"osm_id":"7885197865","tag":{"amenity":"waste_basket"}},"type":"Feature"},
	{"geometry":{"coordinates":[-121.457381,49.089977],"type":"Point"},"properties":{"osm_id":"7885197879","tag":{"amenity":"waste_basket"}},"type":"Feature"},
	{"geometry":{"coordinates":[-121.453969,49.087574],"type":"Point"},"properties":{"osm_id":"7885223385","tag":{"amenity":"waste_basket"}},"type":"Feature"},
	{"geometry":{"coordinates":[-121.452509,49.087972],"type":"Point"},"properties":{"osm_id":"7885223396","tag":{"amenity":"waste_basket"}},"type":"Feature"},
	{"geometry":{"coordinates":[-121.45441,49.088114],"type":"Point"},"properties":{"osm_id":"7885223406","tag":{"amenity":"waste_basket"}},"type":"Feature"},
	{"geometry":{"coordinates":[-121.456753,49.091899],"type":"Point"},"properties":{"osm_id":"7885223423","tag":{"amenity":"waste_basket"}},"type":"Feature"},
	{"geometry":{"coordinates":[-121.457586,49.089219],"type":"Point"},"properties":{"osm_id":"7885223432","tag":{"amenity":"waste_basket"}},"type":"Feature"},
	{"geometry":{"coordinates":[-121.453187,49.088094],"type":"Point"},"properties":{"osm_id":"7885223466","tag":{"amenity":"waste_basket"}},"type":"Feature"},
	{"geometry":{"coordinates":[-121.456989,49.091203],"type":"Point"},"properties":{"osm_id":"7885223501","tag":{"amenity":"waste_basket"}},"type":"Feature"},
	{"geometry":{"coordinates":[-121.456602,49.090635],"type":"Point"},"properties":{"osm_id":"7885223548","tag":{"amenity":"waste_basket"}},"type":"Feature"},
	{"geometry":{"coordinates":[-121.452894,49.088433],"type":"Point"},"properties":{"osm_id":"7885223553","tag":{"amenity":"waste_basket"}},"type":"Feature"},
	{"geometry":{"coordinates":[-121.45784,49.088512],"type":"Point"},"properties":{"osm_id":"7885223566","tag":{"amenity":"waste_basket"}},"type":"Feature"},
	{"geometry":{"coordinates":[-121.453313,49.088961],"type":"Point"},"properties":{"osm_id":"7885223568","tag":{"amenity":"waste_basket"}},"type":"Feature"}
]
}
