{
"type": "FeatureCollection",
"features": [
	{"geometry":{"coordinates":[-121.447253,43.89861],"type":"Point"},"properties":{"osm_id":"8046235391","tag":{"amenity":"waste_basket","colour":"brown","material":"wood"}},"type":"Feature"},
	{"geometry":{"coordinates":[-121.438795,43.903836],"type":"Point"},"properties":{"osm_id":"8049362365","tag":{"amenity":"waste_basket","colour":"brown","material":"wood"}},"type":"Feature"},
	{"geometry":{"coordinates":[-121.441995,43.905883],"type":"Point"},"properties":{"osm_id":"8049362383","tag":{"amenity":"waste_basket","colour":"brown","material":"wood"}},"type":"Feature"},
	{"geometry":{"coordinates":[-121.438226,43.912564],"type":"Point"},"properties":{"osm_id":"8049362409","tag":{"amenity":"waste_basket","colour":"brown","material":"wood"}},"type":"Feature"},
	{"geometry":{"coordinates":[-121.423311,43.89905],"type":"Point"},"properties":{"osm_id":"8058095716","tag":{"amenity":"waste_basket","colour":"brown","material":"wood","operator":"Sunriver Owners Association"}},"type":"Feature"},
	{"geometry":{"coordinates":[-121.429545,43.899069],"type":"Point"},"properties":{"osm_id":"8058095777","tag":{"amenity":"waste_basket","colour":"brown","material":"wood","operator":"Sunriver Owners Assocation"}},"type":"Feature"},
	{"geometry":{"coordinates":[-121.44025,43.901324],"type":"Point"},"properties":{"osm_id":"8058174262","tag":{"amenity":"waste_basket","colour":"brown","material":"wood","operator":"Sunriver Owners Association"}},"type":"Feature"}
]
}
