{
"type": "FeatureCollection",
"features": [
	{"geometry":{"coordinates":[36.315185,33.551214],"type":"Point"},"properties":{"osm_id":"7781229302","tag":{"access":"yes","amenity":"waste_disposal"}},"type":"Feature"},
	{"geometry":{"coordinates":[36.3152,33.551221],"type":"Point"},"properties":{"osm_id":"7781229303","tag":{"access":"yes","amenity":"waste_disposal"}},"type":"Feature"},
	{"geometry":{"coordinates":[36.316909,33.551873],"type":"Point"},"properties":{"osm_id":"7781786441","tag":{"access":"yes","amenity":"waste_disposal","waste":"excrements;grey_water;organic;plastic;trash"}},"type":"Feature"},
	{"geometry":{"coordinates":[36.316909,33.551898],"type":"Point"},"properties":{"osm_id":"7781786442","tag":{"access":"yes","amenity":"waste_disposal","waste":"excrements;grey_water;organic;plastic;trash"}},"type":"Feature"},
	{"geometry":{"coordinates":[36.315927,33.551619],"type":"Point"},"properties":{"osm_id":"7781786443","tag":{"access":"yes","amenity":"waste_disposal"}},"type":"Feature"},
	{"geometry":{"coordinates":[36.315948,33.551625],"type":"Point"},"properties":{"osm_id":"7781786444","tag":{"access":"yes","amenity":"waste_disposal"}},"type":"Feature"},
	{"geometry":{"coordinates":[36.311035,33.551206],"type":"Point"},"properties":{"osm_id":"7792178983","tag":{"access":"yes","amenity":"waste_disposal","waste":"trash"}},"type":"Feature"},
	{"geometry":{"coordinates":[36.310711,33.550847],"type":"Point"},"properties":{"osm_id":"7792197785","tag":{"access":"yes","amenity":"waste_disposal","waste":"trash"}},"type":"Feature"}
]
}
