{
"type": "FeatureCollection",
"features": [
	{"geometry":{"coordinates":[-44.865489,-22.282136],"type":"Point"},"properties":{"name":"Escola Estadual Nilo Pe\u00c3\u00a7anha","osm_id":"3914422949","tag":{"addr:city":"Itamonte","addr:housenumber":"334-422","addr:postcode":"37466000","addr:street":"Avenida Campos El\u00c3\u00adsios","amenity":"school","natural":"tree","operator":"Secretaria de Estado de Educa\u00c3\u00a7\u00c3\u00a3o de Minas Gerais","phone":"(35) 3363-1344","source:name":"IBGE"}},"type":"Feature"},
	{"geometry":{"coordinates":[-44.869915,-22.287297],"type":"Point"},"properties":{"name":"Escola Padre Dr. Jo\u00c3\u00a3o Scotti","osm_id":"6387896617","tag":{"addr:city":"Itamonte","addr:postcode":"37466000","addr:street":"Rua Presidente Vargas","addr:suburb":"Centro","amenity":"school","natural":"tree","phone":"(12) 98250-5848"}},"type":"Feature"},
	{"geometry":{"coordinates":[-44.870357,-22.287041],"type":"Point"},"properties":{"name":"APAE - Associa\u00c3\u00a7\u00c3\u00a3o de Pais e Amigos dos Excepcionais","osm_id":"6405230454","tag":{"addr:city":"Itamonte","addr:housenumber":"332","addr:postcode":"37466000","addr:street":"Rua Presidente Vargas","addr:suburb":"Centro","amenity":"community_centre","natural":"tree","phone":"(35) 3363-1635"}},"type":"Feature"},
	{"geometry":{"coordinates":[-44.871995,-22.28194],"type":"Point"},"properties":{"name":"JVP Papelaria","osm_id":"6408187260","tag":{"addr:city":"Itamonte","addr:housenumber":"268","addr:postcode":"37466000","addr:street":"Rua Governador Valadares","addr:suburb":"Centro","natural":"tree","opening_hours":"09:00 \u00c3\u00a0s 17:30","payment:coins":"yes","payment:credit_cards":"yes","payment:mastercard":"yes","phone":"(35) 3363-2166","shop":"stationery"}},"type":"Feature"},
	{"geometry":{"coordinates":[-44.871529,-22.28066],"type":"Point"},"properties":{"name":"Supermercado Arco-\u00c3\u008dris","osm_id":"6408187261","tag":{"addr:city":"Itamonte","addr:housenumber":"824","addr:postcode":"37466000","addr:street":"BR-354","addr:suburb":"Centro","natural":"tree","opening_hours":"08:00 \u00c3\u00a0s 20:00","payment:american_express":"yes","payment:coins":"yes","payment:credit_cards":"yes","payment:debit_cards":"yes","payment:mastercard":"yes","payment:visa":"yes","payment:visa_debit":"yes","phone":"(35) 3363-1256","shop":"supermarket","wheelchair":"yes"}},"type":"Feature"},
	{"geometry":{"coordinates":[-44.870389,-22.282357],"type":"Point"},"properties":{"name":"Casa Lot\u00c3\u00a9rica Tio Jo\u00c3\u00a3o","osm_id":"6408187268","tag":{"addr:city":"Itamonte","addr:housenumber":"605","addr:postcode":"37466000","addr:street":"BR-354","addr:suburb":"Centro","natural":"tree","opening_hours":"08:00 \u00c3\u00a0s 17:00","payment:coins":"yes","payment:credit_cards":"yes","payment:debit_cards":"yes","payment:mastercard":"yes","phone":"(35) 3363-1742","shop":"lottery"}},"type":"Feature"},
	{"geometry":{"coordinates":[-44.868432,-22.282596],"type":"Point"},"properties":{"name":"Essencial Moda \u00c3\u008dntima, Moda Feminina Masculina","osm_id":"6408187270","tag":{"addr:city":"Itamonte","addr:housenumber":"302","addr:postcode":"37466000","addr:street":"Rua Marechal Deodoro","addr:suburb":"Campos El\u00c3\u00adseos","clothes":"women;men","natural":"tree","opening_hours":"09:00 \u00c3\u00a0s18:00","payment:coins":"yes","payment:credit_cards":"yes","payment:mastercard":"yes","phone":"(35) 99151-2040","shop":"fashion"}},"type":"Feature"}
]
}
