{
"type": "FeatureCollection",
"features": [
	{"geometry":{"coordinates":[-106.525305,39.632461],"type":"Point"},"properties":{"osm_id":"4958662264","tag":{"amenity":"waste_disposal"}},"type":"Feature"},
	{"geometry":{"coordinates":[-106.528292,39.634548],"type":"Point"},"properties":{"osm_id":"4960143135","tag":{"amenity":"waste_basket"}},"type":"Feature"},
	{"geometry":{"coordinates":[-106.526637,39.63835],"type":"Point"},"properties":{"osm_id":"4961873453","tag":{"access":"private","amenity":"waste_disposal"}},"type":"Feature"},
	{"geometry":{"coordinates":[-106.527823,39.636793],"type":"Point"},"properties":{"osm_id":"6605470705","tag":{"amenity":"waste_basket"}},"type":"Feature"},
	{"geometry":{"coordinates":[-106.531915,39.636726],"type":"Point"},"properties":{"osm_id":"6605470707","tag":{"amenity":"waste_basket"}},"type":"Feature"},
	{"geometry":{"coordinates":[-106.527787,39.636766],"type":"Point"},"properties":{"osm_id":"6605470709","tag":{"amenity":"recycling"}},"type":"Feature"},
	{"geometry":{"coordinates":[-106.527577,39.636829],"type":"Point"},"properties":{"osm_id":"6605470713","tag":{"amenity":"waste_basket"}},"type":"Feature"},
	{"geometry":{"coordinates":[-106.527056,39.63648],"type":"Point"},"properties":{"osm_id":"6605470722","tag":{"amenity":"waste_basket"}},"type":"Feature"},
	{"geometry":{"coordinates":[-106.530262,39.638601],"type":"Point"},"properties":{"osm_id":"6605470727","tag":{"amenity":"waste_basket"}},"type":"Feature"},
	{"geometry":{"coordinates":[-106.531412,39.638652],"type":"Point"},"properties":{"osm_id":"6610016848","tag":{"amenity":"waste_basket"}},"type":"Feature"},
	{"geometry":{"coordinates":[-106.535042,39.6357],"type":"Point"},"properties":{"osm_id":"6610016849","tag":{"amenity":"waste_basket"}},"type":"Feature"},
	{"geometry":{"coordinates":[-106.529492,39.63525],"type":"Point"},"properties":{"osm_id":"6610016850","tag":{"amenity":"waste_basket"}},"type":"Feature"},
	{"geometry":{"coordinates":[-106.528421,39.638157],"type":"Point"},"properties":{"osm_id":"6610016852","tag":{"amenity":"waste_basket"}},"type":"Feature"},
	{"geometry":{"coordinates":[-106.534302,39.639297],"type":"Point"},"properties":{"osm_id":"6610016857","tag":{"amenity":"waste_basket"}},"type":"Feature"},
	{"geometry":{"coordinates":[-106.526495,39.633483],"type":"Point"},"properties":{"osm_id":"6610016859","tag":{"amenity":"waste_basket"}},"type":"Feature"},
	{"geometry":{"coordinates":[-106.52742,39.636576],"type":"Point"},"properties":{"osm_id":"6611916752","tag":{"amenity":"recycling"}},"type":"Feature"},
	{"geometry":{"coordinates":[-106.524431,39.63621],"type":"Point"},"properties":{"osm_id":"6611916773","tag":{"amenity":"waste_basket"}},"type":"Feature"},
	{"geometry":{"coordinates":[-106.527387,39.636614],"type":"Point"},"properties":{"osm_id":"6611925010","tag":{"amenity":"waste_basket"}},"type":"Feature"},
	{"geometry":{"coordinates":[-106.526936,39.63813],"type":"Point"},"properties":{"osm_id":"7683264396","tag":{"amenity":"waste_basket","waste":"dog_excrement"}},"type":"Feature"},
	{"geometry":{"coordinates":[-106.525437,39.635255],"type":"Point"},"properties":{"osm_id":"7688423250","tag":{"amenity":"waste_basket"}},"type":"Feature"}
]
}
