{
"type": "FeatureCollection",
"features": [
	{"geometry":{"coordinates":[-106.606872,35.14468],"type":"Point"},"properties":{"name":"Vulcan Materials Recycle Center","osm_id":"4069825600","tag":{"amenity":"recycling","recycling:pavement":"yes"}},"type":"Feature"},
	{"geometry":{"coordinates":[-106.592311,35.167138],"type":"Point"},"properties":{"osm_id":"4664530945","tag":{"amenity":"waste_basket"}},"type":"Feature"},
	{"geometry":{"coordinates":[-106.575796,35.10982],"type":"Point"},"properties":{"osm_id":"5368590424","tag":{"amenity":"recycling","recycling:metal":"yes","recycling:paper":"yes","recycling:plastic":"yes","recycling_type":"container"}},"type":"Feature"},
	{"geometry":{"coordinates":[-106.604877,35.124252],"type":"Point"},"properties":{"osm_id":"6336830179","tag":{"amenity":"waste_basket"}},"type":"Feature"},
	{"geometry":{"coordinates":[-106.604931,35.124215],"type":"Point"},"properties":{"osm_id":"6336830180","tag":{"amenity":"waste_basket"}},"type":"Feature"},
	{"geometry":{"coordinates":[-106.604831,35.124301],"type":"Point"},"properties":{"osm_id":"6336830181","tag":{"amenity":"waste_basket"}},"type":"Feature"},
	{"geometry":{"coordinates":[-106.537691,35.11197],"type":"Point"},"properties":{"osm_id":"7873531161","tag":{"amenity":"waste_basket"}},"type":"Feature"},
	{"geometry":{"coordinates":[-106.537936,35.112088],"type":"Point"},"properties":{"osm_id":"7873531163","tag":{"amenity":"waste_basket"}},"type":"Feature"},
	{"geometry":{"coordinates":[-106.537421,35.113497],"type":"Point"},"properties":{"osm_id":"7884760607","tag":{"amenity":"waste_basket"}},"type":"Feature"},
	{"geometry":{"coordinates":[-106.610579,35.154681],"type":"Point"},"properties":{"osm_id":"8361489881","tag":{"amenity":"waste_basket"}},"type":"Feature"},
	{"geometry":{"coordinates":[-106.610551,35.153741],"type":"Point"},"properties":{"osm_id":"8361489886","tag":{"amenity":"waste_basket"}},"type":"Feature"},
	{"geometry":{"coordinates":[-106.610616,35.154048],"type":"Point"},"properties":{"osm_id":"8361489887","tag":{"amenity":"waste_basket"}},"type":"Feature"},
	{"geometry":{"coordinates":[-106.610616,35.154056],"type":"Point"},"properties":{"osm_id":"8361489888","tag":{"amenity":"waste_basket"}},"type":"Feature"},
	{"geometry":{"coordinates":[-106.610465,35.153324],"type":"Point"},"properties":{"osm_id":"8361489891","tag":{"amenity":"waste_basket"}},"type":"Feature"},
	{"geometry":{"coordinates":[-106.610468,35.153333],"type":"Point"},"properties":{"osm_id":"8361489892","tag":{"amenity":"waste_basket"}},"type":"Feature"},
	{"geometry":{"coordinates":[-106.610413,35.153027],"type":"Point"},"properties":{"osm_id":"8361489893","tag":{"amenity":"waste_basket"}},"type":"Feature"},
	{"geometry":{"coordinates":[-106.610413,35.153016],"type":"Point"},"properties":{"osm_id":"8361489894","tag":{"amenity":"waste_basket"}},"type":"Feature"},
	{"geometry":{"coordinates":[-106.61041,35.152807],"type":"Point"},"properties":{"osm_id":"8361489895","tag":{"amenity":"waste_basket"}},"type":"Feature"},
	{"geometry":{"coordinates":[-106.608054,35.105192],"type":"Point"},"properties":{"osm_id":"8461471536","tag":{"amenity":"waste_basket","material":"metal"}},"type":"Feature"},
	{"geometry":{"coordinates":[-106.608093,35.105186],"type":"Point"},"properties":{"osm_id":"8461471537","tag":{"amenity":"waste_basket","material":"metal"}},"type":"Feature"},
	{"geometry":{"coordinates":[-106.607468,35.104654],"type":"Point"},"properties":{"osm_id":"8461471540","tag":{"amenity":"waste_basket","material":"metal"}},"type":"Feature"},
	{"geometry":{"coordinates":[-106.606951,35.103988],"type":"Point"},"properties":{"osm_id":"8461471542","tag":{"amenity":"waste_basket","material":"metal"}},"type":"Feature"},
	{"geometry":{"coordinates":[-106.607361,35.102208],"type":"Point"},"properties":{"osm_id":"8461471549","tag":{"amenity":"waste_basket","material":"metal"}},"type":"Feature"},
	{"geometry":{"coordinates":[-106.607376,35.102165],"type":"Point"},"properties":{"osm_id":"8461471550","tag":{"amenity":"waste_basket","material":"metal"}},"type":"Feature"}
]
}
