{
"type": "FeatureCollection",
"features": [
	{"geometry":{"coordinates":[117.097792,36.18343],"type":"Point"},"properties":{"name":"\u00e5\u009e\u0083\u00e5\u009c\u00be\u00e5\u00a4\u0084\u00e7\u0090\u0086\u00e4\u00b8\u00ad\u00e5\u00bf\u0083","osm_id":"3794279268","tag":{"amenity":"waste_basket"}},"type":"Feature"},
	{"geometry":{"coordinates":[117.094943,36.186292],"type":"Point"},"properties":{"osm_id":"3808061006","tag":{"amenity":"waste_basket"}},"type":"Feature"},
	{"geometry":{"coordinates":[117.097756,36.184336],"type":"Point"},"properties":{"osm_id":"3808061008","tag":{"amenity":"waste_basket"}},"type":"Feature"},
	{"geometry":{"coordinates":[117.125737,36.205162],"type":"Point"},"properties":{"osm_id":"3823625957","tag":{"amenity":"waste_basket"}},"type":"Feature"},
	{"geometry":{"coordinates":[117.125951,36.204562],"type":"Point"},"properties":{"osm_id":"3832165183","tag":{"amenity":"waste_basket"}},"type":"Feature"},
	{"geometry":{"coordinates":[117.131843,36.197923],"type":"Point"},"properties":{"osm_id":"4150323731","tag":{"amenity":"waste_disposal"}},"type":"Feature"},
	{"geometry":{"coordinates":[117.131646,36.198074],"type":"Point"},"properties":{"osm_id":"4150338390","tag":{"amenity":"waste_disposal"}},"type":"Feature"}
]
}
