{
"type": "FeatureCollection",
"features": [
	{"geometry":{"coordinates":[-0.539667,50.827974],"type":"Point"},"properties":{"name":"Littlehampton Household Waste Recycling Site","osm_id":"30427536","tag":{"addr:city":"Littlehampton","addr:postcode":"BN17 7PH","addr:street":"Mill Lane","amenity":"recycling","operator":"West Sussex County Council","recycling:batteries":"yes","recycling:cans":"yes","recycling:cardboard":"yes","recycling:clothes":"yes","recycling:glass":"yes","recycling:glass_bottles":"yes","recycling:paper":"yes","recycling:scrap_metal":"yes","recycling:waste":"yes","recycling_type":"centre","website":"http://www.recycleforwestsussex.org/recycling-sites/littlehampton/"}},"type":"Feature"},
	{"geometry":{"coordinates":[-0.545966,50.808181],"type":"Point"},"properties":{"osm_id":"535631175","tag":{"amenity":"waste_disposal"}},"type":"Feature"},
	{"geometry":{"coordinates":[-0.545407,50.807877],"type":"Point"},"properties":{"osm_id":"535832328","tag":{"amenity":"waste_disposal"}},"type":"Feature"},
	{"geometry":{"coordinates":[-0.541364,50.804568],"type":"Point"},"properties":{"osm_id":"1374846269","tag":{"amenity":"waste_basket"}},"type":"Feature"},
	{"geometry":{"coordinates":[-0.542587,50.804661],"type":"Point"},"properties":{"osm_id":"1374846321","tag":{"amenity":"waste_basket"}},"type":"Feature"},
	{"geometry":{"coordinates":[-0.542482,50.804062],"type":"Point"},"properties":{"osm_id":"1374846407","tag":{"amenity":"waste_basket"}},"type":"Feature"},
	{"geometry":{"coordinates":[-0.542338,50.804624],"type":"Point"},"properties":{"osm_id":"1374910419","tag":{"amenity":"waste_basket"}},"type":"Feature"},
	{"geometry":{"coordinates":[-0.543043,50.805196],"type":"Point"},"properties":{"osm_id":"1846288748","tag":{"amenity":"waste_basket"}},"type":"Feature"},
	{"geometry":{"coordinates":[-0.536533,50.811245],"type":"Point"},"properties":{"osm_id":"5064712970","tag":{"amenity":"waste_basket","waste":"dog_excrement"}},"type":"Feature"},
	{"geometry":{"coordinates":[-0.537172,50.806449],"type":"Point"},"properties":{"osm_id":"5064712971","tag":{"amenity":"waste_basket","waste":"dog_excrement"}},"type":"Feature"},
	{"geometry":{"coordinates":[-0.530945,50.84421],"type":"Point"},"properties":{"name":"Stubbs Copse Woodyard","osm_id":"5341188024","tag":{"amenity":"recycling"}},"type":"Feature"},
	{"geometry":{"coordinates":[-0.558308,50.815044],"type":"Point"},"properties":{"osm_id":"5832849058","tag":{"amenity":"recycling","recycling:cans":"yes","recycling:glass":"yes","recycling:paper":"yes","recycling_type":"container"}},"type":"Feature"},
	{"geometry":{"coordinates":[-0.541641,50.804547],"type":"Point"},"properties":{"osm_id":"6647298776","tag":{"amenity":"waste_basket"}},"type":"Feature"},
	{"geometry":{"coordinates":[-0.54143,50.804429],"type":"Point"},"properties":{"osm_id":"6647298778","tag":{"amenity":"waste_basket"}},"type":"Feature"},
	{"geometry":{"coordinates":[-0.545434,50.814965],"type":"Point"},"properties":{"osm_id":"8078160485","tag":{"amenity":"waste_basket","ashtray":"no","colour":"black","covered":"yes","material":"plastic","operator":"Arun District Council"}},"type":"Feature"},
	{"geometry":{"coordinates":[-0.54435,50.81758],"type":"Point"},"properties":{"osm_id":"8078177220","tag":{"amenity":"waste_basket","ashtray":"no","colour":"black","covered":"yes","operator":"Arun District Council"}},"type":"Feature"},
	{"geometry":{"coordinates":[-0.544486,50.819485],"type":"Point"},"properties":{"osm_id":"8078312142","tag":{"amenity":"waste_basket","ashtray":"no","colour":"black","covered":"yes","operator":"Arun District Council"}},"type":"Feature"}
]
}
