{
"type": "FeatureCollection",
"features": [
	{"geometry":{"coordinates":[-0.585544,44.850004],"type":"Point"},"properties":{"osm_id":"510722586","tag":{"amenity":"recycling","recycling:cans":"yes","recycling:glass_bottles":"yes","recycling:paper":"yes","recycling_type":"container","ref:FR:CUB":"BX83"}},"type":"Feature"},
	{"geometry":{"coordinates":[-0.54564,44.842271],"type":"Point"},"properties":{"osm_id":"563964427","tag":{"amenity":"recycling","operator":"Bordeaux M\u00c3\u00a9tropole","recycling:glass_bottles":"yes","recycling_type":"container","ref:FR:CUB":"BB07"}},"type":"Feature"},
	{"geometry":{"coordinates":[-0.572377,44.840625],"type":"Point"},"properties":{"osm_id":"566718959","tag":{"amenity":"recycling","recycling:clothes":"no","recycling:glass":"no","recycling:glass_bottles":"no","recycling_type":"container"}},"type":"Feature"},
	{"geometry":{"coordinates":[-0.612123,44.854356],"type":"Point"},"properties":{"osm_id":"603131489","tag":{"amenity":"recycling","recycling:glass_bottles":"yes","recycling_type":"container","ref:FR:CUB":"BC38"}},"type":"Feature"},
	{"geometry":{"coordinates":[-0.600358,44.841117],"type":"Point"},"properties":{"osm_id":"603970908","tag":{"amenity":"recycling","operator":"Bordeaux M\u00c3\u00a9tropole","recycling:glass_bottles":"yes","recycling_type":"container","ref:FR:CUB":"BC03"}},"type":"Feature"},
	{"geometry":{"coordinates":[-0.592856,44.87052],"type":"Point"},"properties":{"osm_id":"604865089","tag":{"amenity":"recycling","operator":"Bordeaux M\u00c3\u00a9tropole","recycling:glass_bottles":"yes","recycling_type":"container","ref:FR:CUB":"LB20"}},"type":"Feature"},
	{"geometry":{"coordinates":[-0.592284,44.855256],"type":"Point"},"properties":{"osm_id":"659863412","tag":{"amenity":"recycling","operator":"Le relais","recycling:clothes":"yes","recycling:glass_bottles":"yes","recycling_type":"container","ref:FR:CUB":"BX86"}},"type":"Feature"},
	{"geometry":{"coordinates":[-0.585514,44.861441],"type":"Point"},"properties":{"osm_id":"691813373","tag":{"amenity":"recycling","operator":"Bordeaux M\u00c3\u00a9tropole","recycling:glass_bottles":"yes","recycling_type":"container","ref:FR:CUB":"BX72"}},"type":"Feature"},
	{"geometry":{"coordinates":[-0.601284,44.865072],"type":"Point"},"properties":{"osm_id":"693696427","tag":{"amenity":"recycling","operator":"Bordeaux M\u00c3\u00a9tropole","recycling:glass_bottles":"yes","recycling_type":"container","ref:FR:CUB":"LB08"}},"type":"Feature"},
	{"geometry":{"coordinates":[-0.584661,44.862818],"type":"Point"},"properties":{"osm_id":"695602818","tag":{"amenity":"recycling","operator":"Bordeaux M\u00c3\u00a9tropole","recycling:glass_bottles":"yes","recycling_type":"container","ref:FR:CUB":"LB03"}},"type":"Feature"},
	{"geometry":{"coordinates":[-0.584771,44.858608],"type":"Point"},"properties":{"osm_id":"706771363","tag":{"amenity":"recycling","operator":"Bordeaux M\u00c3\u00a9tropole","recycling:glass_bottles":"yes","recycling_type":"container","ref:FR:CUB":"BX185"}},"type":"Feature"},
	{"geometry":{"coordinates":[-0.584101,44.868076],"type":"Point"},"properties":{"osm_id":"708991356","tag":{"amenity":"recycling","recycling:clothes":"yes","recycling:glass_bottles":"yes","recycling_type":"container","ref:FR:CUB":"LB01"}},"type":"Feature"},
	{"geometry":{"coordinates":[-0.581371,44.860453],"type":"Point"},"properties":{"osm_id":"717891075","tag":{"amenity":"recycling","operator":"Bordeaux M\u00c3\u00a9tropole","recycling:glass_bottles":"yes","recycling_type":"container","ref:FR:CUB":"BX70"}},"type":"Feature"},
	{"geometry":{"coordinates":[-0.609674,44.882271],"type":"Point"},"properties":{"osm_id":"721648637","tag":{"amenity":"recycling","operator":"Bordeaux M\u00c3\u00a9tropole","recycling:glass_bottles":"yes","recycling_type":"container","ref:FR:CUB":"BR20"}},"type":"Feature"},
	{"geometry":{"coordinates":[-0.60469,44.864477],"type":"Point"},"properties":{"osm_id":"727420681","tag":{"amenity":"recycling","operator":"Bordeaux M\u00c3\u00a9tropole","recycling:glass_bottles":"yes","recycling_type":"container","ref:FR:CUB":"LB09"}},"type":"Feature"},
	{"geometry":{"coordinates":[-0.609476,44.869358],"type":"Point"},"properties":{"osm_id":"727449475","tag":{"amenity":"recycling","operator":"Bordeaux M\u00c3\u00a9tropole","recycling:glass_bottles":"yes","recycling_type":"container","ref:FR:CUB":"LB11"}},"type":"Feature"},
	{"geometry":{"coordinates":[-0.594856,44.851763],"type":"Point"},"properties":{"osm_id":"746660171","tag":{"amenity":"recycling","operator":"Bordeaux M\u00c3\u00a9tropole","recycling:glass_bottles":"yes","recycling_type":"container","ref:FR:CUB":"BX87"}},"type":"Feature"},
	{"geometry":{"coordinates":[-0.596483,44.849521],"type":"Point"},"properties":{"osm_id":"746660174","tag":{"amenity":"recycling","recycling:glass_bottles":"yes","recycling_type":"container","ref:FR:CUB":"BX95"}},"type":"Feature"},
	{"geometry":{"coordinates":[-0.583111,44.856879],"type":"Point"},"properties":{"osm_id":"746660185","tag":{"amenity":"recycling","operator":"Bordeaux M\u00c3\u00a9tropole","recycling:glass_bottles":"yes","recycling_type":"container","ref:FR:CUB":"BX78"}},"type":"Feature"},
	{"geometry":{"coordinates":[-0.559311,44.873001],"type":"Point"},"properties":{"osm_id":"747238665","tag":{"amenity":"recycling","operator":"Bordeaux M\u00c3\u00a9tropole","recycling:glass_bottles":"yes","recycling_type":"container","ref:FR:CUB":"BX176"}},"type":"Feature"},
	{"geometry":{"coordinates":[-0.545955,44.886983],"type":"Point"},"properties":{"osm_id":"747317750","tag":{"amenity":"recycling","operator":"Bordeaux M\u00c3\u00a9tropole","recycling:glass_bottles":"yes","recycling_type":"container","ref:FR:CUB":"BX184"}},"type":"Feature"},
	{"geometry":{"coordinates":[-0.550118,44.879917],"type":"Point"},"properties":{"osm_id":"747353630","tag":{"amenity":"recycling","operator":"Bordeaux M\u00c3\u00a9tropole","recycling:glass_bottles":"yes","recycling_type":"container","ref:FR:CUB":"BX182"}},"type":"Feature"},
	{"geometry":{"coordinates":[-0.582596,44.861968],"type":"Point"},"properties":{"osm_id":"747808685","tag":{"amenity":"recycling","operator":"Bordeaux M\u00c3\u00a9tropole","recycling:glass_bottles":"yes","recycling_type":"container","ref:FR:CUB":"BX71"}},"type":"Feature"},
	{"geometry":{"coordinates":[-0.577964,44.862595],"type":"Point"},"properties":{"osm_id":"747808688","tag":{"amenity":"recycling","operator":"Bordeaux M\u00c3\u00a9tropole","recycling:glass_bottles":"yes","recycling_type":"container","ref:FR:CUB":"BX64"}},"type":"Feature"},
	{"geometry":{"coordinates":[-0.580946,44.863048],"type":"Point"},"properties":{"osm_id":"761838031","tag":{"amenity":"recycling","operator":"Bordeaux M\u00c3\u00a9tropole","recycling:glass_bottles":"yes","recycling_type":"container","ref:FR:CUB":"BX181"}},"type":"Feature"},
	{"geometry":{"coordinates":[-0.545695,44.849278],"type":"Point"},"properties":{"osm_id":"935428409","tag":{"amenity":"recycling","operator":"Bordeaux M\u00c3\u00a9tropole","recycling:cans":"yes","recycling:glass_bottles":"yes","recycling:paper":"yes","recycling_type":"container","ref:FR:CUB":"BB19"}},"type":"Feature"},
	{"geometry":{"coordinates":[-0.554015,44.874068],"type":"Point"},"properties":{"osm_id":"946781570","tag":{"amenity":"recycling","operator":"Bordeaux M\u00c3\u00a9tropole","recycling:glass_bottles":"yes","recycling_type":"container","ref:FR:CUB":"BX54"}},"type":"Feature"},
	{"geometry":{"coordinates":[-0.586664,44.843588],"type":"Point"},"properties":{"osm_id":"1246752977","tag":{"amenity":"recycling","operator":"Bordeaux M\u00c3\u00a9tropole","recycling:glass_bottles":"yes","recycling_type":"container","ref:FR:CUB":"BX89"}},"type":"Feature"},
	{"geometry":{"coordinates":[-0.572316,44.851885],"type":"Point"},"properties":{"osm_id":"1259853055","tag":{"amenity":"recycling","mapillary":"cif21xF4i7cgcIU0R6YP2A","operator":"Bordeaux M\u00c3\u00a9tropole","recycling:glass_bottles":"yes","recycling_type":"container","ref:FR:CUB":"BX44"}},"type":"Feature"},
	{"geometry":{"coordinates":[-0.594709,44.842837],"type":"Point"},"properties":{"osm_id":"1259853063","tag":{"amenity":"recycling","operator":"Bordeaux M\u00c3\u00a9tropole","recycling:glass_bottles":"yes","recycling_type":"container","ref:FR:CUB":"BX90"}},"type":"Feature"},
	{"geometry":{"coordinates":[-0.580222,44.846407],"type":"Point"},"properties":{"osm_id":"1308844779","tag":{"amenity":"recycling","recycling:glass_bottles":"yes","recycling_type":"container","ref:FR:CUB":"BX81"}},"type":"Feature"},
	{"geometry":{"coordinates":[-0.579337,44.875376],"type":"Point"},"properties":{"osm_id":"1338095724","tag":{"amenity":"recycling","recycling:clothes":"no","recycling:glass_bottles":"yes","recycling_type":"container","ref:FR:CUB":"BR14"}},"type":"Feature"},
	{"geometry":{"coordinates":[-0.573675,44.851829],"type":"Point"},"properties":{"osm_id":"1373690742","tag":{"amenity":"recycling","operator":"Bordeaux M\u00c3\u00a9tropole","recycling:glass_bottles":"yes","recycling_type":"container","ref:FR:CUB":"BX37"}},"type":"Feature"},
	{"geometry":{"coordinates":[-0.565635,44.858968],"type":"Point"},"properties":{"osm_id":"1509358385","tag":{"amenity":"recycling","operator":"Bordeaux M\u00c3\u00a9tropole","recycling:glass_bottles":"yes","recycling_type":"container","ref:FR:CUB":"BX27"}},"type":"Feature"},
	{"geometry":{"coordinates":[-0.569723,44.864697],"type":"Point"},"properties":{"osm_id":"1796321882","tag":{"amenity":"recycling","operator":"Bordeaux M\u00c3\u00a9tropole","recycling:glass_bottles":"yes","recycling_type":"container","ref:FR:CUB":"BX190"}},"type":"Feature"},
	{"geometry":{"coordinates":[-0.567265,44.862696],"type":"Point"},"properties":{"osm_id":"1796323293","tag":{"amenity":"recycling","operator":"Bordeaux M\u00c3\u00a9tropole","recycling:glass_bottles":"yes","recycling_type":"container","ref:FR:CUB":"BX58"}},"type":"Feature"},
	{"geometry":{"coordinates":[-0.567283,44.862661],"type":"Point"},"properties":{"osm_id":"1896038624","tag":{"amenity":"recycling","recycling:clothes":"yes","recycling:glass":"no","recycling:glass_bottles":"no","recycling_type":"container"}},"type":"Feature"},
	{"geometry":{"coordinates":[-0.574446,44.843604],"type":"Point"},"properties":{"osm_id":"1918635891","tag":{"amenity":"recycling","mapillary":"wIO-g37SKAtV1OfhCx5QrA","operator":"Bordeaux M\u00c3\u00a9tropole","recycling:glass_bottles":"yes","recycling_type":"container","ref:FR:CUB":"BX22"}},"type":"Feature"},
	{"geometry":{"coordinates":[-0.555455,44.877995],"type":"Point"},"properties":{"barrier":"gate","osm_id":"1956838461"},"type":"Feature"},
	{"geometry":{"coordinates":[-0.554872,44.878228],"type":"Point"},"properties":{"barrier":"gate","osm_id":"1956838474"},"type":"Feature"},
	{"geometry":{"coordinates":[-0.579111,44.864755],"type":"Point"},"properties":{"osm_id":"1968417081","tag":{"amenity":"recycling","operator":"Bordeaux M\u00c3\u00a9tropole","recycling:glass_bottles":"yes","recycling_type":"container","ref:FR:CUB":"LB17"}},"type":"Feature"},
	{"geometry":{"coordinates":[-0.603139,44.840336],"type":"Point"},"properties":{"osm_id":"1971760976","tag":{"amenity":"recycling","operator":"Bordeaux M\u00c3\u00a9tropole","recycling:glass_bottles":"yes","recycling_type":"container","ref:FR:CUB":"BC59"}},"type":"Feature"},
	{"geometry":{"coordinates":[-0.590282,44.84081],"type":"Point"},"properties":{"osm_id":"2010584754","tag":{"amenity":"recycling","operator":"Bordeaux M\u00c3\u00a9tropole","recycling:glass_bottles":"yes","recycling_type":"container","ref:FR:CUB":"BX92"}},"type":"Feature"},
	{"geometry":{"coordinates":[-0.592889,44.841111],"type":"Point"},"properties":{"osm_id":"2010711431","tag":{"amenity":"recycling","operator":"Bordeaux M\u00c3\u00a9tropole","recycling:glass_bottles":"yes","recycling_type":"container","ref:FR:CUB":"BX91"}},"type":"Feature"},
	{"geometry":{"coordinates":[-0.594812,44.846324],"type":"Point"},"properties":{"osm_id":"2023132962","tag":{"amenity":"recycling","recycling:glass_bottles":"yes","recycling_type":"container"}},"type":"Feature"},
	{"geometry":{"coordinates":[-0.569823,44.850471],"type":"Point"},"properties":{"osm_id":"2038203919","tag":{"amenity":"recycling","recycling_type":"container"}},"type":"Feature"},
	{"geometry":{"coordinates":[-0.570391,44.849471],"type":"Point"},"properties":{"osm_id":"2038217339","tag":{"amenity":"recycling","recycling_type":"container"}},"type":"Feature"},
	{"geometry":{"coordinates":[-0.570926,44.847952],"type":"Point"},"properties":{"osm_id":"2038487093","tag":{"amenity":"recycling","operator":"Bordeaux M\u00c3\u00a9tropole","recycling:glass_bottles":"yes","recycling_type":"container","ref:FR:CUB":"BX10"}},"type":"Feature"},
	{"geometry":{"coordinates":[-0.570655,44.843939],"type":"Point"},"properties":{"osm_id":"2039712430","tag":{"amenity":"recycling","operator":"Bordeaux M\u00c3\u00a9tropole","recycling:glass_bottles":"yes","recycling_type":"container","ref:FR:CUB":"BX158"}},"type":"Feature"},
	{"geometry":{"coordinates":[-0.564705,44.855081],"type":"Point"},"properties":{"osm_id":"2057892779","tag":{"amenity":"recycling","recycling_type":"container"}},"type":"Feature"},
	{"geometry":{"coordinates":[-0.527878,44.845045],"type":"Point"},"properties":{"osm_id":"2448095668","tag":{"amenity":"waste_basket"}},"type":"Feature"},
	{"geometry":{"coordinates":[-0.573311,44.879359],"type":"Point"},"properties":{"osm_id":"2602963983","tag":{"amenity":"recycling","recycling:cans":"yes","recycling:clothes":"no","recycling:glass":"no","recycling:glass_bottles":"yes","recycling:paper":"no","recycling:plastic":"yes","recycling_type":"container","ref:FR:CUB":"BX47"}},"type":"Feature"},
	{"geometry":{"coordinates":[-0.531177,44.840524],"type":"Point"},"properties":{"osm_id":"2763650656","tag":{"amenity":"waste_basket"}},"type":"Feature"},
	{"geometry":{"coordinates":[-0.532032,44.840392],"type":"Point"},"properties":{"osm_id":"2763659487","tag":{"amenity":"waste_basket"}},"type":"Feature"},
	{"geometry":{"coordinates":[-0.532026,44.840354],"type":"Point"},"properties":{"osm_id":"2763659490","tag":{"amenity":"waste_basket"}},"type":"Feature"},
	{"geometry":{"coordinates":[-0.532034,44.840376],"type":"Point"},"properties":{"osm_id":"2763659494","tag":{"amenity":"recycling","location":"underground","recycling:paper":"yes","recycling_type":"container"}},"type":"Feature"},
	{"geometry":{"coordinates":[-0.572773,44.878703],"type":"Point"},"properties":{"osm_id":"3147053031","tag":{"amenity":"recycling","recycling:cans":"yes","recycling:glass":"no","recycling:glass_bottles":"yes","recycling:paper":"yes","recycling:plastic":"yes","recycling_type":"container","ref:FR:CUB":"BX47"}},"type":"Feature"},
	{"geometry":{"coordinates":[-0.571365,44.876544],"type":"Point"},"properties":{"osm_id":"3147053034","tag":{"amenity":"recycling","recycling_type":"container"}},"type":"Feature"},
	{"geometry":{"coordinates":[-0.571654,44.878403],"type":"Point"},"properties":{"osm_id":"3147053035","tag":{"amenity":"recycling","fixme:en":"Survey to pick out kind of recycling (glass;paper...) to fullfill the integration of the reference with osmose.","fixme:fr":"Aller sur le terrain pour relevr les mati\u00c3\u00a8res recycl\u00c3\u00a9es en vue d'int\u00c3\u00a9grer la r\u00c3\u00a9f\u00c3\u00a9rence avec osmose","recycling:glass_bottles":"yes","recycling_type":"container","ref:FR:CUB":"BX24"}},"type":"Feature"},
	{"geometry":{"coordinates":[-0.571008,44.878874],"type":"Point"},"properties":{"osm_id":"3147053037","tag":{"amenity":"recycling","fixme:en":"Survey to pick out kind of recycling (glass;paper...) to fullfill the integration of the reference with osmose.","fixme:fr":"Aller sur le terrain pour relevr les mati\u00c3\u00a8res recycl\u00c3\u00a9es en vue d'int\u00c3\u00a9grer la r\u00c3\u00a9f\u00c3\u00a9rence avec osmose","location":"underground","recycling:glass_bottles":"yes","recycling_type":"container","ref:FR:CUB":"BX24"}},"type":"Feature"},
	{"geometry":{"coordinates":[-0.572341,44.880744],"type":"Point"},"properties":{"osm_id":"3147053038","tag":{"amenity":"recycling"}},"type":"Feature"},
	{"geometry":{"coordinates":[-0.571389,44.877622],"type":"Point"},"properties":{"osm_id":"3147053040","tag":{"amenity":"recycling","fixme:en":"Survey to pick out kind of recycling (glass;paper...) to fullfill the integration of the reference with osmose.","fixme:fr":"Aller sur le terrain pour relevr les mati\u00c3\u00a8res recycl\u00c3\u00a9es en vue d'int\u00c3\u00a9grer la r\u00c3\u00a9f\u00c3\u00a9rence avec osmose","location":"underground","recycling:glass_bottles":"yes","recycling_type":"container","ref:FR:CUB":"BX24"}},"type":"Feature"},
	{"geometry":{"coordinates":[-0.573057,44.880245],"type":"Point"},"properties":{"osm_id":"3147053043","tag":{"amenity":"recycling","location":"underground","recycling_type":"container"}},"type":"Feature"},
	{"geometry":{"coordinates":[-0.571201,44.877065],"type":"Point"},"properties":{"osm_id":"3147053047","tag":{"amenity":"recycling","recycling_type":"container"}},"type":"Feature"},
	{"geometry":{"coordinates":[-0.573749,44.878698],"type":"Point"},"properties":{"osm_id":"3147053048","tag":{"amenity":"recycling","location":"underground","recycling:cans":"yes","recycling:clothes":"no","recycling:glass_bottles":"yes","recycling:paper":"yes","recycling:plastic":"yes","recycling_type":"container","ref:FR:CUB":"BX47"}},"type":"Feature"},
	{"geometry":{"coordinates":[-0.570659,44.880024],"type":"Point"},"properties":{"osm_id":"3147053049","tag":{"amenity":"recycling","recycling:glass_bottles":"yes","recycling_type":"container","ref:FR:CUB":"BX23"}},"type":"Feature"},
	{"geometry":{"coordinates":[-0.572808,44.87888],"type":"Point"},"properties":{"osm_id":"3147054963","tag":{"amenity":"recycling","recycling:cans":"yes","recycling:clothes":"no","recycling:glass":"no","recycling:glass_bottles":"yes","recycling:paper":"yes","recycling:plastic":"yes","recycling_type":"container","ref:FR:CUB":"BX47"}},"type":"Feature"},
	{"geometry":{"coordinates":[-0.571424,44.878148],"type":"Point"},"properties":{"osm_id":"3147054964","tag":{"amenity":"recycling","fixme:en":"Survey to pick out kind of recycling (glass;paper...) to fullfill the integration of the reference with osmose.","fixme:fr":"Aller sur le terrain pour relevr les mati\u00c3\u00a8res recycl\u00c3\u00a9es en vue d'int\u00c3\u00a9grer la r\u00c3\u00a9f\u00c3\u00a9rence avec osmose","recycling:glass_bottles":"yes","recycling_type":"container","ref:FR:CUB":"BX24"}},"type":"Feature"},
	{"geometry":{"coordinates":[-0.586074,44.861332],"type":"Point"},"properties":{"osm_id":"3180440467","tag":{"amenity":"waste_basket"}},"type":"Feature"},
	{"geometry":{"coordinates":[-0.563267,44.864265],"type":"Point"},"properties":{"osm_id":"3180441164","tag":{"amenity":"recycling","operator":"Bordeaux M\u00c3\u00a9tropole","recycling:clothes":"yes","recycling:glass_bottles":"yes","recycling_type":"container","ref:FR:CUB":"BX55"}},"type":"Feature"},
	{"geometry":{"coordinates":[-0.582875,44.862279],"type":"Point"},"properties":{"osm_id":"3180443661","tag":{"amenity":"recycling","operator":"Le Relais","recycling:clothes":"yes","recycling_type":"container"}},"type":"Feature"},
	{"geometry":{"coordinates":[-0.570516,44.871815],"type":"Point"},"properties":{"osm_id":"3353912942","tag":{"amenity":"waste_basket"}},"type":"Feature"},
	{"geometry":{"coordinates":[-0.573624,44.875212],"type":"Point"},"properties":{"osm_id":"3353913800","tag":{"amenity":"recycling","recycling:cans":"no","recycling:clothes":"yes","recycling:glass":"no","recycling:paper":"no","recycling_type":"container"}},"type":"Feature"},
	{"geometry":{"coordinates":[-0.570941,44.872023],"type":"Point"},"properties":{"osm_id":"3353917326","tag":{"amenity":"waste_basket"}},"type":"Feature"},
	{"geometry":{"coordinates":[-0.571172,44.872011],"type":"Point"},"properties":{"osm_id":"3353917391","tag":{"amenity":"waste_basket"}},"type":"Feature"},
	{"geometry":{"coordinates":[-0.572375,44.875491],"type":"Point"},"properties":{"osm_id":"3353958644","tag":{"amenity":"waste_basket"}},"type":"Feature"},
	{"geometry":{"coordinates":[-0.571094,44.873207],"type":"Point"},"properties":{"osm_id":"3357555711","tag":{"amenity":"recycling","recycling:cans":"yes","recycling:glass_bottles":"yes","recycling:paper":"yes"}},"type":"Feature"},
	{"geometry":{"coordinates":[-0.543782,44.879101],"type":"Point"},"properties":{"osm_id":"3578372493","tag":{"amenity":"waste_basket"}},"type":"Feature"},
	{"geometry":{"coordinates":[-0.544202,44.877611],"type":"Point"},"properties":{"osm_id":"3578388694","tag":{"amenity":"waste_basket"}},"type":"Feature"},
	{"geometry":{"coordinates":[-0.544546,44.876652],"type":"Point"},"properties":{"osm_id":"3578392995","tag":{"amenity":"waste_basket"}},"type":"Feature"},
	{"geometry":{"coordinates":[-0.544232,44.877015],"type":"Point"},"properties":{"osm_id":"3578394193","tag":{"amenity":"waste_basket"}},"type":"Feature"},
	{"geometry":{"coordinates":[-0.54457,44.876884],"type":"Point"},"properties":{"osm_id":"3578394793","tag":{"amenity":"waste_basket"}},"type":"Feature"},
	{"geometry":{"coordinates":[-0.543948,44.878908],"type":"Point"},"properties":{"osm_id":"3578542080","tag":{"amenity":"waste_basket"}},"type":"Feature"},
	{"geometry":{"coordinates":[-0.544427,44.878969],"type":"Point"},"properties":{"osm_id":"3578542090","tag":{"amenity":"waste_basket"}},"type":"Feature"},
	{"geometry":{"coordinates":[-0.544196,44.878996],"type":"Point"},"properties":{"osm_id":"3578545197","tag":{"amenity":"waste_basket"}},"type":"Feature"},
	{"geometry":{"coordinates":[-0.544323,44.879081],"type":"Point"},"properties":{"osm_id":"3578545199","tag":{"amenity":"waste_basket"}},"type":"Feature"},
	{"geometry":{"coordinates":[-0.543756,44.879081],"type":"Point"},"properties":{"osm_id":"3578545200","tag":{"amenity":"waste_basket"}},"type":"Feature"},
	{"geometry":{"coordinates":[-0.544879,44.879183],"type":"Point"},"properties":{"osm_id":"3578545223","tag":{"amenity":"waste_basket"}},"type":"Feature"},
	{"geometry":{"coordinates":[-0.54372,44.879187],"type":"Point"},"properties":{"osm_id":"3578545224","tag":{"amenity":"waste_basket"}},"type":"Feature"},
	{"geometry":{"coordinates":[-0.543701,44.879194],"type":"Point"},"properties":{"osm_id":"3578545226","tag":{"amenity":"waste_basket"}},"type":"Feature"},
	{"geometry":{"coordinates":[-0.543632,44.87923],"type":"Point"},"properties":{"osm_id":"3578545231","tag":{"amenity":"waste_basket"}},"type":"Feature"},
	{"geometry":{"coordinates":[-0.544451,44.879252],"type":"Point"},"properties":{"osm_id":"3578545232","tag":{"amenity":"waste_basket"}},"type":"Feature"},
	{"geometry":{"coordinates":[-0.544049,44.879276],"type":"Point"},"properties":{"osm_id":"3578545233","tag":{"amenity":"waste_basket"}},"type":"Feature"},
	{"geometry":{"coordinates":[-0.543827,44.879647],"type":"Point"},"properties":{"osm_id":"3578545240","tag":{"amenity":"waste_basket"}},"type":"Feature"},
	{"geometry":{"coordinates":[-0.543655,44.879908],"type":"Point"},"properties":{"osm_id":"3578545244","tag":{"amenity":"waste_basket"}},"type":"Feature"},
	{"geometry":{"coordinates":[-0.55393,44.875618],"type":"Point"},"properties":{"osm_id":"3681275187","tag":{"amenity":"recycling","recycling:glass_bottles":"yes","recycling_type":"container","ref:FR:CUB":"BX 31"}},"type":"Feature"},
	{"geometry":{"coordinates":[-0.559243,44.873052],"type":"Point"},"properties":{"osm_id":"3714164879","tag":{"amenity":"recycling","operator":"Le Relais","recycling:clothes":"yes","recycling_type":"container"}},"type":"Feature"},
	{"geometry":{"coordinates":[-0.553836,44.875344],"type":"Point"},"properties":{"osm_id":"3714165313","tag":{"amenity":"recycling","operator":"Le Relais","recycling:clothes":"yes","recycling_type":"container"}},"type":"Feature"},
	{"geometry":{"coordinates":[-0.601332,44.87048],"type":"Point"},"properties":{"osm_id":"3752529215","tag":{"amenity":"recycling","operator":"Bordeaux M\u00c3\u00a9tropole","recycling:cans":"no","recycling:clothes":"yes","recycling:glass_bottles":"yes","recycling:paper":"no","recycling:plastic":"no","recycling_type":"container","ref:FR:CUB":"LB37"}},"type":"Feature"},
	{"geometry":{"coordinates":[-0.584174,44.863003],"type":"Point"},"properties":{"osm_id":"3975402309","tag":{"amenity":"recycling","recycling:clothes":"yes","recycling_type":"container"}},"type":"Feature"},
	{"geometry":{"coordinates":[-0.571954,44.851297],"type":"Point"},"properties":{"osm_id":"3998724294","tag":{"amenity":"recycling","operator":"AMOS","recycling:clothes":"yes","recycling_type":"container"}},"type":"Feature"},
	{"geometry":{"coordinates":[-0.561045,44.849596],"type":"Point"},"properties":{"osm_id":"3998768940","tag":{"amenity":"recycling","operator":"AMOS","recycling:clothes":"yes","recycling_type":"container"}},"type":"Feature"},
	{"geometry":{"coordinates":[-0.604727,44.842593],"type":"Point"},"properties":{"osm_id":"4003899374","tag":{"amenity":"recycling","recycling:clothes":"yes","recycling_type":"container"}},"type":"Feature"},
	{"geometry":{"coordinates":[-0.602709,44.841982],"type":"Point"},"properties":{"osm_id":"4003901777","tag":{"amenity":"recycling","recycling:glass_bottles":"yes","recycling_type":"container","ref:FR:CUB":"BC01"}},"type":"Feature"},
	{"geometry":{"coordinates":[-0.574397,44.873276],"type":"Point"},"properties":{"osm_id":"4019478407","tag":{"amenity":"waste_basket"}},"type":"Feature"},
	{"geometry":{"coordinates":[-0.574419,44.87328],"type":"Point"},"properties":{"osm_id":"4019479489","tag":{"amenity":"waste_basket"}},"type":"Feature"},
	{"geometry":{"coordinates":[-0.583173,44.875956],"type":"Point"},"properties":{"osm_id":"4019481198","tag":{"amenity":"waste_basket"}},"type":"Feature"},
	{"geometry":{"coordinates":[-0.583143,44.875523],"type":"Point"},"properties":{"osm_id":"4019482889","tag":{"amenity":"waste_basket"}},"type":"Feature"},
	{"geometry":{"coordinates":[-0.572758,44.881182],"type":"Point"},"properties":{"osm_id":"4019483089","tag":{"amenity":"recycling","recycling:glass_bottles":"yes","recycling_type":"container","ref:FR:CUB":"BX43"}},"type":"Feature"},
	{"geometry":{"coordinates":[-0.574183,44.873195],"type":"Point"},"properties":{"osm_id":"4019484089","tag":{"amenity":"waste_basket"}},"type":"Feature"},
	{"geometry":{"coordinates":[-0.5698,44.881698],"type":"Point"},"properties":{"osm_id":"4019491904","tag":{"amenity":"waste_basket"}},"type":"Feature"},
	{"geometry":{"coordinates":[-0.570009,44.88098],"type":"Point"},"properties":{"osm_id":"4019491905","tag":{"amenity":"waste_basket"}},"type":"Feature"},
	{"geometry":{"coordinates":[-0.570354,44.88103],"type":"Point"},"properties":{"osm_id":"4019491906","tag":{"amenity":"waste_basket"}},"type":"Feature"},
	{"geometry":{"coordinates":[-0.570412,44.880797],"type":"Point"},"properties":{"osm_id":"4019491907","tag":{"amenity":"waste_basket"}},"type":"Feature"},
	{"geometry":{"coordinates":[-0.571956,44.883043],"type":"Point"},"properties":{"osm_id":"4019493375","tag":{"amenity":"waste_basket"}},"type":"Feature"},
	{"geometry":{"coordinates":[-0.572565,44.882545],"type":"Point"},"properties":{"osm_id":"4019495896","tag":{"amenity":"waste_basket"}},"type":"Feature"},
	{"geometry":{"coordinates":[-0.572571,44.882529],"type":"Point"},"properties":{"osm_id":"4019495897","tag":{"amenity":"waste_basket"}},"type":"Feature"},
	{"geometry":{"coordinates":[-0.570746,44.878578],"type":"Point"},"properties":{"osm_id":"4019500513","tag":{"amenity":"recycling","recycling:cans":"yes","recycling:glass_bottles":"yes","recycling:paper":"yes","recycling:plastic":"yes","recycling_type":"container","ref:FR:CUB":"BX24"}},"type":"Feature"},
	{"geometry":{"coordinates":[-0.572979,44.878797],"type":"Point"},"properties":{"osm_id":"4019501158","tag":{"amenity":"recycling","recycling:glass_bottles":"yes","recycling_type":"container","ref:FR:CUB":"BX47"}},"type":"Feature"},
	{"geometry":{"coordinates":[-0.572133,44.878618],"type":"Point"},"properties":{"osm_id":"4019501159","tag":{"amenity":"waste_basket"}},"type":"Feature"},
	{"geometry":{"coordinates":[-0.572153,44.878687],"type":"Point"},"properties":{"osm_id":"4019501160","tag":{"amenity":"waste_basket"}},"type":"Feature"},
	{"geometry":{"coordinates":[-0.570677,44.878825],"type":"Point"},"properties":{"osm_id":"4019501217","tag":{"amenity":"recycling","recycling:cans":"yes","recycling:glass_bottles":"yes","recycling:paper":"yes","recycling:plastic":"yes","recycling_type":"container"}},"type":"Feature"},
	{"geometry":{"coordinates":[-0.571089,44.878627],"type":"Point"},"properties":{"osm_id":"4019501667","tag":{"amenity":"recycling","recycling:glass_bottles":"yes","recycling_type":"container","ref:FR:CUB":"BX24"}},"type":"Feature"},
	{"geometry":{"coordinates":[-0.57931,44.875486],"type":"Point"},"properties":{"osm_id":"4019504489","tag":{"amenity":"recycling","operator":"Le Relais","recycling:clothes":"yes","recycling_type":"container"}},"type":"Feature"},
	{"geometry":{"coordinates":[-0.582521,44.87428],"type":"Point"},"properties":{"osm_id":"4019508501","tag":{"amenity":"recycling"}},"type":"Feature"},
	{"geometry":{"coordinates":[-0.582504,44.874319],"type":"Point"},"properties":{"osm_id":"4019508502","tag":{"amenity":"recycling"}},"type":"Feature"},
	{"geometry":{"coordinates":[-0.582481,44.874354],"type":"Point"},"properties":{"osm_id":"4019508503","tag":{"amenity":"recycling"}},"type":"Feature"},
	{"geometry":{"coordinates":[-0.582469,44.874386],"type":"Point"},"properties":{"osm_id":"4019508504","tag":{"amenity":"recycling"}},"type":"Feature"},
	{"geometry":{"coordinates":[-0.582462,44.87443],"type":"Point"},"properties":{"osm_id":"4019508505","tag":{"amenity":"recycling"}},"type":"Feature"},
	{"geometry":{"coordinates":[-0.58253,44.874241],"type":"Point"},"properties":{"osm_id":"4019508506","tag":{"amenity":"recycling"}},"type":"Feature"},
	{"geometry":{"coordinates":[-0.582429,44.874515],"type":"Point"},"properties":{"osm_id":"4019508507","tag":{"amenity":"recycling"}},"type":"Feature"},
	{"geometry":{"coordinates":[-0.582426,44.874566],"type":"Point"},"properties":{"osm_id":"4019508508","tag":{"amenity":"recycling"}},"type":"Feature"},
	{"geometry":{"coordinates":[-0.58242,44.874538],"type":"Point"},"properties":{"osm_id":"4019508509","tag":{"amenity":"recycling"}},"type":"Feature"},
	{"geometry":{"coordinates":[-0.570594,44.873516],"type":"Point"},"properties":{"osm_id":"4019508537","tag":{"amenity":"recycling","recycling:glass_bottles":"yes","recycling_type":"container","ref:FR:CUB":"BX178"}},"type":"Feature"},
	{"geometry":{"coordinates":[-0.582142,44.875068],"type":"Point"},"properties":{"osm_id":"4019511147","tag":{"amenity":"recycling","recycling:cans":"yes","recycling:paper":"yes","recycling:plastic":"yes","recycling_type":"container"}},"type":"Feature"},
	{"geometry":{"coordinates":[-0.582143,44.875048],"type":"Point"},"properties":{"osm_id":"4019513154","tag":{"amenity":"waste_basket"}},"type":"Feature"},
	{"geometry":{"coordinates":[-0.574641,44.87808],"type":"Point"},"properties":{"osm_id":"4019516197","tag":{"amenity":"waste_basket"}},"type":"Feature"},
	{"geometry":{"coordinates":[-0.574565,44.878165],"type":"Point"},"properties":{"osm_id":"4019516198","tag":{"amenity":"waste_basket"}},"type":"Feature"},
	{"geometry":{"coordinates":[-0.573593,44.877462],"type":"Point"},"properties":{"osm_id":"4019516210","tag":{"amenity":"waste_basket"}},"type":"Feature"},
	{"geometry":{"coordinates":[-0.574351,44.878196],"type":"Point"},"properties":{"osm_id":"4019516218","tag":{"amenity":"waste_basket"}},"type":"Feature"},
	{"geometry":{"coordinates":[-0.573107,44.880738],"type":"Point"},"properties":{"osm_id":"4019517988","tag":{"amenity":"recycling","recycling:cans":"no","recycling:clothes":"no","recycling:glass_bottles":"yes","recycling:paper":"no","recycling:plastic":"no","recycling_type":"container","ref:FR:CUB":"BX43"}},"type":"Feature"},
	{"geometry":{"coordinates":[-0.604935,44.842668],"type":"Point"},"properties":{"osm_id":"4032605089","tag":{"amenity":"recycling","recycling:glass_bottles":"yes","recycling_type":"container","ref:FR:CUB":"BC31"}},"type":"Feature"},
	{"geometry":{"coordinates":[-0.594871,44.851616],"type":"Point"},"properties":{"osm_id":"4061107191","tag":{"amenity":"recycling","recycling:clothes":"yes","recycling_type":"container"}},"type":"Feature"},
	{"geometry":{"coordinates":[-0.590283,44.840792],"type":"Point"},"properties":{"osm_id":"4077043189","tag":{"amenity":"recycling","operator":"Le Relais","recycling:clothes":"yes","recycling_type":"container"}},"type":"Feature"},
	{"geometry":{"coordinates":[-0.532861,44.853901],"type":"Point"},"properties":{"osm_id":"4077216189","tag":{"amenity":"recycling","operator":"Bordeaux m\u00c3\u00a9tropole","recycling:glass_bottles":"yes","recycling_type":"container","ref:FR:CUB":"CE34"}},"type":"Feature"},
	{"geometry":{"coordinates":[-0.530435,44.855446],"type":"Point"},"properties":{"osm_id":"4077218589","tag":{"amenity":"recycling","operator":"Bordeaux m\u00c3\u00a9tropole","recycling:glass_bottles":"no","recycling_type":"container"}},"type":"Feature"},
	{"geometry":{"coordinates":[-0.529452,44.850657],"type":"Point"},"properties":{"osm_id":"4077709090","tag":{"amenity":"recycling","operator":"Bordeaux m\u00c3\u00a9tropole","recycling:glass_bottles":"yes","recycling_type":"container","ref:FR:CUB":"CE28"}},"type":"Feature"},
	{"geometry":{"coordinates":[-0.604215,44.8464],"type":"Point"},"properties":{"osm_id":"4119528862","tag":{"amenity":"recycling","capacity":"4","operator":"CUB","recycling:glass_bottles":"yes","recycling_type":"container","ref:FR:CUB":"BC33"}},"type":"Feature"},
	{"geometry":{"coordinates":[-0.5923,44.855239],"type":"Point"},"properties":{"osm_id":"4127411091","tag":{"amenity":"recycling","operator":"Bordeaux m\u00c3\u00a9tropole","recycling:glass_bottles":"yes","recycling_type":"container","ref:FR:CUB":"BX86"}},"type":"Feature"},
	{"geometry":{"coordinates":[-0.552578,44.844444],"type":"Point"},"properties":{"osm_id":"4159192591","tag":{"amenity":"recycling","recycling:glass_bottles":"yes","recycling_type":"container"}},"type":"Feature"},
	{"geometry":{"coordinates":[-0.574049,44.865625],"type":"Point"},"properties":{"osm_id":"4165627396","tag":{"amenity":"recycling","recycling:clothes":"no","recycling:glass_bottles":"yes","recycling:paper":"no","recycling_type":"container","ref:FR:CUB":"BX189"}},"type":"Feature"},
	{"geometry":{"coordinates":[-0.575874,44.845254],"type":"Point"},"properties":{"osm_id":"4170915057","tag":{"amenity":"recycling","recycling:glass_bottles":"yes","recycling_type":"container","ref:FR:CUB":"BX151"}},"type":"Feature"},
	{"geometry":{"coordinates":[-0.607654,44.841481],"type":"Point"},"properties":{"osm_id":"4189875989","tag":{"amenity":"recycling","recycling:glass_bottles":"yes","recycling_type":"container"}},"type":"Feature"},
	{"geometry":{"coordinates":[-0.552711,44.865271],"type":"Point"},"properties":{"osm_id":"4191399921","tag":{"amenity":"recycling","recycling:glass_bottles":"yes","recycling_type":"container"}},"type":"Feature"},
	{"geometry":{"coordinates":[-0.574428,44.844349],"type":"Point"},"properties":{"osm_id":"4240849118","tag":{"amenity":"waste_basket"}},"type":"Feature"},
	{"geometry":{"coordinates":[-0.574163,44.844077],"type":"Point"},"properties":{"osm_id":"4240849119","tag":{"amenity":"waste_basket"}},"type":"Feature"},
	{"geometry":{"coordinates":[-0.562915,44.841567],"type":"Point"},"properties":{"osm_id":"4240849122","tag":{"amenity":"waste_basket"}},"type":"Feature"},
	{"geometry":{"coordinates":[-0.574396,44.843853],"type":"Point"},"properties":{"osm_id":"4240849389","tag":{"amenity":"waste_basket"}},"type":"Feature"},
	{"geometry":{"coordinates":[-0.552698,44.865301],"type":"Point"},"properties":{"osm_id":"4329192400","tag":{"amenity":"recycling","recycling:glass_bottles":"yes","recycling_type":"container"}},"type":"Feature"},
	{"geometry":{"coordinates":[-0.534106,44.857345],"type":"Point"},"properties":{"osm_id":"4381066489","tag":{"amenity":"recycling","operator":"Veolia","recycling:glass_bottles":"yes","recycling_type":"container","ref:FR:CUB":"CE31"}},"type":"Feature"},
	{"geometry":{"coordinates":[-0.531013,44.856674],"type":"Point"},"properties":{"osm_id":"4386198889","tag":{"amenity":"recycling","operator":"Le Relais","recycling:clothes":"yes","recycling:glass":"no","recycling:glass_bottles":"yes","recycling_type":"container","ref:FR:CUB":"CE38"}},"type":"Feature"},
	{"geometry":{"coordinates":[-0.607646,44.841511],"type":"Point"},"properties":{"osm_id":"4494112872","tag":{"amenity":"recycling","recycling:clothes":"yes","recycling_type":"container"}},"type":"Feature"},
	{"geometry":{"coordinates":[-0.571266,44.855304],"type":"Point"},"properties":{"osm_id":"4556863990","tag":{"amenity":"recycling","operator":"Bordeaux m\u00c3\u00a9tropole","recycling:glass_bottles":"yes","recycling_type":"container","ref:FR:CUB":"BX66"}},"type":"Feature"},
	{"geometry":{"coordinates":[-0.533732,44.878405],"type":"Point"},"properties":{"osm_id":"4807360942","tag":{"amenity":"recycling","recycling:glass_bottles":"yes","recycling_type":"container","ref:FR:CUB":"LO12","survey:date":"2016-08"}},"type":"Feature"},
	{"geometry":{"coordinates":[-0.58404,44.867435],"type":"Point"},"properties":{"osm_id":"4823721511","tag":{"amenity":"recycling","recycling:clothes":"yes","recycling_type":"container"}},"type":"Feature"},
	{"geometry":{"coordinates":[-0.587993,44.866108],"type":"Point"},"properties":{"osm_id":"4823721512","tag":{"amenity":"recycling","recycling:clothes":"yes","recycling_type":"container"}},"type":"Feature"},
	{"geometry":{"coordinates":[-0.588,44.866156],"type":"Point"},"properties":{"osm_id":"4823721513","tag":{"amenity":"recycling","recycling:glass_bottles":"yes","recycling_type":"container","ref:FR:CUB":"LB18"}},"type":"Feature"},
	{"geometry":{"coordinates":[-0.536306,44.869914],"type":"Point"},"properties":{"osm_id":"4845094275","tag":{"amenity":"waste_basket"}},"type":"Feature"},
	{"geometry":{"coordinates":[-0.532959,44.870403],"type":"Point"},"properties":{"osm_id":"4845094276","tag":{"amenity":"waste_basket"}},"type":"Feature"},
	{"geometry":{"coordinates":[-0.53344,44.87081],"type":"Point"},"properties":{"osm_id":"4845094277","tag":{"amenity":"waste_basket"}},"type":"Feature"},
	{"geometry":{"coordinates":[-0.535952,44.871157],"type":"Point"},"properties":{"osm_id":"4845094279","tag":{"amenity":"waste_basket"}},"type":"Feature"},
	{"geometry":{"coordinates":[-0.565398,44.863716],"type":"Point"},"properties":{"osm_id":"4863626157","tag":{"amenity":"recycling","recycling:glass_bottles":"yes","recycling_type":"container","ref:FR:CUB":"BX56"}},"type":"Feature"},
	{"geometry":{"coordinates":[-0.580122,44.866546],"type":"Point"},"properties":{"osm_id":"4866029521","tag":{"amenity":"recycling","recycling:glass_bottles":"yes","recycling_type":"container","ref:FR:CUB":"LB29"}},"type":"Feature"},
	{"geometry":{"coordinates":[-0.580118,44.866642],"type":"Point"},"properties":{"osm_id":"4866029524","tag":{"amenity":"waste_basket"}},"type":"Feature"},
	{"geometry":{"coordinates":[-0.580287,44.866529],"type":"Point"},"properties":{"osm_id":"4866029526","tag":{"amenity":"waste_basket"}},"type":"Feature"},
	{"geometry":{"coordinates":[-0.575035,44.844678],"type":"Point"},"properties":{"osm_id":"4998506602","tag":{"amenity":"recycling","recycling:glass_bottles":"yes","recycling_type":"container"}},"type":"Feature"},
	{"geometry":{"coordinates":[-0.575177,44.846619],"type":"Point"},"properties":{"osm_id":"5182419610","tag":{"amenity":"waste_basket"}},"type":"Feature"},
	{"geometry":{"coordinates":[-0.57074,44.846697],"type":"Point"},"properties":{"osm_id":"5213185121","tag":{"amenity":"waste_basket"}},"type":"Feature"},
	{"geometry":{"coordinates":[-0.581234,44.852072],"type":"Point"},"properties":{"osm_id":"5407384006","tag":{"amenity":"recycling","recycling:glass_bottles":"yes","recycling_type":"container","ref:FR:CUB":"BX80"}},"type":"Feature"},
	{"geometry":{"coordinates":[-0.586629,44.854103],"type":"Point"},"properties":{"osm_id":"5407384007","tag":{"amenity":"recycling","recycling:glass_bottles":"yes","recycling_type":"container","ref:FR:CUB":"BX84"}},"type":"Feature"},
	{"geometry":{"coordinates":[-0.578628,44.847461],"type":"Point"},"properties":{"osm_id":"5515378985","tag":{"amenity":"waste_basket"}},"type":"Feature"},
	{"geometry":{"coordinates":[-0.577132,44.849887],"type":"Point"},"properties":{"osm_id":"5515378988","tag":{"amenity":"waste_basket"}},"type":"Feature"},
	{"geometry":{"coordinates":[-0.601447,44.848054],"type":"Point"},"properties":{"osm_id":"5663963450","tag":{"amenity":"waste_basket","waste":"cigarettes"}},"type":"Feature"},
	{"geometry":{"coordinates":[-0.601144,44.847948],"type":"Point"},"properties":{"osm_id":"5663963451","tag":{"amenity":"waste_basket","waste":"cigarettes"}},"type":"Feature"},
	{"geometry":{"coordinates":[-0.600985,44.84794],"type":"Point"},"properties":{"osm_id":"5663963452","tag":{"amenity":"waste_basket","waste":"cigarettes"}},"type":"Feature"},
	{"geometry":{"coordinates":[-0.601458,44.848058],"type":"Point"},"properties":{"osm_id":"5663966863","tag":{"amenity":"waste_basket"}},"type":"Feature"},
	{"geometry":{"coordinates":[-0.601131,44.847946],"type":"Point"},"properties":{"osm_id":"5663966864","tag":{"amenity":"waste_basket"}},"type":"Feature"},
	{"geometry":{"coordinates":[-0.563514,44.842356],"type":"Point"},"properties":{"osm_id":"5705196360","tag":{"amenity":"recycling","recycling:glass_bottles":"yes","recycling_type":"container","ref:FR:CUB":"BB12"}},"type":"Feature"},
	{"geometry":{"coordinates":[-0.570953,44.841465],"type":"Point"},"properties":{"osm_id":"5732653355","tag":{"amenity":"recycling","recycling:glass_bottles":"yes","recycling_type":"container","ref:FR:CUB":"BX197"}},"type":"Feature"},
	{"geometry":{"coordinates":[-0.571198,44.842302],"type":"Point"},"properties":{"osm_id":"5732653361","tag":{"amenity":"recycling","location":"underground","recycling:glass_bottles":"yes","recycling_type":"container","ref:FR:CUB":"BX29"}},"type":"Feature"},
	{"geometry":{"coordinates":[-0.550218,44.843164],"type":"Point"},"properties":{"osm_id":"5885225735","tag":{"amenity":"recycling","operator":"Le Relais","recycling:clothes":"yes","recycling_type":"container"}},"type":"Feature"},
	{"geometry":{"coordinates":[-0.546774,44.841735],"type":"Point"},"properties":{"osm_id":"5885225739","tag":{"amenity":"waste_basket"}},"type":"Feature"},
	{"geometry":{"coordinates":[-0.582577,44.897636],"type":"Point"},"properties":{"osm_id":"5919987772","tag":{"amenity":"recycling","recycling:glass_bottles":"yes","recycling_type":"container"}},"type":"Feature"},
	{"geometry":{"coordinates":[-0.592352,44.884911],"type":"Point"},"properties":{"osm_id":"5920265485","tag":{"amenity":"recycling","recycling:clothes":"yes","recycling:glass_bottles":"yes","recycling_type":"container","ref:FR:CUB":"BR03"}},"type":"Feature"},
	{"geometry":{"coordinates":[-0.592366,44.884888],"type":"Point"},"properties":{"osm_id":"5920265486","tag":{"amenity":"recycling","recycling:glass_bottles":"yes","recycling_type":"container","ref:FR:CUB":"BR03"}},"type":"Feature"},
	{"geometry":{"coordinates":[-0.554327,44.846737],"type":"Point"},"properties":{"osm_id":"5940917463","tag":{"amenity":"waste_basket"}},"type":"Feature"},
	{"geometry":{"coordinates":[-0.554566,44.847209],"type":"Point"},"properties":{"osm_id":"5940917464","tag":{"amenity":"waste_basket"}},"type":"Feature"},
	{"geometry":{"coordinates":[-0.553902,44.847217],"type":"Point"},"properties":{"osm_id":"5940917465","tag":{"amenity":"waste_basket"}},"type":"Feature"},
	{"geometry":{"coordinates":[-0.554306,44.847044],"type":"Point"},"properties":{"osm_id":"5940917466","tag":{"amenity":"waste_basket"}},"type":"Feature"},
	{"geometry":{"coordinates":[-0.554541,44.847099],"type":"Point"},"properties":{"osm_id":"5940917467","tag":{"amenity":"waste_basket"}},"type":"Feature"},
	{"geometry":{"coordinates":[-0.614123,44.855036],"type":"Point"},"properties":{"osm_id":"5959759331","tag":{"amenity":"recycling","recycling:clothes":"yes","recycling:glass_bottles":"yes","recycling_type":"container","ref:FR:CUB":"BC14"}},"type":"Feature"},
	{"geometry":{"coordinates":[-0.614125,44.85502],"type":"Point"},"properties":{"osm_id":"5959759332","tag":{"amenity":"recycling","recycling:glass_bottles":"yes","recycling_type":"container","ref:FR:CUB":"BC14"}},"type":"Feature"},
	{"geometry":{"coordinates":[-0.548133,44.877187],"type":"Point"},"properties":{"osm_id":"5960083682","tag":{"amenity":"recycling","recycling:glass_bottles":"yes","recycling_type":"container","ref:FR:CUB":"BX49"}},"type":"Feature"},
	{"geometry":{"coordinates":[-0.548172,44.877187],"type":"Point"},"properties":{"osm_id":"5960083683","tag":{"amenity":"recycling","operator":"Le Relais","recycling:clothes":"yes","recycling_type":"container"}},"type":"Feature"},
	{"geometry":{"coordinates":[-0.594925,44.855854],"type":"Point"},"properties":{"osm_id":"6048544143","tag":{"amenity":"recycling","recycling:glass_bottles":"yes","recycling_type":"container"}},"type":"Feature"},
	{"geometry":{"coordinates":[-0.594957,44.85588],"type":"Point"},"properties":{"osm_id":"6048549777","tag":{"amenity":"recycling","recycling:glass_bottles":"yes","recycling_type":"container"}},"type":"Feature"},
	{"geometry":{"coordinates":[-0.550787,44.865165],"type":"Point"},"properties":{"osm_id":"6093007181","tag":{"amenity":"recycling","recycling:glass_bottles":"yes","recycling_type":"container"}},"type":"Feature"},
	{"geometry":{"coordinates":[-0.564058,44.84285],"type":"Point"},"properties":{"osm_id":"6095441916","tag":{"amenity":"waste_basket"}},"type":"Feature"},
	{"geometry":{"coordinates":[-0.564269,44.843145],"type":"Point"},"properties":{"osm_id":"6095441917","tag":{"amenity":"waste_basket"}},"type":"Feature"},
	{"geometry":{"coordinates":[-0.564421,44.843395],"type":"Point"},"properties":{"osm_id":"6095441918","tag":{"amenity":"waste_basket"}},"type":"Feature"},
	{"geometry":{"coordinates":[-0.56333,44.842186],"type":"Point"},"properties":{"osm_id":"6095441923","tag":{"amenity":"waste_basket"}},"type":"Feature"},
	{"geometry":{"coordinates":[-0.563198,44.842076],"type":"Point"},"properties":{"osm_id":"6095441925","tag":{"amenity":"waste_basket"}},"type":"Feature"},
	{"geometry":{"coordinates":[-0.563041,44.841948],"type":"Point"},"properties":{"osm_id":"6095441927","tag":{"amenity":"waste_basket"}},"type":"Feature"},
	{"geometry":{"coordinates":[-0.562884,44.841816],"type":"Point"},"properties":{"osm_id":"6095441931","tag":{"amenity":"waste_basket"}},"type":"Feature"},
	{"geometry":{"coordinates":[-0.562724,44.841685],"type":"Point"},"properties":{"osm_id":"6095441932","tag":{"amenity":"waste_basket"}},"type":"Feature"},
	{"geometry":{"coordinates":[-0.562564,44.841554],"type":"Point"},"properties":{"osm_id":"6095441936","tag":{"amenity":"waste_basket"}},"type":"Feature"},
	{"geometry":{"coordinates":[-0.604005,44.859458],"type":"Point"},"properties":{"osm_id":"6343863905","tag":{"amenity":"recycling","recycling_type":"container"}},"type":"Feature"},
	{"geometry":{"coordinates":[-0.559989,44.840665],"type":"Point"},"properties":{"osm_id":"6367070894","tag":{"amenity":"recycling","recycling_type":"container"}},"type":"Feature"},
	{"geometry":{"coordinates":[-0.560045,44.840632],"type":"Point"},"properties":{"osm_id":"6367070895","tag":{"amenity":"recycling","recycling:clothes":"yes","recycling_type":"container"}},"type":"Feature"},
	{"geometry":{"coordinates":[-0.558856,44.840988],"type":"Point"},"properties":{"osm_id":"6369705815","tag":{"amenity":"waste_basket"}},"type":"Feature"},
	{"geometry":{"coordinates":[-0.559599,44.840477],"type":"Point"},"properties":{"osm_id":"6369705817","tag":{"amenity":"waste_basket"}},"type":"Feature"},
	{"geometry":{"coordinates":[-0.558885,44.840349],"type":"Point"},"properties":{"osm_id":"6369705820","tag":{"amenity":"waste_basket"}},"type":"Feature"},
	{"geometry":{"coordinates":[-0.558432,44.840983],"type":"Point"},"properties":{"osm_id":"6370191725","tag":{"amenity":"waste_basket"}},"type":"Feature"},
	{"geometry":{"coordinates":[-0.571636,44.855174],"type":"Point"},"properties":{"osm_id":"6458885679","tag":{"amenity":"waste_basket"}},"type":"Feature"},
	{"geometry":{"coordinates":[-0.56992,44.848226],"type":"Point"},"properties":{"osm_id":"6464924228","tag":{"amenity":"waste_basket","waste":"trash"}},"type":"Feature"},
	{"geometry":{"coordinates":[-0.592863,44.841094],"type":"Point"},"properties":{"osm_id":"6608956894","tag":{"amenity":"recycling","recycling:clothes":"yes","recycling:shoes":"yes","recycling_type":"container"}},"type":"Feature"},
	{"geometry":{"coordinates":[-0.585349,44.842933],"type":"Point"},"properties":{"osm_id":"6903447769","tag":{"amenity":"recycling","recycling:green_waste":"yes","recycling_type":"container"}},"type":"Feature"},
	{"geometry":{"coordinates":[-0.585356,44.842953],"type":"Point"},"properties":{"osm_id":"6903447770","tag":{"amenity":"recycling","recycling:green_waste":"yes","recycling_type":"container"}},"type":"Feature"},
	{"geometry":{"coordinates":[-0.58536,44.842972],"type":"Point"},"properties":{"osm_id":"6903447771","tag":{"amenity":"recycling","recycling:green_waste":"yes","recycling_type":"container"}},"type":"Feature"},
	{"geometry":{"coordinates":[-0.528027,44.853605],"type":"Point"},"properties":{"osm_id":"6917588334","tag":{"amenity":"waste_basket"}},"type":"Feature"},
	{"geometry":{"coordinates":[-0.531637,44.877291],"type":"Point"},"properties":{"osm_id":"6954555108","tag":{"amenity":"recycling","operator":"SIVOM rive droite","recycling:cans":"yes","recycling:cartons":"yes","recycling:glass_bottles":"yes","recycling:plastic_bottles":"yes","recycling_type":"container"}},"type":"Feature"},
	{"geometry":{"coordinates":[-0.550389,44.877618],"type":"Point"},"properties":{"osm_id":"6974945751","tag":{"amenity":"recycling","recycling:glass_bottles":"yes","recycling_type":"container"}},"type":"Feature"},
	{"geometry":{"coordinates":[-0.592296,44.852322],"type":"Point"},"properties":{"osm_id":"6993321350","tag":{"amenity":"recycling","recycling:glass_bottles":"yes","recycling_type":"container"}},"type":"Feature"},
	{"geometry":{"coordinates":[-0.591774,44.843111],"type":"Point"},"properties":{"osm_id":"7003653722","tag":{"amenity":"waste_basket"}},"type":"Feature"},
	{"geometry":{"coordinates":[-0.594011,44.843032],"type":"Point"},"properties":{"osm_id":"7003653723","tag":{"amenity":"recycling","recycling:glass_bottles":"yes","recycling_type":"container"}},"type":"Feature"},
	{"geometry":{"coordinates":[-0.594129,44.842968],"type":"Point"},"properties":{"osm_id":"7003653724","tag":{"amenity":"waste_basket"}},"type":"Feature"},
	{"geometry":{"coordinates":[-0.539202,44.85517],"type":"Point"},"properties":{"osm_id":"7015240905","tag":{"amenity":"recycling","recycling:glass_bottles":"yes","recycling_type":"container"}},"type":"Feature"},
	{"geometry":{"coordinates":[-0.600245,44.865397],"type":"Point"},"properties":{"osm_id":"7044637020","tag":{"amenity":"waste_basket"}},"type":"Feature"},
	{"geometry":{"coordinates":[-0.600184,44.865338],"type":"Point"},"properties":{"osm_id":"7044637021","tag":{"amenity":"waste_basket"}},"type":"Feature"},
	{"geometry":{"coordinates":[-0.596218,44.853788],"type":"Point"},"properties":{"osm_id":"7046124683","tag":{"amenity":"recycling","operator":"Bordeaux M\u00c3\u00a9tropole","recycling:verre":"yes","recycling_type":"container"}},"type":"Feature"},
	{"geometry":{"coordinates":[-0.54614,44.873433],"type":"Point"},"properties":{"osm_id":"7056704283","tag":{"amenity":"waste_basket"}},"type":"Feature"},
	{"geometry":{"coordinates":[-0.546011,44.873506],"type":"Point"},"properties":{"osm_id":"7056789187","tag":{"amenity":"waste_basket"}},"type":"Feature"},
	{"geometry":{"coordinates":[-0.614194,44.851512],"type":"Point"},"properties":{"osm_id":"7090438963","tag":{"amenity":"recycling","recycling:books":"yes","recycling_type":"container"}},"type":"Feature"},
	{"geometry":{"coordinates":[-0.614194,44.851527],"type":"Point"},"properties":{"osm_id":"7090438964","tag":{"amenity":"recycling","recycling:clothes":"yes","recycling_type":"container"}},"type":"Feature"},
	{"geometry":{"coordinates":[-0.614198,44.851541],"type":"Point"},"properties":{"osm_id":"7090438965","tag":{"amenity":"recycling","recycling:clothes":"no","recycling:glass_bottles":"yes","recycling_type":"container"}},"type":"Feature"},
	{"geometry":{"coordinates":[-0.59881,44.866052],"type":"Point"},"properties":{"osm_id":"7227838594","tag":{"amenity":"waste_basket"}},"type":"Feature"},
	{"geometry":{"coordinates":[-0.569731,44.843073],"type":"Point"},"properties":{"osm_id":"7274986336","tag":{"amenity":"waste_disposal"}},"type":"Feature"},
	{"geometry":{"coordinates":[-0.569491,44.843123],"type":"Point"},"properties":{"osm_id":"7274986341","tag":{"amenity":"waste_disposal"}},"type":"Feature"},
	{"geometry":{"coordinates":[-0.569584,44.84269],"type":"Point"},"properties":{"osm_id":"7274986344","tag":{"amenity":"waste_disposal"}},"type":"Feature"},
	{"geometry":{"coordinates":[-0.569378,44.842659],"type":"Point"},"properties":{"osm_id":"7274986346","tag":{"amenity":"waste_disposal"}},"type":"Feature"},
	{"geometry":{"coordinates":[-0.575056,44.843664],"type":"Point"},"properties":{"osm_id":"7598191800","tag":{"amenity":"waste_basket"}},"type":"Feature"},
	{"geometry":{"coordinates":[-0.595961,44.853572],"type":"Point"},"properties":{"osm_id":"7603474749","tag":{"amenity":"recycling","mapillary":"K0D_nDWKIJU9YTPpXadZQA","recycling:clothes":"yes","recycling:glass_bottles":"yes","recycling_type":"container"}},"type":"Feature"},
	{"geometry":{"coordinates":[-0.595039,44.853422],"type":"Point"},"properties":{"osm_id":"7603474751","tag":{"amenity":"waste_basket"}},"type":"Feature"},
	{"geometry":{"coordinates":[-0.604055,44.859481],"type":"Point"},"properties":{"osm_id":"7603493476","tag":{"amenity":"recycling","recycling:glass_bottles":"yes","recycling_type":"container"}},"type":"Feature"},
	{"geometry":{"coordinates":[-0.578232,44.841937],"type":"Point"},"properties":{"osm_id":"7688196296","tag":{"amenity":"recycling","opening_hours":"24/7","operator":"Bordeaux M\u00c3\u00a9tropole","recycling:glass_bottles":"yes","recycling:glass_jars":"yes","recycling_type":"container"}},"type":"Feature"},
	{"geometry":{"coordinates":[-0.577361,44.842007],"type":"Point"},"properties":{"osm_id":"7688196297","tag":{"amenity":"recycling","opening_hours":"24/7","operator":"Bordeaux M\u00c3\u00a9tropole","recycling:glass":"yes","recycling:glass_bottles":"yes","recycling:glass_jars":"yes","recycling_type":"container"}},"type":"Feature"},
	{"geometry":{"coordinates":[-0.578336,44.842507],"type":"Point"},"properties":{"osm_id":"7688196298","tag":{"amenity":"recycling","opening_hours":"24/7","operator":"Bordeaux M\u00c3\u00a9tropole","recycling:glass":"yes","recycling:glass_bottles":"yes","recycling:glass_jars":"yes","recycling_type":"container"}},"type":"Feature"},
	{"geometry":{"coordinates":[-0.581155,44.841381],"type":"Point"},"properties":{"osm_id":"7688196299","tag":{"amenity":"recycling","opening_hours":"24/7","operator":"Bordeaux M\u00c3\u00a9tropole","recycling:cans":"yes","recycling:cardboard":"yes","recycling:paper":"yes","recycling_type":"container"}},"type":"Feature"},
	{"geometry":{"coordinates":[-0.581155,44.841348],"type":"Point"},"properties":{"osm_id":"7688196300","tag":{"amenity":"recycling","opening_hours":"24/7","operator":"Bordeaux M\u00c3\u00a9tropole","recycling:glass":"yes","recycling:glass_bottles":"yes","recycling:glass_jars":"yes","recycling_type":"container"}},"type":"Feature"},
	{"geometry":{"coordinates":[-0.576519,44.84375],"type":"Point"},"properties":{"osm_id":"7731778545","tag":{"amenity":"recycling","opening_hours":"24/7","operator":"Bordeaux M\u00c3\u00a9tropole","recycling:glass":"yes","recycling:glass_bottles":"yes","recycling:glass_jars":"yes","recycling_type":"container"}},"type":"Feature"},
	{"geometry":{"coordinates":[-0.578102,44.843227],"type":"Point"},"properties":{"osm_id":"7731778546","tag":{"amenity":"recycling","opening_hours":"24/7","operator":"Bordeaux M\u00c3\u00a9tropole","recycling:glass":"yes","recycling:glass_bottles":"yes","recycling:glass_jars":"yes","recycling_type":"container"}},"type":"Feature"},
	{"geometry":{"coordinates":[-0.576056,44.841606],"type":"Point"},"properties":{"osm_id":"7783747168","tag":{"amenity":"recycling","opening_hours":"24/7","opening_hours:covid19":"same","operator":"Bordeaux M\u00c3\u00a9tropole","recycling:glass":"yes","recycling:glass_bottles":"yes","recycling:glass_jars":"yes","recycling_type":"container"}},"type":"Feature"},
	{"geometry":{"coordinates":[-0.602785,44.84832],"type":"Point"},"properties":{"osm_id":"7895606550","tag":{"amenity":"recycling","operator":"Le Relais","recycling:clothes":"yes","recycling_type":"container"}},"type":"Feature"},
	{"geometry":{"coordinates":[-0.602773,44.848314],"type":"Point"},"properties":{"osm_id":"7895620252","tag":{"amenity":"recycling","operator":"Le Livre Vert","recycling:books":"yes","recycling_type":"container"}},"type":"Feature"}
]
}
