{
"type": "FeatureCollection",
"features": [
	{"geometry":{"coordinates":[-0.603549,44.834711],"type":"Point"},"properties":{"osm_id":"281678746","tag":{"amenity":"recycling","location":"overground","mapillary":"jIxgnUqOFsubKsZcHnlhcQ","operator":"Bordeaux M\u00c3\u00a9tropole","recycling:clothes":"no","recycling:glass_bottles":"yes","recycling_type":"container","ref:FR:CUB":"BS02","survey:date":"2018-04-27"}},"type":"Feature"},
	{"geometry":{"coordinates":[-0.610301,44.832559],"type":"Point"},"properties":{"osm_id":"306390716","tag":{"amenity":"recycling","operator":"Bordeaux M\u00c3\u00a9tropole","recycling:glass_bottles":"yes","recycling_type":"container","ref:FR:CUB":"BS03"}},"type":"Feature"},
	{"geometry":{"coordinates":[-0.589219,44.806922],"type":"Point"},"properties":{"osm_id":"401566004","tag":{"amenity":"recycling","operator":"Bordeaux M\u00c3\u00a9tropole","recycling:glass_bottles":"yes","recycling_type":"container","ref:FR:CUB":"TA04"}},"type":"Feature"},
	{"geometry":{"coordinates":[-0.56872,44.839776],"type":"Point"},"properties":{"osm_id":"483680619","tag":{"amenity":"recycling","operator":"Bordeaux M\u00c3\u00a9tropole","recycling:cans":"yes","recycling:clothes":"no","recycling:glass_bottles":"yes","recycling:paper":"yes","recycling_type":"container","ref:FR:CUB":"BX11"}},"type":"Feature"},
	{"geometry":{"coordinates":[-0.599791,44.803157],"type":"Point"},"properties":{"osm_id":"600371011","tag":{"amenity":"recycling","operator":"Bordeaux M\u00c3\u00a9tropole","recycling:glass_bottles":"yes","recycling_type":"container","ref:FR:CUB":"TA27"}},"type":"Feature"},
	{"geometry":{"coordinates":[-0.575985,44.796199],"type":"Point"},"properties":{"osm_id":"801086264","tag":{"amenity":"recycling","operator":"Bordeaux M\u00c3\u00a9tropole","recycling:glass_bottles":"yes","recycling_type":"container","ref:FR:CUB":"VO02"}},"type":"Feature"},
	{"geometry":{"coordinates":[-0.56946,44.78023],"type":"Point"},"properties":{"osm_id":"801100464","tag":{"amenity":"recycling","operator":"Bordeaux M\u00c3\u00a9tropole","recycling:glass_bottles":"yes","recycling_type":"container","ref:FR:CUB":"VO25"}},"type":"Feature"},
	{"geometry":{"coordinates":[-0.586004,44.800962],"type":"Point"},"properties":{"osm_id":"955254351","tag":{"amenity":"recycling","operator":"Bordeaux M\u00c3\u00a9tropole","recycling:cartons":"yes","recycling:glass_bottles":"yes","recycling:paper":"yes","recycling_type":"container","ref:FR:CUB":"TA10"}},"type":"Feature"},
	{"geometry":{"coordinates":[-0.56828,44.83887],"type":"Point"},"properties":{"osm_id":"1230922638","tag":{"amenity":"recycling","operator":"Bordeaux M\u00c3\u00a9tropole","recycling:glass_bottles":"yes","recycling_type":"container","ref:FR:CUB":"BX196"}},"type":"Feature"},
	{"geometry":{"coordinates":[-0.587073,44.839313],"type":"Point"},"properties":{"osm_id":"1253006757","tag":{"amenity":"recycling","operator":"Bordeaux M\u00c3\u00a9tropole","recycling:glass_bottles":"yes","recycling_type":"container","ref:FR:CUB":"BX93"}},"type":"Feature"},
	{"geometry":{"coordinates":[-0.584552,44.839967],"type":"Point"},"properties":{"osm_id":"1253006842","tag":{"amenity":"recycling","collection_times":"24/24h","operator":"Bordeaux M\u00c3\u00a9tropole","recycling:glass_bottles":"yes","recycling_type":"container","ref:FR:CUB":"BX41"}},"type":"Feature"},
	{"geometry":{"coordinates":[-0.594068,44.837268],"type":"Point"},"properties":{"osm_id":"1259853032","tag":{"amenity":"recycling","location":"overground","mapillary":"HrAZNfDw0evgelyAEvbTBQ","recycling:glass_bottles":"yes","recycling_type":"container","ref:FR:CUB":"BX62","survey:date":"2018-05-03"}},"type":"Feature"},
	{"geometry":{"coordinates":[-0.586514,44.839435],"type":"Point"},"properties":{"osm_id":"1259853052","tag":{"amenity":"recycling","operator":"Le Relais","recycling:clothes":"yes","recycling_type":"container"}},"type":"Feature"},
	{"geometry":{"coordinates":[-0.566765,44.832403],"type":"Point"},"properties":{"osm_id":"1308844801","tag":{"amenity":"recycling","operator":"Bordeaux M\u00c3\u00a9tropole","recycling:glass_bottles":"yes","recycling_type":"container","ref:FR:CUB":"BX28"}},"type":"Feature"},
	{"geometry":{"coordinates":[-0.566581,44.833308],"type":"Point"},"properties":{"osm_id":"1308844804","tag":{"amenity":"recycling","recycling:clothes":"yes","recycling_type":"container"}},"type":"Feature"},
	{"geometry":{"coordinates":[-0.613719,44.829154],"type":"Point"},"properties":{"osm_id":"1342248563","tag":{"amenity":"recycling","operator":"Bordeaux M\u00c3\u00a9tropole","recycling:glass_bottles":"yes","recycling_type":"container","ref:FR:CUB":"BS13"}},"type":"Feature"},
	{"geometry":{"coordinates":[-0.583279,44.833361],"type":"Point"},"properties":{"osm_id":"1376246898","tag":{"amenity":"recycling","operator":"Bordeaux M\u00c3\u00a9tropole","recycling:glass_bottles":"yes","recycling_type":"container","ref:FR:CUB":"BX103"}},"type":"Feature"},
	{"geometry":{"coordinates":[-0.613785,44.825695],"type":"Point"},"properties":{"osm_id":"1854757884","tag":{"amenity":"recycling","operator":"Bordeaux M\u00c3\u00a9tropole","recycling:glass_bottles":"yes","recycling_type":"container","ref:FR:CUB":"BS15"}},"type":"Feature"},
	{"geometry":{"coordinates":[-0.566996,44.830262],"type":"Point"},"properties":{"osm_id":"1880397862","tag":{"amenity":"recycling","operator":"Bordeaux M\u00c3\u00a9tropole","recycling:books":"yes","recycling:cartons":"yes","recycling:glass_bottles":"yes","recycling:magazines":"yes","recycling:newspaper":"yes","recycling:paper":"yes","recycling:paper_packaging":"yes","recycling:plastic_bottles":"yes","recycling_type":"container","ref:FR:CUB":"BX06"}},"type":"Feature"},
	{"geometry":{"coordinates":[-0.568122,44.830076],"type":"Point"},"properties":{"osm_id":"1880397913","tag":{"amenity":"recycling","operator":"Bordeaux M\u00c3\u00a9tropole","recycling:glass_bottles":"yes","recycling_type":"container","ref:FR:CUB":"BX13"}},"type":"Feature"},
	{"geometry":{"coordinates":[-0.580701,44.808062],"type":"Point"},"properties":{"osm_id":"1882104403","tag":{"amenity":"recycling","operator":"Bordeaux M\u00c3\u00a9tropole","recycling:glass_bottles":"yes","recycling_type":"container","ref:FR:CUB":"TA61"}},"type":"Feature"},
	{"geometry":{"coordinates":[-0.586259,44.811358],"type":"Point"},"properties":{"osm_id":"1882128028","tag":{"amenity":"recycling","operator":"Bordeaux M\u00c3\u00a9tropole","recycling:glass_bottles":"yes","recycling_type":"container","ref:FR:CUB":"TA16"}},"type":"Feature"},
	{"geometry":{"coordinates":[-0.582444,44.801807],"type":"Point"},"properties":{"osm_id":"1882521182","tag":{"amenity":"recycling","operator":"Bordeaux M\u00c3\u00a9tropole","recycling:glass_bottles":"yes","recycling_type":"container","ref:FR:CUB":"TA38"}},"type":"Feature"},
	{"geometry":{"coordinates":[-0.578646,44.802532],"type":"Point"},"properties":{"osm_id":"1882550702","tag":{"amenity":"recycling","operator":"Bordeaux M\u00c3\u00a9tropole","recycling:glass_bottles":"yes","recycling_type":"container","ref:FR:CUB":"TA11"}},"type":"Feature"},
	{"geometry":{"coordinates":[-0.589933,44.805012],"type":"Point"},"properties":{"osm_id":"1883105989","tag":{"amenity":"recycling","operator":"Bordeaux M\u00c3\u00a9tropole","recycling:glass_bottles":"yes","recycling_type":"container","ref:FR:CUB":"TA05"}},"type":"Feature"},
	{"geometry":{"coordinates":[-0.582372,44.812266],"type":"Point"},"properties":{"osm_id":"1883138839","tag":{"amenity":"recycling","operator":"Bordeaux M\u00c3\u00a9tropole","recycling:glass_bottles":"yes","recycling_type":"container","ref:FR:CUB":"TA15"}},"type":"Feature"},
	{"geometry":{"coordinates":[-0.577496,44.812165],"type":"Point"},"properties":{"osm_id":"1883153831","tag":{"amenity":"recycling","operator":"Bordeaux M\u00c3\u00a9tropole","recycling:glass_bottles":"yes","recycling_type":"container","ref:FR:CUB":"TA46"}},"type":"Feature"},
	{"geometry":{"coordinates":[-0.580371,44.814891],"type":"Point"},"properties":{"osm_id":"1883179059","tag":{"amenity":"recycling","operator":"Bordeaux M\u00c3\u00a9tropole","recycling:glass_bottles":"yes","recycling_type":"container","ref:FR:CUB":"TA43"}},"type":"Feature"},
	{"geometry":{"coordinates":[-0.582463,44.813154],"type":"Point"},"properties":{"osm_id":"1883183572","tag":{"amenity":"recycling","operator":"Bordeaux M\u00c3\u00a9tropole","recycling:glass_bottles":"yes","recycling_type":"container","ref:FR:CUB":"TA30"}},"type":"Feature"},
	{"geometry":{"coordinates":[-0.579869,44.833418],"type":"Point"},"properties":{"osm_id":"1885376413","tag":{"amenity":"recycling","operator":"Bordeaux M\u00c3\u00a9tropole","recycling:cans":"no","recycling:clothes":"no","recycling:glass_bottles":"yes","recycling:paper":"no","recycling_type":"container","ref:FR:CUB":"BX38"}},"type":"Feature"},
	{"geometry":{"coordinates":[-0.562601,44.828655],"type":"Point"},"properties":{"osm_id":"1886415710","tag":{"amenity":"recycling","location":"underground","operator":"Bordeaux M\u00c3\u00a9tropole","recycling:glass_bottles":"yes","recycling_type":"container","ref:FR:CUB":"BX172"}},"type":"Feature"},
	{"geometry":{"coordinates":[-0.56335,44.827097],"type":"Point"},"properties":{"osm_id":"1896656517","tag":{"amenity":"waste_basket"}},"type":"Feature"},
	{"geometry":{"coordinates":[-0.564157,44.826365],"type":"Point"},"properties":{"osm_id":"1896656532","tag":{"amenity":"waste_basket"}},"type":"Feature"},
	{"geometry":{"coordinates":[-0.563023,44.827367],"type":"Point"},"properties":{"osm_id":"1896662156","tag":{"amenity":"waste_basket"}},"type":"Feature"},
	{"geometry":{"coordinates":[-0.562277,44.82836],"type":"Point"},"properties":{"osm_id":"1896667690","tag":{"amenity":"waste_basket"}},"type":"Feature"},
	{"geometry":{"coordinates":[-0.577711,44.824311],"type":"Point"},"properties":{"osm_id":"1911190509","tag":{"amenity":"recycling","operator":"Bordeaux M\u00c3\u00a9tropole","recycling:glass_bottles":"yes","recycling_type":"container","ref:FR:CUB":"BX21"}},"type":"Feature"},
	{"geometry":{"coordinates":[-0.601033,44.81663],"type":"Point"},"properties":{"osm_id":"1927271573","tag":{"amenity":"recycling","operator":"Bordeaux M\u00c3\u00a9tropole","recycling:clothes":"yes","recycling:glass_bottles":"yes","recycling_type":"container","ref:FR:CUB":"TA29"}},"type":"Feature"},
	{"geometry":{"coordinates":[-0.579946,44.810312],"type":"Point"},"properties":{"osm_id":"1944316906","tag":{"amenity":"recycling","operator":"Bordeaux M\u00c3\u00a9tropole","recycling:batteries":"no","recycling:books":"no","recycling:cans":"no","recycling:cardboard":"no","recycling:cartons":"no","recycling:clothes":"no","recycling:electrical_appliances":"no","recycling:glass_bottles":"yes","recycling:green_waste":"no","recycling:magazines":"no","recycling:newspaper":"no","recycling:paper":"no","recycling:paper_packaging":"no","recycling:plastic":"no","recycling:plastic_bottles":"no","recycling:plastic_packaging":"no","recycling:scrap_metal":"no","recycling:small_appliances":"no","recycling:waste":"no","recycling:wood":"no","recycling_type":"container","ref:FR:CUB":"TA45"}},"type":"Feature"},
	{"geometry":{"coordinates":[-0.594577,44.833673],"type":"Point"},"properties":{"osm_id":"1972335137","tag":{"amenity":"recycling","operator":"Bordeaux M\u00c3\u00a9tropole","recycling:glass_bottles":"yes","recycling_type":"container","ref:FR:CUB":"BX15"}},"type":"Feature"},
	{"geometry":{"coordinates":[-0.54545,44.824802],"type":"Point"},"properties":{"barrier":"gate","osm_id":"1979232214","tag":{"motorcar":"yes"}},"type":"Feature"},
	{"geometry":{"coordinates":[-0.545661,44.825117],"type":"Point"},"properties":{"barrier":"gate","osm_id":"1979232219","tag":{"motorcar":"yes"}},"type":"Feature"},
	{"geometry":{"coordinates":[-0.551845,44.827603],"type":"Point"},"properties":{"osm_id":"1979396359","tag":{"amenity":"recycling","operator":"Bordeaux M\u00c3\u00a9tropole","recycling:glass_bottles":"yes","recycling_type":"container","ref:FR:CUB":"BX141"}},"type":"Feature"},
	{"geometry":{"coordinates":[-0.572657,44.823546],"type":"Point"},"properties":{"osm_id":"1984337164","tag":{"amenity":"recycling","operator":"Bordeaux M\u00c3\u00a9tropole","recycling:glass_bottles":"yes","recycling_type":"container","ref:FR:CUB":"BX05"}},"type":"Feature"},
	{"geometry":{"coordinates":[-0.577478,44.824834],"type":"Point"},"properties":{"osm_id":"1988361740","tag":{"amenity":"waste_basket"}},"type":"Feature"},
	{"geometry":{"coordinates":[-0.577361,44.824944],"type":"Point"},"properties":{"osm_id":"1988361776","tag":{"amenity":"waste_basket"}},"type":"Feature"},
	{"geometry":{"coordinates":[-0.570538,44.823483],"type":"Point"},"properties":{"osm_id":"2001116213","tag":{"amenity":"recycling","operator":"Bordeaux M\u00c3\u00a9tropole","recycling:glass_bottles":"yes","recycling_type":"container","ref:FR:CUB":"BX122"}},"type":"Feature"},
	{"geometry":{"coordinates":[-0.561083,44.800176],"type":"Point"},"properties":{"osm_id":"2084332138","tag":{"amenity":"recycling","recycling:glass_bottles":"yes","recycling_type":"container","ref:FR:CUB":"BE20"}},"type":"Feature"},
	{"geometry":{"coordinates":[-0.578961,44.838502],"type":"Point"},"properties":{"osm_id":"2238360474","tag":{"amenity":"waste_basket"}},"type":"Feature"},
	{"geometry":{"coordinates":[-0.578214,44.838562],"type":"Point"},"properties":{"osm_id":"2238360476","tag":{"amenity":"waste_basket"}},"type":"Feature"},
	{"geometry":{"coordinates":[-0.577525,44.83854],"type":"Point"},"properties":{"osm_id":"2238375772","tag":{"amenity":"waste_basket"}},"type":"Feature"},
	{"geometry":{"coordinates":[-0.579016,44.838424],"type":"Point"},"properties":{"osm_id":"2238375776","tag":{"amenity":"waste_basket"}},"type":"Feature"},
	{"geometry":{"coordinates":[-0.577434,44.838415],"type":"Point"},"properties":{"osm_id":"2238375780","tag":{"amenity":"waste_basket","id":"oui","operator":"Bordeaux m\u00c3\u00a9tropole","ref:FR:CUB":"0001"}},"type":"Feature"},
	{"geometry":{"coordinates":[-0.577481,44.838546],"type":"Point"},"properties":{"osm_id":"2238375794","tag":{"amenity":"waste_basket"}},"type":"Feature"},
	{"geometry":{"coordinates":[-0.573514,44.82709],"type":"Point"},"properties":{"osm_id":"2293639254","tag":{"amenity":"recycling","operator":"Bordeaux M\u00c3\u00a9tropole","recycling:batteries":"no","recycling:books":"no","recycling:cans":"no","recycling:cardboard":"no","recycling:cartons":"no","recycling:clothes":"no","recycling:electrical_appliances":"no","recycling:glass_bottles":"yes","recycling:green_waste":"no","recycling:magazines":"no","recycling:newspaper":"no","recycling:paper":"no","recycling:paper_packaging":"no","recycling:plastic":"no","recycling:plastic_bottles":"no","recycling:plastic_packaging":"no","recycling:scrap_metal":"no","recycling:small_appliances":"no","recycling:waste":"no","recycling:wood":"no","recycling_type":"container","ref:FR:CUB":"BX115"}},"type":"Feature"},
	{"geometry":{"coordinates":[-0.595088,44.82316],"type":"Point"},"properties":{"osm_id":"2377943370","tag":{"amenity":"recycling","operator":"Bordeaux M\u00c3\u00a9tropole","recycling:glass_bottles":"yes","recycling_type":"container","ref:FR:CUB":"BS08"}},"type":"Feature"},
	{"geometry":{"coordinates":[-0.572145,44.817168],"type":"Point"},"properties":{"osm_id":"2392636096","tag":{"amenity":"waste_basket"}},"type":"Feature"},
	{"geometry":{"coordinates":[-0.572362,44.814535],"type":"Point"},"properties":{"osm_id":"2396187824","tag":{"amenity":"waste_basket"}},"type":"Feature"},
	{"geometry":{"coordinates":[-0.572211,44.814473],"type":"Point"},"properties":{"osm_id":"2396190213","tag":{"amenity":"waste_basket"}},"type":"Feature"},
	{"geometry":{"coordinates":[-0.572211,44.814347],"type":"Point"},"properties":{"osm_id":"2396190588","tag":{"amenity":"waste_basket"}},"type":"Feature"},
	{"geometry":{"coordinates":[-0.572338,44.814191],"type":"Point"},"properties":{"osm_id":"2396191162","tag":{"amenity":"waste_basket"}},"type":"Feature"},
	{"geometry":{"coordinates":[-0.57256,44.8144],"type":"Point"},"properties":{"osm_id":"2396191228","tag":{"amenity":"waste_basket"}},"type":"Feature"},
	{"geometry":{"coordinates":[-0.608787,44.803442],"type":"Point"},"properties":{"osm_id":"2450999025","tag":{"amenity":"waste_basket"}},"type":"Feature"},
	{"geometry":{"coordinates":[-0.571616,44.814696],"type":"Point"},"properties":{"osm_id":"2495146056","tag":{"amenity":"recycling","operator":"Bordeaux M\u00c3\u00a9tropole","recycling:glass_bottles":"yes","recycling_type":"container","ref:FR:CUB":"BX126"}},"type":"Feature"},
	{"geometry":{"coordinates":[-0.608191,44.802731],"type":"Point"},"properties":{"osm_id":"2496293045","tag":{"amenity":"waste_basket"}},"type":"Feature"},
	{"geometry":{"coordinates":[-0.592041,44.805506],"type":"Point"},"properties":{"osm_id":"2496294066","tag":{"amenity":"waste_basket"}},"type":"Feature"},
	{"geometry":{"coordinates":[-0.572849,44.813969],"type":"Point"},"properties":{"osm_id":"2508639949","tag":{"amenity":"waste_basket"}},"type":"Feature"},
	{"geometry":{"coordinates":[-0.572522,44.81461],"type":"Point"},"properties":{"osm_id":"2508663584","tag":{"amenity":"waste_basket"}},"type":"Feature"},
	{"geometry":{"coordinates":[-0.571992,44.8314],"type":"Point"},"properties":{"osm_id":"2511378289","tag":{"amenity":"waste_basket"}},"type":"Feature"},
	{"geometry":{"coordinates":[-0.56782,44.814056],"type":"Point"},"properties":{"osm_id":"2514948247","tag":{"amenity":"waste_basket"}},"type":"Feature"},
	{"geometry":{"coordinates":[-0.572278,44.820946],"type":"Point"},"properties":{"name":"Emma\u00c3\u00bcs","osm_id":"2523117911","tag":{"amenity":"recycling","recycling_type":"centre"}},"type":"Feature"},
	{"geometry":{"coordinates":[-0.569797,44.814167],"type":"Point"},"properties":{"osm_id":"2543252358","tag":{"amenity":"waste_basket"}},"type":"Feature"},
	{"geometry":{"coordinates":[-0.572275,44.829952],"type":"Point"},"properties":{"osm_id":"2544914259","tag":{"amenity":"waste_basket","operator":"Bordeaux m\u00c3\u00a9tropole","ref:FR:CUB":"00002"}},"type":"Feature"},
	{"geometry":{"coordinates":[-0.572664,44.831195],"type":"Point"},"properties":{"osm_id":"2544931040","tag":{"amenity":"waste_basket"}},"type":"Feature"},
	{"geometry":{"coordinates":[-0.572139,44.830524],"type":"Point"},"properties":{"osm_id":"2544956131","tag":{"amenity":"waste_basket"}},"type":"Feature"},
	{"geometry":{"coordinates":[-0.572501,44.830218],"type":"Point"},"properties":{"osm_id":"2544966557","tag":{"amenity":"waste_basket"}},"type":"Feature"},
	{"geometry":{"coordinates":[-0.593868,44.793433],"type":"Point"},"properties":{"osm_id":"2572664534","tag":{"amenity":"waste_basket"}},"type":"Feature"},
	{"geometry":{"coordinates":[-0.590321,44.793942],"type":"Point"},"properties":{"osm_id":"2572664659","tag":{"amenity":"recycling","recycling:clothes":"yes","recycling_type":"container"}},"type":"Feature"},
	{"geometry":{"coordinates":[-0.590362,44.793938],"type":"Point"},"properties":{"osm_id":"2572664660","tag":{"amenity":"recycling","operator":"Bordeaux M\u00c3\u00a9tropole","recycling:glass_bottles":"yes","recycling_type":"container","ref:FR:CUB":"TA08"}},"type":"Feature"},
	{"geometry":{"coordinates":[-0.59044,44.791441],"type":"Point"},"properties":{"osm_id":"2573191178","tag":{"amenity":"recycling","recycling:cans":"yes","recycling:paper":"yes"}},"type":"Feature"},
	{"geometry":{"coordinates":[-0.590496,44.79144],"type":"Point"},"properties":{"osm_id":"2573544592","tag":{"amenity":"waste_disposal"}},"type":"Feature"},
	{"geometry":{"coordinates":[-0.590468,44.791441],"type":"Point"},"properties":{"osm_id":"2573545694","tag":{"amenity":"waste_disposal"}},"type":"Feature"},
	{"geometry":{"coordinates":[-0.590389,44.791441],"type":"Point"},"properties":{"osm_id":"2573609923","tag":{"amenity":"recycling","recycling:cans":"yes","recycling:paper":"yes","recycling:plastic":"yes"}},"type":"Feature"},
	{"geometry":{"coordinates":[-0.590417,44.791441],"type":"Point"},"properties":{"osm_id":"2573609930","tag":{"amenity":"recycling","recycling:cans":"yes","recycling:paper":"yes"}},"type":"Feature"},
	{"geometry":{"coordinates":[-0.589713,44.791525],"type":"Point"},"properties":{"osm_id":"2573609934","tag":{"amenity":"waste_disposal"}},"type":"Feature"},
	{"geometry":{"coordinates":[-0.589712,44.791545],"type":"Point"},"properties":{"osm_id":"2573609937","tag":{"amenity":"recycling","location":"overground","recycling:cans":"yes","recycling:paper":"yes","recycling_type":"container"}},"type":"Feature"},
	{"geometry":{"coordinates":[-0.589713,44.791559],"type":"Point"},"properties":{"osm_id":"2573609941","tag":{"amenity":"recycling","location":"overground","recycling:cans":"yes","recycling:paper":"yes","recycling_type":"container"}},"type":"Feature"},
	{"geometry":{"coordinates":[-0.542787,44.814223],"type":"Point"},"properties":{"osm_id":"2632487534","tag":{"amenity":"recycling","recycling:glass_bottles":"yes","recycling_type":"container","ref:FR:CUB":"BE05"}},"type":"Feature"},
	{"geometry":{"coordinates":[-0.534627,44.837129],"type":"Point"},"properties":{"osm_id":"2728393941","tag":{"amenity":"waste_basket"}},"type":"Feature"},
	{"geometry":{"coordinates":[-0.583839,44.822015],"type":"Point"},"properties":{"osm_id":"2736156400","tag":{"amenity":"recycling","operator":"Bordeaux M\u00c3\u00a9tropole","recycling:glass_bottles":"yes","recycling_type":"container","ref:FR:CUB":"BX40"}},"type":"Feature"},
	{"geometry":{"coordinates":[-0.533302,44.836495],"type":"Point"},"properties":{"osm_id":"2747042524","tag":{"amenity":"recycling","operator":"Bordeaux M\u00c3\u00a9tropole","recycling:glass_bottles":"yes","recycling_type":"container","ref:FR:CUB":"FL28"}},"type":"Feature"},
	{"geometry":{"coordinates":[-0.566625,44.811319],"type":"Point"},"properties":{"osm_id":"2757887296","tag":{"amenity":"recycling","operator":"Bordeaux M\u00c3\u00a9tropole","recycling:cans":"no","recycling:clothes":"no","recycling:glass_bottles":"yes","recycling:paper":"no","recycling_type":"container","ref:FR:CUB":"BE24"}},"type":"Feature"},
	{"geometry":{"coordinates":[-0.533857,44.831955],"type":"Point"},"properties":{"osm_id":"2763613369","tag":{"amenity":"waste_basket"}},"type":"Feature"},
	{"geometry":{"coordinates":[-0.533138,44.832254],"type":"Point"},"properties":{"osm_id":"2763618186","tag":{"amenity":"waste_basket"}},"type":"Feature"},
	{"geometry":{"coordinates":[-0.533322,44.834374],"type":"Point"},"properties":{"osm_id":"2763619101","tag":{"amenity":"recycling","recycling:glass_bottles":"yes","recycling_type":"container"}},"type":"Feature"},
	{"geometry":{"coordinates":[-0.532039,44.831562],"type":"Point"},"properties":{"osm_id":"2763619238","tag":{"amenity":"waste_basket"}},"type":"Feature"},
	{"geometry":{"coordinates":[-0.534251,44.838245],"type":"Point"},"properties":{"osm_id":"2763642575","tag":{"amenity":"waste_basket"}},"type":"Feature"},
	{"geometry":{"coordinates":[-0.533077,44.838774],"type":"Point"},"properties":{"osm_id":"2763650370","tag":{"amenity":"waste_basket"}},"type":"Feature"},
	{"geometry":{"coordinates":[-0.53099,44.84014],"type":"Point"},"properties":{"osm_id":"2763650654","tag":{"amenity":"waste_basket"}},"type":"Feature"},
	{"geometry":{"coordinates":[-0.53098,44.839734],"type":"Point"},"properties":{"osm_id":"2763650658","tag":{"amenity":"waste_basket"}},"type":"Feature"},
	{"geometry":{"coordinates":[-0.533012,44.839318],"type":"Point"},"properties":{"osm_id":"2763650660","tag":{"amenity":"recycling","operator":"Bordeaux M\u00c3\u00a9tropole","recycling:cans":"yes","recycling:glass_bottles":"yes","recycling_type":"container","ref:FR:CUB":"FL15"}},"type":"Feature"},
	{"geometry":{"coordinates":[-0.531511,44.836455],"type":"Point"},"properties":{"osm_id":"2792475250","tag":{"amenity":"waste_basket"}},"type":"Feature"},
	{"geometry":{"coordinates":[-0.531488,44.836747],"type":"Point"},"properties":{"osm_id":"2792505283","tag":{"amenity":"waste_basket"}},"type":"Feature"},
	{"geometry":{"coordinates":[-0.581555,44.820296],"type":"Point"},"properties":{"osm_id":"2794752451","tag":{"amenity":"recycling","recycling:glass_bottles":"yes","recycling_type":"container"}},"type":"Feature"},
	{"geometry":{"coordinates":[-0.586482,44.82342],"type":"Point"},"properties":{"osm_id":"2794752456","tag":{"amenity":"recycling","operator":"Bordeaux M\u00c3\u00a9tropole","recycling:glass_bottles":"yes","recycling_type":"container","ref:FR:CUB":"TA32"}},"type":"Feature"},
	{"geometry":{"coordinates":[-0.610908,44.808387],"type":"Point"},"properties":{"osm_id":"2794759804","tag":{"amenity":"recycling","operator":"Bordeaux M\u00c3\u00a9tropole","recycling:glass_bottles":"yes","recycling_type":"container","ref:FR:CUB":"PE01"}},"type":"Feature"},
	{"geometry":{"coordinates":[-0.607246,44.836671],"type":"Point"},"properties":{"osm_id":"2928055022","tag":{"amenity":"recycling","operator":"Bordeaux M\u00c3\u00a9tropole","recycling:glass_bottles":"yes","recycling_type":"container","ref:FR:CUB":"BS01"}},"type":"Feature"},
	{"geometry":{"coordinates":[-0.589709,44.791486],"type":"Point"},"properties":{"osm_id":"2934268250","tag":{"amenity":"recycling","operator":"Bordeaux M\u00c3\u00a9tropole","recycling:glass_bottles":"yes","recycling_type":"container","ref:FR:CUB":"TA40"}},"type":"Feature"},
	{"geometry":{"coordinates":[-0.572338,44.820237],"type":"Point"},"properties":{"osm_id":"2934309242","tag":{"amenity":"recycling","operator":"Bordeaux M\u00c3\u00a9tropole","recycling:glass_bottles":"yes","recycling_type":"container","ref:FR:CUB":"BX121"}},"type":"Feature"},
	{"geometry":{"coordinates":[-0.577099,44.824943],"type":"Point"},"properties":{"osm_id":"3063471841","tag":{"amenity":"waste_basket"}},"type":"Feature"},
	{"geometry":{"coordinates":[-0.575838,44.827276],"type":"Point"},"properties":{"osm_id":"3073360691","tag":{"amenity":"waste_basket"}},"type":"Feature"},
	{"geometry":{"coordinates":[-0.575619,44.827423],"type":"Point"},"properties":{"osm_id":"3073360695","tag":{"amenity":"waste_basket"}},"type":"Feature"},
	{"geometry":{"coordinates":[-0.574626,44.816906],"type":"Point"},"properties":{"osm_id":"3096019195","tag":{"amenity":"recycling","operator":"Bordeaux M\u00c3\u00a9tropole","recycling:clothes":"yes","recycling:glass_bottles":"yes","recycling_type":"container","ref:FR:CUB":"BX120"}},"type":"Feature"},
	{"geometry":{"coordinates":[-0.583546,44.8204],"type":"Point"},"properties":{"osm_id":"3203413615","tag":{"amenity":"waste_basket"}},"type":"Feature"},
	{"geometry":{"coordinates":[-0.583219,44.820832],"type":"Point"},"properties":{"osm_id":"3203413617","tag":{"amenity":"waste_basket"}},"type":"Feature"},
	{"geometry":{"coordinates":[-0.583095,44.820989],"type":"Point"},"properties":{"osm_id":"3203413620","tag":{"amenity":"waste_basket"}},"type":"Feature"},
	{"geometry":{"coordinates":[-0.536992,44.831751],"type":"Point"},"properties":{"osm_id":"3240835088","tag":{"amenity":"recycling","operator":"Bordeaux M\u00c3\u00a9tropole","recycling:glass_bottles":"yes","recycling_type":"container","ref:FR:CUB":"FL30"}},"type":"Feature"},
	{"geometry":{"coordinates":[-0.592102,44.82149],"type":"Point"},"properties":{"osm_id":"3373018883","tag":{"amenity":"recycling","recycling:clothes":"yes","recycling_type":"container"}},"type":"Feature"},
	{"geometry":{"coordinates":[-0.592336,44.820499],"type":"Point"},"properties":{"osm_id":"3376988311","tag":{"amenity":"waste_basket"}},"type":"Feature"},
	{"geometry":{"coordinates":[-0.595425,44.820629],"type":"Point"},"properties":{"osm_id":"3376988316","tag":{"amenity":"waste_basket"}},"type":"Feature"},
	{"geometry":{"coordinates":[-0.558906,44.832901],"type":"Point"},"properties":{"osm_id":"3393751799","tag":{"amenity":"waste_basket"}},"type":"Feature"},
	{"geometry":{"coordinates":[-0.558684,44.832762],"type":"Point"},"properties":{"osm_id":"3393763234","tag":{"amenity":"waste_basket"}},"type":"Feature"},
	{"geometry":{"coordinates":[-0.55915,44.83303],"type":"Point"},"properties":{"osm_id":"3393778108","tag":{"amenity":"waste_basket"}},"type":"Feature"},
	{"geometry":{"coordinates":[-0.559029,44.832849],"type":"Point"},"properties":{"osm_id":"3393781260","tag":{"amenity":"waste_basket"}},"type":"Feature"},
	{"geometry":{"coordinates":[-0.56119,44.833975],"type":"Point"},"properties":{"osm_id":"3393792511","tag":{"amenity":"waste_basket"}},"type":"Feature"},
	{"geometry":{"coordinates":[-0.560545,44.833773],"type":"Point"},"properties":{"osm_id":"3393792734","tag":{"amenity":"waste_basket"}},"type":"Feature"},
	{"geometry":{"coordinates":[-0.561069,44.834091],"type":"Point"},"properties":{"osm_id":"3393793898","tag":{"amenity":"waste_basket"}},"type":"Feature"},
	{"geometry":{"coordinates":[-0.56253,44.834361],"type":"Point"},"properties":{"osm_id":"3393800656","tag":{"amenity":"waste_basket"}},"type":"Feature"},
	{"geometry":{"coordinates":[-0.562976,44.835049],"type":"Point"},"properties":{"osm_id":"3393858552","tag":{"amenity":"waste_basket"}},"type":"Feature"},
	{"geometry":{"coordinates":[-0.562994,44.835411],"type":"Point"},"properties":{"osm_id":"3393862109","tag":{"amenity":"waste_basket"}},"type":"Feature"},
	{"geometry":{"coordinates":[-0.563239,44.835416],"type":"Point"},"properties":{"osm_id":"3393862110","tag":{"amenity":"waste_basket"}},"type":"Feature"},
	{"geometry":{"coordinates":[-0.563326,44.835481],"type":"Point"},"properties":{"osm_id":"3393862111","tag":{"amenity":"waste_basket"}},"type":"Feature"},
	{"geometry":{"coordinates":[-0.563222,44.835209],"type":"Point"},"properties":{"osm_id":"3393863503","tag":{"amenity":"waste_basket"}},"type":"Feature"},
	{"geometry":{"coordinates":[-0.563092,44.835505],"type":"Point"},"properties":{"osm_id":"3393863913","tag":{"amenity":"waste_basket"}},"type":"Feature"},
	{"geometry":{"coordinates":[-0.531596,44.836901],"type":"Point"},"properties":{"osm_id":"3499005477","tag":{"amenity":"waste_basket"}},"type":"Feature"},
	{"geometry":{"coordinates":[-0.531733,44.837278],"type":"Point"},"properties":{"osm_id":"3499005732","tag":{"amenity":"waste_basket"}},"type":"Feature"},
	{"geometry":{"coordinates":[-0.531623,44.837378],"type":"Point"},"properties":{"osm_id":"3499008092","tag":{"amenity":"waste_basket"}},"type":"Feature"},
	{"geometry":{"coordinates":[-0.530933,44.836775],"type":"Point"},"properties":{"osm_id":"3499023365","tag":{"amenity":"waste_basket"}},"type":"Feature"},
	{"geometry":{"coordinates":[-0.531853,44.837625],"type":"Point"},"properties":{"osm_id":"3499033433","tag":{"amenity":"waste_basket"}},"type":"Feature"},
	{"geometry":{"coordinates":[-0.53144,44.837631],"type":"Point"},"properties":{"osm_id":"3499036321","tag":{"amenity":"waste_basket"}},"type":"Feature"},
	{"geometry":{"coordinates":[-0.531689,44.837327],"type":"Point"},"properties":{"osm_id":"3499093321","tag":{"amenity":"waste_basket"}},"type":"Feature"},
	{"geometry":{"coordinates":[-0.603494,44.834712],"type":"Point"},"properties":{"osm_id":"3515842766","tag":{"amenity":"recycling","location":"overground","mapillary":"jIxgnUqOFsubKsZcHnlhcQ","operator":"Le Relais","recycling:clothes":"yes","recycling_type":"container","survey:date":"2018-04-27"}},"type":"Feature"},
	{"geometry":{"coordinates":[-0.590571,44.808756],"type":"Point"},"properties":{"osm_id":"3529925369","tag":{"amenity":"waste_basket"}},"type":"Feature"},
	{"geometry":{"coordinates":[-0.590126,44.808113],"type":"Point"},"properties":{"osm_id":"3529991681","tag":{"amenity":"waste_basket"}},"type":"Feature"},
	{"geometry":{"coordinates":[-0.590094,44.808474],"type":"Point"},"properties":{"osm_id":"3529993539","tag":{"amenity":"waste_basket"}},"type":"Feature"},
	{"geometry":{"coordinates":[-0.590559,44.808254],"type":"Point"},"properties":{"osm_id":"3530008614","tag":{"amenity":"waste_basket"}},"type":"Feature"},
	{"geometry":{"coordinates":[-0.590351,44.808243],"type":"Point"},"properties":{"osm_id":"3530008615","tag":{"amenity":"waste_basket"}},"type":"Feature"},
	{"geometry":{"coordinates":[-0.590175,44.808781],"type":"Point"},"properties":{"osm_id":"3530022467","tag":{"amenity":"waste_basket"}},"type":"Feature"},
	{"geometry":{"coordinates":[-0.590072,44.808721],"type":"Point"},"properties":{"osm_id":"3530022487","tag":{"amenity":"waste_basket"}},"type":"Feature"},
	{"geometry":{"coordinates":[-0.590224,44.808095],"type":"Point"},"properties":{"osm_id":"3530033962","tag":{"amenity":"waste_basket"}},"type":"Feature"},
	{"geometry":{"coordinates":[-0.589875,44.809496],"type":"Point"},"properties":{"osm_id":"3530114977","tag":{"amenity":"waste_basket"}},"type":"Feature"},
	{"geometry":{"coordinates":[-0.589602,44.809502],"type":"Point"},"properties":{"osm_id":"3530120695","tag":{"amenity":"waste_basket"}},"type":"Feature"},
	{"geometry":{"coordinates":[-0.589251,44.809056],"type":"Point"},"properties":{"osm_id":"3530131845","tag":{"amenity":"waste_basket"}},"type":"Feature"},
	{"geometry":{"coordinates":[-0.590212,44.809071],"type":"Point"},"properties":{"osm_id":"3530136979","tag":{"amenity":"waste_basket"}},"type":"Feature"},
	{"geometry":{"coordinates":[-0.609213,44.837917],"type":"Point"},"properties":{"osm_id":"3628503205","tag":{"amenity":"recycling","operator":"AMOS ","recycling:clothes":"yes","recycling_type":"container"}},"type":"Feature"},
	{"geometry":{"coordinates":[-0.590309,44.817193],"type":"Point"},"properties":{"osm_id":"3639232479","tag":{"amenity":"recycling","recycling:cans":"no","recycling:clothes":"no","recycling:glass_bottles":"yes","recycling:paper":"no","recycling_type":"container","ref:FR:CUB":"TA39"}},"type":"Feature"},
	{"geometry":{"coordinates":[-0.577245,44.822836],"type":"Point"},"properties":{"osm_id":"3645611564","tag":{"amenity":"recycling","operator":"Le Relais","recycling:clothes":"yes","recycling:shoes":"yes","recycling_type":"container"}},"type":"Feature"},
	{"geometry":{"coordinates":[-0.598661,44.835617],"type":"Point"},"properties":{"osm_id":"3678636276","tag":{"amenity":"recycling","operator":"Le Relais","recycling:clothes":"yes","recycling_type":"container","survey:date":"2017-12-08"}},"type":"Feature"},
	{"geometry":{"coordinates":[-0.594547,44.833683],"type":"Point"},"properties":{"osm_id":"3683620362","tag":{"amenity":"recycling","operator":"Le Relais","recycling:clothes":"yes","recycling_type":"container"}},"type":"Feature"},
	{"geometry":{"coordinates":[-0.598712,44.835268],"type":"Point"},"properties":{"osm_id":"3683621042","tag":{"amenity":"recycling","recycling:glass_bottles":"yes","recycling_type":"container","ref:FR:CUB":"BX96","survey:date":"2017-12-08"}},"type":"Feature"},
	{"geometry":{"coordinates":[-0.607286,44.839821],"type":"Point"},"properties":{"osm_id":"3761296058","tag":{"amenity":"recycling","mapillary":"cryBeWewV_q1ToSKVdZ-LA","recycling:glass_bottles":"yes","recycling_type":"container","ref:FR:CUB":"BC23"}},"type":"Feature"},
	{"geometry":{"coordinates":[-0.566389,44.809669],"type":"Point"},"properties":{"osm_id":"3781971109","tag":{"amenity":"recycling","location":"overground","recycling:clothes":"yes","recycling_type":"container"}},"type":"Feature"},
	{"geometry":{"coordinates":[-0.598047,44.836562],"type":"Point"},"properties":{"osm_id":"3789384712","tag":{"amenity":"recycling","operator":"Bordeaux m\u00c3\u00a9tropole","recycling:glass_bottles":"yes","recycling_type":"container","ref:FR:CUB":"BX18"}},"type":"Feature"},
	{"geometry":{"coordinates":[-0.543259,44.799431],"type":"Point"},"properties":{"osm_id":"3878527132","tag":{"amenity":"recycling","recycling:glass_bottles":"yes","recycling_type":"container","ref:FR:CUB":"BE01"}},"type":"Feature"},
	{"geometry":{"coordinates":[-0.545119,44.798872],"type":"Point"},"properties":{"osm_id":"3878638460","tag":{"amenity":"recycling","recycling:glass_bottles":"yes","recycling_type":"container","ref:FR:CUB":"BE31"}},"type":"Feature"},
	{"geometry":{"coordinates":[-0.548578,44.802866],"type":"Point"},"properties":{"osm_id":"3878638476","tag":{"amenity":"recycling","recycling:glass_bottles":"yes","recycling_type":"container","ref:FR:CUB":"BE29"}},"type":"Feature"},
	{"geometry":{"coordinates":[-0.598746,44.823836],"type":"Point"},"properties":{"osm_id":"3998717897","tag":{"amenity":"recycling","operator":"AMOS","recycling:clothes":"yes","recycling_type":"container"}},"type":"Feature"},
	{"geometry":{"coordinates":[-0.60934,44.837641],"type":"Point"},"properties":{"osm_id":"3998792157","tag":{"amenity":"recycling","operator":"AMOS","recycling:clothes":"yes","recycling_type":"centre"}},"type":"Feature"},
	{"geometry":{"coordinates":[-0.586497,44.8364],"type":"Point"},"properties":{"osm_id":"4014198542","tag":{"amenity":"recycling","operator":"Le Relais","recycling:cans":"no","recycling:clothes":"yes","recycling:glass":"no","recycling:glass_bottles":"no","recycling:paper":"no","recycling_type":"container"}},"type":"Feature"},
	{"geometry":{"coordinates":[-0.585777,44.835074],"type":"Point"},"properties":{"osm_id":"4015130092","tag":{"amenity":"recycling","operator":"Bordeaux M\u00c3\u00a9tropole","recycling:glass_bottles":"yes","recycling_type":"container","ref:FR:CUB":"BX101"}},"type":"Feature"},
	{"geometry":{"coordinates":[-0.585793,44.835069],"type":"Point"},"properties":{"osm_id":"4015139890","tag":{"amenity":"recycling","operator":"Le Relais","recycling:clothes":"yes","recycling_type":"container"}},"type":"Feature"},
	{"geometry":{"coordinates":[-0.554453,44.809091],"type":"Point"},"properties":{"osm_id":"4018010752","tag":{"amenity":"recycling","capacity":"2","operator":"CUB","recycling:glass_bottles":"yes","recycling_type":"container","ref:FR:CUB":"BE28"}},"type":"Feature"},
	{"geometry":{"coordinates":[-0.611377,44.796087],"type":"Point"},"properties":{"osm_id":"4048237428","tag":{"amenity":"recycling","recycling:organic":"yes","recycling_type":"container"}},"type":"Feature"},
	{"geometry":{"coordinates":[-0.528838,44.817865],"type":"Point"},"properties":{"osm_id":"4052723489","tag":{"amenity":"recycling","operator":"Le Relais","recycling:clothes":"yes","recycling_type":"container"}},"type":"Feature"},
	{"geometry":{"coordinates":[-0.544993,44.831083],"type":"Point"},"properties":{"osm_id":"4157625300","tag":{"amenity":"recycling","glass":"yes","recycling_type":"centre","waste":"container"}},"type":"Feature"},
	{"geometry":{"coordinates":[-0.546308,44.838823],"type":"Point"},"properties":{"osm_id":"4165957300","tag":{"amenity":"recycling","glass":"yes","recycling:glass_bottles":"yes","recycling_type":"container","ref:FR:CUB":"BB24"}},"type":"Feature"},
	{"geometry":{"coordinates":[-0.555119,44.813622],"type":"Point"},"properties":{"osm_id":"4165970390","tag":{"amenity":"recycling","clothes":"yes","recycling:glass_bottles":"yes","recycling_type":"container","ref:FR:CUB":"BE36"}},"type":"Feature"},
	{"geometry":{"coordinates":[-0.544598,44.819103],"type":"Point"},"properties":{"osm_id":"4166010090","tag":{"amenity":"recycling","clothes":"yes","glass":"yes","recycling:glass_bottles":"yes","recycling_type":"container","ref:FR:CUB":"BX139"}},"type":"Feature"},
	{"geometry":{"coordinates":[-0.571287,44.814626],"type":"Point"},"properties":{"osm_id":"4166012491","tag":{"amenity":"recycling","clothes":"yes","glass":"yes","recycling_type":"container"}},"type":"Feature"},
	{"geometry":{"coordinates":[-0.547189,44.817863],"type":"Point"},"properties":{"osm_id":"4166032189","tag":{"amenity":"recycling","clothes":"yes","recycling_type":"container"}},"type":"Feature"},
	{"geometry":{"coordinates":[-0.558927,44.812564],"type":"Point"},"properties":{"osm_id":"4166035689","tag":{"amenity":"recycling","glass":"yes","recycling:glass_bottles":"yes","recycling_type":"container","ref:FR:CUB":"BX145"}},"type":"Feature"},
	{"geometry":{"coordinates":[-0.584094,44.787118],"type":"Point"},"properties":{"osm_id":"4176831049","tag":{"amenity":"recycling","recycling:glass_bottles":"yes","recycling_type":"container","ref:FR:CUB":"VO55"}},"type":"Feature"},
	{"geometry":{"coordinates":[-0.564055,44.785919],"type":"Point"},"properties":{"osm_id":"4201718535","tag":{"amenity":"recycling","recycling_type":"container"}},"type":"Feature"},
	{"geometry":{"coordinates":[-0.563739,44.786],"type":"Point"},"properties":{"osm_id":"4201764489","tag":{"amenity":"recycling","recycling_type":"container"}},"type":"Feature"},
	{"geometry":{"coordinates":[-0.562914,44.785002],"type":"Point"},"properties":{"osm_id":"4201765289","tag":{"amenity":"recycling","recycling_type":"container"}},"type":"Feature"},
	{"geometry":{"coordinates":[-0.559197,44.793047],"type":"Point"},"properties":{"osm_id":"4214961886","tag":{"amenity":"waste_basket"}},"type":"Feature"},
	{"geometry":{"coordinates":[-0.559403,44.793055],"type":"Point"},"properties":{"osm_id":"4214961887","tag":{"amenity":"waste_basket"}},"type":"Feature"},
	{"geometry":{"coordinates":[-0.558501,44.794649],"type":"Point"},"properties":{"osm_id":"4214961888","tag":{"amenity":"waste_basket"}},"type":"Feature"},
	{"geometry":{"coordinates":[-0.558519,44.794798],"type":"Point"},"properties":{"osm_id":"4214962089","tag":{"amenity":"waste_basket"}},"type":"Feature"},
	{"geometry":{"coordinates":[-0.577201,44.82459],"type":"Point"},"properties":{"osm_id":"4267710184","tag":{"amenity":"waste_basket"}},"type":"Feature"},
	{"geometry":{"coordinates":[-0.577392,44.824657],"type":"Point"},"properties":{"osm_id":"4267710185","tag":{"amenity":"waste_basket"}},"type":"Feature"},
	{"geometry":{"coordinates":[-0.577289,44.824717],"type":"Point"},"properties":{"osm_id":"4267710186","tag":{"amenity":"waste_basket"}},"type":"Feature"},
	{"geometry":{"coordinates":[-0.576956,44.824819],"type":"Point"},"properties":{"osm_id":"4267711289","tag":{"amenity":"waste_basket"}},"type":"Feature"},
	{"geometry":{"coordinates":[-0.577146,44.824844],"type":"Point"},"properties":{"osm_id":"4267711291","tag":{"amenity":"waste_basket"}},"type":"Feature"},
	{"geometry":{"coordinates":[-0.576922,44.825066],"type":"Point"},"properties":{"osm_id":"4267711295","tag":{"amenity":"waste_basket"}},"type":"Feature"},
	{"geometry":{"coordinates":[-0.582699,44.824787],"type":"Point"},"properties":{"osm_id":"4267764649","tag":{"amenity":"recycling","image":"http://storage5.openstreetcam.org/files/photo/2017/9/8/lth/582999_bbf97_8.jpg","location":"overground","operator":"Bordeaux M\u00c3\u00a9tropole","recycling:glass_bottles":"yes","recycling_type":"container","ref:FR:CUB":"BX112","survey:date":"2017-09-08"}},"type":"Feature"},
	{"geometry":{"coordinates":[-0.572658,44.823536],"type":"Point"},"properties":{"osm_id":"4268489780","tag":{"amenity":"recycling","operator":"Le Relais","recycling:clothes":"yes","recycling:shoes":"yes","recycling_type":"container"}},"type":"Feature"},
	{"geometry":{"coordinates":[-0.578575,44.835177],"type":"Point"},"properties":{"osm_id":"4278382824","tag":{"amenity":"recycling","recycling:glass_bottles":"yes","recycling_type":"container","ref:FR:CUB":"BX39"}},"type":"Feature"},
	{"geometry":{"coordinates":[-0.578612,44.835174],"type":"Point"},"properties":{"osm_id":"4278927408","tag":{"amenity":"recycling","recycling:clothes":"yes","recycling:glass_bottles":"yes","recycling_type":"container","ref:FR:CUB":"BX39"}},"type":"Feature"},
	{"geometry":{"coordinates":[-0.561118,44.811673],"type":"Point"},"properties":{"osm_id":"4290220389","tag":{"amenity":"recycling","recycling:glass_bottles":"yes","recycling_type":"container","ref:FR:CUB":"BE33"}},"type":"Feature"},
	{"geometry":{"coordinates":[-0.602565,44.791984],"type":"Point"},"properties":{"osm_id":"4301203351","tag":{"amenity":"recycling","recycling:glass_bottles":"yes","recycling_type":"container","ref:FR:CUB":"TA26"}},"type":"Feature"},
	{"geometry":{"coordinates":[-0.572656,44.83702],"type":"Point"},"properties":{"osm_id":"4312280490","tag":{"amenity":"recycling","recycling:glass_bottles":"yes","recycling_type":"container","ref:FR:CUB":"BX 26"}},"type":"Feature"},
	{"geometry":{"coordinates":[-0.572362,44.834902],"type":"Point"},"properties":{"osm_id":"4312285389","tag":{"amenity":"recycling","location":"underground","recycling:glass_bottles":"yes","recycling_type":"container","ref:FR:CUB":"BX20"}},"type":"Feature"},
	{"geometry":{"coordinates":[-0.608712,44.779573],"type":"Point"},"properties":{"osm_id":"4313082975","tag":{"amenity":"recycling","recycling:glass_bottles":"yes","recycling_type":"container","ref:FR:CUB":"GR02"}},"type":"Feature"},
	{"geometry":{"coordinates":[-0.578994,44.838323],"type":"Point"},"properties":{"osm_id":"4357177401","tag":{"amenity":"recycling","recycling:glass_bottles":"yes","recycling_type":"container","ref:FR:CUB":"BX09"}},"type":"Feature"},
	{"geometry":{"coordinates":[-0.612903,44.795647],"type":"Point"},"properties":{"osm_id":"4436238791","tag":{"amenity":"waste_basket"}},"type":"Feature"},
	{"geometry":{"coordinates":[-0.613995,44.796102],"type":"Point"},"properties":{"osm_id":"4436269489","tag":{"amenity":"waste_basket"}},"type":"Feature"},
	{"geometry":{"coordinates":[-0.614816,44.796511],"type":"Point"},"properties":{"osm_id":"4436381210","tag":{"amenity":"waste_disposal"}},"type":"Feature"},
	{"geometry":{"coordinates":[-0.614071,44.796459],"type":"Point"},"properties":{"osm_id":"4436381211","tag":{"amenity":"waste_basket"}},"type":"Feature"},
	{"geometry":{"coordinates":[-0.613923,44.796451],"type":"Point"},"properties":{"osm_id":"4436381212","tag":{"amenity":"waste_basket"}},"type":"Feature"},
	{"geometry":{"coordinates":[-0.599331,44.809639],"type":"Point"},"properties":{"osm_id":"4445354737","tag":{"amenity":"waste_basket"}},"type":"Feature"},
	{"geometry":{"coordinates":[-0.599689,44.807975],"type":"Point"},"properties":{"osm_id":"4445417025","tag":{"amenity":"waste_basket","description":"Cendrier"}},"type":"Feature"},
	{"geometry":{"coordinates":[-0.595077,44.808257],"type":"Point"},"properties":{"osm_id":"4445440053","tag":{"amenity":"waste_basket"}},"type":"Feature"},
	{"geometry":{"coordinates":[-0.596604,44.808154],"type":"Point"},"properties":{"osm_id":"4445470713","tag":{"amenity":"waste_disposal"}},"type":"Feature"},
	{"geometry":{"coordinates":[-0.596395,44.809803],"type":"Point"},"properties":{"osm_id":"4445569833","tag":{"amenity":"waste_basket"}},"type":"Feature"},
	{"geometry":{"coordinates":[-0.613547,44.797619],"type":"Point"},"properties":{"osm_id":"4446185844","tag":{"amenity":"waste_basket"}},"type":"Feature"},
	{"geometry":{"coordinates":[-0.614158,44.797117],"type":"Point"},"properties":{"osm_id":"4446189590","tag":{"amenity":"waste_basket"}},"type":"Feature"},
	{"geometry":{"coordinates":[-0.603417,44.805457],"type":"Point"},"properties":{"osm_id":"4446233799","tag":{"amenity":"waste_basket"}},"type":"Feature"},
	{"geometry":{"coordinates":[-0.602663,44.806254],"type":"Point"},"properties":{"osm_id":"4446245541","tag":{"amenity":"waste_basket"}},"type":"Feature"},
	{"geometry":{"coordinates":[-0.60291,44.806178],"type":"Point"},"properties":{"osm_id":"4446245542","tag":{"amenity":"waste_basket"}},"type":"Feature"},
	{"geometry":{"coordinates":[-0.603237,44.806106],"type":"Point"},"properties":{"osm_id":"4446245543","tag":{"amenity":"waste_basket"}},"type":"Feature"},
	{"geometry":{"coordinates":[-0.60251,44.805997],"type":"Point"},"properties":{"osm_id":"4446245544","tag":{"amenity":"waste_basket"}},"type":"Feature"},
	{"geometry":{"coordinates":[-0.602397,44.806028],"type":"Point"},"properties":{"osm_id":"4446245545","tag":{"amenity":"waste_basket"}},"type":"Feature"},
	{"geometry":{"coordinates":[-0.60222,44.806075],"type":"Point"},"properties":{"osm_id":"4446245546","tag":{"amenity":"waste_basket"}},"type":"Feature"},
	{"geometry":{"coordinates":[-0.602467,44.805911],"type":"Point"},"properties":{"osm_id":"4446245859","tag":{"amenity":"waste_basket"}},"type":"Feature"},
	{"geometry":{"coordinates":[-0.602346,44.805953],"type":"Point"},"properties":{"osm_id":"4446245860","tag":{"amenity":"waste_basket"}},"type":"Feature"},
	{"geometry":{"coordinates":[-0.602167,44.806005],"type":"Point"},"properties":{"osm_id":"4446245861","tag":{"amenity":"waste_basket"}},"type":"Feature"},
	{"geometry":{"coordinates":[-0.605548,44.800315],"type":"Point"},"properties":{"osm_id":"4446249701","tag":{"amenity":"recycling","recycling:glass_bottles":"yes","recycling:plastic":"yes","recycling:waste":"yes","recycling_type":"container"}},"type":"Feature"},
	{"geometry":{"coordinates":[-0.598863,44.805866],"type":"Point"},"properties":{"osm_id":"4446278208","tag":{"amenity":"waste_basket"}},"type":"Feature"},
	{"geometry":{"coordinates":[-0.59905,44.807052],"type":"Point"},"properties":{"osm_id":"4446291932","tag":{"amenity":"waste_basket"}},"type":"Feature"},
	{"geometry":{"coordinates":[-0.59846,44.806418],"type":"Point"},"properties":{"osm_id":"4446291936","tag":{"amenity":"waste_basket"}},"type":"Feature"},
	{"geometry":{"coordinates":[-0.599839,44.806865],"type":"Point"},"properties":{"osm_id":"4446291937","tag":{"amenity":"waste_basket"}},"type":"Feature"},
	{"geometry":{"coordinates":[-0.606726,44.803631],"type":"Point"},"properties":{"osm_id":"4446309149","tag":{"amenity":"waste_basket"}},"type":"Feature"},
	{"geometry":{"coordinates":[-0.606806,44.803507],"type":"Point"},"properties":{"osm_id":"4446309150","tag":{"amenity":"waste_basket"}},"type":"Feature"},
	{"geometry":{"coordinates":[-0.606604,44.80359],"type":"Point"},"properties":{"osm_id":"4446309151","tag":{"amenity":"waste_basket"}},"type":"Feature"},
	{"geometry":{"coordinates":[-0.606689,44.803471],"type":"Point"},"properties":{"osm_id":"4446309152","tag":{"amenity":"waste_basket"}},"type":"Feature"},
	{"geometry":{"coordinates":[-0.609758,44.800259],"type":"Point"},"properties":{"osm_id":"4446311926","tag":{"amenity":"waste_basket"}},"type":"Feature"},
	{"geometry":{"coordinates":[-0.609665,44.800195],"type":"Point"},"properties":{"osm_id":"4446311927","tag":{"amenity":"waste_basket"}},"type":"Feature"},
	{"geometry":{"coordinates":[-0.609623,44.800356],"type":"Point"},"properties":{"osm_id":"4446311928","tag":{"amenity":"waste_basket"}},"type":"Feature"},
	{"geometry":{"coordinates":[-0.60952,44.800297],"type":"Point"},"properties":{"osm_id":"4446311929","tag":{"amenity":"waste_basket"}},"type":"Feature"},
	{"geometry":{"coordinates":[-0.600462,44.811942],"type":"Point"},"properties":{"osm_id":"4447836470","tag":{"amenity":"waste_basket"}},"type":"Feature"},
	{"geometry":{"coordinates":[-0.600658,44.812313],"type":"Point"},"properties":{"osm_id":"4447836471","tag":{"amenity":"waste_basket"}},"type":"Feature"},
	{"geometry":{"coordinates":[-0.596431,44.830232],"type":"Point"},"properties":{"osm_id":"4451781290","tag":{"amenity":"recycling","recycling:glass_bottles":"yes","recycling_type":"container","ref:FR:CUB":"BX98"}},"type":"Feature"},
	{"geometry":{"coordinates":[-0.591139,44.826469],"type":"Point"},"properties":{"osm_id":"4460518092","tag":{"amenity":"recycling","recycling:glass_bottles":"yes","recycling_type":"container","ref:FR:CUB":"BX109"}},"type":"Feature"},
	{"geometry":{"coordinates":[-0.591413,44.826629],"type":"Point"},"properties":{"osm_id":"4460527590","tag":{"amenity":"recycling","recycling:clothes":"yes","recycling:glass_bottles":"yes","recycling_type":"container","ref:FR:CUB":"BX109"}},"type":"Feature"},
	{"geometry":{"coordinates":[-0.600409,44.833448],"type":"Point"},"properties":{"osm_id":"4460531790","tag":{"amenity":"recycling","recycling:glass_bottles":"yes","recycling_type":"container","ref:FR:CUB":"BS05"}},"type":"Feature"},
	{"geometry":{"coordinates":[-0.562786,44.822245],"type":"Point"},"properties":{"osm_id":"4465920245","tag":{"amenity":"recycling","description":"Bac \u00c3\u00a0 verre","recycling:glass_bottles":"yes","recycling_type":"container","ref:FR:CUB":"BX130"}},"type":"Feature"},
	{"geometry":{"coordinates":[-0.562872,44.82224],"type":"Point"},"properties":{"osm_id":"4465920246","tag":{"amenity":"recycling","description":"Bac \u00c3\u00a0 v\u00c3\u00aatements usag\u00c3\u00a9s","operator":"Le Refuge","recycling:clothes":"yes","recycling_type":"container"}},"type":"Feature"},
	{"geometry":{"coordinates":[-0.572779,44.836836],"type":"Point"},"properties":{"osm_id":"4549412820","tag":{"amenity":"recycling","recycling:glass_bottles":"yes","recycling_type":"container","ref:FR:CUB":"BX 26"}},"type":"Feature"},
	{"geometry":{"coordinates":[-0.610724,44.822693],"type":"Point"},"properties":{"osm_id":"4558562512","tag":{"amenity":"recycling","recycling:clothes":"yes","recycling:glass":"yes","recycling:glass_bottles":"yes","recycling_type":"container","ref:FR:CUB":"BS10"}},"type":"Feature"},
	{"geometry":{"coordinates":[-0.574868,44.823319],"type":"Point"},"properties":{"osm_id":"4563550913","tag":{"amenity":"recycling","recycling:glass_bottles":"yes","recycling_type":"container","ref:FR:CUB":"BX14"}},"type":"Feature"},
	{"geometry":{"coordinates":[-0.60325,44.829458],"type":"Point"},"properties":{"osm_id":"4570310067","tag":{"amenity":"waste_basket"}},"type":"Feature"},
	{"geometry":{"coordinates":[-0.575345,44.825498],"type":"Point"},"properties":{"osm_id":"4581189996","tag":{"amenity":"waste_basket"}},"type":"Feature"},
	{"geometry":{"coordinates":[-0.561969,44.79392],"type":"Point"},"properties":{"osm_id":"4615935493","tag":{"amenity":"recycling","operator":"Le Relais","recycling:clothes":"yes","recycling_type":"container","source:date":"2016"}},"type":"Feature"},
	{"geometry":{"coordinates":[-0.577179,44.830904],"type":"Point"},"properties":{"osm_id":"4637409790","tag":{"amenity":"waste_basket"}},"type":"Feature"},
	{"geometry":{"coordinates":[-0.575151,44.831052],"type":"Point"},"properties":{"osm_id":"4637417594","tag":{"amenity":"waste_basket"}},"type":"Feature"},
	{"geometry":{"coordinates":[-0.581754,44.829561],"type":"Point"},"properties":{"osm_id":"4637436391","tag":{"amenity":"waste_basket"}},"type":"Feature"},
	{"geometry":{"coordinates":[-0.581391,44.83068],"type":"Point"},"properties":{"osm_id":"4637436997","tag":{"amenity":"waste_basket"}},"type":"Feature"},
	{"geometry":{"coordinates":[-0.583562,44.828574],"type":"Point"},"properties":{"osm_id":"4637438090","tag":{"amenity":"waste_basket"}},"type":"Feature"},
	{"geometry":{"coordinates":[-0.578084,44.830701],"type":"Point"},"properties":{"osm_id":"4637454989","tag":{"amenity":"waste_basket"}},"type":"Feature"},
	{"geometry":{"coordinates":[-0.581421,44.831534],"type":"Point"},"properties":{"osm_id":"4637454990","tag":{"amenity":"waste_basket"}},"type":"Feature"},
	{"geometry":{"coordinates":[-0.578471,44.830819],"type":"Point"},"properties":{"osm_id":"4637455089","tag":{"amenity":"waste_basket"}},"type":"Feature"},
	{"geometry":{"coordinates":[-0.580759,44.830011],"type":"Point"},"properties":{"osm_id":"4637455489","tag":{"amenity":"waste_basket"}},"type":"Feature"},
	{"geometry":{"coordinates":[-0.581167,44.829979],"type":"Point"},"properties":{"osm_id":"4637455789","tag":{"amenity":"waste_basket"}},"type":"Feature"},
	{"geometry":{"coordinates":[-0.581658,44.83031],"type":"Point"},"properties":{"osm_id":"4637468989","tag":{"amenity":"waste_basket"}},"type":"Feature"},
	{"geometry":{"coordinates":[-0.59914,44.840155],"type":"Point"},"properties":{"osm_id":"4637802590","tag":{"amenity":"waste_basket"}},"type":"Feature"},
	{"geometry":{"coordinates":[-0.586867,44.823705],"type":"Point"},"properties":{"osm_id":"4637832790","tag":{"amenity":"waste_basket"}},"type":"Feature"},
	{"geometry":{"coordinates":[-0.599342,44.839626],"type":"Point"},"properties":{"osm_id":"4637833290","tag":{"amenity":"waste_basket"}},"type":"Feature"},
	{"geometry":{"coordinates":[-0.587129,44.824083],"type":"Point"},"properties":{"osm_id":"4637908290","tag":{"amenity":"waste_basket"}},"type":"Feature"},
	{"geometry":{"coordinates":[-0.572179,44.81675],"type":"Point"},"properties":{"osm_id":"4638124789","tag":{"amenity":"waste_basket"}},"type":"Feature"},
	{"geometry":{"coordinates":[-0.610704,44.787854],"type":"Point"},"properties":{"osm_id":"4678841789","tag":{"amenity":"recycling","recycling:clothes":"yes","recycling_type":"container"}},"type":"Feature"},
	{"geometry":{"coordinates":[-0.607032,44.78404],"type":"Point"},"properties":{"osm_id":"4678864664","tag":{"amenity":"recycling","recycling:glass_bottles":"yes","recycling_type":"container","ref:FR:CUB":"GR20"}},"type":"Feature"},
	{"geometry":{"coordinates":[-0.573338,44.831127],"type":"Point"},"properties":{"osm_id":"4694935889","tag":{"amenity":"recycling","recycling:glass_bottles":"yes","recycling_type":"container","ref:FR:CUB":"BX08"}},"type":"Feature"},
	{"geometry":{"coordinates":[-0.551384,44.811634],"type":"Point"},"properties":{"osm_id":"4694974089","tag":{"amenity":"recycling","location":"underground","recycling_type":"container"}},"type":"Feature"},
	{"geometry":{"coordinates":[-0.551682,44.81026],"type":"Point"},"properties":{"osm_id":"4694976089","tag":{"amenity":"recycling","recycling:glass_bottles":"yes","recycling_type":"container","ref:FR:CUB":"BE37"}},"type":"Feature"},
	{"geometry":{"coordinates":[-0.607589,44.808327],"type":"Point"},"properties":{"osm_id":"4699174192","tag":{"amenity":"waste_basket"}},"type":"Feature"},
	{"geometry":{"coordinates":[-0.604028,44.801482],"type":"Point"},"properties":{"osm_id":"4699185341","tag":{"amenity":"waste_basket"}},"type":"Feature"},
	{"geometry":{"coordinates":[-0.607632,44.80036],"type":"Point"},"properties":{"osm_id":"4699205435","tag":{"amenity":"waste_basket"}},"type":"Feature"},
	{"geometry":{"coordinates":[-0.602128,44.781719],"type":"Point"},"properties":{"osm_id":"4701595362","tag":{"amenity":"recycling","recycling:glass_bottles":"yes","recycling_type":"container","ref:FR:CUB":"GR26"}},"type":"Feature"},
	{"geometry":{"coordinates":[-0.604013,44.778747],"type":"Point"},"properties":{"osm_id":"4711971286","tag":{"amenity":"waste_basket"}},"type":"Feature"},
	{"geometry":{"coordinates":[-0.603766,44.778931],"type":"Point"},"properties":{"osm_id":"4711971489","tag":{"amenity":"waste_basket"}},"type":"Feature"},
	{"geometry":{"coordinates":[-0.58403,44.808623],"type":"Point"},"properties":{"osm_id":"4713369277","tag":{"amenity":"waste_basket"}},"type":"Feature"},
	{"geometry":{"coordinates":[-0.583307,44.808569],"type":"Point"},"properties":{"osm_id":"4713369279","tag":{"amenity":"waste_basket"}},"type":"Feature"},
	{"geometry":{"coordinates":[-0.584493,44.807544],"type":"Point"},"properties":{"osm_id":"4713378780","tag":{"amenity":"waste_basket"}},"type":"Feature"},
	{"geometry":{"coordinates":[-0.584789,44.807532],"type":"Point"},"properties":{"osm_id":"4713378989","tag":{"amenity":"waste_basket"}},"type":"Feature"},
	{"geometry":{"coordinates":[-0.585068,44.807923],"type":"Point"},"properties":{"osm_id":"4713378998","tag":{"amenity":"waste_basket"}},"type":"Feature"},
	{"geometry":{"coordinates":[-0.586544,44.80597],"type":"Point"},"properties":{"osm_id":"4713415572","tag":{"amenity":"waste_basket"}},"type":"Feature"},
	{"geometry":{"coordinates":[-0.586414,44.805767],"type":"Point"},"properties":{"osm_id":"4713415573","tag":{"amenity":"waste_basket"}},"type":"Feature"},
	{"geometry":{"coordinates":[-0.586911,44.804439],"type":"Point"},"properties":{"osm_id":"4713415576","tag":{"amenity":"waste_basket"}},"type":"Feature"},
	{"geometry":{"coordinates":[-0.591118,44.798848],"type":"Point"},"properties":{"osm_id":"4713415582","tag":{"amenity":"waste_basket"}},"type":"Feature"},
	{"geometry":{"coordinates":[-0.592458,44.798977],"type":"Point"},"properties":{"osm_id":"4713415586","tag":{"amenity":"waste_basket"}},"type":"Feature"},
	{"geometry":{"coordinates":[-0.59354,44.801397],"type":"Point"},"properties":{"osm_id":"4713415588","tag":{"amenity":"waste_basket"}},"type":"Feature"},
	{"geometry":{"coordinates":[-0.593666,44.801818],"type":"Point"},"properties":{"osm_id":"4713418489","tag":{"amenity":"waste_basket"}},"type":"Feature"},
	{"geometry":{"coordinates":[-0.59374,44.802149],"type":"Point"},"properties":{"osm_id":"4713418491","tag":{"amenity":"waste_basket"}},"type":"Feature"},
	{"geometry":{"coordinates":[-0.593651,44.802363],"type":"Point"},"properties":{"osm_id":"4713418492","tag":{"amenity":"waste_basket"}},"type":"Feature"},
	{"geometry":{"coordinates":[-0.593533,44.802635],"type":"Point"},"properties":{"osm_id":"4713418493","tag":{"amenity":"waste_basket"}},"type":"Feature"},
	{"geometry":{"coordinates":[-0.594967,44.81818],"type":"Point"},"properties":{"osm_id":"4715194885","tag":{"amenity":"waste_basket"}},"type":"Feature"},
	{"geometry":{"coordinates":[-0.594721,44.81832],"type":"Point"},"properties":{"osm_id":"4715194886","tag":{"amenity":"waste_basket"}},"type":"Feature"},
	{"geometry":{"coordinates":[-0.594368,44.818464],"type":"Point"},"properties":{"osm_id":"4715194887","tag":{"amenity":"waste_basket"}},"type":"Feature"},
	{"geometry":{"coordinates":[-0.591648,44.8137],"type":"Point"},"properties":{"osm_id":"4715237871","tag":{"amenity":"waste_basket"}},"type":"Feature"},
	{"geometry":{"coordinates":[-0.591127,44.81353],"type":"Point"},"properties":{"osm_id":"4715237877","tag":{"amenity":"waste_basket"}},"type":"Feature"},
	{"geometry":{"coordinates":[-0.591036,44.813311],"type":"Point"},"properties":{"osm_id":"4715237879","tag":{"amenity":"waste_basket"}},"type":"Feature"},
	{"geometry":{"coordinates":[-0.590706,44.813272],"type":"Point"},"properties":{"osm_id":"4715237880","tag":{"amenity":"waste_basket"}},"type":"Feature"},
	{"geometry":{"coordinates":[-0.591122,44.813035],"type":"Point"},"properties":{"osm_id":"4715237886","tag":{"amenity":"recycling","recycling:clothes":"yes","recycling_type":"container"}},"type":"Feature"},
	{"geometry":{"coordinates":[-0.591157,44.812277],"type":"Point"},"properties":{"osm_id":"4715237887","tag":{"amenity":"waste_basket"}},"type":"Feature"},
	{"geometry":{"coordinates":[-0.591166,44.812247],"type":"Point"},"properties":{"osm_id":"4715237888","tag":{"amenity":"waste_basket"}},"type":"Feature"},
	{"geometry":{"coordinates":[-0.591334,44.812269],"type":"Point"},"properties":{"osm_id":"4715237889","tag":{"amenity":"waste_basket"}},"type":"Feature"},
	{"geometry":{"coordinates":[-0.591322,44.812301],"type":"Point"},"properties":{"osm_id":"4715237890","tag":{"amenity":"waste_basket"}},"type":"Feature"},
	{"geometry":{"coordinates":[-0.591587,44.812151],"type":"Point"},"properties":{"osm_id":"4715237891","tag":{"amenity":"waste_basket"}},"type":"Feature"},
	{"geometry":{"coordinates":[-0.591683,44.812094],"type":"Point"},"properties":{"osm_id":"4715237892","tag":{"amenity":"waste_basket"}},"type":"Feature"},
	{"geometry":{"coordinates":[-0.59207,44.812028],"type":"Point"},"properties":{"osm_id":"4715237896","tag":{"amenity":"waste_basket"}},"type":"Feature"},
	{"geometry":{"coordinates":[-0.592309,44.811891],"type":"Point"},"properties":{"osm_id":"4715237897","tag":{"amenity":"waste_basket"}},"type":"Feature"},
	{"geometry":{"coordinates":[-0.592564,44.811659],"type":"Point"},"properties":{"osm_id":"4715237898","tag":{"amenity":"waste_basket"}},"type":"Feature"},
	{"geometry":{"coordinates":[-0.592749,44.811532],"type":"Point"},"properties":{"osm_id":"4715237899","tag":{"amenity":"waste_basket"}},"type":"Feature"},
	{"geometry":{"coordinates":[-0.59357,44.810861],"type":"Point"},"properties":{"osm_id":"4715237902","tag":{"amenity":"waste_basket"}},"type":"Feature"},
	{"geometry":{"coordinates":[-0.602094,44.779358],"type":"Point"},"properties":{"osm_id":"4718872437","tag":{"amenity":"recycling","recycling:clothes":"yes","recycling_type":"container"}},"type":"Feature"},
	{"geometry":{"coordinates":[-0.602533,44.779393],"type":"Point"},"properties":{"osm_id":"4718872455","tag":{"amenity":"waste_basket"}},"type":"Feature"},
	{"geometry":{"coordinates":[-0.602117,44.781885],"type":"Point"},"properties":{"osm_id":"4719996430","tag":{"amenity":"waste_basket"}},"type":"Feature"},
	{"geometry":{"coordinates":[-0.601653,44.784499],"type":"Point"},"properties":{"osm_id":"4719996432","tag":{"amenity":"waste_basket"}},"type":"Feature"},
	{"geometry":{"coordinates":[-0.591949,44.809177],"type":"Point"},"properties":{"osm_id":"4720250557","tag":{"amenity":"waste_basket"}},"type":"Feature"},
	{"geometry":{"coordinates":[-0.591109,44.80901],"type":"Point"},"properties":{"osm_id":"4720250558","tag":{"amenity":"waste_basket"}},"type":"Feature"},
	{"geometry":{"coordinates":[-0.588589,44.807841],"type":"Point"},"properties":{"osm_id":"4720250563","tag":{"amenity":"waste_basket"}},"type":"Feature"},
	{"geometry":{"coordinates":[-0.589425,44.807283],"type":"Point"},"properties":{"osm_id":"4720250564","tag":{"amenity":"recycling","recycling:glass_bottles":"yes","recycling_type":"container"}},"type":"Feature"},
	{"geometry":{"coordinates":[-0.591292,44.80745],"type":"Point"},"properties":{"osm_id":"4720250566","tag":{"amenity":"waste_basket"}},"type":"Feature"},
	{"geometry":{"coordinates":[-0.591585,44.807595],"type":"Point"},"properties":{"osm_id":"4720250567","tag":{"amenity":"waste_basket"}},"type":"Feature"},
	{"geometry":{"coordinates":[-0.598345,44.804009],"type":"Point"},"properties":{"osm_id":"4720250575","tag":{"amenity":"waste_basket","emergency":"fire_hydrant","fire_hydrant:type":"underground"}},"type":"Feature"},
	{"geometry":{"coordinates":[-0.599971,44.803488],"type":"Point"},"properties":{"osm_id":"4720250577","tag":{"amenity":"waste_basket"}},"type":"Feature"},
	{"geometry":{"coordinates":[-0.600055,44.803519],"type":"Point"},"properties":{"osm_id":"4720250578","tag":{"amenity":"recycling","recycling:glass_bottles":"yes","recycling_type":"container"}},"type":"Feature"},
	{"geometry":{"coordinates":[-0.60007,44.803546],"type":"Point"},"properties":{"osm_id":"4720250579","tag":{"amenity":"recycling","recycling:clothes":"yes","recycling_type":"container"}},"type":"Feature"},
	{"geometry":{"coordinates":[-0.600458,44.803505],"type":"Point"},"properties":{"osm_id":"4720251536","tag":{"amenity":"waste_basket"}},"type":"Feature"},
	{"geometry":{"coordinates":[-0.60332,44.785931],"type":"Point"},"properties":{"osm_id":"4720895039","tag":{"amenity":"waste_basket"}},"type":"Feature"},
	{"geometry":{"coordinates":[-0.603124,44.785894],"type":"Point"},"properties":{"osm_id":"4720895040","tag":{"amenity":"waste_basket"}},"type":"Feature"},
	{"geometry":{"coordinates":[-0.60293,44.785857],"type":"Point"},"properties":{"osm_id":"4720895041","tag":{"amenity":"waste_basket"}},"type":"Feature"},
	{"geometry":{"coordinates":[-0.602734,44.785821],"type":"Point"},"properties":{"osm_id":"4720895042","tag":{"amenity":"waste_basket"}},"type":"Feature"},
	{"geometry":{"coordinates":[-0.603028,44.785966],"type":"Point"},"properties":{"osm_id":"4720895043","tag":{"amenity":"waste_basket"}},"type":"Feature"},
	{"geometry":{"coordinates":[-0.60288,44.785939],"type":"Point"},"properties":{"osm_id":"4720895044","tag":{"amenity":"waste_basket"}},"type":"Feature"},
	{"geometry":{"coordinates":[-0.600439,44.81533],"type":"Point"},"properties":{"osm_id":"4724264482","tag":{"amenity":"waste_basket"}},"type":"Feature"},
	{"geometry":{"coordinates":[-0.601157,44.814642],"type":"Point"},"properties":{"osm_id":"4724283794","tag":{"amenity":"waste_basket"}},"type":"Feature"},
	{"geometry":{"coordinates":[-0.602011,44.814496],"type":"Point"},"properties":{"osm_id":"4724369573","tag":{"amenity":"recycling","recycling:glass_bottles":"yes","recycling_type":"container","ref:FR:CUB":"TA02"}},"type":"Feature"},
	{"geometry":{"coordinates":[-0.594223,44.809848],"type":"Point"},"properties":{"osm_id":"4725976156","tag":{"amenity":"waste_basket"}},"type":"Feature"},
	{"geometry":{"coordinates":[-0.592929,44.80975],"type":"Point"},"properties":{"osm_id":"4725976157","tag":{"amenity":"waste_disposal","location":"underground","waste":"organic"}},"type":"Feature"},
	{"geometry":{"coordinates":[-0.592918,44.809724],"type":"Point"},"properties":{"osm_id":"4725976158","tag":{"amenity":"waste_disposal","location":"underground","waste":"trash"}},"type":"Feature"},
	{"geometry":{"coordinates":[-0.592979,44.808936],"type":"Point"},"properties":{"osm_id":"4725976159","tag":{"amenity":"waste_basket"}},"type":"Feature"},
	{"geometry":{"coordinates":[-0.596307,44.805857],"type":"Point"},"properties":{"osm_id":"4725976170","tag":{"amenity":"waste_basket"}},"type":"Feature"},
	{"geometry":{"coordinates":[-0.597937,44.80587],"type":"Point"},"properties":{"osm_id":"4725976173","tag":{"amenity":"waste_basket"}},"type":"Feature"},
	{"geometry":{"coordinates":[-0.602765,44.806579],"type":"Point"},"properties":{"osm_id":"4725995110","tag":{"amenity":"waste_basket"}},"type":"Feature"},
	{"geometry":{"coordinates":[-0.602836,44.806732],"type":"Point"},"properties":{"osm_id":"4725995111","tag":{"amenity":"waste_basket"}},"type":"Feature"},
	{"geometry":{"coordinates":[-0.547206,44.781939],"type":"Point"},"properties":{"osm_id":"4727655015","tag":{"amenity":"recycling","recycling:glass_bottles":"yes","recycling_type":"container","ref:FR:CUB":"VO15"}},"type":"Feature"},
	{"geometry":{"coordinates":[-0.607233,44.782443],"type":"Point"},"properties":{"osm_id":"4728566566","tag":{"amenity":"recycling","recycling:glass_bottles":"yes","recycling_type":"container","ref:FR:CUB":"GR21"}},"type":"Feature"},
	{"geometry":{"coordinates":[-0.60376,44.778178],"type":"Point"},"properties":{"osm_id":"4729388825","tag":{"amenity":"waste_basket"}},"type":"Feature"},
	{"geometry":{"coordinates":[-0.61465,44.812563],"type":"Point"},"properties":{"osm_id":"4731364122","tag":{"amenity":"recycling","recycling:glass_bottles":"yes","recycling_type":"container"}},"type":"Feature"},
	{"geometry":{"coordinates":[-0.613086,44.792142],"type":"Point"},"properties":{"osm_id":"4731370761","tag":{"amenity":"recycling","recycling:glass_bottles":"yes","recycling_type":"container","ref:FR:CUB":"GR23"}},"type":"Feature"},
	{"geometry":{"coordinates":[-0.592341,44.796802],"type":"Point"},"properties":{"osm_id":"4734624865","tag":{"amenity":"recycling","recycling:glass_bottles":"yes","recycling_type":"container","ref:FR:CUB":"TA41"}},"type":"Feature"},
	{"geometry":{"coordinates":[-0.592335,44.796832],"type":"Point"},"properties":{"osm_id":"4734624866","tag":{"amenity":"recycling","recycling:clothes":"yes","recycling_type":"container"}},"type":"Feature"},
	{"geometry":{"coordinates":[-0.594275,44.781454],"type":"Point"},"properties":{"osm_id":"4734625337","tag":{"amenity":"recycling","recycling:glass_bottles":"yes","recycling_type":"container","ref:FR:CUB":"GR12"}},"type":"Feature"},
	{"geometry":{"coordinates":[-0.589532,44.808443],"type":"Point"},"properties":{"osm_id":"4736055397","tag":{"amenity":"waste_basket"}},"type":"Feature"},
	{"geometry":{"coordinates":[-0.5895,44.808634],"type":"Point"},"properties":{"osm_id":"4736055399","tag":{"amenity":"waste_basket"}},"type":"Feature"},
	{"geometry":{"coordinates":[-0.601827,44.819476],"type":"Point"},"properties":{"osm_id":"4736094812","tag":{"amenity":"recycling","recycling:glass_bottles":"yes","recycling_type":"container","ref:FR:CUB":"BS09"}},"type":"Feature"},
	{"geometry":{"coordinates":[-0.604518,44.798468],"type":"Point"},"properties":{"osm_id":"4736327326","tag":{"amenity":"waste_basket"}},"type":"Feature"},
	{"geometry":{"coordinates":[-0.603512,44.797713],"type":"Point"},"properties":{"osm_id":"4736327327","tag":{"amenity":"waste_basket"}},"type":"Feature"},
	{"geometry":{"coordinates":[-0.596825,44.81837],"type":"Point"},"properties":{"osm_id":"4750914621","tag":{"amenity":"waste_basket"}},"type":"Feature"},
	{"geometry":{"coordinates":[-0.599325,44.819646],"type":"Point"},"properties":{"osm_id":"4750924459","tag":{"amenity":"waste_basket"}},"type":"Feature"},
	{"geometry":{"coordinates":[-0.599208,44.819662],"type":"Point"},"properties":{"osm_id":"4750924465","tag":{"amenity":"waste_basket"}},"type":"Feature"},
	{"geometry":{"coordinates":[-0.598935,44.81981],"type":"Point"},"properties":{"osm_id":"4750924468","tag":{"amenity":"waste_basket"}},"type":"Feature"},
	{"geometry":{"coordinates":[-0.598656,44.819965],"type":"Point"},"properties":{"osm_id":"4750924470","tag":{"amenity":"waste_basket"}},"type":"Feature"},
	{"geometry":{"coordinates":[-0.602051,44.819479],"type":"Point"},"properties":{"osm_id":"4750924474","tag":{"amenity":"waste_basket"}},"type":"Feature"},
	{"geometry":{"coordinates":[-0.531398,44.839315],"type":"Point"},"properties":{"osm_id":"4772871859","tag":{"amenity":"recycling","recycling:paper":"yes","recycling:plastic":"yes","recycling_type":"container"}},"type":"Feature"},
	{"geometry":{"coordinates":[-0.588356,44.806911],"type":"Point"},"properties":{"osm_id":"4776888839","tag":{"amenity":"waste_basket"}},"type":"Feature"},
	{"geometry":{"coordinates":[-0.58763,44.805869],"type":"Point"},"properties":{"osm_id":"4776888853","tag":{"amenity":"waste_basket"}},"type":"Feature"},
	{"geometry":{"coordinates":[-0.587822,44.805664],"type":"Point"},"properties":{"osm_id":"4776888854","tag":{"amenity":"waste_basket"}},"type":"Feature"},
	{"geometry":{"coordinates":[-0.588887,44.804673],"type":"Point"},"properties":{"osm_id":"4776893791","tag":{"amenity":"recycling","recycling:clothes":"yes","recycling_type":"container"}},"type":"Feature"},
	{"geometry":{"coordinates":[-0.588855,44.804668],"type":"Point"},"properties":{"osm_id":"4776893792","tag":{"amenity":"recycling","recycling:glass_bottles":"yes","recycling_type":"container","ref:FR:CUB":"TA44"}},"type":"Feature"},
	{"geometry":{"coordinates":[-0.589113,44.778528],"type":"Point"},"properties":{"osm_id":"4779496830","tag":{"amenity":"recycling","recycling:glass_bottles":"yes","recycling_type":"container","ref:FR:CUB":"GR17"}},"type":"Feature"},
	{"geometry":{"coordinates":[-0.596157,44.8079],"type":"Point"},"properties":{"osm_id":"4801344893","tag":{"amenity":"recycling","recycling:glass_bottles":"yes","recycling_type":"container","ref:FR:CUB":"TA14"}},"type":"Feature"},
	{"geometry":{"coordinates":[-0.601882,44.785835],"type":"Point"},"properties":{"osm_id":"4801462078","tag":{"amenity":"recycling","recycling:glass_bottles":"yes","recycling_type":"container","ref:FR:CUB":"GR001"}},"type":"Feature"},
	{"geometry":{"coordinates":[-0.599395,44.784555],"type":"Point"},"properties":{"osm_id":"4801473280","tag":{"amenity":"recycling","location":"underground","recycling:glass_bottles":"yes","recycling_type":"container","ref:FR:CUB":"GR18"}},"type":"Feature"},
	{"geometry":{"coordinates":[-0.590385,44.806175],"type":"Point"},"properties":{"osm_id":"4803612662","tag":{"amenity":"waste_basket"}},"type":"Feature"},
	{"geometry":{"coordinates":[-0.590323,44.80635],"type":"Point"},"properties":{"osm_id":"4803612663","tag":{"amenity":"waste_basket"}},"type":"Feature"},
	{"geometry":{"coordinates":[-0.58905,44.806732],"type":"Point"},"properties":{"osm_id":"4818970021","tag":{"amenity":"waste_basket"}},"type":"Feature"},
	{"geometry":{"coordinates":[-0.589494,44.806787],"type":"Point"},"properties":{"osm_id":"4818970022","tag":{"amenity":"waste_basket"}},"type":"Feature"},
	{"geometry":{"coordinates":[-0.59335,44.802551],"type":"Point"},"properties":{"osm_id":"4818972498","tag":{"amenity":"waste_basket"}},"type":"Feature"},
	{"geometry":{"coordinates":[-0.592681,44.804196],"type":"Point"},"properties":{"osm_id":"4818972499","tag":{"amenity":"waste_basket"}},"type":"Feature"},
	{"geometry":{"coordinates":[-0.592871,44.803734],"type":"Point"},"properties":{"osm_id":"4818972500","tag":{"amenity":"waste_basket"}},"type":"Feature"},
	{"geometry":{"coordinates":[-0.593048,44.803267],"type":"Point"},"properties":{"osm_id":"4818972501","tag":{"amenity":"waste_basket"}},"type":"Feature"},
	{"geometry":{"coordinates":[-0.593269,44.802744],"type":"Point"},"properties":{"osm_id":"4818972502","tag":{"amenity":"waste_basket"}},"type":"Feature"},
	{"geometry":{"coordinates":[-0.593447,44.802303],"type":"Point"},"properties":{"osm_id":"4818972503","tag":{"amenity":"waste_basket"}},"type":"Feature"},
	{"geometry":{"coordinates":[-0.593546,44.802058],"type":"Point"},"properties":{"osm_id":"4818972504","tag":{"amenity":"waste_basket"}},"type":"Feature"},
	{"geometry":{"coordinates":[-0.596828,44.810417],"type":"Point"},"properties":{"osm_id":"4833333942","tag":{"amenity":"recycling","recycling:glass_bottles":"yes","recycling_type":"container","ref:FR:CUB":"TA06"}},"type":"Feature"},
	{"geometry":{"coordinates":[-0.566984,44.816518],"type":"Point"},"properties":{"osm_id":"4840065548","tag":{"amenity":"recycling","recycling:glass_bottles":"yes","recycling_type":"container","ref:FR:CUB":"BX127"}},"type":"Feature"},
	{"geometry":{"coordinates":[-0.568238,44.829137],"type":"Point"},"properties":{"osm_id":"4840065571","tag":{"amenity":"recycling","location":"underground","recycling:glass_bottles":"yes","recycling_type":"container","ref:FR:CUB":"BX03"}},"type":"Feature"},
	{"geometry":{"coordinates":[-0.578092,44.819088],"type":"Point"},"properties":{"osm_id":"4840127579","tag":{"amenity":"waste_basket"}},"type":"Feature"},
	{"geometry":{"coordinates":[-0.577132,44.819355],"type":"Point"},"properties":{"osm_id":"4840127580","tag":{"amenity":"waste_basket"}},"type":"Feature"},
	{"geometry":{"coordinates":[-0.610102,44.778469],"type":"Point"},"properties":{"osm_id":"4872523305","tag":{"amenity":"waste_basket"}},"type":"Feature"},
	{"geometry":{"coordinates":[-0.575377,44.832073],"type":"Point"},"properties":{"osm_id":"4874252709","tag":{"amenity":"waste_basket"}},"type":"Feature"},
	{"geometry":{"coordinates":[-0.575356,44.832394],"type":"Point"},"properties":{"osm_id":"4874253233","tag":{"amenity":"waste_basket"}},"type":"Feature"},
	{"geometry":{"coordinates":[-0.574919,44.832297],"type":"Point"},"properties":{"osm_id":"4874272402","tag":{"amenity":"recycling","recycling:glass_bottles":"yes","recycling_type":"container","ref:FR:CUB":"BX34"}},"type":"Feature"},
	{"geometry":{"coordinates":[-0.609052,44.796039],"type":"Point"},"properties":{"osm_id":"4898937741","tag":{"amenity":"recycling","recycling:glass_bottles":"yes","recycling_type":"container","ref:FR:CUB":"PE33"}},"type":"Feature"},
	{"geometry":{"coordinates":[-0.58039,44.814883],"type":"Point"},"properties":{"osm_id":"4898937743","tag":{"amenity":"recycling","recycling:clothes":"yes","recycling:glass_bottles":"yes","recycling_type":"container","ref:FR:CUB":"TA43A"}},"type":"Feature"},
	{"geometry":{"coordinates":[-0.594585,44.816721],"type":"Point"},"properties":{"osm_id":"4914704483","tag":{"amenity":"waste_basket"}},"type":"Feature"},
	{"geometry":{"coordinates":[-0.599797,44.814953],"type":"Point"},"properties":{"osm_id":"4914704486","tag":{"amenity":"waste_basket"}},"type":"Feature"},
	{"geometry":{"coordinates":[-0.599544,44.815031],"type":"Point"},"properties":{"osm_id":"4914704487","tag":{"amenity":"waste_basket"}},"type":"Feature"},
	{"geometry":{"coordinates":[-0.577122,44.833583],"type":"Point"},"properties":{"osm_id":"4937056719","tag":{"amenity":"recycling","operator":"Le Relais","recycling:clothes":"yes","recycling:glass_bottles":"yes","recycling_type":"container","ref:FR:CUB":"BX36"}},"type":"Feature"},
	{"geometry":{"coordinates":[-0.58252,44.827898],"type":"Point"},"properties":{"osm_id":"4937057030","tag":{"amenity":"recycling","operator":"Le Relais","recycling:clothes":"yes","recycling:shoes":"yes","recycling_type":"container"}},"type":"Feature"},
	{"geometry":{"coordinates":[-0.5739,44.812588],"type":"Point"},"properties":{"osm_id":"4946792593","tag":{"amenity":"recycling","recycling:glass_bottles":"yes","recycling_type":"container","ref:FR:CUB":"TA13A"}},"type":"Feature"},
	{"geometry":{"coordinates":[-0.573956,44.812594],"type":"Point"},"properties":{"osm_id":"4946792594","tag":{"amenity":"recycling","recycling:clothes":"yes","recycling_type":"container"}},"type":"Feature"},
	{"geometry":{"coordinates":[-0.587048,44.791399],"type":"Point"},"properties":{"osm_id":"4946817252","tag":{"amenity":"recycling","recycling:glass_bottles":"yes","recycling_type":"container","ref:FR:CUB":"TA17"}},"type":"Feature"},
	{"geometry":{"coordinates":[-0.576369,44.800263],"type":"Point"},"properties":{"osm_id":"4946817256","tag":{"amenity":"recycling","operator":"Actifrip","recycling:clothes":"yes","recycling_type":"container"}},"type":"Feature"},
	{"geometry":{"coordinates":[-0.576231,44.800395],"type":"Point"},"properties":{"osm_id":"4946817257","tag":{"amenity":"recycling","recycling:glass_bottles":"yes","recycling_type":"container","ref:FR:CUB":"TA64"}},"type":"Feature"},
	{"geometry":{"coordinates":[-0.58076,44.808042],"type":"Point"},"properties":{"osm_id":"4946817261","tag":{"amenity":"recycling","recycling:clothes":"yes","recycling_type":"container"}},"type":"Feature"},
	{"geometry":{"coordinates":[-0.580784,44.80805],"type":"Point"},"properties":{"osm_id":"4946817262","tag":{"amenity":"recycling","recycling:glass_bottles":"yes","recycling_type":"container"}},"type":"Feature"},
	{"geometry":{"coordinates":[-0.591293,44.792616],"type":"Point"},"properties":{"osm_id":"4973335028","tag":{"amenity":"recycling","recycling:glass_bottles":"yes","recycling_type":"container","ref:FR:CUB":"TA51"}},"type":"Feature"},
	{"geometry":{"coordinates":[-0.611027,44.780118],"type":"Point"},"properties":{"osm_id":"4975799346","tag":{"amenity":"recycling","recycling:glass_bottles":"yes","recycling_type":"container","ref:FR:CUB":"GR03"}},"type":"Feature"},
	{"geometry":{"coordinates":[-0.613204,44.793021],"type":"Point"},"properties":{"osm_id":"4982572810","tag":{"access":"private","amenity":"recycling","recycling:glass_bottles":"yes","recycling_type":"container","ref:FR:CUB":"GR14"}},"type":"Feature"},
	{"geometry":{"coordinates":[-0.577466,44.819149],"type":"Point"},"properties":{"osm_id":"4984995280","tag":{"amenity":"waste_basket"}},"type":"Feature"},
	{"geometry":{"coordinates":[-0.577705,44.81908],"type":"Point"},"properties":{"osm_id":"4984995286","tag":{"amenity":"waste_basket"}},"type":"Feature"},
	{"geometry":{"coordinates":[-0.577587,44.819358],"type":"Point"},"properties":{"osm_id":"4984995290","tag":{"amenity":"waste_basket"}},"type":"Feature"},
	{"geometry":{"coordinates":[-0.577439,44.819313],"type":"Point"},"properties":{"osm_id":"4984995294","tag":{"amenity":"waste_basket"}},"type":"Feature"},
	{"geometry":{"coordinates":[-0.591095,44.809846],"type":"Point"},"properties":{"osm_id":"4988054356","tag":{"amenity":"waste_basket"}},"type":"Feature"},
	{"geometry":{"coordinates":[-0.594228,44.808313],"type":"Point"},"properties":{"osm_id":"4988054360","tag":{"amenity":"waste_basket"}},"type":"Feature"},
	{"geometry":{"coordinates":[-0.610809,44.787679],"type":"Point"},"properties":{"osm_id":"4998452368","tag":{"amenity":"waste_basket"}},"type":"Feature"},
	{"geometry":{"coordinates":[-0.61216,44.788837],"type":"Point"},"properties":{"osm_id":"5027053022","tag":{"amenity":"recycling","recycling:glass_bottles":"yes","recycling_type":"container"}},"type":"Feature"},
	{"geometry":{"coordinates":[-0.586709,44.779097],"type":"Point"},"properties":{"osm_id":"5046774718","tag":{"amenity":"waste_basket"}},"type":"Feature"},
	{"geometry":{"coordinates":[-0.591238,44.781806],"type":"Point"},"properties":{"osm_id":"5046774843","tag":{"amenity":"waste_basket"}},"type":"Feature"},
	{"geometry":{"coordinates":[-0.592166,44.789809],"type":"Point"},"properties":{"osm_id":"5099331903","tag":{"amenity":"waste_basket"}},"type":"Feature"},
	{"geometry":{"coordinates":[-0.591923,44.790919],"type":"Point"},"properties":{"osm_id":"5099331909","tag":{"amenity":"waste_basket"}},"type":"Feature"},
	{"geometry":{"coordinates":[-0.59195,44.791076],"type":"Point"},"properties":{"osm_id":"5099331914","tag":{"amenity":"waste_basket"}},"type":"Feature"},
	{"geometry":{"coordinates":[-0.59277,44.792118],"type":"Point"},"properties":{"osm_id":"5099331919","tag":{"amenity":"waste_basket"}},"type":"Feature"},
	{"geometry":{"coordinates":[-0.592541,44.792116],"type":"Point"},"properties":{"osm_id":"5099331920","tag":{"amenity":"waste_basket"}},"type":"Feature"},
	{"geometry":{"coordinates":[-0.582937,44.824998],"type":"Point"},"properties":{"osm_id":"5099392197","tag":{"amenity":"waste_basket"}},"type":"Feature"},
	{"geometry":{"coordinates":[-0.581978,44.823917],"type":"Point"},"properties":{"osm_id":"5099392198","tag":{"amenity":"waste_basket"}},"type":"Feature"},
	{"geometry":{"coordinates":[-0.581858,44.823899],"type":"Point"},"properties":{"osm_id":"5099392199","tag":{"amenity":"waste_basket"}},"type":"Feature"},
	{"geometry":{"coordinates":[-0.567545,44.782482],"type":"Point"},"properties":{"osm_id":"5113524285","tag":{"amenity":"waste_basket"}},"type":"Feature"},
	{"geometry":{"coordinates":[-0.584038,44.810154],"type":"Point"},"properties":{"osm_id":"5130639900","tag":{"amenity":"waste_basket"}},"type":"Feature"},
	{"geometry":{"coordinates":[-0.583663,44.810225],"type":"Point"},"properties":{"osm_id":"5130639905","tag":{"amenity":"waste_basket"}},"type":"Feature"},
	{"geometry":{"coordinates":[-0.583584,44.810276],"type":"Point"},"properties":{"osm_id":"5130639908","tag":{"amenity":"waste_basket"}},"type":"Feature"},
	{"geometry":{"coordinates":[-0.583427,44.810474],"type":"Point"},"properties":{"osm_id":"5130639909","tag":{"amenity":"waste_basket"}},"type":"Feature"},
	{"geometry":{"coordinates":[-0.562806,44.830324],"type":"Point"},"properties":{"osm_id":"5178235967","tag":{"amenity":"waste_basket"}},"type":"Feature"},
	{"geometry":{"coordinates":[-0.563654,44.830019],"type":"Point"},"properties":{"osm_id":"5178237940","tag":{"amenity":"waste_basket"}},"type":"Feature"},
	{"geometry":{"coordinates":[-0.563339,44.829941],"type":"Point"},"properties":{"osm_id":"5178240146","tag":{"amenity":"waste_basket"}},"type":"Feature"},
	{"geometry":{"coordinates":[-0.564275,44.830151],"type":"Point"},"properties":{"osm_id":"5178246814","tag":{"amenity":"waste_basket"}},"type":"Feature"},
	{"geometry":{"coordinates":[-0.583646,44.837154],"type":"Point"},"properties":{"osm_id":"5182419606","tag":{"amenity":"waste_basket"}},"type":"Feature"},
	{"geometry":{"coordinates":[-0.565629,44.805832],"type":"Point"},"properties":{"osm_id":"5215930751","tag":{"amenity":"recycling","recycling:glass_bottles":"yes","recycling_type":"container","ref:FR:CUB":"BE15"}},"type":"Feature"},
	{"geometry":{"coordinates":[-0.546075,44.831631],"type":"Point"},"properties":{"osm_id":"5222842341","tag":{"amenity":"recycling","location":"overground","mapillary":"ddWwi28ZnWFkEPoDKh-qyA","recycling:glass_bottles":"yes","recycling_type":"container","ref:FR:CUB":"BB22","survey:date":"2017-08-20"}},"type":"Feature"},
	{"geometry":{"coordinates":[-0.56473,44.826985],"type":"Point"},"properties":{"osm_id":"5235618293","tag":{"amenity":"waste_basket"}},"type":"Feature"},
	{"geometry":{"coordinates":[-0.532,44.837511],"type":"Point"},"properties":{"osm_id":"5246745821","tag":{"amenity":"waste_basket"}},"type":"Feature"},
	{"geometry":{"coordinates":[-0.611384,44.828527],"type":"Point"},"properties":{"osm_id":"5270114848","ref":"BS19","tag":{"amenity":"recycling","recycling:glass_bottles":"yes","recycling_type":"container","ref:FR:CUB":"BS19"}},"type":"Feature"},
	{"geometry":{"coordinates":[-0.606358,44.805177],"type":"Point"},"properties":{"osm_id":"5277730595","tag":{"amenity":"waste_basket"}},"type":"Feature"},
	{"geometry":{"coordinates":[-0.603508,44.830172],"type":"Point"},"properties":{"osm_id":"5279953204","tag":{"amenity":"waste_basket"}},"type":"Feature"},
	{"geometry":{"coordinates":[-0.603299,44.830167],"type":"Point"},"properties":{"osm_id":"5279953205","tag":{"amenity":"waste_basket"}},"type":"Feature"},
	{"geometry":{"coordinates":[-0.610163,44.78071],"type":"Point"},"properties":{"osm_id":"5349706838","tag":{"amenity":"waste_basket"}},"type":"Feature"},
	{"geometry":{"coordinates":[-0.61066,44.780657],"type":"Point"},"properties":{"osm_id":"5349706844","tag":{"amenity":"waste_basket"}},"type":"Feature"},
	{"geometry":{"coordinates":[-0.547661,44.81656],"type":"Point"},"properties":{"osm_id":"5413989623","tag":{"amenity":"recycling","recycling:glass_bottles":"yes","recycling_type":"container","ref:FR:CUB":"BE10"}},"type":"Feature"},
	{"geometry":{"coordinates":[-0.543095,44.819077],"type":"Point"},"properties":{"osm_id":"5413989627","tag":{"amenity":"recycling","recycling:clothes":"yes","recycling_type":"container"}},"type":"Feature"},
	{"geometry":{"coordinates":[-0.585354,44.797379],"type":"Point"},"properties":{"osm_id":"5432292318","tag":{"amenity":"recycling","recycling:clothes":"yes","recycling:glass_bottles":"yes","recycling_type":"container","ref:FR:CUB":"TA42B"}},"type":"Feature"},
	{"geometry":{"coordinates":[-0.585362,44.797353],"type":"Point"},"properties":{"osm_id":"5432292319","tag":{"amenity":"recycling","recycling:glass_bottles":"yes","recycling_type":"container","ref:FR:CUB":"TA42B"}},"type":"Feature"},
	{"geometry":{"coordinates":[-0.564407,44.826703],"type":"Point"},"properties":{"osm_id":"5464287836","tag":{"amenity":"waste_basket"}},"type":"Feature"},
	{"geometry":{"coordinates":[-0.564488,44.826751],"type":"Point"},"properties":{"osm_id":"5464287839","tag":{"amenity":"waste_basket"}},"type":"Feature"},
	{"geometry":{"coordinates":[-0.56469,44.826788],"type":"Point"},"properties":{"osm_id":"5464287840","tag":{"amenity":"waste_basket"}},"type":"Feature"},
	{"geometry":{"coordinates":[-0.614843,44.79655],"type":"Point"},"properties":{"osm_id":"5478041988","tag":{"amenity":"waste_basket"}},"type":"Feature"},
	{"geometry":{"coordinates":[-0.5831,44.789591],"type":"Point"},"properties":{"osm_id":"5515783702","tag":{"amenity":"waste_basket"}},"type":"Feature"},
	{"geometry":{"coordinates":[-0.583068,44.789748],"type":"Point"},"properties":{"osm_id":"5515851539","tag":{"amenity":"waste_basket"}},"type":"Feature"},
	{"geometry":{"coordinates":[-0.583068,44.789789],"type":"Point"},"properties":{"osm_id":"5515851540","tag":{"amenity":"waste_basket"}},"type":"Feature"},
	{"geometry":{"coordinates":[-0.582663,44.79041],"type":"Point"},"properties":{"osm_id":"5515921518","tag":{"amenity":"waste_basket"}},"type":"Feature"},
	{"geometry":{"coordinates":[-0.573823,44.79398],"type":"Point"},"properties":{"osm_id":"5530128841","tag":{"amenity":"waste_basket"}},"type":"Feature"},
	{"geometry":{"coordinates":[-0.575148,44.796307],"type":"Point"},"properties":{"osm_id":"5530154061","tag":{"amenity":"recycling","mapillary":"15fnw7nk2rt7eiGV2EAQIA","recycling:glass_bottles":"yes","recycling_type":"container"}},"type":"Feature"},
	{"geometry":{"coordinates":[-0.551657,44.814182],"type":"Point"},"properties":{"osm_id":"5556109915","tag":{"amenity":"recycling","recycling:glass_bottles":"yes","recycling_type":"container","ref:FR:CUB":"BE46"}},"type":"Feature"},
	{"geometry":{"coordinates":[-0.551127,44.814129],"type":"Point"},"properties":{"osm_id":"5556109916","tag":{"amenity":"recycling","recycling:glass_bottles":"yes","recycling_type":"container","ref:FR:CUB":"BE46"}},"type":"Feature"},
	{"geometry":{"coordinates":[-0.552263,44.814859],"type":"Point"},"properties":{"osm_id":"5556110454","tag":{"amenity":"recycling","recycling:glass_bottles":"yes","recycling_type":"container","ref:FR:CUB":"BE46"}},"type":"Feature"},
	{"geometry":{"coordinates":[-0.549729,44.814401],"type":"Point"},"properties":{"osm_id":"5556141132","tag":{"amenity":"recycling","recycling_type":"container"}},"type":"Feature"},
	{"geometry":{"coordinates":[-0.549421,44.815791],"type":"Point"},"properties":{"osm_id":"5556270934","tag":{"amenity":"recycling","recycling_type":"container"}},"type":"Feature"},
	{"geometry":{"coordinates":[-0.567575,44.782572],"type":"Point"},"properties":{"osm_id":"5590597423","tag":{"amenity":"recycling","recycling:glass_bottles":"yes","recycling_type":"container","ref:FR:CUB":"VO13"}},"type":"Feature"},
	{"geometry":{"coordinates":[-0.572631,44.795416],"type":"Point"},"properties":{"osm_id":"5590600421","tag":{"amenity":"recycling","recycling:glass_bottles":"yes","recycling_type":"container","ref:FR:CUB":"VO04"}},"type":"Feature"},
	{"geometry":{"coordinates":[-0.573802,44.79398],"type":"Point"},"properties":{"osm_id":"5590600621","tag":{"amenity":"recycling","mapillary":"NRGwwUPWl73JuvcbASGTJA","recycling:glass_bottles":"yes","recycling_type":"container","ref:FR:CUB":"VO03"}},"type":"Feature"},
	{"geometry":{"coordinates":[-0.571476,44.804805],"type":"Point"},"properties":{"osm_id":"5590605022","tag":{"amenity":"recycling","recycling:glass_bottles":"yes","recycling_type":"container","ref:FR:CUB":"BE32"}},"type":"Feature"},
	{"geometry":{"coordinates":[-0.532724,44.837559],"type":"Point"},"properties":{"osm_id":"5649473997","tag":{"amenity":"waste_basket"}},"type":"Feature"},
	{"geometry":{"coordinates":[-0.536565,44.836954],"type":"Point"},"properties":{"osm_id":"5649484719","tag":{"amenity":"waste_basket"}},"type":"Feature"},
	{"geometry":{"coordinates":[-0.533643,44.836641],"type":"Point"},"properties":{"osm_id":"5649506252","tag":{"amenity":"waste_basket"}},"type":"Feature"},
	{"geometry":{"coordinates":[-0.531757,44.833975],"type":"Point"},"properties":{"osm_id":"5649571579","tag":{"amenity":"recycling","recycling:glass_bottles":"yes","recycling_type":"container","ref:FR:CUB":"FL29"}},"type":"Feature"},
	{"geometry":{"coordinates":[-0.614041,44.796719],"type":"Point"},"properties":{"osm_id":"5658768521","tag":{"amenity":"waste_basket"}},"type":"Feature"},
	{"geometry":{"coordinates":[-0.607816,44.789089],"type":"Point"},"properties":{"osm_id":"5667040735","tag":{"amenity":"waste_disposal"}},"type":"Feature"},
	{"geometry":{"coordinates":[-0.607799,44.78907],"type":"Point"},"properties":{"osm_id":"5667040736","tag":{"amenity":"waste_disposal"}},"type":"Feature"},
	{"geometry":{"coordinates":[-0.607784,44.789052],"type":"Point"},"properties":{"osm_id":"5667040737","tag":{"amenity":"waste_disposal"}},"type":"Feature"},
	{"geometry":{"coordinates":[-0.539142,44.782224],"type":"Point"},"properties":{"osm_id":"5688118798","tag":{"amenity":"recycling","recycling:glass_bottles":"yes","recycling_type":"container"}},"type":"Feature"},
	{"geometry":{"coordinates":[-0.551554,44.816145],"type":"Point"},"properties":{"osm_id":"5693180319","tag":{"amenity":"recycling","recycling:glass_bottles":"yes","recycling_type":"container","ref:FR:CUB":"BX142"}},"type":"Feature"},
	{"geometry":{"coordinates":[-0.559179,44.812605],"type":"Point"},"properties":{"osm_id":"5693180435","tag":{"amenity":"recycling","recycling:glass_bottles":"yes","recycling_type":"container"}},"type":"Feature"},
	{"geometry":{"coordinates":[-0.576463,44.816841],"type":"Point"},"properties":{"osm_id":"5693180514","tag":{"amenity":"waste_basket"}},"type":"Feature"},
	{"geometry":{"coordinates":[-0.566431,44.83484],"type":"Point"},"properties":{"osm_id":"5728580248","tag":{"amenity":"recycling","recycling:glass_bottles":"yes","recycling:paper":"yes","recycling_type":"container","ref:FR:CUB":"BX200"}},"type":"Feature"},
	{"geometry":{"coordinates":[-0.600199,44.81905],"type":"Point"},"properties":{"osm_id":"5730608913","tag":{"amenity":"recycling","recycling:clothes":"yes","recycling_type":"container"}},"type":"Feature"},
	{"geometry":{"coordinates":[-0.600225,44.819034],"type":"Point"},"properties":{"osm_id":"5730608914","tag":{"amenity":"recycling","recycling:glass_bottles":"yes","recycling_type":"container"}},"type":"Feature"},
	{"geometry":{"coordinates":[-0.572628,44.839546],"type":"Point"},"properties":{"osm_id":"5730609030","tag":{"amenity":"recycling","recycling:clothes":"yes","recycling_type":"container"}},"type":"Feature"},
	{"geometry":{"coordinates":[-0.539643,44.828717],"type":"Point"},"properties":{"osm_id":"5731346074","tag":{"amenity":"recycling","recycling:glass_bottles":"yes","recycling_type":"container","ref:FR:CUB":"BB13"}},"type":"Feature"},
	{"geometry":{"coordinates":[-0.533212,44.827106],"type":"Point"},"properties":{"osm_id":"5731346075","tag":{"amenity":"recycling","recycling:glass_bottles":"yes","recycling_type":"container","ref:FR:CUB":"FL01"}},"type":"Feature"},
	{"geometry":{"coordinates":[-0.560453,44.821349],"type":"Point"},"properties":{"osm_id":"5732653342","tag":{"amenity":"recycling","recycling:glass_bottles":"yes","recycling_type":"container","ref:FR:CUB":"BX207"}},"type":"Feature"},
	{"geometry":{"coordinates":[-0.558298,44.827103],"type":"Point"},"properties":{"osm_id":"5732653344","tag":{"amenity":"recycling","recycling:clothes":"yes","recycling:glass_bottles":"yes","recycling_type":"container","ref:FR:CUB":"BX135"}},"type":"Feature"},
	{"geometry":{"coordinates":[-0.55938,44.840032],"type":"Point"},"properties":{"osm_id":"5732653350","tag":{"amenity":"recycling","recycling:glass_bottles":"yes","recycling_type":"container","ref:FR:CUB":"BB02"}},"type":"Feature"},
	{"geometry":{"coordinates":[-0.570517,44.823524],"type":"Point"},"properties":{"osm_id":"5732653392","tag":{"amenity":"recycling","recycling:clothes":"yes","recycling_type":"container"}},"type":"Feature"},
	{"geometry":{"coordinates":[-0.574883,44.786979],"type":"Point"},"properties":{"osm_id":"5743360122","tag":{"amenity":"recycling","recycling:glass_bottles":"yes","recycling_type":"container","ref:FR:CUB":"VO07"}},"type":"Feature"},
	{"geometry":{"coordinates":[-0.587567,44.784562],"type":"Point"},"properties":{"osm_id":"5747226946","tag":{"amenity":"recycling","operator":"Bordeaux M\u00c3\u00a9tropole","recycling:glass_bottles":"yes","recycling_type":"container","ref:FR:CUB":"VO10"}},"type":"Feature"},
	{"geometry":{"coordinates":[-0.573225,44.801362],"type":"Point"},"properties":{"osm_id":"5747226947","tag":{"amenity":"recycling","operator":"Bordeaux M\u00c3\u00a9tropole","recycling:glass_bottles":"yes","recycling_type":"container","ref:FR:CUB":"VO01"}},"type":"Feature"},
	{"geometry":{"coordinates":[-0.530204,44.790379],"type":"Point"},"properties":{"osm_id":"5747226951","tag":{"amenity":"recycling","operator":"Bordeaux M\u00c3\u00a9tropole","recycling:glass_bottles":"yes","recycling_type":"container","ref:FR:CUB":"VO54"}},"type":"Feature"},
	{"geometry":{"coordinates":[-0.58477,44.789753],"type":"Point"},"properties":{"osm_id":"5747226952","tag":{"amenity":"recycling","operator":"Bordeaux M\u00c3\u00a9tropole","recycling:glass_bottles":"yes","recycling_type":"container","ref:FR:CUB":"VO09"}},"type":"Feature"},
	{"geometry":{"coordinates":[-0.572972,44.77996],"type":"Point"},"properties":{"osm_id":"5747226954","tag":{"amenity":"recycling","operator":"Bordeaux M\u00c3\u00a9tropole","recycling:glass_bottles":"yes","recycling_type":"container","ref:FR:CUB":"VO12"}},"type":"Feature"},
	{"geometry":{"coordinates":[-0.578868,44.78887],"type":"Point"},"properties":{"osm_id":"5747226958","tag":{"amenity":"recycling","operator":"Bordeaux M\u00c3\u00a9tropole","recycling:glass_bottles":"yes","recycling_type":"container","ref:FR:CUB":"VO08"}},"type":"Feature"},
	{"geometry":{"coordinates":[-0.573521,44.784422],"type":"Point"},"properties":{"osm_id":"5747226960","tag":{"amenity":"recycling","operator":"Bordeaux M\u00c3\u00a9tropole","recycling:glass_bottles":"yes","recycling_type":"container","ref:FR:CUB":"VO29"}},"type":"Feature"},
	{"geometry":{"coordinates":[-0.567337,44.787389],"type":"Point"},"properties":{"osm_id":"5747226964","tag":{"amenity":"recycling","operator":"Bordeaux M\u00c3\u00a9tropole","recycling:glass_bottles":"yes","recycling_type":"container","ref:FR:CUB":"VO06"}},"type":"Feature"},
	{"geometry":{"coordinates":[-0.570707,44.789885],"type":"Point"},"properties":{"osm_id":"5747226965","tag":{"amenity":"recycling","operator":"Bordeaux M\u00c3\u00a9tropole","recycling:glass_bottles":"yes","recycling_type":"container","ref:FR:CUB":"VO05"}},"type":"Feature"},
	{"geometry":{"coordinates":[-0.537009,44.778807],"type":"Point"},"properties":{"osm_id":"5747226967","tag":{"amenity":"recycling","operator":"Bordeaux M\u00c3\u00a9tropole","recycling:glass_bottles":"yes","recycling_type":"container","ref:FR:CUB":"VO56"}},"type":"Feature"},
	{"geometry":{"coordinates":[-0.571583,44.782406],"type":"Point"},"properties":{"osm_id":"5749482039","tag":{"amenity":"waste_basket"}},"type":"Feature"},
	{"geometry":{"coordinates":[-0.584871,44.801917],"type":"Point"},"properties":{"osm_id":"5773856100","tag":{"amenity":"waste_basket"}},"type":"Feature"},
	{"geometry":{"coordinates":[-0.605176,44.831084],"type":"Point"},"properties":{"osm_id":"5859170264","tag":{"amenity":"recycling","location":"underground","recycling:glass_bottles":"yes","recycling_type":"container","ref:FR:CUB":"BS04"}},"type":"Feature"},
	{"geometry":{"coordinates":[-0.591905,44.818193],"type":"Point"},"properties":{"osm_id":"5866444655","tag":{"amenity":"waste_basket"}},"type":"Feature"},
	{"geometry":{"coordinates":[-0.592267,44.818196],"type":"Point"},"properties":{"osm_id":"5866444656","tag":{"amenity":"waste_basket"}},"type":"Feature"},
	{"geometry":{"coordinates":[-0.592348,44.818221],"type":"Point"},"properties":{"osm_id":"5866444657","tag":{"amenity":"waste_basket"}},"type":"Feature"},
	{"geometry":{"coordinates":[-0.58671,44.803458],"type":"Point"},"properties":{"osm_id":"5866508271","tag":{"amenity":"recycling","recycling:glass_bottles":"yes","recycling_type":"container","ref:FR:CUB":"TA59"}},"type":"Feature"},
	{"geometry":{"coordinates":[-0.584267,44.807745],"type":"Point"},"properties":{"osm_id":"5866509622","tag":{"amenity":"recycling","recycling:glass_bottles":"yes","recycling_type":"container","ref:FR:CUB":"TA19"}},"type":"Feature"},
	{"geometry":{"coordinates":[-0.598489,44.792373],"type":"Point"},"properties":{"osm_id":"5882752542","tag":{"amenity":"waste_basket"}},"type":"Feature"},
	{"geometry":{"coordinates":[-0.598635,44.792826],"type":"Point"},"properties":{"osm_id":"5882752545","tag":{"amenity":"waste_basket"}},"type":"Feature"},
	{"geometry":{"coordinates":[-0.600285,44.791432],"type":"Point"},"properties":{"osm_id":"5882752547","tag":{"amenity":"waste_basket"}},"type":"Feature"},
	{"geometry":{"coordinates":[-0.6015,44.790935],"type":"Point"},"properties":{"osm_id":"5882752549","tag":{"amenity":"waste_basket"}},"type":"Feature"},
	{"geometry":{"coordinates":[-0.595759,44.789497],"type":"Point"},"properties":{"osm_id":"5882752555","tag":{"amenity":"waste_basket"}},"type":"Feature"},
	{"geometry":{"coordinates":[-0.615189,44.798093],"type":"Point"},"properties":{"osm_id":"5884616067","tag":{"amenity":"waste_basket"}},"type":"Feature"},
	{"geometry":{"coordinates":[-0.614959,44.797951],"type":"Point"},"properties":{"osm_id":"5884635537","tag":{"amenity":"waste_basket"}},"type":"Feature"},
	{"geometry":{"coordinates":[-0.572019,44.830985],"type":"Point"},"properties":{"osm_id":"5898817607","tag":{"amenity":"waste_basket"}},"type":"Feature"},
	{"geometry":{"coordinates":[-0.553131,44.834989],"type":"Point"},"properties":{"osm_id":"5903376200","tag":{"amenity":"waste_basket"}},"type":"Feature"},
	{"geometry":{"coordinates":[-0.552826,44.834831],"type":"Point"},"properties":{"osm_id":"5903376203","tag":{"amenity":"waste_basket"}},"type":"Feature"},
	{"geometry":{"coordinates":[-0.547908,44.798852],"type":"Point"},"properties":{"osm_id":"5910239630","tag":{"amenity":"recycling","recycling:clothes":"yes","recycling_type":"container"}},"type":"Feature"},
	{"geometry":{"coordinates":[-0.547936,44.798851],"type":"Point"},"properties":{"osm_id":"5910239631","tag":{"amenity":"recycling","recycling:glass_bottles":"yes","recycling_type":"container"}},"type":"Feature"},
	{"geometry":{"coordinates":[-0.537852,44.802729],"type":"Point"},"properties":{"osm_id":"5911722063","tag":{"amenity":"waste_basket"}},"type":"Feature"},
	{"geometry":{"coordinates":[-0.535767,44.802667],"type":"Point"},"properties":{"osm_id":"5911724590","tag":{"amenity":"waste_basket"}},"type":"Feature"},
	{"geometry":{"coordinates":[-0.536045,44.802457],"type":"Point"},"properties":{"osm_id":"5911724591","tag":{"amenity":"waste_basket"}},"type":"Feature"},
	{"geometry":{"coordinates":[-0.536501,44.802193],"type":"Point"},"properties":{"osm_id":"5911724602","tag":{"amenity":"waste_basket"}},"type":"Feature"},
	{"geometry":{"coordinates":[-0.53605,44.802922],"type":"Point"},"properties":{"osm_id":"5911724608","tag":{"amenity":"waste_basket"}},"type":"Feature"},
	{"geometry":{"coordinates":[-0.536211,44.802774],"type":"Point"},"properties":{"osm_id":"5911724627","tag":{"amenity":"waste_basket"}},"type":"Feature"},
	{"geometry":{"coordinates":[-0.53638,44.802667],"type":"Point"},"properties":{"osm_id":"5911724628","tag":{"amenity":"waste_basket"}},"type":"Feature"},
	{"geometry":{"coordinates":[-0.537505,44.80256],"type":"Point"},"properties":{"osm_id":"5911724668","tag":{"amenity":"waste_basket"}},"type":"Feature"},
	{"geometry":{"coordinates":[-0.538081,44.802634],"type":"Point"},"properties":{"osm_id":"5911724683","tag":{"amenity":"waste_basket"}},"type":"Feature"},
	{"geometry":{"coordinates":[-0.537623,44.802366],"type":"Point"},"properties":{"osm_id":"5911724811","tag":{"amenity":"waste_basket"}},"type":"Feature"},
	{"geometry":{"coordinates":[-0.615142,44.798337],"type":"Point"},"properties":{"osm_id":"5934293028","tag":{"amenity":"waste_basket"}},"type":"Feature"},
	{"geometry":{"coordinates":[-0.615184,44.798439],"type":"Point"},"properties":{"osm_id":"5934293029","tag":{"amenity":"waste_basket"}},"type":"Feature"},
	{"geometry":{"coordinates":[-0.590993,44.810207],"type":"Point"},"properties":{"osm_id":"5939768595","tag":{"amenity":"recycling","recycling:glass_bottles":"yes","recycling_type":"container","ref:FR:CUB":"TA03"}},"type":"Feature"},
	{"geometry":{"coordinates":[-0.599618,44.826573],"type":"Point"},"properties":{"osm_id":"5962018322","tag":{"amenity":"waste_basket"}},"type":"Feature"},
	{"geometry":{"coordinates":[-0.579942,44.819283],"type":"Point"},"properties":{"osm_id":"5964037668","tag":{"amenity":"recycling","recycling:glass_bottles":"yes","recycling_type":"container","ref:FR:CUB":"TA33"}},"type":"Feature"},
	{"geometry":{"coordinates":[-0.604582,44.8254],"type":"Point"},"properties":{"osm_id":"5964499968","tag":{"amenity":"waste_basket"}},"type":"Feature"},
	{"geometry":{"coordinates":[-0.604733,44.825267],"type":"Point"},"properties":{"osm_id":"5964499969","tag":{"amenity":"waste_basket"}},"type":"Feature"},
	{"geometry":{"coordinates":[-0.614327,44.805226],"type":"Point"},"properties":{"osm_id":"5974913472","tag":{"amenity":"recycling","recycling:glass_bottles":"yes","recycling_type":"container","ref:FR:CUB":"PE102"}},"type":"Feature"},
	{"geometry":{"coordinates":[-0.597285,44.810237],"type":"Point"},"properties":{"osm_id":"5975021997","tag":{"amenity":"waste_basket"}},"type":"Feature"},
	{"geometry":{"coordinates":[-0.608111,44.793709],"type":"Point"},"properties":{"osm_id":"5982738972","tag":{"amenity":"recycling","recycling:glass_bottles":"yes","recycling_type":"container","ref:FR:CUB":"PE103"}},"type":"Feature"},
	{"geometry":{"coordinates":[-0.612557,44.797972],"type":"Point"},"properties":{"osm_id":"6007829632","tag":{"amenity":"waste_basket"}},"type":"Feature"},
	{"geometry":{"coordinates":[-0.60511,44.796257],"type":"Point"},"properties":{"osm_id":"6009854387","tag":{"amenity":"waste_basket"}},"type":"Feature"},
	{"geometry":{"coordinates":[-0.591959,44.820581],"type":"Point"},"properties":{"osm_id":"6015655530","tag":{"amenity":"waste_basket"}},"type":"Feature"},
	{"geometry":{"coordinates":[-0.591888,44.82078],"type":"Point"},"properties":{"osm_id":"6015655533","tag":{"amenity":"waste_basket"}},"type":"Feature"},
	{"geometry":{"coordinates":[-0.608455,44.795999],"type":"Point"},"properties":{"osm_id":"6058273331","tag":{"amenity":"recycling","recycling:clothes":"yes","recycling_type":"container"}},"type":"Feature"},
	{"geometry":{"coordinates":[-0.560785,44.792494],"type":"Point"},"properties":{"osm_id":"6093259372","tag":{"amenity":"waste_basket"}},"type":"Feature"},
	{"geometry":{"coordinates":[-0.553806,44.826606],"type":"Point"},"properties":{"osm_id":"6095442095","tag":{"amenity":"recycling","recycling:glass_bottles":"yes","recycling_type":"container","ref:FR:CUB":"BX136"}},"type":"Feature"},
	{"geometry":{"coordinates":[-0.551076,44.824271],"type":"Point"},"properties":{"osm_id":"6095442096","tag":{"amenity":"recycling","recycling:glass_bottles":"yes","recycling_type":"container","ref:FR:CUB":"BX 138"}},"type":"Feature"},
	{"geometry":{"coordinates":[-0.553787,44.826602],"type":"Point"},"properties":{"osm_id":"6095442097","tag":{"amenity":"recycling","recycling:clothes":"yes","recycling:shoes":"yes","recycling_type":"container"}},"type":"Feature"},
	{"geometry":{"coordinates":[-0.568427,44.830707],"type":"Point"},"properties":{"osm_id":"6274583185","tag":{"amenity":"recycling","recycling:glass_bottles":"yes","recycling_type":"container"}},"type":"Feature"},
	{"geometry":{"coordinates":[-0.613277,44.835472],"type":"Point"},"properties":{"osm_id":"6327937378","tag":{"amenity":"recycling","recycling:glass_bottles":"yes","recycling_type":"container","ref:FR:CUB":"ME01"}},"type":"Feature"},
	{"geometry":{"coordinates":[-0.571386,44.7857],"type":"Point"},"properties":{"osm_id":"6352200079","tag":{"amenity":"waste_basket"}},"type":"Feature"},
	{"geometry":{"coordinates":[-0.571729,44.785422],"type":"Point"},"properties":{"osm_id":"6352200080","tag":{"amenity":"waste_basket"}},"type":"Feature"},
	{"geometry":{"coordinates":[-0.57145,44.785119],"type":"Point"},"properties":{"osm_id":"6352200081","tag":{"amenity":"waste_basket"}},"type":"Feature"},
	{"geometry":{"coordinates":[-0.614127,44.79248],"type":"Point"},"properties":{"osm_id":"6352360684","tag":{"amenity":"waste_basket"}},"type":"Feature"},
	{"geometry":{"coordinates":[-0.583009,44.821472],"type":"Point"},"properties":{"osm_id":"6389427786","tag":{"amenity":"waste_basket"}},"type":"Feature"},
	{"geometry":{"coordinates":[-0.574621,44.796308],"type":"Point"},"properties":{"osm_id":"6411089777","tag":{"amenity":"recycling","mapillary":"7a_VpECm0IWpvxonTai4VQ","operator":"Actifrip","recycling:clothes":"yes","recycling:shoes":"yes","recycling_type":"container"}},"type":"Feature"},
	{"geometry":{"coordinates":[-0.572654,44.778406],"type":"Point"},"properties":{"osm_id":"6411207432","tag":{"amenity":"recycling","mapillary":"pce79RSU70NzHrX-iUQajw","operator":"Actifrip","recycling:clothes":"yes","recycling:shoes":"yes","recycling_type":"container"}},"type":"Feature"},
	{"geometry":{"coordinates":[-0.574932,44.786975],"type":"Point"},"properties":{"osm_id":"6425570903","tag":{"amenity":"recycling","mapillary":"GwotV7AKejUEN5MasczZSQ","operator":"Actifrip","recycling:clothes":"yes","recycling:shoes":"yes","recycling_type":"container"}},"type":"Feature"},
	{"geometry":{"coordinates":[-0.566771,44.780794],"type":"Point"},"properties":{"osm_id":"6425583366","tag":{"amenity":"recycling","operator":"Actifrip","recycling:clothes":"yes","recycling:shoes":"yes","recycling_type":"container"}},"type":"Feature"},
	{"geometry":{"coordinates":[-0.572631,44.795385],"type":"Point"},"properties":{"osm_id":"6425606403","tag":{"amenity":"recycling","mapillary":"Qe2PzNrI48l9mZV-TD7Cgg","operator":"Actifrip","recycling:clothes":"yes","recycling:shoes":"yes","recycling_type":"container"}},"type":"Feature"},
	{"geometry":{"coordinates":[-0.569484,44.786774],"type":"Point"},"properties":{"osm_id":"6425640543","tag":{"amenity":"recycling","mapillary":"mxp6JY98ameywBrbu4wtLQ","operator":"Actifrip","recycling:clothes":"yes","recycling:shoes":"yes","recycling_type":"container"}},"type":"Feature"},
	{"geometry":{"coordinates":[-0.534941,44.780234],"type":"Point"},"properties":{"osm_id":"6425651587","tag":{"amenity":"recycling","mapillary":"6F721sZKajiDuNB1BxCSTA","operator":"Actifrip","recycling:clothes":"yes","recycling:shoes":"yes","recycling_type":"container"}},"type":"Feature"},
	{"geometry":{"coordinates":[-0.558674,44.781358],"type":"Point"},"properties":{"osm_id":"6425676231","tag":{"amenity":"recycling","operator":"Actifrip","recycling:clothes":"yes","recycling:shoes":"yes","recycling_type":"container"}},"type":"Feature"},
	{"geometry":{"coordinates":[-0.54036,44.783619],"type":"Point"},"properties":{"barrier":"entrance","osm_id":"6484877307"},"type":"Feature"},
	{"geometry":{"coordinates":[-0.615078,44.826179],"type":"Point"},"properties":{"osm_id":"6486361594","tag":{"amenity":"recycling","recycling_type":"container"}},"type":"Feature"},
	{"geometry":{"coordinates":[-0.615119,44.826151],"type":"Point"},"properties":{"osm_id":"6486361595","tag":{"amenity":"waste_disposal"}},"type":"Feature"},
	{"geometry":{"coordinates":[-0.562845,44.829754],"type":"Point"},"properties":{"osm_id":"6581680263","tag":{"amenity":"waste_basket"}},"type":"Feature"},
	{"geometry":{"coordinates":[-0.562694,44.829249],"type":"Point"},"properties":{"osm_id":"6586501637","tag":{"amenity":"waste_basket"}},"type":"Feature"},
	{"geometry":{"coordinates":[-0.562732,44.829605],"type":"Point"},"properties":{"osm_id":"6586501643","tag":{"amenity":"waste_basket"}},"type":"Feature"},
	{"geometry":{"coordinates":[-0.561691,44.828886],"type":"Point"},"properties":{"osm_id":"6603145470","tag":{"amenity":"waste_basket"}},"type":"Feature"},
	{"geometry":{"coordinates":[-0.561855,44.828646],"type":"Point"},"properties":{"osm_id":"6603145476","tag":{"amenity":"waste_basket"}},"type":"Feature"},
	{"geometry":{"coordinates":[-0.587401,44.798813],"type":"Point"},"properties":{"osm_id":"6708254118","tag":{"amenity":"recycling","recycling:glass_bottles":"yes","recycling_type":"container"}},"type":"Feature"},
	{"geometry":{"coordinates":[-0.582957,44.833103],"type":"Point"},"properties":{"osm_id":"6788176007","tag":{"amenity":"waste_basket"}},"type":"Feature"},
	{"geometry":{"coordinates":[-0.582923,44.833246],"type":"Point"},"properties":{"osm_id":"6788176008","tag":{"amenity":"waste_basket"}},"type":"Feature"},
	{"geometry":{"coordinates":[-0.613962,44.796125],"type":"Point"},"properties":{"osm_id":"6790553055","tag":{"amenity":"waste_basket"}},"type":"Feature"},
	{"geometry":{"coordinates":[-0.613906,44.796404],"type":"Point"},"properties":{"osm_id":"6790553056","tag":{"amenity":"waste_basket"}},"type":"Feature"},
	{"geometry":{"coordinates":[-0.615234,44.7964],"type":"Point"},"properties":{"osm_id":"6790611199","tag":{"amenity":"waste_basket"}},"type":"Feature"},
	{"geometry":{"coordinates":[-0.614613,44.79678],"type":"Point"},"properties":{"osm_id":"6790611200","tag":{"amenity":"waste_basket"}},"type":"Feature"},
	{"geometry":{"coordinates":[-0.614514,44.797057],"type":"Point"},"properties":{"osm_id":"6790631115","tag":{"amenity":"waste_basket"}},"type":"Feature"},
	{"geometry":{"coordinates":[-0.614201,44.798302],"type":"Point"},"properties":{"osm_id":"6790631117","tag":{"amenity":"waste_basket"}},"type":"Feature"},
	{"geometry":{"coordinates":[-0.61414,44.798318],"type":"Point"},"properties":{"osm_id":"6790631118","tag":{"amenity":"waste_basket"}},"type":"Feature"},
	{"geometry":{"coordinates":[-0.614062,44.798339],"type":"Point"},"properties":{"osm_id":"6790631119","tag":{"amenity":"waste_basket"}},"type":"Feature"},
	{"geometry":{"coordinates":[-0.561436,44.833604],"type":"Point"},"properties":{"osm_id":"6811624480","tag":{"amenity":"waste_basket"}},"type":"Feature"},
	{"geometry":{"coordinates":[-0.572859,44.836344],"type":"Point"},"properties":{"osm_id":"6851612267","tag":{"amenity":"recycling","colour":"vert","recycling:glass_bottles":"yes","recycling_type":"container"}},"type":"Feature"},
	{"geometry":{"coordinates":[-0.582787,44.821578],"type":"Point"},"properties":{"osm_id":"6982846862","tag":{"amenity":"waste_basket","colour":"gris"}},"type":"Feature"},
	{"geometry":{"coordinates":[-0.601897,44.807493],"type":"Point"},"properties":{"osm_id":"6985899810","tag":{"amenity":"waste_basket"}},"type":"Feature"},
	{"geometry":{"coordinates":[-0.602211,44.807526],"type":"Point"},"properties":{"osm_id":"6985899811","tag":{"amenity":"waste_basket"}},"type":"Feature"},
	{"geometry":{"coordinates":[-0.60195,44.808257],"type":"Point"},"properties":{"osm_id":"6985901089","tag":{"amenity":"waste_disposal","operator":"r\u00c3\u00a9sidents"}},"type":"Feature"},
	{"geometry":{"coordinates":[-0.609586,44.800128],"type":"Point"},"properties":{"osm_id":"6988209330","tag":{"amenity":"waste_basket"}},"type":"Feature"},
	{"geometry":{"coordinates":[-0.602691,44.806805],"type":"Point"},"properties":{"osm_id":"6988378564","tag":{"amenity":"waste_disposal"}},"type":"Feature"},
	{"geometry":{"coordinates":[-0.567962,44.830141],"type":"Point"},"properties":{"osm_id":"7003653713","tag":{"amenity":"waste_basket"}},"type":"Feature"},
	{"geometry":{"coordinates":[-0.561094,44.800146],"type":"Point"},"properties":{"osm_id":"7003653765","tag":{"amenity":"recycling","recycling:clothes":"yes","recycling_type":"container"}},"type":"Feature"},
	{"geometry":{"coordinates":[-0.596944,44.813838],"type":"Point"},"properties":{"osm_id":"7008041780","tag":{"amenity":"waste_basket"}},"type":"Feature"},
	{"geometry":{"coordinates":[-0.587607,44.839087],"type":"Point"},"properties":{"osm_id":"7049545421","tag":{"amenity":"waste_basket"}},"type":"Feature"},
	{"geometry":{"coordinates":[-0.591004,44.798724],"type":"Point"},"properties":{"osm_id":"7049617695","tag":{"amenity":"recycling","recycling:glass_bottles":"yes","recycling_type":"container"}},"type":"Feature"},
	{"geometry":{"coordinates":[-0.576876,44.833016],"type":"Point"},"properties":{"osm_id":"7263883110","tag":{"amenity":"recycling","location":"underground","recycling:glass_bottles":"yes","recycling_type":"container"}},"type":"Feature"},
	{"geometry":{"coordinates":[-0.576887,44.810143],"type":"Point"},"properties":{"osm_id":"7402025292","tag":{"amenity":"recycling","recycling:greenwaste":"yes","recycling:organic_waste":"yes","recycling_type":"container"}},"type":"Feature"},
	{"geometry":{"coordinates":[-0.576873,44.810147],"type":"Point"},"properties":{"osm_id":"7402046435","tag":{"amenity":"recycling","recycling:wood_waste":"yes","recycling_type":"container"}},"type":"Feature"},
	{"geometry":{"coordinates":[-0.575453,44.81185],"type":"Point"},"properties":{"osm_id":"7402130436","tag":{"amenity":"recycling","recycling:green_waste":"yes","recycling:organic_waste":"yes","recycling:wood_waste":"yes","recycling_type":"container"}},"type":"Feature"},
	{"geometry":{"coordinates":[-0.566418,44.781831],"type":"Point"},"properties":{"osm_id":"7455329492","tag":{"amenity":"waste_basket"}},"type":"Feature"},
	{"geometry":{"coordinates":[-0.566865,44.781824],"type":"Point"},"properties":{"osm_id":"7455329513","tag":{"amenity":"waste_disposal"}},"type":"Feature"},
	{"geometry":{"coordinates":[-0.562883,44.822202],"type":"Point"},"properties":{"osm_id":"7597616500","tag":{"amenity":"recycling","recycling:glass_bottles":"yes","recycling_type":"container"}},"type":"Feature"},
	{"geometry":{"coordinates":[-0.603634,44.806819],"type":"Point"},"properties":{"osm_id":"7691325849","tag":{"amenity":"recycling","opening_hours":"24/7","recycling:glass":"yes","recycling:glass_bottles":"yes","recycling:glass_jars":"yes","recycling_type":"container"}},"type":"Feature"},
	{"geometry":{"coordinates":[-0.603678,44.806807],"type":"Point"},"properties":{"osm_id":"7691325850","tag":{"amenity":"recycling","opening_hours":"24/7","recycling:cardboard":"yes","recycling:cartons":"yes","recycling:metal_containers":"yes","recycling:metal_packaging":"yes","recycling:plastic_bottles":"yes","recycling:recyclable":"yes","recycling_type":"container"}},"type":"Feature"},
	{"geometry":{"coordinates":[-0.603721,44.806795],"type":"Point"},"properties":{"osm_id":"7691325851","tag":{"amenity":"waste_disposal","waste":"trash;mixed"}},"type":"Feature"},
	{"geometry":{"coordinates":[-0.605194,44.808602],"type":"Point"},"properties":{"osm_id":"7691325854","tag":{"amenity":"recycling","opening_hours":"24/7","recycling:card":"yes","recycling:cardboard":"yes","recycling:recyclable":"yes","recycling_type":"container"}},"type":"Feature"},
	{"geometry":{"coordinates":[-0.60518,44.808599],"type":"Point"},"properties":{"osm_id":"7691325855","tag":{"access":"yes","amenity":"waste_disposal","waste":"trash"}},"type":"Feature"},
	{"geometry":{"coordinates":[-0.605164,44.808595],"type":"Point"},"properties":{"osm_id":"7691325856","tag":{"access":"yes","amenity":"waste_disposal","waste":"trash"}},"type":"Feature"},
	{"geometry":{"coordinates":[-0.591348,44.806288],"type":"Point"},"properties":{"osm_id":"7691325861","tag":{"amenity":"recycling","recycling:accumulator":"yes","recycling:batteries":"yes","recycling:electrical_items":"yes","recycling:light_bulbs":"yes","recycling_type":"container"}},"type":"Feature"},
	{"geometry":{"coordinates":[-0.563314,44.828951],"type":"Point"},"properties":{"osm_id":"7743419197","tag":{"amenity":"waste_basket"}},"type":"Feature"},
	{"geometry":{"coordinates":[-0.583822,44.838881],"type":"Point"},"properties":{"osm_id":"7746468018","tag":{"amenity":"recycling","covered":"yes","indoor":"yes","level":"0","operator":"Brita","recycling:water_filter_cartridges":"yes","recycling_type":"container"}},"type":"Feature"},
	{"geometry":{"coordinates":[-0.583773,44.838885],"type":"Point"},"properties":{"osm_id":"7746468019","tag":{"amenity":"recycling","covered":"yes","description":"Dans le centre commercial M\u00c3\u00a9riadeck Inside M\u00c3\u00a9riadeck shopping center","level":"0","operator":"EcoSystem","recycling:accumulator":"yes","recycling:batteries":"yes","recycling:electrical_appliances":"yes","recycling:electronic_items":"yes","recycling:electronics":"yes","recycling:fluorescent_tubes":"yes","recycling:light_bulbs":"yes","recycling:printer_cartridges":"yes","recycling:printer_ink_cartridges":"yes","recycling:printer_inkjet_cartridges":"yes","recycling:printer_toner_cartridges":"yes","recycling_type":"container"}},"type":"Feature"},
	{"geometry":{"coordinates":[-0.546224,44.80919],"type":"Point"},"properties":{"name":"Benne \u00c3\u00a0 verre","osm_id":"7794337356","tag":{"amenity":"recycling"}},"type":"Feature"},
	{"geometry":{"coordinates":[-0.55426,44.813906],"type":"Point"},"properties":{"name":"Conteneur Relais Gironde (textiles et chaussures)","osm_id":"7794346641","tag":{"amenity":"recycling"}},"type":"Feature"},
	{"geometry":{"coordinates":[-0.58218,44.839845],"type":"Point"},"properties":{"osm_id":"7795015784","tag":{"amenity":"recycling","opening_hours":"24/7","operator":"Bordeaux M\u00c3\u00a9tropole","recycling:glass":"yes","recycling:glass_bottles":"yes","recycling:glass_jars":"yes","recycling_type":"container"}},"type":"Feature"},
	{"geometry":{"coordinates":[-0.560786,44.785574],"type":"Point"},"properties":{"osm_id":"7816074141","tag":{"amenity":"recycling","recycling_type":"container"}},"type":"Feature"},
	{"geometry":{"coordinates":[-0.561732,44.785648],"type":"Point"},"properties":{"osm_id":"7818185117","tag":{"amenity":"recycling","recycling:cardboard":"yes","recycling:metal":"yes","recycling:packaging":"yes","recycling:paper_packaging":"yes","recycling_type":"container"}},"type":"Feature"},
	{"geometry":{"coordinates":[-0.56181,44.785306],"type":"Point"},"properties":{"osm_id":"7818185118","tag":{"amenity":"recycling","recycling_type":"container"}},"type":"Feature"},
	{"geometry":{"coordinates":[-0.562025,44.78581],"type":"Point"},"properties":{"osm_id":"7818185119","tag":{"amenity":"recycling","recycling_type":"container"}},"type":"Feature"},
	{"geometry":{"coordinates":[-0.561567,44.786477],"type":"Point"},"properties":{"osm_id":"7818185120","tag":{"amenity":"recycling","recycling_type":"container"}},"type":"Feature"},
	{"geometry":{"coordinates":[-0.563682,44.784419],"type":"Point"},"properties":{"osm_id":"7818185121","tag":{"amenity":"recycling","recycling_type":"container"}},"type":"Feature"},
	{"geometry":{"coordinates":[-0.563936,44.78391],"type":"Point"},"properties":{"osm_id":"7818185122","tag":{"amenity":"recycling","recycling_type":"container"}},"type":"Feature"},
	{"geometry":{"coordinates":[-0.563308,44.78387],"type":"Point"},"properties":{"osm_id":"7818185123","tag":{"amenity":"recycling","recycling_type":"container"}},"type":"Feature"},
	{"geometry":{"coordinates":[-0.561903,44.784076],"type":"Point"},"properties":{"osm_id":"7818185124","tag":{"amenity":"recycling","recycling_type":"container"}},"type":"Feature"},
	{"geometry":{"coordinates":[-0.562059,44.784442],"type":"Point"},"properties":{"osm_id":"7818185125","tag":{"amenity":"recycling","recycling_type":"container"}},"type":"Feature"},
	{"geometry":{"coordinates":[-0.561057,44.784283],"type":"Point"},"properties":{"osm_id":"7818185126","tag":{"amenity":"recycling","recycling_type":"container"}},"type":"Feature"},
	{"geometry":{"coordinates":[-0.561209,44.784548],"type":"Point"},"properties":{"osm_id":"7818185127","tag":{"amenity":"recycling","recycling_type":"container"}},"type":"Feature"},
	{"geometry":{"coordinates":[-0.56014,44.785104],"type":"Point"},"properties":{"osm_id":"7818185128","tag":{"amenity":"recycling","recycling_type":"container"}},"type":"Feature"},
	{"geometry":{"coordinates":[-0.559589,44.784306],"type":"Point"},"properties":{"osm_id":"7818185129","tag":{"amenity":"recycling","recycling_type":"container"}},"type":"Feature"},
	{"geometry":{"coordinates":[-0.575541,44.836215],"type":"Point"},"properties":{"osm_id":"7826605048","tag":{"amenity":"recycling","opening_hours":"24/7","operator":"Bordeaux M\u00c3\u00a9tropole","recycling:glass":"yes","recycling:glass_bottles":"yes","recycling:glass_jars":"yes","recycling_type":"container"}},"type":"Feature"},
	{"geometry":{"coordinates":[-0.603262,44.822623],"type":"Point"},"properties":{"osm_id":"7830615850","tag":{"amenity":"recycling","recycling:clothes":"yes","recycling:glass":"yes","recycling_type":"container"}},"type":"Feature"},
	{"geometry":{"coordinates":[-0.601123,44.822274],"type":"Point"},"properties":{"osm_id":"7831733766","tag":{"amenity":"recycling","recycling:glass":"yes","recycling_type":"container"}},"type":"Feature"},
	{"geometry":{"coordinates":[-0.610408,44.824506],"type":"Point"},"properties":{"osm_id":"7831733767","tag":{"amenity":"recycling","recycling:glass":"yes","recycling_type":"container"}},"type":"Feature"},
	{"geometry":{"coordinates":[-0.606895,44.821766],"type":"Point"},"properties":{"osm_id":"7832640818","tag":{"amenity":"waste_basket","waste":"trash"}},"type":"Feature"},
	{"geometry":{"coordinates":[-0.606126,44.822124],"type":"Point"},"properties":{"osm_id":"7832640819","tag":{"amenity":"waste_basket","waste":"trash"}},"type":"Feature"},
	{"geometry":{"coordinates":[-0.607687,44.82172],"type":"Point"},"properties":{"osm_id":"7832640820","tag":{"amenity":"waste_basket","waste":"trash"}},"type":"Feature"},
	{"geometry":{"coordinates":[-0.601245,44.8228],"type":"Point"},"properties":{"osm_id":"7833673731","tag":{"amenity":"waste_basket"}},"type":"Feature"},
	{"geometry":{"coordinates":[-0.601245,44.822658],"type":"Point"},"properties":{"osm_id":"7833673732","tag":{"amenity":"waste_basket"}},"type":"Feature"},
	{"geometry":{"coordinates":[-0.601274,44.82258],"type":"Point"},"properties":{"osm_id":"7833673733","tag":{"amenity":"waste_basket"}},"type":"Feature"},
	{"geometry":{"coordinates":[-0.601395,44.822534],"type":"Point"},"properties":{"osm_id":"7833673734","tag":{"amenity":"waste_basket"}},"type":"Feature"},
	{"geometry":{"coordinates":[-0.604764,44.822642],"type":"Point"},"properties":{"osm_id":"7833673735","tag":{"amenity":"waste_basket"}},"type":"Feature"},
	{"geometry":{"coordinates":[-0.605202,44.822693],"type":"Point"},"properties":{"osm_id":"7833673736","tag":{"amenity":"waste_basket"}},"type":"Feature"},
	{"geometry":{"coordinates":[-0.608802,44.814948],"type":"Point"},"properties":{"osm_id":"7856529640","tag":{"amenity":"recycling","recycling:clothes":"yes","recycling:glass_bottles":"yes","recycling_type":"container"}},"type":"Feature"},
	{"geometry":{"coordinates":[-0.606791,44.822901],"type":"Point"},"properties":{"osm_id":"7895084899","tag":{"amenity":"recycling","recycling:glass_bottles":"yes","recycling_type":"centre"}},"type":"Feature"},
	{"geometry":{"coordinates":[-0.572154,44.81977],"type":"Point"},"properties":{"osm_id":"7895097671","tag":{"amenity":"recycling","recycling:glass_bottles":"yes","recycling_type":"centre"}},"type":"Feature"},
	{"geometry":{"coordinates":[-0.577563,44.823087],"type":"Point"},"properties":{"osm_id":"7895131975","tag":{"amenity":"recycling","operator":"Le Relais","recycling:clothes":"yes","recycling_type":"container"}},"type":"Feature"},
	{"geometry":{"coordinates":[-0.577532,44.823088],"type":"Point"},"properties":{"osm_id":"7895131976","tag":{"amenity":"recycling","operator":"Le Livre Vert","recycling:books":"yes","recycling_type":"container"}},"type":"Feature"},
	{"geometry":{"coordinates":[-0.608218,44.823849],"type":"Point"},"properties":{"osm_id":"7898479366","tag":{"amenity":"waste_basket"}},"type":"Feature"},
	{"geometry":{"coordinates":[-0.608447,44.823984],"type":"Point"},"properties":{"osm_id":"7898479367","tag":{"amenity":"waste_basket"}},"type":"Feature"},
	{"geometry":{"coordinates":[-0.608517,44.823605],"type":"Point"},"properties":{"osm_id":"7898528296","tag":{"amenity":"waste_basket"}},"type":"Feature"},
	{"geometry":{"coordinates":[-0.608632,44.823699],"type":"Point"},"properties":{"osm_id":"7898606686","tag":{"amenity":"waste_basket"}},"type":"Feature"},
	{"geometry":{"coordinates":[-0.612255,44.824886],"type":"Point"},"properties":{"osm_id":"7900745513","tag":{"amenity":"waste_basket"}},"type":"Feature"},
	{"geometry":{"coordinates":[-0.61254,44.824954],"type":"Point"},"properties":{"osm_id":"7900745514","tag":{"amenity":"waste_basket"}},"type":"Feature"},
	{"geometry":{"coordinates":[-0.612697,44.82499],"type":"Point"},"properties":{"osm_id":"7900745515","tag":{"amenity":"waste_basket"}},"type":"Feature"},
	{"geometry":{"coordinates":[-0.612888,44.82468],"type":"Point"},"properties":{"osm_id":"7900745516","tag":{"amenity":"waste_basket"}},"type":"Feature"},
	{"geometry":{"coordinates":[-0.612291,44.824476],"type":"Point"},"properties":{"osm_id":"7900760956","tag":{"amenity":"waste_basket"}},"type":"Feature"},
	{"geometry":{"coordinates":[-0.612317,44.824637],"type":"Point"},"properties":{"osm_id":"7900760958","tag":{"amenity":"waste_basket"}},"type":"Feature"},
	{"geometry":{"coordinates":[-0.566921,44.832342],"type":"Point"},"properties":{"osm_id":"7903357259","tag":{"amenity":"waste_basket"}},"type":"Feature"},
	{"geometry":{"coordinates":[-0.561743,44.785671],"type":"Point"},"properties":{"osm_id":"7912622058","tag":{"access":"yes","amenity":"waste_disposal","waste":"trash;mixed"}},"type":"Feature"}
]
}
