{
"type": "FeatureCollection",
"features": [
	{"geometry":{"coordinates":[-0.571618,44.777508],"type":"Point"},"properties":{"osm_id":"786890016","tag":{"amenity":"recycling","operator":"Bordeaux M\u00c3\u00a9tropole","recycling:glass_bottles":"yes","recycling_type":"container","ref:FR:CUB":"VO22"}},"type":"Feature"},
	{"geometry":{"coordinates":[-0.576718,44.776593],"type":"Point"},"properties":{"osm_id":"786892619","tag":{"amenity":"recycling","operator":"Bordeaux M\u00c3\u00a9tropole","recycling:glass_bottles":"yes","recycling_type":"container","ref:FR:CUB":"VO17"}},"type":"Feature"},
	{"geometry":{"coordinates":[-0.57695,44.777801],"type":"Point"},"properties":{"osm_id":"801115643","tag":{"amenity":"recycling","recycling_type":"container"}},"type":"Feature"},
	{"geometry":{"coordinates":[-0.584293,44.77395],"type":"Point"},"properties":{"osm_id":"801127029","tag":{"amenity":"recycling","operator":"Bordeaux M\u00c3\u00a9tropole","recycling:glass_bottles":"yes","recycling_type":"container","ref:FR:CUB":"VO18"}},"type":"Feature"},
	{"geometry":{"coordinates":[-0.580272,44.766257],"type":"Point"},"properties":{"osm_id":"801208007","tag":{"amenity":"recycling","operator":"Bordeaux M\u00c3\u00a9tropole","recycling:glass_bottles":"yes","recycling_type":"container","ref:FR:CUB":"VO44"}},"type":"Feature"},
	{"geometry":{"coordinates":[-0.582674,44.770917],"type":"Point"},"properties":{"osm_id":"801208014","tag":{"amenity":"recycling","operator":"Bordeaux M\u00c3\u00a9tropole","recycling:glass_bottles":"yes","recycling_type":"container","ref:FR:CUB":"VO19"}},"type":"Feature"},
	{"geometry":{"coordinates":[-0.588216,44.762961],"type":"Point"},"properties":{"osm_id":"801473776","tag":{"amenity":"recycling","operator":"Bordeaux M\u00c3\u00a9tropole","recycling:glass_bottles":"yes","recycling_type":"container","ref:FR:CUB":"VO23"}},"type":"Feature"},
	{"geometry":{"coordinates":[-0.581468,44.764553],"type":"Point"},"properties":{"osm_id":"801504455","tag":{"amenity":"recycling","operator":"Bordeaux M\u00c3\u00a9tropole","recycling:glass_bottles":"yes","recycling_type":"container","ref:FR:CUB":"VO26"}},"type":"Feature"},
	{"geometry":{"coordinates":[-0.597894,44.734838],"type":"Point"},"properties":{"osm_id":"1393840239","tag":{"amenity":"recycling","recycling:glass_bottles":"yes","recycling_type":"container"}},"type":"Feature"},
	{"geometry":{"coordinates":[-0.551144,44.775043],"type":"Point"},"properties":{"osm_id":"2298735643","tag":{"amenity":"recycling","recycling:glass_bottles":"yes","recycling_type":"container","ref:FR:CUB":"VO45"}},"type":"Feature"},
	{"geometry":{"coordinates":[-0.543551,44.774592],"type":"Point"},"properties":{"osm_id":"2298762930","tag":{"amenity":"recycling","operator":"Bordeaux M\u00c3\u00a9tropole","recycling:glass_bottles":"yes","recycling_type":"container","ref:FR:CUB":"VO48"}},"type":"Feature"},
	{"geometry":{"coordinates":[-0.609921,44.771825],"type":"Point"},"properties":{"osm_id":"2956898707","tag":{"amenity":"recycling","recycling:glass_bottles":"yes","recycling_type":"container","ref:FR:CUB":"GR08"}},"type":"Feature"},
	{"geometry":{"coordinates":[-0.580125,44.771862],"type":"Point"},"properties":{"osm_id":"3878828053","tag":{"amenity":"recycling","recycling:glass_bottles":"yes","recycling_type":"container","ref:FR:CUB":"VO21"}},"type":"Feature"},
	{"geometry":{"coordinates":[-0.604466,44.770201],"type":"Point"},"properties":{"osm_id":"3966162464","tag":{"amenity":"waste_basket"}},"type":"Feature"},
	{"geometry":{"coordinates":[-0.586456,44.775128],"type":"Point"},"properties":{"osm_id":"4014515155","tag":{"amenity":"recycling","recycling:glass_bottles":"yes","recycling:paper":"yes","recycling_type":"container"}},"type":"Feature"},
	{"geometry":{"coordinates":[-0.585575,44.774896],"type":"Point"},"properties":{"osm_id":"4014515156","tag":{"amenity":"recycling","recycling:glass_bottles":"yes","recycling:paper":"yes","recycling_type":"container"}},"type":"Feature"},
	{"geometry":{"coordinates":[-0.589798,44.766181],"type":"Point"},"properties":{"osm_id":"4132117870","tag":{"amenity":"recycling","recycling:glass_bottles":"yes","recycling_type":"container"}},"type":"Feature"},
	{"geometry":{"coordinates":[-0.559986,44.773285],"type":"Point"},"properties":{"osm_id":"4275166790","tag":{"amenity":"recycling","operator":"Bordeaux M\u00c3\u00a9tropole","recycling:glass_bottles":"yes","recycling_type":"container","ref:FR:CUB":"VO42"}},"type":"Feature"},
	{"geometry":{"coordinates":[-0.565253,44.759692],"type":"Point"},"properties":{"osm_id":"4350645347","tag":{"amenity":"recycling","recycling:glass_bottles":"yes","recycling_type":"container","ref:FR:CUB":"VO38"}},"type":"Feature"},
	{"geometry":{"coordinates":[-0.589379,44.772826],"type":"Point"},"properties":{"osm_id":"4648349317","tag":{"amenity":"waste_disposal"}},"type":"Feature"},
	{"geometry":{"coordinates":[-0.601333,44.777789],"type":"Point"},"properties":{"osm_id":"4718858754","tag":{"amenity":"waste_basket"}},"type":"Feature"},
	{"geometry":{"coordinates":[-0.602122,44.777761],"type":"Point"},"properties":{"osm_id":"4718872440","tag":{"amenity":"waste_basket"}},"type":"Feature"},
	{"geometry":{"coordinates":[-0.604369,44.777183],"type":"Point"},"properties":{"osm_id":"4718872441","tag":{"amenity":"waste_basket"}},"type":"Feature"},
	{"geometry":{"coordinates":[-0.604776,44.777406],"type":"Point"},"properties":{"osm_id":"4718872443","tag":{"amenity":"recycling","recycling:glass_bottles":"yes","recycling_type":"container","ref:FR:CUB":"GR24"}},"type":"Feature"},
	{"geometry":{"coordinates":[-0.6009,44.777518],"type":"Point"},"properties":{"osm_id":"4718872450","tag":{"amenity":"waste_basket"}},"type":"Feature"},
	{"geometry":{"coordinates":[-0.607698,44.773455],"type":"Point"},"properties":{"osm_id":"4729413782","tag":{"amenity":"waste_basket"}},"type":"Feature"},
	{"geometry":{"coordinates":[-0.604357,44.770509],"type":"Point"},"properties":{"osm_id":"4729423987","tag":{"amenity":"waste_basket"}},"type":"Feature"},
	{"geometry":{"coordinates":[-0.603873,44.770521],"type":"Point"},"properties":{"osm_id":"4729424189","tag":{"amenity":"waste_basket"}},"type":"Feature"},
	{"geometry":{"coordinates":[-0.603983,44.77028],"type":"Point"},"properties":{"osm_id":"4729424190","tag":{"amenity":"waste_basket"}},"type":"Feature"},
	{"geometry":{"coordinates":[-0.603586,44.770795],"type":"Point"},"properties":{"osm_id":"4729424193","tag":{"amenity":"waste_basket"}},"type":"Feature"},
	{"geometry":{"coordinates":[-0.603334,44.770555],"type":"Point"},"properties":{"osm_id":"4729424195","tag":{"amenity":"waste_basket"}},"type":"Feature"},
	{"geometry":{"coordinates":[-0.606023,44.76938],"type":"Point"},"properties":{"osm_id":"4729424198","tag":{"amenity":"waste_basket"}},"type":"Feature"},
	{"geometry":{"coordinates":[-0.606545,44.769116],"type":"Point"},"properties":{"osm_id":"4729424200","tag":{"amenity":"waste_basket"}},"type":"Feature"},
	{"geometry":{"coordinates":[-0.608684,44.768571],"type":"Point"},"properties":{"osm_id":"4729438215","tag":{"amenity":"waste_basket"}},"type":"Feature"},
	{"geometry":{"coordinates":[-0.61233,44.76494],"type":"Point"},"properties":{"osm_id":"4729438223","tag":{"amenity":"recycling","recycling:glass_bottles":"yes","recycling_type":"container","ref:FR:CUB":"GR33"}},"type":"Feature"},
	{"geometry":{"coordinates":[-0.614802,44.774199],"type":"Point"},"properties":{"osm_id":"4729472411","tag":{"amenity":"waste_basket"}},"type":"Feature"},
	{"geometry":{"coordinates":[-0.607294,44.773032],"type":"Point"},"properties":{"osm_id":"4729485593","tag":{"amenity":"waste_basket"}},"type":"Feature"},
	{"geometry":{"coordinates":[-0.606999,44.773189],"type":"Point"},"properties":{"osm_id":"4729485595","tag":{"amenity":"waste_basket"}},"type":"Feature"},
	{"geometry":{"coordinates":[-0.606563,44.773359],"type":"Point"},"properties":{"osm_id":"4729485596","tag":{"amenity":"waste_basket"}},"type":"Feature"},
	{"geometry":{"coordinates":[-0.59338,44.77682],"type":"Point"},"properties":{"osm_id":"4736083713","tag":{"amenity":"waste_basket"}},"type":"Feature"},
	{"geometry":{"coordinates":[-0.601737,44.770161],"type":"Point"},"properties":{"osm_id":"4779494199","tag":{"amenity":"recycling","recycling:green_waste":"yes","recycling_type":"container"}},"type":"Feature"},
	{"geometry":{"coordinates":[-0.601717,44.770148],"type":"Point"},"properties":{"osm_id":"4779494200","tag":{"amenity":"recycling","recycling:waste":"yes","recycling_type":"container"}},"type":"Feature"},
	{"geometry":{"coordinates":[-0.600478,44.770744],"type":"Point"},"properties":{"osm_id":"4779494201","tag":{"amenity":"recycling","recycling:glass_bottles":"yes","recycling_type":"container","ref:FR:CUB":"GR29"}},"type":"Feature"},
	{"geometry":{"coordinates":[-0.600284,44.771075],"type":"Point"},"properties":{"osm_id":"4779494202","tag":{"amenity":"waste_basket"}},"type":"Feature"},
	{"geometry":{"coordinates":[-0.59912,44.771654],"type":"Point"},"properties":{"osm_id":"4779494205","tag":{"amenity":"waste_basket"}},"type":"Feature"},
	{"geometry":{"coordinates":[-0.599204,44.77268],"type":"Point"},"properties":{"osm_id":"4779496821","tag":{"amenity":"waste_basket"}},"type":"Feature"},
	{"geometry":{"coordinates":[-0.598201,44.773201],"type":"Point"},"properties":{"osm_id":"4779496827","tag":{"amenity":"waste_basket"}},"type":"Feature"},
	{"geometry":{"coordinates":[-0.596719,44.77345],"type":"Point"},"properties":{"osm_id":"4779496828","tag":{"amenity":"recycling","recycling:glass_bottles":"yes","recycling_type":"container","ref:FR:CUB":"GR10"}},"type":"Feature"},
	{"geometry":{"coordinates":[-0.610687,44.777294],"type":"Point"},"properties":{"osm_id":"4872523307","tag":{"amenity":"waste_basket"}},"type":"Feature"},
	{"geometry":{"coordinates":[-0.614264,44.773021],"type":"Point"},"properties":{"osm_id":"4872523310","tag":{"amenity":"waste_basket"}},"type":"Feature"},
	{"geometry":{"coordinates":[-0.596901,44.773753],"type":"Point"},"properties":{"osm_id":"4980226434","tag":{"amenity":"recycling","recycling:glass_bottles":"yes","recycling_type":"container"}},"type":"Feature"},
	{"geometry":{"coordinates":[-0.595453,44.768794],"type":"Point"},"properties":{"osm_id":"4980226438","tag":{"amenity":"recycling","recycling:glass_bottles":"yes","recycling_type":"container","ref:FR:CUB":"GR28"}},"type":"Feature"},
	{"geometry":{"coordinates":[-0.595477,44.768785],"type":"Point"},"properties":{"osm_id":"4980226439","tag":{"amenity":"recycling","recycling:clothes":"yes","recycling_type":"container"}},"type":"Feature"},
	{"geometry":{"coordinates":[-0.594772,44.767539],"type":"Point"},"properties":{"osm_id":"4980226441","tag":{"amenity":"recycling","recycling:glass_bottles":"yes","recycling_type":"container","ref:FR:CUB":"GR31"}},"type":"Feature"},
	{"geometry":{"coordinates":[-0.601785,44.767747],"type":"Point"},"properties":{"osm_id":"4980226442","tag":{"amenity":"recycling","recycling:glass_bottles":"yes","recycling_type":"container","ref:FR:CUB":"GR09"}},"type":"Feature"},
	{"geometry":{"coordinates":[-0.602353,44.7689],"type":"Point"},"properties":{"osm_id":"4980226446","tag":{"amenity":"recycling","recycling:glass_bottles":"yes","recycling_type":"container","ref:FR:CUB":"GR32"}},"type":"Feature"},
	{"geometry":{"coordinates":[-0.596158,44.771325],"type":"Point"},"properties":{"osm_id":"4980226453","tag":{"amenity":"recycling","recycling:glass_bottles":"yes","recycling_type":"container","ref:FR:CUB":"GR27"}},"type":"Feature"},
	{"geometry":{"coordinates":[-0.610729,44.755965],"type":"Point"},"properties":{"osm_id":"4988403492","tag":{"amenity":"waste_basket"}},"type":"Feature"},
	{"geometry":{"coordinates":[-0.605713,44.770846],"type":"Point"},"properties":{"osm_id":"5037506505","tag":{"amenity":"waste_basket"}},"type":"Feature"},
	{"geometry":{"coordinates":[-0.603512,44.769653],"type":"Point"},"properties":{"osm_id":"5246389190","tag":{"amenity":"waste_basket"}},"type":"Feature"},
	{"geometry":{"coordinates":[-0.603861,44.770084],"type":"Point"},"properties":{"osm_id":"5246389196","tag":{"amenity":"waste_basket"}},"type":"Feature"},
	{"geometry":{"coordinates":[-0.605575,44.76308],"type":"Point"},"properties":{"osm_id":"5435473992","tag":{"amenity":"waste_basket"}},"type":"Feature"},
	{"geometry":{"coordinates":[-0.556067,44.770814],"type":"Point"},"properties":{"osm_id":"5566841861","tag":{"amenity":"recycling","recycling:glass_bottles":"yes","recycling_type":"container","ref:FR:CUB":"VO47"}},"type":"Feature"},
	{"geometry":{"coordinates":[-0.57762,44.762141],"type":"Point"},"properties":{"osm_id":"5580309721","tag":{"amenity":"recycling","recycling:glass_bottles":"yes","recycling_type":"container","ref:FR:CUB":"VO33"}},"type":"Feature"},
	{"geometry":{"coordinates":[-0.582792,44.765801],"type":"Point"},"properties":{"osm_id":"5715639362","tag":{"amenity":"recycling","recycling:glass_bottles":"yes","recycling_type":"container","ref:FR:CUB":"VO24"}},"type":"Feature"},
	{"geometry":{"coordinates":[-0.577303,44.764406],"type":"Point"},"properties":{"osm_id":"5715639370","tag":{"amenity":"recycling","recycling:glass_bottles":"yes","recycling_type":"container","ref:FR:CUB":"VO34"}},"type":"Feature"},
	{"geometry":{"coordinates":[-0.566593,44.763245],"type":"Point"},"properties":{"osm_id":"5715639374","tag":{"amenity":"recycling","recycling:glass_bottles":"yes","recycling_type":"container","ref:FR:CUB":"VO36"}},"type":"Feature"},
	{"geometry":{"coordinates":[-0.57198,44.742848],"type":"Point"},"properties":{"osm_id":"5715639421","tag":{"amenity":"recycling","recycling:glass_bottles":"yes","recycling_type":"container"}},"type":"Feature"},
	{"geometry":{"coordinates":[-0.598727,44.729628],"type":"Point"},"properties":{"osm_id":"5715639466","tag":{"amenity":"waste_basket"}},"type":"Feature"},
	{"geometry":{"coordinates":[-0.551698,44.76117],"type":"Point"},"properties":{"osm_id":"5747226948","tag":{"amenity":"recycling","operator":"Bordeaux M\u00c3\u00a9tropole","recycling:glass_bottles":"yes","recycling_type":"container","ref:FR:CUB":"VO40"}},"type":"Feature"},
	{"geometry":{"coordinates":[-0.563466,44.76826],"type":"Point"},"properties":{"osm_id":"5747226949","tag":{"amenity":"recycling","operator":"Bordeaux M\u00c3\u00a9tropole","recycling:glass_bottles":"yes","recycling_type":"container","ref:FR:CUB":"VO41"}},"type":"Feature"},
	{"geometry":{"coordinates":[-0.540023,44.771551],"type":"Point"},"properties":{"osm_id":"5747226950","tag":{"amenity":"recycling","operator":"Bordeaux M\u00c3\u00a9tropole","recycling:glass_bottles":"yes","recycling_type":"container","ref:FR:CUB":"VO49"}},"type":"Feature"},
	{"geometry":{"coordinates":[-0.546202,44.770961],"type":"Point"},"properties":{"osm_id":"5747226953","tag":{"amenity":"recycling","operator":"Bordeaux M\u00c3\u00a9tropole","recycling:glass_bottles":"yes","recycling_type":"container","ref:FR:CUB":"VO60"}},"type":"Feature"},
	{"geometry":{"coordinates":[-0.585971,44.76056],"type":"Point"},"properties":{"osm_id":"5747226955","tag":{"amenity":"recycling","operator":"Bordeaux M\u00c3\u00a9tropole","recycling:glass_bottles":"yes","recycling_type":"container","ref:FR:CUB":"VO27"}},"type":"Feature"},
	{"geometry":{"coordinates":[-0.583565,44.757471],"type":"Point"},"properties":{"osm_id":"5747226956","tag":{"amenity":"recycling","operator":"Bordeaux M\u00c3\u00a9tropole","recycling:glass_bottles":"yes","recycling_type":"container","ref:FR:CUB":"VO50"}},"type":"Feature"},
	{"geometry":{"coordinates":[-0.563094,44.774902],"type":"Point"},"properties":{"osm_id":"5747226957","tag":{"amenity":"recycling","operator":"Bordeaux M\u00c3\u00a9tropole","recycling:glass_bottles":"yes","recycling_type":"container","ref:FR:CUB":"VO43"}},"type":"Feature"},
	{"geometry":{"coordinates":[-0.57497,44.758386],"type":"Point"},"properties":{"osm_id":"5747226959","tag":{"amenity":"recycling","operator":"Bordeaux M\u00c3\u00a9tropole","recycling:glass_bottles":"yes","recycling_type":"container","ref:FR:CUB":"VO52"}},"type":"Feature"},
	{"geometry":{"coordinates":[-0.571225,44.76775],"type":"Point"},"properties":{"osm_id":"5747226961","tag":{"amenity":"recycling","operator":"Bordeaux M\u00c3\u00a9tropole","recycling:glass_bottles":"yes","recycling_type":"container","ref:FR:CUB":"VO35"}},"type":"Feature"},
	{"geometry":{"coordinates":[-0.533666,44.777661],"type":"Point"},"properties":{"osm_id":"5747226962","tag":{"amenity":"recycling","operator":"Bordeaux M\u00c3\u00a9tropole","recycling:glass_bottles":"yes","recycling_type":"container","ref:FR:CUB":"VO46"}},"type":"Feature"},
	{"geometry":{"coordinates":[-0.577345,44.754882],"type":"Point"},"properties":{"osm_id":"5747226963","tag":{"amenity":"recycling","operator":"Bordeaux M\u00c3\u00a9tropole","recycling:glass_bottles":"yes","recycling_type":"container","ref:FR:CUB":"VO31"}},"type":"Feature"},
	{"geometry":{"coordinates":[-0.559602,44.764891],"type":"Point"},"properties":{"osm_id":"5747226966","tag":{"amenity":"recycling","operator":"Bordeaux M\u00c3\u00a9tropole","recycling:glass_bottles":"yes","recycling_type":"container","ref:FR:CUB":"VO39"}},"type":"Feature"},
	{"geometry":{"coordinates":[-0.547875,44.767332],"type":"Point"},"properties":{"osm_id":"5747226968","tag":{"amenity":"recycling","operator":"Bordeaux M\u00c3\u00a9tropole","recycling:glass_bottles":"yes","recycling_type":"container","ref:FR:CUB":"VO"}},"type":"Feature"},
	{"geometry":{"coordinates":[-0.579124,44.75313],"type":"Point"},"properties":{"osm_id":"5747226969","tag":{"amenity":"recycling","operator":"Bordeaux M\u00c3\u00a9tropole","recycling:glass_bottles":"yes","recycling_type":"container","ref:FR:CUB":"VO30"}},"type":"Feature"},
	{"geometry":{"coordinates":[-0.533625,44.776815],"type":"Point"},"properties":{"osm_id":"5819002479","tag":{"amenity":"waste_disposal"}},"type":"Feature"},
	{"geometry":{"coordinates":[-0.614199,44.742272],"type":"Point"},"properties":{"osm_id":"6070491132","tag":{"amenity":"recycling","recycling:glass_bottles":"yes","recycling_type":"container"}},"type":"Feature"},
	{"geometry":{"coordinates":[-0.590745,44.731164],"type":"Point"},"properties":{"osm_id":"6299182888","tag":{"amenity":"recycling","recycling_type":"container"}},"type":"Feature"},
	{"geometry":{"coordinates":[-0.551124,44.775096],"type":"Point"},"properties":{"osm_id":"6425559008","tag":{"amenity":"recycling","mapillary":"ysSi_mi6s_pSg8T1q-s9fg","operator":"Actifrip","recycling:clothes":"yes","recycling:shoes":"yes","recycling_type":"container"}},"type":"Feature"},
	{"geometry":{"coordinates":[-0.584339,44.773965],"type":"Point"},"properties":{"osm_id":"6425564411","tag":{"amenity":"recycling","mapillary":"4RTVe-p8CO5jelLDzu9vaA","operator":"Actifrip","recycling:clothes":"yes","recycling:shoes":"yes","recycling_type":"container"}},"type":"Feature"},
	{"geometry":{"coordinates":[-0.531725,44.775435],"type":"Point"},"properties":{"osm_id":"6425592627","tag":{"amenity":"recycling","mapillary":"1thhlecF0FvfJzem_AJEIg","operator":"Actifrip","recycling:clothes":"yes","recycling:shoes":"yes","recycling_type":"container"}},"type":"Feature"},
	{"geometry":{"coordinates":[-0.543536,44.774644],"type":"Point"},"properties":{"osm_id":"6425604569","tag":{"amenity":"recycling","mapillary":"Aht64k7F0RK8bglOiVWj3A","operator":"Actifrip","recycling:clothes":"yes","recycling:shoes":"yes","recycling_type":"container"}},"type":"Feature"},
	{"geometry":{"coordinates":[-0.565282,44.759698],"type":"Point"},"properties":{"osm_id":"6425613896","tag":{"amenity":"recycling","mapillary":"keLS9v2n2F1158p18IfZ4Q","operator":"Actifrip","recycling:clothes":"yes","recycling:shoes":"yes","recycling_type":"container"}},"type":"Feature"},
	{"geometry":{"coordinates":[-0.583586,44.75745],"type":"Point"},"properties":{"osm_id":"6425621882","tag":{"amenity":"recycling","mapillary":"aH99eL8CVxVkx4AyBgbEJw","operator":"Actifrip","recycling:clothes":"yes","recycling:shoes":"yes","recycling_type":"container"}},"type":"Feature"},
	{"geometry":{"coordinates":[-0.584287,44.760268],"type":"Point"},"properties":{"osm_id":"6425624705","tag":{"amenity":"recycling","operator":"Actifrip","recycling:clothes":"yes","recycling:shoes":"yes","recycling_type":"container"}},"type":"Feature"},
	{"geometry":{"coordinates":[-0.587933,44.764517],"type":"Point"},"properties":{"osm_id":"6425626840","tag":{"amenity":"recycling","mapillary":"ZaPuz2H4D7xaqf6dK9WEjg","operator":"Actifrip","recycling:clothes":"yes","recycling:shoes":"yes","recycling_type":"container"}},"type":"Feature"},
	{"geometry":{"coordinates":[-0.579421,44.766161],"type":"Point"},"properties":{"osm_id":"6425630512","tag":{"amenity":"recycling","operator":"Actifrip","recycling:clothes":"yes","recycling:shoes":"yes","recycling_type":"container"}},"type":"Feature"},
	{"geometry":{"coordinates":[-0.577319,44.764411],"type":"Point"},"properties":{"osm_id":"6425632919","tag":{"amenity":"recycling","operator":"Actifrip","recycling:clothes":"yes","recycling:shoes":"yes","recycling_type":"container"}},"type":"Feature"},
	{"geometry":{"coordinates":[-0.540171,44.770951],"type":"Point"},"properties":{"osm_id":"6425657384","tag":{"amenity":"recycling","mapillary":"Aht64k7F0RK8bglOiVWj3A","operator":"Actifrip","recycling:clothes":"yes","recycling:shoes":"yes","recycling_type":"container"}},"type":"Feature"},
	{"geometry":{"coordinates":[-0.563523,44.768263],"type":"Point"},"properties":{"osm_id":"6425662589","tag":{"amenity":"recycling","mapillary":"scWd8dsK4G_I-VduYIBmJw","operator":"Actifrip","recycling:clothes":"yes","recycling:shoes":"yes","recycling_type":"container"}},"type":"Feature"},
	{"geometry":{"coordinates":[-0.556078,44.77085],"type":"Point"},"properties":{"osm_id":"6425668489","tag":{"amenity":"recycling","mapillary":"Ag6-mTOlVKVn7XjTy2e4Pg","operator":"Actifrip","recycling:clothes":"yes","recycling:shoes":"yes","recycling_type":"container"}},"type":"Feature"},
	{"geometry":{"coordinates":[-0.559645,44.76493],"type":"Point"},"properties":{"osm_id":"6425671662","tag":{"amenity":"recycling","mapillary":"2MKu6ntTuqYTbPRugQSjkw","operator":"Actifrip","recycling:clothes":"yes","recycling:shoes":"yes","recycling_type":"container"}},"type":"Feature"},
	{"geometry":{"coordinates":[-0.577359,44.754911],"type":"Point"},"properties":{"osm_id":"6425680359","tag":{"amenity":"recycling","mapillary":"Gv2uk1cBKJKqP7YoRdkpiA","operator":"Actifrip","recycling:clothes":"yes","recycling:shoes":"yes","recycling_type":"container"}},"type":"Feature"},
	{"geometry":{"coordinates":[-0.579166,44.753127],"type":"Point"},"properties":{"osm_id":"6425687031","tag":{"amenity":"recycling","mapillary":"qHOYP5NY1ia7BR1lhPXYYg","operator":"Actifrip","recycling:clothes":"yes","recycling:shoes":"yes","recycling_type":"container"}},"type":"Feature"},
	{"geometry":{"coordinates":[-0.568135,44.777718],"type":"Point"},"properties":{"osm_id":"6480064085","tag":{"amenity":"waste_basket"}},"type":"Feature"},
	{"geometry":{"coordinates":[-0.559144,44.768139],"type":"Point"},"properties":{"osm_id":"6867138134","tag":{"amenity":"waste_basket"}},"type":"Feature"},
	{"geometry":{"coordinates":[-0.60844,44.766587],"type":"Point"},"properties":{"osm_id":"6967547432","tag":{"amenity":"waste_basket"}},"type":"Feature"},
	{"geometry":{"coordinates":[-0.615057,44.735147],"type":"Point"},"properties":{"osm_id":"7436755948","tag":{"amenity":"recycling","recycling:glass_bottles":"yes","recycling_type":"container"}},"type":"Feature"}
]
}
