{
"type": "FeatureCollection",
"features": [
	{"geometry":{"coordinates":[-0.593625,43.656052],"type":"Point"},"properties":{"osm_id":"8579443206","tag":{"amenity":"waste_disposal","operator":"Sietom de Chalosse"}},"type":"Feature"},
	{"geometry":{"coordinates":[-0.60647,43.666204],"type":"Point"},"properties":{"name":"Lotissement Laouilhe","osm_id":"8579452321","tag":{"amenity":"recycling","operator":"Sietom de Chalosse","recycling:glass_bottles":"yes","recycling:paper":"yes","recycling:plastic_bottles":"yes","recycling_type":"container"}},"type":"Feature"},
	{"geometry":{"coordinates":[-0.589196,43.650256],"type":"Point"},"properties":{"osm_id":"8579460808","tag":{"amenity":"waste_basket"}},"type":"Feature"},
	{"geometry":{"coordinates":[-0.593086,43.65533],"type":"Point"},"properties":{"osm_id":"8579464592","tag":{"amenity":"waste_disposal","operator":"Sietom de Chalosse"}},"type":"Feature"},
	{"geometry":{"coordinates":[-0.604377,43.647947],"type":"Point"},"properties":{"osm_id":"8579464909","tag":{"amenity":"recycling","operator":"Sietom de Chalosse","recycling:glass_bottles":"yes","recycling:paper":"yes","recycling:plastic_bottles":"yes","recycling_type":"container"}},"type":"Feature"},
	{"geometry":{"coordinates":[-0.598556,43.659957],"type":"Point"},"properties":{"osm_id":"8579464985","tag":{"amenity":"recycling","operator":"Sietom de Chalosse","recycling:glass_bottles":"yes","recycling:paper":"yes","recycling:plastic_bottles":"yes","recycling_type":"container"}},"type":"Feature"}
]
}
