{
"type": "FeatureCollection",
"features": [
	{"geometry":{"coordinates":[-0.551283,42.569],"type":"Point"},"properties":{"osm_id":"4041670628","tag":{"addr:city":"Jaca","addr:postcode":"22700","addr:street":"Calle de Domingo Miral","amenity":"recycling","recycling:cans":"yes","recycling:glass_bottles":"yes","recycling:paper":"yes","recycling:plastic":"yes","recycling_type":"container"}},"type":"Feature"},
	{"geometry":{"coordinates":[-0.551229,42.569085],"type":"Point"},"properties":{"osm_id":"4041670629","tag":{"amenity":"waste_disposal"}},"type":"Feature"},
	{"geometry":{"coordinates":[-0.552294,42.568859],"type":"Point"},"properties":{"osm_id":"4041808974","tag":{"amenity":"waste_disposal"}},"type":"Feature"},
	{"geometry":{"coordinates":[-0.552369,42.567659],"type":"Point"},"properties":{"osm_id":"4041832805","tag":{"amenity":"waste_disposal"}},"type":"Feature"},
	{"geometry":{"coordinates":[-0.552399,42.567669],"type":"Point"},"properties":{"osm_id":"4041832806","tag":{"addr:city":"Jaca","addr:postcode":"22700","addr:street":"Calle Coso","amenity":"recycling","recycling:cans":"yes","recycling:glass_bottles":"yes","recycling:plastic":"yes","recycling_type":"container"}},"type":"Feature"},
	{"geometry":{"coordinates":[-0.551794,42.568195],"type":"Point"},"properties":{"osm_id":"4042028526","tag":{"amenity":"waste_disposal"}},"type":"Feature"},
	{"geometry":{"coordinates":[-0.551803,42.568183],"type":"Point"},"properties":{"osm_id":"4042028527","tag":{"addr:city":"Jaca","addr:housenumber":"19","addr:postcode":"22700","addr:street":"Calle de Domingo Miral","amenity":"recycling","recycling:glass_bottles":"yes","recycling:paper":"yes","recycling_type":"container"}},"type":"Feature"},
	{"geometry":{"coordinates":[-0.548992,42.566861],"type":"Point"},"properties":{"osm_id":"4045984008","tag":{"addr:city":"Jaca","addr:housenumber":"12","addr:postcode":"22700","addr:street":"Avenida de Oroel","amenity":"waste_disposal"}},"type":"Feature"},
	{"geometry":{"coordinates":[-0.548952,42.566881],"type":"Point"},"properties":{"osm_id":"4045984009","tag":{"addr:city":"Jaca","addr:housenumber":"12","addr:postcode":"22700","addr:street":"Avenida de Oroel","amenity":"recycling","recycling:cans":"yes","recycling:glass_bottles":"yes","recycling:paper":"yes","recycling:plastic":"yes","recycling_type":"container"}},"type":"Feature"},
	{"geometry":{"coordinates":[-0.552116,42.566343],"type":"Point"},"properties":{"osm_id":"4053257299","tag":{"addr:city":"Jaca","addr:housenumber":"34","addr:postcode":"22700","addr:street":"Avenida de Oroel","amenity":"recycling","recycling:cans":"yes","recycling:paper":"yes","recycling:plastic":"yes","recycling_type":"container"}},"type":"Feature"},
	{"geometry":{"coordinates":[-0.549576,42.571386],"type":"Point"},"properties":{"osm_id":"4058917931","tag":{"addr:city":"Jaca","addr:housenumber":"10","addr:postcode":"22700","addr:street":"Avenida Jacetania","amenity":"recycling","recycling:glass_bottles":"yes","recycling:organic_waste":"yes","recycling_type":"container"}},"type":"Feature"},
	{"geometry":{"coordinates":[-0.548668,42.571498],"type":"Point"},"properties":{"osm_id":"4422195284","tag":{"amenity":"recycling","recycling:glass_bottles":"yes","recycling:organic_waste":"yes","recycling:paper":"yes","recycling:plastic_bottles":"yes","recycling_type":"container"}},"type":"Feature"},
	{"geometry":{"coordinates":[-0.548884,42.57209],"type":"Point"},"properties":{"osm_id":"4422220609","tag":{"amenity":"recycling","recycling:organic_waste":"yes","recycling:paper":"yes","recycling:plastic":"yes","recycling_type":"container"}},"type":"Feature"},
	{"geometry":{"coordinates":[-0.55248,42.574608],"type":"Point"},"properties":{"osm_id":"4423463758","tag":{"addr:city":"Jaca","addr:postcode":"22700","addr:street":"Calle Burnao","amenity":"recycling","recycling:glass_bottles":"yes","recycling:organic_waste":"yes","recycling:paper":"yes","recycling:plastic_bottles":"yes","recycling_type":"container"}},"type":"Feature"},
	{"geometry":{"coordinates":[-0.537252,42.582667],"type":"Point"},"properties":{"osm_id":"4423865954","tag":{"amenity":"waste_basket"}},"type":"Feature"},
	{"geometry":{"coordinates":[-0.537401,42.582707],"type":"Point"},"properties":{"osm_id":"4423865955","tag":{"amenity":"waste_basket"}},"type":"Feature"},
	{"geometry":{"coordinates":[-0.533384,42.58263],"type":"Point"},"properties":{"osm_id":"4424384071","tag":{"addr:city":"Jaca","addr:postcode":"22700","addr:street":"Calle Calzada de Rapit\u00c3\u00a1n","amenity":"recycling","recycling:glass_bottles":"yes","recycling:organic_waste":"yes","recycling:paper":"yes","recycling:plastic_bottles":"yes","recycling_type":"container"}},"type":"Feature"},
	{"geometry":{"coordinates":[-0.534857,42.581095],"type":"Point"},"properties":{"osm_id":"4424894433","tag":{"amenity":"waste_basket"}},"type":"Feature"},
	{"geometry":{"coordinates":[-0.536127,42.581465],"type":"Point"},"properties":{"osm_id":"4424906464","tag":{"addr:city":"Jaca","addr:postcode":"22700","addr:street":"Calle Doctor Mara\u00c3\u00b1\u00c3\u00b3n","amenity":"recycling","recycling:organic_waste":"yes","recycling_type":"container"}},"type":"Feature"},
	{"geometry":{"coordinates":[-0.539098,42.58095],"type":"Point"},"properties":{"osm_id":"4425119361","tag":{"addr:city":"Jaca","addr:postcode":"22700","addr:street":"Calle de Rapit\u00c3\u00a1n","amenity":"recycling","recycling:glass_bottles":"yes","recycling:organic_waste":"yes","recycling:paper":"yes","recycling:plastic_bottles":"yes","recycling_type":"container"}},"type":"Feature"},
	{"geometry":{"coordinates":[-0.53345,42.577506],"type":"Point"},"properties":{"osm_id":"4426608892","tag":{"addr:city":"Jaca","addr:postcode":"22700","addr:street":"Calle Fondab\u00c3\u00b3s","amenity":"recycling","recycling:organic_waste":"yes","recycling:paper":"yes","recycling:plastic":"yes","recycling_type":"container"}},"type":"Feature"},
	{"geometry":{"coordinates":[-0.551237,42.569795],"type":"Point"},"properties":{"osm_id":"5662932723","tag":{"amenity":"waste_basket"}},"type":"Feature"},
	{"geometry":{"coordinates":[-0.547672,42.572239],"type":"Point"},"properties":{"osm_id":"6726424484","tag":{"amenity":"recycling","recycling:organic_waste":"yes","recycling_type":"container"}},"type":"Feature"},
	{"geometry":{"coordinates":[-0.554879,42.568062],"type":"Point"},"properties":{"osm_id":"7101089527","tag":{"amenity":"waste_basket"}},"type":"Feature"},
	{"geometry":{"coordinates":[-0.536164,42.588317],"type":"Point"},"properties":{"osm_id":"7101403219","tag":{"amenity":"waste_basket"}},"type":"Feature"}
]
}
