{
"type": "FeatureCollection",
"features": [
	{"geometry":{"coordinates":[14.802518,51.139343],"type":"Point"},"properties":{"osm_id":"1102573307","tag":{"amenity":"recycling"}},"type":"Feature"},
	{"geometry":{"coordinates":[14.80923,51.146029],"type":"Point"},"properties":{"osm_id":"1102573314","tag":{"amenity":"recycling"}},"type":"Feature"},
	{"geometry":{"coordinates":[14.797751,51.135108],"type":"Point"},"properties":{"osm_id":"2705649635","tag":{"amenity":"recycling","recycling:clothes":"yes","recycling_type":"container"}},"type":"Feature"},
	{"geometry":{"coordinates":[14.811968,51.156747],"type":"Point"},"properties":{"osm_id":"4298918840","tag":{"amenity":"recycling","recycling_type":"container"}},"type":"Feature"},
	{"geometry":{"coordinates":[14.779405,51.126635],"type":"Point"},"properties":{"name":"Altglas","osm_id":"5903899551","tag":{"amenity":"recycling"}},"type":"Feature"},
	{"geometry":{"coordinates":[14.794372,51.161178],"type":"Point"},"properties":{"osm_id":"7133591041","tag":{"amenity":"recycling"}},"type":"Feature"}
]
}
