{
"type": "FeatureCollection",
"features": [
	{"geometry":{"coordinates":[14.770412,50.93482],"type":"Point"},"properties":{"osm_id":"262164061","tag":{"amenity":"recycling","recycling:glass":"yes"}},"type":"Feature"},
	{"geometry":{"coordinates":[14.821479,50.904733],"type":"Point"},"properties":{"osm_id":"264797198","tag":{"amenity":"recycling"}},"type":"Feature"},
	{"geometry":{"coordinates":[14.807107,50.908517],"type":"Point"},"properties":{"osm_id":"270091308","tag":{"amenity":"recycling"}},"type":"Feature"},
	{"geometry":{"coordinates":[14.812389,50.908999],"type":"Point"},"properties":{"osm_id":"270091427","tag":{"amenity":"recycling","recycling:clothes":"yes","recycling:glass":"yes","recycling_type":"container"}},"type":"Feature"},
	{"geometry":{"coordinates":[14.770468,50.925076],"type":"Point"},"properties":{"osm_id":"416995957","tag":{"amenity":"recycling","recycling:clothes":"yes","recycling:glass":"yes"}},"type":"Feature"},
	{"geometry":{"coordinates":[14.801241,50.944628],"type":"Point"},"properties":{"osm_id":"690816203","tag":{"amenity":"recycling","recycling_type":"container"}},"type":"Feature"},
	{"geometry":{"coordinates":[14.794383,50.948664],"type":"Point"},"properties":{"osm_id":"690827818","tag":{"amenity":"recycling","recycling_type":"container"}},"type":"Feature"},
	{"geometry":{"coordinates":[14.802946,50.903148],"type":"Point"},"properties":{"osm_id":"1007968237","tag":{"amenity":"recycling","recycling:clothes":"yes","recycling:glass":"yes"}},"type":"Feature"},
	{"geometry":{"coordinates":[14.782229,50.913136],"type":"Point"},"properties":{"osm_id":"1274670178","tag":{"amenity":"waste_basket"}},"type":"Feature"},
	{"geometry":{"coordinates":[14.806518,50.90383],"type":"Point"},"properties":{"osm_id":"2552806396","tag":{"amenity":"waste_basket"}},"type":"Feature"},
	{"geometry":{"coordinates":[14.806083,50.904093],"type":"Point"},"properties":{"osm_id":"2552806428","tag":{"amenity":"waste_basket"}},"type":"Feature"},
	{"geometry":{"coordinates":[14.805375,50.904095],"type":"Point"},"properties":{"osm_id":"2552806432","tag":{"amenity":"waste_basket"}},"type":"Feature"},
	{"geometry":{"coordinates":[14.803555,50.920767],"type":"Point"},"properties":{"osm_id":"2670102472","tag":{"amenity":"recycling","recycling:glass":"yes","recycling_type":"container"}},"type":"Feature"},
	{"geometry":{"coordinates":[14.807399,50.939213],"type":"Point"},"properties":{"osm_id":"4677350952","tag":{"amenity":"recycling","recycling:clothes":"yes","recycling:glass":"yes","recycling_type":"container"}},"type":"Feature"},
	{"geometry":{"coordinates":[14.767734,50.903654],"type":"Point"},"properties":{"name":"Wertstoffhof","osm_id":"4697355859","tag":{"addr:city":"Zittau","addr:country":"DE","addr:housenumber":"15","addr:postcode":"02763","addr:street":"H\u00c3\u00b6rnitzer Stra\u00c3\u009fe","amenity":"recycling","email":"info@abfall-eglz.de","fax":"+493585-4169-69","operator":"Entsorgungsgesellschaft G\u00c3\u00b6rlitz-L\u00c3\u00b6bau-Zittau mbH","phone":"+493585-4169-0","recycling:batteries":"yes","recycling:cans":"yes","recycling:cardboard":"yes","recycling:clothes":"yes","recycling:electrical_appliances":"yes","recycling:glass":"no","recycling:glass_bottles":"yes","recycling:paper":"yes","recycling:plastic":"yes","recycling:plastic_bottles":"yes","recycling:scrap_metal":"yes","recycling:shoes":"yes","recycling:small_appliances":"yes","recycling_type":"centre","website":"https://www.abfall-eglz.de/149.0.html","wheelchair":"yes"}},"type":"Feature"},
	{"geometry":{"coordinates":[14.807927,50.940472],"type":"Point"},"properties":{"osm_id":"5046763623","tag":{"amenity":"recycling","recycling_type":"container"}},"type":"Feature"}
]
}
