{
"type": "FeatureCollection",
"features": [
	{"geometry":{"coordinates":[14.80574,50.883018],"type":"Point"},"properties":{"osm_id":"262514131","tag":{"amenity":"recycling"}},"type":"Feature"},
	{"geometry":{"coordinates":[14.806911,50.880712],"type":"Point"},"properties":{"osm_id":"262514235","tag":{"amenity":"recycling"}},"type":"Feature"},
	{"geometry":{"coordinates":[14.786485,50.884837],"type":"Point"},"properties":{"osm_id":"264052135","tag":{"amenity":"recycling","recycling:clothes":"yes","recycling:glass_bottles":"yes","recycling_type":"container"}},"type":"Feature"},
	{"geometry":{"coordinates":[14.814646,50.901989],"type":"Point"},"properties":{"osm_id":"264788228","tag":{"amenity":"recycling","recycling:cans":"no","recycling:clothes":"yes","recycling:glass":"no","recycling:glass_bottles":"yes","recycling:paper":"no","recycling:plastic":"no","recycling_type":"container"}},"type":"Feature"},
	{"geometry":{"coordinates":[14.780353,50.879897],"type":"Point"},"properties":{"osm_id":"265781213","tag":{"amenity":"recycling","recycling:clothes":"yes","recycling:glass_bottles":"yes","recycling_type":"container"}},"type":"Feature"},
	{"geometry":{"coordinates":[14.803638,50.885986],"type":"Point"},"properties":{"osm_id":"265781349","tag":{"amenity":"recycling","recycling:glass":"yes","recycling_type":"container"}},"type":"Feature"},
	{"geometry":{"coordinates":[14.766651,50.872296],"type":"Point"},"properties":{"osm_id":"268099716","tag":{"amenity":"recycling","recycling:clothes":"yes","recycling:glass_bottles":"yes","recycling_type":"container"}},"type":"Feature"},
	{"geometry":{"coordinates":[14.814763,50.888538],"type":"Point"},"properties":{"osm_id":"270319903","tag":{"amenity":"recycling"}},"type":"Feature"},
	{"geometry":{"coordinates":[14.816089,50.891161],"type":"Point"},"properties":{"osm_id":"270319905","tag":{"amenity":"recycling"}},"type":"Feature"},
	{"geometry":{"coordinates":[14.814227,50.894251],"type":"Point"},"properties":{"osm_id":"270319955","tag":{"amenity":"recycling","recycling:clothes":"yes","recycling:glass":"yes","recycling_type":"container","wheelchair":"yes"}},"type":"Feature"},
	{"geometry":{"coordinates":[14.814435,50.889712],"type":"Point"},"properties":{"osm_id":"391287583","tag":{"amenity":"recycling"}},"type":"Feature"},
	{"geometry":{"coordinates":[14.804488,50.890949],"type":"Point"},"properties":{"osm_id":"391337141","tag":{"amenity":"recycling","recycling:clothes":"yes","recycling:glass_bottles":"yes","recycling_type":"container"}},"type":"Feature"},
	{"geometry":{"coordinates":[14.820595,50.891621],"type":"Point"},"properties":{"osm_id":"655290911","tag":{"amenity":"recycling","recycling:glass":"yes"}},"type":"Feature"},
	{"geometry":{"coordinates":[14.823084,50.891825],"type":"Point"},"properties":{"osm_id":"899432182","tag":{"amenity":"recycling","recycling:glass":"yes"}},"type":"Feature"},
	{"geometry":{"coordinates":[14.808067,50.896033],"type":"Point"},"properties":{"osm_id":"911853507","tag":{"amenity":"waste_basket"}},"type":"Feature"},
	{"geometry":{"coordinates":[14.803935,50.898902],"type":"Point"},"properties":{"osm_id":"911853562","tag":{"amenity":"waste_basket"}},"type":"Feature"},
	{"geometry":{"coordinates":[14.769627,50.870268],"type":"Point"},"properties":{"osm_id":"923498933","tag":{"amenity":"waste_basket"}},"type":"Feature"},
	{"geometry":{"coordinates":[14.788449,50.895748],"type":"Point"},"properties":{"osm_id":"1187346367","tag":{"amenity":"recycling"}},"type":"Feature"},
	{"geometry":{"coordinates":[14.79878,50.893518],"type":"Point"},"properties":{"osm_id":"1409056053","tag":{"amenity":"recycling","recycling:clothes":"yes","recycling:glass_bottles":"yes","recycling_type":"container"}},"type":"Feature"},
	{"geometry":{"coordinates":[14.799128,50.863229],"type":"Point"},"properties":{"osm_id":"1871187749","tag":{"amenity":"recycling","recycling:cans":"no","recycling:clothes":"yes","recycling:glass":"yes","recycling:paper":"no"}},"type":"Feature"},
	{"geometry":{"coordinates":[14.773635,50.877028],"type":"Point"},"properties":{"osm_id":"2232534282","tag":{"amenity":"recycling","recycling:clothes":"yes","recycling:glass_bottles":"yes","recycling_type":"container"}},"type":"Feature"},
	{"geometry":{"coordinates":[14.801971,50.897767],"type":"Point"},"properties":{"osm_id":"2384661804","tag":{"amenity":"waste_basket"}},"type":"Feature"},
	{"geometry":{"coordinates":[14.801798,50.897791],"type":"Point"},"properties":{"osm_id":"2384661808","tag":{"amenity":"waste_basket"}},"type":"Feature"},
	{"geometry":{"coordinates":[14.801595,50.897818],"type":"Point"},"properties":{"osm_id":"2384661811","tag":{"amenity":"waste_basket"}},"type":"Feature"},
	{"geometry":{"coordinates":[14.806118,50.896117],"type":"Point"},"properties":{"osm_id":"2534821866","tag":{"amenity":"waste_basket"}},"type":"Feature"},
	{"geometry":{"coordinates":[14.806134,50.896174],"type":"Point"},"properties":{"osm_id":"2534821869","tag":{"amenity":"waste_basket"}},"type":"Feature"},
	{"geometry":{"coordinates":[14.801525,50.897012],"type":"Point"},"properties":{"osm_id":"2537546319","tag":{"amenity":"waste_basket"}},"type":"Feature"},
	{"geometry":{"coordinates":[14.801624,50.897166],"type":"Point"},"properties":{"osm_id":"2537546323","tag":{"amenity":"waste_basket"}},"type":"Feature"},
	{"geometry":{"coordinates":[14.801466,50.894982],"type":"Point"},"properties":{"osm_id":"2551397680","tag":{"amenity":"waste_basket"}},"type":"Feature"},
	{"geometry":{"coordinates":[14.80164,50.895104],"type":"Point"},"properties":{"osm_id":"2551397692","tag":{"amenity":"waste_basket"}},"type":"Feature"},
	{"geometry":{"coordinates":[14.801475,50.895277],"type":"Point"},"properties":{"osm_id":"2551397699","tag":{"amenity":"waste_basket"}},"type":"Feature"},
	{"geometry":{"coordinates":[14.801245,50.895464],"type":"Point"},"properties":{"osm_id":"2551397711","tag":{"amenity":"waste_basket"}},"type":"Feature"},
	{"geometry":{"coordinates":[14.801456,50.895534],"type":"Point"},"properties":{"osm_id":"2551397716","tag":{"amenity":"waste_basket"}},"type":"Feature"},
	{"geometry":{"coordinates":[14.801268,50.89579],"type":"Point"},"properties":{"osm_id":"2551397721","tag":{"amenity":"waste_basket"}},"type":"Feature"},
	{"geometry":{"coordinates":[14.807726,50.898824],"type":"Point"},"properties":{"osm_id":"2552009473","tag":{"amenity":"waste_basket"}},"type":"Feature"},
	{"geometry":{"coordinates":[14.806804,50.89893],"type":"Point"},"properties":{"osm_id":"2552009484","tag":{"amenity":"waste_basket"}},"type":"Feature"},
	{"geometry":{"coordinates":[14.806751,50.898936],"type":"Point"},"properties":{"osm_id":"2552009490","tag":{"amenity":"waste_basket"}},"type":"Feature"},
	{"geometry":{"coordinates":[14.805616,50.900643],"type":"Point"},"properties":{"osm_id":"2552009503","tag":{"amenity":"waste_basket"}},"type":"Feature"},
	{"geometry":{"coordinates":[14.806095,50.902321],"type":"Point"},"properties":{"osm_id":"2552806365","tag":{"amenity":"waste_basket"}},"type":"Feature"},
	{"geometry":{"coordinates":[14.808846,50.895168],"type":"Point"},"properties":{"osm_id":"2628954741","tag":{"amenity":"waste_basket"}},"type":"Feature"},
	{"geometry":{"coordinates":[14.809276,50.895175],"type":"Point"},"properties":{"osm_id":"2788208725","tag":{"amenity":"recycling","recycling:glass":"yes"}},"type":"Feature"},
	{"geometry":{"coordinates":[14.799035,50.894828],"type":"Point"},"properties":{"osm_id":"2828897725","tag":{"amenity":"recycling","recycling:batteries":"yes","recycling:cans":"yes","recycling:paper":"yes","recycling:scrap_metal":"yes","recycling_type":"centre"}},"type":"Feature"},
	{"geometry":{"coordinates":[14.772458,50.893348],"type":"Point"},"properties":{"osm_id":"3098800551","tag":{"amenity":"waste_basket"}},"type":"Feature"},
	{"geometry":{"coordinates":[14.782717,50.88541],"type":"Point"},"properties":{"osm_id":"3098852427","tag":{"amenity":"waste_basket"}},"type":"Feature"},
	{"geometry":{"coordinates":[14.782703,50.885415],"type":"Point"},"properties":{"osm_id":"3098852428","tag":{"amenity":"waste_basket"}},"type":"Feature"},
	{"geometry":{"coordinates":[14.780651,50.886275],"type":"Point"},"properties":{"osm_id":"3098854245","tag":{"amenity":"waste_basket"}},"type":"Feature"},
	{"geometry":{"coordinates":[14.772651,50.89328],"type":"Point"},"properties":{"osm_id":"3152629177","tag":{"amenity":"waste_basket"}},"type":"Feature"},
	{"geometry":{"coordinates":[14.773451,50.893563],"type":"Point"},"properties":{"osm_id":"3152629193","tag":{"amenity":"waste_basket"}},"type":"Feature"},
	{"geometry":{"coordinates":[14.82169,50.866525],"type":"Point"},"properties":{"osm_id":"3161935063","tag":{"amenity":"waste_basket"}},"type":"Feature"},
	{"geometry":{"coordinates":[14.820387,50.872477],"type":"Point"},"properties":{"osm_id":"3161935070","tag":{"amenity":"waste_basket"}},"type":"Feature"},
	{"geometry":{"coordinates":[14.819496,50.873391],"type":"Point"},"properties":{"osm_id":"3161935072","tag":{"amenity":"waste_basket"}},"type":"Feature"},
	{"geometry":{"coordinates":[14.818651,50.87479],"type":"Point"},"properties":{"osm_id":"3161935074","tag":{"amenity":"waste_basket"}},"type":"Feature"},
	{"geometry":{"coordinates":[14.817843,50.877605],"type":"Point"},"properties":{"osm_id":"3161935076","tag":{"amenity":"waste_basket"}},"type":"Feature"},
	{"geometry":{"coordinates":[14.817512,50.878225],"type":"Point"},"properties":{"osm_id":"3161935078","tag":{"amenity":"waste_basket"}},"type":"Feature"},
	{"geometry":{"coordinates":[14.817085,50.880427],"type":"Point"},"properties":{"osm_id":"3161935079","tag":{"amenity":"waste_basket"}},"type":"Feature"},
	{"geometry":{"coordinates":[14.818434,50.883561],"type":"Point"},"properties":{"osm_id":"3161935081","tag":{"amenity":"waste_basket"}},"type":"Feature"},
	{"geometry":{"coordinates":[14.808093,50.89346],"type":"Point"},"properties":{"osm_id":"4083080858","tag":{"amenity":"waste_basket"}},"type":"Feature"},
	{"geometry":{"coordinates":[14.812251,50.895515],"type":"Point"},"properties":{"osm_id":"4095860673","tag":{"amenity":"waste_basket"}},"type":"Feature"},
	{"geometry":{"coordinates":[14.812121,50.895562],"type":"Point"},"properties":{"osm_id":"4095860680","tag":{"amenity":"waste_basket"}},"type":"Feature"},
	{"geometry":{"coordinates":[14.811864,50.89622],"type":"Point"},"properties":{"osm_id":"4095861789","tag":{"amenity":"waste_basket"}},"type":"Feature"},
	{"geometry":{"coordinates":[14.811597,50.896575],"type":"Point"},"properties":{"osm_id":"4095861791","tag":{"amenity":"waste_basket"}},"type":"Feature"},
	{"geometry":{"coordinates":[14.811392,50.896818],"type":"Point"},"properties":{"osm_id":"4095861795","tag":{"amenity":"waste_basket"}},"type":"Feature"},
	{"geometry":{"coordinates":[14.782508,50.89993],"type":"Point"},"properties":{"osm_id":"4743025682","tag":{"amenity":"recycling","recycling:electrical_appliances":"no","recycling:paper":"no","recycling:scrap_metal":"yes","recycling_type":"centre"}},"type":"Feature"},
	{"geometry":{"coordinates":[14.785867,50.899633],"type":"Point"},"properties":{"osm_id":"4743656562","tag":{"amenity":"waste_disposal"}},"type":"Feature"},
	{"geometry":{"coordinates":[14.791689,50.899358],"type":"Point"},"properties":{"osm_id":"4743656755","tag":{"amenity":"waste_disposal"}},"type":"Feature"},
	{"geometry":{"coordinates":[14.803903,50.888834],"type":"Point"},"properties":{"osm_id":"4962744033","tag":{"amenity":"waste_basket"}},"type":"Feature"},
	{"geometry":{"coordinates":[14.776139,50.888132],"type":"Point"},"properties":{"osm_id":"4977644821","tag":{"amenity":"waste_basket"}},"type":"Feature"},
	{"geometry":{"coordinates":[14.803102,50.894128],"type":"Point"},"properties":{"osm_id":"5555212282","tag":{"amenity":"recycling","recycling:glass":"yes","recycling_type":"container"}},"type":"Feature"},
	{"geometry":{"coordinates":[14.806444,50.896238],"type":"Point"},"properties":{"osm_id":"5907811318","tag":{"amenity":"waste_basket"}},"type":"Feature"},
	{"geometry":{"coordinates":[14.805632,50.898684],"type":"Point"},"properties":{"osm_id":"5907811322","tag":{"amenity":"waste_basket"}},"type":"Feature"},
	{"geometry":{"coordinates":[14.805592,50.898874],"type":"Point"},"properties":{"osm_id":"5907811333","tag":{"amenity":"waste_basket"}},"type":"Feature"},
	{"geometry":{"coordinates":[14.806036,50.89665],"type":"Point"},"properties":{"osm_id":"6340651203","tag":{"amenity":"waste_basket"}},"type":"Feature"},
	{"geometry":{"coordinates":[14.809521,50.897348],"type":"Point"},"properties":{"osm_id":"6351081696","tag":{"amenity":"waste_basket"}},"type":"Feature"},
	{"geometry":{"coordinates":[14.808425,50.897351],"type":"Point"},"properties":{"osm_id":"6351081697","tag":{"amenity":"waste_basket"}},"type":"Feature"},
	{"geometry":{"coordinates":[14.787816,50.900162],"type":"Point"},"properties":{"osm_id":"6566682753","tag":{"amenity":"recycling","recycling:clothes":"yes","recycling:glass":"yes","recycling:glass_bottles":"yes","recycling:shoes":"yes","recycling_type":"container"}},"type":"Feature"},
	{"geometry":{"coordinates":[14.811375,50.892011],"type":"Point"},"properties":{"osm_id":"7091915661","tag":{"amenity":"waste_basket"}},"type":"Feature"},
	{"geometry":{"coordinates":[14.811445,50.892003],"type":"Point"},"properties":{"osm_id":"7091915662","tag":{"amenity":"waste_basket"}},"type":"Feature"},
	{"geometry":{"coordinates":[14.812014,50.885069],"type":"Point"},"properties":{"osm_id":"7105500640","tag":{"amenity":"recycling","opening_hours":"Mo-Sa 07:00-20:00; PH off","operator":"Bruno Halke & Sohn","recycling:glass":"no","recycling:glass_bottles":"yes","recycling_type":"container","survey:date":"2020-09-26"}},"type":"Feature"},
	{"geometry":{"coordinates":[14.826292,50.853916],"type":"Point"},"properties":{"osm_id":"7190849791","tag":{"amenity":"recycling","recycling:glass":"yes","recycling:paper":"yes","recycling:plastic":"yes","recycling:waste":"yes","recycling_type":"container"}},"type":"Feature"},
	{"geometry":{"coordinates":[14.826842,50.854393],"type":"Point"},"properties":{"osm_id":"7190849792","tag":{"amenity":"recycling","recycling:glass":"yes","recycling:paper":"yes","recycling:plastic":"yes","recycling_type":"container"}},"type":"Feature"},
	{"geometry":{"coordinates":[14.830689,50.85295],"type":"Point"},"properties":{"osm_id":"7190849799","tag":{"amenity":"recycling","recycling:glass":"yes","recycling:paper":"yes","recycling:plastic":"yes","recycling_type":"container"}},"type":"Feature"},
	{"geometry":{"coordinates":[14.825121,50.851078],"type":"Point"},"properties":{"osm_id":"7190849835","tag":{"amenity":"recycling","recycling:glass":"yes","recycling:paper":"yes","recycling:plastic":"yes","recycling_type":"container"}},"type":"Feature"},
	{"geometry":{"coordinates":[14.825379,50.868239],"type":"Point"},"properties":{"osm_id":"7761679851","tag":{"amenity":"waste_basket"}},"type":"Feature"},
	{"geometry":{"coordinates":[14.812008,50.885103],"type":"Point"},"properties":{"name":"Humana","osm_id":"7946130588","tag":{"amenity":"recycling","recycling:clothes":"yes","recycling:shoes":"yes","recycling_type":"container","survey:date":"2020-09-26"}},"type":"Feature"},
	{"geometry":{"coordinates":[14.812008,50.885126],"type":"Point"},"properties":{"name":"Betrieb Liebau","osm_id":"7946130589","tag":{"amenity":"recycling","recycling:clothes":"yes","recycling:shoes":"yes","recycling_type":"container","survey:date":"2020-09-26"}},"type":"Feature"},
	{"geometry":{"coordinates":[14.811241,50.885075],"type":"Point"},"properties":{"osm_id":"7947273239","tag":{"amenity":"waste_basket","survey:date":"2020-09-26"}},"type":"Feature"},
	{"geometry":{"coordinates":[14.811477,50.885143],"type":"Point"},"properties":{"osm_id":"7947273243","tag":{"amenity":"waste_basket","survey:date":"2020-09-26"}},"type":"Feature"},
	{"geometry":{"coordinates":[14.809829,50.882623],"type":"Point"},"properties":{"osm_id":"7947359257","tag":{"amenity":"waste_basket","material":"metal","survey:date":"2020-09-26"}},"type":"Feature"},
	{"geometry":{"coordinates":[14.810081,50.882477],"type":"Point"},"properties":{"osm_id":"7947359258","tag":{"amenity":"waste_basket","material":"metal","survey:date":"2020-09-26"}},"type":"Feature"},
	{"geometry":{"coordinates":[14.809385,50.886151],"type":"Point"},"properties":{"osm_id":"7950497429","tag":{"amenity":"waste_basket","material":"concrete","survey:date":"2020-09-26"}},"type":"Feature"},
	{"geometry":{"coordinates":[14.809106,50.886044],"type":"Point"},"properties":{"osm_id":"7950497430","tag":{"amenity":"waste_basket","material":"concrete","survey:date":"2020-09-26"}},"type":"Feature"}
]
}
