{
"type": "FeatureCollection",
"features": [
	{"geometry":{"coordinates":[14.852569,48.056346],"type":"Point"},"properties":{"osm_id":"304568461","tag":{"amenity":"recycling","recycling:cans":"yes","recycling:glass_bottles":"yes","recycling:plastic":"yes","recycling_type":"container"}},"type":"Feature"},
	{"geometry":{"coordinates":[14.819862,48.080738],"type":"Point"},"properties":{"osm_id":"1939342975","tag":{"amenity":"recycling"}},"type":"Feature"},
	{"geometry":{"coordinates":[14.818149,48.08177],"type":"Point"},"properties":{"osm_id":"1964102292","tag":{"amenity":"recycling","recycling_type":"container"}},"type":"Feature"},
	{"geometry":{"coordinates":[14.81088,48.083472],"type":"Point"},"properties":{"osm_id":"1964103625","tag":{"amenity":"recycling","recycling_type":"container"}},"type":"Feature"},
	{"geometry":{"coordinates":[14.808854,48.07637],"type":"Point"},"properties":{"osm_id":"1973922691","tag":{"amenity":"recycling","recycling:beverage_cartons":"yes","recycling:cans":"yes","recycling:glass_bottles":"yes","recycling:plastic_bags":"yes","recycling_type":"container"}},"type":"Feature"},
	{"geometry":{"coordinates":[14.81029,48.081196],"type":"Point"},"properties":{"osm_id":"1973925302","tag":{"amenity":"recycling","recycling_type":"container"}},"type":"Feature"},
	{"geometry":{"coordinates":[14.809696,48.069212],"type":"Point"},"properties":{"osm_id":"1995212986","tag":{"amenity":"recycling","recycling:aluminium":"yes","recycling:glass":"yes","recycling:metall":"yes"}},"type":"Feature"},
	{"geometry":{"coordinates":[14.815058,48.071941],"type":"Point"},"properties":{"osm_id":"1995213741","tag":{"amenity":"recycling"}},"type":"Feature"},
	{"geometry":{"coordinates":[14.800364,48.090516],"type":"Point"},"properties":{"osm_id":"2054490703","tag":{"amenity":"recycling"}},"type":"Feature"},
	{"geometry":{"coordinates":[14.800922,48.097937],"type":"Point"},"properties":{"osm_id":"2076389811","tag":{"amenity":"recycling"}},"type":"Feature"},
	{"geometry":{"coordinates":[14.817644,48.076354],"type":"Point"},"properties":{"osm_id":"2087437077","tag":{"amenity":"recycling"}},"type":"Feature"},
	{"geometry":{"coordinates":[14.829376,48.083074],"type":"Point"},"properties":{"osm_id":"2087440184","tag":{"amenity":"recycling","recycling:glass":"yes","recycling:metall":"yes"}},"type":"Feature"},
	{"geometry":{"coordinates":[14.82287,48.074917],"type":"Point"},"properties":{"osm_id":"2137480781","tag":{"amenity":"recycling"}},"type":"Feature"},
	{"geometry":{"coordinates":[14.8285,48.078406],"type":"Point"},"properties":{"osm_id":"2199323968","tag":{"amenity":"recycling"}},"type":"Feature"},
	{"geometry":{"coordinates":[14.830079,48.080725],"type":"Point"},"properties":{"osm_id":"2199324952","tag":{"amenity":"recycling"}},"type":"Feature"},
	{"geometry":{"coordinates":[14.844465,48.106369],"type":"Point"},"properties":{"osm_id":"2214568595","tag":{"amenity":"recycling"}},"type":"Feature"},
	{"geometry":{"coordinates":[14.842288,48.106747],"type":"Point"},"properties":{"osm_id":"2214568902","tag":{"amenity":"recycling","recycling:glass":"yes","recycling:metal_packaging":"yes","recycling:plastic_packaging":"yes","recycling_type":"container"}},"type":"Feature"},
	{"geometry":{"coordinates":[14.849376,48.087387],"type":"Point"},"properties":{"osm_id":"2295941126","tag":{"amenity":"recycling"}},"type":"Feature"},
	{"geometry":{"coordinates":[14.795996,48.091175],"type":"Point"},"properties":{"osm_id":"2672995942","tag":{"amenity":"recycling"}},"type":"Feature"},
	{"geometry":{"coordinates":[14.79831,48.095082],"type":"Point"},"properties":{"osm_id":"2672998518","tag":{"amenity":"recycling"}},"type":"Feature"},
	{"geometry":{"coordinates":[14.794763,48.098253],"type":"Point"},"properties":{"osm_id":"2720680988","tag":{"amenity":"recycling"}},"type":"Feature"},
	{"geometry":{"coordinates":[14.801575,48.100931],"type":"Point"},"properties":{"osm_id":"2720681706","tag":{"amenity":"recycling"}},"type":"Feature"},
	{"geometry":{"coordinates":[14.79492,48.103926],"type":"Point"},"properties":{"osm_id":"2720683081","tag":{"amenity":"recycling"}},"type":"Feature"},
	{"geometry":{"coordinates":[14.822954,48.097852],"type":"Point"},"properties":{"osm_id":"2801286602","tag":{"amenity":"recycling"}},"type":"Feature"},
	{"geometry":{"coordinates":[14.820146,48.098949],"type":"Point"},"properties":{"osm_id":"2801286817","tag":{"amenity":"recycling"}},"type":"Feature"},
	{"geometry":{"coordinates":[14.812215,48.079575],"type":"Point"},"properties":{"osm_id":"4121323772","tag":{"amenity":"recycling","recycling:clothes":"yes","recycling_type":"container"}},"type":"Feature"},
	{"geometry":{"coordinates":[14.808405,48.076068],"type":"Point"},"properties":{"osm_id":"4317937450","tag":{"access":"private","amenity":"recycling","recycling_type":"container"}},"type":"Feature"},
	{"geometry":{"coordinates":[14.808838,48.076175],"type":"Point"},"properties":{"osm_id":"4317937483","tag":{"access":"private","amenity":"recycling","recycling_type":"container"}},"type":"Feature"},
	{"geometry":{"coordinates":[14.81175,48.07932],"type":"Point"},"properties":{"osm_id":"4317938189","tag":{"access":"private","amenity":"recycling","recycling_type":"container"}},"type":"Feature"},
	{"geometry":{"coordinates":[14.809276,48.079402],"type":"Point"},"properties":{"osm_id":"4317938210","tag":{"amenity":"recycling"}},"type":"Feature"},
	{"geometry":{"coordinates":[14.811751,48.07945],"type":"Point"},"properties":{"osm_id":"4317938218","tag":{"access":"private","amenity":"recycling","recycling_type":"container"}},"type":"Feature"},
	{"geometry":{"coordinates":[14.811154,48.079871],"type":"Point"},"properties":{"osm_id":"4317938293","tag":{"access":"private","amenity":"recycling","recycling_type":"container"}},"type":"Feature"},
	{"geometry":{"coordinates":[14.838088,48.107038],"type":"Point"},"properties":{"osm_id":"5349637817","tag":{"amenity":"waste_basket"}},"type":"Feature"},
	{"geometry":{"coordinates":[14.836481,48.106554],"type":"Point"},"properties":{"osm_id":"5349638222","tag":{"amenity":"waste_basket"}},"type":"Feature"},
	{"geometry":{"coordinates":[14.815578,48.077134],"type":"Point"},"properties":{"osm_id":"6710294779","tag":{"amenity":"waste_basket","collection_times":"Freitag","waste":"dog_excrement"}},"type":"Feature"},
	{"geometry":{"coordinates":[14.823426,48.074984],"type":"Point"},"properties":{"osm_id":"6710419458","tag":{"amenity":"waste_basket","collection_times":"Feitag","waste":"dog_excrement"}},"type":"Feature"},
	{"geometry":{"coordinates":[14.796009,48.089038],"type":"Point"},"properties":{"osm_id":"6943083817","tag":{"amenity":"waste_basket"}},"type":"Feature"}
]
}
