{
"type": "FeatureCollection",
"features": [
	{"geometry":{"coordinates":[14.842543,47.22155],"type":"Point"},"properties":{"name":"Tierabf\u00c3\u00a4lle","osm_id":"6178878851","tag":{"addr:city":"Kobenz","addr:country":"AT","addr:district":"Murtal","addr:housenumber":"1","addr:place":"Murweg","addr:postcode":"8723","addr:street":"Murweg","amenity":"recycling","email":"office@awv-knittelfeld.at","fax":"+43 (0) 3512 838234","opening_hours":"Mo-Th 07:30-09:30,13:15-15:15; Fr 07:30-10:30","phone":"+43 (0) 3512 83823","recycling:animal_waste":"yes","recycling:cardboard":"no","recycling_type":"centre","website":"https://knittelfeld.gv.at/leben-in-knittelfeld/home/servicemenue/kommunalservice/abfallentsorgung/tierkoerperverwertung/"}},"type":"Feature"},
	{"geometry":{"coordinates":[14.820288,47.224587],"type":"Point"},"properties":{"osm_id":"6529026322","tag":{"amenity":"waste_basket","waste":"trash"}},"type":"Feature"},
	{"geometry":{"coordinates":[14.820058,47.225694],"type":"Point"},"properties":{"osm_id":"6529026339","tag":{"amenity":"waste_basket","waste":"trash"}},"type":"Feature"},
	{"geometry":{"coordinates":[14.815823,47.226263],"type":"Point"},"properties":{"osm_id":"6529026341","tag":{"amenity":"waste_basket","waste":"trash"}},"type":"Feature"},
	{"geometry":{"coordinates":[14.828747,47.226917],"type":"Point"},"properties":{"osm_id":"6529069106","tag":{"amenity":"waste_basket","waste":"trash"}},"type":"Feature"},
	{"geometry":{"coordinates":[14.829887,47.22725],"type":"Point"},"properties":{"osm_id":"6529069109","tag":{"amenity":"waste_basket","waste":"trash"}},"type":"Feature"},
	{"geometry":{"coordinates":[14.827705,47.266267],"type":"Point"},"properties":{"osm_id":"6536854628","tag":{"amenity":"recycling","recycling:cans":"yes","recycling:glass_bottles":"yes","recycling_type":"container","wheelchair":"yes"}},"type":"Feature"},
	{"geometry":{"coordinates":[14.820955,47.272014],"type":"Point"},"properties":{"osm_id":"6536854634","tag":{"amenity":"recycling","recycling:cans":"yes","recycling:clothes":"yes","recycling:glass_bottles":"yes","recycling_type":"container","wheelchair":"yes"}},"type":"Feature"},
	{"geometry":{"coordinates":[14.818859,47.277462],"type":"Point"},"properties":{"osm_id":"6536854642","tag":{"amenity":"waste_basket","waste":"trash"}},"type":"Feature"},
	{"geometry":{"coordinates":[14.844625,47.2385],"type":"Point"},"properties":{"osm_id":"6986006911","tag":{"amenity":"waste_basket","waste":"trash"}},"type":"Feature"},
	{"geometry":{"coordinates":[14.786298,47.251161],"type":"Point"},"properties":{"osm_id":"7242709800","tag":{"amenity":"waste_basket","waste":"trash"}},"type":"Feature"}
]
}
