{
"type": "FeatureCollection",
"features": [
	{"geometry":{"coordinates":[14.790348,46.962194],"type":"Point"},"properties":{"osm_id":"1807067039","tag":{"amenity":"recycling"}},"type":"Feature"},
	{"geometry":{"coordinates":[14.790085,46.963907],"type":"Point"},"properties":{"osm_id":"1807632644","tag":{"amenity":"waste_basket"}},"type":"Feature"},
	{"geometry":{"coordinates":[14.799241,46.962062],"type":"Point"},"properties":{"osm_id":"1808510379","tag":{"amenity":"waste_basket"}},"type":"Feature"},
	{"geometry":{"coordinates":[14.810222,46.949798],"type":"Point"},"properties":{"osm_id":"1808808420","tag":{"amenity":"recycling"}},"type":"Feature"},
	{"geometry":{"coordinates":[14.795728,46.962786],"type":"Point"},"properties":{"osm_id":"1825627463","tag":{"amenity":"recycling"}},"type":"Feature"},
	{"geometry":{"coordinates":[14.782131,46.977016],"type":"Point"},"properties":{"osm_id":"1871417349","tag":{"amenity":"recycling"}},"type":"Feature"},
	{"geometry":{"coordinates":[14.787426,46.962883],"type":"Point"},"properties":{"osm_id":"1936820435","tag":{"amenity":"waste_basket"}},"type":"Feature"},
	{"geometry":{"coordinates":[14.787301,46.966602],"type":"Point"},"properties":{"osm_id":"1937878996","tag":{"amenity":"recycling"}},"type":"Feature"},
	{"geometry":{"coordinates":[14.791034,46.960477],"type":"Point"},"properties":{"osm_id":"1939353440","tag":{"amenity":"recycling"}},"type":"Feature"},
	{"geometry":{"coordinates":[14.813711,46.945174],"type":"Point"},"properties":{"osm_id":"1944589199","tag":{"amenity":"recycling","recycling_type":"container"}},"type":"Feature"},
	{"geometry":{"coordinates":[14.799889,46.9618],"type":"Point"},"properties":{"osm_id":"1950466162","tag":{"amenity":"waste_basket"}},"type":"Feature"},
	{"geometry":{"coordinates":[14.794791,46.96164],"type":"Point"},"properties":{"osm_id":"1989962981","tag":{"amenity":"recycling"}},"type":"Feature"},
	{"geometry":{"coordinates":[14.842963,46.921499],"type":"Point"},"properties":{"osm_id":"1991138977","tag":{"amenity":"waste_basket"}},"type":"Feature"},
	{"geometry":{"coordinates":[14.84269,46.921533],"type":"Point"},"properties":{"osm_id":"1991139148","tag":{"amenity":"recycling"}},"type":"Feature"},
	{"geometry":{"coordinates":[14.846885,46.941927],"type":"Point"},"properties":{"osm_id":"2142938060","tag":{"amenity":"recycling"}},"type":"Feature"},
	{"geometry":{"coordinates":[14.794057,46.965622],"type":"Point"},"properties":{"name":"Hundekotm\u00c3\u00bcllkorb","osm_id":"3366698214","tag":{"amenity":"waste_basket","waste":"dog_excrement"}},"type":"Feature"},
	{"geometry":{"coordinates":[14.786295,46.963786],"type":"Point"},"properties":{"name":"Hundekotm\u00c3\u00bcllkorb","osm_id":"3366698216","tag":{"amenity":"waste_basket","waste":"dog_excrement"}},"type":"Feature"},
	{"geometry":{"coordinates":[14.80342,46.948596],"type":"Point"},"properties":{"osm_id":"5064179021","tag":{"amenity":"recycling","recycling_type":"container"}},"type":"Feature"}
]
}
