{
"type": "FeatureCollection",
"features": [
	{"geometry":{"coordinates":[14.832112,46.830545],"type":"Point"},"properties":{"osm_id":"336567213","tag":{"noexit":"yes"}},"type":"Feature"},
	{"geometry":{"coordinates":[14.848541,46.814741],"type":"Point"},"properties":{"osm_id":"1468459885","tag":{"amenity":"recycling","recycling:clothes":"yes","recycling:glass":"yes","recycling:metal":"yes","recycling:paper":"yes","recycling:plastic_packaging":"yes","recycling_type":"container"}},"type":"Feature"},
	{"geometry":{"coordinates":[14.84897,46.80692],"type":"Point"},"properties":{"osm_id":"1468460076","tag":{"amenity":"recycling","recycling:clothes":"yes","recycling:glass":"yes","recycling:metal":"yes","recycling:paper":"yes","recycling:plastic_packaging":"yes","recycling_type":"container"}},"type":"Feature"},
	{"geometry":{"coordinates":[14.849823,46.81102],"type":"Point"},"properties":{"osm_id":"1501397227","tag":{"amenity":"waste_basket"}},"type":"Feature"},
	{"geometry":{"coordinates":[14.850369,46.81153],"type":"Point"},"properties":{"osm_id":"1501397235","tag":{"amenity":"waste_basket"}},"type":"Feature"},
	{"geometry":{"coordinates":[14.850763,46.815529],"type":"Point"},"properties":{"osm_id":"1501397257","tag":{"amenity":"waste_basket"}},"type":"Feature"},
	{"geometry":{"coordinates":[14.850497,46.815971],"type":"Point"},"properties":{"osm_id":"1501397275","tag":{"amenity":"waste_basket"}},"type":"Feature"},
	{"geometry":{"coordinates":[14.847673,46.8127],"type":"Point"},"properties":{"osm_id":"1501655715","tag":{"amenity":"waste_basket"}},"type":"Feature"},
	{"geometry":{"coordinates":[14.846482,46.814382],"type":"Point"},"properties":{"osm_id":"1501655972","tag":{"amenity":"waste_basket"}},"type":"Feature"},
	{"geometry":{"coordinates":[14.850887,46.814794],"type":"Point"},"properties":{"osm_id":"1501655995","tag":{"amenity":"waste_basket"}},"type":"Feature"},
	{"geometry":{"coordinates":[14.850505,46.813405],"type":"Point"},"properties":{"osm_id":"1501695606","tag":{"amenity":"waste_basket"}},"type":"Feature"},
	{"geometry":{"coordinates":[14.846796,46.811655],"type":"Point"},"properties":{"osm_id":"1502160553","tag":{"amenity":"recycling","recycling:paper":"yes","recycling_type":"container"}},"type":"Feature"},
	{"geometry":{"coordinates":[14.846607,46.81314],"type":"Point"},"properties":{"osm_id":"1502160586","tag":{"amenity":"recycling","recycling:metal":"yes","recycling:paper":"yes","recycling:plastic_packaging":"yes","recycling_type":"container"}},"type":"Feature"},
	{"geometry":{"coordinates":[14.846501,46.814388],"type":"Point"},"properties":{"osm_id":"1502160692","tag":{"amenity":"recycling","recycling:paper":"yes","recycling_type":"container"}},"type":"Feature"},
	{"geometry":{"coordinates":[14.842646,46.814483],"type":"Point"},"properties":{"osm_id":"1713395925","tag":{"amenity":"waste_basket"}},"type":"Feature"},
	{"geometry":{"coordinates":[14.842478,46.815931],"type":"Point"},"properties":{"osm_id":"1713395979","tag":{"amenity":"waste_basket"}},"type":"Feature"},
	{"geometry":{"coordinates":[14.841558,46.818271],"type":"Point"},"properties":{"osm_id":"1713396604","tag":{"amenity":"waste_basket"}},"type":"Feature"},
	{"geometry":{"coordinates":[14.840504,46.818754],"type":"Point"},"properties":{"osm_id":"1713453152","tag":{"amenity":"waste_basket"}},"type":"Feature"},
	{"geometry":{"coordinates":[14.83968,46.823916],"type":"Point"},"properties":{"osm_id":"1715395272","tag":{"amenity":"waste_basket"}},"type":"Feature"},
	{"geometry":{"coordinates":[14.839437,46.824369],"type":"Point"},"properties":{"osm_id":"1715395326","tag":{"amenity":"waste_basket"}},"type":"Feature"},
	{"geometry":{"coordinates":[14.839738,46.82919],"type":"Point"},"properties":{"osm_id":"1812378683","tag":{"amenity":"waste_basket"}},"type":"Feature"},
	{"geometry":{"coordinates":[14.847624,46.831813],"type":"Point"},"properties":{"osm_id":"1844520933","tag":{"amenity":"waste_basket"}},"type":"Feature"},
	{"geometry":{"coordinates":[14.847617,46.831899],"type":"Point"},"properties":{"osm_id":"1844520957","tag":{"amenity":"waste_basket"}},"type":"Feature"},
	{"geometry":{"coordinates":[14.847278,46.832045],"type":"Point"},"properties":{"osm_id":"1844520998","tag":{"amenity":"waste_basket"}},"type":"Feature"},
	{"geometry":{"coordinates":[14.847011,46.832284],"type":"Point"},"properties":{"osm_id":"1844521032","tag":{"amenity":"waste_basket"}},"type":"Feature"},
	{"geometry":{"coordinates":[14.846613,46.83315],"type":"Point"},"properties":{"osm_id":"1844521187","tag":{"amenity":"waste_basket"}},"type":"Feature"},
	{"geometry":{"coordinates":[14.846897,46.833234],"type":"Point"},"properties":{"osm_id":"1844521233","tag":{"amenity":"waste_basket"}},"type":"Feature"},
	{"geometry":{"coordinates":[14.843948,46.832125],"type":"Point"},"properties":{"osm_id":"1856966075","tag":{"amenity":"recycling","recycling:clothes":"yes","recycling:glass_bottles":"yes","recycling:paper":"yes","recycling:plastic_packaging":"yes","recycling:scrap_metal":"yes","recycling_type":"container"}},"type":"Feature"},
	{"geometry":{"coordinates":[14.845482,46.832183],"type":"Point"},"properties":{"osm_id":"1856966092","tag":{"amenity":"recycling","recycling:glass_bottles":"yes","recycling:paper":"yes","recycling_type":"container"}},"type":"Feature"},
	{"geometry":{"coordinates":[14.843899,46.832186],"type":"Point"},"properties":{"osm_id":"1856966094","tag":{"amenity":"waste_basket"}},"type":"Feature"},
	{"geometry":{"coordinates":[14.84369,46.832238],"type":"Point"},"properties":{"osm_id":"1856966100","tag":{"amenity":"waste_basket"}},"type":"Feature"},
	{"geometry":{"coordinates":[14.846594,46.833972],"type":"Point"},"properties":{"osm_id":"1856966211","tag":{"amenity":"waste_basket"}},"type":"Feature"},
	{"geometry":{"coordinates":[14.849995,46.819182],"type":"Point"},"properties":{"osm_id":"1857086684","tag":{"amenity":"recycling","recycling:paper":"yes"}},"type":"Feature"},
	{"geometry":{"coordinates":[14.844167,46.830328],"type":"Point"},"properties":{"osm_id":"1857087527","tag":{"amenity":"waste_basket"}},"type":"Feature"},
	{"geometry":{"coordinates":[14.848878,46.821307],"type":"Point"},"properties":{"osm_id":"1857114039","tag":{"amenity":"waste_basket"}},"type":"Feature"},
	{"geometry":{"coordinates":[14.845206,46.828276],"type":"Point"},"properties":{"osm_id":"1857114183","tag":{"amenity":"recycling","recycling:clothes":"yes","recycling:glass_bottles":"yes","recycling:paper":"yes","recycling:plastic_packaging":"yes","recycling:scrap_metal":"yes","recycling_type":"container"}},"type":"Feature"},
	{"geometry":{"coordinates":[14.851943,46.811252],"type":"Point"},"properties":{"osm_id":"1883690981","tag":{"amenity":"recycling","recycling:paper":"yes","recycling_type":"container"}},"type":"Feature"},
	{"geometry":{"coordinates":[14.853227,46.811253],"type":"Point"},"properties":{"osm_id":"1883690982","tag":{"amenity":"recycling","recycling:paper":"yes","recycling_type":"container"}},"type":"Feature"},
	{"geometry":{"coordinates":[14.850295,46.803557],"type":"Point"},"properties":{"osm_id":"2009240830","tag":{"amenity":"waste_basket"}},"type":"Feature"},
	{"geometry":{"coordinates":[14.850047,46.803719],"type":"Point"},"properties":{"osm_id":"2009240864","tag":{"amenity":"waste_basket"}},"type":"Feature"},
	{"geometry":{"coordinates":[14.849899,46.804127],"type":"Point"},"properties":{"osm_id":"2009240926","tag":{"amenity":"waste_basket"}},"type":"Feature"},
	{"geometry":{"coordinates":[14.849815,46.805518],"type":"Point"},"properties":{"osm_id":"2009241237","tag":{"amenity":"waste_basket"}},"type":"Feature"},
	{"geometry":{"coordinates":[14.846319,46.807008],"type":"Point"},"properties":{"osm_id":"2020463078","tag":{"amenity":"waste_basket"}},"type":"Feature"},
	{"geometry":{"coordinates":[14.846317,46.807087],"type":"Point"},"properties":{"osm_id":"2020463094","tag":{"amenity":"waste_basket"}},"type":"Feature"},
	{"geometry":{"coordinates":[14.843845,46.834714],"type":"Point"},"properties":{"osm_id":"2185867196","tag":{"amenity":"waste_basket"}},"type":"Feature"},
	{"geometry":{"coordinates":[14.844504,46.836549],"type":"Point"},"properties":{"osm_id":"2185867240","tag":{"amenity":"waste_basket"}},"type":"Feature"},
	{"geometry":{"coordinates":[14.843627,46.834524],"type":"Point"},"properties":{"osm_id":"2631735653","tag":{"amenity":"waste_basket"}},"type":"Feature"},
	{"geometry":{"coordinates":[14.843569,46.834437],"type":"Point"},"properties":{"osm_id":"2631735656","tag":{"amenity":"waste_basket"}},"type":"Feature"},
	{"geometry":{"coordinates":[14.843466,46.834262],"type":"Point"},"properties":{"osm_id":"2631735657","tag":{"amenity":"waste_basket"}},"type":"Feature"},
	{"geometry":{"coordinates":[14.843332,46.83404],"type":"Point"},"properties":{"osm_id":"2631735659","tag":{"amenity":"waste_basket"}},"type":"Feature"},
	{"geometry":{"coordinates":[14.843153,46.833743],"type":"Point"},"properties":{"osm_id":"2631735662","tag":{"amenity":"waste_basket"}},"type":"Feature"},
	{"geometry":{"coordinates":[14.843586,46.833715],"type":"Point"},"properties":{"osm_id":"2631735718","tag":{"amenity":"waste_basket"}},"type":"Feature"},
	{"geometry":{"coordinates":[14.843663,46.83376],"type":"Point"},"properties":{"osm_id":"2631735719","tag":{"amenity":"waste_basket"}},"type":"Feature"},
	{"geometry":{"coordinates":[14.843587,46.834056],"type":"Point"},"properties":{"osm_id":"2631735720","tag":{"amenity":"waste_basket"}},"type":"Feature"},
	{"geometry":{"coordinates":[14.843673,46.834063],"type":"Point"},"properties":{"osm_id":"2631735721","tag":{"amenity":"waste_basket"}},"type":"Feature"},
	{"geometry":{"coordinates":[14.843649,46.834115],"type":"Point"},"properties":{"osm_id":"2631735722","tag":{"amenity":"waste_basket"}},"type":"Feature"},
	{"geometry":{"coordinates":[14.843461,46.833731],"type":"Point"},"properties":{"osm_id":"2631735724","tag":{"amenity":"waste_basket"}},"type":"Feature"},
	{"geometry":{"coordinates":[14.844046,46.833314],"type":"Point"},"properties":{"osm_id":"2654522002","tag":{"amenity":"waste_basket"}},"type":"Feature"},
	{"geometry":{"coordinates":[14.844266,46.833964],"type":"Point"},"properties":{"osm_id":"2654763903","tag":{"amenity":"recycling","recycling:cans":"no","recycling:clothes":"no","recycling:glass":"no","recycling:paper":"yes","recycling_type":"container"}},"type":"Feature"},
	{"geometry":{"coordinates":[14.843456,46.833402],"type":"Point"},"properties":{"osm_id":"2663065387","tag":{"amenity":"waste_basket"}},"type":"Feature"},
	{"geometry":{"coordinates":[14.842788,46.832885],"type":"Point"},"properties":{"osm_id":"2663219268","tag":{"amenity":"waste_basket"}},"type":"Feature"},
	{"geometry":{"coordinates":[14.8427,46.832368],"type":"Point"},"properties":{"osm_id":"2663219344","tag":{"amenity":"waste_basket"}},"type":"Feature"},
	{"geometry":{"coordinates":[14.84223,46.831808],"type":"Point"},"properties":{"osm_id":"2663266697","tag":{"amenity":"waste_basket"}},"type":"Feature"},
	{"geometry":{"coordinates":[14.842084,46.832019],"type":"Point"},"properties":{"osm_id":"2663266709","tag":{"amenity":"waste_basket"}},"type":"Feature"},
	{"geometry":{"coordinates":[14.842588,46.833412],"type":"Point"},"properties":{"osm_id":"2669738124","tag":{"amenity":"waste_basket"}},"type":"Feature"},
	{"geometry":{"coordinates":[14.843728,46.833356],"type":"Point"},"properties":{"osm_id":"2669741517","tag":{"amenity":"waste_basket"}},"type":"Feature"},
	{"geometry":{"coordinates":[14.840696,46.807292],"type":"Point"},"properties":{"osm_id":"2834227604","tag":{"amenity":"waste_basket"}},"type":"Feature"},
	{"geometry":{"coordinates":[14.841529,46.810231],"type":"Point"},"properties":{"osm_id":"2834227621","tag":{"amenity":"waste_basket"}},"type":"Feature"},
	{"geometry":{"coordinates":[14.841983,46.812083],"type":"Point"},"properties":{"osm_id":"2834227624","tag":{"amenity":"waste_basket"}},"type":"Feature"},
	{"geometry":{"coordinates":[14.842107,46.814404],"type":"Point"},"properties":{"osm_id":"2834227626","tag":{"amenity":"waste_basket"}},"type":"Feature"},
	{"geometry":{"coordinates":[14.840948,46.818129],"type":"Point"},"properties":{"osm_id":"2834227645","tag":{"amenity":"waste_basket"}},"type":"Feature"},
	{"geometry":{"coordinates":[14.839799,46.819873],"type":"Point"},"properties":{"osm_id":"2834227646","tag":{"amenity":"waste_basket"}},"type":"Feature"},
	{"geometry":{"coordinates":[14.840594,46.824874],"type":"Point"},"properties":{"osm_id":"2834227663","tag":{"amenity":"waste_basket"}},"type":"Feature"},
	{"geometry":{"coordinates":[14.841298,46.807177],"type":"Point"},"properties":{"osm_id":"2834294607","tag":{"amenity":"waste_basket"}},"type":"Feature"},
	{"geometry":{"coordinates":[14.841324,46.807431],"type":"Point"},"properties":{"osm_id":"2834294612","tag":{"amenity":"waste_basket"}},"type":"Feature"},
	{"geometry":{"coordinates":[14.84055,46.819634],"type":"Point"},"properties":{"osm_id":"2836806063","tag":{"amenity":"waste_basket"}},"type":"Feature"},
	{"geometry":{"coordinates":[14.839963,46.821393],"type":"Point"},"properties":{"osm_id":"2836806065","tag":{"amenity":"waste_basket"}},"type":"Feature"},
	{"geometry":{"coordinates":[14.841313,46.826853],"type":"Point"},"properties":{"osm_id":"2836806096","tag":{"amenity":"recycling","recycling:cans":"yes","recycling:clothes":"yes","recycling:paper":"yes","recycling:plastic_packaging":"yes","recycling_type":"container"}},"type":"Feature"},
	{"geometry":{"coordinates":[14.841358,46.826863],"type":"Point"},"properties":{"osm_id":"2836806097","tag":{"amenity":"waste_basket"}},"type":"Feature"},
	{"geometry":{"coordinates":[14.842229,46.827732],"type":"Point"},"properties":{"osm_id":"2836811324","tag":{"amenity":"recycling","recycling:paper":"yes","recycling_type":"container"}},"type":"Feature"},
	{"geometry":{"coordinates":[14.842226,46.827748],"type":"Point"},"properties":{"osm_id":"2836811325","tag":{"amenity":"waste_basket"}},"type":"Feature"},
	{"geometry":{"coordinates":[14.841939,46.828932],"type":"Point"},"properties":{"osm_id":"2836811329","tag":{"amenity":"recycling","recycling:paper":"yes","recycling_type":"container"}},"type":"Feature"},
	{"geometry":{"coordinates":[14.8416,46.830376],"type":"Point"},"properties":{"osm_id":"2836811332","tag":{"amenity":"recycling","recycling:paper":"yes","recycling_type":"container"}},"type":"Feature"},
	{"geometry":{"coordinates":[14.841597,46.830392],"type":"Point"},"properties":{"osm_id":"2836811334","tag":{"amenity":"waste_basket"}},"type":"Feature"},
	{"geometry":{"coordinates":[14.819407,46.80932],"type":"Point"},"properties":{"osm_id":"3684439735","tag":{"amenity":"waste_basket"}},"type":"Feature"},
	{"geometry":{"coordinates":[14.818248,46.832926],"type":"Point"},"properties":{"osm_id":"6782272888","tag":{"amenity":"recycling","recycling:cans":"yes","recycling:glass_bottles":"yes","recycling:paper":"yes","recycling:plastic":"yes","recycling_type":"container"}},"type":"Feature"},
	{"geometry":{"coordinates":[14.834882,46.812724],"type":"Point"},"properties":{"osm_id":"7176853423","tag":{"amenity":"waste_disposal"}},"type":"Feature"},
	{"geometry":{"coordinates":[14.836386,46.809254],"type":"Point"},"properties":{"osm_id":"7176853424","tag":{"amenity":"waste_disposal"}},"type":"Feature"},
	{"geometry":{"coordinates":[14.829498,46.812266],"type":"Point"},"properties":{"osm_id":"7176853425","tag":{"amenity":"waste_disposal"}},"type":"Feature"},
	{"geometry":{"coordinates":[14.812646,46.829636],"type":"Point"},"properties":{"osm_id":"7475649712","tag":{"amenity":"recycling","recycling_type":"container"}},"type":"Feature"},
	{"geometry":{"coordinates":[14.786413,46.828689],"type":"Point"},"properties":{"osm_id":"7475649713","tag":{"amenity":"recycling","recycling_type":"container"}},"type":"Feature"},
	{"geometry":{"coordinates":[14.842412,46.842262],"type":"Point"},"properties":{"osm_id":"7475649721","tag":{"amenity":"recycling","recycling_type":"container"}},"type":"Feature"}
]
}
