{
"type": "FeatureCollection",
"features": [
	{"geometry":{"coordinates":[23.998167,54.925152],"type":"Point"},"properties":{"osm_id":"1792544777","tag":{"amenity":"recycling","recycling:glass_bottles":"yes","recycling:paper":"yes","recycling:plastic":"yes","recycling_type":"container"}},"type":"Feature"},
	{"geometry":{"coordinates":[24.043058,54.898408],"type":"Point"},"properties":{"osm_id":"2518390850","tag":{"amenity":"recycling","recycling_type":"container"}},"type":"Feature"},
	{"geometry":{"coordinates":[24.002883,54.888995],"type":"Point"},"properties":{"osm_id":"3014406346","tag":{"amenity":"recycling","recycling:glass_bottles":"yes","recycling:paper":"yes","recycling_type":"container"}},"type":"Feature"},
	{"geometry":{"coordinates":[24.003727,54.889074],"type":"Point"},"properties":{"osm_id":"3014406347","tag":{"amenity":"recycling","recycling:glass_bottles":"yes","recycling:paper":"yes","recycling_type":"container"}},"type":"Feature"},
	{"geometry":{"coordinates":[24.001484,54.887894],"type":"Point"},"properties":{"osm_id":"3014406348","tag":{"amenity":"recycling","recycling:glass_bottles":"yes","recycling:paper":"yes","recycling_type":"container"}},"type":"Feature"},
	{"geometry":{"coordinates":[24.008377,54.893408],"type":"Point"},"properties":{"osm_id":"3169059159","tag":{"amenity":"recycling","recycling:clothes":"yes","recycling:glass_bottles":"yes","recycling:paper":"yes","recycling_type":"container"}},"type":"Feature"},
	{"geometry":{"coordinates":[24.007268,54.908465],"type":"Point"},"properties":{"name":"EMP Recycling","osm_id":"4260321829","tag":{"addr:city":"Kaunas","addr:housenumber":"18","addr:street":"Technikos g.","amenity":"recycling","recycling:electrical_appliances":"yes","recycling:scrap_metal":"yes","recycling_type":"centre"}},"type":"Feature"},
	{"geometry":{"coordinates":[24.006671,54.889745],"type":"Point"},"properties":{"osm_id":"4912176779","tag":{"amenity":"recycling","recycling_type":"container"}},"type":"Feature"},
	{"geometry":{"coordinates":[24.005921,54.888626],"type":"Point"},"properties":{"osm_id":"4918683795","tag":{"amenity":"recycling","recycling_type":"container"}},"type":"Feature"},
	{"geometry":{"coordinates":[24.007136,54.890197],"type":"Point"},"properties":{"osm_id":"4967384410","tag":{"amenity":"recycling","recycling_type":"container"}},"type":"Feature"},
	{"geometry":{"coordinates":[24.061331,54.912432],"type":"Point"},"properties":{"osm_id":"5047321529","tag":{"amenity":"recycling","recycling_type":"container"}},"type":"Feature"},
	{"geometry":{"coordinates":[24.062212,54.912548],"type":"Point"},"properties":{"osm_id":"5047321530","tag":{"amenity":"recycling","recycling_type":"container"}},"type":"Feature"}
]
}
