{
"type": "FeatureCollection",
"features": [
	{"geometry":{"coordinates":[24.010133,49.821607],"type":"Point"},"properties":{"osm_id":"988821574","tag":{"amenity":"recycling"}},"type":"Feature"},
	{"geometry":{"coordinates":[24.007639,49.817346],"type":"Point"},"properties":{"osm_id":"988821577","tag":{"amenity":"recycling"}},"type":"Feature"},
	{"geometry":{"coordinates":[24.008765,49.823085],"type":"Point"},"properties":{"osm_id":"988821581","tag":{"amenity":"recycling"}},"type":"Feature"},
	{"geometry":{"coordinates":[24.029974,49.815839],"type":"Point"},"properties":{"osm_id":"1275748260","tag":{"amenity":"recycling","recycling_type":"container"}},"type":"Feature"},
	{"geometry":{"coordinates":[24.027969,49.820137],"type":"Point"},"properties":{"osm_id":"1275748285","tag":{"amenity":"recycling","recycling_type":"container"}},"type":"Feature"},
	{"geometry":{"coordinates":[24.030669,49.81971],"type":"Point"},"properties":{"osm_id":"1275748290","tag":{"amenity":"recycling","recycling_type":"container"}},"type":"Feature"},
	{"geometry":{"coordinates":[24.036431,49.812968],"type":"Point"},"properties":{"osm_id":"1275748298","tag":{"amenity":"recycling","operator":"\u00d0\u0095\u00d0\u00bc\u00d0\u00b0\u00d1\u0083\u00d1\u0081-\u00d0\u009e\u00d1\u0081\u00d0\u00b5\u00d0\u00bb\u00d1\u008f","recycling:clothes":"yes"}},"type":"Feature"},
	{"geometry":{"coordinates":[24.028611,49.819236],"type":"Point"},"properties":{"osm_id":"1275748301","tag":{"amenity":"recycling","recycling_type":"container"}},"type":"Feature"},
	{"geometry":{"coordinates":[24.075979,49.816252],"type":"Point"},"properties":{"osm_id":"1768192874","tag":{"amenity":"waste_disposal","waste":"recycling"}},"type":"Feature"},
	{"geometry":{"coordinates":[24.075869,49.816611],"type":"Point"},"properties":{"osm_id":"1768192875","tag":{"amenity":"waste_disposal","waste":"recycling"}},"type":"Feature"},
	{"geometry":{"coordinates":[24.075703,49.817018],"type":"Point"},"properties":{"osm_id":"1768192876","tag":{"amenity":"waste_disposal","waste":"recycling"}},"type":"Feature"},
	{"geometry":{"coordinates":[24.029712,49.831326],"type":"Point"},"properties":{"osm_id":"1788444689","tag":{"amenity":"waste_disposal"}},"type":"Feature"},
	{"geometry":{"coordinates":[24.054686,49.829296],"type":"Point"},"properties":{"osm_id":"1788444690","tag":{"amenity":"waste_disposal"}},"type":"Feature"},
	{"geometry":{"coordinates":[24.05262,49.83739],"type":"Point"},"properties":{"osm_id":"1788444701","tag":{"amenity":"waste_disposal"}},"type":"Feature"},
	{"geometry":{"coordinates":[24.028539,49.834945],"type":"Point"},"properties":{"osm_id":"1788444704","tag":{"amenity":"recycling","recycling_type":"container"}},"type":"Feature"},
	{"geometry":{"coordinates":[24.058288,49.834907],"type":"Point"},"properties":{"osm_id":"1788444705","tag":{"amenity":"waste_disposal"}},"type":"Feature"},
	{"geometry":{"coordinates":[24.051486,49.82948],"type":"Point"},"properties":{"osm_id":"1788444706","tag":{"amenity":"waste_disposal"}},"type":"Feature"},
	{"geometry":{"coordinates":[24.026418,49.83127],"type":"Point"},"properties":{"osm_id":"1788444710","tag":{"amenity":"waste_disposal"}},"type":"Feature"},
	{"geometry":{"coordinates":[24.032373,49.834303],"type":"Point"},"properties":{"osm_id":"1788444711","tag":{"amenity":"waste_disposal"}},"type":"Feature"},
	{"geometry":{"coordinates":[24.068776,49.828675],"type":"Point"},"properties":{"osm_id":"1788444716","tag":{"amenity":"waste_disposal"}},"type":"Feature"},
	{"geometry":{"coordinates":[24.020027,49.833848],"type":"Point"},"properties":{"osm_id":"1788446567","tag":{"amenity":"waste_disposal"}},"type":"Feature"},
	{"geometry":{"coordinates":[24.065576,49.831352],"type":"Point"},"properties":{"osm_id":"1798028562","tag":{"amenity":"waste_disposal"}},"type":"Feature"},
	{"geometry":{"coordinates":[24.041334,49.828107],"type":"Point"},"properties":{"osm_id":"1798048959","tag":{"amenity":"recycling","location":"overground","recycling_type":"container"}},"type":"Feature"},
	{"geometry":{"coordinates":[24.062368,49.831812],"type":"Point"},"properties":{"osm_id":"1798048981","tag":{"amenity":"waste_disposal"}},"type":"Feature"},
	{"geometry":{"coordinates":[24.056876,49.82734],"type":"Point"},"properties":{"osm_id":"1802675489","tag":{"amenity":"waste_disposal"}},"type":"Feature"},
	{"geometry":{"coordinates":[24.043096,49.825575],"type":"Point"},"properties":{"osm_id":"1804350963","tag":{"amenity":"recycling","recycling_type":"container"}},"type":"Feature"},
	{"geometry":{"coordinates":[24.025735,49.831755],"type":"Point"},"properties":{"osm_id":"1810294545","tag":{"amenity":"waste_disposal"}},"type":"Feature"},
	{"geometry":{"coordinates":[24.044528,49.835429],"type":"Point"},"properties":{"osm_id":"1920571923","tag":{"amenity":"waste_disposal"}},"type":"Feature"},
	{"geometry":{"coordinates":[24.011523,49.820208],"type":"Point"},"properties":{"osm_id":"2069902781","tag":{"amenity":"recycling"}},"type":"Feature"},
	{"geometry":{"coordinates":[24.011101,49.825688],"type":"Point"},"properties":{"osm_id":"2088693988","tag":{"amenity":"recycling","location":"overground","recycling_type":"container"}},"type":"Feature"},
	{"geometry":{"coordinates":[24.013981,49.824411],"type":"Point"},"properties":{"osm_id":"2090107147","tag":{"amenity":"recycling","location":"overground","recycling_type":"container"}},"type":"Feature"},
	{"geometry":{"coordinates":[24.013038,49.82558],"type":"Point"},"properties":{"osm_id":"2090107187","tag":{"amenity":"waste_disposal"}},"type":"Feature"},
	{"geometry":{"coordinates":[24.017959,49.82768],"type":"Point"},"properties":{"osm_id":"2090107341","tag":{"access":"yes","amenity":"waste_disposal"}},"type":"Feature"},
	{"geometry":{"coordinates":[24.015278,49.828396],"type":"Point"},"properties":{"osm_id":"2090107371","tag":{"amenity":"recycling","location":"overground","recycling_type":"container"}},"type":"Feature"},
	{"geometry":{"coordinates":[24.016351,49.829543],"type":"Point"},"properties":{"osm_id":"2090107438","tag":{"amenity":"waste_disposal"}},"type":"Feature"},
	{"geometry":{"coordinates":[24.032762,49.816591],"type":"Point"},"properties":{"osm_id":"2898282741","tag":{"amenity":"recycling","recycling_type":"container"}},"type":"Feature"},
	{"geometry":{"coordinates":[24.03274,49.815037],"type":"Point"},"properties":{"osm_id":"2904123224","tag":{"amenity":"recycling","recycling_type":"container"}},"type":"Feature"},
	{"geometry":{"coordinates":[24.074739,49.823017],"type":"Point"},"properties":{"osm_id":"3018286301","tag":{"amenity":"waste_disposal","waste":"recycling"}},"type":"Feature"},
	{"geometry":{"coordinates":[24.05755,49.783177],"type":"Point"},"properties":{"osm_id":"3698840203","tag":{"amenity":"waste_disposal"}},"type":"Feature"},
	{"geometry":{"coordinates":[24.057321,49.783819],"type":"Point"},"properties":{"osm_id":"3698840217","tag":{"amenity":"waste_disposal"}},"type":"Feature"},
	{"geometry":{"coordinates":[24.01541,49.814232],"type":"Point"},"properties":{"osm_id":"3708223567","tag":{"access":"yes","amenity":"waste_disposal","description":"\u00d0\u009a\u00d1\u0096\u00d0\u00bb\u00d1\u008c\u00d0\u00ba\u00d1\u0096\u00d1\u0081\u00d1\u0082\u00d1\u008c \u00d0\u00ba\u00d0\u00be\u00d0\u00bd\u00d1\u0082\u00d0\u00b5\u00d0\u00b9\u00d0\u00bd\u00d0\u00b5\u00d1\u0080\u00d1\u0096\u00d0\u00b2 - 3; \u00d0\u00b7\u00d0\u00bc\u00d1\u0096\u00d1\u0088\u00d0\u00b0\u00d0\u00bd\u00d1\u0096 -2; \u00d0\u00bf\u00d0\u00bb\u00d0\u00b0\u00d1\u0081\u00d1\u0082\u00d0\u00b8\u00d0\u00ba -1.","material":"plastic","operator":"\u00d0\u00a1\u00d0\u0090\u00d0\u00a2"}},"type":"Feature"},
	{"geometry":{"coordinates":[24.018925,49.813286],"type":"Point"},"properties":{"osm_id":"3708224492","tag":{"access":"yes","amenity":"waste_disposal","description":"\u00d0\u009a\u00d1\u0096\u00d0\u00bb\u00d1\u008c\u00d0\u00ba\u00d1\u0096\u00d1\u0081\u00d1\u0082\u00d1\u008c \u00d0\u00ba\u00d0\u00be\u00d0\u00bd\u00d1\u0082\u00d0\u00b5\u00d0\u00b9\u00d0\u00bd\u00d0\u00b5\u00d1\u0080\u00d1\u0096\u00d0\u00b2 - 7; \u00d0\u00b7\u00d0\u00bc\u00d1\u0096\u00d1\u0088\u00d0\u00b0\u00d0\u00bd\u00d1\u0096 - 4; \u00d0\u00bf\u00d0\u00bb\u00d0\u00b0\u00d1\u0081\u00d1\u0082\u00d0\u00b8\u00d0\u00ba - 1; \u00d1\u0081\u00d0\u00ba\u00d0\u00bb\u00d0\u00be - 1; \u00d0\u00bc\u00d0\u00b0\u00d0\u00ba\u00d1\u0083\u00d0\u00bb\u00d0\u00b0\u00d1\u0082\u00d1\u0083\u00d1\u0080\u00d0\u00b0 - 1.","material":"plastic","operator":"\u00d0\u00a1\u00d0\u0090\u00d0\u00a2"}},"type":"Feature"},
	{"geometry":{"coordinates":[24.014176,49.815103],"type":"Point"},"properties":{"osm_id":"3710953972","tag":{"access":"yes","amenity":"waste_disposal","description":"\u00d0\u009a\u00d1\u0096\u00d0\u00bb\u00d1\u008c\u00d0\u00ba\u00d1\u0096\u00d1\u0081\u00d1\u0082\u00d1\u008c \u00d0\u00ba\u00d0\u00be\u00d0\u00bd\u00d1\u0082\u00d0\u00b5\u00d0\u00b9\u00d0\u00bd\u00d0\u00b5\u00d1\u0080\u00d1\u0096\u00d0\u00b2 - 5; \u00d0\u00b7\u00d0\u00bc\u00d1\u0096\u00d1\u0088\u00d0\u00b0\u00d0\u00bd\u00d1\u0096 - 2; \u00d0\u00bf\u00d0\u00bb\u00d0\u00b0\u00d1\u0081\u00d1\u0082\u00d0\u00b8\u00d0\u00ba - 1; \u00d1\u0081\u00d0\u00ba\u00d0\u00bb\u00d0\u00be - 1; \u00d0\u00bc\u00d0\u00b0\u00d0\u00ba\u00d1\u0083\u00d0\u00bb\u00d0\u00b0\u00d1\u0082\u00d1\u0083\u00d1\u0080\u00d0\u00b0 - 1.","material":"plastic","operator":"\u00d0\u00a1\u00d0\u0090\u00d0\u00a2"}},"type":"Feature"},
	{"geometry":{"coordinates":[24.016707,49.814011],"type":"Point"},"properties":{"osm_id":"3710955285","tag":{"access":"yes","amenity":"waste_disposal","description":"\u00d0\u009a\u00d1\u0096\u00d0\u00bb\u00d1\u008c\u00d0\u00ba\u00d1\u0096\u00d1\u0081\u00d1\u0082\u00d1\u008c \u00d0\u00ba\u00d0\u00be\u00d0\u00bd\u00d1\u0082\u00d0\u00b5\u00d0\u00b9\u00d0\u00bd\u00d0\u00b5\u00d1\u0080\u00d1\u0096\u00d0\u00b2 - 7; \u00d0\u00b7\u00d0\u00bc\u00d1\u0096\u00d1\u0088\u00d0\u00b0\u00d0\u00bd\u00d1\u0096 - 4;  \u00d0\u00bf\u00d0\u00bb\u00d0\u00b0\u00d1\u0081\u00d1\u0082\u00d0\u00b8\u00d0\u00ba - 1; \u00d1\u0081\u00d0\u00ba\u00d0\u00bb\u00d0\u00be - 1; \u00d0\u00bc\u00d0\u00b0\u00d0\u00ba\u00d1\u0083\u00d0\u00bb\u00d0\u00b0\u00d1\u0082\u00d1\u0083\u00d1\u0080\u00d0\u00b0 - 1.","material":"plastic","operator":"\u00d0\u00a1\u00d0\u0090\u00d0\u00a2"}},"type":"Feature"},
	{"geometry":{"coordinates":[24.045559,49.809144],"type":"Point"},"properties":{"osm_id":"3712451810","tag":{"amenity":"waste_basket"}},"type":"Feature"},
	{"geometry":{"coordinates":[23.995383,49.830058],"type":"Point"},"properties":{"osm_id":"3713759107","tag":{"amenity":"waste_basket"}},"type":"Feature"},
	{"geometry":{"coordinates":[24.018086,49.809502],"type":"Point"},"properties":{"osm_id":"3715071191","tag":{"amenity":"waste_basket"}},"type":"Feature"},
	{"geometry":{"coordinates":[24.021737,49.816058],"type":"Point"},"properties":{"name":"\u00d0\u00b2\u00d0\u00b6\u00d0\u00b8\u00d0\u00b2\u00d0\u00b0\u00d0\u00bd\u00d1\u0096 \u00d0\u00b1\u00d0\u00b0\u00d1\u0082\u00d0\u00b0\u00d1\u0080\u00d0\u00b5\u00d0\u00b9\u00d0\u00ba\u00d0\u00b8","osm_id":"3732660195","tag":{"amenity":"recycling","operator":"\u00d0\u00b2\u00d0\u00b6\u00d0\u00b8\u00d0\u00b2\u00d0\u00b0\u00d0\u00bd\u00d1\u0096 \u00d0\u00b1\u00d0\u00b0\u00d1\u0082\u00d0\u00b0\u00d1\u0080\u00d0\u00b5\u00d0\u00b9\u00d0\u00ba\u00d0\u00b8"}},"type":"Feature"},
	{"geometry":{"coordinates":[24.029852,49.815681],"type":"Point"},"properties":{"osm_id":"3734517057","tag":{"amenity":"waste_basket"}},"type":"Feature"},
	{"geometry":{"coordinates":[24.043824,49.81655],"type":"Point"},"properties":{"osm_id":"4146925589","tag":{"amenity":"recycling","recycling:plastic":"yes","recycling_type":"container"}},"type":"Feature"},
	{"geometry":{"coordinates":[24.008806,49.823072],"type":"Point"},"properties":{"osm_id":"4186945707","tag":{"amenity":"waste_disposal"}},"type":"Feature"},
	{"geometry":{"coordinates":[24.020933,49.83762],"type":"Point"},"properties":{"osm_id":"4217227723","tag":{"amenity":"waste_disposal"}},"type":"Feature"},
	{"geometry":{"coordinates":[24.022177,49.837264],"type":"Point"},"properties":{"osm_id":"4217512711","tag":{"amenity":"recycling","recycling_type":"container"}},"type":"Feature"},
	{"geometry":{"coordinates":[24.038155,49.817168],"type":"Point"},"properties":{"osm_id":"4254485692","tag":{"amenity":"waste_disposal"}},"type":"Feature"},
	{"geometry":{"coordinates":[24.037407,49.823035],"type":"Point"},"properties":{"osm_id":"4254513247","tag":{"amenity":"waste_basket"}},"type":"Feature"},
	{"geometry":{"coordinates":[24.036227,49.8187],"type":"Point"},"properties":{"osm_id":"4254528389","tag":{"amenity":"waste_basket"}},"type":"Feature"},
	{"geometry":{"coordinates":[24.038756,49.819177],"type":"Point"},"properties":{"osm_id":"4258773793","tag":{"amenity":"waste_basket"}},"type":"Feature"},
	{"geometry":{"coordinates":[24.023742,49.8179],"type":"Point"},"properties":{"osm_id":"4258862892","tag":{"amenity":"waste_basket"}},"type":"Feature"},
	{"geometry":{"coordinates":[24.017116,49.821154],"type":"Point"},"properties":{"osm_id":"4258954490","tag":{"amenity":"waste_disposal"}},"type":"Feature"},
	{"geometry":{"coordinates":[24.040451,49.818582],"type":"Point"},"properties":{"osm_id":"4259145815","tag":{"amenity":"waste_basket"}},"type":"Feature"},
	{"geometry":{"coordinates":[24.039919,49.819838],"type":"Point"},"properties":{"osm_id":"4261090498","tag":{"amenity":"waste_basket"}},"type":"Feature"},
	{"geometry":{"coordinates":[24.035471,49.825682],"type":"Point"},"properties":{"osm_id":"4266224889","tag":{"amenity":"waste_disposal"}},"type":"Feature"},
	{"geometry":{"coordinates":[24.03191,49.823904],"type":"Point"},"properties":{"osm_id":"4266811991","tag":{"amenity":"waste_disposal"}},"type":"Feature"},
	{"geometry":{"coordinates":[24.027492,49.822377],"type":"Point"},"properties":{"osm_id":"4266833291","tag":{"amenity":"waste_basket"}},"type":"Feature"},
	{"geometry":{"coordinates":[24.026934,49.822199],"type":"Point"},"properties":{"osm_id":"4266833292","tag":{"amenity":"waste_basket"}},"type":"Feature"},
	{"geometry":{"coordinates":[24.027808,49.822551],"type":"Point"},"properties":{"osm_id":"4266833490","tag":{"amenity":"waste_basket"}},"type":"Feature"},
	{"geometry":{"coordinates":[24.026695,49.822162],"type":"Point"},"properties":{"osm_id":"4266833493","tag":{"amenity":"waste_basket"}},"type":"Feature"},
	{"geometry":{"coordinates":[24.028468,49.822927],"type":"Point"},"properties":{"osm_id":"4266835591","tag":{"amenity":"waste_basket"}},"type":"Feature"},
	{"geometry":{"coordinates":[24.028126,49.822727],"type":"Point"},"properties":{"osm_id":"4266835592","tag":{"amenity":"waste_basket"}},"type":"Feature"},
	{"geometry":{"coordinates":[24.027984,49.822645],"type":"Point"},"properties":{"osm_id":"4266835691","tag":{"amenity":"waste_basket"}},"type":"Feature"},
	{"geometry":{"coordinates":[24.028387,49.82288],"type":"Point"},"properties":{"osm_id":"4266859089","tag":{"amenity":"waste_basket"}},"type":"Feature"},
	{"geometry":{"coordinates":[24.026313,49.821734],"type":"Point"},"properties":{"osm_id":"4266859092","tag":{"amenity":"waste_basket"}},"type":"Feature"},
	{"geometry":{"coordinates":[24.025659,49.821355],"type":"Point"},"properties":{"osm_id":"4266859093","tag":{"amenity":"waste_basket"}},"type":"Feature"},
	{"geometry":{"coordinates":[24.026529,49.821951],"type":"Point"},"properties":{"osm_id":"4266859191","tag":{"amenity":"waste_basket"}},"type":"Feature"},
	{"geometry":{"coordinates":[24.025801,49.821438],"type":"Point"},"properties":{"osm_id":"4266859192","tag":{"amenity":"waste_basket"}},"type":"Feature"},
	{"geometry":{"coordinates":[24.026579,49.822065],"type":"Point"},"properties":{"osm_id":"4266859289","tag":{"amenity":"waste_basket"}},"type":"Feature"},
	{"geometry":{"coordinates":[24.052918,49.827857],"type":"Point"},"properties":{"osm_id":"4269589773","tag":{"amenity":"recycling"}},"type":"Feature"},
	{"geometry":{"coordinates":[23.998294,49.813869],"type":"Point"},"properties":{"osm_id":"4269647623","tag":{"amenity":"waste_basket"}},"type":"Feature"},
	{"geometry":{"coordinates":[24.060783,49.792208],"type":"Point"},"properties":{"osm_id":"4278241293","tag":{"amenity":"waste_disposal"}},"type":"Feature"},
	{"geometry":{"coordinates":[24.002771,49.837582],"type":"Point"},"properties":{"osm_id":"4278966672","tag":{"amenity":"waste_disposal"}},"type":"Feature"},
	{"geometry":{"coordinates":[24.052288,49.835581],"type":"Point"},"properties":{"osm_id":"4322966304","tag":{"amenity":"waste_disposal"}},"type":"Feature"},
	{"geometry":{"coordinates":[24.058776,49.806739],"type":"Point"},"properties":{"name":"\u00d0\u009f\u00d1\u0080\u00d0\u00b8\u00d0\u00b9\u00d0\u00be\u00d0\u00bc \u00d0\u00bc\u00d0\u00b5\u00d1\u0082\u00d0\u00b0\u00d0\u00bb\u00d0\u00be\u00d0\u00b1\u00d1\u0080\u00d1\u0083\u00d1\u0085\u00d1\u0082\u00d1\u0083","osm_id":"4339533976","tag":{"amenity":"recycling","name:ru":"\u00d0\u009f\u00d1\u0080\u00d0\u00b8\u00d0\u00b5\u00d0\u00bc \u00d0\u00bc\u00d0\u00b5\u00d1\u0082\u00d0\u00b0\u00d0\u00bb\u00d0\u00bb\u00d0\u00be\u00d0\u00bb\u00d0\u00be\u00d0\u00bc\u00d0\u00b0","recycling_type":"centre"}},"type":"Feature"},
	{"geometry":{"coordinates":[24.048021,49.827943],"type":"Point"},"properties":{"osm_id":"4374635538","tag":{"amenity":"recycling","recycling_type":"container"}},"type":"Feature"},
	{"geometry":{"coordinates":[24.053562,49.827193],"type":"Point"},"properties":{"osm_id":"4375967531","tag":{"amenity":"recycling","recycling_type":"container"}},"type":"Feature"},
	{"geometry":{"coordinates":[24.049707,49.829037],"type":"Point"},"properties":{"osm_id":"4375972466","tag":{"amenity":"recycling","recycling_type":"container"}},"type":"Feature"},
	{"geometry":{"coordinates":[24.011003,49.824445],"type":"Point"},"properties":{"osm_id":"4391675389","tag":{"access":"yes","amenity":"waste_disposal","description":"\u00d0\u009a\u00d1\u0096\u00d0\u00bb\u00d1\u008c\u00d0\u00ba\u00d1\u0096\u00d1\u0081\u00d1\u0082\u00d1\u008c \u00d0\u00ba\u00d0\u00be\u00d0\u00bd\u00d1\u0082\u00d0\u00b5\u00d0\u00b9\u00d0\u00bd\u00d0\u00b5\u00d1\u0080\u00d1\u0096\u00d0\u00b2 - 6; \u00d0\u00b7\u00d0\u00bc\u00d1\u0096\u00d1\u0088\u00d0\u00b0\u00d0\u00bd\u00d1\u0096 - 3; \u00d0\u00bf\u00d0\u00bb\u00d0\u00b0\u00d1\u0081\u00d1\u0082\u00d0\u00b8\u00d0\u00ba - 1; \u00d1\u0081\u00d0\u00ba\u00d0\u00bb\u00d0\u00be - 1; \u00d0\u00bc\u00d0\u00b0\u00d0\u00ba\u00d1\u0083\u00d0\u00bb\u00d0\u00b0\u00d1\u0082\u00d1\u0083\u00d1\u0080\u00d0\u00b0 - 1.","material":"plastic","operator":"\u00d0\u00a1\u00d0\u0090\u00d0\u00a2"}},"type":"Feature"},
	{"geometry":{"coordinates":[24.018412,49.796202],"type":"Point"},"properties":{"osm_id":"4418137844","tag":{"amenity":"recycling","recycling:glass_bottles":"yes","recycling:plastic_bottles":"yes","recycling_type":"container"}},"type":"Feature"},
	{"geometry":{"coordinates":[24.021051,49.798914],"type":"Point"},"properties":{"osm_id":"4418150105","tag":{"amenity":"recycling","recycling:cardboard":"yes","recycling:glass_bottles":"yes","recycling_type":"centre"}},"type":"Feature"},
	{"geometry":{"coordinates":[24.019046,49.798922],"type":"Point"},"properties":{"osm_id":"4418150108","tag":{"amenity":"waste_disposal","recycling:glass":"yes","waste":"trash"}},"type":"Feature"},
	{"geometry":{"coordinates":[24.018098,49.795576],"type":"Point"},"properties":{"osm_id":"4418748107","tag":{"amenity":"waste_disposal"}},"type":"Feature"},
	{"geometry":{"coordinates":[24.018151,49.795784],"type":"Point"},"properties":{"osm_id":"4418748108","tag":{"amenity":"waste_disposal"}},"type":"Feature"},
	{"geometry":{"coordinates":[24.01832,49.793973],"type":"Point"},"properties":{"osm_id":"4418829691","tag":{"amenity":"recycling","recycling:books":"yes","recycling:clothes":"yes","recycling:shoes":"yes","recycling_type":"centre"}},"type":"Feature"},
	{"geometry":{"coordinates":[24.029221,49.835451],"type":"Point"},"properties":{"osm_id":"4423164190","tag":{"amenity":"recycling","location":"overground","recycling_type":"container"}},"type":"Feature"},
	{"geometry":{"coordinates":[24.038062,49.833938],"type":"Point"},"properties":{"osm_id":"4447484289","tag":{"amenity":"waste_basket"}},"type":"Feature"},
	{"geometry":{"coordinates":[24.055662,49.822055],"type":"Point"},"properties":{"osm_id":"4489044900","tag":{"amenity":"waste_basket"}},"type":"Feature"},
	{"geometry":{"coordinates":[24.054504,49.818876],"type":"Point"},"properties":{"osm_id":"4489050358","tag":{"amenity":"waste_basket"}},"type":"Feature"},
	{"geometry":{"coordinates":[24.053109,49.817892],"type":"Point"},"properties":{"osm_id":"4489060306","tag":{"amenity":"waste_disposal"}},"type":"Feature"},
	{"geometry":{"coordinates":[24.053395,49.786143],"type":"Point"},"properties":{"osm_id":"4587370893","tag":{"amenity":"waste_disposal"}},"type":"Feature"},
	{"geometry":{"coordinates":[24.052983,49.788051],"type":"Point"},"properties":{"osm_id":"4587515689","tag":{"amenity":"recycling","recycling_type":"container"}},"type":"Feature"},
	{"geometry":{"coordinates":[24.051761,49.787069],"type":"Point"},"properties":{"osm_id":"4587698830","tag":{"amenity":"recycling","recycling_type":"container"}},"type":"Feature"},
	{"geometry":{"coordinates":[24.047958,49.789077],"type":"Point"},"properties":{"osm_id":"4587763852","tag":{"amenity":"waste_disposal"}},"type":"Feature"},
	{"geometry":{"coordinates":[24.054435,49.78948],"type":"Point"},"properties":{"osm_id":"4588935511","tag":{"amenity":"waste_disposal"}},"type":"Feature"},
	{"geometry":{"coordinates":[24.055912,49.789039],"type":"Point"},"properties":{"osm_id":"4588935512","tag":{"amenity":"recycling","recycling_type":"container"}},"type":"Feature"},
	{"geometry":{"coordinates":[24.057953,49.787891],"type":"Point"},"properties":{"osm_id":"4588935514","tag":{"amenity":"waste_disposal"}},"type":"Feature"},
	{"geometry":{"coordinates":[24.057668,49.786058],"type":"Point"},"properties":{"osm_id":"4588935883","tag":{"amenity":"waste_disposal"}},"type":"Feature"},
	{"geometry":{"coordinates":[24.051855,49.787617],"type":"Point"},"properties":{"osm_id":"4588951871","tag":{"amenity":"recycling","recycling_type":"container"}},"type":"Feature"},
	{"geometry":{"coordinates":[24.055989,49.787268],"type":"Point"},"properties":{"osm_id":"4588989387","tag":{"amenity":"waste_disposal"}},"type":"Feature"},
	{"geometry":{"coordinates":[24.033179,49.83764],"type":"Point"},"properties":{"osm_id":"4589720309","tag":{"amenity":"waste_disposal"}},"type":"Feature"},
	{"geometry":{"coordinates":[24.053935,49.789008],"type":"Point"},"properties":{"osm_id":"4592353694","tag":{"amenity":"recycling","recycling_type":"container"}},"type":"Feature"},
	{"geometry":{"coordinates":[24.058855,49.829132],"type":"Point"},"properties":{"osm_id":"4605604024","tag":{"amenity":"waste_disposal"}},"type":"Feature"},
	{"geometry":{"coordinates":[24.01151,49.835364],"type":"Point"},"properties":{"osm_id":"4622259572","tag":{"amenity":"waste_disposal"}},"type":"Feature"},
	{"geometry":{"coordinates":[24.060176,49.822063],"type":"Point"},"properties":{"osm_id":"4655723033","tag":{"amenity":"waste_disposal"}},"type":"Feature"},
	{"geometry":{"coordinates":[24.022724,49.795866],"type":"Point"},"properties":{"osm_id":"4679813791","tag":{"amenity":"recycling","recycling:glass_bottles":"yes","recycling:plastic_bottles":"yes","recycling_type":"container"}},"type":"Feature"},
	{"geometry":{"coordinates":[24.026094,49.797291],"type":"Point"},"properties":{"osm_id":"4679814391","tag":{"amenity":"waste_disposal"}},"type":"Feature"},
	{"geometry":{"coordinates":[24.018744,49.797633],"type":"Point"},"properties":{"osm_id":"4679824189","tag":{"amenity":"waste_disposal"}},"type":"Feature"},
	{"geometry":{"coordinates":[24.026124,49.797322],"type":"Point"},"properties":{"osm_id":"4679824289","tag":{"amenity":"waste_disposal"}},"type":"Feature"},
	{"geometry":{"coordinates":[24.05335,49.786788],"type":"Point"},"properties":{"osm_id":"4680309091","tag":{"amenity":"waste_disposal"}},"type":"Feature"},
	{"geometry":{"coordinates":[24.005427,49.835609],"type":"Point"},"properties":{"osm_id":"4681356527","tag":{"amenity":"waste_basket"}},"type":"Feature"},
	{"geometry":{"coordinates":[24.00536,49.835665],"type":"Point"},"properties":{"osm_id":"4681356535","tag":{"amenity":"waste_basket"}},"type":"Feature"},
	{"geometry":{"coordinates":[24.005285,49.835741],"type":"Point"},"properties":{"osm_id":"4681356545","tag":{"amenity":"waste_basket"}},"type":"Feature"},
	{"geometry":{"coordinates":[24.005175,49.835837],"type":"Point"},"properties":{"osm_id":"4681356556","tag":{"amenity":"waste_basket"}},"type":"Feature"},
	{"geometry":{"coordinates":[24.005072,49.835933],"type":"Point"},"properties":{"osm_id":"4681356560","tag":{"amenity":"waste_basket"}},"type":"Feature"},
	{"geometry":{"coordinates":[24.004983,49.836005],"type":"Point"},"properties":{"osm_id":"4681356563","tag":{"amenity":"waste_basket"}},"type":"Feature"},
	{"geometry":{"coordinates":[24.004899,49.836092],"type":"Point"},"properties":{"osm_id":"4681356568","tag":{"amenity":"waste_basket"}},"type":"Feature"},
	{"geometry":{"coordinates":[24.014191,49.815251],"type":"Point"},"properties":{"name":"\u00d0\u009f\u00d1\u0083\u00d0\u00bd\u00d0\u00ba\u00d1\u0082 \u00d0\u00bf\u00d1\u0080\u00d0\u00b8\u00d0\u00b9\u00d0\u00be\u00d0\u00bc\u00d1\u0083 \u00d0\u00bc\u00d0\u00b0\u00d0\u00ba\u00d1\u0083\u00d0\u00bb\u00d0\u00b0\u00d1\u0082\u00d1\u0083\u00d1\u0080\u00d0\u00b8","osm_id":"4683465491","tag":{"amenity":"recycling","location":"overground","recycling:magazines":"yes","recycling:newspaper":"yes","recycling:paper":"yes","recycling_type":"container"}},"type":"Feature"},
	{"geometry":{"coordinates":[24.014828,49.836262],"type":"Point"},"properties":{"osm_id":"4692709427","tag":{"amenity":"waste_disposal"}},"type":"Feature"},
	{"geometry":{"coordinates":[24.00095,49.818318],"type":"Point"},"properties":{"osm_id":"4694965910","tag":{"amenity":"waste_disposal"}},"type":"Feature"},
	{"geometry":{"coordinates":[24.019992,49.833869],"type":"Point"},"properties":{"osm_id":"4710064097","tag":{"amenity":"recycling","recycling_type":"container"}},"type":"Feature"},
	{"geometry":{"coordinates":[24.067107,49.794824],"type":"Point"},"properties":{"osm_id":"4710178789","tag":{"amenity":"waste_disposal"}},"type":"Feature"},
	{"geometry":{"coordinates":[24.050038,49.817668],"type":"Point"},"properties":{"osm_id":"4742727853","tag":{"amenity":"waste_disposal"}},"type":"Feature"},
	{"geometry":{"coordinates":[24.054449,49.815064],"type":"Point"},"properties":{"osm_id":"4742727854","tag":{"amenity":"waste_basket"}},"type":"Feature"},
	{"geometry":{"coordinates":[24.057977,49.816379],"type":"Point"},"properties":{"osm_id":"4744026322","tag":{"amenity":"waste_basket"}},"type":"Feature"},
	{"geometry":{"coordinates":[24.045441,49.825979],"type":"Point"},"properties":{"osm_id":"4754006923","tag":{"amenity":"waste_basket"}},"type":"Feature"},
	{"geometry":{"coordinates":[24.054447,49.818948],"type":"Point"},"properties":{"osm_id":"4765236523","tag":{"amenity":"waste_disposal"}},"type":"Feature"},
	{"geometry":{"coordinates":[24.070183,49.791885],"type":"Point"},"properties":{"osm_id":"4786102126","tag":{"amenity":"waste_disposal"}},"type":"Feature"},
	{"geometry":{"coordinates":[24.019064,49.835452],"type":"Point"},"properties":{"osm_id":"4793214501","tag":{"amenity":"waste_basket"}},"type":"Feature"},
	{"geometry":{"coordinates":[24.012984,49.827094],"type":"Point"},"properties":{"osm_id":"4803789927","tag":{"amenity":"waste_basket"}},"type":"Feature"},
	{"geometry":{"coordinates":[24.059512,49.83685],"type":"Point"},"properties":{"osm_id":"4825247524","tag":{"amenity":"waste_disposal"}},"type":"Feature"},
	{"geometry":{"coordinates":[24.016011,49.833126],"type":"Point"},"properties":{"osm_id":"4854250203","tag":{"amenity":"waste_disposal"}},"type":"Feature"},
	{"geometry":{"coordinates":[24.041605,49.824157],"type":"Point"},"properties":{"osm_id":"4854309620","tag":{"amenity":"waste_disposal"}},"type":"Feature"},
	{"geometry":{"coordinates":[24.008774,49.837882],"type":"Point"},"properties":{"osm_id":"4857696752","tag":{"amenity":"waste_basket"}},"type":"Feature"},
	{"geometry":{"coordinates":[24.056374,49.781896],"type":"Point"},"properties":{"osm_id":"4859979225","tag":{"amenity":"waste_basket"}},"type":"Feature"},
	{"geometry":{"coordinates":[24.056347,49.781902],"type":"Point"},"properties":{"osm_id":"4859979226","tag":{"amenity":"waste_disposal"}},"type":"Feature"},
	{"geometry":{"coordinates":[24.060517,49.783618],"type":"Point"},"properties":{"osm_id":"4864876609","tag":{"amenity":"waste_disposal"}},"type":"Feature"},
	{"geometry":{"coordinates":[24.008284,49.833708],"type":"Point"},"properties":{"osm_id":"4873621930","tag":{"amenity":"waste_disposal"}},"type":"Feature"},
	{"geometry":{"coordinates":[24.013517,49.831587],"type":"Point"},"properties":{"osm_id":"4881288361","tag":{"amenity":"recycling","description":"\u00d0\u009f\u00d1\u0083\u00d0\u00bd\u00d0\u00ba\u00d1\u0082 \u00d0\u00bf\u00d1\u0080\u00d0\u00b8\u00d0\u00b9\u00d0\u00be\u00d0\u00bc\u00d1\u0083 \u00d0\u00bc\u00d0\u00b0\u00d0\u00ba\u00d1\u0083\u00d0\u00bb\u00d0\u00b0\u00d1\u0082\u00d1\u0083\u00d1\u0080\u00d0\u00b8","recycling:books":"yes","recycling:magazines":"yes","recycling:newspaper":"yes","recycling:paper":"yes","recycling_type":"centre"}},"type":"Feature"},
	{"geometry":{"coordinates":[24.027957,49.799291],"type":"Point"},"properties":{"osm_id":"4903595422","tag":{"amenity":"waste_disposal"}},"type":"Feature"},
	{"geometry":{"coordinates":[24.007225,49.803566],"type":"Point"},"properties":{"osm_id":"4903595521","tag":{"amenity":"waste_disposal"}},"type":"Feature"},
	{"geometry":{"coordinates":[24.029182,49.798934],"type":"Point"},"properties":{"osm_id":"4903595522","tag":{"amenity":"waste_disposal"}},"type":"Feature"},
	{"geometry":{"coordinates":[24.026502,49.799072],"type":"Point"},"properties":{"osm_id":"4934716197","tag":{"amenity":"recycling","recycling_type":"container"}},"type":"Feature"},
	{"geometry":{"coordinates":[24.017401,49.791],"type":"Point"},"properties":{"osm_id":"4936171609","tag":{"amenity":"recycling","recycling_type":"container"}},"type":"Feature"},
	{"geometry":{"coordinates":[24.018031,49.78948],"type":"Point"},"properties":{"osm_id":"4946183090","tag":{"amenity":"waste_disposal"}},"type":"Feature"},
	{"geometry":{"coordinates":[24.022301,49.789042],"type":"Point"},"properties":{"osm_id":"4946184372","tag":{"amenity":"waste_disposal"}},"type":"Feature"},
	{"geometry":{"coordinates":[24.014642,49.828542],"type":"Point"},"properties":{"osm_id":"4953495604","tag":{"amenity":"waste_basket"}},"type":"Feature"},
	{"geometry":{"coordinates":[24.014668,49.828563],"type":"Point"},"properties":{"osm_id":"4953495605","tag":{"amenity":"waste_basket"}},"type":"Feature"},
	{"geometry":{"coordinates":[24.01429,49.828184],"type":"Point"},"properties":{"osm_id":"4953495606","tag":{"amenity":"waste_basket"}},"type":"Feature"},
	{"geometry":{"coordinates":[24.014316,49.828205],"type":"Point"},"properties":{"osm_id":"4953495607","tag":{"amenity":"waste_basket"}},"type":"Feature"},
	{"geometry":{"coordinates":[24.001958,49.803318],"type":"Point"},"properties":{"osm_id":"4958949127","tag":{"amenity":"waste_disposal"}},"type":"Feature"},
	{"geometry":{"coordinates":[24.012059,49.836363],"type":"Point"},"properties":{"osm_id":"4958995560","tag":{"amenity":"waste_basket"}},"type":"Feature"},
	{"geometry":{"coordinates":[24.011449,49.835885],"type":"Point"},"properties":{"osm_id":"4958999238","tag":{"amenity":"waste_disposal"}},"type":"Feature"},
	{"geometry":{"coordinates":[24.00663,49.836349],"type":"Point"},"properties":{"name":"\u00d0\u009f\u00d1\u0080\u00d0\u00b8\u00d0\u00b9\u00d0\u00be\u00d0\u00bc \u00d1\u0081\u00d0\u00ba\u00d0\u00bb\u00d0\u00be\u00d1\u0082\u00d0\u00b0\u00d1\u0080\u00d0\u00b8","osm_id":"4959016088","tag":{"amenity":"recycling","recycling:glass_bottles":"yes","recycling_type":"centre"}},"type":"Feature"},
	{"geometry":{"coordinates":[24.006941,49.836368],"type":"Point"},"properties":{"osm_id":"4959016089","tag":{"amenity":"waste_disposal"}},"type":"Feature"},
	{"geometry":{"coordinates":[24.009247,49.829448],"type":"Point"},"properties":{"osm_id":"4964356091","tag":{"amenity":"waste_disposal"}},"type":"Feature"},
	{"geometry":{"coordinates":[24.009955,49.830382],"type":"Point"},"properties":{"osm_id":"4965902218","tag":{"amenity":"waste_disposal"}},"type":"Feature"},
	{"geometry":{"coordinates":[24.011397,49.830988],"type":"Point"},"properties":{"osm_id":"4965902219","tag":{"access":"yes","amenity":"waste_disposal","description":"\u00d0\u009a\u00d1\u0096\u00d0\u00bb\u00d1\u008c\u00d0\u00ba\u00d1\u0096\u00d1\u0081\u00d1\u0082\u00d1\u008c \u00d0\u00ba\u00d0\u00be\u00d0\u00bd\u00d1\u0082\u00d0\u00b5\u00d0\u00b9\u00d0\u00bd\u00d0\u00b5\u00d1\u0080\u00d1\u0096\u00d0\u00b2 - 4; \u00d0\u00b7\u00d0\u00bc\u00d1\u0096\u00d1\u0088\u00d0\u00b0\u00d0\u00bd\u00d1\u0096 - 3; \u00d0\u00bf\u00d0\u00bb\u00d0\u00b0\u00d1\u0081\u00d1\u0082\u00d0\u00b8\u00d0\u00ba - 1.","operator":"\u00d0\u0090\u00d0\u0092\u00d0\u0095"}},"type":"Feature"},
	{"geometry":{"coordinates":[24.012828,49.829769],"type":"Point"},"properties":{"osm_id":"4965902220","tag":{"amenity":"waste_disposal"}},"type":"Feature"},
	{"geometry":{"coordinates":[24.012073,49.832459],"type":"Point"},"properties":{"osm_id":"4968136179","tag":{"amenity":"waste_basket"}},"type":"Feature"},
	{"geometry":{"coordinates":[24.009459,49.833227],"type":"Point"},"properties":{"osm_id":"4970172439","tag":{"amenity":"waste_disposal"}},"type":"Feature"},
	{"geometry":{"coordinates":[24.004807,49.8363],"type":"Point"},"properties":{"osm_id":"4973822723","tag":{"amenity":"waste_basket"}},"type":"Feature"},
	{"geometry":{"coordinates":[24.005126,49.83664],"type":"Point"},"properties":{"osm_id":"4973822724","tag":{"amenity":"waste_basket"}},"type":"Feature"},
	{"geometry":{"coordinates":[24.005005,49.836565],"type":"Point"},"properties":{"osm_id":"4973822725","tag":{"amenity":"waste_basket"}},"type":"Feature"},
	{"geometry":{"coordinates":[24.004705,49.836567],"type":"Point"},"properties":{"osm_id":"4973823523","tag":{"amenity":"waste_basket"}},"type":"Feature"},
	{"geometry":{"coordinates":[24.005032,49.836397],"type":"Point"},"properties":{"osm_id":"4973829021","tag":{"amenity":"waste_basket"}},"type":"Feature"},
	{"geometry":{"coordinates":[24.005074,49.836697],"type":"Point"},"properties":{"osm_id":"4973829022","tag":{"amenity":"waste_basket"}},"type":"Feature"},
	{"geometry":{"coordinates":[24.023328,49.798841],"type":"Point"},"properties":{"osm_id":"5017630159","tag":{"amenity":"waste_disposal"}},"type":"Feature"},
	{"geometry":{"coordinates":[24.034488,49.832779],"type":"Point"},"properties":{"osm_id":"5029521675","tag":{"amenity":"recycling","opening_hours":"Mo-Fr 08:00-13:00,14:00-18:00; Tu,Th off","phone":"+38 (097) 523-46-78","recycling:cardboard":"yes","recycling:glass_bottles":"yes","recycling_type":"centre"}},"type":"Feature"},
	{"geometry":{"coordinates":[24.039714,49.829948],"type":"Point"},"properties":{"osm_id":"5059878824","tag":{"amenity":"waste_disposal"}},"type":"Feature"},
	{"geometry":{"coordinates":[24.021257,49.83536],"type":"Point"},"properties":{"osm_id":"5077435913","tag":{"amenity":"waste_basket"}},"type":"Feature"},
	{"geometry":{"coordinates":[24.058111,49.828175],"type":"Point"},"properties":{"osm_id":"5077443594","tag":{"amenity":"waste_basket"}},"type":"Feature"},
	{"geometry":{"coordinates":[24.058095,49.828693],"type":"Point"},"properties":{"osm_id":"5077443595","tag":{"amenity":"waste_basket"}},"type":"Feature"},
	{"geometry":{"coordinates":[24.016477,49.835192],"type":"Point"},"properties":{"osm_id":"5088821344","tag":{"amenity":"waste_basket"}},"type":"Feature"},
	{"geometry":{"coordinates":[24.060911,49.836021],"type":"Point"},"properties":{"osm_id":"5106410821","tag":{"amenity":"waste_disposal"}},"type":"Feature"},
	{"geometry":{"coordinates":[24.005564,49.83646],"type":"Point"},"properties":{"osm_id":"5137038891","tag":{"amenity":"waste_basket"}},"type":"Feature"},
	{"geometry":{"coordinates":[24.013707,49.834307],"type":"Point"},"properties":{"osm_id":"5241391366","tag":{"access":"yes","amenity":"waste_disposal","description":"\u00d0\u009a\u00d1\u0096\u00d0\u00bb\u00d1\u008c\u00d0\u00ba\u00d1\u0096\u00d1\u0081\u00d1\u0082\u00d1\u008c \u00d0\u00ba\u00d0\u00be\u00d0\u00bd\u00d1\u0082\u00d0\u00b5\u00d0\u00b9\u00d0\u00bd\u00d0\u00b5\u00d1\u0080\u00d1\u0096\u00d0\u00b2 - 9  \u00d0\u00b7\u00d0\u00bc\u00d1\u0096\u00d1\u0088\u00d0\u00b0\u00d0\u00bd\u00d1\u0096 - 6; \u00d0\u00bf\u00d0\u00bb\u00d0\u00b0\u00d1\u0081\u00d1\u0082\u00d0\u00b8\u00d0\u00ba - 1; \u00d1\u0081\u00d0\u00ba\u00d0\u00bb\u00d0\u00be - 1; \u00d0\u00bc\u00d0\u00b0\u00d0\u00ba\u00d1\u0083\u00d0\u00bb\u00d0\u00b0\u00d1\u0082\u00d1\u0083\u00d1\u0080\u00d0\u00b0 - 1.","operator":"\u00d0\u0090\u00d0\u0092\u00d0\u0095"}},"type":"Feature"},
	{"geometry":{"coordinates":[24.020272,49.830444],"type":"Point"},"properties":{"osm_id":"5248543790","tag":{"amenity":"waste_disposal"}},"type":"Feature"},
	{"geometry":{"coordinates":[24.023208,49.829673],"type":"Point"},"properties":{"osm_id":"5248544213","tag":{"amenity":"waste_disposal"}},"type":"Feature"},
	{"geometry":{"coordinates":[24.026777,49.829059],"type":"Point"},"properties":{"osm_id":"5248544215","tag":{"amenity":"waste_disposal"}},"type":"Feature"},
	{"geometry":{"coordinates":[24.028559,49.828982],"type":"Point"},"properties":{"osm_id":"5248544219","tag":{"amenity":"waste_disposal"}},"type":"Feature"},
	{"geometry":{"coordinates":[24.058994,49.820568],"type":"Point"},"properties":{"osm_id":"5270985722","tag":{"amenity":"waste_disposal"}},"type":"Feature"},
	{"geometry":{"coordinates":[24.052177,49.834103],"type":"Point"},"properties":{"osm_id":"5364323032","tag":{"amenity":"waste_basket"}},"type":"Feature"},
	{"geometry":{"coordinates":[24.051969,49.833609],"type":"Point"},"properties":{"osm_id":"5364521557","tag":{"amenity":"waste_basket"}},"type":"Feature"},
	{"geometry":{"coordinates":[24.017186,49.835457],"type":"Point"},"properties":{"osm_id":"5424258521","tag":{"amenity":"waste_basket"}},"type":"Feature"},
	{"geometry":{"coordinates":[24.016951,49.835097],"type":"Point"},"properties":{"osm_id":"5424428595","tag":{"amenity":"waste_basket"}},"type":"Feature"},
	{"geometry":{"coordinates":[24.017085,49.835093],"type":"Point"},"properties":{"osm_id":"5424428597","tag":{"amenity":"waste_basket"}},"type":"Feature"},
	{"geometry":{"coordinates":[24.016633,49.83516],"type":"Point"},"properties":{"osm_id":"5424535454","tag":{"amenity":"waste_basket"}},"type":"Feature"},
	{"geometry":{"coordinates":[24.007497,49.831709],"type":"Point"},"properties":{"osm_id":"5514401623","tag":{"amenity":"waste_basket"}},"type":"Feature"},
	{"geometry":{"coordinates":[24.061737,49.784232],"type":"Point"},"properties":{"osm_id":"5563394423","tag":{"amenity":"waste_disposal"}},"type":"Feature"},
	{"geometry":{"coordinates":[24.061123,49.784222],"type":"Point"},"properties":{"osm_id":"5563394521","tag":{"amenity":"waste_disposal"}},"type":"Feature"},
	{"geometry":{"coordinates":[24.06453,49.815861],"type":"Point"},"properties":{"osm_id":"5567344924","tag":{"amenity":"waste_disposal"}},"type":"Feature"},
	{"geometry":{"coordinates":[24.024074,49.837599],"type":"Point"},"properties":{"osm_id":"5580733774","tag":{"amenity":"waste_basket"}},"type":"Feature"},
	{"geometry":{"coordinates":[24.038669,49.827202],"type":"Point"},"properties":{"osm_id":"5602589773","tag":{"amenity":"recycling","recycling_type":"container"}},"type":"Feature"},
	{"geometry":{"coordinates":[24.003054,49.832682],"type":"Point"},"properties":{"osm_id":"5613646378","tag":{"amenity":"recycling","recycling_type":"container"}},"type":"Feature"},
	{"geometry":{"coordinates":[24.052908,49.78613],"type":"Point"},"properties":{"osm_id":"5618826823","tag":{"amenity":"waste_disposal"}},"type":"Feature"},
	{"geometry":{"coordinates":[24.021092,49.817994],"type":"Point"},"properties":{"osm_id":"5618826824","tag":{"amenity":"waste_disposal"}},"type":"Feature"},
	{"geometry":{"coordinates":[24.052557,49.786129],"type":"Point"},"properties":{"osm_id":"5618851921","tag":{"amenity":"waste_disposal"}},"type":"Feature"},
	{"geometry":{"coordinates":[24.007017,49.830466],"type":"Point"},"properties":{"osm_id":"5622281867","tag":{"amenity":"recycling","operator":"\u00d0\u0095\u00d0\u00bc\u00d0\u00b0\u00d1\u0083\u00d1\u0081-\u00d0\u009e\u00d1\u0081\u00d0\u00b5\u00d0\u00bb\u00d1\u008f","recycling:books":"yes","recycling:clothes":"yes","recycling:shoes":"yes","recycling:small_appliances":"yes","recycling_type":"container","website":"http://emaus-oselya.org/ua/"}},"type":"Feature"},
	{"geometry":{"coordinates":[24.056875,49.791875],"type":"Point"},"properties":{"osm_id":"5640427821","tag":{"amenity":"waste_disposal"}},"type":"Feature"},
	{"geometry":{"coordinates":[24.015888,49.837254],"type":"Point"},"properties":{"osm_id":"5666765316","tag":{"amenity":"waste_disposal"}},"type":"Feature"},
	{"geometry":{"coordinates":[24.009315,49.815447],"type":"Point"},"properties":{"osm_id":"5758255117","tag":{"amenity":"waste_disposal"}},"type":"Feature"},
	{"geometry":{"coordinates":[24.011845,49.816801],"type":"Point"},"properties":{"osm_id":"5758255334","tag":{"access":"yes","amenity":"waste_disposal","description":"\u00d0\u009a\u00d1\u0096\u00d0\u00bb\u00d1\u008c\u00d0\u00ba\u00d1\u0096\u00d1\u0081\u00d1\u0082\u00d1\u008c \u00d0\u00ba\u00d0\u00be\u00d0\u00bd\u00d1\u0082\u00d0\u00b5\u00d0\u00b9\u00d0\u00bd\u00d0\u00b5\u00d1\u0080\u00d1\u0096\u00d0\u00b2 - 1; \u00d0\u00b7\u00d0\u00bc\u00d1\u0096\u00d1\u0088\u00d0\u00b0\u00d0\u00bd\u00d1\u0096 - 1.","material":"plastic","operator":"\u00d0\u0090\u00d0\u0092\u00d0\u0095"}},"type":"Feature"},
	{"geometry":{"coordinates":[23.997518,49.833078],"type":"Point"},"properties":{"osm_id":"5772655967","tag":{"amenity":"waste_basket","waste":"trash"}},"type":"Feature"},
	{"geometry":{"coordinates":[23.997228,49.833191],"type":"Point"},"properties":{"osm_id":"5772655968","tag":{"amenity":"waste_basket","waste":"trash"}},"type":"Feature"},
	{"geometry":{"coordinates":[23.997189,49.833227],"type":"Point"},"properties":{"osm_id":"5772655969","tag":{"amenity":"waste_basket","waste":"trash"}},"type":"Feature"},
	{"geometry":{"coordinates":[23.997176,49.833156],"type":"Point"},"properties":{"osm_id":"5772655970","tag":{"amenity":"waste_basket","waste":"trash"}},"type":"Feature"},
	{"geometry":{"coordinates":[24.012932,49.818145],"type":"Point"},"properties":{"osm_id":"5779000455","tag":{"access":"yes","amenity":"waste_disposal","description":"\u00d0\u009a\u00d1\u0096\u00d0\u00bb\u00d1\u008c\u00d0\u00ba\u00d1\u0096\u00d1\u0081\u00d1\u0082\u00d1\u008c \u00d0\u00ba\u00d0\u00be\u00d0\u00bd\u00d1\u0082\u00d0\u00b5\u00d0\u00b9\u00d0\u00bd\u00d0\u00b5\u00d1\u0080\u00d1\u0096\u00d0\u00b2 - 4; \u00d0\u00b7\u00d0\u00bc\u00d1\u0096\u00d1\u0088\u00d0\u00b0\u00d0\u00bd\u00d1\u0096 - 4.","material":"plastic","operator":"\u00d0\u00a1\u00d0\u0090\u00d0\u00a2"}},"type":"Feature"},
	{"geometry":{"coordinates":[23.995868,49.831358],"type":"Point"},"properties":{"osm_id":"5878669613","tag":{"amenity":"waste_disposal"}},"type":"Feature"},
	{"geometry":{"coordinates":[23.996606,49.833437],"type":"Point"},"properties":{"osm_id":"5988990729","tag":{"amenity":"waste_disposal"}},"type":"Feature"},
	{"geometry":{"coordinates":[23.999664,49.834039],"type":"Point"},"properties":{"osm_id":"6007558796","tag":{"amenity":"waste_disposal"}},"type":"Feature"},
	{"geometry":{"coordinates":[23.995859,49.832488],"type":"Point"},"properties":{"osm_id":"6007558811","tag":{"amenity":"waste_disposal"}},"type":"Feature"},
	{"geometry":{"coordinates":[23.996083,49.825194],"type":"Point"},"properties":{"osm_id":"6081597688","tag":{"amenity":"waste_disposal"}},"type":"Feature"},
	{"geometry":{"coordinates":[24.02899,49.815352],"type":"Point"},"properties":{"osm_id":"6271562511","tag":{"amenity":"recycling"}},"type":"Feature"},
	{"geometry":{"coordinates":[24.026221,49.817527],"type":"Point"},"properties":{"osm_id":"6271625551","tag":{"amenity":"recycling"}},"type":"Feature"},
	{"geometry":{"coordinates":[24.037138,49.826581],"type":"Point"},"properties":{"osm_id":"6276602092","tag":{"amenity":"recycling","recycling_type":"container"}},"type":"Feature"},
	{"geometry":{"coordinates":[24.041625,49.826248],"type":"Point"},"properties":{"osm_id":"6277195993","tag":{"amenity":"waste_disposal"}},"type":"Feature"},
	{"geometry":{"coordinates":[24.045457,49.811342],"type":"Point"},"properties":{"osm_id":"6278093204","tag":{"amenity":"waste_disposal"}},"type":"Feature"},
	{"geometry":{"coordinates":[24.006462,49.807438],"type":"Point"},"properties":{"osm_id":"6288717853","tag":{"access":"yes","amenity":"waste_disposal","description":"\u00d0\u009a\u00d1\u0096\u00d0\u00bb\u00d1\u008c\u00d0\u00ba\u00d1\u0096\u00d1\u0081\u00d1\u0082\u00d1\u008c \u00d0\u00ba\u00d0\u00be\u00d0\u00bd\u00d1\u0082\u00d0\u00b5\u00d0\u00b9\u00d0\u00bd\u00d0\u00b5\u00d1\u0080\u00d1\u0096\u00d0\u00b2 -6; \u00d0\u00b7\u00d0\u00bc\u00d1\u0096\u00d1\u0088\u00d0\u00b0\u00d0\u00bd\u00d1\u0096 -3; \u00d0\u00bf\u00d0\u00bb\u00d0\u00b0\u00d1\u0081\u00d1\u0082\u00d0\u00b8\u00d0\u00ba -3.","material":"plastic","operator":"\u00d0\u00a1\u00d0\u0090\u00d0\u00a2"}},"type":"Feature"},
	{"geometry":{"coordinates":[24.044701,49.819339],"type":"Point"},"properties":{"osm_id":"6291000437","tag":{"amenity":"waste_disposal"}},"type":"Feature"},
	{"geometry":{"coordinates":[24.044901,49.813059],"type":"Point"},"properties":{"osm_id":"6291033995","tag":{"amenity":"waste_disposal"}},"type":"Feature"},
	{"geometry":{"coordinates":[24.038452,49.811392],"type":"Point"},"properties":{"osm_id":"6292707487","tag":{"amenity":"waste_disposal","waste":"trash"}},"type":"Feature"},
	{"geometry":{"coordinates":[24.028119,49.818261],"type":"Point"},"properties":{"osm_id":"6293391426","tag":{"amenity":"waste_disposal"}},"type":"Feature"},
	{"geometry":{"coordinates":[24.032409,49.819969],"type":"Point"},"properties":{"osm_id":"6293693865","tag":{"amenity":"waste_disposal"}},"type":"Feature"},
	{"geometry":{"coordinates":[24.030878,49.820144],"type":"Point"},"properties":{"osm_id":"6293693880","tag":{"amenity":"waste_disposal"}},"type":"Feature"},
	{"geometry":{"coordinates":[24.035044,49.824811],"type":"Point"},"properties":{"osm_id":"6293714197","tag":{"amenity":"recycling","recycling_type":"container"}},"type":"Feature"},
	{"geometry":{"coordinates":[24.05521,49.796775],"type":"Point"},"properties":{"osm_id":"6339663773","tag":{"amenity":"waste_disposal"}},"type":"Feature"},
	{"geometry":{"coordinates":[24.002919,49.809643],"type":"Point"},"properties":{"osm_id":"6345717630","tag":{"access":"yes","amenity":"waste_disposal","description":"\u00d0\u009a\u00d1\u0096\u00d0\u00bb\u00d1\u008c\u00d0\u00ba\u00d1\u0096\u00d1\u0081\u00d1\u0082\u00d1\u008c \u00d0\u00ba\u00d0\u00be\u00d0\u00bd\u00d1\u0082\u00d0\u00b5\u00d0\u00b9\u00d0\u00bd\u00d0\u00b5\u00d1\u0080\u00d1\u0096\u00d0\u00b2 -3; \u00d0\u00b7\u00d0\u00bc\u00d1\u0096\u00d1\u0088\u00d0\u00b0\u00d0\u00bd\u00d1\u0096 -2; \u00d0\u00bf\u00d0\u00bb\u00d0\u00b0\u00d1\u0082\u00d0\u00b8\u00d0\u00ba -1.","material":"plastic","operator":"\u00d0\u00a1\u00d0\u0090\u00d0\u00a2"}},"type":"Feature"},
	{"geometry":{"coordinates":[23.994511,49.802529],"type":"Point"},"properties":{"osm_id":"6349908787","tag":{"amenity":"waste_disposal"}},"type":"Feature"},
	{"geometry":{"coordinates":[24.004135,49.810328],"type":"Point"},"properties":{"osm_id":"6349981236","tag":{"amenity":"waste_disposal"}},"type":"Feature"},
	{"geometry":{"coordinates":[24.034627,49.833256],"type":"Point"},"properties":{"osm_id":"6358016218","tag":{"amenity":"waste_disposal"}},"type":"Feature"},
	{"geometry":{"coordinates":[24.055855,49.782478],"type":"Point"},"properties":{"osm_id":"6360355319","tag":{"amenity":"waste_disposal"}},"type":"Feature"},
	{"geometry":{"coordinates":[24.042584,49.827492],"type":"Point"},"properties":{"osm_id":"6361040619","tag":{"amenity":"waste_disposal"}},"type":"Feature"},
	{"geometry":{"coordinates":[24.054871,49.782092],"type":"Point"},"properties":{"osm_id":"6362212093","tag":{"amenity":"waste_disposal"}},"type":"Feature"},
	{"geometry":{"coordinates":[24.051663,49.79883],"type":"Point"},"properties":{"osm_id":"6365135731","tag":{"amenity":"waste_disposal"}},"type":"Feature"},
	{"geometry":{"coordinates":[24.050378,49.799251],"type":"Point"},"properties":{"osm_id":"6365402158","tag":{"amenity":"waste_disposal"}},"type":"Feature"},
	{"geometry":{"coordinates":[23.99514,49.800595],"type":"Point"},"properties":{"osm_id":"6369904640","tag":{"amenity":"waste_disposal"}},"type":"Feature"},
	{"geometry":{"coordinates":[23.995132,49.799783],"type":"Point"},"properties":{"osm_id":"6369912006","tag":{"amenity":"waste_disposal"}},"type":"Feature"},
	{"geometry":{"coordinates":[23.994565,49.803158],"type":"Point"},"properties":{"osm_id":"6369950167","tag":{"amenity":"waste_disposal"}},"type":"Feature"},
	{"geometry":{"coordinates":[23.999274,49.802453],"type":"Point"},"properties":{"osm_id":"6370402146","tag":{"amenity":"waste_disposal"}},"type":"Feature"},
	{"geometry":{"coordinates":[24.043467,49.798955],"type":"Point"},"properties":{"osm_id":"6370990645","tag":{"amenity":"waste_disposal"}},"type":"Feature"},
	{"geometry":{"coordinates":[24.061754,49.796205],"type":"Point"},"properties":{"osm_id":"6380998083","tag":{"amenity":"waste_disposal"}},"type":"Feature"},
	{"geometry":{"coordinates":[24.060389,49.795741],"type":"Point"},"properties":{"osm_id":"6380999848","tag":{"amenity":"waste_disposal"}},"type":"Feature"},
	{"geometry":{"coordinates":[24.057931,49.796279],"type":"Point"},"properties":{"osm_id":"6381004681","tag":{"amenity":"waste_disposal"}},"type":"Feature"},
	{"geometry":{"coordinates":[24.052967,49.79393],"type":"Point"},"properties":{"osm_id":"6382816185","tag":{"amenity":"waste_disposal"}},"type":"Feature"},
	{"geometry":{"coordinates":[24.05102,49.794946],"type":"Point"},"properties":{"osm_id":"6382819881","tag":{"amenity":"waste_disposal"}},"type":"Feature"},
	{"geometry":{"coordinates":[24.061955,49.797529],"type":"Point"},"properties":{"osm_id":"6423684458","tag":{"amenity":"waste_disposal"}},"type":"Feature"},
	{"geometry":{"coordinates":[24.059883,49.797256],"type":"Point"},"properties":{"osm_id":"6423713174","tag":{"amenity":"waste_disposal"}},"type":"Feature"},
	{"geometry":{"coordinates":[24.051887,49.799217],"type":"Point"},"properties":{"osm_id":"6428360100","tag":{"amenity":"waste_disposal"}},"type":"Feature"},
	{"geometry":{"coordinates":[24.042829,49.799831],"type":"Point"},"properties":{"osm_id":"6430292902","tag":{"amenity":"waste_disposal"}},"type":"Feature"},
	{"geometry":{"coordinates":[23.994424,49.81005],"type":"Point"},"properties":{"osm_id":"6432731294","tag":{"access":"yes","amenity":"waste_disposal","description":"\u00d0\u009a\u00d1\u0096\u00d0\u00bb\u00d1\u008c\u00d0\u00ba\u00d1\u0096\u00d1\u0081\u00d1\u0082\u00d1\u008c \u00d0\u00ba\u00d0\u00be\u00d0\u00bd\u00d1\u0082\u00d0\u00b5\u00d0\u00b9\u00d0\u00bd\u00d0\u00b5\u00d1\u0080\u00d1\u0096\u00d0\u00b2 - 4; \u00d0\u00b7\u00d0\u00bc\u00d1\u0096\u00d1\u0088\u00d0\u00b0\u00d0\u00bd\u00d1\u0096 -3; \u00d0\u00bf\u00d0\u00bb\u00d0\u00b0\u00d1\u0081\u00d1\u0082\u00d0\u00b8\u00d0\u00ba -1.","material":"plastic","operator":"\u00d0\u009b\u00d1\u008c\u00d0\u00b2\u00d1\u0096\u00d0\u00b2\u00d0\u00ba\u00d0\u00be\u00d0\u00bc\u00d1\u0083\u00d0\u00bd\u00d1\u0081\u00d0\u00bf\u00d0\u00b5\u00d1\u0086\u00d0\u00b0\u00d0\u00b2\u00d1\u0082\u00d0\u00be\u00d1\u0082\u00d1\u0080\u00d0\u00b0\u00d0\u00bd\u00d1\u0081\u00d0\u00bf"}},"type":"Feature"},
	{"geometry":{"coordinates":[24.045536,49.799641],"type":"Point"},"properties":{"osm_id":"6435622560","tag":{"amenity":"waste_disposal"}},"type":"Feature"},
	{"geometry":{"coordinates":[24.044979,49.799898],"type":"Point"},"properties":{"osm_id":"6435625184","tag":{"amenity":"waste_disposal","operator":"AVE"}},"type":"Feature"},
	{"geometry":{"coordinates":[24.042622,49.814057],"type":"Point"},"properties":{"osm_id":"6452620490","tag":{"amenity":"waste_disposal"}},"type":"Feature"},
	{"geometry":{"coordinates":[24.041747,49.834329],"type":"Point"},"properties":{"osm_id":"6463768784","tag":{"amenity":"waste_disposal"}},"type":"Feature"},
	{"geometry":{"coordinates":[24.015,49.823067],"type":"Point"},"properties":{"osm_id":"6524009838","tag":{"amenity":"waste_disposal"}},"type":"Feature"},
	{"geometry":{"coordinates":[23.997196,49.825919],"type":"Point"},"properties":{"osm_id":"6544269128","tag":{"amenity":"waste_disposal"}},"type":"Feature"},
	{"geometry":{"coordinates":[24.032779,49.816588],"type":"Point"},"properties":{"osm_id":"6557026252","tag":{"amenity":"waste_disposal"}},"type":"Feature"},
	{"geometry":{"coordinates":[24.009273,49.829662],"type":"Point"},"properties":{"osm_id":"6564104680","tag":{"access":"yes","amenity":"waste_disposal","description":"\u00d0\u009a\u00d1\u0096\u00d0\u00bb\u00d1\u008c\u00d0\u00ba\u00d1\u0096\u00d1\u0082\u00d1\u008c \u00d0\u00ba\u00d0\u00be\u00d0\u00bd\u00d1\u0082\u00d0\u00b5\u00d0\u00b9\u00d0\u00bd\u00d0\u00b5\u00d1\u0080\u00d1\u0096\u00d0\u00b2 3; \u00d0\u00b7\u00d0\u00bc\u00d1\u0096\u00d1\u0088\u00d0\u00b0\u00d0\u00bd\u00d1\u0096 - 2; \u00d0\u00bf\u00d0\u00bb\u00d0\u00b0\u00d1\u0081\u00d1\u0082\u00d0\u00b8\u00d0\u00ba - 1.","operator":"\u00d0\u0090\u00d0\u0092\u00d0\u0095"}},"type":"Feature"},
	{"geometry":{"coordinates":[24.016014,49.832306],"type":"Point"},"properties":{"osm_id":"6564104681","tag":{"access":"yes","amenity":"waste_disposal","description":"\u00d0\u009a\u00d1\u0096\u00d0\u00bb\u00d1\u008c\u00d0\u00ba\u00d1\u0096\u00d1\u0081\u00d1\u0082\u00d1\u008c \u00d0\u00ba\u00d0\u00be\u00d0\u00bd\u00d1\u0082\u00d0\u00b5\u00d0\u00b9\u00d0\u00bd\u00d0\u00b5\u00d1\u0080\u00d1\u0096\u00d0\u00b2 - 8; \u00d0\u00b7\u00d0\u00bc\u00d1\u0096\u00d1\u0088\u00d0\u00b0\u00d0\u00bd\u00d1\u0096 - 6; \u00d0\u00bf\u00d0\u00bb\u00d0\u00b0\u00d1\u0081\u00d1\u0082\u00d0\u00b8\u00d0\u00ba - 2.","material":"plastic","operator":"\u00d0\u0090\u00d0\u0092\u00d0\u0095"}},"type":"Feature"},
	{"geometry":{"coordinates":[24.013176,49.830278],"type":"Point"},"properties":{"osm_id":"6564104682","tag":{"access":"yes","amenity":"waste_disposal","description":"\u00d0\u009a\u00d1\u0096\u00d0\u00bb\u00d1\u008c\u00d0\u00ba\u00d1\u0096\u00d1\u0081\u00d1\u0082\u00d1\u008c \u00d0\u00ba\u00d0\u00be\u00d0\u00bd\u00d1\u0082\u00d0\u00b5\u00d0\u00b9\u00d0\u00bd\u00d0\u00b5\u00d1\u0080\u00d1\u0096\u00d0\u00b2 - 4; \u00d0\u00b7\u00d0\u00bc\u00d1\u0096\u00d1\u0088\u00d0\u00b0\u00d0\u00bd\u00d1\u0096 - 3; \u00d0\u00bf\u00d0\u00bb\u00d0\u00b0\u00d1\u0081\u00d1\u0082\u00d0\u00b8\u00d0\u00ba - 1.","material":"plastic","operator":"\u00d0\u0090\u00d0\u0092\u00d0\u0095"}},"type":"Feature"},
	{"geometry":{"coordinates":[24.00905,49.830439],"type":"Point"},"properties":{"osm_id":"6564104683","tag":{"access":"yes","amenity":"waste_disposal","description":"\u00d0\u009a\u00d1\u0096\u00d0\u00bb\u00d1\u008c\u00d0\u00ba\u00d1\u0096\u00d1\u0081\u00d1\u0082\u00d1\u008c \u00d0\u00ba\u00d0\u00be\u00d0\u00bd\u00d1\u0082\u00d0\u00b5\u00d0\u00b9\u00d0\u00bd\u00d0\u00b5\u00d1\u0080\u00d1\u0096\u00d0\u00b2 3; \u00d0\u00b7\u00d0\u00bc\u00d1\u0096\u00d1\u0088\u00d0\u00b0\u00d0\u00bd\u00d1\u0096 - 2; \u00d0\u00bf\u00d0\u00bb\u00d0\u00b0\u00d1\u0081\u00d1\u0082\u00d0\u00b8\u00d0\u00ba - 1.","material":"plastic","operator":"\u00d0\u0090\u00d0\u0092\u00d0\u0095"}},"type":"Feature"},
	{"geometry":{"coordinates":[24.009601,49.831434],"type":"Point"},"properties":{"osm_id":"6564107011","tag":{"access":"yes","amenity":"waste_disposal","description":"\u00d0\u009a\u00d1\u0096\u00d0\u00bb\u00d1\u008c\u00d0\u00ba\u00d1\u0096\u00d1\u0081\u00d1\u0082\u00d1\u008c \u00d0\u00ba\u00d0\u00be\u00d0\u00bd\u00d1\u0082\u00d0\u00b5\u00d0\u00b9\u00d0\u00bd\u00d0\u00b5\u00d1\u0080\u00d1\u0096\u00d0\u00b2 - 3 \u00d0\u00b7\u00d0\u00bc\u00d1\u0096\u00d1\u0088\u00d0\u00b0\u00d0\u00bd\u00d1\u0096 - 2; \u00d0\u00bf\u00d0\u00bb\u00d0\u00b0\u00d1\u0081\u00d1\u0082\u00d0\u00b8\u00d0\u00ba - 1.","operator":"\u00d0\u0090\u00d0\u0092\u00d0\u0095"}},"type":"Feature"},
	{"geometry":{"coordinates":[24.012086,49.828612],"type":"Point"},"properties":{"osm_id":"6564110903","tag":{"access":"yes","amenity":"waste_disposal","description":"\u00d0\u009a\u00d1\u0096\u00d0\u00bb\u00d1\u008c\u00d0\u00ba\u00d1\u0096\u00d1\u0081\u00d1\u0082\u00d1\u008c \u00d0\u00ba\u00d0\u00be\u00d0\u00bd\u00d1\u0082\u00d0\u00b5\u00d0\u00b9\u00d0\u00bd\u00d0\u00b5\u00d1\u0080\u00d1\u0096\u00d0\u00b2 - 4; \u00d0\u00b7\u00d0\u00bc\u00d1\u0096\u00d1\u0088\u00d0\u00b0\u00d0\u00bd\u00d1\u0096 \u00d0\u00b2\u00d1\u0096\u00d0\u00b4\u00d1\u0085\u00d0\u00be\u00d0\u00b4\u00d0\u00b8 - 3; \u00d0\u00bf\u00d0\u00bb\u00d0\u00b0\u00d1\u0081\u00d1\u0082\u00d0\u00b8\u00d0\u00ba - 1.","operator":"\u00d0\u0090\u00d0\u0092\u00d0\u0095"}},"type":"Feature"},
	{"geometry":{"coordinates":[24.006299,49.827772],"type":"Point"},"properties":{"osm_id":"6564142211","tag":{"access":"yes","amenity":"waste_disposal","description":"\u00d0\u009a\u00d1\u0096\u00d0\u00bb\u00d1\u008c\u00d0\u00ba\u00d1\u0096\u00d1\u0081\u00d1\u0082\u00d1\u008c \u00d0\u00ba\u00d0\u00be\u00d0\u00bd\u00d1\u0082\u00d0\u00b5\u00d0\u00b9\u00d0\u00bd\u00d0\u00b5\u00d1\u0080\u00d1\u0096\u00d0\u00b2 - 3; \u00d0\u00b7\u00d0\u00bc\u00d1\u0096\u00d1\u0088\u00d0\u00b0\u00d0\u00bd\u00d1\u0096 - 3.","material":"plastic","operator":"\u00d0\u0090\u00d0\u0092\u00d0\u0095"}},"type":"Feature"},
	{"geometry":{"coordinates":[24.002784,49.829685],"type":"Point"},"properties":{"osm_id":"6564142212","tag":{"access":"yes","amenity":"waste_disposal","description":"\u00d0\u009a\u00d1\u0096\u00d0\u00bb\u00d1\u008c\u00d0\u00ba\u00d1\u0096\u00d1\u0081\u00d1\u0082\u00d1\u008c \u00d0\u00ba\u00d0\u00be\u00d0\u00bd\u00d1\u0082\u00d0\u00b5\u00d0\u00bd\u00d0\u00b5\u00d1\u0080\u00d1\u0096\u00d0\u00b2 - 1; \u00d0\u00b7\u00d0\u00bc\u00d1\u0096\u00d1\u0088\u00d0\u00b0\u00d0\u00bd\u00d1\u0096 -1.","material":"plastic","operator":"\u00d0\u0090\u00d0\u0092\u00d0\u0095"}},"type":"Feature"},
	{"geometry":{"coordinates":[24.003443,49.830118],"type":"Point"},"properties":{"osm_id":"6564142213","tag":{"access":"yes","amenity":"waste_disposal","description":"\u00d0\u009a\u00d1\u0096\u00d0\u00bb\u00d1\u008c\u00d0\u00ba\u00d1\u0096\u00d1\u0081\u00d1\u0082\u00d1\u008c \u00d0\u00ba\u00d0\u00be\u00d0\u00bd\u00d1\u0082\u00d0\u00b5\u00d0\u00b9\u00d0\u00bd\u00d0\u00b5\u00d1\u0080\u00d1\u0096\u00d0\u00b2 - 2; \u00d0\u00b7\u00d0\u00bc\u00d1\u0096\u00d1\u0088\u00d0\u00b0\u00d0\u00bd\u00d1\u0096 - 2.","material":"plastic","operator":"\u00d0\u0090\u00d0\u0092\u00d0\u0095"}},"type":"Feature"},
	{"geometry":{"coordinates":[24.002428,49.828708],"type":"Point"},"properties":{"osm_id":"6564142214","tag":{"access":"yes","amenity":"waste_disposal","description":"\u00d0\u009a\u00d1\u0096\u00d0\u00bb\u00d1\u008c\u00d0\u00ba\u00d1\u0096\u00d1\u0081\u00d1\u0082\u00d1\u008c \u00d0\u00ba\u00d0\u00be\u00d0\u00bd\u00d1\u0082\u00d0\u00b5\u00d0\u00b9\u00d0\u00bd\u00d0\u00b5\u00d1\u0080\u00d1\u0096\u00d0\u00b2 - 4; \u00d0\u00b7\u00d0\u00bc\u00d1\u0096\u00d1\u0088\u00d0\u00b0\u00d0\u00bd\u00d1\u0096 - 4.","material":"plastic","operator":"\u00d0\u0090\u00d0\u0092\u00d0\u0095"}},"type":"Feature"},
	{"geometry":{"coordinates":[23.998818,49.826802],"type":"Point"},"properties":{"osm_id":"6564142215","tag":{"access":"yes","amenity":"waste_disposal","description":"\u00d0\u009a\u00d1\u0096\u00d0\u00bb\u00d1\u008c\u00d0\u00ba\u00d1\u0096\u00d1\u0081\u00d1\u0082\u00d1\u008c \u00d0\u00ba\u00d0\u00be\u00d0\u00bd\u00d1\u0082\u00d0\u00b5\u00d0\u00b9\u00d0\u00bd\u00d0\u00b5\u00d1\u0080\u00d1\u0096\u00d0\u00b2 - 8; \u00d0\u00b7\u00d0\u00bc\u00d1\u0096\u00d1\u0088\u00d0\u00b0\u00d0\u00bd\u00d1\u0096 - 4;  \u00d0\u00bf\u00d0\u00bb\u00d0\u00b0\u00d1\u0081\u00d1\u0082\u00d0\u00b8\u00d0\u00ba - 2; \u00d1\u0081\u00d0\u00ba\u00d0\u00bb\u00d0\u00b0\u00d0\u00be - 1; \u00d0\u00bc\u00d0\u00b0\u00d0\u00ba\u00d1\u0083\u00d0\u00bb\u00d0\u00b0\u00d1\u0082\u00d1\u0083\u00d1\u0080\u00d0\u00b0- 1.","material":"plastic","operator":"\u00d0\u0090\u00d0\u0092\u00d0\u0095"}},"type":"Feature"},
	{"geometry":{"coordinates":[23.995698,49.822665],"type":"Point"},"properties":{"osm_id":"6564142216","tag":{"access":"yes","amenity":"waste_disposal","description":"\u00d0\u009a\u00d1\u0096\u00d0\u00bb\u00d1\u008c\u00d0\u00ba\u00d1\u0096\u00d1\u0081\u00d1\u0082\u00d1\u008c \u00d0\u00ba\u00d0\u00be\u00d0\u00bd\u00d1\u0082\u00d0\u00b5\u00d0\u00b9\u00d0\u00bd\u00d0\u00b5\u00d1\u0080\u00d1\u0096\u00d0\u00b2 - 8; \u00d0\u00b7\u00d0\u00bc\u00d1\u0096\u00d1\u0088\u00d0\u00b0\u00d0\u00bd\u00d1\u0096 - 4; \u00d0\u00bf\u00d0\u00bb\u00d0\u00b0\u00d0\u00b0\u00d1\u0081\u00d1\u0082\u00d0\u00b8\u00d0\u00ba - 1 \u00d1\u0081\u00d0\u00ba\u00d0\u00bb\u00d0\u00be -1; \u00d0\u00bc\u00d0\u00b0\u00d0\u00ba\u00d1\u0083\u00d0\u00bb\u00d0\u00b0\u00d1\u0082\u00d1\u0083\u00d1\u0080\u00d0\u00b0 - 1.","material":"plastic","operator":"\u00d0\u0090\u00d0\u0092\u00d0\u0095"}},"type":"Feature"},
	{"geometry":{"coordinates":[24.006514,49.828182],"type":"Point"},"properties":{"osm_id":"6564150485","tag":{"access":"yes","amenity":"waste_disposal","description":"\u00d0\u009a\u00d1\u0096\u00d0\u00bb\u00d1\u008c\u00d0\u00ba\u00d1\u0096\u00d1\u0081\u00d1\u0082\u00d1\u008c \u00d0\u00ba\u00d0\u00be\u00d0\u00bd\u00d1\u0082\u00d0\u00b5\u00d0\u00b9\u00d0\u00bd\u00d0\u00b5\u00d1\u0080\u00d1\u0096\u00d0\u00b2 - 5; \u00d0\u00b7\u00d0\u00bc\u00d1\u0096\u00d1\u0088\u00d0\u00b0\u00d0\u00bd\u00d1\u0096 3; \u00d0\u00bf\u00d0\u00bb\u00d0\u00b0\u00d1\u0081\u00d1\u0082\u00d0\u00b8\u00d0\u00ba - 1; \u00d0\u00bc\u00d0\u00b0\u00d0\u00ba\u00d1\u0083\u00d0\u00bb\u00d0\u00b0\u00d1\u0082\u00d1\u0083\u00d1\u0080\u00d0\u00b0 - 1.","material":"plastic","operator":"\u00d0\u0090\u00d0\u0092\u00d0\u0095"}},"type":"Feature"},
	{"geometry":{"coordinates":[24.00324,49.827551],"type":"Point"},"properties":{"osm_id":"6564150486","tag":{"access":"yes","amenity":"waste_disposal","description":"\u00d0\u009a\u00d1\u0096\u00d0\u00bb\u00d1\u008c\u00d0\u00ba\u00d1\u0096\u00d1\u0081\u00d1\u0082\u00d1\u008c \u00d0\u00ba\u00d0\u00be\u00d0\u00bd\u00d1\u0082\u00d0\u00b5\u00d0\u00b9\u00d0\u00bd\u00d0\u00b5\u00d1\u0080\u00d1\u0096\u00d0\u00b2 3; \u00d0\u00b7\u00d0\u00bc\u00d1\u0096\u00d1\u0088\u00d0\u00b0\u00d0\u00bd\u00d1\u0096 - 2; \u00d0\u00bf\u00d0\u00bb\u00d0\u00b0\u00d1\u0081\u00d1\u0082\u00d0\u00b8\u00d0\u00ba - 1.","material":"plastic","operator":"\u00d0\u0090\u00d0\u0092\u00d0\u0095"}},"type":"Feature"},
	{"geometry":{"coordinates":[24.000412,49.821585],"type":"Point"},"properties":{"osm_id":"6564164398","tag":{"access":"yes","amenity":"waste_disposal","description":"\u00d0\u009a\u00d1\u0096\u00d0\u00bb\u00d1\u008c\u00d0\u00ba\u00d1\u0096\u00d1\u0081\u00d1\u0082\u00d1\u008c \u00d0\u00ba\u00d0\u00be\u00d0\u00bd\u00d1\u0082\u00d0\u00b5\u00d0\u00b9\u00d0\u00bd\u00d0\u00b5\u00d1\u0080\u00d1\u0096\u00d0\u00b2 - 1; \u00d0\u00b7\u00d0\u00bc\u00d1\u0096\u00d1\u0088\u00d0\u00b0\u00d0\u00bd\u00d1\u0096 - 1.","material":"plastic","operator":"\u00d0\u0090\u00d0\u0092\u00d0\u0095"}},"type":"Feature"},
	{"geometry":{"coordinates":[24.006806,49.823951],"type":"Point"},"properties":{"osm_id":"6564164399","tag":{"access":"yes","amenity":"waste_disposal","description":"\u00d0\u009a\u00d1\u0096\u00d0\u00bb\u00d1\u008c\u00d0\u00ba\u00d1\u0096\u00d1\u0081\u00d1\u0082\u00d1\u008c \u00d0\u00ba\u00d0\u00be\u00d0\u00bd\u00d1\u0082\u00d0\u00b5\u00d0\u00b9\u00d0\u00bd\u00d0\u00b5\u00d1\u0080\u00d1\u0096\u00d0\u00b2- 4; \u00d0\u00b7\u00d0\u00bc\u00d1\u0096\u00d1\u0088\u00d0\u00b0\u00d0\u00bd\u00d1\u0096 - 2;  \u00d0\u00bf\u00d0\u00bb\u00d0\u00b0\u00d1\u0081\u00d1\u0082\u00d0\u00b8\u00d0\u00ba - 1; \u00d0\u00bc\u00d0\u00b0\u00d0\u00ba\u00d1\u0083\u00d0\u00bb\u00d0\u00b0\u00d1\u0082\u00d1\u0083\u00d1\u0080\u00d0\u00b0 - 1.","material":"plastic","operator":"\u00d0\u0090\u00d0\u0092\u00d0\u0095"}},"type":"Feature"},
	{"geometry":{"coordinates":[24.007374,49.82473],"type":"Point"},"properties":{"osm_id":"6564164400","tag":{"access":"yes","amenity":"waste_disposal","description":"\u00d0\u009a\u00d1\u0096\u00d0\u00bb\u00d1\u008c\u00d0\u00ba\u00d1\u0096\u00d1\u0081\u00d1\u0082\u00d1\u008c \u00d0\u00ba\u00d0\u00be\u00d0\u00bd\u00d1\u0082\u00d0\u00b5\u00d0\u00b9\u00d0\u00bd\u00d0\u00b5\u00d1\u0080\u00d1\u0096\u00d0\u00b2 - 1; \u00d0\u00b7\u00d0\u00bc\u00d1\u0096\u00d1\u0088\u00d0\u00b0\u00d0\u00bd\u00d1\u0096 - 1.","material":"plastic","operator":"\u00d0\u0090\u00d0\u0092\u00d0\u0095"}},"type":"Feature"},
	{"geometry":{"coordinates":[24.017944,49.830717],"type":"Point"},"properties":{"osm_id":"6564164401","tag":{"access":"yes","amenity":"waste_disposal","description":"\u00d0\u009a\u00d1\u0096\u00d0\u00bb\u00d1\u008c\u00d0\u00ba\u00d1\u0096\u00d1\u0081\u00d1\u0082\u00d1\u008c \u00d0\u00ba\u00d0\u00be\u00d0\u00bd\u00d1\u0082\u00d0\u00b5\u00d0\u00b9\u00d0\u00bd\u00d0\u00b5\u00d1\u0080\u00d1\u0096\u00d0\u00b2 - 4; \u00d0\u00b7\u00d0\u00bc\u00d1\u0096\u00d1\u0088\u00d0\u00b0\u00d0\u00bd\u00d1\u0096 - 3; \u00d0\u00bf\u00d0\u00bb\u00d0\u00b0\u00d1\u0081\u00d1\u0082\u00d0\u00b8\u00d0\u00ba -1.","material":"plastic","operator":"\u00d0\u00a1\u00d0\u0090\u00d0\u00a2"}},"type":"Feature"},
	{"geometry":{"coordinates":[24.016726,49.828159],"type":"Point"},"properties":{"osm_id":"6564164402","tag":{"access":"yes","amenity":"waste_disposal","description":"\u00d0\u009a\u00d1\u0096\u00d0\u00bb\u00d1\u008c\u00d0\u00ba\u00d1\u0096\u00d1\u0081\u00d1\u0082\u00d1\u008c \u00d0\u00ba\u00d0\u00be\u00d0\u00bd\u00d1\u0082\u00d0\u00b5\u00d0\u00b9\u00d0\u00bd\u00d0\u00b5\u00d1\u0080\u00d1\u0096\u00d0\u00b2 - 4; \u00d0\u00b7\u00d0\u00bc\u00d1\u0096\u00d1\u0088\u00d0\u00b0\u00d0\u00bd\u00d1\u0096 - 3; \u00d0\u00bf\u00d0\u00bb\u00d0\u00b0\u00d1\u0081\u00d1\u0082\u00d0\u00b8\u00d0\u00ba - 1.","material":"plastic","operator":"\u00d0\u00a1\u00d0\u0090\u00d0\u00a2"}},"type":"Feature"},
	{"geometry":{"coordinates":[24.019519,49.81974],"type":"Point"},"properties":{"osm_id":"6564164403","tag":{"access":"yes","amenity":"waste_disposal","description":"\u00d0\u009a\u00d1\u0096\u00d0\u00bb\u00d1\u008c\u00d0\u00ba\u00d1\u0096\u00d1\u0081\u00d1\u0082\u00d1\u008c \u00d0\u00ba\u00d0\u00be\u00d0\u00bd\u00d1\u0082\u00d0\u00b5\u00d0\u00b9\u00d0\u00bd\u00d0\u00b5\u00d1\u0080\u00d1\u0096\u00d0\u00b2 - 6; \u00d0\u00b7\u00d0\u00bc\u00d1\u0096\u00d1\u0088\u00d0\u00b0\u00d0\u00bd\u00d1\u0096 - 3; \u00d0\u00bf\u00d0\u00bb\u00d0\u00b0\u00d1\u0081\u00d1\u0082\u00d0\u00b8\u00d0\u00ba - 1; \u00d1\u0081\u00d0\u00ba\u00d0\u00bb\u00d0\u00be - 1; \u00d0\u00bc\u00d0\u00b0\u00d0\u00ba\u00d1\u0083\u00d0\u00bb\u00d0\u00b0\u00d1\u0082\u00d1\u0083\u00d1\u0080\u00d0\u00b0 - 1.","material":"plastic","operator":"\u00d0\u00a1\u00d0\u0090\u00d0\u00a2"}},"type":"Feature"},
	{"geometry":{"coordinates":[24.018955,49.821064],"type":"Point"},"properties":{"osm_id":"6564164404","tag":{"access":"yes","amenity":"waste_disposal","description":"\u00d0\u009a\u00d1\u0096\u00d0\u00bb\u00d1\u008c\u00d0\u00ba\u00d1\u0096\u00d1\u0081\u00d1\u0082\u00d1\u008c \u00d0\u00ba\u00d0\u00be\u00d0\u00bd\u00d1\u0082\u00d0\u00b5\u00d0\u00b9\u00d0\u00bd\u00d0\u00b5\u00d1\u0080\u00d1\u0096\u00d0\u00b2 - 1; \u00d0\u00b7\u00d0\u00bc\u00d1\u0096\u00d1\u0088\u00d0\u00b0\u00d0\u00bd\u00d1\u0096 - 1.","material":"plastic","operator":"\u00d0\u00a1\u00d0\u0090\u00d0\u00a2"}},"type":"Feature"},
	{"geometry":{"coordinates":[24.01764,49.810204],"type":"Point"},"properties":{"osm_id":"6564165589","tag":{"access":"yes","amenity":"waste_disposal","description":"\u00d0\u009a\u00d1\u0096\u00d0\u00bb\u00d1\u008c\u00d0\u00ba\u00d1\u0096\u00d1\u0081\u00d1\u0082\u00d1\u008c \u00d0\u00ba\u00d0\u00be\u00d0\u00bd\u00d1\u0082\u00d0\u00b5\u00d0\u00b9\u00d0\u00bd\u00d0\u00b5\u00d1\u0080\u00d1\u0096\u00d0\u00b2 - 3; \u00d0\u00b7\u00d0\u00bc\u00d1\u0096\u00d1\u0088\u00d0\u00b0\u00d0\u00bd\u00d1\u0096 - 3.","material":"plastic","operator":"\u00d0\u00a1\u00d0\u0090\u00d0\u00a2"}},"type":"Feature"},
	{"geometry":{"coordinates":[24.019858,49.820806],"type":"Point"},"properties":{"osm_id":"6564165590","tag":{"access":"yes","amenity":"waste_disposal","description":"\u00d0\u009a\u00d1\u0096\u00d0\u00bb\u00d1\u008c\u00d0\u00ba\u00d1\u0096\u00d1\u0081\u00d1\u0082\u00d1\u008c \u00d0\u00ba\u00d0\u00be\u00d0\u00bd\u00d1\u0082\u00d0\u00b5\u00d0\u00b9\u00d0\u00bd\u00d0\u00b5\u00d1\u0080\u00d1\u0096\u00d0\u00b2 - 6; \u00d0\u00b7\u00d0\u00bc\u00d1\u0096\u00d1\u0088\u00d0\u00b0\u00d0\u00bd\u00d1\u0096- 3; \u00d0\u00bf\u00d0\u00bb\u00d0\u00b0\u00d1\u0081\u00d1\u0082\u00d0\u00b8\u00d0\u00ba - 1; \u00d1\u0081\u00d0\u00ba\u00d0\u00bb\u00d0\u00be - 1; \u00d0\u00bc\u00d0\u00b0\u00d0\u00ba\u00d1\u0083\u00d0\u00bb\u00d0\u00b0\u00d1\u0082\u00d1\u0083\u00d1\u0080\u00d0\u00b0 - 1.","material":"plastic","operator":"\u00d0\u00a1\u00d0\u0090\u00d0\u00a2"}},"type":"Feature"},
	{"geometry":{"coordinates":[24.011095,49.825697],"type":"Point"},"properties":{"osm_id":"6564174354","tag":{"access":"yes","amenity":"waste_disposal","description":"\u00d0\u009a\u00d1\u0096\u00d0\u00bb\u00d1\u008c\u00d0\u00ba\u00d1\u0096\u00d1\u0081\u00d1\u0082\u00d1\u008c \u00d0\u00ba\u00d0\u00be\u00d0\u00bd\u00d1\u0082\u00d0\u00b5\u00d0\u00b9\u00d0\u00bd\u00d0\u00b5\u00d1\u0080\u00d1\u0096\u00d0\u00b2 - 3; \u00d0\u00b7\u00d0\u00bc\u00d1\u0096\u00d1\u0088\u00d0\u00b0\u00d0\u00bd\u00d1\u0096 - 2; \u00d0\u00bf\u00d0\u00bb\u00d0\u00b0\u00d1\u0081\u00d1\u0082\u00d0\u00b8\u00d0\u00ba - 1.","material":"plastic","operator":"\u00d0\u00a1\u00d0\u0090\u00d0\u00a2"}},"type":"Feature"},
	{"geometry":{"coordinates":[24.0123,49.822575],"type":"Point"},"properties":{"osm_id":"6564174355","tag":{"access":"yes","amenity":"waste_disposal","description":"\u00d0\u009a\u00d1\u0096\u00d0\u00bb\u00d1\u008c\u00d0\u00ba\u00d1\u0096\u00d1\u0081\u00d1\u0082\u00d1\u008c \u00d0\u00ba\u00d0\u00be\u00d0\u00bd\u00d1\u0082\u00d0\u00b5\u00d0\u00b9\u00d0\u00bd\u00d0\u00b5\u00d1\u0080\u00d1\u0096\u00d0\u00b2 - 3; \u00d0\u00b7\u00d0\u00bc\u00d1\u0096\u00d1\u0088\u00d0\u00b0\u00d0\u00bd\u00d1\u0096 - 2; \u00d0\u00bf\u00d0\u00bb\u00d0\u00b0\u00d1\u0081\u00d1\u0082\u00d0\u00b8\u00d0\u00ba - 1.","material":"plastic","operator":"\u00d0\u00a1\u00d0\u0090\u00d0\u00a2"}},"type":"Feature"},
	{"geometry":{"coordinates":[24.01425,49.814266],"type":"Point"},"properties":{"osm_id":"6564174356","tag":{"access":"yes","amenity":"waste_disposal","description":"\u00d0\u009a\u00d1\u0096\u00d0\u00bb\u00d1\u008c\u00d0\u00ba\u00d1\u0096\u00d1\u0081\u00d1\u0082\u00d1\u008c \u00d0\u00ba\u00d0\u00be\u00d0\u00bd\u00d1\u0082\u00d0\u00b5\u00d0\u00b9\u00d0\u00bd\u00d0\u00b5\u00d1\u0080\u00d1\u0096\u00d0\u00b2 -1; \u00d0\u00b7\u00d0\u00bc\u00d1\u0096\u00d1\u0088\u00d0\u00b0\u00d0\u00bd\u00d1\u0096 - 1","material":"plastic","operator":"\u00d0\u00a1\u00d0\u0090\u00d0\u00a2"}},"type":"Feature"},
	{"geometry":{"coordinates":[24.014325,49.818295],"type":"Point"},"properties":{"osm_id":"6564174357","tag":{"access":"yes","amenity":"waste_disposal","description":"\u00d0\u009a\u00d1\u0096\u00d0\u00bb\u00d1\u008c\u00d0\u00ba\u00d1\u0096\u00d1\u0081\u00d1\u0082\u00d1\u008c \u00d0\u00ba\u00d0\u00be\u00d0\u00bd\u00d1\u0082\u00d0\u00b5\u00d0\u00b9\u00d0\u00bd\u00d0\u00b5\u00d1\u0080\u00d1\u0096\u00d0\u00b2 - 5; \u00d0\u00b7\u00d0\u00bc\u00d1\u0096\u00d1\u0088\u00d0\u00b0\u00d0\u00bd\u00d1\u0096 - 4; \u00d0\u00bf\u00d0\u00bb\u00d0\u00b0\u00d1\u0081\u00d1\u0082\u00d0\u00b8\u00d0\u00ba - 1.","material":"plastic","operator":"\u00d0\u00a1\u00d0\u0090\u00d0\u00a2"}},"type":"Feature"},
	{"geometry":{"coordinates":[24.01309,49.817593],"type":"Point"},"properties":{"osm_id":"6564174358","tag":{"access":"yes","amenity":"waste_disposal","description":"\u00d0\u009a\u00d1\u0096\u00d0\u00bb\u00d1\u008c\u00d0\u00ba\u00d1\u0096\u00d1\u0081\u00d1\u0082\u00d1\u008c \u00d0\u00ba\u00d0\u00be\u00d0\u00bd\u00d1\u0082\u00d0\u00b5\u00d0\u00b9\u00d0\u00bd\u00d0\u00b5\u00d1\u0080\u00d1\u0096\u00d0\u00b2 - 3; \u00d0\u00b7\u00d0\u00bc\u00d1\u0096\u00d1\u0088\u00d0\u00b0\u00d0\u00bd\u00d1\u0096 -3.","material":"plastic","operator":"\u00d0\u00a1\u00d0\u0090\u00d0\u00a2"}},"type":"Feature"},
	{"geometry":{"coordinates":[23.996594,49.812521],"type":"Point"},"properties":{"osm_id":"6564231101","tag":{"access":"yes","amenity":"waste_disposal","description":"\u00d0\u009a\u00d1\u0096\u00d0\u00bb\u00d1\u008c\u00d0\u00ba\u00d1\u0096\u00d1\u0081\u00d1\u0082\u00d1\u008c \u00d0\u00ba\u00d0\u00be\u00d0\u00bd\u00d1\u0082\u00d0\u00b5\u00d0\u00b9\u00d0\u00bd\u00d0\u00b5\u00d1\u0080\u00d1\u0096\u00d0\u00b2 - 10; \u00d0\u00b7\u00d0\u00bc\u00d1\u0096\u00d1\u0088\u00d0\u00b0\u00d0\u00bd\u00d1\u0096 -6; \u00d0\u00bf\u00d0\u00bb\u00d0\u00b0\u00d1\u0081\u00d1\u0082\u00d0\u00b8\u00d0\u00ba -2; \u00d1\u0081\u00d0\u00ba\u00d0\u00bb\u00d0\u00be - 1; \u00d0\u00bc\u00d0\u00b0\u00d0\u00ba\u00d1\u0083\u00d0\u00bb\u00d0\u00b0\u00d1\u0082\u00d1\u0083\u00d1\u0080\u00d0\u00b0 -1.","material":"plastic","operator":"\u00d0\u00a1\u00d0\u0090\u00d0\u00a2"}},"type":"Feature"},
	{"geometry":{"coordinates":[23.994469,49.81387],"type":"Point"},"properties":{"osm_id":"6564231102","tag":{"access":"yes","amenity":"waste_disposal","description":"\u00d0\u009a\u00d1\u0096\u00d0\u00bb\u00d1\u008c\u00d0\u00ba\u00d1\u0096\u00d1\u0081\u00d1\u0082\u00d1\u008c \u00d0\u00ba\u00d0\u00be\u00d0\u00bd\u00d1\u0082\u00d0\u00b5\u00d0\u00b9\u00d0\u00bd\u00d0\u00b5\u00d1\u0080\u00d1\u0096\u00d0\u00b2 - 7; \u00d0\u00b7\u00d0\u00bc\u00d1\u0096\u00d1\u0088\u00d0\u00b0\u00d0\u00bd\u00d1\u0096 - 3; \u00d0\u00bf\u00d0\u00bb\u00d0\u00b0\u00d1\u0081\u00d1\u0082\u00d0\u00b8\u00d0\u00ba - 2; \u00d1\u0081\u00d0\u00ba\u00d0\u00bb\u00d0\u00be -1; \u00d0\u00bc\u00d0\u00b0\u00d0\u00ba\u00d1\u0083\u00d0\u00bb\u00d0\u00b0\u00d1\u0082\u00d1\u0083\u00d1\u0080\u00d0\u00b0 -1.","material":"plastic","operator":"\u00d0\u00a1\u00d0\u0090\u00d0\u00a2"}},"type":"Feature"},
	{"geometry":{"coordinates":[23.99519,49.815611],"type":"Point"},"properties":{"osm_id":"6564231105","tag":{"access":"yes","amenity":"waste_disposal","description":"\u00d0\u009a\u00d1\u0096\u00d0\u00bb\u00d1\u008c\u00d0\u00ba\u00d1\u0096\u00d1\u0081\u00d1\u0082\u00d1\u008c \u00d0\u00ba\u00d0\u00be\u00d0\u00bd\u00d1\u0082\u00d0\u00b5\u00d0\u00b9\u00d0\u00bd\u00d0\u00b5\u00d1\u0080\u00d1\u0096\u00d0\u00b2 -5; \u00d0\u00b7\u00d0\u00bc\u00d1\u0096\u00d1\u0088\u00d0\u00b0\u00d0\u00bd\u00d1\u0096 - 4; \u00d0\u00bf\u00d0\u00bb\u00d0\u00b0\u00d1\u0081\u00d1\u0082\u00d0\u00b8\u00d0\u00ba-1.","material":"plastic","operator":"\u00d0\u00a1\u00d0\u0090\u00d0\u00a2"}},"type":"Feature"},
	{"geometry":{"coordinates":[23.99467,49.8145],"type":"Point"},"properties":{"osm_id":"6564231106","tag":{"access":"yes","amenity":"waste_disposal","description":"\u00d0\u009a\u00d1\u0096\u00d0\u00bb\u00d1\u008c\u00d0\u00ba\u00d1\u0096\u00d1\u0081\u00d1\u0082\u00d1\u008c \u00d0\u00ba\u00d0\u00be\u00d0\u00bd\u00d1\u0082\u00d0\u00b5\u00d0\u00b9\u00d0\u00bd\u00d0\u00b5\u00d1\u0080\u00d1\u0096\u00d0\u00b2 -3; \u00d0\u00b7\u00d0\u00bc\u00d1\u0096\u00d1\u0088\u00d0\u00b0\u00d0\u00bd\u00d1\u0096 -2; \u00d0\u00bf\u00d0\u00bb\u00d0\u00b0\u00d1\u0081\u00d1\u0082\u00d0\u00b8\u00d0\u00ba -1.","material":"plastic","operator":"\u00d0\u00a1\u00d0\u0090\u00d0\u00a2"}},"type":"Feature"},
	{"geometry":{"coordinates":[23.997647,49.817181],"type":"Point"},"properties":{"osm_id":"6564231107","tag":{"access":"yes","amenity":"waste_disposal","description":"\u00d0\u009a\u00d1\u0096\u00d0\u00bb\u00d1\u008c\u00d0\u00ba\u00d1\u0096\u00d1\u0081\u00d1\u0082\u00d1\u008c \u00d0\u00ba\u00d0\u00be\u00d0\u00bd\u00d1\u0082\u00d0\u00b5\u00d0\u00b9\u00d0\u00bd\u00d0\u00b5\u00d1\u0080\u00d1\u0096\u00d0\u00b2 -5; \u00d0\u00b7\u00d0\u00bc\u00d1\u0096\u00d1\u0088\u00d0\u00b0\u00d0\u00bd\u00d1\u0096 -3; \u00d0\u00bf\u00d0\u00bb\u00d0\u00b0\u00d1\u0081\u00d1\u0082\u00d0\u00b8\u00d0\u00ba 2.","material":"plastic","operator":"\u00d0\u00a1\u00d0\u0090\u00d0\u00a2"}},"type":"Feature"},
	{"geometry":{"coordinates":[24.015479,49.813806],"type":"Point"},"properties":{"osm_id":"6564255211","tag":{"access":"yes","amenity":"waste_disposal","description":"\u00d0\u009a\u00d1\u0096\u00d0\u00bb\u00d1\u008c\u00d0\u00ba\u00d1\u0096\u00d1\u0081\u00d1\u0082\u00d1\u008c \u00d0\u00ba\u00d0\u00be\u00d0\u00bd\u00d1\u0082\u00d0\u00b5\u00d0\u00b9\u00d0\u00bd\u00d0\u00b5\u00d1\u0096\u00d1\u0080\u00d0\u00b2 - 1; \u00d0\u00b7\u00d0\u00bc\u00d1\u0096\u00d1\u0088\u00d0\u00b0\u00d0\u00bd\u00d1\u0096 -1.","material":"plastic","operator":"\u00d0\u00a1\u00d0\u0090\u00d0\u00a2"}},"type":"Feature"},
	{"geometry":{"coordinates":[24.000878,49.810852],"type":"Point"},"properties":{"osm_id":"6564255212","tag":{"access":"yes","amenity":"waste_disposal","description":"\u00d0\u009a\u00d1\u0096\u00d0\u00bb\u00d1\u008c\u00d0\u00ba\u00d1\u0096\u00d1\u0081\u00d1\u0082\u00d1\u008c \u00d0\u00ba\u00d0\u00be\u00d0\u00bd\u00d1\u0082\u00d0\u00b5\u00d0\u00b9\u00d0\u00bd\u00d0\u00b5\u00d1\u0080\u00d1\u0096\u00d0\u00b2 - 7; \u00d0\u00b7\u00d0\u00bc\u00d1\u0096\u00d1\u0088\u00d0\u00b0\u00d0\u00bd\u00d1\u0096 -5; \u00d0\u00bf\u00d0\u00bb\u00d0\u00b0\u00d1\u0081\u00d1\u0082\u00d0\u00b8\u00d0\u00ba -2.","material":"plastic","operator":"\u00d0\u00a1\u00d0\u0090\u00d0\u00a2"}},"type":"Feature"},
	{"geometry":{"coordinates":[24.003211,49.816168],"type":"Point"},"properties":{"osm_id":"6564255213","tag":{"access":"yes","amenity":"waste_disposal","description":"\u00d0\u009a\u00d1\u0096\u00d0\u00bb\u00d1\u008c\u00d0\u00ba\u00d1\u0096\u00d1\u0081\u00d1\u0082\u00d1\u008c \u00d0\u00ba\u00d0\u00be\u00d0\u00bd\u00d1\u0082\u00d0\u00b5\u00d0\u00b9\u00d0\u00bd\u00d0\u00b5\u00d1\u0080\u00d1\u0096\u00d0\u00b2 - 7; \u00d0\u00b7\u00d0\u00bc\u00d1\u0096\u00d1\u0088\u00d0\u00b0\u00d0\u00bd\u00d1\u0096 - 5; \u00d0\u00bf\u00d0\u00bb\u00d0\u00b0\u00d1\u0081\u00d1\u0082\u00d0\u00b8\u00d0\u00ba - 2.","material":"plastic","operator":"\u00d0\u00a1\u00d0\u0090\u00d0\u00a2"}},"type":"Feature"},
	{"geometry":{"coordinates":[24.006068,49.814706],"type":"Point"},"properties":{"osm_id":"6564255214","tag":{"access":"yes","amenity":"waste_disposal","description":"\u00d0\u009a\u00d1\u0096\u00d0\u00bb\u00d1\u008c\u00d0\u00ba\u00d1\u0096\u00d1\u0081\u00d1\u0082\u00d1\u008c \u00d0\u00ba\u00d0\u00be\u00d0\u00bd\u00d1\u0082\u00d0\u00b5\u00d0\u00b9\u00d0\u00bd\u00d0\u00b5\u00d1\u0080\u00d1\u0096\u00d0\u00b2 - 1; \u00d0\u00b7\u00d0\u00bc\u00d1\u0096\u00d1\u0088\u00d0\u00b0\u00d0\u00bd\u00d1\u0096 -1.","material":"plastic","operator":"\u00d0\u00a1\u00d0\u0090\u00d0\u00a2"}},"type":"Feature"},
	{"geometry":{"coordinates":[24.007098,49.816671],"type":"Point"},"properties":{"osm_id":"6564255215","tag":{"access":"yes","amenity":"waste_disposal","description":"\u00d0\u009a\u00d1\u0096\u00d0\u00bb\u00d1\u008c\u00d0\u00ba\u00d1\u0096\u00d1\u0081\u00d1\u0082\u00d1\u008c \u00d0\u00ba\u00d0\u00be\u00d0\u00bd\u00d1\u0082\u00d0\u00b5\u00d0\u00b9\u00d0\u00bd\u00d0\u00b5\u00d1\u0080\u00d1\u0096\u00d0\u00b2 - 2; \u00d0\u00b7\u00d0\u00bc\u00d1\u0096\u00d1\u0088\u00d0\u00b0\u00d0\u00bd\u00d1\u0096 - 2.","material":"plastic","operator":"\u00d0\u00a1\u00d0\u0090\u00d0\u00a2"}},"type":"Feature"},
	{"geometry":{"coordinates":[23.999712,49.81249],"type":"Point"},"properties":{"osm_id":"6564277588","tag":{"access":"yes","amenity":"waste_disposal","description":"\u00d0\u009a\u00d1\u0096\u00d0\u00bb\u00d1\u008c\u00d0\u00ba\u00d1\u0096\u00d1\u0081\u00d1\u0082\u00d1\u008c \u00d0\u00ba\u00d0\u00be\u00d0\u00bd\u00d1\u0082\u00d0\u00b5\u00d0\u00b9\u00d0\u00bd\u00d0\u00b5\u00d1\u0080\u00d1\u0096\u00d0\u00b2 -6; \u00d0\u00b7\u00d0\u00bc\u00d1\u0096\u00d1\u0088\u00d0\u00b0\u00d0\u00bd\u00d1\u0096 -3; \u00d0\u00bf\u00d0\u00bb\u00d0\u00b0\u00d1\u0081\u00d1\u0082\u00d0\u00b8\u00d0\u00ba -2; \u00d1\u0081\u00d0\u00ba\u00d0\u00bb\u00d0\u00be -1.","material":"plastic","operator":"\u00d0\u00a1\u00d0\u0090\u00d0\u00a2"}},"type":"Feature"},
	{"geometry":{"coordinates":[24.016753,49.807235],"type":"Point"},"properties":{"osm_id":"6564277589","tag":{"access":"yes","amenity":"waste_disposal","description":"\u00d0\u009a\u00d1\u0096\u00d0\u00bb\u00d1\u008c\u00d0\u00ba\u00d1\u0096\u00d1\u0081\u00d1\u0082\u00d1\u008c \u00d0\u00ba\u00d0\u00be\u00d0\u00bd\u00d1\u0082\u00d0\u00b5\u00d0\u00b9\u00d0\u00bd\u00d0\u00b5\u00d1\u0080\u00d1\u0096\u00d0\u00b2 -6; \u00d0\u00b7\u00d0\u00bc\u00d1\u0096\u00d1\u0088\u00d0\u00b0\u00d0\u00bd\u00d1\u0096 -3; \u00d0\u00bf\u00d0\u00bb\u00d0\u00b0\u00d1\u0081\u00d1\u0082\u00d0\u00b8\u00d0\u00ba -1; \u00d1\u0081\u00d0\u00ba\u00d0\u00bb\u00d0\u00be -1; \u00d0\u00bc\u00d0\u00b0\u00d0\u00ba\u00d1\u0083\u00d0\u00bb\u00d0\u00b0\u00d1\u0082\u00d1\u0083\u00d1\u0080\u00d0\u00b0 -1.","material":"plastic","operator":"\u00d0\u00a1\u00d0\u0090\u00d0\u00a2"}},"type":"Feature"},
	{"geometry":{"coordinates":[24.014306,49.807072],"type":"Point"},"properties":{"osm_id":"6564277590","tag":{"access":"yes","amenity":"waste_disposal","description":"\u00d0\u009a\u00d1\u0096\u00d0\u00bb\u00d1\u008c\u00d0\u00ba\u00d1\u0096\u00d1\u0081\u00d1\u0082\u00d1\u008c \u00d0\u00ba\u00d0\u00be\u00d0\u00bd\u00d1\u0082\u00d0\u00b5\u00d0\u00b9\u00d0\u00bd\u00d0\u00b5\u00d1\u0080\u00d1\u0096\u00d0\u00b2 -4; \u00d0\u00b7\u00d0\u00bc\u00d1\u0096\u00d1\u0088\u00d0\u00b0\u00d0\u00bd\u00d1\u0096 -3; \u00d0\u00bf\u00d0\u00bb\u00d0\u00b0\u00d1\u0082\u00d0\u00b8\u00d0\u00ba -1.","material":"plastic","operator":"\u00d0\u00a1\u00d0\u0090\u00d0\u00a2"}},"type":"Feature"},
	{"geometry":{"coordinates":[24.01088,49.808468],"type":"Point"},"properties":{"osm_id":"6564277591","tag":{"access":"yes","amenity":"waste_disposal","description":"\u00d0\u009a\u00d1\u0096\u00d0\u00bb\u00d1\u008c\u00d0\u00ba\u00d1\u0096\u00d1\u0081\u00d1\u0082\u00d1\u008c \u00d0\u00ba\u00d0\u00be\u00d0\u00bd\u00d1\u0082\u00d0\u00b5\u00d0\u00b9\u00d0\u00bd\u00d0\u00b5\u00d1\u0080\u00d1\u0096\u00d0\u00b2 -6; \u00d0\u00b7\u00d0\u00bc\u00d1\u0096\u00d1\u0088\u00d0\u00b0\u00d0\u00bd\u00d1\u0096 -3; \u00d0\u00bf\u00d0\u00bb\u00d0\u00b0\u00d1\u0081\u00d1\u0082\u00d0\u00b8\u00d0\u00ba -1; \u00d1\u0081\u00d0\u00ba\u00d0\u00bb\u00d0\u00be -1; \u00d0\u00bc\u00d0\u00b0\u00d0\u00ba\u00d1\u0083\u00d0\u00bb\u00d0\u00b0\u00d1\u0082\u00d1\u0083\u00d1\u0080\u00d0\u00b0 -1.","material":"plastic","operator":"\u00d0\u00a1\u00d0\u0090\u00d0\u00a2"}},"type":"Feature"},
	{"geometry":{"coordinates":[24.009481,49.808615],"type":"Point"},"properties":{"osm_id":"6564277592","tag":{"access":"yes","amenity":"waste_disposal","description":"\u00d0\u009a\u00d1\u0096\u00d0\u00bb\u00d1\u008c\u00d0\u00ba\u00d1\u0096\u00d1\u0081\u00d1\u0082\u00d1\u008c \u00d0\u00ba\u00d0\u00be\u00d0\u00bd\u00d1\u0082\u00d0\u00b5\u00d0\u00b9\u00d0\u00bd\u00d0\u00b5\u00d1\u0080\u00d1\u0096\u00d0\u00b2 -2; \u00d0\u00b7\u00d0\u00bc\u00d1\u0096\u00d1\u0088\u00d0\u00b0\u00d0\u00bd\u00d1\u0096 -2.","material":"plastic","operator":"\u00d0\u00a1\u00d0\u0090\u00d0\u00a2"}},"type":"Feature"},
	{"geometry":{"coordinates":[24.00652,49.809207],"type":"Point"},"properties":{"osm_id":"6564287600","tag":{"access":"yes","amenity":"waste_disposal","description":"\u00d0\u009a\u00d1\u0096\u00d0\u00bb\u00d1\u008c\u00d0\u00ba\u00d1\u0096\u00d1\u0081\u00d1\u0082\u00d1\u008c \u00d0\u00ba\u00d0\u00be\u00d0\u00bd\u00d1\u0082\u00d0\u00b5\u00d0\u00b9\u00d0\u00bd\u00d0\u00b5\u00d1\u0080\u00d1\u0096\u00d0\u00b2 -3; \u00d0\u00b7\u00d0\u00bc\u00d1\u0096\u00d1\u0088\u00d0\u00b0\u00d0\u00bd\u00d1\u0096 -2; \u00d0\u00bf\u00d0\u00bb\u00d0\u00b0\u00d1\u0081\u00d1\u0082\u00d0\u00b8\u00d0\u00ba -1.","material":"plastic","operator":"\u00d0\u00a1\u00d0\u0090\u00d0\u00a2"}},"type":"Feature"},
	{"geometry":{"coordinates":[24.007265,49.809284],"type":"Point"},"properties":{"osm_id":"6564287601","tag":{"access":"yes","amenity":"waste_disposal","description":"\u00d0\u009a\u00d1\u0096\u00d0\u00bb\u00d1\u008c\u00d0\u00ba\u00d1\u0096\u00d1\u0081\u00d1\u0082\u00d1\u008c \u00d0\u00ba\u00d0\u00be\u00d0\u00bd\u00d1\u0082\u00d0\u00b5\u00d0\u00b9\u00d0\u00bd\u00d0\u00b5\u00d1\u0080\u00d1\u0096\u00d0\u00b2 -4; \u00d0\u00b7\u00d0\u00bc\u00d1\u0096\u00d1\u0088\u00d0\u00b0\u00d0\u00bd\u00d1\u0096 -2; \u00d0\u00bf\u00d0\u00bb\u00d0\u00b0\u00d1\u0081\u00d1\u0082\u00d0\u00b8\u00d0\u00ba -2.","material":"plastic","operator":"\u00d0\u00a1\u00d0\u0090\u00d0\u00a2"}},"type":"Feature"},
	{"geometry":{"coordinates":[24.004766,49.809556],"type":"Point"},"properties":{"osm_id":"6564287602","tag":{"access":"yes","amenity":"waste_disposal","description":"\u00d0\u009a\u00d1\u0096\u00d0\u00bb\u00d1\u008c\u00d0\u00ba\u00d1\u0096\u00d1\u0081\u00d1\u0082\u00d1\u008c \u00d0\u00ba\u00d0\u00be\u00d0\u00bd\u00d1\u0082\u00d0\u00b5\u00d0\u00b9\u00d0\u00bd\u00d0\u00b5\u00d1\u0080\u00d1\u0096\u00d0\u00b2 -6; \u00d0\u00b7\u00d0\u00bc\u00d1\u0096\u00d1\u0088\u00d0\u00b0\u00d0\u00bd\u00d1\u0096 -5; \u00d0\u00bf\u00d0\u00bb\u00d0\u00b0\u00d1\u0081\u00d1\u0082\u00d0\u00b8\u00d0\u00ba -1.","material":"plastic","operator":"\u00d0\u00a1\u00d0\u0090\u00d0\u00a2"}},"type":"Feature"},
	{"geometry":{"coordinates":[24.001523,49.80978],"type":"Point"},"properties":{"osm_id":"6564287603","tag":{"access":"yes","amenity":"waste_disposal","description":"\u00d0\u009a\u00d1\u0096\u00d0\u00bb\u00d1\u008c\u00d0\u00ba\u00d1\u0096\u00d1\u0081\u00d1\u0082\u00d1\u008c \u00d0\u00ba\u00d0\u00be\u00d0\u00bd\u00d1\u0082\u00d0\u00b5\u00d0\u00b9\u00d0\u00bd\u00d0\u00b5\u00d1\u0080\u00d1\u0096\u00d0\u00b2 -3; \u00d0\u00b7\u00d0\u00bc\u00d1\u0096\u00d1\u0088\u00d0\u00b0\u00d0\u00bd\u00d1\u0096 -2; \u00d0\u00bf\u00d0\u00bb\u00d0\u00b0\u00d1\u0081\u00d1\u0082\u00d0\u00b8\u00d0\u00ba -1.","material":"plastic","operator":"\u00d0\u00a1\u00d0\u0090\u00d0\u00a2"}},"type":"Feature"},
	{"geometry":{"coordinates":[24.003409,49.809322],"type":"Point"},"properties":{"osm_id":"6564287604","tag":{"access":"yes","amenity":"waste_disposal","description":"\u00d0\u009a\u00d1\u0096\u00d0\u00bb\u00d1\u008c\u00d0\u00ba\u00d1\u0096\u00d1\u0081\u00d1\u0082\u00d1\u008c \u00d0\u00ba\u00d0\u00be\u00d0\u00bd\u00d1\u0082\u00d0\u00b5\u00d0\u00b9\u00d0\u00bd\u00d0\u00b5\u00d1\u0080\u00d1\u0096\u00d0\u00b2 -4; \u00d0\u00b7\u00d0\u00bc\u00d1\u0096\u00d1\u0088\u00d0\u00b0\u00d0\u00bd\u00d1\u0096 -2; \u00d0\u00bf\u00d0\u00bb\u00d0\u00b0\u00d1\u0081\u00d1\u0082\u00d0\u00b8\u00d0\u00ba -2.","material":"plastic","operator":"\u00d0\u00a1\u00d0\u0090\u00d0\u00a2"}},"type":"Feature"},
	{"geometry":{"coordinates":[23.999982,49.808413],"type":"Point"},"properties":{"osm_id":"6564287606","tag":{"access":"yes","amenity":"waste_disposal","description":"\u00d0\u009a\u00d1\u0096\u00d0\u00bb\u00d1\u008c\u00d0\u00ba\u00d1\u0096\u00d1\u0081\u00d1\u0082\u00d1\u008c \u00d0\u00ba\u00d0\u00be\u00d0\u00bd\u00d1\u0082\u00d0\u00b5\u00d0\u00b9\u00d0\u00bd\u00d0\u00b5\u00d1\u0080\u00d1\u0096\u00d0\u00b2 -3; \u00d0\u00b7\u00d0\u00bc\u00d1\u0096\u00d1\u0088\u00d0\u00b0\u00d0\u00bd\u00d1\u0096 -2; \u00d0\u00bf\u00d0\u00bb\u00d0\u00b0\u00d1\u0081\u00d1\u0082\u00d0\u00b8\u00d0\u00ba -1.","material":"plastic","operator":"\u00d0\u00a1\u00d0\u0090\u00d0\u00a2"}},"type":"Feature"},
	{"geometry":{"coordinates":[23.999893,49.80803],"type":"Point"},"properties":{"osm_id":"6564287607","tag":{"access":"yes","amenity":"waste_disposal","description":"\u00d0\u009a\u00d1\u0096\u00d0\u00bb\u00d1\u008c\u00d0\u00ba\u00d1\u0096\u00d1\u0081\u00d1\u0082\u00d1\u008c \u00d0\u00ba\u00d0\u00be\u00d0\u00bd\u00d1\u0082\u00d0\u00b5\u00d0\u00b9\u00d0\u00bd\u00d0\u00b5\u00d1\u0080\u00d1\u0096\u00d0\u00b2 -1; \u00d0\u00b7\u00d0\u00bc\u00d1\u0096\u00d1\u0088\u00d0\u00b0\u00d0\u00bd\u00d1\u0096 -1.","material":"plastic","operator":"\u00d0\u00a1\u00d0\u0090\u00d0\u00a2"}},"type":"Feature"},
	{"geometry":{"coordinates":[24.008729,49.803436],"type":"Point"},"properties":{"osm_id":"6564287608","tag":{"access":"yes","amenity":"waste_disposal","description":"\u00d0\u009a\u00d1\u0096\u00d0\u00bb\u00d1\u008c\u00d0\u00ba\u00d1\u0096\u00d1\u0081\u00d1\u0082\u00d1\u008c \u00d0\u00ba\u00d0\u00be\u00d0\u00bd\u00d1\u0082\u00d0\u00b5\u00d0\u00b9\u00d0\u00bd\u00d0\u00b5\u00d1\u0080\u00d1\u0096\u00d0\u00b2 -3; \u00d0\u00b7\u00d0\u00bc\u00d1\u0096\u00d1\u0088\u00d0\u00b0\u00d0\u00bd\u00d1\u0096 -2; \u00d0\u00bf\u00d0\u00bb\u00d0\u00b0\u00d1\u0081\u00d1\u0082\u00d0\u00b8\u00d0\u00ba -1.","material":"plastic","operator":"\u00d0\u00a1\u00d0\u0090\u00d0\u00a2"}},"type":"Feature"},
	{"geometry":{"coordinates":[24.004783,49.804223],"type":"Point"},"properties":{"osm_id":"6564287609","tag":{"access":"yes","amenity":"waste_disposal","description":"\u00d0\u009a\u00d1\u0096\u00d0\u00bb\u00d1\u008c\u00d0\u00ba\u00d1\u0096\u00d1\u0081\u00d1\u0082\u00d1\u008c \u00d0\u00ba\u00d0\u00be\u00d0\u00bd\u00d1\u0082\u00d0\u00b5\u00d0\u00b9\u00d0\u00bd\u00d0\u00b5\u00d1\u0080\u00d1\u0096\u00d0\u00b2 -4; \u00d0\u00b7\u00d0\u00bc\u00d1\u0096\u00d1\u0088\u00d0\u00b0\u00d0\u00bd\u00d1\u0096 -3; \u00d0\u00bf\u00d0\u00bb\u00d0\u00b0\u00d1\u0081\u00d1\u0082\u00d0\u00b8\u00d0\u00ba -1.","material":"plastic","operator":"\u00d0\u00a1\u00d0\u0090\u00d0\u00a2"}},"type":"Feature"},
	{"geometry":{"coordinates":[24.004382,49.805591],"type":"Point"},"properties":{"osm_id":"6564287610","tag":{"access":"yes","amenity":"waste_disposal","description":"\u00d0\u009a\u00d1\u0096\u00d0\u00bb\u00d1\u008c\u00d0\u00ba\u00d1\u0096\u00d1\u0081\u00d1\u0082\u00d1\u008c \u00d0\u00ba\u00d0\u00be\u00d0\u00bd\u00d1\u0082\u00d0\u00b5\u00d0\u00b9\u00d0\u00bd\u00d0\u00b5\u00d1\u0080\u00d1\u0096\u00d0\u00b2 -2; \u00d0\u00b7\u00d0\u00bc\u00d1\u0096\u00d1\u0088\u00d0\u00b0\u00d0\u00bd\u00d1\u0096 -2.","material":"plastic","operator":"\u00d0\u00a1\u00d0\u0090\u00d0\u00a2"}},"type":"Feature"},
	{"geometry":{"coordinates":[24.003458,49.806346],"type":"Point"},"properties":{"osm_id":"6564287611","tag":{"access":"yes","amenity":"waste_disposal","description":"\u00d0\u009a\u00d1\u0096\u00d0\u00bb\u00d1\u008c\u00d0\u00ba\u00d1\u0096\u00d1\u0081\u00d1\u0082\u00d1\u008c \u00d0\u00ba\u00d0\u00be\u00d0\u00bd\u00d1\u0082\u00d0\u00b5\u00d0\u00b9\u00d0\u00bd\u00d0\u00b5\u00d1\u0080\u00d1\u0096\u00d0\u00b2 -2; \u00d0\u00b7\u00d0\u00bc\u00d1\u0096\u00d1\u0088\u00d0\u00b0\u00d0\u00bd\u00d1\u0096 -2.","material":"plastic","operator":"\u00d0\u00a1\u00d0\u0090\u00d0\u00a2"}},"type":"Feature"},
	{"geometry":{"coordinates":[24.00658,49.805717],"type":"Point"},"properties":{"osm_id":"6564288523","tag":{"access":"yes","amenity":"waste_disposal","description":"\u00d0\u009a\u00d1\u0096\u00d0\u00bb\u00d1\u008c\u00d0\u00ba\u00d1\u0096\u00d1\u0081\u00d1\u0082\u00d1\u008c \u00d0\u00ba\u00d0\u00be\u00d0\u00bd\u00d1\u0082\u00d0\u00b5\u00d0\u00b9\u00d0\u00bd\u00d0\u00b5\u00d1\u0080\u00d1\u0096\u00d0\u00b2 -3; \u00d0\u00b7\u00d0\u00bc\u00d1\u0096\u00d1\u0088\u00d0\u00b0\u00d0\u00bd\u00d1\u0096 -2; \u00d0\u00bf\u00d0\u00bb\u00d0\u00b0\u00d1\u0081\u00d1\u0082\u00d0\u00b8\u00d0\u00ba -1.","material":"plastic","operator":"\u00d0\u00a1\u00d0\u0090\u00d0\u00a2"}},"type":"Feature"},
	{"geometry":{"coordinates":[24.006094,49.804762],"type":"Point"},"properties":{"osm_id":"6564288524","tag":{"access":"yes","amenity":"waste_disposal","description":"\u00d0\u009a\u00d1\u0096\u00d0\u00bb\u00d1\u008c\u00d0\u00ba\u00d1\u0096\u00d1\u0081\u00d1\u0082\u00d1\u008c \u00d0\u00ba\u00d0\u00be\u00d0\u00bd\u00d1\u0082\u00d0\u00b5\u00d0\u00b9\u00d0\u00bd\u00d0\u00b5\u00d1\u0080\u00d1\u0096\u00d0\u00b2 -4; \u00d0\u00b7\u00d0\u00bc\u00d1\u0096\u00d1\u0088\u00d0\u00b0\u00d0\u00bd\u00d1\u0096 -3; \u00d0\u00bf\u00d0\u00bb\u00d0\u00b0\u00d1\u0081\u00d1\u0082\u00d0\u00b8\u00d0\u00ba -1.","material":"plastic","operator":"\u00d0\u00a1\u00d0\u0090\u00d0\u00a2"}},"type":"Feature"},
	{"geometry":{"coordinates":[24.014605,49.803101],"type":"Point"},"properties":{"osm_id":"6564288525","tag":{"access":"yes","amenity":"waste_disposal","description":"\u00d0\u009a\u00d1\u0096\u00d0\u00bb\u00d1\u008c\u00d0\u00ba\u00d1\u0096\u00d1\u0081\u00d1\u0082\u00d1\u008c \u00d0\u00ba\u00d0\u00be\u00d0\u00bd\u00d1\u0082\u00d0\u00b5\u00d0\u00b9\u00d0\u00bd\u00d0\u00b5\u00d1\u0080\u00d1\u0096\u00d0\u00b2 -4; \u00d0\u00b7\u00d0\u00bc\u00d1\u0096\u00d1\u0088\u00d0\u00b0\u00d0\u00bd\u00d1\u0096 -3; \u00d1\u0080\u00d0\u00bb\u00d0\u00b0\u00d1\u0081\u00d1\u0082\u00d0\u00b8\u00d0\u00ba - 1.","material":"plastic","operator":"\u00d0\u00a1\u00d0\u0090\u00d0\u00a2"}},"type":"Feature"},
	{"geometry":{"coordinates":[24.01397,49.802898],"type":"Point"},"properties":{"osm_id":"6564288526","tag":{"access":"yes","amenity":"waste_disposal","description":"\u00d0\u009a\u00d1\u0096\u00d0\u00bb\u00d1\u008c\u00d0\u00ba\u00d1\u0096\u00d1\u0081\u00d1\u0082\u00d1\u008c \u00d0\u00ba\u00d0\u00be\u00d0\u00bd\u00d1\u0082\u00d0\u00b5\u00d0\u00b9\u00d0\u00bd\u00d0\u00b5\u00d1\u0080\u00d1\u0096\u00d0\u00b2 -4; \u00d0\u00b7\u00d0\u00bc\u00d1\u0096\u00d1\u0088\u00d0\u00b0\u00d0\u00bd\u00d1\u0096 -3; \u00d0\u00bf\u00d0\u00bb\u00d0\u00b0\u00d1\u0081\u00d1\u0082\u00d0\u00b8\u00d0\u00ba -1.","material":"plastic","operator":"\u00d0\u00a1\u00d0\u0090\u00d0\u00a2"}},"type":"Feature"},
	{"geometry":{"coordinates":[23.999625,49.805819],"type":"Point"},"properties":{"osm_id":"6564288527","tag":{"access":"yes","amenity":"waste_disposal","description":"\u00d0\u009a\u00d1\u0096\u00d0\u00bb\u00d1\u008c\u00d0\u00ba\u00d1\u0096\u00d1\u0081\u00d1\u0081\u00d1\u0082\u00d1\u008c \u00d0\u00ba\u00d0\u00be\u00d0\u00bd\u00d1\u0082\u00d0\u00b5\u00d0\u00b9\u00d0\u00bd\u00d0\u00b5\u00d1\u0080\u00d1\u0096\u00d0\u00b2 -1; \u00d0\u00b7\u00d0\u00bc\u00d1\u0096\u00d1\u0088\u00d0\u00b0\u00d0\u00bd\u00d1\u0096 -1.","material":"plastic","operator":"\u00d0\u00a1\u00d0\u0090\u00d0\u00a2"}},"type":"Feature"},
	{"geometry":{"coordinates":[23.999756,49.806315],"type":"Point"},"properties":{"osm_id":"6564288528","tag":{"access":"yes","amenity":"waste_disposal","description":"\u00d0\u009a\u00d1\u0096\u00d0\u00bb\u00d1\u008c\u00d0\u00ba\u00d1\u0096\u00d1\u0081\u00d1\u0082\u00d1\u008c \u00d0\u00ba\u00d0\u00be\u00d0\u00bd\u00d1\u0082\u00d0\u00b5\u00d0\u00b9\u00d0\u00bd\u00d0\u00b5\u00d1\u0080\u00d1\u0096\u00d0\u00b2 -1; \u00d0\u00b7\u00d0\u00bc\u00d1\u0096\u00d1\u0088\u00d0\u00b0\u00d0\u00bd\u00d1\u0096 -1.","material":"plastic","operator":"\u00d0\u00a1\u00d0\u0090\u00d0\u00a2"}},"type":"Feature"},
	{"geometry":{"coordinates":[23.999515,49.805346],"type":"Point"},"properties":{"osm_id":"6564288529","tag":{"access":"yes","amenity":"waste_disposal","description":"\u00d0\u009a\u00d1\u0096\u00d0\u00bb\u00d1\u008c\u00d0\u00ba\u00d1\u0096\u00d1\u0081\u00d1\u0082\u00d1\u008c \u00d0\u00ba\u00d0\u00be\u00d0\u00bd\u00d1\u0082\u00d0\u00b5\u00d0\u00b9\u00d0\u00bd\u00d0\u00b5\u00d1\u0080\u00d1\u0096\u00d0\u00b2 - 1; \u00d0\u00b7\u00d0\u00bc\u00d1\u0096\u00d1\u0088\u00d0\u00b0\u00d0\u00bd\u00d1\u0096 -1.","material":"plastic","operator":"\u00d0\u00a1\u00d0\u0090\u00d0\u00a2"}},"type":"Feature"},
	{"geometry":{"coordinates":[24.007728,49.806192],"type":"Point"},"properties":{"osm_id":"6564288530","tag":{"access":"yes","amenity":"waste_disposal","description":"\u00d0\u009a\u00d1\u0096\u00d0\u00bb\u00d1\u008c\u00d0\u00ba\u00d1\u0096\u00d1\u0081\u00d1\u0082\u00d1\u008c \u00d0\u00ba\u00d0\u00be\u00d0\u00bd\u00d1\u0082\u00d0\u00b5\u00d0\u00b9\u00d0\u00bd\u00d0\u00b5\u00d1\u0080\u00d1\u0096\u00d0\u00b2 -3; \u00d0\u00b7\u00d0\u00bc\u00d1\u0096\u00d1\u0088\u00d0\u00b0\u00d0\u00bd\u00d1\u0096 -2; \u00d0\u00bf\u00d0\u00bb\u00d0\u00b0\u00d1\u0081\u00d1\u0082\u00d0\u00b8\u00d0\u00ba -1.","material":"plastic","operator":"\u00d0\u00a1\u00d0\u0090\u00d0\u00a2"}},"type":"Feature"},
	{"geometry":{"coordinates":[24.005004,49.803837],"type":"Point"},"properties":{"osm_id":"6564292612","tag":{"access":"yes","amenity":"waste_disposal","description":"\u00d0\u009a\u00d1\u0096\u00d0\u00bb\u00d1\u008c\u00d0\u00ba\u00d1\u0096\u00d1\u0081\u00d1\u0082\u00d1\u008c \u00d0\u00ba\u00d0\u00be\u00d0\u00bd\u00d1\u0082\u00d0\u00b5\u00d0\u00b9\u00d0\u00bd\u00d0\u00b5\u00d1\u0080\u00d1\u0096\u00d0\u00b2 -2; \u00d0\u00b7\u00d0\u00bc\u00d1\u0096\u00d1\u0088\u00d0\u00b0\u00d0\u00bd\u00d1\u0096 -1; \u00d0\u00bf\u00d0\u00bb\u00d0\u00b0\u00d1\u0081\u00d1\u0082\u00d0\u00b8\u00d0\u00ba -1.","material":"plastic","operator":"\u00d0\u00a1\u00d0\u0090\u00d0\u00a2"}},"type":"Feature"},
	{"geometry":{"coordinates":[24.004493,49.803893],"type":"Point"},"properties":{"osm_id":"6564292613","tag":{"access":"yes","amenity":"waste_disposal","description":"\u00d0\u009a\u00d1\u0096\u00d0\u00bb\u00d1\u008c\u00d0\u00ba\u00d1\u0096\u00d1\u0081\u00d1\u0082\u00d1\u008c \u00d0\u00ba\u00d0\u00be\u00d0\u00bd\u00d1\u0082\u00d0\u00b5\u00d0\u00bd\u00d0\u00b5\u00d1\u0080\u00d1\u0096\u00d0\u00b2 -4; \u00d0\u00b7\u00d0\u00bc\u00d1\u0096\u00d1\u0088\u00d0\u00b0\u00d0\u00bd\u00d1\u0096 -3; \u00d0\u00bf\u00d0\u00bb\u00d0\u00b0\u00d1\u0081\u00d1\u0082\u00d0\u00b8\u00d0\u00ba -1.","material":"plastic","operator":"\u00d0\u00a1\u00d0\u0090\u00d0\u00a2"}},"type":"Feature"},
	{"geometry":{"coordinates":[24.002423,49.805328],"type":"Point"},"properties":{"osm_id":"6564292614","tag":{"access":"yes","amenity":"waste_disposal","description":"\u00d0\u009a\u00d1\u0096\u00d0\u00bb\u00d1\u008c\u00d0\u00ba\u00d1\u0096\u00d1\u0081\u00d1\u0082\u00d1\u008c \u00d0\u00ba\u00d0\u00be\u00d0\u00bd\u00d1\u0082\u00d0\u00b5\u00d0\u00b9\u00d0\u00bd\u00d0\u00b5\u00d1\u0080\u00d1\u0096\u00d0\u00b2 -3; \u00d0\u00b7\u00d0\u00bc\u00d1\u0096\u00d1\u0088\u00d0\u00b0\u00d0\u00bd\u00d1\u0096 -3.","material":"plastic","operator":"\u00d0\u00a1\u00d0\u0090\u00d0\u00a2"}},"type":"Feature"},
	{"geometry":{"coordinates":[24.001578,49.806354],"type":"Point"},"properties":{"osm_id":"6564292615","tag":{"access":"yes","amenity":"waste_disposal","description":"\u00d0\u009a\u00d1\u0096\u00d0\u00bb\u00d1\u008c\u00d0\u00ba\u00d1\u0096\u00d1\u0081\u00d1\u0082\u00d1\u008c \u00d0\u00ba\u00d0\u00be\u00d0\u00bd\u00d1\u0082\u00d0\u00b5\u00d0\u00b9\u00d0\u00bd\u00d0\u00b5\u00d1\u0080\u00d1\u0096\u00d0\u00b2 -3; \u00d0\u00b7\u00d0\u00bc\u00d1\u0096\u00d1\u0088\u00d0\u00b0\u00d0\u00bd\u00d1\u0096 -3.","material":"plastic","operator":"\u00d0\u00a1\u00d0\u0090\u00d0\u00a2"}},"type":"Feature"},
	{"geometry":{"coordinates":[24.001215,49.804322],"type":"Point"},"properties":{"osm_id":"6564292616","tag":{"access":"yes","amenity":"waste_disposal","description":"\u00d0\u009a\u00d1\u0096\u00d0\u00bb\u00d1\u008c\u00d0\u00ba\u00d1\u0096\u00d1\u0081\u00d1\u0082\u00d1\u008c \u00d0\u00ba\u00d0\u00be\u00d0\u00bd\u00d1\u0082\u00d0\u00b5\u00d0\u00b9\u00d0\u00bd\u00d0\u00b5\u00d1\u0080\u00d1\u0096\u00d0\u00b2 -1; \u00d0\u00b7\u00d0\u00bc\u00d1\u0096\u00d1\u0088\u00d0\u00b0\u00d0\u00bd\u00d1\u0096 -1.","material":"plastic","operator":"\u00d0\u00a1\u00d0\u0090\u00d0\u00a2"}},"type":"Feature"},
	{"geometry":{"coordinates":[23.999514,49.804485],"type":"Point"},"properties":{"osm_id":"6564292617","tag":{"access":"yes","amenity":"waste_disposal","description":"\u00d0\u009a\u00d1\u0096\u00d0\u00bb\u00d1\u008c\u00d0\u00ba\u00d1\u0096\u00d1\u0081\u00d1\u0082\u00d1\u008c \u00d0\u00ba\u00d0\u00be\u00d0\u00bd\u00d1\u0082\u00d0\u00b5\u00d0\u00b9\u00d0\u00bd\u00d0\u00b5\u00d1\u0080\u00d1\u0096\u00d0\u00b2 -2; \u00d0\u00b7\u00d0\u00bc\u00d1\u0096\u00d1\u0088\u00d0\u00b0\u00d0\u00bd\u00d1\u0096 -2.","material":"plastic","operator":"\u00d0\u00a1\u00d0\u0090\u00d0\u00a2"}},"type":"Feature"},
	{"geometry":{"coordinates":[23.999523,49.80482],"type":"Point"},"properties":{"osm_id":"6564292618","tag":{"access":"yes","amenity":"waste_disposal","description":"\u00d0\u009a\u00d1\u0096\u00d0\u00bb\u00d1\u008c\u00d0\u00ba\u00d1\u0096\u00d1\u0081\u00d1\u0082\u00d1\u008c \u00d0\u00ba\u00d0\u00be\u00d0\u00bd\u00d1\u0082\u00d0\u00b5\u00d0\u00b9\u00d0\u00bd\u00d0\u00b5\u00d1\u0080\u00d1\u0096\u00d0\u00b2 -5; \u00d0\u00b7\u00d0\u00bc\u00d1\u0096\u00d1\u0088\u00d0\u00b0\u00d0\u00bd\u00d1\u0096 -2; \u00d0\u00bf\u00d0\u00bb\u00d0\u00b0\u00d1\u0081\u00d1\u0082\u00d0\u00b8\u00d0\u00ba -1; \u00d1\u0081\u00d0\u00ba\u00d0\u00bb\u00d0\u00be -1; \u00d0\u00bc\u00d0\u00b0\u00d0\u00ba\u00d1\u0083\u00d0\u00bb\u00d0\u00b0\u00d1\u0082\u00d1\u0083\u00d1\u0080\u00d0\u00b0 -1.","material":"plastic","operator":"\u00d0\u00a1\u00d0\u0090\u00d0\u00a2"}},"type":"Feature"},
	{"geometry":{"coordinates":[23.999795,49.805922],"type":"Point"},"properties":{"osm_id":"6564292619","tag":{"access":"yes","amenity":"waste_disposal","description":"\u00d0\u009a\u00d1\u0096\u00d0\u00bb\u00d1\u008c\u00d0\u00ba\u00d1\u0096\u00d1\u0081\u00d1\u0082\u00d1\u008c \u00d0\u00ba\u00d0\u00be\u00d0\u00bd\u00d1\u0082\u00d0\u00b5\u00d0\u00b9\u00d0\u00bd\u00d0\u00b5\u00d1\u0080\u00d1\u0096\u00d0\u00b2 -1; \u00d0\u00b7\u00d0\u00bc\u00d1\u0096\u00d1\u0088\u00d0\u00b0\u00d0\u00bd\u00d1\u0096 -1.","material":"plastic","operator":"\u00d0\u00a1\u00d0\u0090\u00d0\u00a2"}},"type":"Feature"},
	{"geometry":{"coordinates":[23.999958,49.806587],"type":"Point"},"properties":{"osm_id":"6564292620","tag":{"access":"yes","amenity":"waste_disposal","description":"\u00d0\u009a\u00d1\u0096\u00d0\u00bb\u00d1\u008c\u00d0\u00ba\u00d1\u0096\u00d1\u0081\u00d1\u0082\u00d1\u008c \u00d0\u00ba\u00d0\u00be\u00d0\u00bd\u00d1\u0082\u00d0\u00b5\u00d0\u00b9\u00d0\u00bd\u00d0\u00b5\u00d1\u0080\u00d1\u0096\u00d0\u00b2 -1; \u00d0\u00b7\u00d0\u00bc\u00d1\u0096\u00d1\u0088\u00d0\u00b0\u00d0\u00bd\u00d1\u0096 -1.","material":"plastic","operator":"\u00d0\u00a1\u00d0\u0090\u00d0\u00a2"}},"type":"Feature"},
	{"geometry":{"coordinates":[23.999682,49.805416],"type":"Point"},"properties":{"osm_id":"6564292621","tag":{"amenity":"waste_disposal"}},"type":"Feature"},
	{"geometry":{"coordinates":[24.006999,49.807201],"type":"Point"},"properties":{"osm_id":"6564292622","tag":{"access":"yes","amenity":"waste_disposal","description":"\u00d0\u009a\u00d1\u0096\u00d0\u00bb\u00d1\u008c\u00d0\u00ba\u00d1\u0096\u00d1\u0081\u00d1\u0082\u00d1\u008c \u00d0\u00ba\u00d0\u00be\u00d0\u00bd\u00d1\u0082\u00d0\u00b5\u00d0\u00b9\u00d0\u00bd\u00d0\u00b5\u00d1\u0080\u00d1\u0096\u00d0\u00b2 -4; \u00d0\u00b7\u00d0\u00bc\u00d1\u0096\u00d1\u0088\u00d0\u00b0\u00d0\u00bd\u00d1\u0096 -2; \u00d0\u00bf\u00d0\u00bb\u00d0\u00b0\u00d1\u0081\u00d1\u0082\u00d0\u00b8\u00d0\u00ba -2.","material":"plastic","operator":"\u00d0\u00a1\u00d0\u0090\u00d0\u00a2"}},"type":"Feature"},
	{"geometry":{"coordinates":[24.012405,49.807828],"type":"Point"},"properties":{"osm_id":"6564470986","tag":{"access":"yes","amenity":"waste_disposal","description":"\u00d0\u009a\u00d1\u0096\u00d0\u00bb\u00d1\u008c\u00d0\u00ba\u00d1\u0096\u00d1\u0081\u00d1\u0082\u00d1\u008c \u00d0\u00ba\u00d0\u00be\u00d0\u00bd\u00d1\u0082\u00d0\u00b5\u00d0\u00b9\u00d0\u00bd\u00d0\u00b5\u00d1\u0080\u00d1\u0096\u00d0\u00b2 - 4; \u00d0\u00b7\u00d0\u00bc\u00d1\u0096\u00d1\u0088\u00d0\u00b0\u00d0\u00bd\u00d0\u00b8\u00d1\u0085 - 2; \u00d1\u0081\u00d0\u00ba\u00d0\u00bb\u00d0\u00be - 1; \u00d0\u00bc\u00d0\u00b0\u00d0\u00ba\u00d1\u0083\u00d0\u00bb\u00d0\u00b0\u00d1\u0082\u00d1\u0083\u00d1\u0080\u00d0\u00b0 -1.","material":"plastic","operator":"\u00d0\u0090\u00d0\u0092\u00d0\u0095"}},"type":"Feature"},
	{"geometry":{"coordinates":[23.996752,49.809068],"type":"Point"},"properties":{"osm_id":"6564470988","tag":{"access":"yes","amenity":"waste_disposal","description":"\u00d0\u009a\u00d1\u0096\u00d0\u00bb\u00d1\u008c\u00d0\u00ba\u00d1\u0096\u00d1\u0081\u00d1\u0082\u00d1\u008c \u00d0\u00ba\u00d0\u00be\u00d0\u00bd\u00d1\u0082\u00d0\u00b5\u00d0\u00b9\u00d0\u00bd\u00d0\u00b5\u00d1\u0080\u00d1\u0096\u00d0\u00b2 -11; \u00d0\u0097\u00d0\u00bc\u00d1\u0096\u00d1\u0088\u00d0\u00b0\u00d0\u00bd\u00d1\u0096 -7; \u00d0\u00bf\u00d0\u00bb\u00d0\u00b0\u00d1\u0081\u00d1\u0082\u00d0\u00b8\u00d0\u00ba -4.","material":"plastic","operator":"\u00d0\u0090\u00d0\u0092\u00d0\u0095"}},"type":"Feature"},
	{"geometry":{"coordinates":[23.996549,49.808313],"type":"Point"},"properties":{"osm_id":"6564470989","tag":{"access":"yes","amenity":"waste_disposal","description":"\u00d0\u009a\u00d1\u0096\u00d0\u00bb\u00d1\u008c\u00d0\u00ba\u00d1\u0096\u00d1\u0081\u00d1\u0082\u00d1\u008c \u00d0\u00ba\u00d0\u00be\u00d0\u00bd\u00d1\u0082\u00d0\u00b5\u00d0\u00b9\u00d0\u00bd\u00d0\u00b5\u00d1\u0080\u00d1\u0096\u00d0\u00b2 - 1; \u00d0\u00b7\u00d0\u00bc\u00d1\u0096\u00d1\u0088\u00d0\u00b0\u00d0\u00bd\u00d1\u0096 -1.","material":"plastic","operator":"\u00d0\u009b\u00d1\u008c\u00d0\u00b2\u00d1\u0096\u00d0\u00b2\u00d0\u00ba\u00d0\u00be\u00d0\u00bc\u00d1\u0083\u00d0\u00bd\u00d1\u0081\u00d0\u00bf\u00d0\u00b5\u00d1\u0086\u00d0\u00b0\u00d0\u00b2\u00d1\u0082\u00d0\u00be\u00d1\u0082\u00d1\u0080\u00d0\u00b0\u00d0\u00bd\u00d1\u0081\u00d0\u00bf"}},"type":"Feature"},
	{"geometry":{"coordinates":[24.005419,49.805804],"type":"Point"},"properties":{"osm_id":"6569588446","tag":{"amenity":"waste_disposal"}},"type":"Feature"},
	{"geometry":{"coordinates":[24.059156,49.796037],"type":"Point"},"properties":{"osm_id":"6576819768","tag":{"amenity":"waste_disposal"}},"type":"Feature"},
	{"geometry":{"coordinates":[24.00453,49.837278],"type":"Point"},"properties":{"osm_id":"6578306228","tag":{"amenity":"waste_basket"}},"type":"Feature"},
	{"geometry":{"coordinates":[24.019784,49.835314],"type":"Point"},"properties":{"osm_id":"6578311536","tag":{"amenity":"waste_basket"}},"type":"Feature"},
	{"geometry":{"coordinates":[24.046761,49.8241],"type":"Point"},"properties":{"osm_id":"6587026364","tag":{"amenity":"waste_disposal"}},"type":"Feature"},
	{"geometry":{"coordinates":[24.010159,49.821643],"type":"Point"},"properties":{"osm_id":"6596178608","tag":{"amenity":"waste_disposal"}},"type":"Feature"},
	{"geometry":{"coordinates":[23.99419,49.810343],"type":"Point"},"properties":{"osm_id":"6677165451","tag":{"amenity":"waste_disposal"}},"type":"Feature"},
	{"geometry":{"coordinates":[24.034259,49.828572],"type":"Point"},"properties":{"osm_id":"6679956217","tag":{"amenity":"recycling","recycling_type":"centre"}},"type":"Feature"},
	{"geometry":{"coordinates":[24.049678,49.797589],"type":"Point"},"properties":{"osm_id":"6680164078","tag":{"amenity":"waste_disposal"}},"type":"Feature"},
	{"geometry":{"coordinates":[24.034392,49.814534],"type":"Point"},"properties":{"osm_id":"6687212826","tag":{"amenity":"waste_disposal"}},"type":"Feature"},
	{"geometry":{"coordinates":[23.995853,49.805703],"type":"Point"},"properties":{"osm_id":"6687631968","tag":{"amenity":"waste_disposal"}},"type":"Feature"},
	{"geometry":{"coordinates":[23.995381,49.804932],"type":"Point"},"properties":{"osm_id":"6687636537","tag":{"amenity":"waste_disposal"}},"type":"Feature"},
	{"geometry":{"coordinates":[24.056412,49.799131],"type":"Point"},"properties":{"osm_id":"6694842958","tag":{"amenity":"waste_disposal"}},"type":"Feature"},
	{"geometry":{"coordinates":[24.042521,49.797698],"type":"Point"},"properties":{"osm_id":"6759066328","tag":{"amenity":"waste_disposal"}},"type":"Feature"},
	{"geometry":{"coordinates":[24.04136,49.798786],"type":"Point"},"properties":{"osm_id":"6759070060","tag":{"amenity":"waste_disposal"}},"type":"Feature"},
	{"geometry":{"coordinates":[24.041329,49.796105],"type":"Point"},"properties":{"osm_id":"6759163616","tag":{"amenity":"waste_disposal"}},"type":"Feature"},
	{"geometry":{"coordinates":[24.056471,49.796735],"type":"Point"},"properties":{"osm_id":"6829584558","tag":{"amenity":"waste_disposal"}},"type":"Feature"},
	{"geometry":{"coordinates":[24.019244,49.800338],"type":"Point"},"properties":{"osm_id":"6843800875","tag":{"amenity":"waste_disposal"}},"type":"Feature"},
	{"geometry":{"coordinates":[24.019252,49.800252],"type":"Point"},"properties":{"osm_id":"6843800876","tag":{"amenity":"waste_disposal"}},"type":"Feature"},
	{"geometry":{"coordinates":[24.055777,49.796239],"type":"Point"},"properties":{"osm_id":"6850167761","tag":{"amenity":"waste_disposal"}},"type":"Feature"},
	{"geometry":{"coordinates":[24.000615,49.808768],"type":"Point"},"properties":{"osm_id":"6860549098","tag":{"amenity":"waste_disposal"}},"type":"Feature"},
	{"geometry":{"coordinates":[24.032584,49.829964],"type":"Point"},"properties":{"osm_id":"6878604994","tag":{"amenity":"waste_basket"}},"type":"Feature"},
	{"geometry":{"coordinates":[24.051644,49.815442],"type":"Point"},"properties":{"osm_id":"6884449778","tag":{"amenity":"waste_disposal"}},"type":"Feature"},
	{"geometry":{"coordinates":[24.052915,49.815672],"type":"Point"},"properties":{"osm_id":"6884449779","tag":{"amenity":"waste_disposal"}},"type":"Feature"},
	{"geometry":{"coordinates":[24.069708,49.818655],"type":"Point"},"properties":{"osm_id":"6884489719","tag":{"amenity":"waste_disposal"}},"type":"Feature"},
	{"geometry":{"coordinates":[24.053209,49.798738],"type":"Point"},"properties":{"osm_id":"6884603524","tag":{"amenity":"waste_disposal"}},"type":"Feature"},
	{"geometry":{"coordinates":[24.052716,49.799221],"type":"Point"},"properties":{"osm_id":"6884603535","tag":{"amenity":"waste_disposal"}},"type":"Feature"},
	{"geometry":{"coordinates":[24.005445,49.804405],"type":"Point"},"properties":{"osm_id":"6895044639","tag":{"amenity":"waste_disposal"}},"type":"Feature"},
	{"geometry":{"coordinates":[24.033788,49.828293],"type":"Point"},"properties":{"osm_id":"6900706765","tag":{"amenity":"waste_basket"}},"type":"Feature"},
	{"geometry":{"coordinates":[24.032305,49.829196],"type":"Point"},"properties":{"osm_id":"6900735713","tag":{"amenity":"waste_basket"}},"type":"Feature"},
	{"geometry":{"coordinates":[24.05346,49.836973],"type":"Point"},"properties":{"osm_id":"6902940242","tag":{"amenity":"waste_disposal"}},"type":"Feature"},
	{"geometry":{"coordinates":[24.037157,49.826564],"type":"Point"},"properties":{"osm_id":"6903171214","tag":{"amenity":"waste_disposal"}},"type":"Feature"},
	{"geometry":{"coordinates":[24.038689,49.827191],"type":"Point"},"properties":{"osm_id":"6903171215","tag":{"amenity":"waste_disposal"}},"type":"Feature"},
	{"geometry":{"coordinates":[24.037104,49.827458],"type":"Point"},"properties":{"osm_id":"6903171216","tag":{"amenity":"waste_basket"}},"type":"Feature"},
	{"geometry":{"coordinates":[24.036764,49.827424],"type":"Point"},"properties":{"osm_id":"6903171217","tag":{"amenity":"waste_basket"}},"type":"Feature"},
	{"geometry":{"coordinates":[24.038823,49.826058],"type":"Point"},"properties":{"osm_id":"6903171218","tag":{"amenity":"waste_basket"}},"type":"Feature"},
	{"geometry":{"coordinates":[24.03809,49.826128],"type":"Point"},"properties":{"osm_id":"6903171219","tag":{"amenity":"waste_basket"}},"type":"Feature"},
	{"geometry":{"coordinates":[24.038865,49.825546],"type":"Point"},"properties":{"osm_id":"6903171220","tag":{"amenity":"waste_basket"}},"type":"Feature"},
	{"geometry":{"coordinates":[24.037054,49.824579],"type":"Point"},"properties":{"osm_id":"6903171221","tag":{"amenity":"waste_basket"}},"type":"Feature"},
	{"geometry":{"coordinates":[24.027601,49.828239],"type":"Point"},"properties":{"osm_id":"6903171222","tag":{"amenity":"waste_basket"}},"type":"Feature"},
	{"geometry":{"coordinates":[24.028834,49.828833],"type":"Point"},"properties":{"osm_id":"6903171223","tag":{"amenity":"waste_basket"}},"type":"Feature"},
	{"geometry":{"coordinates":[24.022315,49.829452],"type":"Point"},"properties":{"osm_id":"6903171226","tag":{"amenity":"waste_basket"}},"type":"Feature"},
	{"geometry":{"coordinates":[24.073849,49.814773],"type":"Point"},"properties":{"osm_id":"6909196145","tag":{"amenity":"waste_basket"}},"type":"Feature"},
	{"geometry":{"coordinates":[24.066757,49.791231],"type":"Point"},"properties":{"osm_id":"6909427928","tag":{"amenity":"waste_disposal"}},"type":"Feature"},
	{"geometry":{"coordinates":[24.065276,49.79398],"type":"Point"},"properties":{"osm_id":"6909551739","tag":{"amenity":"waste_disposal"}},"type":"Feature"},
	{"geometry":{"coordinates":[24.068542,49.790389],"type":"Point"},"properties":{"osm_id":"6909618956","tag":{"amenity":"waste_disposal"}},"type":"Feature"},
	{"geometry":{"coordinates":[24.062305,49.787882],"type":"Point"},"properties":{"osm_id":"6912595574","tag":{"amenity":"waste_disposal"}},"type":"Feature"},
	{"geometry":{"coordinates":[24.064097,49.787601],"type":"Point"},"properties":{"osm_id":"6912595576","tag":{"amenity":"waste_disposal"}},"type":"Feature"},
	{"geometry":{"coordinates":[24.066976,49.787962],"type":"Point"},"properties":{"osm_id":"6912652201","tag":{"amenity":"waste_disposal"}},"type":"Feature"},
	{"geometry":{"coordinates":[24.067014,49.788177],"type":"Point"},"properties":{"osm_id":"6912652202","tag":{"amenity":"waste_disposal"}},"type":"Feature"},
	{"geometry":{"coordinates":[24.067596,49.788773],"type":"Point"},"properties":{"osm_id":"6912652209","tag":{"amenity":"waste_disposal"}},"type":"Feature"},
	{"geometry":{"coordinates":[24.066125,49.790124],"type":"Point"},"properties":{"osm_id":"6912652241","tag":{"amenity":"waste_disposal"}},"type":"Feature"},
	{"geometry":{"coordinates":[24.066896,49.79154],"type":"Point"},"properties":{"osm_id":"6912652279","tag":{"amenity":"waste_disposal"}},"type":"Feature"},
	{"geometry":{"coordinates":[24.000975,49.827665],"type":"Point"},"properties":{"osm_id":"6944777641","tag":{"amenity":"waste_disposal"}},"type":"Feature"},
	{"geometry":{"coordinates":[24.005953,49.809297],"type":"Point"},"properties":{"osm_id":"6948272506","tag":{"amenity":"waste_disposal"}},"type":"Feature"},
	{"geometry":{"coordinates":[24.069008,49.794177],"type":"Point"},"properties":{"osm_id":"6950633564","tag":{"amenity":"waste_disposal"}},"type":"Feature"},
	{"geometry":{"coordinates":[24.069535,49.793507],"type":"Point"},"properties":{"osm_id":"6950684514","tag":{"amenity":"waste_disposal"}},"type":"Feature"},
	{"geometry":{"coordinates":[24.070025,49.791036],"type":"Point"},"properties":{"osm_id":"6950684550","tag":{"amenity":"waste_disposal"}},"type":"Feature"},
	{"geometry":{"coordinates":[24.061615,49.797727],"type":"Point"},"properties":{"osm_id":"6953338551","tag":{"amenity":"waste_disposal"}},"type":"Feature"},
	{"geometry":{"coordinates":[24.031037,49.830021],"type":"Point"},"properties":{"osm_id":"6960125011","tag":{"amenity":"waste_basket"}},"type":"Feature"},
	{"geometry":{"coordinates":[24.036808,49.824772],"type":"Point"},"properties":{"osm_id":"6960351634","tag":{"amenity":"waste_basket"}},"type":"Feature"},
	{"geometry":{"coordinates":[24.037571,49.824608],"type":"Point"},"properties":{"osm_id":"6960405309","tag":{"amenity":"waste_basket"}},"type":"Feature"},
	{"geometry":{"coordinates":[24.012908,49.836945],"type":"Point"},"properties":{"osm_id":"6965932069","tag":{"amenity":"waste_basket"}},"type":"Feature"},
	{"geometry":{"coordinates":[24.06052,49.78932],"type":"Point"},"properties":{"osm_id":"6966362983","tag":{"amenity":"waste_disposal"}},"type":"Feature"},
	{"geometry":{"coordinates":[24.041622,49.826269],"type":"Point"},"properties":{"osm_id":"6968856074","tag":{"amenity":"recycling","recycling_type":"container"}},"type":"Feature"},
	{"geometry":{"coordinates":[24.040377,49.826976],"type":"Point"},"properties":{"osm_id":"6979530637","tag":{"amenity":"waste_basket"}},"type":"Feature"},
	{"geometry":{"coordinates":[24.040386,49.826915],"type":"Point"},"properties":{"osm_id":"6979530638","tag":{"amenity":"waste_basket"}},"type":"Feature"},
	{"geometry":{"coordinates":[24.040232,49.826777],"type":"Point"},"properties":{"osm_id":"6979530639","tag":{"amenity":"waste_disposal"}},"type":"Feature"},
	{"geometry":{"coordinates":[24.041365,49.828118],"type":"Point"},"properties":{"osm_id":"6984593565","tag":{"amenity":"waste_disposal"}},"type":"Feature"},
	{"geometry":{"coordinates":[24.023878,49.821794],"type":"Point"},"properties":{"osm_id":"7011815552","tag":{"amenity":"waste_basket"}},"type":"Feature"},
	{"geometry":{"coordinates":[24.026188,49.823549],"type":"Point"},"properties":{"osm_id":"7011839454","tag":{"amenity":"waste_basket"}},"type":"Feature"},
	{"geometry":{"coordinates":[24.040888,49.826206],"type":"Point"},"properties":{"osm_id":"7012220429","tag":{"amenity":"waste_basket"}},"type":"Feature"},
	{"geometry":{"coordinates":[24.040915,49.826112],"type":"Point"},"properties":{"osm_id":"7012233838","tag":{"amenity":"waste_basket"}},"type":"Feature"},
	{"geometry":{"coordinates":[24.040856,49.826217],"type":"Point"},"properties":{"osm_id":"7012237243","tag":{"amenity":"waste_basket"}},"type":"Feature"},
	{"geometry":{"coordinates":[24.023266,49.827481],"type":"Point"},"properties":{"osm_id":"7013552746","tag":{"amenity":"waste_basket"}},"type":"Feature"},
	{"geometry":{"coordinates":[24.023394,49.828024],"type":"Point"},"properties":{"osm_id":"7013556146","tag":{"amenity":"waste_basket"}},"type":"Feature"},
	{"geometry":{"coordinates":[24.023465,49.82808],"type":"Point"},"properties":{"osm_id":"7013564499","tag":{"amenity":"waste_basket"}},"type":"Feature"},
	{"geometry":{"coordinates":[24.023493,49.828063],"type":"Point"},"properties":{"osm_id":"7013565508","tag":{"amenity":"waste_basket"}},"type":"Feature"},
	{"geometry":{"coordinates":[24.023095,49.827544],"type":"Point"},"properties":{"osm_id":"7013565756","tag":{"amenity":"waste_basket"}},"type":"Feature"},
	{"geometry":{"coordinates":[24.023843,49.828448],"type":"Point"},"properties":{"osm_id":"7013566253","tag":{"amenity":"waste_basket"}},"type":"Feature"},
	{"geometry":{"coordinates":[24.022418,49.82861],"type":"Point"},"properties":{"osm_id":"7013566613","tag":{"amenity":"waste_basket"}},"type":"Feature"},
	{"geometry":{"coordinates":[24.025408,49.828056],"type":"Point"},"properties":{"osm_id":"7013569757","tag":{"amenity":"waste_basket"}},"type":"Feature"},
	{"geometry":{"coordinates":[24.02308,49.828534],"type":"Point"},"properties":{"osm_id":"7013570100","tag":{"amenity":"waste_basket"}},"type":"Feature"},
	{"geometry":{"coordinates":[24.022336,49.82672],"type":"Point"},"properties":{"osm_id":"7013577509","tag":{"amenity":"waste_basket"}},"type":"Feature"},
	{"geometry":{"coordinates":[24.022891,49.826972],"type":"Point"},"properties":{"osm_id":"7017148997","tag":{"amenity":"waste_basket"}},"type":"Feature"},
	{"geometry":{"coordinates":[24.021958,49.826941],"type":"Point"},"properties":{"osm_id":"7017149013","tag":{"amenity":"waste_basket"}},"type":"Feature"},
	{"geometry":{"coordinates":[24.021968,49.827008],"type":"Point"},"properties":{"osm_id":"7017149014","tag":{"amenity":"waste_basket"}},"type":"Feature"},
	{"geometry":{"coordinates":[24.021853,49.826946],"type":"Point"},"properties":{"osm_id":"7017149015","tag":{"amenity":"waste_basket"}},"type":"Feature"},
	{"geometry":{"coordinates":[24.02185,49.82702],"type":"Point"},"properties":{"osm_id":"7017149018","tag":{"amenity":"waste_basket"}},"type":"Feature"},
	{"geometry":{"coordinates":[24.021687,49.826851],"type":"Point"},"properties":{"osm_id":"7017149019","tag":{"amenity":"waste_basket"}},"type":"Feature"},
	{"geometry":{"coordinates":[24.021298,49.826924],"type":"Point"},"properties":{"osm_id":"7017149020","tag":{"amenity":"waste_basket"}},"type":"Feature"},
	{"geometry":{"coordinates":[24.021378,49.827067],"type":"Point"},"properties":{"osm_id":"7017149021","tag":{"amenity":"waste_basket"}},"type":"Feature"},
	{"geometry":{"coordinates":[24.021689,49.827167],"type":"Point"},"properties":{"osm_id":"7017149022","tag":{"amenity":"waste_basket"}},"type":"Feature"},
	{"geometry":{"coordinates":[24.021342,49.827223],"type":"Point"},"properties":{"osm_id":"7017149023","tag":{"amenity":"waste_basket"}},"type":"Feature"},
	{"geometry":{"coordinates":[24.02603,49.828345],"type":"Point"},"properties":{"osm_id":"7017149025","tag":{"amenity":"waste_basket"}},"type":"Feature"},
	{"geometry":{"coordinates":[24.025951,49.828493],"type":"Point"},"properties":{"osm_id":"7017149026","tag":{"amenity":"waste_basket"}},"type":"Feature"},
	{"geometry":{"coordinates":[24.025207,49.828631],"type":"Point"},"properties":{"osm_id":"7017149027","tag":{"amenity":"waste_basket"}},"type":"Feature"},
	{"geometry":{"coordinates":[24.024857,49.828717],"type":"Point"},"properties":{"osm_id":"7017149028","tag":{"amenity":"waste_basket"}},"type":"Feature"},
	{"geometry":{"coordinates":[24.025026,49.828681],"type":"Point"},"properties":{"osm_id":"7017149029","tag":{"amenity":"waste_basket"}},"type":"Feature"},
	{"geometry":{"coordinates":[24.026266,49.828476],"type":"Point"},"properties":{"osm_id":"7017149030","tag":{"amenity":"waste_basket"}},"type":"Feature"},
	{"geometry":{"coordinates":[24.026828,49.828365],"type":"Point"},"properties":{"osm_id":"7017149035","tag":{"amenity":"waste_basket"}},"type":"Feature"},
	{"geometry":{"coordinates":[24.027028,49.828495],"type":"Point"},"properties":{"osm_id":"7017149036","tag":{"amenity":"waste_basket"}},"type":"Feature"},
	{"geometry":{"coordinates":[24.027616,49.828564],"type":"Point"},"properties":{"osm_id":"7017149037","tag":{"amenity":"waste_basket"}},"type":"Feature"},
	{"geometry":{"coordinates":[24.035489,49.825672],"type":"Point"},"properties":{"osm_id":"7017169620","tag":{"amenity":"recycling","recycling_type":"container"}},"type":"Feature"},
	{"geometry":{"coordinates":[24.02673,49.829061],"type":"Point"},"properties":{"osm_id":"7017169621","tag":{"amenity":"recycling","recycling_type":"container"}},"type":"Feature"},
	{"geometry":{"coordinates":[24.028524,49.828984],"type":"Point"},"properties":{"osm_id":"7017169622","tag":{"amenity":"recycling","recycling_type":"container"}},"type":"Feature"},
	{"geometry":{"coordinates":[24.023242,49.829667],"type":"Point"},"properties":{"osm_id":"7017169623","tag":{"amenity":"recycling","recycling_type":"container"}},"type":"Feature"},
	{"geometry":{"coordinates":[23.996261,49.809882],"type":"Point"},"properties":{"osm_id":"7018835637","tag":{"amenity":"waste_disposal"}},"type":"Feature"},
	{"geometry":{"coordinates":[23.995936,49.80891],"type":"Point"},"properties":{"osm_id":"7018835638","tag":{"amenity":"waste_disposal"}},"type":"Feature"},
	{"geometry":{"coordinates":[23.994519,49.806959],"type":"Point"},"properties":{"osm_id":"7018920814","tag":{"amenity":"waste_disposal"}},"type":"Feature"},
	{"geometry":{"coordinates":[23.996804,49.830168],"type":"Point"},"properties":{"osm_id":"7019544525","tag":{"amenity":"waste_disposal"}},"type":"Feature"},
	{"geometry":{"coordinates":[24.036317,49.81854],"type":"Point"},"properties":{"osm_id":"7020346307","tag":{"amenity":"waste_basket"}},"type":"Feature"},
	{"geometry":{"coordinates":[24.036945,49.824622],"type":"Point"},"properties":{"osm_id":"7020376683","tag":{"amenity":"waste_basket"}},"type":"Feature"},
	{"geometry":{"coordinates":[24.03663,49.824777],"type":"Point"},"properties":{"osm_id":"7020402749","tag":{"amenity":"waste_basket"}},"type":"Feature"},
	{"geometry":{"coordinates":[24.037493,49.828468],"type":"Point"},"properties":{"osm_id":"7040430237","tag":{"amenity":"waste_disposal"}},"type":"Feature"},
	{"geometry":{"coordinates":[24.037465,49.828502],"type":"Point"},"properties":{"osm_id":"7040432721","tag":{"amenity":"recycling"}},"type":"Feature"},
	{"geometry":{"coordinates":[24.038776,49.825542],"type":"Point"},"properties":{"osm_id":"7041615301","tag":{"amenity":"waste_basket"}},"type":"Feature"},
	{"geometry":{"coordinates":[24.038689,49.825523],"type":"Point"},"properties":{"osm_id":"7041615303","tag":{"amenity":"waste_basket"}},"type":"Feature"},
	{"geometry":{"coordinates":[24.058854,49.820712],"type":"Point"},"properties":{"osm_id":"7065970022","tag":{"amenity":"waste_disposal"}},"type":"Feature"},
	{"geometry":{"coordinates":[24.000327,49.808007],"type":"Point"},"properties":{"osm_id":"7077910937","tag":{"amenity":"waste_disposal"}},"type":"Feature"},
	{"geometry":{"coordinates":[24.005135,49.809418],"type":"Point"},"properties":{"osm_id":"7077910952","tag":{"amenity":"waste_disposal"}},"type":"Feature"},
	{"geometry":{"coordinates":[23.99702,49.811975],"type":"Point"},"properties":{"osm_id":"7077980398","tag":{"amenity":"waste_disposal"}},"type":"Feature"},
	{"geometry":{"coordinates":[23.997002,49.811952],"type":"Point"},"properties":{"osm_id":"7077980399","tag":{"amenity":"recycling","recycling_type":"container"}},"type":"Feature"},
	{"geometry":{"coordinates":[24.035026,49.824828],"type":"Point"},"properties":{"osm_id":"7108932129","tag":{"amenity":"waste_disposal"}},"type":"Feature"},
	{"geometry":{"coordinates":[24.001496,49.816988],"type":"Point"},"properties":{"osm_id":"7112687048","tag":{"amenity":"waste_basket","waste":"dog_excrement"}},"type":"Feature"},
	{"geometry":{"coordinates":[24.000951,49.818264],"type":"Point"},"properties":{"osm_id":"7112687051","tag":{"amenity":"recycling","recycling:plastic_bottles":"yes","recycling_type":"container"}},"type":"Feature"},
	{"geometry":{"coordinates":[24.000898,49.818282],"type":"Point"},"properties":{"osm_id":"7112687052","tag":{"amenity":"recycling","recycling:glass":"yes","recycling_type":"container"}},"type":"Feature"},
	{"geometry":{"coordinates":[24.000925,49.818272],"type":"Point"},"properties":{"osm_id":"7112687053","tag":{"amenity":"recycling","recycling:paper":"yes","recycling_type":"container"}},"type":"Feature"},
	{"geometry":{"coordinates":[24.000882,49.818226],"type":"Point"},"properties":{"osm_id":"7112687066","tag":{"amenity":"waste_disposal"}},"type":"Feature"},
	{"geometry":{"coordinates":[24.072035,49.827665],"type":"Point"},"properties":{"osm_id":"7116869450","tag":{"amenity":"waste_disposal"}},"type":"Feature"},
	{"geometry":{"coordinates":[24.070476,49.830085],"type":"Point"},"properties":{"osm_id":"7116869472","tag":{"amenity":"waste_disposal"}},"type":"Feature"},
	{"geometry":{"coordinates":[24.045194,49.809361],"type":"Point"},"properties":{"osm_id":"7126025098","tag":{"amenity":"waste_disposal"}},"type":"Feature"},
	{"geometry":{"coordinates":[24.066844,49.782847],"type":"Point"},"properties":{"osm_id":"7128754296","tag":{"amenity":"waste_disposal"}},"type":"Feature"},
	{"geometry":{"coordinates":[24.065433,49.782939],"type":"Point"},"properties":{"osm_id":"7128754303","tag":{"amenity":"waste_disposal"}},"type":"Feature"},
	{"geometry":{"coordinates":[24.063873,49.782763],"type":"Point"},"properties":{"osm_id":"7128754325","tag":{"amenity":"waste_disposal"}},"type":"Feature"},
	{"geometry":{"coordinates":[24.069085,49.784121],"type":"Point"},"properties":{"osm_id":"7128807726","tag":{"amenity":"waste_disposal"}},"type":"Feature"},
	{"geometry":{"coordinates":[24.068559,49.785276],"type":"Point"},"properties":{"osm_id":"7128807746","tag":{"amenity":"waste_disposal"}},"type":"Feature"},
	{"geometry":{"coordinates":[24.067419,49.786891],"type":"Point"},"properties":{"osm_id":"7128807782","tag":{"amenity":"waste_disposal"}},"type":"Feature"},
	{"geometry":{"coordinates":[24.035992,49.832227],"type":"Point"},"properties":{"osm_id":"7132801390","tag":{"amenity":"waste_disposal"}},"type":"Feature"},
	{"geometry":{"coordinates":[24.026167,49.817537],"type":"Point"},"properties":{"osm_id":"7135846923","tag":{"amenity":"waste_disposal"}},"type":"Feature"},
	{"geometry":{"coordinates":[24.025035,49.836654],"type":"Point"},"properties":{"osm_id":"7139547540","tag":{"amenity":"waste_disposal"}},"type":"Feature"},
	{"geometry":{"coordinates":[24.025053,49.836664],"type":"Point"},"properties":{"osm_id":"7139558903","tag":{"amenity":"recycling"}},"type":"Feature"},
	{"geometry":{"coordinates":[24.022121,49.836947],"type":"Point"},"properties":{"osm_id":"7140889892","tag":{"amenity":"waste_disposal"}},"type":"Feature"},
	{"geometry":{"coordinates":[24.050446,49.786236],"type":"Point"},"properties":{"osm_id":"7141378923","tag":{"amenity":"waste_disposal"}},"type":"Feature"},
	{"geometry":{"coordinates":[24.050938,49.788217],"type":"Point"},"properties":{"osm_id":"7141378963","tag":{"amenity":"waste_disposal"}},"type":"Feature"},
	{"geometry":{"coordinates":[24.051782,49.787064],"type":"Point"},"properties":{"osm_id":"7141378974","tag":{"amenity":"waste_disposal"}},"type":"Feature"},
	{"geometry":{"coordinates":[24.01761,49.793546],"type":"Point"},"properties":{"osm_id":"7142378483","tag":{"amenity":"recycling","recycling_type":"container"}},"type":"Feature"},
	{"geometry":{"coordinates":[24.018754,49.791789],"type":"Point"},"properties":{"osm_id":"7142407998","tag":{"amenity":"waste_disposal"}},"type":"Feature"},
	{"geometry":{"coordinates":[24.018674,49.791782],"type":"Point"},"properties":{"osm_id":"7142407999","tag":{"amenity":"recycling","recycling_type":"container"}},"type":"Feature"},
	{"geometry":{"coordinates":[24.05727,49.791605],"type":"Point"},"properties":{"osm_id":"7151155011","tag":{"amenity":"waste_disposal"}},"type":"Feature"},
	{"geometry":{"coordinates":[24.057244,49.791609],"type":"Point"},"properties":{"osm_id":"7151155012","tag":{"amenity":"recycling","recycling_type":"container"}},"type":"Feature"},
	{"geometry":{"coordinates":[24.029237,49.835467],"type":"Point"},"properties":{"osm_id":"7158601354","tag":{"amenity":"waste_disposal"}},"type":"Feature"},
	{"geometry":{"coordinates":[24.075385,49.822868],"type":"Point"},"properties":{"osm_id":"7158954907","tag":{"amenity":"waste_disposal"}},"type":"Feature"},
	{"geometry":{"coordinates":[24.028538,49.834923],"type":"Point"},"properties":{"osm_id":"7159952455","tag":{"amenity":"waste_disposal"}},"type":"Feature"},
	{"geometry":{"coordinates":[24.022726,49.795891],"type":"Point"},"properties":{"osm_id":"7213986675","tag":{"amenity":"waste_disposal"}},"type":"Feature"},
	{"geometry":{"coordinates":[24.031452,49.830117],"type":"Point"},"properties":{"osm_id":"7232698750","tag":{"amenity":"waste_basket"}},"type":"Feature"},
	{"geometry":{"coordinates":[24.001689,49.818199],"type":"Point"},"properties":{"osm_id":"7234140140","tag":{"amenity":"waste_basket","layer":"1"}},"type":"Feature"},
	{"geometry":{"coordinates":[24.001348,49.817791],"type":"Point"},"properties":{"osm_id":"7234140141","tag":{"amenity":"waste_basket","layer":"1"}},"type":"Feature"},
	{"geometry":{"coordinates":[24.001378,49.817554],"type":"Point"},"properties":{"osm_id":"7234140142","tag":{"amenity":"waste_basket","layer":"1"}},"type":"Feature"},
	{"geometry":{"coordinates":[24.00147,49.817653],"type":"Point"},"properties":{"osm_id":"7234140143","tag":{"amenity":"waste_basket","layer":"1"}},"type":"Feature"},
	{"geometry":{"coordinates":[24.001,49.818332],"type":"Point"},"properties":{"osm_id":"7234140167","tag":{"amenity":"recycling","recycling:plastic_bottles":"yes","recycling_type":"container"}},"type":"Feature"},
	{"geometry":{"coordinates":[23.994461,49.835226],"type":"Point"},"properties":{"osm_id":"7234557574","tag":{"amenity":"waste_basket"}},"type":"Feature"},
	{"geometry":{"coordinates":[24.035559,49.835397],"type":"Point"},"properties":{"osm_id":"7235061826","tag":{"amenity":"waste_disposal"}},"type":"Feature"},
	{"geometry":{"coordinates":[24.03556,49.835381],"type":"Point"},"properties":{"osm_id":"7235061827","tag":{"amenity":"recycling","recycling_type":"container"}},"type":"Feature"},
	{"geometry":{"coordinates":[24.00202,49.817191],"type":"Point"},"properties":{"osm_id":"7236618013","tag":{"amenity":"waste_basket","layer":"1"}},"type":"Feature"},
	{"geometry":{"coordinates":[24.001942,49.817405],"type":"Point"},"properties":{"osm_id":"7236618014","tag":{"amenity":"waste_basket","layer":"1"}},"type":"Feature"},
	{"geometry":{"coordinates":[24.002085,49.817645],"type":"Point"},"properties":{"osm_id":"7236618015","tag":{"amenity":"waste_basket","layer":"1"}},"type":"Feature"},
	{"geometry":{"coordinates":[24.002382,49.817834],"type":"Point"},"properties":{"osm_id":"7236618016","tag":{"amenity":"waste_basket","layer":"1"}},"type":"Feature"},
	{"geometry":{"coordinates":[24.002264,49.817867],"type":"Point"},"properties":{"osm_id":"7236618017","tag":{"amenity":"waste_basket","layer":"1"}},"type":"Feature"},
	{"geometry":{"coordinates":[24.002356,49.817704],"type":"Point"},"properties":{"osm_id":"7236618018","tag":{"amenity":"waste_basket","layer":"1"}},"type":"Feature"},
	{"geometry":{"coordinates":[24.002186,49.817751],"type":"Point"},"properties":{"osm_id":"7236618019","tag":{"amenity":"waste_basket","layer":"1"}},"type":"Feature"},
	{"geometry":{"coordinates":[24.012021,49.8289],"type":"Point"},"properties":{"osm_id":"7238321483","tag":{"amenity":"waste_disposal"}},"type":"Feature"},
	{"geometry":{"coordinates":[24.012359,49.817777],"type":"Point"},"properties":{"osm_id":"7244476970","tag":{"amenity":"waste_disposal"}},"type":"Feature"},
	{"geometry":{"coordinates":[24.048032,49.827935],"type":"Point"},"properties":{"osm_id":"7245309053","tag":{"amenity":"waste_disposal"}},"type":"Feature"},
	{"geometry":{"coordinates":[24.054061,49.80186],"type":"Point"},"properties":{"osm_id":"7249562534","tag":{"amenity":"waste_disposal"}},"type":"Feature"},
	{"geometry":{"coordinates":[24.056543,49.800048],"type":"Point"},"properties":{"osm_id":"7249564181","tag":{"amenity":"waste_disposal"}},"type":"Feature"},
	{"geometry":{"coordinates":[24.053943,49.800102],"type":"Point"},"properties":{"osm_id":"7249611104","tag":{"amenity":"waste_disposal"}},"type":"Feature"},
	{"geometry":{"coordinates":[24.040851,49.836634],"type":"Point"},"properties":{"osm_id":"7255751592","tag":{"amenity":"waste_disposal"}},"type":"Feature"},
	{"geometry":{"coordinates":[24.039734,49.829972],"type":"Point"},"properties":{"osm_id":"7261174974","tag":{"amenity":"recycling"}},"type":"Feature"},
	{"geometry":{"coordinates":[24.049733,49.829033],"type":"Point"},"properties":{"osm_id":"7261252353","tag":{"amenity":"waste_disposal"}},"type":"Feature"},
	{"geometry":{"coordinates":[24.035594,49.834056],"type":"Point"},"properties":{"osm_id":"7294319525","tag":{"amenity":"waste_basket"}},"type":"Feature"},
	{"geometry":{"coordinates":[24.035217,49.834282],"type":"Point"},"properties":{"osm_id":"7294330432","tag":{"amenity":"waste_basket"}},"type":"Feature"},
	{"geometry":{"coordinates":[24.034852,49.835482],"type":"Point"},"properties":{"osm_id":"7294340163","tag":{"amenity":"waste_basket"}},"type":"Feature"},
	{"geometry":{"coordinates":[24.03554,49.833858],"type":"Point"},"properties":{"osm_id":"7294341754","tag":{"amenity":"waste_basket"}},"type":"Feature"},
	{"geometry":{"coordinates":[24.035256,49.833852],"type":"Point"},"properties":{"osm_id":"7294347506","tag":{"amenity":"waste_basket"}},"type":"Feature"},
	{"geometry":{"coordinates":[24.032642,49.829553],"type":"Point"},"properties":{"osm_id":"7294354599","tag":{"amenity":"waste_basket"}},"type":"Feature"},
	{"geometry":{"coordinates":[24.033845,49.828694],"type":"Point"},"properties":{"osm_id":"7294921707","tag":{"amenity":"recycling","recycling_type":"container"}},"type":"Feature"},
	{"geometry":{"coordinates":[24.033823,49.828715],"type":"Point"},"properties":{"osm_id":"7294921708","tag":{"amenity":"waste_disposal"}},"type":"Feature"},
	{"geometry":{"coordinates":[24.012356,49.817762],"type":"Point"},"properties":{"osm_id":"7296737615","tag":{"amenity":"recycling","recycling_type":"container"}},"type":"Feature"},
	{"geometry":{"coordinates":[24.055261,49.801279],"type":"Point"},"properties":{"osm_id":"7297159533","tag":{"amenity":"waste_disposal"}},"type":"Feature"},
	{"geometry":{"coordinates":[24.0516,49.801291],"type":"Point"},"properties":{"osm_id":"7297159542","tag":{"amenity":"waste_disposal"}},"type":"Feature"},
	{"geometry":{"coordinates":[24.051661,49.801297],"type":"Point"},"properties":{"osm_id":"7297159543","tag":{"amenity":"recycling","recycling_type":"container"}},"type":"Feature"},
	{"geometry":{"coordinates":[24.027455,49.828956],"type":"Point"},"properties":{"osm_id":"7303977237","tag":{"amenity":"waste_basket"}},"type":"Feature"},
	{"geometry":{"coordinates":[24.036402,49.812932],"type":"Point"},"properties":{"osm_id":"7444541997","tag":{"amenity":"waste_disposal"}},"type":"Feature"},
	{"geometry":{"coordinates":[24.071417,49.802948],"type":"Point"},"properties":{"osm_id":"7457382602","tag":{"access":"yes","amenity":"waste_disposal","waste":"trash;mixed;plastic"}},"type":"Feature"},
	{"geometry":{"coordinates":[24.073114,49.803459],"type":"Point"},"properties":{"osm_id":"7458890371","tag":{"access":"permit","amenity":"waste_disposal","waste":"trash;mixed;plastic"}},"type":"Feature"},
	{"geometry":{"coordinates":[24.04314,49.825567],"type":"Point"},"properties":{"osm_id":"7490317324","tag":{"amenity":"waste_disposal"}},"type":"Feature"},
	{"geometry":{"coordinates":[24.012738,49.826047],"type":"Point"},"properties":{"osm_id":"7508844145","tag":{"amenity":"waste_disposal"}},"type":"Feature"},
	{"geometry":{"coordinates":[24.026389,49.83128],"type":"Point"},"properties":{"osm_id":"7533562638","tag":{"amenity":"recycling","recycling_type":"container"}},"type":"Feature"},
	{"geometry":{"coordinates":[24.022972,49.788242],"type":"Point"},"properties":{"osm_id":"7549622853","tag":{"amenity":"waste_disposal","covered":"yes"}},"type":"Feature"},
	{"geometry":{"coordinates":[24.022449,49.785266],"type":"Point"},"properties":{"osm_id":"7549622859","tag":{"amenity":"waste_disposal"}},"type":"Feature"},
	{"geometry":{"coordinates":[24.025526,49.78572],"type":"Point"},"properties":{"osm_id":"7549638259","tag":{"amenity":"waste_disposal"}},"type":"Feature"},
	{"geometry":{"coordinates":[24.025232,49.82146],"type":"Point"},"properties":{"osm_id":"7600216854","tag":{"amenity":"waste_basket"}},"type":"Feature"},
	{"geometry":{"coordinates":[24.025188,49.821485],"type":"Point"},"properties":{"osm_id":"7600216855","tag":{"amenity":"waste_basket"}},"type":"Feature"},
	{"geometry":{"coordinates":[24.026163,49.821648],"type":"Point"},"properties":{"osm_id":"7600216856","tag":{"amenity":"waste_basket"}},"type":"Feature"},
	{"geometry":{"coordinates":[24.025999,49.821557],"type":"Point"},"properties":{"osm_id":"7600216857","tag":{"amenity":"waste_basket"}},"type":"Feature"},
	{"geometry":{"coordinates":[24.025548,49.821298],"type":"Point"},"properties":{"osm_id":"7600216858","tag":{"amenity":"waste_basket"}},"type":"Feature"},
	{"geometry":{"coordinates":[24.057845,49.78202],"type":"Point"},"properties":{"osm_id":"7603001771","tag":{"amenity":"waste_disposal"}},"type":"Feature"},
	{"geometry":{"coordinates":[24.020245,49.826629],"type":"Point"},"properties":{"osm_id":"7606445153","tag":{"amenity":"waste_basket"}},"type":"Feature"},
	{"geometry":{"coordinates":[24.020675,49.8267],"type":"Point"},"properties":{"osm_id":"7606457885","tag":{"amenity":"waste_basket"}},"type":"Feature"},
	{"geometry":{"coordinates":[24.022748,49.82686],"type":"Point"},"properties":{"osm_id":"7608739731","tag":{"amenity":"waste_basket"}},"type":"Feature"},
	{"geometry":{"coordinates":[24.008401,49.809346],"type":"Point"},"properties":{"osm_id":"7609101635","tag":{"amenity":"waste_basket"}},"type":"Feature"},
	{"geometry":{"coordinates":[24.009367,49.809254],"type":"Point"},"properties":{"osm_id":"7609101636","tag":{"amenity":"waste_basket"}},"type":"Feature"},
	{"geometry":{"coordinates":[24.011685,49.810156],"type":"Point"},"properties":{"osm_id":"7609102610","tag":{"amenity":"waste_disposal"}},"type":"Feature"},
	{"geometry":{"coordinates":[24.011636,49.810151],"type":"Point"},"properties":{"osm_id":"7609102611","tag":{"amenity":"waste_disposal"}},"type":"Feature"},
	{"geometry":{"coordinates":[24.017437,49.790999],"type":"Point"},"properties":{"osm_id":"7612707116","tag":{"amenity":"waste_disposal"}},"type":"Feature"},
	{"geometry":{"coordinates":[24.017651,49.793548],"type":"Point"},"properties":{"osm_id":"7612707117","tag":{"amenity":"waste_disposal"}},"type":"Feature"},
	{"geometry":{"coordinates":[24.044858,49.799113],"type":"Point"},"properties":{"osm_id":"7615727522","tag":{"amenity":"waste_disposal"}},"type":"Feature"},
	{"geometry":{"coordinates":[24.04459,49.79862],"type":"Point"},"properties":{"osm_id":"7615739188","tag":{"amenity":"waste_disposal"}},"type":"Feature"},
	{"geometry":{"coordinates":[24.023788,49.829132],"type":"Point"},"properties":{"osm_id":"7632373023","tag":{"amenity":"waste_basket"}},"type":"Feature"},
	{"geometry":{"coordinates":[24.022776,49.829324],"type":"Point"},"properties":{"osm_id":"7632387274","tag":{"amenity":"waste_disposal"}},"type":"Feature"},
	{"geometry":{"coordinates":[24.023216,49.82947],"type":"Point"},"properties":{"osm_id":"7632399724","tag":{"amenity":"waste_basket"}},"type":"Feature"},
	{"geometry":{"coordinates":[24.043678,49.799736],"type":"Point"},"properties":{"osm_id":"7640195528","tag":{"amenity":"waste_disposal"}},"type":"Feature"},
	{"geometry":{"coordinates":[24.04155,49.799378],"type":"Point"},"properties":{"osm_id":"7640195537","tag":{"amenity":"waste_disposal"}},"type":"Feature"},
	{"geometry":{"coordinates":[24.051879,49.781552],"type":"Point"},"properties":{"osm_id":"7643502261","tag":{"amenity":"recycling","recycling_type":"container"}},"type":"Feature"},
	{"geometry":{"coordinates":[24.051885,49.781573],"type":"Point"},"properties":{"osm_id":"7643514612","tag":{"amenity":"waste_disposal"}},"type":"Feature"},
	{"geometry":{"coordinates":[24.054092,49.782662],"type":"Point"},"properties":{"osm_id":"7646300732","tag":{"amenity":"waste_disposal"}},"type":"Feature"},
	{"geometry":{"coordinates":[24.054063,49.782655],"type":"Point"},"properties":{"osm_id":"7646300733","tag":{"amenity":"recycling","recycling_type":"container"}},"type":"Feature"},
	{"geometry":{"coordinates":[24.055642,49.783733],"type":"Point"},"properties":{"osm_id":"7646422603","tag":{"amenity":"waste_disposal"}},"type":"Feature"},
	{"geometry":{"coordinates":[24.055668,49.783736],"type":"Point"},"properties":{"osm_id":"7646422604","tag":{"amenity":"recycling","recycling_type":"container"}},"type":"Feature"},
	{"geometry":{"coordinates":[24.027058,49.827029],"type":"Point"},"properties":{"osm_id":"7658345400","tag":{"amenity":"waste_disposal"}},"type":"Feature"},
	{"geometry":{"coordinates":[24.027086,49.827022],"type":"Point"},"properties":{"osm_id":"7658345401","tag":{"amenity":"recycling","recycling_type":"container"}},"type":"Feature"},
	{"geometry":{"coordinates":[24.024359,49.83737],"type":"Point"},"properties":{"osm_id":"7659005285","tag":{"amenity":"waste_basket","survey:date":"2020-06-27"}},"type":"Feature"},
	{"geometry":{"coordinates":[24.018301,49.832638],"type":"Point"},"properties":{"osm_id":"7661110622","tag":{"amenity":"waste_basket"}},"type":"Feature"},
	{"geometry":{"coordinates":[24.018865,49.833228],"type":"Point"},"properties":{"osm_id":"7661111081","tag":{"amenity":"waste_basket"}},"type":"Feature"},
	{"geometry":{"coordinates":[24.028657,49.837222],"type":"Point"},"properties":{"osm_id":"7663374091","tag":{"amenity":"waste_basket","colour":"green","material":"metal","survey:date":"2020-06-29"}},"type":"Feature"},
	{"geometry":{"coordinates":[24.028559,49.837166],"type":"Point"},"properties":{"osm_id":"7663374092","tag":{"amenity":"waste_basket","colour":"green","material":"metal","survey:date":"2020-06-29"}},"type":"Feature"},
	{"geometry":{"coordinates":[24.028475,49.837387],"type":"Point"},"properties":{"osm_id":"7663374093","tag":{"amenity":"waste_basket","colour":"green","material":"metal","survey:date":"2020-06-29"}},"type":"Feature"},
	{"geometry":{"coordinates":[24.02835,49.837348],"type":"Point"},"properties":{"osm_id":"7663386889","tag":{"amenity":"waste_basket","colour":"green","material":"metal","survey:date":"2020-06-29"}},"type":"Feature"},
	{"geometry":{"coordinates":[24.024595,49.837187],"type":"Point"},"properties":{"osm_id":"7663387085","tag":{"amenity":"waste_basket","survey:date":"2020-06-29"}},"type":"Feature"},
	{"geometry":{"coordinates":[24.038476,49.811416],"type":"Point"},"properties":{"osm_id":"7712139031","tag":{"amenity":"recycling","recycling:plastic_bottles":"yes","recycling_type":"container"}},"type":"Feature"},
	{"geometry":{"coordinates":[24.015326,49.828439],"type":"Point"},"properties":{"osm_id":"7739412253","tag":{"amenity":"waste_disposal"}},"type":"Feature"},
	{"geometry":{"coordinates":[24.005385,49.833886],"type":"Point"},"properties":{"osm_id":"7772371519","tag":{"amenity":"waste_disposal"}},"type":"Feature"},
	{"geometry":{"coordinates":[23.999472,49.826663],"type":"Point"},"properties":{"osm_id":"7816914269","tag":{"amenity":"waste_disposal"}},"type":"Feature"},
	{"geometry":{"coordinates":[24.002748,49.831365],"type":"Point"},"properties":{"osm_id":"7831885803","tag":{"amenity":"waste_disposal"}},"type":"Feature"},
	{"geometry":{"coordinates":[24.007526,49.831732],"type":"Point"},"properties":{"osm_id":"7839672187","tag":{"amenity":"recycling","recycling_type":"container"}},"type":"Feature"},
	{"geometry":{"coordinates":[24.036912,49.813152],"type":"Point"},"properties":{"osm_id":"7875717442","tag":{"amenity":"recycling","recycling:books":"yes","recycling:clothes":"yes","recycling:shoes":"yes","recycling_type":"container"}},"type":"Feature"},
	{"geometry":{"coordinates":[24.012776,49.811397],"type":"Point"},"properties":{"osm_id":"7892805903","tag":{"amenity":"waste_disposal"}},"type":"Feature"},
	{"geometry":{"coordinates":[24.004932,49.826999],"type":"Point"},"properties":{"osm_id":"7898522910","tag":{"amenity":"waste_basket"}},"type":"Feature"},
	{"geometry":{"coordinates":[24.004467,49.827108],"type":"Point"},"properties":{"osm_id":"7898522911","tag":{"amenity":"waste_basket"}},"type":"Feature"},
	{"geometry":{"coordinates":[24.004332,49.827192],"type":"Point"},"properties":{"osm_id":"7898522912","tag":{"amenity":"waste_basket"}},"type":"Feature"},
	{"geometry":{"coordinates":[24.004254,49.827213],"type":"Point"},"properties":{"osm_id":"7898522913","tag":{"amenity":"waste_basket"}},"type":"Feature"},
	{"geometry":{"coordinates":[24.072207,49.803061],"type":"Point"},"properties":{"osm_id":"7904925905","tag":{"access":"yes","amenity":"waste_disposal","waste":"trash;mixed;plastic"}},"type":"Feature"},
	{"geometry":{"coordinates":[24.054044,49.823702],"type":"Point"},"properties":{"osm_id":"7912550090","tag":{"amenity":"waste_disposal"}},"type":"Feature"},
	{"geometry":{"coordinates":[24.053592,49.82723],"type":"Point"},"properties":{"osm_id":"7915876818","tag":{"amenity":"waste_disposal"}},"type":"Feature"},
	{"geometry":{"coordinates":[24.018697,49.834669],"type":"Point"},"properties":{"osm_id":"7944927793","tag":{"amenity":"waste_basket"}},"type":"Feature"},
	{"geometry":{"coordinates":[24.018607,49.834988],"type":"Point"},"properties":{"osm_id":"7944940404","tag":{"amenity":"waste_basket"}},"type":"Feature"}
]
}
