{
"type": "FeatureCollection",
"lastupdate": "2020-08-06T00:00:00Z",
"features": [
	{"geometry":{"coordinates":[-43.152738,-22.951186],"type":"Point"},"properties":{"osm_id":"4524112202","tag":{"amenity":"waste_basket"}},"type":"Feature"},
	{"geometry":{"coordinates":[-43.100504,-22.935854],"type":"Point"},"properties":{"osm_id":"7481944830","tag":{"amenity":"waste_basket","collection_times":"todos os dias","operator":"Prefeitura Municipal","waste":"trash;dog_excrement;organic;mixed"}},"type":"Feature"},
	{"geometry":{"coordinates":[-43.09995,-22.935389],"type":"Point"},"properties":{"osm_id":"7533796060","tag":{"amenity":"waste_basket"}},"type":"Feature"},
	{"geometry":{"coordinates":[-43.097196,-22.93662],"type":"Point"},"properties":{"osm_id":"7541557909","tag":{"amenity":"waste_basket","collection_times":"nao tem","material":"steel","operator":"deposito irregular de lixo","waste":"mixed"}},"type":"Feature"},
	{"geometry":{"coordinates":[-43.098345,-22.937267],"type":"Point"},"properties":{"osm_id":"7541557946","tag":{"amenity":"waste_basket","operator":"deposito irregular","waste":"trash"}},"type":"Feature"},
	{"geometry":{"coordinates":[-43.099028,-22.937657],"type":"Point"},"properties":{"osm_id":"7541557947","tag":{"amenity":"waste_basket","operator":"deposito irregular"}},"type":"Feature"},
	{"geometry":{"coordinates":[-43.101497,-22.936023],"type":"Point"},"properties":{"osm_id":"7541557949","tag":{"amenity":"waste_basket","operator":"Prefeitura Municipal","waste":"mixed"}},"type":"Feature"},
	{"geometry":{"coordinates":[-43.097902,-22.933873],"type":"Point"},"properties":{"osm_id":"7542282438","tag":{"amenity":"waste_basket","collection_times":"2x na semana","operator":"Prefeitura Municipal","waste":"trash;solid_waste"}},"type":"Feature"},
	{"geometry":{"coordinates":[-43.097422,-22.933518],"type":"Point"},"properties":{"osm_id":"7542282439","tag":{"amenity":"waste_basket","collection_times":"2x na semana","operator":"Prefeitura Municipal/ CLIN","waste":"trash;solid_waste"}},"type":"Feature"}
]
}
