{
"type": "FeatureCollection",
"features": [
	{"geometry":{"coordinates":[15.911872,50.132118],"type":"Point"},"properties":{"osm_id":"5016987221","tag":{"amenity":"waste_basket"}},"type":"Feature"},
	{"geometry":{"coordinates":[15.909007,50.125304],"type":"Point"},"properties":{"osm_id":"5020193929","tag":{"amenity":"waste_basket"}},"type":"Feature"},
	{"geometry":{"coordinates":[15.910768,50.129857],"type":"Point"},"properties":{"osm_id":"5020194127","tag":{"amenity":"waste_basket"}},"type":"Feature"},
	{"geometry":{"coordinates":[15.908568,50.128757],"type":"Point"},"properties":{"name":"Sb\u00c4\u009brn\u00c3\u00bd dv\u00c5\u00afr","osm_id":"5054445445","tag":{"amenity":"recycling","opening_hours":"Po 15:00 - 17:00","operator":"B\u00c3\u00a1\u00c5\u00a1\u00c5\u00a5","recycling_type":"centre"}},"type":"Feature"},
	{"geometry":{"coordinates":[15.96419,50.166739],"type":"Point"},"properties":{"osm_id":"5540337773","tag":{"amenity":"waste_basket"}},"type":"Feature"},
	{"geometry":{"coordinates":[15.941334,50.16031],"type":"Point"},"properties":{"osm_id":"5593166334","tag":{"amenity":"waste_basket"}},"type":"Feature"},
	{"geometry":{"coordinates":[15.993862,50.174741],"type":"Point"},"properties":{"osm_id":"5595218137","tag":{"amenity":"waste_disposal"}},"type":"Feature"},
	{"geometry":{"coordinates":[15.910454,50.173949],"type":"Point"},"properties":{"osm_id":"5697180431","tag":{"amenity":"waste_basket"}},"type":"Feature"},
	{"geometry":{"coordinates":[15.913813,50.170725],"type":"Point"},"properties":{"osm_id":"5697180436","tag":{"amenity":"waste_basket"}},"type":"Feature"},
	{"geometry":{"coordinates":[15.909116,50.128589],"type":"Point"},"properties":{"osm_id":"6424239805","tag":{"amenity":"recycling","recycling:clothes":"yes","recycling:electronics":"yes","recycling:paper":"yes","recycling:plastic":"yes","recycling_type":"container"}},"type":"Feature"},
	{"geometry":{"coordinates":[15.910177,50.129204],"type":"Point"},"properties":{"osm_id":"6424239806","tag":{"amenity":"recycling","recycling:paper":"yes","recycling:plastic":"yes","recycling_type":"container"}},"type":"Feature"},
	{"geometry":{"coordinates":[15.910935,50.132041],"type":"Point"},"properties":{"osm_id":"6426432029","tag":{"amenity":"recycling","recycling:plastic":"yes","recycling_type":"container"}},"type":"Feature"},
	{"geometry":{"coordinates":[15.908433,50.123124],"type":"Point"},"properties":{"osm_id":"6426432031","tag":{"amenity":"recycling","recycling:plastic":"yes","recycling_type":"container"}},"type":"Feature"},
	{"geometry":{"coordinates":[15.920542,50.147605],"type":"Point"},"properties":{"osm_id":"6459655834","tag":{"amenity":"recycling","recycling:electrical_items":"yes","recycling:glass":"yes","recycling:paper":"yes","recycling:plastic":"yes","recycling_type":"container"}},"type":"Feature"},
	{"geometry":{"coordinates":[15.922437,50.141884],"type":"Point"},"properties":{"osm_id":"6544975748","tag":{"amenity":"recycling","recycling:paper":"yes","recycling:plastic":"yes","recycling_type":"container"}},"type":"Feature"},
	{"geometry":{"coordinates":[15.914458,50.133316],"type":"Point"},"properties":{"osm_id":"6544975753","tag":{"amenity":"recycling","recycling:plastic":"yes","recycling_type":"container"}},"type":"Feature"},
	{"geometry":{"coordinates":[15.916548,50.144769],"type":"Point"},"properties":{"osm_id":"7773887852","tag":{"amenity":"waste_basket"}},"type":"Feature"},
	{"geometry":{"coordinates":[15.916723,50.144749],"type":"Point"},"properties":{"osm_id":"7773887862","tag":{"amenity":"waste_basket"}},"type":"Feature"}
]
}
