{
"type": "FeatureCollection",
"features": [
	{"geometry":{"coordinates":[15.965019,49.582217],"type":"Point"},"properties":{"osm_id":"1663154395","tag":{"amenity":"recycling","recycling:glass":"yes","recycling:paper":"yes","recycling:plastic":"yes"}},"type":"Feature"},
	{"geometry":{"coordinates":[15.937349,49.559164],"type":"Point"},"properties":{"osm_id":"4250056192","tag":{"amenity":"recycling","recycling:glass":"yes","recycling:paper":"yes","recycling:plastic":"yes","recycling_type":"container"}},"type":"Feature"},
	{"geometry":{"coordinates":[15.941138,49.580061],"type":"Point"},"properties":{"osm_id":"4333443795","tag":{"amenity":"waste_basket"}},"type":"Feature"},
	{"geometry":{"coordinates":[15.920999,49.590537],"type":"Point"},"properties":{"osm_id":"4347083391","tag":{"amenity":"waste_basket"}},"type":"Feature"},
	{"geometry":{"coordinates":[15.935464,49.560603],"type":"Point"},"properties":{"osm_id":"4366391103","tag":{"amenity":"waste_basket"}},"type":"Feature"},
	{"geometry":{"coordinates":[15.936396,49.579959],"type":"Point"},"properties":{"osm_id":"4984189546","tag":{"amenity":"recycling","recycling:beverage_cartons":"yes","recycling:glass":"yes","recycling:glass_bottles":"yes","recycling:newspaper":"yes","recycling:paper":"yes","recycling:plastic":"yes","recycling:plastic_bottles":"yes","recycling_type":"container"}},"type":"Feature"},
	{"geometry":{"coordinates":[15.936485,49.578267],"type":"Point"},"properties":{"osm_id":"4984193061","tag":{"amenity":"recycling","recycling_type":"container"}},"type":"Feature"},
	{"geometry":{"coordinates":[15.941411,49.56308],"type":"Point"},"properties":{"osm_id":"4990553120","tag":{"amenity":"recycling","recycling_type":"container"}},"type":"Feature"},
	{"geometry":{"coordinates":[15.940086,49.558873],"type":"Point"},"properties":{"osm_id":"4992338492","tag":{"amenity":"recycling","recycling_type":"container"}},"type":"Feature"},
	{"geometry":{"coordinates":[15.935448,49.560532],"type":"Point"},"properties":{"osm_id":"4992466849","tag":{"amenity":"recycling","recycling_type":"container"}},"type":"Feature"},
	{"geometry":{"coordinates":[15.942046,49.556903],"type":"Point"},"properties":{"osm_id":"4992489855","tag":{"amenity":"recycling","recycling_type":"container"}},"type":"Feature"},
	{"geometry":{"coordinates":[15.942892,49.555178],"type":"Point"},"properties":{"osm_id":"4992536622","tag":{"amenity":"recycling","recycling_type":"container"}},"type":"Feature"},
	{"geometry":{"coordinates":[15.941958,49.55813],"type":"Point"},"properties":{"osm_id":"4992547139","tag":{"amenity":"recycling","recycling_type":"container"}},"type":"Feature"},
	{"geometry":{"coordinates":[15.941796,49.558123],"type":"Point"},"properties":{"osm_id":"4992547150","tag":{"amenity":"waste_disposal"}},"type":"Feature"},
	{"geometry":{"coordinates":[15.933258,49.55886],"type":"Point"},"properties":{"osm_id":"4995404516","tag":{"amenity":"recycling","recycling:glass":"yes","recycling:paper":"yes","recycling:plastic":"yes","recycling_type":"container"}},"type":"Feature"},
	{"geometry":{"coordinates":[15.938088,49.556855],"type":"Point"},"properties":{"osm_id":"4995769271","tag":{"amenity":"recycling","recycling_type":"container"}},"type":"Feature"},
	{"geometry":{"coordinates":[15.930998,49.567359],"type":"Point"},"properties":{"osm_id":"4996781876","tag":{"amenity":"recycling","recycling:cans":"yes","recycling:electrical_appliances":"yes","recycling:glass":"yes","recycling:paper":"yes","recycling:plastic":"yes","recycling:scrap_metal":"yes","recycling_type":"container"}},"type":"Feature"},
	{"geometry":{"coordinates":[15.931739,49.564057],"type":"Point"},"properties":{"osm_id":"4996812384","tag":{"amenity":"recycling","recycling_type":"container"}},"type":"Feature"},
	{"geometry":{"coordinates":[15.929861,49.562787],"type":"Point"},"properties":{"osm_id":"4996823985","tag":{"amenity":"recycling","recycling_type":"container"}},"type":"Feature"},
	{"geometry":{"coordinates":[15.927999,49.56383],"type":"Point"},"properties":{"osm_id":"4996825876","tag":{"amenity":"recycling","recycling:glass":"yes","recycling:paper":"yes","recycling:plastic":"yes","recycling_type":"container"}},"type":"Feature"},
	{"geometry":{"coordinates":[15.926807,49.564787],"type":"Point"},"properties":{"osm_id":"4998436739","tag":{"amenity":"recycling","recycling_type":"container"}},"type":"Feature"},
	{"geometry":{"coordinates":[15.92647,49.566652],"type":"Point"},"properties":{"osm_id":"4998461839","tag":{"amenity":"recycling","recycling_type":"container"}},"type":"Feature"},
	{"geometry":{"coordinates":[15.927694,49.56674],"type":"Point"},"properties":{"osm_id":"4998473232","tag":{"amenity":"recycling","recycling_type":"container"}},"type":"Feature"},
	{"geometry":{"coordinates":[15.929319,49.566714],"type":"Point"},"properties":{"osm_id":"4998506605","tag":{"amenity":"recycling","recycling_type":"container"}},"type":"Feature"},
	{"geometry":{"coordinates":[15.932849,49.563102],"type":"Point"},"properties":{"osm_id":"4998533589","tag":{"amenity":"recycling","recycling_type":"container"}},"type":"Feature"},
	{"geometry":{"coordinates":[15.935896,49.565175],"type":"Point"},"properties":{"osm_id":"4998722779","tag":{"amenity":"recycling","recycling_type":"container"}},"type":"Feature"},
	{"geometry":{"coordinates":[15.932249,49.566173],"type":"Point"},"properties":{"osm_id":"4998727333","tag":{"amenity":"recycling","recycling:plastic":"yes","recycling_type":"container"}},"type":"Feature"},
	{"geometry":{"coordinates":[15.93397,49.566497],"type":"Point"},"properties":{"osm_id":"4998727699","tag":{"amenity":"recycling","recycling_type":"container"}},"type":"Feature"},
	{"geometry":{"coordinates":[15.93816,49.562156],"type":"Point"},"properties":{"osm_id":"4998730231","tag":{"amenity":"recycling","recycling_type":"container"}},"type":"Feature"},
	{"geometry":{"coordinates":[15.931041,49.56924],"type":"Point"},"properties":{"osm_id":"4998735651","tag":{"amenity":"recycling","recycling_type":"container"}},"type":"Feature"},
	{"geometry":{"coordinates":[15.93263,49.567173],"type":"Point"},"properties":{"osm_id":"4998741432","tag":{"amenity":"recycling","recycling_type":"container"}},"type":"Feature"},
	{"geometry":{"coordinates":[15.938594,49.568569],"type":"Point"},"properties":{"osm_id":"4999768370","tag":{"amenity":"recycling","recycling_type":"container"}},"type":"Feature"},
	{"geometry":{"coordinates":[15.940718,49.567515],"type":"Point"},"properties":{"osm_id":"4999827154","tag":{"amenity":"waste_disposal"}},"type":"Feature"},
	{"geometry":{"coordinates":[15.94067,49.56801],"type":"Point"},"properties":{"osm_id":"4999834477","tag":{"amenity":"recycling","recycling_type":"container"}},"type":"Feature"},
	{"geometry":{"coordinates":[15.940751,49.567561],"type":"Point"},"properties":{"osm_id":"4999837934","tag":{"amenity":"recycling","recycling_type":"container"}},"type":"Feature"},
	{"geometry":{"coordinates":[15.946726,49.570768],"type":"Point"},"properties":{"osm_id":"5000064728","tag":{"amenity":"recycling","recycling_type":"container"}},"type":"Feature"},
	{"geometry":{"coordinates":[15.948945,49.565351],"type":"Point"},"properties":{"osm_id":"5001116651","tag":{"amenity":"recycling","recycling_type":"container"}},"type":"Feature"},
	{"geometry":{"coordinates":[15.949928,49.566187],"type":"Point"},"properties":{"osm_id":"5001119222","tag":{"amenity":"waste_disposal"}},"type":"Feature"},
	{"geometry":{"coordinates":[15.948934,49.569373],"type":"Point"},"properties":{"osm_id":"5001124337","tag":{"amenity":"recycling","recycling_type":"container"}},"type":"Feature"},
	{"geometry":{"coordinates":[15.946835,49.562939],"type":"Point"},"properties":{"osm_id":"5001131476","tag":{"amenity":"recycling","recycling_type":"container"}},"type":"Feature"},
	{"geometry":{"coordinates":[15.948618,49.563042],"type":"Point"},"properties":{"osm_id":"5001131786","tag":{"amenity":"recycling","recycling_type":"container"}},"type":"Feature"},
	{"geometry":{"coordinates":[15.951124,49.564898],"type":"Point"},"properties":{"osm_id":"5001134984","tag":{"amenity":"recycling","recycling_type":"container"}},"type":"Feature"},
	{"geometry":{"coordinates":[15.953585,49.564193],"type":"Point"},"properties":{"osm_id":"5001157286","tag":{"amenity":"recycling","recycling_type":"container"}},"type":"Feature"},
	{"geometry":{"coordinates":[15.953174,49.562126],"type":"Point"},"properties":{"osm_id":"5001158087","tag":{"amenity":"recycling","recycling_type":"container"}},"type":"Feature"},
	{"geometry":{"coordinates":[15.94058,49.566134],"type":"Point"},"properties":{"osm_id":"5001193145","tag":{"amenity":"recycling","recycling_type":"container"}},"type":"Feature"},
	{"geometry":{"coordinates":[15.942993,49.564931],"type":"Point"},"properties":{"osm_id":"5001194723","tag":{"amenity":"waste_disposal"}},"type":"Feature"},
	{"geometry":{"coordinates":[15.943216,49.564463],"type":"Point"},"properties":{"osm_id":"5001194960","tag":{"amenity":"waste_disposal"}},"type":"Feature"},
	{"geometry":{"coordinates":[15.942515,49.564391],"type":"Point"},"properties":{"osm_id":"5001194961","tag":{"amenity":"recycling","recycling_type":"container"}},"type":"Feature"},
	{"geometry":{"coordinates":[15.941915,49.563132],"type":"Point"},"properties":{"osm_id":"5001225241","tag":{"amenity":"waste_disposal"}},"type":"Feature"},
	{"geometry":{"coordinates":[15.941657,49.572763],"type":"Point"},"properties":{"osm_id":"5002928060","tag":{"amenity":"recycling","recycling:glass":"yes","recycling:paper":"yes","recycling:plastic":"yes","recycling_type":"container"}},"type":"Feature"},
	{"geometry":{"coordinates":[15.945193,49.572996],"type":"Point"},"properties":{"osm_id":"5002929182","tag":{"amenity":"recycling","recycling_type":"container"}},"type":"Feature"},
	{"geometry":{"coordinates":[15.945657,49.572562],"type":"Point"},"properties":{"osm_id":"5002930916","tag":{"amenity":"waste_disposal"}},"type":"Feature"},
	{"geometry":{"coordinates":[15.943462,49.574877],"type":"Point"},"properties":{"osm_id":"5002931982","tag":{"amenity":"recycling","recycling_type":"container"}},"type":"Feature"},
	{"geometry":{"coordinates":[15.94273,49.576517],"type":"Point"},"properties":{"osm_id":"5002939183","tag":{"amenity":"recycling","recycling_type":"container"}},"type":"Feature"},
	{"geometry":{"coordinates":[15.943369,49.573245],"type":"Point"},"properties":{"osm_id":"5002962810","tag":{"amenity":"recycling","recycling_type":"container"}},"type":"Feature"},
	{"geometry":{"coordinates":[15.950871,49.571898],"type":"Point"},"properties":{"osm_id":"5002973914","tag":{"amenity":"recycling","recycling_type":"container"}},"type":"Feature"},
	{"geometry":{"coordinates":[15.949405,49.572087],"type":"Point"},"properties":{"osm_id":"5002980394","tag":{"amenity":"recycling","recycling_type":"container"}},"type":"Feature"},
	{"geometry":{"coordinates":[15.940544,49.567023],"type":"Point"},"properties":{"osm_id":"5003002193","tag":{"amenity":"recycling","recycling_type":"container"}},"type":"Feature"},
	{"geometry":{"coordinates":[15.940497,49.567029],"type":"Point"},"properties":{"osm_id":"5003002529","tag":{"amenity":"waste_disposal"}},"type":"Feature"},
	{"geometry":{"coordinates":[15.940327,49.567061],"type":"Point"},"properties":{"osm_id":"5003002590","tag":{"amenity":"waste_disposal"}},"type":"Feature"},
	{"geometry":{"coordinates":[15.940299,49.567024],"type":"Point"},"properties":{"osm_id":"5003002805","tag":{"amenity":"waste_disposal"}},"type":"Feature"},
	{"geometry":{"coordinates":[15.938114,49.577223],"type":"Point"},"properties":{"osm_id":"5003289335","tag":{"amenity":"recycling","recycling:batteries":"yes","recycling:beverage_cartons":"yes","recycling:glass":"yes","recycling:glass_bottles":"yes","recycling:paper":"yes","recycling:plastic":"yes","recycling:plastic_bottles":"yes","recycling:plastic_packaging":"yes","recycling_type":"container"}},"type":"Feature"},
	{"geometry":{"coordinates":[15.943409,49.553915],"type":"Point"},"properties":{"osm_id":"5058074013","tag":{"amenity":"recycling","recycling_type":"container"}},"type":"Feature"},
	{"geometry":{"coordinates":[15.942248,49.567781],"type":"Point"},"properties":{"osm_id":"5223430998","tag":{"amenity":"waste_disposal"}},"type":"Feature"},
	{"geometry":{"coordinates":[15.94169,49.568138],"type":"Point"},"properties":{"osm_id":"5223430999","tag":{"amenity":"waste_disposal"}},"type":"Feature"},
	{"geometry":{"coordinates":[15.941587,49.568091],"type":"Point"},"properties":{"osm_id":"5223431000","tag":{"amenity":"recycling","recycling_type":"container"}},"type":"Feature"},
	{"geometry":{"coordinates":[15.94164,49.568273],"type":"Point"},"properties":{"osm_id":"5223431001","tag":{"amenity":"waste_disposal"}},"type":"Feature"},
	{"geometry":{"coordinates":[15.940981,49.567815],"type":"Point"},"properties":{"osm_id":"5223431002","tag":{"amenity":"waste_disposal"}},"type":"Feature"},
	{"geometry":{"coordinates":[15.921614,49.60555],"type":"Point"},"properties":{"osm_id":"5994233300","tag":{"amenity":"recycling"}},"type":"Feature"},
	{"geometry":{"coordinates":[15.931277,49.565728],"type":"Point"},"properties":{"osm_id":"6816609757","tag":{"amenity":"recycling","recycling:glass":"yes","recycling:organic":"yes","recycling:paper":"yes","recycling:plastic":"yes","recycling_type":"container"}},"type":"Feature"},
	{"geometry":{"coordinates":[15.952771,49.565743],"type":"Point"},"properties":{"osm_id":"6934738602","tag":{"amenity":"recycling","recycling_type":"container"}},"type":"Feature"}
]
}
