{
"type": "FeatureCollection",
"features": [
	{"geometry":{"coordinates":[15.925661,48.994298],"type":"Point"},"properties":{"osm_id":"8750961537","tag":{"amenity":"recycling","recycling_type":"container"}},"type":"Feature"},
	{"geometry":{"coordinates":[15.979218,49.028074],"type":"Point"},"properties":{"osm_id":"8805290841","tag":{"amenity":"recycling","recycling_type":"container"}},"type":"Feature"},
	{"geometry":{"coordinates":[15.99195,48.988208],"type":"Point"},"properties":{"name":"Sb\u00c4\u009brn\u00c3\u00bd dv\u00c5\u00afr Jevi\u00c5\u00a1ovice","osm_id":"8983825972","tag":{"amenity":"recycling","email":"tomas.navratil@fcc-group.cz","opening_hours":"Tu,Fr 14:00-18:00; Sa 08:00-13:00","operator":"FCC Znojmo, s.r.o.","phone":"+420 515 242 652","recycling_type":"centre","website":"https://www.fcc-group.eu/cs/ceska-republika/sluzby/sberne-dvory/jizni-morava/sd-primetice.html"}},"type":"Feature"},
	{"geometry":{"coordinates":[15.992221,48.989042],"type":"Point"},"properties":{"osm_id":"9063520018","tag":{"amenity":"waste_basket"}},"type":"Feature"}
]
}
