{
"type": "FeatureCollection",
"features": [
	{"geometry":{"coordinates":[15.992686,45.781799],"type":"Point"},"properties":{"osm_id":"421410469","tag":{"amenity":"recycling","recycling:glass_bottles":"yes","recycling:paper":"yes","recycling:plastic":"yes"}},"type":"Feature"},
	{"geometry":{"coordinates":[15.93232,45.778615],"type":"Point"},"properties":{"osm_id":"502206706","tag":{"amenity":"waste_basket"}},"type":"Feature"},
	{"geometry":{"coordinates":[15.932901,45.778366],"type":"Point"},"properties":{"osm_id":"502206709","tag":{"amenity":"waste_basket"}},"type":"Feature"},
	{"geometry":{"coordinates":[15.910883,45.781007],"type":"Point"},"properties":{"osm_id":"502264354","tag":{"amenity":"waste_disposal","waste":"trash"}},"type":"Feature"},
	{"geometry":{"coordinates":[15.913452,45.779669],"type":"Point"},"properties":{"osm_id":"502264355","tag":{"amenity":"waste_basket"}},"type":"Feature"},
	{"geometry":{"coordinates":[15.932285,45.776415],"type":"Point"},"properties":{"osm_id":"502284809","tag":{"amenity":"waste_basket"}},"type":"Feature"},
	{"geometry":{"coordinates":[15.929509,45.777696],"type":"Point"},"properties":{"osm_id":"502284811","tag":{"amenity":"waste_basket"}},"type":"Feature"},
	{"geometry":{"coordinates":[15.927786,45.778597],"type":"Point"},"properties":{"osm_id":"502284821","tag":{"amenity":"waste_basket"}},"type":"Feature"},
	{"geometry":{"coordinates":[15.922988,45.780747],"type":"Point"},"properties":{"osm_id":"502284866","tag":{"amenity":"waste_basket"}},"type":"Feature"},
	{"geometry":{"coordinates":[15.925932,45.779567],"type":"Point"},"properties":{"osm_id":"502284869","tag":{"amenity":"waste_basket"}},"type":"Feature"},
	{"geometry":{"coordinates":[15.916843,45.777656],"type":"Point"},"properties":{"osm_id":"502314403","tag":{"amenity":"waste_basket"}},"type":"Feature"},
	{"geometry":{"coordinates":[15.975751,45.797514],"type":"Point"},"properties":{"osm_id":"507683386","tag":{"amenity":"recycling","recycling:paper":"yes"}},"type":"Feature"},
	{"geometry":{"coordinates":[15.974953,45.794868],"type":"Point"},"properties":{"osm_id":"507683399","tag":{"amenity":"waste_disposal","waste":"trash"}},"type":"Feature"},
	{"geometry":{"coordinates":[15.976452,45.790638],"type":"Point"},"properties":{"osm_id":"507683415","tag":{"amenity":"waste_basket"}},"type":"Feature"},
	{"geometry":{"coordinates":[15.972426,45.790395],"type":"Point"},"properties":{"osm_id":"507683418","tag":{"amenity":"waste_basket"}},"type":"Feature"},
	{"geometry":{"coordinates":[15.964965,45.78912],"type":"Point"},"properties":{"osm_id":"507683423","tag":{"amenity":"waste_basket"}},"type":"Feature"},
	{"geometry":{"coordinates":[15.959542,45.787734],"type":"Point"},"properties":{"osm_id":"507683426","tag":{"amenity":"waste_basket"}},"type":"Feature"},
	{"geometry":{"coordinates":[15.932563,45.781178],"type":"Point"},"properties":{"osm_id":"507878841","tag":{"amenity":"waste_disposal","waste":"trash"}},"type":"Feature"},
	{"geometry":{"coordinates":[15.932545,45.781173],"type":"Point"},"properties":{"osm_id":"507878845","tag":{"amenity":"recycling","recycling:glass_bottles":"yes","recycling:paper":"yes"}},"type":"Feature"},
	{"geometry":{"coordinates":[15.926728,45.781114],"type":"Point"},"properties":{"osm_id":"507878875","tag":{"amenity":"waste_basket"}},"type":"Feature"},
	{"geometry":{"coordinates":[15.922405,45.783041],"type":"Point"},"properties":{"osm_id":"507878912","tag":{"amenity":"waste_basket"}},"type":"Feature"},
	{"geometry":{"coordinates":[15.918889,45.784614],"type":"Point"},"properties":{"osm_id":"507878928","tag":{"amenity":"waste_basket"}},"type":"Feature"},
	{"geometry":{"coordinates":[15.913693,45.786945],"type":"Point"},"properties":{"osm_id":"507878953","tag":{"amenity":"waste_basket"}},"type":"Feature"},
	{"geometry":{"coordinates":[15.95813,45.78738],"type":"Point"},"properties":{"osm_id":"533972054","tag":{"amenity":"waste_basket"}},"type":"Feature"},
	{"geometry":{"coordinates":[15.974927,45.794803],"type":"Point"},"properties":{"osm_id":"533987978","tag":{"amenity":"recycling","recycling:glass_bottles":"yes"}},"type":"Feature"},
	{"geometry":{"coordinates":[15.951243,45.790888],"type":"Point"},"properties":{"osm_id":"549521592","tag":{"amenity":"recycling","recycling:paper":"yes"}},"type":"Feature"},
	{"geometry":{"coordinates":[15.953149,45.790962],"type":"Point"},"properties":{"osm_id":"549521628","tag":{"amenity":"recycling","recycling:glass_bottles":"yes"}},"type":"Feature"},
	{"geometry":{"coordinates":[15.953149,45.790953],"type":"Point"},"properties":{"osm_id":"549521630","tag":{"amenity":"waste_disposal","waste":"trash"}},"type":"Feature"},
	{"geometry":{"coordinates":[15.955149,45.7889],"type":"Point"},"properties":{"osm_id":"549521651","tag":{"amenity":"waste_basket"}},"type":"Feature"},
	{"geometry":{"coordinates":[15.955078,45.792325],"type":"Point"},"properties":{"osm_id":"549521705","tag":{"amenity":"recycling","recycling:paper":"yes"}},"type":"Feature"},
	{"geometry":{"coordinates":[15.967983,45.793847],"type":"Point"},"properties":{"osm_id":"549521715","tag":{"amenity":"recycling","recycling:glass":"yes","recycling:paper":"yes"}},"type":"Feature"},
	{"geometry":{"coordinates":[15.967986,45.79381],"type":"Point"},"properties":{"osm_id":"549521717","tag":{"amenity":"waste_disposal","waste":"trash"}},"type":"Feature"},
	{"geometry":{"coordinates":[15.968883,45.792516],"type":"Point"},"properties":{"osm_id":"549521740","tag":{"amenity":"recycling","recycling:paper":"yes"}},"type":"Feature"},
	{"geometry":{"coordinates":[15.976621,45.791289],"type":"Point"},"properties":{"osm_id":"549521778","tag":{"amenity":"recycling","recycling:glass_bottles":"yes"}},"type":"Feature"},
	{"geometry":{"coordinates":[15.976655,45.791274],"type":"Point"},"properties":{"osm_id":"549521780","tag":{"amenity":"waste_disposal","waste":"trash"}},"type":"Feature"},
	{"geometry":{"coordinates":[15.97826,45.795029],"type":"Point"},"properties":{"osm_id":"549521823","tag":{"amenity":"waste_basket"}},"type":"Feature"},
	{"geometry":{"coordinates":[15.929586,45.793163],"type":"Point"},"properties":{"osm_id":"552731303","tag":{"amenity":"recycling","recycling:glass":"yes","recycling:paper":"yes","recycling_type":"container"}},"type":"Feature"},
	{"geometry":{"coordinates":[15.993477,45.780948],"type":"Point"},"properties":{"osm_id":"561327913","tag":{"amenity":"recycling"}},"type":"Feature"},
	{"geometry":{"coordinates":[15.995474,45.778767],"type":"Point"},"properties":{"osm_id":"564681877","tag":{"amenity":"recycling"}},"type":"Feature"},
	{"geometry":{"coordinates":[15.994037,45.78206],"type":"Point"},"properties":{"osm_id":"564889020","tag":{"amenity":"recycling"}},"type":"Feature"},
	{"geometry":{"coordinates":[15.995656,45.778731],"type":"Point"},"properties":{"osm_id":"565064553","tag":{"amenity":"recycling"}},"type":"Feature"},
	{"geometry":{"coordinates":[15.926611,45.784297],"type":"Point"},"properties":{"name":"paper recycling bin","osm_id":"575192111","tag":{"amenity":"recycling"}},"type":"Feature"},
	{"geometry":{"coordinates":[15.91785,45.793778],"type":"Point"},"properties":{"osm_id":"606913733","tag":{"amenity":"recycling","recycling:cans":"yes","recycling:paper":"yes","recycling_type":"container"}},"type":"Feature"},
	{"geometry":{"coordinates":[15.969921,45.7969],"type":"Point"},"properties":{"osm_id":"703149774","tag":{"amenity":"recycling","recycling:paper":"yes"}},"type":"Feature"},
	{"geometry":{"coordinates":[15.969151,45.796597],"type":"Point"},"properties":{"osm_id":"703149775","tag":{"amenity":"recycling","recycling:paper":"yes","recycling_type":"container"}},"type":"Feature"},
	{"geometry":{"coordinates":[15.949747,45.794492],"type":"Point"},"properties":{"osm_id":"799248620","tag":{"amenity":"waste_basket"}},"type":"Feature"},
	{"geometry":{"coordinates":[15.948265,45.79442],"type":"Point"},"properties":{"osm_id":"799248625","tag":{"amenity":"waste_basket"}},"type":"Feature"},
	{"geometry":{"coordinates":[15.919026,45.791939],"type":"Point"},"properties":{"osm_id":"799272451","tag":{"amenity":"waste_basket"}},"type":"Feature"},
	{"geometry":{"coordinates":[15.919909,45.784156],"type":"Point"},"properties":{"osm_id":"799272471","tag":{"amenity":"waste_basket"}},"type":"Feature"},
	{"geometry":{"coordinates":[15.917439,45.785553],"type":"Point"},"properties":{"osm_id":"799272473","tag":{"amenity":"waste_basket"}},"type":"Feature"},
	{"geometry":{"coordinates":[15.919359,45.78779],"type":"Point"},"properties":{"osm_id":"799272475","tag":{"amenity":"waste_basket"}},"type":"Feature"},
	{"geometry":{"coordinates":[15.918676,45.787135],"type":"Point"},"properties":{"osm_id":"799272479","tag":{"amenity":"waste_basket"}},"type":"Feature"},
	{"geometry":{"coordinates":[15.918561,45.792132],"type":"Point"},"properties":{"osm_id":"799272488","tag":{"amenity":"waste_basket"}},"type":"Feature"},
	{"geometry":{"coordinates":[15.918446,45.792413],"type":"Point"},"properties":{"osm_id":"799272490","tag":{"amenity":"recycling","location":"overground","recycling:paper":"yes","recycling_type":"container"}},"type":"Feature"},
	{"geometry":{"coordinates":[15.920539,45.789286],"type":"Point"},"properties":{"osm_id":"799272501","tag":{"amenity":"waste_basket"}},"type":"Feature"},
	{"geometry":{"coordinates":[15.917936,45.785035],"type":"Point"},"properties":{"osm_id":"799272515","tag":{"amenity":"waste_basket"}},"type":"Feature"},
	{"geometry":{"coordinates":[15.919768,45.79076],"type":"Point"},"properties":{"osm_id":"802594554","tag":{"amenity":"waste_disposal"}},"type":"Feature"},
	{"geometry":{"coordinates":[15.9201,45.790144],"type":"Point"},"properties":{"osm_id":"802594561","tag":{"amenity":"waste_basket"}},"type":"Feature"},
	{"geometry":{"coordinates":[15.919794,45.790684],"type":"Point"},"properties":{"osm_id":"802594628","tag":{"amenity":"waste_disposal"}},"type":"Feature"},
	{"geometry":{"coordinates":[15.918413,45.793016],"type":"Point"},"properties":{"osm_id":"802594634","tag":{"amenity":"waste_disposal"}},"type":"Feature"},
	{"geometry":{"coordinates":[15.918407,45.792965],"type":"Point"},"properties":{"osm_id":"802594682","tag":{"amenity":"recycling","location":"overground","recycling:paper":"yes","recycling_type":"container"}},"type":"Feature"},
	{"geometry":{"coordinates":[15.919804,45.790667],"type":"Point"},"properties":{"osm_id":"802594783","tag":{"amenity":"recycling","location":"overground","recycling:paper":"yes","recycling_type":"container"}},"type":"Feature"},
	{"geometry":{"coordinates":[15.978302,45.797365],"type":"Point"},"properties":{"osm_id":"812212759","tag":{"amenity":"waste_basket"}},"type":"Feature"},
	{"geometry":{"coordinates":[15.978183,45.796646],"type":"Point"},"properties":{"osm_id":"812212797","tag":{"amenity":"waste_basket"}},"type":"Feature"},
	{"geometry":{"coordinates":[15.919061,45.794004],"type":"Point"},"properties":{"osm_id":"823742448","tag":{"amenity":"recycling","recycling:paper":"yes"}},"type":"Feature"},
	{"geometry":{"coordinates":[15.994039,45.803012],"type":"Point"},"properties":{"osm_id":"913642592","tag":{"amenity":"recycling","recycling:glass":"yes","recycling:paper":"yes","recycling_type":"container"}},"type":"Feature"},
	{"geometry":{"coordinates":[15.918765,45.782861],"type":"Point"},"properties":{"osm_id":"935841136","tag":{"amenity":"waste_basket"}},"type":"Feature"},
	{"geometry":{"coordinates":[15.991118,45.82171],"type":"Point"},"properties":{"osm_id":"936358675","tag":{"amenity":"recycling","recycling:cans":"yes","recycling:glass":"yes","recycling:paper":"yes"}},"type":"Feature"},
	{"geometry":{"coordinates":[15.993229,45.820463],"type":"Point"},"properties":{"osm_id":"936358748","tag":{"amenity":"recycling","recycling:glass":"yes"}},"type":"Feature"},
	{"geometry":{"coordinates":[15.927068,45.793311],"type":"Point"},"properties":{"osm_id":"1130870524","tag":{"amenity":"recycling","recycling:clothes":"yes","recycling:glass":"yes","recycling:paper":"yes","recycling:plastic":"yes","recycling_type":"container"}},"type":"Feature"},
	{"geometry":{"coordinates":[15.934078,45.795171],"type":"Point"},"properties":{"osm_id":"1153383552","tag":{"amenity":"recycling","recycling:paper":"yes"}},"type":"Feature"},
	{"geometry":{"coordinates":[15.973804,45.795845],"type":"Point"},"properties":{"osm_id":"1185181440","tag":{"amenity":"recycling","recycling:paper":"yes"}},"type":"Feature"},
	{"geometry":{"coordinates":[15.976238,45.795932],"type":"Point"},"properties":{"osm_id":"1185181444","tag":{"amenity":"waste_basket"}},"type":"Feature"},
	{"geometry":{"coordinates":[15.967972,45.791592],"type":"Point"},"properties":{"osm_id":"1195428236","tag":{"amenity":"recycling","recycling:glass":"yes","recycling:paper":"yes"}},"type":"Feature"},
	{"geometry":{"coordinates":[15.919184,45.794497],"type":"Point"},"properties":{"osm_id":"1362106207","tag":{"amenity":"waste_basket"}},"type":"Feature"},
	{"geometry":{"coordinates":[15.921936,45.795291],"type":"Point"},"properties":{"osm_id":"1362106210","tag":{"amenity":"waste_basket"}},"type":"Feature"},
	{"geometry":{"coordinates":[15.919758,45.796017],"type":"Point"},"properties":{"osm_id":"1362106218","tag":{"amenity":"recycling","location":"overground","recycling:paper":"yes","recycling_type":"container"}},"type":"Feature"},
	{"geometry":{"coordinates":[15.920042,45.797361],"type":"Point"},"properties":{"osm_id":"1362106236","tag":{"amenity":"recycling","recycling:glass":"yes","recycling:paper":"yes"}},"type":"Feature"},
	{"geometry":{"coordinates":[15.957025,45.798019],"type":"Point"},"properties":{"osm_id":"1410042645","tag":{"amenity":"recycling","recycling:paper":"yes","recycling_type":"container"}},"type":"Feature"},
	{"geometry":{"coordinates":[15.955917,45.798337],"type":"Point"},"properties":{"osm_id":"1410042668","tag":{"amenity":"waste_basket"}},"type":"Feature"},
	{"geometry":{"coordinates":[15.965884,45.769497],"type":"Point"},"properties":{"osm_id":"1511573694","tag":{"amenity":"recycling","recycling:glass":"yes","recycling_type":"container"}},"type":"Feature"},
	{"geometry":{"coordinates":[15.96567,45.769779],"type":"Point"},"properties":{"osm_id":"1511573763","tag":{"amenity":"waste_basket"}},"type":"Feature"},
	{"geometry":{"coordinates":[15.965587,45.770765],"type":"Point"},"properties":{"osm_id":"1511573834","tag":{"amenity":"recycling","recycling:cans":"yes","recycling_type":"container"}},"type":"Feature"},
	{"geometry":{"coordinates":[15.965585,45.770793],"type":"Point"},"properties":{"osm_id":"1511573835","tag":{"amenity":"recycling","recycling:paper":"yes","recycling_type":"container"}},"type":"Feature"},
	{"geometry":{"coordinates":[15.965394,45.774633],"type":"Point"},"properties":{"osm_id":"1513962073","tag":{"amenity":"recycling","recycling:paper":"yes","recycling_type":"container"}},"type":"Feature"},
	{"geometry":{"coordinates":[15.965356,45.775049],"type":"Point"},"properties":{"osm_id":"1514103739","tag":{"amenity":"recycling","recycling:cans":"yes","recycling:glass":"no","recycling:paper":"no","recycling_type":"container"}},"type":"Feature"},
	{"geometry":{"coordinates":[15.965353,45.775073],"type":"Point"},"properties":{"osm_id":"1514103741","tag":{"amenity":"recycling","recycling:glass":"yes","recycling_type":"container"}},"type":"Feature"},
	{"geometry":{"coordinates":[15.965348,45.775103],"type":"Point"},"properties":{"osm_id":"1514103743","tag":{"amenity":"recycling","recycling:paper":"yes","recycling_type":"container"}},"type":"Feature"},
	{"geometry":{"coordinates":[15.965371,45.776629],"type":"Point"},"properties":{"osm_id":"1514103745","tag":{"amenity":"recycling","recycling:paper":"yes","recycling_type":"container"}},"type":"Feature"},
	{"geometry":{"coordinates":[15.964161,45.810598],"type":"Point"},"properties":{"osm_id":"1561652136","tag":{"amenity":"recycling","location":"overground","recycling:glass":"yes","recycling:paper":"yes","recycling_type":"container"}},"type":"Feature"},
	{"geometry":{"coordinates":[15.969443,45.80725],"type":"Point"},"properties":{"osm_id":"1577085120","tag":{"amenity":"recycling","location":"overground","recycling:paper":"yes","recycling_type":"container"}},"type":"Feature"},
	{"geometry":{"coordinates":[15.963594,45.807798],"type":"Point"},"properties":{"osm_id":"1577085121","tag":{"amenity":"recycling","recycling:glass":"yes"}},"type":"Feature"},
	{"geometry":{"coordinates":[15.935924,45.794122],"type":"Point"},"properties":{"osm_id":"1585806307","tag":{"amenity":"waste_basket"}},"type":"Feature"},
	{"geometry":{"coordinates":[15.960394,45.796894],"type":"Point"},"properties":{"osm_id":"1585806491","tag":{"amenity":"waste_basket"}},"type":"Feature"},
	{"geometry":{"coordinates":[15.957584,45.797925],"type":"Point"},"properties":{"osm_id":"1585806554","tag":{"amenity":"waste_basket"}},"type":"Feature"},
	{"geometry":{"coordinates":[15.955704,45.798649],"type":"Point"},"properties":{"osm_id":"1585806660","tag":{"amenity":"waste_basket"}},"type":"Feature"},
	{"geometry":{"coordinates":[15.921329,45.791004],"type":"Point"},"properties":{"osm_id":"1587395155","tag":{"amenity":"waste_basket"}},"type":"Feature"},
	{"geometry":{"coordinates":[15.922322,45.793728],"type":"Point"},"properties":{"osm_id":"1587395235","tag":{"amenity":"waste_basket"}},"type":"Feature"},
	{"geometry":{"coordinates":[15.922671,45.794622],"type":"Point"},"properties":{"osm_id":"1587395356","tag":{"amenity":"waste_basket"}},"type":"Feature"},
	{"geometry":{"coordinates":[15.974956,45.795916],"type":"Point"},"properties":{"osm_id":"1588309258","tag":{"amenity":"recycling","recycling:glass":"yes","recycling:paper":"yes"}},"type":"Feature"},
	{"geometry":{"coordinates":[15.986285,45.810006],"type":"Point"},"properties":{"osm_id":"1591324125","tag":{"amenity":"recycling"}},"type":"Feature"},
	{"geometry":{"coordinates":[15.959537,45.790322],"type":"Point"},"properties":{"osm_id":"1670302196","tag":{"amenity":"waste_basket"}},"type":"Feature"},
	{"geometry":{"coordinates":[15.958725,45.790436],"type":"Point"},"properties":{"osm_id":"1670302206","tag":{"amenity":"waste_basket"}},"type":"Feature"},
	{"geometry":{"coordinates":[15.91406,45.79062],"type":"Point"},"properties":{"osm_id":"1681731669","tag":{"amenity":"recycling"}},"type":"Feature"},
	{"geometry":{"coordinates":[15.985364,45.794714],"type":"Point"},"properties":{"osm_id":"1687141840","tag":{"amenity":"recycling","recycling:glass":"yes","recycling:paper":"yes","recycling_type":"container"}},"type":"Feature"},
	{"geometry":{"coordinates":[15.928692,45.8045],"type":"Point"},"properties":{"osm_id":"1867195304","tag":{"amenity":"waste_disposal"}},"type":"Feature"},
	{"geometry":{"coordinates":[15.928862,45.802599],"type":"Point"},"properties":{"osm_id":"1879792031","tag":{"amenity":"recycling","recycling:glass":"yes","recycling:paper":"yes","recycling:plastic":"yes","recycling_type":"container"}},"type":"Feature"},
	{"geometry":{"coordinates":[15.928636,45.802661],"type":"Point"},"properties":{"osm_id":"1879792035","tag":{"amenity":"recycling","location":"overground","recycling:glass":"yes","recycling:paper":"yes","recycling:plastic":"yes","recycling:textiles":"yes","recycling_type":"container"}},"type":"Feature"},
	{"geometry":{"coordinates":[15.926494,45.804223],"type":"Point"},"properties":{"osm_id":"1879798321","tag":{"amenity":"recycling","location":"overground","recycling:PET":"yes","recycling:glass_bottles":"yes","recycling:paper":"yes","recycling_type":"container"}},"type":"Feature"},
	{"geometry":{"coordinates":[15.926457,45.804207],"type":"Point"},"properties":{"osm_id":"1879798324","tag":{"amenity":"waste_disposal"}},"type":"Feature"},
	{"geometry":{"coordinates":[15.928753,45.804253],"type":"Point"},"properties":{"osm_id":"1879798325","tag":{"amenity":"recycling","recycling:glass":"yes","recycling:paper":"yes","recycling_type":"container"}},"type":"Feature"},
	{"geometry":{"coordinates":[15.928174,45.804237],"type":"Point"},"properties":{"osm_id":"1879798326","tag":{"amenity":"waste_disposal"}},"type":"Feature"},
	{"geometry":{"coordinates":[15.956193,45.799461],"type":"Point"},"properties":{"osm_id":"1881290045","tag":{"amenity":"recycling","recycling:glass":"yes","recycling:paper":"yes","recycling_type":"container"}},"type":"Feature"},
	{"geometry":{"coordinates":[15.96976,45.795991],"type":"Point"},"properties":{"osm_id":"1896949642","tag":{"amenity":"waste_basket"}},"type":"Feature"},
	{"geometry":{"coordinates":[15.972503,45.796476],"type":"Point"},"properties":{"osm_id":"1896949648","tag":{"amenity":"waste_disposal"}},"type":"Feature"},
	{"geometry":{"coordinates":[15.972786,45.796691],"type":"Point"},"properties":{"osm_id":"1896949652","tag":{"amenity":"recycling","recycling:paper":"yes"}},"type":"Feature"},
	{"geometry":{"coordinates":[15.97392,45.797771],"type":"Point"},"properties":{"osm_id":"1896949666","tag":{"amenity":"recycling","recycling:paper":"yes","recycling_type":"container"}},"type":"Feature"},
	{"geometry":{"coordinates":[15.974002,45.797758],"type":"Point"},"properties":{"osm_id":"1896949693","tag":{"amenity":"waste_disposal"}},"type":"Feature"},
	{"geometry":{"coordinates":[15.973779,45.797977],"type":"Point"},"properties":{"osm_id":"1896949698","tag":{"amenity":"waste_basket"}},"type":"Feature"},
	{"geometry":{"coordinates":[15.974636,45.798182],"type":"Point"},"properties":{"osm_id":"1896949711","tag":{"amenity":"waste_basket"}},"type":"Feature"},
	{"geometry":{"coordinates":[15.929921,45.800477],"type":"Point"},"properties":{"osm_id":"1896949756","tag":{"amenity":"waste_disposal"}},"type":"Feature"},
	{"geometry":{"coordinates":[15.929964,45.800478],"type":"Point"},"properties":{"osm_id":"1896949758","tag":{"amenity":"recycling","recycling:paper":"yes"}},"type":"Feature"},
	{"geometry":{"coordinates":[15.939126,45.800944],"type":"Point"},"properties":{"osm_id":"1896949768","tag":{"amenity":"recycling","location":"overground","recycling:paper":"yes","recycling_type":"container"}},"type":"Feature"},
	{"geometry":{"coordinates":[15.941624,45.801184],"type":"Point"},"properties":{"osm_id":"1896949773","tag":{"amenity":"recycling","location":"overground","recycling:glass":"yes","recycling_type":"container"}},"type":"Feature"},
	{"geometry":{"coordinates":[15.91593,45.799137],"type":"Point"},"properties":{"osm_id":"1923945285","tag":{"amenity":"recycling","recycling:glass":"yes","recycling_type":"container"}},"type":"Feature"},
	{"geometry":{"coordinates":[15.950642,45.787313],"type":"Point"},"properties":{"osm_id":"1932830152","tag":{"amenity":"recycling","recycling:paper":"yes"}},"type":"Feature"},
	{"geometry":{"coordinates":[15.931353,45.795008],"type":"Point"},"properties":{"osm_id":"1946566970","tag":{"amenity":"recycling","recycling:glass":"yes","recycling:paper":"yes","recycling_type":"container"}},"type":"Feature"},
	{"geometry":{"coordinates":[15.929102,45.802421],"type":"Point"},"properties":{"osm_id":"1946566984","tag":{"amenity":"waste_basket"}},"type":"Feature"},
	{"geometry":{"coordinates":[15.92878,45.802628],"type":"Point"},"properties":{"osm_id":"1946566987","tag":{"amenity":"waste_basket"}},"type":"Feature"},
	{"geometry":{"coordinates":[15.92905,45.801549],"type":"Point"},"properties":{"osm_id":"1990298634","tag":{"amenity":"recycling","recycling:paper":"yes"}},"type":"Feature"},
	{"geometry":{"coordinates":[15.931145,45.791418],"type":"Point"},"properties":{"osm_id":"2036474641","tag":{"amenity":"recycling","recycling:glass":"yes","recycling:paper":"yes","recycling:plastic":"yes","recycling_type":"container"}},"type":"Feature"},
	{"geometry":{"coordinates":[15.919014,45.794476],"type":"Point"},"properties":{"osm_id":"2084015479","tag":{"amenity":"waste_basket"}},"type":"Feature"},
	{"geometry":{"coordinates":[15.978953,45.798502],"type":"Point"},"properties":{"osm_id":"2103311809","tag":{"amenity":"waste_basket"}},"type":"Feature"},
	{"geometry":{"coordinates":[15.926934,45.800871],"type":"Point"},"properties":{"osm_id":"2115437599","tag":{"amenity":"waste_basket"}},"type":"Feature"},
	{"geometry":{"coordinates":[15.964298,45.780488],"type":"Point"},"properties":{"barrier":"gate","osm_id":"2145363455"},"type":"Feature"},
	{"geometry":{"coordinates":[15.946936,45.798445],"type":"Point"},"properties":{"osm_id":"2147656642","tag":{"amenity":"waste_basket"}},"type":"Feature"},
	{"geometry":{"coordinates":[15.922902,45.791499],"type":"Point"},"properties":{"osm_id":"2147685373","tag":{"amenity":"recycling","recycling:paper":"yes"}},"type":"Feature"},
	{"geometry":{"coordinates":[15.969422,45.807691],"type":"Point"},"properties":{"osm_id":"2148972102","tag":{"amenity":"waste_basket"}},"type":"Feature"},
	{"geometry":{"coordinates":[15.930026,45.790988],"type":"Point"},"properties":{"osm_id":"2164022861","tag":{"amenity":"waste_basket"}},"type":"Feature"},
	{"geometry":{"coordinates":[15.922108,45.791377],"type":"Point"},"properties":{"osm_id":"2164054702","tag":{"amenity":"waste_basket"}},"type":"Feature"},
	{"geometry":{"coordinates":[15.931431,45.791174],"type":"Point"},"properties":{"osm_id":"2166391906","tag":{"amenity":"waste_basket"}},"type":"Feature"},
	{"geometry":{"coordinates":[15.921114,45.791596],"type":"Point"},"properties":{"osm_id":"2166391913","tag":{"amenity":"waste_basket"}},"type":"Feature"},
	{"geometry":{"coordinates":[15.920009,45.792857],"type":"Point"},"properties":{"osm_id":"2166391926","tag":{"amenity":"recycling","recycling:glass":"yes"}},"type":"Feature"},
	{"geometry":{"coordinates":[15.920037,45.792865],"type":"Point"},"properties":{"osm_id":"2166391928","tag":{"amenity":"waste_disposal"}},"type":"Feature"},
	{"geometry":{"coordinates":[15.972569,45.810735],"type":"Point"},"properties":{"osm_id":"2185906845","tag":{"amenity":"waste_basket"}},"type":"Feature"},
	{"geometry":{"coordinates":[15.974271,45.802029],"type":"Point"},"properties":{"osm_id":"2187318550","tag":{"amenity":"waste_basket"}},"type":"Feature"},
	{"geometry":{"coordinates":[15.973326,45.805664],"type":"Point"},"properties":{"osm_id":"2187325274","tag":{"amenity":"waste_basket"}},"type":"Feature"},
	{"geometry":{"coordinates":[15.972419,45.80755],"type":"Point"},"properties":{"osm_id":"2187329945","tag":{"amenity":"waste_basket"}},"type":"Feature"},
	{"geometry":{"coordinates":[15.969315,45.810779],"type":"Point"},"properties":{"osm_id":"2187407796","tag":{"amenity":"waste_basket"}},"type":"Feature"},
	{"geometry":{"coordinates":[15.969394,45.806935],"type":"Point"},"properties":{"osm_id":"2187416976","tag":{"amenity":"waste_basket"}},"type":"Feature"},
	{"geometry":{"coordinates":[15.969704,45.81271],"type":"Point"},"properties":{"osm_id":"2188595137","tag":{"amenity":"waste_basket"}},"type":"Feature"},
	{"geometry":{"coordinates":[15.970292,45.798516],"type":"Point"},"properties":{"osm_id":"2199475209","tag":{"amenity":"waste_basket"}},"type":"Feature"},
	{"geometry":{"coordinates":[15.970301,45.798066],"type":"Point"},"properties":{"osm_id":"2199476110","tag":{"amenity":"waste_basket"}},"type":"Feature"},
	{"geometry":{"coordinates":[15.970495,45.796434],"type":"Point"},"properties":{"osm_id":"2199479496","tag":{"amenity":"waste_basket"}},"type":"Feature"},
	{"geometry":{"coordinates":[15.970066,45.796337],"type":"Point"},"properties":{"osm_id":"2199482806","tag":{"amenity":"waste_disposal"}},"type":"Feature"},
	{"geometry":{"coordinates":[15.969844,45.796161],"type":"Point"},"properties":{"osm_id":"2199483555","tag":{"amenity":"waste_basket"}},"type":"Feature"},
	{"geometry":{"coordinates":[15.969385,45.79579],"type":"Point"},"properties":{"osm_id":"2199484595","tag":{"amenity":"waste_basket"}},"type":"Feature"},
	{"geometry":{"coordinates":[15.964344,45.802677],"type":"Point"},"properties":{"osm_id":"2204464539","tag":{"amenity":"waste_basket"}},"type":"Feature"},
	{"geometry":{"coordinates":[15.969658,45.808214],"type":"Point"},"properties":{"osm_id":"2204474288","tag":{"amenity":"waste_basket"}},"type":"Feature"},
	{"geometry":{"coordinates":[15.969389,45.807074],"type":"Point"},"properties":{"osm_id":"2206379247","tag":{"amenity":"waste_disposal"}},"type":"Feature"},
	{"geometry":{"coordinates":[15.970561,45.799988],"type":"Point"},"properties":{"osm_id":"2206429026","tag":{"amenity":"waste_basket"}},"type":"Feature"},
	{"geometry":{"coordinates":[15.920069,45.796711],"type":"Point"},"properties":{"osm_id":"2206435540","tag":{"amenity":"waste_basket"}},"type":"Feature"},
	{"geometry":{"coordinates":[15.919769,45.791834],"type":"Point"},"properties":{"osm_id":"2206440844","tag":{"amenity":"waste_basket"}},"type":"Feature"},
	{"geometry":{"coordinates":[15.919995,45.797868],"type":"Point"},"properties":{"osm_id":"2206865955","tag":{"amenity":"recycling","recycling:glass":"yes","recycling:paper":"yes"}},"type":"Feature"},
	{"geometry":{"coordinates":[15.9693,45.804877],"type":"Point"},"properties":{"osm_id":"2211335739","tag":{"amenity":"waste_basket"}},"type":"Feature"},
	{"geometry":{"coordinates":[15.920133,45.800798],"type":"Point"},"properties":{"osm_id":"2278342967","tag":{"amenity":"recycling","location":"overground","recycling:glass":"yes","recycling:paper":"yes","recycling_type":"container"}},"type":"Feature"},
	{"geometry":{"coordinates":[15.979251,45.797669],"type":"Point"},"properties":{"osm_id":"2292285942","tag":{"amenity":"waste_basket"}},"type":"Feature"},
	{"geometry":{"coordinates":[15.979002,45.79805],"type":"Point"},"properties":{"osm_id":"2292285970","tag":{"amenity":"waste_basket"}},"type":"Feature"},
	{"geometry":{"coordinates":[15.930221,45.794559],"type":"Point"},"properties":{"osm_id":"2299247202","tag":{"amenity":"waste_basket"}},"type":"Feature"},
	{"geometry":{"coordinates":[15.925791,45.801228],"type":"Point"},"properties":{"osm_id":"2299815115","tag":{"amenity":"recycling","location":"overground","recycling:glass":"no","recycling:glass_bottles":"yes","recycling:paper":"yes","recycling_type":"container"}},"type":"Feature"},
	{"geometry":{"coordinates":[15.980835,45.801784],"type":"Point"},"properties":{"osm_id":"2302553948","tag":{"amenity":"recycling","recycling:glass":"yes","recycling:paper":"yes"}},"type":"Feature"},
	{"geometry":{"coordinates":[15.981424,45.801024],"type":"Point"},"properties":{"osm_id":"2302566131","tag":{"amenity":"recycling","recycling:glass":"yes","recycling:paper":"yes"}},"type":"Feature"},
	{"geometry":{"coordinates":[15.970495,45.800473],"type":"Point"},"properties":{"osm_id":"2303266376","tag":{"amenity":"waste_basket"}},"type":"Feature"},
	{"geometry":{"coordinates":[15.977807,45.795756],"type":"Point"},"properties":{"osm_id":"2305478890","tag":{"amenity":"waste_basket"}},"type":"Feature"},
	{"geometry":{"coordinates":[15.974744,45.797271],"type":"Point"},"properties":{"osm_id":"2305478893","tag":{"amenity":"recycling","recycling:plastic":"yes","recycling_type":"container"}},"type":"Feature"},
	{"geometry":{"coordinates":[15.975025,45.797364],"type":"Point"},"properties":{"osm_id":"2305478894","tag":{"amenity":"recycling","recycling:glass":"yes"}},"type":"Feature"},
	{"geometry":{"coordinates":[15.929883,45.80679],"type":"Point"},"properties":{"osm_id":"2305478896","tag":{"amenity":"recycling","recycling:clothes":"yes","recycling:glass":"yes","recycling:paper":"yes","recycling:plastic":"yes","recycling_type":"container"}},"type":"Feature"},
	{"geometry":{"coordinates":[15.928047,45.809525],"type":"Point"},"properties":{"osm_id":"2305478901","tag":{"amenity":"recycling","location":"overground","recycling:paper":"yes","recycling_type":"container"}},"type":"Feature"},
	{"geometry":{"coordinates":[15.976777,45.79564],"type":"Point"},"properties":{"osm_id":"2308892645","tag":{"amenity":"waste_basket"}},"type":"Feature"},
	{"geometry":{"coordinates":[15.921722,45.790726],"type":"Point"},"properties":{"osm_id":"2333242903","tag":{"amenity":"waste_basket"}},"type":"Feature"},
	{"geometry":{"coordinates":[15.943887,45.791093],"type":"Point"},"properties":{"osm_id":"2340646480","tag":{"amenity":"waste_basket"}},"type":"Feature"},
	{"geometry":{"coordinates":[15.935948,45.798401],"type":"Point"},"properties":{"osm_id":"2340698810","tag":{"amenity":"waste_basket"}},"type":"Feature"},
	{"geometry":{"coordinates":[15.936227,45.799142],"type":"Point"},"properties":{"osm_id":"2340699440","tag":{"amenity":"waste_basket"}},"type":"Feature"},
	{"geometry":{"coordinates":[15.926844,45.808557],"type":"Point"},"properties":{"osm_id":"2370739156","tag":{"amenity":"recycling","recycling:glass":"yes","recycling:paper":"yes"}},"type":"Feature"},
	{"geometry":{"coordinates":[15.983756,45.811191],"type":"Point"},"properties":{"osm_id":"2373162425","tag":{"amenity":"waste_basket"}},"type":"Feature"},
	{"geometry":{"coordinates":[15.983817,45.810171],"type":"Point"},"properties":{"osm_id":"2373168256","tag":{"amenity":"waste_basket"}},"type":"Feature"},
	{"geometry":{"coordinates":[15.957878,45.801079],"type":"Point"},"properties":{"osm_id":"2377265218","tag":{"amenity":"waste_basket"}},"type":"Feature"},
	{"geometry":{"coordinates":[15.969284,45.805248],"type":"Point"},"properties":{"osm_id":"2377278049","tag":{"amenity":"waste_basket"}},"type":"Feature"},
	{"geometry":{"coordinates":[15.98396,45.810702],"type":"Point"},"properties":{"osm_id":"2410466459","tag":{"amenity":"recycling","location":"overground","recycling:glass":"yes","recycling_type":"container"}},"type":"Feature"},
	{"geometry":{"coordinates":[15.983371,45.827563],"type":"Point"},"properties":{"osm_id":"2410471636","tag":{"amenity":"recycling","recycling:paper":"yes","recycling:plastic":"yes","recycling_type":"container"}},"type":"Feature"},
	{"geometry":{"coordinates":[15.915241,45.792612],"type":"Point"},"properties":{"osm_id":"2471181779","tag":{"amenity":"waste_basket"}},"type":"Feature"},
	{"geometry":{"coordinates":[15.916894,45.793883],"type":"Point"},"properties":{"osm_id":"2471187369","tag":{"amenity":"waste_basket"}},"type":"Feature"},
	{"geometry":{"coordinates":[15.911817,45.792113],"type":"Point"},"properties":{"osm_id":"2477568540","tag":{"amenity":"recycling","recycling:green_waste":"yes","recycling:paper":"yes","recycling:plastic":"yes","recycling_type":"container"}},"type":"Feature"},
	{"geometry":{"coordinates":[15.968914,45.769903],"type":"Point"},"properties":{"osm_id":"2486107842","tag":{"amenity":"recycling"}},"type":"Feature"},
	{"geometry":{"coordinates":[15.92962,45.805225],"type":"Point"},"properties":{"osm_id":"2496788140","tag":{"amenity":"recycling","recycling:glass":"yes","recycling_type":"container"}},"type":"Feature"},
	{"geometry":{"coordinates":[15.913825,45.793779],"type":"Point"},"properties":{"osm_id":"2500593546","tag":{"amenity":"waste_basket"}},"type":"Feature"},
	{"geometry":{"coordinates":[15.925992,45.812921],"type":"Point"},"properties":{"osm_id":"2503770554","tag":{"amenity":"waste_basket"}},"type":"Feature"},
	{"geometry":{"coordinates":[15.939277,45.784273],"type":"Point"},"properties":{"osm_id":"2515338666","tag":{"amenity":"recycling","recycling:glass":"yes","recycling:paper":"yes","recycling_type":"container"}},"type":"Feature"},
	{"geometry":{"coordinates":[15.913913,45.793728],"type":"Point"},"properties":{"osm_id":"2515338669","tag":{"amenity":"recycling","recycling:glass":"yes","recycling_type":"container"}},"type":"Feature"},
	{"geometry":{"coordinates":[15.930147,45.800909],"type":"Point"},"properties":{"osm_id":"2521122966","tag":{"amenity":"waste_basket"}},"type":"Feature"},
	{"geometry":{"coordinates":[15.971739,45.811782],"type":"Point"},"properties":{"osm_id":"2624844171","tag":{"amenity":"waste_basket"}},"type":"Feature"},
	{"geometry":{"coordinates":[15.924511,45.808491],"type":"Point"},"properties":{"osm_id":"2626963459","tag":{"amenity":"waste_basket"}},"type":"Feature"},
	{"geometry":{"coordinates":[15.926869,45.815332],"type":"Point"},"properties":{"osm_id":"2631788334","tag":{"amenity":"recycling","recycling:glass":"yes","recycling:paper":"yes"}},"type":"Feature"},
	{"geometry":{"coordinates":[15.92685,45.815339],"type":"Point"},"properties":{"osm_id":"2631788335","tag":{"amenity":"waste_disposal"}},"type":"Feature"},
	{"geometry":{"coordinates":[15.964464,45.809218],"type":"Point"},"properties":{"osm_id":"2642051015","tag":{"amenity":"waste_basket"}},"type":"Feature"},
	{"geometry":{"coordinates":[15.964473,45.810435],"type":"Point"},"properties":{"osm_id":"2642054735","tag":{"amenity":"waste_basket"}},"type":"Feature"},
	{"geometry":{"coordinates":[15.923932,45.806391],"type":"Point"},"properties":{"osm_id":"2670474025","tag":{"amenity":"recycling","location":"overground","recycling:glass":"yes","recycling:paper":"yes","recycling_type":"container"}},"type":"Feature"},
	{"geometry":{"coordinates":[15.917649,45.807607],"type":"Point"},"properties":{"osm_id":"2670474026","tag":{"amenity":"recycling","recycling:paper":"yes"}},"type":"Feature"},
	{"geometry":{"coordinates":[15.921464,45.810584],"type":"Point"},"properties":{"osm_id":"2670474028","tag":{"amenity":"recycling","recycling:glass":"yes"}},"type":"Feature"},
	{"geometry":{"coordinates":[15.970366,45.809755],"type":"Point"},"properties":{"osm_id":"2761419681","tag":{"amenity":"waste_basket"}},"type":"Feature"},
	{"geometry":{"coordinates":[15.94885,45.80321],"type":"Point"},"properties":{"osm_id":"2975021886","tag":{"amenity":"recycling","recycling:glass":"yes","recycling:paper":"yes","recycling_type":"container"}},"type":"Feature"},
	{"geometry":{"coordinates":[15.917367,45.793581],"type":"Point"},"properties":{"osm_id":"3032445320","tag":{"amenity":"waste_disposal"}},"type":"Feature"},
	{"geometry":{"coordinates":[15.917351,45.79361],"type":"Point"},"properties":{"osm_id":"3032445321","tag":{"amenity":"recycling","recycling:glass":"yes","recycling_type":"container"}},"type":"Feature"},
	{"geometry":{"coordinates":[15.96437,45.809374],"type":"Point"},"properties":{"osm_id":"3133577029","tag":{"amenity":"recycling","location":"overground","recycling:glass":"yes","recycling_type":"container"}},"type":"Feature"},
	{"geometry":{"coordinates":[15.942833,45.804121],"type":"Point"},"properties":{"osm_id":"3168742161","tag":{"amenity":"recycling","location":"overground","recycling:glass":"yes","recycling_type":"container"}},"type":"Feature"},
	{"geometry":{"coordinates":[15.942823,45.804142],"type":"Point"},"properties":{"osm_id":"3168742162","tag":{"amenity":"recycling","location":"overground","recycling:paper":"yes","recycling_type":"container"}},"type":"Feature"},
	{"geometry":{"coordinates":[15.995374,45.800599],"type":"Point"},"properties":{"osm_id":"3172456264","tag":{"amenity":"recycling","recycling:paper":"yes","recycling_type":"container"}},"type":"Feature"},
	{"geometry":{"coordinates":[15.995356,45.800641],"type":"Point"},"properties":{"osm_id":"3172456265","tag":{"amenity":"recycling","recycling:plastic":"yes","recycling_type":"container"}},"type":"Feature"},
	{"geometry":{"coordinates":[15.995367,45.800618],"type":"Point"},"properties":{"osm_id":"3172470361","tag":{"amenity":"recycling","recycling:glass_bottles":"yes","recycling_type":"container"}},"type":"Feature"},
	{"geometry":{"coordinates":[15.935641,45.799786],"type":"Point"},"properties":{"osm_id":"3215630362","tag":{"amenity":"recycling","recycling:glass":"yes"}},"type":"Feature"},
	{"geometry":{"coordinates":[15.927292,45.80118],"type":"Point"},"properties":{"osm_id":"3241059832","tag":{"amenity":"recycling","location":"overground","recycling:paper":"yes","recycling_type":"container"}},"type":"Feature"},
	{"geometry":{"coordinates":[15.993051,45.800664],"type":"Point"},"properties":{"osm_id":"3274259486","tag":{"amenity":"recycling","location":"overground","recycling:glass":"yes","recycling_type":"container"}},"type":"Feature"},
	{"geometry":{"coordinates":[15.993019,45.800659],"type":"Point"},"properties":{"osm_id":"3274259487","tag":{"amenity":"recycling","location":"overground","recycling:paper":"yes","recycling_type":"container"}},"type":"Feature"},
	{"geometry":{"coordinates":[15.938235,45.797773],"type":"Point"},"properties":{"osm_id":"3318249264","tag":{"amenity":"recycling","recycling:paper":"yes","recycling_type":"container"}},"type":"Feature"},
	{"geometry":{"coordinates":[15.929882,45.801811],"type":"Point"},"properties":{"osm_id":"3342103851","tag":{"amenity":"recycling","recycling:glass":"yes","recycling:paper":"yes","recycling:plastic":"yes","recycling_type":"container"}},"type":"Feature"},
	{"geometry":{"coordinates":[15.929896,45.800401],"type":"Point"},"properties":{"osm_id":"3347902791","tag":{"amenity":"waste_basket"}},"type":"Feature"},
	{"geometry":{"coordinates":[15.925654,45.805289],"type":"Point"},"properties":{"osm_id":"3355103170","tag":{"amenity":"recycling","recycling:glass":"yes","recycling:paper":"yes","recycling:plastic":"yes","recycling_type":"container"}},"type":"Feature"},
	{"geometry":{"coordinates":[15.923482,45.819155],"type":"Point"},"properties":{"osm_id":"3366626589","tag":{"amenity":"waste_basket"}},"type":"Feature"},
	{"geometry":{"coordinates":[15.926088,45.813492],"type":"Point"},"properties":{"osm_id":"3366724887","tag":{"amenity":"recycling","recycling:paper":"yes","recycling:plastic":"yes","recycling_type":"container"}},"type":"Feature"},
	{"geometry":{"coordinates":[15.960769,45.810629],"type":"Point"},"properties":{"name":"Recycle containers","osm_id":"3394622896","tag":{"amenity":"recycling"}},"type":"Feature"},
	{"geometry":{"coordinates":[15.921545,45.805849],"type":"Point"},"properties":{"osm_id":"3423554066","tag":{"amenity":"waste_disposal"}},"type":"Feature"},
	{"geometry":{"coordinates":[15.989796,45.800485],"type":"Point"},"properties":{"osm_id":"3446742894","tag":{"amenity":"recycling","recycling:paper":"yes"}},"type":"Feature"},
	{"geometry":{"coordinates":[15.97979,45.821372],"type":"Point"},"properties":{"osm_id":"3451113716","tag":{"amenity":"recycling","recycling:paper":"yes"}},"type":"Feature"},
	{"geometry":{"coordinates":[15.979798,45.821395],"type":"Point"},"properties":{"osm_id":"3451113717","tag":{"amenity":"recycling","recycling:plastic":"yes"}},"type":"Feature"},
	{"geometry":{"coordinates":[15.9798,45.821416],"type":"Point"},"properties":{"osm_id":"3451113718","tag":{"amenity":"recycling","recycling:glass":"yes"}},"type":"Feature"},
	{"geometry":{"coordinates":[15.955972,45.813732],"type":"Point"},"properties":{"osm_id":"3478481618","tag":{"amenity":"recycling","recycling:glass_bottles":"yes","recycling:magazines":"yes","recycling:newspaper":"yes","recycling:paper":"yes","recycling:paper_packaging":"yes","recycling:plastic_bottles":"yes","recycling_type":"container"}},"type":"Feature"},
	{"geometry":{"coordinates":[15.994023,45.769924],"type":"Point"},"properties":{"osm_id":"3521810944","tag":{"amenity":"recycling","recycling:paper":"yes"}},"type":"Feature"},
	{"geometry":{"coordinates":[15.994031,45.76988],"type":"Point"},"properties":{"osm_id":"3521835213","tag":{"amenity":"recycling","recycling:glass":"yes"}},"type":"Feature"},
	{"geometry":{"coordinates":[15.994029,45.769898],"type":"Point"},"properties":{"osm_id":"3521835510","tag":{"amenity":"recycling","recycling:plastic":"yes"}},"type":"Feature"},
	{"geometry":{"coordinates":[15.990193,45.803558],"type":"Point"},"properties":{"osm_id":"3556623293","tag":{"amenity":"recycling","recycling:batteries":"yes"}},"type":"Feature"},
	{"geometry":{"coordinates":[15.963175,45.795264],"type":"Point"},"properties":{"osm_id":"3773197500","tag":{"amenity":"recycling","recycling:batteries":"yes"}},"type":"Feature"},
	{"geometry":{"coordinates":[15.963783,45.795429],"type":"Point"},"properties":{"osm_id":"3773199646","tag":{"amenity":"recycling","recycling:paper":"yes"}},"type":"Feature"},
	{"geometry":{"coordinates":[15.963787,45.795416],"type":"Point"},"properties":{"osm_id":"3773199647","tag":{"amenity":"recycling","recycling:plastic":"yes"}},"type":"Feature"},
	{"geometry":{"coordinates":[15.913777,45.79494],"type":"Point"},"properties":{"osm_id":"3884712465","tag":{"amenity":"waste_basket"}},"type":"Feature"},
	{"geometry":{"coordinates":[15.970714,45.811785],"type":"Point"},"properties":{"osm_id":"3982093093","tag":{"amenity":"waste_basket"}},"type":"Feature"},
	{"geometry":{"coordinates":[15.970897,45.811815],"type":"Point"},"properties":{"osm_id":"3984470179","tag":{"amenity":"recycling","recycling:clothes":"yes","recycling:glass":"yes","recycling:paper":"yes","recycling:plastic":"yes","recycling_type":"container"}},"type":"Feature"},
	{"geometry":{"coordinates":[15.969464,45.819183],"type":"Point"},"properties":{"osm_id":"3992219757","tag":{"amenity":"waste_basket"}},"type":"Feature"},
	{"geometry":{"coordinates":[15.927531,45.80263],"type":"Point"},"properties":{"osm_id":"3994474069","tag":{"amenity":"waste_basket"}},"type":"Feature"},
	{"geometry":{"coordinates":[15.928456,45.805266],"type":"Point"},"properties":{"osm_id":"4072293527","tag":{"amenity":"waste_disposal"}},"type":"Feature"},
	{"geometry":{"coordinates":[15.970912,45.807273],"type":"Point"},"properties":{"osm_id":"4173502211","tag":{"amenity":"waste_basket"}},"type":"Feature"},
	{"geometry":{"coordinates":[15.974008,45.807363],"type":"Point"},"properties":{"osm_id":"4173502212","tag":{"amenity":"waste_basket"}},"type":"Feature"},
	{"geometry":{"coordinates":[15.976331,45.807436],"type":"Point"},"properties":{"osm_id":"4173502213","tag":{"amenity":"waste_basket"}},"type":"Feature"},
	{"geometry":{"coordinates":[15.947891,45.801402],"type":"Point"},"properties":{"osm_id":"4173522904","tag":{"amenity":"waste_basket"}},"type":"Feature"},
	{"geometry":{"coordinates":[15.927719,45.785094],"type":"Point"},"properties":{"osm_id":"4417841338","tag":{"amenity":"waste_basket"}},"type":"Feature"},
	{"geometry":{"coordinates":[15.927622,45.805443],"type":"Point"},"properties":{"osm_id":"4442382031","tag":{"amenity":"recycling","recycling:paper":"yes","recycling_type":"container"}},"type":"Feature"},
	{"geometry":{"coordinates":[15.910672,45.781488],"type":"Point"},"properties":{"osm_id":"4462130526","tag":{"amenity":"waste_basket"}},"type":"Feature"},
	{"geometry":{"coordinates":[15.91048,45.781109],"type":"Point"},"properties":{"osm_id":"4462134930","tag":{"amenity":"waste_basket"}},"type":"Feature"},
	{"geometry":{"coordinates":[15.976182,45.827248],"type":"Point"},"properties":{"osm_id":"4469958596","tag":{"amenity":"waste_basket"}},"type":"Feature"},
	{"geometry":{"coordinates":[15.974069,45.823094],"type":"Point"},"properties":{"osm_id":"4470057792","tag":{"amenity":"waste_basket"}},"type":"Feature"},
	{"geometry":{"coordinates":[15.973867,45.819243],"type":"Point"},"properties":{"osm_id":"4470057793","tag":{"amenity":"waste_basket"}},"type":"Feature"},
	{"geometry":{"coordinates":[15.989096,45.779586],"type":"Point"},"properties":{"osm_id":"4485025993","tag":{"amenity":"waste_disposal"}},"type":"Feature"},
	{"geometry":{"coordinates":[15.981312,45.783323],"type":"Point"},"properties":{"osm_id":"4505134139","tag":{"amenity":"waste_basket"}},"type":"Feature"},
	{"geometry":{"coordinates":[15.939851,45.78517],"type":"Point"},"properties":{"osm_id":"4507015844","tag":{"amenity":"recycling","recycling:paper":"yes","recycling:plastic":"yes","recycling_type":"container"}},"type":"Feature"},
	{"geometry":{"coordinates":[15.944892,45.774423],"type":"Point"},"properties":{"osm_id":"4507133448","tag":{"amenity":"recycling","recycling:glass":"yes","recycling:paper":"yes","recycling:plastic":"yes","recycling_type":"container"}},"type":"Feature"},
	{"geometry":{"coordinates":[15.936532,45.797174],"type":"Point"},"properties":{"osm_id":"4507133466","tag":{"amenity":"waste_basket"}},"type":"Feature"},
	{"geometry":{"coordinates":[15.948277,45.791028],"type":"Point"},"properties":{"osm_id":"4574238240","tag":{"amenity":"waste_basket"}},"type":"Feature"},
	{"geometry":{"coordinates":[15.94783,45.791081],"type":"Point"},"properties":{"osm_id":"4618410726","tag":{"amenity":"waste_basket"}},"type":"Feature"},
	{"geometry":{"coordinates":[15.947377,45.791305],"type":"Point"},"properties":{"osm_id":"4618410729","tag":{"amenity":"recycling","recycling:glass":"no","recycling:paper":"yes","recycling:plastic":"no","recycling_type":"container"}},"type":"Feature"},
	{"geometry":{"coordinates":[15.946951,45.791399],"type":"Point"},"properties":{"osm_id":"4618410730","tag":{"amenity":"recycling","recycling:glass":"yes","recycling:paper":"yes","recycling:plastic":"yes","recycling_type":"container"}},"type":"Feature"},
	{"geometry":{"coordinates":[15.945739,45.791233],"type":"Point"},"properties":{"osm_id":"4618410731","tag":{"amenity":"recycling","recycling:glass":"no","recycling:paper":"yes","recycling:plastic":"yes","recycling_type":"container"}},"type":"Feature"},
	{"geometry":{"coordinates":[15.935489,45.794112],"type":"Point"},"properties":{"osm_id":"4618410734","tag":{"amenity":"waste_basket"}},"type":"Feature"},
	{"geometry":{"coordinates":[15.922151,45.819762],"type":"Point"},"properties":{"osm_id":"4680105167","tag":{"amenity":"recycling","recycling:glass":"yes","recycling:paper":"yes","recycling:plastic":"yes","recycling_type":"container"}},"type":"Feature"},
	{"geometry":{"coordinates":[15.918155,45.822529],"type":"Point"},"properties":{"osm_id":"4680105168","tag":{"amenity":"recycling","recycling:glass":"yes","recycling:paper":"yes","recycling_type":"container"}},"type":"Feature"},
	{"geometry":{"coordinates":[15.923565,45.788062],"type":"Point"},"properties":{"osm_id":"4690992123","tag":{"amenity":"recycling","recycling:glass":"yes","recycling:paper":"yes","recycling:plastic":"yes","recycling_type":"container"}},"type":"Feature"},
	{"geometry":{"coordinates":[15.925796,45.784942],"type":"Point"},"properties":{"osm_id":"4690992130","tag":{"amenity":"waste_disposal"}},"type":"Feature"},
	{"geometry":{"coordinates":[15.925695,45.784971],"type":"Point"},"properties":{"osm_id":"4690992131","tag":{"amenity":"recycling","recycling:paper":"yes","recycling_type":"container"}},"type":"Feature"},
	{"geometry":{"coordinates":[15.924024,45.784367],"type":"Point"},"properties":{"osm_id":"4690992133","tag":{"amenity":"waste_basket"}},"type":"Feature"},
	{"geometry":{"coordinates":[15.917678,45.785435],"type":"Point"},"properties":{"osm_id":"4690992148","tag":{"amenity":"waste_basket"}},"type":"Feature"},
	{"geometry":{"coordinates":[15.918566,45.786223],"type":"Point"},"properties":{"osm_id":"4690992150","tag":{"amenity":"recycling","recycling:glass":"yes","recycling:paper":"yes","recycling:plastic":"yes","recycling_type":"container"}},"type":"Feature"},
	{"geometry":{"coordinates":[15.940258,45.802539],"type":"Point"},"properties":{"osm_id":"4723206954","tag":{"amenity":"recycling","recycling:glass":"yes","recycling:paper":"yes","recycling:plastic":"yes","recycling_type":"container"}},"type":"Feature"},
	{"geometry":{"coordinates":[15.962822,45.775973],"type":"Point"},"properties":{"osm_id":"4847237005","tag":{"amenity":"waste_basket","colour":"gray","material":"metal","waste":"mixed"}},"type":"Feature"},
	{"geometry":{"coordinates":[15.963348,45.774227],"type":"Point"},"properties":{"osm_id":"4847237006","tag":{"amenity":"waste_basket"}},"type":"Feature"},
	{"geometry":{"coordinates":[15.963239,45.774225],"type":"Point"},"properties":{"osm_id":"4847237007","tag":{"amenity":"waste_basket"}},"type":"Feature"},
	{"geometry":{"coordinates":[15.96278,45.774272],"type":"Point"},"properties":{"osm_id":"4847237009","tag":{"amenity":"waste_basket"}},"type":"Feature"},
	{"geometry":{"coordinates":[15.969952,45.800001],"type":"Point"},"properties":{"osm_id":"4857522000","tag":{"amenity":"waste_basket"}},"type":"Feature"},
	{"geometry":{"coordinates":[15.962057,45.775606],"type":"Point"},"properties":{"osm_id":"4869374375","tag":{"amenity":"recycling","recycling:paper":"yes","recycling:plastic":"yes","recycling_type":"container"}},"type":"Feature"},
	{"geometry":{"coordinates":[15.965784,45.780687],"type":"Point"},"properties":{"osm_id":"4907145456","tag":{"amenity":"waste_basket"}},"type":"Feature"},
	{"geometry":{"coordinates":[15.967074,45.799937],"type":"Point"},"properties":{"osm_id":"4908767087","tag":{"amenity":"waste_basket"}},"type":"Feature"},
	{"geometry":{"coordinates":[15.96638,45.80014],"type":"Point"},"properties":{"osm_id":"4911481563","tag":{"amenity":"waste_disposal"}},"type":"Feature"},
	{"geometry":{"coordinates":[15.967178,45.800174],"type":"Point"},"properties":{"osm_id":"4911481564","tag":{"amenity":"waste_disposal"}},"type":"Feature"},
	{"geometry":{"coordinates":[15.967709,45.800189],"type":"Point"},"properties":{"osm_id":"4911481565","tag":{"amenity":"recycling","recycling:plastic":"yes","recycling_type":"container","wheelchair":"yes"}},"type":"Feature"},
	{"geometry":{"coordinates":[15.989712,45.783217],"type":"Point"},"properties":{"osm_id":"4945968155","tag":{"amenity":"waste_basket"}},"type":"Feature"},
	{"geometry":{"coordinates":[15.968285,45.789821],"type":"Point"},"properties":{"osm_id":"5006057630","tag":{"amenity":"waste_basket"}},"type":"Feature"},
	{"geometry":{"coordinates":[15.966581,45.789553],"type":"Point"},"properties":{"osm_id":"5006057631","tag":{"amenity":"waste_basket"}},"type":"Feature"},
	{"geometry":{"coordinates":[15.962692,45.788674],"type":"Point"},"properties":{"osm_id":"5006057632","tag":{"amenity":"waste_basket"}},"type":"Feature"},
	{"geometry":{"coordinates":[15.960231,45.787952],"type":"Point"},"properties":{"osm_id":"5006057634","tag":{"amenity":"waste_basket"}},"type":"Feature"},
	{"geometry":{"coordinates":[15.922967,45.789899],"type":"Point"},"properties":{"osm_id":"5022177315","tag":{"amenity":"waste_basket"}},"type":"Feature"},
	{"geometry":{"coordinates":[15.923018,45.790639],"type":"Point"},"properties":{"osm_id":"5022177317","tag":{"amenity":"waste_basket"}},"type":"Feature"},
	{"geometry":{"coordinates":[15.938137,45.770231],"type":"Point"},"properties":{"osm_id":"5022814921","tag":{"amenity":"waste_basket"}},"type":"Feature"},
	{"geometry":{"coordinates":[15.920527,45.792001],"type":"Point"},"properties":{"osm_id":"5027303523","tag":{"amenity":"recycling","recycling:paper":"yes","recycling_type":"container"}},"type":"Feature"},
	{"geometry":{"coordinates":[15.9844,45.797158],"type":"Point"},"properties":{"osm_id":"5032163983","tag":{"amenity":"recycling","recycling:paper":"yes","recycling_type":"container"}},"type":"Feature"},
	{"geometry":{"coordinates":[15.953997,45.800174],"type":"Point"},"properties":{"osm_id":"5039545695","tag":{"amenity":"waste_basket"}},"type":"Feature"},
	{"geometry":{"coordinates":[15.951783,45.801518],"type":"Point"},"properties":{"osm_id":"5039546337","tag":{"amenity":"waste_basket"}},"type":"Feature"},
	{"geometry":{"coordinates":[15.919333,45.795023],"type":"Point"},"properties":{"osm_id":"5041541325","tag":{"amenity":"waste_basket"}},"type":"Feature"},
	{"geometry":{"coordinates":[15.950549,45.801338],"type":"Point"},"properties":{"osm_id":"5041990268","tag":{"amenity":"recycling","recycling:plastic":"yes","recycling_type":"container"}},"type":"Feature"},
	{"geometry":{"coordinates":[15.950573,45.801447],"type":"Point"},"properties":{"osm_id":"5041990269","tag":{"amenity":"recycling","recycling:paper":"yes","recycling_type":"container"}},"type":"Feature"},
	{"geometry":{"coordinates":[15.980405,45.796974],"type":"Point"},"properties":{"osm_id":"5082287015","tag":{"amenity":"waste_disposal"}},"type":"Feature"},
	{"geometry":{"coordinates":[15.986138,45.797518],"type":"Point"},"properties":{"osm_id":"5082287145","tag":{"amenity":"waste_basket"}},"type":"Feature"},
	{"geometry":{"coordinates":[15.980536,45.796942],"type":"Point"},"properties":{"osm_id":"5094934338","tag":{"amenity":"recycling","recycling:glass":"yes","recycling:paper":"yes","recycling:plastic":"yes","recycling_type":"container"}},"type":"Feature"},
	{"geometry":{"coordinates":[15.969759,45.807907],"type":"Point"},"properties":{"osm_id":"5128652483","tag":{"amenity":"waste_basket"}},"type":"Feature"},
	{"geometry":{"coordinates":[15.97019,45.807972],"type":"Point"},"properties":{"osm_id":"5128658523","tag":{"amenity":"waste_basket"}},"type":"Feature"},
	{"geometry":{"coordinates":[15.968844,45.807402],"type":"Point"},"properties":{"osm_id":"5128766776","tag":{"amenity":"waste_basket"}},"type":"Feature"},
	{"geometry":{"coordinates":[15.969381,45.807398],"type":"Point"},"properties":{"osm_id":"5128767822","tag":{"amenity":"waste_basket"}},"type":"Feature"},
	{"geometry":{"coordinates":[15.944918,45.805109],"type":"Point"},"properties":{"osm_id":"5135788118","tag":{"amenity":"waste_basket"}},"type":"Feature"},
	{"geometry":{"coordinates":[15.944267,45.805691],"type":"Point"},"properties":{"osm_id":"5144060027","tag":{"amenity":"waste_basket"}},"type":"Feature"},
	{"geometry":{"coordinates":[15.976369,45.820312],"type":"Point"},"properties":{"osm_id":"5147296603","tag":{"amenity":"waste_basket"}},"type":"Feature"},
	{"geometry":{"coordinates":[15.971944,45.811888],"type":"Point"},"properties":{"osm_id":"5147298265","tag":{"amenity":"waste_basket"}},"type":"Feature"},
	{"geometry":{"coordinates":[15.922092,45.812452],"type":"Point"},"properties":{"osm_id":"5168968949","tag":{"amenity":"waste_basket"}},"type":"Feature"},
	{"geometry":{"coordinates":[15.976364,45.820404],"type":"Point"},"properties":{"osm_id":"5169640494","tag":{"amenity":"recycling","recycling:clothes":"yes","recycling:glass":"yes","recycling:paper":"yes","recycling:plastic":"yes","recycling_type":"container"}},"type":"Feature"},
	{"geometry":{"coordinates":[15.925055,45.810357],"type":"Point"},"properties":{"osm_id":"5169640507","tag":{"amenity":"recycling","recycling:glass":"yes","recycling:paper":"yes","recycling:plastic":"yes","recycling_type":"container"}},"type":"Feature"},
	{"geometry":{"coordinates":[15.930067,45.792048],"type":"Point"},"properties":{"osm_id":"5201826063","tag":{"amenity":"recycling","location":"overground","recycling:glass":"yes","recycling_type":"container"}},"type":"Feature"},
	{"geometry":{"coordinates":[15.928678,45.792499],"type":"Point"},"properties":{"osm_id":"5201826065","tag":{"amenity":"recycling","location":"overground","recycling:glass":"yes","recycling:paper":"yes","recycling:plastic":"yes","recycling_type":"container"}},"type":"Feature"},
	{"geometry":{"coordinates":[15.936455,45.788513],"type":"Point"},"properties":{"osm_id":"5233291187","tag":{"amenity":"recycling","recycling:glass":"yes","recycling:paper":"yes","recycling_type":"container"}},"type":"Feature"},
	{"geometry":{"coordinates":[15.938458,45.788405],"type":"Point"},"properties":{"osm_id":"5233291188","tag":{"amenity":"recycling","recycling:clothes":"yes","recycling:glass":"yes","recycling:paper":"yes","recycling:plastic":"yes","recycling_type":"container"}},"type":"Feature"},
	{"geometry":{"coordinates":[15.946071,45.788424],"type":"Point"},"properties":{"osm_id":"5233291189","tag":{"amenity":"recycling","recycling:glass":"yes","recycling_type":"container"}},"type":"Feature"},
	{"geometry":{"coordinates":[15.982722,45.814344],"type":"Point"},"properties":{"osm_id":"5258673315","tag":{"amenity":"recycling","recycling:PET":"yes","recycling:clothes":"yes","recycling:glass":"yes","recycling:paper":"yes","recycling_type":"container"}},"type":"Feature"},
	{"geometry":{"coordinates":[15.979446,45.803516],"type":"Point"},"properties":{"osm_id":"5501356314","tag":{"amenity":"waste_basket"}},"type":"Feature"},
	{"geometry":{"coordinates":[15.979512,45.803106],"type":"Point"},"properties":{"osm_id":"5501357260","tag":{"amenity":"waste_basket"}},"type":"Feature"},
	{"geometry":{"coordinates":[15.918508,45.801665],"type":"Point"},"properties":{"osm_id":"5989622810","tag":{"amenity":"recycling","recycling:clothes":"yes","recycling:glass":"yes","recycling:paper":"yes","recycling:plastic":"yes","recycling_type":"container"}},"type":"Feature"},
	{"geometry":{"coordinates":[15.929582,45.805238],"type":"Point"},"properties":{"osm_id":"5995768241","tag":{"amenity":"waste_basket"}},"type":"Feature"},
	{"geometry":{"coordinates":[15.929111,45.80526],"type":"Point"},"properties":{"osm_id":"5995771040","tag":{"amenity":"waste_basket"}},"type":"Feature"},
	{"geometry":{"coordinates":[15.929941,45.805383],"type":"Point"},"properties":{"osm_id":"6018521328","tag":{"amenity":"recycling","recycling:glass":"no","recycling:paper":"yes","recycling:plastic":"yes","recycling_type":"container"}},"type":"Feature"},
	{"geometry":{"coordinates":[15.962451,45.803488],"type":"Point"},"properties":{"osm_id":"6021770381","tag":{"amenity":"recycling","recycling:PET":"yes","recycling:aluminium":"yes","recycling:cans":"yes","recycling:cardboard":"yes","recycling:clothes":"yes","recycling:glass":"yes","recycling:glass_bottles":"yes","recycling:paper":"yes","recycling:plastic":"yes","recycling:plastic_bottles":"yes","recycling:plastic_packaging":"yes","recycling_type":"container"}},"type":"Feature"},
	{"geometry":{"coordinates":[15.927633,45.805345],"type":"Point"},"properties":{"osm_id":"6276925829","tag":{"amenity":"waste_disposal"}},"type":"Feature"},
	{"geometry":{"coordinates":[15.927645,45.805332],"type":"Point"},"properties":{"osm_id":"6276928957","tag":{"amenity":"waste_basket"}},"type":"Feature"},
	{"geometry":{"coordinates":[15.918155,45.786103],"type":"Point"},"properties":{"osm_id":"6291709138","tag":{"amenity":"waste_basket"}},"type":"Feature"},
	{"geometry":{"coordinates":[15.91822,45.786088],"type":"Point"},"properties":{"osm_id":"6291709478","tag":{"amenity":"waste_basket"}},"type":"Feature"},
	{"geometry":{"coordinates":[15.917879,45.785879],"type":"Point"},"properties":{"osm_id":"6291709643","tag":{"amenity":"waste_basket"}},"type":"Feature"},
	{"geometry":{"coordinates":[15.928657,45.805259],"type":"Point"},"properties":{"osm_id":"6363384835","tag":{"amenity":"waste_basket"}},"type":"Feature"},
	{"geometry":{"coordinates":[15.956448,45.803837],"type":"Point"},"properties":{"osm_id":"6371638011","tag":{"amenity":"recycling","recycling:PET":"yes","recycling:aluminium":"yes","recycling:cans":"yes","recycling:cardboard":"yes","recycling:clothes":"yes","recycling:glass":"yes","recycling:glass_bottles":"yes","recycling:paper":"yes","recycling:plastic":"yes","recycling:plastic_bottles":"yes","recycling:plastic_packaging":"yes","recycling_type":"container"}},"type":"Feature"},
	{"geometry":{"coordinates":[15.927258,45.805275],"type":"Point"},"properties":{"osm_id":"6374772987","tag":{"amenity":"recycling","recycling:paper":"yes","recycling_type":"container"}},"type":"Feature"},
	{"geometry":{"coordinates":[15.920005,45.793568],"type":"Point"},"properties":{"osm_id":"6433264784","tag":{"amenity":"recycling","recycling:paper":"yes","recycling:plastic":"yes","recycling_type":"container"}},"type":"Feature"},
	{"geometry":{"coordinates":[15.929811,45.784763],"type":"Point"},"properties":{"osm_id":"6458065153","tag":{"amenity":"waste_basket"}},"type":"Feature"},
	{"geometry":{"coordinates":[15.929737,45.784828],"type":"Point"},"properties":{"osm_id":"6462857143","tag":{"amenity":"waste_disposal","waste":"trash"}},"type":"Feature"},
	{"geometry":{"coordinates":[15.929737,45.784811],"type":"Point"},"properties":{"osm_id":"6462857144","tag":{"amenity":"recycling","recycling:paper":"yes","recycling:plastic":"yes","recycling_type":"container"}},"type":"Feature"},
	{"geometry":{"coordinates":[15.970798,45.811815],"type":"Point"},"properties":{"osm_id":"6513293841","tag":{"amenity":"waste_basket"}},"type":"Feature"},
	{"geometry":{"coordinates":[15.976499,45.812786],"type":"Point"},"properties":{"osm_id":"6513323439","tag":{"amenity":"waste_basket"}},"type":"Feature"},
	{"geometry":{"coordinates":[15.977672,45.812746],"type":"Point"},"properties":{"osm_id":"6513323440","tag":{"amenity":"waste_basket"}},"type":"Feature"},
	{"geometry":{"coordinates":[15.97662,45.812927],"type":"Point"},"properties":{"osm_id":"6513329582","tag":{"amenity":"waste_basket"}},"type":"Feature"},
	{"geometry":{"coordinates":[15.976755,45.812911],"type":"Point"},"properties":{"osm_id":"6513334448","tag":{"amenity":"waste_basket"}},"type":"Feature"},
	{"geometry":{"coordinates":[15.971943,45.811915],"type":"Point"},"properties":{"osm_id":"6513342756","tag":{"amenity":"waste_basket"}},"type":"Feature"},
	{"geometry":{"coordinates":[15.943726,45.810518],"type":"Point"},"properties":{"osm_id":"6513713199","tag":{"amenity":"recycling","recycling:clothes":"yes","recycling:glass":"yes","recycling:paper":"yes","recycling:plastic":"yes","recycling_type":"container"}},"type":"Feature"},
	{"geometry":{"coordinates":[15.946894,45.811488],"type":"Point"},"properties":{"osm_id":"6513713200","tag":{"amenity":"waste_disposal","waste":"trash"}},"type":"Feature"},
	{"geometry":{"coordinates":[15.946884,45.811487],"type":"Point"},"properties":{"osm_id":"6513713201","tag":{"amenity":"recycling","recycling:clothes":"yes","recycling:glass":"yes","recycling:paper":"yes","recycling:plastic":"yes","recycling_type":"container"}},"type":"Feature"},
	{"geometry":{"coordinates":[15.953743,45.799713],"type":"Point"},"properties":{"osm_id":"6539194719","tag":{"amenity":"waste_basket"}},"type":"Feature"},
	{"geometry":{"coordinates":[15.977725,45.811354],"type":"Point"},"properties":{"osm_id":"6713054191","tag":{"amenity":"recycling","recycling:clothes":"yes","recycling:glass":"yes","recycling:paper":"yes","recycling:plastic":"yes","recycling_type":"container"}},"type":"Feature"},
	{"geometry":{"coordinates":[15.98543,45.785943],"type":"Point"},"properties":{"osm_id":"6782611342","tag":{"amenity":"waste_basket"}},"type":"Feature"},
	{"geometry":{"coordinates":[15.984212,45.783997],"type":"Point"},"properties":{"osm_id":"6782611351","tag":{"amenity":"waste_basket"}},"type":"Feature"},
	{"geometry":{"coordinates":[15.938356,45.824028],"type":"Point"},"properties":{"osm_id":"6856844696","tag":{"amenity":"recycling","recycling:cardboard":"yes","recycling:paper":"yes","recycling_type":"container"}},"type":"Feature"},
	{"geometry":{"coordinates":[15.937951,45.824044],"type":"Point"},"properties":{"osm_id":"6856844699","tag":{"amenity":"recycling","recycling:cardboard":"yes","recycling:paper":"yes","recycling_type":"container"}},"type":"Feature"},
	{"geometry":{"coordinates":[15.938679,45.823326],"type":"Point"},"properties":{"osm_id":"6856844714","tag":{"amenity":"recycling","recycling:cardboard":"yes","recycling:glass":"yes","recycling:glass_bottles":"yes","recycling:paper":"yes","recycling:waste":"yes","recycling_type":"container"}},"type":"Feature"},
	{"geometry":{"coordinates":[15.937527,45.821346],"type":"Point"},"properties":{"osm_id":"6856844744","tag":{"amenity":"recycling","recycling:PET":"yes","recycling:cans":"yes","recycling:cardboard":"yes","recycling:glass":"yes","recycling:glass_bottles":"yes","recycling:paper":"yes","recycling:plastic":"yes","recycling:plastic_bottles":"yes","recycling:plastic_packaging":"yes","recycling_type":"container"}},"type":"Feature"},
	{"geometry":{"coordinates":[15.939932,45.821247],"type":"Point"},"properties":{"osm_id":"6858823823","tag":{"amenity":"recycling","recycling:PET":"yes","recycling:aluminium":"yes","recycling:cans":"yes","recycling:cardboard":"yes","recycling:clothes":"yes","recycling:glass":"yes","recycling:glass_bottles":"yes","recycling:paper":"yes","recycling:plastic":"yes","recycling:plastic_bottles":"yes","recycling:plastic_packaging":"yes","recycling:waste":"yes","recycling_type":"container"}},"type":"Feature"},
	{"geometry":{"coordinates":[15.941898,45.809641],"type":"Point"},"properties":{"osm_id":"6985665243","tag":{"amenity":"recycling","recycling:clothes":"yes","recycling:paper":"yes","recycling_type":"container"}},"type":"Feature"},
	{"geometry":{"coordinates":[15.939578,45.809521],"type":"Point"},"properties":{"osm_id":"6985671706","tag":{"amenity":"recycling","recycling:paper":"yes","recycling:plastic":"yes","recycling_type":"container"}},"type":"Feature"},
	{"geometry":{"coordinates":[15.945108,45.809157],"type":"Point"},"properties":{"osm_id":"6985696927","tag":{"amenity":"recycling","building":"warehouse","recycling_type":"centre"}},"type":"Feature"},
	{"geometry":{"coordinates":[15.944557,45.807336],"type":"Point"},"properties":{"osm_id":"6986851170","tag":{"amenity":"recycling","recycling:glass":"yes","recycling:paper":"yes","recycling_type":"container"}},"type":"Feature"},
	{"geometry":{"coordinates":[15.916938,45.817871],"type":"Point"},"properties":{"osm_id":"7019985458","tag":{"amenity":"waste_basket"}},"type":"Feature"},
	{"geometry":{"coordinates":[15.917257,45.811606],"type":"Point"},"properties":{"osm_id":"7019992148","tag":{"amenity":"waste_basket"}},"type":"Feature"},
	{"geometry":{"coordinates":[15.917253,45.81247],"type":"Point"},"properties":{"osm_id":"7023902646","tag":{"amenity":"recycling","recycling:clothes":"yes","recycling:glass":"yes","recycling:paper":"yes","recycling:plastic":"yes","recycling_type":"container"}},"type":"Feature"},
	{"geometry":{"coordinates":[15.917762,45.794092],"type":"Point"},"properties":{"osm_id":"7041162901","tag":{"amenity":"waste_disposal"}},"type":"Feature"},
	{"geometry":{"coordinates":[15.93753,45.770279],"type":"Point"},"properties":{"osm_id":"7223453224","tag":{"amenity":"waste_basket"}},"type":"Feature"},
	{"geometry":{"coordinates":[15.937275,45.769967],"type":"Point"},"properties":{"osm_id":"7223453225","tag":{"amenity":"waste_basket"}},"type":"Feature"},
	{"geometry":{"coordinates":[15.937387,45.769655],"type":"Point"},"properties":{"osm_id":"7223453227","tag":{"amenity":"waste_basket"}},"type":"Feature"},
	{"geometry":{"coordinates":[15.936807,45.769439],"type":"Point"},"properties":{"osm_id":"7223453253","tag":{"amenity":"waste_basket"}},"type":"Feature"},
	{"geometry":{"coordinates":[15.936275,45.769441],"type":"Point"},"properties":{"osm_id":"7223453255","tag":{"amenity":"waste_basket"}},"type":"Feature"},
	{"geometry":{"coordinates":[15.935848,45.769442],"type":"Point"},"properties":{"osm_id":"7223453258","tag":{"amenity":"waste_basket"}},"type":"Feature"},
	{"geometry":{"coordinates":[15.935625,45.769442],"type":"Point"},"properties":{"osm_id":"7223453260","tag":{"amenity":"waste_basket"}},"type":"Feature"},
	{"geometry":{"coordinates":[15.935301,45.769455],"type":"Point"},"properties":{"osm_id":"7223453262","tag":{"amenity":"waste_basket"}},"type":"Feature"},
	{"geometry":{"coordinates":[15.935216,45.769038],"type":"Point"},"properties":{"osm_id":"7223453281","tag":{"amenity":"recycling","recycling_type":"container"}},"type":"Feature"},
	{"geometry":{"coordinates":[15.992374,45.78041],"type":"Point"},"properties":{"osm_id":"7238419728","tag":{"amenity":"recycling","recycling:paper":"yes","recycling_type":"container"}},"type":"Feature"},
	{"geometry":{"coordinates":[15.965941,45.796221],"type":"Point"},"properties":{"osm_id":"7272306748","tag":{"amenity":"waste_disposal"}},"type":"Feature"},
	{"geometry":{"coordinates":[15.952164,45.823356],"type":"Point"},"properties":{"osm_id":"7276800100","tag":{"amenity":"waste_basket","material":"wood"}},"type":"Feature"},
	{"geometry":{"coordinates":[15.954256,45.821316],"type":"Point"},"properties":{"osm_id":"7277164232","tag":{"amenity":"waste_basket","material":"wood"}},"type":"Feature"},
	{"geometry":{"coordinates":[15.954046,45.821478],"type":"Point"},"properties":{"osm_id":"7277164233","tag":{"amenity":"waste_basket","material":"wood"}},"type":"Feature"},
	{"geometry":{"coordinates":[15.954702,45.820933],"type":"Point"},"properties":{"osm_id":"7277164247","tag":{"amenity":"waste_basket","material":"wood"}},"type":"Feature"},
	{"geometry":{"coordinates":[15.954671,45.820849],"type":"Point"},"properties":{"osm_id":"7277164248","tag":{"amenity":"waste_basket","material":"wood"}},"type":"Feature"},
	{"geometry":{"coordinates":[15.954879,45.820892],"type":"Point"},"properties":{"osm_id":"7277164253","tag":{"amenity":"waste_basket","material":"wood"}},"type":"Feature"},
	{"geometry":{"coordinates":[15.954772,45.820175],"type":"Point"},"properties":{"osm_id":"7277164255","tag":{"amenity":"waste_basket","material":"wood"}},"type":"Feature"},
	{"geometry":{"coordinates":[15.954363,45.819872],"type":"Point"},"properties":{"osm_id":"7277164256","tag":{"amenity":"waste_basket","material":"wood"}},"type":"Feature"},
	{"geometry":{"coordinates":[15.95436,45.81928],"type":"Point"},"properties":{"osm_id":"7277164259","tag":{"amenity":"waste_basket","material":"wood"}},"type":"Feature"},
	{"geometry":{"coordinates":[15.954069,45.821805],"type":"Point"},"properties":{"osm_id":"7277164264","tag":{"amenity":"waste_basket","material":"wood"}},"type":"Feature"},
	{"geometry":{"coordinates":[15.95459,45.819312],"type":"Point"},"properties":{"osm_id":"7277177097","tag":{"amenity":"waste_basket","waste":"dog_excrement"}},"type":"Feature"},
	{"geometry":{"coordinates":[15.955791,45.821166],"type":"Point"},"properties":{"osm_id":"7296907975","tag":{"amenity":"waste_basket","material":"wood"}},"type":"Feature"},
	{"geometry":{"coordinates":[15.955985,45.820957],"type":"Point"},"properties":{"osm_id":"7296907976","tag":{"amenity":"waste_basket","waste":"dog_excrement"}},"type":"Feature"},
	{"geometry":{"coordinates":[15.989816,45.807717],"type":"Point"},"properties":{"osm_id":"7424775243","tag":{"amenity":"waste_basket","waste":"trash"}},"type":"Feature"},
	{"geometry":{"coordinates":[15.990157,45.807226],"type":"Point"},"properties":{"osm_id":"7424775245","tag":{"amenity":"waste_basket","waste":"trash"}},"type":"Feature"},
	{"geometry":{"coordinates":[15.989946,45.80741],"type":"Point"},"properties":{"osm_id":"7424781286","tag":{"amenity":"waste_basket","waste":"trash"}},"type":"Feature"},
	{"geometry":{"coordinates":[15.990108,45.807553],"type":"Point"},"properties":{"osm_id":"7424781287","tag":{"amenity":"waste_basket","waste":"trash"}},"type":"Feature"},
	{"geometry":{"coordinates":[15.990564,45.806852],"type":"Point"},"properties":{"osm_id":"7424790398","tag":{"amenity":"waste_basket","waste":"trash"}},"type":"Feature"},
	{"geometry":{"coordinates":[15.990674,45.80703],"type":"Point"},"properties":{"osm_id":"7424790400","tag":{"amenity":"waste_basket","waste":"trash"}},"type":"Feature"},
	{"geometry":{"coordinates":[15.927947,45.793642],"type":"Point"},"properties":{"barrier":"gate","osm_id":"7501830753"},"type":"Feature"},
	{"geometry":{"coordinates":[15.962845,45.77634],"type":"Point"},"properties":{"osm_id":"7637931914","tag":{"amenity":"recycling","recycling:plastic":"yes","recycling_type":"container"}},"type":"Feature"},
	{"geometry":{"coordinates":[15.952671,45.799415],"type":"Point"},"properties":{"osm_id":"7699458226","tag":{"amenity":"waste_disposal"}},"type":"Feature"},
	{"geometry":{"coordinates":[15.942558,45.802982],"type":"Point"},"properties":{"osm_id":"7700078384","tag":{"amenity":"waste_basket"}},"type":"Feature"},
	{"geometry":{"coordinates":[15.960043,45.798824],"type":"Point"},"properties":{"osm_id":"7700085225","tag":{"amenity":"waste_basket"}},"type":"Feature"},
	{"geometry":{"coordinates":[15.933703,45.815217],"type":"Point"},"properties":{"osm_id":"7702649852","tag":{"amenity":"waste_basket"}},"type":"Feature"},
	{"geometry":{"coordinates":[15.934119,45.815228],"type":"Point"},"properties":{"osm_id":"7702649857","tag":{"amenity":"waste_basket"}},"type":"Feature"},
	{"geometry":{"coordinates":[15.934496,45.815163],"type":"Point"},"properties":{"osm_id":"7702649860","tag":{"amenity":"waste_basket"}},"type":"Feature"},
	{"geometry":{"coordinates":[15.949066,45.774844],"type":"Point"},"properties":{"osm_id":"7770882513","tag":{"amenity":"recycling","recycling_type":"container"}},"type":"Feature"},
	{"geometry":{"coordinates":[15.977957,45.828649],"type":"Point"},"properties":{"osm_id":"7804848771","tag":{"amenity":"waste_basket","waste":"trash"}},"type":"Feature"},
	{"geometry":{"coordinates":[15.977869,45.828053],"type":"Point"},"properties":{"osm_id":"7804848772","tag":{"amenity":"recycling","recycling:glass":"yes","recycling:paper":"yes","recycling:plastic":"yes","recycling_type":"container"}},"type":"Feature"},
	{"geometry":{"coordinates":[15.977618,45.827548],"type":"Point"},"properties":{"osm_id":"7804848773","tag":{"amenity":"waste_disposal","waste":"trash"}},"type":"Feature"},
	{"geometry":{"coordinates":[15.977649,45.827649],"type":"Point"},"properties":{"osm_id":"7804848774","tag":{"amenity":"waste_disposal","waste":"trash"}},"type":"Feature"},
	{"geometry":{"coordinates":[15.977642,45.827653],"type":"Point"},"properties":{"osm_id":"7804848775","tag":{"amenity":"recycling","recycling:plastic":"yes","recycling_type":"container"}},"type":"Feature"},
	{"geometry":{"coordinates":[15.978742,45.827976],"type":"Point"},"properties":{"osm_id":"7804860091","tag":{"amenity":"waste_basket","waste":"trash"}},"type":"Feature"},
	{"geometry":{"coordinates":[15.979083,45.828013],"type":"Point"},"properties":{"osm_id":"7804860092","tag":{"amenity":"waste_basket","waste":"trash"}},"type":"Feature"},
	{"geometry":{"coordinates":[15.979288,45.827681],"type":"Point"},"properties":{"osm_id":"7804860097","tag":{"amenity":"recycling","recycling:glass":"yes","recycling:paper":"yes","recycling:plastic":"yes","recycling_type":"container"}},"type":"Feature"},
	{"geometry":{"coordinates":[15.979033,45.828199],"type":"Point"},"properties":{"osm_id":"7804860098","tag":{"amenity":"waste_basket","waste":"trash"}},"type":"Feature"},
	{"geometry":{"coordinates":[15.977638,45.825695],"type":"Point"},"properties":{"osm_id":"7815084847","tag":{"amenity":"waste_basket","waste":"trash"}},"type":"Feature"},
	{"geometry":{"coordinates":[15.977708,45.824429],"type":"Point"},"properties":{"osm_id":"7815089088","tag":{"amenity":"recycling","recycling:glass":"yes","recycling_type":"container"}},"type":"Feature"},
	{"geometry":{"coordinates":[15.978007,45.82241],"type":"Point"},"properties":{"osm_id":"7815089091","tag":{"amenity":"recycling","recycling:glass":"yes","recycling:paper":"yes","recycling:plastic":"yes","recycling_type":"container"}},"type":"Feature"},
	{"geometry":{"coordinates":[15.978293,45.822385],"type":"Point"},"properties":{"osm_id":"7815089095","tag":{"amenity":"waste_basket","waste":"trash"}},"type":"Feature"},
	{"geometry":{"coordinates":[15.978336,45.822519],"type":"Point"},"properties":{"osm_id":"7815089096","tag":{"amenity":"waste_basket"}},"type":"Feature"},
	{"geometry":{"coordinates":[15.978492,45.822503],"type":"Point"},"properties":{"osm_id":"7815089126","tag":{"amenity":"waste_basket","waste":"trash"}},"type":"Feature"},
	{"geometry":{"coordinates":[15.979019,45.824344],"type":"Point"},"properties":{"osm_id":"7815089127","tag":{"amenity":"waste_basket","waste":"trash"}},"type":"Feature"},
	{"geometry":{"coordinates":[15.978734,45.824673],"type":"Point"},"properties":{"osm_id":"7815089130","tag":{"amenity":"waste_basket","waste":"trash"}},"type":"Feature"},
	{"geometry":{"coordinates":[15.979091,45.827352],"type":"Point"},"properties":{"osm_id":"7815089131","tag":{"amenity":"waste_basket"}},"type":"Feature"},
	{"geometry":{"coordinates":[15.979341,45.827594],"type":"Point"},"properties":{"osm_id":"7815089141","tag":{"amenity":"waste_basket","waste":"trash"}},"type":"Feature"},
	{"geometry":{"coordinates":[15.979284,45.827791],"type":"Point"},"properties":{"osm_id":"7815089142","tag":{"amenity":"waste_basket"}},"type":"Feature"},
	{"geometry":{"coordinates":[15.973937,45.824388],"type":"Point"},"properties":{"osm_id":"7816941374","tag":{"amenity":"waste_basket","waste":"trash"}},"type":"Feature"},
	{"geometry":{"coordinates":[15.973954,45.824209],"type":"Point"},"properties":{"osm_id":"7816941375","tag":{"amenity":"waste_basket","waste":"trash"}},"type":"Feature"},
	{"geometry":{"coordinates":[15.973751,45.824504],"type":"Point"},"properties":{"osm_id":"7816941377","tag":{"amenity":"waste_basket","waste":"trash"}},"type":"Feature"},
	{"geometry":{"coordinates":[15.975966,45.824753],"type":"Point"},"properties":{"osm_id":"7816975220","tag":{"amenity":"waste_basket","waste":"trash"}},"type":"Feature"},
	{"geometry":{"coordinates":[15.975634,45.823804],"type":"Point"},"properties":{"osm_id":"7816975227","tag":{"amenity":"waste_basket","waste":"trash"}},"type":"Feature"},
	{"geometry":{"coordinates":[15.975607,45.82307],"type":"Point"},"properties":{"osm_id":"7816975228","tag":{"amenity":"waste_basket"}},"type":"Feature"},
	{"geometry":{"coordinates":[15.975535,45.822585],"type":"Point"},"properties":{"osm_id":"7816975229","tag":{"amenity":"waste_basket","waste":"trash"}},"type":"Feature"},
	{"geometry":{"coordinates":[15.976029,45.824168],"type":"Point"},"properties":{"osm_id":"7816975263","tag":{"amenity":"waste_basket","waste":"trash"}},"type":"Feature"},
	{"geometry":{"coordinates":[15.975828,45.825066],"type":"Point"},"properties":{"osm_id":"7816975272","tag":{"amenity":"recycling","recycling:paper":"yes","recycling:plastic":"yes","recycling_type":"container"}},"type":"Feature"},
	{"geometry":{"coordinates":[15.966623,45.80565],"type":"Point"},"properties":{"osm_id":"7856115995","tag":{"amenity":"recycling","recycling:paper":"yes","recycling_type":"container"}},"type":"Feature"},
	{"geometry":{"coordinates":[15.966642,45.805661],"type":"Point"},"properties":{"osm_id":"7856115996","tag":{"amenity":"recycling","recycling:glass":"yes","recycling:glass_bottles":"yes","recycling_type":"container"}},"type":"Feature"},
	{"geometry":{"coordinates":[15.966623,45.805677],"type":"Point"},"properties":{"osm_id":"7856115997","tag":{"amenity":"recycling","recycling:cans":"yes","recycling:plastic_bottles":"yes","recycling_type":"container"}},"type":"Feature"},
	{"geometry":{"coordinates":[15.977987,45.820338],"type":"Point"},"properties":{"osm_id":"7861716699","tag":{"amenity":"waste_basket","waste":"trash"}},"type":"Feature"},
	{"geometry":{"coordinates":[15.978104,45.820418],"type":"Point"},"properties":{"osm_id":"7861716700","tag":{"amenity":"recycling","recycling:glass":"yes","recycling:paper":"yes","recycling:plastic":"yes","recycling_type":"container"}},"type":"Feature"},
	{"geometry":{"coordinates":[15.945942,45.768303],"type":"Point"},"properties":{"osm_id":"7908078128","tag":{"amenity":"recycling","recycling_type":"container"}},"type":"Feature"},
	{"geometry":{"coordinates":[15.945934,45.768323],"type":"Point"},"properties":{"osm_id":"7908078129","tag":{"amenity":"recycling","recycling_type":"container"}},"type":"Feature"},
	{"geometry":{"coordinates":[15.945944,45.768292],"type":"Point"},"properties":{"osm_id":"7908078130","tag":{"amenity":"recycling","recycling_type":"container"}},"type":"Feature"},
	{"geometry":{"coordinates":[15.960796,45.807825],"type":"Point"},"properties":{"osm_id":"7921187302","tag":{"amenity":"recycling","recycling_type":"container"}},"type":"Feature"},
	{"geometry":{"coordinates":[15.960814,45.807817],"type":"Point"},"properties":{"osm_id":"7921187303","tag":{"amenity":"recycling","recycling_type":"container"}},"type":"Feature"},
	{"geometry":{"coordinates":[15.960828,45.807805],"type":"Point"},"properties":{"osm_id":"7921187304","tag":{"amenity":"recycling","recycling_type":"container"}},"type":"Feature"}
]
}
