{
"type": "FeatureCollection",
"features": [
	{"geometry":{"coordinates":[29.041356,40.980564],"type":"Point"},"properties":{"osm_id":"1755843201","tag":{"amenity":"recycling","recycling_type":"container"}},"type":"Feature"},
	{"geometry":{"coordinates":[29.039967,40.983326],"type":"Point"},"properties":{"osm_id":"1755843202","tag":{"amenity":"recycling","recycling_type":"container"}},"type":"Feature"},
	{"geometry":{"coordinates":[29.02027,40.982008],"type":"Point"},"properties":{"osm_id":"5486212821","tag":{"amenity":"waste_basket"}},"type":"Feature"},
	{"geometry":{"coordinates":[29.031229,41.002166],"type":"Point"},"properties":{"osm_id":"5601215979","tag":{"amenity":"waste_disposal"}},"type":"Feature"},
	{"geometry":{"coordinates":[29.052446,41.017264],"type":"Point"},"properties":{"osm_id":"6239239358","tag":{"amenity":"waste_basket"}},"type":"Feature"},
	{"geometry":{"coordinates":[29.036656,40.993935],"type":"Point"},"properties":{"osm_id":"6330270191","tag":{"addr:city":"\u00c4\u00b0stanbul","addr:district":"Kad\u00c4\u00b1k\u00c3\u00b6y","addr:street":"Kurba\u00c4\u009fal\u00c4\u00b1dere Caddesi","amenity":"recycling","operator":"Kad\u00c4\u00b1k\u00c3\u00b6y Belediyesi","recycling:batteries":"yes","recycling_type":"container"}},"type":"Feature"},
	{"geometry":{"coordinates":[29.036691,41.009082],"type":"Point"},"properties":{"osm_id":"6333042774","tag":{"addr:city":"\u00c4\u00b0stanbul","addr:district":"KADIK\u00c3\u0096Y","addr:street":"Ko\u00c5\u009fuyolu Caddesi","amenity":"waste_basket","operator":"Kad\u00c4\u00b1k\u00c3\u00b6y Belediyesi","waste":"trash"}},"type":"Feature"},
	{"geometry":{"coordinates":[29.037066,40.994176],"type":"Point"},"properties":{"osm_id":"6370045119","tag":{"addr:city":"\u00c4\u00b0stanbul","addr:district":"Kad\u00c4\u00b1k\u00c3\u00b6y","addr:street":"Kurba\u00c4\u009fal\u00c4\u00b1dere Caddesi","amenity":"waste_disposal","operator":"Kad\u00c4\u00b1k\u00c3\u00b6y Belediyesi","waste":"trash"}},"type":"Feature"},
	{"geometry":{"coordinates":[29.068407,41.016083],"type":"Point"},"properties":{"osm_id":"6783373438","tag":{"amenity":"recycling","recycling_type":"container"}},"type":"Feature"},
	{"geometry":{"coordinates":[29.061101,40.983543],"type":"Point"},"properties":{"osm_id":"6912606154","tag":{"addr:city":"\u00c4\u00b0stanbul","addr:district":"Kad\u00c4\u00b1k\u00c3\u00b6y","addr:street":"Fahrettin Kerim G\u00c3\u00b6kay Caddesi","amenity":"recycling","operator":"Kad\u00c4\u00b1k\u00c3\u00b6y Belediyesi","recycling:clothes":"yes","recycling_type":"container"}},"type":"Feature"}
]
}
