{
"type": "FeatureCollection",
"features": [
	{"geometry":{"coordinates":[-17.198096,28.151418],"type":"Point"},"properties":{"osm_id":"1574755209","tag":{"amenity":"waste_disposal"}},"type":"Feature"},
	{"geometry":{"coordinates":[-17.199154,28.153695],"type":"Point"},"properties":{"osm_id":"1574755343","tag":{"amenity":"waste_disposal"}},"type":"Feature"},
	{"geometry":{"coordinates":[-17.197876,28.157054],"type":"Point"},"properties":{"osm_id":"1575635741","tag":{"amenity":"waste_disposal"}},"type":"Feature"},
	{"geometry":{"coordinates":[-17.198267,28.159126],"type":"Point"},"properties":{"osm_id":"1575636050","tag":{"amenity":"waste_disposal"}},"type":"Feature"},
	{"geometry":{"coordinates":[-17.198507,28.160557],"type":"Point"},"properties":{"osm_id":"1575804984","tag":{"amenity":"waste_disposal"}},"type":"Feature"},
	{"geometry":{"coordinates":[-17.198331,28.162546],"type":"Point"},"properties":{"osm_id":"1575805315","tag":{"amenity":"waste_disposal"}},"type":"Feature"},
	{"geometry":{"coordinates":[-17.197884,28.164592],"type":"Point"},"properties":{"osm_id":"1575989411","tag":{"amenity":"waste_disposal"}},"type":"Feature"},
	{"geometry":{"coordinates":[-17.195006,28.167885],"type":"Point"},"properties":{"osm_id":"1577456545","tag":{"amenity":"waste_disposal"}},"type":"Feature"},
	{"geometry":{"coordinates":[-17.195035,28.167898],"type":"Point"},"properties":{"osm_id":"1577456549","tag":{"amenity":"recycling"}},"type":"Feature"},
	{"geometry":{"coordinates":[-17.194227,28.16844],"type":"Point"},"properties":{"osm_id":"1577456811","tag":{"amenity":"waste_disposal"}},"type":"Feature"},
	{"geometry":{"coordinates":[-17.183612,28.178171],"type":"Point"},"properties":{"osm_id":"1578307358","tag":{"amenity":"waste_basket"}},"type":"Feature"},
	{"geometry":{"coordinates":[-17.183753,28.178491],"type":"Point"},"properties":{"osm_id":"1578307430","tag":{"amenity":"recycling","recycling_type":"container"}},"type":"Feature"},
	{"geometry":{"coordinates":[-17.181113,28.176514],"type":"Point"},"properties":{"osm_id":"1578372724","tag":{"amenity":"waste_disposal"}},"type":"Feature"},
	{"geometry":{"coordinates":[-17.182315,28.175478],"type":"Point"},"properties":{"osm_id":"1578530636","tag":{"amenity":"waste_disposal"}},"type":"Feature"},
	{"geometry":{"coordinates":[-17.184491,28.172228],"type":"Point"},"properties":{"osm_id":"1578692989","tag":{"amenity":"waste_disposal"}},"type":"Feature"},
	{"geometry":{"coordinates":[-17.182868,28.174236],"type":"Point"},"properties":{"osm_id":"1578693282","tag":{"amenity":"waste_disposal"}},"type":"Feature"},
	{"geometry":{"coordinates":[-17.182585,28.174777],"type":"Point"},"properties":{"osm_id":"1578693319","tag":{"amenity":"recycling","recycling_type":"container"}},"type":"Feature"},
	{"geometry":{"coordinates":[-17.182484,28.175005],"type":"Point"},"properties":{"osm_id":"1578693384","tag":{"amenity":"waste_disposal"}},"type":"Feature"},
	{"geometry":{"coordinates":[-17.185693,28.171355],"type":"Point"},"properties":{"osm_id":"1578715938","tag":{"amenity":"waste_disposal"}},"type":"Feature"},
	{"geometry":{"coordinates":[-17.185306,28.171742],"type":"Point"},"properties":{"osm_id":"1578715971","tag":{"amenity":"waste_disposal"}},"type":"Feature"},
	{"geometry":{"coordinates":[-17.186149,28.170071],"type":"Point"},"properties":{"osm_id":"1581666209","tag":{"amenity":"waste_disposal"}},"type":"Feature"},
	{"geometry":{"coordinates":[-17.184656,28.170313],"type":"Point"},"properties":{"osm_id":"1581666326","tag":{"amenity":"waste_disposal"}},"type":"Feature"},
	{"geometry":{"coordinates":[-17.185389,28.170722],"type":"Point"},"properties":{"osm_id":"1581666543","tag":{"amenity":"waste_disposal"}},"type":"Feature"},
	{"geometry":{"coordinates":[-17.186794,28.164049],"type":"Point"},"properties":{"osm_id":"1581780790","tag":{"amenity":"waste_disposal"}},"type":"Feature"},
	{"geometry":{"coordinates":[-17.186704,28.165903],"type":"Point"},"properties":{"osm_id":"1581780869","tag":{"amenity":"waste_disposal"}},"type":"Feature"},
	{"geometry":{"coordinates":[-17.187084,28.168497],"type":"Point"},"properties":{"osm_id":"1581781166","tag":{"amenity":"waste_disposal"}},"type":"Feature"},
	{"geometry":{"coordinates":[-17.18652,28.169956],"type":"Point"},"properties":{"osm_id":"1581781273","tag":{"amenity":"waste_disposal"}},"type":"Feature"},
	{"geometry":{"coordinates":[-17.189677,28.16763],"type":"Point"},"properties":{"osm_id":"1582633739","tag":{"amenity":"waste_disposal"}},"type":"Feature"},
	{"geometry":{"coordinates":[-17.18504,28.179622],"type":"Point"},"properties":{"osm_id":"1585925298","tag":{"amenity":"waste_disposal"}},"type":"Feature"},
	{"geometry":{"coordinates":[-17.194563,28.185671],"type":"Point"},"properties":{"osm_id":"1585925621","tag":{"amenity":"recycling","recycling_type":"container"}},"type":"Feature"},
	{"geometry":{"coordinates":[-17.190519,28.17081],"type":"Point"},"properties":{"osm_id":"3429854710","tag":{"amenity":"recycling","mapillary":"3UeUUWdD1PCSCpE7urD3eg","recycling:glass":"yes","recycling_type":"container","survey:date":"2019-01-26"}},"type":"Feature"},
	{"geometry":{"coordinates":[-17.197699,28.164977],"type":"Point"},"properties":{"osm_id":"3429854712","tag":{"amenity":"recycling","mapillary":"FUo0POgRQjdXLGJemF4idw","recycling:glass":"yes","recycling_type":"container","survey:date":"2019-01-26"}},"type":"Feature"},
	{"geometry":{"coordinates":[-17.181991,28.17746],"type":"Point"},"properties":{"osm_id":"3431292802","tag":{"amenity":"waste_disposal"}},"type":"Feature"},
	{"geometry":{"coordinates":[-17.182438,28.177658],"type":"Point"},"properties":{"osm_id":"3431292809","tag":{"amenity":"waste_disposal"}},"type":"Feature"},
	{"geometry":{"coordinates":[-17.183503,28.177612],"type":"Point"},"properties":{"osm_id":"3431292816","tag":{"amenity":"waste_disposal"}},"type":"Feature"},
	{"geometry":{"coordinates":[-17.222308,28.186905],"type":"Point"},"properties":{"osm_id":"5235106167","tag":{"amenity":"recycling","recycling:glass":"yes","recycling_type":"container"}},"type":"Feature"},
	{"geometry":{"coordinates":[-17.195478,28.192613],"type":"Point"},"properties":{"osm_id":"5756840225","tag":{"amenity":"waste_disposal"}},"type":"Feature"},
	{"geometry":{"coordinates":[-17.19579,28.18983],"type":"Point"},"properties":{"osm_id":"5756855123","tag":{"amenity":"waste_disposal"}},"type":"Feature"},
	{"geometry":{"coordinates":[-17.194118,28.188991],"type":"Point"},"properties":{"osm_id":"6376267804","tag":{"amenity":"waste_basket"}},"type":"Feature"},
	{"geometry":{"coordinates":[-17.195158,28.189692],"type":"Point"},"properties":{"osm_id":"6376267805","tag":{"amenity":"waste_basket"}},"type":"Feature"},
	{"geometry":{"coordinates":[-17.214263,28.177666],"type":"Point"},"properties":{"osm_id":"6376314261","tag":{"amenity":"recycling"}},"type":"Feature"},
	{"geometry":{"coordinates":[-17.194365,28.187468],"type":"Point"},"properties":{"osm_id":"6376315963","tag":{"amenity":"waste_basket"}},"type":"Feature"},
	{"geometry":{"coordinates":[-17.193808,28.188134],"type":"Point"},"properties":{"osm_id":"6376315964","tag":{"amenity":"recycling"}},"type":"Feature"},
	{"geometry":{"coordinates":[-17.214168,28.177759],"type":"Point"},"properties":{"osm_id":"6376316360","tag":{"amenity":"waste_disposal"}},"type":"Feature"},
	{"geometry":{"coordinates":[-17.193765,28.188413],"type":"Point"},"properties":{"osm_id":"6376316610","tag":{"amenity":"waste_basket"}},"type":"Feature"},
	{"geometry":{"coordinates":[-17.194227,28.188889],"type":"Point"},"properties":{"osm_id":"6376316910","tag":{"amenity":"waste_basket"}},"type":"Feature"},
	{"geometry":{"coordinates":[-17.195293,28.189792],"type":"Point"},"properties":{"osm_id":"6376316934","tag":{"amenity":"waste_basket"}},"type":"Feature"},
	{"geometry":{"coordinates":[-17.20153,28.185781],"type":"Point"},"properties":{"osm_id":"6376317160","tag":{"amenity":"waste_disposal"}},"type":"Feature"},
	{"geometry":{"coordinates":[-17.201418,28.186034],"type":"Point"},"properties":{"osm_id":"6376317161","tag":{"amenity":"waste_basket"}},"type":"Feature"},
	{"geometry":{"coordinates":[-17.194737,28.187278],"type":"Point"},"properties":{"osm_id":"6376317162","tag":{"amenity":"waste_basket"}},"type":"Feature"},
	{"geometry":{"coordinates":[-17.193811,28.188105],"type":"Point"},"properties":{"osm_id":"6376317163","tag":{"amenity":"waste_disposal"}},"type":"Feature"},
	{"geometry":{"coordinates":[-17.19474,28.189443],"type":"Point"},"properties":{"osm_id":"6376317164","tag":{"amenity":"waste_disposal"}},"type":"Feature"},
	{"geometry":{"coordinates":[-17.197103,28.165684],"type":"Point"},"properties":{"osm_id":"6376317165","tag":{"amenity":"recycling","mapillary":"1c33dBngm0lPzlLAwosVCA","recycling_type":"container","survey:date":"2019-01-26"}},"type":"Feature"},
	{"geometry":{"coordinates":[-17.201147,28.185724],"type":"Point"},"properties":{"osm_id":"6376317268","tag":{"amenity":"waste_basket"}},"type":"Feature"},
	{"geometry":{"coordinates":[-17.201533,28.185763],"type":"Point"},"properties":{"osm_id":"6376317269","tag":{"amenity":"recycling"}},"type":"Feature"},
	{"geometry":{"coordinates":[-17.201393,28.186088],"type":"Point"},"properties":{"osm_id":"6376317299","tag":{"amenity":"waste_basket"}},"type":"Feature"},
	{"geometry":{"coordinates":[-17.194056,28.187629],"type":"Point"},"properties":{"osm_id":"6376317304","tag":{"amenity":"waste_basket"}},"type":"Feature"},
	{"geometry":{"coordinates":[-17.195718,28.189888],"type":"Point"},"properties":{"osm_id":"6376317306","tag":{"amenity":"waste_basket"}},"type":"Feature"},
	{"geometry":{"coordinates":[-17.1963,28.186769],"type":"Point"},"properties":{"osm_id":"6376317663","tag":{"amenity":"waste_disposal"}},"type":"Feature"},
	{"geometry":{"coordinates":[-17.19581,28.189834],"type":"Point"},"properties":{"osm_id":"6376318238","tag":{"amenity":"recycling"}},"type":"Feature"},
	{"geometry":{"coordinates":[-17.196303,28.189065],"type":"Point"},"properties":{"osm_id":"6376318239","tag":{"amenity":"waste_disposal"}},"type":"Feature"},
	{"geometry":{"coordinates":[-17.197001,28.188481],"type":"Point"},"properties":{"osm_id":"6376318241","tag":{"amenity":"waste_disposal"}},"type":"Feature"},
	{"geometry":{"coordinates":[-17.196947,28.187074],"type":"Point"},"properties":{"osm_id":"6376318242","tag":{"amenity":"waste_disposal"}},"type":"Feature"},
	{"geometry":{"coordinates":[-17.197713,28.164962],"type":"Point"},"properties":{"osm_id":"6376318728","tag":{"amenity":"waste_disposal"}},"type":"Feature"},
	{"geometry":{"coordinates":[-17.198285,28.164142],"type":"Point"},"properties":{"osm_id":"6376318810","tag":{"amenity":"waste_disposal"}},"type":"Feature"},
	{"geometry":{"coordinates":[-17.197117,28.165672],"type":"Point"},"properties":{"osm_id":"6376318811","tag":{"amenity":"waste_disposal"}},"type":"Feature"}
]
}
