{
"type": "FeatureCollection",
"features": [
	{"geometry":{"coordinates":[-119.357871,37.87231],"type":"Point"},"properties":{"osm_id":"2445325633","tag":{"amenity":"recycling","recycling:propane":"yes","recycling_type":"container"}},"type":"Feature"},
	{"geometry":{"coordinates":[-119.362551,37.869969],"type":"Point"},"properties":{"osm_id":"3732332188","tag":{"amenity":"waste_disposal"}},"type":"Feature"},
	{"geometry":{"coordinates":[-119.364867,37.871422],"type":"Point"},"properties":{"osm_id":"3732332196","tag":{"amenity":"waste_disposal"}},"type":"Feature"},
	{"geometry":{"coordinates":[-119.364835,37.871381],"type":"Point"},"properties":{"osm_id":"3732332197","tag":{"amenity":"recycling","recycling_type":"container"}},"type":"Feature"},
	{"geometry":{"coordinates":[-119.35782,37.872332],"type":"Point"},"properties":{"osm_id":"3755999330","tag":{"amenity":"recycling","recycling_type":"container"}},"type":"Feature"},
	{"geometry":{"coordinates":[-119.35585,37.870823],"type":"Point"},"properties":{"osm_id":"3755999332","tag":{"amenity":"waste_disposal"}},"type":"Feature"},
	{"geometry":{"coordinates":[-119.359581,37.871617],"type":"Point"},"properties":{"osm_id":"3755999335","tag":{"amenity":"waste_disposal"}},"type":"Feature"},
	{"geometry":{"coordinates":[-119.359546,37.871608],"type":"Point"},"properties":{"osm_id":"3755999336","tag":{"amenity":"recycling","recycling_type":"container"}},"type":"Feature"},
	{"geometry":{"coordinates":[-119.360655,37.870995],"type":"Point"},"properties":{"osm_id":"3755999337","tag":{"amenity":"waste_disposal"}},"type":"Feature"},
	{"geometry":{"coordinates":[-119.361817,37.871751],"type":"Point"},"properties":{"osm_id":"3755999340","tag":{"amenity":"recycling","recycling_type":"container"}},"type":"Feature"},
	{"geometry":{"coordinates":[-119.361881,37.87173],"type":"Point"},"properties":{"osm_id":"3755999341","tag":{"amenity":"waste_disposal"}},"type":"Feature"},
	{"geometry":{"coordinates":[-119.356699,37.873415],"type":"Point"},"properties":{"osm_id":"3755999343","tag":{"amenity":"waste_disposal"}},"type":"Feature"},
	{"geometry":{"coordinates":[-119.358358,37.878783],"type":"Point"},"properties":{"osm_id":"3756022406","tag":{"amenity":"waste_basket"}},"type":"Feature"},
	{"geometry":{"coordinates":[-119.355901,37.870803],"type":"Point"},"properties":{"osm_id":"6833513507","tag":{"amenity":"recycling","recycling_type":"container"}},"type":"Feature"},
	{"geometry":{"coordinates":[-119.35959,37.871639],"type":"Point"},"properties":{"osm_id":"6833513548","tag":{"amenity":"recycling","recycling:propane":"yes","recycling_type":"container"}},"type":"Feature"},
	{"geometry":{"coordinates":[-119.357014,37.874287],"type":"Point"},"properties":{"osm_id":"6839014389","tag":{"amenity":"waste_basket"}},"type":"Feature"},
	{"geometry":{"coordinates":[-119.357031,37.874456],"type":"Point"},"properties":{"osm_id":"6839014390","tag":{"amenity":"waste_basket"}},"type":"Feature"},
	{"geometry":{"coordinates":[-119.364304,37.870636],"type":"Point"},"properties":{"osm_id":"6840644094","tag":{"amenity":"waste_disposal"}},"type":"Feature"},
	{"geometry":{"coordinates":[-119.363408,37.870272],"type":"Point"},"properties":{"osm_id":"6840644095","tag":{"amenity":"waste_disposal"}},"type":"Feature"},
	{"geometry":{"coordinates":[-119.357781,37.872351],"type":"Point"},"properties":{"osm_id":"6840644096","tag":{"amenity":"waste_disposal"}},"type":"Feature"}
]
}
