{
"type": "FeatureCollection",
"features": [
	{"geometry":{"coordinates":[39.193916,-6.16433],"type":"Point"},"properties":{"osm_id":"2322739236","tag":{"amenity":"recycling","recycling:batteries":"no","recycling:books":"no","recycling:cans":"yes","recycling:cardboard":"no","recycling:cartons":"no","recycling:clothes":"no","recycling:electrical_appliances":"no","recycling:glass":"no","recycling:glass_bottles":"no","recycling:green_waste":"no","recycling:magazines":"no","recycling:newspaper":"no","recycling:paper":"no","recycling:paper_packaging":"no","recycling:plastic":"yes","recycling:plastic_bottles":"yes","recycling:plastic_packaging":"no","recycling:scrap_metal":"no","recycling:small_appliances":"no","recycling:waste":"no","recycling:wood":"no","recycling_type":"container"}},"type":"Feature"},
	{"geometry":{"coordinates":[39.194808,-6.164352],"type":"Point"},"properties":{"osm_id":"2577465325","tag":{"amenity":"recycling","recycling:cans":"yes","recycling_type":"container"}},"type":"Feature"},
	{"geometry":{"coordinates":[39.189447,-6.161608],"type":"Point"},"properties":{"osm_id":"5879450915","tag":{"amenity":"waste_disposal"}},"type":"Feature"},
	{"geometry":{"coordinates":[39.189411,-6.160516],"type":"Point"},"properties":{"osm_id":"5885098453","tag":{"amenity":"waste_basket"}},"type":"Feature"},
	{"geometry":{"coordinates":[39.196466,-6.16455],"type":"Point"},"properties":{"name":"Dump site","osm_id":"6787647568","tag":{"addr:district":"Zanzibar Urban","addr:region":"Zanzibar Urban West Region","addr:ward":"Mwembetanga","amenity":"waste_disposal"}},"type":"Feature"},
	{"geometry":{"coordinates":[39.198019,-6.164688],"type":"Point"},"properties":{"name":"Dump site","osm_id":"6787647575","tag":{"addr:district":"Zanzibar Urban","addr:region":"Zanzibar Urban West Region","addr:ward":"Mwembetanga","amenity":"waste_disposal"}},"type":"Feature"},
	{"geometry":{"coordinates":[39.198551,-6.163298],"type":"Point"},"properties":{"name":"Mwembetanga Dump site","osm_id":"6787651790","tag":{"addr:district":"Zanzibar Urban","addr:region":"Zanzibar Urban West Region","addr:ward":"Mwembetanga","amenity":"waste_disposal"}},"type":"Feature"},
	{"geometry":{"coordinates":[39.198424,-6.170523],"type":"Point"},"properties":{"name":"Dump","osm_id":"6787714880","tag":{"addr:district":"Zanzibar Urban","addr:region":"Zanzibar Urban West Region","addr:ward":"Kikwajuni Juu","amenity":"waste_disposal"}},"type":"Feature"},
	{"geometry":{"coordinates":[39.196523,-6.167141],"type":"Point"},"properties":{"name":"collection point","osm_id":"6787896127","tag":{"addr:district":"Zanzibar Urban","addr:region":"Zanzibar Urban West Region","addr:ward":"Kikwajuni Bondeni","amenity":"waste_disposal"}},"type":"Feature"},
	{"geometry":{"coordinates":[39.196775,-6.164898],"type":"Point"},"properties":{"name":"dust_bin","osm_id":"6787975809","tag":{"addr:district":"Zanzibar Urban","addr:region":"Zanzibar Urban West Region","addr:ward":"Kisiwandui","amenity":"waste_disposal"}},"type":"Feature"},
	{"geometry":{"coordinates":[39.195912,-6.165141],"type":"Point"},"properties":{"name":"dumps","osm_id":"6787975816","tag":{"addr:district":"Zanzibar Urban","addr:region":"Zanzibar Urban West Region","addr:ward":"Kisiwandui","amenity":"waste_disposal"}},"type":"Feature"},
	{"geometry":{"coordinates":[39.198541,-6.166106],"type":"Point"},"properties":{"name":"dump","osm_id":"6787990315","tag":{"addr:district":"Zanzibar Urban","addr:region":"Zanzibar Urban West Region","addr:ward":"Kisiwandui","amenity":"waste_disposal"}},"type":"Feature"},
	{"geometry":{"coordinates":[39.198473,-6.167406],"type":"Point"},"properties":{"name":"dumping site","osm_id":"6788020180","tag":{"addr:district":"Zanzibar Urban","addr:region":"Zanzibar Urban West Region","addr:ward":"Kisima Majongoo","amenity":"waste_disposal"}},"type":"Feature"},
	{"geometry":{"coordinates":[39.196293,-6.159407],"type":"Point"},"properties":{"name":"Dump","osm_id":"6789028344","tag":{"addr:district":"Zanzibar Urban","addr:region":"Zanzibar Urban West Region","addr:ward":"Mlandege","amenity":"waste_disposal"}},"type":"Feature"}
]
}
