{
"type": "FeatureCollection",
"features": [
	{"geometry":{"coordinates":[-84.170805,39.715248],"type":"Point"},"properties":{"name":"Wright Library Dog Waste Disposal","osm_id":"3996445568","tag":{"amenity":"waste_basket","amenity_1":"dog waste"}},"type":"Feature"},
	{"geometry":{"coordinates":[-84.196069,39.75171],"type":"Point"},"properties":{"name":"A&B Recycling Center","osm_id":"6903855886","tag":{"amenity":"recycling"}},"type":"Feature"},
	{"geometry":{"coordinates":[-84.12384,39.769605],"type":"Point"},"properties":{"osm_id":"7348642449","tag":{"amenity":"waste_disposal"}},"type":"Feature"},
	{"geometry":{"coordinates":[-84.183512,39.758341],"type":"Point"},"properties":{"osm_id":"7729522227","tag":{"amenity":"recycling","recycling_type":"container"}},"type":"Feature"},
	{"geometry":{"coordinates":[-84.183252,39.75836],"type":"Point"},"properties":{"osm_id":"7732635520","tag":{"amenity":"recycling","recycling_type":"container"}},"type":"Feature"},
	{"geometry":{"coordinates":[-84.182379,39.744971],"type":"Point"},"properties":{"osm_id":"7765785350","tag":{"amenity":"waste_disposal"}},"type":"Feature"},
	{"geometry":{"coordinates":[-84.181308,39.764995],"type":"Point"},"properties":{"osm_id":"7816484614","tag":{"amenity":"waste_disposal"}},"type":"Feature"},
	{"geometry":{"coordinates":[-84.190826,39.767515],"type":"Point"},"properties":{"osm_id":"7818122868","tag":{"amenity":"waste_disposal"}},"type":"Feature"},
	{"geometry":{"coordinates":[-84.17902,39.75694],"type":"Point"},"properties":{"osm_id":"7887387594","tag":{"amenity":"waste_disposal"}},"type":"Feature"}
]
}
