{
"type": "FeatureCollection",
"features": [
	{"geometry":{"coordinates":[-84.192131,10.019866],"type":"Point"},"properties":{"osm_id":"6488729153","tag":{"amenity":"waste_basket","collection_times":"Martes y Jueves.","operator":"Municipalidad de Alajuela"}},"type":"Feature"},
	{"geometry":{"coordinates":[-84.186897,9.979234],"type":"Point"},"properties":{"osm_id":"8095388601","tag":{"amenity":"recycling","description":"Farmacia San Antonio","indoor":"yes","operator":"Punto Seguro","recycling_type":"container"}},"type":"Feature"},
	{"geometry":{"coordinates":[-84.186897,9.979234],"type":"Point"},"properties":{"name":"Punto Seguro","osm_id":"8095388601","tag":{"amenity":"recycling","description":"Farmacia San Antonio","indoor":"yes","operator":"Punto Seguro","recycling_type":"container"}},"type":"Feature"},
	{"geometry":{"coordinates":[-84.118913,9.998096],"type":"Point"},"properties":{"name":"Punto Seguro","osm_id":"8097727869","tag":{"amenity":"recycling","description":"Cl\u00c3\u00adnica Perera","indoor":"yes","operator":"Punto Seguro","recycling_type":"container"}},"type":"Feature"},
	{"geometry":{"coordinates":[-84.180256,9.980433],"type":"Point"},"properties":{"name":"Punto Seguro","osm_id":"8097727870","tag":{"amenity":"recycling","description":"Dra Tatiana Barrantes","indoor":"yes","operator":"Punto Seguro","recycling_type":"container"}},"type":"Feature"},
	{"geometry":{"coordinates":[-84.159173,10.001913],"type":"Point"},"properties":{"name":"Punto Seguro","osm_id":"8097727873","tag":{"amenity":"recycling","description":"Centro M\u00c3\u00a9dico San Joaqu\u00c3\u00adn","indoor":"yes","operator":"Punto Seguro","recycling_type":"container"}},"type":"Feature"},
	{"geometry":{"coordinates":[-84.187091,10.002804],"type":"Point"},"properties":{"name":"Punto Seguro","osm_id":"8097727877","tag":{"amenity":"recycling","description":"Farmacia \u00c3\u0081ngel de Luz","indoor":"yes","operator":"Punto Seguro","recycling_type":"container"}},"type":"Feature"},
	{"geometry":{"coordinates":[-84.170437,9.991108],"type":"Point"},"properties":{"name":"Punto Seguro","osm_id":"8097748725","tag":{"amenity":"recycling","description":"Align","indoor":"yes","operator":"Punto Seguro","recycling_type":"container"}},"type":"Feature"}
]
}
