{
"type": "FeatureCollection",
"features": [
	{"geometry":{"coordinates":[-84.154538,9.964396],"type":"Point"},"properties":{"name":"Chatarrera","osm_id":"765944146","tag":{"amenity":"recycling"}},"type":"Feature"},
	{"geometry":{"coordinates":[-84.139888,9.920191],"type":"Point"},"properties":{"osm_id":"1832571774","tag":{"addr:city":"Escaz\u00c3\u00ba","amenity":"recycling"}},"type":"Feature"},
	{"geometry":{"coordinates":[-84.111563,9.938681],"type":"Point"},"properties":{"osm_id":"6159733050","tag":{"amenity":"waste_basket"}},"type":"Feature"},
	{"geometry":{"coordinates":[-84.111651,9.938557],"type":"Point"},"properties":{"osm_id":"6159733051","tag":{"amenity":"waste_basket"}},"type":"Feature"},
	{"geometry":{"coordinates":[-84.111543,9.93905],"type":"Point"},"properties":{"osm_id":"6159733052","tag":{"amenity":"waste_basket"}},"type":"Feature"},
	{"geometry":{"coordinates":[-84.111728,9.9391],"type":"Point"},"properties":{"osm_id":"6159733053","tag":{"amenity":"waste_basket"}},"type":"Feature"},
	{"geometry":{"coordinates":[-84.11155,9.939208],"type":"Point"},"properties":{"osm_id":"6159733054","tag":{"amenity":"waste_basket"}},"type":"Feature"}
]
}
