{
"type": "FeatureCollection",
"features": [
	{"geometry":{"coordinates":[20.452022,53.74875],"type":"Point"},"properties":{"osm_id":"1596740402","tag":{"amenity":"waste_basket"}},"type":"Feature"},
	{"geometry":{"coordinates":[20.451992,53.748903],"type":"Point"},"properties":{"osm_id":"1597531955","tag":{"amenity":"recycling","recycling:clothes":"yes","recycling:paper":"no","recycling_type":"container"}},"type":"Feature"},
	{"geometry":{"coordinates":[20.46081,53.754944],"type":"Point"},"properties":{"osm_id":"3198880029","tag":{"amenity":"recycling","recycling:cans":"yes","recycling:glass":"yes","recycling:paper":"yes","recycling_type":"container"}},"type":"Feature"},
	{"geometry":{"coordinates":[20.449331,53.751821],"type":"Point"},"properties":{"osm_id":"3226573005","tag":{"amenity":"recycling","location":"overground","recycling:clothes":"yes","recycling_type":"container"}},"type":"Feature"},
	{"geometry":{"coordinates":[20.456929,53.756032],"type":"Point"},"properties":{"osm_id":"3227458253","tag":{"amenity":"waste_disposal"}},"type":"Feature"},
	{"geometry":{"coordinates":[20.45598,53.754094],"type":"Point"},"properties":{"osm_id":"3227458254","tag":{"amenity":"waste_basket"}},"type":"Feature"},
	{"geometry":{"coordinates":[20.455763,53.756331],"type":"Point"},"properties":{"osm_id":"3227458255","tag":{"amenity":"waste_basket"}},"type":"Feature"},
	{"geometry":{"coordinates":[20.477656,53.774737],"type":"Point"},"properties":{"osm_id":"3814455361","tag":{"amenity":"waste_basket"}},"type":"Feature"},
	{"geometry":{"coordinates":[20.477375,53.774916],"type":"Point"},"properties":{"osm_id":"3814455363","tag":{"amenity":"waste_basket"}},"type":"Feature"},
	{"geometry":{"coordinates":[20.477214,53.774894],"type":"Point"},"properties":{"osm_id":"3814455365","tag":{"amenity":"waste_basket"}},"type":"Feature"},
	{"geometry":{"coordinates":[20.477079,53.774908],"type":"Point"},"properties":{"osm_id":"3814455366","tag":{"amenity":"waste_basket"}},"type":"Feature"},
	{"geometry":{"coordinates":[20.475842,53.775899],"type":"Point"},"properties":{"osm_id":"3814455383","tag":{"amenity":"waste_basket"}},"type":"Feature"},
	{"geometry":{"coordinates":[20.475959,53.776026],"type":"Point"},"properties":{"osm_id":"3814455384","tag":{"amenity":"waste_basket"}},"type":"Feature"},
	{"geometry":{"coordinates":[20.470649,53.765616],"type":"Point"},"properties":{"osm_id":"3960654118","tag":{"amenity":"recycling","recycling_type":"container"}},"type":"Feature"},
	{"geometry":{"coordinates":[20.471746,53.76226],"type":"Point"},"properties":{"osm_id":"3960683805","tag":{"amenity":"recycling"}},"type":"Feature"},
	{"geometry":{"coordinates":[20.46799,53.764231],"type":"Point"},"properties":{"osm_id":"3960683823","tag":{"amenity":"recycling"}},"type":"Feature"},
	{"geometry":{"coordinates":[20.471626,53.764504],"type":"Point"},"properties":{"osm_id":"3960683908","tag":{"amenity":"recycling"}},"type":"Feature"},
	{"geometry":{"coordinates":[20.468807,53.758703],"type":"Point"},"properties":{"osm_id":"3960735738","tag":{"amenity":"recycling","location":"overground","recycling:cans":"yes","recycling:clothes":"yes","recycling:glass_bottles":"yes","recycling:green_waste":"yes","recycling:paper":"yes","recycling:plastic":"yes","recycling:shoes":"yes","recycling_type":"container"}},"type":"Feature"},
	{"geometry":{"coordinates":[20.471736,53.762152],"type":"Point"},"properties":{"osm_id":"3962401737","tag":{"amenity":"waste_disposal"}},"type":"Feature"},
	{"geometry":{"coordinates":[20.470422,53.760706],"type":"Point"},"properties":{"osm_id":"3962401738","tag":{"amenity":"waste_disposal"}},"type":"Feature"},
	{"geometry":{"coordinates":[20.470473,53.760772],"type":"Point"},"properties":{"osm_id":"3962401739","tag":{"amenity":"recycling","location":"overground","recycling:cans":"yes","recycling:clothes":"yes","recycling:glass_bottles":"yes","recycling:green_waste":"yes","recycling:paper":"yes","recycling:plastic":"yes","recycling:shoes":"yes","recycling_type":"container"}},"type":"Feature"},
	{"geometry":{"coordinates":[20.472431,53.759087],"type":"Point"},"properties":{"osm_id":"3962404315","tag":{"amenity":"waste_disposal"}},"type":"Feature"},
	{"geometry":{"coordinates":[20.472424,53.763309],"type":"Point"},"properties":{"osm_id":"3976544254","tag":{"amenity":"waste_disposal"}},"type":"Feature"},
	{"geometry":{"coordinates":[20.471624,53.764476],"type":"Point"},"properties":{"osm_id":"3976570932","tag":{"amenity":"waste_disposal"}},"type":"Feature"},
	{"geometry":{"coordinates":[20.469578,53.763027],"type":"Point"},"properties":{"osm_id":"3976571404","tag":{"amenity":"waste_disposal"}},"type":"Feature"},
	{"geometry":{"coordinates":[20.468119,53.764207],"type":"Point"},"properties":{"osm_id":"3976571438","tag":{"amenity":"waste_disposal"}},"type":"Feature"},
	{"geometry":{"coordinates":[20.473008,53.775849],"type":"Point"},"properties":{"osm_id":"4014571898","tag":{"amenity":"waste_basket"}},"type":"Feature"},
	{"geometry":{"coordinates":[20.471822,53.776484],"type":"Point"},"properties":{"osm_id":"4014571920","tag":{"amenity":"waste_basket"}},"type":"Feature"},
	{"geometry":{"coordinates":[20.450359,53.776285],"type":"Point"},"properties":{"osm_id":"4014580333","tag":{"amenity":"waste_basket"}},"type":"Feature"},
	{"geometry":{"coordinates":[20.449402,53.777325],"type":"Point"},"properties":{"osm_id":"4014580336","tag":{"amenity":"waste_basket"}},"type":"Feature"},
	{"geometry":{"coordinates":[20.449815,53.777169],"type":"Point"},"properties":{"osm_id":"4014580340","tag":{"amenity":"waste_basket"}},"type":"Feature"},
	{"geometry":{"coordinates":[20.449551,53.777376],"type":"Point"},"properties":{"osm_id":"4014580342","tag":{"amenity":"waste_basket"}},"type":"Feature"},
	{"geometry":{"coordinates":[20.44995,53.777299],"type":"Point"},"properties":{"osm_id":"4014580346","tag":{"amenity":"waste_basket"}},"type":"Feature"},
	{"geometry":{"coordinates":[20.45551,53.755995],"type":"Point"},"properties":{"osm_id":"4467925961","tag":{"amenity":"waste_basket"}},"type":"Feature"},
	{"geometry":{"coordinates":[20.455802,53.756388],"type":"Point"},"properties":{"osm_id":"4467925983","tag":{"amenity":"waste_basket"}},"type":"Feature"},
	{"geometry":{"coordinates":[20.455846,53.756574],"type":"Point"},"properties":{"osm_id":"4467925988","tag":{"amenity":"waste_basket"}},"type":"Feature"},
	{"geometry":{"coordinates":[20.428153,53.764483],"type":"Point"},"properties":{"name":"Pojemnik na odzie\u00c5\u00bc urzywan\u00c4\u0085","osm_id":"5554025202","tag":{"amenity":"recycling","recycling_type":"container"}},"type":"Feature"},
	{"geometry":{"coordinates":[20.421595,53.76675],"type":"Point"},"properties":{"name":"Pojemnik na odzie\u00c5\u00bc urzywan\u00c4\u0085","osm_id":"5554025209","tag":{"amenity":"recycling","recycling_type":"container"}},"type":"Feature"},
	{"geometry":{"coordinates":[20.45761,53.749844],"type":"Point"},"properties":{"osm_id":"5679962432","tag":{"amenity":"waste_disposal"}},"type":"Feature"},
	{"geometry":{"coordinates":[20.472762,53.768005],"type":"Point"},"properties":{"osm_id":"5936433103","tag":{"amenity":"waste_disposal"}},"type":"Feature"},
	{"geometry":{"coordinates":[20.476585,53.777571],"type":"Point"},"properties":{"osm_id":"5955184865","tag":{"amenity":"waste_disposal"}},"type":"Feature"},
	{"geometry":{"coordinates":[20.476649,53.77763],"type":"Point"},"properties":{"osm_id":"5955184866","tag":{"amenity":"waste_disposal"}},"type":"Feature"},
	{"geometry":{"coordinates":[20.476694,53.777676],"type":"Point"},"properties":{"osm_id":"5955184867","tag":{"amenity":"waste_disposal"}},"type":"Feature"},
	{"geometry":{"coordinates":[20.476723,53.7777],"type":"Point"},"properties":{"osm_id":"5955184868","tag":{"amenity":"waste_disposal"}},"type":"Feature"},
	{"geometry":{"coordinates":[20.42989,53.765362],"type":"Point"},"properties":{"name":"Pojemnik na odzie\u00c5\u00bc urzywan\u00c4\u0085","osm_id":"6345045585","tag":{"amenity":"recycling","recycling_type":"container"}},"type":"Feature"},
	{"geometry":{"coordinates":[20.435539,53.767554],"type":"Point"},"properties":{"name":"Pojemnik na odzie\u00c5\u00bc urzywan\u00c4\u0085","osm_id":"6345045586","tag":{"amenity":"recycling","recycling_type":"container"}},"type":"Feature"},
	{"geometry":{"coordinates":[20.459693,53.761577],"type":"Point"},"properties":{"osm_id":"6561442622","tag":{"amenity":"waste_basket"}},"type":"Feature"},
	{"geometry":{"coordinates":[20.471217,53.767581],"type":"Point"},"properties":{"osm_id":"7237069176","tag":{"amenity":"waste_disposal"}},"type":"Feature"},
	{"geometry":{"coordinates":[20.468715,53.768072],"type":"Point"},"properties":{"osm_id":"7237069177","tag":{"access":"permissive","amenity":"waste_disposal","operator":"OSM"}},"type":"Feature"}
]
}
