{
"type": "FeatureCollection",
"features": [
	{"geometry":{"coordinates":[-122.129177,47.671409],"type":"Point"},"properties":{"osm_id":"3006220639","tag":{"amenity":"waste_disposal"}},"type":"Feature"},
	{"geometry":{"coordinates":[-122.12893,47.672194],"type":"Point"},"properties":{"osm_id":"3006221311","tag":{"amenity":"waste_disposal"}},"type":"Feature"},
	{"geometry":{"coordinates":[-122.130619,47.672225],"type":"Point"},"properties":{"osm_id":"3006221321","tag":{"amenity":"waste_disposal"}},"type":"Feature"},
	{"geometry":{"coordinates":[-122.130141,47.672312],"type":"Point"},"properties":{"osm_id":"3006221352","tag":{"amenity":"waste_disposal"}},"type":"Feature"},
	{"geometry":{"coordinates":[-122.099122,47.664745],"type":"Point"},"properties":{"osm_id":"3322779936","tag":{"amenity":"waste_disposal"}},"type":"Feature"},
	{"geometry":{"coordinates":[-122.13099,47.675185],"type":"Point"},"properties":{"osm_id":"3327994804","tag":{"amenity":"waste_disposal"}},"type":"Feature"},
	{"geometry":{"coordinates":[-122.131075,47.675234],"type":"Point"},"properties":{"osm_id":"3327994813","tag":{"amenity":"waste_disposal"}},"type":"Feature"},
	{"geometry":{"coordinates":[-122.127129,47.675274],"type":"Point"},"properties":{"osm_id":"3327994829","tag":{"amenity":"waste_disposal"}},"type":"Feature"},
	{"geometry":{"coordinates":[-122.12656,47.675395],"type":"Point"},"properties":{"osm_id":"3327994865","tag":{"amenity":"waste_disposal"}},"type":"Feature"},
	{"geometry":{"coordinates":[-122.126824,47.675812],"type":"Point"},"properties":{"osm_id":"3327994917","tag":{"amenity":"waste_disposal"}},"type":"Feature"},
	{"geometry":{"coordinates":[-122.131153,47.675951],"type":"Point"},"properties":{"osm_id":"3327994929","tag":{"amenity":"waste_disposal"}},"type":"Feature"},
	{"geometry":{"coordinates":[-122.123725,47.680281],"type":"Point"},"properties":{"osm_id":"3366346889","tag":{"amenity":"waste_disposal"}},"type":"Feature"},
	{"geometry":{"coordinates":[-122.122156,47.680312],"type":"Point"},"properties":{"osm_id":"3366346993","tag":{"amenity":"waste_disposal"}},"type":"Feature"},
	{"geometry":{"coordinates":[-122.122037,47.680448],"type":"Point"},"properties":{"osm_id":"3366347056","tag":{"amenity":"waste_disposal"}},"type":"Feature"},
	{"geometry":{"coordinates":[-122.125208,47.68062],"type":"Point"},"properties":{"osm_id":"3366347205","tag":{"amenity":"waste_disposal"}},"type":"Feature"},
	{"geometry":{"coordinates":[-122.128443,47.645707],"type":"Point"},"properties":{"osm_id":"3516771353","tag":{"amenity":"waste_disposal"}},"type":"Feature"},
	{"geometry":{"coordinates":[-122.128434,47.645769],"type":"Point"},"properties":{"osm_id":"3516771363","tag":{"amenity":"waste_disposal"}},"type":"Feature"},
	{"geometry":{"coordinates":[-122.121469,47.665233],"type":"Point"},"properties":{"osm_id":"3695882428","tag":{"amenity":"waste_basket"}},"type":"Feature"},
	{"geometry":{"coordinates":[-122.135819,47.638419],"type":"Point"},"properties":{"osm_id":"4304619398","tag":{"amenity":"waste_basket","project":"opensidewalks"}},"type":"Feature"},
	{"geometry":{"coordinates":[-122.131987,47.680099],"type":"Point"},"properties":{"osm_id":"4407424502","tag":{"amenity":"waste_basket"}},"type":"Feature"},
	{"geometry":{"coordinates":[-122.116746,47.658252],"type":"Point"},"properties":{"osm_id":"4852365023","tag":{"amenity":"waste_basket"}},"type":"Feature"},
	{"geometry":{"coordinates":[-122.122147,47.663067],"type":"Point"},"properties":{"osm_id":"4852365121","tag":{"amenity":"waste_basket"}},"type":"Feature"},
	{"geometry":{"coordinates":[-122.118713,47.659551],"type":"Point"},"properties":{"osm_id":"4852365321","tag":{"amenity":"waste_basket"}},"type":"Feature"},
	{"geometry":{"coordinates":[-122.118265,47.658777],"type":"Point"},"properties":{"osm_id":"4852365322","tag":{"amenity":"waste_basket"}},"type":"Feature"},
	{"geometry":{"coordinates":[-122.103233,47.667256],"type":"Point"},"properties":{"osm_id":"5714249274","tag":{"amenity":"waste_basket"}},"type":"Feature"},
	{"geometry":{"coordinates":[-122.101978,47.666176],"type":"Point"},"properties":{"osm_id":"5714261324","tag":{"amenity":"waste_basket"}},"type":"Feature"},
	{"geometry":{"coordinates":[-122.102301,47.666403],"type":"Point"},"properties":{"osm_id":"5714261327","tag":{"amenity":"waste_basket"}},"type":"Feature"},
	{"geometry":{"coordinates":[-122.101826,47.66625],"type":"Point"},"properties":{"osm_id":"5714261329","tag":{"amenity":"waste_basket"}},"type":"Feature"},
	{"geometry":{"coordinates":[-122.11094,47.660071],"type":"Point"},"properties":{"osm_id":"6648333801","tag":{"amenity":"waste_basket"}},"type":"Feature"},
	{"geometry":{"coordinates":[-122.110913,47.658012],"type":"Point"},"properties":{"osm_id":"6648333802","tag":{"amenity":"waste_basket"}},"type":"Feature"},
	{"geometry":{"coordinates":[-122.131734,47.672522],"type":"Point"},"properties":{"osm_id":"6814417316","tag":{"amenity":"waste_basket"}},"type":"Feature"},
	{"geometry":{"coordinates":[-122.127838,47.671107],"type":"Point"},"properties":{"osm_id":"6814439283","tag":{"amenity":"waste_basket"}},"type":"Feature"},
	{"geometry":{"coordinates":[-122.132082,47.643871],"type":"Point"},"properties":{"osm_id":"7670721185","tag":{"amenity":"waste_basket","project":"opensidewalks"}},"type":"Feature"},
	{"geometry":{"coordinates":[-122.127208,47.643843],"type":"Point"},"properties":{"osm_id":"7672083408","tag":{"amenity":"waste_basket","project":"opensidewalks"}},"type":"Feature"},
	{"geometry":{"coordinates":[-122.105121,47.643762],"type":"Point"},"properties":{"osm_id":"7935781720","tag":{"amenity":"waste_basket"}},"type":"Feature"},
	{"geometry":{"coordinates":[-122.105187,47.643842],"type":"Point"},"properties":{"osm_id":"7935781741","tag":{"amenity":"waste_disposal"}},"type":"Feature"},
	{"geometry":{"coordinates":[-122.103858,47.64236],"type":"Point"},"properties":{"osm_id":"7940568600","tag":{"amenity":"waste_basket"}},"type":"Feature"}
]
}
