{
"type": "FeatureCollection",
"features": [
	{"geometry":{"coordinates":[-122.093466,37.440984],"type":"Point"},"properties":{"osm_id":"4311617981","tag":{"amenity":"waste_basket"}},"type":"Feature"},
	{"geometry":{"coordinates":[-122.122126,37.477132],"type":"Point"},"properties":{"osm_id":"4613276481","tag":{"amenity":"waste_basket"}},"type":"Feature"},
	{"geometry":{"coordinates":[-122.122293,37.475928],"type":"Point"},"properties":{"osm_id":"4613276482","tag":{"amenity":"waste_basket"}},"type":"Feature"},
	{"geometry":{"coordinates":[-122.122849,37.476368],"type":"Point"},"properties":{"osm_id":"4613276486","tag":{"amenity":"waste_basket"}},"type":"Feature"},
	{"geometry":{"coordinates":[-122.162966,37.44618],"type":"Point"},"properties":{"osm_id":"5732981228","tag":{"amenity":"waste_basket"}},"type":"Feature"},
	{"geometry":{"coordinates":[-122.16068,37.440873],"type":"Point"},"properties":{"osm_id":"7297727372","tag":{"amenity":"waste_basket"}},"type":"Feature"},
	{"geometry":{"coordinates":[-122.161554,37.441248],"type":"Point"},"properties":{"osm_id":"7300708477","tag":{"amenity":"waste_basket"}},"type":"Feature"},
	{"geometry":{"coordinates":[-122.142702,37.448984],"type":"Point"},"properties":{"osm_id":"7333632485","tag":{"amenity":"waste_basket"}},"type":"Feature"},
	{"geometry":{"coordinates":[-122.142728,37.449262],"type":"Point"},"properties":{"osm_id":"7333632585","tag":{"amenity":"waste_basket"}},"type":"Feature"},
	{"geometry":{"coordinates":[-122.14194,37.449019],"type":"Point"},"properties":{"osm_id":"7333632685","tag":{"amenity":"waste_basket"}},"type":"Feature"},
	{"geometry":{"coordinates":[-122.159284,37.443966],"type":"Point"},"properties":{"osm_id":"7355034877","tag":{"amenity":"waste_basket"}},"type":"Feature"},
	{"geometry":{"coordinates":[-122.159315,37.443937],"type":"Point"},"properties":{"osm_id":"7355034878","tag":{"amenity":"waste_basket"}},"type":"Feature"},
	{"geometry":{"coordinates":[-122.160348,37.443008],"type":"Point"},"properties":{"osm_id":"7355034879","tag":{"amenity":"waste_basket"}},"type":"Feature"},
	{"geometry":{"coordinates":[-122.157176,37.444107],"type":"Point"},"properties":{"osm_id":"7355047137","tag":{"amenity":"waste_basket"}},"type":"Feature"},
	{"geometry":{"coordinates":[-122.157425,37.443865],"type":"Point"},"properties":{"osm_id":"7364465489","tag":{"amenity":"waste_basket"}},"type":"Feature"},
	{"geometry":{"coordinates":[-122.161771,37.443802],"type":"Point"},"properties":{"osm_id":"7364465490","tag":{"amenity":"waste_basket"}},"type":"Feature"},
	{"geometry":{"coordinates":[-122.163873,37.442763],"type":"Point"},"properties":{"osm_id":"7386375469","tag":{"amenity":"waste_basket"}},"type":"Feature"},
	{"geometry":{"coordinates":[-122.165466,37.440943],"type":"Point"},"properties":{"osm_id":"7386375470","tag":{"amenity":"waste_basket"}},"type":"Feature"},
	{"geometry":{"coordinates":[-122.166033,37.441138],"type":"Point"},"properties":{"osm_id":"7386375471","tag":{"amenity":"waste_basket"}},"type":"Feature"},
	{"geometry":{"coordinates":[-122.159431,37.442092],"type":"Point"},"properties":{"osm_id":"7386389040","tag":{"amenity":"waste_basket"}},"type":"Feature"},
	{"geometry":{"coordinates":[-122.156631,37.443785],"type":"Point"},"properties":{"osm_id":"7418128285","tag":{"amenity":"waste_basket"}},"type":"Feature"},
	{"geometry":{"coordinates":[-122.157685,37.44333],"type":"Point"},"properties":{"osm_id":"7418128385","tag":{"amenity":"waste_basket"}},"type":"Feature"},
	{"geometry":{"coordinates":[-122.159207,37.442064],"type":"Point"},"properties":{"osm_id":"7419934600","tag":{"amenity":"waste_basket"}},"type":"Feature"},
	{"geometry":{"coordinates":[-122.16492,37.443358],"type":"Point"},"properties":{"osm_id":"7431079728","tag":{"amenity":"waste_basket"}},"type":"Feature"},
	{"geometry":{"coordinates":[-122.157158,37.44393],"type":"Point"},"properties":{"osm_id":"7431236047","tag":{"amenity":"waste_basket"}},"type":"Feature"},
	{"geometry":{"coordinates":[-122.160118,37.445089],"type":"Point"},"properties":{"osm_id":"7443755401","tag":{"amenity":"waste_basket"}},"type":"Feature"},
	{"geometry":{"coordinates":[-122.161008,37.446395],"type":"Point"},"properties":{"osm_id":"7443791086","tag":{"amenity":"waste_basket"}},"type":"Feature"},
	{"geometry":{"coordinates":[-122.158103,37.447513],"type":"Point"},"properties":{"osm_id":"7443792785","tag":{"amenity":"waste_basket"}},"type":"Feature"},
	{"geometry":{"coordinates":[-122.158337,37.447694],"type":"Point"},"properties":{"osm_id":"7443792786","tag":{"amenity":"waste_basket"}},"type":"Feature"},
	{"geometry":{"coordinates":[-122.158587,37.447853],"type":"Point"},"properties":{"osm_id":"7443792787","tag":{"amenity":"waste_basket"}},"type":"Feature"},
	{"geometry":{"coordinates":[-122.160062,37.447378],"type":"Point"},"properties":{"osm_id":"7443792790","tag":{"amenity":"waste_basket"}},"type":"Feature"},
	{"geometry":{"coordinates":[-122.160255,37.447172],"type":"Point"},"properties":{"osm_id":"7443792791","tag":{"amenity":"waste_basket"}},"type":"Feature"},
	{"geometry":{"coordinates":[-122.160451,37.446986],"type":"Point"},"properties":{"osm_id":"7443792792","tag":{"amenity":"waste_basket"}},"type":"Feature"},
	{"geometry":{"coordinates":[-122.160858,37.446541],"type":"Point"},"properties":{"osm_id":"7443792888","tag":{"amenity":"waste_basket"}},"type":"Feature"},
	{"geometry":{"coordinates":[-122.155508,37.443114],"type":"Point"},"properties":{"osm_id":"7469054385","tag":{"amenity":"waste_basket"}},"type":"Feature"},
	{"geometry":{"coordinates":[-122.159122,37.448298],"type":"Point"},"properties":{"osm_id":"7477118486","tag":{"amenity":"waste_basket"}},"type":"Feature"},
	{"geometry":{"coordinates":[-122.159282,37.448413],"type":"Point"},"properties":{"osm_id":"7477118590","tag":{"amenity":"waste_basket"}},"type":"Feature"},
	{"geometry":{"coordinates":[-122.159157,37.448509],"type":"Point"},"properties":{"osm_id":"7477118889","tag":{"amenity":"waste_basket"}},"type":"Feature"},
	{"geometry":{"coordinates":[-122.160633,37.449071],"type":"Point"},"properties":{"osm_id":"7477118890","tag":{"amenity":"waste_basket"}},"type":"Feature"},
	{"geometry":{"coordinates":[-122.163535,37.450008],"type":"Point"},"properties":{"osm_id":"7477157385","tag":{"amenity":"waste_basket"}},"type":"Feature"},
	{"geometry":{"coordinates":[-122.159687,37.446574],"type":"Point"},"properties":{"osm_id":"7477157386","tag":{"amenity":"waste_basket"}},"type":"Feature"},
	{"geometry":{"coordinates":[-122.163525,37.449758],"type":"Point"},"properties":{"osm_id":"7477157487","tag":{"amenity":"waste_basket"}},"type":"Feature"},
	{"geometry":{"coordinates":[-122.161669,37.448047],"type":"Point"},"properties":{"osm_id":"7477177586","tag":{"amenity":"waste_basket"}},"type":"Feature"},
	{"geometry":{"coordinates":[-122.161735,37.447749],"type":"Point"},"properties":{"osm_id":"7477177785","tag":{"amenity":"waste_basket"}},"type":"Feature"},
	{"geometry":{"coordinates":[-122.160513,37.447234],"type":"Point"},"properties":{"osm_id":"7477177786","tag":{"amenity":"waste_basket"}},"type":"Feature"},
	{"geometry":{"coordinates":[-122.159395,37.446404],"type":"Point"},"properties":{"osm_id":"7477177789","tag":{"amenity":"waste_basket"}},"type":"Feature"},
	{"geometry":{"coordinates":[-122.15919,37.446464],"type":"Point"},"properties":{"osm_id":"7477177790","tag":{"amenity":"waste_basket"}},"type":"Feature"},
	{"geometry":{"coordinates":[-122.160577,37.447164],"type":"Point"},"properties":{"osm_id":"7477177885","tag":{"amenity":"waste_basket"}},"type":"Feature"},
	{"geometry":{"coordinates":[-122.160345,37.447004],"type":"Point"},"properties":{"osm_id":"7490705385","tag":{"amenity":"waste_basket"}},"type":"Feature"},
	{"geometry":{"coordinates":[-122.158111,37.447254],"type":"Point"},"properties":{"osm_id":"7570257185","tag":{"amenity":"waste_basket"}},"type":"Feature"},
	{"geometry":{"coordinates":[-122.16117,37.446467],"type":"Point"},"properties":{"osm_id":"7570257186","tag":{"amenity":"waste_basket","emergency":"fire_hydrant"}},"type":"Feature"},
	{"geometry":{"coordinates":[-122.161321,37.446113],"type":"Point"},"properties":{"osm_id":"7570257187","tag":{"amenity":"waste_basket"}},"type":"Feature"},
	{"geometry":{"coordinates":[-122.161442,37.445996],"type":"Point"},"properties":{"osm_id":"7570257287","tag":{"amenity":"waste_basket"}},"type":"Feature"},
	{"geometry":{"coordinates":[-122.161462,37.44588],"type":"Point"},"properties":{"osm_id":"7570283485","tag":{"amenity":"waste_basket"}},"type":"Feature"},
	{"geometry":{"coordinates":[-122.159773,37.445811],"type":"Point"},"properties":{"osm_id":"7570293490","tag":{"amenity":"waste_basket"}},"type":"Feature"},
	{"geometry":{"coordinates":[-122.158184,37.449481],"type":"Point"},"properties":{"osm_id":"7619055861","tag":{"amenity":"waste_basket"}},"type":"Feature"},
	{"geometry":{"coordinates":[-122.158026,37.449385],"type":"Point"},"properties":{"osm_id":"7619055862","tag":{"amenity":"waste_basket"}},"type":"Feature"},
	{"geometry":{"coordinates":[-122.153471,37.456586],"type":"Point"},"properties":{"osm_id":"7619089185","tag":{"amenity":"waste_basket"}},"type":"Feature"},
	{"geometry":{"coordinates":[-122.158083,37.449649],"type":"Point"},"properties":{"osm_id":"7619089187","tag":{"amenity":"waste_basket"}},"type":"Feature"},
	{"geometry":{"coordinates":[-122.15916,37.448213],"type":"Point"},"properties":{"osm_id":"7650916385","tag":{"amenity":"waste_basket"}},"type":"Feature"},
	{"geometry":{"coordinates":[-122.159373,37.448266],"type":"Point"},"properties":{"osm_id":"7650916485","tag":{"amenity":"waste_basket"}},"type":"Feature"},
	{"geometry":{"coordinates":[-122.159783,37.447871],"type":"Point"},"properties":{"osm_id":"7650917185","tag":{"amenity":"waste_basket"}},"type":"Feature"},
	{"geometry":{"coordinates":[-122.159823,37.447825],"type":"Point"},"properties":{"osm_id":"7650917186","tag":{"amenity":"waste_basket"}},"type":"Feature"},
	{"geometry":{"coordinates":[-122.159966,37.447668],"type":"Point"},"properties":{"osm_id":"7650917385","tag":{"amenity":"waste_basket"}},"type":"Feature"},
	{"geometry":{"coordinates":[-122.160905,37.445387],"type":"Point"},"properties":{"osm_id":"7752802386","tag":{"amenity":"waste_basket"}},"type":"Feature"},
	{"geometry":{"coordinates":[-122.1613,37.445183],"type":"Point"},"properties":{"osm_id":"7802435585","tag":{"amenity":"waste_basket"}},"type":"Feature"},
	{"geometry":{"coordinates":[-122.161788,37.445509],"type":"Point"},"properties":{"osm_id":"7802435586","tag":{"amenity":"waste_basket"}},"type":"Feature"},
	{"geometry":{"coordinates":[-122.161854,37.445508],"type":"Point"},"properties":{"osm_id":"7841281885","tag":{"amenity":"waste_basket"}},"type":"Feature"},
	{"geometry":{"coordinates":[-122.10553,37.459041],"type":"Point"},"properties":{"osm_id":"7847257806","tag":{"amenity":"waste_basket","waste":"trash;recycling"}},"type":"Feature"},
	{"geometry":{"coordinates":[-122.103234,37.457558],"type":"Point"},"properties":{"osm_id":"7847257808","tag":{"amenity":"waste_basket","material":"concrete"}},"type":"Feature"},
	{"geometry":{"coordinates":[-122.159692,37.445982],"type":"Point"},"properties":{"osm_id":"7848016060","tag":{"amenity":"waste_basket"}},"type":"Feature"}
]
}
