{
"type": "FeatureCollection",
"features": [
	{"geometry":{"coordinates":[-122.165135,37.423951],"type":"Point"},"properties":{"osm_id":"340336289","tag":{"amenity":"recycling","recycling_type":"container"}},"type":"Feature"},
	{"geometry":{"coordinates":[-122.164831,37.424847],"type":"Point"},"properties":{"osm_id":"340336306","tag":{"amenity":"recycling"}},"type":"Feature"},
	{"geometry":{"coordinates":[-122.166496,37.424083],"type":"Point"},"properties":{"osm_id":"340336309","tag":{"amenity":"recycling"}},"type":"Feature"},
	{"geometry":{"coordinates":[-122.14387,37.429479],"type":"Point"},"properties":{"osm_id":"2697101228","tag":{"amenity":"recycling"}},"type":"Feature"},
	{"geometry":{"coordinates":[-122.08954,37.417081],"type":"Point"},"properties":{"osm_id":"2701075814","tag":{"amenity":"waste_basket"}},"type":"Feature"},
	{"geometry":{"coordinates":[-122.084193,37.404974],"type":"Point"},"properties":{"osm_id":"4396884233","tag":{"amenity":"waste_basket"}},"type":"Feature"},
	{"geometry":{"coordinates":[-122.08906,37.4342],"type":"Point"},"properties":{"osm_id":"4523982879","tag":{"amenity":"waste_basket"}},"type":"Feature"},
	{"geometry":{"coordinates":[-122.110437,37.399068],"type":"Point"},"properties":{"osm_id":"4537399471","tag":{"amenity":"waste_basket","indoor":"yes"}},"type":"Feature"},
	{"geometry":{"coordinates":[-122.110443,37.399071],"type":"Point"},"properties":{"osm_id":"4537399472","tag":{"amenity":"recycling","indoor":"yes","operator":"Whole Foods Market","recycling:cans":"yes","recycling:glass_bottles":"yes","recycling:mobile_phones":"yes","recycling:organic":"yes","recycling:paper":"yes","recycling:plastic":"yes","recycling:plastic_bottles":"yes","recycling:plastic_packaging":"yes","recycling_type":"container"}},"type":"Feature"},
	{"geometry":{"coordinates":[-122.090722,37.421778],"type":"Point"},"properties":{"osm_id":"4592082297","tag":{"amenity":"waste_basket"}},"type":"Feature"},
	{"geometry":{"coordinates":[-122.090815,37.42246],"type":"Point"},"properties":{"osm_id":"4592082313","tag":{"amenity":"waste_basket"}},"type":"Feature"},
	{"geometry":{"coordinates":[-122.085928,37.417844],"type":"Point"},"properties":{"osm_id":"4595634881","tag":{"amenity":"waste_basket"}},"type":"Feature"},
	{"geometry":{"coordinates":[-122.085939,37.418063],"type":"Point"},"properties":{"osm_id":"4595634886","tag":{"amenity":"waste_basket"}},"type":"Feature"},
	{"geometry":{"coordinates":[-122.087891,37.433639],"type":"Point"},"properties":{"osm_id":"4613241972","tag":{"amenity":"waste_basket"}},"type":"Feature"},
	{"geometry":{"coordinates":[-122.083621,37.385005],"type":"Point"},"properties":{"osm_id":"5033269879","tag":{"amenity":"waste_basket"}},"type":"Feature"},
	{"geometry":{"coordinates":[-122.089799,37.401419],"type":"Point"},"properties":{"osm_id":"5142086066","tag":{"amenity":"waste_basket"}},"type":"Feature"},
	{"geometry":{"coordinates":[-122.091493,37.413751],"type":"Point"},"properties":{"osm_id":"5555373817","tag":{"amenity":"waste_basket"}},"type":"Feature"},
	{"geometry":{"coordinates":[-122.092247,37.413568],"type":"Point"},"properties":{"osm_id":"5555373820","tag":{"amenity":"waste_basket"}},"type":"Feature"},
	{"geometry":{"coordinates":[-122.09196,37.413894],"type":"Point"},"properties":{"osm_id":"5555374023","tag":{"amenity":"waste_basket"}},"type":"Feature"},
	{"geometry":{"coordinates":[-122.163789,37.422326],"type":"Point"},"properties":{"osm_id":"5757685084","tag":{"amenity":"waste_basket"}},"type":"Feature"},
	{"geometry":{"coordinates":[-122.165964,37.422623],"type":"Point"},"properties":{"osm_id":"5757685087","tag":{"amenity":"waste_basket"}},"type":"Feature"},
	{"geometry":{"coordinates":[-122.165386,37.423032],"type":"Point"},"properties":{"osm_id":"5757685094","tag":{"amenity":"waste_basket"}},"type":"Feature"},
	{"geometry":{"coordinates":[-122.151526,37.425847],"type":"Point"},"properties":{"osm_id":"5757875639","tag":{"amenity":"waste_disposal"}},"type":"Feature"},
	{"geometry":{"coordinates":[-122.153074,37.426066],"type":"Point"},"properties":{"osm_id":"5757875688","tag":{"amenity":"waste_disposal"}},"type":"Feature"},
	{"geometry":{"coordinates":[-122.15413,37.426192],"type":"Point"},"properties":{"osm_id":"5757875689","tag":{"amenity":"waste_disposal"}},"type":"Feature"},
	{"geometry":{"coordinates":[-122.153723,37.426948],"type":"Point"},"properties":{"osm_id":"5757875690","tag":{"amenity":"waste_disposal"}},"type":"Feature"},
	{"geometry":{"coordinates":[-122.152436,37.425897],"type":"Point"},"properties":{"osm_id":"5757875769","tag":{"amenity":"waste_disposal"}},"type":"Feature"},
	{"geometry":{"coordinates":[-122.154842,37.428488],"type":"Point"},"properties":{"osm_id":"5757875820","tag":{"amenity":"waste_disposal"}},"type":"Feature"},
	{"geometry":{"coordinates":[-122.152058,37.42859],"type":"Point"},"properties":{"osm_id":"5757875842","tag":{"amenity":"waste_disposal"}},"type":"Feature"},
	{"geometry":{"coordinates":[-122.151753,37.428925],"type":"Point"},"properties":{"osm_id":"5757875843","tag":{"amenity":"waste_disposal"}},"type":"Feature"},
	{"geometry":{"coordinates":[-122.154946,37.42532],"type":"Point"},"properties":{"osm_id":"5757875844","tag":{"amenity":"waste_disposal"}},"type":"Feature"},
	{"geometry":{"coordinates":[-122.154775,37.423977],"type":"Point"},"properties":{"osm_id":"5757875850","tag":{"amenity":"waste_disposal"}},"type":"Feature"},
	{"geometry":{"coordinates":[-122.152749,37.42452],"type":"Point"},"properties":{"osm_id":"5757875892","tag":{"amenity":"waste_disposal"}},"type":"Feature"},
	{"geometry":{"coordinates":[-122.153484,37.423745],"type":"Point"},"properties":{"osm_id":"5757875915","tag":{"amenity":"waste_disposal"}},"type":"Feature"},
	{"geometry":{"coordinates":[-122.156718,37.42388],"type":"Point"},"properties":{"osm_id":"5757875979","tag":{"amenity":"waste_disposal"}},"type":"Feature"},
	{"geometry":{"coordinates":[-122.156875,37.424795],"type":"Point"},"properties":{"osm_id":"5757876087","tag":{"amenity":"waste_disposal"}},"type":"Feature"},
	{"geometry":{"coordinates":[-122.160841,37.423844],"type":"Point"},"properties":{"osm_id":"5759657846","tag":{"amenity":"waste_basket"}},"type":"Feature"},
	{"geometry":{"coordinates":[-122.167297,37.427259],"type":"Point"},"properties":{"osm_id":"6212885396","tag":{"amenity":"waste_disposal"}},"type":"Feature"},
	{"geometry":{"coordinates":[-122.151347,37.42683],"type":"Point"},"properties":{"osm_id":"6226275143","tag":{"amenity":"waste_disposal"}},"type":"Feature"},
	{"geometry":{"coordinates":[-122.151309,37.426881],"type":"Point"},"properties":{"osm_id":"6226275144","tag":{"amenity":"waste_disposal"}},"type":"Feature"},
	{"geometry":{"coordinates":[-122.158049,37.42128],"type":"Point"},"properties":{"osm_id":"6332420630","tag":{"amenity":"waste_disposal"}},"type":"Feature"},
	{"geometry":{"coordinates":[-122.158584,37.421588],"type":"Point"},"properties":{"osm_id":"6332440140","tag":{"amenity":"waste_disposal"}},"type":"Feature"},
	{"geometry":{"coordinates":[-122.149645,37.426623],"type":"Point"},"properties":{"osm_id":"6393172219","tag":{"amenity":"waste_disposal"}},"type":"Feature"},
	{"geometry":{"coordinates":[-122.093362,37.411186],"type":"Point"},"properties":{"osm_id":"6448749162","tag":{"amenity":"recycling","opening_hours":"24/7","operator":"Pink Bin Inc.","recycling:clothes":"yes","recycling:shoes":"yes","recycling_type":"container"}},"type":"Feature"},
	{"geometry":{"coordinates":[-122.153392,37.429124],"type":"Point"},"properties":{"osm_id":"6477378217","tag":{"amenity":"waste_disposal"}},"type":"Feature"},
	{"geometry":{"coordinates":[-122.166015,37.434139],"type":"Point"},"properties":{"osm_id":"6527966183","tag":{"amenity":"waste_basket"}},"type":"Feature"},
	{"geometry":{"coordinates":[-122.15366,37.427568],"type":"Point"},"properties":{"osm_id":"6530466784","tag":{"amenity":"waste_basket"}},"type":"Feature"},
	{"geometry":{"coordinates":[-122.151669,37.426511],"type":"Point"},"properties":{"osm_id":"6533330583","tag":{"amenity":"waste_basket"}},"type":"Feature"},
	{"geometry":{"coordinates":[-122.152169,37.427444],"type":"Point"},"properties":{"osm_id":"6533330585","tag":{"amenity":"waste_basket"}},"type":"Feature"},
	{"geometry":{"coordinates":[-122.154395,37.427738],"type":"Point"},"properties":{"osm_id":"6533330586","tag":{"amenity":"waste_basket"}},"type":"Feature"},
	{"geometry":{"coordinates":[-122.153867,37.427229],"type":"Point"},"properties":{"osm_id":"6533709822","tag":{"amenity":"waste_basket"}},"type":"Feature"},
	{"geometry":{"coordinates":[-122.153606,37.42727],"type":"Point"},"properties":{"osm_id":"6533709823","tag":{"amenity":"waste_basket"}},"type":"Feature"},
	{"geometry":{"coordinates":[-122.153326,37.426333],"type":"Point"},"properties":{"osm_id":"6533709841","tag":{"amenity":"waste_basket"}},"type":"Feature"},
	{"geometry":{"coordinates":[-122.150907,37.4265],"type":"Point"},"properties":{"osm_id":"6544140165","tag":{"amenity":"waste_basket"}},"type":"Feature"},
	{"geometry":{"coordinates":[-122.087934,37.418301],"type":"Point"},"properties":{"osm_id":"6694647162","tag":{"amenity":"waste_basket"}},"type":"Feature"},
	{"geometry":{"coordinates":[-122.165137,37.423942],"type":"Point"},"properties":{"osm_id":"6917973048","tag":{"amenity":"waste_disposal"}},"type":"Feature"},
	{"geometry":{"coordinates":[-122.152653,37.386999],"type":"Point"},"properties":{"osm_id":"7188907265","tag":{"amenity":"waste_basket"}},"type":"Feature"},
	{"geometry":{"coordinates":[-122.092238,37.41787],"type":"Point"},"properties":{"osm_id":"7199375725","tag":{"amenity":"waste_basket"}},"type":"Feature"},
	{"geometry":{"coordinates":[-122.167714,37.429952],"type":"Point"},"properties":{"osm_id":"7386375475","tag":{"amenity":"waste_basket"}},"type":"Feature"},
	{"geometry":{"coordinates":[-122.167515,37.430326],"type":"Point"},"properties":{"osm_id":"7386375476","tag":{"amenity":"waste_basket"}},"type":"Feature"},
	{"geometry":{"coordinates":[-122.16742,37.430503],"type":"Point"},"properties":{"osm_id":"7386375477","tag":{"amenity":"waste_basket"}},"type":"Feature"},
	{"geometry":{"coordinates":[-122.166644,37.431834],"type":"Point"},"properties":{"osm_id":"7386375478","tag":{"amenity":"waste_basket","layer":"-1"}},"type":"Feature"},
	{"geometry":{"coordinates":[-122.166479,37.432374],"type":"Point"},"properties":{"osm_id":"7386375479","tag":{"amenity":"waste_basket","layer":"-1"}},"type":"Feature"},
	{"geometry":{"coordinates":[-122.16572,37.434101],"type":"Point"},"properties":{"osm_id":"7386375480","tag":{"amenity":"waste_basket"}},"type":"Feature"},
	{"geometry":{"coordinates":[-122.166099,37.434268],"type":"Point"},"properties":{"osm_id":"7386375481","tag":{"amenity":"waste_basket"}},"type":"Feature"},
	{"geometry":{"coordinates":[-122.166344,37.433247],"type":"Point"},"properties":{"osm_id":"7412440668","tag":{"amenity":"waste_basket"}},"type":"Feature"},
	{"geometry":{"coordinates":[-122.166101,37.43362],"type":"Point"},"properties":{"osm_id":"7419918083","tag":{"amenity":"waste_basket"}},"type":"Feature"},
	{"geometry":{"coordinates":[-122.16584,37.433574],"type":"Point"},"properties":{"osm_id":"7431236024","tag":{"amenity":"waste_basket"}},"type":"Feature"}
]
}
