{
"type": "FeatureCollection",
"features": [
	{"geometry":{"coordinates":[15.373415,48.256637],"type":"Point"},"properties":{"osm_id":"1267041560","tag":{"amenity":"recycling","recycling:glass":"yes","recycling:scrap_metal":"yes","recycling_type":"container"}},"type":"Feature"},
	{"geometry":{"coordinates":[15.359897,48.265228],"type":"Point"},"properties":{"osm_id":"3505409134","tag":{"amenity":"recycling","description":"ASI Emmersdorf 8: Grimsing - bei Br\u00c3\u00bccke gegen\u00c3\u00bcber Haus Nr. 8","recycling_type":"container"}},"type":"Feature"},
	{"geometry":{"coordinates":[15.354498,48.253961],"type":"Point"},"properties":{"osm_id":"3505409174","tag":{"amenity":"recycling","description":"ASI Emmersdorf 6: Schallemmersdorf - Bahnunterf\u00c3\u00bchrung/Kreuzung Fa. Ertl","recycling_type":"container"}},"type":"Feature"},
	{"geometry":{"coordinates":[15.373317,48.256506],"type":"Point"},"properties":{"osm_id":"3505416806","tag":{"amenity":"recycling","description":"ASI Sch\u00c3\u00b6nb\u00c3\u00bchel-Aggsbach 3: Sch\u00c3\u00b6nb\u00c3\u00bchel - bei Gemeindeamt","recycling_type":"container"}},"type":"Feature"},
	{"geometry":{"coordinates":[15.362017,48.227376],"type":"Point"},"properties":{"osm_id":"3505416830","tag":{"amenity":"recycling","description":"ASI Melk 11: Spielberg - Zufahrt zur alten Pielachbr\u00c3\u00bccke","recycling_type":"container"}},"type":"Feature"},
	{"geometry":{"coordinates":[15.337163,48.243169],"type":"Point"},"properties":{"osm_id":"3505417441","tag":{"amenity":"recycling","description":"ASI Emmersdorf 1: Emmersdorf - Bahnhofstra\u00c3\u009fe - Parkplatz","recycling_type":"container"}},"type":"Feature"},
	{"geometry":{"coordinates":[15.374712,48.254535],"type":"Point"},"properties":{"osm_id":"3505418653","tag":{"amenity":"recycling","description":"ASI Sch\u00c3\u00b6nb\u00c3\u00bchel-Aggsbach 4: Sch\u00c3\u00b6nb\u00c3\u00bchel - Parkplatz bei Feuerwehr","recycling_type":"container"}},"type":"Feature"},
	{"geometry":{"coordinates":[15.300029,48.268805],"type":"Point"},"properties":{"osm_id":"3505419323","tag":{"amenity":"recycling","description":"ASI Emmersdorf 5: Kreuzung M\u00c3\u00b6delsdorf/Fahnsdorf und P\u00c3\u00b6mling - N\u00c3\u00a4he Wegkreuz","recycling_type":"container"}},"type":"Feature"},
	{"geometry":{"coordinates":[15.331378,48.243264],"type":"Point"},"properties":{"osm_id":"3505432876","tag":{"amenity":"recycling","description":"ASI Emmersdorf 7: Hofamt - Rotkreuzstrasse bei Haus Pemmer","recycling_type":"container"}},"type":"Feature"},
	{"geometry":{"coordinates":[15.340343,48.243001],"type":"Point"},"properties":{"osm_id":"3505435288","tag":{"amenity":"recycling","description":"ASI Emmersdorf 2: Emmersdorf - B3 bei Campingplatz","recycling_type":"container"}},"type":"Feature"},
	{"geometry":{"coordinates":[15.347171,48.225831],"type":"Point"},"properties":{"osm_id":"3505435698","tag":{"amenity":"recycling","description":"ASI Melk 8: Wienerstra\u00c3\u009fe bei Merkur","recycling_type":"container"}},"type":"Feature"},
	{"geometry":{"coordinates":[15.32899,48.233383],"type":"Point"},"properties":{"osm_id":"3505435704","tag":{"amenity":"recycling","description":"ASI Melk 12: Kolomaniau - Jensch Campingplatz","recycling:cans":"yes","recycling:glass_bottles":"yes","recycling_type":"container"}},"type":"Feature"},
	{"geometry":{"coordinates":[15.348694,48.227636],"type":"Point"},"properties":{"osm_id":"3505439411","tag":{"amenity":"recycling","description":"ASI Melk 6: Spielberger Stra\u00c3\u009fe - Telekomgeb\u00c3\u00a4ude - Parkplatz","recycling_type":"container"}},"type":"Feature"},
	{"geometry":{"coordinates":[15.3461,48.225261],"type":"Point"},"properties":{"osm_id":"3505439842","tag":{"amenity":"recycling","description":"ASI Melk 8: F\u00c3\u00bcrnbergstra\u00c3\u009fe - Wachaubad/hinter Autohaus Wesely","recycling:cans":"yes","recycling:glass_bottles":"yes","recycling:metal":"yes","recycling_type":"container"}},"type":"Feature"},
	{"geometry":{"coordinates":[15.337307,48.2288],"type":"Point"},"properties":{"osm_id":"3505440325","tag":{"amenity":"recycling","description":"ASI Melk 16: Stift Melk - Stiftsparkplatz Dietmayr-Stra\u00c3\u009fe","recycling:cans":"yes","recycling:glass_bottles":"yes","recycling_type":"container"}},"type":"Feature"},
	{"geometry":{"coordinates":[15.330877,48.229489],"type":"Point"},"properties":{"osm_id":"3505440327","tag":{"amenity":"recycling","description":"ASI Melk 10: R\u00c3\u00a4cking - Ausfahrt Schotterparkplatz","recycling_type":"container"}},"type":"Feature"},
	{"geometry":{"coordinates":[15.337622,48.224898],"type":"Point"},"properties":{"osm_id":"3505443009","tag":{"amenity":"recycling","description":"ASI Melk 3: Am L\u00c3\u00b6wenpark","recycling_type":"container"}},"type":"Feature"},
	{"geometry":{"coordinates":[15.334366,48.22661],"type":"Point"},"properties":{"osm_id":"3505444527","tag":{"amenity":"recycling","description":"ASI Melk 1: Sparkassenparkplatz/3 Std. PP - schraffierte Fl\u00c3\u00a4che","recycling_type":"container"}},"type":"Feature"},
	{"geometry":{"coordinates":[15.336874,48.227303],"type":"Point"},"properties":{"osm_id":"3505446137","tag":{"amenity":"recycling","description":"ASI Melk 2: Kupferkannenparkplatz gegen\u00c3\u00bcber Busparkplatz","recycling_type":"container"}},"type":"Feature"},
	{"geometry":{"coordinates":[15.323541,48.236226],"type":"Point"},"properties":{"osm_id":"3505446151","tag":{"amenity":"recycling","description":"ASI Emmersdorf 3: Emmersdorf - Bauhofweg 4 bei Bauhof","recycling_type":"container"}},"type":"Feature"},
	{"geometry":{"coordinates":[15.328041,48.227695],"type":"Point"},"properties":{"osm_id":"3615453730","tag":{"amenity":"waste_basket"}},"type":"Feature"},
	{"geometry":{"coordinates":[15.327372,48.228152],"type":"Point"},"properties":{"osm_id":"3615453732","tag":{"amenity":"waste_basket"}},"type":"Feature"},
	{"geometry":{"coordinates":[15.326913,48.228465],"type":"Point"},"properties":{"osm_id":"3615453734","tag":{"amenity":"waste_basket"}},"type":"Feature"},
	{"geometry":{"coordinates":[15.326323,48.228966],"type":"Point"},"properties":{"osm_id":"3615453737","tag":{"amenity":"waste_basket"}},"type":"Feature"},
	{"geometry":{"coordinates":[15.3237,48.231048],"type":"Point"},"properties":{"osm_id":"3615453739","tag":{"amenity":"waste_basket"}},"type":"Feature"},
	{"geometry":{"coordinates":[15.326015,48.232584],"type":"Point"},"properties":{"osm_id":"3615453740","tag":{"amenity":"waste_basket"}},"type":"Feature"},
	{"geometry":{"coordinates":[15.327725,48.233363],"type":"Point"},"properties":{"osm_id":"3615453742","tag":{"amenity":"waste_basket"}},"type":"Feature"},
	{"geometry":{"coordinates":[15.328943,48.233416],"type":"Point"},"properties":{"osm_id":"3615453743","tag":{"amenity":"waste_basket"}},"type":"Feature"},
	{"geometry":{"coordinates":[15.32867,48.233732],"type":"Point"},"properties":{"osm_id":"3615453745","tag":{"amenity":"waste_basket"}},"type":"Feature"},
	{"geometry":{"coordinates":[15.326846,48.2263],"type":"Point"},"properties":{"osm_id":"3667237539","tag":{"amenity":"waste_basket"}},"type":"Feature"},
	{"geometry":{"coordinates":[15.345483,48.225233],"type":"Point"},"properties":{"osm_id":"3725208561","tag":{"amenity":"waste_basket"}},"type":"Feature"},
	{"geometry":{"coordinates":[15.363122,48.248994],"type":"Point"},"properties":{"osm_id":"3729168781","tag":{"amenity":"waste_basket"}},"type":"Feature"},
	{"geometry":{"coordinates":[15.319268,48.227336],"type":"Point"},"properties":{"osm_id":"3732778526","tag":{"amenity":"waste_basket"}},"type":"Feature"},
	{"geometry":{"coordinates":[15.329827,48.228814],"type":"Point"},"properties":{"osm_id":"3754725518","tag":{"amenity":"recycling","recycling:cans":"yes","recycling:glass_bottles":"yes","recycling_type":"container"}},"type":"Feature"},
	{"geometry":{"coordinates":[15.330066,48.228984],"type":"Point"},"properties":{"osm_id":"3754725520","tag":{"amenity":"waste_basket"}},"type":"Feature"},
	{"geometry":{"coordinates":[15.329314,48.23142],"type":"Point"},"properties":{"osm_id":"3765916684","tag":{"amenity":"waste_basket"}},"type":"Feature"},
	{"geometry":{"coordinates":[15.335823,48.226748],"type":"Point"},"properties":{"osm_id":"3972091158","tag":{"amenity":"waste_basket"}},"type":"Feature"},
	{"geometry":{"coordinates":[15.33606,48.226787],"type":"Point"},"properties":{"osm_id":"3972091159","tag":{"amenity":"waste_basket"}},"type":"Feature"},
	{"geometry":{"coordinates":[15.336141,48.226818],"type":"Point"},"properties":{"osm_id":"3972091160","tag":{"amenity":"waste_basket"}},"type":"Feature"},
	{"geometry":{"coordinates":[15.330082,48.227375],"type":"Point"},"properties":{"osm_id":"3972091167","tag":{"amenity":"waste_basket"}},"type":"Feature"},
	{"geometry":{"coordinates":[15.33324,48.227443],"type":"Point"},"properties":{"osm_id":"3972091173","tag":{"amenity":"waste_basket","fee":"no","payment:none":"yes","vending":"excrement_bags"}},"type":"Feature"},
	{"geometry":{"coordinates":[15.332823,48.22767],"type":"Point"},"properties":{"osm_id":"3972091175","tag":{"amenity":"waste_basket"}},"type":"Feature"},
	{"geometry":{"coordinates":[15.33309,48.227818],"type":"Point"},"properties":{"osm_id":"3972091177","tag":{"amenity":"waste_basket"}},"type":"Feature"},
	{"geometry":{"coordinates":[15.33583,48.227852],"type":"Point"},"properties":{"osm_id":"3972091179","tag":{"amenity":"waste_basket"}},"type":"Feature"},
	{"geometry":{"coordinates":[15.333365,48.227914],"type":"Point"},"properties":{"osm_id":"3972091183","tag":{"amenity":"waste_basket"}},"type":"Feature"},
	{"geometry":{"coordinates":[15.333525,48.228051],"type":"Point"},"properties":{"osm_id":"3972091186","tag":{"amenity":"waste_basket"}},"type":"Feature"},
	{"geometry":{"coordinates":[15.328759,48.23313],"type":"Point"},"properties":{"osm_id":"3972091194","tag":{"amenity":"waste_basket"}},"type":"Feature"},
	{"geometry":{"coordinates":[15.329376,48.234021],"type":"Point"},"properties":{"osm_id":"3972091208","tag":{"amenity":"waste_basket"}},"type":"Feature"},
	{"geometry":{"coordinates":[15.330343,48.234137],"type":"Point"},"properties":{"osm_id":"3972091214","tag":{"amenity":"waste_basket"}},"type":"Feature"},
	{"geometry":{"coordinates":[15.33115,48.234609],"type":"Point"},"properties":{"osm_id":"3972091217","tag":{"amenity":"waste_basket"}},"type":"Feature"},
	{"geometry":{"coordinates":[15.331166,48.224941],"type":"Point"},"properties":{"osm_id":"3986718121","tag":{"amenity":"waste_basket"}},"type":"Feature"},
	{"geometry":{"coordinates":[15.328297,48.225076],"type":"Point"},"properties":{"osm_id":"3992046232","tag":{"amenity":"waste_basket"}},"type":"Feature"},
	{"geometry":{"coordinates":[15.329463,48.225219],"type":"Point"},"properties":{"osm_id":"3992046244","tag":{"amenity":"waste_basket"}},"type":"Feature"},
	{"geometry":{"coordinates":[15.32837,48.22531],"type":"Point"},"properties":{"osm_id":"3992046246","tag":{"amenity":"waste_basket"}},"type":"Feature"},
	{"geometry":{"coordinates":[15.329246,48.225363],"type":"Point"},"properties":{"osm_id":"3992046249","tag":{"amenity":"waste_basket"}},"type":"Feature"},
	{"geometry":{"coordinates":[15.330308,48.225394],"type":"Point"},"properties":{"osm_id":"3992048764","tag":{"amenity":"waste_basket"}},"type":"Feature"},
	{"geometry":{"coordinates":[15.329368,48.225571],"type":"Point"},"properties":{"osm_id":"3992048787","tag":{"amenity":"waste_basket"}},"type":"Feature"},
	{"geometry":{"coordinates":[15.32841,48.225654],"type":"Point"},"properties":{"osm_id":"3992048808","tag":{"amenity":"waste_basket"}},"type":"Feature"},
	{"geometry":{"coordinates":[15.328924,48.225681],"type":"Point"},"properties":{"osm_id":"3992048815","tag":{"amenity":"waste_basket"}},"type":"Feature"},
	{"geometry":{"coordinates":[15.330058,48.225683],"type":"Point"},"properties":{"osm_id":"3992048817","tag":{"amenity":"waste_basket"}},"type":"Feature"},
	{"geometry":{"coordinates":[15.330321,48.225948],"type":"Point"},"properties":{"osm_id":"3992048850","tag":{"amenity":"waste_basket"}},"type":"Feature"},
	{"geometry":{"coordinates":[15.331061,48.226219],"type":"Point"},"properties":{"osm_id":"3992048852","tag":{"amenity":"waste_basket"}},"type":"Feature"},
	{"geometry":{"coordinates":[15.328341,48.226654],"type":"Point"},"properties":{"osm_id":"3992048959","tag":{"amenity":"waste_basket"}},"type":"Feature"},
	{"geometry":{"coordinates":[15.328828,48.226852],"type":"Point"},"properties":{"osm_id":"3992048962","tag":{"amenity":"waste_basket"}},"type":"Feature"},
	{"geometry":{"coordinates":[15.329375,48.226978],"type":"Point"},"properties":{"osm_id":"3992048967","tag":{"amenity":"waste_basket"}},"type":"Feature"},
	{"geometry":{"coordinates":[15.359538,48.230067],"type":"Point"},"properties":{"osm_id":"5423531124","tag":{"amenity":"waste_basket"}},"type":"Feature"},
	{"geometry":{"coordinates":[15.307926,48.250701],"type":"Point"},"properties":{"osm_id":"6715396687","tag":{"amenity":"waste_basket"}},"type":"Feature"},
	{"geometry":{"coordinates":[15.330616,48.226938],"type":"Point"},"properties":{"osm_id":"7640386145","tag":{"amenity":"waste_basket"}},"type":"Feature"},
	{"geometry":{"coordinates":[15.328629,48.227781],"type":"Point"},"properties":{"osm_id":"7640393738","tag":{"amenity":"waste_basket"}},"type":"Feature"},
	{"geometry":{"coordinates":[15.34598,48.225255],"type":"Point"},"properties":{"osm_id":"7640475847","tag":{"amenity":"waste_basket"}},"type":"Feature"},
	{"geometry":{"coordinates":[15.331222,48.22596],"type":"Point"},"properties":{"osm_id":"7640530678","tag":{"amenity":"waste_basket"}},"type":"Feature"},
	{"geometry":{"coordinates":[15.330745,48.224871],"type":"Point"},"properties":{"osm_id":"7640553417","tag":{"amenity":"waste_basket"}},"type":"Feature"},
	{"geometry":{"coordinates":[15.330919,48.22485],"type":"Point"},"properties":{"osm_id":"7640553418","tag":{"amenity":"waste_basket"}},"type":"Feature"},
	{"geometry":{"coordinates":[15.333128,48.224882],"type":"Point"},"properties":{"osm_id":"7640560107","tag":{"amenity":"waste_basket"}},"type":"Feature"},
	{"geometry":{"coordinates":[15.333402,48.225692],"type":"Point"},"properties":{"osm_id":"7640631938","tag":{"amenity":"waste_basket"}},"type":"Feature"},
	{"geometry":{"coordinates":[15.333987,48.225768],"type":"Point"},"properties":{"osm_id":"7640631945","tag":{"amenity":"waste_basket"}},"type":"Feature"},
	{"geometry":{"coordinates":[15.338003,48.224946],"type":"Point"},"properties":{"osm_id":"7640631959","tag":{"amenity":"waste_basket"}},"type":"Feature"}
]
}
