{
"type": "FeatureCollection",
"features": [
	{"geometry":{"coordinates":[19.861293,43.853527],"type":"Point"},"properties":{"osm_id":"5671314787","tag":{"amenity":"waste_disposal"}},"type":"Feature"},
	{"geometry":{"coordinates":[19.861283,43.853546],"type":"Point"},"properties":{"osm_id":"5671314788","tag":{"amenity":"waste_disposal"}},"type":"Feature"},
	{"geometry":{"coordinates":[19.860274,43.853219],"type":"Point"},"properties":{"osm_id":"5671451998","tag":{"amenity":"waste_disposal"}},"type":"Feature"},
	{"geometry":{"coordinates":[19.860256,43.853242],"type":"Point"},"properties":{"osm_id":"5671451999","tag":{"amenity":"waste_disposal"}},"type":"Feature"},
	{"geometry":{"coordinates":[19.857136,43.851916],"type":"Point"},"properties":{"osm_id":"5679332268","tag":{"amenity":"waste_disposal"}},"type":"Feature"},
	{"geometry":{"coordinates":[19.85712,43.851892],"type":"Point"},"properties":{"osm_id":"5679332269","tag":{"amenity":"waste_disposal"}},"type":"Feature"},
	{"geometry":{"coordinates":[19.850604,43.853397],"type":"Point"},"properties":{"osm_id":"7932381726","tag":{"amenity":"waste_disposal","waste":"trash"}},"type":"Feature"},
	{"geometry":{"coordinates":[19.850597,43.85342],"type":"Point"},"properties":{"osm_id":"7932381727","tag":{"amenity":"waste_disposal","waste":"trash"}},"type":"Feature"},
	{"geometry":{"coordinates":[19.850809,43.852285],"type":"Point"},"properties":{"osm_id":"7932381728","tag":{"amenity":"waste_disposal","waste":"trash"}},"type":"Feature"},
	{"geometry":{"coordinates":[19.846625,43.853747],"type":"Point"},"properties":{"osm_id":"7935413878","tag":{"amenity":"waste_disposal","waste":"trash"}},"type":"Feature"},
	{"geometry":{"coordinates":[19.846482,43.855764],"type":"Point"},"properties":{"osm_id":"7946087476","tag":{"amenity":"waste_disposal","waste":"trash"}},"type":"Feature"},
	{"geometry":{"coordinates":[19.846478,43.855747],"type":"Point"},"properties":{"osm_id":"7946087477","tag":{"amenity":"waste_disposal","waste":"trash"}},"type":"Feature"},
	{"geometry":{"coordinates":[19.846775,43.856971],"type":"Point"},"properties":{"osm_id":"7960958958","tag":{"amenity":"waste_disposal","waste":"trash"}},"type":"Feature"},
	{"geometry":{"coordinates":[19.846789,43.856979],"type":"Point"},"properties":{"osm_id":"7960958959","tag":{"amenity":"waste_disposal","waste":"trash"}},"type":"Feature"},
	{"geometry":{"coordinates":[19.845329,43.856187],"type":"Point"},"properties":{"osm_id":"7973896639","tag":{"amenity":"waste_basket"}},"type":"Feature"},
	{"geometry":{"coordinates":[19.845203,43.855393],"type":"Point"},"properties":{"osm_id":"7978538047","tag":{"amenity":"waste_disposal","waste":"trash"}},"type":"Feature"},
	{"geometry":{"coordinates":[19.845061,43.855821],"type":"Point"},"properties":{"osm_id":"7978538091","tag":{"amenity":"waste_disposal","waste":"trash"}},"type":"Feature"},
	{"geometry":{"coordinates":[19.845046,43.855827],"type":"Point"},"properties":{"osm_id":"7978538092","tag":{"amenity":"waste_disposal","waste":"trash"}},"type":"Feature"},
	{"geometry":{"coordinates":[19.845031,43.855832],"type":"Point"},"properties":{"osm_id":"7978538093","tag":{"amenity":"waste_disposal","waste":"trash"}},"type":"Feature"},
	{"geometry":{"coordinates":[19.845014,43.855838],"type":"Point"},"properties":{"osm_id":"7978538094","tag":{"amenity":"waste_disposal","waste":"trash"}},"type":"Feature"},
	{"geometry":{"coordinates":[19.844511,43.855702],"type":"Point"},"properties":{"highway":"street_lamp","osm_id":"7982587086","tag":{"amenity":"waste_basket","lamp_mount":"bent_mast"}},"type":"Feature"},
	{"geometry":{"coordinates":[19.844715,43.855641],"type":"Point"},"properties":{"highway":"street_lamp","osm_id":"7982587087","tag":{"amenity":"waste_basket","lamp_mount":"bent_mast"}},"type":"Feature"},
	{"geometry":{"coordinates":[19.844463,43.855612],"type":"Point"},"properties":{"osm_id":"7982587160","tag":{"amenity":"waste_disposal","waste":"trash"}},"type":"Feature"},
	{"geometry":{"coordinates":[19.844452,43.855616],"type":"Point"},"properties":{"osm_id":"7982587161","tag":{"amenity":"waste_disposal","waste":"trash"}},"type":"Feature"},
	{"geometry":{"coordinates":[19.8445,43.855958],"type":"Point"},"properties":{"osm_id":"7989765814","tag":{"amenity":"waste_disposal","waste":"trash"}},"type":"Feature"},
	{"geometry":{"coordinates":[19.842795,43.855875],"type":"Point"},"properties":{"osm_id":"7989765945","tag":{"amenity":"waste_basket"}},"type":"Feature"},
	{"geometry":{"coordinates":[19.842729,43.855792],"type":"Point"},"properties":{"osm_id":"7989765946","tag":{"amenity":"waste_basket"}},"type":"Feature"},
	{"geometry":{"coordinates":[19.843152,43.85576],"type":"Point"},"properties":{"osm_id":"7989765947","tag":{"amenity":"waste_basket"}},"type":"Feature"},
	{"geometry":{"coordinates":[19.843053,43.855864],"type":"Point"},"properties":{"osm_id":"7989765948","tag":{"amenity":"waste_basket"}},"type":"Feature"},
	{"geometry":{"coordinates":[19.842946,43.855634],"type":"Point"},"properties":{"osm_id":"7989765949","tag":{"amenity":"waste_basket"}},"type":"Feature"},
	{"geometry":{"coordinates":[19.844645,43.855732],"type":"Point"},"properties":{"highway":"street_lamp","osm_id":"7993435550","tag":{"amenity":"waste_basket","lamp_mount":"bent_mast"}},"type":"Feature"},
	{"geometry":{"coordinates":[19.845588,43.854558],"type":"Point"},"properties":{"osm_id":"7995641149","tag":{"amenity":"waste_disposal","waste":"trash"}},"type":"Feature"},
	{"geometry":{"coordinates":[19.845566,43.854566],"type":"Point"},"properties":{"osm_id":"7995641150","tag":{"amenity":"waste_disposal","waste":"trash"}},"type":"Feature"},
	{"geometry":{"coordinates":[19.845545,43.854573],"type":"Point"},"properties":{"osm_id":"7995641151","tag":{"amenity":"waste_disposal","waste":"trash"}},"type":"Feature"},
	{"geometry":{"coordinates":[19.845522,43.854581],"type":"Point"},"properties":{"osm_id":"7995641152","tag":{"amenity":"waste_disposal","waste":"trash"}},"type":"Feature"},
	{"geometry":{"coordinates":[19.845926,43.854729],"type":"Point"},"properties":{"osm_id":"7995673796","tag":{"amenity":"waste_disposal","waste":"trash"}},"type":"Feature"},
	{"geometry":{"coordinates":[19.844195,43.855427],"type":"Point"},"properties":{"osm_id":"8007494486","tag":{"amenity":"waste_disposal","waste":"trash"}},"type":"Feature"},
	{"geometry":{"coordinates":[19.844178,43.855404],"type":"Point"},"properties":{"osm_id":"8007494487","tag":{"amenity":"waste_disposal","waste":"trash"}},"type":"Feature"},
	{"geometry":{"coordinates":[19.844164,43.855386],"type":"Point"},"properties":{"osm_id":"8007494488","tag":{"amenity":"waste_disposal","waste":"trash"}},"type":"Feature"},
	{"geometry":{"coordinates":[19.84415,43.855367],"type":"Point"},"properties":{"osm_id":"8007494489","tag":{"amenity":"waste_disposal","waste":"trash"}},"type":"Feature"},
	{"geometry":{"coordinates":[19.844135,43.855347],"type":"Point"},"properties":{"osm_id":"8007494490","tag":{"amenity":"waste_disposal","waste":"trash"}},"type":"Feature"},
	{"geometry":{"coordinates":[19.844124,43.855329],"type":"Point"},"properties":{"osm_id":"8007494491","tag":{"amenity":"waste_disposal","waste":"trash"}},"type":"Feature"},
	{"geometry":{"coordinates":[19.844113,43.855313],"type":"Point"},"properties":{"osm_id":"8007494492","tag":{"amenity":"waste_disposal","waste":"trash"}},"type":"Feature"},
	{"geometry":{"coordinates":[19.844102,43.855296],"type":"Point"},"properties":{"osm_id":"8007494493","tag":{"amenity":"waste_disposal","waste":"trash"}},"type":"Feature"},
	{"geometry":{"coordinates":[19.844277,43.856217],"type":"Point"},"properties":{"highway":"street_lamp","osm_id":"8018439070","tag":{"amenity":"waste_basket","lamp_mount":"straight_mast"}},"type":"Feature"},
	{"geometry":{"coordinates":[19.844312,43.856176],"type":"Point"},"properties":{"highway":"street_lamp","osm_id":"8018439071","tag":{"amenity":"waste_basket","lamp_mount":"straight_mast"}},"type":"Feature"},
	{"geometry":{"coordinates":[19.845403,43.856457],"type":"Point"},"properties":{"osm_id":"8019198154","tag":{"amenity":"waste_disposal","waste":"trash"}},"type":"Feature"},
	{"geometry":{"coordinates":[19.845384,43.85647],"type":"Point"},"properties":{"osm_id":"8019198155","tag":{"amenity":"waste_disposal","waste":"trash"}},"type":"Feature"},
	{"geometry":{"coordinates":[19.844862,43.856576],"type":"Point"},"properties":{"osm_id":"8019198161","tag":{"amenity":"waste_disposal","waste":"trash"}},"type":"Feature"},
	{"geometry":{"coordinates":[19.844844,43.856582],"type":"Point"},"properties":{"osm_id":"8019198162","tag":{"amenity":"waste_disposal","waste":"trash"}},"type":"Feature"},
	{"geometry":{"coordinates":[19.844009,43.856301],"type":"Point"},"properties":{"highway":"street_lamp","osm_id":"8023067609","tag":{"amenity":"waste_basket"}},"type":"Feature"},
	{"geometry":{"coordinates":[19.843799,43.856085],"type":"Point"},"properties":{"osm_id":"8023067636","tag":{"amenity":"waste_disposal"}},"type":"Feature"},
	{"geometry":{"coordinates":[19.843774,43.856081],"type":"Point"},"properties":{"osm_id":"8023067637","tag":{"amenity":"waste_disposal"}},"type":"Feature"},
	{"geometry":{"coordinates":[19.842268,43.855775],"type":"Point"},"properties":{"osm_id":"8042970802","tag":{"amenity":"waste_basket"}},"type":"Feature"},
	{"geometry":{"coordinates":[19.841686,43.855941],"type":"Point"},"properties":{"osm_id":"8042970812","tag":{"amenity":"waste_basket"}},"type":"Feature"},
	{"geometry":{"coordinates":[19.841944,43.855881],"type":"Point"},"properties":{"osm_id":"8042970813","tag":{"amenity":"waste_basket"}},"type":"Feature"},
	{"geometry":{"coordinates":[19.842443,43.856282],"type":"Point"},"properties":{"osm_id":"8044591631","tag":{"amenity":"waste_disposal"}},"type":"Feature"},
	{"geometry":{"coordinates":[19.842427,43.856254],"type":"Point"},"properties":{"osm_id":"8044591632","tag":{"amenity":"waste_disposal"}},"type":"Feature"},
	{"geometry":{"coordinates":[19.841565,43.856754],"type":"Point"},"properties":{"highway":"street_lamp","osm_id":"8048313396","tag":{"amenity":"waste_basket","lamp_mount":"bent_mast"}},"type":"Feature"},
	{"geometry":{"coordinates":[19.844312,43.852265],"type":"Point"},"properties":{"osm_id":"8059385020","tag":{"amenity":"waste_disposal","waste":"trash"}},"type":"Feature"},
	{"geometry":{"coordinates":[19.844598,43.852934],"type":"Point"},"properties":{"osm_id":"8063552598","tag":{"amenity":"waste_disposal","waste":"trash"}},"type":"Feature"},
	{"geometry":{"coordinates":[19.84458,43.852948],"type":"Point"},"properties":{"osm_id":"8063552599","tag":{"amenity":"waste_disposal","waste":"trash"}},"type":"Feature"},
	{"geometry":{"coordinates":[19.843929,43.85613],"type":"Point"},"properties":{"highway":"street_lamp","osm_id":"8072451897","tag":{"amenity":"waste_basket"}},"type":"Feature"},
	{"geometry":{"coordinates":[19.844431,43.856352],"type":"Point"},"properties":{"osm_id":"8072451902","tag":{"amenity":"waste_disposal","waste":"trash"}},"type":"Feature"},
	{"geometry":{"coordinates":[19.844456,43.856368],"type":"Point"},"properties":{"osm_id":"8072451903","tag":{"amenity":"waste_disposal","waste":"trash"}},"type":"Feature"},
	{"geometry":{"coordinates":[19.844937,43.856675],"type":"Point"},"properties":{"osm_id":"8072451904","tag":{"amenity":"waste_disposal","waste":"trash"}},"type":"Feature"},
	{"geometry":{"coordinates":[19.844913,43.856659],"type":"Point"},"properties":{"osm_id":"8072451905","tag":{"amenity":"waste_disposal","waste":"trash"}},"type":"Feature"},
	{"geometry":{"coordinates":[19.843284,43.855985],"type":"Point"},"properties":{"osm_id":"8072535258","tag":{"amenity":"waste_basket"}},"type":"Feature"},
	{"geometry":{"coordinates":[19.84979,43.850681],"type":"Point"},"properties":{"osm_id":"8075029422","tag":{"amenity":"waste_disposal","waste":"trash"}},"type":"Feature"},
	{"geometry":{"coordinates":[19.849011,43.851938],"type":"Point"},"properties":{"osm_id":"8075029465","tag":{"amenity":"waste_disposal","waste":"trash"}},"type":"Feature"},
	{"geometry":{"coordinates":[19.849009,43.851955],"type":"Point"},"properties":{"osm_id":"8075029466","tag":{"amenity":"waste_disposal","waste":"trash"}},"type":"Feature"},
	{"geometry":{"coordinates":[19.845848,43.857409],"type":"Point"},"properties":{"osm_id":"8075731070","tag":{"amenity":"waste_disposal"}},"type":"Feature"},
	{"geometry":{"coordinates":[19.845861,43.857421],"type":"Point"},"properties":{"osm_id":"8075731071","tag":{"amenity":"waste_disposal"}},"type":"Feature"},
	{"geometry":{"coordinates":[19.857096,43.852332],"type":"Point"},"properties":{"osm_id":"8075731152","tag":{"amenity":"waste_disposal"}},"type":"Feature"},
	{"geometry":{"coordinates":[19.857119,43.852322],"type":"Point"},"properties":{"osm_id":"8075731153","tag":{"amenity":"waste_disposal"}},"type":"Feature"},
	{"geometry":{"coordinates":[19.843355,43.856909],"type":"Point"},"properties":{"osm_id":"8078973779","tag":{"amenity":"waste_disposal","waste":"trash"}},"type":"Feature"},
	{"geometry":{"coordinates":[19.843334,43.856915],"type":"Point"},"properties":{"osm_id":"8078973780","tag":{"amenity":"waste_disposal","waste":"trash"}},"type":"Feature"},
	{"geometry":{"coordinates":[19.849876,43.852304],"type":"Point"},"properties":{"highway":"street_lamp","osm_id":"8080732621","tag":{"amenity":"waste_basket","lamp_mount":"straight_mast"}},"type":"Feature"},
	{"geometry":{"coordinates":[19.84251,43.857078],"type":"Point"},"properties":{"highway":"street_lamp","osm_id":"8089497315","tag":{"amenity":"waste_basket","lamp_mount":"straight_mast"}},"type":"Feature"},
	{"geometry":{"coordinates":[19.842618,43.857109],"type":"Point"},"properties":{"highway":"street_lamp","osm_id":"8089497316","tag":{"amenity":"waste_basket","lamp_mount":"straight_mast"}},"type":"Feature"},
	{"geometry":{"coordinates":[19.842538,43.857124],"type":"Point"},"properties":{"highway":"street_lamp","osm_id":"8089497317","tag":{"amenity":"waste_basket","lamp_mount":"straight_mast"}},"type":"Feature"},
	{"geometry":{"coordinates":[19.84267,43.857108],"type":"Point"},"properties":{"osm_id":"8089497339","tag":{"amenity":"waste_disposal","waste":"trash"}},"type":"Feature"},
	{"geometry":{"coordinates":[19.84265,43.857116],"type":"Point"},"properties":{"osm_id":"8089497340","tag":{"amenity":"waste_disposal","waste":"trash"}},"type":"Feature"},
	{"geometry":{"coordinates":[19.844314,43.856779],"type":"Point"},"properties":{"osm_id":"8104433411","tag":{"amenity":"waste_disposal","waste":"trash"}},"type":"Feature"},
	{"geometry":{"coordinates":[19.844355,43.856774],"type":"Point"},"properties":{"osm_id":"8104433412","tag":{"amenity":"waste_disposal","waste":"trash"}},"type":"Feature"},
	{"geometry":{"coordinates":[19.844671,43.85674],"type":"Point"},"properties":{"osm_id":"8104497964","tag":{"amenity":"waste_disposal","waste":"trash"}},"type":"Feature"},
	{"geometry":{"coordinates":[19.844643,43.856741],"type":"Point"},"properties":{"osm_id":"8104497965","tag":{"amenity":"waste_disposal","waste":"trash"}},"type":"Feature"}
]
}
