{
"type": "FeatureCollection",
"features": [
	{"geometry":{"coordinates":[-69.558314,-18.197783],"type":"Point"},"properties":{"osm_id":"5908138193","tag":{"amenity":"recycling","recycling_type":"container"}},"type":"Feature"},
	{"geometry":{"coordinates":[-69.559156,-18.196613],"type":"Point"},"properties":{"osm_id":"5908268810","tag":{"amenity":"waste_disposal"}},"type":"Feature"},
	{"geometry":{"coordinates":[-69.559011,-18.196357],"type":"Point"},"properties":{"osm_id":"5908298023","tag":{"amenity":"waste_disposal"}},"type":"Feature"},
	{"geometry":{"coordinates":[-69.559303,-18.195158],"type":"Point"},"properties":{"osm_id":"5908298025","tag":{"amenity":"waste_disposal"}},"type":"Feature"},
	{"geometry":{"coordinates":[-69.559749,-18.19825],"type":"Point"},"properties":{"osm_id":"5910264569","tag":{"amenity":"waste_disposal"}},"type":"Feature"},
	{"geometry":{"coordinates":[-69.55902,-18.198011],"type":"Point"},"properties":{"osm_id":"5910390758","tag":{"addr:city":"Putre","addr:street":"General Baquedano","amenity":"waste_disposal"}},"type":"Feature"},
	{"geometry":{"coordinates":[-69.559402,-18.196254],"type":"Point"},"properties":{"osm_id":"7088978689","tag":{"amenity":"waste_basket"}},"type":"Feature"},
	{"geometry":{"coordinates":[-69.55925,-18.196205],"type":"Point"},"properties":{"osm_id":"7089142068","tag":{"amenity":"waste_basket"}},"type":"Feature"}
]
}
