{
"type": "FeatureCollection",
"features": [
	{"geometry":{"coordinates":[-93.214337,44.986082],"type":"Point"},"properties":{"name":"University of Minnesota Reuse Center","osm_id":"922237948","tag":{"amenity":"recycling"}},"type":"Feature"},
	{"geometry":{"coordinates":[-93.236061,44.973368],"type":"Point"},"properties":{"osm_id":"1969105456","tag":{"amenity":"waste_basket"}},"type":"Feature"},
	{"geometry":{"coordinates":[-93.235767,44.974434],"type":"Point"},"properties":{"osm_id":"1969105470","tag":{"amenity":"waste_basket"}},"type":"Feature"},
	{"geometry":{"coordinates":[-93.234949,44.974436],"type":"Point"},"properties":{"osm_id":"1969105474","tag":{"amenity":"waste_basket"}},"type":"Feature"},
	{"geometry":{"coordinates":[-93.235767,44.974579],"type":"Point"},"properties":{"osm_id":"1969105479","tag":{"amenity":"waste_basket"}},"type":"Feature"},
	{"geometry":{"coordinates":[-93.234949,44.97458],"type":"Point"},"properties":{"osm_id":"1969105487","tag":{"amenity":"waste_basket"}},"type":"Feature"},
	{"geometry":{"coordinates":[-93.235773,44.975209],"type":"Point"},"properties":{"osm_id":"1969105533","tag":{"amenity":"waste_basket"}},"type":"Feature"},
	{"geometry":{"coordinates":[-93.234947,44.97521],"type":"Point"},"properties":{"osm_id":"1969105553","tag":{"amenity":"waste_basket"}},"type":"Feature"},
	{"geometry":{"coordinates":[-93.235755,44.975321],"type":"Point"},"properties":{"osm_id":"1969105559","tag":{"amenity":"waste_basket"}},"type":"Feature"},
	{"geometry":{"coordinates":[-93.234954,44.975351],"type":"Point"},"properties":{"osm_id":"1969105576","tag":{"amenity":"waste_basket"}},"type":"Feature"},
	{"geometry":{"coordinates":[-93.223534,44.973566],"type":"Point"},"properties":{"osm_id":"4239734346","tag":{"amenity":"waste_basket"}},"type":"Feature"},
	{"geometry":{"coordinates":[-93.22428,44.974856],"type":"Point"},"properties":{"osm_id":"4239734349","tag":{"amenity":"waste_basket"}},"type":"Feature"},
	{"geometry":{"coordinates":[-93.224069,44.973499],"type":"Point"},"properties":{"osm_id":"4253106649","tag":{"amenity":"waste_basket"}},"type":"Feature"},
	{"geometry":{"coordinates":[-93.222544,44.973747],"type":"Point"},"properties":{"osm_id":"4253106658","tag":{"amenity":"waste_basket"}},"type":"Feature"},
	{"geometry":{"coordinates":[-93.224174,44.973698],"type":"Point"},"properties":{"osm_id":"4269098971","tag":{"amenity":"waste_basket"}},"type":"Feature"},
	{"geometry":{"coordinates":[-93.21809,44.96702],"type":"Point"},"properties":{"osm_id":"4279240364","tag":{"amenity":"waste_basket"}},"type":"Feature"},
	{"geometry":{"coordinates":[-93.215986,44.971412],"type":"Point"},"properties":{"osm_id":"4279240611","tag":{"amenity":"waste_basket"}},"type":"Feature"},
	{"geometry":{"coordinates":[-93.226997,44.973492],"type":"Point"},"properties":{"osm_id":"4330055848","tag":{"amenity":"waste_basket"}},"type":"Feature"},
	{"geometry":{"coordinates":[-93.226913,44.973536],"type":"Point"},"properties":{"osm_id":"4330055849","tag":{"amenity":"waste_basket"}},"type":"Feature"},
	{"geometry":{"coordinates":[-93.228554,44.973579],"type":"Point"},"properties":{"osm_id":"4330055850","tag":{"amenity":"waste_basket"}},"type":"Feature"},
	{"geometry":{"coordinates":[-93.228861,44.973584],"type":"Point"},"properties":{"osm_id":"4330055851","tag":{"amenity":"waste_basket"}},"type":"Feature"},
	{"geometry":{"coordinates":[-93.229175,44.973712],"type":"Point"},"properties":{"osm_id":"4330055861","tag":{"amenity":"waste_basket"}},"type":"Feature"},
	{"geometry":{"coordinates":[-93.226895,44.973746],"type":"Point"},"properties":{"osm_id":"4330055863","tag":{"amenity":"waste_basket"}},"type":"Feature"},
	{"geometry":{"coordinates":[-93.228859,44.973799],"type":"Point"},"properties":{"osm_id":"4330055864","tag":{"amenity":"waste_basket"}},"type":"Feature"},
	{"geometry":{"coordinates":[-93.228603,44.973897],"type":"Point"},"properties":{"osm_id":"4330055866","tag":{"amenity":"waste_basket"}},"type":"Feature"},
	{"geometry":{"coordinates":[-93.22493,44.97465],"type":"Point"},"properties":{"osm_id":"4343817377","tag":{"amenity":"waste_basket"}},"type":"Feature"},
	{"geometry":{"coordinates":[-93.227293,44.97726],"type":"Point"},"properties":{"osm_id":"4343818175","tag":{"amenity":"waste_basket"}},"type":"Feature"},
	{"geometry":{"coordinates":[-93.231969,44.977879],"type":"Point"},"properties":{"osm_id":"4343818193","tag":{"amenity":"waste_basket"}},"type":"Feature"},
	{"geometry":{"coordinates":[-93.23205,44.977914],"type":"Point"},"properties":{"osm_id":"4343818199","tag":{"amenity":"waste_basket"}},"type":"Feature"},
	{"geometry":{"coordinates":[-93.229315,44.977984],"type":"Point"},"properties":{"osm_id":"4343818207","tag":{"amenity":"waste_basket"}},"type":"Feature"},
	{"geometry":{"coordinates":[-93.228788,44.97836],"type":"Point"},"properties":{"osm_id":"4343818223","tag":{"amenity":"waste_basket"}},"type":"Feature"},
	{"geometry":{"coordinates":[-93.228756,44.978397],"type":"Point"},"properties":{"osm_id":"4343818224","tag":{"amenity":"waste_basket"}},"type":"Feature"},
	{"geometry":{"coordinates":[-93.232041,44.979079],"type":"Point"},"properties":{"osm_id":"4343818234","tag":{"amenity":"waste_basket"}},"type":"Feature"},
	{"geometry":{"coordinates":[-93.234006,44.981003],"type":"Point"},"properties":{"osm_id":"4343818238","tag":{"amenity":"waste_basket"}},"type":"Feature"},
	{"geometry":{"coordinates":[-93.234354,44.981142],"type":"Point"},"properties":{"osm_id":"4343818241","tag":{"amenity":"waste_basket"}},"type":"Feature"},
	{"geometry":{"coordinates":[-93.234874,44.981362],"type":"Point"},"properties":{"osm_id":"4343818249","tag":{"amenity":"waste_basket"}},"type":"Feature"},
	{"geometry":{"coordinates":[-93.23518,44.981444],"type":"Point"},"properties":{"osm_id":"4343818250","tag":{"amenity":"waste_basket"}},"type":"Feature"},
	{"geometry":{"coordinates":[-93.234806,44.981497],"type":"Point"},"properties":{"osm_id":"4343818252","tag":{"amenity":"recycling","recycling_type":"container"}},"type":"Feature"},
	{"geometry":{"coordinates":[-93.23482,44.981502],"type":"Point"},"properties":{"osm_id":"4343818253","tag":{"amenity":"waste_basket"}},"type":"Feature"},
	{"geometry":{"coordinates":[-93.234585,44.982157],"type":"Point"},"properties":{"osm_id":"4343818255","tag":{"amenity":"waste_basket"}},"type":"Feature"},
	{"geometry":{"coordinates":[-93.220966,44.99477],"type":"Point"},"properties":{"name":"Eureka Recycling","osm_id":"4500748790","tag":{"amenity":"recycling","name:en":"Eureka Recycling"}},"type":"Feature"},
	{"geometry":{"coordinates":[-93.195373,44.969675],"type":"Point"},"properties":{"name":"American Paper Recycling","osm_id":"6267046578","tag":{"addr:city":"Saint Paul","addr:housenumber":"2327","addr:postcode":"55114","addr:state":"MN","addr:street":"Wycliff Street","amenity":"recycling","recycling_type":"centre"}},"type":"Feature"},
	{"geometry":{"coordinates":[-93.192101,44.966039],"type":"Point"},"properties":{"name":"Bro-Tex Carpet Recycling","osm_id":"6267097806","tag":{"addr:city":"Saint Paul","addr:housenumber":"840","addr:postcode":"55114","addr:state":"MN","addr:street":"North Hampden Avenue","amenity":"recycling","phone":"651-272-7227","recycling_type":"centre","website":"https://www.carpet.brotex.com"}},"type":"Feature"},
	{"geometry":{"coordinates":[-93.191771,44.967442],"type":"Point"},"properties":{"name":"Rohn Industries","osm_id":"6267097854","tag":{"addr:city":"Saint Paul","addr:housenumber":"862","addr:postcode":"55114","addr:state":"MN","addr:street":"Hersey Street","amenity":"recycling","phone":"651-647-1300","recycling_type":"centre","website":"https://www.rohnind.com"}},"type":"Feature"},
	{"geometry":{"coordinates":[-93.18834,44.969177],"type":"Point"},"properties":{"name":"Concrete Recycling, Inc.","osm_id":"6267169334","tag":{"addr:city":"Saint Paul","addr:housenumber":"2035","addr:postcode":"55114","addr:state":"MN","addr:street":"Capp Road","amenity":"recycling","phone":"651-642-9240","recycling_type":"centre"}},"type":"Feature"},
	{"geometry":{"coordinates":[-93.188419,44.966922],"type":"Point"},"properties":{"name":"Tech Dump","osm_id":"6267169337","tag":{"addr:city":"Saint Paul","addr:housenumber":"860","addr:postcode":"55114","addr:state":"MN","addr:street":"Vandalia Street","amenity":"recycling","phone":"651-556-4460","recycling_type":"centre","website":"https://www.techdump.org/"}},"type":"Feature"},
	{"geometry":{"coordinates":[-93.238174,44.986505],"type":"Point"},"properties":{"osm_id":"6773610850","tag":{"amenity":"waste_basket"}},"type":"Feature"},
	{"geometry":{"coordinates":[-93.227935,44.974394],"type":"Point"},"properties":{"osm_id":"6781086329","tag":{"amenity":"waste_basket"}},"type":"Feature"}
]
}
