{
"type": "FeatureCollection",
"features": [
	{"geometry":{"coordinates":[-93.23572,44.95578],"type":"Point"},"properties":{"name":"Free Geek Twin Cities","osm_id":"1738263525","tag":{"addr:city":"Minneapolis","addr:housenumber":"2537","addr:street":"25th Avenue South","amenity":"recycling","opening_hours":"We-Su 12:00-17:00","phone":"+1 612-293-7339","recycling:cans":"no","recycling:clothes":"no","recycling:computers":"yes","recycling:flatscreen_monitors":"yes","recycling:glass":"no","recycling:paper":"no","recycling:speakers":"yes","recycling_type":"centre","website":"http://freegeektwincities.org"}},"type":"Feature"},
	{"geometry":{"coordinates":[-93.237077,44.907857],"type":"Point"},"properties":{"osm_id":"4852088807","tag":{"amenity":"recycling","recycling_type":"container"}},"type":"Feature"},
	{"geometry":{"coordinates":[-93.237107,44.907802],"type":"Point"},"properties":{"osm_id":"4852088808","tag":{"amenity":"waste_basket"}},"type":"Feature"},
	{"geometry":{"coordinates":[-93.237439,44.908699],"type":"Point"},"properties":{"osm_id":"4852088810","tag":{"amenity":"waste_basket"}},"type":"Feature"},
	{"geometry":{"coordinates":[-93.235873,44.910435],"type":"Point"},"properties":{"osm_id":"4852088817","tag":{"amenity":"recycling","recycling_type":"container"}},"type":"Feature"},
	{"geometry":{"coordinates":[-93.235909,44.910381],"type":"Point"},"properties":{"osm_id":"4852088818","tag":{"amenity":"waste_basket"}},"type":"Feature"},
	{"geometry":{"coordinates":[-93.236478,44.916127],"type":"Point"},"properties":{"osm_id":"4852372347","tag":{"amenity":"recycling","recycling_type":"container"}},"type":"Feature"},
	{"geometry":{"coordinates":[-93.236429,44.916053],"type":"Point"},"properties":{"osm_id":"4852382452","tag":{"amenity":"waste_basket"}},"type":"Feature"},
	{"geometry":{"coordinates":[-93.232117,44.912745],"type":"Point"},"properties":{"osm_id":"4865540333","tag":{"amenity":"recycling","recycling:clothes":"yes","recycling_type":"container"}},"type":"Feature"},
	{"geometry":{"coordinates":[-93.234281,44.912943],"type":"Point"},"properties":{"osm_id":"4865546228","tag":{"amenity":"waste_basket"}},"type":"Feature"},
	{"geometry":{"coordinates":[-93.243484,44.911909],"type":"Point"},"properties":{"osm_id":"4867310086","tag":{"amenity":"waste_basket"}},"type":"Feature"},
	{"geometry":{"coordinates":[-93.243634,44.912595],"type":"Point"},"properties":{"osm_id":"4867310090","tag":{"amenity":"waste_basket"}},"type":"Feature"},
	{"geometry":{"coordinates":[-93.250212,44.919249],"type":"Point"},"properties":{"osm_id":"7539658700","tag":{"amenity":"waste_disposal"}},"type":"Feature"},
	{"geometry":{"coordinates":[-93.250256,44.919251],"type":"Point"},"properties":{"osm_id":"7539658701","tag":{"amenity":"waste_disposal"}},"type":"Feature"},
	{"geometry":{"coordinates":[-93.246724,44.923708],"type":"Point"},"properties":{"osm_id":"7600774629","tag":{"amenity":"waste_disposal"}},"type":"Feature"}
]
}
