{
"type": "FeatureCollection",
"features": [
	{"geometry":{"coordinates":[-1.348037,54.838151],"type":"Point"},"properties":{"name":"Strangford Road H W R C","osm_id":"1957296552","tag":{"addr:city":"Seaham","addr:postcode":"SR7 8QE","addr:street":"Strangford Road","amenity":"recycling","opening_hours":"Mo-Su 09:00-18:00; Dec 25 off; Jan 01 off","operator":"H W Martin Waste Limited","operator:type":"private","owner":"Durham County Council","ownership":"municipal","recycling:batteries":"yes","recycling:cans":"yes","recycling:car_batteries":"yes","recycling:cardboard":"yes","recycling:carpets":"yes","recycling:cartons":"yes","recycling:cooking_oil":"yes","recycling:fluorescent_tubes":"yes","recycling:fridges_and_freezers":"yes","recycling:garden_waste":"yes","recycling:gas_bottles":"yes","recycling:general_waste":"yes","recycling:glass":"yes","recycling:oil":"yes","recycling:paper":"yes","recycling:plasterboard":"yes","recycling:plastics":"yes","recycling:rubble":"yes","recycling:scrap_metal":"yes","recycling:shoes":"yes","recycling:soil":"yes","recycling:textiles":"yes","recycling:tv_monitor":"yes","recycling:tyres":"yes","recycling:wood":"yes","recycling_type":"centre","website":"http://www.durham.gov.uk/article/21848/Seaham-HWRC-tip-","wikidata":"Q106093451"}},"type":"Feature"}
]
}
