{
"type": "FeatureCollection",
"features": [
	{"geometry":{"coordinates":[-1.324359,53.719841],"type":"Point"},"properties":{"osm_id":"7172529764","tag":{"amenity":"waste_basket"}},"type":"Feature"},
	{"geometry":{"coordinates":[-1.327341,53.716685],"type":"Point"},"properties":{"osm_id":"7172529765","tag":{"amenity":"waste_basket","colour":"Black","mapillary":"3JZxM0EnPUsLtRqcsTaQtQ","material":"plastic"}},"type":"Feature"},
	{"geometry":{"coordinates":[-1.32066,53.698866],"type":"Point"},"properties":{"osm_id":"7179282649","tag":{"amenity":"waste_basket","colour":"red","waste":"dog_excrement"}},"type":"Feature"},
	{"geometry":{"coordinates":[-1.322656,53.698187],"type":"Point"},"properties":{"osm_id":"7179282650","tag":{"amenity":"waste_basket","colour":"red","waste":"dog_excrement"}},"type":"Feature"},
	{"geometry":{"coordinates":[-1.401694,53.739659],"type":"Point"},"properties":{"osm_id":"7429091423","tag":{"amenity":"waste_basket","collection_times":"Su","ref:UK:leedscc:bin":"2011"}},"type":"Feature"},
	{"geometry":{"coordinates":[-1.401101,53.739597],"type":"Point"},"properties":{"osm_id":"7429091424","tag":{"amenity":"waste_basket","collection_times":"Su","ref:UK:leedscc:bin":"2010"}},"type":"Feature"},
	{"geometry":{"coordinates":[-1.400306,53.738546],"type":"Point"},"properties":{"osm_id":"7429091427","tag":{"amenity":"waste_basket","collection_times":"Su","ref:UK:leedscc:bin":"2804"}},"type":"Feature"},
	{"geometry":{"coordinates":[-1.400205,53.738702],"type":"Point"},"properties":{"osm_id":"7429091428","tag":{"amenity":"waste_basket","collection_times":"Su","ref:UK:leedscc:bin":"2805"}},"type":"Feature"},
	{"geometry":{"coordinates":[-1.397923,53.740139],"type":"Point"},"properties":{"osm_id":"7429091432","tag":{"amenity":"waste_basket","collection_times":"Su","ref:UK:leedscc:bin":"2008"}},"type":"Feature"},
	{"geometry":{"coordinates":[-1.397993,53.739914],"type":"Point"},"properties":{"osm_id":"7429091433","tag":{"amenity":"waste_basket","collection_times":"Su","ref:UK:leedscc:bin":"2009"}},"type":"Feature"},
	{"geometry":{"coordinates":[-1.39837,53.738879],"type":"Point"},"properties":{"osm_id":"7429091434","tag":{"amenity":"waste_basket","collection_times":"Su","ref:UK:leedscc:bin":"2807"}},"type":"Feature"},
	{"geometry":{"coordinates":[-1.398373,53.738722],"type":"Point"},"properties":{"osm_id":"7429091435","tag":{"amenity":"waste_basket","collection_times":"Su","ref:UK:leedscc:bin":"2806"}},"type":"Feature"},
	{"geometry":{"coordinates":[-1.375491,53.748635],"type":"Point"},"properties":{"osm_id":"7429091439","tag":{"amenity":"waste_basket","collection_times":"Sa","ref:UK:leedscc:bin":"1776"}},"type":"Feature"},
	{"geometry":{"coordinates":[-1.395704,53.740607],"type":"Point"},"properties":{"osm_id":"7429091441","tag":{"amenity":"waste_basket","collection_times":"Su","ref:UK:leedscc:bin":"2007"}},"type":"Feature"},
	{"geometry":{"coordinates":[-1.39586,53.738974],"type":"Point"},"properties":{"osm_id":"7429091442","tag":{"amenity":"waste_basket","collection_times":"Su","ref:UK:leedscc:bin":"2808"}},"type":"Feature"},
	{"geometry":{"coordinates":[-1.395692,53.739178],"type":"Point"},"properties":{"osm_id":"7429091443","tag":{"amenity":"waste_basket","collection_times":"Su","ref:UK:leedscc:bin":"2809"}},"type":"Feature"},
	{"geometry":{"coordinates":[-1.373355,53.747474],"type":"Point"},"properties":{"osm_id":"7429091445","tag":{"amenity":"waste_basket","collection_times":"Sa","ref:UK:leedscc:bin":"1777"}},"type":"Feature"},
	{"geometry":{"coordinates":[-1.399519,53.730086],"type":"Point"},"properties":{"osm_id":"7429091446","tag":{"amenity":"waste_basket","collection_times":"Su","ref:UK:leedscc:bin":"179"}},"type":"Feature"},
	{"geometry":{"coordinates":[-1.37034,53.746822],"type":"Point"},"properties":{"osm_id":"7429091451","tag":{"amenity":"waste_basket","collection_times":"Sa","ref:UK:leedscc:bin":"1732"}},"type":"Feature"},
	{"geometry":{"coordinates":[-1.370227,53.746775],"type":"Point"},"properties":{"osm_id":"7429091454","tag":{"amenity":"waste_basket","collection_times":"Sa","ref:UK:leedscc:bin":"1778"}},"type":"Feature"},
	{"geometry":{"coordinates":[-1.369651,53.746575],"type":"Point"},"properties":{"osm_id":"7429091457","tag":{"amenity":"waste_basket","collection_times":"Sa","ref:UK:leedscc:bin":"1779"}},"type":"Feature"},
	{"geometry":{"coordinates":[-1.369778,53.7463],"type":"Point"},"properties":{"osm_id":"7429091459","tag":{"amenity":"waste_basket","collection_times":"Sa","ref:UK:leedscc:bin":"1780"}},"type":"Feature"},
	{"geometry":{"coordinates":[-1.369141,53.745938],"type":"Point"},"properties":{"osm_id":"7429091464","tag":{"amenity":"waste_basket","collection_times":"Sa","ref:UK:leedscc:bin":"1781"}},"type":"Feature"},
	{"geometry":{"coordinates":[-1.368585,53.745707],"type":"Point"},"properties":{"osm_id":"7429091473","tag":{"amenity":"waste_basket","collection_times":"Sa","ref:UK:leedscc:bin":"1730"}},"type":"Feature"},
	{"geometry":{"coordinates":[-1.368797,53.745641],"type":"Point"},"properties":{"osm_id":"7429091477","tag":{"amenity":"waste_basket","collection_times":"Sa","ref:UK:leedscc:bin":"1782"}},"type":"Feature"},
	{"geometry":{"coordinates":[-1.368408,53.745527],"type":"Point"},"properties":{"osm_id":"7429091483","tag":{"amenity":"waste_basket","collection_times":"Sa","ref:UK:leedscc:bin":"1783"}},"type":"Feature"},
	{"geometry":{"coordinates":[-1.368166,53.743302],"type":"Point"},"properties":{"osm_id":"7429091515","tag":{"amenity":"waste_basket","collection_times":"Sa","ref:UK:leedscc:bin":"3470"}},"type":"Feature"},
	{"geometry":{"coordinates":[-1.365115,53.743441],"type":"Point"},"properties":{"osm_id":"7429091519","tag":{"amenity":"waste_basket","collection_times":"Sa","ref:UK:leedscc:bin":"1731"}},"type":"Feature"},
	{"geometry":{"coordinates":[-1.382468,53.739268],"type":"Point"},"properties":{"osm_id":"7429091520","tag":{"amenity":"waste_basket","collection_times":"Su","ref:UK:leedscc:bin":"1929"}},"type":"Feature"},
	{"geometry":{"coordinates":[-1.381169,53.727177],"type":"Point"},"properties":{"osm_id":"7429091579","tag":{"amenity":"waste_basket","collection_times":"Su","ref:UK:leedscc:bin":"1769"}},"type":"Feature"},
	{"geometry":{"coordinates":[-1.343711,53.714333],"type":"Point"},"properties":{"osm_id":"7463096004","tag":{"amenity":"waste_basket","colour":"Black","waste":"trash"}},"type":"Feature"},
	{"geometry":{"coordinates":[-1.344187,53.714235],"type":"Point"},"properties":{"osm_id":"7463096005","tag":{"amenity":"waste_basket"}},"type":"Feature"},
	{"geometry":{"coordinates":[-1.343438,53.713348],"type":"Point"},"properties":{"osm_id":"7463133165","tag":{"amenity":"waste_basket"}},"type":"Feature"},
	{"geometry":{"coordinates":[-1.334006,53.715011],"type":"Point"},"properties":{"osm_id":"7837046237","tag":{"amenity":"waste_basket","colour":"Black","material":"reinforced_plastic","operator":"Wakefield Council","waste":"trash;mixed;recycling"}},"type":"Feature"},
	{"geometry":{"coordinates":[-1.346648,53.715576],"type":"Point"},"properties":{"osm_id":"7841887115","tag":{"amenity":"waste_basket","colour":"Black","material":"metal","operator":"Wakefield Council","waste":"trash;mixed;recycling"}},"type":"Feature"},
	{"geometry":{"coordinates":[-1.350867,53.714256],"type":"Point"},"properties":{"osm_id":"7842269216","tag":{"amenity":"waste_basket","colour":"Black/Grey","material":"plastic","operator":"Wakefield Council","waste":"trash;recycling;mixed"}},"type":"Feature"},
	{"geometry":{"coordinates":[-1.355813,53.720064],"type":"Point"},"properties":{"osm_id":"7862449737","tag":{"amenity":"recycling","opening_hours":"24/7","operator":"The Fire Fighters Charity","recycling:clothes":"yes","recycling_type":"container"}},"type":"Feature"},
	{"geometry":{"coordinates":[-1.339596,53.716385],"type":"Point"},"properties":{"osm_id":"7899267779","tag":{"amenity":"waste_basket","colour":"black","material":"metal","operator":"Wakefield Council","waste":"trash;mixed;recycling"}},"type":"Feature"},
	{"geometry":{"coordinates":[-1.340025,53.716629],"type":"Point"},"properties":{"osm_id":"7899267781","tag":{"amenity":"waste_basket","colour":"blue","material":"concrete","operator":"Wakefield Council","waste":"trash;mixed;recycling"}},"type":"Feature"},
	{"geometry":{"coordinates":[-1.321548,53.698335],"type":"Point"},"properties":{"osm_id":"7923628239","tag":{"amenity":"waste_basket","colour":"green","waste":"dog_excrement"}},"type":"Feature"},
	{"geometry":{"coordinates":[-1.321979,53.69813],"type":"Point"},"properties":{"osm_id":"7923628240","tag":{"amenity":"waste_basket","colour":"Black","material":"metal","waste":"trash;mixed"}},"type":"Feature"},
	{"geometry":{"coordinates":[-1.326116,53.697046],"type":"Point"},"properties":{"osm_id":"7924700317","tag":{"amenity":"waste_basket","colour":"Green","material":"plastic","operator":"Wkefield Council","waste":"trash;mixed;recycling"}},"type":"Feature"},
	{"geometry":{"coordinates":[-1.350166,53.721855],"type":"Point"},"properties":{"osm_id":"7934274188","tag":{"amenity":"waste_basket","colour":"Black","covered":"no","mapillary":"8hQ0lvpekBs1dVO4GVWYNh","material":"plastic","operator":"Wakefield Council","waste":"trash"}},"type":"Feature"}
]
}
