{
"type": "FeatureCollection",
"features": [
	{"geometry":{"coordinates":[-1.396875,48.796592],"type":"Point"},"properties":{"osm_id":"3345748185","tag":{"amenity":"recycling","recycling:cans":"yes","recycling:cardboard":"yes","recycling:paper":"yes","recycling:plastic":"yes","recycling_type":"container"}},"type":"Feature"},
	{"geometry":{"coordinates":[-1.395255,48.793715],"type":"Point"},"properties":{"osm_id":"4326822416","tag":{"amenity":"recycling","recycling:glass_bottles":"yes","recycling_type":"container"}},"type":"Feature"},
	{"geometry":{"coordinates":[-1.401875,48.792171],"type":"Point"},"properties":{"osm_id":"6195257343","tag":{"amenity":"waste_basket"}},"type":"Feature"},
	{"geometry":{"coordinates":[-1.394098,48.79607],"type":"Point"},"properties":{"osm_id":"6699114523","tag":{"amenity":"recycling","recycling:glass_bottles":"yes","recycling_type":"container"}},"type":"Feature"},
	{"geometry":{"coordinates":[-1.394071,48.796018],"type":"Point"},"properties":{"osm_id":"6699114524","tag":{"amenity":"recycling","recycling:cans":"yes","recycling:cardboard":"yes","recycling:paper":"yes","recycling:plastic":"yes","recycling_type":"container"}},"type":"Feature"},
	{"geometry":{"coordinates":[-1.394059,48.795994],"type":"Point"},"properties":{"osm_id":"6699114525","tag":{"amenity":"recycling","recycling:cans":"yes","recycling:cardboard":"yes","recycling:paper":"yes","recycling:plastic":"yes","recycling_type":"container"}},"type":"Feature"},
	{"geometry":{"coordinates":[-1.394083,48.796042],"type":"Point"},"properties":{"osm_id":"6699114526","tag":{"amenity":"recycling","recycling:cans":"yes","recycling:cardboard":"yes","recycling:paper":"yes","recycling:plastic":"yes","recycling_type":"container"}},"type":"Feature"},
	{"geometry":{"coordinates":[-1.394108,48.796092],"type":"Point"},"properties":{"osm_id":"6699114527","tag":{"amenity":"recycling","recycling:glass_bottles":"yes","recycling_type":"container"}},"type":"Feature"},
	{"geometry":{"coordinates":[-1.394239,48.796204],"type":"Point"},"properties":{"osm_id":"6699114528","tag":{"amenity":"recycling","operator":"Le Relais","operator:website":"https://www.lerelais.org/","recycling:clothes":"yes","recycling_type":"container"}},"type":"Feature"},
	{"geometry":{"coordinates":[-1.394219,48.796209],"type":"Point"},"properties":{"osm_id":"6699114529","tag":{"amenity":"recycling","operator":"Le Relais","operator:website":"https://www.lerelais.org/","recycling:clothes":"yes","recycling_type":"container"}},"type":"Feature"},
	{"geometry":{"coordinates":[-1.39515,48.795986],"type":"Point"},"properties":{"osm_id":"6699114537","tag":{"amenity":"waste_basket"}},"type":"Feature"},
	{"geometry":{"coordinates":[-1.395867,48.797014],"type":"Point"},"properties":{"osm_id":"6699427482","tag":{"amenity":"waste_basket"}},"type":"Feature"},
	{"geometry":{"coordinates":[-1.39573,48.797437],"type":"Point"},"properties":{"osm_id":"6699454991","tag":{"amenity":"waste_basket"}},"type":"Feature"},
	{"geometry":{"coordinates":[-1.395916,48.796857],"type":"Point"},"properties":{"osm_id":"6699454994","tag":{"amenity":"waste_basket"}},"type":"Feature"},
	{"geometry":{"coordinates":[-1.395219,48.79372],"type":"Point"},"properties":{"osm_id":"6700770759","tag":{"amenity":"recycling","recycling:glass_bottles":"yes","recycling_type":"container"}},"type":"Feature"},
	{"geometry":{"coordinates":[-1.395294,48.793709],"type":"Point"},"properties":{"osm_id":"6700770760","tag":{"amenity":"recycling","recycling:cans":"yes","recycling:cardboard":"yes","recycling:paper":"yes","recycling:plastic":"yes","recycling_type":"container"}},"type":"Feature"},
	{"geometry":{"coordinates":[-1.395329,48.793705],"type":"Point"},"properties":{"osm_id":"6700770761","tag":{"amenity":"recycling","recycling:cans":"yes","recycling:cardboard":"yes","recycling:paper":"yes","recycling:plastic":"yes","recycling_type":"container"}},"type":"Feature"},
	{"geometry":{"coordinates":[-1.395367,48.793699],"type":"Point"},"properties":{"osm_id":"6700770762","tag":{"amenity":"recycling","recycling:cans":"yes","recycling:cardboard":"yes","recycling:paper":"yes","recycling:plastic":"yes","recycling_type":"container"}},"type":"Feature"},
	{"geometry":{"coordinates":[-1.394056,48.793809],"type":"Point"},"properties":{"osm_id":"6700770777","tag":{"amenity":"waste_basket"}},"type":"Feature"},
	{"geometry":{"coordinates":[-1.397504,48.796671],"type":"Point"},"properties":{"osm_id":"6701054912","tag":{"amenity":"waste_basket"}},"type":"Feature"},
	{"geometry":{"coordinates":[-1.397488,48.796362],"type":"Point"},"properties":{"osm_id":"6701054913","tag":{"amenity":"waste_basket"}},"type":"Feature"},
	{"geometry":{"coordinates":[-1.396875,48.796612],"type":"Point"},"properties":{"osm_id":"6701054915","tag":{"amenity":"recycling","recycling:cans":"yes","recycling:cardboard":"yes","recycling:paper":"yes","recycling:plastic":"yes","recycling_type":"container"}},"type":"Feature"},
	{"geometry":{"coordinates":[-1.396875,48.796631],"type":"Point"},"properties":{"osm_id":"6701054916","tag":{"amenity":"recycling","recycling:cans":"yes","recycling:cardboard":"yes","recycling:paper":"yes","recycling:plastic":"yes","recycling_type":"container"}},"type":"Feature"},
	{"geometry":{"coordinates":[-1.396875,48.79665],"type":"Point"},"properties":{"osm_id":"6701054917","tag":{"amenity":"recycling","recycling:glass_bottles":"yes","recycling_type":"container"}},"type":"Feature"},
	{"geometry":{"coordinates":[-1.396875,48.796671],"type":"Point"},"properties":{"osm_id":"6701054918","tag":{"amenity":"recycling","recycling:glass_bottles":"yes","recycling_type":"container"}},"type":"Feature"},
	{"geometry":{"coordinates":[-1.396127,48.793777],"type":"Point"},"properties":{"osm_id":"6708408066","tag":{"amenity":"waste_basket"}},"type":"Feature"},
	{"geometry":{"coordinates":[-1.397862,48.797296],"type":"Point"},"properties":{"osm_id":"6708452853","tag":{"amenity":"waste_basket"}},"type":"Feature"},
	{"geometry":{"coordinates":[-1.398092,48.797605],"type":"Point"},"properties":{"osm_id":"6708469475","tag":{"amenity":"recycling","operator":"Le Relais","recycling:clothes":"yes"}},"type":"Feature"},
	{"geometry":{"coordinates":[-1.402006,48.79191],"type":"Point"},"properties":{"osm_id":"6708861952","tag":{"amenity":"recycling","recycling:cardboard":"yes","recycling:paper":"yes","recycling:plastic":"yes","recycling_type":"container"}},"type":"Feature"},
	{"geometry":{"coordinates":[-1.402017,48.791883],"type":"Point"},"properties":{"osm_id":"6708861953","tag":{"amenity":"recycling","recycling:cardboard":"yes","recycling:paper":"yes","recycling:plastic":"yes","recycling_type":"container"}},"type":"Feature"},
	{"geometry":{"coordinates":[-1.402028,48.791854],"type":"Point"},"properties":{"osm_id":"6708861954","tag":{"amenity":"recycling","recycling:glass_bottles":"yes","recycling_type":"container"}},"type":"Feature"},
	{"geometry":{"coordinates":[-1.396855,48.794397],"type":"Point"},"properties":{"osm_id":"6708861964","tag":{"amenity":"waste_basket"}},"type":"Feature"},
	{"geometry":{"coordinates":[-1.393689,48.797818],"type":"Point"},"properties":{"osm_id":"6708861965","tag":{"amenity":"waste_basket"}},"type":"Feature"},
	{"geometry":{"coordinates":[-1.395129,48.796877],"type":"Point"},"properties":{"osm_id":"6783647960","tag":{"amenity":"waste_basket"}},"type":"Feature"}
]
}
