{
"type": "FeatureCollection",
"features": [
	{"geometry":{"coordinates":[-1.392965,47.702716],"type":"Point"},"properties":{"osm_id":"3955271128","tag":{"amenity":"waste_basket"}},"type":"Feature"},
	{"geometry":{"coordinates":[-1.370657,47.720407],"type":"Point"},"properties":{"osm_id":"4428286433","tag":{"amenity":"recycling","recycling":"paper","recycling:glass_bottles":"yes","recycling_type":"container"}},"type":"Feature"},
	{"geometry":{"coordinates":[-1.37298,47.722404],"type":"Point"},"properties":{"osm_id":"4684280854","tag":{"amenity":"recycling","recycling:glass_bottles":"yes","recycling:newspaper":"yes","recycling_type":"container"}},"type":"Feature"},
	{"geometry":{"coordinates":[-1.373958,47.717664],"type":"Point"},"properties":{"osm_id":"4684375227","tag":{"amenity":"recycling","recycling:glass_bottles":"yes","recycling:newspaper":"yes","recycling_type":"container"}},"type":"Feature"},
	{"geometry":{"coordinates":[-1.388494,47.71698],"type":"Point"},"properties":{"osm_id":"4738321782","tag":{"amenity":"waste_basket","wheelchair":"yes"}},"type":"Feature"},
	{"geometry":{"coordinates":[-1.380935,47.730561],"type":"Point"},"properties":{"osm_id":"5058863349","tag":{"amenity":"waste_basket"}},"type":"Feature"},
	{"geometry":{"coordinates":[-1.379782,47.72989],"type":"Point"},"properties":{"osm_id":"5058863350","tag":{"amenity":"waste_basket"}},"type":"Feature"},
	{"geometry":{"coordinates":[-1.379138,47.730162],"type":"Point"},"properties":{"osm_id":"5058863352","tag":{"amenity":"recycling","recycling_type":"container"}},"type":"Feature"},
	{"geometry":{"coordinates":[-1.3791,47.730076],"type":"Point"},"properties":{"osm_id":"5058863353","tag":{"amenity":"recycling","recycling:glass_bottles":"yes","recycling_type":"container"}},"type":"Feature"},
	{"geometry":{"coordinates":[-1.377616,47.72024],"type":"Point"},"properties":{"osm_id":"8954793689","tag":{"amenity":"recycling","recycling_type":"container"}},"type":"Feature"},
	{"geometry":{"coordinates":[-1.379155,47.713584],"type":"Point"},"properties":{"osm_id":"8954904070","tag":{"amenity":"recycling","recycling_type":"container"}},"type":"Feature"},
	{"geometry":{"coordinates":[-1.381646,47.712006],"type":"Point"},"properties":{"osm_id":"8954993457","tag":{"amenity":"waste_basket"}},"type":"Feature"},
	{"geometry":{"coordinates":[-1.388086,47.710306],"type":"Point"},"properties":{"osm_id":"8954993488","tag":{"amenity":"recycling","recycling_type":"container"}},"type":"Feature"}
]
}
