{
"type": "FeatureCollection",
"features": [
	{"geometry":{"coordinates":[-1.358076,47.062682],"type":"Point"},"properties":{"osm_id":"1482325105","tag":{"amenity":"recycling","opening_hours":"24/7","operator":"Clisson S\u00c3\u00a8vre et Maine Agglo","recycling:paper":"yes","recycling_type":"container"}},"type":"Feature"},
	{"geometry":{"coordinates":[-1.355415,47.099605],"type":"Point"},"properties":{"barrier":"entrance","osm_id":"1886829596"},"type":"Feature"},
	{"geometry":{"coordinates":[-1.375397,47.057987],"type":"Point"},"properties":{"osm_id":"2351296089","tag":{"amenity":"recycling","location":"overground","operator":"Le Relais","recycling:clothes":"yes","recycling_type":"container"}},"type":"Feature"},
	{"geometry":{"coordinates":[-1.406003,47.077624],"type":"Point"},"properties":{"osm_id":"3077887172","tag":{"amenity":"recycling","recycling:glass_bottles":"yes","recycling_type":"container"}},"type":"Feature"},
	{"geometry":{"coordinates":[-1.405127,47.07789],"type":"Point"},"properties":{"osm_id":"3077887189","tag":{"amenity":"waste_basket"}},"type":"Feature"},
	{"geometry":{"coordinates":[-1.390084,47.078633],"type":"Point"},"properties":{"osm_id":"3650940531","tag":{"amenity":"waste_basket"}},"type":"Feature"},
	{"geometry":{"coordinates":[-1.375543,47.057776],"type":"Point"},"properties":{"osm_id":"3663548552","tag":{"amenity":"waste_basket"}},"type":"Feature"},
	{"geometry":{"coordinates":[-1.373771,47.058908],"type":"Point"},"properties":{"osm_id":"3874714107","tag":{"amenity":"recycling","location":"underground","opening_hours":"24/7","operator":"Clisson S\u00c3\u00a8vre et Maine Agglo","recycling:glass_bottles":"yes","recycling_type":"container"}},"type":"Feature"},
	{"geometry":{"coordinates":[-1.376957,47.054845],"type":"Point"},"properties":{"osm_id":"3947704867","tag":{"amenity":"recycling","recycling:organic":"yes","recycling_type":"container"}},"type":"Feature"},
	{"geometry":{"coordinates":[-1.367542,47.077961],"type":"Point"},"properties":{"osm_id":"4213080628","tag":{"amenity":"recycling","recycling:glass_bottles":"yes","recycling_type":"container"}},"type":"Feature"},
	{"geometry":{"coordinates":[-1.367546,47.077988],"type":"Point"},"properties":{"osm_id":"4213080629","tag":{"amenity":"recycling","recycling:paper":"yes","recycling_type":"container"}},"type":"Feature"},
	{"geometry":{"coordinates":[-1.358049,47.062665],"type":"Point"},"properties":{"osm_id":"4353754398","tag":{"amenity":"recycling","opening_hours":"24/7","operator":"Clisson S\u00c3\u00a8vre et Maine Agglo","recycling:glass_bottles":"yes","recycling_type":"container"}},"type":"Feature"},
	{"geometry":{"coordinates":[-1.397656,47.075426],"type":"Point"},"properties":{"osm_id":"4353754442","tag":{"amenity":"waste_basket"}},"type":"Feature"},
	{"geometry":{"coordinates":[-1.398012,47.075417],"type":"Point"},"properties":{"osm_id":"4353754444","tag":{"amenity":"waste_basket"}},"type":"Feature"},
	{"geometry":{"coordinates":[-1.398967,47.076028],"type":"Point"},"properties":{"osm_id":"4353754447","tag":{"amenity":"waste_basket"}},"type":"Feature"},
	{"geometry":{"coordinates":[-1.404234,47.07765],"type":"Point"},"properties":{"osm_id":"4353754476","tag":{"amenity":"waste_basket"}},"type":"Feature"},
	{"geometry":{"coordinates":[-1.379079,47.094767],"type":"Point"},"properties":{"osm_id":"4353754833","tag":{"amenity":"recycling","recycling:glass_bottles":"yes","recycling_type":"container"}},"type":"Feature"},
	{"geometry":{"coordinates":[-1.379103,47.094777],"type":"Point"},"properties":{"osm_id":"4353754834","tag":{"amenity":"recycling","recycling:paper":"yes","recycling_type":"container"}},"type":"Feature"},
	{"geometry":{"coordinates":[-1.383469,47.051685],"type":"Point"},"properties":{"osm_id":"4392055618","tag":{"amenity":"recycling","opening_hours":"24/7","operator":"Clisson S\u00c3\u00a8vre et Maine Agglo","recycling:glass_bottles":"yes","recycling_type":"container"}},"type":"Feature"},
	{"geometry":{"coordinates":[-1.383437,47.051726],"type":"Point"},"properties":{"osm_id":"4392055619","tag":{"amenity":"recycling","operator":"Le Relais","recycling:clothes":"yes","recycling_type":"container"}},"type":"Feature"},
	{"geometry":{"coordinates":[-1.383465,47.051714],"type":"Point"},"properties":{"osm_id":"4392055620","tag":{"amenity":"recycling","opening_hours":"24/7","operator":"Clisson S\u00c3\u00a8vre et Maine Agglo","recycling:paper":"yes","recycling_type":"container"}},"type":"Feature"},
	{"geometry":{"coordinates":[-1.397804,47.077718],"type":"Point"},"properties":{"osm_id":"4539622661","tag":{"amenity":"waste_basket"}},"type":"Feature"},
	{"geometry":{"coordinates":[-1.375892,47.056228],"type":"Point"},"properties":{"name":"Le Grand D\u00c3\u00a9tournement","osm_id":"6672996385","tag":{"amenity":"recycling","charity":"yes","contact:city":"Remouill\u00c3\u00a9","contact:facebook":"https://facebook.com/lgd44/","contact:phone":"+33 7 69 59 96 69","contact:postcode":"44140","contact:street":"Place de la Bosselle, acc\u00c3\u00a8s via City Stade","contact:website":"https://www.legranddetournement.fr/","description":"Lieu de R\u00c3\u00a9cup, de Sensibilisation et de Partage.","image":"https://www.legranddetournement.fr/wp-content/themes/lgd-1/images/logo.png","opening_hours":"Mo 10:00-17:00; Sa [2] [4] 10:00-18:00","operator":"Association Le Grand D\u00c3\u00a9tournement","recycling:bicycles":"yes","recycling:books":"yes","recycling:clothes":"yes","recycling:computers":"yes","recycling:dishes":"yes","recycling:furniture":"yes","recycling:interior_decoration":"yes","recycling:shoes":"yes","recycling:small_electrical_appliances":"yes","recycling:toys":"yes","recycling_type":"centre","second_hand":"only","shop":"general"}},"type":"Feature"},
	{"geometry":{"coordinates":[-1.337825,47.081558],"type":"Point"},"properties":{"osm_id":"7115308863","tag":{"amenity":"waste_basket"}},"type":"Feature"},
	{"geometry":{"coordinates":[-1.382764,47.053959],"type":"Point"},"properties":{"osm_id":"7243128576","tag":{"amenity":"recycling","opening_hours":"24/7","operator":"Clisson S\u00c3\u00a8vre et Maine Agglo","recycling:paper":"yes","recycling_type":"container"}},"type":"Feature"},
	{"geometry":{"coordinates":[-1.382796,47.053946],"type":"Point"},"properties":{"osm_id":"7243128577","tag":{"amenity":"recycling","opening_hours":"24/7","operator":"Clisson S\u00c3\u00a8vre et Maine Agglo","recycling:glass_bottles":"yes","recycling_type":"container"}},"type":"Feature"},
	{"geometry":{"coordinates":[-1.382828,47.053933],"type":"Point"},"properties":{"osm_id":"7243128578","tag":{"amenity":"recycling","opening_hours":"24/7","operator":"Le Relais","recycling:clothes":"yes","recycling_type":"container"}},"type":"Feature"},
	{"geometry":{"coordinates":[-1.382841,47.053929],"type":"Point"},"properties":{"osm_id":"7243128579","tag":{"amenity":"recycling","opening_hours":"24/7","operator":"Le Relais","recycling:clothes":"yes","recycling_type":"container"}},"type":"Feature"},
	{"geometry":{"coordinates":[-1.376928,47.055191],"type":"Point"},"properties":{"osm_id":"7247848069","tag":{"amenity":"waste_disposal","authentication:membership_card":"yes","authentication:none":"no","fee":"yes","opening_hours":"24/7","operator":"Clisson S\u00c3\u00a8vre et Maine Agglo"}},"type":"Feature"},
	{"geometry":{"coordinates":[-1.374033,47.052023],"type":"Point"},"properties":{"osm_id":"7247848070","tag":{"amenity":"recycling","opening_hours":"24/7","operator":"Clisson S\u00c3\u00a8vre et Maine Agglo","recycling:paper":"yes","recycling_type":"container"}},"type":"Feature"},
	{"geometry":{"coordinates":[-1.374054,47.052033],"type":"Point"},"properties":{"osm_id":"7247848071","tag":{"amenity":"recycling","opening_hours":"24/7","operator":"Clisson S\u00c3\u00a8vre et Maine Agglo","recycling:glass_bottles":"yes","recycling_type":"container"}},"type":"Feature"},
	{"geometry":{"coordinates":[-1.337891,47.081111],"type":"Point"},"properties":{"osm_id":"7249594976","tag":{"amenity":"recycling","opening_hours":"24/7","operator":"Clisson S\u00c3\u00a8vre et Maine Agglo","recycling:paper":"yes","recycling_type":"container","wheelchair":"yes"}},"type":"Feature"},
	{"geometry":{"coordinates":[-1.339711,47.083266],"type":"Point"},"properties":{"osm_id":"7249594977","tag":{"amenity":"recycling","opening_hours":"24/7","operator":"Clisson S\u00c3\u00a8vre et Maine Agglo","recycling:paper":"yes","recycling_type":"container"}},"type":"Feature"},
	{"geometry":{"coordinates":[-1.339732,47.083281],"type":"Point"},"properties":{"osm_id":"7249594978","tag":{"amenity":"recycling","opening_hours":"24/7","operator":"Clisson S\u00c3\u00a8vre et Maine Agglo","recycling:glass_bottles":"yes","recycling_type":"container"}},"type":"Feature"},
	{"geometry":{"coordinates":[-1.397334,47.077446],"type":"Point"},"properties":{"osm_id":"7266120143","tag":{"amenity":"recycling","opening_hours":"24/7","operator":"le Relais","recycling:clothes":"yes","recycling_type":"container"}},"type":"Feature"},
	{"geometry":{"coordinates":[-1.397323,47.077453],"type":"Point"},"properties":{"osm_id":"7266120144","tag":{"amenity":"recycling","opening_hours":"24/7","operator":"le Relais","recycling:clothes":"yes","recycling_type":"container"}},"type":"Feature"},
	{"geometry":{"coordinates":[-1.397307,47.077465],"type":"Point"},"properties":{"osm_id":"7266120145","tag":{"amenity":"recycling","opening_hours":"24/7","operator":"Clisson S\u00c3\u00a8vre et Maine Agglo","recycling:paper":"yes","recycling_type":"container"}},"type":"Feature"},
	{"geometry":{"coordinates":[-1.397287,47.077477],"type":"Point"},"properties":{"osm_id":"7266120146","tag":{"amenity":"recycling","opening_hours":"24/7","operator":"Clisson S\u00c3\u00a8vre et Maine Agglo","recycling:glass_bottles":"yes","recycling_type":"container"}},"type":"Feature"},
	{"geometry":{"coordinates":[-1.40164,47.080754],"type":"Point"},"properties":{"osm_id":"7266120147","tag":{"amenity":"waste_disposal","authentication:membership_card":"yes","authentication:none":"no","fee":"yes","location":"underground","opening_hours":"24/7","operator":"Clisson S\u00c3\u00a8vre et Maine Agglo"}},"type":"Feature"},
	{"geometry":{"coordinates":[-1.401657,47.080748],"type":"Point"},"properties":{"osm_id":"7266120148","tag":{"amenity":"recycling","location":"underground","opening_hours":"24/7","operator":"Clisson S\u00c3\u00a8vre et Maine Agglo","recycling:paper":"yes","recycling_type":"container"}},"type":"Feature"},
	{"geometry":{"coordinates":[-1.401675,47.080743],"type":"Point"},"properties":{"osm_id":"7266120149","tag":{"amenity":"recycling","location":"underground","opening_hours":"24/7","operator":"Clisson S\u00c3\u00a8vre et Maine Agglo","recycling:glass_bottles":"yes","recycling_type":"container"}},"type":"Feature"},
	{"geometry":{"coordinates":[-1.373691,47.058933],"type":"Point"},"properties":{"osm_id":"7279423343","tag":{"amenity":"waste_basket"}},"type":"Feature"},
	{"geometry":{"coordinates":[-1.373758,47.0589],"type":"Point"},"properties":{"osm_id":"7279423350","tag":{"amenity":"recycling","location":"underground","opening_hours":"24/7","operator":"Clisson S\u00c3\u00a8vre et Maine Agglo","recycling:paper":"yes","recycling_type":"container"}},"type":"Feature"},
	{"geometry":{"coordinates":[-1.373745,47.058894],"type":"Point"},"properties":{"osm_id":"7279423351","tag":{"amenity":"waste_disposal","authentication:membership_card":"yes","authentication:none":"no","fee":"yes","location":"underground","opening_hours":"24/7","operator":"Clisson S\u00c3\u00a8vre et Maine Agglo"}},"type":"Feature"},
	{"geometry":{"coordinates":[-1.337052,47.082581],"type":"Point"},"properties":{"osm_id":"8124496159","tag":{"amenity":"waste_basket"}},"type":"Feature"},
	{"geometry":{"coordinates":[-1.337223,47.083158],"type":"Point"},"properties":{"osm_id":"8124536618","tag":{"amenity":"waste_basket"}},"type":"Feature"}
]
}
