{
"type": "FeatureCollection",
"features": [
	{"geometry":{"coordinates":[-1.37166,46.90677],"type":"Point"},"properties":{"osm_id":"1896000295","tag":{"amenity":"recycling"}},"type":"Feature"},
	{"geometry":{"coordinates":[-1.377053,46.908269],"type":"Point"},"properties":{"osm_id":"2139268741","tag":{"amenity":"waste_basket"}},"type":"Feature"},
	{"geometry":{"coordinates":[-1.379346,46.912245],"type":"Point"},"properties":{"osm_id":"2139268799","tag":{"amenity":"recycling","location":"underground","recycling:clothes":"yes","recycling:glass_bottles":"yes","recycling:paper":"yes","recycling_type":"container"}},"type":"Feature"},
	{"geometry":{"coordinates":[-1.37921,46.912414],"type":"Point"},"properties":{"osm_id":"2139268812","tag":{"amenity":"waste_basket"}},"type":"Feature"},
	{"geometry":{"coordinates":[-1.401733,46.875183],"type":"Point"},"properties":{"osm_id":"2383458577","tag":{"amenity":"waste_basket"}},"type":"Feature"},
	{"geometry":{"coordinates":[-1.381584,46.90901],"type":"Point"},"properties":{"osm_id":"3313882175","tag":{"amenity":"waste_basket"}},"type":"Feature"},
	{"geometry":{"coordinates":[-1.40455,46.879738],"type":"Point"},"properties":{"osm_id":"3796250856","tag":{"amenity":"waste_basket"}},"type":"Feature"},
	{"geometry":{"coordinates":[-1.405319,46.879458],"type":"Point"},"properties":{"osm_id":"3796251954","tag":{"amenity":"waste_basket"}},"type":"Feature"},
	{"geometry":{"coordinates":[-1.404905,46.879796],"type":"Point"},"properties":{"osm_id":"3796252275","tag":{"amenity":"waste_basket"}},"type":"Feature"},
	{"geometry":{"coordinates":[-1.378077,46.907435],"type":"Point"},"properties":{"osm_id":"4594662934","tag":{"amenity":"recycling","recycling_type":"container"}},"type":"Feature"},
	{"geometry":{"coordinates":[-1.374379,46.911092],"type":"Point"},"properties":{"osm_id":"4869441059","tag":{"amenity":"waste_basket"}},"type":"Feature"},
	{"geometry":{"coordinates":[-1.321874,46.880019],"type":"Point"},"properties":{"osm_id":"5257707809","tag":{"amenity":"waste_basket"}},"type":"Feature"},
	{"geometry":{"coordinates":[-1.322046,46.879884],"type":"Point"},"properties":{"osm_id":"5257707811","tag":{"amenity":"recycling","recycling:glass":"yes","recycling:glass_bottles":"yes","recycling_type":"container","wheelchair":"yes"}},"type":"Feature"},
	{"geometry":{"coordinates":[-1.318369,46.879728],"type":"Point"},"properties":{"osm_id":"5274757998","tag":{"amenity":"recycling","recycling_type":"container"}},"type":"Feature"},
	{"geometry":{"coordinates":[-1.322073,46.879847],"type":"Point"},"properties":{"osm_id":"5302208769","tag":{"amenity":"recycling","recycling:paper":"yes","recycling_type":"container"}},"type":"Feature"},
	{"geometry":{"coordinates":[-1.32202,46.879922],"type":"Point"},"properties":{"osm_id":"5302208770","tag":{"amenity":"recycling","recycling:clothes":"yes","recycling:shoes":"yes","recycling_type":"container"}},"type":"Feature"},
	{"geometry":{"coordinates":[-1.375521,46.905815],"type":"Point"},"properties":{"osm_id":"5307120949","tag":{"amenity":"waste_basket"}},"type":"Feature"},
	{"geometry":{"coordinates":[-1.37703,46.908843],"type":"Point"},"properties":{"osm_id":"5309357836","tag":{"amenity":"waste_basket"}},"type":"Feature"},
	{"geometry":{"coordinates":[-1.397824,46.874535],"type":"Point"},"properties":{"osm_id":"5501820860","tag":{"amenity":"recycling","recycling:clothes":"yes","recycling_type":"container"}},"type":"Feature"},
	{"geometry":{"coordinates":[-1.397849,46.874501],"type":"Point"},"properties":{"osm_id":"5501820861","tag":{"amenity":"recycling","recycling_type":"container"}},"type":"Feature"},
	{"geometry":{"coordinates":[-1.371578,46.913514],"type":"Point"},"properties":{"osm_id":"6195116723","tag":{"amenity":"recycling","recycling:clothes":"yes","recycling:glass_bottles":"yes","recycling:paper":"yes","recycling_type":"container"}},"type":"Feature"},
	{"geometry":{"coordinates":[-1.373871,46.90937],"type":"Point"},"properties":{"osm_id":"6195116724","tag":{"amenity":"recycling","recycling:clothes":"yes","recycling:glass_bottles":"yes","recycling:paper":"yes","recycling_type":"container"}},"type":"Feature"},
	{"geometry":{"coordinates":[-1.378585,46.904614],"type":"Point"},"properties":{"osm_id":"6195116725","tag":{"amenity":"recycling","recycling:clothes":"yes","recycling:glass_bottles":"yes","recycling:paper":"yes","recycling_type":"container"}},"type":"Feature"}
]
}
