{
"type": "FeatureCollection",
"features": [
	{"geometry":{"coordinates":[-1.37281,46.204588],"type":"Point"},"properties":{"osm_id":"855456310","tag":{"amenity":"recycling"}},"type":"Feature"},
	{"geometry":{"coordinates":[-1.376171,46.205709],"type":"Point"},"properties":{"osm_id":"7917302585","tag":{"amenity":"waste_basket","survey:date":"2020-09-17","waste":"trash"}},"type":"Feature"},
	{"geometry":{"coordinates":[-1.371687,46.200966],"type":"Point"},"properties":{"osm_id":"8461863073","tag":{"amenity":"recycling","recycling:glass":"no","recycling:glass_bottles":"yes","recycling:paper":"yes","recycling_type":"container"}},"type":"Feature"},
	{"geometry":{"coordinates":[-1.35998,46.198976],"type":"Point"},"properties":{"osm_id":"8461863074","tag":{"amenity":"recycling","recycling:glass":"yes","recycling:paper":"yes","recycling_type":"container"}},"type":"Feature"},
	{"geometry":{"coordinates":[-1.371669,46.200971],"type":"Point"},"properties":{"osm_id":"8861219306","tag":{"amenity":"recycling","recycling_type":"container"}},"type":"Feature"},
	{"geometry":{"coordinates":[-1.371646,46.200983],"type":"Point"},"properties":{"osm_id":"8861219307","tag":{"amenity":"recycling","recycling_type":"container"}},"type":"Feature"},
	{"geometry":{"coordinates":[-1.371736,46.200942],"type":"Point"},"properties":{"osm_id":"8861219308","tag":{"amenity":"recycling","recycling_type":"container"}},"type":"Feature"},
	{"geometry":{"coordinates":[-1.37171,46.200958],"type":"Point"},"properties":{"osm_id":"8861219309","tag":{"amenity":"recycling","recycling_type":"container"}},"type":"Feature"},
	{"geometry":{"coordinates":[-1.368425,46.20463],"type":"Point"},"properties":{"osm_id":"9074323217","tag":{"amenity":"waste_basket","survey:date":"2021-09-08"}},"type":"Feature"}
]
}
