{
"type": "FeatureCollection",
"features": [
	{"geometry":{"coordinates":[-1.318694,44.093631],"type":"Point"},"properties":{"osm_id":"2112025728","tag":{"amenity":"waste_basket"}},"type":"Feature"},
	{"geometry":{"coordinates":[-1.31881,44.093568],"type":"Point"},"properties":{"name":"Contis Plage","osm_id":"2112025793","tag":{"amenity":"recycling","operator":"SITCOM - C\u00f4te sud des Landes","operator:wikidata":"Q90819597","recycling:batteries":"yes","recycling:cans":"yes","recycling:glass_bottles":"yes","recycling:paper":"yes","recycling:paper_packaging":"yes","recycling:plastic_bottles":"yes","recycling_type":"container","ref:FR:SITCOM":"PAV-374273"}},"type":"Feature"},
	{"geometry":{"coordinates":[-1.324306,44.093355],"type":"Point"},"properties":{"osm_id":"6418513834","tag":{"amenity":"waste_basket"}},"type":"Feature"},
	{"geometry":{"coordinates":[-1.323719,44.091525],"type":"Point"},"properties":{"name":"Bd De La Plage","osm_id":"6418513840","tag":{"amenity":"recycling","operator":"SITCOM - C\u00f4te sud des Landes","operator:wikidata":"Q90819597","recycling:glass_bottles":"yes","recycling_type":"container","ref:FR:SITCOM":"PAV-374385"}},"type":"Feature"},
	{"geometry":{"coordinates":[-1.319378,44.092287],"type":"Point"},"properties":{"osm_id":"6787837749","tag":{"amenity":"waste_basket"}},"type":"Feature"},
	{"geometry":{"coordinates":[-1.320411,44.092358],"type":"Point"},"properties":{"name":"Huitrieres","osm_id":"7440802337","tag":{"amenity":"waste_disposal","operator":"SITCOM - C\u00f4te sud des Landes","operator:wikidata":"Q90819597","ref:FR:SITCOM":"PAV-397941"}},"type":"Feature"},
	{"geometry":{"coordinates":[-1.32427,44.093445],"type":"Point"},"properties":{"name":"Belv\u00c3\u00a9d\u00c3\u00a8re","osm_id":"7440802352","tag":{"amenity":"waste_disposal","operator":"SITCOM - C\u00f4te sud des Landes","operator:wikidata":"Q90819597","ref:FR:SITCOM":"PAV-411741"}},"type":"Feature"},
	{"geometry":{"coordinates":[-1.320618,44.090748],"type":"Point"},"properties":{"name":"Plage Contis","osm_id":"7440803485","tag":{"amenity":"recycling","operator":"SITCOM - C\u00f4te sud des Landes","operator:wikidata":"Q90819597","recycling:glass_bottles":"yes","recycling:plastic_bottles":"yes","recycling_type":"container","ref:FR:SITCOM":"PAV-374386"}},"type":"Feature"},
	{"geometry":{"coordinates":[-1.323716,44.091548],"type":"Point"},"properties":{"name":"Bd De La Plage","osm_id":"7592150185","tag":{"amenity":"waste_disposal","operator":"SITCOM - C\u00f4te sud des Landes","operator:wikidata":"Q90819597","ref:FR:SITCOM":"PAV-374385"}},"type":"Feature"},
	{"geometry":{"coordinates":[-1.31884,44.093544],"type":"Point"},"properties":{"name":"Contis Plage","osm_id":"7592150237","tag":{"amenity":"waste_disposal","operator":"SITCOM - C\u00f4te sud des Landes","operator:wikidata":"Q90819597","ref:FR:SITCOM":"PAV-374273"}},"type":"Feature"},
	{"geometry":{"coordinates":[-1.320623,44.090731],"type":"Point"},"properties":{"name":"Plage Contis","osm_id":"7592150311","tag":{"amenity":"waste_disposal","operator":"SITCOM - C\u00f4te sud des Landes","operator:wikidata":"Q90819597","ref:FR:SITCOM":"PAV-374386"}},"type":"Feature"}
]
}
