{
"type": "FeatureCollection",
"features": [
	{"geometry":{"coordinates":[-1.374212,43.689651],"type":"Point"},"properties":{"osm_id":"5772740484","tag":{"amenity":"waste_basket"}},"type":"Feature"},
	{"geometry":{"coordinates":[-1.37398,43.687652],"type":"Point"},"properties":{"name":"Boulangerie","osm_id":"5772756542","tag":{"amenity":"waste_disposal","operator":"SITCOM - C\u00c3\u00b4te sud des Landes","operator:wikidata":"Q90819597","ref:FR:SITCOM":"PAV-459842"}},"type":"Feature"},
	{"geometry":{"coordinates":[-1.392,43.661988],"type":"Point"},"properties":{"name":"Resi La Cantere","osm_id":"5774591730","tag":{"amenity":"waste_disposal","operator":"SITCOM - C\u00c3\u00b4te sud des Landes","operator:wikidata":"Q90819597","ref:FR:SITCOM":"PAV-406343"}},"type":"Feature"},
	{"geometry":{"coordinates":[-1.35508,43.689307],"type":"Point"},"properties":{"osm_id":"5777287130","tag":{"amenity":"recycling","recycling_type":"container"}},"type":"Feature"},
	{"geometry":{"coordinates":[-1.351199,43.689096],"type":"Point"},"properties":{"name":"Eco-Quartier 1","osm_id":"5777287370","tag":{"amenity":"recycling","operator":"SITCOM - C\u00c3\u00b4te sud des Landes","operator:wikidata":"Q90819597","recycling:cans":"yes","recycling:glass_bottles":"yes","recycling:paper":"yes","recycling:paper_packaging":"yes","recycling:plastic_bottles":"yes","recycling_type":"container","ref:FR:SITCOM":"PAV-413042"}},"type":"Feature"},
	{"geometry":{"coordinates":[-1.39368,43.664468],"type":"Point"},"properties":{"name":"majenta","osm_id":"7440966427","tag":{"amenity":"waste_disposal","operator":"SITCOM - C\u00c3\u00b4te sud des Landes","operator:wikidata":"Q90819597","ref:FR:SITCOM":"PAV-484444"}},"type":"Feature"},
	{"geometry":{"coordinates":[-1.351584,43.675967],"type":"Point"},"properties":{"name":"Le Hameau de bruyere","osm_id":"7440966430","tag":{"amenity":"waste_disposal","operator":"SITCOM - C\u00c3\u00b4te sud des Landes","operator:wikidata":"Q90819597","ref:FR:SITCOM":"PAV-481141"}},"type":"Feature"},
	{"geometry":{"coordinates":[-1.336793,43.658322],"type":"Point"},"properties":{"name":"ZA le tuquet","osm_id":"7440966431","tag":{"amenity":"waste_disposal","operator":"SITCOM - C\u00c3\u00b4te sud des Landes","operator:wikidata":"Q90819597","ref:FR:SITCOM":"PAV-479241"}},"type":"Feature"},
	{"geometry":{"coordinates":[-1.37097,43.681875],"type":"Point"},"properties":{"name":"Lot des Courcis","osm_id":"7440966434","tag":{"amenity":"waste_disposal","operator":"SITCOM - C\u00c3\u00b4te sud des Landes","operator:wikidata":"Q90819597","ref:FR:SITCOM":"PAV-474641"}},"type":"Feature"},
	{"geometry":{"coordinates":[-1.401618,43.66575],"type":"Point"},"properties":{"name":"Resid Coul Ocean","osm_id":"7440966436","tag":{"amenity":"waste_disposal","operator":"SITCOM - C\u00c3\u00b4te sud des Landes","operator:wikidata":"Q90819597","ref:FR:SITCOM":"PAV-461941"}},"type":"Feature"},
	{"geometry":{"coordinates":[-1.373068,43.688642],"type":"Point"},"properties":{"name":"r\u00c3\u00a9sidence les soleillades","osm_id":"7440966440","tag":{"amenity":"waste_disposal","operator":"SITCOM - C\u00c3\u00b4te sud des Landes","operator:wikidata":"Q90819597","ref:FR:SITCOM":"PAV-492550"}},"type":"Feature"},
	{"geometry":{"coordinates":[-1.373271,43.686769],"type":"Point"},"properties":{"name":"Av Ml Cerdan (Bou.)","osm_id":"7440966442","tag":{"amenity":"waste_disposal","operator":"SITCOM - C\u00c3\u00b4te sud des Landes","operator:wikidata":"Q90819597","ref:FR:SITCOM":"PAV-460841"}},"type":"Feature"},
	{"geometry":{"coordinates":[-1.371319,43.653242],"type":"Point"},"properties":{"name":"Plaine D Menjacq 2","osm_id":"7440966446","tag":{"amenity":"waste_disposal","operator":"SITCOM - C\u00c3\u00b4te sud des Landes","operator:wikidata":"Q90819597","ref:FR:SITCOM":"PAV-414841"}},"type":"Feature"},
	{"geometry":{"coordinates":[-1.329169,43.701282],"type":"Point"},"properties":{"name":"Res Les Alaoudes","osm_id":"7440966450","tag":{"amenity":"waste_disposal","operator":"SITCOM - C\u00c3\u00b4te sud des Landes","operator:wikidata":"Q90819597","ref:FR:SITCOM":"PAV-470541"}},"type":"Feature"},
	{"geometry":{"coordinates":[-1.338411,43.686083],"type":"Point"},"properties":{"name":"Lot Les Chevreuils","osm_id":"7440966460","tag":{"amenity":"waste_disposal","operator":"SITCOM - C\u00c3\u00b4te sud des Landes","operator:wikidata":"Q90819597","ref:FR:SITCOM":"PAV-462941"}},"type":"Feature"},
	{"geometry":{"coordinates":[-1.375714,43.653783],"type":"Point"},"properties":{"name":"All\u00c3\u00a9e Cazaban","osm_id":"7441357315","tag":{"amenity":"waste_disposal","operator":"SITCOM - C\u00c3\u00b4te sud des Landes","operator:wikidata":"Q90819597","ref:FR:SITCOM":"PAV-472041"}},"type":"Feature"},
	{"geometry":{"coordinates":[-1.401689,43.658241],"type":"Point"},"properties":{"name":"Av De La Becasse","osm_id":"7441357322","tag":{"amenity":"waste_disposal","operator":"SITCOM - C\u00c3\u00b4te sud des Landes","operator:wikidata":"Q90819597","ref:FR:SITCOM":"PAV-462341"}},"type":"Feature"},
	{"geometry":{"coordinates":[-1.344871,43.689302],"type":"Point"},"properties":{"name":"Lot Foret D Jisquet","osm_id":"7441357324","tag":{"amenity":"waste_disposal","operator":"SITCOM - C\u00c3\u00b4te sud des Landes","operator:wikidata":"Q90819597","ref:FR:SITCOM":"PAV-457041"}},"type":"Feature"},
	{"geometry":{"coordinates":[-1.349957,43.667253],"type":"Point"},"properties":{"name":"Lotissement guerlat","osm_id":"7441357325","tag":{"amenity":"waste_disposal","operator":"SITCOM - C\u00c3\u00b4te sud des Landes","operator:wikidata":"Q90819597","ref:FR:SITCOM":"PAV-479041"}},"type":"Feature"},
	{"geometry":{"coordinates":[-1.376125,43.657052],"type":"Point"},"properties":{"name":"Rte Cap 274-322","osm_id":"7441357331","tag":{"amenity":"waste_disposal","operator":"SITCOM - C\u00c3\u00b4te sud des Landes","operator:wikidata":"Q90819597","ref:FR:SITCOM":"PAV-405441"}},"type":"Feature"},
	{"geometry":{"coordinates":[-1.377817,43.65098],"type":"Point"},"properties":{"name":"Lotissement Guimont","osm_id":"7441357334","tag":{"amenity":"waste_disposal","operator":"SITCOM - C\u00c3\u00b4te sud des Landes","operator:wikidata":"Q90819597","ref:FR:SITCOM":"PAV-475145"}},"type":"Feature"},
	{"geometry":{"coordinates":[-1.372086,43.657219],"type":"Point"},"properties":{"name":"Rue De La Pepiniere","osm_id":"7441357340","tag":{"amenity":"waste_disposal","operator":"SITCOM - C\u00c3\u00b4te sud des Landes","operator:wikidata":"Q90819597","ref:FR:SITCOM":"PAV-427441"}},"type":"Feature"},
	{"geometry":{"coordinates":[-1.375046,43.657248],"type":"Point"},"properties":{"name":"Ecoles","osm_id":"7441357341","tag":{"amenity":"waste_disposal","operator":"SITCOM - C\u00c3\u00b4te sud des Landes","operator:wikidata":"Q90819597","ref:FR:SITCOM":"PAV-427442"}},"type":"Feature"},
	{"geometry":{"coordinates":[-1.392677,43.668632],"type":"Point"},"properties":{"name":"Lot Corcier Arbousier","osm_id":"7441357342","tag":{"amenity":"waste_disposal","operator":"SITCOM - C\u00c3\u00b4te sud des Landes","operator:wikidata":"Q90819597","ref:FR:SITCOM":"PAV-393441"}},"type":"Feature"},
	{"geometry":{"coordinates":[-1.371548,43.659916],"type":"Point"},"properties":{"name":"Lot. Les Chenes","osm_id":"7441357354","tag":{"amenity":"waste_disposal","operator":"SITCOM - C\u00c3\u00b4te sud des Landes","operator:wikidata":"Q90819597","ref:FR:SITCOM":"PAV-394741"}},"type":"Feature"},
	{"geometry":{"coordinates":[-1.376405,43.6858],"type":"Point"},"properties":{"name":"R Les Ponteils","osm_id":"7441357364","tag":{"amenity":"waste_disposal","operator":"SITCOM - C\u00c3\u00b4te sud des Landes","operator:wikidata":"Q90819597","ref:FR:SITCOM":"PAV-395445"}},"type":"Feature"},
	{"geometry":{"coordinates":[-1.361293,43.690051],"type":"Point"},"properties":{"name":"Lot Motel","osm_id":"7441357365","tag":{"amenity":"waste_disposal","operator":"SITCOM - C\u00c3\u00b4te sud des Landes","operator:wikidata":"Q90819597","ref:FR:SITCOM":"PAV-395443"}},"type":"Feature"},
	{"geometry":{"coordinates":[-1.388938,43.671685],"type":"Point"},"properties":{"name":"rue des charpentier 1","osm_id":"7441357379","tag":{"amenity":"waste_disposal","operator":"SITCOM - C\u00c3\u00b4te sud des Landes","operator:wikidata":"Q90819597","ref:FR:SITCOM":"PAV-490341"}},"type":"Feature"},
	{"geometry":{"coordinates":[-1.367074,43.689591],"type":"Point"},"properties":{"name":"Jardins D Bourg","osm_id":"7441357382","tag":{"amenity":"waste_disposal","operator":"SITCOM - C\u00c3\u00b4te sud des Landes","operator:wikidata":"Q90819597","ref:FR:SITCOM":"PAV-403041"}},"type":"Feature"},
	{"geometry":{"coordinates":[-1.37415,43.691035],"type":"Point"},"properties":{"name":"R\u00c3\u00a9s les Andr\u00c3\u00a9ades","osm_id":"7441357389","tag":{"amenity":"waste_disposal","operator":"SITCOM - C\u00c3\u00b4te sud des Landes","operator:wikidata":"Q90819597","ref:FR:SITCOM":"PAV-487162"}},"type":"Feature"},
	{"geometry":{"coordinates":[-1.372251,43.65605],"type":"Point"},"properties":{"name":"rue d'amaniou","osm_id":"7441357402","tag":{"amenity":"waste_disposal","operator":"SITCOM - C\u00c3\u00b4te sud des Landes","operator:wikidata":"Q90819597","ref:FR:SITCOM":"PAV-472042"}},"type":"Feature"},
	{"geometry":{"coordinates":[-1.35549,43.676498],"type":"Point"},"properties":{"name":"Ch D Saubion","osm_id":"7441357405","tag":{"amenity":"waste_disposal","operator":"SITCOM - C\u00c3\u00b4te sud des Landes","operator:wikidata":"Q90819597","ref:FR:SITCOM":"PAV-410341"}},"type":"Feature"},
	{"geometry":{"coordinates":[-1.396213,43.664578],"type":"Point"},"properties":{"name":"trinquet rue de la for\u00c3\u00aat","osm_id":"7441357408","tag":{"amenity":"waste_disposal","operator":"SITCOM - C\u00c3\u00b4te sud des Landes","operator:wikidata":"Q90819597","ref:FR:SITCOM":"PAV-485541"}},"type":"Feature"},
	{"geometry":{"coordinates":[-1.37601,43.656151],"type":"Point"},"properties":{"name":"Route D Arribau","osm_id":"7441357409","tag":{"amenity":"waste_disposal","operator":"SITCOM - C\u00c3\u00b4te sud des Landes","operator:wikidata":"Q90819597","ref:FR:SITCOM":"PAV-404945"}},"type":"Feature"},
	{"geometry":{"coordinates":[-1.377247,43.651583],"type":"Point"},"properties":{"name":"Allee De Lauga","osm_id":"7441357410","tag":{"amenity":"waste_disposal","operator":"SITCOM - C\u00c3\u00b4te sud des Landes","operator:wikidata":"Q90819597","ref:FR:SITCOM":"PAV-404943"}},"type":"Feature"},
	{"geometry":{"coordinates":[-1.374596,43.651821],"type":"Point"},"properties":{"name":"Allee Cazenave","osm_id":"7441357411","tag":{"amenity":"waste_disposal","operator":"SITCOM - C\u00c3\u00b4te sud des Landes","operator:wikidata":"Q90819597","ref:FR:SITCOM":"PAV-404941"}},"type":"Feature"},
	{"geometry":{"coordinates":[-1.325492,43.689482],"type":"Point"},"properties":{"name":"rue du chateau d'eau","osm_id":"7441357412","tag":{"amenity":"waste_disposal","operator":"SITCOM - C\u00c3\u00b4te sud des Landes","operator:wikidata":"Q90819597","ref:FR:SITCOM":"PAV-486641"}},"type":"Feature"},
	{"geometry":{"coordinates":[-1.375493,43.658944],"type":"Point"},"properties":{"name":"R Cout Imp Tuc","osm_id":"7441357413","tag":{"amenity":"waste_disposal","operator":"SITCOM - C\u00c3\u00b4te sud des Landes","operator:wikidata":"Q90819597","ref:FR:SITCOM":"PAV-410041"}},"type":"Feature"},
	{"geometry":{"coordinates":[-1.380093,43.680564],"type":"Point"},"properties":{"name":"Ireye (Gendarmerie)","osm_id":"7441357420","tag":{"amenity":"recycling","operator":"SITCOM - C\u00c3\u00b4te sud des Landes","operator:wikidata":"Q90819597","recycling:batteries":"yes","recycling:cans":"yes","recycling:glass_bottles":"yes","recycling:paper":"yes","recycling:paper_packaging":"yes","recycling:plastic_bottles":"yes","recycling_type":"container","ref:FR:SITCOM":"PAV-374226"}},"type":"Feature"},
	{"geometry":{"coordinates":[-1.372859,43.700475],"type":"Point"},"properties":{"name":"C. Les 2 Etangs","osm_id":"7441357421","tag":{"access":"customers","amenity":"recycling","operator":"SITCOM - C\u00c3\u00b4te sud des Landes","operator:wikidata":"Q90819597","recycling:batteries":"yes","recycling_type":"container","ref:FR:SITCOM":"PAV-374608"}},"type":"Feature"},
	{"geometry":{"coordinates":[-1.375554,43.706062],"type":"Point"},"properties":{"name":"Camp\u00c3\u00a9ole l'\u00c3\u0089tang Blanc","osm_id":"7441357422","tag":{"access":"customers","amenity":"recycling","operator":"SITCOM - C\u00c3\u00b4te sud des Landes","operator:wikidata":"Q90819597","recycling:cans":"yes","recycling:glass_bottles":"yes","recycling:paper":"yes","recycling:paper_packaging":"yes","recycling:plastic_bottles":"yes","recycling_type":"container","ref:FR:SITCOM":"PAV-392568"}},"type":"Feature"},
	{"geometry":{"coordinates":[-1.377085,43.659],"type":"Point"},"properties":{"name":"R Cout 191-221","osm_id":"7441854382","tag":{"amenity":"waste_disposal","operator":"SITCOM - C\u00c3\u00b4te sud des Landes","operator:wikidata":"Q90819597","ref:FR:SITCOM":"PAV-404947"}},"type":"Feature"},
	{"geometry":{"coordinates":[-1.372941,43.652444],"type":"Point"},"properties":{"name":"Residence Minjacq","osm_id":"7441856186","tag":{"amenity":"waste_disposal","operator":"SITCOM - C\u00c3\u00b4te sud des Landes","operator:wikidata":"Q90819597","ref:FR:SITCOM":"PAV-428441"}},"type":"Feature"},
	{"geometry":{"coordinates":[-1.325754,43.687596],"type":"Point"},"properties":{"name":"Le Hazan 1","osm_id":"7441856197","tag":{"amenity":"waste_disposal","operator":"SITCOM - C\u00c3\u00b4te sud des Landes","operator:wikidata":"Q90819597","ref:FR:SITCOM":"PAV-407346"}},"type":"Feature"},
	{"geometry":{"coordinates":[-1.348412,43.689355],"type":"Point"},"properties":{"name":"P\u00c3\u00b4le Culinaire MACS","osm_id":"7441856198","tag":{"access":"customers","amenity":"recycling","operator":"SITCOM - C\u00c3\u00b4te sud des Landes","operator:wikidata":"Q90819597","recycling:cans":"yes","recycling:plastic_bottles":"yes","recycling_type":"container","ref:FR:SITCOM":"PAV-402958"}},"type":"Feature"},
	{"geometry":{"coordinates":[-1.394822,43.668245],"type":"Point"},"properties":{"name":"Intermarche","osm_id":"7441856201","tag":{"amenity":"waste_disposal","operator":"SITCOM - C\u00c3\u00b4te sud des Landes","operator:wikidata":"Q90819597","ref:FR:SITCOM":"PAV-431141"}},"type":"Feature"},
	{"geometry":{"coordinates":[-1.373207,43.657433],"type":"Point"},"properties":{"name":"Bourg","osm_id":"7441856204","tag":{"amenity":"recycling","operator":"SITCOM - C\u00c3\u00b4te sud des Landes","operator:wikidata":"Q90819597","recycling:batteries":"yes","recycling:cans":"yes","recycling:glass_bottles":"yes","recycling:paper":"yes","recycling:paper_packaging":"yes","recycling:plastic_bottles":"yes","recycling_type":"container","ref:FR:SITCOM":"PAV-374255"}},"type":"Feature"},
	{"geometry":{"coordinates":[-1.371536,43.65482],"type":"Point"},"properties":{"name":"Plaine D Menjacq 1","osm_id":"7441856206","tag":{"amenity":"recycling","operator":"SITCOM - C\u00c3\u00b4te sud des Landes","operator:wikidata":"Q90819597","recycling:batteries":"yes","recycling:cans":"yes","recycling:glass_bottles":"yes","recycling:paper":"yes","recycling:paper_packaging":"yes","recycling:plastic_bottles":"yes","recycling_type":"container","ref:FR:SITCOM":"PAV-414842"}},"type":"Feature"},
	{"geometry":{"coordinates":[-1.325668,43.68643],"type":"Point"},"properties":{"name":"Le Hazan 2","osm_id":"7441856213","tag":{"amenity":"waste_disposal","operator":"SITCOM - C\u00c3\u00b4te sud des Landes","operator:wikidata":"Q90819597","ref:FR:SITCOM":"PAV-407345"}},"type":"Feature"},
	{"geometry":{"coordinates":[-1.350467,43.687313],"type":"Point"},"properties":{"name":"ZA laubian 2","osm_id":"7441856217","tag":{"amenity":"waste_disposal","operator":"SITCOM - C\u00c3\u00b4te sud des Landes","operator:wikidata":"Q90819597","ref:FR:SITCOM":"PAV-473841"}},"type":"Feature"},
	{"geometry":{"coordinates":[-1.38426,43.671041],"type":"Point"},"properties":{"name":"av des forgerons","osm_id":"7441856219","tag":{"amenity":"waste_disposal","operator":"SITCOM - C\u00c3\u00b4te sud des Landes","operator:wikidata":"Q90819597","ref:FR:SITCOM":"PAV-487161"}},"type":"Feature"},
	{"geometry":{"coordinates":[-1.404145,43.658425],"type":"Point"},"properties":{"name":"Tennis","osm_id":"7441856230","tag":{"amenity":"recycling","operator":"SITCOM - C\u00c3\u00b4te sud des Landes","operator:wikidata":"Q90819597","recycling:batteries":"yes","recycling:cans":"yes","recycling:glass_bottles":"yes","recycling:paper":"yes","recycling:paper_packaging":"yes","recycling:plastic_bottles":"yes","recycling_type":"container","ref:FR:SITCOM":"PAV-374219"}},"type":"Feature"},
	{"geometry":{"coordinates":[-1.330015,43.701201],"type":"Point"},"properties":{"name":"Camping Clown Ocean","osm_id":"7441856231","tag":{"access":"customers","amenity":"recycling","operator":"SITCOM - C\u00c3\u00b4te sud des Landes","operator:wikidata":"Q90819597","recycling:cans":"yes","recycling:glass_bottles":"yes","recycling:paper":"yes","recycling:paper_packaging":"yes","recycling:plastic_bottles":"yes","recycling_type":"container","ref:FR:SITCOM":"PAV-374667"}},"type":"Feature"},
	{"geometry":{"coordinates":[-1.363677,43.688427],"type":"Point"},"properties":{"name":"Frat","osm_id":"7441856243","tag":{"amenity":"recycling","operator":"SITCOM - C\u00c3\u00b4te sud des Landes","operator:wikidata":"Q90819597","recycling:batteries":"yes","recycling:cans":"yes","recycling:glass_bottles":"yes","recycling:paper":"yes","recycling:paper_packaging":"yes","recycling:plastic_bottles":"yes","recycling_type":"container","ref:FR:SITCOM":"PAV-374242"}},"type":"Feature"},
	{"geometry":{"coordinates":[-1.402746,43.665433],"type":"Point"},"properties":{"name":"Soorts Bourg","osm_id":"7441856258","tag":{"amenity":"recycling","operator":"SITCOM - C\u00c3\u00b4te sud des Landes","operator:wikidata":"Q90819597","recycling:batteries":"yes","recycling:cans":"yes","recycling:glass_bottles":"yes","recycling:paper":"yes","recycling:paper_packaging":"yes","recycling:plastic_bottles":"yes","recycling_type":"container","ref:FR:SITCOM":"PAV-374220"}},"type":"Feature"},
	{"geometry":{"coordinates":[-1.378548,43.654054],"type":"Point"},"properties":{"name":"Lot L Airial","osm_id":"7441856262","tag":{"amenity":"waste_disposal","operator":"SITCOM - C\u00c3\u00b4te sud des Landes","operator:wikidata":"Q90819597","ref:FR:SITCOM":"PAV-392562"}},"type":"Feature"},
	{"geometry":{"coordinates":[-1.367264,43.689728],"type":"Point"},"properties":{"name":"r\u00c3\u00a9sidence les osmondes","osm_id":"7441856267","tag":{"amenity":"waste_disposal","operator":"SITCOM - C\u00c3\u00b4te sud des Landes","operator:wikidata":"Q90819597","ref:FR:SITCOM":"PAV-492641"}},"type":"Feature"},
	{"geometry":{"coordinates":[-1.388312,43.668698],"type":"Point"},"properties":{"name":"La Tuillerie","osm_id":"7441923861","tag":{"amenity":"recycling","operator":"SITCOM - C\u00c3\u00b4te sud des Landes","operator:wikidata":"Q90819597","recycling:batteries":"yes","recycling:cans":"yes","recycling:glass_bottles":"yes","recycling:paper":"yes","recycling:paper_packaging":"yes","recycling:plastic_bottles":"yes","recycling_type":"container","ref:FR:SITCOM":"PAV-374222"}},"type":"Feature"},
	{"geometry":{"coordinates":[-1.321241,43.687726],"type":"Point"},"properties":{"name":"Lot Des Fleurs","osm_id":"7441923867","tag":{"amenity":"recycling","operator":"SITCOM - C\u00c3\u00b4te sud des Landes","operator:wikidata":"Q90819597","recycling:batteries":"yes","recycling:cans":"yes","recycling:glass_bottles":"yes","recycling:paper":"yes","recycling:paper_packaging":"yes","recycling:plastic_bottles":"yes","recycling_type":"container","ref:FR:SITCOM":"PAV-374236"}},"type":"Feature"},
	{"geometry":{"coordinates":[-1.33726,43.688503],"type":"Point"},"properties":{"name":"Lot Jisquet","osm_id":"7441923869","tag":{"amenity":"recycling","operator":"SITCOM - C\u00c3\u00b4te sud des Landes","operator:wikidata":"Q90819597","recycling:batteries":"yes","recycling:cans":"yes","recycling:cartons":"yes","recycling:glass":"yes","recycling:glass_bottles":"yes","recycling:paper":"yes","recycling:paper_packaging":"yes","recycling:plastic":"yes","recycling:plastic_bottles":"yes","recycling:scrap_metal":"yes","recycling_type":"container","ref:FR:SITCOM":"PAV-374239"}},"type":"Feature"},
	{"geometry":{"coordinates":[-1.385498,43.675148],"type":"Point"},"properties":{"name":"Dechetterie","osm_id":"7441923882","tag":{"access":"customers","amenity":"recycling","operator":"SITCOM - C\u00c3\u00b4te sud des Landes","operator:wikidata":"Q90819597","recycling:cans":"yes","recycling:glass_bottles":"yes","recycling:paper":"yes","recycling:paper_packaging":"yes","recycling:plastic_bottles":"yes","recycling_type":"container","ref:FR:SITCOM":"PAV-374610"}},"type":"Feature"},
	{"geometry":{"coordinates":[-1.387445,43.672281],"type":"Point"},"properties":{"name":"rue des charpentiers 2","osm_id":"7441937191","tag":{"amenity":"waste_disposal","operator":"SITCOM - C\u00c3\u00b4te sud des Landes","operator:wikidata":"Q90819597","ref:FR:SITCOM":"PAV-493041"}},"type":"Feature"},
	{"geometry":{"coordinates":[-1.33058,43.700246],"type":"Point"},"properties":{"name":"Lot Les Bruyeres","osm_id":"7441937193","tag":{"amenity":"recycling","operator":"SITCOM - C\u00c3\u00b4te sud des Landes","operator:wikidata":"Q90819597","recycling:cans":"yes","recycling:glass_bottles":"yes","recycling:paper":"yes","recycling:paper_packaging":"yes","recycling:plastic_bottles":"yes","recycling_type":"container","ref:FR:SITCOM":"PAV-428341"}},"type":"Feature"},
	{"geometry":{"coordinates":[-1.326338,43.665493],"type":"Point"},"properties":{"name":"L Ecole","osm_id":"7441937196","tag":{"amenity":"recycling","operator":"SITCOM - C\u00c3\u00b4te sud des Landes","operator:wikidata":"Q90819597","recycling:batteries":"yes","recycling:cans":"yes","recycling:glass_bottles":"yes","recycling:paper":"yes","recycling:paper_packaging":"yes","recycling:plastic_bottles":"yes","recycling_type":"container","ref:FR:SITCOM":"PAV-374244"}},"type":"Feature"},
	{"geometry":{"coordinates":[-1.332241,43.694124],"type":"Point"},"properties":{"name":"Cimetiere-2 Etangs","osm_id":"7441937216","tag":{"amenity":"recycling","operator":"SITCOM - C\u00c3\u00b4te sud des Landes","operator:wikidata":"Q90819597","recycling:cans":"yes","recycling:glass_bottles":"yes","recycling:paper":"yes","recycling:paper_packaging":"yes","recycling:plastic_bottles":"yes","recycling_type":"container","ref:FR:SITCOM":"PAV-374237"}},"type":"Feature"},
	{"geometry":{"coordinates":[-1.354805,43.675357],"type":"Point"},"properties":{"name":"C.Pom D Pins","osm_id":"7441937219","tag":{"amenity":"recycling","operator":"SITCOM - C\u00c3\u00b4te sud des Landes","operator:wikidata":"Q90819597","recycling:batteries":"yes","recycling:cans":"yes","recycling:glass_bottles":"yes","recycling:paper":"yes","recycling:paper_packaging":"yes","recycling:plastic_bottles":"yes","recycling_type":"container","ref:FR:SITCOM":"PAV-374666"}},"type":"Feature"},
	{"geometry":{"coordinates":[-1.37274,43.685701],"type":"Point"},"properties":{"name":"Cassou","osm_id":"7441937239","tag":{"amenity":"recycling","operator":"SITCOM - C\u00c3\u00b4te sud des Landes","operator:wikidata":"Q90819597","recycling:batteries":"yes","recycling:cans":"yes","recycling:glass_bottles":"yes","recycling:paper":"yes","recycling:paper_packaging":"yes","recycling:plastic_bottles":"yes","recycling_type":"container","ref:FR:SITCOM":"PAV-374230"}},"type":"Feature"},
	{"geometry":{"coordinates":[-1.351538,43.689192],"type":"Point"},"properties":{"name":"Eco-Quartier 1","osm_id":"7592150212","tag":{"amenity":"waste_disposal","operator":"SITCOM - C\u00c3\u00b4te sud des Landes","operator:wikidata":"Q90819597","ref:FR:SITCOM":"PAV-413042"}},"type":"Feature"},
	{"geometry":{"coordinates":[-1.371563,43.654796],"type":"Point"},"properties":{"name":"Plaine D Menjacq 1","osm_id":"7592150248","tag":{"amenity":"waste_disposal","operator":"SITCOM - C\u00c3\u00b4te sud des Landes","operator:wikidata":"Q90819597","ref:FR:SITCOM":"PAV-414842"}},"type":"Feature"},
	{"geometry":{"coordinates":[-1.33228,43.694105],"type":"Point"},"properties":{"name":"Cimetiere-2 Etangs","osm_id":"7592150257","tag":{"amenity":"waste_disposal","operator":"SITCOM - C\u00c3\u00b4te sud des Landes","operator:wikidata":"Q90819597","ref:FR:SITCOM":"PAV-374237"}},"type":"Feature"},
	{"geometry":{"coordinates":[-1.354829,43.675374],"type":"Point"},"properties":{"name":"C.Pom D Pins","osm_id":"7592150271","tag":{"amenity":"waste_disposal","operator":"SITCOM - C\u00c3\u00b4te sud des Landes","operator:wikidata":"Q90819597","ref:FR:SITCOM":"PAV-374666"}},"type":"Feature"},
	{"geometry":{"coordinates":[-1.330586,43.700188],"type":"Point"},"properties":{"name":"Lot Les Bruyeres","osm_id":"7592150278","tag":{"amenity":"waste_disposal","operator":"SITCOM - C\u00c3\u00b4te sud des Landes","operator:wikidata":"Q90819597","ref:FR:SITCOM":"PAV-428341"}},"type":"Feature"},
	{"geometry":{"coordinates":[-1.329984,43.701203],"type":"Point"},"properties":{"name":"Camping Clown Ocean","osm_id":"7592150287","tag":{"access":"customers","amenity":"waste_disposal","operator":"SITCOM - C\u00c3\u00b4te sud des Landes","operator:wikidata":"Q90819597","ref:FR:SITCOM":"PAV-374667"}},"type":"Feature"},
	{"geometry":{"coordinates":[-1.375506,43.706104],"type":"Point"},"properties":{"name":"Camp\u00c3\u00a9ole l'\u00c3\u0089tang Blanc","osm_id":"7592150323","tag":{"access":"customers","amenity":"waste_disposal","operator":"SITCOM - C\u00c3\u00b4te sud des Landes","operator:wikidata":"Q90819597","ref:FR:SITCOM":"PAV-392568"}},"type":"Feature"},
	{"geometry":{"coordinates":[-1.35761,43.660128],"type":"Point"},"properties":{"osm_id":"8464304783","tag":{"amenity":"recycling","recycling_type":"container"}},"type":"Feature"}
]
}
