{
"type": "FeatureCollection",
"features": [
	{"geometry":{"coordinates":[-1.382661,43.622859],"type":"Point"},"properties":{"osm_id":"4963352023","tag":{"amenity":"waste_basket"}},"type":"Feature"},
	{"geometry":{"coordinates":[-1.368866,43.602707],"type":"Point"},"properties":{"name":"Le Magnolia","osm_id":"5756425969","tag":{"amenity":"waste_disposal","operator":"SITCOM - C\u00c3\u00b4te sud des Landes","operator:wikidata":"Q90819597","ref:FR:SITCOM":"PAV-457341"}},"type":"Feature"},
	{"geometry":{"coordinates":[-1.364816,43.632856],"type":"Point"},"properties":{"name":"Villa Azur","osm_id":"7440966437","tag":{"amenity":"waste_disposal","operator":"SITCOM - C\u00c3\u00b4te sud des Landes","operator:wikidata":"Q90819597","ref:FR:SITCOM":"PAV-462241"}},"type":"Feature"},
	{"geometry":{"coordinates":[-1.371104,43.628384],"type":"Point"},"properties":{"name":"Motel Benesse","osm_id":"7440966438","tag":{"amenity":"waste_disposal","operator":"SITCOM - C\u00c3\u00b4te sud des Landes","operator:wikidata":"Q90819597","ref:FR:SITCOM":"PAV-457541"}},"type":"Feature"},
	{"geometry":{"coordinates":[-1.371535,43.631162],"type":"Point"},"properties":{"name":"Lot Hontar\u00c3\u00a8de","osm_id":"7440966458","tag":{"amenity":"recycling","operator":"SITCOM - C\u00c3\u00b4te sud des Landes","operator:wikidata":"Q90819597","recycling:batteries":"yes","recycling:cans":"yes","recycling:glass_bottles":"yes","recycling:paper":"yes","recycling:paper_packaging":"yes","recycling:plastic_bottles":"yes","recycling_type":"container","ref:FR:SITCOM":"PAV-468941"}},"type":"Feature"},
	{"geometry":{"coordinates":[-1.367907,43.631984],"type":"Point"},"properties":{"name":"Res MonteVerde","osm_id":"7441357355","tag":{"amenity":"waste_disposal","operator":"SITCOM - C\u00c3\u00b4te sud des Landes","operator:wikidata":"Q90819597","ref:FR:SITCOM":"PAV-395441"}},"type":"Feature"},
	{"geometry":{"coordinates":[-1.365006,43.640093],"type":"Point"},"properties":{"name":"Lot Tastet","osm_id":"7441357378","tag":{"amenity":"waste_disposal","operator":"SITCOM - C\u00c3\u00b4te sud des Landes","operator:wikidata":"Q90819597","ref:FR:SITCOM":"PAV-397442"}},"type":"Feature"},
	{"geometry":{"coordinates":[-1.368684,43.632388],"type":"Point"},"properties":{"name":"Les Jardins d'Annabelle","osm_id":"7441357396","tag":{"amenity":"waste_disposal","operator":"SITCOM - C\u00c3\u00b4te sud des Landes","operator:wikidata":"Q90819597","ref:FR:SITCOM":"PAV-478745"}},"type":"Feature"},
	{"geometry":{"coordinates":[-1.365037,43.632723],"type":"Point"},"properties":{"name":"R\u00c3\u00a9s l'or\u00c3\u00a9e des bois","osm_id":"7441357406","tag":{"amenity":"waste_disposal","operator":"SITCOM - C\u00c3\u00b4te sud des Landes","operator:wikidata":"Q90819597","ref:FR:SITCOM":"PAV-487159"}},"type":"Feature"},
	{"geometry":{"coordinates":[-1.363339,43.634303],"type":"Point"},"properties":{"name":"Residence Haouse","osm_id":"7441856205","tag":{"amenity":"recycling","operator":"SITCOM - C\u00c3\u00b4te sud des Landes","operator:wikidata":"Q90819597","recycling:batteries":"yes","recycling:cans":"yes","recycling:glass_bottles":"yes","recycling:paper":"yes","recycling:paper_packaging":"yes","recycling:plastic_bottles":"yes","recycling_type":"container","ref:FR:SITCOM":"PAV-425743"}},"type":"Feature"},
	{"geometry":{"coordinates":[-1.361938,43.636141],"type":"Point"},"properties":{"name":"Le Clos De Lisa","osm_id":"7441856221","tag":{"amenity":"waste_disposal","operator":"SITCOM - C\u00c3\u00b4te sud des Landes","operator:wikidata":"Q90819597","ref:FR:SITCOM":"PAV-430951"}},"type":"Feature"},
	{"geometry":{"coordinates":[-1.397889,43.632273],"type":"Point"},"properties":{"name":"Dechetterie","osm_id":"7441856240","tag":{"access":"customers","amenity":"recycling","operator":"SITCOM - C\u00c3\u00b4te sud des Landes","operator:wikidata":"Q90819597","recycling:batteries":"yes","recycling:cans":"yes","recycling:glass_bottles":"yes","recycling:paper":"yes","recycling:paper_packaging":"yes","recycling:plastic_bottles":"yes","recycling_type":"container","ref:FR:SITCOM":"PAV-374621"}},"type":"Feature"},
	{"geometry":{"coordinates":[-1.362292,43.602789],"type":"Point"},"properties":{"name":"Bourg","osm_id":"7441923865","tag":{"amenity":"recycling","operator":"SITCOM - C\u00c3\u00b4te sud des Landes","operator:wikidata":"Q90819597","recycling:batteries":"yes","recycling:cans":"yes","recycling:glass_bottles":"yes","recycling:paper":"yes","recycling:paper_packaging":"yes","recycling:plastic_bottles":"yes","recycling_type":"container","ref:FR:SITCOM":"PAV-374117"}},"type":"Feature"},
	{"geometry":{"coordinates":[-1.397553,43.631632],"type":"Point"},"properties":{"name":"Station Dech","osm_id":"7441923871","tag":{"amenity":"recycling","operator":"SITCOM - C\u00c3\u00b4te sud des Landes","operator:wikidata":"Q90819597","recycling:batteries":"yes","recycling:cans":"yes","recycling:glass_bottles":"yes","recycling:paper":"yes","recycling:paper_packaging":"yes","recycling:plastic_bottles":"yes","recycling_type":"container","ref:FR:SITCOM":"PAV-374149"}},"type":"Feature"},
	{"geometry":{"coordinates":[-1.363328,43.634277],"type":"Point"},"properties":{"name":"Residence Haouse","osm_id":"7592150202","tag":{"amenity":"waste_disposal","operator":"SITCOM - C\u00c3\u00b4te sud des Landes","operator:wikidata":"Q90819597","ref:FR:SITCOM":"PAV-425743"}},"type":"Feature"},
	{"geometry":{"coordinates":[-1.371556,43.631179],"type":"Point"},"properties":{"name":"Lot Hontar\u00c3\u00a8de","osm_id":"7592150234","tag":{"amenity":"waste_disposal","operator":"SITCOM - C\u00c3\u00b4te sud des Landes","operator:wikidata":"Q90819597","ref:FR:SITCOM":"PAV-468941"}},"type":"Feature"}
]
}
