{
"type": "FeatureCollection",
"features": [
	{"geometry":{"coordinates":[-1.354583,43.557525],"type":"Point"},"properties":{"name":"Camiade","osm_id":"4996776664","tag":{"amenity":"recycling","contact:website":"http://www.sitcom40.fr","operator":"SITCOM - C\u00c3\u00b4te sud des Landes","operator:wikidata":"Q90819597","recycling:batteries":"yes","recycling:beverage_cartons":"yes","recycling:cans":"yes","recycling:glass_bottles":"yes","recycling:paper":"yes","recycling:paper_packaging":"yes","recycling:plastic_bottles":"yes","recycling_type":"container","ref:FR:SITCOM":"PAV-374114"}},"type":"Feature"},
	{"geometry":{"coordinates":[-1.38625,43.526278],"type":"Point"},"properties":{"name":"Mais Retr La Martiniere","osm_id":"4996776666","tag":{"amenity":"recycling","contact:website":"http://www.sitcom40.fr","operator":"SITCOM - C\u00c3\u00b4te sud des Landes","recycling:cans":"yes","recycling:glass_bottles":"yes","recycling:plastic_bottles":"yes","recycling_type":"container","ref:FR:SITCOM":"PAV-374107"}},"type":"Feature"},
	{"geometry":{"coordinates":[-1.38585,43.532448],"type":"Point"},"properties":{"name":"La Gendarmerie","osm_id":"4996776667","tag":{"amenity":"recycling","contact:website":"http://www.sitcom40.fr","operator":"SITCOM - C\u00c3\u00b4te sud des Landes","operator:wikidata":"Q90819597","recycling:batteries":"yes","recycling:beverage_cartons":"yes","recycling:cans":"yes","recycling:glass_bottles":"yes","recycling:paper":"yes","recycling:paper_packaging":"yes","recycling:plastic_bottles":"yes","recycling_type":"container","ref:FR:SITCOM":"PAV-374097"}},"type":"Feature"},
	{"geometry":{"coordinates":[-1.385073,43.545542],"type":"Point"},"properties":{"name":"Route de Cantegrouille","osm_id":"4996776672","tag":{"amenity":"recycling","contact:website":"http://www.sitcom40.fr","operator":"SITCOM - C\u00c3\u00b4te sud des Landes","operator:wikidata":"Q90819597","recycling:batteries":"yes","recycling:beverage_cartons":"yes","recycling:cans":"yes","recycling:glass_bottles":"yes","recycling:paper":"yes","recycling:paper_packaging":"yes","recycling:plastic_bottles":"yes","recycling_type":"container","ref:FR:SITCOM":"PAV-475154"}},"type":"Feature"},
	{"geometry":{"coordinates":[-1.31886,43.5514],"type":"Point"},"properties":{"name":"C.A.T. Le Colombier","osm_id":"4996776675","tag":{"access":"customers","amenity":"recycling","contact:website":"http://www.sitcom40.fr","operator":"SITCOM - C\u00c3\u00b4te sud des Landes","operator:wikidata":"Q90819597","recycling:batteries":"yes","recycling:paper":"yes","recycling_type":"container","ref:FR:SITCOM":"PAV-374094"}},"type":"Feature"},
	{"geometry":{"coordinates":[-1.386399,43.545061],"type":"Point"},"properties":{"osm_id":"5464729421","tag":{"amenity":"waste_basket"}},"type":"Feature"},
	{"geometry":{"coordinates":[-1.384181,43.545914],"type":"Point"},"properties":{"name":"Lot L'Airial","osm_id":"5732159514","tag":{"amenity":"waste_disposal","operator":"SITCOM - C\u00c3\u00b4te sud des Landes","operator:wikidata":"Q90819597","ref:FR:SITCOM":"PAV-467443"}},"type":"Feature"},
	{"geometry":{"coordinates":[-1.3891,43.526384],"type":"Point"},"properties":{"osm_id":"5936821517","tag":{"amenity":"waste_disposal"}},"type":"Feature"},
	{"geometry":{"coordinates":[-1.387528,43.5266],"type":"Point"},"properties":{"osm_id":"5936821518","tag":{"amenity":"waste_disposal"}},"type":"Feature"},
	{"geometry":{"coordinates":[-1.399673,43.523947],"type":"Point"},"properties":{"osm_id":"5936826030","tag":{"amenity":"waste_disposal"}},"type":"Feature"},
	{"geometry":{"coordinates":[-1.387916,43.537233],"type":"Point"},"properties":{"name":"Station d'\u00c3\u00a9puration","osm_id":"5936844208","tag":{"amenity":"recycling","operator":"SITCOM - C\u00c3\u00b4te sud des Landes","operator:wikidata":"Q90819597","recycling:batteries":"yes","recycling:cans":"yes","recycling:glass_bottles":"yes","recycling:paper":"yes","recycling:paper_packaging":"yes","recycling:plastic_bottles":"yes","recycling_type":"container","ref:FR:SITCOM":"PAV-374108"}},"type":"Feature"},
	{"geometry":{"coordinates":[-1.383843,43.543123],"type":"Point"},"properties":{"name":"Res Tarbellli","osm_id":"7438622353","tag":{"amenity":"waste_disposal","operator":"SITCOM - C\u00c3\u00b4te sud des Landes","operator:wikidata":"Q90819597","ref:FR:SITCOM":"PAV-484442"}},"type":"Feature"},
	{"geometry":{"coordinates":[-1.376365,43.54205],"type":"Point"},"properties":{"name":"Res Au Mignon","osm_id":"7438622354","tag":{"amenity":"waste_disposal","operator":"SITCOM - C\u00c3\u00b4te sud des Landes","operator:wikidata":"Q90819597","ref:FR:SITCOM":"PAV-484441"}},"type":"Feature"},
	{"geometry":{"coordinates":[-1.386849,43.54079],"type":"Point"},"properties":{"name":"Coll F. Truffaut","osm_id":"7438622359","tag":{"amenity":"waste_disposal","operator":"SITCOM - C\u00c3\u00b4te sud des Landes","operator:wikidata":"Q90819597","ref:FR:SITCOM":"PAV-374109"}},"type":"Feature"},
	{"geometry":{"coordinates":[-1.395752,43.52548],"type":"Point"},"properties":{"name":"Lot Bagatelle","osm_id":"7438622363","tag":{"amenity":"waste_disposal","operator":"SITCOM - C\u00c3\u00b4te sud des Landes","operator:wikidata":"Q90819597","ref:FR:SITCOM":"PAV-461641"}},"type":"Feature"},
	{"geometry":{"coordinates":[-1.387012,43.543705],"type":"Point"},"properties":{"name":"Resid Anais-Adis","osm_id":"7438622364","tag":{"amenity":"waste_disposal","operator":"SITCOM - C\u00c3\u00b4te sud des Landes","operator:wikidata":"Q90819597","ref:FR:SITCOM":"PAV-467447"}},"type":"Feature"},
	{"geometry":{"coordinates":[-1.382745,43.540911],"type":"Point"},"properties":{"name":"Rue Du R\u00c3\u00a9sinier","osm_id":"7438622366","tag":{"amenity":"waste_disposal","operator":"SITCOM - C\u00c3\u00b4te sud des Landes","operator:wikidata":"Q90819597","ref:FR:SITCOM":"PAV-404851"}},"type":"Feature"},
	{"geometry":{"coordinates":[-1.381706,43.541475],"type":"Point"},"properties":{"name":"Av Maisonnave 1","osm_id":"7438622368","tag":{"amenity":"waste_disposal","operator":"SITCOM - C\u00c3\u00b4te sud des Landes","operator:wikidata":"Q90819597","ref:FR:SITCOM":"PAV-404850"}},"type":"Feature"},
	{"geometry":{"coordinates":[-1.352319,43.559596],"type":"Point"},"properties":{"name":"R Le Trinquet","osm_id":"7438622371","tag":{"amenity":"waste_disposal","operator":"SITCOM - C\u00c3\u00b4te sud des Landes","operator:wikidata":"Q90819597","ref:FR:SITCOM":"PAV-414951"}},"type":"Feature"},
	{"geometry":{"coordinates":[-1.359705,43.570172],"type":"Point"},"properties":{"name":"Lot Hameau d Frere","osm_id":"7438622375","tag":{"amenity":"waste_disposal","operator":"SITCOM - C\u00c3\u00b4te sud des Landes","operator:wikidata":"Q90819597","ref:FR:SITCOM":"PAV-468541"}},"type":"Feature"},
	{"geometry":{"coordinates":[-1.339799,43.533861],"type":"Point"},"properties":{"name":"Imp Maisonnave","osm_id":"7438622380","tag":{"amenity":"waste_disposal","operator":"SITCOM - C\u00c3\u00b4te sud des Landes","operator:wikidata":"Q90819597","ref:FR:SITCOM":"PAV-438345"}},"type":"Feature"},
	{"geometry":{"coordinates":[-1.33353,43.520948],"type":"Point"},"properties":{"name":"Lot Le Coum","osm_id":"7438622381","tag":{"amenity":"waste_disposal","operator":"SITCOM - C\u00c3\u00b4te sud des Landes","operator:wikidata":"Q90819597","ref:FR:SITCOM":"PAV-410541"}},"type":"Feature"},
	{"geometry":{"coordinates":[-1.353352,43.558009],"type":"Point"},"properties":{"name":"Bourg","osm_id":"7438622382","tag":{"amenity":"waste_disposal","operator":"SITCOM - C\u00c3\u00b4te sud des Landes","operator:wikidata":"Q90819597","ref:FR:SITCOM":"PAV-402341"}},"type":"Feature"},
	{"geometry":{"coordinates":[-1.380363,43.540727],"type":"Point"},"properties":{"name":"Menuze","osm_id":"7438622383","tag":{"amenity":"waste_disposal","operator":"SITCOM - C\u00c3\u00b4te sud des Landes","operator:wikidata":"Q90819597","ref:FR:SITCOM":"PAV-404342"}},"type":"Feature"},
	{"geometry":{"coordinates":[-1.38353,43.543683],"type":"Point"},"properties":{"name":"Res O'c\u00c3\u00a9ane","osm_id":"7438623185","tag":{"amenity":"waste_disposal","operator":"SITCOM - C\u00c3\u00b4te sud des Landes","operator:wikidata":"Q90819597","ref:FR:SITCOM":"PAV-484443"}},"type":"Feature"},
	{"geometry":{"coordinates":[-1.387144,43.527667],"type":"Point"},"properties":{"name":"Rte de Lavielle","osm_id":"7438623186","tag":{"amenity":"waste_disposal","operator":"SITCOM - C\u00c3\u00b4te sud des Landes","operator:wikidata":"Q90819597","ref:FR:SITCOM":"PAV-487163"}},"type":"Feature"},
	{"geometry":{"coordinates":[-1.390218,43.535504],"type":"Point"},"properties":{"name":"Ch de Grand Jean","osm_id":"7438623187","tag":{"amenity":"waste_disposal","operator":"SITCOM - C\u00c3\u00b4te sud des Landes","operator:wikidata":"Q90819597","ref:FR:SITCOM":"PAV-487142"}},"type":"Feature"},
	{"geometry":{"coordinates":[-1.387196,43.529738],"type":"Point"},"properties":{"name":"Route de l'Adour","osm_id":"7438623190","tag":{"amenity":"waste_disposal","operator":"SITCOM - C\u00c3\u00b4te sud des Landes","operator:wikidata":"Q90819597","ref:FR:SITCOM":"PAV-475144"}},"type":"Feature"},
	{"geometry":{"coordinates":[-1.394041,43.54006],"type":"Point"},"properties":{"name":"Les jardins de Guitard","osm_id":"7438623192","tag":{"amenity":"waste_disposal","operator":"SITCOM - C\u00c3\u00b4te sud des Landes","operator:wikidata":"Q90819597","ref:FR:SITCOM":"PAV-487141"}},"type":"Feature"},
	{"geometry":{"coordinates":[-1.392217,43.5441],"type":"Point"},"properties":{"name":"Rue de Montauby","osm_id":"7438623195","tag":{"amenity":"waste_disposal","operator":"SITCOM - C\u00c3\u00b4te sud des Landes","operator:wikidata":"Q90819597","ref:FR:SITCOM":"PAV-493043"}},"type":"Feature"},
	{"geometry":{"coordinates":[-1.383281,43.542401],"type":"Point"},"properties":{"name":"Av Maisonnave 2","osm_id":"7438623196","tag":{"amenity":"waste_disposal","operator":"SITCOM - C\u00c3\u00b4te sud des Landes","operator:wikidata":"Q90819597","ref:FR:SITCOM":"PAV-404841"}},"type":"Feature"},
	{"geometry":{"coordinates":[-1.389376,43.529353],"type":"Point"},"properties":{"name":"\u00c3\u0089cole Jules Ferry Fronton","osm_id":"7438623197","tag":{"amenity":"waste_disposal","operator":"SITCOM - C\u00c3\u00b4te sud des Landes","operator:wikidata":"Q90819597","ref:FR:SITCOM":"PAV-421956"}},"type":"Feature"},
	{"geometry":{"coordinates":[-1.388062,43.544693],"type":"Point"},"properties":{"name":"Resid Grandjean","osm_id":"7438623200","tag":{"amenity":"waste_disposal","operator":"SITCOM - C\u00c3\u00b4te sud des Landes","operator:wikidata":"Q90819597","ref:FR:SITCOM":"PAV-457643"}},"type":"Feature"},
	{"geometry":{"coordinates":[-1.353312,43.562876],"type":"Point"},"properties":{"name":"Peyrehette","osm_id":"7438623204","tag":{"amenity":"recycling","operator":"SITCOM - C\u00c3\u00b4te sud des Landes","operator:wikidata":"Q90819597","recycling:batteries":"yes","recycling:cans":"yes","recycling:clothes":"yes","recycling:engine_oil":"yes","recycling:glass_bottles":"yes","recycling:paper":"yes","recycling:paper_packaging":"yes","recycling:plastic_bottles":"yes","recycling_type":"container","ref:FR:SITCOM":"PAV-374115"}},"type":"Feature"},
	{"geometry":{"coordinates":[-1.38504,43.545575],"type":"Point"},"properties":{"name":"Route de Cantegrouille","osm_id":"7592150220","tag":{"amenity":"waste_disposal","contact:website":"http://www.sitcom40.fr","operator":"SITCOM - C\u00c3\u00b4te sud des Landes","operator:wikidata":"Q90819597","ref:FR:SITCOM":"PAV-475154"}},"type":"Feature"},
	{"geometry":{"coordinates":[-1.354593,43.557507],"type":"Point"},"properties":{"name":"Camiade","osm_id":"7592150227","tag":{"amenity":"waste_disposal","contact:website":"http://www.sitcom40.fr","operator":"SITCOM - C\u00c3\u00b4te sud des Landes","operator:wikidata":"Q90819597","ref:FR:SITCOM":"PAV-374114"}},"type":"Feature"},
	{"geometry":{"coordinates":[-1.318837,43.551391],"type":"Point"},"properties":{"name":"C.A.T. Le Colombier","osm_id":"7592150233","tag":{"access":"customers","amenity":"waste_disposal","contact:website":"http://www.sitcom40.fr","operator":"SITCOM - C\u00c3\u00b4te sud des Landes","operator:wikidata":"Q90819597","ref:FR:SITCOM":"PAV-374094"}},"type":"Feature"},
	{"geometry":{"coordinates":[-1.385838,43.532438],"type":"Point"},"properties":{"name":"La Gendarmerie","osm_id":"7592150244","tag":{"amenity":"waste_disposal","contact:website":"http://www.sitcom40.fr","operator":"SITCOM - C\u00c3\u00b4te sud des Landes","operator:wikidata":"Q90819597","ref:FR:SITCOM":"PAV-374097"}},"type":"Feature"},
	{"geometry":{"coordinates":[-1.386223,43.526278],"type":"Point"},"properties":{"name":"Mais Retr La Martiniere","osm_id":"7592150258","tag":{"amenity":"waste_disposal","contact:website":"http://www.sitcom40.fr","operator":"SITCOM - C\u00c3\u00b4te sud des Landes","ref:FR:SITCOM":"PAV-374107"}},"type":"Feature"}
]
}
