{
"type": "FeatureCollection",
"features": [
	{"geometry":{"coordinates":[-104.680693,24.06395],"type":"Point"},"properties":{"name":"RECIDUCTO POLIPROPILENO","osm_id":"8064295986","tag":{"amenity":"recycling","recycling_type":"centre"}},"type":"Feature"},
	{"geometry":{"coordinates":[-104.681018,24.064169],"type":"Point"},"properties":{"name":"RECIDUCTO POLIPTOPILENO","osm_id":"8064295987","tag":{"amenity":"recycling","recycling_type":"centre"}},"type":"Feature"},
	{"geometry":{"coordinates":[-104.680687,24.061693],"type":"Point"},"properties":{"osm_id":"8064295988","tag":{"amenity":"recycling","name:en":"RECIDUCTO","recycling_type":"centre"}},"type":"Feature"},
	{"geometry":{"coordinates":[-104.680737,24.063958],"type":"Point"},"properties":{"name":"RECIDUCTO","osm_id":"8064304086","tag":{"amenity":"recycling","recycling_type":"centre"}},"type":"Feature"},
	{"geometry":{"coordinates":[-104.680655,24.063942],"type":"Point"},"properties":{"name":"RECIDUCTO POLIPTOPILENO","osm_id":"8064304185","tag":{"amenity":"recycling","recycling_type":"centre"}},"type":"Feature"},
	{"geometry":{"coordinates":[-104.680665,24.063996],"type":"Point"},"properties":{"name":"RECIDUCTO POLIPTOPILENO","osm_id":"8064304186","tag":{"amenity":"recycling","recycling_type":"centre"}},"type":"Feature"},
	{"geometry":{"coordinates":[-104.680932,24.064298],"type":"Point"},"properties":{"name":"RECIDUCTO","osm_id":"8064304285","tag":{"amenity":"recycling","recycling_type":"centre"}},"type":"Feature"}
]
}
