{
"type": "FeatureCollection",
"features": [
	{"geometry":{"coordinates":[135.511382,34.697328],"type":"Point"},"properties":{"osm_id":"2355666326","tag":{"amenity":"waste_disposal"}},"type":"Feature"},
	{"geometry":{"coordinates":[135.494022,34.695643],"type":"Point"},"properties":{"osm_id":"5174657854","tag":{"amenity":"waste_basket","smoking":"yes","waste":"cigarettes"}},"type":"Feature"},
	{"geometry":{"coordinates":[135.494036,34.695632],"type":"Point"},"properties":{"osm_id":"5174661725","tag":{"amenity":"waste_basket","smoking":"yes","waste":"cigarettes"}},"type":"Feature"},
	{"geometry":{"coordinates":[135.499695,34.727962],"type":"Point"},"properties":{"osm_id":"6198246694","tag":{"amenity":"waste_basket"}},"type":"Feature"},
	{"geometry":{"coordinates":[135.468194,34.722874],"type":"Point"},"properties":{"name":"\u00e8\u00a5\u00bf\u00e9\u0083\u00a8\u00e3\u0082\u00b5\u00e3\u0083\u00bc\u00e3\u0083\u0093\u00e3\u0082\u00b9","osm_id":"6433387596","tag":{"amenity":"recycling","name:ja":"\u00e8\u00a5\u00bf\u00e9\u0083\u00a8\u00e3\u0082\u00b5\u00e3\u0083\u00bc\u00e3\u0083\u0093\u00e3\u0082\u00b9 \u00e5\u00a4\u00a7\u00e9\u0098\u00aa\u00e5\u00b7\u00a5\u00e5\u00a0\u00b4"}},"type":"Feature"},
	{"geometry":{"coordinates":[135.494438,34.707886],"type":"Point"},"properties":{"osm_id":"6655145670","tag":{"amenity":"waste_basket","waste":"plastic"}},"type":"Feature"},
	{"geometry":{"coordinates":[135.494619,34.707921],"type":"Point"},"properties":{"osm_id":"6655145672","tag":{"amenity":"waste_basket","waste":"plastic"}},"type":"Feature"},
	{"geometry":{"coordinates":[135.496445,34.709267],"type":"Point"},"properties":{"osm_id":"6892102365","tag":{"amenity":"waste_basket"}},"type":"Feature"},
	{"geometry":{"coordinates":[135.49361,34.710878],"type":"Point"},"properties":{"osm_id":"7109105558","tag":{"amenity":"waste_basket","waste":"plastic bottle"}},"type":"Feature"},
	{"geometry":{"coordinates":[135.51296,34.739355],"type":"Point"},"properties":{"osm_id":"7931242572","tag":{"amenity":"waste_disposal"}},"type":"Feature"},
	{"geometry":{"coordinates":[135.512966,34.739628],"type":"Point"},"properties":{"osm_id":"7931242573","tag":{"amenity":"waste_disposal"}},"type":"Feature"}
]
}
