{
"type": "FeatureCollection",
"features": [
	{"geometry":{"coordinates":[-72.498843,7.890936],"type":"Point"},"properties":{"name":"\u00c3\u00a1rbol de mata rat\u00c3\u00b3n","osm_id":"3104715565","tag":{"addr:housenumber":"av 0","addr:street":"calle 6","natural":"tree","type":"Gliricidia_sepia"}},"type":"Feature"},
	{"geometry":{"coordinates":[-72.498871,7.891139],"type":"Point"},"properties":{"name":"neem","osm_id":"3104715566","tag":{"addr:city":"Cucuta","addr:housenumber":"av0","addr:street":"Calle 6","natural":"tree","type":"Azadirachta_indica_A.Juss."}},"type":"Feature"},
	{"geometry":{"coordinates":[-72.498905,7.891258],"type":"Point"},"properties":{"name":"Cuji","osm_id":"3104715567","tag":{"addr:housenumber":"av 0","addr:street":"Calle 6","natural":"tree","type":"Prosopis_juliflora_(SW.)_DC."}},"type":"Feature"},
	{"geometry":{"coordinates":[-72.49894,7.891446],"type":"Point"},"properties":{"name":"CUji","osm_id":"3104715568","tag":{"addr:housenumber":"av 0","addr:street":"Calle 6","natural":"tree","type":"Prosopis_juliflora_(SW.)_DC."}},"type":"Feature"},
	{"geometry":{"coordinates":[-72.508307,7.8924],"type":"Point"},"properties":{"name":"Ohiti","osm_id":"3212425892","tag":{"natural":"tree"}},"type":"Feature"},
	{"geometry":{"coordinates":[-72.508379,7.892386],"type":"Point"},"properties":{"osm_id":"3212425893","tag":{"natural":"tree"}},"type":"Feature"},
	{"geometry":{"coordinates":[-72.50889,7.892295],"type":"Point"},"properties":{"name":"Ohiti","osm_id":"3212432757","tag":{"natural":"tree"}},"type":"Feature"},
	{"geometry":{"coordinates":[-72.509089,7.89242],"type":"Point"},"properties":{"name":"Ohiti","osm_id":"3212432758","tag":{"natural":"tree"}},"type":"Feature"},
	{"geometry":{"coordinates":[-72.509101,7.892522],"type":"Point"},"properties":{"name":"Ohiti","osm_id":"3212432759","tag":{"natural":"tree"}},"type":"Feature"},
	{"geometry":{"coordinates":[-72.509148,7.892811],"type":"Point"},"properties":{"name":"Ohiti","osm_id":"3212432760","tag":{"natural":"tree"}},"type":"Feature"},
	{"geometry":{"coordinates":[-72.509158,7.892871],"type":"Point"},"properties":{"name":"Ohiti","osm_id":"3212443186","tag":{"natural":"tree"}},"type":"Feature"},
	{"geometry":{"coordinates":[-72.509155,7.892848],"type":"Point"},"properties":{"name":"Ohiti","osm_id":"3212443187","tag":{"natural":"tree"}},"type":"Feature"},
	{"geometry":{"coordinates":[-72.509165,7.89292],"type":"Point"},"properties":{"name":"Ohiti","osm_id":"3212443188","tag":{"natural":"tree"}},"type":"Feature"},
	{"geometry":{"coordinates":[-72.509176,7.892987],"type":"Point"},"properties":{"name":"Ohiti","osm_id":"3212444730","tag":{"natural":"tree"}},"type":"Feature"},
	{"geometry":{"coordinates":[-72.509207,7.893134],"type":"Point"},"properties":{"name":"Ohiti","osm_id":"3212444731","tag":{"natural":"tree"}},"type":"Feature"},
	{"geometry":{"coordinates":[-72.509202,7.893096],"type":"Point"},"properties":{"name":"Ohiti","osm_id":"3212444732","tag":{"natural":"tree"}},"type":"Feature"},
	{"geometry":{"coordinates":[-72.509192,7.893064],"type":"Point"},"properties":{"name":"Ohiti","osm_id":"3212444733","tag":{"natural":"tree"}},"type":"Feature"},
	{"geometry":{"coordinates":[-72.509348,7.89315],"type":"Point"},"properties":{"name":"Almendron","osm_id":"3212490213","tag":{"natural":"tree"}},"type":"Feature"},
	{"geometry":{"coordinates":[-72.509399,7.893144],"type":"Point"},"properties":{"name":"Ohiti","osm_id":"3212490214","tag":{"natural":"tree"}},"type":"Feature"},
	{"geometry":{"coordinates":[-72.509392,7.893275],"type":"Point"},"properties":{"name":"Ohiti","osm_id":"3212490215","tag":{"natural":"tree"}},"type":"Feature"},
	{"geometry":{"coordinates":[-72.509478,7.893261],"type":"Point"},"properties":{"name":"Ohiti","osm_id":"3212498172","tag":{"natural":"tree"}},"type":"Feature"},
	{"geometry":{"coordinates":[-72.509591,7.893104],"type":"Point"},"properties":{"name":"Nim","osm_id":"3212498181","tag":{"natural":"tree"}},"type":"Feature"},
	{"geometry":{"coordinates":[-72.509567,7.893248],"type":"Point"},"properties":{"name":"Ohiti","osm_id":"3212502993","tag":{"natural":"tree"}},"type":"Feature"},
	{"geometry":{"coordinates":[-72.509628,7.893234],"type":"Point"},"properties":{"name":"Ohiti","osm_id":"3212502994","tag":{"natural":"tree"}},"type":"Feature"},
	{"geometry":{"coordinates":[-72.509744,7.893199],"type":"Point"},"properties":{"name":"Ohiti","osm_id":"3212503000","tag":{"natural":"tree"}},"type":"Feature"},
	{"geometry":{"coordinates":[-72.50971,7.89308],"type":"Point"},"properties":{"name":"Nim","osm_id":"3212505306","tag":{"natural":"tree"}},"type":"Feature"},
	{"geometry":{"coordinates":[-72.509761,7.893072],"type":"Point"},"properties":{"name":"Nim","osm_id":"3212505307","tag":{"natural":"tree"}},"type":"Feature"},
	{"geometry":{"coordinates":[-72.509652,7.894529],"type":"Point"},"properties":{"name":"Cuji","osm_id":"3213534065","tag":{"natural":"tree"}},"type":"Feature"},
	{"geometry":{"coordinates":[-72.509635,7.892743],"type":"Point"},"properties":{"name":"Limonero","osm_id":"3213539664","tag":{"natural":"tree"}},"type":"Feature"},
	{"geometry":{"coordinates":[-72.509456,7.89251],"type":"Point"},"properties":{"name":"Naranjo","osm_id":"3213539665","tag":{"natural":"tree"}},"type":"Feature"},
	{"geometry":{"coordinates":[-72.509449,7.892326],"type":"Point"},"properties":{"name":"Mandarino","osm_id":"3213539848","tag":{"natural":"tree"}},"type":"Feature"},
	{"geometry":{"coordinates":[-72.509639,7.892403],"type":"Point"},"properties":{"name":"Ohiti","osm_id":"3213539849","tag":{"natural":"tree"}},"type":"Feature"},
	{"geometry":{"coordinates":[-72.509701,7.892479],"type":"Point"},"properties":{"name":"Cuji","osm_id":"3213539850","tag":{"natural":"tree"}},"type":"Feature"},
	{"geometry":{"coordinates":[-72.50974,7.892771],"type":"Point"},"properties":{"name":"Mango","osm_id":"3213539852","tag":{"natural":"tree"}},"type":"Feature"},
	{"geometry":{"coordinates":[-72.503966,7.905947],"type":"Point"},"properties":{"osm_id":"3301538975","tag":{"natural":"tree"}},"type":"Feature"},
	{"geometry":{"coordinates":[-72.495703,7.895999],"type":"Point"},"properties":{"osm_id":"3814053179","tag":{"natural":"tree"}},"type":"Feature"},
	{"geometry":{"coordinates":[-72.495378,7.896045],"type":"Point"},"properties":{"osm_id":"3814053180","tag":{"natural":"tree"}},"type":"Feature"},
	{"geometry":{"coordinates":[-72.4953,7.895962],"type":"Point"},"properties":{"osm_id":"3814053181","tag":{"natural":"tree"}},"type":"Feature"},
	{"geometry":{"coordinates":[-72.501927,7.931944],"type":"Point"},"properties":{"osm_id":"7213042998","tag":{"natural":"tree"}},"type":"Feature"},
	{"geometry":{"coordinates":[-72.501866,7.931877],"type":"Point"},"properties":{"osm_id":"7213042999","tag":{"natural":"tree"}},"type":"Feature"},
	{"geometry":{"coordinates":[-72.501762,7.932069],"type":"Point"},"properties":{"osm_id":"7213043000","tag":{"natural":"tree"}},"type":"Feature"},
	{"geometry":{"coordinates":[-72.502105,7.932204],"type":"Point"},"properties":{"osm_id":"7213043002","tag":{"natural":"tree"}},"type":"Feature"},
	{"geometry":{"coordinates":[-72.502312,7.932283],"type":"Point"},"properties":{"osm_id":"7213043028","tag":{"natural":"tree"}},"type":"Feature"},
	{"geometry":{"coordinates":[-72.501412,7.931645],"type":"Point"},"properties":{"osm_id":"7213043044","tag":{"natural":"tree"}},"type":"Feature"},
	{"geometry":{"coordinates":[-72.501461,7.931493],"type":"Point"},"properties":{"osm_id":"7213043045","tag":{"natural":"tree"}},"type":"Feature"},
	{"geometry":{"coordinates":[-72.501884,7.931388],"type":"Point"},"properties":{"osm_id":"7213043046","tag":{"natural":"tree"}},"type":"Feature"},
	{"geometry":{"coordinates":[-72.501924,7.931294],"type":"Point"},"properties":{"osm_id":"7213043047","tag":{"natural":"tree"}},"type":"Feature"},
	{"geometry":{"coordinates":[-72.501706,7.93132],"type":"Point"},"properties":{"osm_id":"7213043048","tag":{"natural":"tree"}},"type":"Feature"},
	{"geometry":{"coordinates":[-72.501556,7.931749],"type":"Point"},"properties":{"osm_id":"7213043049","tag":{"natural":"tree"}},"type":"Feature"},
	{"geometry":{"coordinates":[-72.501399,7.930472],"type":"Point"},"properties":{"osm_id":"7213043050","tag":{"natural":"tree"}},"type":"Feature"},
	{"geometry":{"coordinates":[-72.501366,7.930847],"type":"Point"},"properties":{"osm_id":"7213043051","tag":{"natural":"tree"}},"type":"Feature"},
	{"geometry":{"coordinates":[-72.501769,7.930985],"type":"Point"},"properties":{"osm_id":"7213043052","tag":{"natural":"tree"}},"type":"Feature"},
	{"geometry":{"coordinates":[-72.501208,7.93187],"type":"Point"},"properties":{"osm_id":"7213043067","tag":{"natural":"tree"}},"type":"Feature"}
]
}
