{
"type": "FeatureCollection",
"features": [
	{"geometry":{"coordinates":[7.159719,53.625188],"type":"Point"},"properties":{"osm_id":"457868310","tag":{"amenity":"recycling","recycling:glass":"yes","recycling_type":"container"}},"type":"Feature"},
	{"geometry":{"coordinates":[7.15795,53.611619],"type":"Point"},"properties":{"osm_id":"873713146","tag":{"amenity":"waste_basket"}},"type":"Feature"},
	{"geometry":{"coordinates":[7.157502,53.611845],"type":"Point"},"properties":{"osm_id":"873713177","tag":{"amenity":"waste_basket"}},"type":"Feature"},
	{"geometry":{"coordinates":[7.158815,53.612456],"type":"Point"},"properties":{"osm_id":"873713241","tag":{"amenity":"waste_basket"}},"type":"Feature"},
	{"geometry":{"coordinates":[7.16008,53.61216],"type":"Point"},"properties":{"osm_id":"873713246","tag":{"amenity":"waste_basket"}},"type":"Feature"},
	{"geometry":{"coordinates":[7.158606,53.613454],"type":"Point"},"properties":{"osm_id":"873713294","tag":{"amenity":"waste_basket"}},"type":"Feature"},
	{"geometry":{"coordinates":[7.185225,53.602453],"type":"Point"},"properties":{"osm_id":"877144875","tag":{"amenity":"waste_basket"}},"type":"Feature"},
	{"geometry":{"coordinates":[7.184031,53.602328],"type":"Point"},"properties":{"osm_id":"877144930","tag":{"amenity":"waste_basket"}},"type":"Feature"},
	{"geometry":{"coordinates":[7.157223,53.612796],"type":"Point"},"properties":{"osm_id":"895452486","tag":{"amenity":"waste_basket"}},"type":"Feature"},
	{"geometry":{"coordinates":[7.159057,53.611784],"type":"Point"},"properties":{"osm_id":"895452492","tag":{"amenity":"waste_basket"}},"type":"Feature"},
	{"geometry":{"coordinates":[7.159213,53.61173],"type":"Point"},"properties":{"osm_id":"895452499","tag":{"access":"private","amenity":"waste_basket"}},"type":"Feature"},
	{"geometry":{"coordinates":[7.152649,53.615555],"type":"Point"},"properties":{"osm_id":"895553833","tag":{"amenity":"waste_basket"}},"type":"Feature"},
	{"geometry":{"coordinates":[7.153677,53.615506],"type":"Point"},"properties":{"osm_id":"895553834","tag":{"amenity":"waste_basket"}},"type":"Feature"},
	{"geometry":{"coordinates":[7.15167,53.61564],"type":"Point"},"properties":{"osm_id":"895553837","tag":{"amenity":"waste_basket"}},"type":"Feature"},
	{"geometry":{"coordinates":[7.151285,53.6157],"type":"Point"},"properties":{"osm_id":"895553864","tag":{"amenity":"waste_basket"}},"type":"Feature"},
	{"geometry":{"coordinates":[7.203184,53.635035],"type":"Point"},"properties":{"osm_id":"897101090","tag":{"amenity":"waste_basket"}},"type":"Feature"},
	{"geometry":{"coordinates":[7.158714,53.612833],"type":"Point"},"properties":{"osm_id":"905462100","tag":{"amenity":"waste_basket"}},"type":"Feature"},
	{"geometry":{"coordinates":[7.158263,53.612679],"type":"Point"},"properties":{"osm_id":"906683683","tag":{"amenity":"waste_basket"}},"type":"Feature"},
	{"geometry":{"coordinates":[7.15309,53.622775],"type":"Point"},"properties":{"osm_id":"907960315","tag":{"amenity":"waste_basket"}},"type":"Feature"},
	{"geometry":{"coordinates":[7.158903,53.612731],"type":"Point"},"properties":{"osm_id":"907961613","tag":{"amenity":"waste_basket"}},"type":"Feature"},
	{"geometry":{"coordinates":[7.155799,53.610366],"type":"Point"},"properties":{"osm_id":"926662445","tag":{"amenity":"recycling","recycling:glass":"yes","recycling_type":"container"}},"type":"Feature"},
	{"geometry":{"coordinates":[7.159927,53.612226],"type":"Point"},"properties":{"osm_id":"1388496115","tag":{"amenity":"waste_basket"}},"type":"Feature"},
	{"geometry":{"coordinates":[7.160087,53.61223],"type":"Point"},"properties":{"osm_id":"1388496117","tag":{"amenity":"waste_basket"}},"type":"Feature"},
	{"geometry":{"coordinates":[7.138431,53.605481],"type":"Point"},"properties":{"osm_id":"1861807253","tag":{"amenity":"waste_basket"}},"type":"Feature"},
	{"geometry":{"coordinates":[7.138371,53.605569],"type":"Point"},"properties":{"osm_id":"1861807269","tag":{"amenity":"waste_basket"}},"type":"Feature"},
	{"geometry":{"coordinates":[7.156089,53.611991],"type":"Point"},"properties":{"osm_id":"1861807553","tag":{"amenity":"waste_basket"}},"type":"Feature"},
	{"geometry":{"coordinates":[7.16669,53.613484],"type":"Point"},"properties":{"osm_id":"1861808059","tag":{"amenity":"recycling","recycling:clothes":"yes","recycling:shoes":"yes","recycling_type":"container"}},"type":"Feature"},
	{"geometry":{"coordinates":[7.156289,53.614437],"type":"Point"},"properties":{"osm_id":"1861808171","tag":{"amenity":"waste_basket"}},"type":"Feature"},
	{"geometry":{"coordinates":[7.155809,53.61467],"type":"Point"},"properties":{"osm_id":"1861808186","tag":{"amenity":"waste_basket"}},"type":"Feature"},
	{"geometry":{"coordinates":[7.155357,53.61578],"type":"Point"},"properties":{"osm_id":"1861808321","tag":{"amenity":"waste_basket"}},"type":"Feature"},
	{"geometry":{"coordinates":[7.154848,53.616256],"type":"Point"},"properties":{"osm_id":"1861808345","tag":{"amenity":"waste_basket"}},"type":"Feature"},
	{"geometry":{"coordinates":[7.13464,53.601928],"type":"Point"},"properties":{"osm_id":"3428556780","tag":{"amenity":"waste_disposal"}},"type":"Feature"},
	{"geometry":{"coordinates":[7.13902,53.604994],"type":"Point"},"properties":{"osm_id":"5785277344","tag":{"amenity":"waste_basket","bin":"yes","waste":"trash"}},"type":"Feature"},
	{"geometry":{"coordinates":[7.150725,53.614801],"type":"Point"},"properties":{"osm_id":"6122766195","tag":{"amenity":"waste_basket"}},"type":"Feature"},
	{"geometry":{"coordinates":[7.167683,53.612855],"type":"Point"},"properties":{"osm_id":"6683052066","tag":{"amenity":"recycling","colour":"brown","recycling:glass":"yes","recycling_type":"container"}},"type":"Feature"},
	{"geometry":{"coordinates":[7.167719,53.612866],"type":"Point"},"properties":{"osm_id":"6683052067","tag":{"amenity":"recycling","colour":"green","recycling:glass":"yes","recycling_type":"container"}},"type":"Feature"},
	{"geometry":{"coordinates":[7.167746,53.612875],"type":"Point"},"properties":{"osm_id":"6683052068","tag":{"amenity":"recycling","colour":"white","recycling:glass":"yes","recycling_type":"container"}},"type":"Feature"},
	{"geometry":{"coordinates":[7.167771,53.612884],"type":"Point"},"properties":{"osm_id":"6683052069","tag":{"amenity":"recycling","colour":"white","recycling:glass":"yes","recycling_type":"container"}},"type":"Feature"}
]
}
