{
"type": "FeatureCollection",
"features": [
	{"geometry":{"coordinates":[7.199252,52.79593],"type":"Point"},"properties":{"osm_id":"1644993236","tag":{"amenity":"recycling","recycling:glass":"yes","recycling:paper":"yes","recycling_type":"container"}},"type":"Feature"},
	{"geometry":{"coordinates":[7.196648,52.797028],"type":"Point"},"properties":{"osm_id":"3464888662","tag":{"amenity":"waste_basket"}},"type":"Feature"},
	{"geometry":{"coordinates":[7.191973,52.789873],"type":"Point"},"properties":{"name":"Altpapier, Altglas, Gr\u00c3\u00bcner Punkt","osm_id":"5760381597","tag":{"amenity":"recycling","recycling:glass_bottles":"yes","recycling:paper":"yes","recycling:plastic_packaging":"yes","recycling_type":"container"}},"type":"Feature"},
	{"geometry":{"coordinates":[7.191996,52.789887],"type":"Point"},"properties":{"osm_id":"5760381598","tag":{"amenity":"waste_disposal","waste":"trash"}},"type":"Feature"},
	{"geometry":{"coordinates":[7.189951,52.788274],"type":"Point"},"properties":{"osm_id":"5788101183","tag":{"amenity":"waste_disposal","waste":"trash"}},"type":"Feature"},
	{"geometry":{"coordinates":[7.189785,52.789114],"type":"Point"},"properties":{"osm_id":"5788101184","tag":{"amenity":"waste_disposal","waste":"trash"}},"type":"Feature"},
	{"geometry":{"coordinates":[7.154803,52.754829],"type":"Point"},"properties":{"osm_id":"6394933457","tag":{"amenity":"recycling","recycling:glass_bottles":"yes","recycling_type":"container"}},"type":"Feature"},
	{"geometry":{"coordinates":[7.154578,52.755127],"type":"Point"},"properties":{"osm_id":"6394933458","tag":{"amenity":"waste_basket"}},"type":"Feature"},
	{"geometry":{"coordinates":[7.154716,52.754894],"type":"Point"},"properties":{"osm_id":"6402029962","tag":{"amenity":"recycling","recycling:clothes":"yes","recycling_type":"container"}},"type":"Feature"},
	{"geometry":{"coordinates":[7.199996,52.794063],"type":"Point"},"properties":{"osm_id":"6432455127","tag":{"amenity":"waste_basket"}},"type":"Feature"},
	{"geometry":{"coordinates":[7.198131,52.791667],"type":"Point"},"properties":{"osm_id":"6432455129","tag":{"amenity":"waste_disposal","waste":"trash"}},"type":"Feature"},
	{"geometry":{"coordinates":[7.199014,52.791553],"type":"Point"},"properties":{"osm_id":"6447864201","tag":{"amenity":"waste_disposal","waste":"trash"}},"type":"Feature"},
	{"geometry":{"coordinates":[7.19994,52.791641],"type":"Point"},"properties":{"osm_id":"6447864217","tag":{"amenity":"waste_disposal","waste":"trash"}},"type":"Feature"},
	{"geometry":{"coordinates":[7.200591,52.791675],"type":"Point"},"properties":{"osm_id":"6447864225","tag":{"amenity":"waste_disposal","waste":"trash"}},"type":"Feature"},
	{"geometry":{"coordinates":[7.199191,52.793981],"type":"Point"},"properties":{"osm_id":"6448059234","tag":{"amenity":"waste_basket"}},"type":"Feature"},
	{"geometry":{"coordinates":[7.198676,52.79387],"type":"Point"},"properties":{"osm_id":"6448059235","tag":{"amenity":"waste_basket"}},"type":"Feature"},
	{"geometry":{"coordinates":[7.193937,52.792713],"type":"Point"},"properties":{"osm_id":"6448059238","tag":{"amenity":"waste_basket"}},"type":"Feature"},
	{"geometry":{"coordinates":[7.198037,52.791681],"type":"Point"},"properties":{"osm_id":"7391772428","tag":{"amenity":"waste_disposal"}},"type":"Feature"},
	{"geometry":{"coordinates":[7.197324,52.791849],"type":"Point"},"properties":{"osm_id":"7391773754","tag":{"amenity":"waste_disposal"}},"type":"Feature"},
	{"geometry":{"coordinates":[7.196646,52.791112],"type":"Point"},"properties":{"osm_id":"7391787586","tag":{"amenity":"waste_disposal"}},"type":"Feature"},
	{"geometry":{"coordinates":[7.195801,52.790716],"type":"Point"},"properties":{"osm_id":"7391797806","tag":{"amenity":"waste_disposal"}},"type":"Feature"},
	{"geometry":{"coordinates":[7.197633,52.790541],"type":"Point"},"properties":{"osm_id":"7413804926","tag":{"amenity":"waste_disposal"}},"type":"Feature"},
	{"geometry":{"coordinates":[7.197663,52.790476],"type":"Point"},"properties":{"osm_id":"7413804927","tag":{"amenity":"waste_disposal"}},"type":"Feature"}
]
}
