{
"type": "FeatureCollection",
"features": [
	{"geometry":{"coordinates":[7.12995,51.365873],"type":"Point"},"properties":{"osm_id":"465248296","tag":{"amenity":"recycling","check_date":"2017-05-25","opening_hours":"Mo-Sa 07:00-20:00; PH off","operator":"Technische Betriebe Velbert A\u00c3\u00b6R","recycling_type":"container"}},"type":"Feature"},
	{"geometry":{"coordinates":[7.175295,51.388461],"type":"Point"},"properties":{"osm_id":"475835836","tag":{"amenity":"recycling","recycling:glass_bottles":"yes","recycling:paper":"yes","recycling_type":"container"}},"type":"Feature"},
	{"geometry":{"coordinates":[7.151102,51.390255],"type":"Point"},"properties":{"osm_id":"599569332","tag":{"amenity":"recycling","recycling:glass_bottles":"yes","recycling:paper":"yes","recycling_type":"container"}},"type":"Feature"},
	{"geometry":{"coordinates":[7.197091,51.397722],"type":"Point"},"properties":{"osm_id":"676667001","tag":{"amenity":"recycling","location":"overground","recycling:clothes":"yes","recycling:glass_bottles":"yes","recycling:paper":"yes","recycling_type":"container"}},"type":"Feature"},
	{"geometry":{"coordinates":[7.179008,51.392548],"type":"Point"},"properties":{"osm_id":"676668726","tag":{"amenity":"recycling","location":"overground","recycling:clothes":"yes","recycling:glass_bottles":"yes","recycling:paper":"yes","recycling:shoes":"yes","recycling_type":"container"}},"type":"Feature"},
	{"geometry":{"coordinates":[7.176852,51.397663],"type":"Point"},"properties":{"osm_id":"676668728","tag":{"amenity":"recycling","recycling:clothes":"yes","recycling:glass_bottles":"yes","recycling:paper":"yes","recycling_type":"container"}},"type":"Feature"},
	{"geometry":{"coordinates":[7.171999,51.398086],"type":"Point"},"properties":{"osm_id":"734430312","tag":{"amenity":"recycling","recycling:clothes":"yes","recycling:glass_bottles":"yes","recycling:paper":"yes","recycling_type":"container"}},"type":"Feature"},
	{"geometry":{"coordinates":[7.194936,51.349018],"type":"Point"},"properties":{"osm_id":"810469995","tag":{"amenity":"recycling","recycling:glass_bottles":"yes","recycling:paper":"yes","recycling_type":"container"}},"type":"Feature"},
	{"geometry":{"coordinates":[7.137887,51.372904],"type":"Point"},"properties":{"osm_id":"1059714864","tag":{"amenity":"recycling","check_date":"2017-05-25","opening_hours":"Mo-Sa 07:00-20:00; PH off","operator":"Technische Betriebe Velbert A\u00c3\u00b6R","recycling:cardboard":"yes","recycling:clothes":"yes","recycling:glass_bottles":"yes","recycling:paper":"yes","recycling:shoes":"yes","recycling_type":"container"}},"type":"Feature"},
	{"geometry":{"coordinates":[7.186182,51.393609],"type":"Point"},"properties":{"osm_id":"1069402372","tag":{"amenity":"recycling","recycling:glass_bottles":"yes","recycling:paper":"yes","recycling_type":"container"}},"type":"Feature"},
	{"geometry":{"coordinates":[7.135634,51.366576],"type":"Point"},"properties":{"osm_id":"1109121773","tag":{"amenity":"recycling","check_date":"2017-05-25","opening_hours":"Mo-Sa 07:00-20:00; PH off","operator":"Technische Betriebe Velbert A\u00c3\u00b6R","recycling:clothes":"yes","recycling:glass_bottles":"yes","recycling:paper":"yes","recycling:shoes":"yes","recycling_type":"container"}},"type":"Feature"},
	{"geometry":{"coordinates":[7.190118,51.397925],"type":"Point"},"properties":{"osm_id":"1540721646","tag":{"amenity":"recycling","recycling:clothes":"yes","recycling:glass_bottles":"yes","recycling:paper":"yes","recycling_type":"container"}},"type":"Feature"},
	{"geometry":{"coordinates":[7.183383,51.398401],"type":"Point"},"properties":{"osm_id":"1736460485","tag":{"amenity":"waste_basket"}},"type":"Feature"},
	{"geometry":{"coordinates":[7.183708,51.398853],"type":"Point"},"properties":{"osm_id":"1736460489","tag":{"amenity":"waste_basket"}},"type":"Feature"},
	{"geometry":{"coordinates":[7.1291,51.369028],"type":"Point"},"properties":{"osm_id":"1912744117","tag":{"amenity":"recycling","check_date":"2017-05-25","opening_hours":"Mo-Sa 07:00-20:00; PH off","operator":"Technische Betriebe Velbert A\u00c3\u00b6R","recycling:batteries":"yes","recycling:glass_bottles":"yes","recycling:paper":"yes","recycling_type":"container"}},"type":"Feature"},
	{"geometry":{"coordinates":[7.181593,51.392842],"type":"Point"},"properties":{"osm_id":"1997481302","tag":{"amenity":"recycling","recycling:clothes":"yes","recycling:glass_bottles":"yes","recycling:paper":"yes","recycling_type":"container"}},"type":"Feature"},
	{"geometry":{"coordinates":[7.203702,51.398175],"type":"Point"},"properties":{"osm_id":"2062952355","tag":{"amenity":"recycling","recycling:glass_bottles":"yes","recycling:paper":"yes","recycling_type":"container"}},"type":"Feature"},
	{"geometry":{"coordinates":[7.137844,51.373079],"type":"Point"},"properties":{"osm_id":"2284832939","tag":{"amenity":"waste_basket"}},"type":"Feature"},
	{"geometry":{"coordinates":[7.176025,51.389271],"type":"Point"},"properties":{"osm_id":"2729102262","tag":{"amenity":"waste_basket"}},"type":"Feature"},
	{"geometry":{"coordinates":[7.178972,51.398275],"type":"Point"},"properties":{"osm_id":"3047552288","tag":{"amenity":"waste_basket","waste":"trash"}},"type":"Feature"},
	{"geometry":{"coordinates":[7.178731,51.398379],"type":"Point"},"properties":{"osm_id":"3047552289","tag":{"amenity":"waste_basket","waste":"trash"}},"type":"Feature"},
	{"geometry":{"coordinates":[7.119419,51.351435],"type":"Point"},"properties":{"osm_id":"4171971571","tag":{"amenity":"waste_basket"}},"type":"Feature"},
	{"geometry":{"coordinates":[7.119876,51.35164],"type":"Point"},"properties":{"osm_id":"4171971574","tag":{"amenity":"waste_basket"}},"type":"Feature"},
	{"geometry":{"coordinates":[7.121729,51.351564],"type":"Point"},"properties":{"osm_id":"4171983158","tag":{"amenity":"waste_basket"}},"type":"Feature"},
	{"geometry":{"coordinates":[7.182443,51.391801],"type":"Point"},"properties":{"osm_id":"4329854579","tag":{"amenity":"recycling","opening_hours":"Mo-Sa 07:00-19:00","recycling:clothes":"yes","recycling:glass_bottles":"yes","recycling:paper":"yes","recycling_type":"container"}},"type":"Feature"},
	{"geometry":{"coordinates":[7.129093,51.369044],"type":"Point"},"properties":{"osm_id":"4695339057","tag":{"amenity":"waste_basket"}},"type":"Feature"},
	{"geometry":{"coordinates":[7.179202,51.398255],"type":"Point"},"properties":{"osm_id":"4851415418","tag":{"amenity":"recycling","recycling:glass_bottles":"yes","recycling:paper":"yes","recycling_type":"container"}},"type":"Feature"},
	{"geometry":{"coordinates":[7.152759,51.388152],"type":"Point"},"properties":{"osm_id":"5312487509","tag":{"amenity":"waste_basket"}},"type":"Feature"},
	{"geometry":{"coordinates":[7.151732,51.387483],"type":"Point"},"properties":{"osm_id":"5313893167","tag":{"amenity":"waste_basket"}},"type":"Feature"},
	{"geometry":{"coordinates":[7.13543,51.373167],"type":"Point"},"properties":{"osm_id":"5584574748","tag":{"amenity":"recycling","recycling:clothes":"yes","recycling_type":"container"}},"type":"Feature"},
	{"geometry":{"coordinates":[7.180141,51.377977],"type":"Point"},"properties":{"osm_id":"5813008934","tag":{"amenity":"waste_basket","waste":"trash"}},"type":"Feature"},
	{"geometry":{"coordinates":[7.183837,51.38078],"type":"Point"},"properties":{"osm_id":"5813042992","tag":{"amenity":"waste_basket","backrest":"yes","colour":"brown","material":"wood","seats":"4","waste":"trash"}},"type":"Feature"},
	{"geometry":{"coordinates":[7.187138,51.383777],"type":"Point"},"properties":{"osm_id":"5813042993","tag":{"amenity":"waste_basket","waste":"trash"}},"type":"Feature"},
	{"geometry":{"coordinates":[7.182043,51.381354],"type":"Point"},"properties":{"osm_id":"5813042996","tag":{"amenity":"waste_basket","waste":"trash"}},"type":"Feature"},
	{"geometry":{"coordinates":[7.181505,51.381185],"type":"Point"},"properties":{"osm_id":"5813043004","tag":{"amenity":"waste_basket","waste":"trash"}},"type":"Feature"},
	{"geometry":{"coordinates":[7.173224,51.380466],"type":"Point"},"properties":{"osm_id":"5813043010","tag":{"amenity":"waste_basket","waste":"trash"}},"type":"Feature"},
	{"geometry":{"coordinates":[7.17844,51.381976],"type":"Point"},"properties":{"osm_id":"5813043011","tag":{"amenity":"waste_basket","waste":"trash"}},"type":"Feature"},
	{"geometry":{"coordinates":[7.180004,51.38106],"type":"Point"},"properties":{"osm_id":"5813043012","tag":{"amenity":"waste_basket","waste":"trash"}},"type":"Feature"},
	{"geometry":{"coordinates":[7.180007,51.381107],"type":"Point"},"properties":{"osm_id":"5813043014","tag":{"amenity":"waste_basket","waste":"trash"}},"type":"Feature"},
	{"geometry":{"coordinates":[7.181436,51.397664],"type":"Point"},"properties":{"osm_id":"5916606992","tag":{"amenity":"waste_basket","waste":"trash"}},"type":"Feature"},
	{"geometry":{"coordinates":[7.182557,51.398136],"type":"Point"},"properties":{"osm_id":"5916606997","tag":{"amenity":"waste_basket"}},"type":"Feature"},
	{"geometry":{"coordinates":[7.182595,51.39807],"type":"Point"},"properties":{"osm_id":"5916606999","tag":{"amenity":"waste_basket"}},"type":"Feature"},
	{"geometry":{"coordinates":[7.183038,51.397784],"type":"Point"},"properties":{"osm_id":"5916607047","tag":{"amenity":"waste_basket"}},"type":"Feature"},
	{"geometry":{"coordinates":[7.183598,51.397434],"type":"Point"},"properties":{"osm_id":"5916607049","tag":{"amenity":"waste_basket"}},"type":"Feature"},
	{"geometry":{"coordinates":[7.183394,51.397221],"type":"Point"},"properties":{"osm_id":"5916607050","tag":{"amenity":"waste_basket"}},"type":"Feature"},
	{"geometry":{"coordinates":[7.184197,51.397328],"type":"Point"},"properties":{"osm_id":"5916607057","tag":{"amenity":"waste_basket"}},"type":"Feature"},
	{"geometry":{"coordinates":[7.181634,51.397617],"type":"Point"},"properties":{"osm_id":"5925692669","tag":{"amenity":"waste_basket","waste":"trash"}},"type":"Feature"},
	{"geometry":{"coordinates":[7.182563,51.39905],"type":"Point"},"properties":{"osm_id":"5925692679","tag":{"amenity":"waste_basket"}},"type":"Feature"},
	{"geometry":{"coordinates":[7.18387,51.398925],"type":"Point"},"properties":{"osm_id":"5925693287","tag":{"amenity":"waste_basket"}},"type":"Feature"},
	{"geometry":{"coordinates":[7.185012,51.399201],"type":"Point"},"properties":{"osm_id":"5925693298","tag":{"amenity":"waste_basket"}},"type":"Feature"},
	{"geometry":{"coordinates":[7.184771,51.39837],"type":"Point"},"properties":{"osm_id":"5925693347","tag":{"amenity":"waste_basket"}},"type":"Feature"},
	{"geometry":{"coordinates":[7.186454,51.387798],"type":"Point"},"properties":{"osm_id":"5955123293","tag":{"amenity":"waste_basket","waste":"trash"}},"type":"Feature"},
	{"geometry":{"coordinates":[7.181957,51.382879],"type":"Point"},"properties":{"osm_id":"5955123309","tag":{"amenity":"waste_basket","waste":"trash"}},"type":"Feature"},
	{"geometry":{"coordinates":[7.183197,51.384705],"type":"Point"},"properties":{"osm_id":"5955123313","tag":{"amenity":"waste_basket","waste":"trash"}},"type":"Feature"},
	{"geometry":{"coordinates":[7.184726,51.38575],"type":"Point"},"properties":{"osm_id":"5955123314","tag":{"amenity":"waste_basket","waste":"trash"}},"type":"Feature"},
	{"geometry":{"coordinates":[7.187553,51.388299],"type":"Point"},"properties":{"osm_id":"5955123315","tag":{"amenity":"waste_basket","waste":"trash"}},"type":"Feature"},
	{"geometry":{"coordinates":[7.188465,51.389379],"type":"Point"},"properties":{"osm_id":"5955123319","tag":{"amenity":"waste_basket","waste":"trash"}},"type":"Feature"},
	{"geometry":{"coordinates":[7.178434,51.377271],"type":"Point"},"properties":{"osm_id":"6001206857","tag":{"amenity":"waste_basket","waste":"trash"}},"type":"Feature"},
	{"geometry":{"coordinates":[7.187347,51.388984],"type":"Point"},"properties":{"osm_id":"6001232021","tag":{"amenity":"waste_basket","waste":"trash"}},"type":"Feature"},
	{"geometry":{"coordinates":[7.179496,51.383375],"type":"Point"},"properties":{"osm_id":"6001238202","tag":{"amenity":"waste_basket","waste":"trash"}},"type":"Feature"},
	{"geometry":{"coordinates":[7.140644,51.359954],"type":"Point"},"properties":{"osm_id":"6011017811","tag":{"amenity":"waste_basket"}},"type":"Feature"},
	{"geometry":{"coordinates":[7.140276,51.358472],"type":"Point"},"properties":{"osm_id":"6011017812","tag":{"amenity":"waste_basket"}},"type":"Feature"},
	{"geometry":{"coordinates":[7.139348,51.363729],"type":"Point"},"properties":{"osm_id":"6011019291","tag":{"amenity":"waste_basket"}},"type":"Feature"},
	{"geometry":{"coordinates":[7.132668,51.363589],"type":"Point"},"properties":{"osm_id":"6011027503","tag":{"amenity":"waste_basket"}},"type":"Feature"},
	{"geometry":{"coordinates":[7.137833,51.36367],"type":"Point"},"properties":{"osm_id":"6013010501","tag":{"amenity":"recycling","recycling:batteries":"yes","recycling:clothes":"yes","recycling:glass_bottles":"yes","recycling:paper":"yes","recycling_type":"container"}},"type":"Feature"},
	{"geometry":{"coordinates":[7.138743,51.364205],"type":"Point"},"properties":{"osm_id":"6013010503","tag":{"amenity":"waste_basket"}},"type":"Feature"},
	{"geometry":{"coordinates":[7.125146,51.349022],"type":"Point"},"properties":{"osm_id":"6013025758","tag":{"amenity":"waste_basket"}},"type":"Feature"},
	{"geometry":{"coordinates":[7.130426,51.36292],"type":"Point"},"properties":{"osm_id":"6019221233","tag":{"amenity":"waste_basket"}},"type":"Feature"},
	{"geometry":{"coordinates":[7.129738,51.362825],"type":"Point"},"properties":{"osm_id":"6019221234","tag":{"amenity":"waste_basket"}},"type":"Feature"},
	{"geometry":{"coordinates":[7.131971,51.362882],"type":"Point"},"properties":{"osm_id":"6019221235","tag":{"amenity":"waste_basket"}},"type":"Feature"},
	{"geometry":{"coordinates":[7.133152,51.3637],"type":"Point"},"properties":{"osm_id":"6019221249","tag":{"amenity":"waste_basket"}},"type":"Feature"},
	{"geometry":{"coordinates":[7.133047,51.363673],"type":"Point"},"properties":{"osm_id":"6019221250","tag":{"amenity":"waste_basket"}},"type":"Feature"},
	{"geometry":{"coordinates":[7.123944,51.349778],"type":"Point"},"properties":{"osm_id":"6031899734","tag":{"amenity":"recycling","recycling:batteries":"yes","recycling:glass":"yes","recycling:glass_bottles":"yes","recycling:paper":"yes","recycling_type":"container"}},"type":"Feature"},
	{"geometry":{"coordinates":[7.123148,51.349761],"type":"Point"},"properties":{"osm_id":"6031899735","tag":{"amenity":"waste_basket"}},"type":"Feature"},
	{"geometry":{"coordinates":[7.124566,51.348869],"type":"Point"},"properties":{"osm_id":"6031958754","tag":{"amenity":"waste_basket"}},"type":"Feature"},
	{"geometry":{"coordinates":[7.124509,51.349087],"type":"Point"},"properties":{"osm_id":"6031958755","tag":{"amenity":"waste_basket"}},"type":"Feature"},
	{"geometry":{"coordinates":[7.124844,51.349183],"type":"Point"},"properties":{"osm_id":"6031967390","tag":{"amenity":"waste_basket"}},"type":"Feature"},
	{"geometry":{"coordinates":[7.124772,51.348828],"type":"Point"},"properties":{"osm_id":"6031967392","tag":{"amenity":"waste_basket"}},"type":"Feature"},
	{"geometry":{"coordinates":[7.12295,51.35059],"type":"Point"},"properties":{"osm_id":"6032018928","tag":{"amenity":"waste_basket"}},"type":"Feature"},
	{"geometry":{"coordinates":[7.122697,51.351382],"type":"Point"},"properties":{"osm_id":"6032018929","tag":{"amenity":"waste_basket"}},"type":"Feature"},
	{"geometry":{"coordinates":[7.122698,51.351278],"type":"Point"},"properties":{"osm_id":"6032018930","tag":{"amenity":"waste_basket"}},"type":"Feature"},
	{"geometry":{"coordinates":[7.122926,51.351543],"type":"Point"},"properties":{"osm_id":"6032627847","tag":{"amenity":"waste_basket"}},"type":"Feature"},
	{"geometry":{"coordinates":[7.126161,51.362077],"type":"Point"},"properties":{"osm_id":"6037139286","tag":{"amenity":"recycling","recycling:clothes":"yes","recycling_type":"container"}},"type":"Feature"},
	{"geometry":{"coordinates":[7.12289,51.351261],"type":"Point"},"properties":{"osm_id":"6039759869","tag":{"amenity":"waste_basket"}},"type":"Feature"},
	{"geometry":{"coordinates":[7.122266,51.3519],"type":"Point"},"properties":{"osm_id":"6039767613","tag":{"amenity":"waste_basket"}},"type":"Feature"},
	{"geometry":{"coordinates":[7.170737,51.398375],"type":"Point"},"properties":{"osm_id":"6158872861","tag":{"amenity":"waste_basket","waste":"trash"}},"type":"Feature"},
	{"geometry":{"coordinates":[7.180881,51.396913],"type":"Point"},"properties":{"osm_id":"6403352415","tag":{"amenity":"waste_basket"}},"type":"Feature"},
	{"geometry":{"coordinates":[7.185235,51.396863],"type":"Point"},"properties":{"osm_id":"6403352422","tag":{"amenity":"waste_basket"}},"type":"Feature"},
	{"geometry":{"coordinates":[7.188553,51.390887],"type":"Point"},"properties":{"osm_id":"6418878072","tag":{"amenity":"recycling","operator":"Deutsches Rotes Kreuz","recycling:clothes":"yes","recycling:shoes":"yes","recycling_type":"container"}},"type":"Feature"},
	{"geometry":{"coordinates":[7.186856,51.396701],"type":"Point"},"properties":{"osm_id":"6418878088","tag":{"amenity":"waste_basket"}},"type":"Feature"},
	{"geometry":{"coordinates":[7.186902,51.396576],"type":"Point"},"properties":{"osm_id":"6418878090","tag":{"amenity":"waste_basket"}},"type":"Feature"},
	{"geometry":{"coordinates":[7.179099,51.389572],"type":"Point"},"properties":{"osm_id":"6421903127","tag":{"amenity":"waste_basket"}},"type":"Feature"},
	{"geometry":{"coordinates":[7.181575,51.395453],"type":"Point"},"properties":{"osm_id":"6421903149","tag":{"amenity":"waste_basket"}},"type":"Feature"},
	{"geometry":{"coordinates":[7.180363,51.39722],"type":"Point"},"properties":{"osm_id":"6421903152","tag":{"amenity":"waste_basket"}},"type":"Feature"},
	{"geometry":{"coordinates":[7.182028,51.398593],"type":"Point"},"properties":{"osm_id":"6421903153","tag":{"amenity":"waste_basket"}},"type":"Feature"},
	{"geometry":{"coordinates":[7.182261,51.398409],"type":"Point"},"properties":{"osm_id":"6421903154","tag":{"amenity":"waste_basket"}},"type":"Feature"},
	{"geometry":{"coordinates":[7.183187,51.398274],"type":"Point"},"properties":{"osm_id":"6421903155","tag":{"amenity":"waste_basket"}},"type":"Feature"},
	{"geometry":{"coordinates":[7.185804,51.397689],"type":"Point"},"properties":{"osm_id":"6421903171","tag":{"amenity":"waste_basket"}},"type":"Feature"},
	{"geometry":{"coordinates":[7.183571,51.396637],"type":"Point"},"properties":{"osm_id":"6421903179","tag":{"amenity":"waste_basket"}},"type":"Feature"},
	{"geometry":{"coordinates":[7.176315,51.388337],"type":"Point"},"properties":{"osm_id":"6440410217","tag":{"amenity":"recycling","location":"overground","recycling:clothes":"yes","recycling:glass_bottles":"yes","recycling:paper":"yes","recycling:shoes":"yes","recycling_type":"container"}},"type":"Feature"},
	{"geometry":{"coordinates":[7.176057,51.388431],"type":"Point"},"properties":{"osm_id":"6441149672","tag":{"amenity":"recycling","recycling:clothes":"yes","recycling:shoes":"yes","recycling_type":"container"}},"type":"Feature"},
	{"geometry":{"coordinates":[7.179224,51.388469],"type":"Point"},"properties":{"osm_id":"6441149998","tag":{"amenity":"waste_basket","waste":"trash"}},"type":"Feature"},
	{"geometry":{"coordinates":[7.181349,51.395622],"type":"Point"},"properties":{"osm_id":"6551643300","tag":{"amenity":"waste_basket"}},"type":"Feature"},
	{"geometry":{"coordinates":[7.181629,51.395369],"type":"Point"},"properties":{"osm_id":"6551643301","tag":{"amenity":"waste_basket"}},"type":"Feature"},
	{"geometry":{"coordinates":[7.176971,51.39084],"type":"Point"},"properties":{"osm_id":"6551643315","tag":{"amenity":"recycling","recycling:glass_bottles":"yes","recycling:paper":"yes","recycling_type":"container"}},"type":"Feature"},
	{"geometry":{"coordinates":[7.186589,51.397756],"type":"Point"},"properties":{"osm_id":"6551923433","tag":{"amenity":"waste_basket"}},"type":"Feature"},
	{"geometry":{"coordinates":[7.184114,51.397893],"type":"Point"},"properties":{"osm_id":"6551923442","tag":{"amenity":"waste_basket"}},"type":"Feature"},
	{"geometry":{"coordinates":[7.182071,51.399074],"type":"Point"},"properties":{"osm_id":"6551923450","tag":{"amenity":"waste_basket"}},"type":"Feature"},
	{"geometry":{"coordinates":[7.183049,51.399067],"type":"Point"},"properties":{"osm_id":"6551923452","tag":{"amenity":"waste_basket"}},"type":"Feature"},
	{"geometry":{"coordinates":[7.137437,51.372759],"type":"Point"},"properties":{"osm_id":"6565187213","tag":{"amenity":"waste_basket"}},"type":"Feature"},
	{"geometry":{"coordinates":[7.137171,51.372522],"type":"Point"},"properties":{"osm_id":"6565187214","tag":{"amenity":"waste_basket"}},"type":"Feature"},
	{"geometry":{"coordinates":[7.184083,51.389581],"type":"Point"},"properties":{"osm_id":"6566539673","tag":{"amenity":"waste_basket"}},"type":"Feature"},
	{"geometry":{"coordinates":[7.138039,51.372967],"type":"Point"},"properties":{"osm_id":"6566619092","tag":{"amenity":"recycling","recycling:batteries":"yes","recycling_type":"container"}},"type":"Feature"},
	{"geometry":{"coordinates":[7.18162,51.396789],"type":"Point"},"properties":{"osm_id":"6568788091","tag":{"amenity":"waste_basket"}},"type":"Feature"},
	{"geometry":{"coordinates":[7.181548,51.397469],"type":"Point"},"properties":{"osm_id":"6568788095","tag":{"amenity":"waste_basket"}},"type":"Feature"},
	{"geometry":{"coordinates":[7.119553,51.350743],"type":"Point"},"properties":{"osm_id":"6571212917","tag":{"amenity":"waste_basket"}},"type":"Feature"},
	{"geometry":{"coordinates":[7.120633,51.351499],"type":"Point"},"properties":{"osm_id":"6571212919","tag":{"amenity":"waste_basket"}},"type":"Feature"},
	{"geometry":{"coordinates":[7.122051,51.351937],"type":"Point"},"properties":{"osm_id":"6571212920","tag":{"amenity":"waste_basket"}},"type":"Feature"},
	{"geometry":{"coordinates":[7.184513,51.398847],"type":"Point"},"properties":{"osm_id":"6573317301","tag":{"amenity":"waste_basket"}},"type":"Feature"},
	{"geometry":{"coordinates":[7.184245,51.398783],"type":"Point"},"properties":{"osm_id":"6573317302","tag":{"amenity":"waste_basket"}},"type":"Feature"},
	{"geometry":{"coordinates":[7.193241,51.397996],"type":"Point"},"properties":{"osm_id":"6573317328","tag":{"amenity":"waste_basket"}},"type":"Feature"},
	{"geometry":{"coordinates":[7.180335,51.385501],"type":"Point"},"properties":{"osm_id":"6573317340","tag":{"amenity":"recycling","recycling:clothes":"yes","recycling:glass_bottles":"yes","recycling:paper":"yes","recycling_type":"container"}},"type":"Feature"},
	{"geometry":{"coordinates":[7.181147,51.385123],"type":"Point"},"properties":{"osm_id":"6573317341","tag":{"amenity":"waste_basket","waste":"trash"}},"type":"Feature"},
	{"geometry":{"coordinates":[7.146257,51.363734],"type":"Point"},"properties":{"osm_id":"6573361584","tag":{"amenity":"waste_basket"}},"type":"Feature"},
	{"geometry":{"coordinates":[7.156232,51.361729],"type":"Point"},"properties":{"osm_id":"6573374286","tag":{"amenity":"waste_basket"}},"type":"Feature"},
	{"geometry":{"coordinates":[7.163158,51.359724],"type":"Point"},"properties":{"osm_id":"6573374288","tag":{"amenity":"waste_basket"}},"type":"Feature"},
	{"geometry":{"coordinates":[7.169724,51.355932],"type":"Point"},"properties":{"osm_id":"6573409131","tag":{"amenity":"waste_basket"}},"type":"Feature"},
	{"geometry":{"coordinates":[7.19504,51.350488],"type":"Point"},"properties":{"osm_id":"6573409152","tag":{"amenity":"waste_basket"}},"type":"Feature"},
	{"geometry":{"coordinates":[7.135556,51.366536],"type":"Point"},"properties":{"osm_id":"6577080467","tag":{"amenity":"waste_basket"}},"type":"Feature"},
	{"geometry":{"coordinates":[7.136731,51.367987],"type":"Point"},"properties":{"osm_id":"6577080470","tag":{"amenity":"waste_basket"}},"type":"Feature"},
	{"geometry":{"coordinates":[7.137726,51.370572],"type":"Point"},"properties":{"osm_id":"6577080471","tag":{"amenity":"recycling","recycling:clothes":"yes","recycling:shoes":"yes","recycling_type":"container"}},"type":"Feature"},
	{"geometry":{"coordinates":[7.134195,51.372435],"type":"Point"},"properties":{"osm_id":"6577080475","tag":{"amenity":"waste_basket"}},"type":"Feature"},
	{"geometry":{"coordinates":[7.134385,51.372253],"type":"Point"},"properties":{"osm_id":"6577080476","tag":{"amenity":"waste_basket"}},"type":"Feature"},
	{"geometry":{"coordinates":[7.13417,51.372229],"type":"Point"},"properties":{"osm_id":"6577080478","tag":{"amenity":"waste_basket"}},"type":"Feature"},
	{"geometry":{"coordinates":[7.136203,51.373065],"type":"Point"},"properties":{"osm_id":"6577080480","tag":{"amenity":"waste_basket"}},"type":"Feature"},
	{"geometry":{"coordinates":[7.136741,51.373012],"type":"Point"},"properties":{"osm_id":"6577080483","tag":{"amenity":"waste_basket"}},"type":"Feature"},
	{"geometry":{"coordinates":[7.145104,51.373093],"type":"Point"},"properties":{"osm_id":"6577091587","tag":{"amenity":"waste_basket"}},"type":"Feature"},
	{"geometry":{"coordinates":[7.183956,51.39817],"type":"Point"},"properties":{"osm_id":"6581056741","tag":{"amenity":"waste_basket"}},"type":"Feature"},
	{"geometry":{"coordinates":[7.177442,51.397494],"type":"Point"},"properties":{"osm_id":"6588876638","tag":{"amenity":"waste_basket"}},"type":"Feature"},
	{"geometry":{"coordinates":[7.178261,51.39742],"type":"Point"},"properties":{"osm_id":"6588876642","tag":{"amenity":"waste_basket"}},"type":"Feature"},
	{"geometry":{"coordinates":[7.17941,51.397439],"type":"Point"},"properties":{"osm_id":"6588876643","tag":{"amenity":"waste_basket"}},"type":"Feature"},
	{"geometry":{"coordinates":[7.185709,51.396713],"type":"Point"},"properties":{"osm_id":"6588876664","tag":{"amenity":"waste_basket"}},"type":"Feature"},
	{"geometry":{"coordinates":[7.181063,51.396289],"type":"Point"},"properties":{"osm_id":"6588876665","tag":{"amenity":"waste_basket"}},"type":"Feature"},
	{"geometry":{"coordinates":[7.18145,51.395549],"type":"Point"},"properties":{"osm_id":"6592050489","tag":{"amenity":"waste_basket"}},"type":"Feature"},
	{"geometry":{"coordinates":[7.180864,51.395281],"type":"Point"},"properties":{"osm_id":"6592050496","tag":{"amenity":"waste_basket"}},"type":"Feature"},
	{"geometry":{"coordinates":[7.191051,51.398046],"type":"Point"},"properties":{"osm_id":"6596385571","tag":{"amenity":"waste_basket"}},"type":"Feature"},
	{"geometry":{"coordinates":[7.180136,51.398453],"type":"Point"},"properties":{"osm_id":"6596385575","tag":{"amenity":"recycling","recycling:clothes":"yes","recycling_type":"container"}},"type":"Feature"},
	{"geometry":{"coordinates":[7.17988,51.397972],"type":"Point"},"properties":{"osm_id":"6596385577","tag":{"amenity":"waste_basket","waste":"trash"}},"type":"Feature"},
	{"geometry":{"coordinates":[7.185728,51.397257],"type":"Point"},"properties":{"osm_id":"6596385584","tag":{"amenity":"waste_basket"}},"type":"Feature"},
	{"geometry":{"coordinates":[7.194644,51.3962],"type":"Point"},"properties":{"osm_id":"6596385629","tag":{"amenity":"recycling","recycling:clothes":"yes","recycling_type":"container"}},"type":"Feature"},
	{"geometry":{"coordinates":[7.169147,51.385208],"type":"Point"},"properties":{"osm_id":"6621673672","tag":{"amenity":"recycling","opening_hours":"Mo-Sa 07:00-20:00","recycling:glass_bottles":"yes","recycling:paper":"yes","recycling_type":"container"}},"type":"Feature"},
	{"geometry":{"coordinates":[7.169242,51.385162],"type":"Point"},"properties":{"osm_id":"6621673677","tag":{"amenity":"recycling","recycling:clothes":"yes","recycling_type":"container"}},"type":"Feature"},
	{"geometry":{"coordinates":[7.172644,51.384177],"type":"Point"},"properties":{"osm_id":"6621690685","tag":{"amenity":"waste_basket"}},"type":"Feature"},
	{"geometry":{"coordinates":[7.184676,51.390995],"type":"Point"},"properties":{"osm_id":"6627169763","tag":{"amenity":"recycling","recycling:shoes":"yes","recycling_type":"container"}},"type":"Feature"},
	{"geometry":{"coordinates":[7.188109,51.398196],"type":"Point"},"properties":{"osm_id":"6627262085","tag":{"amenity":"recycling","opening_hours":"Mo-Fr 07:00-20:00","recycling:glass_bottles":"yes","recycling:paper":"yes","recycling_type":"container"}},"type":"Feature"},
	{"geometry":{"coordinates":[7.186248,51.392491],"type":"Point"},"properties":{"osm_id":"6738274028","tag":{"amenity":"waste_basket","waste":"trash"}},"type":"Feature"},
	{"geometry":{"coordinates":[7.18133,51.397303],"type":"Point"},"properties":{"osm_id":"6744853343","tag":{"amenity":"waste_basket"}},"type":"Feature"},
	{"geometry":{"coordinates":[7.204878,51.390189],"type":"Point"},"properties":{"osm_id":"6744853367","tag":{"amenity":"waste_basket"}},"type":"Feature"},
	{"geometry":{"coordinates":[7.204618,51.37495],"type":"Point"},"properties":{"osm_id":"6744853376","tag":{"amenity":"recycling","recycling:clothes":"yes","recycling_type":"container"}},"type":"Feature"},
	{"geometry":{"coordinates":[7.198457,51.375244],"type":"Point"},"properties":{"osm_id":"6744853384","tag":{"amenity":"waste_basket"}},"type":"Feature"},
	{"geometry":{"coordinates":[7.196909,51.376376],"type":"Point"},"properties":{"osm_id":"6744864588","tag":{"amenity":"recycling","recycling:clothes":"yes","recycling:shoes":"yes","recycling_type":"container"}},"type":"Feature"},
	{"geometry":{"coordinates":[7.197579,51.376503],"type":"Point"},"properties":{"osm_id":"6744864590","tag":{"amenity":"recycling","recycling:clothes":"yes","recycling_type":"container"}},"type":"Feature"},
	{"geometry":{"coordinates":[7.197853,51.376353],"type":"Point"},"properties":{"osm_id":"6744864591","tag":{"amenity":"recycling","recycling:clothes":"yes","recycling:shoes":"yes","recycling_type":"container"}},"type":"Feature"},
	{"geometry":{"coordinates":[7.182225,51.39778],"type":"Point"},"properties":{"osm_id":"6762869023","tag":{"amenity":"waste_basket"}},"type":"Feature"},
	{"geometry":{"coordinates":[7.182246,51.397793],"type":"Point"},"properties":{"osm_id":"6762869024","tag":{"amenity":"waste_basket"}},"type":"Feature"},
	{"geometry":{"coordinates":[7.182761,51.397927],"type":"Point"},"properties":{"osm_id":"6762869025","tag":{"amenity":"waste_basket"}},"type":"Feature"},
	{"geometry":{"coordinates":[7.182787,51.397909],"type":"Point"},"properties":{"osm_id":"6762869026","tag":{"amenity":"waste_basket"}},"type":"Feature"},
	{"geometry":{"coordinates":[7.183268,51.397463],"type":"Point"},"properties":{"osm_id":"6762869027","tag":{"amenity":"waste_basket"}},"type":"Feature"},
	{"geometry":{"coordinates":[7.18453,51.391525],"type":"Point"},"properties":{"osm_id":"6767490590","tag":{"amenity":"waste_basket"}},"type":"Feature"},
	{"geometry":{"coordinates":[7.186247,51.393613],"type":"Point"},"properties":{"osm_id":"6767490591","tag":{"amenity":"recycling","recycling:clothes":"yes","recycling_type":"container"}},"type":"Feature"},
	{"geometry":{"coordinates":[7.186495,51.384912],"type":"Point"},"properties":{"osm_id":"6767490599","tag":{"amenity":"waste_basket"}},"type":"Feature"},
	{"geometry":{"coordinates":[7.178852,51.392507],"type":"Point"},"properties":{"osm_id":"6900689829","tag":{"amenity":"waste_basket"}},"type":"Feature"},
	{"geometry":{"coordinates":[7.179018,51.392512],"type":"Point"},"properties":{"osm_id":"6900689831","tag":{"amenity":"waste_basket"}},"type":"Feature"},
	{"geometry":{"coordinates":[7.180132,51.397162],"type":"Point"},"properties":{"osm_id":"7035936566","tag":{"amenity":"waste_basket"}},"type":"Feature"},
	{"geometry":{"coordinates":[7.181506,51.396493],"type":"Point"},"properties":{"osm_id":"7149414378","tag":{"amenity":"waste_basket"}},"type":"Feature"},
	{"geometry":{"coordinates":[7.185479,51.385716],"type":"Point"},"properties":{"osm_id":"7320129647","tag":{"amenity":"waste_basket","waste":"trash"}},"type":"Feature"},
	{"geometry":{"coordinates":[7.187863,51.388618],"type":"Point"},"properties":{"osm_id":"7320129651","tag":{"amenity":"waste_basket","waste":"trash"}},"type":"Feature"},
	{"geometry":{"coordinates":[7.162952,51.363434],"type":"Point"},"properties":{"osm_id":"7419971569","tag":{"amenity":"waste_basket"}},"type":"Feature"},
	{"geometry":{"coordinates":[7.1741,51.382238],"type":"Point"},"properties":{"osm_id":"7426205363","tag":{"amenity":"waste_basket"}},"type":"Feature"},
	{"geometry":{"coordinates":[7.185854,51.385018],"type":"Point"},"properties":{"osm_id":"7426590781","tag":{"amenity":"waste_basket"}},"type":"Feature"},
	{"geometry":{"coordinates":[7.189574,51.386806],"type":"Point"},"properties":{"osm_id":"7426649707","tag":{"amenity":"waste_basket"}},"type":"Feature"},
	{"geometry":{"coordinates":[7.190146,51.349885],"type":"Point"},"properties":{"osm_id":"7572512238","tag":{"amenity":"waste_basket"}},"type":"Feature"},
	{"geometry":{"coordinates":[7.192075,51.371503],"type":"Point"},"properties":{"osm_id":"7612993790","tag":{"amenity":"waste_basket"}},"type":"Feature"},
	{"geometry":{"coordinates":[7.197695,51.373187],"type":"Point"},"properties":{"osm_id":"7612994417","tag":{"amenity":"waste_basket"}},"type":"Feature"},
	{"geometry":{"coordinates":[7.147699,51.399045],"type":"Point"},"properties":{"osm_id":"7732170367","tag":{"amenity":"waste_basket"}},"type":"Feature"},
	{"geometry":{"coordinates":[7.153138,51.390963],"type":"Point"},"properties":{"osm_id":"7732170368","tag":{"amenity":"waste_basket"}},"type":"Feature"},
	{"geometry":{"coordinates":[7.179857,51.381194],"type":"Point"},"properties":{"osm_id":"7795841760","tag":{"amenity":"waste_basket"}},"type":"Feature"}
]
}
