{
"type": "FeatureCollection",
"features": [
	{"geometry":{"coordinates":[7.206416,51.292379],"type":"Point"},"properties":{"osm_id":"1538122639","tag":{"addr:city":"Wuppertal","addr:postcode":"42279","addr:street":"Marklandstra\u00c3\u009fe","amenity":"recycling","operator":"AWG","recycling:books":"yes","recycling:cardboard":"yes","recycling:cartons":"yes","recycling:magazines":"yes","recycling:newspaper":"yes","recycling:paper":"yes","recycling_type":"container"}},"type":"Feature"},
	{"geometry":{"coordinates":[7.206457,51.29241],"type":"Point"},"properties":{"osm_id":"1538122648","tag":{"addr:city":"Wuppertal","addr:postcode":"42279","addr:street":"Marklandstra\u00c3\u009fe","amenity":"recycling","operator":"AWG","recycling:clothes":"yes","recycling:glass_bottles":"yes","recycling:shoes":"yes","recycling:small_electrical_appliances":"yes","recycling_type":"container"}},"type":"Feature"},
	{"geometry":{"coordinates":[7.205312,51.297794],"type":"Point"},"properties":{"osm_id":"1720833596","tag":{"addr:city":"Wuppertal","addr:postcode":"42279","addr:street":"Dellbusch","amenity":"recycling","operator":"AWG","recycling:books":"yes","recycling:cardboard":"yes","recycling:cartons":"yes","recycling:clothes":"yes","recycling:glass_bottles":"yes","recycling:magazines":"yes","recycling:newspaper":"yes","recycling:paper":"yes","recycling:shoes":"yes","recycling:small_electrical_appliances":"yes","recycling_type":"container"}},"type":"Feature"},
	{"geometry":{"coordinates":[7.193023,51.293968],"type":"Point"},"properties":{"osm_id":"1726283609","tag":{"amenity":"recycling","operator":"AWG","recycling:books":"yes","recycling:cardboard":"yes","recycling:cartons":"yes","recycling:clothes":"no","recycling:glass_bottles":"yes","recycling:magazines":"yes","recycling:newspaper":"yes","recycling:paper":"yes","recycling:shoes":"no","recycling:small_electrical_appliances":"yes","recycling_type":"container"}},"type":"Feature"},
	{"geometry":{"coordinates":[7.180672,51.289975],"type":"Point"},"properties":{"osm_id":"2451929821","tag":{"amenity":"recycling","operator":"AWG","recycling:books":"yes","recycling:cardboard":"yes","recycling:cartons":"yes","recycling:clothes":"yes","recycling:glass_bottles":"yes","recycling:magazines":"yes","recycling:newspaper":"yes","recycling:paper":"yes","recycling:shoes":"yes","recycling:small_electrical_appliances":"yes","recycling_type":"container"}},"type":"Feature"},
	{"geometry":{"coordinates":[7.185737,51.292425],"type":"Point"},"properties":{"osm_id":"2471353188","tag":{"amenity":"recycling","operator":"AWG","recycling:books":"yes","recycling:cardboard":"yes","recycling:cartons":"yes","recycling:clothes":"yes","recycling:glass_bottles":"yes","recycling:magazines":"yes","recycling:newspaper":"yes","recycling:paper":"yes","recycling:shoes":"yes","recycling:small_electrical_appliances":"yes","recycling_type":"container"}},"type":"Feature"},
	{"geometry":{"coordinates":[7.166704,51.297742],"type":"Point"},"properties":{"osm_id":"2471353189","tag":{"amenity":"recycling","operator":"AWG","recycling:books":"yes","recycling:cardboard":"yes","recycling:cartons":"yes","recycling:clothes":"yes","recycling:glass_bottles":"yes","recycling:magazines":"yes","recycling:newspaper":"yes","recycling:paper":"yes","recycling:shoes":"yes","recycling:small_electrical_appliances":"yes","recycling_type":"container"}},"type":"Feature"},
	{"geometry":{"coordinates":[7.202354,51.290053],"type":"Point"},"properties":{"osm_id":"2962542465","tag":{"amenity":"recycling","recycling:glass_bottles":"yes","recycling:paper":"yes","recycling:small_appliances":"yes","recycling_type":"container"}},"type":"Feature"},
	{"geometry":{"coordinates":[7.201525,51.292445],"type":"Point"},"properties":{"osm_id":"2962542466","tag":{"amenity":"recycling","recycling:glass_bottles":"yes","recycling:paper":"yes","recycling:small_appliances":"yes","recycling_type":"container"}},"type":"Feature"},
	{"geometry":{"coordinates":[7.200252,51.294315],"type":"Point"},"properties":{"osm_id":"2975779474","tag":{"amenity":"recycling","recycling:clothes":"yes","recycling_type":"container"}},"type":"Feature"},
	{"geometry":{"coordinates":[7.160238,51.295445],"type":"Point"},"properties":{"osm_id":"4095672892","tag":{"amenity":"waste_basket"}},"type":"Feature"},
	{"geometry":{"coordinates":[7.160396,51.295688],"type":"Point"},"properties":{"osm_id":"4095672899","tag":{"amenity":"waste_basket"}},"type":"Feature"},
	{"geometry":{"coordinates":[7.160547,51.295748],"type":"Point"},"properties":{"osm_id":"4095672903","tag":{"amenity":"waste_basket"}},"type":"Feature"},
	{"geometry":{"coordinates":[7.160738,51.295964],"type":"Point"},"properties":{"osm_id":"4095672912","tag":{"amenity":"waste_basket"}},"type":"Feature"},
	{"geometry":{"coordinates":[7.161042,51.296175],"type":"Point"},"properties":{"osm_id":"4095672917","tag":{"amenity":"waste_basket"}},"type":"Feature"},
	{"geometry":{"coordinates":[7.153723,51.297852],"type":"Point"},"properties":{"osm_id":"4454777200","tag":{"amenity":"recycling","operator":"AWG","recycling:cardboard":"yes","recycling:cartons":"yes","recycling:clothes":"yes","recycling:glass_bottles":"yes","recycling:magazines":"yes","recycling:newspaper":"yes","recycling:paper":"yes","recycling:paper_packaging":"yes","recycling:shoes":"yes","recycling:small_electrical_appliances":"yes","recycling_type":"container"}},"type":"Feature"},
	{"geometry":{"coordinates":[7.202312,51.293843],"type":"Point"},"properties":{"osm_id":"5478811929","tag":{"amenity":"recycling","operator":"Abfallwirtschaftsgesellschaft Wuppertal","recycling:glass_bottles":"yes","recycling:paper":"yes","recycling:small_electrical_appliances":"yes","recycling_type":"container"}},"type":"Feature"},
	{"geometry":{"coordinates":[7.162642,51.299794],"type":"Point"},"properties":{"osm_id":"5698394828","tag":{"amenity":"recycling","operator":"Abfallwirtschaftsgesellschaft Wuppertal","recycling:glass_bottles":"yes","recycling:paper":"yes","recycling_type":"container"}},"type":"Feature"},
	{"geometry":{"coordinates":[7.136415,51.340606],"type":"Point"},"properties":{"osm_id":"6013020055","tag":{"amenity":"recycling","recycling:batteries":"yes","recycling:clothes":"yes","recycling:glass":"yes","recycling:glass_bottles":"yes","recycling:paper":"yes","recycling_type":"container"}},"type":"Feature"},
	{"geometry":{"coordinates":[7.136,51.341611],"type":"Point"},"properties":{"osm_id":"6013024016","tag":{"amenity":"waste_basket"}},"type":"Feature"},
	{"geometry":{"coordinates":[7.137166,51.343935],"type":"Point"},"properties":{"osm_id":"6013025066","tag":{"amenity":"waste_basket"}},"type":"Feature"},
	{"geometry":{"coordinates":[7.136007,51.343476],"type":"Point"},"properties":{"osm_id":"6013025067","tag":{"amenity":"waste_basket"}},"type":"Feature"},
	{"geometry":{"coordinates":[7.196546,51.293927],"type":"Point"},"properties":{"osm_id":"6013028983","tag":{"amenity":"waste_basket"}},"type":"Feature"},
	{"geometry":{"coordinates":[7.19654,51.294216],"type":"Point"},"properties":{"osm_id":"6037140753","tag":{"amenity":"recycling","recycling:clothes":"yes","recycling_type":"container"}},"type":"Feature"},
	{"geometry":{"coordinates":[7.175246,51.341066],"type":"Point"},"properties":{"osm_id":"7572477057","tag":{"amenity":"waste_basket"}},"type":"Feature"},
	{"geometry":{"coordinates":[7.18432,51.338906],"type":"Point"},"properties":{"osm_id":"7572534028","tag":{"amenity":"waste_basket"}},"type":"Feature"},
	{"geometry":{"coordinates":[7.1671,51.313801],"type":"Point"},"properties":{"osm_id":"8739392582","tag":{"amenity":"waste_basket"}},"type":"Feature"},
	{"geometry":{"coordinates":[7.16976,51.313709],"type":"Point"},"properties":{"osm_id":"8739392583","tag":{"amenity":"waste_basket"}},"type":"Feature"},
	{"geometry":{"coordinates":[7.175143,51.315159],"type":"Point"},"properties":{"osm_id":"8739392585","tag":{"amenity":"waste_basket"}},"type":"Feature"},
	{"geometry":{"coordinates":[7.167582,51.319516],"type":"Point"},"properties":{"osm_id":"8739435679","tag":{"amenity":"waste_basket"}},"type":"Feature"},
	{"geometry":{"coordinates":[7.166383,51.323798],"type":"Point"},"properties":{"osm_id":"8739435680","tag":{"amenity":"waste_basket"}},"type":"Feature"},
	{"geometry":{"coordinates":[7.203298,51.327156],"type":"Point"},"properties":{"osm_id":"8761245911","tag":{"amenity":"waste_basket","material":"metal","waste":"trash"}},"type":"Feature"},
	{"geometry":{"coordinates":[7.200965,51.326787],"type":"Point"},"properties":{"osm_id":"8761268513","tag":{"amenity":"waste_basket","material":"metal","waste":"trash"}},"type":"Feature"},
	{"geometry":{"coordinates":[7.203721,51.327101],"type":"Point"},"properties":{"osm_id":"8761270176","tag":{"amenity":"waste_basket","material":"metal","waste":"trash"}},"type":"Feature"},
	{"geometry":{"coordinates":[7.202998,51.327161],"type":"Point"},"properties":{"osm_id":"8761278178","tag":{"amenity":"waste_basket","material":"metal","waste":"trash"}},"type":"Feature"},
	{"geometry":{"coordinates":[7.203512,51.32715],"type":"Point"},"properties":{"osm_id":"8761310413","tag":{"amenity":"waste_basket","material":"metal","waste":"trash"}},"type":"Feature"},
	{"geometry":{"coordinates":[7.201517,51.327004],"type":"Point"},"properties":{"osm_id":"8761342521","tag":{"amenity":"waste_basket","material":"metal","waste":"trash"}},"type":"Feature"},
	{"geometry":{"coordinates":[7.201341,51.326935],"type":"Point"},"properties":{"osm_id":"8761352547","tag":{"amenity":"waste_basket","material":"metal","waste":"trash"}},"type":"Feature"}
]
}
