{
"type": "FeatureCollection",
"features": [
	{"geometry":{"coordinates":[7.194807,51.186499],"type":"Point"},"properties":{"osm_id":"201674100","tag":{"amenity":"recycling"}},"type":"Feature"},
	{"geometry":{"coordinates":[7.14099,51.209115],"type":"Point"},"properties":{"osm_id":"421986715","tag":{"amenity":"recycling","check_date":"2018-01-15","operator":"Abfallwirtschaftsgesellschaft Wuppertal","recycling:clothes":"yes","recycling:glass_bottles":"yes","recycling:paper":"yes","recycling:small_electrical_appliances":"yes","recycling_type":"container"}},"type":"Feature"},
	{"geometry":{"coordinates":[7.134638,51.205194],"type":"Point"},"properties":{"osm_id":"421986717","tag":{"amenity":"recycling","operator":"AWG","recycling:books":"yes","recycling:cardboard":"yes","recycling:cartons":"yes","recycling:clothes":"fixme","recycling:glass_bottles":"yes","recycling:magazines":"yes","recycling:newspaper":"yes","recycling:paper":"yes","recycling:shoes":"fixme","recycling:small_electrical_appliances":"yes","recycling_type":"container"}},"type":"Feature"},
	{"geometry":{"coordinates":[7.197346,51.21061],"type":"Point"},"properties":{"osm_id":"425089078","tag":{"amenity":"recycling","recycling:clothes":"yes"}},"type":"Feature"},
	{"geometry":{"coordinates":[7.147903,51.231324],"type":"Point"},"properties":{"osm_id":"650611458","tag":{"amenity":"recycling","material":"metal","operator":"Abfallwirtschaftsgesellschaft Wuppertal","operator:short":"AWG","recycling:cardboard":"yes","recycling:cartons":"yes","recycling:magazines":"yes","recycling:newspaper":"yes","recycling:paper":"yes","recycling:paper_packaging":"yes","recycling_type":"container"}},"type":"Feature"},
	{"geometry":{"coordinates":[7.144567,51.233513],"type":"Point"},"properties":{"osm_id":"729909582","tag":{"amenity":"recycling","operator":"Abfallwirtschaftsgesellschaft Wuppertal","operator:abbr":"AWG","recycling:cardboard":"yes","recycling:cartons":"yes","recycling:clothes":"no","recycling:glass_bottles":"yes","recycling:magazines":"yes","recycling:newspaper":"yes","recycling:paper":"yes","recycling:paper_packaging":"yes","recycling:shoes":"no","recycling:small_electrical_appliances":"yes","recycling_type":"container"}},"type":"Feature"},
	{"geometry":{"coordinates":[7.191983,51.181143],"type":"Point"},"properties":{"osm_id":"1210379755","tag":{"amenity":"recycling","recycling:paper":"yes","recycling_type":"container"}},"type":"Feature"},
	{"geometry":{"coordinates":[7.190856,51.232982],"type":"Point"},"properties":{"osm_id":"1241594254","tag":{"amenity":"waste_basket"}},"type":"Feature"},
	{"geometry":{"coordinates":[7.191102,51.233397],"type":"Point"},"properties":{"osm_id":"1241594269","tag":{"amenity":"waste_basket"}},"type":"Feature"},
	{"geometry":{"coordinates":[7.192102,51.232593],"type":"Point"},"properties":{"osm_id":"1241594350","tag":{"amenity":"waste_basket"}},"type":"Feature"},
	{"geometry":{"coordinates":[7.190959,51.233108],"type":"Point"},"properties":{"osm_id":"1241594363","tag":{"amenity":"waste_basket"}},"type":"Feature"},
	{"geometry":{"coordinates":[7.151057,51.221896],"type":"Point"},"properties":{"osm_id":"1578319760","tag":{"amenity":"recycling","operator":"AWG","recycling:batteries":"no","recycling:books":"no","recycling:cans":"no","recycling:cardboard":"yes","recycling:cartons":"yes","recycling:clothes":"yes","recycling:electrical_appliances":"no","recycling:glass_bottles":"yes","recycling:green_waste":"no","recycling:magazines":"yes","recycling:newspaper":"yes","recycling:paper":"yes","recycling:paper_packaging":"yes","recycling:plastic":"no","recycling:plastic_bottles":"no","recycling:plastic_packaging":"no","recycling:scrap_metal":"no","recycling:shoes":"yes","recycling:small_appliances":"no","recycling:small_electrical_appliances":"yes","recycling:waste":"no","recycling:wood":"no","recycling_type":"container"}},"type":"Feature"},
	{"geometry":{"coordinates":[7.150473,51.229713],"type":"Point"},"properties":{"osm_id":"1578320977","tag":{"amenity":"recycling","operator":"AWG","recycling:batteries":"no","recycling:books":"no","recycling:cans":"no","recycling:cardboard":"yes","recycling:cartons":"yes","recycling:clothes":"no","recycling:electrical_appliances":"no","recycling:glass_bottles":"yes","recycling:green_waste":"no","recycling:magazines":"yes","recycling:newspaper":"yes","recycling:paper":"yes","recycling:paper_packaging":"yes","recycling:plastic":"no","recycling:plastic_bottles":"no","recycling:plastic_packaging":"no","recycling:scrap_metal":"no","recycling:small_appliances":"no","recycling:small_electrical_appliances":"yes","recycling:waste":"no","recycling:wood":"no","recycling_type":"container"}},"type":"Feature"},
	{"geometry":{"coordinates":[7.142965,51.229668],"type":"Point"},"properties":{"osm_id":"1578321335","tag":{"amenity":"recycling","operator":"AWG","recycling:batteries":"no","recycling:books":"yes","recycling:cans":"no","recycling:cardboard":"yes","recycling:cartons":"yes","recycling:clothes":"yes","recycling:electrical_appliances":"no","recycling:glass_bottles":"yes","recycling:green_waste":"no","recycling:magazines":"yes","recycling:newspaper":"yes","recycling:paper":"yes","recycling:plastic":"no","recycling:plastic_bottles":"no","recycling:plastic_packaging":"no","recycling:scrap_metal":"no","recycling:shoes":"yes","recycling:small_electrical_appliances":"yes","recycling:waste":"no","recycling:wood":"no","recycling_type":"container"}},"type":"Feature"},
	{"geometry":{"coordinates":[7.203168,51.180573],"type":"Point"},"properties":{"osm_id":"1711866738","tag":{"amenity":"recycling","recycling:clothes":"yes","recycling:shoes":"yes","recycling_type":"container"}},"type":"Feature"},
	{"geometry":{"coordinates":[7.168137,51.184415],"type":"Point"},"properties":{"osm_id":"1718408903","tag":{"amenity":"recycling","operator":"AWISTA LOGISTIK","recycling:glass":"yes","recycling_type":"container"}},"type":"Feature"},
	{"geometry":{"coordinates":[7.16535,51.197429],"type":"Point"},"properties":{"osm_id":"1718408914","tag":{"amenity":"recycling"}},"type":"Feature"},
	{"geometry":{"coordinates":[7.168426,51.184371],"type":"Point"},"properties":{"osm_id":"1718408920","tag":{"amenity":"recycling","operator":"Technische Betriebe Remscheid","recycling:cardboard":"yes","recycling:paper":"yes","recycling_type":"container"}},"type":"Feature"},
	{"geometry":{"coordinates":[7.188596,51.185256],"type":"Point"},"properties":{"osm_id":"1845819744","tag":{"amenity":"recycling","recycling:books":"yes","recycling:cardboard":"yes","recycling:cartons":"yes","recycling:magazines":"yes","recycling:newspaper":"yes","recycling:paper":"yes","recycling:paper_packaging":"yes","recycling_type":"container"}},"type":"Feature"},
	{"geometry":{"coordinates":[7.197154,51.184998],"type":"Point"},"properties":{"osm_id":"1846174173","tag":{"amenity":"recycling","operator":"Technische Betriebe Remscheid","recycling:books":"yes","recycling:cardboard":"yes","recycling:cartons":"yes","recycling:glass_bottles":"yes","recycling:magazines":"yes","recycling:newspaper":"yes","recycling:paper":"yes","recycling:paper_packaging":"yes","recycling_type":"container"}},"type":"Feature"},
	{"geometry":{"coordinates":[7.200621,51.21367],"type":"Point"},"properties":{"osm_id":"2035451712","tag":{"amenity":"recycling","operator":"Abfallwirtschaftsgesellschaft Wuppertal","recycling:cartons":"yes","recycling:glass_bottles":"yes","recycling:paper":"yes","recycling:small_electrical_appliances":"yes","recycling_type":"container"}},"type":"Feature"},
	{"geometry":{"coordinates":[7.205521,51.216451],"type":"Point"},"properties":{"osm_id":"2035453043","tag":{"amenity":"recycling","operator":"AWG","recycling:books":"yes","recycling:cardboard":"yes","recycling:cartons":"yes","recycling:clothes":"yes","recycling:glass_bottles":"yes","recycling:magazines":"yes","recycling:newspaper":"yes","recycling:paper":"yes","recycling:shoes":"yes","recycling:small_electrical_appliances":"yes","recycling_type":"container"}},"type":"Feature"},
	{"geometry":{"coordinates":[7.129586,51.227591],"type":"Point"},"properties":{"osm_id":"2071425935","tag":{"amenity":"recycling","operator":"AWG","recycling:batteries":"no","recycling:cans":"no","recycling:cardboard":"yes","recycling:cartons":"yes","recycling:clothes":"no","recycling:electrical_appliances":"no","recycling:glass_bottles":"yes","recycling:green_waste":"no","recycling:magazines":"yes","recycling:newspaper":"yes","recycling:paper":"yes","recycling:plastic":"no","recycling:plastic_bottles":"no","recycling:plastic_packaging":"no","recycling:scrap_metal":"no","recycling:small_electrical_appliances":"yes","recycling:waste":"no","recycling:wood":"no","recycling_type":"container"}},"type":"Feature"},
	{"geometry":{"coordinates":[7.15378,51.208066],"type":"Point"},"properties":{"osm_id":"2575447762","tag":{"amenity":"waste_basket"}},"type":"Feature"},
	{"geometry":{"coordinates":[7.154191,51.209492],"type":"Point"},"properties":{"osm_id":"2575451034","tag":{"amenity":"recycling","recycling:glass":"yes","recycling:paper":"yes","recycling_type":"container"}},"type":"Feature"},
	{"geometry":{"coordinates":[7.138212,51.184929],"type":"Point"},"properties":{"osm_id":"2575495773","tag":{"amenity":"recycling","operator":"AWG","recycling:cardboard":"yes","recycling:cartons":"yes","recycling:glass_bottles":"yes","recycling:magazines":"yes","recycling:newspaper":"yes","recycling:paper":"yes","recycling:small_electrical_appliances":"yes","recycling_type":"container"}},"type":"Feature"},
	{"geometry":{"coordinates":[7.190307,51.183668],"type":"Point"},"properties":{"osm_id":"2826984459","tag":{"amenity":"recycling","operator":"Technische Betriebe Remscheid","recycling:cardboard":"yes","recycling:paper":"yes","recycling_type":"container"}},"type":"Feature"},
	{"geometry":{"coordinates":[7.186089,51.180401],"type":"Point"},"properties":{"osm_id":"2846387215","tag":{"amenity":"recycling","operator":"Technische Betriebe Remscheid","recycling:cardboard":"yes","recycling:paper":"yes","recycling_type":"container"}},"type":"Feature"},
	{"geometry":{"coordinates":[7.141273,51.204044],"type":"Point"},"properties":{"osm_id":"3054019942","tag":{"amenity":"recycling","operator":"AWG","recycling:books":"yes","recycling:cardboard":"yes","recycling:cartons":"yes","recycling:glass_bottles":"yes","recycling:magazines":"yes","recycling:newspaper":"yes","recycling:paper":"yes","recycling:small_electrical_appliances":"yes","recycling_type":"container"}},"type":"Feature"},
	{"geometry":{"coordinates":[7.129546,51.206984],"type":"Point"},"properties":{"osm_id":"3065238815","tag":{"amenity":"waste_basket"}},"type":"Feature"},
	{"geometry":{"coordinates":[7.129676,51.206992],"type":"Point"},"properties":{"osm_id":"3065238816","tag":{"amenity":"waste_basket"}},"type":"Feature"},
	{"geometry":{"coordinates":[7.129679,51.207122],"type":"Point"},"properties":{"osm_id":"3065238822","tag":{"amenity":"waste_basket"}},"type":"Feature"},
	{"geometry":{"coordinates":[7.142395,51.211787],"type":"Point"},"properties":{"osm_id":"3065362826","tag":{"amenity":"waste_basket"}},"type":"Feature"},
	{"geometry":{"coordinates":[7.192026,51.181142],"type":"Point"},"properties":{"osm_id":"3148867654","tag":{"amenity":"recycling","recycling:glass":"yes","recycling_type":"container"}},"type":"Feature"},
	{"geometry":{"coordinates":[7.192005,51.181142],"type":"Point"},"properties":{"osm_id":"3148867655","tag":{"amenity":"recycling","recycling:glass":"yes","recycling_type":"container"}},"type":"Feature"},
	{"geometry":{"coordinates":[7.19196,51.181143],"type":"Point"},"properties":{"osm_id":"3148867656","tag":{"amenity":"recycling","recycling:paper":"yes","recycling_type":"container"}},"type":"Feature"},
	{"geometry":{"coordinates":[7.186457,51.18381],"type":"Point"},"properties":{"osm_id":"3148867657","tag":{"amenity":"recycling","recycling:cans":"no","recycling:clothes":"yes","recycling_type":"container"}},"type":"Feature"},
	{"geometry":{"coordinates":[7.186443,51.183818],"type":"Point"},"properties":{"osm_id":"3148867658","tag":{"amenity":"recycling","recycling:cans":"no","recycling:clothes":"yes","recycling_type":"container"}},"type":"Feature"},
	{"geometry":{"coordinates":[7.191298,51.186323],"type":"Point"},"properties":{"osm_id":"3148867659","tag":{"amenity":"recycling","recycling:glass":"yes","recycling_type":"container"}},"type":"Feature"},
	{"geometry":{"coordinates":[7.191321,51.186359],"type":"Point"},"properties":{"osm_id":"3148867661","tag":{"amenity":"recycling","recycling:glass":"yes","recycling_type":"container"}},"type":"Feature"},
	{"geometry":{"coordinates":[7.191245,51.186349],"type":"Point"},"properties":{"osm_id":"3148867662","tag":{"amenity":"recycling","recycling:cardboard":"yes","recycling:paper":"yes","recycling_type":"container"}},"type":"Feature"},
	{"geometry":{"coordinates":[7.191306,51.186335],"type":"Point"},"properties":{"osm_id":"3148867663","tag":{"amenity":"recycling","recycling:glass":"yes","recycling_type":"container"}},"type":"Feature"},
	{"geometry":{"coordinates":[7.191279,51.186346],"type":"Point"},"properties":{"osm_id":"3148867665","tag":{"amenity":"recycling","recycling:cardboard":"yes","recycling:paper":"yes","recycling_type":"container"}},"type":"Feature"},
	{"geometry":{"coordinates":[7.191314,51.186348],"type":"Point"},"properties":{"osm_id":"3148867666","tag":{"amenity":"recycling","recycling:glass":"yes","recycling_type":"container"}},"type":"Feature"},
	{"geometry":{"coordinates":[7.19117,51.186421],"type":"Point"},"properties":{"osm_id":"3148867668","tag":{"amenity":"recycling","recycling:clothes":"yes","recycling_type":"container"}},"type":"Feature"},
	{"geometry":{"coordinates":[7.191175,51.186431],"type":"Point"},"properties":{"osm_id":"3148867669","tag":{"amenity":"recycling","recycling:clothes":"yes","recycling_type":"container"}},"type":"Feature"},
	{"geometry":{"coordinates":[7.19118,51.186439],"type":"Point"},"properties":{"osm_id":"3148867670","tag":{"amenity":"recycling","recycling:clothes":"yes","recycling_type":"container"}},"type":"Feature"},
	{"geometry":{"coordinates":[7.191254,51.18636],"type":"Point"},"properties":{"osm_id":"3151085631","tag":{"amenity":"recycling","recycling:small_appliances":"yes","recycling_type":"container"}},"type":"Feature"},
	{"geometry":{"coordinates":[7.197742,51.182438],"type":"Point"},"properties":{"osm_id":"3158322526","tag":{"amenity":"recycling","operator":"Technische Betriebe Remscheid","recycling:clothes":"yes","recycling:shoes":"yes","recycling_type":"container"}},"type":"Feature"},
	{"geometry":{"coordinates":[7.197715,51.182446],"type":"Point"},"properties":{"osm_id":"3158322527","tag":{"amenity":"recycling","operator":"Technische Betriebe Remscheid","recycling:cardboard":"yes","recycling:paper":"yes","recycling_type":"container"}},"type":"Feature"},
	{"geometry":{"coordinates":[7.197693,51.182452],"type":"Point"},"properties":{"osm_id":"3158322528","tag":{"amenity":"recycling","operator":"Technische Betriebe Remscheid","recycling:cardboard":"yes","recycling:paper":"yes","recycling_type":"container"}},"type":"Feature"},
	{"geometry":{"coordinates":[7.197676,51.182457],"type":"Point"},"properties":{"osm_id":"3158322529","tag":{"amenity":"recycling","operator":"AWISTA LOGISTIK","recycling:glass":"yes","recycling_type":"container"}},"type":"Feature"},
	{"geometry":{"coordinates":[7.197658,51.182462],"type":"Point"},"properties":{"osm_id":"3158322530","tag":{"amenity":"recycling","operator":"AWISTA LOGISTIK","recycling:glass":"yes","recycling_type":"container"}},"type":"Feature"},
	{"geometry":{"coordinates":[7.197633,51.182468],"type":"Point"},"properties":{"osm_id":"3158322531","tag":{"amenity":"recycling","operator":"AWISTA LOGISTIK","recycling:glass":"yes","recycling_type":"container"}},"type":"Feature"},
	{"geometry":{"coordinates":[7.193709,51.183183],"type":"Point"},"properties":{"osm_id":"3158322547","tag":{"amenity":"recycling","operator":"ReSales Textilhandels- und Erfassung GmbH","recycling:clothes":"yes","recycling:shoes":"yes","recycling_type":"container"}},"type":"Feature"},
	{"geometry":{"coordinates":[7.190323,51.183657],"type":"Point"},"properties":{"osm_id":"3158322552","tag":{"amenity":"recycling","operator":"Technische Betriebe Remscheid","recycling:clothes":"yes","recycling:shoes":"yes","recycling_type":"container"}},"type":"Feature"},
	{"geometry":{"coordinates":[7.190291,51.183679],"type":"Point"},"properties":{"osm_id":"3158322553","tag":{"amenity":"recycling","operator":"Technische Betriebe Remscheid","recycling:cardboard":"yes","recycling:paper":"yes","recycling_type":"container"}},"type":"Feature"},
	{"geometry":{"coordinates":[7.190275,51.183689],"type":"Point"},"properties":{"osm_id":"3158322554","tag":{"amenity":"recycling","operator":"AWISTA LOGISTIK","recycling:glass":"yes","recycling_type":"container"}},"type":"Feature"},
	{"geometry":{"coordinates":[7.190257,51.183702],"type":"Point"},"properties":{"osm_id":"3158322555","tag":{"amenity":"recycling","operator":"AWISTA LOGISTIK","recycling:glass":"yes","recycling_type":"container"}},"type":"Feature"},
	{"geometry":{"coordinates":[7.190234,51.183717],"type":"Point"},"properties":{"osm_id":"3158322556","tag":{"amenity":"recycling","operator":"AWISTA LOGISTIK","recycling:glass":"yes","recycling_type":"container"}},"type":"Feature"},
	{"geometry":{"coordinates":[7.185659,51.1794],"type":"Point"},"properties":{"osm_id":"3172542450","tag":{"amenity":"recycling","operator":"Technische Betriebe Remscheid","recycling:cardboard":"yes","recycling:paper":"yes","recycling_type":"container"}},"type":"Feature"},
	{"geometry":{"coordinates":[7.186148,51.180391],"type":"Point"},"properties":{"osm_id":"3172542451","tag":{"amenity":"recycling","operator":"Technische Betriebe Remscheid","recycling:clothes":"yes","recycling:shoes":"yes","recycling_type":"container"}},"type":"Feature"},
	{"geometry":{"coordinates":[7.186115,51.180397],"type":"Point"},"properties":{"osm_id":"3172542452","tag":{"amenity":"recycling","operator":"Technische Betriebe Remscheid","recycling:cardboard":"yes","recycling:paper":"yes","recycling_type":"container"}},"type":"Feature"},
	{"geometry":{"coordinates":[7.186049,51.180408],"type":"Point"},"properties":{"osm_id":"3172542453","tag":{"amenity":"recycling","operator":"AWISTA LOGISTIK","recycling:glass":"yes","recycling_type":"container"}},"type":"Feature"},
	{"geometry":{"coordinates":[7.186018,51.180414],"type":"Point"},"properties":{"osm_id":"3172542454","tag":{"amenity":"recycling","operator":"AWISTA LOGISTIK","recycling:glass":"yes","recycling_type":"container"}},"type":"Feature"},
	{"geometry":{"coordinates":[7.185987,51.18042],"type":"Point"},"properties":{"osm_id":"3172542455","tag":{"amenity":"recycling","operator":"AWISTA LOGISTIK","recycling:glass":"yes","recycling_type":"container"}},"type":"Feature"},
	{"geometry":{"coordinates":[7.181485,51.223464],"type":"Point"},"properties":{"osm_id":"3177863065","tag":{"amenity":"waste_basket"}},"type":"Feature"},
	{"geometry":{"coordinates":[7.184313,51.224477],"type":"Point"},"properties":{"osm_id":"3188141053","tag":{"amenity":"waste_basket"}},"type":"Feature"},
	{"geometry":{"coordinates":[7.202561,51.179552],"type":"Point"},"properties":{"osm_id":"3188334030","tag":{"amenity":"recycling","operator":"Technische Betriebe Remscheid","recycling:clothes":"yes","recycling:shoes":"yes","recycling_type":"container"}},"type":"Feature"},
	{"geometry":{"coordinates":[7.202542,51.179576],"type":"Point"},"properties":{"osm_id":"3188334031","tag":{"amenity":"recycling","operator":"AWISTA LOGISTIK","recycling:glass":"yes","recycling_type":"container"}},"type":"Feature"},
	{"geometry":{"coordinates":[7.202532,51.179588],"type":"Point"},"properties":{"osm_id":"3188334032","tag":{"amenity":"recycling","operator":"AWISTA LOGISTIK","recycling:glass":"yes","recycling_type":"container"}},"type":"Feature"},
	{"geometry":{"coordinates":[7.202522,51.1796],"type":"Point"},"properties":{"osm_id":"3188334033","tag":{"amenity":"recycling","operator":"AWISTA LOGISTIK","recycling:glass":"yes","recycling_type":"container"}},"type":"Feature"},
	{"geometry":{"coordinates":[7.202513,51.179612],"type":"Point"},"properties":{"osm_id":"3188334034","tag":{"amenity":"recycling","operator":"AWISTA LOGISTIK","recycling:glass":"yes","recycling_type":"container"}},"type":"Feature"},
	{"geometry":{"coordinates":[7.202496,51.17964],"type":"Point"},"properties":{"osm_id":"3188334035","tag":{"amenity":"recycling","operator":"Technische Betriebe Remscheid","recycling:cardboard":"yes","recycling:paper":"yes","recycling_type":"container"}},"type":"Feature"},
	{"geometry":{"coordinates":[7.202483,51.179659],"type":"Point"},"properties":{"osm_id":"3188334036","tag":{"amenity":"recycling","operator":"Technische Betriebe Remscheid","recycling:cardboard":"yes","recycling:paper":"yes","recycling_type":"container"}},"type":"Feature"},
	{"geometry":{"coordinates":[7.203105,51.18041],"type":"Point"},"properties":{"osm_id":"3188334037","tag":{"amenity":"recycling","operator":"AWISTA LOGISTIK","recycling:glass":"yes","recycling_type":"container"}},"type":"Feature"},
	{"geometry":{"coordinates":[7.203113,51.180435],"type":"Point"},"properties":{"osm_id":"3188334038","tag":{"amenity":"recycling","operator":"AWISTA LOGISTIK","recycling:glass":"yes","recycling_type":"container"}},"type":"Feature"},
	{"geometry":{"coordinates":[7.203121,51.180461],"type":"Point"},"properties":{"osm_id":"3188334039","tag":{"amenity":"recycling","operator":"AWISTA LOGISTIK","recycling:glass":"yes","recycling_type":"container"}},"type":"Feature"},
	{"geometry":{"coordinates":[7.203136,51.180495],"type":"Point"},"properties":{"osm_id":"3188334040","tag":{"amenity":"recycling","operator":"Technische Betriebe Remscheid","recycling:cardboard":"yes","recycling:paper":"yes","recycling_type":"container"}},"type":"Feature"},
	{"geometry":{"coordinates":[7.203144,51.18052],"type":"Point"},"properties":{"osm_id":"3188334041","tag":{"amenity":"recycling","operator":"Technische Betriebe Remscheid","recycling:cardboard":"yes","recycling:paper":"yes","recycling_type":"container"}},"type":"Feature"},
	{"geometry":{"coordinates":[7.203153,51.180545],"type":"Point"},"properties":{"osm_id":"3188334042","tag":{"amenity":"recycling","operator":"Technische Betriebe Remscheid","recycling:cardboard":"yes","recycling:paper":"yes","recycling_type":"container"}},"type":"Feature"},
	{"geometry":{"coordinates":[7.205604,51.181817],"type":"Point"},"properties":{"osm_id":"3188334045","tag":{"amenity":"recycling","recycling:clothes":"yes","recycling:shoes":"yes","recycling_type":"container"}},"type":"Feature"},
	{"geometry":{"coordinates":[7.179012,51.181452],"type":"Point"},"properties":{"osm_id":"3209490806","tag":{"amenity":"recycling","operator":"Technische Betriebe Remscheid","recycling:small_appliances":"yes","recycling_type":"container"}},"type":"Feature"},
	{"geometry":{"coordinates":[7.179259,51.181393],"type":"Point"},"properties":{"osm_id":"3209490807","tag":{"amenity":"recycling","operator":"Technische Betriebe Remscheid","recycling:cardboard":"yes","recycling:paper":"yes","recycling_type":"container"}},"type":"Feature"},
	{"geometry":{"coordinates":[7.179238,51.181408],"type":"Point"},"properties":{"osm_id":"3209490808","tag":{"amenity":"recycling","operator":"AWISTA LOGISTIK","recycling:glass":"yes","recycling_type":"container"}},"type":"Feature"},
	{"geometry":{"coordinates":[7.179216,51.181424],"type":"Point"},"properties":{"osm_id":"3209490809","tag":{"amenity":"recycling","operator":"AWISTA LOGISTIK","recycling:glass":"yes","recycling_type":"container"}},"type":"Feature"},
	{"geometry":{"coordinates":[7.191268,51.186331],"type":"Point"},"properties":{"osm_id":"3250598128","tag":{"amenity":"recycling","recycling:cardboard":"yes","recycling:paper":"yes","recycling_type":"container"}},"type":"Feature"},
	{"geometry":{"coordinates":[7.191236,51.186337],"type":"Point"},"properties":{"osm_id":"3250598129","tag":{"amenity":"recycling","recycling:cardboard":"yes","recycling:paper":"yes","recycling_type":"container"}},"type":"Feature"},
	{"geometry":{"coordinates":[7.191289,51.186358],"type":"Point"},"properties":{"osm_id":"3250598130","tag":{"amenity":"recycling","recycling:cardboard":"yes","recycling:paper":"yes","recycling_type":"container"}},"type":"Feature"},
	{"geometry":{"coordinates":[7.183054,51.181782],"type":"Point"},"properties":{"osm_id":"3386529320","tag":{"amenity":"recycling","recycling:cardboard":"yes","recycling:paper":"yes","recycling_type":"container"}},"type":"Feature"},
	{"geometry":{"coordinates":[7.172031,51.183874],"type":"Point"},"properties":{"osm_id":"3455904775","tag":{"amenity":"recycling","operator":"AWISTA LOGISTIK","recycling:glass":"yes","recycling_type":"container"}},"type":"Feature"},
	{"geometry":{"coordinates":[7.172036,51.183886],"type":"Point"},"properties":{"osm_id":"3455904776","tag":{"amenity":"recycling","operator":"AWISTA LOGISTIK","recycling:glass":"yes","recycling_type":"container"}},"type":"Feature"},
	{"geometry":{"coordinates":[7.17204,51.183897],"type":"Point"},"properties":{"osm_id":"3455904777","tag":{"amenity":"recycling","operator":"Technische Betriebe Remscheid","recycling:paper":"yes","recycling_type":"container"}},"type":"Feature"},
	{"geometry":{"coordinates":[7.172045,51.183909],"type":"Point"},"properties":{"osm_id":"3455904778","tag":{"amenity":"recycling","operator":"Technische Betriebe Remscheid","recycling:paper":"yes","recycling_type":"container"}},"type":"Feature"},
	{"geometry":{"coordinates":[7.172049,51.183921],"type":"Point"},"properties":{"osm_id":"3455904779","tag":{"amenity":"recycling","operator":"Technische Betriebe Remscheid","recycling:small_appliances":"yes","recycling_type":"container"}},"type":"Feature"},
	{"geometry":{"coordinates":[7.168603,51.184334],"type":"Point"},"properties":{"osm_id":"3455904780","tag":{"amenity":"recycling","operator":"Technische Betriebe Remscheid","recycling:cardboard":"yes","recycling:paper":"yes","recycling_type":"container"}},"type":"Feature"},
	{"geometry":{"coordinates":[7.168577,51.184339],"type":"Point"},"properties":{"osm_id":"3455904781","tag":{"amenity":"recycling","operator":"Technische Betriebe Remscheid","recycling:cardboard":"yes","recycling:paper":"yes","recycling_type":"container"}},"type":"Feature"},
	{"geometry":{"coordinates":[7.168552,51.184345],"type":"Point"},"properties":{"osm_id":"3455904782","tag":{"amenity":"recycling","operator":"Technische Betriebe Remscheid","recycling:cardboard":"yes","recycling:paper":"yes","recycling_type":"container"}},"type":"Feature"},
	{"geometry":{"coordinates":[7.168527,51.18435],"type":"Point"},"properties":{"osm_id":"3455904783","tag":{"amenity":"recycling","operator":"Technische Betriebe Remscheid","recycling:cardboard":"yes","recycling:paper":"yes","recycling_type":"container"}},"type":"Feature"},
	{"geometry":{"coordinates":[7.168501,51.184355],"type":"Point"},"properties":{"osm_id":"3455904784","tag":{"amenity":"recycling","operator":"Technische Betriebe Remscheid","recycling:cardboard":"yes","recycling:paper":"yes","recycling_type":"container"}},"type":"Feature"},
	{"geometry":{"coordinates":[7.168476,51.184361],"type":"Point"},"properties":{"osm_id":"3455904785","tag":{"amenity":"recycling","operator":"Technische Betriebe Remscheid","recycling:cardboard":"yes","recycling:paper":"yes","recycling_type":"container"}},"type":"Feature"},
	{"geometry":{"coordinates":[7.168451,51.184366],"type":"Point"},"properties":{"osm_id":"3455904786","tag":{"amenity":"recycling","operator":"Technische Betriebe Remscheid","recycling:cardboard":"yes","recycling:paper":"yes","recycling_type":"container"}},"type":"Feature"},
	{"geometry":{"coordinates":[7.168227,51.184395],"type":"Point"},"properties":{"osm_id":"3455904787","tag":{"amenity":"recycling","operator":"AWISTA LOGISTIK","recycling:glass":"yes","recycling_type":"container"}},"type":"Feature"},
	{"geometry":{"coordinates":[7.168205,51.1844],"type":"Point"},"properties":{"osm_id":"3455904788","tag":{"amenity":"recycling","operator":"AWISTA LOGISTIK","recycling:glass":"yes","recycling_type":"container"}},"type":"Feature"},
	{"geometry":{"coordinates":[7.168182,51.184405],"type":"Point"},"properties":{"osm_id":"3455904789","tag":{"amenity":"recycling","operator":"AWISTA LOGISTIK","recycling:glass":"yes","recycling_type":"container"}},"type":"Feature"},
	{"geometry":{"coordinates":[7.16816,51.18441],"type":"Point"},"properties":{"osm_id":"3455904790","tag":{"amenity":"recycling","operator":"AWISTA LOGISTIK","recycling:glass":"yes","recycling_type":"container"}},"type":"Feature"},
	{"geometry":{"coordinates":[7.168768,51.184427],"type":"Point"},"properties":{"osm_id":"3455904791","tag":{"amenity":"recycling","recycling:clothes":"yes","recycling:shoes":"yes","recycling_type":"container"}},"type":"Feature"},
	{"geometry":{"coordinates":[7.196185,51.220184],"type":"Point"},"properties":{"osm_id":"4453081762","tag":{"amenity":"recycling","operator":"Abfallwirtschaftsgesellschaft Wuppertal","recycling:cardboard":"yes","recycling:cartons":"yes","recycling:clothes":"no","recycling:glass_bottles":"yes","recycling:magazines":"yes","recycling:newspaper":"yes","recycling:paper":"yes","recycling:shoes":"no","recycling:small_electrical_appliances":"no","recycling_type":"container"}},"type":"Feature"},
	{"geometry":{"coordinates":[7.195153,51.223334],"type":"Point"},"properties":{"osm_id":"4453115457","tag":{"amenity":"recycling","operator":"AWG","recycling:cardboard":"yes","recycling:cartons":"yes","recycling:clothes":"no","recycling:glass_bottles":"yes","recycling:magazines":"yes","recycling:newspaper":"yes","recycling:paper":"yes","recycling:shoes":"no","recycling:small_electrical_appliances":"yes","recycling_type":"container"}},"type":"Feature"},
	{"geometry":{"coordinates":[7.131307,51.196014],"type":"Point"},"properties":{"osm_id":"4453547747","tag":{"amenity":"recycling","operator":"AWG","recycling:books":"yes","recycling:cardboard":"yes","recycling:cartons":"yes","recycling:clothes":"yes","recycling:glass_bottles":"yes","recycling:magazines":"yes","recycling:newspaper":"yes","recycling:paper":"yes","recycling:shoes":"yes","recycling:small_electrical_appliances":"yes","recycling_type":"container"}},"type":"Feature"},
	{"geometry":{"coordinates":[7.154191,51.217172],"type":"Point"},"properties":{"osm_id":"4453552727","tag":{"amenity":"recycling","material":"metal","operator":"Abfallwirtschaftsgesellschaft Wuppertal","operator:short":"AWG","recycling:books":"yes","recycling:cardboard":"yes","recycling:cartons":"yes","recycling:magazines":"yes","recycling:newspaper":"yes","recycling:paper":"yes","recycling_type":"container"}},"type":"Feature"},
	{"geometry":{"coordinates":[7.146824,51.215465],"type":"Point"},"properties":{"osm_id":"4453554222","tag":{"amenity":"recycling","operator":"AWG","recycling:books":"yes","recycling:cardboard":"yes","recycling:cartons":"yes","recycling:glass_bottles":"yes","recycling:magazines":"yes","recycling:newspaper":"yes","recycling:paper":"yes","recycling:small_electrical_appliances":"yes","recycling_type":"container"}},"type":"Feature"},
	{"geometry":{"coordinates":[7.128004,51.193836],"type":"Point"},"properties":{"osm_id":"4453555668","tag":{"amenity":"recycling","operator":"AWG","recycling:books":"yes","recycling:cardboard":"yes","recycling:cartons":"yes","recycling:clothes":"yes","recycling:glass_bottles":"yes","recycling:magazines":"yes","recycling:newspaper":"yes","recycling:paper":"yes","recycling:shoes":"yes","recycling:small_electrical_appliances":"yes","recycling_type":"container"}},"type":"Feature"},
	{"geometry":{"coordinates":[7.154522,51.213447],"type":"Point"},"properties":{"osm_id":"4453557209","tag":{"amenity":"recycling","operator":"AWG","recycling:books":"yes","recycling:cardboard":"yes","recycling:cartons":"yes","recycling:glass_bottles":"yes","recycling:magazines":"yes","recycling:newspaper":"yes","recycling:paper":"yes","recycling:small_electrical_appliances":"yes","recycling_type":"container"}},"type":"Feature"},
	{"geometry":{"coordinates":[7.172187,51.179833],"type":"Point"},"properties":{"osm_id":"4744212980","tag":{"amenity":"recycling","recycling:cardboard":"yes","recycling:glass":"yes","recycling:paper":"yes","recycling_type":"container"}},"type":"Feature"},
	{"geometry":{"coordinates":[7.187736,51.180938],"type":"Point"},"properties":{"highway":"street_lamp","osm_id":"5034505904","tag":{"amenity":"waste_basket"}},"type":"Feature"},
	{"geometry":{"coordinates":[7.188148,51.180876],"type":"Point"},"properties":{"highway":"street_lamp","osm_id":"5034505906","tag":{"amenity":"waste_basket"}},"type":"Feature"},
	{"geometry":{"coordinates":[7.187322,51.180998],"type":"Point"},"properties":{"highway":"street_lamp","osm_id":"5034505907","tag":{"amenity":"waste_basket"}},"type":"Feature"},
	{"geometry":{"coordinates":[7.188788,51.180704],"type":"Point"},"properties":{"highway":"street_lamp","osm_id":"5034505908","tag":{"amenity":"waste_basket"}},"type":"Feature"},
	{"geometry":{"coordinates":[7.186436,51.181124],"type":"Point"},"properties":{"highway":"street_lamp","osm_id":"5034505909","tag":{"amenity":"waste_basket"}},"type":"Feature"},
	{"geometry":{"coordinates":[7.187909,51.18084],"type":"Point"},"properties":{"highway":"street_lamp","osm_id":"5034505910","tag":{"amenity":"waste_basket"}},"type":"Feature"},
	{"geometry":{"coordinates":[7.186945,51.181108],"type":"Point"},"properties":{"highway":"street_lamp","osm_id":"5034505911","tag":{"amenity":"waste_basket"}},"type":"Feature"},
	{"geometry":{"coordinates":[7.187497,51.180894],"type":"Point"},"properties":{"highway":"street_lamp","osm_id":"5034505913","tag":{"amenity":"waste_basket"}},"type":"Feature"},
	{"geometry":{"coordinates":[7.186435,51.180959],"type":"Point"},"properties":{"highway":"street_lamp","osm_id":"5034505915","tag":{"amenity":"waste_basket"}},"type":"Feature"},
	{"geometry":{"coordinates":[7.187075,51.180949],"type":"Point"},"properties":{"highway":"street_lamp","osm_id":"5034505917","tag":{"amenity":"waste_basket"}},"type":"Feature"},
	{"geometry":{"coordinates":[7.188582,51.180773],"type":"Point"},"properties":{"highway":"street_lamp","osm_id":"5034505918","tag":{"amenity":"waste_basket"}},"type":"Feature"},
	{"geometry":{"coordinates":[7.187379,51.229698],"type":"Point"},"properties":{"osm_id":"5091522122","tag":{"amenity":"recycling","operator":"AWG","recycling:clothes":"no","recycling:glass_bottles":"yes","recycling:paper":"yes","recycling:shoes":"no","recycling:small_electrical_appliances":"yes","recycling_type":"container"}},"type":"Feature"},
	{"geometry":{"coordinates":[7.129827,51.205359],"type":"Point"},"properties":{"osm_id":"5286241022","tag":{"amenity":"waste_basket","ashtray":"yes"}},"type":"Feature"},
	{"geometry":{"coordinates":[7.130016,51.204749],"type":"Point"},"properties":{"osm_id":"5286241033","tag":{"amenity":"recycling","check_date":"2017-12-15","operator":"AWG","recycling:clothes":"no","recycling:glass_bottles":"yes","recycling:paper":"yes","recycling:shoes":"no","recycling:small_electrical_appliances":"yes","recycling_type":"container"}},"type":"Feature"},
	{"geometry":{"coordinates":[7.129721,51.205049],"type":"Point"},"properties":{"osm_id":"5286241035","tag":{"amenity":"waste_basket","ashtray":"yes"}},"type":"Feature"},
	{"geometry":{"coordinates":[7.129539,51.205311],"type":"Point"},"properties":{"osm_id":"5286241041","tag":{"amenity":"waste_basket","ashtray":"yes"}},"type":"Feature"},
	{"geometry":{"coordinates":[7.130137,51.205582],"type":"Point"},"properties":{"osm_id":"5286241046","tag":{"amenity":"waste_basket"}},"type":"Feature"},
	{"geometry":{"coordinates":[7.130303,51.205478],"type":"Point"},"properties":{"osm_id":"5286241049","tag":{"amenity":"waste_basket","ashtray":"yes"}},"type":"Feature"},
	{"geometry":{"coordinates":[7.142681,51.229926],"type":"Point"},"properties":{"osm_id":"5286315223","tag":{"amenity":"waste_basket"}},"type":"Feature"},
	{"geometry":{"coordinates":[7.143077,51.230092],"type":"Point"},"properties":{"osm_id":"5286315227","tag":{"amenity":"waste_basket"}},"type":"Feature"},
	{"geometry":{"coordinates":[7.143345,51.230152],"type":"Point"},"properties":{"osm_id":"5286315228","tag":{"amenity":"waste_basket","support":"pole"}},"type":"Feature"},
	{"geometry":{"coordinates":[7.157186,51.206265],"type":"Point"},"properties":{"osm_id":"5291738243","tag":{"amenity":"recycling","operator":"AWG","recycling:glass_bottles":"yes","recycling:paper":"yes","recycling_type":"container"}},"type":"Feature"},
	{"geometry":{"coordinates":[7.194534,51.217999],"type":"Point"},"properties":{"osm_id":"5379065618","tag":{"amenity":"recycling","check_date":"2018-02-20","operator":"Abfallwirtschaftsgesellschaft Wuppertal","recycling:clothes":"no","recycling:glass_bottles":"yes","recycling:paper":"yes","recycling:shoes":"no","recycling:small_electrical_appliances":"yes","recycling_type":"container"}},"type":"Feature"},
	{"geometry":{"coordinates":[7.196423,51.227772],"type":"Point"},"properties":{"osm_id":"5426763949","tag":{"amenity":"waste_basket","ashtray":"yes","check_date":"2018-02-21"}},"type":"Feature"},
	{"geometry":{"coordinates":[7.141489,51.229581],"type":"Point"},"properties":{"osm_id":"5549864363","tag":{"amenity":"waste_basket"}},"type":"Feature"},
	{"geometry":{"coordinates":[7.130723,51.190829],"type":"Point"},"properties":{"osm_id":"6269003595","tag":{"amenity":"recycling","recycling:cartons":"yes","recycling:electrical_appliances":"yes","recycling:glass":"yes","recycling:glass_bottles":"yes","recycling:paper_packaging":"yes","recycling_type":"container"}},"type":"Feature"},
	{"geometry":{"coordinates":[7.132407,51.206694],"type":"Point"},"properties":{"osm_id":"6391590699","tag":{"amenity":"waste_basket"}},"type":"Feature"},
	{"geometry":{"coordinates":[7.129896,51.20709],"type":"Point"},"properties":{"osm_id":"6430928461","tag":{"amenity":"waste_basket","support":"pole"}},"type":"Feature"},
	{"geometry":{"coordinates":[7.130047,51.207194],"type":"Point"},"properties":{"osm_id":"6430928462","tag":{"amenity":"waste_basket"}},"type":"Feature"},
	{"geometry":{"coordinates":[7.132501,51.228275],"type":"Point"},"properties":{"osm_id":"6446583629","tag":{"amenity":"waste_basket","material":"metal"}},"type":"Feature"},
	{"geometry":{"coordinates":[7.200683,51.226151],"type":"Point"},"properties":{"osm_id":"6700815665","tag":{"amenity":"waste_basket","material":"metal"}},"type":"Feature"},
	{"geometry":{"coordinates":[7.199407,51.223981],"type":"Point"},"properties":{"osm_id":"6847867679","tag":{"amenity":"recycling","recycling:glass":"yes","recycling:small_electrical_appliances":"yes","recycling_type":"container"}},"type":"Feature"},
	{"geometry":{"coordinates":[7.199314,51.224332],"type":"Point"},"properties":{"osm_id":"7075544514","tag":{"amenity":"waste_basket"}},"type":"Feature"},
	{"geometry":{"coordinates":[7.187987,51.21955],"type":"Point"},"properties":{"osm_id":"7533322944","tag":{"amenity":"waste_basket"}},"type":"Feature"},
	{"geometry":{"coordinates":[7.188667,51.2203],"type":"Point"},"properties":{"osm_id":"7533334214","tag":{"amenity":"waste_basket"}},"type":"Feature"},
	{"geometry":{"coordinates":[7.179071,51.216685],"type":"Point"},"properties":{"osm_id":"7533508736","tag":{"amenity":"waste_basket"}},"type":"Feature"},
	{"geometry":{"coordinates":[7.184207,51.222965],"type":"Point"},"properties":{"osm_id":"7533653891","tag":{"amenity":"waste_basket"}},"type":"Feature"},
	{"geometry":{"coordinates":[7.190632,51.220759],"type":"Point"},"properties":{"osm_id":"7533660389","tag":{"amenity":"waste_basket"}},"type":"Feature"},
	{"geometry":{"coordinates":[7.182612,51.183525],"type":"Point"},"properties":{"osm_id":"7623253307","tag":{"amenity":"recycling","material":"metal","opening_hours":"Mo-Sa 07:00-20:00; Su,PH off","recycling:glass_bottles":"yes","recycling_type":"container"}},"type":"Feature"},
	{"geometry":{"coordinates":[7.178937,51.186018],"type":"Point"},"properties":{"osm_id":"7623253310","tag":{"amenity":"recycling","material":"metal","opening_hours":"Mo-Sa 07:00-20:00; Su,PH off","recycling:glass_bottles":"yes","recycling_type":"container"}},"type":"Feature"},
	{"geometry":{"coordinates":[7.178975,51.185962],"type":"Point"},"properties":{"osm_id":"7623253311","tag":{"amenity":"recycling","material":"metal","recycling:cardboard":"yes","recycling:paper":"yes","recycling_type":"container"}},"type":"Feature"},
	{"geometry":{"coordinates":[7.154208,51.217209],"type":"Point"},"properties":{"osm_id":"7710530270","tag":{"amenity":"recycling","material":"metal","opening_hours":"Mo-Sa 07:00-20:00; Su,PH off","operator":"Abfallwirtschaftsgesellschaft Wuppertal","operator:short":"AWG","recycling:glass_bottles":"yes","recycling_type":"container"}},"type":"Feature"},
	{"geometry":{"coordinates":[7.147853,51.231315],"type":"Point"},"properties":{"osm_id":"7710687029","tag":{"amenity":"recycling","material":"metal","opening_hours":"Mo-Sa 07:00-20:00; Su,PH off","operator":"Abfallwirtschaftsgesellschaft Wuppertal","operator:short":"AWG","recycling:glass_bottles":"yes","recycling_type":"container"}},"type":"Feature"}
]
}
