{
"type": "FeatureCollection",
"features": [
	{"geometry":{"coordinates":[7.190458,51.175638],"type":"Point"},"properties":{"osm_id":"358168024","tag":{"amenity":"recycling","operator":"Technische Betriebe Remscheid","recycling:cardboard":"yes","recycling:paper":"yes","recycling_type":"container"}},"type":"Feature"},
	{"geometry":{"coordinates":[7.20363,51.127848],"type":"Point"},"properties":{"osm_id":"520650757","tag":{"amenity":"recycling","location":"overground","recycling:glass":"yes","recycling_type":"container"}},"type":"Feature"},
	{"geometry":{"coordinates":[7.202246,51.132777],"type":"Point"},"properties":{"osm_id":"1205651274","tag":{"amenity":"recycling","recycling:clothes":"yes","recycling_type":"container","source:position":"Bing Aerial Map"}},"type":"Feature"},
	{"geometry":{"coordinates":[7.161521,51.176357],"type":"Point"},"properties":{"osm_id":"1365817072","tag":{"amenity":"recycling","designation":"Wertstoffhof","opening_hours":"Mo,We,Th 08:00-15:45; Tu 08:00-17:45; Fr 08:00-11:45; Sa 08:00-13:45","recycling:batteries":"yes","recycling:cardboard":"yes","recycling:drugs":"yes","recycling:electrical_items":"yes","recycling:fluorescent_tubes":"yes","recycling:glass":"yes","recycling:green_waste":"yes","recycling:hardcore":"yes","recycling:paint":"yes","recycling:paper":"yes","recycling:scrap_metal":"yes","recycling:small_appliances":"yes","recycling:tyres":"yes","recycling:waste":"yes","recycling:waste_oil":"yes","recycling:wood":"yes","recycling_type":"centre","website":"https://www.tbr-info.de/wertstoffhof.html"}},"type":"Feature"},
	{"geometry":{"coordinates":[7.182801,51.16145],"type":"Point"},"properties":{"osm_id":"1710399877","tag":{"amenity":"recycling","operator":"Malteser","recycling:clothes":"yes","recycling:shoes":"yes","recycling_type":"container"}},"type":"Feature"},
	{"geometry":{"coordinates":[7.18767,51.178875],"type":"Point"},"properties":{"osm_id":"1711866740","tag":{"amenity":"recycling","operator":"AWISTA LOGISTIK","recycling:glass":"yes","recycling_type":"container"}},"type":"Feature"},
	{"geometry":{"coordinates":[7.205417,51.167101],"type":"Point"},"properties":{"osm_id":"2619478469","tag":{"amenity":"recycling","material":"metal","recycling:cardboard":"yes","recycling:paper":"yes","recycling_type":"container"}},"type":"Feature"},
	{"geometry":{"coordinates":[7.196524,51.178697],"type":"Point"},"properties":{"osm_id":"3070702101","tag":{"amenity":"recycling","recycling:glass":"yes","recycling_type":"container"}},"type":"Feature"},
	{"geometry":{"coordinates":[7.202649,51.170306],"type":"Point"},"properties":{"osm_id":"3151085618","tag":{"amenity":"recycling","operator":"Technische Betriebe Remscheid","recycling:paper":"yes","recycling_type":"container"}},"type":"Feature"},
	{"geometry":{"coordinates":[7.202518,51.172969],"type":"Point"},"properties":{"osm_id":"3151085619","tag":{"amenity":"recycling","operator":"Technische Betriebe Remscheid","recycling:paper":"yes","recycling_type":"container"}},"type":"Feature"},
	{"geometry":{"coordinates":[7.2025,51.172984],"type":"Point"},"properties":{"osm_id":"3151085620","tag":{"amenity":"recycling","operator":"Technische Betriebe Remscheid","recycling:paper":"yes","recycling_type":"container"}},"type":"Feature"},
	{"geometry":{"coordinates":[7.202483,51.172997],"type":"Point"},"properties":{"osm_id":"3151085621","tag":{"amenity":"recycling","operator":"AWISTA LOGISTIK","recycling:glass":"yes","recycling_type":"container"}},"type":"Feature"},
	{"geometry":{"coordinates":[7.202466,51.173011],"type":"Point"},"properties":{"osm_id":"3151085622","tag":{"amenity":"recycling","operator":"AWISTA LOGISTIK","recycling:glass":"yes","recycling_type":"container"}},"type":"Feature"},
	{"geometry":{"coordinates":[7.197081,51.178581],"type":"Point"},"properties":{"osm_id":"3151085623","tag":{"amenity":"recycling","operator":"Technische Betriebe Remscheid","recycling:paper":"yes","recycling_type":"container"}},"type":"Feature"},
	{"geometry":{"coordinates":[7.197173,51.178583],"type":"Point"},"properties":{"osm_id":"3151085624","tag":{"amenity":"recycling","opening_hours":"Mo-Sa 07:00-20:00","operator":"Technische Betriebe Remscheid","recycling:small_appliances":"yes","recycling_type":"container"}},"type":"Feature"},
	{"geometry":{"coordinates":[7.197078,51.178598],"type":"Point"},"properties":{"osm_id":"3151085625","tag":{"amenity":"recycling","operator":"AWISTA LOGISTIK","recycling:glass":"yes","recycling_type":"container"}},"type":"Feature"},
	{"geometry":{"coordinates":[7.197075,51.178614],"type":"Point"},"properties":{"osm_id":"3151085626","tag":{"amenity":"recycling","operator":"AWISTA LOGISTIK","recycling:glass":"yes","recycling_type":"container"}},"type":"Feature"},
	{"geometry":{"coordinates":[7.197172,51.178614],"type":"Point"},"properties":{"osm_id":"3151085627","tag":{"amenity":"recycling","operator":"Technische Betriebe Remscheid","recycling:paper":"yes","recycling_type":"container"}},"type":"Feature"},
	{"geometry":{"coordinates":[7.196553,51.178704],"type":"Point"},"properties":{"osm_id":"3151085628","tag":{"amenity":"recycling","recycling:glass":"yes","recycling_type":"container"}},"type":"Feature"},
	{"geometry":{"coordinates":[7.196584,51.178712],"type":"Point"},"properties":{"osm_id":"3151085629","tag":{"amenity":"recycling","recycling:paper":"yes","recycling_type":"container"}},"type":"Feature"},
	{"geometry":{"coordinates":[7.196614,51.178719],"type":"Point"},"properties":{"osm_id":"3151085630","tag":{"amenity":"recycling","recycling:paper":"yes","recycling_type":"container"}},"type":"Feature"},
	{"geometry":{"coordinates":[7.190472,51.175555],"type":"Point"},"properties":{"osm_id":"3170252430","tag":{"amenity":"recycling","operator":"AWISTA LOGISTIK","recycling:glass_bottles":"yes","recycling_type":"container"}},"type":"Feature"},
	{"geometry":{"coordinates":[7.19047,51.175567],"type":"Point"},"properties":{"osm_id":"3170252431","tag":{"amenity":"recycling","operator":"AWISTA LOGISTIK","recycling:glass_bottles":"yes","recycling_type":"container"}},"type":"Feature"},
	{"geometry":{"coordinates":[7.190467,51.175584],"type":"Point"},"properties":{"osm_id":"3170252432","tag":{"amenity":"recycling","operator":"AWISTA LOGISTIK","recycling:glass_bottles":"yes","recycling_type":"container"}},"type":"Feature"},
	{"geometry":{"coordinates":[7.190461,51.175618],"type":"Point"},"properties":{"osm_id":"3170252433","tag":{"amenity":"recycling","operator":"Technische Betriebe Remscheid","recycling:cardboard":"yes","recycling:paper":"yes","recycling_type":"container"}},"type":"Feature"},
	{"geometry":{"coordinates":[7.184331,51.178805],"type":"Point"},"properties":{"osm_id":"3172542444","tag":{"amenity":"recycling","operator":"Technische Betriebe Remscheid;AWISTA LOGISTIK","recycling:cardboard":"yes","recycling:glass":"yes","recycling:paper":"yes","recycling_type":"container"}},"type":"Feature"},
	{"geometry":{"coordinates":[7.184388,51.178772],"type":"Point"},"properties":{"osm_id":"3172542445","tag":{"amenity":"recycling","operator":"Technische Betriebe Remscheid","recycling:cardboard":"yes","recycling:paper":"yes","recycling_type":"container"}},"type":"Feature"},
	{"geometry":{"coordinates":[7.184373,51.178805],"type":"Point"},"properties":{"osm_id":"3172542446","tag":{"amenity":"recycling","operator":"AWISTA LOGISTIK","recycling:glass":"yes","recycling_type":"container"}},"type":"Feature"},
	{"geometry":{"coordinates":[7.184414,51.178806],"type":"Point"},"properties":{"osm_id":"3172542447","tag":{"amenity":"recycling","operator":"AWISTA LOGISTIK","recycling:glass":"yes","recycling_type":"container"}},"type":"Feature"},
	{"geometry":{"coordinates":[7.187684,51.178854],"type":"Point"},"properties":{"osm_id":"3172542448","tag":{"amenity":"recycling","operator":"Technische Betriebe Remscheid","recycling:cardboard":"yes","recycling:paper":"yes","recycling_type":"container"}},"type":"Feature"},
	{"geometry":{"coordinates":[7.187705,51.178875],"type":"Point"},"properties":{"osm_id":"3172542449","tag":{"amenity":"recycling","operator":"AWISTA LOGISTIK","recycling:glass":"yes","recycling_type":"container"}},"type":"Feature"},
	{"geometry":{"coordinates":[7.200749,51.166539],"type":"Point"},"properties":{"osm_id":"3176892000","tag":{"amenity":"recycling","operator":"Malteser","recycling:clothes":"yes","recycling:shoes":"yes","recycling_type":"container"}},"type":"Feature"},
	{"geometry":{"coordinates":[7.200766,51.166544],"type":"Point"},"properties":{"osm_id":"3176892001","tag":{"amenity":"recycling","operator":"Technische Betriebe Remscheid","recycling:clothes":"yes","recycling:shoes":"yes","recycling_type":"container"}},"type":"Feature"},
	{"geometry":{"coordinates":[7.200782,51.166549],"type":"Point"},"properties":{"osm_id":"3176892002","tag":{"amenity":"recycling","operator":"Technische Betriebe Remscheid","recycling:clothes":"yes","recycling:shoes":"yes","recycling_type":"container"}},"type":"Feature"},
	{"geometry":{"coordinates":[7.200725,51.166586],"type":"Point"},"properties":{"osm_id":"3176892003","tag":{"amenity":"recycling","operator":"Technische Betriebe Remscheid","recycling:cardboard":"yes","recycling:paper":"yes","recycling_type":"container"}},"type":"Feature"},
	{"geometry":{"coordinates":[7.200747,51.166592],"type":"Point"},"properties":{"osm_id":"3176892004","tag":{"amenity":"recycling","operator":"Technische Betriebe Remscheid","recycling:cardboard":"yes","recycling:paper":"yes","recycling_type":"container"}},"type":"Feature"},
	{"geometry":{"coordinates":[7.200768,51.1666],"type":"Point"},"properties":{"osm_id":"3176892005","tag":{"amenity":"recycling","operator":"Technische Betriebe Remscheid","recycling:cardboard":"yes","recycling:paper":"yes","recycling_type":"container"}},"type":"Feature"},
	{"geometry":{"coordinates":[7.200786,51.166604],"type":"Point"},"properties":{"osm_id":"3176892006","tag":{"amenity":"recycling","operator":"Technische Betriebe Remscheid","recycling:cardboard":"yes","recycling:paper":"yes","recycling_type":"container"}},"type":"Feature"},
	{"geometry":{"coordinates":[7.200806,51.166614],"type":"Point"},"properties":{"osm_id":"3176892007","tag":{"amenity":"recycling","operator":"Technische Betriebe Remscheid","recycling:cardboard":"yes","recycling:paper":"yes","recycling_type":"container"}},"type":"Feature"},
	{"geometry":{"coordinates":[7.200779,51.166627],"type":"Point"},"properties":{"osm_id":"3176892008","tag":{"amenity":"recycling","operator":"AWISTA LOGISTIK","recycling:glass":"yes","recycling_type":"container"}},"type":"Feature"},
	{"geometry":{"coordinates":[7.200755,51.166619],"type":"Point"},"properties":{"osm_id":"3176892009","tag":{"amenity":"recycling","operator":"AWISTA LOGISTIK","recycling:glass":"yes","recycling_type":"container"}},"type":"Feature"},
	{"geometry":{"coordinates":[7.200735,51.166614],"type":"Point"},"properties":{"osm_id":"3176892010","tag":{"amenity":"recycling","operator":"AWISTA LOGISTIK","recycling:glass":"yes","recycling_type":"container"}},"type":"Feature"},
	{"geometry":{"coordinates":[7.200715,51.166608],"type":"Point"},"properties":{"osm_id":"3185004403","tag":{"amenity":"recycling","operator":"AWISTA LOGISTIK","recycling:glass":"yes","recycling_type":"container"}},"type":"Feature"},
	{"geometry":{"coordinates":[7.168614,51.158345],"type":"Point"},"properties":{"osm_id":"3189977122","tag":{"amenity":"recycling","recycling:clothes":"yes","recycling:shoes":"yes","recycling_type":"container"}},"type":"Feature"},
	{"geometry":{"coordinates":[7.168975,51.158859],"type":"Point"},"properties":{"osm_id":"3189977126","tag":{"amenity":"recycling","operator":"AWISTA LOGISTIK","recycling:glass":"yes","recycling_type":"container"}},"type":"Feature"},
	{"geometry":{"coordinates":[7.169006,51.158869],"type":"Point"},"properties":{"osm_id":"3189977127","tag":{"amenity":"recycling","operator":"AWISTA LOGISTIK","recycling:glass":"yes","recycling_type":"container"}},"type":"Feature"},
	{"geometry":{"coordinates":[7.169038,51.158878],"type":"Point"},"properties":{"osm_id":"3189977128","tag":{"amenity":"recycling","operator":"AWISTA LOGISTIK","recycling:glass":"yes","recycling_type":"container"}},"type":"Feature"},
	{"geometry":{"coordinates":[7.169095,51.158884],"type":"Point"},"properties":{"osm_id":"3189977129","tag":{"amenity":"recycling","operator":"Technische Betriebe Remscheid","recycling:cardboard":"yes","recycling:paper":"yes","recycling_type":"container"}},"type":"Feature"},
	{"geometry":{"coordinates":[7.169127,51.158884],"type":"Point"},"properties":{"osm_id":"3189977130","tag":{"amenity":"recycling","operator":"Technische Betriebe Remscheid","recycling:cardboard":"yes","recycling:paper":"yes","recycling_type":"container"}},"type":"Feature"},
	{"geometry":{"coordinates":[7.169158,51.158884],"type":"Point"},"properties":{"osm_id":"3189977131","tag":{"amenity":"recycling","operator":"Technische Betriebe Remscheid","recycling:clothes":"yes","recycling:shoes":"yes","recycling_type":"container"}},"type":"Feature"},
	{"geometry":{"coordinates":[7.16919,51.158884],"type":"Point"},"properties":{"osm_id":"3189977132","tag":{"amenity":"recycling","operator":"Technische Betriebe Remscheid","recycling:clothes":"yes","recycling:shoes":"yes","recycling_type":"container"}},"type":"Feature"},
	{"geometry":{"coordinates":[7.177536,51.160715],"type":"Point"},"properties":{"osm_id":"3189977133","tag":{"amenity":"recycling","operator":"Technische Betriebe Remscheid","recycling:clothes":"yes","recycling:shoes":"yes","recycling_type":"container"}},"type":"Feature"},
	{"geometry":{"coordinates":[7.177559,51.160717],"type":"Point"},"properties":{"osm_id":"3189977134","tag":{"amenity":"recycling","operator":"Technische Betriebe Remscheid","recycling:clothes":"yes","recycling:shoes":"yes","recycling_type":"container"}},"type":"Feature"},
	{"geometry":{"coordinates":[7.177602,51.160722],"type":"Point"},"properties":{"osm_id":"3189977135","tag":{"amenity":"recycling","operator":"AWISTA LOGISTIK","recycling:glass":"yes","recycling_type":"container"}},"type":"Feature"},
	{"geometry":{"coordinates":[7.177629,51.160725],"type":"Point"},"properties":{"osm_id":"3189977136","tag":{"amenity":"recycling","operator":"AWISTA LOGISTIK","recycling:glass":"yes","recycling_type":"container"}},"type":"Feature"},
	{"geometry":{"coordinates":[7.177655,51.160728],"type":"Point"},"properties":{"osm_id":"3189977137","tag":{"amenity":"recycling","operator":"AWISTA LOGISTIK","recycling:glass":"yes","recycling_type":"container"}},"type":"Feature"},
	{"geometry":{"coordinates":[7.177682,51.160731],"type":"Point"},"properties":{"osm_id":"3189977138","tag":{"amenity":"recycling","operator":"Technische Betriebe Remscheid","recycling:cardboard":"yes","recycling:paper":"yes","recycling_type":"container"}},"type":"Feature"},
	{"geometry":{"coordinates":[7.177708,51.160734],"type":"Point"},"properties":{"osm_id":"3189977139","tag":{"amenity":"recycling","operator":"Technische Betriebe Remscheid","recycling:cardboard":"yes","recycling:paper":"yes","recycling_type":"container"}},"type":"Feature"},
	{"geometry":{"coordinates":[7.182841,51.161457],"type":"Point"},"properties":{"osm_id":"3189977140","tag":{"amenity":"recycling","operator":"Technische Betriebe Remscheid","recycling:cardboard":"yes","recycling:paper":"yes","recycling_type":"container"}},"type":"Feature"},
	{"geometry":{"coordinates":[7.182882,51.161463],"type":"Point"},"properties":{"osm_id":"3189977141","tag":{"amenity":"recycling","operator":"AWISTA LOGISTIK","recycling:glass":"yes","recycling_type":"container"}},"type":"Feature"},
	{"geometry":{"coordinates":[7.182922,51.16147],"type":"Point"},"properties":{"osm_id":"3189977142","tag":{"amenity":"recycling","operator":"AWISTA LOGISTIK","recycling:glass":"yes","recycling_type":"container"}},"type":"Feature"},
	{"geometry":{"coordinates":[7.20511,51.173768],"type":"Point"},"properties":{"osm_id":"3202253565","tag":{"amenity":"recycling","operator":"Technische Betriebe Remscheid","recycling:cardboard":"yes","recycling:paper":"yes","recycling_type":"container"}},"type":"Feature"},
	{"geometry":{"coordinates":[7.205085,51.173798],"type":"Point"},"properties":{"osm_id":"3202253566","tag":{"amenity":"recycling","operator":"Technische Betriebe Remscheid","recycling:clothes":"yes","recycling:shoes":"yes","recycling_type":"container"}},"type":"Feature"},
	{"geometry":{"coordinates":[7.205743,51.177423],"type":"Point"},"properties":{"osm_id":"3397946732","tag":{"amenity":"recycling","operator":"Technische Betriebe Remscheid","recycling:clothes":"yes","recycling:shoes":"yes","recycling_type":"container"}},"type":"Feature"},
	{"geometry":{"coordinates":[7.205765,51.177423],"type":"Point"},"properties":{"osm_id":"3397946733","tag":{"amenity":"recycling","operator":"Technische Betriebe Remscheid","recycling:clothes":"yes","recycling:shoes":"yes","recycling_type":"container"}},"type":"Feature"},
	{"geometry":{"coordinates":[7.205788,51.177423],"type":"Point"},"properties":{"osm_id":"3397946734","tag":{"amenity":"recycling","operator":"Technische Betriebe Remscheid","recycling:clothes":"yes","recycling:shoes":"yes","recycling_type":"container"}},"type":"Feature"},
	{"geometry":{"coordinates":[7.205811,51.177423],"type":"Point"},"properties":{"osm_id":"3397946735","tag":{"amenity":"recycling","operator":"Technische Betriebe Remscheid","recycling:clothes":"yes","recycling:shoes":"yes","recycling_type":"container"}},"type":"Feature"},
	{"geometry":{"coordinates":[7.205833,51.177423],"type":"Point"},"properties":{"osm_id":"3397946736","tag":{"amenity":"recycling","operator":"AWISTA LOGISTIK","recycling:glass":"yes","recycling_type":"container"}},"type":"Feature"},
	{"geometry":{"coordinates":[7.205856,51.177423],"type":"Point"},"properties":{"osm_id":"3397946737","tag":{"amenity":"recycling","operator":"AWISTA LOGISTIK","recycling:glass":"yes","recycling_type":"container"}},"type":"Feature"},
	{"geometry":{"coordinates":[7.205878,51.177424],"type":"Point"},"properties":{"osm_id":"3397946738","tag":{"amenity":"recycling","operator":"AWISTA LOGISTIK","recycling:glass":"yes","recycling_type":"container"}},"type":"Feature"},
	{"geometry":{"coordinates":[7.205901,51.177424],"type":"Point"},"properties":{"osm_id":"3397946739","tag":{"amenity":"recycling","operator":"AWISTA LOGISTIK","recycling:glass":"yes","recycling_type":"container"}},"type":"Feature"},
	{"geometry":{"coordinates":[7.205924,51.177424],"type":"Point"},"properties":{"osm_id":"3397946740","tag":{"amenity":"recycling","operator":"Technische Betriebe Remscheid","recycling:cardboard":"yes","recycling:paper":"yes","recycling_type":"container"}},"type":"Feature"},
	{"geometry":{"coordinates":[7.205946,51.177424],"type":"Point"},"properties":{"osm_id":"3397946741","tag":{"amenity":"recycling","operator":"Technische Betriebe Remscheid","recycling:cardboard":"yes","recycling:paper":"yes","recycling_type":"container"}},"type":"Feature"},
	{"geometry":{"coordinates":[7.205969,51.177424],"type":"Point"},"properties":{"osm_id":"3397946742","tag":{"amenity":"recycling","operator":"Technische Betriebe Remscheid","recycling:cardboard":"yes","recycling:paper":"yes","recycling_type":"container"}},"type":"Feature"},
	{"geometry":{"coordinates":[7.205991,51.177424],"type":"Point"},"properties":{"osm_id":"3397946743","tag":{"amenity":"recycling","operator":"Technische Betriebe Remscheid","recycling:cardboard":"yes","recycling:paper":"yes","recycling_type":"container"}},"type":"Feature"},
	{"geometry":{"coordinates":[7.206014,51.177425],"type":"Point"},"properties":{"osm_id":"3397946744","tag":{"amenity":"recycling","operator":"Technische Betriebe Remscheid","recycling:cardboard":"yes","recycling:paper":"yes","recycling_type":"container"}},"type":"Feature"},
	{"geometry":{"coordinates":[7.202618,51.170246],"type":"Point"},"properties":{"osm_id":"3452356368","tag":{"amenity":"recycling","operator":"Technische Betriebe Remscheid","recycling:paper":"yes","recycling_type":"container"}},"type":"Feature"},
	{"geometry":{"coordinates":[7.202634,51.170276],"type":"Point"},"properties":{"osm_id":"3452356369","tag":{"amenity":"recycling","operator":"Technische Betriebe Remscheid","recycling:paper":"yes","recycling_type":"container"}},"type":"Feature"},
	{"geometry":{"coordinates":[7.161443,51.174579],"type":"Point"},"properties":{"osm_id":"3487674712","tag":{"amenity":"recycling","operator":"Deutsches Rotes Kreuz","recycling:clothes":"yes","recycling:shoes":"yes","recycling_type":"container"}},"type":"Feature"},
	{"geometry":{"coordinates":[7.161603,51.174594],"type":"Point"},"properties":{"osm_id":"3487674713","tag":{"amenity":"recycling","operator":"Technische Betriebe Remscheid","recycling:cardboard":"yes","recycling:paper":"yes","recycling_type":"container"}},"type":"Feature"},
	{"geometry":{"coordinates":[7.161631,51.174596],"type":"Point"},"properties":{"osm_id":"3487674714","tag":{"amenity":"recycling","operator":"AWISTA LOGISTIK","recycling:glass":"yes","recycling_type":"container"}},"type":"Feature"},
	{"geometry":{"coordinates":[7.161658,51.174597],"type":"Point"},"properties":{"osm_id":"3487674715","tag":{"amenity":"recycling","operator":"AWISTA LOGISTIK","recycling:glass":"yes","recycling_type":"container"}},"type":"Feature"},
	{"geometry":{"coordinates":[7.202598,51.173236],"type":"Point"},"properties":{"osm_id":"3648480602","tag":{"amenity":"recycling","recycling:clothes":"yes","recycling:shoes":"yes","recycling_type":"container"}},"type":"Feature"},
	{"geometry":{"coordinates":[7.180671,51.168138],"type":"Point"},"properties":{"osm_id":"3913740090","tag":{"amenity":"recycling","recycling:paper":"yes"}},"type":"Feature"},
	{"geometry":{"coordinates":[7.180678,51.168115],"type":"Point"},"properties":{"osm_id":"3913740091","tag":{"amenity":"recycling","operator":"Technische Betriebe Remscheid","recycling:glass_bottles":"yes"}},"type":"Feature"},
	{"geometry":{"coordinates":[7.181973,51.175958],"type":"Point"},"properties":{"osm_id":"3913740092","tag":{"amenity":"recycling","recycling:clothes":"yes"}},"type":"Feature"},
	{"geometry":{"coordinates":[7.197664,51.178552],"type":"Point"},"properties":{"osm_id":"5007406436","tag":{"amenity":"waste_basket"}},"type":"Feature"},
	{"geometry":{"coordinates":[7.160483,51.170867],"type":"Point"},"properties":{"osm_id":"5017753371","tag":{"amenity":"recycling","recycling:clothes":"yes","recycling:glass_bottles":"yes","recycling:shoes":"yes","recycling_type":"container"}},"type":"Feature"},
	{"geometry":{"coordinates":[7.150862,51.154364],"type":"Point"},"properties":{"osm_id":"6473462777","tag":{"amenity":"recycling","recycling:cardboard":"yes","recycling:clothes":"yes","recycling:paper":"yes","recycling_type":"container"}},"type":"Feature"},
	{"geometry":{"coordinates":[7.158201,51.165123],"type":"Point"},"properties":{"osm_id":"6628897991","tag":{"amenity":"recycling","recycling:cardboard":"yes","recycling:glass_bottles":"yes","recycling:paper":"yes","recycling_type":"container"}},"type":"Feature"},
	{"geometry":{"coordinates":[7.173068,51.170337],"type":"Point"},"properties":{"osm_id":"7137092066","tag":{"amenity":"recycling","recycling:cardboard":"yes","recycling:glass_bottles":"yes","recycling:paper":"yes","recycling_type":"container"}},"type":"Feature"},
	{"geometry":{"coordinates":[7.190473,51.175542],"type":"Point"},"properties":{"osm_id":"7137604541","tag":{"amenity":"recycling","recycling:clothes":"yes","recycling:shoes":"yes","recycling_type":"container"}},"type":"Feature"},
	{"geometry":{"coordinates":[7.18802,51.13813],"type":"Point"},"properties":{"osm_id":"7164184510","tag":{"amenity":"waste_basket"}},"type":"Feature"},
	{"geometry":{"coordinates":[7.195847,51.138424],"type":"Point"},"properties":{"osm_id":"7164235942","tag":{"amenity":"waste_basket"}},"type":"Feature"},
	{"geometry":{"coordinates":[7.172292,51.173585],"type":"Point"},"properties":{"osm_id":"7296566536","tag":{"amenity":"recycling","recycling:glass":"yes","recycling:glass_bottles":"yes","recycling_type":"container"}},"type":"Feature"},
	{"geometry":{"coordinates":[7.172272,51.173576],"type":"Point"},"properties":{"osm_id":"7296566537","tag":{"amenity":"recycling","recycling:glass":"yes","recycling:glass_bottles":"yes","recycling_type":"container"}},"type":"Feature"},
	{"geometry":{"coordinates":[7.172254,51.173568],"type":"Point"},"properties":{"osm_id":"7296566538","tag":{"amenity":"recycling","recycling:glass":"yes","recycling:glass_bottles":"yes","recycling_type":"container"}},"type":"Feature"},
	{"geometry":{"coordinates":[7.172234,51.173635],"type":"Point"},"properties":{"osm_id":"7296566539","tag":{"amenity":"recycling","recycling:cardboard":"yes","recycling:paper":"yes","recycling_type":"container"}},"type":"Feature"},
	{"geometry":{"coordinates":[7.172197,51.173618],"type":"Point"},"properties":{"osm_id":"7296566540","tag":{"amenity":"recycling","recycling:cardboard":"yes","recycling:paper":"yes","recycling_type":"container"}},"type":"Feature"},
	{"geometry":{"coordinates":[7.178607,51.175495],"type":"Point"},"properties":{"osm_id":"7296701237","tag":{"amenity":"recycling","recycling_type":"container"}},"type":"Feature"},
	{"geometry":{"coordinates":[7.178557,51.175513],"type":"Point"},"properties":{"osm_id":"7296701238","tag":{"amenity":"recycling","recycling_type":"container"}},"type":"Feature"},
	{"geometry":{"coordinates":[7.178527,51.175529],"type":"Point"},"properties":{"osm_id":"7296701239","tag":{"amenity":"recycling","recycling:glass":"yes","recycling:glass_bottles":"yes","recycling_type":"container"}},"type":"Feature"},
	{"geometry":{"coordinates":[7.178501,51.175547],"type":"Point"},"properties":{"osm_id":"7296701240","tag":{"amenity":"recycling","recycling:glass":"yes","recycling:glass_bottles":"yes","recycling_type":"container"}},"type":"Feature"},
	{"geometry":{"coordinates":[7.178646,51.175487],"type":"Point"},"properties":{"osm_id":"7296701241","tag":{"amenity":"recycling","recycling:cardboard":"yes","recycling:paper":"yes","recycling_type":"container"}},"type":"Feature"},
	{"geometry":{"coordinates":[7.172606,51.170197],"type":"Point"},"properties":{"osm_id":"7296701440","tag":{"amenity":"waste_basket"}},"type":"Feature"},
	{"geometry":{"coordinates":[7.205461,51.1672],"type":"Point"},"properties":{"osm_id":"7623594532","tag":{"amenity":"recycling","material":"metal","recycling:clothes":"yes","recycling:shoes":"yes","recycling_type":"container"}},"type":"Feature"},
	{"geometry":{"coordinates":[7.205433,51.167146],"type":"Point"},"properties":{"osm_id":"7623594533","tag":{"amenity":"recycling","material":"metal","opening_hours":"Mo-Sa 07:00-20:00; Su,PH off","recycling:glass_bottles":"yes","recycling_type":"container"}},"type":"Feature"},
	{"geometry":{"coordinates":[7.152483,51.14583],"type":"Point"},"properties":{"osm_id":"7625846676","tag":{"amenity":"recycling","material":"metal","recycling:clothes":"yes","recycling:shoes":"yes","recycling_type":"container"}},"type":"Feature"},
	{"geometry":{"coordinates":[7.146712,51.147222],"type":"Point"},"properties":{"osm_id":"7625999435","tag":{"amenity":"recycling","material":"metal","recycling:cardboard":"yes","recycling:paper":"yes","recycling_type":"container"}},"type":"Feature"},
	{"geometry":{"coordinates":[7.14676,51.147253],"type":"Point"},"properties":{"osm_id":"7625999436","tag":{"amenity":"recycling","material":"metal","opening_hours":"Mo-Sa 07:00-20:00; Su,PH off","recycling:glass_bottles":"yes","recycling_type":"container"}},"type":"Feature"},
	{"geometry":{"coordinates":[7.146791,51.147277],"type":"Point"},"properties":{"osm_id":"7625999437","tag":{"amenity":"recycling","material":"metal","recycling:clothes":"yes","recycling:shoes":"yes","recycling_type":"container"}},"type":"Feature"},
	{"geometry":{"coordinates":[7.202332,51.174886],"type":"Point"},"properties":{"osm_id":"7869525607","tag":{"amenity":"recycling","material":"metal","recycling:cardboard":"yes","recycling:paper":"yes","recycling_type":"container"}},"type":"Feature"},
	{"geometry":{"coordinates":[7.133969,51.166669],"type":"Point"},"properties":{"osm_id":"7935026583","tag":{"amenity":"waste_basket"}},"type":"Feature"}
]
}
