{
"type": "FeatureCollection",
"features": [
	{"geometry":{"coordinates":[7.169736,50.925123],"type":"Point"},"properties":{"osm_id":"309436195","tag":{"amenity":"recycling","recycling:clothes":"yes","recycling:glass_bottles":"yes","recycling:shoes":"yes","recycling_type":"container"}},"type":"Feature"},
	{"geometry":{"coordinates":[7.13181,50.952695],"type":"Point"},"properties":{"osm_id":"320946274","tag":{"amenity":"recycling","recycling:clothes":"yes","recycling:glass":"yes"}},"type":"Feature"},
	{"geometry":{"coordinates":[7.129657,50.956939],"type":"Point"},"properties":{"osm_id":"336077009","tag":{"amenity":"recycling","location":"overground","recycling:glass":"yes","recycling_type":"container"}},"type":"Feature"},
	{"geometry":{"coordinates":[7.120656,50.956623],"type":"Point"},"properties":{"osm_id":"339354793","tag":{"amenity":"recycling","recycling:clothes":"yes","recycling:glass":"yes"}},"type":"Feature"},
	{"geometry":{"coordinates":[7.125432,50.9584],"type":"Point"},"properties":{"osm_id":"339354795","tag":{"amenity":"recycling","recycling:clothes":"yes","recycling:glass":"yes"}},"type":"Feature"},
	{"geometry":{"coordinates":[7.1421,50.906056],"type":"Point"},"properties":{"osm_id":"364705645","tag":{"amenity":"recycling","recycling:glass_bottles":"yes","recycling_type":"container"}},"type":"Feature"},
	{"geometry":{"coordinates":[7.151871,50.903045],"type":"Point"},"properties":{"osm_id":"364705783","tag":{"amenity":"recycling","recycling:glass_bottles":"yes","recycling_type":"container"}},"type":"Feature"},
	{"geometry":{"coordinates":[7.152481,50.908679],"type":"Point"},"properties":{"osm_id":"367923705","tag":{"amenity":"recycling","recycling:glass_bottles":"yes","recycling_type":"container"}},"type":"Feature"},
	{"geometry":{"coordinates":[7.17533,50.90321],"type":"Point"},"properties":{"osm_id":"370536486","tag":{"amenity":"recycling","recycling:glass_bottles":"yes","recycling_type":"container"}},"type":"Feature"},
	{"geometry":{"coordinates":[7.181073,50.904276],"type":"Point"},"properties":{"osm_id":"370542957","tag":{"amenity":"recycling","recycling:glass_bottles":"yes","recycling_type":"container"}},"type":"Feature"},
	{"geometry":{"coordinates":[7.206659,50.947517],"type":"Point"},"properties":{"osm_id":"435769922","tag":{"amenity":"waste_basket"}},"type":"Feature"},
	{"geometry":{"coordinates":[7.138552,50.953713],"type":"Point"},"properties":{"osm_id":"845161031","tag":{"amenity":"recycling","location":"overground","recycling_type":"container"}},"type":"Feature"},
	{"geometry":{"coordinates":[7.199046,50.91381],"type":"Point"},"properties":{"osm_id":"856667830","tag":{"amenity":"recycling","recycling:glass_bottles":"yes","recycling_type":"container"}},"type":"Feature"},
	{"geometry":{"coordinates":[7.198128,50.914682],"type":"Point"},"properties":{"osm_id":"903189557","tag":{"amenity":"waste_basket"}},"type":"Feature"},
	{"geometry":{"coordinates":[7.198384,50.917696],"type":"Point"},"properties":{"osm_id":"910477881","tag":{"amenity":"waste_basket"}},"type":"Feature"},
	{"geometry":{"coordinates":[7.198119,50.916923],"type":"Point"},"properties":{"osm_id":"910478808","tag":{"amenity":"waste_basket"}},"type":"Feature"},
	{"geometry":{"coordinates":[7.198,50.92733],"type":"Point"},"properties":{"osm_id":"4580823977","tag":{"amenity":"recycling","recycling:glass":"yes","recycling_type":"container"}},"type":"Feature"},
	{"geometry":{"coordinates":[7.169624,50.957154],"type":"Point"},"properties":{"osm_id":"4746923985","tag":{"amenity":"recycling","recycling:clothes":"yes","recycling_type":"container"}},"type":"Feature"},
	{"geometry":{"coordinates":[7.169789,50.957166],"type":"Point"},"properties":{"osm_id":"4746923986","tag":{"amenity":"recycling","recycling:glass_bottles":"yes","recycling_type":"container"}},"type":"Feature"},
	{"geometry":{"coordinates":[7.153777,50.957724],"type":"Point"},"properties":{"osm_id":"5744175713","tag":{"amenity":"recycling","recycling:batteries":"yes","recycling:clothes":"yes","recycling:glass":"yes","recycling:glass_bottles":"yes","recycling:shoes":"yes","recycling_type":"container"}},"type":"Feature"},
	{"geometry":{"coordinates":[7.168869,50.92292],"type":"Point"},"properties":{"osm_id":"5809073113","tag":{"amenity":"waste_basket","check_date":"2021-01-09"}},"type":"Feature"},
	{"geometry":{"coordinates":[7.195745,50.914288],"type":"Point"},"properties":{"osm_id":"6168268785","tag":{"amenity":"recycling","location":"overground","recycling:glass_bottles":"yes","recycling_type":"container"}},"type":"Feature"},
	{"geometry":{"coordinates":[7.187039,50.911936],"type":"Point"},"properties":{"name":"Glascontainer","osm_id":"6428141208","tag":{"amenity":"recycling","location":"overground","recycling:glass_bottles":"yes","recycling_type":"container"}},"type":"Feature"},
	{"geometry":{"coordinates":[7.206089,50.914998],"type":"Point"},"properties":{"osm_id":"6432414913","tag":{"amenity":"recycling","recycling:clothes":"yes","recycling:glass":"yes","recycling_type":"container"}},"type":"Feature"},
	{"geometry":{"coordinates":[7.190991,50.906348],"type":"Point"},"properties":{"osm_id":"6812865894","tag":{"amenity":"waste_basket","waste":"dog_excrement"}},"type":"Feature"},
	{"geometry":{"coordinates":[7.190985,50.906336],"type":"Point"},"properties":{"osm_id":"6812865896","tag":{"amenity":"waste_basket"}},"type":"Feature"},
	{"geometry":{"coordinates":[7.173627,50.915287],"type":"Point"},"properties":{"osm_id":"7110671837","tag":{"amenity":"recycling","operator":"Deutsches Rotes Kreuz","recycling:clothes":"yes","recycling_type":"container"}},"type":"Feature"},
	{"geometry":{"coordinates":[7.195686,50.917233],"type":"Point"},"properties":{"osm_id":"7165005078","tag":{"amenity":"recycling","check_date:recycling":"2021-06-26","operator":"Deutsches Rotes Kreuz","recycling:clothes":"yes","recycling_type":"container"}},"type":"Feature"},
	{"geometry":{"coordinates":[7.177445,50.924092],"type":"Point"},"properties":{"osm_id":"7435880165","tag":{"amenity":"recycling","recycling:glass":"no","recycling:glass_bottles":"yes","recycling_type":"container"}},"type":"Feature"},
	{"geometry":{"coordinates":[7.177497,50.924087],"type":"Point"},"properties":{"osm_id":"7435880166","tag":{"amenity":"recycling","operator":"DEutsches Rotes Kreuz","recycling:clothes":"yes","recycling_type":"container"}},"type":"Feature"},
	{"geometry":{"coordinates":[7.19811,50.917196],"type":"Point"},"properties":{"osm_id":"7515716285","tag":{"amenity":"waste_basket"}},"type":"Feature"},
	{"geometry":{"coordinates":[7.198576,50.917182],"type":"Point"},"properties":{"osm_id":"7515864188","tag":{"amenity":"waste_basket"}},"type":"Feature"},
	{"geometry":{"coordinates":[7.198522,50.917482],"type":"Point"},"properties":{"osm_id":"7515909686","tag":{"amenity":"recycling","location":"underground","recycling:glass_bottles":"yes","recycling_type":"container"}},"type":"Feature"},
	{"geometry":{"coordinates":[7.197741,50.922047],"type":"Point"},"properties":{"osm_id":"7515959285","tag":{"amenity":"waste_basket"}},"type":"Feature"},
	{"geometry":{"coordinates":[7.194969,50.924805],"type":"Point"},"properties":{"osm_id":"7515959286","tag":{"amenity":"waste_basket"}},"type":"Feature"},
	{"geometry":{"coordinates":[7.196373,50.91742],"type":"Point"},"properties":{"osm_id":"7515976585","tag":{"amenity":"waste_basket"}},"type":"Feature"},
	{"geometry":{"coordinates":[7.198506,50.917507],"type":"Point"},"properties":{"osm_id":"7519599650","tag":{"amenity":"waste_basket","waste":"trash"}},"type":"Feature"},
	{"geometry":{"coordinates":[7.198536,50.917451],"type":"Point"},"properties":{"osm_id":"7519599651","tag":{"amenity":"waste_basket","waste":"trash"}},"type":"Feature"},
	{"geometry":{"coordinates":[7.197983,50.927308],"type":"Point"},"properties":{"osm_id":"7526001414","tag":{"amenity":"recycling","recycling:clothes":"yes","recycling_type":"container"}},"type":"Feature"},
	{"geometry":{"coordinates":[7.173982,50.930139],"type":"Point"},"properties":{"osm_id":"7526053761","tag":{"amenity":"recycling","recycling:clothes":"yes","recycling_type":"container"}},"type":"Feature"},
	{"geometry":{"coordinates":[7.194707,50.914838],"type":"Point"},"properties":{"osm_id":"7542370992","tag":{"amenity":"recycling","opening_hours":"24/7","operator":"Bethel","recycling:clothes":"yes","recycling_type":"container"}},"type":"Feature"},
	{"geometry":{"coordinates":[7.199236,50.915532],"type":"Point"},"properties":{"osm_id":"7552236765","tag":{"amenity":"recycling","operator":"Deutsches Rotes Kreuz","recycling:clothes":"yes","recycling_type":"container"}},"type":"Feature"},
	{"geometry":{"coordinates":[7.194942,50.920984],"type":"Point"},"properties":{"osm_id":"7590193843","tag":{"access":"private","amenity":"waste_disposal"}},"type":"Feature"},
	{"geometry":{"coordinates":[7.19543,50.920836],"type":"Point"},"properties":{"osm_id":"7590231347","tag":{"access":"customers","amenity":"waste_basket","colour":"silver","material":"metal","operator":"Aldi S\u00c3\u00bcd","waste":"trash"}},"type":"Feature"},
	{"geometry":{"coordinates":[7.151911,50.903038],"type":"Point"},"properties":{"osm_id":"7603886283","tag":{"amenity":"recycling","recycling:clothes":"yes","recycling_type":"container"}},"type":"Feature"},
	{"geometry":{"coordinates":[7.189079,50.906635],"type":"Point"},"properties":{"osm_id":"7633447462","tag":{"amenity":"recycling","recycling:clothes":"yes","recycling:shoes":"yes","recycling_type":"container"}},"type":"Feature"},
	{"geometry":{"coordinates":[7.189075,50.906674],"type":"Point"},"properties":{"osm_id":"7633447463","tag":{"amenity":"recycling","recycling:electrical_appliances":"yes","recycling_type":"container"}},"type":"Feature"},
	{"geometry":{"coordinates":[7.189289,50.906696],"type":"Point"},"properties":{"osm_id":"7633447464","tag":{"amenity":"recycling","recycling:glass":"yes","recycling_type":"container"}},"type":"Feature"},
	{"geometry":{"coordinates":[7.153325,50.9573],"type":"Point"},"properties":{"osm_id":"8660677193","tag":{"amenity":"waste_basket"}},"type":"Feature"}
]
}
