{
"type": "FeatureCollection",
"features": [
	{"geometry":{"coordinates":[7.151369,50.899493],"type":"Point"},"properties":{"osm_id":"293261050","tag":{"amenity":"recycling","recycling:glass":"yes","recycling_type":"container"}},"type":"Feature"},
	{"geometry":{"coordinates":[7.180078,50.892167],"type":"Point"},"properties":{"osm_id":"484972681","tag":{"amenity":"recycling","operator":"Stadt R\u00c3\u00b6srath","recycling:glass":"yes","recycling_type":"container"}},"type":"Feature"},
	{"geometry":{"coordinates":[7.18007,50.892151],"type":"Point"},"properties":{"osm_id":"484972779","tag":{"amenity":"recycling","operator":"Stadt R\u00c3\u00b6srath","recycling:glass":"yes","recycling_type":"container"}},"type":"Feature"},
	{"geometry":{"coordinates":[7.18616,50.897775],"type":"Point"},"properties":{"osm_id":"525456040","tag":{"amenity":"recycling","recycling:glass":"yes","recycling_type":"container"}},"type":"Feature"},
	{"geometry":{"coordinates":[7.183484,50.893455],"type":"Point"},"properties":{"osm_id":"920493252","tag":{"amenity":"recycling","recycling:glass":"yes","recycling_type":"container"}},"type":"Feature"},
	{"geometry":{"coordinates":[7.184056,50.886668],"type":"Point"},"properties":{"osm_id":"1290833301","tag":{"amenity":"recycling","recycling:glass":"yes","recycling_type":"container"}},"type":"Feature"},
	{"geometry":{"coordinates":[7.172999,50.890704],"type":"Point"},"properties":{"osm_id":"1290833321","tag":{"amenity":"recycling","recycling:glass":"yes","recycling_type":"container"}},"type":"Feature"},
	{"geometry":{"coordinates":[7.184909,50.888567],"type":"Point"},"properties":{"osm_id":"1290833325","tag":{"amenity":"recycling","recycling_type":"container"}},"type":"Feature"},
	{"geometry":{"coordinates":[7.183487,50.894979],"type":"Point"},"properties":{"osm_id":"1334636686","tag":{"amenity":"recycling","recycling_type":"container"}},"type":"Feature"},
	{"geometry":{"coordinates":[7.194312,50.853939],"type":"Point"},"properties":{"osm_id":"1430831050","tag":{"amenity":"recycling","recycling:glass_bottles":"yes","recycling_type":"container"}},"type":"Feature"},
	{"geometry":{"coordinates":[7.195511,50.849179],"type":"Point"},"properties":{"osm_id":"1435164167","tag":{"amenity":"recycling","recycling:glass_bottles":"yes","recycling_type":"container"}},"type":"Feature"},
	{"geometry":{"coordinates":[7.194684,50.860264],"type":"Point"},"properties":{"osm_id":"1440294550","tag":{"amenity":"recycling","recycling:glass":"yes"}},"type":"Feature"},
	{"geometry":{"coordinates":[7.190703,50.858755],"type":"Point"},"properties":{"osm_id":"1442762463","tag":{"amenity":"recycling","recycling:glass":"yes"}},"type":"Feature"},
	{"geometry":{"coordinates":[7.183449,50.901327],"type":"Point"},"properties":{"osm_id":"1711921782","tag":{"amenity":"recycling","recycling:glass":"yes","recycling_type":"container"}},"type":"Feature"},
	{"geometry":{"coordinates":[7.174662,50.896798],"type":"Point"},"properties":{"osm_id":"1736433769","tag":{"amenity":"recycling","recycling:glass":"yes","recycling_type":"container"}},"type":"Feature"},
	{"geometry":{"coordinates":[7.119838,50.878753],"type":"Point"},"properties":{"osm_id":"2140648181","tag":{"amenity":"waste_basket"}},"type":"Feature"},
	{"geometry":{"coordinates":[7.120031,50.87913],"type":"Point"},"properties":{"osm_id":"2140648217","tag":{"amenity":"waste_basket"}},"type":"Feature"},
	{"geometry":{"coordinates":[7.182329,50.895648],"type":"Point"},"properties":{"osm_id":"3606434965","tag":{"amenity":"waste_basket"}},"type":"Feature"},
	{"geometry":{"coordinates":[7.19555,50.849178],"type":"Point"},"properties":{"osm_id":"3890011249","tag":{"amenity":"recycling","recycling:glass_bottles":"yes","recycling_type":"container"}},"type":"Feature"},
	{"geometry":{"coordinates":[7.194351,50.853893],"type":"Point"},"properties":{"osm_id":"4069937705","tag":{"amenity":"recycling","recycling:clothes":"yes","recycling:shoes":"yes","recycling_type":"container"}},"type":"Feature"},
	{"geometry":{"coordinates":[7.180394,50.892488],"type":"Point"},"properties":{"osm_id":"4250859663","tag":{"amenity":"waste_basket"}},"type":"Feature"},
	{"geometry":{"coordinates":[7.197716,50.855912],"type":"Point"},"properties":{"osm_id":"4319644307","tag":{"amenity":"waste_basket"}},"type":"Feature"},
	{"geometry":{"coordinates":[7.19792,50.856012],"type":"Point"},"properties":{"osm_id":"4319644312","tag":{"amenity":"waste_basket"}},"type":"Feature"},
	{"geometry":{"coordinates":[7.183171,50.894551],"type":"Point"},"properties":{"osm_id":"4369628261","tag":{"amenity":"waste_basket"}},"type":"Feature"},
	{"geometry":{"coordinates":[7.180981,50.891173],"type":"Point"},"properties":{"osm_id":"5743402281","tag":{"amenity":"waste_basket"}},"type":"Feature"},
	{"geometry":{"coordinates":[7.180946,50.891226],"type":"Point"},"properties":{"osm_id":"5743402295","tag":{"amenity":"waste_basket"}},"type":"Feature"},
	{"geometry":{"coordinates":[7.184945,50.900207],"type":"Point"},"properties":{"osm_id":"6532740390","tag":{"amenity":"waste_basket"}},"type":"Feature"},
	{"geometry":{"coordinates":[7.186679,50.900306],"type":"Point"},"properties":{"osm_id":"6532740391","tag":{"amenity":"waste_basket"}},"type":"Feature"},
	{"geometry":{"coordinates":[7.189668,50.901009],"type":"Point"},"properties":{"osm_id":"6532740392","tag":{"amenity":"waste_basket"}},"type":"Feature"},
	{"geometry":{"coordinates":[7.187731,50.899453],"type":"Point"},"properties":{"osm_id":"6532740403","tag":{"amenity":"waste_basket"}},"type":"Feature"},
	{"geometry":{"coordinates":[7.187131,50.89883],"type":"Point"},"properties":{"osm_id":"6532740405","tag":{"amenity":"waste_basket"}},"type":"Feature"},
	{"geometry":{"coordinates":[7.187966,50.899704],"type":"Point"},"properties":{"osm_id":"6532740409","tag":{"amenity":"waste_basket"}},"type":"Feature"},
	{"geometry":{"coordinates":[7.187414,50.899753],"type":"Point"},"properties":{"osm_id":"6532740410","tag":{"amenity":"waste_basket"}},"type":"Feature"},
	{"geometry":{"coordinates":[7.186724,50.899891],"type":"Point"},"properties":{"osm_id":"6532740411","tag":{"amenity":"waste_basket"}},"type":"Feature"},
	{"geometry":{"coordinates":[7.186329,50.898919],"type":"Point"},"properties":{"osm_id":"6532740414","tag":{"amenity":"waste_basket"}},"type":"Feature"},
	{"geometry":{"coordinates":[7.180112,50.892141],"type":"Point"},"properties":{"osm_id":"7076637029","tag":{"amenity":"recycling","operator":"Deutsches Rotes Kreuz","recycling:clothes":"yes","recycling:shoes":"yes","recycling_type":"container"}},"type":"Feature"},
	{"geometry":{"coordinates":[7.164085,50.895102],"type":"Point"},"properties":{"osm_id":"7100306759","tag":{"amenity":"recycling","operator":"Stadt R\u00c3\u00b6srath","recycling:glass":"yes","recycling_type":"container"}},"type":"Feature"},
	{"geometry":{"coordinates":[7.180144,50.894562],"type":"Point"},"properties":{"osm_id":"7100306769","tag":{"amenity":"recycling","operator":"v. Bodelschwinghsche Stiftungen Bethel","recycling:clothes":"yes","recycling_type":"container","url":"https://www.bethel.de/"}},"type":"Feature"},
	{"geometry":{"coordinates":[7.183479,50.900863],"type":"Point"},"properties":{"osm_id":"7110746271","tag":{"amenity":"recycling","operator":"Deutsches Rotes Kreuz","recycling:clothes":"yes","recycling_type":"container"}},"type":"Feature"},
	{"geometry":{"coordinates":[7.190601,50.88428],"type":"Point"},"properties":{"osm_id":"7165005073","tag":{"amenity":"recycling","recycling:clothes":"yes","recycling_type":"container"}},"type":"Feature"},
	{"geometry":{"coordinates":[7.190635,50.884297],"type":"Point"},"properties":{"osm_id":"7165005074","tag":{"amenity":"recycling","recycling:glass":"yes","recycling_type":"container"}},"type":"Feature"},
	{"geometry":{"coordinates":[7.184063,50.886619],"type":"Point"},"properties":{"osm_id":"7368812235","tag":{"amenity":"recycling","operator":"Deutsches Rotes Kreuz","recycling:clothes":"yes","recycling_type":"container"}},"type":"Feature"},
	{"geometry":{"coordinates":[7.181635,50.899129],"type":"Point"},"properties":{"osm_id":"7435927095","tag":{"amenity":"recycling","recycling:glass":"yes","recycling_type":"container"}},"type":"Feature"},
	{"geometry":{"coordinates":[7.172342,50.901051],"type":"Point"},"properties":{"osm_id":"7477046777","tag":{"amenity":"recycling","operator":"Deusches Rotes Kreuz","recycling:clothes":"yes","recycling_type":"container"}},"type":"Feature"},
	{"geometry":{"coordinates":[7.172348,50.901004],"type":"Point"},"properties":{"osm_id":"7477046778","tag":{"amenity":"recycling","recycling:glass":"yes","recycling_type":"container"}},"type":"Feature"},
	{"geometry":{"coordinates":[7.177002,50.895089],"type":"Point"},"properties":{"osm_id":"7515993108","tag":{"amenity":"recycling","recycling:clothes":"yes","recycling:shoes":"yes","recycling_type":"container"}},"type":"Feature"},
	{"geometry":{"coordinates":[7.171058,50.896891],"type":"Point"},"properties":{"osm_id":"7515993109","tag":{"amenity":"recycling","recycling:clothes":"yes","recycling_type":"container"}},"type":"Feature"},
	{"geometry":{"coordinates":[7.168644,50.901394],"type":"Point"},"properties":{"osm_id":"7526103825","tag":{"amenity":"recycling","recycling:glass":"yes","recycling_type":"container"}},"type":"Feature"},
	{"geometry":{"coordinates":[7.172949,50.890672],"type":"Point"},"properties":{"osm_id":"7542557263","tag":{"amenity":"recycling","recycling:clothes":"yes","recycling_type":"container"}},"type":"Feature"},
	{"geometry":{"coordinates":[7.174637,50.896808],"type":"Point"},"properties":{"osm_id":"7545563079","tag":{"amenity":"recycling","recycling:clothes":"yes","recycling_type":"container"}},"type":"Feature"},
	{"geometry":{"coordinates":[7.175643,50.900229],"type":"Point"},"properties":{"osm_id":"7623951855","tag":{"amenity":"waste_basket","waste":"trash"}},"type":"Feature"}
]
}
