{
"type": "FeatureCollection",
"features": [
	{"geometry":{"coordinates":[7.15727,50.816622],"type":"Point"},"properties":{"osm_id":"262904170","tag":{"amenity":"recycling","recycling:glass_bottles":"yes","recycling_type":"container"}},"type":"Feature"},
	{"geometry":{"coordinates":[7.126688,50.799597],"type":"Point"},"properties":{"osm_id":"276366228","tag":{"amenity":"recycling","recycling:glass":"yes","recycling_type":"container"}},"type":"Feature"},
	{"geometry":{"coordinates":[7.123989,50.801861],"type":"Point"},"properties":{"osm_id":"276369192","tag":{"amenity":"recycling","operator":"AWO","recycling:clothes":"yes","recycling:shoes":"yes","recycling_type":"container"}},"type":"Feature"},
	{"geometry":{"coordinates":[7.121264,50.802676],"type":"Point"},"properties":{"osm_id":"276369516","tag":{"amenity":"recycling","recycling:glass":"yes"}},"type":"Feature"},
	{"geometry":{"coordinates":[7.124015,50.800243],"type":"Point"},"properties":{"osm_id":"276371585","tag":{"amenity":"recycling","recycling:glass":"yes","recycling_type":"container"}},"type":"Feature"},
	{"geometry":{"coordinates":[7.121331,50.825331],"type":"Point"},"properties":{"osm_id":"312858207","tag":{"amenity":"recycling","recycling:glass_bottles":"yes","recycling_type":"container"}},"type":"Feature"},
	{"geometry":{"coordinates":[7.186399,50.798029],"type":"Point"},"properties":{"osm_id":"551957845","tag":{"amenity":"recycling","recycling:clothes":"yes","recycling:shoes":"yes","recycling_type":"container"}},"type":"Feature"},
	{"geometry":{"coordinates":[7.182507,50.8176],"type":"Point"},"properties":{"osm_id":"617333225","tag":{"amenity":"recycling","recycling:clothes":"yes","recycling_type":"container"}},"type":"Feature"},
	{"geometry":{"coordinates":[7.12226,50.830544],"type":"Point"},"properties":{"osm_id":"618723177","tag":{"amenity":"recycling"}},"type":"Feature"},
	{"geometry":{"coordinates":[7.149136,50.813005],"type":"Point"},"properties":{"osm_id":"619105139","tag":{"amenity":"recycling","recycling:glass_bottles":"yes","recycling_type":"container"}},"type":"Feature"},
	{"geometry":{"coordinates":[7.123845,50.813749],"type":"Point"},"properties":{"osm_id":"621704653","tag":{"amenity":"recycling","recycling:clothes":"yes","recycling_type":"container"}},"type":"Feature"},
	{"geometry":{"coordinates":[7.135828,50.809009],"type":"Point"},"properties":{"osm_id":"621705673","tag":{"amenity":"recycling","recycling:glass":"yes","recycling_type":"container"}},"type":"Feature"},
	{"geometry":{"coordinates":[7.158834,50.813881],"type":"Point"},"properties":{"osm_id":"621951375","tag":{"amenity":"waste_basket","waste":"trash"}},"type":"Feature"},
	{"geometry":{"coordinates":[7.159008,50.813733],"type":"Point"},"properties":{"osm_id":"621951378","tag":{"amenity":"waste_basket","waste":"trash"}},"type":"Feature"},
	{"geometry":{"coordinates":[7.159687,50.813797],"type":"Point"},"properties":{"osm_id":"622200313","tag":{"amenity":"waste_basket","waste":"trash"}},"type":"Feature"},
	{"geometry":{"coordinates":[7.126074,50.816052],"type":"Point"},"properties":{"osm_id":"658348022","tag":{"amenity":"waste_basket"}},"type":"Feature"},
	{"geometry":{"coordinates":[7.151095,50.807729],"type":"Point"},"properties":{"osm_id":"663797014","tag":{"amenity":"recycling","recycling:glass":"yes"}},"type":"Feature"},
	{"geometry":{"coordinates":[7.19123,50.807751],"type":"Point"},"properties":{"osm_id":"691163351","tag":{"amenity":"recycling","recycling:glass_bottles":"yes","recycling_type":"container"}},"type":"Feature"},
	{"geometry":{"coordinates":[7.191267,50.807763],"type":"Point"},"properties":{"osm_id":"691163373","tag":{"amenity":"recycling","recycling:clothes":"yes","recycling:shoes":"yes","recycling_type":"container"}},"type":"Feature"},
	{"geometry":{"coordinates":[7.16168,50.811522],"type":"Point"},"properties":{"osm_id":"692990868","ref":"117","tag":{"amenity":"waste_basket","waste":"trash"}},"type":"Feature"},
	{"geometry":{"coordinates":[7.156722,50.819398],"type":"Point"},"properties":{"osm_id":"693185931","tag":{"amenity":"recycling","recycling:clothes":"yes","recycling:glass_bottles":"yes","recycling_type":"container"}},"type":"Feature"},
	{"geometry":{"coordinates":[7.122875,50.822073],"type":"Point"},"properties":{"osm_id":"696835661","tag":{"amenity":"recycling","recycling:glass":"yes"}},"type":"Feature"},
	{"geometry":{"coordinates":[7.161962,50.823429],"type":"Point"},"properties":{"osm_id":"706667108","tag":{"amenity":"waste_basket"}},"type":"Feature"},
	{"geometry":{"coordinates":[7.163269,50.817011],"type":"Point"},"properties":{"osm_id":"712235642","ref":"147","tag":{"amenity":"waste_basket","waste":"trash"}},"type":"Feature"},
	{"geometry":{"coordinates":[7.169616,50.808317],"type":"Point"},"properties":{"osm_id":"721435764","tag":{"amenity":"recycling","recycling:glass":"yes"}},"type":"Feature"},
	{"geometry":{"coordinates":[7.169411,50.817778],"type":"Point"},"properties":{"osm_id":"734873161","tag":{"amenity":"recycling","location":"overground","recycling:glass":"yes","recycling_type":"container"}},"type":"Feature"},
	{"geometry":{"coordinates":[7.153175,50.81816],"type":"Point"},"properties":{"osm_id":"790571810","tag":{"amenity":"waste_basket"}},"type":"Feature"},
	{"geometry":{"coordinates":[7.14327,50.813775],"type":"Point"},"properties":{"osm_id":"791129531","tag":{"amenity":"recycling","recycling:glass_bottles":"yes","recycling_type":"container"}},"type":"Feature"},
	{"geometry":{"coordinates":[7.143429,50.813724],"type":"Point"},"properties":{"osm_id":"791129532","tag":{"amenity":"waste_basket","waste":"trash"}},"type":"Feature"},
	{"geometry":{"coordinates":[7.137749,50.817483],"type":"Point"},"properties":{"osm_id":"791139441","tag":{"amenity":"recycling","recycling:clothes":"yes","recycling:glass":"yes"}},"type":"Feature"},
	{"geometry":{"coordinates":[7.15548,50.815249],"type":"Point"},"properties":{"osm_id":"791158319","ref":"95","tag":{"amenity":"waste_basket","waste":"trash"}},"type":"Feature"},
	{"geometry":{"coordinates":[7.157635,50.814977],"type":"Point"},"properties":{"osm_id":"791158330","tag":{"amenity":"waste_basket","waste":"trash"}},"type":"Feature"},
	{"geometry":{"coordinates":[7.1554,50.814627],"type":"Point"},"properties":{"osm_id":"791158332","tag":{"amenity":"waste_basket"}},"type":"Feature"},
	{"geometry":{"coordinates":[7.126494,50.815419],"type":"Point"},"properties":{"osm_id":"791179186","tag":{"amenity":"waste_basket"}},"type":"Feature"},
	{"geometry":{"coordinates":[7.131522,50.811678],"type":"Point"},"properties":{"osm_id":"791179189","ref":"1078","tag":{"amenity":"waste_basket","waste":"trash"}},"type":"Feature"},
	{"geometry":{"coordinates":[7.126974,50.81625],"type":"Point"},"properties":{"osm_id":"791179193","tag":{"amenity":"waste_basket"}},"type":"Feature"},
	{"geometry":{"coordinates":[7.126546,50.812871],"type":"Point"},"properties":{"osm_id":"791179254","tag":{"amenity":"recycling","operator":"Humana","recycling:clothes":"yes","recycling:shoes":"yes"}},"type":"Feature"},
	{"geometry":{"coordinates":[7.128142,50.816256],"type":"Point"},"properties":{"osm_id":"791179271","tag":{"amenity":"waste_basket","waste":"trash"}},"type":"Feature"},
	{"geometry":{"coordinates":[7.131337,50.812182],"type":"Point"},"properties":{"osm_id":"791179284","ref":"1079","tag":{"amenity":"waste_basket"}},"type":"Feature"},
	{"geometry":{"coordinates":[7.128337,50.816685],"type":"Point"},"properties":{"osm_id":"791206066","tag":{"amenity":"waste_basket","waste":"trash"}},"type":"Feature"},
	{"geometry":{"coordinates":[7.127199,50.816518],"type":"Point"},"properties":{"osm_id":"791206072","tag":{"amenity":"waste_basket","waste":"trash"}},"type":"Feature"},
	{"geometry":{"coordinates":[7.127368,50.816733],"type":"Point"},"properties":{"osm_id":"791206098","tag":{"amenity":"waste_basket","waste":"trash"}},"type":"Feature"},
	{"geometry":{"coordinates":[7.128082,50.816877],"type":"Point"},"properties":{"osm_id":"791206118","tag":{"amenity":"waste_basket"}},"type":"Feature"},
	{"geometry":{"coordinates":[7.125734,50.816495],"type":"Point"},"properties":{"osm_id":"791206131","tag":{"amenity":"waste_basket"}},"type":"Feature"},
	{"geometry":{"coordinates":[7.127626,50.816804],"type":"Point"},"properties":{"osm_id":"791206147","tag":{"amenity":"waste_basket"}},"type":"Feature"},
	{"geometry":{"coordinates":[7.130081,50.816796],"type":"Point"},"properties":{"osm_id":"791219001","tag":{"amenity":"waste_basket"}},"type":"Feature"},
	{"geometry":{"coordinates":[7.158935,50.807381],"type":"Point"},"properties":{"osm_id":"791789719","tag":{"amenity":"recycling","recycling:glass_bottles":"yes","recycling_type":"container"}},"type":"Feature"},
	{"geometry":{"coordinates":[7.134393,50.80725],"type":"Point"},"properties":{"osm_id":"791789776","tag":{"amenity":"recycling","recycling:glass":"yes","recycling_type":"container"}},"type":"Feature"},
	{"geometry":{"coordinates":[7.121225,50.80259],"type":"Point"},"properties":{"osm_id":"791872946","tag":{"amenity":"waste_basket","waste":"trash"}},"type":"Feature"},
	{"geometry":{"coordinates":[7.130405,50.801545],"type":"Point"},"properties":{"osm_id":"791873475","tag":{"amenity":"waste_basket","waste":"trash"}},"type":"Feature"},
	{"geometry":{"coordinates":[7.125488,50.80038],"type":"Point"},"properties":{"osm_id":"791873479","tag":{"amenity":"waste_basket"}},"type":"Feature"},
	{"geometry":{"coordinates":[7.125146,50.803],"type":"Point"},"properties":{"osm_id":"791873490","tag":{"amenity":"waste_basket"}},"type":"Feature"},
	{"geometry":{"coordinates":[7.12515,50.802883],"type":"Point"},"properties":{"osm_id":"791873494","tag":{"amenity":"waste_basket"}},"type":"Feature"},
	{"geometry":{"coordinates":[7.125116,50.803212],"type":"Point"},"properties":{"osm_id":"791873527","tag":{"amenity":"waste_basket"}},"type":"Feature"},
	{"geometry":{"coordinates":[7.130207,50.801647],"type":"Point"},"properties":{"osm_id":"791873530","tag":{"amenity":"waste_basket"}},"type":"Feature"},
	{"geometry":{"coordinates":[7.129773,50.802141],"type":"Point"},"properties":{"osm_id":"791873545","tag":{"amenity":"waste_basket"}},"type":"Feature"},
	{"geometry":{"coordinates":[7.130934,50.801074],"type":"Point"},"properties":{"osm_id":"791873589","tag":{"amenity":"waste_basket"}},"type":"Feature"},
	{"geometry":{"coordinates":[7.125162,50.802695],"type":"Point"},"properties":{"osm_id":"791873594","tag":{"amenity":"waste_basket","waste":"trash"}},"type":"Feature"},
	{"geometry":{"coordinates":[7.130501,50.801451],"type":"Point"},"properties":{"osm_id":"791873605","tag":{"amenity":"waste_basket","waste":"trash"}},"type":"Feature"},
	{"geometry":{"coordinates":[7.129707,50.802207],"type":"Point"},"properties":{"osm_id":"791873610","tag":{"amenity":"waste_basket"}},"type":"Feature"},
	{"geometry":{"coordinates":[7.124248,50.804864],"type":"Point"},"properties":{"osm_id":"791951299","ref":"230","tag":{"amenity":"waste_basket","waste":"trash"}},"type":"Feature"},
	{"geometry":{"coordinates":[7.12728,50.798138],"type":"Point"},"properties":{"osm_id":"813522128","tag":{"amenity":"recycling"}},"type":"Feature"},
	{"geometry":{"coordinates":[7.177298,50.81146],"type":"Point"},"properties":{"osm_id":"824745154","tag":{"amenity":"recycling","recycling:glass_bottles":"yes","recycling_type":"container"}},"type":"Feature"},
	{"geometry":{"coordinates":[7.151294,50.80373],"type":"Point"},"properties":{"osm_id":"828532607","tag":{"amenity":"recycling","recycling:glass_bottles":"yes","recycling_type":"container"}},"type":"Feature"},
	{"geometry":{"coordinates":[7.154784,50.804003],"type":"Point"},"properties":{"osm_id":"828532675","tag":{"amenity":"recycling","recycling:glass":"yes"}},"type":"Feature"},
	{"geometry":{"coordinates":[7.119828,50.798886],"type":"Point"},"properties":{"osm_id":"845755318","tag":{"amenity":"recycling","recycling:glass":"yes"}},"type":"Feature"},
	{"geometry":{"coordinates":[7.148709,50.800098],"type":"Point"},"properties":{"osm_id":"872069715","tag":{"amenity":"recycling","location":"underground","recycling:glass_bottles":"yes","recycling_type":"container"}},"type":"Feature"},
	{"geometry":{"coordinates":[7.159993,50.793124],"type":"Point"},"properties":{"osm_id":"874231004","ref":"Von-Stauffenberg-Stra\u00c3\u009fe","tag":{"amenity":"recycling","operator":"RSAG","recycling:glass":"yes","recycling:glass:colour":"white;green;brown","recycling_type":"container"}},"type":"Feature"},
	{"geometry":{"coordinates":[7.166458,50.796276],"type":"Point"},"properties":{"osm_id":"885576047","ref":"Siegstra\u00c3\u009fe/Autobahnbr\u00c3\u00bccke","tag":{"amenity":"recycling","contact:phone":"+49 800 1223255","containers":"2","opening_hours":"Mo-Sa 07:00-12:00,14:30-19:00","operator":"RSAG;Remondis","recycling:glass":"yes","recycling:glass:colour":"white;green;brown","recycling_type":"container"}},"type":"Feature"},
	{"geometry":{"coordinates":[7.166517,50.79626],"type":"Point"},"properties":{"osm_id":"885576063","tag":{"amenity":"recycling","contact:phone":"+49 163 2308948","containers":"2","operator":"Daou Eitorf","recycling:clothes":"yes","recycling_type":"container"}},"type":"Feature"},
	{"geometry":{"coordinates":[7.171095,50.821877],"type":"Point"},"properties":{"osm_id":"938327104","tag":{"amenity":"recycling","recycling:green_waste":"yes","recycling_type":"container"}},"type":"Feature"},
	{"geometry":{"coordinates":[7.172395,50.821213],"type":"Point"},"properties":{"osm_id":"938327115","tag":{"amenity":"recycling","recycling:green_waste":"yes","recycling_type":"container"}},"type":"Feature"},
	{"geometry":{"coordinates":[7.171016,50.821783],"type":"Point"},"properties":{"osm_id":"938327119","tag":{"amenity":"recycling","recycling:green_waste":"yes","recycling_type":"container"}},"type":"Feature"},
	{"geometry":{"coordinates":[7.172762,50.822143],"type":"Point"},"properties":{"osm_id":"938327121","tag":{"amenity":"recycling","recycling:green_waste":"yes","recycling_type":"container"}},"type":"Feature"},
	{"geometry":{"coordinates":[7.171577,50.821508],"type":"Point"},"properties":{"osm_id":"938327127","tag":{"amenity":"recycling","recycling:green_waste":"yes","recycling_type":"container"}},"type":"Feature"},
	{"geometry":{"coordinates":[7.172767,50.821935],"type":"Point"},"properties":{"osm_id":"938327133","tag":{"amenity":"recycling","recycling:green_waste":"yes","recycling_type":"container"}},"type":"Feature"},
	{"geometry":{"coordinates":[7.170956,50.822141],"type":"Point"},"properties":{"osm_id":"938327135","tag":{"amenity":"recycling","recycling:green_waste":"yes","recycling_type":"container"}},"type":"Feature"},
	{"geometry":{"coordinates":[7.16354,50.815132],"type":"Point"},"properties":{"osm_id":"946795252","tag":{"amenity":"recycling","recycling:glass_bottles":"yes","recycling_type":"container"}},"type":"Feature"},
	{"geometry":{"coordinates":[7.204111,50.80509],"type":"Point"},"properties":{"osm_id":"947857828","tag":{"amenity":"recycling","recycling:clothes":"yes","recycling:shoes":"yes","recycling_type":"container"}},"type":"Feature"},
	{"geometry":{"coordinates":[7.165191,50.814752],"type":"Point"},"properties":{"osm_id":"948105285","tag":{"amenity":"waste_basket"}},"type":"Feature"},
	{"geometry":{"coordinates":[7.121113,50.796009],"type":"Point"},"properties":{"osm_id":"953640518","tag":{"amenity":"recycling","recycling:glass":"yes"}},"type":"Feature"},
	{"geometry":{"coordinates":[7.121075,50.795994],"type":"Point"},"properties":{"osm_id":"953640533","tag":{"amenity":"recycling","recycling:clothes":"yes"}},"type":"Feature"},
	{"geometry":{"coordinates":[7.154881,50.806695],"type":"Point"},"properties":{"osm_id":"958208820","tag":{"amenity":"waste_basket"}},"type":"Feature"},
	{"geometry":{"coordinates":[7.154769,50.806669],"type":"Point"},"properties":{"osm_id":"958208860","tag":{"amenity":"waste_basket"}},"type":"Feature"},
	{"geometry":{"coordinates":[7.147923,50.80318],"type":"Point"},"properties":{"osm_id":"963485429","tag":{"amenity":"recycling","recycling:glass":"yes"}},"type":"Feature"},
	{"geometry":{"coordinates":[7.14677,50.802784],"type":"Point"},"properties":{"osm_id":"966865947","tag":{"amenity":"recycling","recycling:green_waste":"yes"}},"type":"Feature"},
	{"geometry":{"coordinates":[7.147933,50.802382],"type":"Point"},"properties":{"osm_id":"966865955","tag":{"amenity":"recycling","recycling:green_waste":"yes","recycling_type":"centre"}},"type":"Feature"},
	{"geometry":{"coordinates":[7.147167,50.802749],"type":"Point"},"properties":{"osm_id":"966865963","tag":{"amenity":"recycling","recycling:green_waste":"yes","recycling_type":"container"}},"type":"Feature"},
	{"geometry":{"coordinates":[7.147689,50.803197],"type":"Point"},"properties":{"osm_id":"966865969","tag":{"amenity":"recycling","recycling:green_waste":"yes","recycling_type":"container"}},"type":"Feature"},
	{"geometry":{"coordinates":[7.146933,50.803234],"type":"Point"},"properties":{"osm_id":"967679677","tag":{"amenity":"recycling","recycling:green_waste":"yes","recycling_type":"container"}},"type":"Feature"},
	{"geometry":{"coordinates":[7.157584,50.801296],"type":"Point"},"properties":{"osm_id":"970537208","tag":{"amenity":"recycling","recycling:clothes":"yes","recycling_type":"container"}},"type":"Feature"},
	{"geometry":{"coordinates":[7.158994,50.801835],"type":"Point"},"properties":{"osm_id":"976478404","tag":{"amenity":"recycling","recycling:glass":"yes"}},"type":"Feature"},
	{"geometry":{"coordinates":[7.153108,50.812429],"type":"Point"},"properties":{"osm_id":"977373040","tag":{"amenity":"waste_basket"}},"type":"Feature"},
	{"geometry":{"coordinates":[7.14023,50.810938],"type":"Point"},"properties":{"osm_id":"987470153","tag":{"amenity":"recycling","recycling:glass":"yes"}},"type":"Feature"},
	{"geometry":{"coordinates":[7.13093,50.813595],"type":"Point"},"properties":{"osm_id":"1002679674","tag":{"amenity":"recycling","recycling:glass":"no","recycling:glass_bottles":"yes","recycling_type":"container"}},"type":"Feature"},
	{"geometry":{"coordinates":[7.122505,50.814258],"type":"Point"},"properties":{"osm_id":"1042820844","tag":{"amenity":"recycling","recycling:glass_bottles":"yes","recycling_type":"container"}},"type":"Feature"},
	{"geometry":{"coordinates":[7.134594,50.823847],"type":"Point"},"properties":{"osm_id":"1071065380","tag":{"amenity":"recycling","recycling:glass_bottles":"yes","recycling_type":"container"}},"type":"Feature"},
	{"geometry":{"coordinates":[7.131163,50.820309],"type":"Point"},"properties":{"osm_id":"1074909246","tag":{"amenity":"recycling","recycling:clothes":"yes"}},"type":"Feature"},
	{"geometry":{"coordinates":[7.131129,50.820322],"type":"Point"},"properties":{"osm_id":"1074909276","tag":{"amenity":"recycling","recycling:glass":"yes"}},"type":"Feature"},
	{"geometry":{"coordinates":[7.125302,50.822287],"type":"Point"},"properties":{"osm_id":"1081857913","tag":{"amenity":"recycling","recycling:glass_bottles":"yes","recycling_type":"container"}},"type":"Feature"},
	{"geometry":{"coordinates":[7.129864,50.828444],"type":"Point"},"properties":{"osm_id":"1096540495","tag":{"amenity":"recycling","recycling:clothes":"yes","recycling:glass":"no","recycling_type":"container"}},"type":"Feature"},
	{"geometry":{"coordinates":[7.119579,50.825957],"type":"Point"},"properties":{"osm_id":"1137610853","tag":{"amenity":"recycling","recycling:glass":"yes","recycling_type":"container"}},"type":"Feature"},
	{"geometry":{"coordinates":[7.176827,50.813855],"type":"Point"},"properties":{"osm_id":"1168088057","tag":{"amenity":"recycling","location":"overground","recycling:glass":"yes","recycling_type":"container"}},"type":"Feature"},
	{"geometry":{"coordinates":[7.18709,50.800329],"type":"Point"},"properties":{"osm_id":"1256809769","tag":{"amenity":"recycling","recycling:clothes":"yes"}},"type":"Feature"},
	{"geometry":{"coordinates":[7.133129,50.801728],"type":"Point"},"properties":{"osm_id":"1270101731","tag":{"amenity":"recycling","recycling:glass":"no","recycling:glass_bottles":"yes","recycling_type":"container"}},"type":"Feature"},
	{"geometry":{"coordinates":[7.137119,50.803751],"type":"Point"},"properties":{"osm_id":"1271956148","tag":{"amenity":"recycling","recycling:glass":"yes"}},"type":"Feature"},
	{"geometry":{"coordinates":[7.13356,50.802322],"type":"Point"},"properties":{"osm_id":"1274413613","tag":{"amenity":"recycling","operator":"AWO","recycling:clothes":"yes","recycling_type":"container"}},"type":"Feature"},
	{"geometry":{"coordinates":[7.127457,50.804883],"type":"Point"},"properties":{"osm_id":"1298221020","tag":{"amenity":"recycling","recycling:glass":"no","recycling:glass_bottles":"yes","recycling_type":"container"}},"type":"Feature"},
	{"geometry":{"coordinates":[7.124527,50.804751],"type":"Point"},"properties":{"osm_id":"1352647741","tag":{"amenity":"waste_basket","waste":"trash"}},"type":"Feature"},
	{"geometry":{"coordinates":[7.15222,50.818501],"type":"Point"},"properties":{"osm_id":"1413099780","tag":{"amenity":"recycling","recycling:clothes":"yes","recycling_type":"container"}},"type":"Feature"},
	{"geometry":{"coordinates":[7.171869,50.813735],"type":"Point"},"properties":{"osm_id":"1480251092","tag":{"amenity":"recycling","recycling:glass":"no","recycling:small_appliances":"yes"}},"type":"Feature"},
	{"geometry":{"coordinates":[7.1609,50.808224],"type":"Point"},"properties":{"osm_id":"1501674606","tag":{"amenity":"recycling","recycling:clothes":"yes","recycling_type":"container"}},"type":"Feature"},
	{"geometry":{"coordinates":[7.164866,50.808508],"type":"Point"},"properties":{"osm_id":"1501694395","tag":{"amenity":"recycling","recycling:clothes":"yes","recycling:shoes":"yes","recycling_type":"container"}},"type":"Feature"},
	{"geometry":{"coordinates":[7.1652,50.807101],"type":"Point"},"properties":{"osm_id":"1502930081","tag":{"amenity":"recycling","recycling:clothes":"yes","recycling_type":"container"}},"type":"Feature"},
	{"geometry":{"coordinates":[7.165319,50.807134],"type":"Point"},"properties":{"osm_id":"1502930082","tag":{"amenity":"recycling","recycling:glass":"no","recycling:glass_bottles":"yes","recycling_type":"container"}},"type":"Feature"},
	{"geometry":{"coordinates":[7.168451,50.809009],"type":"Point"},"properties":{"osm_id":"1512534820","tag":{"amenity":"recycling","recycling:clothes":"yes"}},"type":"Feature"},
	{"geometry":{"coordinates":[7.165371,50.809669],"type":"Point"},"properties":{"osm_id":"1513960323","tag":{"amenity":"recycling","recycling:glass_bottles":"yes","recycling_type":"container"}},"type":"Feature"},
	{"geometry":{"coordinates":[7.165719,50.809868],"type":"Point"},"properties":{"osm_id":"1513960331","tag":{"amenity":"recycling","recycling:clothes":"yes","recycling:shoes":"yes","recycling_type":"container"}},"type":"Feature"},
	{"geometry":{"coordinates":[7.151447,50.806717],"type":"Point"},"properties":{"osm_id":"1522934609","tag":{"amenity":"recycling","recycling:clothes":"yes"}},"type":"Feature"},
	{"geometry":{"coordinates":[7.151437,50.806742],"type":"Point"},"properties":{"osm_id":"1522934612","tag":{"amenity":"recycling","recycling:glass":"yes"}},"type":"Feature"},
	{"geometry":{"coordinates":[7.158784,50.802363],"type":"Point"},"properties":{"osm_id":"1539223020","tag":{"amenity":"recycling","recycling:clothes":"yes","recycling_type":"container"}},"type":"Feature"},
	{"geometry":{"coordinates":[7.160377,50.805882],"type":"Point"},"properties":{"osm_id":"1551605166","tag":{"amenity":"recycling","recycling:clothes":"yes"}},"type":"Feature"},
	{"geometry":{"coordinates":[7.194568,50.792448],"type":"Point"},"properties":{"osm_id":"1557386753","tag":{"amenity":"recycling","location":"overground","recycling:glass":"yes","recycling_type":"container"}},"type":"Feature"},
	{"geometry":{"coordinates":[7.181965,50.814619],"type":"Point"},"properties":{"osm_id":"1560317861","tag":{"amenity":"recycling","recycling:clothes":"yes","recycling_type":"container"}},"type":"Feature"},
	{"geometry":{"coordinates":[7.181932,50.814628],"type":"Point"},"properties":{"osm_id":"1560317864","tag":{"amenity":"recycling","recycling:glass":"yes","recycling_type":"container"}},"type":"Feature"},
	{"geometry":{"coordinates":[7.145862,50.809809],"type":"Point"},"properties":{"osm_id":"1566867276","tag":{"amenity":"recycling","recycling:clothes":"yes","recycling_type":"container"}},"type":"Feature"},
	{"geometry":{"coordinates":[7.147564,50.808121],"type":"Point"},"properties":{"osm_id":"1584364786","tag":{"amenity":"recycling","recycling:glass":"yes","recycling_type":"container"}},"type":"Feature"},
	{"geometry":{"coordinates":[7.19894,50.808057],"type":"Point"},"properties":{"osm_id":"1594596861","tag":{"amenity":"recycling","recycling:glass_bottles":"yes","recycling_type":"container"}},"type":"Feature"},
	{"geometry":{"coordinates":[7.172724,50.810913],"type":"Point"},"properties":{"osm_id":"1813668080","tag":{"amenity":"recycling","recycling:glass":"yes","recycling_type":"container"}},"type":"Feature"},
	{"geometry":{"coordinates":[7.150834,50.815781],"type":"Point"},"properties":{"osm_id":"1851624522","ref":"431","tag":{"amenity":"waste_basket","waste":"trash"}},"type":"Feature"},
	{"geometry":{"coordinates":[7.151928,50.809709],"type":"Point"},"properties":{"osm_id":"1855493750","tag":{"amenity":"recycling","recycling:clothes":"yes","recycling:shoes":"yes","recycling_type":"container"}},"type":"Feature"},
	{"geometry":{"coordinates":[7.134403,50.807224],"type":"Point"},"properties":{"osm_id":"2127688563","tag":{"amenity":"recycling","recycling:clothes":"yes","recycling_type":"container"}},"type":"Feature"},
	{"geometry":{"coordinates":[7.167527,50.820812],"type":"Point"},"properties":{"osm_id":"2267236810","tag":{"amenity":"waste_basket"}},"type":"Feature"},
	{"geometry":{"coordinates":[7.175918,50.825113],"type":"Point"},"properties":{"osm_id":"2267236812","tag":{"amenity":"waste_basket"}},"type":"Feature"},
	{"geometry":{"coordinates":[7.152678,50.815098],"type":"Point"},"properties":{"osm_id":"2272783076","tag":{"entrance":"yes"}},"type":"Feature"},
	{"geometry":{"coordinates":[7.159217,50.812217],"type":"Point"},"properties":{"osm_id":"2339174648","ref":"103","tag":{"amenity":"waste_basket"}},"type":"Feature"},
	{"geometry":{"coordinates":[7.152977,50.813815],"type":"Point"},"properties":{"osm_id":"2423818487","tag":{"amenity":"waste_basket","waste":"trash"}},"type":"Feature"},
	{"geometry":{"coordinates":[7.204977,50.839696],"type":"Point"},"properties":{"osm_id":"2591534386","tag":{"amenity":"recycling","recycling:clothes":"yes","recycling:shoes":"yes","recycling_type":"container"}},"type":"Feature"},
	{"geometry":{"coordinates":[7.202505,50.840575],"type":"Point"},"properties":{"osm_id":"2599592641","tag":{"amenity":"recycling","recycling:clothes":"yes","recycling_type":"container"}},"type":"Feature"},
	{"geometry":{"coordinates":[7.202523,50.840598],"type":"Point"},"properties":{"osm_id":"2599592647","tag":{"amenity":"recycling","recycling:glass":"yes","recycling_type":"container"}},"type":"Feature"},
	{"geometry":{"coordinates":[7.162384,50.81671],"type":"Point"},"properties":{"osm_id":"2612453736","ref":"459","tag":{"amenity":"waste_basket","waste":"trash"}},"type":"Feature"},
	{"geometry":{"coordinates":[7.16289,50.816535],"type":"Point"},"properties":{"osm_id":"2614697432","ref":"457","tag":{"amenity":"waste_basket","waste":"trash"}},"type":"Feature"},
	{"geometry":{"coordinates":[7.162456,50.816676],"type":"Point"},"properties":{"osm_id":"2614697439","ref":"458","tag":{"amenity":"waste_basket","waste":"trash"}},"type":"Feature"},
	{"geometry":{"coordinates":[7.161444,50.806499],"type":"Point"},"properties":{"osm_id":"2682007457","tag":{"amenity":"recycling","recycling:clothes":"yes","recycling_type":"container"}},"type":"Feature"},
	{"geometry":{"coordinates":[7.163481,50.817476],"type":"Point"},"properties":{"osm_id":"2783381917","ref":"145","tag":{"amenity":"waste_basket","waste":"trash"}},"type":"Feature"},
	{"geometry":{"coordinates":[7.15524,50.818327],"type":"Point"},"properties":{"osm_id":"2796248018","tag":{"amenity":"waste_basket"}},"type":"Feature"},
	{"geometry":{"coordinates":[7.155397,50.818382],"type":"Point"},"properties":{"osm_id":"2796248022","tag":{"amenity":"waste_basket","waste":"trash"}},"type":"Feature"},
	{"geometry":{"coordinates":[7.153677,50.806858],"type":"Point"},"properties":{"osm_id":"2801113787","tag":{"amenity":"waste_basket","waste":"trash"}},"type":"Feature"},
	{"geometry":{"coordinates":[7.154974,50.808253],"type":"Point"},"properties":{"osm_id":"2805958705","tag":{"amenity":"waste_basket"}},"type":"Feature"},
	{"geometry":{"coordinates":[7.154345,50.806722],"type":"Point"},"properties":{"osm_id":"2833559105","tag":{"amenity":"waste_basket","waste":"trash"}},"type":"Feature"},
	{"geometry":{"coordinates":[7.152373,50.807242],"type":"Point"},"properties":{"osm_id":"2833559107","tag":{"amenity":"waste_basket","waste":"trash"}},"type":"Feature"},
	{"geometry":{"coordinates":[7.154072,50.807631],"type":"Point"},"properties":{"osm_id":"2833559115","tag":{"amenity":"waste_basket"}},"type":"Feature"},
	{"geometry":{"coordinates":[7.154151,50.807645],"type":"Point"},"properties":{"osm_id":"2833559117","tag":{"amenity":"waste_basket"}},"type":"Feature"},
	{"geometry":{"coordinates":[7.153186,50.807677],"type":"Point"},"properties":{"osm_id":"2833559119","tag":{"amenity":"waste_basket"}},"type":"Feature"},
	{"geometry":{"coordinates":[7.153617,50.807713],"type":"Point"},"properties":{"osm_id":"2833559120","tag":{"amenity":"waste_basket"}},"type":"Feature"},
	{"geometry":{"coordinates":[7.153302,50.807015],"type":"Point"},"properties":{"osm_id":"2837579538","tag":{"amenity":"waste_basket"}},"type":"Feature"},
	{"geometry":{"coordinates":[7.154704,50.807298],"type":"Point"},"properties":{"osm_id":"2837579539","tag":{"amenity":"waste_basket"}},"type":"Feature"},
	{"geometry":{"coordinates":[7.160957,50.809851],"type":"Point"},"properties":{"osm_id":"2912596816","tag":{"amenity":"waste_basket"}},"type":"Feature"},
	{"geometry":{"coordinates":[7.136202,50.814308],"type":"Point"},"properties":{"osm_id":"2967474303","tag":{"amenity":"waste_basket"}},"type":"Feature"},
	{"geometry":{"coordinates":[7.176857,50.813883],"type":"Point"},"properties":{"osm_id":"3002500955","tag":{"amenity":"recycling","recycling:clothes":"yes","recycling_type":"container"}},"type":"Feature"},
	{"geometry":{"coordinates":[7.121056,50.797735],"type":"Point"},"properties":{"osm_id":"3118034355","tag":{"amenity":"recycling","recycling:clothes":"yes","recycling_type":"container"}},"type":"Feature"},
	{"geometry":{"coordinates":[7.121044,50.79775],"type":"Point"},"properties":{"osm_id":"3118034356","tag":{"amenity":"recycling","recycling:glass":"yes","recycling_type":"container"}},"type":"Feature"},
	{"geometry":{"coordinates":[7.163506,50.816871],"type":"Point"},"properties":{"osm_id":"3125407034","ref":"149","tag":{"amenity":"waste_basket","waste":"trash"}},"type":"Feature"},
	{"geometry":{"coordinates":[7.162848,50.816959],"type":"Point"},"properties":{"osm_id":"3125407036","tag":{"amenity":"waste_basket","waste":"trash"}},"type":"Feature"},
	{"geometry":{"coordinates":[7.163891,50.81704],"type":"Point"},"properties":{"osm_id":"3125407037","ref":"150","tag":{"amenity":"waste_basket","waste":"trash"}},"type":"Feature"},
	{"geometry":{"coordinates":[7.16325,50.81705],"type":"Point"},"properties":{"osm_id":"3125407039","ref":"146","tag":{"amenity":"waste_basket","waste":"trash"}},"type":"Feature"},
	{"geometry":{"coordinates":[7.164271,50.817209],"type":"Point"},"properties":{"osm_id":"3125407040","tag":{"amenity":"waste_basket","waste":"trash"}},"type":"Feature"},
	{"geometry":{"coordinates":[7.164532,50.817331],"type":"Point"},"properties":{"osm_id":"3125407042","tag":{"amenity":"waste_basket","waste":"trash"}},"type":"Feature"},
	{"geometry":{"coordinates":[7.16463,50.817479],"type":"Point"},"properties":{"osm_id":"3125407044","tag":{"amenity":"waste_basket","waste":"trash"}},"type":"Feature"},
	{"geometry":{"coordinates":[7.164101,50.817781],"type":"Point"},"properties":{"osm_id":"3125407046","ref":"144","tag":{"amenity":"waste_basket","waste":"trash"}},"type":"Feature"},
	{"geometry":{"coordinates":[7.164398,50.817962],"type":"Point"},"properties":{"osm_id":"3125407049","tag":{"amenity":"waste_basket","waste":"trash"}},"type":"Feature"},
	{"geometry":{"coordinates":[7.164391,50.815845],"type":"Point"},"properties":{"osm_id":"3127687546","ref":"159","tag":{"amenity":"waste_basket","waste":"trash"}},"type":"Feature"},
	{"geometry":{"coordinates":[7.164606,50.816036],"type":"Point"},"properties":{"osm_id":"3127687547","ref":"158","tag":{"amenity":"waste_basket","waste":"trash"}},"type":"Feature"},
	{"geometry":{"coordinates":[7.166606,50.817146],"type":"Point"},"properties":{"osm_id":"3127687556","tag":{"amenity":"waste_basket","waste":"trash"}},"type":"Feature"},
	{"geometry":{"coordinates":[7.169451,50.817782],"type":"Point"},"properties":{"osm_id":"3127687557","tag":{"amenity":"recycling","recycling:clothes":"yes","recycling_type":"container"}},"type":"Feature"},
	{"geometry":{"coordinates":[7.16949,50.817818],"type":"Point"},"properties":{"osm_id":"3127687558","ref":"518","tag":{"amenity":"waste_basket","waste":"trash"}},"type":"Feature"},
	{"geometry":{"coordinates":[7.169048,50.817968],"type":"Point"},"properties":{"osm_id":"3127687559","tag":{"amenity":"waste_basket"}},"type":"Feature"},
	{"geometry":{"coordinates":[7.17028,50.818171],"type":"Point"},"properties":{"osm_id":"3127687561","ref":"515","tag":{"amenity":"waste_basket"}},"type":"Feature"},
	{"geometry":{"coordinates":[7.171399,50.818746],"type":"Point"},"properties":{"osm_id":"3127687563","tag":{"amenity":"waste_basket"}},"type":"Feature"},
	{"geometry":{"coordinates":[7.17208,50.819601],"type":"Point"},"properties":{"osm_id":"3127687565","ref":"517","tag":{"amenity":"waste_basket"}},"type":"Feature"},
	{"geometry":{"coordinates":[7.172388,50.819726],"type":"Point"},"properties":{"osm_id":"3127687568","tag":{"amenity":"waste_basket"}},"type":"Feature"},
	{"geometry":{"coordinates":[7.172366,50.819784],"type":"Point"},"properties":{"osm_id":"3127687572","tag":{"amenity":"waste_basket"}},"type":"Feature"},
	{"geometry":{"coordinates":[7.159566,50.813127],"type":"Point"},"properties":{"osm_id":"3129490385","ref":"107","tag":{"amenity":"waste_basket"}},"type":"Feature"},
	{"geometry":{"coordinates":[7.159396,50.813332],"type":"Point"},"properties":{"osm_id":"3129490386","ref":"108","tag":{"amenity":"waste_basket"}},"type":"Feature"},
	{"geometry":{"coordinates":[7.123475,50.79951],"type":"Point"},"properties":{"osm_id":"3130851539","ref":"247","tag":{"amenity":"waste_basket"}},"type":"Feature"},
	{"geometry":{"coordinates":[7.160043,50.813062],"type":"Point"},"properties":{"osm_id":"3131036255","ref":"110","tag":{"amenity":"waste_basket"}},"type":"Feature"},
	{"geometry":{"coordinates":[7.160842,50.813212],"type":"Point"},"properties":{"osm_id":"3131036256","ref":"115","tag":{"amenity":"waste_basket","waste":"trash"}},"type":"Feature"},
	{"geometry":{"coordinates":[7.160061,50.813236],"type":"Point"},"properties":{"osm_id":"3131036257","ref":"109","tag":{"amenity":"waste_basket"}},"type":"Feature"},
	{"geometry":{"coordinates":[7.160644,50.813364],"type":"Point"},"properties":{"osm_id":"3131036258","ref":"114","tag":{"amenity":"waste_basket"}},"type":"Feature"},
	{"geometry":{"coordinates":[7.153175,50.812339],"type":"Point"},"properties":{"osm_id":"3133126824","ref":"1095","tag":{"amenity":"waste_basket"}},"type":"Feature"},
	{"geometry":{"coordinates":[7.163006,50.812728],"type":"Point"},"properties":{"osm_id":"3134692682","ref":"119","tag":{"amenity":"waste_basket","waste":"trash"}},"type":"Feature"},
	{"geometry":{"coordinates":[7.152738,50.814342],"type":"Point"},"properties":{"osm_id":"3134925324","tag":{"amenity":"waste_basket"}},"type":"Feature"},
	{"geometry":{"coordinates":[7.153105,50.814576],"type":"Point"},"properties":{"osm_id":"3134925325","ref":"415","tag":{"amenity":"waste_basket"}},"type":"Feature"},
	{"geometry":{"coordinates":[7.153509,50.814602],"type":"Point"},"properties":{"osm_id":"3134925326","ref":"417","tag":{"amenity":"waste_basket"}},"type":"Feature"},
	{"geometry":{"coordinates":[7.1534,50.814699],"type":"Point"},"properties":{"osm_id":"3134925328","tag":{"amenity":"waste_basket"}},"type":"Feature"},
	{"geometry":{"coordinates":[7.153981,50.81478],"type":"Point"},"properties":{"osm_id":"3134927229","ref":"422","tag":{"amenity":"waste_basket"}},"type":"Feature"},
	{"geometry":{"coordinates":[7.163647,50.814837],"type":"Point"},"properties":{"osm_id":"3134927230","ref":"131","tag":{"amenity":"waste_basket"}},"type":"Feature"},
	{"geometry":{"coordinates":[7.163739,50.814856],"type":"Point"},"properties":{"osm_id":"3134927231","ref":"132","tag":{"amenity":"waste_basket"}},"type":"Feature"},
	{"geometry":{"coordinates":[7.155438,50.81421],"type":"Point"},"properties":{"osm_id":"3136328528","ref":"89","tag":{"amenity":"waste_basket"}},"type":"Feature"},
	{"geometry":{"coordinates":[7.155422,50.814372],"type":"Point"},"properties":{"osm_id":"3136329531","ref":"88","tag":{"amenity":"waste_basket"}},"type":"Feature"},
	{"geometry":{"coordinates":[7.165483,50.814709],"type":"Point"},"properties":{"osm_id":"3136670015","ref":"456","tag":{"amenity":"waste_basket","waste":"trash"}},"type":"Feature"},
	{"geometry":{"coordinates":[7.164864,50.814744],"type":"Point"},"properties":{"osm_id":"3136670018","ref":"454","tag":{"amenity":"waste_basket","waste":"trash"}},"type":"Feature"},
	{"geometry":{"coordinates":[7.165003,50.814825],"type":"Point"},"properties":{"osm_id":"3136670019","ref":"457","tag":{"amenity":"waste_basket","waste":"trash"}},"type":"Feature"},
	{"geometry":{"coordinates":[7.165301,50.814986],"type":"Point"},"properties":{"osm_id":"3136670020","ref":"452","tag":{"amenity":"waste_basket","waste":"trash"}},"type":"Feature"},
	{"geometry":{"coordinates":[7.155786,50.813786],"type":"Point"},"properties":{"osm_id":"3136996997","tag":{"amenity":"waste_basket","waste":"trash"}},"type":"Feature"},
	{"geometry":{"coordinates":[7.153073,50.815127],"type":"Point"},"properties":{"osm_id":"3136997002","ref":"429","tag":{"amenity":"waste_basket","waste":"trash"}},"type":"Feature"},
	{"geometry":{"coordinates":[7.15311,50.81522],"type":"Point"},"properties":{"osm_id":"3136997009","ref":"428","tag":{"amenity":"waste_basket","waste":"trash"}},"type":"Feature"},
	{"geometry":{"coordinates":[7.151247,50.815647],"type":"Point"},"properties":{"osm_id":"3136997010","ref":"430","tag":{"amenity":"waste_basket","waste":"trash"}},"type":"Feature"},
	{"geometry":{"coordinates":[7.121027,50.827064],"type":"Point"},"properties":{"osm_id":"3138414834","ref":"682","tag":{"amenity":"waste_basket","waste":"trash"}},"type":"Feature"},
	{"geometry":{"coordinates":[7.156771,50.811093],"type":"Point"},"properties":{"osm_id":"3139843095","ref":"113","tag":{"amenity":"waste_basket"}},"type":"Feature"},
	{"geometry":{"coordinates":[7.156337,50.811333],"type":"Point"},"properties":{"osm_id":"3139843098","ref":"112","tag":{"amenity":"waste_basket"}},"type":"Feature"},
	{"geometry":{"coordinates":[7.162173,50.812466],"type":"Point"},"properties":{"osm_id":"3139843100","ref":"116","tag":{"amenity":"waste_basket","waste":"trash"}},"type":"Feature"},
	{"geometry":{"coordinates":[7.158591,50.809477],"type":"Point"},"properties":{"osm_id":"3143419199","tag":{"amenity":"waste_basket","waste":"M\u00c3\u00bcll;Hundekot"}},"type":"Feature"},
	{"geometry":{"coordinates":[7.159251,50.811977],"type":"Point"},"properties":{"osm_id":"3143419200","ref":"105","tag":{"amenity":"waste_basket","waste":"trash"}},"type":"Feature"},
	{"geometry":{"coordinates":[7.152211,50.799251],"type":"Point"},"properties":{"osm_id":"3143440827","ref":"1182","tag":{"amenity":"waste_basket"}},"type":"Feature"},
	{"geometry":{"coordinates":[7.162618,50.812775],"type":"Point"},"properties":{"osm_id":"3147217234","ref":"118","tag":{"amenity":"waste_basket","waste":"trash"}},"type":"Feature"},
	{"geometry":{"coordinates":[7.163078,50.813082],"type":"Point"},"properties":{"osm_id":"3147217236","ref":"450","tag":{"amenity":"waste_basket","waste":"trash"}},"type":"Feature"},
	{"geometry":{"coordinates":[7.135802,50.809022],"type":"Point"},"properties":{"osm_id":"3150822031","tag":{"amenity":"recycling","recycling:glass":"yes","recycling_type":"container"}},"type":"Feature"},
	{"geometry":{"coordinates":[7.135777,50.809039],"type":"Point"},"properties":{"osm_id":"3150822032","tag":{"amenity":"waste_basket"}},"type":"Feature"},
	{"geometry":{"coordinates":[7.136545,50.810633],"type":"Point"},"properties":{"osm_id":"3150822035","tag":{"amenity":"waste_basket"}},"type":"Feature"},
	{"geometry":{"coordinates":[7.148408,50.812973],"type":"Point"},"properties":{"osm_id":"3150822040","ref":"1092","tag":{"amenity":"waste_basket"}},"type":"Feature"},
	{"geometry":{"coordinates":[7.165469,50.809655],"type":"Point"},"properties":{"osm_id":"3152392958","ref":"443","tag":{"amenity":"waste_basket","waste":"trash"}},"type":"Feature"},
	{"geometry":{"coordinates":[7.166362,50.809196],"type":"Point"},"properties":{"osm_id":"3154321902","ref":"30","tag":{"amenity":"waste_basket"}},"type":"Feature"},
	{"geometry":{"coordinates":[7.166484,50.809295],"type":"Point"},"properties":{"osm_id":"3154321907","tag":{"amenity":"waste_basket"}},"type":"Feature"},
	{"geometry":{"coordinates":[7.165976,50.809315],"type":"Point"},"properties":{"osm_id":"3154321908","ref":"26","tag":{"amenity":"waste_basket"}},"type":"Feature"},
	{"geometry":{"coordinates":[7.165838,50.809355],"type":"Point"},"properties":{"osm_id":"3154321911","ref":"25","tag":{"amenity":"waste_basket"}},"type":"Feature"},
	{"geometry":{"coordinates":[7.166288,50.80936],"type":"Point"},"properties":{"osm_id":"3154321912","ref":"31","tag":{"amenity":"waste_basket"}},"type":"Feature"},
	{"geometry":{"coordinates":[7.166074,50.809445],"type":"Point"},"properties":{"osm_id":"3154321916","ref":"28","tag":{"amenity":"waste_basket","waste":"trash"}},"type":"Feature"},
	{"geometry":{"coordinates":[7.165911,50.809489],"type":"Point"},"properties":{"osm_id":"3154321918","ref":"29","tag":{"amenity":"waste_basket","waste":"trash"}},"type":"Feature"},
	{"geometry":{"coordinates":[7.134327,50.809579],"type":"Point"},"properties":{"osm_id":"3155956329","tag":{"amenity":"waste_basket"}},"type":"Feature"},
	{"geometry":{"coordinates":[7.133453,50.809917],"type":"Point"},"properties":{"osm_id":"3155956331","ref":"1074","tag":{"amenity":"waste_basket"}},"type":"Feature"},
	{"geometry":{"coordinates":[7.136669,50.811036],"type":"Point"},"properties":{"osm_id":"3168221663","ref":"1070","tag":{"amenity":"waste_basket"}},"type":"Feature"},
	{"geometry":{"coordinates":[7.136665,50.811294],"type":"Point"},"properties":{"osm_id":"3168221667","ref":"1069","tag":{"amenity":"waste_basket"}},"type":"Feature"},
	{"geometry":{"coordinates":[7.134157,50.813895],"type":"Point"},"properties":{"osm_id":"3168221680","tag":{"amenity":"waste_basket"}},"type":"Feature"},
	{"geometry":{"coordinates":[7.15305,50.807403],"type":"Point"},"properties":{"osm_id":"3170272295","tag":{"amenity":"waste_basket"}},"type":"Feature"},
	{"geometry":{"coordinates":[7.154721,50.808094],"type":"Point"},"properties":{"osm_id":"3170272296","tag":{"amenity":"waste_basket"}},"type":"Feature"},
	{"geometry":{"coordinates":[7.169973,50.813336],"type":"Point"},"properties":{"osm_id":"3172155037","tag":{"amenity":"waste_basket","waste":"trash"}},"type":"Feature"},
	{"geometry":{"coordinates":[7.171393,50.813618],"type":"Point"},"properties":{"osm_id":"3172155042","tag":{"amenity":"waste_basket"}},"type":"Feature"},
	{"geometry":{"coordinates":[7.171868,50.813755],"type":"Point"},"properties":{"osm_id":"3172155046","tag":{"amenity":"recycling","recycling:scrap_metal":"yes","recycling_type":"container"}},"type":"Feature"},
	{"geometry":{"coordinates":[7.171951,50.814324],"type":"Point"},"properties":{"osm_id":"3172155047","ref":"548","tag":{"amenity":"waste_basket"}},"type":"Feature"},
	{"geometry":{"coordinates":[7.171816,50.814356],"type":"Point"},"properties":{"osm_id":"3172155049","ref":"546","tag":{"amenity":"waste_basket"}},"type":"Feature"},
	{"geometry":{"coordinates":[7.175187,50.808462],"type":"Point"},"properties":{"osm_id":"3176685444","tag":{"amenity":"waste_basket"}},"type":"Feature"},
	{"geometry":{"coordinates":[7.175115,50.808513],"type":"Point"},"properties":{"osm_id":"3176685450","tag":{"amenity":"waste_basket"}},"type":"Feature"},
	{"geometry":{"coordinates":[7.180828,50.811639],"type":"Point"},"properties":{"osm_id":"3177067285","tag":{"amenity":"waste_basket"}},"type":"Feature"},
	{"geometry":{"coordinates":[7.17561,50.808672],"type":"Point"},"properties":{"osm_id":"3178681946","tag":{"amenity":"waste_basket"}},"type":"Feature"},
	{"geometry":{"coordinates":[7.175743,50.808724],"type":"Point"},"properties":{"osm_id":"3178681950","tag":{"amenity":"waste_basket"}},"type":"Feature"},
	{"geometry":{"coordinates":[7.176111,50.809078],"type":"Point"},"properties":{"osm_id":"3178681953","tag":{"amenity":"waste_basket"}},"type":"Feature"},
	{"geometry":{"coordinates":[7.128043,50.812818],"type":"Point"},"properties":{"osm_id":"3180960351","ref":"1077B","tag":{"amenity":"waste_basket","waste":"trash"}},"type":"Feature"},
	{"geometry":{"coordinates":[7.1521,50.814076],"type":"Point"},"properties":{"osm_id":"3180960469","tag":{"amenity":"waste_basket"}},"type":"Feature"},
	{"geometry":{"coordinates":[7.125921,50.814069],"type":"Point"},"properties":{"osm_id":"3182450840","tag":{"amenity":"waste_basket"}},"type":"Feature"},
	{"geometry":{"coordinates":[7.179182,50.815442],"type":"Point"},"properties":{"osm_id":"3186504888","ref":"565","tag":{"amenity":"waste_basket","waste":"trash"}},"type":"Feature"},
	{"geometry":{"coordinates":[7.178968,50.815513],"type":"Point"},"properties":{"osm_id":"3186504889","ref":"585","tag":{"amenity":"waste_basket","waste":"trash"}},"type":"Feature"},
	{"geometry":{"coordinates":[7.17874,50.815589],"type":"Point"},"properties":{"osm_id":"3186504891","ref":"564","tag":{"amenity":"waste_basket","waste":"trash"}},"type":"Feature"},
	{"geometry":{"coordinates":[7.175662,50.81639],"type":"Point"},"properties":{"osm_id":"3193618596","ref":"542","tag":{"amenity":"waste_basket"}},"type":"Feature"},
	{"geometry":{"coordinates":[7.175419,50.816412],"type":"Point"},"properties":{"osm_id":"3193618597","ref":"543","tag":{"amenity":"waste_basket"}},"type":"Feature"},
	{"geometry":{"coordinates":[7.164743,50.818168],"type":"Point"},"properties":{"osm_id":"3199856279","ref":"509","tag":{"amenity":"waste_basket"}},"type":"Feature"},
	{"geometry":{"coordinates":[7.164974,50.818336],"type":"Point"},"properties":{"osm_id":"3199856280","ref":"508","tag":{"amenity":"waste_basket"}},"type":"Feature"},
	{"geometry":{"coordinates":[7.153873,50.808537],"type":"Point"},"properties":{"osm_id":"3204550078","ref":"1099","tag":{"amenity":"waste_basket"}},"type":"Feature"},
	{"geometry":{"coordinates":[7.157454,50.814003],"type":"Point"},"properties":{"osm_id":"3208617435","tag":{"amenity":"waste_basket","waste":"trash"}},"type":"Feature"},
	{"geometry":{"coordinates":[7.157215,50.814363],"type":"Point"},"properties":{"osm_id":"3208617436","tag":{"amenity":"waste_basket","waste":"trash"}},"type":"Feature"},
	{"geometry":{"coordinates":[7.1572,50.814441],"type":"Point"},"properties":{"osm_id":"3208617437","tag":{"amenity":"waste_basket","waste":"trash"}},"type":"Feature"},
	{"geometry":{"coordinates":[7.132319,50.817469],"type":"Point"},"properties":{"osm_id":"3209243521","tag":{"amenity":"waste_basket"}},"type":"Feature"},
	{"geometry":{"coordinates":[7.127706,50.823313],"type":"Point"},"properties":{"osm_id":"3217057819","ref":"704","tag":{"amenity":"waste_basket"}},"type":"Feature"},
	{"geometry":{"coordinates":[7.128187,50.823668],"type":"Point"},"properties":{"osm_id":"3217057825","ref":"703","tag":{"amenity":"waste_basket"}},"type":"Feature"},
	{"geometry":{"coordinates":[7.204717,50.838067],"type":"Point"},"properties":{"osm_id":"3220774661","tag":{"amenity":"recycling","recycling:glass_bottles":"yes","recycling_type":"container","wheelchair":"limited"}},"type":"Feature"},
	{"geometry":{"coordinates":[7.151689,50.816592],"type":"Point"},"properties":{"osm_id":"3221374440","tag":{"amenity":"waste_basket","waste":"trash"}},"type":"Feature"},
	{"geometry":{"coordinates":[7.136224,50.824863],"type":"Point"},"properties":{"osm_id":"3227863095","ref":"694","tag":{"amenity":"waste_basket"}},"type":"Feature"},
	{"geometry":{"coordinates":[7.154778,50.818292],"type":"Point"},"properties":{"osm_id":"3228005265","ref":"434","tag":{"amenity":"waste_basket","waste":"trash;dog_excrement"}},"type":"Feature"},
	{"geometry":{"coordinates":[7.13124,50.820335],"type":"Point"},"properties":{"osm_id":"3231448061","ref":"700","tag":{"amenity":"waste_basket"}},"type":"Feature"},
	{"geometry":{"coordinates":[7.159255,50.80479],"type":"Point"},"properties":{"osm_id":"3234506964","ref":"1169","tag":{"amenity":"waste_basket","waste":"trash"}},"type":"Feature"},
	{"geometry":{"coordinates":[7.154376,50.815319],"type":"Point"},"properties":{"osm_id":"3244477339","tag":{"amenity":"waste_basket"}},"type":"Feature"},
	{"geometry":{"coordinates":[7.142097,50.8194],"type":"Point"},"properties":{"osm_id":"3250583225","tag":{"amenity":"waste_basket"}},"type":"Feature"},
	{"geometry":{"coordinates":[7.122428,50.82479],"type":"Point"},"properties":{"osm_id":"3256313158","ref":"690","tag":{"amenity":"waste_basket"}},"type":"Feature"},
	{"geometry":{"coordinates":[7.12022,50.827387],"type":"Point"},"properties":{"osm_id":"3257796581","ref":"708","tag":{"amenity":"waste_basket","waste":"trash"}},"type":"Feature"},
	{"geometry":{"coordinates":[7.123935,50.823379],"type":"Point"},"properties":{"osm_id":"3261370071","ref":"692","tag":{"amenity":"waste_basket"}},"type":"Feature"},
	{"geometry":{"coordinates":[7.150524,50.814636],"type":"Point"},"properties":{"osm_id":"3263107327","tag":{"amenity":"waste_basket"}},"type":"Feature"},
	{"geometry":{"coordinates":[7.123119,50.82429],"type":"Point"},"properties":{"osm_id":"3274413479","tag":{"amenity":"waste_basket"}},"type":"Feature"},
	{"geometry":{"coordinates":[7.121667,50.825101],"type":"Point"},"properties":{"osm_id":"3274413487","ref":"689","tag":{"amenity":"waste_basket"}},"type":"Feature"},
	{"geometry":{"coordinates":[7.149058,50.816976],"type":"Point"},"properties":{"osm_id":"3274425963","ref":"409","tag":{"amenity":"waste_basket"}},"type":"Feature"},
	{"geometry":{"coordinates":[7.149158,50.817098],"type":"Point"},"properties":{"osm_id":"3274425964","ref":"408","tag":{"amenity":"waste_basket"}},"type":"Feature"},
	{"geometry":{"coordinates":[7.141713,50.819514],"type":"Point"},"properties":{"osm_id":"3274425966","tag":{"amenity":"waste_basket"}},"type":"Feature"},
	{"geometry":{"coordinates":[7.138412,50.825807],"type":"Point"},"properties":{"osm_id":"3278516778","ref":"611","tag":{"amenity":"waste_basket"}},"type":"Feature"},
	{"geometry":{"coordinates":[7.164967,50.814461],"type":"Point"},"properties":{"osm_id":"3291974241","tag":{"amenity":"waste_basket","waste":"trash"}},"type":"Feature"},
	{"geometry":{"coordinates":[7.153068,50.810721],"type":"Point"},"properties":{"osm_id":"3296465756","tag":{"amenity":"waste_basket"}},"type":"Feature"},
	{"geometry":{"coordinates":[7.152179,50.81101],"type":"Point"},"properties":{"osm_id":"3296466071","ref":"1096","tag":{"amenity":"waste_basket"}},"type":"Feature"},
	{"geometry":{"coordinates":[7.165029,50.806685],"type":"Point"},"properties":{"osm_id":"3298391116","tag":{"amenity":"waste_basket"}},"type":"Feature"},
	{"geometry":{"coordinates":[7.164957,50.806756],"type":"Point"},"properties":{"osm_id":"3298391121","tag":{"amenity":"waste_basket"}},"type":"Feature"},
	{"geometry":{"coordinates":[7.168941,50.807804],"type":"Point"},"properties":{"osm_id":"3298391154","tag":{"amenity":"waste_basket","waste":"trash"}},"type":"Feature"},
	{"geometry":{"coordinates":[7.154606,50.815818],"type":"Point"},"properties":{"osm_id":"3302103453","tag":{"amenity":"waste_basket","waste":"trash"}},"type":"Feature"},
	{"geometry":{"coordinates":[7.153561,50.816131],"type":"Point"},"properties":{"osm_id":"3302103454","tag":{"amenity":"waste_basket","waste":"trash"}},"type":"Feature"},
	{"geometry":{"coordinates":[7.152231,50.816525],"type":"Point"},"properties":{"osm_id":"3302103455","tag":{"amenity":"waste_basket","waste":"trash"}},"type":"Feature"},
	{"geometry":{"coordinates":[7.151605,50.816698],"type":"Point"},"properties":{"osm_id":"3302103456","tag":{"amenity":"waste_basket","waste":"trash"}},"type":"Feature"},
	{"geometry":{"coordinates":[7.150891,50.816913],"type":"Point"},"properties":{"osm_id":"3302103457","tag":{"amenity":"waste_basket","waste":"trash"}},"type":"Feature"},
	{"geometry":{"coordinates":[7.159422,50.819518],"type":"Point"},"properties":{"osm_id":"3323252335","ref":"438","tag":{"amenity":"waste_basket"}},"type":"Feature"},
	{"geometry":{"coordinates":[7.160859,50.820175],"type":"Point"},"properties":{"osm_id":"3323252336","tag":{"amenity":"waste_basket"}},"type":"Feature"},
	{"geometry":{"coordinates":[7.156559,50.819475],"type":"Point"},"properties":{"osm_id":"3325086417","tag":{"amenity":"waste_basket"}},"type":"Feature"},
	{"geometry":{"coordinates":[7.160886,50.819812],"type":"Point"},"properties":{"osm_id":"3325086418","tag":{"amenity":"waste_basket"}},"type":"Feature"},
	{"geometry":{"coordinates":[7.161086,50.821717],"type":"Point"},"properties":{"osm_id":"3325086425","tag":{"amenity":"waste_basket"}},"type":"Feature"},
	{"geometry":{"coordinates":[7.161302,50.82267],"type":"Point"},"properties":{"osm_id":"3325086428","ref":"469","tag":{"amenity":"waste_basket"}},"type":"Feature"},
	{"geometry":{"coordinates":[7.161631,50.823434],"type":"Point"},"properties":{"osm_id":"3325086440","ref":"466","tag":{"amenity":"waste_basket"}},"type":"Feature"},
	{"geometry":{"coordinates":[7.126673,50.828855],"type":"Point"},"properties":{"osm_id":"3343599802","tag":{"amenity":"waste_basket"}},"type":"Feature"},
	{"geometry":{"coordinates":[7.120606,50.829346],"type":"Point"},"properties":{"osm_id":"3349875414","ref":"668","tag":{"amenity":"waste_basket"}},"type":"Feature"},
	{"geometry":{"coordinates":[7.129343,50.827891],"type":"Point"},"properties":{"osm_id":"3357423701","tag":{"amenity":"recycling","location":"underground","recycling:glass_bottles":"yes","recycling_type":"container"}},"type":"Feature"},
	{"geometry":{"coordinates":[7.129883,50.829514],"type":"Point"},"properties":{"osm_id":"3357423708","ref":"621","tag":{"amenity":"waste_basket"}},"type":"Feature"},
	{"geometry":{"coordinates":[7.132273,50.829948],"type":"Point"},"properties":{"osm_id":"3357423715","ref":"617","tag":{"amenity":"waste_basket"}},"type":"Feature"},
	{"geometry":{"coordinates":[7.130948,50.830188],"type":"Point"},"properties":{"osm_id":"3357423717","ref":"618","tag":{"amenity":"waste_basket"}},"type":"Feature"},
	{"geometry":{"coordinates":[7.129846,50.830223],"type":"Point"},"properties":{"osm_id":"3357423720","ref":"619","tag":{"amenity":"waste_basket"}},"type":"Feature"},
	{"geometry":{"coordinates":[7.125845,50.828442],"type":"Point"},"properties":{"osm_id":"3365463275","ref":"672","tag":{"amenity":"waste_basket"}},"type":"Feature"},
	{"geometry":{"coordinates":[7.122409,50.828018],"type":"Point"},"properties":{"osm_id":"3371470171","ref":"679","tag":{"amenity":"waste_basket"}},"type":"Feature"},
	{"geometry":{"coordinates":[7.12259,50.828103],"type":"Point"},"properties":{"osm_id":"3371470173","tag":{"amenity":"waste_basket"}},"type":"Feature"},
	{"geometry":{"coordinates":[7.123503,50.828981],"type":"Point"},"properties":{"osm_id":"3371470176","tag":{"amenity":"waste_basket"}},"type":"Feature"},
	{"geometry":{"coordinates":[7.156549,50.804283],"type":"Point"},"properties":{"osm_id":"3371672754","ref":"1204","tag":{"amenity":"waste_basket"}},"type":"Feature"},
	{"geometry":{"coordinates":[7.156419,50.804405],"type":"Point"},"properties":{"osm_id":"3371672758","ref":"1205","tag":{"amenity":"waste_basket"}},"type":"Feature"},
	{"geometry":{"coordinates":[7.166445,50.817342],"type":"Point"},"properties":{"osm_id":"3379710250","ref":"160","tag":{"amenity":"waste_basket"}},"type":"Feature"},
	{"geometry":{"coordinates":[7.123907,50.82987],"type":"Point"},"properties":{"osm_id":"3382566295","ref":"665","tag":{"amenity":"waste_basket","waste":"trash"}},"type":"Feature"},
	{"geometry":{"coordinates":[7.123426,50.830902],"type":"Point"},"properties":{"osm_id":"3382566303","ref":"641","tag":{"amenity":"waste_basket"}},"type":"Feature"},
	{"geometry":{"coordinates":[7.126331,50.830985],"type":"Point"},"properties":{"osm_id":"3382566305","ref":"640","tag":{"amenity":"waste_basket","waste":"trash"}},"type":"Feature"},
	{"geometry":{"coordinates":[7.127175,50.831027],"type":"Point"},"properties":{"osm_id":"3382566307","ref":"142","tag":{"amenity":"waste_basket"}},"type":"Feature"},
	{"geometry":{"coordinates":[7.131531,50.799151],"type":"Point"},"properties":{"osm_id":"3384421249","ref":"269","tag":{"amenity":"waste_basket"}},"type":"Feature"},
	{"geometry":{"coordinates":[7.133172,50.801711],"type":"Point"},"properties":{"osm_id":"3384421268","tag":{"amenity":"recycling","recycling:clothes":"yes","recycling:shoes":"yes","recycling_type":"container"}},"type":"Feature"},
	{"geometry":{"coordinates":[7.13315,50.801724],"type":"Point"},"properties":{"osm_id":"3384421271","tag":{"amenity":"recycling","recycling:glass":"no","recycling:glass_bottles":"yes","recycling_type":"container"}},"type":"Feature"},
	{"geometry":{"coordinates":[7.123221,50.807698],"type":"Point"},"properties":{"osm_id":"3391817901","tag":{"amenity":"recycling","contact:phone":"+49 228 7666777","opening_hours":"Mo-Sa 07:00-20:00; Su,PH off","operator":"REMONDIS SE & Co. KG","recycling:glass_bottles":"yes","recycling_type":"container"}},"type":"Feature"},
	{"geometry":{"coordinates":[7.123184,50.825881],"type":"Point"},"properties":{"osm_id":"3393521962","tag":{"amenity":"waste_basket"}},"type":"Feature"},
	{"geometry":{"coordinates":[7.119285,50.831495],"type":"Point"},"properties":{"osm_id":"3413944866","tag":{"amenity":"waste_basket"}},"type":"Feature"},
	{"geometry":{"coordinates":[7.167008,50.810774],"type":"Point"},"properties":{"osm_id":"3414217928","ref":"449","tag":{"amenity":"waste_basket","waste":"trash"}},"type":"Feature"},
	{"geometry":{"coordinates":[7.166757,50.810962],"type":"Point"},"properties":{"osm_id":"3414217929","ref":"448","tag":{"amenity":"waste_basket","waste":"trash"}},"type":"Feature"},
	{"geometry":{"coordinates":[7.163157,50.806867],"type":"Point"},"properties":{"osm_id":"3440757906","ref":"1042","tag":{"amenity":"waste_basket"}},"type":"Feature"},
	{"geometry":{"coordinates":[7.132375,50.805444],"type":"Point"},"properties":{"osm_id":"3451590088","tag":{"amenity":"waste_basket"}},"type":"Feature"},
	{"geometry":{"coordinates":[7.151796,50.814249],"type":"Point"},"properties":{"osm_id":"3459482852","tag":{"amenity":"waste_basket"}},"type":"Feature"},
	{"geometry":{"coordinates":[7.158436,50.811849],"type":"Point"},"properties":{"osm_id":"3462870817","tag":{"amenity":"waste_basket"}},"type":"Feature"},
	{"geometry":{"coordinates":[7.130696,50.801498],"type":"Point"},"properties":{"osm_id":"3475004097","tag":{"amenity":"waste_basket","waste":"trash"}},"type":"Feature"},
	{"geometry":{"coordinates":[7.129639,50.797962],"type":"Point"},"properties":{"osm_id":"3523131939","ref":"263","tag":{"amenity":"waste_basket"}},"type":"Feature"},
	{"geometry":{"coordinates":[7.16385,50.815218],"type":"Point"},"properties":{"osm_id":"3535811227","tag":{"amenity":"waste_basket","waste":"trash"}},"type":"Feature"},
	{"geometry":{"coordinates":[7.130658,50.801266],"type":"Point"},"properties":{"osm_id":"3540835985","ref":"272","tag":{"amenity":"waste_basket","waste":"trash"}},"type":"Feature"},
	{"geometry":{"coordinates":[7.126895,50.798023],"type":"Point"},"properties":{"osm_id":"3560425819","ref":"253","tag":{"amenity":"waste_basket"}},"type":"Feature"},
	{"geometry":{"coordinates":[7.127285,50.798127],"type":"Point"},"properties":{"osm_id":"3560425824","tag":{"amenity":"waste_basket"}},"type":"Feature"},
	{"geometry":{"coordinates":[7.127988,50.798154],"type":"Point"},"properties":{"osm_id":"3560425828","ref":"260","tag":{"amenity":"waste_basket"}},"type":"Feature"},
	{"geometry":{"coordinates":[7.128452,50.798197],"type":"Point"},"properties":{"osm_id":"3560425831","ref":"259","tag":{"amenity":"waste_basket"}},"type":"Feature"},
	{"geometry":{"coordinates":[7.12716,50.798199],"type":"Point"},"properties":{"osm_id":"3560425832","ref":"254","tag":{"amenity":"waste_basket"}},"type":"Feature"},
	{"geometry":{"coordinates":[7.127685,50.798365],"type":"Point"},"properties":{"osm_id":"3560425840","ref":"256","tag":{"amenity":"waste_basket"}},"type":"Feature"},
	{"geometry":{"coordinates":[7.128186,50.798391],"type":"Point"},"properties":{"osm_id":"3560425842","ref":"257","tag":{"amenity":"waste_basket"}},"type":"Feature"},
	{"geometry":{"coordinates":[7.128497,50.798411],"type":"Point"},"properties":{"osm_id":"3560425844","ref":"258","tag":{"amenity":"waste_basket"}},"type":"Feature"},
	{"geometry":{"coordinates":[7.123424,50.80577],"type":"Point"},"properties":{"osm_id":"3578110332","ref":"228","tag":{"amenity":"waste_basket"}},"type":"Feature"},
	{"geometry":{"coordinates":[7.162965,50.812861],"type":"Point"},"properties":{"osm_id":"3588060915","tag":{"amenity":"waste_basket","waste":"trash"}},"type":"Feature"},
	{"geometry":{"coordinates":[7.145647,50.805298],"type":"Point"},"properties":{"osm_id":"3608472748","ref":"420","tag":{"amenity":"waste_basket"}},"type":"Feature"},
	{"geometry":{"coordinates":[7.148036,50.805974],"type":"Point"},"properties":{"osm_id":"3608472750","tag":{"amenity":"waste_basket"}},"type":"Feature"},
	{"geometry":{"coordinates":[7.122417,50.809076],"type":"Point"},"properties":{"osm_id":"3608877804","ref":"978","tag":{"amenity":"waste_basket","waste":"trash"}},"type":"Feature"},
	{"geometry":{"coordinates":[7.122667,50.809072],"type":"Point"},"properties":{"osm_id":"3608877805","ref":"979","tag":{"amenity":"waste_basket","waste":"trash"}},"type":"Feature"},
	{"geometry":{"coordinates":[7.122547,50.809243],"type":"Point"},"properties":{"osm_id":"3608877813","tag":{"amenity":"waste_basket","waste":"trash"}},"type":"Feature"},
	{"geometry":{"coordinates":[7.124487,50.809746],"type":"Point"},"properties":{"osm_id":"3666821484","tag":{"amenity":"waste_basket"}},"type":"Feature"},
	{"geometry":{"coordinates":[7.122548,50.810454],"type":"Point"},"properties":{"osm_id":"3666821506","tag":{"amenity":"waste_basket","waste":"trash"}},"type":"Feature"},
	{"geometry":{"coordinates":[7.122539,50.810501],"type":"Point"},"properties":{"osm_id":"3666821507","tag":{"amenity":"waste_basket","waste":"trash"}},"type":"Feature"},
	{"geometry":{"coordinates":[7.122429,50.810567],"type":"Point"},"properties":{"osm_id":"3666821508","tag":{"amenity":"waste_basket","waste":"trash"}},"type":"Feature"},
	{"geometry":{"coordinates":[7.121567,50.810488],"type":"Point"},"properties":{"osm_id":"3677638918","ref":"982","tag":{"amenity":"waste_basket"}},"type":"Feature"},
	{"geometry":{"coordinates":[7.153736,50.806848],"type":"Point"},"properties":{"osm_id":"3679022103","tag":{"amenity":"waste_basket","waste":"trash"}},"type":"Feature"},
	{"geometry":{"coordinates":[7.124984,50.803792],"type":"Point"},"properties":{"osm_id":"3687761885","tag":{"amenity":"waste_basket","waste":"trash"}},"type":"Feature"},
	{"geometry":{"coordinates":[7.127424,50.804869],"type":"Point"},"properties":{"osm_id":"3787128997","tag":{"amenity":"recycling","recycling:glass":"no","recycling:glass_bottles":"yes","recycling_type":"container"}},"type":"Feature"},
	{"geometry":{"coordinates":[7.127429,50.804887],"type":"Point"},"properties":{"osm_id":"3787128999","tag":{"amenity":"waste_basket"}},"type":"Feature"},
	{"geometry":{"coordinates":[7.149785,50.826886],"type":"Point"},"properties":{"name":"KS Containerdienst Troisdorf GmbH & Co.KG","osm_id":"3799368600","tag":{"addr:housenumber":"28","addr:street":"Gierlichsstra\u00c3\u009fe","amenity":"recycling","opening_hours":"06:00-18:00","recycling:cans":"no","recycling:paper":"yes","recycling:plastic":"yes","recycling_type":"centre"}},"type":"Feature"},
	{"geometry":{"coordinates":[7.143251,50.813778],"type":"Point"},"properties":{"osm_id":"3812317477","tag":{"amenity":"recycling","recycling:glass_bottles":"yes","recycling_type":"container"}},"type":"Feature"},
	{"geometry":{"coordinates":[7.143231,50.813779],"type":"Point"},"properties":{"osm_id":"3812317478","tag":{"amenity":"recycling","recycling:clothes":"yes","recycling_type":"container"}},"type":"Feature"},
	{"geometry":{"coordinates":[7.1472,50.817513],"type":"Point"},"properties":{"osm_id":"3876465735","tag":{"amenity":"waste_basket"}},"type":"Feature"},
	{"geometry":{"coordinates":[7.151324,50.803715],"type":"Point"},"properties":{"osm_id":"3879533796","tag":{"amenity":"recycling","recycling:glass_bottles":"yes","recycling_type":"container"}},"type":"Feature"},
	{"geometry":{"coordinates":[7.166268,50.814535],"type":"Point"},"properties":{"osm_id":"3921868932","ref":"172","tag":{"amenity":"waste_basket","waste":"trash"}},"type":"Feature"},
	{"geometry":{"coordinates":[7.166103,50.814555],"type":"Point"},"properties":{"osm_id":"3921868933","tag":{"amenity":"waste_basket","waste":"trash"}},"type":"Feature"},
	{"geometry":{"coordinates":[7.163567,50.815126],"type":"Point"},"properties":{"osm_id":"3945385749","tag":{"amenity":"recycling","recycling:glass_bottles":"yes","recycling_type":"container"}},"type":"Feature"},
	{"geometry":{"coordinates":[7.158909,50.80737],"type":"Point"},"properties":{"osm_id":"4005611197","tag":{"amenity":"recycling","recycling:glass_bottles":"yes","recycling_type":"container"}},"type":"Feature"},
	{"geometry":{"coordinates":[7.134622,50.823835],"type":"Point"},"properties":{"osm_id":"4029951592","tag":{"amenity":"recycling","recycling:glass_bottles":"yes","recycling_type":"container"}},"type":"Feature"},
	{"geometry":{"coordinates":[7.166454,50.811979],"type":"Point"},"properties":{"osm_id":"4068443795","tag":{"amenity":"waste_basket","waste":"trash"}},"type":"Feature"},
	{"geometry":{"coordinates":[7.167499,50.81219],"type":"Point"},"properties":{"osm_id":"4068443796","tag":{"amenity":"waste_basket","waste":"trash"}},"type":"Feature"},
	{"geometry":{"coordinates":[7.146244,50.806681],"type":"Point"},"properties":{"osm_id":"4105364769","ref":"1100","tag":{"amenity":"waste_basket","waste":"trash"}},"type":"Feature"},
	{"geometry":{"coordinates":[7.145851,50.807191],"type":"Point"},"properties":{"osm_id":"4105364774","tag":{"amenity":"waste_basket"}},"type":"Feature"},
	{"geometry":{"coordinates":[7.14516,50.807369],"type":"Point"},"properties":{"osm_id":"4105364779","tag":{"amenity":"waste_basket"}},"type":"Feature"},
	{"geometry":{"coordinates":[7.145616,50.807486],"type":"Point"},"properties":{"osm_id":"4105364780","tag":{"amenity":"waste_basket"}},"type":"Feature"},
	{"geometry":{"coordinates":[7.142884,50.806799],"type":"Point"},"properties":{"osm_id":"4107149497","tag":{"amenity":"waste_basket"}},"type":"Feature"},
	{"geometry":{"coordinates":[7.143218,50.807033],"type":"Point"},"properties":{"osm_id":"4107149501","tag":{"amenity":"waste_basket"}},"type":"Feature"},
	{"geometry":{"coordinates":[7.144489,50.807446],"type":"Point"},"properties":{"osm_id":"4107149502","tag":{"amenity":"waste_basket"}},"type":"Feature"},
	{"geometry":{"coordinates":[7.144571,50.807487],"type":"Point"},"properties":{"osm_id":"4107149504","tag":{"amenity":"waste_basket"}},"type":"Feature"},
	{"geometry":{"coordinates":[7.158186,50.813173],"type":"Point"},"properties":{"osm_id":"4176468753","tag":{"amenity":"waste_basket"}},"type":"Feature"},
	{"geometry":{"coordinates":[7.156526,50.813641],"type":"Point"},"properties":{"osm_id":"4176468754","tag":{"amenity":"waste_basket"}},"type":"Feature"},
	{"geometry":{"coordinates":[7.157067,50.813666],"type":"Point"},"properties":{"osm_id":"4176468755","tag":{"amenity":"waste_basket","waste":"trash"}},"type":"Feature"},
	{"geometry":{"coordinates":[7.157533,50.813669],"type":"Point"},"properties":{"osm_id":"4176468756","tag":{"amenity":"waste_basket","waste":"trash"}},"type":"Feature"},
	{"geometry":{"coordinates":[7.157021,50.813793],"type":"Point"},"properties":{"osm_id":"4176468757","tag":{"amenity":"waste_basket","waste":"trash"}},"type":"Feature"},
	{"geometry":{"coordinates":[7.155227,50.813914],"type":"Point"},"properties":{"osm_id":"4178711197","tag":{"amenity":"waste_basket"}},"type":"Feature"},
	{"geometry":{"coordinates":[7.154989,50.813917],"type":"Point"},"properties":{"osm_id":"4178711198","tag":{"amenity":"waste_basket"}},"type":"Feature"},
	{"geometry":{"coordinates":[7.154751,50.813921],"type":"Point"},"properties":{"osm_id":"4178711199","tag":{"amenity":"waste_basket"}},"type":"Feature"},
	{"geometry":{"coordinates":[7.153695,50.813936],"type":"Point"},"properties":{"osm_id":"4178711200","tag":{"amenity":"waste_basket"}},"type":"Feature"},
	{"geometry":{"coordinates":[7.14719,50.799359],"type":"Point"},"properties":{"osm_id":"4260013780","tag":{"amenity":"recycling","recycling:clothes":"yes","recycling:shoes":"yes","recycling_type":"container"}},"type":"Feature"},
	{"geometry":{"coordinates":[7.165339,50.80968],"type":"Point"},"properties":{"osm_id":"4428609404","tag":{"amenity":"recycling","recycling:glass_bottles":"yes","recycling_type":"container"}},"type":"Feature"},
	{"geometry":{"coordinates":[7.157934,50.814006],"type":"Point"},"properties":{"osm_id":"4512237004","tag":{"amenity":"waste_basket","waste":"trash"}},"type":"Feature"},
	{"geometry":{"coordinates":[7.159943,50.814067],"type":"Point"},"properties":{"osm_id":"4514999725","tag":{"amenity":"waste_basket","waste":"trash"}},"type":"Feature"},
	{"geometry":{"coordinates":[7.158122,50.812908],"type":"Point"},"properties":{"osm_id":"4618704138","tag":{"amenity":"recycling","location":"underground","recycling:glass_bottles":"yes","recycling_type":"container"}},"type":"Feature"},
	{"geometry":{"coordinates":[7.171805,50.81433],"type":"Point"},"properties":{"osm_id":"4620570590","tag":{"amenity":"recycling","recycling:clothes":"yes","recycling:shoes":"yes","recycling_type":"container"}},"type":"Feature"},
	{"geometry":{"coordinates":[7.171733,50.814342],"type":"Point"},"properties":{"osm_id":"4620570591","tag":{"amenity":"recycling","location":"underground","recycling:glass_bottles":"yes","recycling_type":"container"}},"type":"Feature"},
	{"geometry":{"coordinates":[7.165815,50.818381],"type":"Point"},"properties":{"osm_id":"4807678217","tag":{"amenity":"waste_basket"}},"type":"Feature"},
	{"geometry":{"coordinates":[7.16604,50.818577],"type":"Point"},"properties":{"osm_id":"4807678219","tag":{"amenity":"waste_basket"}},"type":"Feature"},
	{"geometry":{"coordinates":[7.16672,50.819091],"type":"Point"},"properties":{"osm_id":"4807678625","tag":{"amenity":"waste_basket"}},"type":"Feature"},
	{"geometry":{"coordinates":[7.166644,50.819907],"type":"Point"},"properties":{"osm_id":"4807678630","tag":{"amenity":"waste_basket"}},"type":"Feature"},
	{"geometry":{"coordinates":[7.168639,50.821418],"type":"Point"},"properties":{"osm_id":"4807678632","tag":{"amenity":"waste_basket"}},"type":"Feature"},
	{"geometry":{"coordinates":[7.169946,50.821843],"type":"Point"},"properties":{"osm_id":"4807678634","tag":{"amenity":"waste_basket"}},"type":"Feature"},
	{"geometry":{"coordinates":[7.14337,50.813753],"type":"Point"},"properties":{"osm_id":"5013935677","tag":{"amenity":"waste_basket","waste":"trash"}},"type":"Feature"},
	{"geometry":{"coordinates":[7.143129,50.813623],"type":"Point"},"properties":{"osm_id":"5013935678","tag":{"amenity":"waste_basket","waste":"trash"}},"type":"Feature"},
	{"geometry":{"coordinates":[7.143176,50.813787],"type":"Point"},"properties":{"osm_id":"5013935679","tag":{"amenity":"waste_basket"}},"type":"Feature"},
	{"geometry":{"coordinates":[7.161865,50.814214],"type":"Point"},"properties":{"osm_id":"5217738303","tag":{"amenity":"waste_basket","waste":"trash"}},"type":"Feature"},
	{"geometry":{"coordinates":[7.162489,50.814289],"type":"Point"},"properties":{"osm_id":"5221590361","tag":{"amenity":"waste_basket"}},"type":"Feature"},
	{"geometry":{"coordinates":[7.162998,50.81435],"type":"Point"},"properties":{"osm_id":"5221590362","tag":{"amenity":"waste_basket"}},"type":"Feature"},
	{"geometry":{"coordinates":[7.163745,50.814427],"type":"Point"},"properties":{"osm_id":"5223032113","tag":{"amenity":"waste_basket","waste":"trash"}},"type":"Feature"},
	{"geometry":{"coordinates":[7.164247,50.814569],"type":"Point"},"properties":{"osm_id":"5234402982","tag":{"amenity":"waste_basket","waste":"trash"}},"type":"Feature"},
	{"geometry":{"coordinates":[7.171929,50.813707],"type":"Point"},"properties":{"osm_id":"5656002521","tag":{"amenity":"recycling","recycling:glass_bottles":"yes","recycling_type":"container","wheelchair":"yes"}},"type":"Feature"},
	{"geometry":{"coordinates":[7.171906,50.813706],"type":"Point"},"properties":{"osm_id":"5656002522","tag":{"amenity":"recycling","recycling:glass_bottles":"yes","recycling_type":"container","wheelchair":"yes"}},"type":"Feature"},
	{"geometry":{"coordinates":[7.188362,50.809507],"type":"Point"},"properties":{"osm_id":"5672235589","tag":{"access":"private","amenity":"waste_disposal","waste":"trash"}},"type":"Feature"},
	{"geometry":{"coordinates":[7.187904,50.809546],"type":"Point"},"properties":{"osm_id":"5672235590","tag":{"access":"private","amenity":"waste_disposal","waste":"trash"}},"type":"Feature"},
	{"geometry":{"coordinates":[7.189876,50.808743],"type":"Point"},"properties":{"osm_id":"5672479493","tag":{"access":"private","amenity":"waste_disposal","waste":"trash"}},"type":"Feature"},
	{"geometry":{"coordinates":[7.187988,50.810056],"type":"Point"},"properties":{"osm_id":"5675769592","tag":{"access":"private","amenity":"waste_disposal","waste":"trash"}},"type":"Feature"},
	{"geometry":{"coordinates":[7.19087,50.808274],"type":"Point"},"properties":{"osm_id":"5710601094","tag":{"access":"private","amenity":"waste_disposal","waste":"trash"}},"type":"Feature"},
	{"geometry":{"coordinates":[7.191585,50.807979],"type":"Point"},"properties":{"osm_id":"5710601099","tag":{"access":"private","amenity":"waste_disposal","waste":"trash"}},"type":"Feature"},
	{"geometry":{"coordinates":[7.188954,50.805945],"type":"Point"},"properties":{"osm_id":"5722276093","tag":{"amenity":"waste_disposal","waste":"trash"}},"type":"Feature"},
	{"geometry":{"coordinates":[7.157874,50.807087],"type":"Point"},"properties":{"osm_id":"5774558168","tag":{"access":"private","amenity":"waste_disposal","waste":"trash"}},"type":"Feature"},
	{"geometry":{"coordinates":[7.190221,50.808704],"type":"Point"},"properties":{"osm_id":"5777129874","tag":{"access":"private","amenity":"waste_disposal","waste":"trash"}},"type":"Feature"},
	{"geometry":{"coordinates":[7.154294,50.816222],"type":"Point"},"properties":{"osm_id":"5779032752","tag":{"access":"private","amenity":"waste_disposal","waste":"trash"}},"type":"Feature"},
	{"geometry":{"coordinates":[7.187438,50.803899],"type":"Point"},"properties":{"osm_id":"5786960467","tag":{"access":"private","amenity":"waste_disposal","waste":"trash"}},"type":"Feature"},
	{"geometry":{"coordinates":[7.187458,50.804023],"type":"Point"},"properties":{"osm_id":"5786960472","tag":{"access":"private","amenity":"waste_disposal","waste":"trash"}},"type":"Feature"},
	{"geometry":{"coordinates":[7.153816,50.806123],"type":"Point"},"properties":{"osm_id":"5793437144","tag":{"access":"private","amenity":"waste_disposal","waste":"trash"}},"type":"Feature"},
	{"geometry":{"coordinates":[7.154052,50.806172],"type":"Point"},"properties":{"osm_id":"5793437145","tag":{"access":"private","amenity":"waste_disposal","waste":"trash"}},"type":"Feature"},
	{"geometry":{"coordinates":[7.154723,50.806314],"type":"Point"},"properties":{"osm_id":"5809010759","tag":{"access":"private","amenity":"waste_disposal","waste":"trash"}},"type":"Feature"},
	{"geometry":{"coordinates":[7.154512,50.806267],"type":"Point"},"properties":{"osm_id":"5809010766","tag":{"access":"private","amenity":"waste_disposal","waste":"trash"}},"type":"Feature"},
	{"geometry":{"coordinates":[7.154194,50.80621],"type":"Point"},"properties":{"osm_id":"5809010771","tag":{"access":"private","amenity":"waste_disposal","waste":"trash"}},"type":"Feature"},
	{"geometry":{"coordinates":[7.130889,50.813632],"type":"Point"},"properties":{"osm_id":"5814563451","tag":{"amenity":"waste_disposal","waste":"trash"}},"type":"Feature"},
	{"geometry":{"coordinates":[7.130864,50.813585],"type":"Point"},"properties":{"osm_id":"5814563452","tag":{"amenity":"recycling","recycling:clothes":"yes","recycling:glass":"no","recycling:glass_bottles":"no","recycling:shoes":"yes","recycling_type":"container"}},"type":"Feature"},
	{"geometry":{"coordinates":[7.130892,50.813589],"type":"Point"},"properties":{"osm_id":"5814566053","tag":{"amenity":"recycling","recycling:glass":"no","recycling:glass_bottles":"yes","recycling_type":"container"}},"type":"Feature"},
	{"geometry":{"coordinates":[7.192038,50.803662],"type":"Point"},"properties":{"osm_id":"5835882327","tag":{"amenity":"recycling","recycling:glass_bottles":"yes","recycling_type":"container"}},"type":"Feature"},
	{"geometry":{"coordinates":[7.192034,50.803633],"type":"Point"},"properties":{"osm_id":"5835882328","tag":{"amenity":"recycling","recycling:glass_bottles":"yes","recycling_type":"container"}},"type":"Feature"},
	{"geometry":{"coordinates":[7.19203,50.803606],"type":"Point"},"properties":{"osm_id":"5835882329","tag":{"amenity":"recycling","recycling:clothes":"yes","recycling:shoes":"yes","recycling_type":"container"}},"type":"Feature"},
	{"geometry":{"coordinates":[7.151054,50.81835],"type":"Point"},"properties":{"osm_id":"5838132757","tag":{"access":"private","amenity":"waste_disposal","waste":"trash"}},"type":"Feature"},
	{"geometry":{"coordinates":[7.168003,50.813524],"type":"Point"},"properties":{"osm_id":"5838481531","tag":{"access":"private","amenity":"waste_disposal"}},"type":"Feature"},
	{"geometry":{"coordinates":[7.163424,50.812744],"type":"Point"},"properties":{"osm_id":"5838489545","tag":{"access":"private","amenity":"waste_disposal","waste":"trash"}},"type":"Feature"},
	{"geometry":{"coordinates":[7.152497,50.802756],"type":"Point"},"properties":{"osm_id":"5842318397","tag":{"access":"private","amenity":"waste_disposal","waste":"trash"}},"type":"Feature"},
	{"geometry":{"coordinates":[7.152446,50.802754],"type":"Point"},"properties":{"osm_id":"5842318400","tag":{"access":"private","amenity":"waste_disposal","waste":"trash"}},"type":"Feature"},
	{"geometry":{"coordinates":[7.153647,50.80281],"type":"Point"},"properties":{"osm_id":"5842318410","tag":{"access":"private","amenity":"waste_disposal","waste":"trash"}},"type":"Feature"},
	{"geometry":{"coordinates":[7.153104,50.802766],"type":"Point"},"properties":{"osm_id":"5842318419","tag":{"access":"private","amenity":"waste_disposal","waste":"trash"}},"type":"Feature"},
	{"geometry":{"coordinates":[7.153053,50.802764],"type":"Point"},"properties":{"osm_id":"5842318420","tag":{"access":"private","amenity":"waste_disposal","waste":"trash"}},"type":"Feature"},
	{"geometry":{"coordinates":[7.151899,50.802787],"type":"Point"},"properties":{"osm_id":"5843318802","tag":{"access":"private","amenity":"waste_disposal","waste":"trash"}},"type":"Feature"},
	{"geometry":{"coordinates":[7.190376,50.811603],"type":"Point"},"properties":{"osm_id":"5848047376","tag":{"amenity":"recycling","recycling:clothes":"yes","recycling:shoes":"yes","recycling_type":"container"}},"type":"Feature"},
	{"geometry":{"coordinates":[7.119919,50.794993],"type":"Point"},"properties":{"osm_id":"5858592200","tag":{"access":"private","amenity":"waste_disposal","waste":"trash"}},"type":"Feature"},
	{"geometry":{"coordinates":[7.132276,50.801408],"type":"Point"},"properties":{"osm_id":"5858597584","tag":{"access":"private","amenity":"waste_disposal","waste":"trash"}},"type":"Feature"},
	{"geometry":{"coordinates":[7.158527,50.804779],"type":"Point"},"properties":{"osm_id":"5893986282","tag":{"access":"private","amenity":"waste_disposal","waste":"trash"}},"type":"Feature"},
	{"geometry":{"coordinates":[7.158373,50.804765],"type":"Point"},"properties":{"osm_id":"5893994289","tag":{"access":"private","amenity":"waste_disposal","waste":"trash"}},"type":"Feature"},
	{"geometry":{"coordinates":[7.158129,50.804742],"type":"Point"},"properties":{"osm_id":"5893994290","tag":{"access":"private","amenity":"waste_disposal","waste":"trash"}},"type":"Feature"},
	{"geometry":{"coordinates":[7.1578,50.803916],"type":"Point"},"properties":{"osm_id":"5899589795","tag":{"access":"private","amenity":"waste_disposal","waste":"trash"}},"type":"Feature"},
	{"geometry":{"coordinates":[7.198899,50.808106],"type":"Point"},"properties":{"osm_id":"5901964837","tag":{"amenity":"recycling","recycling:clothes":"yes","recycling:shoes":"yes","recycling_type":"container"}},"type":"Feature"},
	{"geometry":{"coordinates":[7.198915,50.808085],"type":"Point"},"properties":{"osm_id":"5901964838","tag":{"amenity":"recycling","recycling:glass_bottles":"yes","recycling_type":"container"}},"type":"Feature"},
	{"geometry":{"coordinates":[7.198927,50.808071],"type":"Point"},"properties":{"osm_id":"5901964839","tag":{"amenity":"recycling","recycling:glass_bottles":"yes","recycling_type":"container"}},"type":"Feature"},
	{"geometry":{"coordinates":[7.169936,50.81105],"type":"Point"},"properties":{"osm_id":"5915587965","tag":{"access":"private","amenity":"waste_disposal","waste":"trash"}},"type":"Feature"},
	{"geometry":{"coordinates":[7.1446,50.813781],"type":"Point"},"properties":{"osm_id":"5930819149","tag":{"access":"private","amenity":"waste_disposal","waste":"trash"}},"type":"Feature"},
	{"geometry":{"coordinates":[7.168465,50.809044],"type":"Point"},"properties":{"osm_id":"5931219107","tag":{"access":"private","amenity":"waste_disposal","waste":"trash"}},"type":"Feature"},
	{"geometry":{"coordinates":[7.157124,50.816984],"type":"Point"},"properties":{"osm_id":"5934116235","tag":{"access":"private","amenity":"waste_disposal","waste":"trash"}},"type":"Feature"},
	{"geometry":{"coordinates":[7.204181,50.805112],"type":"Point"},"properties":{"osm_id":"5972394396","tag":{"amenity":"recycling","recycling:glass_bottles":"yes","recycling_type":"container"}},"type":"Feature"},
	{"geometry":{"coordinates":[7.146293,50.81886],"type":"Point"},"properties":{"osm_id":"6085507808","tag":{"amenity":"waste_basket","waste":"trash"}},"type":"Feature"},
	{"geometry":{"coordinates":[7.146129,50.818679],"type":"Point"},"properties":{"osm_id":"6085507809","tag":{"amenity":"waste_basket","waste":"trash"}},"type":"Feature"},
	{"geometry":{"coordinates":[7.146378,50.81855],"type":"Point"},"properties":{"osm_id":"6085507810","tag":{"amenity":"waste_basket","waste":"trash"}},"type":"Feature"},
	{"geometry":{"coordinates":[7.14668,50.818487],"type":"Point"},"properties":{"osm_id":"6085507811","tag":{"amenity":"waste_basket","waste":"trash"}},"type":"Feature"},
	{"geometry":{"coordinates":[7.146924,50.81879],"type":"Point"},"properties":{"osm_id":"6085507814","tag":{"amenity":"waste_basket","waste":"trash"}},"type":"Feature"},
	{"geometry":{"coordinates":[7.146655,50.818879],"type":"Point"},"properties":{"osm_id":"6085507815","tag":{"amenity":"waste_basket","waste":"trash"}},"type":"Feature"},
	{"geometry":{"coordinates":[7.136092,50.811533],"type":"Point"},"properties":{"osm_id":"6128714282","tag":{"access":"private","amenity":"waste_disposal","waste":"trash"}},"type":"Feature"},
	{"geometry":{"coordinates":[7.171159,50.815021],"type":"Point"},"properties":{"osm_id":"6170499351","tag":{"access":"private","amenity":"waste_disposal","waste":"trash"}},"type":"Feature"},
	{"geometry":{"coordinates":[7.162859,50.815511],"type":"Point"},"properties":{"osm_id":"6185651684","tag":{"access":"private","amenity":"waste_disposal","waste":"trash"}},"type":"Feature"},
	{"geometry":{"coordinates":[7.157276,50.816603],"type":"Point"},"properties":{"osm_id":"6200346669","tag":{"amenity":"recycling","recycling:clothes":"yes","recycling:shoes":"yes","recycling_type":"container"}},"type":"Feature"},
	{"geometry":{"coordinates":[7.157292,50.816627],"type":"Point"},"properties":{"osm_id":"6200346670","tag":{"amenity":"recycling","recycling:glass_bottles":"yes","recycling_type":"container"}},"type":"Feature"},
	{"geometry":{"coordinates":[7.120142,50.793329],"type":"Point"},"properties":{"osm_id":"6218154602","tag":{"access":"private","amenity":"waste_disposal","waste":"trash"}},"type":"Feature"},
	{"geometry":{"coordinates":[7.152495,50.80515],"type":"Point"},"properties":{"osm_id":"6253309453","tag":{"access":"private","amenity":"waste_disposal","waste":"trash"}},"type":"Feature"},
	{"geometry":{"coordinates":[7.166786,50.810389],"type":"Point"},"properties":{"osm_id":"6442151767","tag":{"access":"private","amenity":"waste_disposal","waste":"trash"}},"type":"Feature"},
	{"geometry":{"coordinates":[7.165534,50.810196],"type":"Point"},"properties":{"osm_id":"6703545534","tag":{"access":"private","amenity":"waste_disposal","waste":"trash"}},"type":"Feature"},
	{"geometry":{"coordinates":[7.202978,50.794417],"type":"Point"},"properties":{"osm_id":"6741100270","tag":{"amenity":"waste_basket"}},"type":"Feature"},
	{"geometry":{"coordinates":[7.192364,50.796966],"type":"Point"},"properties":{"osm_id":"6831148094","tag":{"amenity":"recycling","recycling:glass_bottles":"yes","recycling_type":"container"}},"type":"Feature"},
	{"geometry":{"coordinates":[7.192384,50.796982],"type":"Point"},"properties":{"osm_id":"6831148095","tag":{"amenity":"recycling","recycling:glass_bottles":"yes","recycling_type":"container"}},"type":"Feature"},
	{"geometry":{"coordinates":[7.197631,50.792751],"type":"Point"},"properties":{"osm_id":"6837888091","tag":{"access":"private","amenity":"waste_disposal","waste":"trash"}},"type":"Feature"},
	{"geometry":{"coordinates":[7.19686,50.792231],"type":"Point"},"properties":{"osm_id":"6837888096","tag":{"access":"private","amenity":"waste_disposal","waste":"trash"}},"type":"Feature"},
	{"geometry":{"coordinates":[7.197182,50.793003],"type":"Point"},"properties":{"osm_id":"6837888125","tag":{"access":"private","amenity":"waste_disposal","waste":"trash"}},"type":"Feature"},
	{"geometry":{"coordinates":[7.152133,50.801393],"type":"Point"},"properties":{"osm_id":"6930559757","tag":{"access":"private","amenity":"waste_disposal","waste":"trash"}},"type":"Feature"},
	{"geometry":{"coordinates":[7.157971,50.818784],"type":"Point"},"properties":{"osm_id":"7005637012","tag":{"amenity":"recycling","recycling:clothes":"yes","recycling:shoes":"yes","recycling_type":"container"}},"type":"Feature"},
	{"geometry":{"coordinates":[7.157586,50.818818],"type":"Point"},"properties":{"osm_id":"7005637013","tag":{"amenity":"recycling","location":"underground","recycling:glass_bottles":"yes","recycling_type":"container"}},"type":"Feature"},
	{"geometry":{"coordinates":[7.147989,50.804114],"type":"Point"},"properties":{"osm_id":"7008231160","tag":{"amenity":"recycling","recycling:clothes":"yes","recycling:shoes":"yes","recycling_type":"container"}},"type":"Feature"},
	{"geometry":{"coordinates":[7.148012,50.804115],"type":"Point"},"properties":{"osm_id":"7008231164","tag":{"amenity":"recycling","location":"underground","recycling:glass_bottles":"yes","recycling_type":"container"}},"type":"Feature"},
	{"geometry":{"coordinates":[7.152187,50.80926],"type":"Point"},"properties":{"osm_id":"7013935030","tag":{"amenity":"recycling","location":"underground","recycling:glass_bottles":"yes","recycling_type":"container"}},"type":"Feature"},
	{"geometry":{"coordinates":[7.146328,50.80955],"type":"Point"},"properties":{"osm_id":"7016960207","tag":{"access":"private","amenity":"waste_disposal","waste":"trash"}},"type":"Feature"},
	{"geometry":{"coordinates":[7.146213,50.80971],"type":"Point"},"properties":{"osm_id":"7016960208","tag":{"access":"private","amenity":"waste_disposal","waste":"trash"}},"type":"Feature"},
	{"geometry":{"coordinates":[7.145092,50.811063],"type":"Point"},"properties":{"osm_id":"7023418939","tag":{"amenity":"recycling","location":"underground","recycling:glass_bottles":"yes","recycling_type":"container"}},"type":"Feature"},
	{"geometry":{"coordinates":[7.182486,50.817579],"type":"Point"},"properties":{"osm_id":"7032051457","tag":{"amenity":"recycling","location":"underground","recycling:clothes":"no","recycling:glass_bottles":"yes","recycling_type":"container"}},"type":"Feature"},
	{"geometry":{"coordinates":[7.148653,50.80012],"type":"Point"},"properties":{"osm_id":"7035936834","tag":{"amenity":"recycling","recycling:clothes":"yes","recycling:shoes":"yes","recycling_type":"container"}},"type":"Feature"},
	{"geometry":{"coordinates":[7.124109,50.803946],"type":"Point"},"properties":{"osm_id":"7048808053","tag":{"access":"private","amenity":"waste_disposal","waste":"trash"}},"type":"Feature"},
	{"geometry":{"coordinates":[7.123626,50.804185],"type":"Point"},"properties":{"osm_id":"7056111928","tag":{"access":"private","amenity":"waste_disposal","waste":"trash"}},"type":"Feature"},
	{"geometry":{"coordinates":[7.123243,50.807677],"type":"Point"},"properties":{"osm_id":"7079355120","tag":{"amenity":"recycling","contact:phone":"+49 2241 306306","operator":"RSAG A\u00c3\u00b6R","recycling:clothes":"yes","recycling_type":"container"}},"type":"Feature"},
	{"geometry":{"coordinates":[7.123226,50.807672],"type":"Point"},"properties":{"osm_id":"7079355121","tag":{"amenity":"recycling","contact:phone":"+49 2241 306306","operator":"RSAG A\u00c3\u00b6R","recycling:clothes":"yes","recycling_type":"container"}},"type":"Feature"},
	{"geometry":{"coordinates":[7.123208,50.807666],"type":"Point"},"properties":{"osm_id":"7079355122","tag":{"amenity":"recycling","contact:phone":"+49 2241 306306","operator":"RSAG A\u00c3\u00b6R","recycling:small_electrical_appliances":"yes","recycling_type":"container"}},"type":"Feature"},
	{"geometry":{"coordinates":[7.123216,50.807648],"type":"Point"},"properties":{"osm_id":"7079355123","tag":{"amenity":"waste_basket"}},"type":"Feature"},
	{"geometry":{"coordinates":[7.123193,50.80769],"type":"Point"},"properties":{"osm_id":"7079355124","tag":{"amenity":"recycling","contact:phone":"+49 228 7666777","opening_hours":"Mo-Sa 07:00-20:00; Su,PH off","operator":"REMONDIS SE & Co. KG","recycling:glass_bottles":"yes","recycling_type":"container"}},"type":"Feature"},
	{"geometry":{"coordinates":[7.179236,50.815646],"type":"Point"},"properties":{"osm_id":"7107665080","tag":{"access":"private","amenity":"waste_disposal","waste":"trash"}},"type":"Feature"},
	{"geometry":{"coordinates":[7.179622,50.816647],"type":"Point"},"properties":{"osm_id":"7108655598","tag":{"access":"private","amenity":"waste_disposal","waste":"trash"}},"type":"Feature"},
	{"geometry":{"coordinates":[7.180225,50.815354],"type":"Point"},"properties":{"osm_id":"7112126392","tag":{"access":"private","amenity":"waste_disposal","waste":"trash"}},"type":"Feature"},
	{"geometry":{"coordinates":[7.178944,50.815451],"type":"Point"},"properties":{"osm_id":"7116243083","tag":{"access":"private","amenity":"waste_disposal","waste":"trash"}},"type":"Feature"},
	{"geometry":{"coordinates":[7.178874,50.815473],"type":"Point"},"properties":{"osm_id":"7116243084","tag":{"access":"private","amenity":"waste_disposal","waste":"trash"}},"type":"Feature"},
	{"geometry":{"coordinates":[7.177341,50.814209],"type":"Point"},"properties":{"osm_id":"7116870192","tag":{"access":"private","amenity":"waste_disposal","waste":"trash"}},"type":"Feature"},
	{"geometry":{"coordinates":[7.179016,50.816141],"type":"Point"},"properties":{"osm_id":"7116870200","tag":{"access":"private","amenity":"waste_disposal","waste":"trash"}},"type":"Feature"},
	{"geometry":{"coordinates":[7.147752,50.810222],"type":"Point"},"properties":{"osm_id":"7119314407","tag":{"access":"private","amenity":"waste_disposal","waste":"trash"}},"type":"Feature"},
	{"geometry":{"coordinates":[7.147851,50.810081],"type":"Point"},"properties":{"osm_id":"7119314413","tag":{"access":"private","amenity":"waste_disposal","waste":"trash"}},"type":"Feature"},
	{"geometry":{"coordinates":[7.147947,50.809942],"type":"Point"},"properties":{"osm_id":"7119314414","tag":{"access":"private","amenity":"waste_disposal","waste":"trash"}},"type":"Feature"},
	{"geometry":{"coordinates":[7.150706,50.8076],"type":"Point"},"properties":{"osm_id":"7153377754","tag":{"amenity":"recycling","recycling:clothes":"yes","recycling:shoes":"yes","recycling_type":"container"}},"type":"Feature"},
	{"geometry":{"coordinates":[7.150658,50.807571],"type":"Point"},"properties":{"osm_id":"7153377755","tag":{"amenity":"recycling","recycling:glass_bottles":"yes","recycling_type":"container"}},"type":"Feature"},
	{"geometry":{"coordinates":[7.150639,50.807562],"type":"Point"},"properties":{"osm_id":"7153377756","tag":{"amenity":"recycling","recycling:glass_bottles":"yes","recycling_type":"container"}},"type":"Feature"},
	{"geometry":{"coordinates":[7.169603,50.808297],"type":"Point"},"properties":{"osm_id":"7187711276","tag":{"amenity":"recycling","recycling:glass":"yes"}},"type":"Feature"},
	{"geometry":{"coordinates":[7.169589,50.808281],"type":"Point"},"properties":{"osm_id":"7187711277","tag":{"amenity":"recycling","recycling:clothes":"yes","recycling:shoes":"yes","recycling_type":"container"}},"type":"Feature"},
	{"geometry":{"coordinates":[7.206082,50.796447],"type":"Point"},"properties":{"osm_id":"7188732847","tag":{"amenity":"waste_basket","material":"metal"}},"type":"Feature"},
	{"geometry":{"coordinates":[7.200288,50.794407],"type":"Point"},"properties":{"osm_id":"7207126971","tag":{"amenity":"recycling","recycling:glass_bottles":"yes","recycling_type":"container"}},"type":"Feature"},
	{"geometry":{"coordinates":[7.200309,50.794391],"type":"Point"},"properties":{"osm_id":"7207126972","tag":{"amenity":"recycling","recycling:glass_bottles":"yes","recycling_type":"container"}},"type":"Feature"},
	{"geometry":{"coordinates":[7.149257,50.81594],"type":"Point"},"properties":{"osm_id":"7211724200","tag":{"access":"private","amenity":"waste_disposal","waste":"trash"}},"type":"Feature"},
	{"geometry":{"coordinates":[7.120887,50.809481],"type":"Point"},"properties":{"osm_id":"7285263164","tag":{"access":"private","amenity":"waste_disposal","waste":"trash"}},"type":"Feature"},
	{"geometry":{"coordinates":[7.121694,50.827515],"type":"Point"},"properties":{"osm_id":"7528983620","tag":{"amenity":"waste_basket"}},"type":"Feature"},
	{"geometry":{"coordinates":[7.163278,50.802457],"type":"Point"},"properties":{"name":"RSAG-Wertstoffhof Troisdorf","osm_id":"7602671164","tag":{"addr:city":"Troisdorf","addr:housenumber":"20","addr:postcode":"53840","addr:street":"Josef-Kitz-Stra\u00c3\u009fe","amenity":"recycling","opening_hours":"Mo-Fr 08:00-17:30; Sa 08:00-15:00; PH off; Easter -1 day off","opening_hours:covid19":"same","operator":"RSAG A\u00c3\u00b6R","operator:type":"public","recycling:cardboard":"yes","recycling:cds":"yes","recycling:metal":"yes","recycling:paper":"yes","recycling:plastic":"yes","recycling:small_electrical_appliances":"yes","recycling:styrofoam":"yes","recycling:tyres":"yes","recycling:waste":"yes","recycling:waste_oil":"yes","recycling:wood":"yes","recycling_type":"centre","website":"https://www.rsag.de/standorte/entsorgungsanlagen/troisdorf/"}},"type":"Feature"},
	{"geometry":{"coordinates":[7.162712,50.798847],"type":"Point"},"properties":{"osm_id":"7606429996","tag":{"amenity":"recycling","operator":"RSAG","recycling:glass_bottles":"yes","recycling_type":"container"}},"type":"Feature"},
	{"geometry":{"coordinates":[7.162768,50.798879],"type":"Point"},"properties":{"osm_id":"7606429997","tag":{"amenity":"recycling","operator":"RSAG","recycling:clothes":"yes","recycling_type":"container"}},"type":"Feature"},
	{"geometry":{"coordinates":[7.1197,50.812686],"type":"Point"},"properties":{"osm_id":"7690865078","tag":{"amenity":"waste_basket"}},"type":"Feature"}
]
}
