{
"type": "FeatureCollection",
"features": [
	{"geometry":{"coordinates":[7.16209,50.780889],"type":"Point"},"properties":{"osm_id":"252438957","ref":"Meindorfer Stra\u00c3\u009fe/Friedhof","tag":{"amenity":"recycling","containers":"2","operator":"RSAG","recycling:glass":"yes","recycling:glass:colour":"white;green;brown","recycling_type":"container"}},"type":"Feature"},
	{"geometry":{"coordinates":[7.160755,50.790679],"type":"Point"},"properties":{"osm_id":"252609424","ref":"Mittelstra\u00c3\u009fe/Friedrich-Hegel-Stra\u00c3\u009fe","tag":{"amenity":"recycling","operator":"RSAG","recycling:glass":"yes","recycling:glass:colour":"white;green;brown","recycling_type":"container"}},"type":"Feature"},
	{"geometry":{"coordinates":[7.151452,50.781474],"type":"Point"},"properties":{"osm_id":"252612621","ref":"Fasanenweg/Bahnhof","tag":{"amenity":"recycling","operator":"RSAG","recycling:glass":"yes","recycling:glass:colour":"white;green;brown","recycling_type":"container"}},"type":"Feature"},
	{"geometry":{"coordinates":[7.127393,50.760817],"type":"Point"},"properties":{"osm_id":"261677804","tag":{"amenity":"recycling","recycling:clothes":"yes","recycling:glass":"yes","recycling:paper":"yes","recycling:shoes":"yes","recycling_type":"container"}},"type":"Feature"},
	{"geometry":{"coordinates":[7.121889,50.762163],"type":"Point"},"properties":{"osm_id":"261678312","tag":{"amenity":"recycling","recycling:clothes":"yes","recycling:shoes":"yes","recycling_type":"container"}},"type":"Feature"},
	{"geometry":{"coordinates":[7.131722,50.741032],"type":"Point"},"properties":{"osm_id":"262901041","tag":{"amenity":"recycling","location":"overground","recycling:glass":"yes","recycling:paper":"yes","recycling_type":"container"}},"type":"Feature"},
	{"geometry":{"coordinates":[7.137201,50.742364],"type":"Point"},"properties":{"osm_id":"262901168","tag":{"amenity":"recycling","location":"overground","recycling:glass":"yes","recycling:paper":"yes","recycling_type":"container"}},"type":"Feature"},
	{"geometry":{"coordinates":[7.15057,50.748446],"type":"Point"},"properties":{"osm_id":"262901227","tag":{"amenity":"recycling","location":"overground","recycling:clothes":"yes","recycling:glass_bottles":"yes","recycling:paper":"yes","recycling:shoes":"yes","recycling_type":"container"}},"type":"Feature"},
	{"geometry":{"coordinates":[7.20545,50.791329],"type":"Point"},"properties":{"osm_id":"262901945","tag":{"amenity":"recycling","location":"overground","recycling:cans":"no","recycling:glass":"yes","recycling:glass_bottles":"yes","recycling:paper":"no","recycling_type":"container"}},"type":"Feature"},
	{"geometry":{"coordinates":[7.184185,50.778732],"type":"Point"},"properties":{"osm_id":"265605080","ref":"An der Post","tag":{"amenity":"recycling","containers":"5","operator":"RSAG","recycling:glass":"yes","recycling:glass:colour":"white;green;brown","recycling_type":"container"}},"type":"Feature"},
	{"geometry":{"coordinates":[7.183364,50.772385],"type":"Point"},"properties":{"osm_id":"265657623","ref":"Gottfried-Keller-Stra\u00c3\u009fe","tag":{"amenity":"recycling","operator":"RSAG","recycling:glass":"yes","recycling:glass:colour":"white;green;brown","recycling_type":"container"}},"type":"Feature"},
	{"geometry":{"coordinates":[7.171276,50.763528],"type":"Point"},"properties":{"osm_id":"265657625","tag":{"amenity":"recycling","recycling:clothes":"yes","recycling:shoes":"yes","recycling_type":"container"}},"type":"Feature"},
	{"geometry":{"coordinates":[7.186935,50.784136],"type":"Point"},"properties":{"osm_id":"267312565","ref":"Im Spichelsfeld, H\u00c3\u00a4user Nr. 163-165","tag":{"amenity":"recycling","operator":"RSAG","recycling:glass":"yes","recycling:glass:colour":"white;green;brown","recycling_type":"container"}},"type":"Feature"},
	{"geometry":{"coordinates":[7.197605,50.784901],"type":"Point"},"properties":{"osm_id":"370613442","ref":"Meerstra\u00c3\u009fe/Kapellenplatz","tag":{"amenity":"recycling","containers":"3","operator":"RSAG","recycling:glass":"yes","recycling:glass:colour":"white;green;brown","recycling_type":"container"}},"type":"Feature"},
	{"geometry":{"coordinates":[7.200999,50.790331],"type":"Point"},"properties":{"osm_id":"373439025","tag":{"amenity":"recycling","location":"overground","recycling:clothes":"yes","recycling:shoes":"yes","recycling_type":"container"}},"type":"Feature"},
	{"geometry":{"coordinates":[7.121376,50.73699],"type":"Point"},"properties":{"osm_id":"593879631","tag":{"amenity":"recycling","recycling:cans":"no","recycling:glass":"yes","recycling:glass_bottles":"yes","recycling:paper":"yes","recycling_type":"container"}},"type":"Feature"},
	{"geometry":{"coordinates":[7.126149,50.74248],"type":"Point"},"properties":{"osm_id":"658444368","tag":{"amenity":"recycling","location":"overground","recycling:glass_bottles":"yes","recycling_type":"container"}},"type":"Feature"},
	{"geometry":{"coordinates":[7.124619,50.785926],"type":"Point"},"properties":{"osm_id":"701594996","tag":{"amenity":"waste_basket"}},"type":"Feature"},
	{"geometry":{"coordinates":[7.194011,50.76811],"type":"Point"},"properties":{"osm_id":"727584790","ref":"Alte Heerstra\u00c3\u009fe/HIT-Markt","tag":{"amenity":"recycling","contact:phone":"+49 800 1223255","opening_hours":"Mo-Sa 07:00-12:30,14:30-19:00","operator":"RSAG;Remondis","recycling:glass":"yes","recycling:glass:colour":"white;green;brown","recycling_type":"container"}},"type":"Feature"},
	{"geometry":{"coordinates":[7.197203,50.778721],"type":"Point"},"properties":{"osm_id":"727584826","ref":"Holzweg/Grundschule","tag":{"amenity":"recycling","contact:phone":"+49 800 1223255","containers":"4","opening_hours":"Mo-Sa 07:00-12:30,14:30-19:00","operator":"RSAG;Remondis","recycling:glass":"yes","recycling:glass:colour":"white;green;brown","recycling_type":"container"}},"type":"Feature"},
	{"geometry":{"coordinates":[7.201467,50.772457],"type":"Point"},"properties":{"osm_id":"727584834","ref":"Pleiser Dreieck/Plus-Markt","tag":{"amenity":"recycling","contact:phone":"+49 800 1223255","containers":"2","opening_hours":"Mo-Sa 07:00-12:30,14:30-19:00","operator":"RSAG;Remondis","recycling:glass":"yes","recycling:glass:colour":"white;green;brown","recycling_type":"container"}},"type":"Feature"},
	{"geometry":{"coordinates":[7.203107,50.780191],"type":"Point"},"properties":{"osm_id":"727584869","ref":"Gr\u00c3\u00bcner Weg/Am Engelsgraben","tag":{"amenity":"recycling","contact:phone":"+49 800 1223255","containers":"3","opening_hours":"Mo-Sa 07:00-12:30,14:30-19:00","operator":"RSAG;Remondis","recycling:glass":"yes","recycling:glass:colour":"white;green;brown","recycling_type":"container"}},"type":"Feature"},
	{"geometry":{"coordinates":[7.187226,50.76846],"type":"Point"},"properties":{"osm_id":"731645328","ref":"Pestalozzistra\u00c3\u009fe/An den drei Eichen","tag":{"amenity":"recycling","contact:phone":"+49 800 1223255","containers":"4","opening_hours":"Mo-Sa 07:00-12:30,14:30-19:00","operator":"RSAG;Remondis","recycling:glass":"yes","recycling:glass:colour":"white;green;brown","recycling_type":"container"}},"type":"Feature"},
	{"geometry":{"coordinates":[7.194909,50.770979],"type":"Point"},"properties":{"osm_id":"731645330","ref":"Ginsterweg","tag":{"amenity":"recycling","contact:phone":"+49 2241 9670 0","containers":"2","opening_hours":"Mo-Sa 08:00-12:30,14:30-20:00","operator":"RSAG;Remondis","recycling:glass":"yes","recycling:glass:colour":"white;green;brown","recycling_type":"container"}},"type":"Feature"},
	{"geometry":{"coordinates":[7.179143,50.770991],"type":"Point"},"properties":{"osm_id":"731645334","ref":"Husarenstra\u00c3\u009fe/Altenheim \"St. Monika\"","tag":{"amenity":"recycling","operator":"RSAG","recycling:glass":"yes","recycling:glass:colour":"white;green;brown","recycling_type":"container"}},"type":"Feature"},
	{"geometry":{"coordinates":[7.188934,50.765928],"type":"Point"},"properties":{"osm_id":"731645336","ref":"Alte Heerstra\u00c3\u009fe/Materialamt Bundeswehr","tag":{"amenity":"recycling","contact:phone":"+49 800 1223255","containers":"2","opening_hours":"Mo-Sa 07:00-12:30,14:30-19:00","operator":"RSAG;Remondis","recycling:glass":"yes","recycling:glass:colour":"white;green;brown","recycling_type":"container"}},"type":"Feature"},
	{"geometry":{"coordinates":[7.165237,50.759808],"type":"Point"},"properties":{"osm_id":"731645340","ref":"Bachstra\u00c3\u009fe/Haltestelle Hangelar Mitte","tag":{"amenity":"recycling","operator":"RSAG","recycling:glass":"yes","recycling:glass:colour":"white;green;brown","recycling_type":"container"}},"type":"Feature"},
	{"geometry":{"coordinates":[7.196646,50.766475],"type":"Point"},"properties":{"osm_id":"736977240","ref":"Am Kreuzeck","tag":{"amenity":"recycling","contact:phone":"+49 800 1223255","containers":"3","opening_hours":"Mo-Sa 07:00-12:30,14:30-19:00","operator":"RSAG;Remondis","recycling:glass":"yes","recycling:glass:colour":"white;green;brown","recycling_type":"container"}},"type":"Feature"},
	{"geometry":{"coordinates":[7.201523,50.77045],"type":"Point"},"properties":{"osm_id":"736977248","tag":{"amenity":"recycling","recycling:clothes":"yes","recycling:shoes":"yes","recycling_type":"container"}},"type":"Feature"},
	{"geometry":{"coordinates":[7.203093,50.781473],"type":"Point"},"properties":{"osm_id":"736977252","ref":"Lochnerstra\u00c3\u009fe/Am Engelsgraben","tag":{"amenity":"recycling","contact:phone":"+49 800 1223255","containers":"2","opening_hours":"Mo-Sa 07:00-12:30,14:30-19:00","operator":"RSAG;Remondis","recycling:glass":"yes","recycling:glass:colour":"white;green;brown","recycling_type":"container"}},"type":"Feature"},
	{"geometry":{"coordinates":[7.193292,50.781114],"type":"Point"},"properties":{"osm_id":"736977256","ref":"Bonner Stra\u00c3\u009fe/Jugendzentrum","tag":{"amenity":"recycling","operator":"RSAG","recycling:glass":"yes","recycling:glass:colour":"white;green;brown","recycling_type":"container"}},"type":"Feature"},
	{"geometry":{"coordinates":[7.197434,50.78494],"type":"Point"},"properties":{"osm_id":"736977268","tag":{"amenity":"recycling","recycling:clothes":"yes","recycling:shoes":"yes","recycling_type":"container"}},"type":"Feature"},
	{"geometry":{"coordinates":[7.15859,50.753337],"type":"Point"},"properties":{"osm_id":"746909090","ref":"K\u00c3\u00b6lnstra\u00c3\u009fe/Ortsausgang","tag":{"amenity":"recycling","operator":"RSAG","recycling:glass":"yes","recycling:glass:colour":"white;green;brown","recycling_type":"container"}},"type":"Feature"},
	{"geometry":{"coordinates":[7.170423,50.75624],"type":"Point"},"properties":{"osm_id":"746909105","tag":{"amenity":"recycling","recycling:clothes":"yes","recycling:shoes":"yes","recycling_type":"container"}},"type":"Feature"},
	{"geometry":{"coordinates":[7.160389,50.761848],"type":"Point"},"properties":{"osm_id":"746909116","tag":{"amenity":"recycling","recycling:clothes":"yes","recycling:shoes":"yes","recycling_type":"container"}},"type":"Feature"},
	{"geometry":{"coordinates":[7.174401,50.758955],"type":"Point"},"properties":{"osm_id":"746909121","ref":"Westerwaldstra\u00c3\u009fe","tag":{"amenity":"recycling","containers":"2","operator":"RSAG","recycling:glass":"yes","recycling:glass:colour":"white;green;brown","recycling_type":"container"}},"type":"Feature"},
	{"geometry":{"coordinates":[7.171959,50.756627],"type":"Point"},"properties":{"osm_id":"746909131","tag":{"amenity":"recycling","recycling:clothes":"yes","recycling:shoes":"yes","recycling_type":"container"}},"type":"Feature"},
	{"geometry":{"coordinates":[7.203375,50.778449],"type":"Point"},"properties":{"osm_id":"746909186","ref":"Niederpleiser Stra\u00c3\u009fe/R\u00c3\u00bcgerpark","tag":{"amenity":"recycling","contact:phone":"+49 800 1223255","containers":"4","opening_hours":"Mo-Sa 07:00-12:30,14:30-19:00","operator":"RSAG;Remondis","recycling:glass":"yes","recycling:glass:colour":"white;green;brown","recycling_type":"container"}},"type":"Feature"},
	{"geometry":{"coordinates":[7.11978,50.77802],"type":"Point"},"properties":{"osm_id":"772290708","tag":{"amenity":"waste_basket"}},"type":"Feature"},
	{"geometry":{"coordinates":[7.185892,50.776606],"type":"Point"},"properties":{"osm_id":"814273340","ref":"Rathausallee/Rathaus","tag":{"amenity":"recycling","operator":"RSAG","recycling:glass":"yes","recycling:glass:colour":"white;green;brown","recycling_type":"container"}},"type":"Feature"},
	{"geometry":{"coordinates":[7.162023,50.780871],"type":"Point"},"properties":{"osm_id":"823813188","tag":{"amenity":"recycling","recycling:clothes":"yes","recycling_type":"container"}},"type":"Feature"},
	{"geometry":{"coordinates":[7.188883,50.786539],"type":"Point"},"properties":{"osm_id":"823813194","ref":"Ankerstra\u00c3\u009fe/Ankersch\u00c3\u00a4nke","tag":{"amenity":"recycling","operator":"RSAG","recycling:glass":"yes","recycling:glass:colour":"white;green;brown","recycling_type":"container"}},"type":"Feature"},
	{"geometry":{"coordinates":[7.171217,50.789226],"type":"Point"},"properties":{"osm_id":"823813248","ref":"Jahnsstra\u00c3\u009fe/Siegburger Stra\u00c3\u009fe","tag":{"amenity":"recycling","containers":"2","operator":"RSAG","recycling:glass":"yes","recycling:glass:colour":"white;green;brown","recycling_type":"container"}},"type":"Feature"},
	{"geometry":{"coordinates":[7.193349,50.785536],"type":"Point"},"properties":{"osm_id":"823813254","ref":"Schiffstra\u00c3\u009fe/Kahnweg","tag":{"amenity":"recycling","containers":"2","operator":"RSAG","recycling:glass":"yes","recycling:glass:colour":"white;green;brown","recycling_type":"container"}},"type":"Feature"},
	{"geometry":{"coordinates":[7.162571,50.783966],"type":"Point"},"properties":{"osm_id":"823813288","tag":{"amenity":"recycling","recycling:clothes":"yes","recycling_type":"container"}},"type":"Feature"},
	{"geometry":{"coordinates":[7.173899,50.791173],"type":"Point"},"properties":{"osm_id":"823813308","ref":"Johannesstra\u00c3\u009fe","tag":{"amenity":"recycling","operator":"RSAG","recycling:glass":"yes","recycling:glass:colour":"white;green;brown","recycling_type":"container"}},"type":"Feature"},
	{"geometry":{"coordinates":[7.173766,50.791335],"type":"Point"},"properties":{"osm_id":"823813329","tag":{"amenity":"recycling","recycling:clothes":"yes","recycling_type":"container"}},"type":"Feature"},
	{"geometry":{"coordinates":[7.148908,50.780698],"type":"Point"},"properties":{"osm_id":"823813351","tag":{"amenity":"recycling","recycling:clothes":"yes","recycling_type":"container"}},"type":"Feature"},
	{"geometry":{"coordinates":[7.162586,50.783933],"type":"Point"},"properties":{"osm_id":"823813418","ref":"Gutenbergstra\u00c3\u009fe/P\u00c3\u00a4dchensweg","tag":{"amenity":"recycling","operator":"RSAG","recycling:glass":"yes","recycling:glass:colour":"white;green;brown","recycling_type":"container"}},"type":"Feature"},
	{"geometry":{"coordinates":[7.168112,50.785148],"type":"Point"},"properties":{"osm_id":"823813426","ref":"Siegstra\u00c3\u009fe/Schulzentrum","tag":{"amenity":"recycling","operator":"RSAG","recycling:glass":"yes","recycling:glass:colour":"white;green;brown","recycling_type":"container"}},"type":"Feature"},
	{"geometry":{"coordinates":[7.182869,50.791821],"type":"Point"},"properties":{"osm_id":"823813459","ref":"Einsteinstra\u00c3\u009fe (Metro)","tag":{"amenity":"recycling","operator":"RSAG","recycling:glass":"yes","recycling:glass:colour":"white;green;brown","recycling_type":"container"}},"type":"Feature"},
	{"geometry":{"coordinates":[7.187927,50.787677],"type":"Point"},"properties":{"osm_id":"823813606","ref":"Ankerstra\u00c3\u009fe, vor Haus Nr. 15","tag":{"amenity":"recycling","operator":"RSAG","recycling:glass":"yes","recycling:glass:colour":"white;green;brown","recycling_type":"container"}},"type":"Feature"},
	{"geometry":{"coordinates":[7.148895,50.780649],"type":"Point"},"properties":{"osm_id":"823813628","ref":"Auf dem Mirzengrehn/Johann-Quadt-Stra\u00c3\u009fe","tag":{"amenity":"recycling","operator":"RSAG","recycling:glass":"yes","recycling:glass:colour":"white;green;brown","recycling_type":"container"}},"type":"Feature"},
	{"geometry":{"coordinates":[7.168107,50.785167],"type":"Point"},"properties":{"osm_id":"823813669","tag":{"amenity":"recycling","recycling:clothes":"yes","recycling_type":"container"}},"type":"Feature"},
	{"geometry":{"coordinates":[7.132995,50.762476],"type":"Point"},"properties":{"osm_id":"829009805","tag":{"amenity":"recycling","recycling:clothes":"yes","recycling:glass":"yes","recycling_type":"container"}},"type":"Feature"},
	{"geometry":{"coordinates":[7.123552,50.75193],"type":"Point"},"properties":{"osm_id":"829009931","tag":{"amenity":"recycling","location":"overground","recycling:paper":"yes","recycling_type":"container"}},"type":"Feature"},
	{"geometry":{"coordinates":[7.12364,50.751941],"type":"Point"},"properties":{"osm_id":"829009936","tag":{"amenity":"recycling","location":"overground","recycling:glass":"yes","recycling_type":"container"}},"type":"Feature"},
	{"geometry":{"coordinates":[7.123727,50.751952],"type":"Point"},"properties":{"osm_id":"829009942","tag":{"amenity":"recycling","location":"overground","recycling:clothes":"yes","recycling_type":"container"}},"type":"Feature"},
	{"geometry":{"coordinates":[7.167207,50.750519],"type":"Point"},"properties":{"osm_id":"830645154","tag":{"amenity":"recycling","location":"overground","recycling:glass":"yes","recycling_type":"container"}},"type":"Feature"},
	{"geometry":{"coordinates":[7.145505,50.755927],"type":"Point"},"properties":{"osm_id":"867164123","tag":{"amenity":"recycling","recycling:clothes":"yes","recycling_type":"container"}},"type":"Feature"},
	{"geometry":{"coordinates":[7.146435,50.75622],"type":"Point"},"properties":{"osm_id":"867164126","tag":{"amenity":"recycling","recycling:glass":"yes"}},"type":"Feature"},
	{"geometry":{"coordinates":[7.186293,50.775627],"type":"Point"},"properties":{"osm_id":"873564556","tag":{"amenity":"waste_basket"}},"type":"Feature"},
	{"geometry":{"coordinates":[7.164284,50.791009],"type":"Point"},"properties":{"osm_id":"874230994","ref":"Wilhelm-Mittelmeier-Stra\u00c3\u009fe/Raiffeisenstra\u00c3\u009fe","tag":{"amenity":"recycling","operator":"RSAG","recycling:glass":"yes","recycling:glass:colour":"white;green;brown","recycling_type":"container"}},"type":"Feature"},
	{"geometry":{"coordinates":[7.164093,50.788705],"type":"Point"},"properties":{"osm_id":"885576040","tag":{"amenity":"recycling","operator":"Arbeiterwohlfahrt Rhein-Sieg e.V.","recycling:clothes":"yes","recycling_type":"container"}},"type":"Feature"},
	{"geometry":{"coordinates":[7.164147,50.78899],"type":"Point"},"properties":{"osm_id":"885576062","ref":"Marktstra\u00c3\u009fe/Parkstra\u00c3\u009fe","tag":{"amenity":"recycling","operator":"RSAG","recycling:glass":"yes","recycling:glass:colour":"white;green;brown","recycling_type":"container"}},"type":"Feature"},
	{"geometry":{"coordinates":[7.123664,50.741657],"type":"Point"},"properties":{"osm_id":"1016050380","tag":{"amenity":"recycling","recycling:glass":"no","recycling:glass_bottles":"yes","recycling_type":"container"}},"type":"Feature"},
	{"geometry":{"coordinates":[7.129038,50.755546],"type":"Point"},"properties":{"osm_id":"1094167697","tag":{"amenity":"recycling","location":"overground","recycling:glass":"yes","recycling_type":"container"}},"type":"Feature"},
	{"geometry":{"coordinates":[7.141659,50.759546],"type":"Point"},"properties":{"osm_id":"1240197971","tag":{"amenity":"recycling"}},"type":"Feature"},
	{"geometry":{"coordinates":[7.202001,50.744572],"type":"Point"},"properties":{"osm_id":"1434835487","tag":{"amenity":"waste_basket"}},"type":"Feature"},
	{"geometry":{"coordinates":[7.201677,50.744814],"type":"Point"},"properties":{"osm_id":"1434835495","tag":{"amenity":"waste_basket"}},"type":"Feature"},
	{"geometry":{"coordinates":[7.136265,50.739739],"type":"Point"},"properties":{"osm_id":"1444509845","tag":{"amenity":"recycling","recycling:clothes":"yes","recycling:glass":"yes"}},"type":"Feature"},
	{"geometry":{"coordinates":[7.150564,50.755781],"type":"Point"},"properties":{"osm_id":"1459983095","tag":{"amenity":"waste_basket"}},"type":"Feature"},
	{"geometry":{"coordinates":[7.1502,50.756043],"type":"Point"},"properties":{"osm_id":"1459983107","tag":{"amenity":"waste_basket"}},"type":"Feature"},
	{"geometry":{"coordinates":[7.149418,50.756607],"type":"Point"},"properties":{"osm_id":"1459983116","tag":{"amenity":"waste_basket"}},"type":"Feature"},
	{"geometry":{"coordinates":[7.124897,50.738952],"type":"Point"},"properties":{"osm_id":"1579445393","tag":{"amenity":"recycling","location":"overground","recycling:clothes":"yes","recycling:glass":"yes","recycling_type":"container"}},"type":"Feature"},
	{"geometry":{"coordinates":[7.125606,50.739235],"type":"Point"},"properties":{"osm_id":"1579445395","tag":{"amenity":"recycling","location":"overground","recycling:paper":"yes","recycling_type":"container"}},"type":"Feature"},
	{"geometry":{"coordinates":[7.147373,50.761127],"type":"Point"},"properties":{"osm_id":"1579656803","tag":{"amenity":"recycling","recycling:glass_bottles":"yes","recycling_type":"container"}},"type":"Feature"},
	{"geometry":{"coordinates":[7.133382,50.745023],"type":"Point"},"properties":{"osm_id":"1813563252","tag":{"amenity":"recycling","location":"overground","recycling:glass":"yes","recycling:glass_bottles":"yes","recycling:paper":"yes","recycling_type":"container"}},"type":"Feature"},
	{"geometry":{"coordinates":[7.12879,50.747332],"type":"Point"},"properties":{"osm_id":"1887366658","tag":{"amenity":"recycling","recycling:green_waste":"yes"}},"type":"Feature"},
	{"geometry":{"coordinates":[7.171632,50.791135],"type":"Point"},"properties":{"osm_id":"2265294723","tag":{"amenity":"recycling","recycling:clothes":"yes","recycling_type":"container"}},"type":"Feature"},
	{"geometry":{"coordinates":[7.20498,50.758075],"type":"Point"},"properties":{"osm_id":"2377312076","tag":{"amenity":"waste_basket"}},"type":"Feature"},
	{"geometry":{"coordinates":[7.205792,50.761963],"type":"Point"},"properties":{"osm_id":"2377312779","tag":{"amenity":"waste_basket"}},"type":"Feature"},
	{"geometry":{"coordinates":[7.134253,50.779523],"type":"Point"},"properties":{"osm_id":"2649845568","ref":"Lichweg/Am Weiher","tag":{"amenity":"recycling","containers":"2","operator":"RSAG","recycling:glass":"yes","recycling:glass:colour":"white;green;brown","recycling_type":"container"}},"type":"Feature"},
	{"geometry":{"coordinates":[7.129145,50.750999],"type":"Point"},"properties":{"osm_id":"2815573190","tag":{"amenity":"recycling","location":"overground","operator":"Remondis","recycling:cans":"no","recycling:clothes":"no","recycling:glass":"yes","recycling:paper":"no","recycling_type":"container"}},"type":"Feature"},
	{"geometry":{"coordinates":[7.127362,50.738771],"type":"Point"},"properties":{"osm_id":"2894006636","tag":{"amenity":"waste_basket"}},"type":"Feature"},
	{"geometry":{"coordinates":[7.127363,50.738783],"type":"Point"},"properties":{"osm_id":"2894006637","tag":{"amenity":"waste_basket"}},"type":"Feature"},
	{"geometry":{"coordinates":[7.187905,50.780252],"type":"Point"},"properties":{"osm_id":"3813223108","tag":{"amenity":"waste_basket"}},"type":"Feature"},
	{"geometry":{"coordinates":[7.187979,50.780256],"type":"Point"},"properties":{"osm_id":"3813223109","tag":{"amenity":"waste_basket"}},"type":"Feature"},
	{"geometry":{"coordinates":[7.176074,50.752399],"type":"Point"},"properties":{"osm_id":"4004144785","tag":{"amenity":"recycling","recycling:paper":"yes","recycling_type":"container"}},"type":"Feature"},
	{"geometry":{"coordinates":[7.174917,50.749623],"type":"Point"},"properties":{"osm_id":"4498853370","tag":{"amenity":"recycling","recycling:glass":"yes","recycling_type":"container"}},"type":"Feature"},
	{"geometry":{"coordinates":[7.174889,50.749623],"type":"Point"},"properties":{"osm_id":"4498853371","tag":{"amenity":"recycling","recycling:glass":"yes","recycling_type":"container"}},"type":"Feature"},
	{"geometry":{"coordinates":[7.17486,50.749624],"type":"Point"},"properties":{"osm_id":"4498853372","tag":{"amenity":"recycling","recycling:glass":"yes","recycling_type":"container"}},"type":"Feature"},
	{"geometry":{"coordinates":[7.176075,50.752356],"type":"Point"},"properties":{"osm_id":"4498853388","tag":{"amenity":"recycling","recycling:clothes":"yes","recycling_type":"container","url":"www.bonnorange.de"}},"type":"Feature"},
	{"geometry":{"coordinates":[7.176111,50.752421],"type":"Point"},"properties":{"osm_id":"4498853790","tag":{"amenity":"recycling","recycling:glass_bottles":"yes","recycling_type":"container"}},"type":"Feature"},
	{"geometry":{"coordinates":[7.190852,50.760549],"type":"Point"},"properties":{"osm_id":"4501343594","tag":{"amenity":"waste_basket"}},"type":"Feature"},
	{"geometry":{"coordinates":[7.200572,50.748701],"type":"Point"},"properties":{"osm_id":"4502590010","tag":{"amenity":"waste_basket"}},"type":"Feature"},
	{"geometry":{"coordinates":[7.204004,50.748723],"type":"Point"},"properties":{"osm_id":"4502590011","tag":{"amenity":"waste_basket"}},"type":"Feature"},
	{"geometry":{"coordinates":[7.204757,50.748849],"type":"Point"},"properties":{"osm_id":"4502590016","tag":{"amenity":"waste_basket"}},"type":"Feature"},
	{"geometry":{"coordinates":[7.203338,50.749896],"type":"Point"},"properties":{"osm_id":"4502590050","tag":{"amenity":"waste_basket"}},"type":"Feature"},
	{"geometry":{"coordinates":[7.177872,50.743659],"type":"Point"},"properties":{"osm_id":"4504394890","tag":{"amenity":"recycling","recycling_type":"container"}},"type":"Feature"},
	{"geometry":{"coordinates":[7.177883,50.743656],"type":"Point"},"properties":{"osm_id":"4504394891","tag":{"amenity":"recycling","recycling_type":"container"}},"type":"Feature"},
	{"geometry":{"coordinates":[7.177895,50.743654],"type":"Point"},"properties":{"osm_id":"4504394892","tag":{"amenity":"recycling","recycling_type":"container"}},"type":"Feature"},
	{"geometry":{"coordinates":[7.121715,50.747554],"type":"Point"},"properties":{"osm_id":"4679009611","tag":{"amenity":"recycling","recycling:clothes":"yes","recycling:shoes":"yes","recycling_type":"container"}},"type":"Feature"},
	{"geometry":{"coordinates":[7.197342,50.737333],"type":"Point"},"properties":{"osm_id":"4702196295","tag":{"amenity":"recycling","recycling:glass":"yes","recycling_type":"container"}},"type":"Feature"},
	{"geometry":{"coordinates":[7.187283,50.768479],"type":"Point"},"properties":{"osm_id":"4826296588","tag":{"amenity":"recycling","recycling:clothes":"yes","recycling:shoes":"yes","recycling_type":"container"}},"type":"Feature"},
	{"geometry":{"coordinates":[7.184186,50.778709],"type":"Point"},"properties":{"osm_id":"4826296589","tag":{"amenity":"recycling","recycling:clothes":"yes","recycling:paper":"yes","recycling:shoes":"yes","recycling_type":"container"}},"type":"Feature"},
	{"geometry":{"coordinates":[7.203052,50.781466],"type":"Point"},"properties":{"osm_id":"4826296590","tag":{"amenity":"recycling","recycling:clothes":"yes","recycling:shoes":"yes","recycling_type":"container"}},"type":"Feature"},
	{"geometry":{"coordinates":[7.182979,50.762099],"type":"Point"},"properties":{"osm_id":"4826296591","ref":"Hirschbergweg/Parkplatz","tag":{"amenity":"recycling","operator":"RSAG","recycling:glass":"yes","recycling:glass:colour":"white;green;brown","recycling_type":"container"}},"type":"Feature"},
	{"geometry":{"coordinates":[7.187243,50.768468],"type":"Point"},"properties":{"osm_id":"4826296593","tag":{"amenity":"waste_basket"}},"type":"Feature"},
	{"geometry":{"coordinates":[7.188908,50.765922],"type":"Point"},"properties":{"osm_id":"4826296594","tag":{"amenity":"waste_basket"}},"type":"Feature"},
	{"geometry":{"coordinates":[7.182086,50.740937],"type":"Point"},"properties":{"osm_id":"4860989199","tag":{"amenity":"recycling","recycling:glass":"yes","recycling:glass_bottles":"yes","recycling_type":"container"}},"type":"Feature"},
	{"geometry":{"coordinates":[7.183867,50.781061],"type":"Point"},"properties":{"osm_id":"5048590077","tag":{"amenity":"waste_basket"}},"type":"Feature"},
	{"geometry":{"coordinates":[7.183032,50.781281],"type":"Point"},"properties":{"osm_id":"5048603140","tag":{"amenity":"waste_basket"}},"type":"Feature"},
	{"geometry":{"coordinates":[7.181907,50.781295],"type":"Point"},"properties":{"osm_id":"5048603142","tag":{"amenity":"waste_basket"}},"type":"Feature"},
	{"geometry":{"coordinates":[7.147384,50.761152],"type":"Point"},"properties":{"osm_id":"5050467246","tag":{"amenity":"recycling","recycling:clothes":"yes","recycling:glass":"yes","recycling_type":"container"}},"type":"Feature"},
	{"geometry":{"coordinates":[7.143842,50.759682],"type":"Point"},"properties":{"osm_id":"5050553772","tag":{"amenity":"waste_basket"}},"type":"Feature"},
	{"geometry":{"coordinates":[7.183378,50.780814],"type":"Point"},"properties":{"osm_id":"5053559459","tag":{"amenity":"waste_basket"}},"type":"Feature"},
	{"geometry":{"coordinates":[7.181513,50.781577],"type":"Point"},"properties":{"osm_id":"5053559464","tag":{"amenity":"waste_basket"}},"type":"Feature"},
	{"geometry":{"coordinates":[7.18136,50.781471],"type":"Point"},"properties":{"osm_id":"5053559465","tag":{"amenity":"waste_basket"}},"type":"Feature"},
	{"geometry":{"coordinates":[7.181265,50.781674],"type":"Point"},"properties":{"osm_id":"5053559467","tag":{"amenity":"waste_basket"}},"type":"Feature"},
	{"geometry":{"coordinates":[7.179058,50.780304],"type":"Point"},"properties":{"osm_id":"5053559479","tag":{"amenity":"waste_basket"}},"type":"Feature"},
	{"geometry":{"coordinates":[7.179842,50.780668],"type":"Point"},"properties":{"osm_id":"5053559481","tag":{"amenity":"waste_basket"}},"type":"Feature"},
	{"geometry":{"coordinates":[7.18066,50.781101],"type":"Point"},"properties":{"osm_id":"5053559483","tag":{"amenity":"waste_basket"}},"type":"Feature"},
	{"geometry":{"coordinates":[7.131064,50.736876],"type":"Point"},"properties":{"osm_id":"5075809240","tag":{"amenity":"recycling","recycling:glass_bottles":"yes","recycling_type":"container"}},"type":"Feature"},
	{"geometry":{"coordinates":[7.158896,50.758308],"type":"Point"},"properties":{"osm_id":"5128776453","tag":{"amenity":"waste_basket"}},"type":"Feature"},
	{"geometry":{"coordinates":[7.159276,50.74154],"type":"Point"},"properties":{"osm_id":"5246883737","tag":{"amenity":"recycling","operator":"Kleidung humana","recycling:clothes":"yes","recycling:glass_bottles":"yes","recycling_type":"container"}},"type":"Feature"},
	{"geometry":{"coordinates":[7.120751,50.747667],"type":"Point"},"properties":{"osm_id":"5309964873","tag":{"amenity":"recycling","recycling:clothes":"yes","recycling:shoes":"yes","recycling_type":"container"}},"type":"Feature"},
	{"geometry":{"coordinates":[7.130589,50.749716],"type":"Point"},"properties":{"osm_id":"5377550797","tag":{"amenity":"recycling","recycling:glass_bottles":"yes","recycling:paper":"yes","recycling_type":"container"}},"type":"Feature"},
	{"geometry":{"coordinates":[7.140678,50.780626],"type":"Point"},"properties":{"osm_id":"5648913233","tag":{"amenity":"waste_basket"}},"type":"Feature"},
	{"geometry":{"coordinates":[7.129345,50.750706],"type":"Point"},"properties":{"osm_id":"5953803500","tag":{"amenity":"waste_basket"}},"type":"Feature"},
	{"geometry":{"coordinates":[7.127878,50.749808],"type":"Point"},"properties":{"osm_id":"5953803503","tag":{"amenity":"recycling","operator:type":"unknown","recycling:clothes":"yes","recycling_type":"container"}},"type":"Feature"},
	{"geometry":{"coordinates":[7.130596,50.749707],"type":"Point"},"properties":{"osm_id":"6396175190","ref":"499","tag":{"amenity":"recycling","operator":"bonnorange A\u00c3\u00b6R","operator:phone":"+49 228 5552720","operator:website":"https://www.bonnorange.de/","recycling:clothes":"yes","recycling:clothes:quality":"all","recycling:shoes":"yes","recycling_type":"container"}},"type":"Feature"},
	{"geometry":{"coordinates":[7.125623,50.73924],"type":"Point"},"properties":{"osm_id":"6400337369","tag":{"amenity":"recycling","location":"overground","operator":"DRK Kreisverband Bonn e.V.","operator:email":"info@kv-bonn.drk.de","operator:phone":"+49 228 98310","operator:type":"charitable","operator:website":"http://www.drk-bonn.de/","recycling:clothes":"yes","recycling_type":"container"}},"type":"Feature"},
	{"geometry":{"coordinates":[7.125634,50.739243],"type":"Point"},"properties":{"osm_id":"6400337370","ref":"150","tag":{"amenity":"recycling","operator":"bonnorange A\u00c3\u00b6R","operator:phone":"+49 228 5552720","operator:website":"http://www.bonnorange.de/","recycling:clothes":"yes","recycling:clothes:quality":"all","recycling:shoes":"yes","recycling_type":"container"}},"type":"Feature"},
	{"geometry":{"coordinates":[7.130279,50.749775],"type":"Point"},"properties":{"osm_id":"6400337384","tag":{"amenity":"recycling","operator:type":"unknown","recycling:clothes":"yes","recycling:shoes":"yes","recycling_type":"container"}},"type":"Feature"},
	{"geometry":{"coordinates":[7.127881,50.749806],"type":"Point"},"properties":{"osm_id":"6400337885","tag":{"amenity":"recycling","operator:type":"unknown","recycling:clothes":"yes","recycling_type":"container"}},"type":"Feature"},
	{"geometry":{"coordinates":[7.181985,50.780754],"type":"Point"},"properties":{"osm_id":"6699165832","tag":{"amenity":"waste_basket"}},"type":"Feature"},
	{"geometry":{"coordinates":[7.184891,50.777643],"type":"Point"},"properties":{"osm_id":"6741100258","tag":{"amenity":"waste_basket"}},"type":"Feature"},
	{"geometry":{"coordinates":[7.184662,50.777629],"type":"Point"},"properties":{"osm_id":"6741100259","tag":{"amenity":"waste_basket"}},"type":"Feature"},
	{"geometry":{"coordinates":[7.183526,50.778548],"type":"Point"},"properties":{"osm_id":"6741100262","tag":{"amenity":"waste_basket"}},"type":"Feature"},
	{"geometry":{"coordinates":[7.185857,50.779748],"type":"Point"},"properties":{"osm_id":"6741100266","tag":{"amenity":"waste_basket"}},"type":"Feature"},
	{"geometry":{"coordinates":[7.177557,50.788387],"type":"Point"},"properties":{"osm_id":"6741100268","tag":{"amenity":"recycling","recycling:clothes":"yes","recycling_type":"container"}},"type":"Feature"},
	{"geometry":{"coordinates":[7.205421,50.791314],"type":"Point"},"properties":{"osm_id":"6857766654","tag":{"amenity":"recycling","location":"overground","recycling:cans":"no","recycling:clothes":"yes","recycling:glass":"no","recycling:glass_bottles":"no","recycling:paper":"no","recycling:shoes":"yes","recycling_type":"container"}},"type":"Feature"},
	{"geometry":{"coordinates":[7.119883,50.791299],"type":"Point"},"properties":{"osm_id":"7572307585","tag":{"amenity":"waste_basket"}},"type":"Feature"}
]
}
