{
"type": "FeatureCollection",
"features": [
	{"geometry":{"coordinates":[7.185759,50.662399],"type":"Point"},"properties":{"osm_id":"270944902","tag":{"amenity":"recycling","recycling:clothes":"yes"}},"type":"Feature"},
	{"geometry":{"coordinates":[7.173808,50.666915],"type":"Point"},"properties":{"osm_id":"304290254","tag":{"amenity":"recycling","location":"overground","recycling:clothes":"yes","recycling:glass_bottles":"yes","recycling_type":"container"}},"type":"Feature"},
	{"geometry":{"coordinates":[7.172243,50.663305],"type":"Point"},"properties":{"osm_id":"304604916","tag":{"amenity":"recycling","recycling:glass_bottles":"yes"}},"type":"Feature"},
	{"geometry":{"coordinates":[7.185987,50.664173],"type":"Point"},"properties":{"osm_id":"310636052","tag":{"amenity":"recycling","opening_hours":"open","operator":"bonnorange A\u00c3\u00b6R","recycling:green_waste":"yes","recycling_type":"container"}},"type":"Feature"},
	{"geometry":{"coordinates":[7.159672,50.679137],"type":"Point"},"properties":{"osm_id":"311141804","tag":{"amenity":"recycling","location":"overground","recycling:glass_bottles":"yes","recycling:paper":"yes","recycling_type":"container"}},"type":"Feature"},
	{"geometry":{"coordinates":[7.159631,50.679088],"type":"Point"},"properties":{"osm_id":"311141808","tag":{"amenity":"recycling","location":"overground","recycling:clothes":"yes","recycling_type":"container"}},"type":"Feature"},
	{"geometry":{"coordinates":[7.181368,50.665846],"type":"Point"},"properties":{"osm_id":"316169094","tag":{"amenity":"recycling","location":"overground","recycling:glass_bottles":"yes","recycling_type":"container"}},"type":"Feature"},
	{"geometry":{"coordinates":[7.154973,50.659886],"type":"Point"},"properties":{"osm_id":"323226672","tag":{"amenity":"recycling","recycling:glass":"yes","recycling:paper":"yes"}},"type":"Feature"},
	{"geometry":{"coordinates":[7.18403,50.66348],"type":"Point"},"properties":{"osm_id":"416132395","tag":{"amenity":"recycling","recycling:clothes":"yes","recycling:glass":"yes"}},"type":"Feature"},
	{"geometry":{"coordinates":[7.193446,50.659247],"type":"Point"},"properties":{"osm_id":"479167653","tag":{"amenity":"recycling","location":"overground","recycling:paper":"yes","recycling_type":"container"}},"type":"Feature"},
	{"geometry":{"coordinates":[7.176746,50.680694],"type":"Point"},"properties":{"osm_id":"497481746","tag":{"amenity":"recycling","recycling:glass_bottles":"yes","recycling_type":"container"}},"type":"Feature"},
	{"geometry":{"coordinates":[7.17192,50.680359],"type":"Point"},"properties":{"osm_id":"503680147","tag":{"amenity":"recycling","location":"overground","recycling_type":"container"}},"type":"Feature"},
	{"geometry":{"coordinates":[7.191209,50.658452],"type":"Point"},"properties":{"osm_id":"508078543","tag":{"amenity":"recycling","recycling:clothes":"yes"}},"type":"Feature"},
	{"geometry":{"coordinates":[7.161291,50.676198],"type":"Point"},"properties":{"osm_id":"509172380","tag":{"amenity":"recycling","recycling:clothes":"yes","recycling:glass":"yes"}},"type":"Feature"},
	{"geometry":{"coordinates":[7.154602,50.680284],"type":"Point"},"properties":{"osm_id":"509172444","tag":{"amenity":"recycling","mapillary":"taWTy4AFEXUosf2xKBWf-w","recycling:clothes":"yes","recycling:glass":"yes","recycling:paper":"yes","recycling_type":"container","survey:date":"2020-01-01"}},"type":"Feature"},
	{"geometry":{"coordinates":[7.173093,50.638924],"type":"Point"},"properties":{"osm_id":"510928082","tag":{"amenity":"recycling","mapillary":"1pm9GBoLyVU_uNZ6KXqZQw","recycling:clothes":"yes","recycling_type":"container","survey:date":"2016-09-25"}},"type":"Feature"},
	{"geometry":{"coordinates":[7.151223,50.678776],"type":"Point"},"properties":{"osm_id":"549790814","tag":{"amenity":"recycling","recycling:paper":"yes"}},"type":"Feature"},
	{"geometry":{"coordinates":[7.151162,50.678879],"type":"Point"},"properties":{"osm_id":"549790815","tag":{"amenity":"recycling","recycling:glass":"yes"}},"type":"Feature"},
	{"geometry":{"coordinates":[7.150774,50.679363],"type":"Point"},"properties":{"osm_id":"549790816","tag":{"amenity":"recycling","recycling:clothes":"yes"}},"type":"Feature"},
	{"geometry":{"coordinates":[7.157332,50.663982],"type":"Point"},"properties":{"osm_id":"570144399","tag":{"amenity":"recycling"}},"type":"Feature"},
	{"geometry":{"coordinates":[7.150972,50.65678],"type":"Point"},"properties":{"osm_id":"601489614","tag":{"amenity":"recycling"}},"type":"Feature"},
	{"geometry":{"coordinates":[7.161578,50.670292],"type":"Point"},"properties":{"osm_id":"658441970","tag":{"amenity":"recycling","opening_hours":"Mo-Sa 07:00-20:00; PH off","recycling:clothes":"yes","recycling:glass":"yes","recycling_type":"container"}},"type":"Feature"},
	{"geometry":{"coordinates":[7.154334,50.680696],"type":"Point"},"properties":{"osm_id":"673851104","tag":{"amenity":"recycling","recycling:glass_bottles":"yes"}},"type":"Feature"},
	{"geometry":{"coordinates":[7.154342,50.680688],"type":"Point"},"properties":{"osm_id":"673851105","tag":{"amenity":"recycling","mapillary":"qllsuwEXvrmXbf6IucdT4w","recycling:paper":"yes","recycling_type":"container","survey:date":"2020-01-01"}},"type":"Feature"},
	{"geometry":{"coordinates":[7.18613,50.651782],"type":"Point"},"properties":{"osm_id":"699255095","tag":{"amenity":"recycling","recycling:glass":"yes","recycling_type":"container"}},"type":"Feature"},
	{"geometry":{"coordinates":[7.187197,50.668203],"type":"Point"},"properties":{"osm_id":"725395989","tag":{"amenity":"recycling","recycling:clothes":"yes","recycling_type":"container"}},"type":"Feature"},
	{"geometry":{"coordinates":[7.199273,50.656733],"type":"Point"},"properties":{"osm_id":"971970116","tag":{"amenity":"recycling","location":"overground","recycling:clothes":"yes","recycling:glass":"yes","recycling:paper":"yes","recycling_type":"container"}},"type":"Feature"},
	{"geometry":{"coordinates":[7.18283,50.669348],"type":"Point"},"properties":{"osm_id":"1080192729","tag":{"amenity":"recycling","recycling:clothes":"yes","recycling:glass":"yes","recycling:paper":"yes","recycling_type":"container"}},"type":"Feature"},
	{"geometry":{"coordinates":[7.189857,50.663564],"type":"Point"},"properties":{"osm_id":"1081114823","tag":{"amenity":"recycling","location":"overground","recycling:glass":"yes","recycling_type":"container"}},"type":"Feature"},
	{"geometry":{"coordinates":[7.156497,50.648659],"type":"Point"},"properties":{"osm_id":"1082889453","tag":{"amenity":"recycling","recycling:glass":"yes"}},"type":"Feature"},
	{"geometry":{"coordinates":[7.147933,50.657448],"type":"Point"},"properties":{"osm_id":"1082889488","tag":{"amenity":"recycling","recycling:glass":"yes","recycling:paper":"yes"}},"type":"Feature"},
	{"geometry":{"coordinates":[7.1748,50.643571],"type":"Point"},"properties":{"osm_id":"1180974528","tag":{"amenity":"recycling","recycling:glass":"yes"}},"type":"Feature"},
	{"geometry":{"coordinates":[7.179653,50.670086],"type":"Point"},"properties":{"osm_id":"1392444352","tag":{"amenity":"recycling","operator":"Humana","recycling:clothes":"yes","recycling:shoes":"yes"}},"type":"Feature"},
	{"geometry":{"coordinates":[7.173012,50.662238],"type":"Point"},"properties":{"osm_id":"1400539361","tag":{"amenity":"recycling","recycling:clothes":"yes","recycling:glass_bottles":"yes","recycling:paper":"yes"}},"type":"Feature"},
	{"geometry":{"coordinates":[7.170032,50.677275],"type":"Point"},"properties":{"osm_id":"1600992012","tag":{"amenity":"recycling"}},"type":"Feature"},
	{"geometry":{"coordinates":[7.165235,50.677961],"type":"Point"},"properties":{"osm_id":"1665059095","tag":{"amenity":"recycling","location":"overground","recycling:clothes":"yes","recycling:paper":"yes","recycling_type":"container"}},"type":"Feature"},
	{"geometry":{"coordinates":[7.153406,50.661804],"type":"Point"},"properties":{"osm_id":"2038349622","tag":{"amenity":"recycling","recycling:batteries":"no","recycling:books":"no","recycling:cans":"no","recycling:cardboard":"no","recycling:cartons":"no","recycling:clothes":"no","recycling:electrical_appliances":"no","recycling:glass":"yes","recycling:glass_bottles":"yes","recycling:green_waste":"no","recycling:magazines":"no","recycling:newspaper":"no","recycling:paper":"no","recycling:paper_packaging":"no","recycling:plastic":"no","recycling:plastic_bottles":"no","recycling:plastic_packaging":"no","recycling:scrap_metal":"no","recycling:small_appliances":"no","recycling:waste":"no","recycling:wood":"no","recycling_type":"container"}},"type":"Feature"},
	{"geometry":{"coordinates":[7.197894,50.678385],"type":"Point"},"properties":{"osm_id":"2268454620","tag":{"amenity":"waste_basket"}},"type":"Feature"},
	{"geometry":{"coordinates":[7.183325,50.639127],"type":"Point"},"properties":{"osm_id":"2453207288","tag":{"amenity":"waste_basket"}},"type":"Feature"},
	{"geometry":{"coordinates":[7.190675,50.641545],"type":"Point"},"properties":{"osm_id":"2457635535","tag":{"amenity":"waste_basket"}},"type":"Feature"},
	{"geometry":{"coordinates":[7.194927,50.647567],"type":"Point"},"properties":{"osm_id":"2457635588","tag":{"amenity":"waste_basket"}},"type":"Feature"},
	{"geometry":{"coordinates":[7.150574,50.666157],"type":"Point"},"properties":{"osm_id":"3076968878","tag":{"amenity":"recycling","location":"overground","recycling:clothes":"yes","recycling:glass":"yes","recycling:paper":"yes","recycling_type":"container"}},"type":"Feature"},
	{"geometry":{"coordinates":[7.17759,50.66354],"type":"Point"},"properties":{"osm_id":"3358687062","tag":{"amenity":"recycling","recycling_type":"container"}},"type":"Feature"},
	{"geometry":{"coordinates":[7.191049,50.674388],"type":"Point"},"properties":{"osm_id":"3707777744","tag":{"amenity":"waste_basket"}},"type":"Feature"},
	{"geometry":{"coordinates":[7.141679,50.656042],"type":"Point"},"properties":{"osm_id":"4057880099","tag":{"amenity":"waste_basket"}},"type":"Feature"},
	{"geometry":{"coordinates":[7.143786,50.661034],"type":"Point"},"properties":{"osm_id":"4057880120","tag":{"amenity":"waste_basket"}},"type":"Feature"},
	{"geometry":{"coordinates":[7.134048,50.628453],"type":"Point"},"properties":{"osm_id":"4068419770","tag":{"amenity":"waste_basket"}},"type":"Feature"},
	{"geometry":{"coordinates":[7.131966,50.629314],"type":"Point"},"properties":{"osm_id":"4068419777","tag":{"amenity":"waste_basket"}},"type":"Feature"},
	{"geometry":{"coordinates":[7.131503,50.626391],"type":"Point"},"properties":{"osm_id":"4069999639","tag":{"amenity":"waste_basket"}},"type":"Feature"},
	{"geometry":{"coordinates":[7.120803,50.626666],"type":"Point"},"properties":{"osm_id":"4069999646","tag":{"amenity":"waste_basket"}},"type":"Feature"},
	{"geometry":{"coordinates":[7.163522,50.641241],"type":"Point"},"properties":{"osm_id":"4080198909","tag":{"amenity":"waste_basket"}},"type":"Feature"},
	{"geometry":{"coordinates":[7.156888,50.630935],"type":"Point"},"properties":{"osm_id":"4080315877","tag":{"amenity":"waste_basket"}},"type":"Feature"},
	{"geometry":{"coordinates":[7.158785,50.63607],"type":"Point"},"properties":{"osm_id":"4080317001","tag":{"amenity":"waste_basket"}},"type":"Feature"},
	{"geometry":{"coordinates":[7.163621,50.636125],"type":"Point"},"properties":{"osm_id":"4080317003","tag":{"amenity":"waste_basket"}},"type":"Feature"},
	{"geometry":{"coordinates":[7.159961,50.637566],"type":"Point"},"properties":{"osm_id":"4081010039","tag":{"amenity":"waste_basket"}},"type":"Feature"},
	{"geometry":{"coordinates":[7.164527,50.642668],"type":"Point"},"properties":{"osm_id":"4081010051","tag":{"amenity":"waste_basket"}},"type":"Feature"},
	{"geometry":{"coordinates":[7.167859,50.636371],"type":"Point"},"properties":{"osm_id":"4085124910","tag":{"amenity":"waste_basket"}},"type":"Feature"},
	{"geometry":{"coordinates":[7.188377,50.644472],"type":"Point"},"properties":{"osm_id":"4107589294","tag":{"amenity":"waste_basket"}},"type":"Feature"},
	{"geometry":{"coordinates":[7.173731,50.644724],"type":"Point"},"properties":{"osm_id":"4127962983","tag":{"amenity":"waste_basket"}},"type":"Feature"},
	{"geometry":{"coordinates":[7.197317,50.669787],"type":"Point"},"properties":{"osm_id":"4244382000","tag":{"amenity":"recycling","is_in:street":"Am Stadtgarten","recycling:glass_bottles":"yes","recycling_type":"container"}},"type":"Feature"},
	{"geometry":{"coordinates":[7.196398,50.669531],"type":"Point"},"properties":{"osm_id":"4244382001","tag":{"amenity":"recycling","is_in:street":"Steinmetzstra\u00c3\u009fe","recycling:clothes":"yes","recycling:glass_bottles":"yes","recycling_type":"container"}},"type":"Feature"},
	{"geometry":{"coordinates":[7.194074,50.679025],"type":"Point"},"properties":{"osm_id":"4244385104","tag":{"amenity":"recycling","recycling:clothes":"yes","recycling:glass_bottles":"yes","recycling_type":"container"}},"type":"Feature"},
	{"geometry":{"coordinates":[7.201484,50.674132],"type":"Point"},"properties":{"osm_id":"4244527236","tag":{"amenity":"recycling","is_in:street":"Oberweingartenweg","recycling:glass_bottles":"yes","recycling_type":"container"}},"type":"Feature"},
	{"geometry":{"coordinates":[7.202593,50.652129],"type":"Point"},"properties":{"osm_id":"4344447090","tag":{"amenity":"waste_basket"}},"type":"Feature"},
	{"geometry":{"coordinates":[7.20305,50.654922],"type":"Point"},"properties":{"osm_id":"4344447092","tag":{"amenity":"waste_basket"}},"type":"Feature"},
	{"geometry":{"coordinates":[7.206364,50.644066],"type":"Point"},"properties":{"osm_id":"4568751184","tag":{"amenity":"waste_basket"}},"type":"Feature"},
	{"geometry":{"coordinates":[7.206407,50.64946],"type":"Point"},"properties":{"osm_id":"4568751190","tag":{"amenity":"waste_basket"}},"type":"Feature"},
	{"geometry":{"coordinates":[7.206035,50.651681],"type":"Point"},"properties":{"osm_id":"4568751196","tag":{"amenity":"waste_basket"}},"type":"Feature"},
	{"geometry":{"coordinates":[7.206192,50.650533],"type":"Point"},"properties":{"osm_id":"4568751200","tag":{"amenity":"waste_basket"}},"type":"Feature"},
	{"geometry":{"coordinates":[7.206193,50.650518],"type":"Point"},"properties":{"osm_id":"4568751203","tag":{"amenity":"waste_basket"}},"type":"Feature"},
	{"geometry":{"coordinates":[7.206364,50.648011],"type":"Point"},"properties":{"osm_id":"4568751207","tag":{"amenity":"waste_basket"}},"type":"Feature"},
	{"geometry":{"coordinates":[7.206306,50.647238],"type":"Point"},"properties":{"osm_id":"4568751209","tag":{"amenity":"waste_basket"}},"type":"Feature"},
	{"geometry":{"coordinates":[7.206315,50.646789],"type":"Point"},"properties":{"osm_id":"4568751210","tag":{"amenity":"waste_basket"}},"type":"Feature"},
	{"geometry":{"coordinates":[7.206337,50.645689],"type":"Point"},"properties":{"osm_id":"4568751214","tag":{"amenity":"waste_basket"}},"type":"Feature"},
	{"geometry":{"coordinates":[7.13933,50.672911],"type":"Point"},"properties":{"osm_id":"4570534170","tag":{"amenity":"waste_basket"}},"type":"Feature"},
	{"geometry":{"coordinates":[7.141066,50.673965],"type":"Point"},"properties":{"osm_id":"4570534173","tag":{"amenity":"waste_basket"}},"type":"Feature"},
	{"geometry":{"coordinates":[7.141614,50.674241],"type":"Point"},"properties":{"osm_id":"4570534175","tag":{"amenity":"waste_basket"}},"type":"Feature"},
	{"geometry":{"coordinates":[7.142673,50.674666],"type":"Point"},"properties":{"osm_id":"4570534178","tag":{"amenity":"waste_basket"}},"type":"Feature"},
	{"geometry":{"coordinates":[7.143263,50.674941],"type":"Point"},"properties":{"osm_id":"4570534179","tag":{"amenity":"waste_basket"}},"type":"Feature"},
	{"geometry":{"coordinates":[7.144699,50.675958],"type":"Point"},"properties":{"osm_id":"4570534180","tag":{"amenity":"waste_basket"}},"type":"Feature"},
	{"geometry":{"coordinates":[7.1448,50.67656],"type":"Point"},"properties":{"osm_id":"4570534183","tag":{"amenity":"waste_basket"}},"type":"Feature"},
	{"geometry":{"coordinates":[7.144735,50.676871],"type":"Point"},"properties":{"osm_id":"4570534185","tag":{"amenity":"waste_basket"}},"type":"Feature"},
	{"geometry":{"coordinates":[7.146115,50.678602],"type":"Point"},"properties":{"osm_id":"4570534188","tag":{"amenity":"waste_basket"}},"type":"Feature"},
	{"geometry":{"coordinates":[7.147897,50.679597],"type":"Point"},"properties":{"osm_id":"4570534389","tag":{"amenity":"waste_basket"}},"type":"Feature"},
	{"geometry":{"coordinates":[7.147887,50.679547],"type":"Point"},"properties":{"osm_id":"4570534393","tag":{"amenity":"waste_basket"}},"type":"Feature"},
	{"geometry":{"coordinates":[7.149726,50.680368],"type":"Point"},"properties":{"osm_id":"4571356683","tag":{"amenity":"waste_basket"}},"type":"Feature"},
	{"geometry":{"coordinates":[7.149577,50.680345],"type":"Point"},"properties":{"osm_id":"4571356686","tag":{"amenity":"waste_basket"}},"type":"Feature"},
	{"geometry":{"coordinates":[7.149238,50.680081],"type":"Point"},"properties":{"osm_id":"4571356687","tag":{"amenity":"waste_basket"}},"type":"Feature"},
	{"geometry":{"coordinates":[7.14872,50.679836],"type":"Point"},"properties":{"osm_id":"4571356802","tag":{"amenity":"recycling","recycling:glass_bottles":"yes","recycling_type":"container"}},"type":"Feature"},
	{"geometry":{"coordinates":[7.154514,50.649508],"type":"Point"},"properties":{"osm_id":"4608286646","tag":{"amenity":"waste_basket"}},"type":"Feature"},
	{"geometry":{"coordinates":[7.151919,50.671458],"type":"Point"},"properties":{"osm_id":"4642038052","tag":{"amenity":"waste_basket"}},"type":"Feature"},
	{"geometry":{"coordinates":[7.194155,50.67884],"type":"Point"},"properties":{"osm_id":"4665985195","tag":{"amenity":"recycling","recycling:clothes":"yes","recycling_type":"container"}},"type":"Feature"},
	{"geometry":{"coordinates":[7.194136,50.678863],"type":"Point"},"properties":{"osm_id":"4665985196","tag":{"amenity":"recycling","opening_hours":"24/7","operator":"Remondis","recycling:glass_bottles":"yes","recycling_type":"container"}},"type":"Feature"},
	{"geometry":{"coordinates":[7.196878,50.674549],"type":"Point"},"properties":{"osm_id":"4665985198","tag":{"amenity":"waste_basket"}},"type":"Feature"},
	{"geometry":{"coordinates":[7.19668,50.674496],"type":"Point"},"properties":{"osm_id":"4665985200","tag":{"amenity":"waste_basket"}},"type":"Feature"},
	{"geometry":{"coordinates":[7.19419,50.674031],"type":"Point"},"properties":{"osm_id":"4665985201","tag":{"amenity":"waste_basket"}},"type":"Feature"},
	{"geometry":{"coordinates":[7.195559,50.669595],"type":"Point"},"properties":{"osm_id":"4665985205","tag":{"amenity":"waste_basket"}},"type":"Feature"},
	{"geometry":{"coordinates":[7.206896,50.645099],"type":"Point"},"properties":{"osm_id":"4769079483","tag":{"amenity":"recycling","recycling":"glass"}},"type":"Feature"},
	{"geometry":{"coordinates":[7.199734,50.658426],"type":"Point"},"properties":{"osm_id":"4836763713","tag":{"amenity":"waste_basket"}},"type":"Feature"},
	{"geometry":{"coordinates":[7.193012,50.66542],"type":"Point"},"properties":{"osm_id":"4836764531","tag":{"amenity":"waste_basket"}},"type":"Feature"},
	{"geometry":{"coordinates":[7.202289,50.670906],"type":"Point"},"properties":{"osm_id":"4840058468","tag":{"amenity":"waste_basket"}},"type":"Feature"},
	{"geometry":{"coordinates":[7.121696,50.656219],"type":"Point"},"properties":{"osm_id":"5320429985","tag":{"amenity":"recycling","recycling:clothes":"yes","recycling:shoes":"yes","recycling_type":"container"}},"type":"Feature"},
	{"geometry":{"coordinates":[7.121735,50.656215],"type":"Point"},"properties":{"osm_id":"5320429986","tag":{"amenity":"recycling","recycling:clothes":"yes","recycling:shoes":"yes","recycling_type":"container"}},"type":"Feature"},
	{"geometry":{"coordinates":[7.196219,50.675431],"type":"Point"},"properties":{"osm_id":"5404972622","tag":{"amenity":"recycling","recycling:glass":"yes","recycling_type":"container"}},"type":"Feature"},
	{"geometry":{"coordinates":[7.154649,50.670982],"type":"Point"},"properties":{"osm_id":"6007411568","tag":{"amenity":"recycling","recycling:clothes":"yes","recycling:glass":"yes","recycling_type":"container"}},"type":"Feature"},
	{"geometry":{"coordinates":[7.156702,50.632998],"type":"Point"},"properties":{"osm_id":"6484035723","tag":{"amenity":"waste_basket","waste":"trash"}},"type":"Feature"},
	{"geometry":{"coordinates":[7.177477,50.66831],"type":"Point"},"properties":{"osm_id":"7419895561","tag":{"amenity":"recycling","recycling:clothes":"yes","recycling:shoes":"yes","recycling_type":"container"}},"type":"Feature"},
	{"geometry":{"coordinates":[7.138637,50.637002],"type":"Point"},"properties":{"osm_id":"7467212461","tag":{"amenity":"recycling","recycling:glass_bottles":"yes","recycling_type":"container"}},"type":"Feature"},
	{"geometry":{"coordinates":[7.128002,50.679033],"type":"Point"},"properties":{"osm_id":"7743596489","tag":{"amenity":"waste_basket"}},"type":"Feature"},
	{"geometry":{"coordinates":[7.190417,50.67688],"type":"Point"},"properties":{"osm_id":"7779359741","tag":{"amenity":"waste_basket"}},"type":"Feature"}
]
}
