{
"type": "FeatureCollection",
"features": [
	{"geometry":{"coordinates":[7.185864,50.54587],"type":"Point"},"properties":{"osm_id":"336320350","tag":{"amenity":"recycling","recycling:glass":"yes"}},"type":"Feature"},
	{"geometry":{"coordinates":[7.146097,50.54156],"type":"Point"},"properties":{"osm_id":"343094595","tag":{"amenity":"recycling","location":"overground","recycling:glass_bottles":"yes","recycling_type":"container"}},"type":"Feature"},
	{"geometry":{"coordinates":[7.152698,50.544627],"type":"Point"},"properties":{"osm_id":"343097739","tag":{"amenity":"recycling","recycling:cans":"no","recycling:clothes":"no","recycling:glass_bottles":"yes","recycling:paper":"no","recycling:plastic":"no","recycling_type":"container"}},"type":"Feature"},
	{"geometry":{"coordinates":[7.188617,50.549928],"type":"Point"},"properties":{"osm_id":"346964019","tag":{"amenity":"recycling","recycling:glass":"yes"}},"type":"Feature"},
	{"geometry":{"coordinates":[7.163867,50.552133],"type":"Point"},"properties":{"osm_id":"348412354","tag":{"amenity":"recycling","recycling_type":"container"}},"type":"Feature"},
	{"geometry":{"coordinates":[7.164825,50.549383],"type":"Point"},"properties":{"osm_id":"985709797","tag":{"amenity":"recycling"}},"type":"Feature"},
	{"geometry":{"coordinates":[7.126461,50.541297],"type":"Point"},"properties":{"osm_id":"1106683988","tag":{"amenity":"recycling","opening_hours":"24/7","operator":"DRK-Kreisverband Bad Neuenahr-Ahrweiler e.V.","recycling:clothes":"yes","recycling:shoes":"yes","recycling_type":"container"}},"type":"Feature"},
	{"geometry":{"coordinates":[7.158545,50.567085],"type":"Point"},"properties":{"osm_id":"1636812871","tag":{"amenity":"recycling","recycling:glass_bottles":"yes","recycling_type":"container"}},"type":"Feature"},
	{"geometry":{"coordinates":[7.164755,50.558682],"type":"Point"},"properties":{"osm_id":"1710207178","tag":{"amenity":"recycling","recycling:glass":"yes"}},"type":"Feature"},
	{"geometry":{"coordinates":[7.195593,50.543847],"type":"Point"},"properties":{"osm_id":"1723186547","tag":{"amenity":"recycling","recycling:glass":"yes","recycling_type":"container"}},"type":"Feature"},
	{"geometry":{"coordinates":[7.202375,50.530239],"type":"Point"},"properties":{"osm_id":"2141844022","tag":{"amenity":"waste_basket"}},"type":"Feature"},
	{"geometry":{"coordinates":[7.20395,50.53044],"type":"Point"},"properties":{"osm_id":"2141844051","tag":{"amenity":"waste_basket"}},"type":"Feature"},
	{"geometry":{"coordinates":[7.202068,50.530741],"type":"Point"},"properties":{"osm_id":"2141844070","tag":{"amenity":"waste_basket"}},"type":"Feature"},
	{"geometry":{"coordinates":[7.198369,50.528912],"type":"Point"},"properties":{"osm_id":"2143118658","tag":{"amenity":"waste_basket"}},"type":"Feature"},
	{"geometry":{"coordinates":[7.195898,50.529022],"type":"Point"},"properties":{"osm_id":"2143118666","tag":{"amenity":"waste_basket"}},"type":"Feature"},
	{"geometry":{"coordinates":[7.194319,50.529985],"type":"Point"},"properties":{"osm_id":"2143118674","tag":{"amenity":"waste_basket"}},"type":"Feature"},
	{"geometry":{"coordinates":[7.196708,50.530151],"type":"Point"},"properties":{"osm_id":"2143118680","tag":{"amenity":"waste_basket"}},"type":"Feature"},
	{"geometry":{"coordinates":[7.193821,50.530224],"type":"Point"},"properties":{"osm_id":"2143118683","tag":{"amenity":"waste_basket"}},"type":"Feature"},
	{"geometry":{"coordinates":[7.201214,50.531389],"type":"Point"},"properties":{"osm_id":"2143118690","tag":{"amenity":"recycling","recycling:glass":"yes"}},"type":"Feature"},
	{"geometry":{"coordinates":[7.131009,50.544479],"type":"Point"},"properties":{"osm_id":"3859199506","tag":{"amenity":"recycling","recycling:glass":"yes","recycling_type":"container"}},"type":"Feature"},
	{"geometry":{"coordinates":[7.155254,50.544368],"type":"Point"},"properties":{"osm_id":"4105599598","tag":{"amenity":"waste_basket"}},"type":"Feature"},
	{"geometry":{"coordinates":[7.155624,50.544432],"type":"Point"},"properties":{"osm_id":"4105599599","tag":{"amenity":"waste_basket"}},"type":"Feature"},
	{"geometry":{"coordinates":[7.155334,50.544289],"type":"Point"},"properties":{"osm_id":"4105599600","tag":{"amenity":"waste_basket"}},"type":"Feature"},
	{"geometry":{"coordinates":[7.155137,50.544512],"type":"Point"},"properties":{"osm_id":"4105599601","tag":{"amenity":"waste_basket"}},"type":"Feature"},
	{"geometry":{"coordinates":[7.155126,50.544454],"type":"Point"},"properties":{"osm_id":"4105599602","tag":{"amenity":"waste_basket"}},"type":"Feature"},
	{"geometry":{"coordinates":[7.155448,50.544574],"type":"Point"},"properties":{"osm_id":"4105599603","tag":{"amenity":"waste_basket"}},"type":"Feature"},
	{"geometry":{"coordinates":[7.155857,50.544172],"type":"Point"},"properties":{"osm_id":"4105599604","tag":{"amenity":"waste_basket"}},"type":"Feature"},
	{"geometry":{"coordinates":[7.15617,50.544022],"type":"Point"},"properties":{"osm_id":"4105599605","tag":{"amenity":"waste_basket"}},"type":"Feature"},
	{"geometry":{"coordinates":[7.156257,50.544256],"type":"Point"},"properties":{"osm_id":"4105599606","tag":{"amenity":"waste_basket"}},"type":"Feature"},
	{"geometry":{"coordinates":[7.119567,50.546506],"type":"Point"},"properties":{"osm_id":"4105645694","tag":{"addr:city":"Bad Neuenahr-Ahrweiler","addr:postcode":"53474","addr:street":"Ahrweilerstra\u00c3\u009fe","amenity":"recycling","recycling:cans":"no","recycling:clothes":"yes","recycling:glass":"no","recycling:glass_bottles":"no","recycling:paper":"no","recycling:plastic":"no","recycling_type":"container"}},"type":"Feature"},
	{"geometry":{"coordinates":[7.154648,50.540443],"type":"Point"},"properties":{"osm_id":"4105649114","tag":{"addr:city":"Bad Neuenahr-Ahrweiler","addr:postcode":"53474","addr:street":"Am Johannisberg","amenity":"recycling","recycling:cans":"no","recycling:clothes":"no","recycling:glass_bottles":"yes","recycling:paper":"no","recycling:plastic":"no","recycling_type":"container"}},"type":"Feature"},
	{"geometry":{"coordinates":[7.151732,50.541699],"type":"Point"},"properties":{"osm_id":"4107716253","tag":{"amenity":"waste_basket"}},"type":"Feature"},
	{"geometry":{"coordinates":[7.154586,50.540333],"type":"Point"},"properties":{"osm_id":"4868807185","tag":{"amenity":"waste_basket"}},"type":"Feature"}
]
}
