{
"type": "FeatureCollection",
"features": [
	{"geometry":{"coordinates":[7.144312,50.233759],"type":"Point"},"properties":{"osm_id":"5218620638","tag":{"amenity":"waste_basket"}},"type":"Feature"},
	{"geometry":{"coordinates":[7.144579,50.233859],"type":"Point"},"properties":{"osm_id":"5218620639","tag":{"amenity":"waste_basket"}},"type":"Feature"},
	{"geometry":{"coordinates":[7.141555,50.234692],"type":"Point"},"properties":{"osm_id":"5235309148","tag":{"amenity":"waste_basket"}},"type":"Feature"},
	{"geometry":{"coordinates":[7.141416,50.233482],"type":"Point"},"properties":{"osm_id":"5235309150","tag":{"amenity":"waste_basket"}},"type":"Feature"},
	{"geometry":{"coordinates":[7.147895,50.240589],"type":"Point"},"properties":{"osm_id":"5262022932","tag":{"amenity":"waste_basket"}},"type":"Feature"},
	{"geometry":{"coordinates":[7.145428,50.234495],"type":"Point"},"properties":{"osm_id":"5274073470","tag":{"amenity":"recycling","recycling:clothes":"yes","recycling:shoes":"yes","recycling_type":"container"}},"type":"Feature"},
	{"geometry":{"coordinates":[7.156857,50.237003],"type":"Point"},"properties":{"osm_id":"5306500868","tag":{"amenity":"waste_basket"}},"type":"Feature"},
	{"geometry":{"coordinates":[7.155132,50.236961],"type":"Point"},"properties":{"barrier":"gate","osm_id":"5357704456","tag":{"access":"private"}},"type":"Feature"},
	{"geometry":{"coordinates":[7.130253,50.233193],"type":"Point"},"properties":{"osm_id":"5373136915","tag":{"amenity":"recycling","recycling:clothes":"yes","recycling:shoes":"yes","recycling_type":"container","wheelchair":"no"}},"type":"Feature"},
	{"geometry":{"coordinates":[7.134381,50.237608],"type":"Point"},"properties":{"osm_id":"5486482647","tag":{"amenity":"waste_basket","waste":"trash"}},"type":"Feature"},
	{"geometry":{"coordinates":[7.145425,50.23511],"type":"Point"},"properties":{"osm_id":"5578670792","tag":{"amenity":"waste_basket","waste":"trash"}},"type":"Feature"},
	{"geometry":{"coordinates":[7.140056,50.24423],"type":"Point"},"properties":{"osm_id":"5582369123","tag":{"amenity":"waste_basket","waste":"trash"}},"type":"Feature"},
	{"geometry":{"coordinates":[7.119371,50.235216],"type":"Point"},"properties":{"osm_id":"5582976353","tag":{"amenity":"waste_basket","waste":"trash"}},"type":"Feature"},
	{"geometry":{"coordinates":[7.177698,50.239333],"type":"Point"},"properties":{"osm_id":"5588906570","tag":{"amenity":"recycling","recycling:glass":"yes","recycling_type":"container"}},"type":"Feature"},
	{"geometry":{"coordinates":[7.137261,50.233523],"type":"Point"},"properties":{"osm_id":"5598697736","tag":{"amenity":"waste_basket","waste":"trash"}},"type":"Feature"},
	{"geometry":{"coordinates":[7.137382,50.233206],"type":"Point"},"properties":{"osm_id":"5598697746","tag":{"amenity":"waste_basket","waste":"trash"}},"type":"Feature"},
	{"geometry":{"coordinates":[7.137211,50.233541],"type":"Point"},"properties":{"osm_id":"5598697762","tag":{"amenity":"waste_basket","waste":"trash"}},"type":"Feature"},
	{"geometry":{"coordinates":[7.137185,50.233251],"type":"Point"},"properties":{"osm_id":"5598697769","tag":{"amenity":"waste_basket","waste":"trash"}},"type":"Feature"},
	{"geometry":{"coordinates":[7.137052,50.233695],"type":"Point"},"properties":{"osm_id":"5598697772","tag":{"amenity":"waste_basket","waste":"trash"}},"type":"Feature"},
	{"geometry":{"coordinates":[7.123382,50.242432],"type":"Point"},"properties":{"osm_id":"5599933595","tag":{"amenity":"waste_basket","waste":"trash"}},"type":"Feature"},
	{"geometry":{"coordinates":[7.136296,50.234368],"type":"Point"},"properties":{"osm_id":"5643510765","tag":{"amenity":"waste_basket","waste":"trash"}},"type":"Feature"},
	{"geometry":{"coordinates":[7.167353,50.259051],"type":"Point"},"properties":{"osm_id":"5726456296","tag":{"amenity":"recycling","recycling:clothes":"yes","recycling:shoes":"yes","recycling_type":"container"}},"type":"Feature"},
	{"geometry":{"coordinates":[7.164884,50.258616],"type":"Point"},"properties":{"osm_id":"5726456322","tag":{"amenity":"recycling","recycling:clothes":"yes","recycling:glass":"yes","recycling:glass_bottles":"yes","recycling:shoes":"yes","recycling_type":"container","wheelchair":"yes"}},"type":"Feature"},
	{"geometry":{"coordinates":[7.134559,50.25247],"type":"Point"},"properties":{"osm_id":"5757153917","tag":{"amenity":"waste_basket","waste":"trash"}},"type":"Feature"},
	{"geometry":{"coordinates":[7.130742,50.255394],"type":"Point"},"properties":{"osm_id":"5760784348","tag":{"amenity":"recycling","recycling:clothes":"yes","recycling:glass":"yes","recycling:glass_bottles":"yes","recycling:shoes":"yes","recycling_type":"container"}},"type":"Feature"},
	{"geometry":{"coordinates":[7.130433,50.257709],"type":"Point"},"properties":{"osm_id":"5901681307","tag":{"amenity":"waste_basket","waste":"trash"}},"type":"Feature"},
	{"geometry":{"coordinates":[7.130728,50.255452],"type":"Point"},"properties":{"osm_id":"5901681331","tag":{"amenity":"waste_basket","waste":"trash"}},"type":"Feature"},
	{"geometry":{"coordinates":[7.131901,50.25721],"type":"Point"},"properties":{"osm_id":"5901681341","tag":{"amenity":"waste_basket","waste":"trash"}},"type":"Feature"},
	{"geometry":{"coordinates":[7.130997,50.25555],"type":"Point"},"properties":{"osm_id":"5901681366","tag":{"amenity":"waste_basket","waste":"trash"}},"type":"Feature"},
	{"geometry":{"coordinates":[7.140327,50.236368],"type":"Point"},"properties":{"osm_id":"6008067218","tag":{"amenity":"waste_basket","waste":"trash"}},"type":"Feature"},
	{"geometry":{"coordinates":[7.144843,50.23372],"type":"Point"},"properties":{"osm_id":"6030390675","tag":{"amenity":"waste_basket","waste":"trash"}},"type":"Feature"},
	{"geometry":{"coordinates":[7.144647,50.233825],"type":"Point"},"properties":{"osm_id":"6030390682","tag":{"amenity":"waste_basket","waste":"trash"}},"type":"Feature"},
	{"geometry":{"coordinates":[7.144983,50.233532],"type":"Point"},"properties":{"osm_id":"6030390684","tag":{"amenity":"waste_basket","waste":"trash"}},"type":"Feature"},
	{"geometry":{"coordinates":[7.144643,50.233299],"type":"Point"},"properties":{"osm_id":"6030391287","tag":{"amenity":"recycling","opening_hours":"24/7","recycling:clothes":"yes","recycling_type":"container","wheelchair":"yes"}},"type":"Feature"},
	{"geometry":{"coordinates":[7.200975,50.240494],"type":"Point"},"properties":{"osm_id":"6594391371","tag":{"amenity":"waste_basket","waste":"trash"}},"type":"Feature"},
	{"geometry":{"coordinates":[7.168774,50.25973],"type":"Point"},"properties":{"osm_id":"6603637121","tag":{"amenity":"waste_basket","waste":"trash"}},"type":"Feature"},
	{"geometry":{"coordinates":[7.199585,50.237776],"type":"Point"},"properties":{"osm_id":"6644019457","tag":{"amenity":"waste_basket","waste":"trash"}},"type":"Feature"}
]
}
