{
"type": "FeatureCollection",
"features": [
	{"geometry":{"coordinates":[7.186724,49.637126],"type":"Point"},"properties":{"osm_id":"266298073","tag":{"amenity":"recycling","recycling:glass_bottles":"yes","recycling_type":"container"}},"type":"Feature"},
	{"geometry":{"coordinates":[7.134044,49.62495],"type":"Point"},"properties":{"osm_id":"282473611","tag":{"amenity":"recycling","recycling:glass_bottles":"yes"}},"type":"Feature"},
	{"geometry":{"coordinates":[7.193445,49.620119],"type":"Point"},"properties":{"osm_id":"314736149","tag":{"amenity":"recycling","recycling:clothes":"yes","recycling:glass_bottles":"yes","recycling:green_waste":"yes","recycling:shoes":"yes"}},"type":"Feature"},
	{"geometry":{"coordinates":[7.190709,49.620113],"type":"Point"},"properties":{"osm_id":"314736151","tag":{"amenity":"recycling","recycling:green_waste":"yes"}},"type":"Feature"},
	{"geometry":{"coordinates":[7.156945,49.653271],"type":"Point"},"properties":{"osm_id":"405225471","tag":{"amenity":"recycling","mapillary":"7tGCDY_Qlr_i41uCj-0jEw","recycling:glass_bottles":"yes","recycling_type":"container","survey:date":"2016-09-03"}},"type":"Feature"},
	{"geometry":{"coordinates":[7.15721,49.653348],"type":"Point"},"properties":{"osm_id":"405225474","tag":{"amenity":"recycling","mapillary":"gFIf-KQCSDrgDSqIDUeTYQ","recycling:clothes":"yes","recycling_type":"container","survey:date":"2016-09-03"}},"type":"Feature"},
	{"geometry":{"coordinates":[7.158242,49.648694],"type":"Point"},"properties":{"osm_id":"410097927","tag":{"amenity":"recycling","recycling:glass":"yes"}},"type":"Feature"},
	{"geometry":{"coordinates":[7.148366,49.647572],"type":"Point"},"properties":{"osm_id":"2516419027","tag":{"amenity":"waste_basket"}},"type":"Feature"},
	{"geometry":{"coordinates":[7.150598,49.647624],"type":"Point"},"properties":{"osm_id":"2516419039","tag":{"amenity":"waste_basket"}},"type":"Feature"},
	{"geometry":{"coordinates":[7.161896,49.648318],"type":"Point"},"properties":{"osm_id":"2516419274","tag":{"amenity":"waste_basket"}},"type":"Feature"},
	{"geometry":{"coordinates":[7.164914,49.647129],"type":"Point"},"properties":{"osm_id":"2517295651","tag":{"amenity":"waste_basket"}},"type":"Feature"},
	{"geometry":{"coordinates":[7.165064,49.647188],"type":"Point"},"properties":{"osm_id":"2517295695","tag":{"amenity":"waste_basket"}},"type":"Feature"},
	{"geometry":{"coordinates":[7.164889,49.647272],"type":"Point"},"properties":{"osm_id":"2517295749","tag":{"amenity":"waste_basket"}},"type":"Feature"},
	{"geometry":{"coordinates":[7.163357,49.629636],"type":"Point"},"properties":{"osm_id":"2517849912","tag":{"amenity":"waste_basket"}},"type":"Feature"},
	{"geometry":{"coordinates":[7.162459,49.633682],"type":"Point"},"properties":{"osm_id":"2517849930","tag":{"amenity":"waste_basket"}},"type":"Feature"},
	{"geometry":{"coordinates":[7.16204,49.635986],"type":"Point"},"properties":{"osm_id":"2517849943","tag":{"amenity":"waste_basket"}},"type":"Feature"},
	{"geometry":{"coordinates":[7.163152,49.64063],"type":"Point"},"properties":{"osm_id":"2517850008","tag":{"amenity":"waste_basket"}},"type":"Feature"},
	{"geometry":{"coordinates":[7.1659,49.643132],"type":"Point"},"properties":{"osm_id":"2517850245","tag":{"amenity":"recycling","recycling:clothes":"yes","recycling:glass":"yes"}},"type":"Feature"},
	{"geometry":{"coordinates":[7.168802,49.644827],"type":"Point"},"properties":{"osm_id":"2518646350","tag":{"amenity":"recycling","location":"overground","recycling:clothes":"yes","recycling_type":"container"}},"type":"Feature"},
	{"geometry":{"coordinates":[7.178826,49.65294],"type":"Point"},"properties":{"osm_id":"2799593206","tag":{"amenity":"waste_basket"}},"type":"Feature"},
	{"geometry":{"coordinates":[7.176196,49.662033],"type":"Point"},"properties":{"osm_id":"2799593593","tag":{"amenity":"waste_basket"}},"type":"Feature"},
	{"geometry":{"coordinates":[7.17757,49.663571],"type":"Point"},"properties":{"osm_id":"2799593833","tag":{"amenity":"waste_basket"}},"type":"Feature"},
	{"geometry":{"coordinates":[7.168867,49.645149],"type":"Point"},"properties":{"osm_id":"2806359673","tag":{"amenity":"waste_basket"}},"type":"Feature"},
	{"geometry":{"coordinates":[7.168491,49.645453],"type":"Point"},"properties":{"osm_id":"2806359674","tag":{"amenity":"waste_basket"}},"type":"Feature"},
	{"geometry":{"coordinates":[7.168537,49.645478],"type":"Point"},"properties":{"osm_id":"2806359676","tag":{"amenity":"waste_basket"}},"type":"Feature"},
	{"geometry":{"coordinates":[7.168491,49.645585],"type":"Point"},"properties":{"osm_id":"2806359680","tag":{"amenity":"waste_basket"}},"type":"Feature"},
	{"geometry":{"coordinates":[7.167987,49.645623],"type":"Point"},"properties":{"osm_id":"2806359683","tag":{"amenity":"waste_basket"}},"type":"Feature"},
	{"geometry":{"coordinates":[7.168327,49.64568],"type":"Point"},"properties":{"osm_id":"2806359686","tag":{"amenity":"waste_basket"}},"type":"Feature"},
	{"geometry":{"coordinates":[7.168158,49.64584],"type":"Point"},"properties":{"osm_id":"2806359687","tag":{"amenity":"waste_basket"}},"type":"Feature"},
	{"geometry":{"coordinates":[7.149878,49.650382],"type":"Point"},"properties":{"osm_id":"2806364549","tag":{"amenity":"waste_basket"}},"type":"Feature"},
	{"geometry":{"coordinates":[7.150804,49.650532],"type":"Point"},"properties":{"osm_id":"2806364560","tag":{"amenity":"waste_basket"}},"type":"Feature"},
	{"geometry":{"coordinates":[7.150623,49.65071],"type":"Point"},"properties":{"osm_id":"2806364574","tag":{"amenity":"waste_basket"}},"type":"Feature"},
	{"geometry":{"coordinates":[7.171631,49.651221],"type":"Point"},"properties":{"osm_id":"2806364592","tag":{"amenity":"waste_basket"}},"type":"Feature"},
	{"geometry":{"coordinates":[7.171269,49.651411],"type":"Point"},"properties":{"osm_id":"2806364701","tag":{"amenity":"waste_basket"}},"type":"Feature"},
	{"geometry":{"coordinates":[7.171916,49.651444],"type":"Point"},"properties":{"osm_id":"2806364703","tag":{"amenity":"waste_basket"}},"type":"Feature"},
	{"geometry":{"coordinates":[7.171254,49.651567],"type":"Point"},"properties":{"osm_id":"2806364716","tag":{"amenity":"waste_basket"}},"type":"Feature"},
	{"geometry":{"coordinates":[7.171821,49.651607],"type":"Point"},"properties":{"osm_id":"2806364722","tag":{"amenity":"waste_basket"}},"type":"Feature"},
	{"geometry":{"coordinates":[7.171316,49.65165],"type":"Point"},"properties":{"osm_id":"2806364725","tag":{"amenity":"waste_basket"}},"type":"Feature"},
	{"geometry":{"coordinates":[7.1611,49.621462],"type":"Point"},"properties":{"osm_id":"3249303861","tag":{"amenity":"waste_basket"}},"type":"Feature"},
	{"geometry":{"coordinates":[7.166639,49.658605],"type":"Point"},"properties":{"osm_id":"3933558878","tag":{"amenity":"waste_basket"}},"type":"Feature"},
	{"geometry":{"coordinates":[7.173579,49.65951],"type":"Point"},"properties":{"osm_id":"3937570780","tag":{"amenity":"waste_basket"}},"type":"Feature"},
	{"geometry":{"coordinates":[7.183975,49.620637],"type":"Point"},"properties":{"osm_id":"4307281041","tag":{"amenity":"waste_basket"}},"type":"Feature"},
	{"geometry":{"coordinates":[7.157293,49.65252],"type":"Point"},"properties":{"osm_id":"6881303435","tag":{"amenity":"waste_basket"}},"type":"Feature"}
]
}
