{
"type": "FeatureCollection",
"features": [
	{"geometry":{"coordinates":[7.176306,49.610273],"type":"Point"},"properties":{"osm_id":"303609914","tag":{"amenity":"recycling","recycling:clothes":"yes","recycling:glass_bottles":"yes","recycling:shoes":"yes"}},"type":"Feature"},
	{"geometry":{"coordinates":[7.194707,49.606224],"type":"Point"},"properties":{"osm_id":"304691753","tag":{"amenity":"recycling","recycling:glass_bottles":"yes","recycling:green_waste":"yes"}},"type":"Feature"},
	{"geometry":{"coordinates":[7.166571,49.605704],"type":"Point"},"properties":{"osm_id":"314925701","tag":{"amenity":"recycling","recycling:clothes":"yes"}},"type":"Feature"},
	{"geometry":{"coordinates":[7.173559,49.562673],"type":"Point"},"properties":{"osm_id":"2327504247","tag":{"amenity":"recycling","mapillary":"1wnl-stqO4gLlFPd6XeJjA","recycling:clothes":"yes","recycling:glass":"yes","recycling_type":"container","survey:date":"2017-01-17"}},"type":"Feature"},
	{"geometry":{"coordinates":[7.169071,49.609867],"type":"Point"},"properties":{"osm_id":"2807082707","tag":{"amenity":"recycling","recycling:organic":"yes"}},"type":"Feature"},
	{"geometry":{"coordinates":[7.168706,49.607392],"type":"Point"},"properties":{"osm_id":"3891668351","tag":{"amenity":"waste_basket"}},"type":"Feature"},
	{"geometry":{"coordinates":[7.168852,49.607475],"type":"Point"},"properties":{"osm_id":"3891668353","tag":{"amenity":"waste_basket"}},"type":"Feature"},
	{"geometry":{"coordinates":[7.168853,49.607521],"type":"Point"},"properties":{"osm_id":"3891668354","tag":{"amenity":"waste_basket"}},"type":"Feature"},
	{"geometry":{"coordinates":[7.16696,49.607606],"type":"Point"},"properties":{"osm_id":"3891668356","tag":{"amenity":"waste_basket"}},"type":"Feature"},
	{"geometry":{"coordinates":[7.169312,49.606959],"type":"Point"},"properties":{"osm_id":"3891734585","tag":{"amenity":"waste_basket"}},"type":"Feature"},
	{"geometry":{"coordinates":[7.169315,49.607294],"type":"Point"},"properties":{"osm_id":"3891824800","tag":{"amenity":"waste_basket"}},"type":"Feature"},
	{"geometry":{"coordinates":[7.172131,49.608033],"type":"Point"},"properties":{"osm_id":"3891824801","tag":{"amenity":"waste_disposal"}},"type":"Feature"},
	{"geometry":{"coordinates":[7.172198,49.608087],"type":"Point"},"properties":{"osm_id":"3891824802","tag":{"amenity":"waste_disposal"}},"type":"Feature"},
	{"geometry":{"coordinates":[7.171922,49.608168],"type":"Point"},"properties":{"osm_id":"3891824803","tag":{"amenity":"recycling","recycling:glass":"yes","recycling:paper":"no","recycling_type":"container"}},"type":"Feature"},
	{"geometry":{"coordinates":[7.171935,49.608213],"type":"Point"},"properties":{"osm_id":"3891824804","tag":{"amenity":"recycling","recycling:clothes":"yes"}},"type":"Feature"},
	{"geometry":{"coordinates":[7.173625,49.568281],"type":"Point"},"properties":{"osm_id":"4013500022","tag":{"amenity":"recycling","recycling:clothes":"yes","recycling_type":"container"}},"type":"Feature"},
	{"geometry":{"coordinates":[7.144544,49.587804],"type":"Point"},"properties":{"osm_id":"4332726862","tag":{"amenity":"recycling","recycling_type":"container"}},"type":"Feature"},
	{"geometry":{"coordinates":[7.179684,49.565303],"type":"Point"},"properties":{"osm_id":"4715730211","tag":{"amenity":"recycling","recycling:paper":"yes","recycling_type":"container"}},"type":"Feature"},
	{"geometry":{"coordinates":[7.179661,49.565356],"type":"Point"},"properties":{"osm_id":"4715730212","tag":{"amenity":"recycling","recycling:glass":"yes","recycling_type":"container"}},"type":"Feature"},
	{"geometry":{"coordinates":[7.179726,49.56526],"type":"Point"},"properties":{"osm_id":"4715730213","tag":{"amenity":"recycling","recycling:clothes":"yes","recycling_type":"container"}},"type":"Feature"},
	{"geometry":{"coordinates":[7.155338,49.55473],"type":"Point"},"properties":{"osm_id":"4974244571","tag":{"amenity":"recycling","recycling:clothes":"yes","recycling:glass_bottles":"yes","recycling:paper":"yes","recycling_type":"container"}},"type":"Feature"},
	{"geometry":{"coordinates":[7.123646,49.555968],"type":"Point"},"properties":{"osm_id":"4975906694","tag":{"amenity":"recycling","recycling:clothes":"yes","recycling:glass_bottles":"yes","recycling:paper":"yes","recycling_type":"container"}},"type":"Feature"},
	{"geometry":{"coordinates":[7.144584,49.581525],"type":"Point"},"properties":{"osm_id":"5033164058","tag":{"amenity":"recycling","recycling_type":"container"}},"type":"Feature"},
	{"geometry":{"coordinates":[7.144556,49.589418],"type":"Point"},"properties":{"osm_id":"5034759897","tag":{"amenity":"waste_basket"}},"type":"Feature"}
]
}
