{
"type": "FeatureCollection",
"features": [
	{"geometry":{"coordinates":[7.15793,49.476718],"type":"Point"},"properties":{"osm_id":"385183591","tag":{"amenity":"recycling","mapillary":"lAAzJmihnHTwRG0nyecuqA","recycling:glass":"yes","recycling:paper":"yes","recycling_type":"container","survey:date":"2016-08-19"}},"type":"Feature"},
	{"geometry":{"coordinates":[7.138412,49.467509],"type":"Point"},"properties":{"osm_id":"435457431","tag":{"amenity":"recycling","mapillary":"y4Yb6KEr5W8nIOlqJxU6Fw","recycling_type":"container","survey:date":"2018-05-26"}},"type":"Feature"},
	{"geometry":{"coordinates":[7.175339,49.463259],"type":"Point"},"properties":{"osm_id":"664474296","tag":{"amenity":"waste_basket"}},"type":"Feature"},
	{"geometry":{"coordinates":[7.175221,49.462918],"type":"Point"},"properties":{"osm_id":"664474297","tag":{"amenity":"waste_basket"}},"type":"Feature"},
	{"geometry":{"coordinates":[7.175772,49.46272],"type":"Point"},"properties":{"osm_id":"664474303","tag":{"amenity":"waste_basket"}},"type":"Feature"},
	{"geometry":{"coordinates":[7.17605,49.463361],"type":"Point"},"properties":{"osm_id":"664474312","tag":{"amenity":"waste_basket"}},"type":"Feature"},
	{"geometry":{"coordinates":[7.175885,49.463248],"type":"Point"},"properties":{"osm_id":"664474313","tag":{"amenity":"waste_basket"}},"type":"Feature"},
	{"geometry":{"coordinates":[7.17524,49.462424],"type":"Point"},"properties":{"osm_id":"664474884","tag":{"amenity":"waste_basket"}},"type":"Feature"},
	{"geometry":{"coordinates":[7.175885,49.463248],"type":"Point"},"properties":{"osm_id":"664474903","tag":{"amenity":"waste_basket"}},"type":"Feature"},
	{"geometry":{"coordinates":[7.175771,49.463176],"type":"Point"},"properties":{"osm_id":"664479442","tag":{"amenity":"waste_basket"}},"type":"Feature"},
	{"geometry":{"coordinates":[7.15568,49.471023],"type":"Point"},"properties":{"osm_id":"845094577","tag":{"amenity":"recycling","mapillary":"FoqvnJBtuxrLDMUTt0VD8A","recycling_type":"container","survey:date":"2019-02-14"}},"type":"Feature"},
	{"geometry":{"coordinates":[7.167117,49.470326],"type":"Point"},"properties":{"osm_id":"855354537","tag":{"amenity":"recycling","mapillary":"BaIbD-TtbosgM4V4XsfMvA","recycling_type":"container","survey:date":"2017-01-22"}},"type":"Feature"},
	{"geometry":{"coordinates":[7.167326,49.462351],"type":"Point"},"properties":{"osm_id":"984791637","tag":{"amenity":"recycling"}},"type":"Feature"},
	{"geometry":{"coordinates":[7.149912,49.449061],"type":"Point"},"properties":{"osm_id":"1117294740","tag":{"amenity":"recycling","recycling:glass_bottles":"yes","recycling:paper":"yes","recycling:shoes":"yes","recycling_type":"container"}},"type":"Feature"},
	{"geometry":{"coordinates":[7.181387,49.48192],"type":"Point"},"properties":{"osm_id":"2070579147","tag":{"amenity":"recycling","recycling_type":"container"}},"type":"Feature"},
	{"geometry":{"coordinates":[7.175158,49.470583],"type":"Point"},"properties":{"osm_id":"2076965078","tag":{"amenity":"recycling","recycling:clothes":"yes"}},"type":"Feature"},
	{"geometry":{"coordinates":[7.157748,49.476876],"type":"Point"},"properties":{"osm_id":"2077449498","tag":{"amenity":"recycling"}},"type":"Feature"},
	{"geometry":{"coordinates":[7.176092,49.466604],"type":"Point"},"properties":{"osm_id":"2112725395","tag":{"amenity":"waste_basket"}},"type":"Feature"},
	{"geometry":{"coordinates":[7.173823,49.469922],"type":"Point"},"properties":{"osm_id":"2161466748","tag":{"amenity":"recycling","recycling:glass":"yes"}},"type":"Feature"},
	{"geometry":{"coordinates":[7.126307,49.440658],"type":"Point"},"properties":{"osm_id":"2247008983","tag":{"amenity":"waste_basket"}},"type":"Feature"},
	{"geometry":{"coordinates":[7.122512,49.441508],"type":"Point"},"properties":{"osm_id":"2248972945","tag":{"amenity":"waste_basket"}},"type":"Feature"},
	{"geometry":{"coordinates":[7.122409,49.439663],"type":"Point"},"properties":{"osm_id":"2249006247","tag":{"amenity":"waste_basket"}},"type":"Feature"},
	{"geometry":{"coordinates":[7.147528,49.46158],"type":"Point"},"properties":{"osm_id":"2249304098","tag":{"amenity":"recycling","recycling:glass_bottles":"yes","recycling:paper":"yes","recycling_type":"container"}},"type":"Feature"},
	{"geometry":{"coordinates":[7.121973,49.496017],"type":"Point"},"properties":{"osm_id":"2352649256","tag":{"amenity":"recycling"}},"type":"Feature"},
	{"geometry":{"coordinates":[7.120668,49.49601],"type":"Point"},"properties":{"osm_id":"2399214847","tag":{"amenity":"waste_basket"}},"type":"Feature"},
	{"geometry":{"coordinates":[7.150763,49.451762],"type":"Point"},"properties":{"osm_id":"2429334817","tag":{"amenity":"waste_basket"}},"type":"Feature"},
	{"geometry":{"coordinates":[7.188992,49.457224],"type":"Point"},"properties":{"osm_id":"2464138875","tag":{"amenity":"waste_basket"}},"type":"Feature"},
	{"geometry":{"coordinates":[7.192013,49.463799],"type":"Point"},"properties":{"osm_id":"2464219811","tag":{"amenity":"recycling","recycling:glass":"yes","recycling:paper":"yes"}},"type":"Feature"},
	{"geometry":{"coordinates":[7.191079,49.46431],"type":"Point"},"properties":{"osm_id":"2464219870","tag":{"amenity":"waste_basket"}},"type":"Feature"},
	{"geometry":{"coordinates":[7.189618,49.464134],"type":"Point"},"properties":{"osm_id":"2464560807","tag":{"amenity":"waste_basket"}},"type":"Feature"},
	{"geometry":{"coordinates":[7.187796,49.465798],"type":"Point"},"properties":{"osm_id":"2464623089","tag":{"amenity":"waste_basket"}},"type":"Feature"},
	{"geometry":{"coordinates":[7.151914,49.453644],"type":"Point"},"properties":{"osm_id":"2468908666","tag":{"amenity":"waste_basket"}},"type":"Feature"},
	{"geometry":{"coordinates":[7.139519,49.470149],"type":"Point"},"properties":{"osm_id":"2479876261","tag":{"amenity":"waste_basket"}},"type":"Feature"},
	{"geometry":{"coordinates":[7.179027,49.464764],"type":"Point"},"properties":{"osm_id":"2491089155","tag":{"amenity":"recycling","recycling:glass":"yes","recycling:paper":"yes","recycling:scrap_metal":"no"}},"type":"Feature"},
	{"geometry":{"coordinates":[7.168961,49.468143],"type":"Point"},"properties":{"osm_id":"5089595661","tag":{"amenity":"waste_basket"}},"type":"Feature"},
	{"geometry":{"coordinates":[7.169,49.467301],"type":"Point"},"properties":{"osm_id":"5089595662","tag":{"amenity":"waste_basket"}},"type":"Feature"},
	{"geometry":{"coordinates":[7.174759,49.459516],"type":"Point"},"properties":{"osm_id":"5312443975","tag":{"amenity":"recycling","recycling_type":"container"}},"type":"Feature"}
]
}
