{
"type": "FeatureCollection",
"features": [
	{"geometry":{"coordinates":[7.157642,49.433989],"type":"Point"},"properties":{"osm_id":"2036458091","tag":{"amenity":"recycling"}},"type":"Feature"},
	{"geometry":{"coordinates":[7.172886,49.394617],"type":"Point"},"properties":{"osm_id":"2090151122","tag":{"amenity":"recycling","mapillary":"XCW7NMbJ4Z4ech2ZaY330w","recycling_type":"container","survey:date":"2019-01-19"}},"type":"Feature"},
	{"geometry":{"coordinates":[7.172532,49.394647],"type":"Point"},"properties":{"osm_id":"2090153213","tag":{"amenity":"recycling","mapillary":"jXqIE46BZw0gghEFkgBIEQ","recycling:clothes":"yes","recycling_type":"container","survey:date":"2019-03-29"}},"type":"Feature"},
	{"geometry":{"coordinates":[7.162725,49.404343],"type":"Point"},"properties":{"osm_id":"2092657733","tag":{"amenity":"waste_basket"}},"type":"Feature"},
	{"geometry":{"coordinates":[7.170896,49.396264],"type":"Point"},"properties":{"osm_id":"2095376837","tag":{"amenity":"recycling","mapillary":"VqDN3IXqy2DM-b_Q3iClbQ","recycling:clothes":"yes","recycling_type":"container","survey:date":"2018-02-03"}},"type":"Feature"},
	{"geometry":{"coordinates":[7.173447,49.401865],"type":"Point"},"properties":{"osm_id":"2095424425","tag":{"amenity":"recycling"}},"type":"Feature"},
	{"geometry":{"coordinates":[7.154757,49.402881],"type":"Point"},"properties":{"osm_id":"2104730485","tag":{"amenity":"waste_basket"}},"type":"Feature"},
	{"geometry":{"coordinates":[7.156135,49.403938],"type":"Point"},"properties":{"osm_id":"2104744912","tag":{"amenity":"recycling","mapillary":"9IdRktvPtXbKxvfUdrD_fA","recycling_type":"container","survey:date":"2019-04-06"}},"type":"Feature"},
	{"geometry":{"coordinates":[7.153702,49.407126],"type":"Point"},"properties":{"osm_id":"2107154968","tag":{"amenity":"recycling","recycling:clothes":"yes"}},"type":"Feature"},
	{"geometry":{"coordinates":[7.160051,49.404613],"type":"Point"},"properties":{"osm_id":"2107240103","tag":{"amenity":"recycling","recycling:clothes":"yes"}},"type":"Feature"},
	{"geometry":{"coordinates":[7.15426,49.399822],"type":"Point"},"properties":{"osm_id":"2107892598","tag":{"amenity":"recycling","recycling:clothes":"yes"}},"type":"Feature"},
	{"geometry":{"coordinates":[7.166224,49.398416],"type":"Point"},"properties":{"osm_id":"2111246425","tag":{"amenity":"recycling"}},"type":"Feature"},
	{"geometry":{"coordinates":[7.160882,49.40088],"type":"Point"},"properties":{"osm_id":"2111293431","tag":{"amenity":"waste_basket"}},"type":"Feature"},
	{"geometry":{"coordinates":[7.149995,49.403548],"type":"Point"},"properties":{"osm_id":"2111444745","tag":{"amenity":"recycling"}},"type":"Feature"},
	{"geometry":{"coordinates":[7.153822,49.405621],"type":"Point"},"properties":{"osm_id":"2111444769","tag":{"amenity":"recycling"}},"type":"Feature"},
	{"geometry":{"coordinates":[7.162269,49.408286],"type":"Point"},"properties":{"osm_id":"2111487142","tag":{"amenity":"recycling","mapillary":"JMlk52Wvt5p-Fc7JUeqVxQ","recycling_type":"container","survey:date":"2017-06-03"}},"type":"Feature"},
	{"geometry":{"coordinates":[7.159638,49.400929],"type":"Point"},"properties":{"osm_id":"2168813138","tag":{"amenity":"waste_basket"}},"type":"Feature"},
	{"geometry":{"coordinates":[7.123965,49.439248],"type":"Point"},"properties":{"osm_id":"2249075606","tag":{"amenity":"waste_basket"}},"type":"Feature"},
	{"geometry":{"coordinates":[7.123482,49.435854],"type":"Point"},"properties":{"osm_id":"2249178466","tag":{"amenity":"recycling"}},"type":"Feature"},
	{"geometry":{"coordinates":[7.119242,49.41986],"type":"Point"},"properties":{"osm_id":"2265751938","tag":{"amenity":"recycling","mapillary":"Lva2J5fjIoFjfjHCPnXiKQ","recycling:glass":"yes","recycling_type":"container","survey:date":"2017-04-18"}},"type":"Feature"},
	{"geometry":{"coordinates":[7.145376,49.40807],"type":"Point"},"properties":{"osm_id":"2268530709","tag":{"amenity":"recycling"}},"type":"Feature"},
	{"geometry":{"coordinates":[7.191652,49.414509],"type":"Point"},"properties":{"osm_id":"2400785241","tag":{"amenity":"waste_basket"}},"type":"Feature"},
	{"geometry":{"coordinates":[7.159142,49.431334],"type":"Point"},"properties":{"osm_id":"2449101197","tag":{"amenity":"waste_basket"}},"type":"Feature"},
	{"geometry":{"coordinates":[7.189275,49.401725],"type":"Point"},"properties":{"osm_id":"2450895698","tag":{"amenity":"waste_basket"}},"type":"Feature"},
	{"geometry":{"coordinates":[7.192914,49.400863],"type":"Point"},"properties":{"osm_id":"2467744054","tag":{"amenity":"waste_basket"}},"type":"Feature"},
	{"geometry":{"coordinates":[7.151366,49.390979],"type":"Point"},"properties":{"osm_id":"3427284500","tag":{"amenity":"waste_basket"}},"type":"Feature"},
	{"geometry":{"coordinates":[7.206428,49.382984],"type":"Point"},"properties":{"osm_id":"4179396320","tag":{"amenity":"recycling","recycling:glass":"yes","recycling:paper":"yes","recycling_type":"container"}},"type":"Feature"}
]
}
