{
"type": "FeatureCollection",
"features": [
	{"geometry":{"coordinates":[7.170061,49.347855],"type":"Point"},"properties":{"osm_id":"587676915","tag":{"amenity":"recycling","recycling:glass":"yes"}},"type":"Feature"},
	{"geometry":{"coordinates":[7.130834,49.352249],"type":"Point"},"properties":{"osm_id":"654535245","tag":{"amenity":"recycling","location":"overground","recycling:glass":"yes","recycling:paper":"yes","recycling_type":"container"}},"type":"Feature"},
	{"geometry":{"coordinates":[7.166955,49.375506],"type":"Point"},"properties":{"osm_id":"720614974","tag":{"amenity":"recycling"}},"type":"Feature"},
	{"geometry":{"coordinates":[7.205883,49.341571],"type":"Point"},"properties":{"osm_id":"1080214886","tag":{"amenity":"recycling","recycling:glass":"yes","recycling:paper":"yes"}},"type":"Feature"},
	{"geometry":{"coordinates":[7.18719,49.33415],"type":"Point"},"properties":{"name":"Scheib, Oberstadt","osm_id":"1588973646","tag":{"amenity":"recycling","recycling:glass":"yes","recycling:paper":"yes"}},"type":"Feature"},
	{"geometry":{"coordinates":[7.183051,49.338005],"type":"Point"},"properties":{"osm_id":"2063753928","tag":{"amenity":"waste_basket"}},"type":"Feature"},
	{"geometry":{"coordinates":[7.185003,49.341473],"type":"Point"},"properties":{"osm_id":"2063864277","tag":{"amenity":"recycling"}},"type":"Feature"},
	{"geometry":{"coordinates":[7.201705,49.34978],"type":"Point"},"properties":{"osm_id":"2100150142","tag":{"amenity":"recycling"}},"type":"Feature"},
	{"geometry":{"coordinates":[7.182888,49.34357],"type":"Point"},"properties":{"osm_id":"2116859863","tag":{"amenity":"waste_basket"}},"type":"Feature"},
	{"geometry":{"coordinates":[7.179052,49.378185],"type":"Point"},"properties":{"osm_id":"2132416201","tag":{"amenity":"recycling","mapillary":"wmTabDnkQVtke5sWkz_7YQ","recycling_type":"container","survey:date":"2019-03-29"}},"type":"Feature"},
	{"geometry":{"coordinates":[7.179774,49.346259],"type":"Point"},"properties":{"osm_id":"2132921642","tag":{"amenity":"waste_basket"}},"type":"Feature"},
	{"geometry":{"coordinates":[7.178012,49.347295],"type":"Point"},"properties":{"osm_id":"2132970681","tag":{"amenity":"recycling"}},"type":"Feature"},
	{"geometry":{"coordinates":[7.17194,49.348001],"type":"Point"},"properties":{"osm_id":"2133012152","tag":{"amenity":"waste_basket"}},"type":"Feature"},
	{"geometry":{"coordinates":[7.189142,49.338776],"type":"Point"},"properties":{"osm_id":"2171841198","tag":{"amenity":"recycling","recycling:clothes":"yes"}},"type":"Feature"},
	{"geometry":{"coordinates":[7.189568,49.339897],"type":"Point"},"properties":{"osm_id":"2171841433","tag":{"amenity":"waste_basket"}},"type":"Feature"},
	{"geometry":{"coordinates":[7.191404,49.34463],"type":"Point"},"properties":{"osm_id":"2171985564","tag":{"amenity":"waste_basket"}},"type":"Feature"},
	{"geometry":{"coordinates":[7.154371,49.369657],"type":"Point"},"properties":{"osm_id":"2185765970","tag":{"amenity":"recycling","recycling:clothes":"yes","recycling:glass":"yes","recycling:paper":"yes"}},"type":"Feature"},
	{"geometry":{"coordinates":[7.178597,49.378941],"type":"Point"},"properties":{"osm_id":"2188931711","tag":{"amenity":"waste_basket"}},"type":"Feature"},
	{"geometry":{"coordinates":[7.186211,49.376826],"type":"Point"},"properties":{"osm_id":"2192540571","tag":{"amenity":"recycling"}},"type":"Feature"},
	{"geometry":{"coordinates":[7.184045,49.37325],"type":"Point"},"properties":{"osm_id":"2211881614","tag":{"amenity":"waste_basket"}},"type":"Feature"},
	{"geometry":{"coordinates":[7.182198,49.372865],"type":"Point"},"properties":{"osm_id":"2211955405","tag":{"amenity":"waste_basket"}},"type":"Feature"},
	{"geometry":{"coordinates":[7.173001,49.377309],"type":"Point"},"properties":{"osm_id":"2213431610","tag":{"amenity":"waste_basket"}},"type":"Feature"},
	{"geometry":{"coordinates":[7.17005,49.37494],"type":"Point"},"properties":{"osm_id":"2213492845","tag":{"amenity":"waste_basket"}},"type":"Feature"},
	{"geometry":{"coordinates":[7.168376,49.372801],"type":"Point"},"properties":{"osm_id":"2216642041","tag":{"amenity":"recycling","mapillary":"SmaHdJVmGr9qfYgyGcjfnw","recycling_type":"container","survey:date":"2019-02-08"}},"type":"Feature"},
	{"geometry":{"coordinates":[7.172738,49.369482],"type":"Point"},"properties":{"osm_id":"2216782219","tag":{"amenity":"recycling"}},"type":"Feature"},
	{"geometry":{"coordinates":[7.166766,49.367472],"type":"Point"},"properties":{"osm_id":"2234014592","tag":{"amenity":"recycling","recycling_type":"container"}},"type":"Feature"},
	{"geometry":{"coordinates":[7.189563,49.370664],"type":"Point"},"properties":{"osm_id":"2234363608","tag":{"amenity":"waste_basket"}},"type":"Feature"},
	{"geometry":{"coordinates":[7.185695,49.371981],"type":"Point"},"properties":{"osm_id":"2234559098","tag":{"amenity":"waste_basket"}},"type":"Feature"},
	{"geometry":{"coordinates":[7.185268,49.372621],"type":"Point"},"properties":{"osm_id":"2234559111","tag":{"amenity":"waste_basket"}},"type":"Feature"},
	{"geometry":{"coordinates":[7.182533,49.371318],"type":"Point"},"properties":{"osm_id":"2234647591","tag":{"amenity":"recycling","recycling:clothes":"yes"}},"type":"Feature"},
	{"geometry":{"coordinates":[7.18554,49.372693],"type":"Point"},"properties":{"osm_id":"2234869766","tag":{"amenity":"waste_basket"}},"type":"Feature"},
	{"geometry":{"coordinates":[7.18547,49.364627],"type":"Point"},"properties":{"osm_id":"2271847180","tag":{"amenity":"recycling"}},"type":"Feature"},
	{"geometry":{"coordinates":[7.186614,49.344403],"type":"Point"},"properties":{"osm_id":"2278697021","tag":{"amenity":"recycling","recycling:glass":"yes","recycling:paper":"yes"}},"type":"Feature"},
	{"geometry":{"coordinates":[7.174399,49.344879],"type":"Point"},"properties":{"osm_id":"2281362469","tag":{"amenity":"waste_basket"}},"type":"Feature"},
	{"geometry":{"coordinates":[7.174106,49.346067],"type":"Point"},"properties":{"osm_id":"2281362486","tag":{"amenity":"waste_basket"}},"type":"Feature"},
	{"geometry":{"coordinates":[7.186121,49.349759],"type":"Point"},"properties":{"osm_id":"2290571062","tag":{"amenity":"recycling","recycling:clothes":"yes"}},"type":"Feature"},
	{"geometry":{"coordinates":[7.18347,49.350325],"type":"Point"},"properties":{"osm_id":"2290571099","tag":{"amenity":"waste_basket"}},"type":"Feature"},
	{"geometry":{"coordinates":[7.183134,49.351003],"type":"Point"},"properties":{"osm_id":"2290571134","tag":{"amenity":"waste_basket"}},"type":"Feature"},
	{"geometry":{"coordinates":[7.183369,49.351063],"type":"Point"},"properties":{"osm_id":"2290571143","tag":{"amenity":"waste_basket"}},"type":"Feature"},
	{"geometry":{"coordinates":[7.187428,49.347463],"type":"Point"},"properties":{"osm_id":"2290574489","tag":{"amenity":"waste_basket"}},"type":"Feature"},
	{"geometry":{"coordinates":[7.189412,49.33235],"type":"Point"},"properties":{"osm_id":"2292208667","tag":{"amenity":"waste_basket"}},"type":"Feature"},
	{"geometry":{"coordinates":[7.186122,49.336787],"type":"Point"},"properties":{"osm_id":"2292224304","tag":{"amenity":"waste_basket"}},"type":"Feature"},
	{"geometry":{"coordinates":[7.183175,49.33787],"type":"Point"},"properties":{"osm_id":"2292245528","tag":{"amenity":"waste_basket"}},"type":"Feature"},
	{"geometry":{"coordinates":[7.173872,49.345981],"type":"Point"},"properties":{"osm_id":"2292300788","tag":{"amenity":"waste_basket"}},"type":"Feature"},
	{"geometry":{"coordinates":[7.177416,49.350082],"type":"Point"},"properties":{"osm_id":"2292328393","tag":{"amenity":"waste_basket"}},"type":"Feature"},
	{"geometry":{"coordinates":[7.178168,49.350321],"type":"Point"},"properties":{"osm_id":"2292328398","tag":{"amenity":"waste_basket"}},"type":"Feature"},
	{"geometry":{"coordinates":[7.179793,49.35062],"type":"Point"},"properties":{"osm_id":"2292772506","tag":{"amenity":"recycling"}},"type":"Feature"},
	{"geometry":{"coordinates":[7.180268,49.351289],"type":"Point"},"properties":{"osm_id":"2292772566","tag":{"amenity":"waste_basket"}},"type":"Feature"},
	{"geometry":{"coordinates":[7.180422,49.351329],"type":"Point"},"properties":{"osm_id":"2292772575","tag":{"amenity":"waste_basket"}},"type":"Feature"},
	{"geometry":{"coordinates":[7.173497,49.34996],"type":"Point"},"properties":{"osm_id":"2292878299","tag":{"amenity":"waste_basket"}},"type":"Feature"},
	{"geometry":{"coordinates":[7.177789,49.352383],"type":"Point"},"properties":{"osm_id":"2292878317","tag":{"amenity":"waste_basket"}},"type":"Feature"},
	{"geometry":{"coordinates":[7.184492,49.355204],"type":"Point"},"properties":{"osm_id":"2411347578","tag":{"amenity":"waste_basket"}},"type":"Feature"},
	{"geometry":{"coordinates":[7.183701,49.355429],"type":"Point"},"properties":{"osm_id":"2416798719","tag":{"amenity":"recycling"}},"type":"Feature"},
	{"geometry":{"coordinates":[7.183328,49.355476],"type":"Point"},"properties":{"osm_id":"2416798722","tag":{"amenity":"waste_basket"}},"type":"Feature"},
	{"geometry":{"coordinates":[7.181944,49.352422],"type":"Point"},"properties":{"osm_id":"2416827143","tag":{"amenity":"waste_basket"}},"type":"Feature"},
	{"geometry":{"coordinates":[7.181199,49.353023],"type":"Point"},"properties":{"osm_id":"2416827146","tag":{"amenity":"waste_basket"}},"type":"Feature"},
	{"geometry":{"coordinates":[7.180779,49.353988],"type":"Point"},"properties":{"osm_id":"2416827154","tag":{"amenity":"waste_basket"}},"type":"Feature"},
	{"geometry":{"coordinates":[7.179027,49.347827],"type":"Point"},"properties":{"osm_id":"2420983565","tag":{"amenity":"waste_basket"}},"type":"Feature"},
	{"geometry":{"coordinates":[7.179679,49.347938],"type":"Point"},"properties":{"osm_id":"2420983572","tag":{"amenity":"recycling"}},"type":"Feature"},
	{"geometry":{"coordinates":[7.183315,49.349688],"type":"Point"},"properties":{"osm_id":"2421007322","tag":{"amenity":"waste_basket"}},"type":"Feature"},
	{"geometry":{"coordinates":[7.180013,49.346206],"type":"Point"},"properties":{"osm_id":"2421026904","tag":{"amenity":"waste_basket"}},"type":"Feature"},
	{"geometry":{"coordinates":[7.182973,49.347256],"type":"Point"},"properties":{"osm_id":"2421194254","tag":{"amenity":"recycling","recycling:glass":"yes"}},"type":"Feature"},
	{"geometry":{"coordinates":[7.178247,49.346569],"type":"Point"},"properties":{"osm_id":"2421618709","tag":{"amenity":"waste_basket"}},"type":"Feature"},
	{"geometry":{"coordinates":[7.167946,49.344842],"type":"Point"},"properties":{"osm_id":"2421645559","tag":{"amenity":"waste_basket"}},"type":"Feature"},
	{"geometry":{"coordinates":[7.171962,49.347899],"type":"Point"},"properties":{"osm_id":"2421663179","tag":{"amenity":"waste_basket"}},"type":"Feature"},
	{"geometry":{"coordinates":[7.14591,49.382274],"type":"Point"},"properties":{"osm_id":"2424554326","tag":{"amenity":"waste_basket"}},"type":"Feature"},
	{"geometry":{"coordinates":[7.19273,49.349386],"type":"Point"},"properties":{"osm_id":"2424667550","tag":{"amenity":"recycling","location":"overground","recycling_type":"container"}},"type":"Feature"},
	{"geometry":{"coordinates":[7.185413,49.349112],"type":"Point"},"properties":{"osm_id":"2429983892","tag":{"amenity":"waste_basket"}},"type":"Feature"},
	{"geometry":{"coordinates":[7.183454,49.345369],"type":"Point"},"properties":{"osm_id":"2430028165","tag":{"amenity":"waste_basket"}},"type":"Feature"},
	{"geometry":{"coordinates":[7.183818,49.344769],"type":"Point"},"properties":{"osm_id":"2430106739","tag":{"amenity":"recycling","recycling:glass":"yes","recycling:paper":"yes"}},"type":"Feature"},
	{"geometry":{"coordinates":[7.184059,49.343692],"type":"Point"},"properties":{"osm_id":"2430362367","tag":{"amenity":"waste_basket"}},"type":"Feature"},
	{"geometry":{"coordinates":[7.187555,49.346494],"type":"Point"},"properties":{"osm_id":"2430362465","tag":{"amenity":"recycling","recycling:glass":"yes","recycling:paper":"yes"}},"type":"Feature"},
	{"geometry":{"coordinates":[7.187744,49.346617],"type":"Point"},"properties":{"osm_id":"2430362467","tag":{"amenity":"waste_basket"}},"type":"Feature"},
	{"geometry":{"coordinates":[7.191521,49.341317],"type":"Point"},"properties":{"osm_id":"2430401672","tag":{"amenity":"waste_basket"}},"type":"Feature"},
	{"geometry":{"coordinates":[7.19462,49.342305],"type":"Point"},"properties":{"osm_id":"2430401678","tag":{"amenity":"waste_basket"}},"type":"Feature"},
	{"geometry":{"coordinates":[7.194547,49.342424],"type":"Point"},"properties":{"osm_id":"2430401679","tag":{"amenity":"waste_basket"}},"type":"Feature"},
	{"geometry":{"coordinates":[7.205966,49.341461],"type":"Point"},"properties":{"osm_id":"2432683502","tag":{"amenity":"waste_basket"}},"type":"Feature"},
	{"geometry":{"coordinates":[7.205139,49.34537],"type":"Point"},"properties":{"osm_id":"2432724048","tag":{"amenity":"waste_basket"}},"type":"Feature"},
	{"geometry":{"coordinates":[7.193583,49.346685],"type":"Point"},"properties":{"osm_id":"2432724058","tag":{"amenity":"waste_basket"}},"type":"Feature"},
	{"geometry":{"coordinates":[7.193614,49.346785],"type":"Point"},"properties":{"osm_id":"2432724059","tag":{"amenity":"waste_basket"}},"type":"Feature"},
	{"geometry":{"coordinates":[7.193733,49.346855],"type":"Point"},"properties":{"osm_id":"2432724060","tag":{"amenity":"waste_basket"}},"type":"Feature"},
	{"geometry":{"coordinates":[7.194443,49.347312],"type":"Point"},"properties":{"osm_id":"2432724066","tag":{"amenity":"waste_basket"}},"type":"Feature"},
	{"geometry":{"coordinates":[7.183388,49.338105],"type":"Point"},"properties":{"osm_id":"2432746318","tag":{"amenity":"waste_basket"}},"type":"Feature"},
	{"geometry":{"coordinates":[7.184129,49.3386],"type":"Point"},"properties":{"osm_id":"2432746332","tag":{"amenity":"waste_basket"}},"type":"Feature"},
	{"geometry":{"coordinates":[7.185574,49.338723],"type":"Point"},"properties":{"osm_id":"2432746377","tag":{"amenity":"waste_basket"}},"type":"Feature"},
	{"geometry":{"coordinates":[7.186235,49.338838],"type":"Point"},"properties":{"osm_id":"2432746402","tag":{"amenity":"waste_basket"}},"type":"Feature"},
	{"geometry":{"coordinates":[7.186252,49.339387],"type":"Point"},"properties":{"osm_id":"2432746450","tag":{"amenity":"waste_basket"}},"type":"Feature"},
	{"geometry":{"coordinates":[7.182293,49.35219],"type":"Point"},"properties":{"osm_id":"2432782291","tag":{"amenity":"waste_basket"}},"type":"Feature"},
	{"geometry":{"coordinates":[7.178849,49.348952],"type":"Point"},"properties":{"osm_id":"2440687092","tag":{"amenity":"waste_basket"}},"type":"Feature"},
	{"geometry":{"coordinates":[7.188662,49.349733],"type":"Point"},"properties":{"osm_id":"2440687125","tag":{"amenity":"waste_basket"}},"type":"Feature"},
	{"geometry":{"coordinates":[7.18339,49.350124],"type":"Point"},"properties":{"osm_id":"2440687133","tag":{"amenity":"waste_basket"}},"type":"Feature"},
	{"geometry":{"coordinates":[7.200742,49.343035],"type":"Point"},"properties":{"osm_id":"2441554701","tag":{"amenity":"waste_basket"}},"type":"Feature"},
	{"geometry":{"coordinates":[7.200708,49.343219],"type":"Point"},"properties":{"osm_id":"2441554704","tag":{"amenity":"waste_basket"}},"type":"Feature"},
	{"geometry":{"coordinates":[7.195942,49.340249],"type":"Point"},"properties":{"osm_id":"2441603507","tag":{"amenity":"recycling","location":"overground","recycling:clothes":"yes","recycling:glass":"yes","recycling:paper":"yes","recycling_type":"container"}},"type":"Feature"},
	{"geometry":{"coordinates":[7.174249,49.332887],"type":"Point"},"properties":{"osm_id":"2441859203","tag":{"amenity":"recycling","recycling:glass":"yes","recycling:paper":"yes"}},"type":"Feature"},
	{"geometry":{"coordinates":[7.176449,49.329087],"type":"Point"},"properties":{"osm_id":"2441911382","tag":{"amenity":"recycling","recycling:clothes":"yes"}},"type":"Feature"},
	{"geometry":{"coordinates":[7.173941,49.327861],"type":"Point"},"properties":{"osm_id":"2441934294","tag":{"amenity":"recycling","recycling:clothes":"yes"}},"type":"Feature"},
	{"geometry":{"coordinates":[7.174861,49.328622],"type":"Point"},"properties":{"osm_id":"2441934301","tag":{"amenity":"recycling","recycling:glass":"yes","recycling:paper":"yes"}},"type":"Feature"},
	{"geometry":{"coordinates":[7.166458,49.328737],"type":"Point"},"properties":{"osm_id":"2443425625","tag":{"amenity":"recycling","recycling:clothes":"yes"}},"type":"Feature"},
	{"geometry":{"coordinates":[7.177721,49.340683],"type":"Point"},"properties":{"osm_id":"2448346657","tag":{"amenity":"recycling"}},"type":"Feature"},
	{"geometry":{"coordinates":[7.177848,49.34076],"type":"Point"},"properties":{"osm_id":"2448346659","tag":{"amenity":"waste_basket"}},"type":"Feature"},
	{"geometry":{"coordinates":[7.179405,49.342245],"type":"Point"},"properties":{"osm_id":"2448403616","tag":{"amenity":"waste_basket"}},"type":"Feature"},
	{"geometry":{"coordinates":[7.179237,49.34237],"type":"Point"},"properties":{"osm_id":"2449082112","tag":{"amenity":"waste_basket"}},"type":"Feature"},
	{"geometry":{"coordinates":[7.178942,49.342673],"type":"Point"},"properties":{"osm_id":"2449082114","tag":{"amenity":"waste_basket"}},"type":"Feature"},
	{"geometry":{"coordinates":[7.160596,49.347799],"type":"Point"},"properties":{"osm_id":"2449206554","tag":{"amenity":"recycling","recycling:glass":"yes","recycling:paper":"yes"}},"type":"Feature"},
	{"geometry":{"coordinates":[7.199736,49.327264],"type":"Point"},"properties":{"osm_id":"2458474032","tag":{"amenity":"waste_basket"}},"type":"Feature"},
	{"geometry":{"coordinates":[7.199968,49.327377],"type":"Point"},"properties":{"osm_id":"2458474033","tag":{"amenity":"waste_basket"}},"type":"Feature"},
	{"geometry":{"coordinates":[7.199614,49.327084],"type":"Point"},"properties":{"osm_id":"2458487733","tag":{"amenity":"waste_basket"}},"type":"Feature"},
	{"geometry":{"coordinates":[7.182106,49.339257],"type":"Point"},"properties":{"osm_id":"2483193754","tag":{"amenity":"recycling","recycling:clothes":"yes"}},"type":"Feature"},
	{"geometry":{"coordinates":[7.13681,49.378296],"type":"Point"},"properties":{"osm_id":"3012003645","tag":{"amenity":"waste_basket"}},"type":"Feature"},
	{"geometry":{"coordinates":[7.134688,49.377129],"type":"Point"},"properties":{"osm_id":"3012003646","tag":{"amenity":"waste_basket"}},"type":"Feature"},
	{"geometry":{"coordinates":[7.13491,49.375963],"type":"Point"},"properties":{"osm_id":"3012003657","tag":{"amenity":"recycling","recycling:clothes":"yes","recycling:glass":"yes","recycling:paper":"yes","recycling_type":"container"}},"type":"Feature"},
	{"geometry":{"coordinates":[7.131526,49.371549],"type":"Point"},"properties":{"osm_id":"3224646591","tag":{"amenity":"recycling","recycling:clothes":"yes","recycling_type":"container"}},"type":"Feature"},
	{"geometry":{"coordinates":[7.138484,49.365912],"type":"Point"},"properties":{"osm_id":"3227718452","tag":{"amenity":"recycling","recycling:glass":"yes","recycling:paper":"yes","recycling_type":"container"}},"type":"Feature"},
	{"geometry":{"coordinates":[7.12282,49.377687],"type":"Point"},"properties":{"osm_id":"3227761610","tag":{"amenity":"recycling","recycling:glass":"yes","recycling:paper":"yes"}},"type":"Feature"},
	{"geometry":{"coordinates":[7.183442,49.367361],"type":"Point"},"properties":{"osm_id":"3237947049","tag":{"amenity":"recycling","mapillary":"I9iRtghzGjgg6-Vev3aKjg","recycling:clothes":"yes","recycling_type":"container","survey:date":"2016-08-20"}},"type":"Feature"},
	{"geometry":{"coordinates":[7.136906,49.370666],"type":"Point"},"properties":{"osm_id":"3444709487","tag":{"amenity":"recycling","recycling:cans":"no","recycling:clothes":"no","recycling:glass":"yes","recycling:paper":"yes","recycling_type":"container"}},"type":"Feature"},
	{"geometry":{"coordinates":[7.145439,49.352854],"type":"Point"},"properties":{"osm_id":"4214396633","tag":{"amenity":"recycling","recycling:clothes":"yes","recycling_type":"container"}},"type":"Feature"},
	{"geometry":{"coordinates":[7.145355,49.352854],"type":"Point"},"properties":{"osm_id":"4214396634","tag":{"amenity":"recycling","recycling:glass":"yes","recycling_type":"container"}},"type":"Feature"},
	{"geometry":{"coordinates":[7.145386,49.352854],"type":"Point"},"properties":{"osm_id":"4214396635","tag":{"amenity":"recycling","recycling:paper":"yes","recycling_type":"container"}},"type":"Feature"},
	{"geometry":{"coordinates":[7.147254,49.333015],"type":"Point"},"properties":{"osm_id":"4215056733","tag":{"amenity":"recycling","recycling:paper":"yes","recycling_type":"container"}},"type":"Feature"},
	{"geometry":{"coordinates":[7.147274,49.33303],"type":"Point"},"properties":{"osm_id":"4215056734","tag":{"amenity":"recycling","recycling:glass":"yes","recycling_type":"container"}},"type":"Feature"},
	{"geometry":{"coordinates":[7.140118,49.329077],"type":"Point"},"properties":{"osm_id":"4216237046","tag":{"amenity":"recycling","recycling:glass":"yes","recycling_type":"container"}},"type":"Feature"},
	{"geometry":{"coordinates":[7.140052,49.329083],"type":"Point"},"properties":{"osm_id":"4216237047","tag":{"amenity":"recycling","recycling:paper":"yes","recycling_type":"container"}},"type":"Feature"},
	{"geometry":{"coordinates":[7.126639,49.367431],"type":"Point"},"properties":{"osm_id":"5212870315","tag":{"amenity":"recycling","recycling:glass_bottles":"yes","recycling:paper":"yes","recycling_type":"container"}},"type":"Feature"},
	{"geometry":{"coordinates":[7.134176,49.356095],"type":"Point"},"properties":{"osm_id":"5222315012","tag":{"amenity":"waste_basket"}},"type":"Feature"},
	{"geometry":{"coordinates":[7.138487,49.356414],"type":"Point"},"properties":{"osm_id":"5222372683","tag":{"amenity":"recycling","recycling:clothes":"yes","recycling:glass_bottles":"yes","recycling:paper":"yes","recycling_type":"container"}},"type":"Feature"},
	{"geometry":{"coordinates":[7.121934,49.366014],"type":"Point"},"properties":{"osm_id":"5229014962","tag":{"amenity":"recycling","recycling:glass_bottles":"yes","recycling:paper":"yes","recycling_type":"container"}},"type":"Feature"},
	{"geometry":{"coordinates":[7.126578,49.358946],"type":"Point"},"properties":{"osm_id":"5252971947","tag":{"amenity":"waste_basket"}},"type":"Feature"},
	{"geometry":{"coordinates":[7.127551,49.361907],"type":"Point"},"properties":{"osm_id":"5252971964","tag":{"amenity":"recycling","recycling:paper":"yes","recycling_type":"container"}},"type":"Feature"},
	{"geometry":{"coordinates":[7.122546,49.353689],"type":"Point"},"properties":{"osm_id":"5605247547","tag":{"amenity":"waste_basket"}},"type":"Feature"}
]
}
