{
"type": "FeatureCollection",
"features": [
	{"geometry":{"coordinates":[7.14614,49.191534],"type":"Point"},"properties":{"osm_id":"339203136","tag":{"amenity":"recycling","recycling:glass":"yes","recycling:paper":"yes"}},"type":"Feature"},
	{"geometry":{"coordinates":[7.139123,49.192514],"type":"Point"},"properties":{"osm_id":"339203144","tag":{"amenity":"recycling","recycling:glass":"yes","recycling:paper":"yes","recycling_type":"container"}},"type":"Feature"},
	{"geometry":{"coordinates":[7.143857,49.198145],"type":"Point"},"properties":{"osm_id":"340007235","tag":{"amenity":"recycling","recycling:clothes":"yes","recycling:glass":"yes","recycling:paper":"yes"}},"type":"Feature"},
	{"geometry":{"coordinates":[7.190213,49.198409],"type":"Point"},"properties":{"osm_id":"352812867","tag":{"amenity":"recycling","recycling:glass":"yes","recycling:paper":"yes"}},"type":"Feature"},
	{"geometry":{"coordinates":[7.161718,49.173638],"type":"Point"},"properties":{"osm_id":"649733781","tag":{"amenity":"recycling","recycling:paper":"yes","recycling_type":"container"}},"type":"Feature"},
	{"geometry":{"coordinates":[7.146357,49.19213],"type":"Point"},"properties":{"osm_id":"1734382861","tag":{"amenity":"waste_basket"}},"type":"Feature"},
	{"geometry":{"coordinates":[7.128284,49.179516],"type":"Point"},"properties":{"name":"EVS Wertstoff-Zentrum Ormesheim","osm_id":"1831525928","tag":{"amenity":"recycling","recycling_type":"centre"}},"type":"Feature"},
	{"geometry":{"coordinates":[7.194893,49.172572],"type":"Point"},"properties":{"osm_id":"2971950920","tag":{"amenity":"waste_basket"}},"type":"Feature"},
	{"geometry":{"coordinates":[7.194808,49.173326],"type":"Point"},"properties":{"osm_id":"2971950923","tag":{"amenity":"waste_basket"}},"type":"Feature"},
	{"geometry":{"coordinates":[7.19457,49.174032],"type":"Point"},"properties":{"osm_id":"2971950929","tag":{"amenity":"waste_basket"}},"type":"Feature"},
	{"geometry":{"coordinates":[7.194841,49.187095],"type":"Point"},"properties":{"osm_id":"2971955240","tag":{"amenity":"waste_basket"}},"type":"Feature"},
	{"geometry":{"coordinates":[7.200846,49.174299],"type":"Point"},"properties":{"name":"Glascontainer","osm_id":"4789024713","tag":{"amenity":"recycling","recycling:glass_bottles":"yes","recycling_type":"container"}},"type":"Feature"},
	{"geometry":{"coordinates":[7.161896,49.173646],"type":"Point"},"properties":{"osm_id":"6702587901","tag":{"amenity":"recycling","recycling:clothes":"yes","recycling_type":"container"}},"type":"Feature"},
	{"geometry":{"coordinates":[7.161745,49.173747],"type":"Point"},"properties":{"osm_id":"6702587902","tag":{"amenity":"recycling","recycling:glass":"yes","recycling_type":"container"}},"type":"Feature"}
]
}
