{
"type": "FeatureCollection",
"features": [
	{"geometry":{"coordinates":[7.182611,47.886507],"type":"Point"},"properties":{"osm_id":"1296009916","tag":{"amenity":"waste_basket"}},"type":"Feature"},
	{"geometry":{"coordinates":[7.182693,47.88658],"type":"Point"},"properties":{"osm_id":"1296010320","tag":{"amenity":"waste_basket"}},"type":"Feature"},
	{"geometry":{"coordinates":[7.205046,47.916385],"type":"Point"},"properties":{"osm_id":"2434430251","tag":{"amenity":"recycling","recycling:clothes":"yes","recycling:glass_bottles":"yes","recycling_type":"container"}},"type":"Feature"},
	{"geometry":{"coordinates":[7.204332,47.912141],"type":"Point"},"properties":{"osm_id":"2591769167","tag":{"amenity":"recycling","recycling:glass_bottles":"yes","recycling_type":"container"}},"type":"Feature"},
	{"geometry":{"coordinates":[7.205964,47.911909],"type":"Point"},"properties":{"osm_id":"2591960780","tag":{"amenity":"waste_basket"}},"type":"Feature"},
	{"geometry":{"coordinates":[7.20131,47.912762],"type":"Point"},"properties":{"osm_id":"2591960789","tag":{"amenity":"waste_basket"}},"type":"Feature"},
	{"geometry":{"coordinates":[7.201094,47.913042],"type":"Point"},"properties":{"osm_id":"2591960798","tag":{"amenity":"waste_basket"}},"type":"Feature"},
	{"geometry":{"coordinates":[7.197104,47.905109],"type":"Point"},"properties":{"osm_id":"2608539168","tag":{"amenity":"recycling","recycling:glass_bottles":"yes","recycling_type":"container"}},"type":"Feature"},
	{"geometry":{"coordinates":[7.204232,47.911206],"type":"Point"},"properties":{"osm_id":"2610154954","tag":{"amenity":"waste_basket"}},"type":"Feature"},
	{"geometry":{"coordinates":[7.188899,47.881412],"type":"Point"},"properties":{"osm_id":"2611479221","tag":{"amenity":"waste_basket"}},"type":"Feature"},
	{"geometry":{"coordinates":[7.198396,47.920733],"type":"Point"},"properties":{"osm_id":"2716681505","tag":{"amenity":"recycling","recycling:batteries":"yes","recycling:cans":"yes","recycling:clothes":"yes","recycling:glass":"yes","recycling:paper":"yes","recycling:scrap_metal":"yes","recycling_type":"centre"}},"type":"Feature"},
	{"geometry":{"coordinates":[7.185043,47.928347],"type":"Point"},"properties":{"osm_id":"2869256754","tag":{"amenity":"recycling","recycling:batteries":"yes","recycling_type":"container"}},"type":"Feature"},
	{"geometry":{"coordinates":[7.198993,47.91691],"type":"Point"},"properties":{"osm_id":"2917799090","tag":{"amenity":"recycling","recycling:glass_bottles":"yes","recycling_type":"container"}},"type":"Feature"},
	{"geometry":{"coordinates":[7.196122,47.903848],"type":"Point"},"properties":{"osm_id":"3163630568","tag":{"amenity":"waste_basket"}},"type":"Feature"},
	{"geometry":{"coordinates":[7.203001,47.905739],"type":"Point"},"properties":{"osm_id":"3163630589","tag":{"amenity":"waste_basket"}},"type":"Feature"},
	{"geometry":{"coordinates":[7.197791,47.920639],"type":"Point"},"properties":{"osm_id":"4606661531","tag":{"access":"yes","amenity":"recycling","recycling:glass_bottles":"yes","recycling_type":"container"}},"type":"Feature"},
	{"geometry":{"coordinates":[7.198031,47.920658],"type":"Point"},"properties":{"osm_id":"4606661533","tag":{"access":"yes","amenity":"recycling","recycling:scrap_metal":"yes","recycling_type":"container"}},"type":"Feature"},
	{"geometry":{"coordinates":[7.197715,47.920705],"type":"Point"},"properties":{"barrier":"gate","osm_id":"4606661534","tag":{"access":"yes","bicycle":"yes","foot":"yes","motorcar":"yes","motorcycle":"yes"}},"type":"Feature"},
	{"geometry":{"coordinates":[7.197756,47.920754],"type":"Point"},"properties":{"osm_id":"4606661537","tag":{"access":"yes","amenity":"recycling","recycling:batteries":"yes","recycling_type":"container"}},"type":"Feature"},
	{"geometry":{"coordinates":[7.197806,47.920765],"type":"Point"},"properties":{"osm_id":"4606661538","tag":{"access":"yes","amenity":"recycling","recycling:clothes":"yes","recycling_type":"container"}},"type":"Feature"},
	{"geometry":{"coordinates":[7.189141,47.881311],"type":"Point"},"properties":{"osm_id":"5046633942","tag":{"amenity":"waste_basket"}},"type":"Feature"},
	{"geometry":{"coordinates":[7.189365,47.92687],"type":"Point"},"properties":{"osm_id":"7467762726","tag":{"amenity":"recycling","opening_hours":"24/7","opening_hours:covid19":"same","recycling:glass_bottles":"yes","recycling_type":"container"}},"type":"Feature"},
	{"geometry":{"coordinates":[7.190514,47.92472],"type":"Point"},"properties":{"osm_id":"7467762727","tag":{"amenity":"recycling","opening_hours":"24/7","opening_hours:covid19":"same","recycling:glass_bottles":"yes","recycling_type":"container"}},"type":"Feature"},
	{"geometry":{"coordinates":[7.186562,47.926263],"type":"Point"},"properties":{"osm_id":"7467762728","tag":{"amenity":"recycling","opening_hours":"24/7","opening_hours:covid19":"same","recycling:glass_bottles":"yes","recycling_type":"container"}},"type":"Feature"},
	{"geometry":{"coordinates":[7.183272,47.930944],"type":"Point"},"properties":{"osm_id":"7467762729","tag":{"amenity":"recycling","opening_hours":"24/7","opening_hours:covid19":"same","recycling:glass_bottles":"yes","recycling_type":"container"}},"type":"Feature"},
	{"geometry":{"coordinates":[7.198585,47.922767],"type":"Point"},"properties":{"osm_id":"7467762730","tag":{"amenity":"recycling","opening_hours":"24/7","opening_hours:covid19":"same","recycling:glass_bottles":"yes","recycling_type":"container"}},"type":"Feature"},
	{"geometry":{"coordinates":[7.195399,47.922393],"type":"Point"},"properties":{"osm_id":"7501849510","tag":{"amenity":"waste_basket"}},"type":"Feature"}
]
}
