{
"type": "FeatureCollection",
"features": [
	{"geometry":{"coordinates":[7.125447,46.921637],"type":"Point"},"properties":{"osm_id":"998736930","tag":{"amenity":"waste_basket"}},"type":"Feature"},
	{"geometry":{"coordinates":[7.127091,46.939029],"type":"Point"},"properties":{"osm_id":"2721676295","tag":{"amenity":"waste_basket"}},"type":"Feature"},
	{"geometry":{"coordinates":[7.119433,46.964139],"type":"Point"},"properties":{"osm_id":"2907601642","tag":{"amenity":"waste_basket"}},"type":"Feature"},
	{"geometry":{"coordinates":[7.128936,46.939949],"type":"Point"},"properties":{"osm_id":"3462013284","tag":{"amenity":"waste_basket"}},"type":"Feature"},
	{"geometry":{"coordinates":[7.128781,46.94002],"type":"Point"},"properties":{"osm_id":"3462013285","tag":{"amenity":"waste_basket"}},"type":"Feature"},
	{"geometry":{"coordinates":[7.129232,46.940283],"type":"Point"},"properties":{"osm_id":"3462013288","tag":{"amenity":"waste_basket"}},"type":"Feature"},
	{"geometry":{"coordinates":[7.129076,46.940095],"type":"Point"},"properties":{"osm_id":"3462014093","tag":{"amenity":"waste_basket"}},"type":"Feature"},
	{"geometry":{"coordinates":[7.129401,46.94005],"type":"Point"},"properties":{"osm_id":"3462014094","tag":{"amenity":"waste_basket"}},"type":"Feature"},
	{"geometry":{"coordinates":[7.128705,46.93974],"type":"Point"},"properties":{"osm_id":"3462014095","tag":{"amenity":"waste_basket"}},"type":"Feature"},
	{"geometry":{"coordinates":[7.127996,46.939412],"type":"Point"},"properties":{"osm_id":"3462014096","tag":{"amenity":"waste_basket"}},"type":"Feature"},
	{"geometry":{"coordinates":[7.143306,46.940519],"type":"Point"},"properties":{"name":"Entsorgungszentrum L\u00c3\u00b6wenberg EZL","osm_id":"3828041757","tag":{"addr:city":"Murten","addr:housenumber":"1","addr:postcode":"3280","addr:street":"Grande Ferme","amenity":"recycling","phone":"+41 26 411 95 20","recycling:cans":"yes","recycling:clothes":"no","recycling:glass":"yes","recycling:glass_bottles":"yes","recycling:paper":"yes","recycling:plastic":"yes","recycling_type":"centre"}},"type":"Feature"},
	{"geometry":{"coordinates":[7.130956,46.961154],"type":"Point"},"properties":{"osm_id":"4196908295","tag":{"amenity":"recycling"}},"type":"Feature"}
]
}
