{
"type": "FeatureCollection",
"features": [
	{"geometry":{"coordinates":[7.143882,46.801181],"type":"Point"},"properties":{"osm_id":"291234840","tag":{"amenity":"recycling","location":"overground","recycling:glass":"yes","recycling_type":"container"}},"type":"Feature"},
	{"geometry":{"coordinates":[7.153275,46.805585],"type":"Point"},"properties":{"osm_id":"291617705","tag":{"amenity":"recycling","recycling:cans":"yes","recycling:cardboard":"no","recycling:clothes":"yes","recycling:glass_bottles":"yes","recycling:plastic_bottles":"yes","recycling:shoes":"yes","recycling_type":"container"}},"type":"Feature"},
	{"geometry":{"coordinates":[7.187933,46.848791],"type":"Point"},"properties":{"name":"VAM Verein f\u00c3\u00bcr aktive Arbeitsmarktmassnahmen","osm_id":"613414659","tag":{"amenity":"recycling","email":"info@vam.ch","fax":"+41 26 492 04 41","opening_hours":"Mo-Fr 08:00-12:00;Sa-Su off","phone":"+41 26 492 04 40","recycling:electronics":"yes","recycling:white_goods":"yes","recycling_type":"centre","website":"http://www.vam.ch"}},"type":"Feature"},
	{"geometry":{"coordinates":[7.190383,46.850309],"type":"Point"},"properties":{"osm_id":"813148542","tag":{"amenity":"waste_basket"}},"type":"Feature"},
	{"geometry":{"coordinates":[7.183639,46.85572],"type":"Point"},"properties":{"name":"Robidog","osm_id":"822190290","tag":{"amenity":"waste_basket","operator":"Robidog AG","vending":"excrement_bags"}},"type":"Feature"},
	{"geometry":{"coordinates":[7.190026,46.850445],"type":"Point"},"properties":{"osm_id":"856246193","tag":{"amenity":"waste_basket"}},"type":"Feature"},
	{"geometry":{"coordinates":[7.190067,46.850473],"type":"Point"},"properties":{"osm_id":"856246245","tag":{"amenity":"waste_basket"}},"type":"Feature"},
	{"geometry":{"coordinates":[7.20392,46.820529],"type":"Point"},"properties":{"osm_id":"886878718","tag":{"amenity":"waste_basket","fee":"no","operator":"Robidog AG","vending":"excrement_bags"}},"type":"Feature"},
	{"geometry":{"coordinates":[7.194237,46.84841],"type":"Point"},"properties":{"osm_id":"905292931","tag":{"amenity":"recycling","opening_hours":"Mo-Fr 07:00-20:00;Sa 08:00-17:00","recycling:clothes":"yes","recycling:glass":"yes","recycling:green_waste":"yes","recycling:waste_oil":"yes"}},"type":"Feature"},
	{"geometry":{"coordinates":[7.185592,46.85022],"type":"Point"},"properties":{"osm_id":"909316619","tag":{"amenity":"waste_basket"}},"type":"Feature"},
	{"geometry":{"coordinates":[7.141295,46.810165],"type":"Point"},"properties":{"osm_id":"947035148","tag":{"amenity":"recycling","recycling:PET":"yes","recycling:cans":"yes","recycling:engine_oil":"yes","recycling:glass":"yes","recycling_type":"container"}},"type":"Feature"},
	{"geometry":{"coordinates":[7.191409,46.834793],"type":"Point"},"properties":{"osm_id":"996319311","tag":{"amenity":"waste_basket"}},"type":"Feature"},
	{"geometry":{"coordinates":[7.191407,46.834774],"type":"Point"},"properties":{"name":"Robidog","osm_id":"996319435","tag":{"amenity":"waste_basket","fee":"no","operator":"Robidog AG","vending":"excrement_bags"}},"type":"Feature"},
	{"geometry":{"coordinates":[7.191506,46.834792],"type":"Point"},"properties":{"osm_id":"996319486","tag":{"amenity":"waste_basket"}},"type":"Feature"},
	{"geometry":{"coordinates":[7.172721,46.802197],"type":"Point"},"properties":{"osm_id":"1175053339","tag":{"amenity":"waste_basket"}},"type":"Feature"},
	{"geometry":{"coordinates":[7.168382,46.800735],"type":"Point"},"properties":{"osm_id":"1176860867","tag":{"amenity":"waste_basket"}},"type":"Feature"},
	{"geometry":{"coordinates":[7.164821,46.800678],"type":"Point"},"properties":{"osm_id":"1176860877","tag":{"amenity":"waste_basket"}},"type":"Feature"},
	{"geometry":{"coordinates":[7.16349,46.800911],"type":"Point"},"properties":{"osm_id":"1176860954","tag":{"amenity":"waste_basket"}},"type":"Feature"},
	{"geometry":{"coordinates":[7.135012,46.820248],"type":"Point"},"properties":{"osm_id":"1267986950","tag":{"amenity":"waste_basket"}},"type":"Feature"},
	{"geometry":{"coordinates":[7.124417,46.817669],"type":"Point"},"properties":{"osm_id":"1267987055","tag":{"amenity":"waste_basket"}},"type":"Feature"},
	{"geometry":{"coordinates":[7.199089,46.854988],"type":"Point"},"properties":{"osm_id":"1271427229","tag":{"amenity":"recycling","recycling:glass":"yes","recycling:green_waste":"yes","recycling:scrap_metal":"yes"}},"type":"Feature"},
	{"geometry":{"coordinates":[7.171597,46.803526],"type":"Point"},"properties":{"osm_id":"1278604824","tag":{"amenity":"waste_basket"}},"type":"Feature"},
	{"geometry":{"coordinates":[7.160555,46.807085],"type":"Point"},"properties":{"name":"Sammelstelle / Point de r\u00c3\u00a9colte BOURG - Rue de Morat","osm_id":"1361560438","tag":{"amenity":"recycling","designation":"Sammelstelle / Point de r\u00c3\u00a9colte BOURG - Rue de Morat ","recycling:batteries":"no","recycling:books":"no","recycling:cans":"yes","recycling:cardboard":"no","recycling:cartons":"no","recycling:clothes":"yes","recycling:electrical_appliances":"no","recycling:glass":"no","recycling:glass_bottles":"yes","recycling:green_waste":"no","recycling:magazines":"no","recycling:newspaper":"no","recycling:paper":"no","recycling:paper_packaging":"no","recycling:plastic":"no","recycling:plastic_bottles":"yes","recycling:plastic_packaging":"yes","recycling:scrap_metal":"no","recycling:small_appliances":"no","recycling:waste":"no","recycling:wood":"no","recycling_type":"container"}},"type":"Feature"},
	{"geometry":{"coordinates":[7.144047,46.813195],"type":"Point"},"properties":{"osm_id":"1362760575","tag":{"amenity":"recycling"}},"type":"Feature"},
	{"geometry":{"coordinates":[7.162658,46.804199],"type":"Point"},"properties":{"osm_id":"1372549372","tag":{"amenity":"recycling","recycling:cans":"yes","recycling:clothes":"yes","recycling:glass_bottles":"yes","recycling:shoes":"yes","recycling_type":"container"}},"type":"Feature"},
	{"geometry":{"coordinates":[7.16787,46.804666],"type":"Point"},"properties":{"osm_id":"1372549375","tag":{"amenity":"recycling","location":"overground","recycling_type":"container"}},"type":"Feature"},
	{"geometry":{"coordinates":[7.156079,46.810144],"type":"Point"},"properties":{"osm_id":"1517037957","tag":{"amenity":"recycling","recycling:aluminium":"yes","recycling:cans":"yes","recycling:glass":"yes","recycling:green_waste":"yes","recycling_type":"container"}},"type":"Feature"},
	{"geometry":{"coordinates":[7.156208,46.809608],"type":"Point"},"properties":{"osm_id":"1517037973","tag":{"amenity":"waste_basket"}},"type":"Feature"},
	{"geometry":{"coordinates":[7.191794,46.847008],"type":"Point"},"properties":{"osm_id":"1897720224","tag":{"amenity":"recycling","level":"-1","recycling:milk_bottles":"yes","recycling:plastic":"yes","recycling_type":"container"}},"type":"Feature"},
	{"geometry":{"coordinates":[7.179093,46.845981],"type":"Point"},"properties":{"osm_id":"1977533391","tag":{"amenity":"waste_basket"}},"type":"Feature"},
	{"geometry":{"coordinates":[7.191309,46.850224],"type":"Point"},"properties":{"osm_id":"1998767070","tag":{"amenity":"recycling","recycling:milk_bottles":"yes","recycling:plastic":"yes","recycling_type":"container"}},"type":"Feature"},
	{"geometry":{"coordinates":[7.190175,46.850347],"type":"Point"},"properties":{"osm_id":"2471810491","tag":{"amenity":"waste_basket"}},"type":"Feature"},
	{"geometry":{"coordinates":[7.160305,46.806945],"type":"Point"},"properties":{"osm_id":"2984880099","tag":{"amenity":"waste_basket"}},"type":"Feature"},
	{"geometry":{"coordinates":[7.160895,46.806229],"type":"Point"},"properties":{"osm_id":"2984880100","tag":{"amenity":"waste_basket"}},"type":"Feature"},
	{"geometry":{"coordinates":[7.166213,46.800934],"type":"Point"},"properties":{"osm_id":"3716756652","tag":{"amenity":"waste_basket"}},"type":"Feature"},
	{"geometry":{"coordinates":[7.168741,46.804883],"type":"Point"},"properties":{"name":"Robidog","osm_id":"3752504993","tag":{"amenity":"waste_basket","operator":"Robidog AG","vending":"excrement_bags"}},"type":"Feature"},
	{"geometry":{"coordinates":[7.200482,46.858229],"type":"Point"},"properties":{"osm_id":"4139908287","tag":{"amenity":"waste_basket"}},"type":"Feature"},
	{"geometry":{"coordinates":[7.200441,46.857705],"type":"Point"},"properties":{"osm_id":"4139946274","tag":{"amenity":"waste_basket"}},"type":"Feature"},
	{"geometry":{"coordinates":[7.191191,46.846194],"type":"Point"},"properties":{"osm_id":"4148310031","tag":{"amenity":"waste_basket"}},"type":"Feature"},
	{"geometry":{"coordinates":[7.190783,46.847771],"type":"Point"},"properties":{"osm_id":"4148310032","tag":{"amenity":"waste_basket"}},"type":"Feature"},
	{"geometry":{"coordinates":[7.200227,46.84443],"type":"Point"},"properties":{"osm_id":"4161119738","tag":{"amenity":"waste_basket"}},"type":"Feature"},
	{"geometry":{"coordinates":[7.197313,46.845254],"type":"Point"},"properties":{"osm_id":"4161119739","tag":{"amenity":"waste_basket"}},"type":"Feature"},
	{"geometry":{"coordinates":[7.192307,46.846064],"type":"Point"},"properties":{"osm_id":"4161119741","tag":{"amenity":"waste_basket"}},"type":"Feature"},
	{"geometry":{"coordinates":[7.158394,46.830206],"type":"Point"},"properties":{"osm_id":"4178407268","tag":{"amenity":"waste_basket"}},"type":"Feature"},
	{"geometry":{"coordinates":[7.156827,46.806485],"type":"Point"},"properties":{"osm_id":"4449263651","tag":{"amenity":"recycling","recycling:PET":"yes","recycling:clothes":"yes","recycling:glass":"yes","recycling_type":"container"}},"type":"Feature"},
	{"geometry":{"coordinates":[7.152886,46.813117],"type":"Point"},"properties":{"osm_id":"4496942506","tag":{"amenity":"recycling","recycling:glass":"yes","recycling:metal":"yes","recycling_type":"container"}},"type":"Feature"},
	{"geometry":{"coordinates":[7.160065,46.801347],"type":"Point"},"properties":{"osm_id":"5526239747","tag":{"amenity":"waste_basket","waste":"cigarettes"}},"type":"Feature"},
	{"geometry":{"coordinates":[7.145041,46.81703],"type":"Point"},"properties":{"osm_id":"6900891121","tag":{"amenity":"waste_basket"}},"type":"Feature"},
	{"geometry":{"coordinates":[7.133006,46.817292],"type":"Point"},"properties":{"osm_id":"7569671247","tag":{"amenity":"recycling","operator":"Kaufmann Karl SA","recycling_type":"centre"}},"type":"Feature"},
	{"geometry":{"coordinates":[7.196544,46.847035],"type":"Point"},"properties":{"osm_id":"7835651996","tag":{"amenity":"waste_basket"}},"type":"Feature"}
]
}
