{
"type": "FeatureCollection",
"features": [
	{"geometry":{"coordinates":[7.153004,46.797201],"type":"Point"},"properties":{"osm_id":"291618538","tag":{"amenity":"recycling","opening_hours":"Mo-Sa 07:00-20:00; Su off","recycling:aluminium":"yes","recycling:batteries":"no","recycling:cans":"yes","recycling:clothes":"yes","recycling:cooking_oil":"yes","recycling:glass":"yes","recycling:paper":"no","recycling:plastic_bottles":"yes","recycling_type":"container"}},"type":"Feature"},
	{"geometry":{"coordinates":[7.143284,46.749924],"type":"Point"},"properties":{"osm_id":"292462735","tag":{"amenity":"recycling"}},"type":"Feature"},
	{"geometry":{"coordinates":[7.151296,46.772376],"type":"Point"},"properties":{"name":"D\u00c3\u00a9chetterie Marly","osm_id":"416048431","tag":{"amenity":"recycling","recycling_type":"centre"}},"type":"Feature"},
	{"geometry":{"coordinates":[7.202293,46.766],"type":"Point"},"properties":{"name":"Sammelhof Giffers-Tentlingen","osm_id":"615158360","tag":{"amenity":"recycling","location":"overground","recycling:batteries":"yes","recycling:cans":"yes","recycling:clothes":"yes","recycling:glass":"yes","recycling:paper":"yes","recycling:scrap_metal":"yes","recycling_type":"container"}},"type":"Feature"},
	{"geometry":{"coordinates":[7.150599,46.792422],"type":"Point"},"properties":{"osm_id":"908478760","tag":{"amenity":"waste_basket"}},"type":"Feature"},
	{"geometry":{"coordinates":[7.128432,46.797351],"type":"Point"},"properties":{"osm_id":"942825069","tag":{"amenity":"waste_basket"}},"type":"Feature"},
	{"geometry":{"coordinates":[7.124617,46.795954],"type":"Point"},"properties":{"osm_id":"942825082","tag":{"amenity":"waste_basket"}},"type":"Feature"},
	{"geometry":{"coordinates":[7.134523,46.793125],"type":"Point"},"properties":{"osm_id":"1129478440","tag":{"amenity":"recycling","location":"overground","recycling:cans":"yes","recycling:clothes":"yes","recycling:glass":"yes","recycling:paper":"yes","recycling_type":"container"}},"type":"Feature"},
	{"geometry":{"coordinates":[7.17664,46.799185],"type":"Point"},"properties":{"osm_id":"1175053259","tag":{"amenity":"waste_basket"}},"type":"Feature"},
	{"geometry":{"coordinates":[7.168373,46.799708],"type":"Point"},"properties":{"osm_id":"1176860866","tag":{"amenity":"waste_basket"}},"type":"Feature"},
	{"geometry":{"coordinates":[7.169506,46.798045],"type":"Point"},"properties":{"osm_id":"1176860881","tag":{"amenity":"waste_basket"}},"type":"Feature"},
	{"geometry":{"coordinates":[7.176197,46.798769],"type":"Point"},"properties":{"osm_id":"1176860900","tag":{"amenity":"waste_basket"}},"type":"Feature"},
	{"geometry":{"coordinates":[7.176341,46.798711],"type":"Point"},"properties":{"osm_id":"1176860936","tag":{"amenity":"waste_basket"}},"type":"Feature"},
	{"geometry":{"coordinates":[7.175575,46.798163],"type":"Point"},"properties":{"osm_id":"1176860972","tag":{"amenity":"waste_basket"}},"type":"Feature"},
	{"geometry":{"coordinates":[7.206404,46.796124],"type":"Point"},"properties":{"name":"Robidog","osm_id":"2737011563","tag":{"amenity":"waste_basket","fee":"no","operator":"Robidog AG","vending":"excrement_bags"}},"type":"Feature"},
	{"geometry":{"coordinates":[7.138395,46.791137],"type":"Point"},"properties":{"osm_id":"3261301724","tag":{"amenity":"recycling","location":"overground","recycling:cans":"yes","recycling:clothes":"yes","recycling:glass":"yes","recycling:oil":"yes","recycling:paper":"yes","recycling_type":"container"}},"type":"Feature"},
	{"geometry":{"coordinates":[7.149569,46.779958],"type":"Point"},"properties":{"osm_id":"3694129284","tag":{"amenity":"recycling","location":"overground","recycling:cans":"yes","recycling:clothes":"yes","recycling:glass":"yes","recycling:paper":"no","recycling_type":"container"}},"type":"Feature"},
	{"geometry":{"coordinates":[7.155351,46.782955],"type":"Point"},"properties":{"name":"Robidog","osm_id":"3694129306","tag":{"amenity":"waste_basket","operator":"Robidog AG","vending":"excrement_bags"}},"type":"Feature"},
	{"geometry":{"coordinates":[7.150044,46.780169],"type":"Point"},"properties":{"osm_id":"3714296699","tag":{"amenity":"recycling","location":"overground","recycling:plastic_bottles":"yes","recycling_type":"container"}},"type":"Feature"},
	{"geometry":{"coordinates":[7.15053,46.780543],"type":"Point"},"properties":{"name":"Robidog","osm_id":"3714296707","tag":{"amenity":"waste_basket","operator":"Robidog AG","vending":"excrement_bags"}},"type":"Feature"},
	{"geometry":{"coordinates":[7.154229,46.779129],"type":"Point"},"properties":{"name":"Robidog","osm_id":"3741944045","tag":{"amenity":"waste_basket","operator":"Robidog AG","vending":"excrement_bags"}},"type":"Feature"},
	{"geometry":{"coordinates":[7.154466,46.778706],"type":"Point"},"properties":{"osm_id":"3744745888","tag":{"amenity":"waste_basket"}},"type":"Feature"},
	{"geometry":{"coordinates":[7.154405,46.778805],"type":"Point"},"properties":{"osm_id":"3744745890","tag":{"amenity":"waste_basket"}},"type":"Feature"},
	{"geometry":{"coordinates":[7.151863,46.793421],"type":"Point"},"properties":{"osm_id":"3772258016","tag":{"amenity":"waste_basket"}},"type":"Feature"},
	{"geometry":{"coordinates":[7.156654,46.792008],"type":"Point"},"properties":{"name":"Compost","osm_id":"3835427657","tag":{"amenity":"recycling","opening_hours":"Apr 1-Oct 31:Mo-Su 08:00-18:00; Nov 1-Mar 31: Mo-Fr 08:00-17:00; Sa-Su 10:00-17:00","operator":"Jardin botanique de Fribourg","recycling:compost":"yes","recycling:green_waste":"yes","recycling:organic":"yes"}},"type":"Feature"},
	{"geometry":{"coordinates":[7.160911,46.775811],"type":"Point"},"properties":{"osm_id":"3951532868","tag":{"amenity":"recycling","location":"overground","recycling:cans":"yes","recycling:clothes":"yes","recycling:glass":"yes","recycling_type":"container"}},"type":"Feature"},
	{"geometry":{"coordinates":[7.148383,46.781626],"type":"Point"},"properties":{"osm_id":"4031366090","tag":{"amenity":"recycling","location":"overground","recycling:batteries":"no","recycling:cans":"no","recycling:clothes":"yes","recycling:glass":"no","recycling:shoes":"yes","recycling_type":"container"}},"type":"Feature"},
	{"geometry":{"coordinates":[7.197735,46.770662],"type":"Point"},"properties":{"osm_id":"4223448104","tag":{"amenity":"waste_basket"}},"type":"Feature"},
	{"geometry":{"coordinates":[7.186459,46.782274],"type":"Point"},"properties":{"osm_id":"4223448138","tag":{"amenity":"waste_basket"}},"type":"Feature"},
	{"geometry":{"coordinates":[7.180175,46.786269],"type":"Point"},"properties":{"osm_id":"4223448155","tag":{"amenity":"waste_basket"}},"type":"Feature"},
	{"geometry":{"coordinates":[7.151363,46.797699],"type":"Point"},"properties":{"osm_id":"4349764216","tag":{"amenity":"waste_basket"}},"type":"Feature"},
	{"geometry":{"coordinates":[7.157983,46.793127],"type":"Point"},"properties":{"osm_id":"4782517278","tag":{"amenity":"waste_basket"}},"type":"Feature"},
	{"geometry":{"coordinates":[7.157207,46.792888],"type":"Point"},"properties":{"osm_id":"4783026172","tag":{"amenity":"waste_basket","recycling:PET":"yes","recycling:aluminium":"yes"}},"type":"Feature"},
	{"geometry":{"coordinates":[7.156549,46.797334],"type":"Point"},"properties":{"osm_id":"4783101396","tag":{"amenity":"waste_basket"}},"type":"Feature"},
	{"geometry":{"coordinates":[7.153684,46.799577],"type":"Point"},"properties":{"osm_id":"5370482091","tag":{"amenity":"waste_basket"}},"type":"Feature"},
	{"geometry":{"coordinates":[7.153444,46.797987],"type":"Point"},"properties":{"osm_id":"5371992051","tag":{"amenity":"waste_basket"}},"type":"Feature"},
	{"geometry":{"coordinates":[7.155223,46.794076],"type":"Point"},"properties":{"osm_id":"5372002065","tag":{"amenity":"waste_basket"}},"type":"Feature"},
	{"geometry":{"coordinates":[7.157279,46.794471],"type":"Point"},"properties":{"osm_id":"5372347897","tag":{"amenity":"waste_basket"}},"type":"Feature"},
	{"geometry":{"coordinates":[7.158792,46.795242],"type":"Point"},"properties":{"osm_id":"5372347908","tag":{"amenity":"waste_basket"}},"type":"Feature"},
	{"geometry":{"coordinates":[7.152973,46.797393],"type":"Point"},"properties":{"osm_id":"5488766444","tag":{"amenity":"waste_basket"}},"type":"Feature"},
	{"geometry":{"coordinates":[7.153609,46.798115],"type":"Point"},"properties":{"osm_id":"5488766445","tag":{"amenity":"waste_basket"}},"type":"Feature"},
	{"geometry":{"coordinates":[7.153116,46.797764],"type":"Point"},"properties":{"osm_id":"5488766447","tag":{"amenity":"waste_basket"}},"type":"Feature"},
	{"geometry":{"coordinates":[7.156881,46.792946],"type":"Point"},"properties":{"osm_id":"5542857180","tag":{"amenity":"waste_basket"}},"type":"Feature"},
	{"geometry":{"coordinates":[7.141633,46.779373],"type":"Point"},"properties":{"osm_id":"7294974031","tag":{"amenity":"waste_basket"}},"type":"Feature"},
	{"geometry":{"coordinates":[7.139884,46.776128],"type":"Point"},"properties":{"osm_id":"7294974035","tag":{"amenity":"waste_basket","waste":"dog_excrement"}},"type":"Feature"},
	{"geometry":{"coordinates":[7.158973,46.792893],"type":"Point"},"properties":{"osm_id":"7579904819","tag":{"amenity":"waste_basket"}},"type":"Feature"},
	{"geometry":{"coordinates":[7.157105,46.800014],"type":"Point"},"properties":{"osm_id":"7835690321","tag":{"amenity":"waste_basket"}},"type":"Feature"},
	{"geometry":{"coordinates":[7.15757,46.79941],"type":"Point"},"properties":{"osm_id":"7835690326","tag":{"amenity":"waste_basket"}},"type":"Feature"},
	{"geometry":{"coordinates":[7.158995,46.79912],"type":"Point"},"properties":{"osm_id":"7835690327","tag":{"amenity":"waste_basket"}},"type":"Feature"},
	{"geometry":{"coordinates":[7.12772,46.797653],"type":"Point"},"properties":{"osm_id":"8909568569","tag":{"amenity":"waste_basket"}},"type":"Feature"},
	{"geometry":{"coordinates":[7.128292,46.79746],"type":"Point"},"properties":{"osm_id":"8910197704","tag":{"amenity":"waste_basket"}},"type":"Feature"},
	{"geometry":{"coordinates":[7.125517,46.797135],"type":"Point"},"properties":{"osm_id":"8910213524","tag":{"amenity":"waste_basket"}},"type":"Feature"},
	{"geometry":{"coordinates":[7.12693,46.797471],"type":"Point"},"properties":{"osm_id":"8910255284","tag":{"amenity":"waste_basket"}},"type":"Feature"},
	{"geometry":{"coordinates":[7.168197,46.799707],"type":"Point"},"properties":{"osm_id":"8975115534","tag":{"amenity":"waste_basket"}},"type":"Feature"},
	{"geometry":{"coordinates":[7.151319,46.789826],"type":"Point"},"properties":{"osm_id":"9038482311","tag":{"amenity":"waste_basket"}},"type":"Feature"},
	{"geometry":{"coordinates":[7.15554,46.784074],"type":"Point"},"properties":{"osm_id":"9038691492","tag":{"amenity":"waste_disposal"}},"type":"Feature"}
]
}
