{
"type": "FeatureCollection",
"features": [
	{"geometry":{"coordinates":[7.138591,46.478171],"type":"Point"},"properties":{"osm_id":"1007618898","tag":{"amenity":"recycling","recycling:paper":"yes"}},"type":"Feature"},
	{"geometry":{"coordinates":[7.125393,46.472217],"type":"Point"},"properties":{"name":"Le Petit-Pr\u00c3\u00a9","osm_id":"2420265365","tag":{"amenity":"recycling","recycling:cans":"yes","recycling:glass":"yes","recycling:paper":"yes"}},"type":"Feature"},
	{"geometry":{"coordinates":[7.125413,46.472272],"type":"Point"},"properties":{"osm_id":"2420265366","tag":{"amenity":"waste_disposal","waste":"trash"}},"type":"Feature"},
	{"geometry":{"coordinates":[7.136141,46.4735],"type":"Point"},"properties":{"osm_id":"2680573036","tag":{"amenity":"waste_disposal"}},"type":"Feature"},
	{"geometry":{"coordinates":[7.126849,46.474298],"type":"Point"},"properties":{"osm_id":"7118838925","tag":{"amenity":"waste_basket","waste":"dog_excrement"}},"type":"Feature"},
	{"geometry":{"coordinates":[7.158522,46.470018],"type":"Point"},"properties":{"osm_id":"9189970143","tag":{"amenity":"waste_basket"}},"type":"Feature"}
]
}
