{
"type": "FeatureCollection",
"features": [
	{"geometry":{"coordinates":[7.201108,46.083123],"type":"Point"},"properties":{"name":"Centre de tri du Ch\u00c3\u00a2ble","osm_id":"303397566","tag":{"amenity":"recycling"}},"type":"Feature"},
	{"geometry":{"coordinates":[7.16235,46.082793],"type":"Point"},"properties":{"osm_id":"892666121","tag":{"amenity":"recycling","recycling:clothes":"yes","recycling:glass":"yes"}},"type":"Feature"},
	{"geometry":{"coordinates":[7.169992,46.086838],"type":"Point"},"properties":{"osm_id":"892666161","tag":{"amenity":"waste_basket"}},"type":"Feature"},
	{"geometry":{"coordinates":[7.167473,46.087634],"type":"Point"},"properties":{"osm_id":"892666179","tag":{"amenity":"waste_basket"}},"type":"Feature"},
	{"geometry":{"coordinates":[7.165269,46.086491],"type":"Point"},"properties":{"osm_id":"892666198","tag":{"amenity":"waste_basket"}},"type":"Feature"},
	{"geometry":{"coordinates":[7.16994,46.086859],"type":"Point"},"properties":{"osm_id":"892666209","tag":{"amenity":"recycling","recycling:glass":"yes","recycling:paper":"yes","recycling:plastic_bottles":"yes"}},"type":"Feature"},
	{"geometry":{"coordinates":[7.162436,46.082758],"type":"Point"},"properties":{"osm_id":"892666215","tag":{"amenity":"waste_basket"}},"type":"Feature"},
	{"geometry":{"coordinates":[7.119552,46.13384],"type":"Point"},"properties":{"osm_id":"920565902","tag":{"amenity":"recycling","recycling:clothes":"yes","recycling:glass":"yes","recycling:paper":"yes"}},"type":"Feature"},
	{"geometry":{"coordinates":[7.119415,46.133785],"type":"Point"},"properties":{"osm_id":"920566009","tag":{"amenity":"waste_disposal"}},"type":"Feature"},
	{"geometry":{"coordinates":[7.197394,46.083185],"type":"Point"},"properties":{"osm_id":"1269639355","tag":{"amenity":"recycling","recycling:organic":"yes"}},"type":"Feature"},
	{"geometry":{"coordinates":[7.163028,46.097361],"type":"Point"},"properties":{"osm_id":"1269671572","tag":{"amenity":"waste_basket"}},"type":"Feature"},
	{"geometry":{"coordinates":[7.162993,46.097379],"type":"Point"},"properties":{"osm_id":"1269671579","tag":{"amenity":"recycling","recycling:glass":"yes","recycling:paper":"yes","recycling:plastic_bottles":"yes"}},"type":"Feature"},
	{"geometry":{"coordinates":[7.164911,46.087408],"type":"Point"},"properties":{"osm_id":"1433739565","tag":{"amenity":"waste_basket"}},"type":"Feature"},
	{"geometry":{"coordinates":[7.156542,46.077913],"type":"Point"},"properties":{"osm_id":"1439621714","tag":{"amenity":"waste_disposal","waste":"trash"}},"type":"Feature"},
	{"geometry":{"coordinates":[7.156585,46.077909],"type":"Point"},"properties":{"osm_id":"1439621715","tag":{"amenity":"recycling","recycling:glass":"yes","recycling:paper":"yes","recycling:plastic_bottles":"yes","recycling_type":"container"}},"type":"Feature"},
	{"geometry":{"coordinates":[7.179343,46.088164],"type":"Point"},"properties":{"osm_id":"2428783069","tag":{"amenity":"recycling","recycling:garden_waste":"yes","recycling:green_waste":"yes","recycling_type":"container"}},"type":"Feature"},
	{"geometry":{"coordinates":[7.153557,46.076948],"type":"Point"},"properties":{"osm_id":"6541305789","tag":{"amenity":"waste_disposal"}},"type":"Feature"}
]
}
