{
"type": "FeatureCollection",
"features": [
	{"geometry":{"coordinates":[7.154872,46.062065],"type":"Point"},"properties":{"osm_id":"761783751","tag":{"amenity":"recycling","location":"underground","recycling:PET":"yes","recycling:green_waste":"yes","recycling:paper":"yes","recycling:plastic_bottles":"yes","recycling_type":"container"}},"type":"Feature"},
	{"geometry":{"coordinates":[7.154571,46.060172],"type":"Point"},"properties":{"osm_id":"761783879","tag":{"amenity":"recycling","location":"underground","recycling:glass_bottles":"yes","recycling_type":"container"}},"type":"Feature"},
	{"geometry":{"coordinates":[7.199677,46.06256],"type":"Point"},"properties":{"osm_id":"845559713","tag":{"amenity":"recycling","recycling:glass":"yes","recycling:paper":"yes","recycling:plastic_bottles":"yes"}},"type":"Feature"},
	{"geometry":{"coordinates":[7.194575,46.061068],"type":"Point"},"properties":{"osm_id":"845559759","tag":{"amenity":"recycling","recycling:glass":"yes"}},"type":"Feature"},
	{"geometry":{"coordinates":[7.199677,46.062523],"type":"Point"},"properties":{"osm_id":"845559780","tag":{"amenity":"waste_basket"}},"type":"Feature"},
	{"geometry":{"coordinates":[7.140977,46.047277],"type":"Point"},"properties":{"osm_id":"990368779","tag":{"amenity":"waste_basket"}},"type":"Feature"},
	{"geometry":{"coordinates":[7.154894,46.062078],"type":"Point"},"properties":{"osm_id":"990368793","tag":{"amenity":"waste_basket"}},"type":"Feature"},
	{"geometry":{"coordinates":[7.154603,46.060167],"type":"Point"},"properties":{"osm_id":"990368809","tag":{"amenity":"waste_basket"}},"type":"Feature"},
	{"geometry":{"coordinates":[7.146789,46.064739],"type":"Point"},"properties":{"osm_id":"1763614866","tag":{"amenity":"recycling","recycling:glass":"yes","recycling:paper":"yes","recycling:plastic_bottles":"yes"}},"type":"Feature"},
	{"geometry":{"coordinates":[7.146819,46.064764],"type":"Point"},"properties":{"osm_id":"1763614873","tag":{"amenity":"waste_basket"}},"type":"Feature"},
	{"geometry":{"coordinates":[7.149116,46.05163],"type":"Point"},"properties":{"osm_id":"1970565299","tag":{"amenity":"waste_basket"}},"type":"Feature"},
	{"geometry":{"coordinates":[7.149571,46.052573],"type":"Point"},"properties":{"osm_id":"1970565311","tag":{"amenity":"recycling","recycling:plastic_bottles":"yes","recycling_type":"container"}},"type":"Feature"},
	{"geometry":{"coordinates":[7.149571,46.05261],"type":"Point"},"properties":{"osm_id":"1970565316","tag":{"amenity":"waste_basket"}},"type":"Feature"},
	{"geometry":{"coordinates":[7.144528,46.027974],"type":"Point"},"properties":{"osm_id":"7508442974","tag":{"amenity":"waste_disposal","mapillary":"iOPchVbqZ3A1I-BiOVENPw"}},"type":"Feature"},
	{"geometry":{"coordinates":[7.146228,46.031706],"type":"Point"},"properties":{"osm_id":"7508442980","tag":{"amenity":"waste_disposal","mapillary":"qB9JfQw1Ep6RrHg27GJ_cQ"}},"type":"Feature"},
	{"geometry":{"coordinates":[7.152747,46.035432],"type":"Point"},"properties":{"osm_id":"7527922982","tag":{"amenity":"waste_disposal"}},"type":"Feature"},
	{"geometry":{"coordinates":[7.152789,46.035429],"type":"Point"},"properties":{"osm_id":"7527922983","tag":{"amenity":"recycling","recycling:cans":"yes","recycling:clothes":"yes","recycling:green_waste":"yes","recycling_type":"container"}},"type":"Feature"},
	{"geometry":{"coordinates":[7.144757,46.022791],"type":"Point"},"properties":{"osm_id":"7801699288","tag":{"access":"yes","amenity":"waste_disposal","collection_times":"24h/7","waste":"recycling;plastic;organic;trash"}},"type":"Feature"}
]
}
