{
"type": "FeatureCollection",
"features": [
	{"geometry":{"coordinates":[7.184398,44.579474],"type":"Point"},"properties":{"osm_id":"4704211199","tag":{"amenity":"recycling","recycling_type":"container"}},"type":"Feature"},
	{"geometry":{"coordinates":[7.1847,44.579399],"type":"Point"},"properties":{"osm_id":"4704211200","tag":{"amenity":"recycling","recycling_type":"container"}},"type":"Feature"},
	{"geometry":{"coordinates":[7.189831,44.579369],"type":"Point"},"properties":{"osm_id":"4704211224","tag":{"amenity":"recycling","recycling_type":"container"}},"type":"Feature"},
	{"geometry":{"coordinates":[7.189089,44.579424],"type":"Point"},"properties":{"osm_id":"4704211228","tag":{"amenity":"waste_disposal"}},"type":"Feature"},
	{"geometry":{"coordinates":[7.167231,44.582428],"type":"Point"},"properties":{"osm_id":"4704378068","tag":{"amenity":"recycling","recycling_type":"container"}},"type":"Feature"},
	{"geometry":{"coordinates":[7.145145,44.583884],"type":"Point"},"properties":{"osm_id":"4704378319","tag":{"amenity":"waste_disposal"}},"type":"Feature"},
	{"geometry":{"coordinates":[7.154549,44.580016],"type":"Point"},"properties":{"osm_id":"6201852674","tag":{"amenity":"recycling","recycling_type":"container"}},"type":"Feature"},
	{"geometry":{"coordinates":[7.202439,44.588465],"type":"Point"},"properties":{"osm_id":"6227740436","tag":{"amenity":"recycling","recycling_type":"container"}},"type":"Feature"}
]
}
