{
"type": "FeatureCollection",
"features": [
	{"geometry":{"coordinates":[7.128167,43.583059],"type":"Point"},"properties":{"osm_id":"364738735","tag":{"amenity":"recycling"}},"type":"Feature"},
	{"geometry":{"coordinates":[7.125501,43.583286],"type":"Point"},"properties":{"osm_id":"364738751","tag":{"amenity":"recycling"}},"type":"Feature"},
	{"geometry":{"coordinates":[7.119959,43.596672],"type":"Point"},"properties":{"osm_id":"549867910","tag":{"amenity":"recycling","recycling:glass":"yes"}},"type":"Feature"},
	{"geometry":{"coordinates":[7.121698,43.581582],"type":"Point"},"properties":{"osm_id":"577296588","tag":{"amenity":"recycling"}},"type":"Feature"},
	{"geometry":{"coordinates":[7.122903,43.581822],"type":"Point"},"properties":{"osm_id":"577296589","tag":{"amenity":"recycling"}},"type":"Feature"},
	{"geometry":{"coordinates":[7.123504,43.58387],"type":"Point"},"properties":{"osm_id":"577296590","tag":{"amenity":"recycling"}},"type":"Feature"},
	{"geometry":{"coordinates":[7.125723,43.583702],"type":"Point"},"properties":{"osm_id":"615200188","tag":{"amenity":"recycling"}},"type":"Feature"},
	{"geometry":{"coordinates":[7.122746,43.59448],"type":"Point"},"properties":{"osm_id":"627280080","tag":{"amenity":"recycling","recycling:glass":"yes","recycling:paper":"yes"}},"type":"Feature"},
	{"geometry":{"coordinates":[7.121941,43.599956],"type":"Point"},"properties":{"osm_id":"809928305","tag":{"amenity":"recycling","location":"underground","recycling:cans":"yes","recycling:clothes":"yes","recycling:glass":"yes","recycling:paper":"yes","recycling:plastic":"yes","recycling_type":"container"}},"type":"Feature"},
	{"geometry":{"coordinates":[7.142988,43.641066],"type":"Point"},"properties":{"osm_id":"1619183438","tag":{"amenity":"recycling","recycling:glass":"yes"}},"type":"Feature"},
	{"geometry":{"coordinates":[7.123693,43.582226],"type":"Point"},"properties":{"osm_id":"1660425860","tag":{"amenity":"recycling","recycling:batteries":"no","recycling:clothes":"no","recycling:glass_bottles":"yes","recycling:green_waste":"no","recycling:paper":"yes","recycling:plastic":"yes","recycling_type":"container"}},"type":"Feature"},
	{"geometry":{"coordinates":[7.121764,43.584683],"type":"Point"},"properties":{"osm_id":"3040196013","tag":{"amenity":"waste_basket"}},"type":"Feature"},
	{"geometry":{"coordinates":[7.122326,43.58044],"type":"Point"},"properties":{"osm_id":"3044190539","tag":{"amenity":"waste_basket"}},"type":"Feature"},
	{"geometry":{"coordinates":[7.122982,43.581306],"type":"Point"},"properties":{"osm_id":"3667399609","tag":{"amenity":"waste_basket"}},"type":"Feature"},
	{"geometry":{"coordinates":[7.123002,43.581522],"type":"Point"},"properties":{"osm_id":"3667399623","tag":{"amenity":"waste_basket"}},"type":"Feature"},
	{"geometry":{"coordinates":[7.11991,43.58609],"type":"Point"},"properties":{"osm_id":"4009232902","tag":{"amenity":"waste_basket"}},"type":"Feature"},
	{"geometry":{"coordinates":[7.119941,43.586169],"type":"Point"},"properties":{"osm_id":"4009232903","tag":{"amenity":"waste_basket"}},"type":"Feature"},
	{"geometry":{"coordinates":[7.119201,43.585186],"type":"Point"},"properties":{"osm_id":"4009232913","tag":{"amenity":"waste_basket"}},"type":"Feature"},
	{"geometry":{"coordinates":[7.119224,43.585253],"type":"Point"},"properties":{"osm_id":"4009232914","tag":{"amenity":"waste_basket"}},"type":"Feature"},
	{"geometry":{"coordinates":[7.119152,43.585532],"type":"Point"},"properties":{"osm_id":"4009232917","tag":{"amenity":"waste_basket"}},"type":"Feature"},
	{"geometry":{"coordinates":[7.119308,43.585957],"type":"Point"},"properties":{"osm_id":"4009232918","tag":{"amenity":"waste_basket"}},"type":"Feature"},
	{"geometry":{"coordinates":[7.119207,43.585685],"type":"Point"},"properties":{"osm_id":"4009232919","tag":{"amenity":"waste_basket"}},"type":"Feature"},
	{"geometry":{"coordinates":[7.119297,43.585929],"type":"Point"},"properties":{"osm_id":"4009232921","tag":{"amenity":"waste_basket"}},"type":"Feature"},
	{"geometry":{"coordinates":[7.119164,43.586753],"type":"Point"},"properties":{"osm_id":"4009232940","tag":{"amenity":"waste_basket"}},"type":"Feature"},
	{"geometry":{"coordinates":[7.119393,43.586175],"type":"Point"},"properties":{"osm_id":"4009232946","tag":{"amenity":"waste_basket"}},"type":"Feature"},
	{"geometry":{"coordinates":[7.119606,43.586303],"type":"Point"},"properties":{"osm_id":"4009232949","tag":{"amenity":"waste_basket"}},"type":"Feature"},
	{"geometry":{"coordinates":[7.119456,43.586333],"type":"Point"},"properties":{"osm_id":"4009232952","tag":{"amenity":"waste_basket"}},"type":"Feature"},
	{"geometry":{"coordinates":[7.126237,43.610404],"type":"Point"},"properties":{"osm_id":"4010782647","tag":{"amenity":"waste_basket"}},"type":"Feature"},
	{"geometry":{"coordinates":[7.126291,43.610555],"type":"Point"},"properties":{"osm_id":"4010782649","tag":{"amenity":"waste_basket"}},"type":"Feature"},
	{"geometry":{"coordinates":[7.126004,43.610442],"type":"Point"},"properties":{"osm_id":"4010782652","tag":{"amenity":"waste_basket"}},"type":"Feature"},
	{"geometry":{"coordinates":[7.126057,43.610588],"type":"Point"},"properties":{"osm_id":"4010782654","tag":{"amenity":"waste_basket"}},"type":"Feature"},
	{"geometry":{"coordinates":[7.126406,43.610841],"type":"Point"},"properties":{"osm_id":"4010782656","tag":{"amenity":"waste_basket"}},"type":"Feature"},
	{"geometry":{"coordinates":[7.126143,43.61085],"type":"Point"},"properties":{"osm_id":"4010782658","tag":{"amenity":"waste_basket"}},"type":"Feature"},
	{"geometry":{"coordinates":[7.126073,43.611072],"type":"Point"},"properties":{"osm_id":"4010782660","tag":{"amenity":"waste_basket"}},"type":"Feature"},
	{"geometry":{"coordinates":[7.126092,43.611004],"type":"Point"},"properties":{"osm_id":"4010782664","tag":{"amenity":"waste_basket"}},"type":"Feature"},
	{"geometry":{"coordinates":[7.133945,43.629747],"type":"Point"},"properties":{"osm_id":"4010799675","tag":{"amenity":"waste_basket"}},"type":"Feature"},
	{"geometry":{"coordinates":[7.133819,43.629498],"type":"Point"},"properties":{"osm_id":"4010799676","tag":{"amenity":"waste_basket"}},"type":"Feature"},
	{"geometry":{"coordinates":[7.134196,43.629809],"type":"Point"},"properties":{"osm_id":"4010799685","tag":{"amenity":"waste_basket"}},"type":"Feature"},
	{"geometry":{"coordinates":[7.134078,43.629561],"type":"Point"},"properties":{"osm_id":"4010799687","tag":{"amenity":"waste_basket"}},"type":"Feature"},
	{"geometry":{"coordinates":[7.134127,43.629118],"type":"Point"},"properties":{"osm_id":"4010799692","tag":{"amenity":"waste_basket"}},"type":"Feature"},
	{"geometry":{"coordinates":[7.134204,43.629274],"type":"Point"},"properties":{"osm_id":"4010799694","tag":{"amenity":"waste_basket"}},"type":"Feature"},
	{"geometry":{"coordinates":[7.13262,43.643248],"type":"Point"},"properties":{"osm_id":"4197641085","tag":{"amenity":"waste_disposal"}},"type":"Feature"},
	{"geometry":{"coordinates":[7.120126,43.594412],"type":"Point"},"properties":{"osm_id":"4920069179","tag":{"amenity":"recycling","recycling:bin":"yes","recycling:cans":"yes","recycling:glass":"yes","recycling:paper":"yes","recycling_type":"container"}},"type":"Feature"},
	{"geometry":{"coordinates":[7.125814,43.620345],"type":"Point"},"properties":{"osm_id":"6408513275","tag":{"amenity":"recycling","recycling:glass":"yes","recycling_type":"container"}},"type":"Feature"},
	{"geometry":{"coordinates":[7.125833,43.620262],"type":"Point"},"properties":{"osm_id":"6408513281","tag":{"access":"customers","amenity":"waste_disposal"}},"type":"Feature"},
	{"geometry":{"coordinates":[7.125826,43.620328],"type":"Point"},"properties":{"osm_id":"6433757698","tag":{"amenity":"recycling","recycling:packaging":"yes","recycling:paper":"yes","recycling_type":"container"}},"type":"Feature"},
	{"geometry":{"coordinates":[7.126722,43.615694],"type":"Point"},"properties":{"osm_id":"6443063169","tag":{"amenity":"waste_basket"}},"type":"Feature"},
	{"geometry":{"coordinates":[7.123757,43.616238],"type":"Point"},"properties":{"osm_id":"6443220202","tag":{"amenity":"recycling","recycling:cans":"yes","recycling:paper":"yes","recycling_type":"container"}},"type":"Feature"},
	{"geometry":{"coordinates":[7.123781,43.616239],"type":"Point"},"properties":{"osm_id":"6443220203","tag":{"amenity":"recycling","recycling:glass":"yes","recycling_type":"container"}},"type":"Feature"},
	{"geometry":{"coordinates":[7.124101,43.61627],"type":"Point"},"properties":{"osm_id":"6443220207","tag":{"amenity":"waste_basket"}},"type":"Feature"},
	{"geometry":{"coordinates":[7.123881,43.616236],"type":"Point"},"properties":{"osm_id":"6443220208","tag":{"amenity":"recycling","recycling:clothes":"yes","recycling_type":"container"}},"type":"Feature"},
	{"geometry":{"coordinates":[7.125209,43.61677],"type":"Point"},"properties":{"osm_id":"6465213890","tag":{"amenity":"waste_basket"}},"type":"Feature"},
	{"geometry":{"coordinates":[7.125207,43.616764],"type":"Point"},"properties":{"osm_id":"6465213891","tag":{"amenity":"recycling","recycling_type":"container"}},"type":"Feature"},
	{"geometry":{"coordinates":[7.12589,43.614767],"type":"Point"},"properties":{"osm_id":"6466848590","tag":{"amenity":"recycling","material":"wood","recycling_type":"container"}},"type":"Feature"},
	{"geometry":{"coordinates":[7.125878,43.614768],"type":"Point"},"properties":{"osm_id":"6466848591","tag":{"amenity":"waste_basket","material":"wood"}},"type":"Feature"},
	{"geometry":{"coordinates":[7.124374,43.583179],"type":"Point"},"properties":{"osm_id":"6537345830","tag":{"amenity":"recycling"}},"type":"Feature"},
	{"geometry":{"coordinates":[7.119799,43.583975],"type":"Point"},"properties":{"osm_id":"7552558433","tag":{"amenity":"recycling","recycling:cardboard":"yes","recycling_type":"container","waste":"cardboa"}},"type":"Feature"},
	{"geometry":{"coordinates":[7.119843,43.583959],"type":"Point"},"properties":{"osm_id":"7552558434","tag":{"amenity":"recycling","recycling:glass":"yes","recycling_type":"container"}},"type":"Feature"}
]
}
