{
"type": "FeatureCollection",
"features": [
	{"geometry":{"coordinates":[12.757816,56.068418],"type":"Point"},"properties":{"barrier":"gate","osm_id":"559823868","tag":{"access":"yes","bicycle":"yes","foot":"yes","motorcar":"yes"}},"type":"Feature"},
	{"geometry":{"coordinates":[12.807759,56.02863],"type":"Point"},"properties":{"osm_id":"1566879526","tag":{"amenity":"recycling","recycling:cans":"yes","recycling:clothes":"yes","recycling:glass_bottles":"yes","recycling:magazines":"yes","recycling:newspaper":"yes","recycling:paper_packaging":"yes","recycling:plastic_bags":"yes","recycling:plastic_bottles":"yes","recycling_type":"container"}},"type":"Feature"},
	{"geometry":{"coordinates":[12.815021,56.029745],"type":"Point"},"properties":{"osm_id":"1742197057","tag":{"amenity":"recycling","recycling:clothes":"yes","recycling_type":"container"}},"type":"Feature"},
	{"geometry":{"coordinates":[12.78667,56.065945],"type":"Point"},"properties":{"osm_id":"4023664748","tag":{"amenity":"waste_basket"}},"type":"Feature"},
	{"geometry":{"coordinates":[12.786998,56.066136],"type":"Point"},"properties":{"osm_id":"4023664752","tag":{"amenity":"waste_basket"}},"type":"Feature"},
	{"geometry":{"coordinates":[12.755145,56.037147],"type":"Point"},"properties":{"osm_id":"6234336435","tag":{"amenity":"waste_basket"}},"type":"Feature"},
	{"geometry":{"coordinates":[12.755948,56.039375],"type":"Point"},"properties":{"osm_id":"6234336444","tag":{"amenity":"waste_basket"}},"type":"Feature"},
	{"geometry":{"coordinates":[12.755542,56.039092],"type":"Point"},"properties":{"osm_id":"6234336451","tag":{"amenity":"waste_basket"}},"type":"Feature"},
	{"geometry":{"coordinates":[12.758001,56.062836],"type":"Point"},"properties":{"osm_id":"6736049688","tag":{"amenity":"waste_basket","waste":"trash"}},"type":"Feature"},
	{"geometry":{"coordinates":[12.750523,56.031213],"type":"Point"},"properties":{"osm_id":"7489426017","tag":{"amenity":"waste_basket","waste":"trash"}},"type":"Feature"},
	{"geometry":{"coordinates":[12.751155,56.02652],"type":"Point"},"properties":{"osm_id":"7620690107","tag":{"amenity":"waste_basket"}},"type":"Feature"},
	{"geometry":{"coordinates":[12.752516,56.02689],"type":"Point"},"properties":{"osm_id":"7620690113","tag":{"amenity":"waste_basket"}},"type":"Feature"},
	{"geometry":{"coordinates":[12.747006,56.047566],"type":"Point"},"properties":{"osm_id":"7630260679","tag":{"amenity":"waste_basket"}},"type":"Feature"},
	{"geometry":{"coordinates":[12.747162,56.047481],"type":"Point"},"properties":{"osm_id":"7630260681","tag":{"amenity":"waste_basket"}},"type":"Feature"},
	{"geometry":{"coordinates":[12.745573,56.045108],"type":"Point"},"properties":{"osm_id":"7630260701","tag":{"amenity":"waste_basket"}},"type":"Feature"},
	{"geometry":{"coordinates":[12.744741,56.041651],"type":"Point"},"properties":{"osm_id":"7630260714","tag":{"amenity":"waste_basket"}},"type":"Feature"},
	{"geometry":{"coordinates":[12.744961,56.041613],"type":"Point"},"properties":{"osm_id":"7630260717","tag":{"amenity":"waste_basket"}},"type":"Feature"},
	{"geometry":{"coordinates":[12.745321,56.041959],"type":"Point"},"properties":{"osm_id":"7630260721","tag":{"amenity":"waste_basket"}},"type":"Feature"},
	{"geometry":{"coordinates":[12.745481,56.041799],"type":"Point"},"properties":{"osm_id":"7630260722","tag":{"amenity":"waste_basket"}},"type":"Feature"},
	{"geometry":{"coordinates":[12.750689,56.042194],"type":"Point"},"properties":{"osm_id":"7630260727","tag":{"amenity":"waste_basket"}},"type":"Feature"},
	{"geometry":{"coordinates":[12.751681,56.041984],"type":"Point"},"properties":{"osm_id":"7630260730","tag":{"amenity":"waste_basket"}},"type":"Feature"},
	{"geometry":{"coordinates":[12.745421,56.031272],"type":"Point"},"properties":{"osm_id":"7630260771","tag":{"amenity":"waste_basket"}},"type":"Feature"},
	{"geometry":{"coordinates":[12.75052,56.03111],"type":"Point"},"properties":{"osm_id":"7630260772","tag":{"amenity":"waste_basket"}},"type":"Feature"},
	{"geometry":{"coordinates":[12.758032,56.030441],"type":"Point"},"properties":{"osm_id":"7630260774","tag":{"amenity":"waste_basket"}},"type":"Feature"},
	{"geometry":{"coordinates":[12.759156,56.030493],"type":"Point"},"properties":{"osm_id":"7630260777","tag":{"amenity":"waste_basket"}},"type":"Feature"},
	{"geometry":{"coordinates":[12.744884,56.038539],"type":"Point"},"properties":{"osm_id":"7630451270","tag":{"amenity":"waste_basket"}},"type":"Feature"},
	{"geometry":{"coordinates":[12.778188,56.046949],"type":"Point"},"properties":{"osm_id":"7630451282","tag":{"amenity":"waste_basket"}},"type":"Feature"},
	{"geometry":{"coordinates":[12.780386,56.033267],"type":"Point"},"properties":{"osm_id":"7630451287","tag":{"amenity":"waste_basket"}},"type":"Feature"},
	{"geometry":{"coordinates":[12.764044,56.064648],"type":"Point"},"properties":{"osm_id":"7689056810","tag":{"amenity":"waste_basket"}},"type":"Feature"}
]
}
