{
"type": "FeatureCollection",
"features": [
	{"geometry":{"coordinates":[12.807501,55.897488],"type":"Point"},"properties":{"osm_id":"3077263112","ref":"B","tag":{"amenity":"waste_basket","public_transport":"platform","reg_ref":"82124-B"}},"type":"Feature"},
	{"geometry":{"coordinates":[12.812546,55.884402],"type":"Point"},"properties":{"osm_id":"4334587963","tag":{"amenity":"waste_basket"}},"type":"Feature"},
	{"geometry":{"coordinates":[12.824483,55.891956],"type":"Point"},"properties":{"osm_id":"7527312401","tag":{"amenity":"waste_basket"}},"type":"Feature"},
	{"geometry":{"coordinates":[12.826494,55.896519],"type":"Point"},"properties":{"osm_id":"7527537300","tag":{"amenity":"waste_basket"}},"type":"Feature"},
	{"geometry":{"coordinates":[12.824157,55.902297],"type":"Point"},"properties":{"osm_id":"7527537303","tag":{"amenity":"waste_basket"}},"type":"Feature"},
	{"geometry":{"coordinates":[12.823893,55.90213],"type":"Point"},"properties":{"osm_id":"7527537310","tag":{"amenity":"waste_basket"}},"type":"Feature"},
	{"geometry":{"coordinates":[12.829233,55.876483],"type":"Point"},"properties":{"osm_id":"7527537313","tag":{"amenity":"waste_basket"}},"type":"Feature"},
	{"geometry":{"coordinates":[12.829496,55.879352],"type":"Point"},"properties":{"osm_id":"7527537321","tag":{"amenity":"waste_basket"}},"type":"Feature"},
	{"geometry":{"coordinates":[12.812418,55.884906],"type":"Point"},"properties":{"osm_id":"7527537337","tag":{"amenity":"waste_basket"}},"type":"Feature"},
	{"geometry":{"coordinates":[12.808174,55.896362],"type":"Point"},"properties":{"osm_id":"7527537341","tag":{"amenity":"waste_basket"}},"type":"Feature"},
	{"geometry":{"coordinates":[12.809566,55.892142],"type":"Point"},"properties":{"osm_id":"7527537343","tag":{"amenity":"waste_basket"}},"type":"Feature"},
	{"geometry":{"coordinates":[12.812509,55.898157],"type":"Point"},"properties":{"osm_id":"7527537362","tag":{"amenity":"waste_basket"}},"type":"Feature"},
	{"geometry":{"coordinates":[12.812597,55.898286],"type":"Point"},"properties":{"osm_id":"7527537369","tag":{"amenity":"waste_basket"}},"type":"Feature"},
	{"geometry":{"coordinates":[12.814586,55.895316],"type":"Point"},"properties":{"osm_id":"7527537371","tag":{"amenity":"waste_basket"}},"type":"Feature"},
	{"geometry":{"coordinates":[12.817285,55.889627],"type":"Point"},"properties":{"osm_id":"7527537388","tag":{"amenity":"waste_basket"}},"type":"Feature"},
	{"geometry":{"coordinates":[12.825035,55.886736],"type":"Point"},"properties":{"osm_id":"7527537393","tag":{"amenity":"waste_basket"}},"type":"Feature"}
]
}
