{
"type": "FeatureCollection",
"features": [
	{"geometry":{"coordinates":[12.814519,53.303265],"type":"Point"},"properties":{"osm_id":"460891232","tag":{"amenity":"waste_disposal"}},"type":"Feature"},
	{"geometry":{"coordinates":[12.815499,53.302844],"type":"Point"},"properties":{"osm_id":"460891237","tag":{"amenity":"waste_disposal"}},"type":"Feature"},
	{"geometry":{"coordinates":[12.81506,53.303963],"type":"Point"},"properties":{"osm_id":"460891244","tag":{"amenity":"waste_disposal"}},"type":"Feature"},
	{"geometry":{"coordinates":[12.816871,53.303962],"type":"Point"},"properties":{"osm_id":"460891297","tag":{"amenity":"waste_disposal"}},"type":"Feature"},
	{"geometry":{"coordinates":[12.816797,53.302729],"type":"Point"},"properties":{"osm_id":"460891301","tag":{"amenity":"waste_disposal"}},"type":"Feature"},
	{"geometry":{"coordinates":[12.813007,53.303093],"type":"Point"},"properties":{"osm_id":"460891306","tag":{"amenity":"waste_disposal"}},"type":"Feature"},
	{"geometry":{"coordinates":[12.81215,53.302545],"type":"Point"},"properties":{"osm_id":"461655371","tag":{"amenity":"waste_disposal"}},"type":"Feature"},
	{"geometry":{"coordinates":[12.811974,53.303176],"type":"Point"},"properties":{"osm_id":"461655374","tag":{"amenity":"waste_disposal"}},"type":"Feature"},
	{"geometry":{"coordinates":[12.812314,53.303133],"type":"Point"},"properties":{"osm_id":"461655378","tag":{"amenity":"waste_disposal"}},"type":"Feature"},
	{"geometry":{"coordinates":[12.812059,53.303165],"type":"Point"},"properties":{"osm_id":"461655382","tag":{"amenity":"recycling","location":"overground","recycling:glass":"yes","recycling_type":"container"}},"type":"Feature"},
	{"geometry":{"coordinates":[12.812144,53.303155],"type":"Point"},"properties":{"osm_id":"461655385","tag":{"amenity":"recycling","location":"overground","recycling:glass":"yes","recycling_type":"container"}},"type":"Feature"},
	{"geometry":{"coordinates":[12.812229,53.303144],"type":"Point"},"properties":{"osm_id":"461655393","tag":{"amenity":"recycling","location":"overground","recycling:glass":"yes","recycling_type":"container"}},"type":"Feature"},
	{"geometry":{"coordinates":[12.812303,53.30107],"type":"Point"},"properties":{"osm_id":"461655910","tag":{"amenity":"waste_disposal"}},"type":"Feature"},
	{"geometry":{"coordinates":[12.812282,53.300742],"type":"Point"},"properties":{"osm_id":"461655911","tag":{"amenity":"waste_disposal"}},"type":"Feature"},
	{"geometry":{"coordinates":[12.809629,53.303658],"type":"Point"},"properties":{"osm_id":"477933209","tag":{"amenity":"waste_disposal"}},"type":"Feature"},
	{"geometry":{"coordinates":[12.758158,53.309683],"type":"Point"},"properties":{"osm_id":"1819593840","tag":{"amenity":"recycling","opening_hours":"\"nur Fusion Festival\"","recycling_type":"centre"}},"type":"Feature"},
	{"geometry":{"coordinates":[12.764402,53.319404],"type":"Point"},"properties":{"osm_id":"4954040698","tag":{"amenity":"recycling","recycling_type":"container"}},"type":"Feature"},
	{"geometry":{"coordinates":[12.798668,53.281744],"type":"Point"},"properties":{"osm_id":"5138179521","tag":{"amenity":"waste_basket"}},"type":"Feature"},
	{"geometry":{"coordinates":[12.810544,53.302567],"type":"Point"},"properties":{"osm_id":"6429178158","tag":{"amenity":"waste_disposal"}},"type":"Feature"},
	{"geometry":{"coordinates":[12.807045,53.301792],"type":"Point"},"properties":{"osm_id":"6431655528","tag":{"amenity":"recycling","recycling_type":"container"}},"type":"Feature"}
]
}
