{
"type": "FeatureCollection",
"features": [
	{"geometry":{"coordinates":[12.803871,52.933178],"type":"Point"},"properties":{"osm_id":"331140868","tag":{"amenity":"recycling","recycling:glass":"yes","recycling:glass_bottles":"yes","recycling_type":"container"}},"type":"Feature"},
	{"geometry":{"coordinates":[12.810031,52.940348],"type":"Point"},"properties":{"osm_id":"1621342996","tag":{"amenity":"recycling","operator":"Texaid","recycling:clothes":"yes","recycling:glass":"yes","recycling:glass_bottles":"yes","recycling_type":"container"}},"type":"Feature"},
	{"geometry":{"coordinates":[12.806786,52.93404],"type":"Point"},"properties":{"osm_id":"1621370629","tag":{"amenity":"recycling","recycling:clothes":"yes","recycling_type":"container"}},"type":"Feature"},
	{"geometry":{"coordinates":[12.804271,52.926051],"type":"Point"},"properties":{"osm_id":"1969497921","tag":{"amenity":"recycling","recycling:clothes":"no","recycling:glass":"yes","recycling:paper":"no","recycling:scrap_metal":"no","recycling_type":"container"}},"type":"Feature"},
	{"geometry":{"coordinates":[12.802933,52.919903],"type":"Point"},"properties":{"osm_id":"2487787013","tag":{"amenity":"recycling","recycling:brown_glass":"yes","recycling:glass":"yes","recycling:green_glass":"yes","recycling:white_glass":"yes","recycling_type":"container"}},"type":"Feature"},
	{"geometry":{"coordinates":[12.814962,52.941066],"type":"Point"},"properties":{"osm_id":"2509706389","tag":{"amenity":"recycling","recycling:glass":"yes","recycling_type":"container"}},"type":"Feature"},
	{"geometry":{"coordinates":[12.794872,52.915958],"type":"Point"},"properties":{"osm_id":"2555890887","tag":{"amenity":"recycling","recycling:cans":"yes","recycling:glass_bottles":"yes","recycling:paper":"yes","recycling_type":"container"}},"type":"Feature"},
	{"geometry":{"coordinates":[12.791615,52.917417],"type":"Point"},"properties":{"osm_id":"2555890960","tag":{"amenity":"recycling","recycling:cans":"yes","recycling:glass":"yes","recycling:paper":"yes"}},"type":"Feature"},
	{"geometry":{"coordinates":[12.791694,52.918022],"type":"Point"},"properties":{"osm_id":"2555890971","tag":{"amenity":"recycling","recycling:cans":"yes","recycling:glass":"yes","recycling:paper":"yes"}},"type":"Feature"},
	{"geometry":{"coordinates":[12.790619,52.918605],"type":"Point"},"properties":{"osm_id":"2555890976","tag":{"amenity":"recycling","recycling:cans":"yes","recycling:glass":"yes","recycling:paper":"yes"}},"type":"Feature"},
	{"geometry":{"coordinates":[12.795573,52.919443],"type":"Point"},"properties":{"osm_id":"2555891002","tag":{"amenity":"recycling","recycling:cans":"yes","recycling:glass_bottles":"yes","recycling:paper":"yes","recycling_type":"container"}},"type":"Feature"},
	{"geometry":{"coordinates":[12.78946,52.919686],"type":"Point"},"properties":{"osm_id":"2555891039","tag":{"amenity":"recycling","recycling:cans":"yes","recycling:glass":"yes","recycling:paper":"yes"}},"type":"Feature"},
	{"geometry":{"coordinates":[12.828663,52.926763],"type":"Point"},"properties":{"osm_id":"2836035302","tag":{"amenity":"recycling","recycling:glass":"yes"}},"type":"Feature"},
	{"geometry":{"coordinates":[12.824601,52.921218],"type":"Point"},"properties":{"osm_id":"2874005137","tag":{"amenity":"recycling","recycling:cans":"no","recycling:clothes":"no","recycling:glass":"yes"}},"type":"Feature"},
	{"geometry":{"coordinates":[12.815303,52.926691],"type":"Point"},"properties":{"osm_id":"2874006265","tag":{"amenity":"recycling","recycling:cans":"no","recycling:clothes":"yes","recycling:glass":"no","recycling:paper":"no"}},"type":"Feature"},
	{"geometry":{"coordinates":[12.801302,52.915458],"type":"Point"},"properties":{"osm_id":"3398627945","tag":{"amenity":"recycling","operator":"illegal","recycling:clothes":"yes","recycling:shoes":"yes","recycling_type":"container"}},"type":"Feature"},
	{"geometry":{"coordinates":[12.80174,52.912073],"type":"Point"},"properties":{"osm_id":"6289071068","tag":{"amenity":"recycling","recycling:cans":"yes","recycling:glass_bottles":"yes","recycling:paper":"yes","recycling:scrap_metal":"yes","recycling_type":"container"}},"type":"Feature"},
	{"geometry":{"coordinates":[12.798348,52.923699],"type":"Point"},"properties":{"osm_id":"6289071069","tag":{"amenity":"recycling","recycling:cans":"yes","recycling:glass_bottles":"yes","recycling:paper":"yes","recycling:scrap_metal":"yes","recycling_type":"container"}},"type":"Feature"},
	{"geometry":{"coordinates":[12.799225,52.9297],"type":"Point"},"properties":{"osm_id":"6289071070","tag":{"amenity":"recycling","recycling:cans":"yes","recycling:glass_bottles":"yes","recycling:paper":"yes","recycling:scrap_metal":"yes","recycling_type":"container"}},"type":"Feature"},
	{"geometry":{"coordinates":[12.804018,52.927966],"type":"Point"},"properties":{"osm_id":"6289071071","tag":{"amenity":"recycling","recycling:cans":"yes","recycling:glass_bottles":"yes","recycling:paper":"yes","recycling:scrap_metal":"yes","recycling_type":"container"}},"type":"Feature"},
	{"geometry":{"coordinates":[12.811858,52.925457],"type":"Point"},"properties":{"osm_id":"6289071072","tag":{"amenity":"recycling","recycling:cans":"yes","recycling:glass_bottles":"yes","recycling:paper":"yes","recycling:scrap_metal":"yes","recycling_type":"container"}},"type":"Feature"},
	{"geometry":{"coordinates":[12.8084,52.92868],"type":"Point"},"properties":{"osm_id":"6289071073","tag":{"amenity":"recycling","recycling:cans":"yes","recycling:glass_bottles":"yes","recycling:paper":"yes","recycling:scrap_metal":"yes","recycling_type":"container"}},"type":"Feature"},
	{"geometry":{"coordinates":[12.813394,52.928152],"type":"Point"},"properties":{"osm_id":"6289071074","tag":{"amenity":"recycling","recycling:cans":"yes","recycling:glass_bottles":"yes","recycling:paper":"yes","recycling:scrap_metal":"yes","recycling_type":"container"}},"type":"Feature"},
	{"geometry":{"coordinates":[12.80363,52.919361],"type":"Point"},"properties":{"osm_id":"6516869332","tag":{"amenity":"waste_disposal"}},"type":"Feature"},
	{"geometry":{"coordinates":[12.798851,52.914722],"type":"Point"},"properties":{"osm_id":"6813511355","tag":{"access":"private","amenity":"waste_disposal","description":"auch f\u00c3\u00bcr Lebensmittel. F\u00c3\u00bcr Au\u00c3\u009fenstehende schwer ran zu kommen, aber nicht unm\u00c3\u00b6glich.","operator":"PENNY"}},"type":"Feature"},
	{"geometry":{"coordinates":[12.803745,52.925175],"type":"Point"},"properties":{"osm_id":"6813514014","tag":{"access":"private","amenity":"waste_disposal","colour":"schwartz","description":"unter anderem f\u00c3\u00bcr Lebensmittel","operator":"NP-Markt"}},"type":"Feature"},
	{"geometry":{"coordinates":[12.803524,52.925246],"type":"Point"},"properties":{"osm_id":"6813514015","tag":{"amenity":"waste_basket","colour":"rot","description":"f\u00c3\u00bcr Lebensmittel (viele Backwaren)","indoor":"no","material":"plastic","operator":"NP-Markt"}},"type":"Feature"},
	{"geometry":{"coordinates":[12.803624,52.925214],"type":"Point"},"properties":{"name":"Hausm\u00c3\u00bcll","osm_id":"6813514016","tag":{"access":"private","amenity":"waste_disposal"}},"type":"Feature"},
	{"geometry":{"coordinates":[12.803583,52.925235],"type":"Point"},"properties":{"name":"Hausm\u00c3\u00bcll","osm_id":"6813514017","tag":{"amenity":"waste_basket","material":"plastic"}},"type":"Feature"},
	{"geometry":{"coordinates":[12.78699,52.915456],"type":"Point"},"properties":{"osm_id":"6928042383","tag":{"amenity":"recycling","operator":"legal","recycling:clothes":"yes","recycling_type":"container"}},"type":"Feature"},
	{"geometry":{"coordinates":[12.786486,52.917283],"type":"Point"},"properties":{"osm_id":"6928044723","tag":{"amenity":"recycling","operator":"legal","recycling:clothes":"yes","recycling_type":"container"}},"type":"Feature"},
	{"geometry":{"coordinates":[12.802246,52.915987],"type":"Point"},"properties":{"osm_id":"6935164971","tag":{"amenity":"recycling","operator":"DRK","recycling_type":"container"}},"type":"Feature"},
	{"geometry":{"coordinates":[12.797001,52.922795],"type":"Point"},"properties":{"osm_id":"6935172380","tag":{"amenity":"recycling","operator":"illegal","recycling:clothes":"yes","recycling_type":"container"}},"type":"Feature"},
	{"geometry":{"coordinates":[12.81564,52.939007],"type":"Point"},"properties":{"osm_id":"6935219409","tag":{"amenity":"recycling","operator":"illegal","recycling:clothes":"yes","recycling_type":"container"}},"type":"Feature"},
	{"geometry":{"coordinates":[12.812536,52.940276],"type":"Point"},"properties":{"osm_id":"6935229682","tag":{"amenity":"recycling","operator":"DRK","recycling:clothes":"yes","recycling_type":"container"}},"type":"Feature"},
	{"geometry":{"coordinates":[12.772669,52.913447],"type":"Point"},"properties":{"osm_id":"6935851008","tag":{"amenity":"recycling","operator":"illegal","recycling:clothes":"yes","recycling_type":"container"}},"type":"Feature"},
	{"geometry":{"coordinates":[12.797526,52.912275],"type":"Point"},"properties":{"osm_id":"6938125394","tag":{"amenity":"recycling","recycling:clothes":"yes","recycling:glass":"yes","recycling_type":"container"}},"type":"Feature"},
	{"geometry":{"coordinates":[12.79491,52.911628],"type":"Point"},"properties":{"osm_id":"6938130418","tag":{"amenity":"recycling","recycling:clothes":"yes","recycling:glass":"yes","recycling_type":"container"}},"type":"Feature"},
	{"geometry":{"coordinates":[12.802462,52.922364],"type":"Point"},"properties":{"osm_id":"7090486229","tag":{"amenity":"waste_basket","waste":"trash"}},"type":"Feature"},
	{"geometry":{"coordinates":[12.802567,52.922442],"type":"Point"},"properties":{"osm_id":"7090486231","tag":{"amenity":"waste_basket","waste":"trash"}},"type":"Feature"},
	{"geometry":{"coordinates":[12.802657,52.922508],"type":"Point"},"properties":{"osm_id":"7090486233","tag":{"amenity":"waste_basket","waste":"trash"}},"type":"Feature"},
	{"geometry":{"coordinates":[12.802735,52.922565],"type":"Point"},"properties":{"osm_id":"7090486235","tag":{"amenity":"waste_basket","waste":"trash"}},"type":"Feature"},
	{"geometry":{"coordinates":[12.802822,52.922629],"type":"Point"},"properties":{"osm_id":"7090486237","tag":{"amenity":"waste_basket","waste":"trash"}},"type":"Feature"},
	{"geometry":{"coordinates":[12.802925,52.922705],"type":"Point"},"properties":{"osm_id":"7090486239","tag":{"amenity":"waste_basket","waste":"trash"}},"type":"Feature"},
	{"geometry":{"coordinates":[12.803017,52.922772],"type":"Point"},"properties":{"osm_id":"7090486241","tag":{"amenity":"waste_basket","waste":"trash"}},"type":"Feature"},
	{"geometry":{"coordinates":[12.803103,52.922836],"type":"Point"},"properties":{"osm_id":"7090486243","tag":{"amenity":"waste_basket","waste":"trash"}},"type":"Feature"},
	{"geometry":{"coordinates":[12.803442,52.922187],"type":"Point"},"properties":{"osm_id":"7090486245","tag":{"amenity":"waste_basket","waste":"trash"}},"type":"Feature"},
	{"geometry":{"coordinates":[12.803686,52.922182],"type":"Point"},"properties":{"osm_id":"7090486246","tag":{"amenity":"waste_basket","waste":"trash"}},"type":"Feature"},
	{"geometry":{"coordinates":[12.803648,52.92229],"type":"Point"},"properties":{"osm_id":"7090486247","tag":{"amenity":"waste_basket","waste":"trash"}},"type":"Feature"},
	{"geometry":{"coordinates":[12.786895,52.915607],"type":"Point"},"properties":{"osm_id":"7261664677","tag":{"amenity":"recycling","recycling:glass":"yes","recycling_type":"container"}},"type":"Feature"}
]
}
