{
"type": "FeatureCollection",
"lastupdate": "2020-08-02T00:00:00Z",
"features": [
	{"geometry":{"coordinates":[12.760074,51.097361],"type":"Point"},"properties":{"osm_id":"1315977687","tag":{"amenity":"recycling"}},"type":"Feature"},
	{"geometry":{"coordinates":[12.756481,51.086782],"type":"Point"},"properties":{"osm_id":"1321588398","tag":{"amenity":"recycling"}},"type":"Feature"},
	{"geometry":{"coordinates":[12.796472,51.0809],"type":"Point"},"properties":{"osm_id":"2486391398","tag":{"amenity":"recycling","recycling:glass_bottles":"yes","recycling_type":"container"}},"type":"Feature"},
	{"geometry":{"coordinates":[12.801063,51.088492],"type":"Point"},"properties":{"osm_id":"2667058641","tag":{"amenity":"recycling","recycling:glass":"no","recycling:glass_bottles":"yes","recycling_type":"container"}},"type":"Feature"},
	{"geometry":{"coordinates":[12.821595,51.119917],"type":"Point"},"properties":{"osm_id":"4625350665","tag":{"amenity":"waste_basket"}},"type":"Feature"},
	{"geometry":{"coordinates":[12.756112,51.086821],"type":"Point"},"properties":{"osm_id":"6326734864","tag":{"amenity":"recycling","recycling_type":"container"}},"type":"Feature"},
	{"geometry":{"coordinates":[12.776192,51.087643],"type":"Point"},"properties":{"osm_id":"7001333393","tag":{"amenity":"recycling","operator":"Deutsches Rotes Kreuz","recycling:clothes":"only","recycling_type":"container"}},"type":"Feature"}
]
}
