{
"type": "FeatureCollection",
"features": [
	{"geometry":{"coordinates":[12.807883,50.912791],"type":"Point"},"properties":{"osm_id":"303603070","tag":{"amenity":"recycling","recycling:clothes":"yes","recycling:glass":"no","recycling:glass_bottles":"yes","recycling_type":"container"}},"type":"Feature"},
	{"geometry":{"coordinates":[12.81456,50.919058],"type":"Point"},"properties":{"osm_id":"303603075","tag":{"amenity":"recycling","recycling:clothes":"yes","recycling:glass_bottles":"yes","recycling_type":"container"}},"type":"Feature"},
	{"geometry":{"coordinates":[12.803475,50.91847],"type":"Point"},"properties":{"osm_id":"303603080","tag":{"amenity":"recycling","location":"overground","recycling:glass":"no","recycling:glass_bottles":"yes","recycling_type":"container"}},"type":"Feature"},
	{"geometry":{"coordinates":[12.826109,50.928242],"type":"Point"},"properties":{"osm_id":"506541890","tag":{"amenity":"recycling","recycling:clothes":"yes","recycling:glass":"yes"}},"type":"Feature"},
	{"geometry":{"coordinates":[12.826781,50.928288],"type":"Point"},"properties":{"osm_id":"506541891","tag":{"amenity":"recycling","leisure":"pitch","recycling:clothes":"yes","recycling:glass":"yes","sport":"skateboard"}},"type":"Feature"},
	{"geometry":{"coordinates":[12.806304,50.909329],"type":"Point"},"properties":{"osm_id":"3425635439","tag":{"amenity":"recycling","location":"overground","recycling:clothes":"yes","recycling:glass":"no","recycling:glass_bottles":"yes","recycling_type":"container"}},"type":"Feature"},
	{"geometry":{"coordinates":[12.758313,50.947998],"type":"Point"},"properties":{"osm_id":"5516769710","tag":{"amenity":"waste_basket"}},"type":"Feature"},
	{"geometry":{"coordinates":[12.761429,50.946499],"type":"Point"},"properties":{"osm_id":"5516843784","tag":{"amenity":"waste_basket"}},"type":"Feature"},
	{"geometry":{"coordinates":[12.761359,50.946459],"type":"Point"},"properties":{"osm_id":"5516843814","tag":{"amenity":"waste_basket"}},"type":"Feature"},
	{"geometry":{"coordinates":[12.821564,50.91654],"type":"Point"},"properties":{"osm_id":"5630517357","tag":{"amenity":"recycling","recycling:glass_bottles":"yes","recycling_type":"container"}},"type":"Feature"},
	{"geometry":{"coordinates":[12.821509,50.916476],"type":"Point"},"properties":{"osm_id":"5630517358","tag":{"amenity":"waste_basket"}},"type":"Feature"},
	{"geometry":{"coordinates":[12.821015,50.916449],"type":"Point"},"properties":{"osm_id":"5630563938","tag":{"amenity":"waste_basket"}},"type":"Feature"},
	{"geometry":{"coordinates":[12.820889,50.916388],"type":"Point"},"properties":{"osm_id":"5630563941","tag":{"amenity":"waste_basket"}},"type":"Feature"},
	{"geometry":{"coordinates":[12.820586,50.916479],"type":"Point"},"properties":{"osm_id":"5630595495","tag":{"amenity":"waste_basket"}},"type":"Feature"},
	{"geometry":{"coordinates":[12.821785,50.916289],"type":"Point"},"properties":{"osm_id":"5630659878","tag":{"amenity":"waste_basket","waste":"dog_excrement"}},"type":"Feature"},
	{"geometry":{"coordinates":[12.771928,50.930213],"type":"Point"},"properties":{"osm_id":"6490388464","tag":{"amenity":"waste_basket"}},"type":"Feature"},
	{"geometry":{"coordinates":[12.770569,50.95247],"type":"Point"},"properties":{"osm_id":"6515383798","tag":{"amenity":"waste_basket"}},"type":"Feature"},
	{"geometry":{"coordinates":[12.819588,50.916065],"type":"Point"},"properties":{"osm_id":"6549238677","tag":{"amenity":"waste_basket","waste":"trash"}},"type":"Feature"},
	{"geometry":{"coordinates":[12.781272,50.9359],"type":"Point"},"properties":{"osm_id":"6916857220","tag":{"amenity":"waste_basket"}},"type":"Feature"},
	{"geometry":{"coordinates":[12.811757,50.919547],"type":"Point"},"properties":{"osm_id":"7006664305","tag":{"amenity":"waste_basket"}},"type":"Feature"},
	{"geometry":{"coordinates":[12.811,50.918867],"type":"Point"},"properties":{"osm_id":"7006664306","tag":{"amenity":"waste_basket"}},"type":"Feature"},
	{"geometry":{"coordinates":[12.804821,50.907672],"type":"Point"},"properties":{"osm_id":"7376445593","tag":{"amenity":"recycling","recycling:clothes":"no","recycling:glass_bottles":"yes","recycling:paper":"no","recycling:plastic":"no","recycling_type":"container","survey:date":"2020-04-07"}},"type":"Feature"},
	{"geometry":{"coordinates":[12.803241,50.905872],"type":"Point"},"properties":{"osm_id":"7376446591","tag":{"amenity":"waste_basket","survey:date":"2020-04-07"}},"type":"Feature"},
	{"geometry":{"coordinates":[12.803503,50.908954],"type":"Point"},"properties":{"osm_id":"7380316616","tag":{"amenity":"waste_basket"}},"type":"Feature"},
	{"geometry":{"coordinates":[12.821612,50.929887],"type":"Point"},"properties":{"osm_id":"7380923288","tag":{"amenity":"waste_basket","material":"wood","survey:date":"2020-04-08"}},"type":"Feature"},
	{"geometry":{"coordinates":[12.763084,50.945937],"type":"Point"},"properties":{"osm_id":"7385437586","tag":{"amenity":"waste_basket","survey:date":"2020-04-09"}},"type":"Feature"},
	{"geometry":{"coordinates":[12.763247,50.945798],"type":"Point"},"properties":{"osm_id":"7385437588","tag":{"amenity":"waste_basket","survey:date":"2020-04-09"}},"type":"Feature"},
	{"geometry":{"coordinates":[12.762758,50.94598],"type":"Point"},"properties":{"osm_id":"7385464987","tag":{"amenity":"waste_basket","survey:date":"2020-04-09"}},"type":"Feature"},
	{"geometry":{"coordinates":[12.764109,50.945947],"type":"Point"},"properties":{"osm_id":"7385776886","tag":{"amenity":"waste_basket","survey:date":"2020-04-09"}},"type":"Feature"},
	{"geometry":{"coordinates":[12.761988,50.945939],"type":"Point"},"properties":{"osm_id":"7385778287","tag":{"amenity":"waste_basket","survey:date":"2020-04-09"}},"type":"Feature"},
	{"geometry":{"coordinates":[12.761757,50.945924],"type":"Point"},"properties":{"osm_id":"7385778288","tag":{"amenity":"waste_basket","survey:date":"2020-04-09"}},"type":"Feature"},
	{"geometry":{"coordinates":[12.767034,50.94473],"type":"Point"},"properties":{"osm_id":"7385778385","tag":{"amenity":"waste_basket","survey:date":"2020-04-09"}},"type":"Feature"},
	{"geometry":{"coordinates":[12.812878,50.916626],"type":"Point"},"properties":{"osm_id":"7399168087","tag":{"amenity":"waste_basket","survey:date":"2020-04-13"}},"type":"Feature"},
	{"geometry":{"coordinates":[12.81302,50.91684],"type":"Point"},"properties":{"osm_id":"7399168088","tag":{"amenity":"waste_basket","survey:date":"2020-04-13"}},"type":"Feature"},
	{"geometry":{"coordinates":[12.814228,50.918924],"type":"Point"},"properties":{"osm_id":"7399168091","tag":{"amenity":"waste_basket","colour":"Green","material":"metal","survey:date":"2020-04-13","waste":"dog_excrement"}},"type":"Feature"},
	{"geometry":{"coordinates":[12.81856,50.955169],"type":"Point"},"properties":{"osm_id":"7597936425","tag":{"amenity":"recycling","recycling:clothes":"yes","recycling:glass":"yes","recycling:glass_bottles":"yes","recycling:scrap_metal":"yes","recycling_type":"container"}},"type":"Feature"},
	{"geometry":{"coordinates":[12.766232,50.945076],"type":"Point"},"properties":{"osm_id":"7647216131","tag":{"amenity":"waste_basket","survey:date":"2020-04-09"}},"type":"Feature"}
]
}
