{
"type": "FeatureCollection",
"features": [
	{"geometry":{"coordinates":[12.820953,50.890138],"type":"Point"},"properties":{"osm_id":"411355635","tag":{"amenity":"recycling","recycling:glass_bottles":"yes","recycling_type":"container"}},"type":"Feature"},
	{"geometry":{"coordinates":[12.820314,50.882155],"type":"Point"},"properties":{"osm_id":"761169810","tag":{"amenity":"recycling","recycling:glass_bottles":"yes"}},"type":"Feature"},
	{"geometry":{"coordinates":[12.820359,50.882211],"type":"Point"},"properties":{"osm_id":"761169812","tag":{"amenity":"recycling","operator":"Deutsches Rotes Kreuz","recycling:clothes":"yes","recycling_type":"container"}},"type":"Feature"},
	{"geometry":{"coordinates":[12.746699,50.87669],"type":"Point"},"properties":{"osm_id":"1139206359","tag":{"amenity":"recycling","recycling:glass_bottles":"yes","recycling:paper":"yes","recycling_type":"container"}},"type":"Feature"},
	{"geometry":{"coordinates":[12.824945,50.864237],"type":"Point"},"properties":{"osm_id":"1174523533","tag":{"amenity":"recycling"}},"type":"Feature"},
	{"geometry":{"coordinates":[12.804699,50.86093],"type":"Point"},"properties":{"osm_id":"1174523541","tag":{"amenity":"recycling"}},"type":"Feature"},
	{"geometry":{"coordinates":[12.809049,50.860981],"type":"Point"},"properties":{"osm_id":"1174523546","tag":{"amenity":"recycling"}},"type":"Feature"},
	{"geometry":{"coordinates":[12.770737,50.901514],"type":"Point"},"properties":{"osm_id":"1561582216","tag":{"amenity":"waste_basket"}},"type":"Feature"},
	{"geometry":{"coordinates":[12.765694,50.901162],"type":"Point"},"properties":{"osm_id":"1561582220","tag":{"amenity":"waste_basket"}},"type":"Feature"},
	{"geometry":{"coordinates":[12.787737,50.852223],"type":"Point"},"properties":{"osm_id":"1567238235","tag":{"amenity":"recycling","mapillary":"f2BfTWS9iuo_IIIKZArBgg","recycling:clothes":"yes","recycling:glass_bottles":"yes","recycling:paper":"yes","recycling_type":"container","survey:date":"2018-10-12"}},"type":"Feature"},
	{"geometry":{"coordinates":[12.745676,50.865191],"type":"Point"},"properties":{"osm_id":"4268778375","tag":{"amenity":"recycling","recycling:clothes":"yes","recycling:glass_bottles":"yes","recycling_type":"container"}},"type":"Feature"},
	{"geometry":{"coordinates":[12.745111,50.864847],"type":"Point"},"properties":{"osm_id":"4271358880","tag":{"amenity":"waste_basket"}},"type":"Feature"},
	{"geometry":{"coordinates":[12.749712,50.866471],"type":"Point"},"properties":{"osm_id":"4271359671","tag":{"amenity":"waste_basket"}},"type":"Feature"},
	{"geometry":{"coordinates":[12.746242,50.865424],"type":"Point"},"properties":{"osm_id":"4271360642","tag":{"amenity":"waste_basket"}},"type":"Feature"},
	{"geometry":{"coordinates":[12.760788,50.86104],"type":"Point"},"properties":{"osm_id":"4757671964","tag":{"amenity":"waste_basket","waste":"trash"}},"type":"Feature"},
	{"geometry":{"coordinates":[12.793469,50.885921],"type":"Point"},"properties":{"osm_id":"5536483834","tag":{"amenity":"waste_basket","waste":"trash"}},"type":"Feature"},
	{"geometry":{"coordinates":[12.793717,50.885951],"type":"Point"},"properties":{"osm_id":"5536483835","tag":{"amenity":"waste_basket","waste":"trash"}},"type":"Feature"},
	{"geometry":{"coordinates":[12.767238,50.863489],"type":"Point"},"properties":{"osm_id":"5546100240","tag":{"amenity":"waste_basket"}},"type":"Feature"},
	{"geometry":{"coordinates":[12.767443,50.863419],"type":"Point"},"properties":{"osm_id":"5546100241","tag":{"amenity":"waste_basket"}},"type":"Feature"},
	{"geometry":{"coordinates":[12.767561,50.863375],"type":"Point"},"properties":{"osm_id":"5546100242","tag":{"amenity":"waste_basket"}},"type":"Feature"},
	{"geometry":{"coordinates":[12.765149,50.859725],"type":"Point"},"properties":{"osm_id":"5546304908","tag":{"amenity":"waste_basket"}},"type":"Feature"},
	{"geometry":{"coordinates":[12.765438,50.859343],"type":"Point"},"properties":{"osm_id":"5546304910","tag":{"amenity":"waste_basket"}},"type":"Feature"},
	{"geometry":{"coordinates":[12.765379,50.85971],"type":"Point"},"properties":{"osm_id":"5546304912","tag":{"amenity":"waste_basket"}},"type":"Feature"},
	{"geometry":{"coordinates":[12.752058,50.853499],"type":"Point"},"properties":{"osm_id":"5565325609","tag":{"amenity":"waste_basket","waste":"trash"}},"type":"Feature"},
	{"geometry":{"coordinates":[12.752892,50.854003],"type":"Point"},"properties":{"osm_id":"5565325629","tag":{"amenity":"waste_basket","waste":"trash"}},"type":"Feature"},
	{"geometry":{"coordinates":[12.749311,50.853413],"type":"Point"},"properties":{"osm_id":"5565325649","tag":{"amenity":"waste_basket","waste":"trash"}},"type":"Feature"},
	{"geometry":{"coordinates":[12.750863,50.854153],"type":"Point"},"properties":{"osm_id":"5565325658","tag":{"amenity":"waste_basket","waste":"trash"}},"type":"Feature"},
	{"geometry":{"coordinates":[12.751367,50.853791],"type":"Point"},"properties":{"osm_id":"5565325662","tag":{"amenity":"waste_basket","waste":"trash"}},"type":"Feature"},
	{"geometry":{"coordinates":[12.7516,50.853961],"type":"Point"},"properties":{"osm_id":"5565325663","tag":{"amenity":"waste_basket","waste":"trash"}},"type":"Feature"},
	{"geometry":{"coordinates":[12.7524,50.854433],"type":"Point"},"properties":{"osm_id":"5565325669","tag":{"amenity":"waste_basket","waste":"trash"}},"type":"Feature"},
	{"geometry":{"coordinates":[12.75236,50.854472],"type":"Point"},"properties":{"osm_id":"5565325673","tag":{"amenity":"waste_basket","waste":"trash"}},"type":"Feature"},
	{"geometry":{"coordinates":[12.752455,50.854195],"type":"Point"},"properties":{"osm_id":"5565325675","tag":{"amenity":"waste_basket","waste":"trash"}},"type":"Feature"},
	{"geometry":{"coordinates":[12.754317,50.854135],"type":"Point"},"properties":{"osm_id":"5565325725","tag":{"amenity":"waste_basket","waste":"trash"}},"type":"Feature"},
	{"geometry":{"coordinates":[12.754614,50.854433],"type":"Point"},"properties":{"osm_id":"5565325726","tag":{"amenity":"waste_basket","waste":"trash"}},"type":"Feature"},
	{"geometry":{"coordinates":[12.760552,50.861084],"type":"Point"},"properties":{"osm_id":"5589317835","tag":{"amenity":"waste_basket","waste":"trash"}},"type":"Feature"},
	{"geometry":{"coordinates":[12.76034,50.861198],"type":"Point"},"properties":{"osm_id":"5589317836","tag":{"amenity":"waste_basket","waste":"trash"}},"type":"Feature"},
	{"geometry":{"coordinates":[12.760883,50.861012],"type":"Point"},"properties":{"osm_id":"5628060667","tag":{"amenity":"waste_basket"}},"type":"Feature"},
	{"geometry":{"coordinates":[12.760757,50.860802],"type":"Point"},"properties":{"osm_id":"5628060669","tag":{"amenity":"waste_basket"}},"type":"Feature"},
	{"geometry":{"coordinates":[12.76092,50.86101],"type":"Point"},"properties":{"osm_id":"5628060670","tag":{"amenity":"waste_basket"}},"type":"Feature"},
	{"geometry":{"coordinates":[12.760765,50.860768],"type":"Point"},"properties":{"osm_id":"5628060672","tag":{"amenity":"waste_basket"}},"type":"Feature"},
	{"geometry":{"coordinates":[12.760785,50.860916],"type":"Point"},"properties":{"osm_id":"5628060675","tag":{"amenity":"waste_basket"}},"type":"Feature"},
	{"geometry":{"coordinates":[12.767456,50.858357],"type":"Point"},"properties":{"osm_id":"5715609766","tag":{"amenity":"waste_basket","waste":"trash"}},"type":"Feature"},
	{"geometry":{"coordinates":[12.767348,50.857769],"type":"Point"},"properties":{"osm_id":"5715609772","tag":{"amenity":"waste_basket","waste":"trash"}},"type":"Feature"},
	{"geometry":{"coordinates":[12.795556,50.856963],"type":"Point"},"properties":{"osm_id":"5734626194","tag":{"amenity":"waste_basket"}},"type":"Feature"},
	{"geometry":{"coordinates":[12.767984,50.859287],"type":"Point"},"properties":{"osm_id":"5765438598","tag":{"amenity":"waste_basket","waste":"dog_excrement"}},"type":"Feature"},
	{"geometry":{"coordinates":[12.754351,50.85476],"type":"Point"},"properties":{"osm_id":"5766514670","tag":{"amenity":"waste_basket","waste":"trash"}},"type":"Feature"},
	{"geometry":{"coordinates":[12.79593,50.885601],"type":"Point"},"properties":{"osm_id":"5775838163","tag":{"amenity":"waste_basket","waste":"trash"}},"type":"Feature"},
	{"geometry":{"coordinates":[12.795722,50.88532],"type":"Point"},"properties":{"osm_id":"5775838165","tag":{"amenity":"waste_basket","waste":"trash"}},"type":"Feature"},
	{"geometry":{"coordinates":[12.794559,50.885739],"type":"Point"},"properties":{"osm_id":"5775838167","tag":{"amenity":"waste_basket","waste":"dog_excrement"}},"type":"Feature"},
	{"geometry":{"coordinates":[12.795232,50.885128],"type":"Point"},"properties":{"osm_id":"5775838168","tag":{"amenity":"waste_basket","waste":"trash"}},"type":"Feature"},
	{"geometry":{"coordinates":[12.794562,50.88559],"type":"Point"},"properties":{"osm_id":"5775838188","tag":{"amenity":"waste_basket","waste":"trash"}},"type":"Feature"},
	{"geometry":{"coordinates":[12.792072,50.895246],"type":"Point"},"properties":{"osm_id":"5787360735","tag":{"amenity":"waste_basket"}},"type":"Feature"},
	{"geometry":{"coordinates":[12.764774,50.85959],"type":"Point"},"properties":{"osm_id":"5796338200","tag":{"amenity":"waste_basket"}},"type":"Feature"},
	{"geometry":{"coordinates":[12.75705,50.853868],"type":"Point"},"properties":{"osm_id":"5825380964","tag":{"amenity":"recycling","recycling:clothes":"yes","recycling:glass_bottles":"yes","recycling_type":"container"}},"type":"Feature"},
	{"geometry":{"coordinates":[12.75951,50.852632],"type":"Point"},"properties":{"osm_id":"5825380968","tag":{"amenity":"recycling","recycling:clothes":"yes","recycling_type":"container"}},"type":"Feature"},
	{"geometry":{"coordinates":[12.76004,50.85205],"type":"Point"},"properties":{"osm_id":"5825387653","tag":{"amenity":"recycling","recycling:clothes":"yes","recycling_type":"container"}},"type":"Feature"},
	{"geometry":{"coordinates":[12.761997,50.852398],"type":"Point"},"properties":{"osm_id":"5825516781","tag":{"amenity":"waste_basket"}},"type":"Feature"},
	{"geometry":{"coordinates":[12.754339,50.85381],"type":"Point"},"properties":{"osm_id":"5825521358","tag":{"amenity":"waste_basket"}},"type":"Feature"},
	{"geometry":{"coordinates":[12.761818,50.873677],"type":"Point"},"properties":{"osm_id":"5894537565","tag":{"amenity":"waste_basket"}},"type":"Feature"},
	{"geometry":{"coordinates":[12.767218,50.871537],"type":"Point"},"properties":{"osm_id":"5894616998","tag":{"amenity":"waste_basket"}},"type":"Feature"},
	{"geometry":{"coordinates":[12.830517,50.862163],"type":"Point"},"properties":{"osm_id":"5894870583","tag":{"amenity":"waste_basket"}},"type":"Feature"},
	{"geometry":{"coordinates":[12.828928,50.862922],"type":"Point"},"properties":{"osm_id":"5894872887","tag":{"amenity":"waste_basket"}},"type":"Feature"},
	{"geometry":{"coordinates":[12.765455,50.857373],"type":"Point"},"properties":{"osm_id":"5923667670","tag":{"amenity":"waste_basket","comment":"unten vor Treppe rechts"}},"type":"Feature"},
	{"geometry":{"coordinates":[12.745831,50.879469],"type":"Point"},"properties":{"osm_id":"5929145604","tag":{"amenity":"waste_basket"}},"type":"Feature"},
	{"geometry":{"coordinates":[12.77289,50.854372],"type":"Point"},"properties":{"osm_id":"5937476296","tag":{"amenity":"waste_basket"}},"type":"Feature"},
	{"geometry":{"coordinates":[12.7693,50.863815],"type":"Point"},"properties":{"osm_id":"5941155042","tag":{"amenity":"recycling","recycling:clothes":"yes","recycling:glass_bottles":"yes","recycling_type":"container"}},"type":"Feature"},
	{"geometry":{"coordinates":[12.76316,50.858646],"type":"Point"},"properties":{"osm_id":"5943336362","tag":{"amenity":"waste_basket"}},"type":"Feature"},
	{"geometry":{"coordinates":[12.764412,50.863953],"type":"Point"},"properties":{"osm_id":"5964212444","tag":{"amenity":"recycling","recycling:clothes":"yes","recycling_type":"container"}},"type":"Feature"},
	{"geometry":{"coordinates":[12.750319,50.852217],"type":"Point"},"properties":{"osm_id":"5964336583","tag":{"amenity":"waste_basket"}},"type":"Feature"},
	{"geometry":{"coordinates":[12.762859,50.859096],"type":"Point"},"properties":{"osm_id":"5967175096","tag":{"amenity":"recycling","recycling:clothes":"yes","recycling_type":"container"}},"type":"Feature"},
	{"geometry":{"coordinates":[12.761455,50.859879],"type":"Point"},"properties":{"osm_id":"5977644969","tag":{"amenity":"waste_basket"}},"type":"Feature"},
	{"geometry":{"coordinates":[12.781006,50.856164],"type":"Point"},"properties":{"osm_id":"5981009194","tag":{"amenity":"recycling","recycling:clothes":"yes","recycling_type":"container"}},"type":"Feature"},
	{"geometry":{"coordinates":[12.767278,50.864275],"type":"Point"},"properties":{"osm_id":"5983996789","tag":{"amenity":"recycling","recycling:clothes":"yes","recycling_type":"container"}},"type":"Feature"},
	{"geometry":{"coordinates":[12.768282,50.860414],"type":"Point"},"properties":{"osm_id":"6010363950","tag":{"amenity":"recycling","operator":"Retextil Recycling International GmbH & Co. KG","recycling:batteries":"no","recycling:cans":"no","recycling:clothes":"yes","recycling:glass":"no","recycling:glass_bottles":"no","recycling:paper":"no","recycling:plastic":"no","recycling:plastic_bottles":"no","recycling:scrap_metal":"no","recycling:waste":"no","recycling_type":"container"}},"type":"Feature"},
	{"geometry":{"coordinates":[12.766692,50.859853],"type":"Point"},"properties":{"osm_id":"6032271142","tag":{"amenity":"recycling","recycling:clothes":"yes","recycling:glass_bottles":"yes","recycling_type":"container"}},"type":"Feature"},
	{"geometry":{"coordinates":[12.766682,50.859668],"type":"Point"},"properties":{"osm_id":"6032271146","tag":{"amenity":"waste_basket"}},"type":"Feature"},
	{"geometry":{"coordinates":[12.775545,50.863651],"type":"Point"},"properties":{"osm_id":"6036736996","tag":{"amenity":"recycling","recycling:clothes":"yes","recycling_type":"container"}},"type":"Feature"},
	{"geometry":{"coordinates":[12.779712,50.863635],"type":"Point"},"properties":{"osm_id":"6036737002","tag":{"amenity":"waste_basket"}},"type":"Feature"},
	{"geometry":{"coordinates":[12.751313,50.859094],"type":"Point"},"properties":{"osm_id":"6040171991","tag":{"amenity":"waste_basket","waste":"trash"}},"type":"Feature"},
	{"geometry":{"coordinates":[12.751325,50.859217],"type":"Point"},"properties":{"osm_id":"6040171996","tag":{"amenity":"waste_basket","waste":"trash"}},"type":"Feature"},
	{"geometry":{"coordinates":[12.754579,50.863531],"type":"Point"},"properties":{"osm_id":"6040171998","tag":{"amenity":"recycling","recycling:clothes":"yes","recycling_type":"container"}},"type":"Feature"},
	{"geometry":{"coordinates":[12.749258,50.86627],"type":"Point"},"properties":{"osm_id":"6040172006","tag":{"amenity":"waste_basket"}},"type":"Feature"},
	{"geometry":{"coordinates":[12.752499,50.854686],"type":"Point"},"properties":{"osm_id":"6052658487","tag":{"amenity":"waste_basket"}},"type":"Feature"},
	{"geometry":{"coordinates":[12.776854,50.863843],"type":"Point"},"properties":{"osm_id":"6070494982","tag":{"amenity":"waste_basket"}},"type":"Feature"},
	{"geometry":{"coordinates":[12.776759,50.864067],"type":"Point"},"properties":{"osm_id":"6070495685","tag":{"amenity":"waste_basket"}},"type":"Feature"},
	{"geometry":{"coordinates":[12.773765,50.863502],"type":"Point"},"properties":{"osm_id":"6070495694","tag":{"amenity":"waste_basket"}},"type":"Feature"},
	{"geometry":{"coordinates":[12.771833,50.858818],"type":"Point"},"properties":{"osm_id":"6082879844","tag":{"amenity":"recycling","recycling:clothes":"yes","recycling:glass_bottles":"yes","recycling_type":"container"}},"type":"Feature"},
	{"geometry":{"coordinates":[12.77312,50.86063],"type":"Point"},"properties":{"osm_id":"6082879845","tag":{"amenity":"recycling","recycling:clothes":"yes","recycling_type":"container"}},"type":"Feature"},
	{"geometry":{"coordinates":[12.765776,50.857462],"type":"Point"},"properties":{"osm_id":"6089848602","tag":{"amenity":"waste_basket"}},"type":"Feature"},
	{"geometry":{"coordinates":[12.762963,50.867438],"type":"Point"},"properties":{"osm_id":"6089848606","tag":{"amenity":"waste_basket"}},"type":"Feature"},
	{"geometry":{"coordinates":[12.752399,50.865674],"type":"Point"},"properties":{"osm_id":"6093171329","tag":{"amenity":"recycling","recycling:clothes":"yes","recycling:glass_bottles":"yes","recycling_type":"container"}},"type":"Feature"},
	{"geometry":{"coordinates":[12.763175,50.85288],"type":"Point"},"properties":{"osm_id":"6093171330","tag":{"amenity":"recycling","recycling:clothes":"yes","recycling:glass_bottles":"yes","recycling_type":"container"}},"type":"Feature"},
	{"geometry":{"coordinates":[12.760708,50.862259],"type":"Point"},"properties":{"osm_id":"6165339773","tag":{"amenity":"recycling","recycling:clothes":"yes","recycling_type":"container"}},"type":"Feature"},
	{"geometry":{"coordinates":[12.772967,50.860059],"type":"Point"},"properties":{"osm_id":"6322704932","tag":{"amenity":"waste_basket"}},"type":"Feature"},
	{"geometry":{"coordinates":[12.773023,50.859968],"type":"Point"},"properties":{"osm_id":"6322704935","tag":{"amenity":"waste_basket"}},"type":"Feature"},
	{"geometry":{"coordinates":[12.770424,50.859559],"type":"Point"},"properties":{"osm_id":"6322704936","tag":{"amenity":"waste_basket"}},"type":"Feature"},
	{"geometry":{"coordinates":[12.77282,50.859659],"type":"Point"},"properties":{"osm_id":"6322704937","tag":{"amenity":"waste_basket"}},"type":"Feature"},
	{"geometry":{"coordinates":[12.75363,50.852285],"type":"Point"},"properties":{"osm_id":"6358190835","tag":{"amenity":"waste_basket"}},"type":"Feature"},
	{"geometry":{"coordinates":[12.751669,50.852147],"type":"Point"},"properties":{"osm_id":"6358190836","tag":{"amenity":"waste_basket"}},"type":"Feature"},
	{"geometry":{"coordinates":[12.751807,50.852089],"type":"Point"},"properties":{"osm_id":"6358190838","tag":{"amenity":"waste_basket"}},"type":"Feature"},
	{"geometry":{"coordinates":[12.752267,50.852253],"type":"Point"},"properties":{"osm_id":"6358190842","tag":{"amenity":"waste_basket"}},"type":"Feature"},
	{"geometry":{"coordinates":[12.751486,50.852106],"type":"Point"},"properties":{"osm_id":"6358190845","tag":{"amenity":"waste_basket"}},"type":"Feature"},
	{"geometry":{"coordinates":[12.752316,50.852322],"type":"Point"},"properties":{"osm_id":"6358190847","tag":{"amenity":"waste_basket"}},"type":"Feature"},
	{"geometry":{"coordinates":[12.765307,50.869395],"type":"Point"},"properties":{"osm_id":"6373782910","tag":{"amenity":"waste_basket"}},"type":"Feature"},
	{"geometry":{"coordinates":[12.763053,50.860532],"type":"Point"},"properties":{"osm_id":"6396949097","tag":{"amenity":"waste_basket","waste":"trash"}},"type":"Feature"},
	{"geometry":{"coordinates":[12.762912,50.860459],"type":"Point"},"properties":{"osm_id":"6396949098","tag":{"amenity":"waste_basket","waste":"trash"}},"type":"Feature"},
	{"geometry":{"coordinates":[12.74481,50.863218],"type":"Point"},"properties":{"osm_id":"6561027729","tag":{"amenity":"waste_basket","waste":"trash"}},"type":"Feature"},
	{"geometry":{"coordinates":[12.745164,50.86288],"type":"Point"},"properties":{"osm_id":"6561027731","tag":{"amenity":"waste_basket","waste":"trash"}},"type":"Feature"},
	{"geometry":{"coordinates":[12.763053,50.870779],"type":"Point"},"properties":{"osm_id":"6578513643","tag":{"amenity":"recycling","recycling_type":"container"}},"type":"Feature"},
	{"geometry":{"coordinates":[12.76614,50.857415],"type":"Point"},"properties":{"osm_id":"6613000697","tag":{"amenity":"waste_basket"}},"type":"Feature"},
	{"geometry":{"coordinates":[12.769722,50.862038],"type":"Point"},"properties":{"osm_id":"6772741624","tag":{"amenity":"recycling","recycling:clothes":"yes","recycling_type":"container"}},"type":"Feature"},
	{"geometry":{"coordinates":[12.755089,50.867655],"type":"Point"},"properties":{"osm_id":"6982878132","tag":{"amenity":"waste_basket"}},"type":"Feature"},
	{"geometry":{"coordinates":[12.755148,50.867707],"type":"Point"},"properties":{"osm_id":"6982878135","tag":{"amenity":"waste_basket"}},"type":"Feature"},
	{"geometry":{"coordinates":[12.75623,50.880989],"type":"Point"},"properties":{"osm_id":"6984708308","tag":{"amenity":"waste_basket"}},"type":"Feature"},
	{"geometry":{"coordinates":[12.754443,50.880226],"type":"Point"},"properties":{"osm_id":"6984715851","tag":{"amenity":"waste_basket"}},"type":"Feature"},
	{"geometry":{"coordinates":[12.769816,50.862211],"type":"Point"},"properties":{"osm_id":"7021614595","tag":{"amenity":"recycling","recycling:clothes":"yes","recycling_type":"container"}},"type":"Feature"},
	{"geometry":{"coordinates":[12.808855,50.877033],"type":"Point"},"properties":{"osm_id":"7056682578","tag":{"amenity":"waste_basket","waste":"dog_excrement"}},"type":"Feature"},
	{"geometry":{"coordinates":[12.767235,50.863427],"type":"Point"},"properties":{"osm_id":"7197463736","tag":{"amenity":"waste_basket","waste":"trash"}},"type":"Feature"},
	{"geometry":{"coordinates":[12.767,50.854999],"type":"Point"},"properties":{"osm_id":"7234954601","tag":{"amenity":"recycling","recycling:clothes":"yes","recycling_type":"container"}},"type":"Feature"},
	{"geometry":{"coordinates":[12.767902,50.887634],"type":"Point"},"properties":{"osm_id":"7342796305","tag":{"amenity":"waste_basket","waste":"trash"}},"type":"Feature"},
	{"geometry":{"coordinates":[12.784187,50.885224],"type":"Point"},"properties":{"osm_id":"7354290040","tag":{"amenity":"waste_basket","waste":"trash"}},"type":"Feature"},
	{"geometry":{"coordinates":[12.790609,50.877394],"type":"Point"},"properties":{"osm_id":"7354401377","tag":{"amenity":"waste_basket","waste":"trash"}},"type":"Feature"},
	{"geometry":{"coordinates":[12.756796,50.867738],"type":"Point"},"properties":{"osm_id":"7385816653","tag":{"amenity":"waste_basket","waste":"trash"}},"type":"Feature"},
	{"geometry":{"coordinates":[12.793819,50.864026],"type":"Point"},"properties":{"osm_id":"7394399166","tag":{"amenity":"waste_basket","waste":"trash"}},"type":"Feature"},
	{"geometry":{"coordinates":[12.79438,50.881778],"type":"Point"},"properties":{"osm_id":"7402486505","tag":{"amenity":"waste_basket","waste":"trash"}},"type":"Feature"},
	{"geometry":{"coordinates":[12.791664,50.853166],"type":"Point"},"properties":{"osm_id":"7411277327","tag":{"amenity":"recycling","recycling:clothes":"yes","recycling:glass_bottles":"yes","recycling_type":"container"}},"type":"Feature"},
	{"geometry":{"coordinates":[12.7935,50.855861],"type":"Point"},"properties":{"osm_id":"7411350248","tag":{"amenity":"recycling","recycling:glass_bottles":"yes","recycling_type":"container"}},"type":"Feature"},
	{"geometry":{"coordinates":[12.793348,50.88371],"type":"Point"},"properties":{"osm_id":"7442275173","tag":{"amenity":"waste_basket","waste":"trash"}},"type":"Feature"},
	{"geometry":{"coordinates":[12.794454,50.883863],"type":"Point"},"properties":{"osm_id":"7442426587","tag":{"amenity":"waste_basket","waste":"dog_excrement"}},"type":"Feature"},
	{"geometry":{"coordinates":[12.795057,50.883907],"type":"Point"},"properties":{"osm_id":"7442426588","tag":{"amenity":"waste_basket","waste":"trash"}},"type":"Feature"},
	{"geometry":{"coordinates":[12.79439,50.883755],"type":"Point"},"properties":{"osm_id":"7442426590","tag":{"amenity":"waste_basket","waste":"trash"}},"type":"Feature"},
	{"geometry":{"coordinates":[12.79218,50.882322],"type":"Point"},"properties":{"osm_id":"7444956249","tag":{"amenity":"waste_basket","waste":"trash"}},"type":"Feature"},
	{"geometry":{"coordinates":[12.791739,50.882733],"type":"Point"},"properties":{"osm_id":"7444956253","tag":{"amenity":"waste_basket","waste":"trash"}},"type":"Feature"},
	{"geometry":{"coordinates":[12.791829,50.882756],"type":"Point"},"properties":{"osm_id":"7444956255","tag":{"amenity":"waste_basket","waste":"trash"}},"type":"Feature"},
	{"geometry":{"coordinates":[12.792289,50.882861],"type":"Point"},"properties":{"osm_id":"7444956259","tag":{"amenity":"waste_basket","waste":"trash"}},"type":"Feature"},
	{"geometry":{"coordinates":[12.775331,50.887237],"type":"Point"},"properties":{"osm_id":"7445009859","tag":{"amenity":"waste_basket","waste":"trash"}},"type":"Feature"},
	{"geometry":{"coordinates":[12.779973,50.86089],"type":"Point"},"properties":{"osm_id":"7466196015","tag":{"amenity":"recycling","recycling:clothes":"yes","recycling:glass_bottles":"yes","recycling_type":"container"}},"type":"Feature"},
	{"geometry":{"coordinates":[12.791958,50.882822],"type":"Point"},"properties":{"osm_id":"7470347445","tag":{"amenity":"waste_basket","waste":"trash"}},"type":"Feature"},
	{"geometry":{"coordinates":[12.778203,50.852206],"type":"Point"},"properties":{"osm_id":"7473253860","tag":{"amenity":"recycling","recycling:glass_bottles":"yes","recycling_type":"container"}},"type":"Feature"},
	{"geometry":{"coordinates":[12.757673,50.863093],"type":"Point"},"properties":{"osm_id":"7590565560","tag":{"amenity":"waste_basket","waste":"trash"}},"type":"Feature"},
	{"geometry":{"coordinates":[12.768187,50.8584],"type":"Point"},"properties":{"osm_id":"7591755253","tag":{"amenity":"waste_basket","waste":"cigarettes"}},"type":"Feature"},
	{"geometry":{"coordinates":[12.768195,50.858398],"type":"Point"},"properties":{"osm_id":"7591755257","tag":{"amenity":"waste_basket","waste":"trash"}},"type":"Feature"},
	{"geometry":{"coordinates":[12.7904,50.859874],"type":"Point"},"properties":{"osm_id":"7598224875","tag":{"amenity":"waste_basket","waste":"trash"}},"type":"Feature"},
	{"geometry":{"coordinates":[12.791546,50.88106],"type":"Point"},"properties":{"osm_id":"7598301469","tag":{"amenity":"waste_basket","waste":"trash"}},"type":"Feature"},
	{"geometry":{"coordinates":[12.793904,50.886041],"type":"Point"},"properties":{"osm_id":"7629710335","tag":{"amenity":"waste_basket","waste":"trash"}},"type":"Feature"},
	{"geometry":{"coordinates":[12.794577,50.885868],"type":"Point"},"properties":{"osm_id":"7629725517","tag":{"amenity":"waste_basket","waste":"trash"}},"type":"Feature"},
	{"geometry":{"coordinates":[12.795248,50.885905],"type":"Point"},"properties":{"osm_id":"7629822200","tag":{"amenity":"recycling","recycling:clothes":"yes","recycling:glass_bottles":"yes","recycling_type":"container"}},"type":"Feature"},
	{"geometry":{"coordinates":[12.791574,50.886168],"type":"Point"},"properties":{"osm_id":"7630060169","tag":{"amenity":"recycling","recycling_type":"container"}},"type":"Feature"},
	{"geometry":{"coordinates":[12.75128,50.854284],"type":"Point"},"properties":{"osm_id":"7833022831","tag":{"amenity":"waste_basket","waste":"trash"}},"type":"Feature"},
	{"geometry":{"coordinates":[12.750668,50.85341],"type":"Point"},"properties":{"osm_id":"7833234206","tag":{"amenity":"waste_basket","waste":"trash"}},"type":"Feature"},
	{"geometry":{"coordinates":[12.751056,50.853898],"type":"Point"},"properties":{"osm_id":"7833234211","tag":{"amenity":"waste_basket","waste":"trash"}},"type":"Feature"},
	{"geometry":{"coordinates":[12.751056,50.853898],"type":"Point"},"properties":{"osm_id":"7850585017","tag":{"amenity":"waste_basket","waste":"trash"}},"type":"Feature"},
	{"geometry":{"coordinates":[12.750668,50.85341],"type":"Point"},"properties":{"osm_id":"7850585020","tag":{"amenity":"waste_basket","waste":"trash"}},"type":"Feature"}
]
}
