{
"type": "FeatureCollection",
"features": [
	{"geometry":{"coordinates":[12.799529,49.512281],"type":"Point"},"properties":{"osm_id":"3957912422","tag":{"amenity":"recycling"}},"type":"Feature"},
	{"geometry":{"coordinates":[12.798925,49.512552],"type":"Point"},"properties":{"osm_id":"3957912423","tag":{"amenity":"recycling"}},"type":"Feature"},
	{"geometry":{"coordinates":[12.800442,49.512687],"type":"Point"},"properties":{"osm_id":"3957912424","tag":{"amenity":"recycling"}},"type":"Feature"},
	{"geometry":{"coordinates":[12.800265,49.511678],"type":"Point"},"properties":{"osm_id":"3957912425","tag":{"amenity":"recycling","recycling_type":"container"}},"type":"Feature"},
	{"geometry":{"coordinates":[12.803456,49.512823],"type":"Point"},"properties":{"osm_id":"3957966133","tag":{"amenity":"recycling"}},"type":"Feature"},
	{"geometry":{"coordinates":[12.799389,49.513226],"type":"Point"},"properties":{"osm_id":"3957966134","tag":{"amenity":"recycling"}},"type":"Feature"},
	{"geometry":{"coordinates":[12.814117,49.513151],"type":"Point"},"properties":{"name":"Sb\u00c4\u009brn\u00c3\u00bd dv\u00c5\u00afr","osm_id":"3979308217","tag":{"amenity":"recycling","recycling_type":"centre"}},"type":"Feature"},
	{"geometry":{"coordinates":[12.79789,49.51002],"type":"Point"},"properties":{"osm_id":"3979345790","tag":{"amenity":"recycling","recycling_type":"container"}},"type":"Feature"},
	{"geometry":{"coordinates":[12.791925,49.498302],"type":"Point"},"properties":{"osm_id":"4031521662","tag":{"amenity":"recycling","recycling:batteries":"no","recycling:beverage_cartons":"no","recycling:cans":"no","recycling:clothes":"no","recycling:electrical_appliances":"no","recycling:glass":"yes","recycling:paper":"yes","recycling:plastic":"yes","recycling:scrap_metal":"no","recycling_type":"container"}},"type":"Feature"},
	{"geometry":{"coordinates":[12.800502,49.512251],"type":"Point"},"properties":{"osm_id":"7277180694","tag":{"amenity":"recycling"}},"type":"Feature"},
	{"geometry":{"coordinates":[12.757031,49.523109],"type":"Point"},"properties":{"osm_id":"7657258495","tag":{"amenity":"recycling","recycling_type":"container"}},"type":"Feature"},
	{"geometry":{"coordinates":[12.770648,49.505663],"type":"Point"},"properties":{"osm_id":"7657258498","tag":{"amenity":"recycling","recycling_type":"container"}},"type":"Feature"},
	{"geometry":{"coordinates":[12.831547,49.512254],"type":"Point"},"properties":{"osm_id":"7657258504","tag":{"amenity":"recycling","recycling_type":"container"}},"type":"Feature"},
	{"geometry":{"coordinates":[12.824567,49.535453],"type":"Point"},"properties":{"osm_id":"7657312124","tag":{"amenity":"recycling","recycling_type":"container"}},"type":"Feature"}
]
}
