{
"type": "FeatureCollection",
"features": [
	{"geometry":{"coordinates":[12.748678,47.752162],"type":"Point"},"properties":{"osm_id":"5264427342","tag":{"amenity":"recycling","recycling_type":"centre"}},"type":"Feature"},
	{"geometry":{"coordinates":[12.829848,47.719729],"type":"Point"},"properties":{"osm_id":"6652535636","tag":{"amenity":"waste_basket"}},"type":"Feature"},
	{"geometry":{"coordinates":[12.821824,47.719582],"type":"Point"},"properties":{"osm_id":"6652555852","tag":{"amenity":"recycling","recycling:glass_bottles":"yes"}},"type":"Feature"},
	{"geometry":{"coordinates":[12.826826,47.720798],"type":"Point"},"properties":{"osm_id":"9045002662","tag":{"amenity":"waste_basket"}},"type":"Feature"},
	{"geometry":{"coordinates":[12.830978,47.71892],"type":"Point"},"properties":{"osm_id":"9045017433","tag":{"amenity":"waste_basket","waste":"trash"}},"type":"Feature"},
	{"geometry":{"coordinates":[12.830531,47.718201],"type":"Point"},"properties":{"osm_id":"9045035298","tag":{"amenity":"waste_basket","waste":"trash"}},"type":"Feature"},
	{"geometry":{"coordinates":[12.826214,47.718341],"type":"Point"},"properties":{"osm_id":"9045054195","tag":{"amenity":"waste_basket","waste":"trash"}},"type":"Feature"},
	{"geometry":{"coordinates":[12.823797,47.717727],"type":"Point"},"properties":{"osm_id":"9045072401","tag":{"amenity":"waste_basket","waste":"trash"}},"type":"Feature"},
	{"geometry":{"coordinates":[12.819588,47.716606],"type":"Point"},"properties":{"osm_id":"9045072801","tag":{"amenity":"waste_basket","waste":"trash"}},"type":"Feature"},
	{"geometry":{"coordinates":[12.819582,47.716609],"type":"Point"},"properties":{"osm_id":"9045072801","tag":{"amenity":"waste_basket","waste":"trash"}},"type":"Feature"}
]
}
