{
"type": "FeatureCollection",
"features": [
	{"geometry":{"coordinates":[12.775244,47.295577],"type":"Point"},"properties":{"osm_id":"2446749742","ref":"glas","tag":{"amenity":"recycling"}},"type":"Feature"},
	{"geometry":{"coordinates":[12.795616,47.325104],"type":"Point"},"properties":{"osm_id":"2454119343","tag":{"amenity":"recycling","location":"overground","recycling_type":"container"}},"type":"Feature"},
	{"geometry":{"coordinates":[12.783773,47.300659],"type":"Point"},"properties":{"osm_id":"2463699610","tag":{"amenity":"waste_basket"}},"type":"Feature"},
	{"geometry":{"coordinates":[12.781682,47.301163],"type":"Point"},"properties":{"osm_id":"2463699623","tag":{"amenity":"waste_basket"}},"type":"Feature"},
	{"geometry":{"coordinates":[12.801578,47.304007],"type":"Point"},"properties":{"osm_id":"2820702232","tag":{"amenity":"recycling","recycling:glass":"yes","recycling:paper":"yes","recycling:scrap_metal":"yes","recycling_type":"container"}},"type":"Feature"},
	{"geometry":{"coordinates":[12.794029,47.307956],"type":"Point"},"properties":{"osm_id":"2981880069","tag":{"amenity":"waste_basket"}},"type":"Feature"},
	{"geometry":{"coordinates":[12.799453,47.322196],"type":"Point"},"properties":{"osm_id":"4387442940","tag":{"amenity":"waste_basket"}},"type":"Feature"},
	{"geometry":{"coordinates":[12.798037,47.323355],"type":"Point"},"properties":{"osm_id":"4387442942","tag":{"amenity":"waste_basket"}},"type":"Feature"},
	{"geometry":{"coordinates":[12.798197,47.323395],"type":"Point"},"properties":{"osm_id":"4387442944","tag":{"amenity":"waste_basket"}},"type":"Feature"},
	{"geometry":{"coordinates":[12.798366,47.323449],"type":"Point"},"properties":{"osm_id":"4387442955","tag":{"amenity":"waste_basket"}},"type":"Feature"},
	{"geometry":{"coordinates":[12.820296,47.326797],"type":"Point"},"properties":{"osm_id":"5036141504","tag":{"amenity":"waste_basket"}},"type":"Feature"},
	{"geometry":{"coordinates":[12.81977,47.324266],"type":"Point"},"properties":{"osm_id":"5036141506","tag":{"amenity":"waste_basket"}},"type":"Feature"},
	{"geometry":{"coordinates":[12.820953,47.320623],"type":"Point"},"properties":{"osm_id":"5036141508","tag":{"amenity":"waste_basket"}},"type":"Feature"},
	{"geometry":{"coordinates":[12.822505,47.319077],"type":"Point"},"properties":{"osm_id":"5036141511","tag":{"amenity":"waste_basket"}},"type":"Feature"},
	{"geometry":{"coordinates":[12.828157,47.321307],"type":"Point"},"properties":{"osm_id":"5036141513","tag":{"amenity":"waste_basket"}},"type":"Feature"},
	{"geometry":{"coordinates":[12.78267,47.325336],"type":"Point"},"properties":{"osm_id":"6479151688","tag":{"amenity":"waste_disposal","operator":"Stadtgemeinde Zell am See"}},"type":"Feature"},
	{"geometry":{"coordinates":[12.800749,47.325581],"type":"Point"},"properties":{"osm_id":"6498424961","tag":{"amenity":"waste_basket"}},"type":"Feature"}
]
}
