{
"type": "FeatureCollection",
"features": [
	{"geometry":{"coordinates":[12.815149,46.827921],"type":"Point"},"properties":{"osm_id":"940006560","tag":{"amenity":"recycling"}},"type":"Feature"},
	{"geometry":{"coordinates":[12.767158,46.83398],"type":"Point"},"properties":{"osm_id":"1360670191","tag":{"amenity":"recycling","recycling:glass":"yes","recycling:paper":"yes"}},"type":"Feature"},
	{"geometry":{"coordinates":[12.748452,46.803844],"type":"Point"},"properties":{"name":"Recycling-Hof Leisach","osm_id":"1387597130","tag":{"amenity":"recycling"}},"type":"Feature"},
	{"geometry":{"coordinates":[12.800844,46.822343],"type":"Point"},"properties":{"name":"Kompostieranlage","osm_id":"1746427912","tag":{"amenity":"recycling","recycling_type":"container"}},"type":"Feature"},
	{"geometry":{"coordinates":[12.806669,46.815504],"type":"Point"},"properties":{"name":"Althaler","osm_id":"1751146171","tag":{"amenity":"recycling","description":"Autoverwertung","recycling_type":"centre"}},"type":"Feature"},
	{"geometry":{"coordinates":[12.751832,46.850657],"type":"Point"},"properties":{"osm_id":"1752404145","tag":{"amenity":"recycling"}},"type":"Feature"},
	{"geometry":{"coordinates":[12.754883,46.818901],"type":"Point"},"properties":{"osm_id":"2566910156","tag":{"amenity":"recycling"}},"type":"Feature"},
	{"geometry":{"coordinates":[12.770063,46.826516],"type":"Point"},"properties":{"osm_id":"2566910184","tag":{"amenity":"recycling"}},"type":"Feature"},
	{"geometry":{"coordinates":[12.773139,46.82742],"type":"Point"},"properties":{"osm_id":"2566910194","tag":{"amenity":"recycling"}},"type":"Feature"},
	{"geometry":{"coordinates":[12.828559,46.814173],"type":"Point"},"properties":{"osm_id":"7687954186","tag":{"amenity":"waste_basket"}},"type":"Feature"},
	{"geometry":{"coordinates":[12.821224,46.815586],"type":"Point"},"properties":{"osm_id":"7687988585","tag":{"amenity":"waste_basket"}},"type":"Feature"},
	{"geometry":{"coordinates":[12.814891,46.817135],"type":"Point"},"properties":{"osm_id":"7688038487","tag":{"amenity":"waste_basket"}},"type":"Feature"},
	{"geometry":{"coordinates":[12.806849,46.819776],"type":"Point"},"properties":{"osm_id":"7688067185","tag":{"amenity":"waste_basket"}},"type":"Feature"},
	{"geometry":{"coordinates":[12.799778,46.82151],"type":"Point"},"properties":{"osm_id":"7688086685","tag":{"amenity":"waste_basket"}},"type":"Feature"},
	{"geometry":{"coordinates":[12.79,46.822274],"type":"Point"},"properties":{"osm_id":"7688105587","tag":{"amenity":"waste_basket"}},"type":"Feature"},
	{"geometry":{"coordinates":[12.784558,46.823594],"type":"Point"},"properties":{"osm_id":"7688119597","tag":{"amenity":"waste_basket"}},"type":"Feature"},
	{"geometry":{"coordinates":[12.765513,46.83209],"type":"Point"},"properties":{"osm_id":"7691608185","tag":{"amenity":"waste_basket"}},"type":"Feature"},
	{"geometry":{"coordinates":[12.765843,46.832014],"type":"Point"},"properties":{"osm_id":"7691640785","tag":{"amenity":"waste_basket"}},"type":"Feature"},
	{"geometry":{"coordinates":[12.773627,46.832211],"type":"Point"},"properties":{"osm_id":"7691803085","tag":{"amenity":"waste_basket"}},"type":"Feature"}
]
}
