{
"type": "FeatureCollection",
"features": [
	{"geometry":{"coordinates":[12.822967,45.613969],"type":"Point"},"properties":{"osm_id":"7137684979","tag":{"amenity":"waste_disposal"}},"type":"Feature"},
	{"geometry":{"coordinates":[12.809234,45.612702],"type":"Point"},"properties":{"osm_id":"7670899574","tag":{"amenity":"waste_disposal"}},"type":"Feature"},
	{"geometry":{"coordinates":[12.789866,45.644491],"type":"Point"},"properties":{"highway":"give_way","osm_id":"7720699182","tag":{"direction":"forward"}},"type":"Feature"},
	{"geometry":{"coordinates":[12.789769,45.643569],"type":"Point"},"properties":{"osm_id":"7720724488","tag":{"amenity":"waste_disposal"}},"type":"Feature"},
	{"geometry":{"coordinates":[12.789908,45.643731],"type":"Point"},"properties":{"osm_id":"7720724489","tag":{"amenity":"waste_disposal"}},"type":"Feature"},
	{"geometry":{"coordinates":[12.790017,45.643537],"type":"Point"},"properties":{"osm_id":"7720724490","tag":{"amenity":"waste_disposal"}},"type":"Feature"},
	{"geometry":{"coordinates":[12.755268,45.614878],"type":"Point"},"properties":{"osm_id":"7806934899","tag":{"amenity":"waste_disposal"}},"type":"Feature"},
	{"geometry":{"coordinates":[12.754427,45.613984],"type":"Point"},"properties":{"osm_id":"7806934922","tag":{"amenity":"waste_disposal"}},"type":"Feature"}
]
}
