{
"type": "FeatureCollection",
"features": [
	{"geometry":{"coordinates":[12.74637,43.840806],"type":"Point"},"properties":{"osm_id":"4278076602","tag":{"amenity":"waste_disposal"}},"type":"Feature"},
	{"geometry":{"coordinates":[12.748226,43.841054],"type":"Point"},"properties":{"osm_id":"4278076603","tag":{"amenity":"waste_disposal"}},"type":"Feature"},
	{"geometry":{"coordinates":[12.746306,43.84172],"type":"Point"},"properties":{"osm_id":"4278076604","tag":{"amenity":"waste_disposal"}},"type":"Feature"},
	{"geometry":{"coordinates":[12.748022,43.841805],"type":"Point"},"properties":{"osm_id":"4278076605","tag":{"amenity":"waste_disposal"}},"type":"Feature"},
	{"geometry":{"coordinates":[12.747196,43.842346],"type":"Point"},"properties":{"osm_id":"4278076606","tag":{"amenity":"waste_disposal"}},"type":"Feature"},
	{"geometry":{"coordinates":[12.746767,43.842718],"type":"Point"},"properties":{"osm_id":"4278076607","tag":{"amenity":"waste_disposal"}},"type":"Feature"},
	{"geometry":{"coordinates":[12.748977,43.84326],"type":"Point"},"properties":{"osm_id":"4278076608","tag":{"amenity":"waste_disposal"}},"type":"Feature"},
	{"geometry":{"coordinates":[12.749953,43.843708],"type":"Point"},"properties":{"osm_id":"4278076609","tag":{"amenity":"waste_disposal"}},"type":"Feature"},
	{"geometry":{"coordinates":[12.748129,43.843879],"type":"Point"},"properties":{"osm_id":"4278076610","tag":{"amenity":"waste_disposal"}},"type":"Feature"},
	{"geometry":{"coordinates":[12.749229,43.844478],"type":"Point"},"properties":{"osm_id":"4278076611","tag":{"amenity":"waste_basket"}},"type":"Feature"},
	{"geometry":{"coordinates":[12.749696,43.846138],"type":"Point"},"properties":{"osm_id":"4278076612","tag":{"amenity":"waste_disposal"}},"type":"Feature"},
	{"geometry":{"coordinates":[12.752399,43.846912],"type":"Point"},"properties":{"osm_id":"4278076613","tag":{"amenity":"waste_disposal"}},"type":"Feature"},
	{"geometry":{"coordinates":[12.786818,43.848727],"type":"Point"},"properties":{"osm_id":"5961054915","tag":{"amenity":"waste_basket"}},"type":"Feature"},
	{"geometry":{"coordinates":[12.786942,43.848759],"type":"Point"},"properties":{"osm_id":"5961054916","tag":{"amenity":"waste_basket"}},"type":"Feature"},
	{"geometry":{"coordinates":[12.786766,43.849004],"type":"Point"},"properties":{"osm_id":"5961054917","tag":{"amenity":"waste_basket"}},"type":"Feature"},
	{"geometry":{"coordinates":[12.786916,43.848894],"type":"Point"},"properties":{"osm_id":"5961054918","tag":{"amenity":"waste_basket"}},"type":"Feature"},
	{"geometry":{"coordinates":[12.786649,43.848858],"type":"Point"},"properties":{"osm_id":"5961054919","tag":{"amenity":"waste_basket"}},"type":"Feature"},
	{"geometry":{"coordinates":[12.764482,43.837948],"type":"Point"},"properties":{"osm_id":"5964768955","tag":{"amenity":"waste_basket"}},"type":"Feature"},
	{"geometry":{"coordinates":[12.786808,43.843754],"type":"Point"},"properties":{"osm_id":"5981064711","tag":{"amenity":"waste_disposal"}},"type":"Feature"},
	{"geometry":{"coordinates":[12.777218,43.86286],"type":"Point"},"properties":{"osm_id":"5981065080","tag":{"amenity":"waste_basket"}},"type":"Feature"},
	{"geometry":{"coordinates":[12.786042,43.844434],"type":"Point"},"properties":{"osm_id":"5981065280","tag":{"amenity":"waste_basket"}},"type":"Feature"},
	{"geometry":{"coordinates":[12.786078,43.844071],"type":"Point"},"properties":{"osm_id":"5981065281","tag":{"amenity":"waste_basket"}},"type":"Feature"},
	{"geometry":{"coordinates":[12.787892,43.844653],"type":"Point"},"properties":{"highway":"street_lamp","osm_id":"6000010264","tag":{"amenity":"waste_basket"}},"type":"Feature"},
	{"geometry":{"coordinates":[12.785598,43.865867],"type":"Point"},"properties":{"osm_id":"6050885043","tag":{"amenity":"waste_basket","description":"bidoni differenziata"}},"type":"Feature"},
	{"geometry":{"coordinates":[12.788328,43.848762],"type":"Point"},"properties":{"osm_id":"6068321780","tag":{"amenity":"waste_basket"}},"type":"Feature"},
	{"geometry":{"coordinates":[12.788008,43.848305],"type":"Point"},"properties":{"osm_id":"6068321782","tag":{"amenity":"waste_basket"}},"type":"Feature"},
	{"geometry":{"coordinates":[12.761151,43.838395],"type":"Point"},"properties":{"osm_id":"6068335081","tag":{"amenity":"waste_basket"}},"type":"Feature"}
]
}
