{
"type": "FeatureCollection",
"features": [
	{"geometry":{"coordinates":[120.434318,23.419136],"type":"Point"},"properties":{"osm_id":"1621367783","tag":{"natural":"tree"}},"type":"Feature"},
	{"geometry":{"coordinates":[120.436482,23.416897],"type":"Point"},"properties":{"osm_id":"1949086592","tag":{"natural":"tree"}},"type":"Feature"},
	{"geometry":{"coordinates":[120.437061,23.416867],"type":"Point"},"properties":{"osm_id":"1950318507","tag":{"natural":"tree"}},"type":"Feature"},
	{"geometry":{"coordinates":[120.436201,23.416875],"type":"Point"},"properties":{"osm_id":"1950318810","tag":{"natural":"tree"}},"type":"Feature"},
	{"geometry":{"coordinates":[120.435609,23.419468],"type":"Point"},"properties":{"osm_id":"2074594570","tag":{"natural":"tree"}},"type":"Feature"},
	{"geometry":{"coordinates":[120.435587,23.419566],"type":"Point"},"properties":{"osm_id":"2074594576","tag":{"natural":"tree"}},"type":"Feature"},
	{"geometry":{"coordinates":[120.435597,23.419521],"type":"Point"},"properties":{"osm_id":"2074603437","tag":{"natural":"tree"}},"type":"Feature"},
	{"geometry":{"coordinates":[120.435708,23.419033],"type":"Point"},"properties":{"osm_id":"2448141432","tag":{"natural":"tree"}},"type":"Feature"},
	{"geometry":{"coordinates":[120.497027,23.444978],"type":"Point"},"properties":{"osm_id":"2484575230","tag":{"natural":"tree","taxon":"\u00e8\u008a\u0092\u00e6\u009e\u009c"}},"type":"Feature"},
	{"geometry":{"coordinates":[120.434236,23.4195],"type":"Point"},"properties":{"osm_id":"2496342767","tag":{"natural":"tree"}},"type":"Feature"},
	{"geometry":{"coordinates":[120.442909,23.405149],"type":"Point"},"properties":{"osm_id":"2614323242","tag":{"natural":"tree"}},"type":"Feature"},
	{"geometry":{"coordinates":[120.494425,23.4463],"type":"Point"},"properties":{"osm_id":"2627789216","tag":{"natural":"tree"}},"type":"Feature"},
	{"geometry":{"coordinates":[120.441829,23.478604],"type":"Point"},"properties":{"osm_id":"2679814100","tag":{"natural":"tree"}},"type":"Feature"},
	{"geometry":{"coordinates":[120.435655,23.419256],"type":"Point"},"properties":{"osm_id":"2927145200","tag":{"natural":"tree"}},"type":"Feature"},
	{"geometry":{"coordinates":[120.434431,23.419882],"type":"Point"},"properties":{"osm_id":"2956843527","tag":{"natural":"tree"}},"type":"Feature"},
	{"geometry":{"coordinates":[120.435094,23.420009],"type":"Point"},"properties":{"osm_id":"2956843528","tag":{"natural":"tree"}},"type":"Feature"},
	{"geometry":{"coordinates":[120.435134,23.420017],"type":"Point"},"properties":{"osm_id":"2956843529","tag":{"natural":"tree"}},"type":"Feature"},
	{"geometry":{"coordinates":[120.434527,23.419901],"type":"Point"},"properties":{"osm_id":"2956843530","tag":{"natural":"tree"}},"type":"Feature"},
	{"geometry":{"coordinates":[120.434561,23.419907],"type":"Point"},"properties":{"osm_id":"2956843531","tag":{"natural":"tree"}},"type":"Feature"},
	{"geometry":{"coordinates":[120.434656,23.419925],"type":"Point"},"properties":{"osm_id":"2956843532","tag":{"natural":"tree"}},"type":"Feature"},
	{"geometry":{"coordinates":[120.434193,23.419832],"type":"Point"},"properties":{"osm_id":"2956844334","tag":{"natural":"tree"}},"type":"Feature"},
	{"geometry":{"coordinates":[120.434287,23.419855],"type":"Point"},"properties":{"osm_id":"2956844335","tag":{"natural":"tree"}},"type":"Feature"},
	{"geometry":{"coordinates":[120.434842,23.419961],"type":"Point"},"properties":{"osm_id":"2956844336","tag":{"natural":"tree"}},"type":"Feature"},
	{"geometry":{"coordinates":[120.434891,23.41997],"type":"Point"},"properties":{"osm_id":"2956844337","tag":{"natural":"tree"}},"type":"Feature"},
	{"geometry":{"coordinates":[120.434807,23.419954],"type":"Point"},"properties":{"osm_id":"2956844338","tag":{"natural":"tree"}},"type":"Feature"},
	{"geometry":{"coordinates":[120.434936,23.419979],"type":"Point"},"properties":{"osm_id":"2956844339","tag":{"natural":"tree"}},"type":"Feature"},
	{"geometry":{"coordinates":[120.434982,23.419988],"type":"Point"},"properties":{"osm_id":"2956844340","tag":{"natural":"tree"}},"type":"Feature"},
	{"geometry":{"coordinates":[120.435039,23.419999],"type":"Point"},"properties":{"osm_id":"2956844341","tag":{"natural":"tree"}},"type":"Feature"},
	{"geometry":{"coordinates":[120.435275,23.420044],"type":"Point"},"properties":{"osm_id":"2956844342","tag":{"natural":"tree"}},"type":"Feature"},
	{"geometry":{"coordinates":[120.493098,23.444048],"type":"Point"},"properties":{"osm_id":"3077687594","tag":{"natural":"tree"}},"type":"Feature"},
	{"geometry":{"coordinates":[120.492237,23.447001],"type":"Point"},"properties":{"osm_id":"3077687596","tag":{"natural":"tree"}},"type":"Feature"},
	{"geometry":{"coordinates":[120.435719,23.418982],"type":"Point"},"properties":{"osm_id":"3082715353","tag":{"natural":"tree"}},"type":"Feature"},
	{"geometry":{"coordinates":[120.436831,23.416801],"type":"Point"},"properties":{"osm_id":"3195542168","tag":{"natural":"tree"}},"type":"Feature"},
	{"geometry":{"coordinates":[120.437214,23.416799],"type":"Point"},"properties":{"osm_id":"3195542169","tag":{"natural":"tree"}},"type":"Feature"},
	{"geometry":{"coordinates":[120.435187,23.420027],"type":"Point"},"properties":{"osm_id":"3424405693","tag":{"natural":"tree"}},"type":"Feature"},
	{"geometry":{"coordinates":[120.434488,23.418385],"type":"Point"},"properties":{"osm_id":"3444557212","tag":{"natural":"tree"}},"type":"Feature"},
	{"geometry":{"coordinates":[120.436167,23.417092],"type":"Point"},"properties":{"osm_id":"3508147495","tag":{"natural":"tree"}},"type":"Feature"},
	{"geometry":{"coordinates":[120.435378,23.420067],"type":"Point"},"properties":{"osm_id":"3785977534","tag":{"natural":"tree"}},"type":"Feature"},
	{"geometry":{"coordinates":[120.435618,23.419428],"type":"Point"},"properties":{"osm_id":"3787861053","tag":{"natural":"tree"}},"type":"Feature"},
	{"geometry":{"coordinates":[120.434477,23.418436],"type":"Point"},"properties":{"osm_id":"3842360967","tag":{"natural":"tree"}},"type":"Feature"},
	{"geometry":{"coordinates":[120.4357,23.41907],"type":"Point"},"properties":{"osm_id":"4137979065","tag":{"natural":"tree"}},"type":"Feature"},
	{"geometry":{"coordinates":[120.436942,23.416973],"type":"Point"},"properties":{"osm_id":"4236823758","tag":{"natural":"tree"}},"type":"Feature"},
	{"geometry":{"coordinates":[120.43608,23.417986],"type":"Point"},"properties":{"osm_id":"4360870083","tag":{"natural":"tree"}},"type":"Feature"},
	{"geometry":{"coordinates":[120.436277,23.41654],"type":"Point"},"properties":{"osm_id":"4408108150","tag":{"natural":"tree"}},"type":"Feature"},
	{"geometry":{"coordinates":[120.436247,23.416626],"type":"Point"},"properties":{"osm_id":"4408110334","tag":{"natural":"tree"}},"type":"Feature"},
	{"geometry":{"coordinates":[120.436946,23.416842],"type":"Point"},"properties":{"osm_id":"4428569406","tag":{"natural":"tree"}},"type":"Feature"},
	{"geometry":{"coordinates":[120.435508,23.419924],"type":"Point"},"properties":{"osm_id":"4428862934","tag":{"natural":"tree"}},"type":"Feature"},
	{"geometry":{"coordinates":[120.434358,23.418959],"type":"Point"},"properties":{"osm_id":"4429298637","tag":{"natural":"tree"}},"type":"Feature"},
	{"geometry":{"coordinates":[120.434436,23.418618],"type":"Point"},"properties":{"osm_id":"4431710956","tag":{"natural":"tree"}},"type":"Feature"},
	{"geometry":{"coordinates":[120.434405,23.418751],"type":"Point"},"properties":{"osm_id":"4432474814","tag":{"natural":"tree"}},"type":"Feature"},
	{"geometry":{"coordinates":[120.43713,23.417816],"type":"Point"},"properties":{"osm_id":"4433163192","tag":{"natural":"tree"}},"type":"Feature"},
	{"geometry":{"coordinates":[120.437166,23.41782],"type":"Point"},"properties":{"osm_id":"4433163194","tag":{"natural":"tree"}},"type":"Feature"},
	{"geometry":{"coordinates":[120.437159,23.417894],"type":"Point"},"properties":{"osm_id":"4433163196","tag":{"natural":"tree"}},"type":"Feature"},
	{"geometry":{"coordinates":[120.437155,23.417794],"type":"Point"},"properties":{"osm_id":"4433163200","tag":{"natural":"tree"}},"type":"Feature"},
	{"geometry":{"coordinates":[120.434417,23.418701],"type":"Point"},"properties":{"osm_id":"4436373869","tag":{"natural":"tree"}},"type":"Feature"},
	{"geometry":{"coordinates":[120.435637,23.419339],"type":"Point"},"properties":{"osm_id":"4441616976","tag":{"natural":"tree"}},"type":"Feature"},
	{"geometry":{"coordinates":[120.435746,23.418857],"type":"Point"},"properties":{"osm_id":"4447082924","tag":{"natural":"tree"}},"type":"Feature"},
	{"geometry":{"coordinates":[120.435766,23.418766],"type":"Point"},"properties":{"osm_id":"4447082925","tag":{"natural":"tree"}},"type":"Feature"},
	{"geometry":{"coordinates":[120.43418,23.419794],"type":"Point"},"properties":{"osm_id":"4447521150","tag":{"natural":"tree"}},"type":"Feature"},
	{"geometry":{"coordinates":[120.434753,23.419944],"type":"Point"},"properties":{"osm_id":"4447521151","tag":{"natural":"tree"}},"type":"Feature"},
	{"geometry":{"coordinates":[120.435787,23.418667],"type":"Point"},"properties":{"osm_id":"4453833114","tag":{"natural":"tree"}},"type":"Feature"},
	{"geometry":{"coordinates":[120.435628,23.419382],"type":"Point"},"properties":{"osm_id":"4740781521","tag":{"natural":"tree"}},"type":"Feature"},
	{"geometry":{"coordinates":[120.435539,23.419785],"type":"Point"},"properties":{"osm_id":"4870135386","tag":{"natural":"tree"}},"type":"Feature"},
	{"geometry":{"coordinates":[120.435548,23.419744],"type":"Point"},"properties":{"osm_id":"4870135387","tag":{"natural":"tree"}},"type":"Feature"},
	{"geometry":{"coordinates":[120.435569,23.41965],"type":"Point"},"properties":{"osm_id":"4870135388","tag":{"natural":"tree"}},"type":"Feature"},
	{"geometry":{"coordinates":[120.435488,23.420014],"type":"Point"},"properties":{"osm_id":"4870135411","tag":{"natural":"tree"}},"type":"Feature"},
	{"geometry":{"coordinates":[120.435518,23.419879],"type":"Point"},"properties":{"osm_id":"4870135412","tag":{"natural":"tree"}},"type":"Feature"},
	{"geometry":{"coordinates":[120.43547,23.420049],"type":"Point"},"properties":{"osm_id":"4870135413","tag":{"natural":"tree"}},"type":"Feature"},
	{"geometry":{"coordinates":[120.435528,23.419833],"type":"Point"},"properties":{"osm_id":"4891538810","tag":{"natural":"tree"}},"type":"Feature"},
	{"geometry":{"coordinates":[120.435757,23.418809],"type":"Point"},"properties":{"osm_id":"4917099706","tag":{"natural":"tree"}},"type":"Feature"},
	{"geometry":{"coordinates":[120.435334,23.420065],"type":"Point"},"properties":{"osm_id":"4936562820","tag":{"natural":"tree"}},"type":"Feature"},
	{"geometry":{"coordinates":[120.435775,23.418722],"type":"Point"},"properties":{"osm_id":"4971322205","tag":{"natural":"tree"}},"type":"Feature"},
	{"geometry":{"coordinates":[120.435727,23.418945],"type":"Point"},"properties":{"osm_id":"4987519176","tag":{"natural":"tree"}},"type":"Feature"},
	{"geometry":{"coordinates":[120.435736,23.418903],"type":"Point"},"properties":{"osm_id":"4987519326","tag":{"natural":"tree"}},"type":"Feature"},
	{"geometry":{"coordinates":[120.434385,23.418842],"type":"Point"},"properties":{"osm_id":"5069444218","tag":{"natural":"tree"}},"type":"Feature"},
	{"geometry":{"coordinates":[120.434207,23.419627],"type":"Point"},"properties":{"osm_id":"5239194467","tag":{"natural":"tree"}},"type":"Feature"},
	{"geometry":{"coordinates":[120.434227,23.419538],"type":"Point"},"properties":{"osm_id":"5239194473","tag":{"natural":"tree"}},"type":"Feature"},
	{"geometry":{"coordinates":[120.435666,23.419209],"type":"Point"},"properties":{"osm_id":"5528176041","tag":{"natural":"tree"}},"type":"Feature"},
	{"geometry":{"coordinates":[120.436137,23.417789],"type":"Point"},"properties":{"osm_id":"5537442300","tag":{"natural":"tree"}},"type":"Feature"},
	{"geometry":{"coordinates":[120.437073,23.416804],"type":"Point"},"properties":{"osm_id":"5577527675","tag":{"natural":"tree"}},"type":"Feature"},
	{"geometry":{"coordinates":[120.437217,23.416732],"type":"Point"},"properties":{"osm_id":"5577527676","tag":{"natural":"tree"}},"type":"Feature"},
	{"geometry":{"coordinates":[120.43724,23.416931],"type":"Point"},"properties":{"osm_id":"5577527677","tag":{"natural":"tree"}},"type":"Feature"},
	{"geometry":{"coordinates":[120.437209,23.416652],"type":"Point"},"properties":{"osm_id":"5577528275","tag":{"natural":"tree"}},"type":"Feature"},
	{"geometry":{"coordinates":[120.435796,23.418628],"type":"Point"},"properties":{"osm_id":"5599992966","tag":{"natural":"tree"}},"type":"Feature"},
	{"geometry":{"coordinates":[120.434366,23.418924],"type":"Point"},"properties":{"osm_id":"5645870174","tag":{"natural":"tree"}},"type":"Feature"},
	{"geometry":{"coordinates":[120.435499,23.419965],"type":"Point"},"properties":{"osm_id":"5778249325","tag":{"natural":"tree"}},"type":"Feature"},
	{"geometry":{"coordinates":[120.435579,23.419604],"type":"Point"},"properties":{"osm_id":"5828467624","tag":{"natural":"tree"}},"type":"Feature"},
	{"geometry":{"coordinates":[120.437011,23.416858],"type":"Point"},"properties":{"osm_id":"6023961468","tag":{"natural":"tree"}},"type":"Feature"},
	{"geometry":{"coordinates":[120.436113,23.417859],"type":"Point"},"properties":{"osm_id":"6180286548","tag":{"natural":"tree"}},"type":"Feature"},
	{"geometry":{"coordinates":[120.435427,23.420069],"type":"Point"},"properties":{"osm_id":"6286404822","tag":{"natural":"tree"}},"type":"Feature"},
	{"geometry":{"coordinates":[120.434376,23.418882],"type":"Point"},"properties":{"osm_id":"6316771369","tag":{"natural":"tree"}},"type":"Feature"},
	{"geometry":{"coordinates":[120.434347,23.419007],"type":"Point"},"properties":{"osm_id":"6316771374","tag":{"natural":"tree"}},"type":"Feature"},
	{"geometry":{"coordinates":[120.434306,23.419192],"type":"Point"},"properties":{"osm_id":"6323408189","tag":{"natural":"tree"}},"type":"Feature"},
	{"geometry":{"coordinates":[120.435646,23.419298],"type":"Point"},"properties":{"osm_id":"6575411739","tag":{"natural":"tree"}},"type":"Feature"},
	{"geometry":{"coordinates":[120.435676,23.419163],"type":"Point"},"properties":{"osm_id":"7005975178","tag":{"natural":"tree"}},"type":"Feature"},
	{"geometry":{"coordinates":[120.435689,23.41912],"type":"Point"},"properties":{"osm_id":"7037450751","tag":{"natural":"tree"}},"type":"Feature"},
	{"geometry":{"coordinates":[120.434276,23.419321],"type":"Point"},"properties":{"osm_id":"7264233210","tag":{"natural":"tree"}},"type":"Feature"},
	{"geometry":{"coordinates":[120.434286,23.41928],"type":"Point"},"properties":{"osm_id":"7264233211","tag":{"natural":"tree"}},"type":"Feature"},
	{"geometry":{"coordinates":[120.437029,23.416745],"type":"Point"},"properties":{"osm_id":"7264233212","tag":{"natural":"tree"}},"type":"Feature"},
	{"geometry":{"coordinates":[120.434266,23.419367],"type":"Point"},"properties":{"osm_id":"7264233213","tag":{"natural":"tree"}},"type":"Feature"},
	{"geometry":{"coordinates":[120.434396,23.418791],"type":"Point"},"properties":{"osm_id":"7264233216","tag":{"natural":"tree"}},"type":"Feature"},
	{"geometry":{"coordinates":[120.434457,23.418521],"type":"Point"},"properties":{"osm_id":"7264233220","tag":{"natural":"tree"}},"type":"Feature"},
	{"geometry":{"coordinates":[120.434247,23.419449],"type":"Point"},"properties":{"osm_id":"7264233221","tag":{"natural":"tree"}},"type":"Feature"},
	{"geometry":{"coordinates":[120.43612,23.417988],"type":"Point"},"properties":{"osm_id":"7328947550","tag":{"natural":"tree"}},"type":"Feature"},
	{"geometry":{"coordinates":[120.467629,23.481277],"type":"Point"},"properties":{"osm_id":"8058912356","ref":"48","tag":{"addr:place":"\u00e5\u0098\u0089\u00e7\u00be\u00a9\u00e5\u0085\u00ac\u00e5\u009c\u0092\u00e5\u008f\u00b2\u00e8\u00b9\u009f\u00e8\u00b3\u0087\u00e6\u0096\u0099\u00e9\u00a4\u00a8\u00e5\u0089\u008d","natural":"tree","source:type":"\u00e6\u0094\u00bf\u00e5\u00ba\u009c\u00e9\u0096\u008b\u00e6\u0094\u00be\u00e8\u00b3\u0087\u00e6\u0096\u0099","taxon":"\u00e6\u00a5\u0093\u00e9\u00a6\u0099"}},"type":"Feature"},
	{"geometry":{"coordinates":[120.464949,23.478847],"type":"Point"},"properties":{"osm_id":"8058912357","ref":"7","tag":{"addr:place":"\u00e5\u0098\u0089\u00e7\u00be\u00a9\u00e5\u00b8\u0082\u00e6\u009d\u00b1\u00e5\u008d\u0080\u00e6\u009d\u00b1\u00e5\u00b7\u009d\u00e9\u0087\u008c\u00e5\u00a4\u00a7\u00e9\u009b\u0085\u00e8\u00b7\u00af\u00e4\u00ba\u008c\u00e6\u00ae\u00b5738\u00e8\u0099\u009f(\u00e5\u0098\u0089\u00e7\u00be\u00a9\u00e9\u00ab\u0098\u00e4\u00b8\u00ad\u00e4\u00b8\u00ad\u00e5\u00ba\u00ad)","natural":"tree","source:type":"\u00e6\u0094\u00bf\u00e5\u00ba\u009c\u00e9\u0096\u008b\u00e6\u0094\u00be\u00e8\u00b3\u0087\u00e6\u0096\u0099","taxon":"\u00e9\u009b\u00a8\u00e8\u00b1\u0086\u00e6\u00a8\u00b9"}},"type":"Feature"},
	{"geometry":{"coordinates":[120.463904,23.483334],"type":"Point"},"properties":{"osm_id":"8058912359","ref":"41","tag":{"addr:place":"\u00e5\u0098\u0089\u00e7\u00be\u00a9\u00e5\u0085\u00ac\u00e5\u009c\u0092\u00e7\u00a6\u008f\u00e5\u00ba\u00b7\u00e5\u00ae\u0089?\u00e5\u008a\u009f\u00e7\u00a2\u0091\u00e6\u0097\u0081","natural":"tree","source:type":"\u00e6\u0094\u00bf\u00e5\u00ba\u009c\u00e9\u0096\u008b\u00e6\u0094\u00be\u00e8\u00b3\u0087\u00e6\u0096\u0099","taxon":"\u00e9\u0087\u0091\u00e9\u00be\u009c\u00e6\u00a8\u00b9"}},"type":"Feature"},
	{"geometry":{"coordinates":[120.441179,23.461053],"type":"Point"},"properties":{"osm_id":"8058912361","ref":"14","tag":{"addr:place":"\u00e5\u0098\u0089\u00e7\u00be\u00a9\u00e5\u00b8\u0082\u00e6\u00b0\u0091\u00e7\u0094\u009f\u00e5\u008d\u0097\u00e8\u00b7\u00af466\u00e5\u00b7\u00b777\u00e8\u0099\u009f","natural":"tree","source:type":"\u00e6\u0094\u00bf\u00e5\u00ba\u009c\u00e9\u0096\u008b\u00e6\u0094\u00be\u00e8\u00b3\u0087\u00e6\u0096\u0099","taxon":"\u00e6\u00aa\u00ac\u00e6\u009e\u009c"}},"type":"Feature"},
	{"geometry":{"coordinates":[120.46962,23.482419],"type":"Point"},"properties":{"osm_id":"8058912362","ref":"38","tag":{"addr:place":"\u00e5\u0098\u0089\u00e7\u00be\u00a9\u00e5\u00b8\u0082\u00e6\u00b0\u0091\u00e6\u00ac\u008a\u00e8\u00b7\u00af270\u00e8\u0099\u009f\u00ef\u00bc\u0088\u00e5\u0098\u0089\u00e7\u00be\u00a9\u00e6\u00a8\u00b9\u00e6\u009c\u00a8\u00e5\u009c\u0092\u00e6\u00b6\u00bc\u00e4\u00ba\u00ad\u00e6\u0097\u0081\u00ef\u00bc\u0089","natural":"tree","source:type":"\u00e6\u0094\u00bf\u00e5\u00ba\u009c\u00e9\u0096\u008b\u00e6\u0094\u00be\u00e8\u00b3\u0087\u00e6\u0096\u0099","taxon":"\u00e5\u00b7\u00b4\u00e8\u00a5\u00bf\u00e6\u00a9\u00a1\u00e8\u0086\u00a0\u00e6\u00a8\u00b9"}},"type":"Feature"},
	{"geometry":{"coordinates":[120.469594,23.480103],"type":"Point"},"properties":{"osm_id":"8058912364","ref":"11","tag":{"addr:place":"\u00e5\u0098\u0089\u00e7\u00be\u00a9\u00e5\u00b8\u0082\u00e6\u009d\u00b1\u00e5\u008d\u0080\u00e6\u009d\u00b1\u00e5\u00b7\u009d\u00e9\u0087\u008c\u00e5\u0085\u00ac\u00e5\u009c\u0092\u00e8\u00a1\u009740\u00e8\u0099\u009f","natural":"tree","source:type":"\u00e6\u0094\u00bf\u00e5\u00ba\u009c\u00e9\u0096\u008b\u00e6\u0094\u00be\u00e8\u00b3\u0087\u00e6\u0096\u0099","taxon":"\u00e6\u00a6\u0095\u00e6\u00a8\u00b9"}},"type":"Feature"},
	{"geometry":{"coordinates":[120.466591,23.479003],"type":"Point"},"properties":{"osm_id":"8058912365","ref":"29","tag":{"addr:place":"\u00e5\u0085\u00ac\u00e5\u009c\u0092\u00e8\u00a1\u0097\u00e5\u00a4\u00a9\u00e9\u00be\u008d\u00e7\u00a6\u00aa\u00e5\u00af\u00ba\u00e8\u00a7\u0080\u00e9\u009f\u00b3\u00e6\u00ae\u00bf\u00e5\u0089\u008d","natural":"tree","source:type":"\u00e6\u0094\u00bf\u00e5\u00ba\u009c\u00e9\u0096\u008b\u00e6\u0094\u00be\u00e8\u00b3\u0087\u00e6\u0096\u0099","taxon":"\u00e9\u00be\u008d\u00e6\u009f\u008f"}},"type":"Feature"},
	{"geometry":{"coordinates":[120.468365,23.481308],"type":"Point"},"properties":{"osm_id":"8058912366","ref":"45","tag":{"addr:place":"\u00e5\u0098\u0089\u00e7\u00be\u00a9\u00e5\u0085\u00ac\u00e5\u009c\u0092\u00e5\u00b0\u0084\u00e6\u0097\u00a5\u00e5\u00a1\u0094\u00e5\u0089\u008d","natural":"tree","source:type":"\u00e6\u0094\u00bf\u00e5\u00ba\u009c\u00e9\u0096\u008b\u00e6\u0094\u00be\u00e8\u00b3\u0087\u00e6\u0096\u0099","taxon":"\u00e6\u0097\u00a5\u00e6\u009c\u00ac\u00e9\u00bb\u0091\u00e6\u009d\u00be"}},"type":"Feature"},
	{"geometry":{"coordinates":[120.480826,23.483335],"type":"Point"},"properties":{"osm_id":"8058912371","ref":"15","tag":{"addr:place":"\u00e5\u0098\u0089\u00e7\u00be\u00a9\u00e5\u00b8\u0082\u00e6\u00b0\u0091\u00e6\u00ac\u008a\u00e6\u009d\u00b1\u00e8\u00b7\u00af46\u00e8\u0099\u009f(\u00e8\u0087\u00aa\u00e4\u00be\u0086\u00e6\u00b0\u00b4\u00e5\u0085\u00ac\u00e5\u008f\u00b8\u00e7\u00ac\u00ac\u00e4\u00ba\u0094\u00e5\u008d\u0080\u00e7\u00ae\u00a1\u00e7\u0090\u0086\u00e8\u0099\u0095\u00e8\u0088\u008a\u00e5\u00ae\u00bf\u00e8\u0088\u008d\u00e6\u0097\u0081)","natural":"tree","source:type":"\u00e6\u0094\u00bf\u00e5\u00ba\u009c\u00e9\u0096\u008b\u00e6\u0094\u00be\u00e8\u00b3\u0087\u00e6\u0096\u0099","taxon":"\u00e6\u00a8\u009f\u00e6\u00a8\u00b9"}},"type":"Feature"},
	{"geometry":{"coordinates":[120.466615,23.479082],"type":"Point"},"properties":{"osm_id":"8058912374","ref":"30","tag":{"addr:place":"\u00e5\u0085\u00ac\u00e5\u009c\u0092\u00e8\u00a1\u0097\u00e5\u00a4\u00a9\u00e9\u00be\u008d\u00e7\u00a6\u00aa\u00e5\u00af\u00ba\u00e8\u00a7\u0080\u00e9\u009f\u00b3\u00e6\u00ae\u00bf\u00e5\u0089\u008d","natural":"tree","source:type":"\u00e6\u0094\u00bf\u00e5\u00ba\u009c\u00e9\u0096\u008b\u00e6\u0094\u00be\u00e8\u00b3\u0087\u00e6\u0096\u0099","taxon":"\u00e9\u00be\u008d\u00e6\u009f\u008f"}},"type":"Feature"},
	{"geometry":{"coordinates":[120.46467,23.477347],"type":"Point"},"properties":{"osm_id":"8058912375","ref":"8","tag":{"addr:place":"\u00e5\u0098\u0089\u00e7\u00be\u00a9\u00e5\u00b8\u0082\u00e6\u009d\u00b1\u00e5\u008d\u0080\u00e6\u009d\u00b1\u00e5\u00b7\u009d\u00e9\u0087\u008c\u00e5\u00a4\u00a7\u00e9\u009b\u0085\u00e8\u00b7\u00af\u00e4\u00ba\u008c\u00e6\u00ae\u00b5738\u00e8\u0099\u009f(\u00e5\u0098\u0089\u00e7\u00be\u00a9\u00e9\u00ab\u0098\u00e4\u00b8\u00ad\u00e6\u00a4\u00b0\u00e6\u009e\u0097\u00e5\u00a4\u00a7\u00e9\u0081\u0093\u00e6\u0097\u0081)","natural":"tree","source:type":"\u00e6\u0094\u00bf\u00e5\u00ba\u009c\u00e9\u0096\u008b\u00e6\u0094\u00be\u00e8\u00b3\u0087\u00e6\u0096\u0099","taxon":"\u00e6\u00a6\u0095\u00e6\u00a8\u00b9"}},"type":"Feature"},
	{"geometry":{"coordinates":[120.467802,23.481383],"type":"Point"},"properties":{"osm_id":"8058912376","ref":"46","tag":{"addr:place":"\u00e5\u0098\u0089\u00e7\u00be\u00a9\u00e5\u0085\u00ac\u00e5\u009c\u0092\u00e7\u00ac\u00ac\u00e4\u00b8\u0080\u00e4\u00bb\u00a3\u00e7\u00a5\u009e\u00e7\u00a4\u00be\u00e9\u0081\u00ba\u00e5\u009d\u0080\u00e6\u0097\u0081","natural":"tree","source:type":"\u00e6\u0094\u00bf\u00e5\u00ba\u009c\u00e9\u0096\u008b\u00e6\u0094\u00be\u00e8\u00b3\u0087\u00e6\u0096\u0099","taxon":"\u00e6\u0097\u00a5\u00e6\u009c\u00ac\u00e9\u00bb\u0091\u00e6\u009d\u00be"}},"type":"Feature"},
	{"geometry":{"coordinates":[120.482969,23.483393],"type":"Point"},"properties":{"osm_id":"8058912377","ref":"5","tag":{"addr:place":"\u00e5\u0098\u0089\u00e7\u00be\u00a9\u00e5\u00b8\u0082\u00e6\u009d\u00b1\u00e5\u008d\u0080\u00e9\u0095\u00b7\u00e7\u00ab\u00b9\u00e9\u0087\u008c\u00e6\u00b0\u0091\u00e6\u00ac\u008a\u00e6\u009d\u00b1\u00e8\u00b7\u00af32\u00e8\u0099\u009f(\u00e8\u0098\u00ad\u00e6\u00bd\u00ad\u00e6\u0093\u008d\u00e5\u00a0\u00b4\u00e5\u008f\u00b3\u00e5\u00be\u008c\u00e6\u0096\u00b9)","natural":"tree","source:type":"\u00e6\u0094\u00bf\u00e5\u00ba\u009c\u00e9\u0096\u008b\u00e6\u0094\u00be\u00e8\u00b3\u0087\u00e6\u0096\u0099","taxon":"\u00e6\u00aa\u00ac\u00e6\u009e\u009c"}},"type":"Feature"},
	{"geometry":{"coordinates":[120.469348,23.480683],"type":"Point"},"properties":{"osm_id":"8058912378","ref":"22","tag":{"addr:place":"\u00e5\u0098\u0089\u00e7\u00be\u00a9\u00e5\u0085\u00ac\u00e5\u009c\u0092\u00e6\u009d\u00b1\u00e5\u0081\u00b4\u00e5\u0085\u00ac\u00e5\u00bb\u0081\u00e5\u0089\u008d","natural":"tree","source:type":"\u00e6\u0094\u00bf\u00e5\u00ba\u009c\u00e9\u0096\u008b\u00e6\u0094\u00be\u00e8\u00b3\u0087\u00e6\u0096\u0099","taxon":"\u00e6\u00aa\u00ac\u00e6\u009e\u009c"}},"type":"Feature"},
	{"geometry":{"coordinates":[120.456566,23.480365],"type":"Point"},"properties":{"osm_id":"8058912382","ref":"12","tag":{"addr:place":"\u00e5\u0098\u0089\u00e7\u00be\u00a9\u00e5\u00b8\u0082\u00e6\u009d\u00b1\u00e5\u008d\u0080\u00e6\u009d\u00b1\u00e5\u00ae\u0089\u00e9\u0087\u008c\u00e5\u0085\u00ac\u00e6\u0098\u008e\u00e8\u00b7\u00af125\u00e8\u0099\u009f(\u00e6\u009d\u00b1\u00e9\u0096\u0080\u00e5\u009c\u0093\u00e7\u0092\u00b0)","natural":"tree","source:type":"\u00e6\u0094\u00bf\u00e5\u00ba\u009c\u00e9\u0096\u008b\u00e6\u0094\u00be\u00e8\u00b3\u0087\u00e6\u0096\u0099","taxon":"\u00e6\u00a6\u0095\u00e6\u00a8\u00b9"}},"type":"Feature"},
	{"geometry":{"coordinates":[120.45483,23.474547],"type":"Point"},"properties":{"osm_id":"8058912384","ref":"9","tag":{"addr:place":"\u00e5\u0098\u0089\u00e7\u00be\u00a9\u00e5\u00b8\u0082\u00e6\u00b0\u0091\u00e6\u0097\u008f\u00e8\u00b7\u00af235\u00e8\u0099\u009f(\u00e6\u00b0\u0091\u00e6\u0097\u008f\u00e5\u009c\u008b\u00e5\u00b0\u008f\u00e6\u0093\u008d\u00e5\u00a0\u00b4)","natural":"tree","source:type":"\u00e6\u0094\u00bf\u00e5\u00ba\u009c\u00e9\u0096\u008b\u00e6\u0094\u00be\u00e8\u00b3\u0087\u00e6\u0096\u0099","taxon":"\u00e9\u00b3\u00b3\u00e5\u0087\u00b0\u00e6\u009c\u00a8"}},"type":"Feature"},
	{"geometry":{"coordinates":[120.468557,23.474544],"type":"Point"},"properties":{"osm_id":"8058932185","ref":"27","tag":{"addr:place":"\u00e5\u0098\u0089\u00e7\u00be\u00a9\u00e5\u00b8\u0082\u00e8\u0098\u00ad\u00e6\u00bd\u00ad\u00e9\u0087\u008c\u00e7\u00ab\u008b\u00e5\u00be\u00b7\u00e8\u00a1\u009796\u00e8\u0099\u009f\u00e7\u00a6\u008f\u00e5\u00b1\u00b1\u00e5\u00ae\u00ae\u00e5\u0089\u008d","natural":"tree","source:type":"\u00e6\u0094\u00bf\u00e5\u00ba\u009c\u00e9\u0096\u008b\u00e6\u0094\u00be\u00e8\u00b3\u0087\u00e6\u0096\u0099","taxon":"\u00e6\u00a6\u0095\u00e6\u00a8\u00b9"}},"type":"Feature"},
	{"geometry":{"coordinates":[120.465479,23.48293],"type":"Point"},"properties":{"osm_id":"8058932186","ref":"43","tag":{"addr:place":"\u00e5\u0098\u0089\u00e7\u00be\u00a9\u00e5\u0085\u00ac\u00e5\u009c\u0092\u00e5\u0096\u0084\u00e5\u009c\u0092\u00e6\u00a9\u008b\u00e6\u0097\u0081","natural":"tree","source:type":"\u00e6\u0094\u00bf\u00e5\u00ba\u009c\u00e9\u0096\u008b\u00e6\u0094\u00be\u00e8\u00b3\u0087\u00e6\u0096\u0099","taxon":"\u00e9\u0087\u0091\u00e9\u00be\u009c\u00e6\u00a8\u00b9"}},"type":"Feature"},
	{"geometry":{"coordinates":[120.468812,23.483388],"type":"Point"},"properties":{"osm_id":"8058932189","ref":"40","tag":{"addr:place":"\u00e5\u0098\u0089\u00e7\u00be\u00a9\u00e5\u00b8\u0082\u00e6\u00b0\u0091\u00e6\u00ac\u008a\u00e8\u00b7\u00af270\u00e8\u0099\u009f\u00ef\u00bc\u0088\u00e5\u0098\u0089\u00e7\u00be\u00a9\u00e6\u00a8\u00b9\u00e6\u009c\u00a8\u00e5\u009c\u0092\u00e6\u009d\u00bf\u00e6\u00a0\u00b9\u00e6\u00a4\u008d\u00e7\u0089\u00a9\u00e5\u008d\u0080\u00e5\u0089\u008d\u00e6\u0096\u00b9\u00ef\u00bc\u0089","natural":"tree","source:type":"\u00e6\u0094\u00bf\u00e5\u00ba\u009c\u00e9\u0096\u008b\u00e6\u0094\u00be\u00e8\u00b3\u0087\u00e6\u0096\u0099","taxon":"\u00e5\u0096\u00ae\u00e5\u00ad\u0090\u00e7\u00b4\u0085\u00e8\u00b1\u0086"}},"type":"Feature"},
	{"geometry":{"coordinates":[120.415623,23.467258],"type":"Point"},"properties":{"osm_id":"8058932191","ref":"13","tag":{"addr:place":"\u00e5\u0098\u0089\u00e7\u00be\u00a9\u00e5\u00b8\u0082\u00e8\u00a5\u00bf\u00e5\u008d\u0080\u00e5\u008a\u0089\u00e5\u008e\u009d\u00e9\u0087\u008c\u00e5\u00a4\u00a7\u00e4\u00bf\u00a1\u00e8\u00a1\u0097150\u00e8\u0099\u009f\u00e4\u00b9\u008b1(\u00e5\u008a\u0089\u00e5\u008e\u009d\u00e5\u0085\u00ac\u00e5\u009c\u0092\u00e5\u0085\u00a7)","natural":"tree","source:type":"\u00e6\u0094\u00bf\u00e5\u00ba\u009c\u00e9\u0096\u008b\u00e6\u0094\u00be\u00e8\u00b3\u0087\u00e6\u0096\u0099","taxon":"\u00e6\u00a6\u0095\u00e6\u00a8\u00b9"}},"type":"Feature"},
	{"geometry":{"coordinates":[120.467904,23.48124],"type":"Point"},"properties":{"osm_id":"8058932193","ref":"47","tag":{"addr:place":"\u00e5\u0098\u0089\u00e7\u00be\u00a9\u00e5\u0085\u00ac\u00e5\u009c\u0092\u00e5\u008f\u00b2\u00e8\u00b9\u009f\u00e8\u00b3\u0087\u00e6\u0096\u0099\u00e9\u00a4\u00a8\u00e5\u0089\u008d","natural":"tree","source:type":"\u00e6\u0094\u00bf\u00e5\u00ba\u009c\u00e9\u0096\u008b\u00e6\u0094\u00be\u00e8\u00b3\u0087\u00e6\u0096\u0099","taxon":"\u00e6\u0097\u00a5\u00e6\u009c\u00ac\u00e9\u00bb\u0091\u00e6\u009d\u00be"}},"type":"Feature"},
	{"geometry":{"coordinates":[120.48297,23.483294],"type":"Point"},"properties":{"osm_id":"8058932194","ref":"6","tag":{"addr:place":"\u00e5\u0098\u0089\u00e7\u00be\u00a9\u00e5\u00b8\u0082\u00e6\u009d\u00b1\u00e5\u008d\u0080\u00e9\u0095\u00b7\u00e7\u00ab\u00b9\u00e9\u0087\u008c\u00e6\u00b0\u0091\u00e6\u00ac\u008a\u00e6\u009d\u00b1\u00e8\u00b7\u00af32\u00e8\u0099\u009f(\u00e8\u0098\u00ad\u00e6\u00bd\u00ad\u00e6\u0093\u008d\u00e5\u00a0\u00b4\u00e5\u008f\u00b3\u00e5\u00be\u008c\u00e6\u0096\u00b9)","natural":"tree","source:type":"\u00e6\u0094\u00bf\u00e5\u00ba\u009c\u00e9\u0096\u008b\u00e6\u0094\u00be\u00e8\u00b3\u0087\u00e6\u0096\u0099","taxon":"\u00e6\u00aa\u00ac\u00e6\u009e\u009c"}},"type":"Feature"},
	{"geometry":{"coordinates":[120.444341,23.483324],"type":"Point"},"properties":{"osm_id":"8058932195","ref":"28","tag":{"addr:place":"\u00e9\u0090\u00b5\u00e8\u00b7\u00af\u00e5\u00b1\u0080\u00e5\u0098\u0089\u00e7\u00be\u00a9\u00e5\u00b7\u00a5\u00e5\u008b\u0099\u00e6\u00ae\u00b5\u00e6\u009d\u0090\u00e6\u0096\u0099\u00e5\u0080\u0089\u00e5\u00ba\u00ab\u00e5\u00a4\u00a7\u00e9\u0096\u0080\u00e5\u0089\u008d","natural":"tree","source:type":"\u00e6\u0094\u00bf\u00e5\u00ba\u009c\u00e9\u0096\u008b\u00e6\u0094\u00be\u00e8\u00b3\u0087\u00e6\u0096\u0099","taxon":"\u00e6\u00a6\u0095\u00e6\u00a8\u00b9"}},"type":"Feature"},
	{"geometry":{"coordinates":[120.468209,23.481312],"type":"Point"},"properties":{"osm_id":"8058932196","ref":"44","tag":{"addr:place":"\u00e5\u0098\u0089\u00e7\u00be\u00a9\u00e5\u0085\u00ac\u00e5\u009c\u0092\u00e5\u00b0\u0084\u00e6\u0097\u00a5\u00e5\u00a1\u0094\u00e5\u0089\u008d","natural":"tree","source:type":"\u00e6\u0094\u00bf\u00e5\u00ba\u009c\u00e9\u0096\u008b\u00e6\u0094\u00be\u00e8\u00b3\u0087\u00e6\u0096\u0099","taxon":"\u00e6\u0097\u00a5\u00e6\u009c\u00ac\u00e9\u00bb\u0091\u00e6\u009d\u00be"}},"type":"Feature"},
	{"geometry":{"coordinates":[120.435502,23.46791],"type":"Point"},"properties":{"osm_id":"8058932199","ref":"19","tag":{"addr:place":"\u00e5\u0098\u0089\u00e7\u00be\u00a9\u00e5\u00b8\u0082\u00e8\u0088\u0088\u00e6\u00a5\u00ad\u00e8\u00a5\u00bf\u00e8\u00b7\u00af\u00e8\u0088\u0088\u00e5\u0098\u0089\u00e5\u0085\u00ac\u00e5\u009c\u0092\u00e5\u0085\u00a7","natural":"tree","source:type":"\u00e6\u0094\u00bf\u00e5\u00ba\u009c\u00e9\u0096\u008b\u00e6\u0094\u00be\u00e8\u00b3\u0087\u00e6\u0096\u0099","taxon":"\u00e6\u00aa\u00ac\u00e6\u009e\u009c"}},"type":"Feature"},
	{"geometry":{"coordinates":[120.46863,23.482523],"type":"Point"},"properties":{"osm_id":"8058932200","ref":"36","tag":{"addr:place":"\u00e5\u0098\u0089\u00e7\u00be\u00a9\u00e5\u00b8\u0082\u00e6\u00b0\u0091\u00e6\u00ac\u008a\u00e8\u00b7\u00af270\u00e8\u0099\u009f\u00ef\u00bc\u0088\u00e5\u0098\u0089\u00e7\u00be\u00a9\u00e6\u00a8\u00b9\u00e6\u009c\u00a8\u00e5\u009c\u0092\u00e7\u00ae\u00a1\u00e7\u0090\u0086\u00e5\u00ae\u00a4\u00e5\u0089\u008d\u00e6\u0096\u00b9\u00ef\u00bc\u0089","natural":"tree","source:type":"\u00e6\u0094\u00bf\u00e5\u00ba\u009c\u00e9\u0096\u008b\u00e6\u0094\u00be\u00e8\u00b3\u0087\u00e6\u0096\u0099","taxon":"\u00e8\u0082\u00af\u00e6\u00b0\u008f\u00e5\u008d\u0097\u00e6\u00b4\u008b\u00e6\u009d\u0089"}},"type":"Feature"},
	{"geometry":{"coordinates":[120.465216,23.47874],"type":"Point"},"properties":{"osm_id":"8058932202","ref":"10","tag":{"addr:place":"\u00e5\u0098\u0089\u00e7\u00be\u00a9\u00e5\u00b8\u0082\u00e6\u009d\u00b1\u00e5\u008d\u0080\u00e6\u009d\u00b1\u00e5\u00b7\u009d\u00e9\u0087\u008c\u00e5\u00a4\u00a7\u00e9\u009b\u0085\u00e8\u00b7\u00af\u00e4\u00ba\u008c\u00e6\u00ae\u00b5738\u00e8\u0099\u009f(\u00e5\u0098\u0089\u00e7\u00be\u00a9\u00e9\u00ab\u0098\u00e4\u00b8\u00ad\u00e4\u00b8\u00ad\u00e5\u00ba\u00ad)","natural":"tree","source:type":"\u00e6\u0094\u00bf\u00e5\u00ba\u009c\u00e9\u0096\u008b\u00e6\u0094\u00be\u00e8\u00b3\u0087\u00e6\u0096\u0099","taxon":"\u00e9\u009b\u00a8\u00e8\u00b1\u0086\u00e6\u00a8\u00b9"}},"type":"Feature"},
	{"geometry":{"coordinates":[120.422077,23.476277],"type":"Point"},"properties":{"osm_id":"8490549317","tag":{"natural":"tree"}},"type":"Feature"},
	{"geometry":{"coordinates":[120.438892,23.479609],"type":"Point"},"properties":{"osm_id":"8738710813","tag":{"natural":"tree"}},"type":"Feature"},
	{"geometry":{"coordinates":[120.470068,23.476467],"type":"Point"},"properties":{"osm_id":"8764622513","tag":{"natural":"tree"}},"type":"Feature"}
]
}
