{
"type": "FeatureCollection",
"features": [
	{"geometry":{"coordinates":[-88.42758,44.207444],"type":"Point"},"properties":{"name":"Menasha Recycling","osm_id":"553343694","tag":{"amenity":"recycling"}},"type":"Feature"},
	{"geometry":{"coordinates":[-88.4875,44.199008],"type":"Point"},"properties":{"osm_id":"7705907876","tag":{"amenity":"recycling","recycling_type":"container"}},"type":"Feature"},
	{"geometry":{"coordinates":[-88.487465,44.19899],"type":"Point"},"properties":{"osm_id":"7705907877","tag":{"amenity":"waste_disposal"}},"type":"Feature"},
	{"geometry":{"coordinates":[-88.448424,44.21175],"type":"Point"},"properties":{"osm_id":"8765857247","tag":{"amenity":"waste_disposal"}},"type":"Feature"},
	{"geometry":{"coordinates":[-88.448404,44.211699],"type":"Point"},"properties":{"osm_id":"8765857248","tag":{"amenity":"waste_disposal"}},"type":"Feature"},
	{"geometry":{"coordinates":[-88.448411,44.211726],"type":"Point"},"properties":{"osm_id":"8765857249","tag":{"amenity":"recycling","recycling_type":"container"}},"type":"Feature"}
]
}
