{
"type": "FeatureCollection",
"features": [
	{"geometry":{"coordinates":[22.877016,62.75488],"type":"Point"},"properties":{"osm_id":"1783607520","tag":{"amenity":"recycling","recycling_type":"container"}},"type":"Feature"},
	{"geometry":{"coordinates":[22.857948,62.793767],"type":"Point"},"properties":{"osm_id":"1795979260","tag":{"amenity":"recycling"}},"type":"Feature"},
	{"geometry":{"coordinates":[22.858843,62.765949],"type":"Point"},"properties":{"osm_id":"1826598601","tag":{"amenity":"recycling","recycling:glass":"yes","recycling:paper":"yes","recycling:scrap_metal":"yes","recycling_type":"container"}},"type":"Feature"},
	{"geometry":{"coordinates":[22.908929,62.790633],"type":"Point"},"properties":{"osm_id":"1826598716","tag":{"amenity":"recycling","recycling:glass":"yes","recycling:paper":"yes","recycling:scrap_metal":"yes","recycling_type":"container"}},"type":"Feature"},
	{"geometry":{"coordinates":[22.896916,62.761037],"type":"Point"},"properties":{"osm_id":"7248345512","tag":{"amenity":"waste_basket","colour":"brown","waste":"trash;dog_excrement"}},"type":"Feature"},
	{"geometry":{"coordinates":[22.879835,62.769402],"type":"Point"},"properties":{"osm_id":"7248561268","tag":{"amenity":"waste_basket"}},"type":"Feature"},
	{"geometry":{"coordinates":[22.87976,62.768829],"type":"Point"},"properties":{"osm_id":"7248561269","tag":{"amenity":"waste_basket"}},"type":"Feature"},
	{"geometry":{"coordinates":[22.876199,62.769291],"type":"Point"},"properties":{"osm_id":"7248561270","tag":{"amenity":"recycling","recycling_type":"container"}},"type":"Feature"},
	{"geometry":{"coordinates":[22.877813,62.7693],"type":"Point"},"properties":{"osm_id":"7248567641","tag":{"amenity":"waste_basket"}},"type":"Feature"},
	{"geometry":{"coordinates":[22.863088,62.771729],"type":"Point"},"properties":{"osm_id":"7250616787","tag":{"amenity":"waste_disposal","waste":"dog_excrement"}},"type":"Feature"},
	{"geometry":{"coordinates":[22.876575,62.770823],"type":"Point"},"properties":{"osm_id":"7259231614","tag":{"amenity":"recycling","operator":"Rinki-ekopiste","recycling:clothes":"yes","recycling:glass":"yes","recycling:metal":"yes","recycling:paper":"yes","recycling:plastic":"yes","recycling:plastic_packaging":"yes","recycling_type":"container","wikidata":"Q11886224","wikipedia":"fi:Suomen Pakkauskierr\u00c3\u00a4tys Rinki"}},"type":"Feature"}
]
}
