{
"type": "FeatureCollection",
"features": [
	{"geometry":{"coordinates":[90.355491,23.82231],"type":"Point"},"properties":{"osm_id":"6577977604","tag":{"amenity":"waste_basket"}},"type":"Feature"},
	{"geometry":{"coordinates":[90.355629,23.822289],"type":"Point"},"properties":{"osm_id":"6577977605","tag":{"amenity":"waste_basket"}},"type":"Feature"},
	{"geometry":{"coordinates":[90.355788,23.822356],"type":"Point"},"properties":{"osm_id":"6577977606","tag":{"amenity":"waste_basket"}},"type":"Feature"},
	{"geometry":{"coordinates":[90.355795,23.822356],"type":"Point"},"properties":{"osm_id":"6577977607","tag":{"amenity":"waste_basket","waste":"trash"}},"type":"Feature"},
	{"geometry":{"coordinates":[90.357041,23.820145],"type":"Point"},"properties":{"osm_id":"6577977608","tag":{"amenity":"waste_basket"}},"type":"Feature"},
	{"geometry":{"coordinates":[90.356439,23.819615],"type":"Point"},"properties":{"osm_id":"6577977609","tag":{"amenity":"waste_disposal"}},"type":"Feature"},
	{"geometry":{"coordinates":[90.355633,23.810718],"type":"Point"},"properties":{"osm_id":"6577977610","tag":{"amenity":"waste_disposal"}},"type":"Feature"},
	{"geometry":{"coordinates":[90.357063,23.809892],"type":"Point"},"properties":{"osm_id":"6577977611","tag":{"amenity":"waste_disposal"}},"type":"Feature"},
	{"geometry":{"coordinates":[90.380574,23.806055],"type":"Point"},"properties":{"osm_id":"6577977612","tag":{"amenity":"waste_disposal","waste":"trash"}},"type":"Feature"},
	{"geometry":{"coordinates":[90.355192,23.822791],"type":"Point"},"properties":{"osm_id":"6577978513","tag":{"amenity":"waste_basket"}},"type":"Feature"},
	{"geometry":{"coordinates":[90.355145,23.823038],"type":"Point"},"properties":{"osm_id":"6577978514","tag":{"amenity":"waste_basket"}},"type":"Feature"},
	{"geometry":{"coordinates":[90.354793,23.823212],"type":"Point"},"properties":{"osm_id":"6577978515","tag":{"amenity":"waste_basket"}},"type":"Feature"},
	{"geometry":{"coordinates":[90.406465,23.846848],"type":"Point"},"properties":{"name":"\u00e0\u00a6\u0086\u00e0\u00a6\u00ae\u00e0\u00a6\u00be\u00e0\u00a6\u0095\u00e0\u00a7\u0087 \u00e0\u00a6\u00ac\u00e0\u00a7\u008d\u00e0\u00a6\u00af\u00e0\u00a6\u00ac\u00e0\u00a6\u00b9\u00e0\u00a6\u00be\u00e0\u00a6\u00b0 \u00e0\u00a6\u0095\u00e0\u00a6\u00b0\u00e0\u00a7\u0081\u00e0\u00a6\u00a8","osm_id":"6959435294","tag":{"amenity":"waste_basket"}},"type":"Feature"}
]
}
