{
"type": "FeatureCollection",
"features": [
	{"geometry":{"coordinates":[90.363185,23.732007],"type":"Point"},"properties":{"man_made":"works","name":"Secondary Transfer Station","osm_id":"3302171357","tag":{"amenity":"recycling","operator":"City Corporation Laaram PLC & DDCL PRO BO","recycling_type":"centre"}},"type":"Feature"},
	{"geometry":{"coordinates":[90.391905,23.725879],"type":"Point"},"properties":{"name":"Dustbin","osm_id":"3733047829","tag":{"amenity":"waste_basket"}},"type":"Feature"},
	{"geometry":{"coordinates":[90.413441,23.791143],"type":"Point"},"properties":{"osm_id":"3735652934","tag":{"amenity":"waste_basket"}},"type":"Feature"},
	{"geometry":{"coordinates":[90.3809,23.734271],"type":"Point"},"properties":{"osm_id":"4362340667","tag":{"amenity":"waste_basket"}},"type":"Feature"},
	{"geometry":{"coordinates":[90.400962,23.793355],"type":"Point"},"properties":{"osm_id":"4589458985","tag":{"amenity":"waste_basket"}},"type":"Feature"},
	{"geometry":{"coordinates":[90.400988,23.793639],"type":"Point"},"properties":{"osm_id":"4589458986","tag":{"amenity":"waste_basket"}},"type":"Feature"},
	{"geometry":{"coordinates":[90.401144,23.794643],"type":"Point"},"properties":{"osm_id":"4589458987","tag":{"amenity":"waste_basket"}},"type":"Feature"},
	{"geometry":{"coordinates":[90.406631,23.758644],"type":"Point"},"properties":{"osm_id":"5219061121","tag":{"amenity":"waste_basket"}},"type":"Feature"},
	{"geometry":{"coordinates":[90.361014,23.778207],"type":"Point"},"properties":{"osm_id":"6833815681","tag":{"amenity":"waste_basket"}},"type":"Feature"},
	{"geometry":{"coordinates":[90.360611,23.779769],"type":"Point"},"properties":{"osm_id":"6833848187","tag":{"amenity":"waste_basket"}},"type":"Feature"},
	{"geometry":{"coordinates":[90.374702,23.750222],"type":"Point"},"properties":{"osm_id":"6851334674","tag":{"addr:street":"Road 11","addr:suburb":"Dhanmondi","amenity":"waste_basket","operator":"government"}},"type":"Feature"},
	{"geometry":{"coordinates":[90.371044,23.739545],"type":"Point"},"properties":{"osm_id":"6851334679","tag":{"addr:suburb":"Jigatola","amenity":"waste_basket","operator":"government"}},"type":"Feature"},
	{"geometry":{"coordinates":[90.375358,23.739336],"type":"Point"},"properties":{"osm_id":"6851334683","tag":{"addr:suburb":"Jigatola","amenity":"waste_basket","neighbourhood":"Jigatola Bus Stand","operator":"government"}},"type":"Feature"},
	{"geometry":{"coordinates":[90.374913,23.751206],"type":"Point"},"properties":{"osm_id":"6851339864","tag":{"addr:street":"Road 11","addr:suburb":"Dhanmondi R/A","amenity":"waste_basket","operator":"government"}},"type":"Feature"},
	{"geometry":{"coordinates":[90.375448,23.751255],"type":"Point"},"properties":{"osm_id":"6851339865","tag":{"addr:street":"Road 11","addr:suburb":"Dhanmondi R/A","amenity":"waste_basket","operator":"government"}},"type":"Feature"},
	{"geometry":{"coordinates":[90.373789,23.751157],"type":"Point"},"properties":{"osm_id":"6851339866","tag":{"addr:street":"Road 11","addr:suburb":"Dhanmondi R/A","amenity":"waste_basket","operator":"government"}},"type":"Feature"},
	{"geometry":{"coordinates":[90.374431,23.751181],"type":"Point"},"properties":{"osm_id":"6851339867","tag":{"addr:street":"Road 11","addr:suburb":"Dhanmondi R/A","amenity":"waste_basket","operator":"government"}},"type":"Feature"},
	{"geometry":{"coordinates":[90.374692,23.750153],"type":"Point"},"properties":{"osm_id":"6851339870","tag":{"addr:street":"Abul Mansur Ahmad Sarak","addr:suburb":"Dhanmondi R/A","amenity":"waste_basket","operator":"government"}},"type":"Feature"},
	{"geometry":{"coordinates":[90.374761,23.750185],"type":"Point"},"properties":{"osm_id":"6851339871","tag":{"addr:street":"Abul Mansur Ahmad Sarak","addr:suburb":"Dhanmondi R/A","amenity":"waste_basket","operator":"government"}},"type":"Feature"},
	{"geometry":{"coordinates":[90.374604,23.750101],"type":"Point"},"properties":{"osm_id":"6851339872","tag":{"addr:street":"Abul Mansur Ahmad Sarak","addr:suburb":"Dhanmondi R/A","amenity":"waste_basket","operator":"government"}},"type":"Feature"},
	{"geometry":{"coordinates":[90.368608,23.750439],"type":"Point"},"properties":{"osm_id":"6851339873","tag":{"addr:street":"Sat Masjid Road","addr:suburb":"Dhanmondi","amenity":"waste_basket","operator":"government"}},"type":"Feature"},
	{"geometry":{"coordinates":[90.368599,23.750468],"type":"Point"},"properties":{"osm_id":"6851339874","tag":{"addr:street":"Sat Masjid Road","addr:suburb":"Dhanmondi","amenity":"waste_basket","operator":"government"}},"type":"Feature"},
	{"geometry":{"coordinates":[90.368445,23.750711],"type":"Point"},"properties":{"osm_id":"6851339875","tag":{"addr:street":"Sat Masjid Road","addr:suburb":"Dhanmondi","amenity":"waste_basket","operator":"government"}},"type":"Feature"},
	{"geometry":{"coordinates":[90.380623,23.740149],"type":"Point"},"properties":{"osm_id":"6851339879","tag":{"addr:street":"Road 3","addr:suburb":"Dhanmondi","amenity":"waste_basket","operator":"government"}},"type":"Feature"},
	{"geometry":{"coordinates":[90.377256,23.739531],"type":"Point"},"properties":{"osm_id":"6851339880","tag":{"addr:street":"Road 2/A","addr:suburb":"Dhanmondi","amenity":"waste_basket","operator":"government"}},"type":"Feature"},
	{"geometry":{"coordinates":[90.379852,23.738976],"type":"Point"},"properties":{"osm_id":"6851339882","tag":{"addr:street":"Road 2","addr:suburb":"Dhanmondi","amenity":"waste_basket"}},"type":"Feature"},
	{"geometry":{"coordinates":[90.379391,23.738901],"type":"Point"},"properties":{"osm_id":"6851339883","tag":{"addr:street":"Road 2","addr:suburb":"Dhanmondi","amenity":"waste_basket","operator":"government"}},"type":"Feature"},
	{"geometry":{"coordinates":[90.380611,23.738926],"type":"Point"},"properties":{"osm_id":"6851339884","tag":{"addr:street":"Road 2","addr:suburb":"Dhanmondi","amenity":"waste_basket","operator":"government"}},"type":"Feature"},
	{"geometry":{"coordinates":[90.378304,23.748632],"type":"Point"},"properties":{"osm_id":"6851342740","tag":{"addr:suburb":"Dhanmondi Lake","amenity":"waste_basket","operator":"government"}},"type":"Feature"},
	{"geometry":{"coordinates":[90.377714,23.750461],"type":"Point"},"properties":{"osm_id":"6851342741","tag":{"addr:suburb":"Dhanmondi Lake","amenity":"waste_basket","operator":"government"}},"type":"Feature"},
	{"geometry":{"coordinates":[90.378193,23.749117],"type":"Point"},"properties":{"osm_id":"6851342742","tag":{"addr:suburb":"Dhanmondi Lake","amenity":"waste_basket","operator":"government"}},"type":"Feature"},
	{"geometry":{"coordinates":[90.377854,23.747654],"type":"Point"},"properties":{"osm_id":"6851342743","tag":{"addr:suburb":"Dhanmondi Lake","amenity":"waste_basket","operator":"government"}},"type":"Feature"},
	{"geometry":{"coordinates":[90.377359,23.750692],"type":"Point"},"properties":{"osm_id":"6851342744","tag":{"addr:suburb":"Dhanmondi Lake","amenity":"waste_basket","operator":"government"}},"type":"Feature"},
	{"geometry":{"coordinates":[90.376875,23.750427],"type":"Point"},"properties":{"osm_id":"6851342745","tag":{"addr:suburb":"Dhanmondi Lake","amenity":"waste_basket","operator":"government"}},"type":"Feature"},
	{"geometry":{"coordinates":[90.37741,23.744598],"type":"Point"},"properties":{"osm_id":"6851342746","tag":{"addr:suburb":"Dhanmondi Lake","amenity":"waste_basket","operator":"government"}},"type":"Feature"},
	{"geometry":{"coordinates":[90.378279,23.747647],"type":"Point"},"properties":{"osm_id":"6851342747","tag":{"addr:suburb":"Dhanmondi Lake","amenity":"waste_basket","operator":"government"}},"type":"Feature"},
	{"geometry":{"coordinates":[90.377302,23.749746],"type":"Point"},"properties":{"osm_id":"6851342748","tag":{"addr:suburb":"Dhanmondi Lake","amenity":"waste_basket","operator":"government"}},"type":"Feature"},
	{"geometry":{"coordinates":[90.376423,23.750345],"type":"Point"},"properties":{"osm_id":"6851342749","tag":{"addr:suburb":"Dhanmondi Lake","amenity":"waste_basket","operator":"government"}},"type":"Feature"},
	{"geometry":{"coordinates":[90.377442,23.744793],"type":"Point"},"properties":{"osm_id":"6851342750","tag":{"addr:suburb":"Dhanmondi Lake","amenity":"waste_basket","operator":"government"}},"type":"Feature"},
	{"geometry":{"coordinates":[90.377166,23.743455],"type":"Point"},"properties":{"osm_id":"6851342751","tag":{"addr:suburb":"Dhanmondi Lake","amenity":"waste_basket","operator":"government"}},"type":"Feature"},
	{"geometry":{"coordinates":[90.377839,23.749435],"type":"Point"},"properties":{"osm_id":"6851342752","tag":{"addr:suburb":"Dhanmondi Lake","amenity":"waste_basket","operator":"government"}},"type":"Feature"},
	{"geometry":{"coordinates":[90.377951,23.746828],"type":"Point"},"properties":{"osm_id":"6851342753","tag":{"addr:suburb":"Dhanmondi Lake","amenity":"waste_basket","operator":"government"}},"type":"Feature"},
	{"geometry":{"coordinates":[90.375768,23.750382],"type":"Point"},"properties":{"osm_id":"6851342754","tag":{"addr:suburb":"Dhanmondi Lake","amenity":"waste_basket","operator":"government"}},"type":"Feature"},
	{"geometry":{"coordinates":[90.376512,23.75051],"type":"Point"},"properties":{"osm_id":"6851342755","tag":{"addr:suburb":"Dhanmondi Lake","amenity":"waste_basket","operator":"government"}},"type":"Feature"},
	{"geometry":{"coordinates":[90.377343,23.744355],"type":"Point"},"properties":{"osm_id":"6851342756","tag":{"addr:suburb":"Dhanmondi Lake","amenity":"waste_basket","operator":"government"}},"type":"Feature"},
	{"geometry":{"coordinates":[90.377149,23.750232],"type":"Point"},"properties":{"osm_id":"6851342757","tag":{"addr:suburb":"Dhanmondi Lake","amenity":"waste_basket","operator":"government"}},"type":"Feature"},
	{"geometry":{"coordinates":[90.378018,23.747584],"type":"Point"},"properties":{"osm_id":"6851342758","tag":{"addr:suburb":"Dhanmondi Lake","amenity":"waste_basket","operator":"government"}},"type":"Feature"},
	{"geometry":{"coordinates":[90.378236,23.747689],"type":"Point"},"properties":{"osm_id":"6851342759","tag":{"addr:suburb":"Dhanmondi Lake","amenity":"waste_basket","operator":"government"}},"type":"Feature"},
	{"geometry":{"coordinates":[90.377394,23.750783],"type":"Point"},"properties":{"osm_id":"6851342760","tag":{"addr:suburb":"Dhanmondi Lake","amenity":"waste_basket","operator":"government"}},"type":"Feature"},
	{"geometry":{"coordinates":[90.377609,23.746957],"type":"Point"},"properties":{"osm_id":"6851342761","tag":{"addr:suburb":"Dhanmondi Lake","amenity":"waste_basket","operator":"government"}},"type":"Feature"},
	{"geometry":{"coordinates":[90.377569,23.746979],"type":"Point"},"properties":{"osm_id":"6851342762","tag":{"addr:suburb":"Dhanmondi Lake","amenity":"waste_basket","operator":"government"}},"type":"Feature"},
	{"geometry":{"coordinates":[90.377403,23.749933],"type":"Point"},"properties":{"osm_id":"6851342763","tag":{"addr:suburb":"Dhanmondi Lake","amenity":"waste_basket","operator":"government"}},"type":"Feature"},
	{"geometry":{"coordinates":[90.378285,23.748923],"type":"Point"},"properties":{"osm_id":"6851342764","tag":{"addr:suburb":"Dhanmondi Lake","amenity":"waste_basket","operator":"government"}},"type":"Feature"},
	{"geometry":{"coordinates":[90.377793,23.749484],"type":"Point"},"properties":{"osm_id":"6851342765","tag":{"addr:suburb":"Dhanmondi Lake","amenity":"waste_basket","operator":"government"}},"type":"Feature"},
	{"geometry":{"coordinates":[90.384881,23.738991],"type":"Point"},"properties":{"osm_id":"6851355723","tag":{"addr:street":"New Elephant Road","amenity":"waste_basket","neighbourhood":"Science Laboratory","operator":"government"}},"type":"Feature"},
	{"geometry":{"coordinates":[90.38523,23.739044],"type":"Point"},"properties":{"osm_id":"6851355724","tag":{"addr:street":"New Elephant Road","amenity":"waste_basket","neighbourhood":"Science Laboratory","operator":"government"}},"type":"Feature"},
	{"geometry":{"coordinates":[90.385032,23.732247],"type":"Point"},"properties":{"osm_id":"6851355725","tag":{"addr:street":"Mirpur Road","amenity":"waste_basket","neighbourhood":"Nilkhet Mor","operator":"government"}},"type":"Feature"},
	{"geometry":{"coordinates":[90.38518,23.732281],"type":"Point"},"properties":{"osm_id":"6851355726","tag":{"addr:street":"Mirpur Road","amenity":"waste_basket","neighbourhood":"Nilkhet Mor","operator":"government"}},"type":"Feature"},
	{"geometry":{"coordinates":[90.384774,23.732311],"type":"Point"},"properties":{"osm_id":"6851355730","tag":{"addr:street":"Nilkhet Road","amenity":"waste_basket","neighbourhood":"Nilkhet","operator":"government"}},"type":"Feature"},
	{"geometry":{"coordinates":[90.385025,23.732201],"type":"Point"},"properties":{"osm_id":"6851355731","tag":{"addr:street":"Mirpur Road","amenity":"waste_basket","neighbourhood":"Nilkhet","operator":"government"}},"type":"Feature"},
	{"geometry":{"coordinates":[90.390473,23.73783],"type":"Point"},"properties":{"osm_id":"6851355732","tag":{"addr:street":"Katabon Road","amenity":"waste_basket","operator":"private"}},"type":"Feature"},
	{"geometry":{"coordinates":[90.386778,23.739067],"type":"Point"},"properties":{"osm_id":"6851355733","tag":{"addr:street":"Elephant Road","amenity":"waste_basket","neighbourhood":"Katabon","operator":"government"}},"type":"Feature"},
	{"geometry":{"coordinates":[90.3865,23.738884],"type":"Point"},"properties":{"osm_id":"6851355734","tag":{"addr:street":"Elephant Road","amenity":"waste_basket","neighbourhood":"Katabon","operator":"government"}},"type":"Feature"},
	{"geometry":{"coordinates":[90.383701,23.736719],"type":"Point"},"properties":{"osm_id":"6851355737","tag":{"addr:street":"Mirpur Road","amenity":"waste_basket","neighbourhood":"Dhaka College","operator":"government"}},"type":"Feature"},
	{"geometry":{"coordinates":[90.383878,23.732129],"type":"Point"},"properties":{"osm_id":"6851355739","tag":{"addr:suburb":"New Market","amenity":"waste_basket","operator":"government"}},"type":"Feature"},
	{"geometry":{"coordinates":[90.382915,23.732097],"type":"Point"},"properties":{"osm_id":"6851355740","tag":{"addr:suburb":"New Market","amenity":"waste_basket","operator":"government"}},"type":"Feature"},
	{"geometry":{"coordinates":[90.386713,23.738883],"type":"Point"},"properties":{"osm_id":"6851355743","tag":{"addr:street":"New Elephant Road","addr:suburb":"New Market","amenity":"waste_basket","operator":"government"}},"type":"Feature"},
	{"geometry":{"coordinates":[90.384961,23.738804],"type":"Point"},"properties":{"osm_id":"6851355744","tag":{"addr:street":"New Elephant Road","addr:suburb":"New Market","amenity":"waste_basket","operator":"government"}},"type":"Feature"},
	{"geometry":{"coordinates":[90.387096,23.738938],"type":"Point"},"properties":{"osm_id":"6851355745","tag":{"addr:street":"New Elephant Road","addr:suburb":"New Market","amenity":"waste_basket","operator":"government"}},"type":"Feature"},
	{"geometry":{"coordinates":[90.387729,23.738978],"type":"Point"},"properties":{"osm_id":"6851355746","tag":{"addr:street":"New Elephant Road","addr:suburb":"New Market","amenity":"waste_basket","operator":"government"}},"type":"Feature"},
	{"geometry":{"coordinates":[90.387647,23.739132],"type":"Point"},"properties":{"osm_id":"6851355747","tag":{"addr:street":"New Elephant Road","addr:suburb":"New Market","amenity":"waste_basket","operator":"government"}},"type":"Feature"},
	{"geometry":{"coordinates":[90.388327,23.73916],"type":"Point"},"properties":{"osm_id":"6851355748","tag":{"addr:street":"New Elephant Road","addr:suburb":"New Market","amenity":"waste_basket","operator":"government"}},"type":"Feature"},
	{"geometry":{"coordinates":[90.388731,23.738977],"type":"Point"},"properties":{"osm_id":"6851355749","tag":{"addr:street":"New Elephant Road","addr:suburb":"New Market","amenity":"waste_basket","operator":"government"}},"type":"Feature"},
	{"geometry":{"coordinates":[90.387979,23.738997],"type":"Point"},"properties":{"osm_id":"6851355750","tag":{"addr:street":"New Elephant Road","addr:suburb":"New Market","amenity":"waste_basket","operator":"government"}},"type":"Feature"},
	{"geometry":{"coordinates":[90.385425,23.739042],"type":"Point"},"properties":{"osm_id":"6851355751","tag":{"addr:street":"New Elephant Road","addr:suburb":"New Market","amenity":"waste_basket","operator":"government"}},"type":"Feature"},
	{"geometry":{"coordinates":[90.387457,23.738974],"type":"Point"},"properties":{"osm_id":"6851355752","tag":{"addr:street":"New Elephant Road","addr:suburb":"New Market","amenity":"waste_basket","operator":"government"}},"type":"Feature"},
	{"geometry":{"coordinates":[90.385945,23.738893],"type":"Point"},"properties":{"osm_id":"6851355753","tag":{"addr:street":"New Elephant Road","addr:suburb":"New Market","amenity":"waste_basket","operator":"government"}},"type":"Feature"},
	{"geometry":{"coordinates":[90.389233,23.739689],"type":"Point"},"properties":{"osm_id":"6851355754","tag":{"addr:street":"New Elephant Road","addr:suburb":"New Market","amenity":"waste_basket","operator":"government"}},"type":"Feature"},
	{"geometry":{"coordinates":[90.385349,23.73886],"type":"Point"},"properties":{"osm_id":"6851355755","tag":{"addr:street":"New Elephant Road","addr:suburb":"New Market","amenity":"waste_basket","operator":"government"}},"type":"Feature"},
	{"geometry":{"coordinates":[90.388799,23.738979],"type":"Point"},"properties":{"osm_id":"6851355756","tag":{"addr:street":"New Elephant Road","addr:suburb":"New Market","amenity":"waste_basket","operator":"government"}},"type":"Feature"},
	{"geometry":{"coordinates":[90.389593,23.740159],"type":"Point"},"properties":{"osm_id":"6851355757","tag":{"addr:street":"New Elephant Road","addr:suburb":"New Market","amenity":"waste_basket","operator":"government"}},"type":"Feature"},
	{"geometry":{"coordinates":[90.384535,23.733473],"type":"Point"},"properties":{"osm_id":"6851355758","tag":{"addr:street":"Mirpur Road","addr:suburb":"New Market","amenity":"waste_basket","operator":"government"}},"type":"Feature"},
	{"geometry":{"coordinates":[90.388505,23.73918],"type":"Point"},"properties":{"osm_id":"6851355759","tag":{"addr:suburb":"Elephant Road","amenity":"waste_basket","neighbourhood":"Bata Signal","operator":"government"}},"type":"Feature"},
	{"geometry":{"coordinates":[90.388536,23.739307],"type":"Point"},"properties":{"osm_id":"6851355760","tag":{"addr:suburb":"Elephant Road","amenity":"waste_basket","neighbourhood":"Bata Signal","operator":"government"}},"type":"Feature"},
	{"geometry":{"coordinates":[90.385508,23.731366],"type":"Point"},"properties":{"osm_id":"6851355761","tag":{"addr:street":"Mirpur Road","addr:suburb":"Azimpur","amenity":"waste_basket","neighbourhood":"Home Economics College","operator":"government"}},"type":"Feature"},
	{"geometry":{"coordinates":[90.385861,23.730247],"type":"Point"},"properties":{"osm_id":"6851355762","tag":{"addr:street":"Mirpur Road","addr:suburb":"Azimpur","amenity":"waste_basket","neighbourhood":"Home Economics College","operator":"government"}},"type":"Feature"},
	{"geometry":{"coordinates":[90.385917,23.729825],"type":"Point"},"properties":{"osm_id":"6851355763","tag":{"addr:street":"Mirpur Road","addr:suburb":"Azimpur","amenity":"waste_basket","neighbourhood":"Home Economics College","operator":"government"}},"type":"Feature"},
	{"geometry":{"coordinates":[90.385674,23.730311],"type":"Point"},"properties":{"osm_id":"6851355764","tag":{"addr:street":"Mirpur Road","addr:suburb":"Azimpur","amenity":"waste_basket","neighbourhood":"Govt Colony","operator":"government"}},"type":"Feature"},
	{"geometry":{"coordinates":[90.385761,23.729799],"type":"Point"},"properties":{"osm_id":"6851355765","tag":{"addr:street":"Mirpur Road","addr:suburb":"Azimpur","amenity":"waste_basket","neighbourhood":"Govt Colony","operator":"government"}},"type":"Feature"},
	{"geometry":{"coordinates":[90.385968,23.729387],"type":"Point"},"properties":{"osm_id":"6851355766","tag":{"addr:street":"Mirpur Road","addr:suburb":"Azimpur","amenity":"waste_basket","neighbourhood":"Eden Mohila College","operator":"government"}},"type":"Feature"},
	{"geometry":{"coordinates":[90.38334,23.740274],"type":"Point"},"properties":{"osm_id":"6851355769","tag":{"addr:street":"Mirpur Road","amenity":"waste_basket","neighbourhood":"Science Laboratory","operator":"government"}},"type":"Feature"},
	{"geometry":{"coordinates":[90.378037,23.746726],"type":"Point"},"properties":{"osm_id":"6851355771","tag":{"addr:suburb":"Dhanmondi Lake","amenity":"waste_basket","operator":"government"}},"type":"Feature"},
	{"geometry":{"coordinates":[90.378011,23.749594],"type":"Point"},"properties":{"osm_id":"6851355772","tag":{"addr:suburb":"Dhanmondi Lake","amenity":"waste_basket","operator":"government"}},"type":"Feature"},
	{"geometry":{"coordinates":[90.374276,23.741629],"type":"Point"},"properties":{"osm_id":"6851358050","tag":{"addr:street":"Sat Masjid Road","addr:suburb":"Dhanmondi","amenity":"waste_basket","operator":"government"}},"type":"Feature"},
	{"geometry":{"coordinates":[90.374226,23.741899],"type":"Point"},"properties":{"osm_id":"6851358051","tag":{"addr:street":"Sat Masjid Road","addr:suburb":"Dhanmondi","amenity":"waste_basket","operator":"government"}},"type":"Feature"},
	{"geometry":{"coordinates":[90.374583,23.741374],"type":"Point"},"properties":{"osm_id":"6851358052","tag":{"addr:street":"Sat Masjid Road","addr:suburb":"Dhanmondi","amenity":"waste_basket","operator":"government"}},"type":"Feature"},
	{"geometry":{"coordinates":[90.37347,23.743288],"type":"Point"},"properties":{"osm_id":"6851358053","tag":{"addr:street":"Sat Masjid Road","addr:suburb":"Dhanmondi","amenity":"waste_basket","operator":"government"}},"type":"Feature"},
	{"geometry":{"coordinates":[90.375186,23.740916],"type":"Point"},"properties":{"osm_id":"6851358054","tag":{"addr:street":"Sat Masjid Road","addr:suburb":"Dhanmondi","amenity":"waste_basket","operator":"government"}},"type":"Feature"},
	{"geometry":{"coordinates":[90.373287,23.74373],"type":"Point"},"properties":{"osm_id":"6851358055","tag":{"addr:street":"Sat Masjid Road","addr:suburb":"Dhanmondi","amenity":"waste_basket","operator":"government"}},"type":"Feature"},
	{"geometry":{"coordinates":[90.374058,23.741865],"type":"Point"},"properties":{"osm_id":"6851358056","tag":{"addr:street":"Road 7/A","addr:suburb":"Dhanmondi","amenity":"waste_basket","operator":"government"}},"type":"Feature"},
	{"geometry":{"coordinates":[90.372622,23.744643],"type":"Point"},"properties":{"osm_id":"6851358060","tag":{"addr:street":"Road 15 Bus Stand","addr:suburb":"Dhanmondi","amenity":"waste_basket","operator":"government"}},"type":"Feature"},
	{"geometry":{"coordinates":[90.370395,23.747802],"type":"Point"},"properties":{"osm_id":"6851358075","tag":{"addr:street":"Sat Masjid Road","addr:suburb":"Dhanmondi","amenity":"waste_basket","operator":"government"}},"type":"Feature"},
	{"geometry":{"coordinates":[90.370355,23.747852],"type":"Point"},"properties":{"osm_id":"6851358076","tag":{"addr:street":"Sat Masjid Road","addr:suburb":"Dhanmondi","amenity":"waste_basket","operator":"government"}},"type":"Feature"},
	{"geometry":{"coordinates":[90.386112,23.727206],"type":"Point"},"properties":{"osm_id":"6851360924","tag":{"addr:street":"Mirpur Road","amenity":"waste_basket","neighbourhood":"Azimpur Bus Stand","operator":"government"}},"type":"Feature"},
	{"geometry":{"coordinates":[90.389279,23.72554],"type":"Point"},"properties":{"osm_id":"6851360925","tag":{"addr:street":"Polashi Road","addr:suburb":"Polashi","amenity":"waste_basket","neighbourhood":"Fire Service Station","operator":"government"}},"type":"Feature"},
	{"geometry":{"coordinates":[90.3867,23.72545],"type":"Point"},"properties":{"osm_id":"6851360929","tag":{"addr:street":"Azimpur Lalbag Road","addr:suburb":"Lalbag","amenity":"waste_basket","operator":"government"}},"type":"Feature"},
	{"geometry":{"coordinates":[90.386039,23.729016],"type":"Point"},"properties":{"osm_id":"6851360933","tag":{"addr:street":"Mirpur Road","addr:suburb":"Azimpur","amenity":"waste_basket","neighbourhood":"Eden Mohila College","operator":"government"}},"type":"Feature"},
	{"geometry":{"coordinates":[90.386342,23.726672],"type":"Point"},"properties":{"osm_id":"6851360935","tag":{"addr:street":"Polashi Road","addr:suburb":"Azimpur","amenity":"waste_basket","operator":"government"}},"type":"Feature"},
	{"geometry":{"coordinates":[90.384848,23.726727],"type":"Point"},"properties":{"osm_id":"6851360938","tag":{"addr:street":"Azimpur Kabarsthan Road","addr:suburb":"Azimpur","amenity":"waste_basket","operator":"government"}},"type":"Feature"},
	{"geometry":{"coordinates":[90.385924,23.726674],"type":"Point"},"properties":{"osm_id":"6851360939","tag":{"addr:street":"Azimpur Kabarsthan Road","addr:suburb":"Azimpur","amenity":"waste_basket","operator":"government"}},"type":"Feature"},
	{"geometry":{"coordinates":[90.385856,23.726905],"type":"Point"},"properties":{"osm_id":"6851360940","tag":{"addr:street":"Azimpur Kabarsthan Road","addr:suburb":"Azimpur","amenity":"waste_basket","operator":"government"}},"type":"Feature"},
	{"geometry":{"coordinates":[90.384333,23.726603],"type":"Point"},"properties":{"osm_id":"6851360941","tag":{"addr:street":"Azimpur Kabarsthan Road","addr:suburb":"Azimpur","amenity":"waste_basket","operator":"government"}},"type":"Feature"},
	{"geometry":{"coordinates":[90.385099,23.72672],"type":"Point"},"properties":{"osm_id":"6851360942","tag":{"addr:street":"Azimpur Kabarsthan Road","addr:suburb":"Azimpur","amenity":"waste_basket","operator":"government"}},"type":"Feature"},
	{"geometry":{"coordinates":[90.383943,23.72877],"type":"Point"},"properties":{"osm_id":"6851360943","tag":{"addr:street":"Azimpur Colony Road","addr:suburb":"Azimpur","amenity":"waste_basket","operator":"government"}},"type":"Feature"},
	{"geometry":{"coordinates":[90.384071,23.7293],"type":"Point"},"properties":{"osm_id":"6851360944","tag":{"addr:street":"Azimpur Colony Road","addr:suburb":"Azimpur","amenity":"waste_basket","operator":"government"}},"type":"Feature"},
	{"geometry":{"coordinates":[90.384101,23.728752],"type":"Point"},"properties":{"osm_id":"6851360945","tag":{"addr:street":"Azimpur Colony Road","addr:suburb":"Azimpur","amenity":"waste_basket","operator":"government"}},"type":"Feature"},
	{"geometry":{"coordinates":[90.384098,23.728975],"type":"Point"},"properties":{"osm_id":"6851360946","tag":{"addr:street":"Azimpur Colony Road","addr:suburb":"Azimpur","amenity":"waste_basket","operator":"government"}},"type":"Feature"},
	{"geometry":{"coordinates":[90.386134,23.738849],"type":"Point"},"properties":{"osm_id":"6851361732","tag":{"addr:street":"Elephant Road","amenity":"waste_basket","operator":"government"}},"type":"Feature"},
	{"geometry":{"coordinates":[90.386206,23.739084],"type":"Point"},"properties":{"osm_id":"6851361736","tag":{"addr:street":"New Elephant Road","amenity":"waste_basket","neighbourhood":"Science Laboratory","operator":"government"}},"type":"Feature"},
	{"geometry":{"coordinates":[90.385645,23.739042],"type":"Point"},"properties":{"osm_id":"6851361737","tag":{"addr:street":"New Elephant Road","amenity":"waste_basket","neighbourhood":"Science Laboratory","operator":"government"}},"type":"Feature"},
	{"geometry":{"coordinates":[90.384331,23.73876],"type":"Point"},"properties":{"osm_id":"6851361738","tag":{"addr:street":"New Elephant Road","amenity":"waste_basket","neighbourhood":"Science Laboratory","operator":"government"}},"type":"Feature"},
	{"geometry":{"coordinates":[90.383719,23.738885],"type":"Point"},"properties":{"osm_id":"6851361739","tag":{"addr:street":"New Elephant Road","amenity":"waste_basket","neighbourhood":"Science Laboratory","operator":"government"}},"type":"Feature"},
	{"geometry":{"coordinates":[90.376083,23.738578],"type":"Point"},"properties":{"osm_id":"6851362285","tag":{"addr:street":"Sat Masjid Road","addr:suburb":"jigatola","amenity":"waste_basket","operator":"ngo"}},"type":"Feature"},
	{"geometry":{"coordinates":[90.376273,23.739081],"type":"Point"},"properties":{"osm_id":"6851362286","tag":{"addr:street":"Road 2/A","addr:suburb":"Jigatola","amenity":"waste_basket","operator":"government"}},"type":"Feature"},
	{"geometry":{"coordinates":[90.375859,23.739081],"type":"Point"},"properties":{"osm_id":"6851362287","tag":{"addr:street":"Road 2/A","addr:suburb":"Jigatola","amenity":"waste_basket","operator":"government"}},"type":"Feature"},
	{"geometry":{"coordinates":[90.374658,23.738741],"type":"Point"},"properties":{"osm_id":"6851362289","tag":{"addr:street":"Hoque Mansion Road","addr:suburb":"Jigatola","amenity":"waste_basket","operator":"government"}},"type":"Feature"},
	{"geometry":{"coordinates":[90.373896,23.73863],"type":"Point"},"properties":{"osm_id":"6851362290","tag":{"addr:street":"Hoque Mansion Road","addr:suburb":"Jigatola","amenity":"waste_basket","operator":"government"}},"type":"Feature"},
	{"geometry":{"coordinates":[90.374029,23.73865],"type":"Point"},"properties":{"osm_id":"6851362291","tag":{"addr:street":"Hoque Mansion Road","addr:suburb":"Jigatola","amenity":"waste_basket","operator":"government"}},"type":"Feature"},
	{"geometry":{"coordinates":[90.370316,23.732035],"type":"Point"},"properties":{"osm_id":"6851362305","tag":{"addr:street":"Hazaribag Bazar Road","addr:suburb":"Hazaribag","amenity":"waste_basket","operator":"government"}},"type":"Feature"},
	{"geometry":{"coordinates":[90.372938,23.744186],"type":"Point"},"properties":{"osm_id":"6851362319","tag":{"addr:street":"Road 15 Bus Stand","addr:suburb":"Dhanmondi","amenity":"waste_basket","neighbourhood":"Sat Masjid Road","operator":"government"}},"type":"Feature"},
	{"geometry":{"coordinates":[90.374491,23.741691],"type":"Point"},"properties":{"osm_id":"6851362320","tag":{"addr:street":"Sat Masjid Road","addr:suburb":"Dhanmondi","amenity":"waste_basket","operator":"private"}},"type":"Feature"},
	{"geometry":{"coordinates":[90.374436,23.741198],"type":"Point"},"properties":{"osm_id":"6851362321","tag":{"addr:street":"Sat Masjid Road","addr:suburb":"Dhanmondi","amenity":"waste_basket","operator":"government"}},"type":"Feature"},
	{"geometry":{"coordinates":[90.383046,23.758409],"type":"Point"},"properties":{"osm_id":"6900013140","tag":{"amenity":"waste_basket","waste":"trash"}},"type":"Feature"},
	{"geometry":{"coordinates":[90.381088,23.758397],"type":"Point"},"properties":{"osm_id":"6901877481","tag":{"amenity":"waste_basket","waste":"trash"}},"type":"Feature"},
	{"geometry":{"coordinates":[90.3776,23.758154],"type":"Point"},"properties":{"osm_id":"6901933719","tag":{"amenity":"waste_basket"}},"type":"Feature"},
	{"geometry":{"coordinates":[90.377931,23.758157],"type":"Point"},"properties":{"osm_id":"6901933720","tag":{"amenity":"waste_basket"}},"type":"Feature"},
	{"geometry":{"coordinates":[90.400974,23.79322],"type":"Point"},"properties":{"osm_id":"6904549311","tag":{"amenity":"waste_basket"}},"type":"Feature"},
	{"geometry":{"coordinates":[90.386523,23.764554],"type":"Point"},"properties":{"osm_id":"6904581435","tag":{"amenity":"waste_basket"}},"type":"Feature"},
	{"geometry":{"coordinates":[90.385309,23.764743],"type":"Point"},"properties":{"osm_id":"6904592014","tag":{"amenity":"waste_basket"}},"type":"Feature"},
	{"geometry":{"coordinates":[90.385603,23.764699],"type":"Point"},"properties":{"osm_id":"6904592015","tag":{"amenity":"waste_basket"}},"type":"Feature"},
	{"geometry":{"coordinates":[90.40006,23.787984],"type":"Point"},"properties":{"osm_id":"6904624095","tag":{"amenity":"waste_basket"}},"type":"Feature"},
	{"geometry":{"coordinates":[90.387907,23.76447],"type":"Point"},"properties":{"osm_id":"6904699726","tag":{"amenity":"waste_basket"}},"type":"Feature"},
	{"geometry":{"coordinates":[90.399746,23.78801],"type":"Point"},"properties":{"osm_id":"6905024600","tag":{"amenity":"waste_basket"}},"type":"Feature"},
	{"geometry":{"coordinates":[90.395171,23.776784],"type":"Point"},"properties":{"osm_id":"6905144591","tag":{"amenity":"waste_basket"}},"type":"Feature"},
	{"geometry":{"coordinates":[90.392667,23.775546],"type":"Point"},"properties":{"osm_id":"6905188333","tag":{"amenity":"waste_basket"}},"type":"Feature"},
	{"geometry":{"coordinates":[90.389877,23.772631],"type":"Point"},"properties":{"osm_id":"6905204780","tag":{"amenity":"waste_basket"}},"type":"Feature"},
	{"geometry":{"coordinates":[90.390252,23.77361],"type":"Point"},"properties":{"osm_id":"6905207443","tag":{"amenity":"waste_basket"}},"type":"Feature"},
	{"geometry":{"coordinates":[90.390153,23.774497],"type":"Point"},"properties":{"osm_id":"6905208623","tag":{"amenity":"waste_basket"}},"type":"Feature"},
	{"geometry":{"coordinates":[90.390116,23.772363],"type":"Point"},"properties":{"osm_id":"6905235098","tag":{"amenity":"waste_basket"}},"type":"Feature"},
	{"geometry":{"coordinates":[90.390129,23.772475],"type":"Point"},"properties":{"osm_id":"6905235099","tag":{"amenity":"waste_basket"}},"type":"Feature"},
	{"geometry":{"coordinates":[90.389677,23.771594],"type":"Point"},"properties":{"osm_id":"6905248511","tag":{"amenity":"waste_basket"}},"type":"Feature"},
	{"geometry":{"coordinates":[90.389648,23.77006],"type":"Point"},"properties":{"osm_id":"6905270426","tag":{"amenity":"waste_basket"}},"type":"Feature"},
	{"geometry":{"coordinates":[90.389166,23.766784],"type":"Point"},"properties":{"osm_id":"6905313952","tag":{"amenity":"waste_basket"}},"type":"Feature"},
	{"geometry":{"coordinates":[90.389199,23.764638],"type":"Point"},"properties":{"osm_id":"6905386884","tag":{"amenity":"waste_basket"}},"type":"Feature"},
	{"geometry":{"coordinates":[90.393951,23.776494],"type":"Point"},"properties":{"osm_id":"6905442366","tag":{"amenity":"waste_basket"}},"type":"Feature"},
	{"geometry":{"coordinates":[90.389612,23.771236],"type":"Point"},"properties":{"osm_id":"6905456295","tag":{"amenity":"waste_basket"}},"type":"Feature"},
	{"geometry":{"coordinates":[90.380622,23.747325],"type":"Point"},"properties":{"osm_id":"7447592236","tag":{"amenity":"waste_basket","object:street":"Mirpur Road","object:suburb":"Dhanmondi","operator":"government"}},"type":"Feature"},
	{"geometry":{"coordinates":[90.383776,23.741912],"type":"Point"},"properties":{"osm_id":"7447592275","tag":{"amenity":"waste_basket","object:street":"Green Road","object:suburb":"Dhanmondi","operator":"government"}},"type":"Feature"},
	{"geometry":{"coordinates":[90.385148,23.74254],"type":"Point"},"properties":{"osm_id":"7447592282","tag":{"amenity":"waste_basket","object:street":"Green Square Road","object:suburb":"Green Road","operator":"private"}},"type":"Feature"},
	{"geometry":{"coordinates":[90.390422,23.737714],"type":"Point"},"properties":{"osm_id":"7447592303","tag":{"amenity":"waste_basket","operator":"private"}},"type":"Feature"},
	{"geometry":{"coordinates":[90.379158,23.749857],"type":"Point"},"properties":{"osm_id":"7447592342","tag":{"amenity":"waste_basket","object:street":"Mirpur Road","object:suburb":"Kalabagan","operator":"government"}},"type":"Feature"},
	{"geometry":{"coordinates":[90.383721,23.741734],"type":"Point"},"properties":{"osm_id":"7447592354","tag":{"amenity":"waste_basket","object:street":"Green Road","object:suburb":"Dhanmondi","operator":"government"}},"type":"Feature"},
	{"geometry":{"coordinates":[90.38531,23.742451],"type":"Point"},"properties":{"osm_id":"7447592389","tag":{"amenity":"waste_basket","object:street":"Green Square Road","object:suburb":"Green Road","operator":"private"}},"type":"Feature"},
	{"geometry":{"coordinates":[90.383904,23.742234],"type":"Point"},"properties":{"osm_id":"7447592392","tag":{"amenity":"waste_basket","object:street":"Green Road","object:suburb":"Dhanmondi","operator":"government"}},"type":"Feature"},
	{"geometry":{"coordinates":[90.365614,23.749676],"type":"Point"},"properties":{"osm_id":"7447592429","tag":{"amenity":"waste_basket","object:neighbourhood":"Shankar","object:suburb":"East Dhanmondi","operator":"private"}},"type":"Feature"}
]
}
