{
"type": "FeatureCollection",
"features": [
	{"geometry":{"coordinates":[90.401617,23.711884],"type":"Point"},"properties":{"osm_id":"2507975880","tag":{"amenity":"waste_basket","dump:official":"yes"}},"type":"Feature"},
	{"geometry":{"coordinates":[90.398323,23.714363],"type":"Point"},"properties":{"osm_id":"2510249586","tag":{"amenity":"waste_basket","dump:official":"no"}},"type":"Feature"},
	{"geometry":{"coordinates":[90.406449,23.716],"type":"Point"},"properties":{"osm_id":"2513374544","tag":{"amenity":"waste_basket","dump:official":"no"}},"type":"Feature"},
	{"geometry":{"coordinates":[90.406003,23.710838],"type":"Point"},"properties":{"osm_id":"2520042495","tag":{"amenity":"waste_basket","dump:official":"no"}},"type":"Feature"},
	{"geometry":{"coordinates":[90.406036,23.710874],"type":"Point"},"properties":{"osm_id":"2520042525","tag":{"amenity":"waste_basket","dump:official":"no"}},"type":"Feature"},
	{"geometry":{"coordinates":[90.406092,23.711056],"type":"Point"},"properties":{"osm_id":"2520042710","tag":{"amenity":"waste_basket","dump:official":"no"}},"type":"Feature"},
	{"geometry":{"coordinates":[90.405986,23.711307],"type":"Point"},"properties":{"osm_id":"2520043080","tag":{"amenity":"waste_basket","dump:official":"no"}},"type":"Feature"},
	{"geometry":{"coordinates":[90.405628,23.71199],"type":"Point"},"properties":{"osm_id":"2520044518","tag":{"amenity":"waste_basket","dump:official":"no"}},"type":"Feature"},
	{"geometry":{"coordinates":[90.406486,23.712438],"type":"Point"},"properties":{"osm_id":"2520045381","tag":{"amenity":"waste_basket","dump:official":"no"}},"type":"Feature"},
	{"geometry":{"coordinates":[90.406244,23.712438],"type":"Point"},"properties":{"osm_id":"2520045384","tag":{"amenity":"waste_basket","dump:official":"no"}},"type":"Feature"},
	{"geometry":{"coordinates":[90.406265,23.712496],"type":"Point"},"properties":{"osm_id":"2520045676","tag":{"amenity":"waste_basket","dump:official":"no","landuse":"dump"}},"type":"Feature"},
	{"geometry":{"coordinates":[90.405351,23.712819],"type":"Point"},"properties":{"osm_id":"2520046341","tag":{"amenity":"waste_basket","dump:official":"yes"}},"type":"Feature"},
	{"geometry":{"coordinates":[90.404101,23.713796],"type":"Point"},"properties":{"osm_id":"2522802544","tag":{"amenity":"waste_basket","dump:official":"yes"}},"type":"Feature"},
	{"geometry":{"coordinates":[90.404803,23.714461],"type":"Point"},"properties":{"osm_id":"2522802571","tag":{"amenity":"waste_basket","dump:official":"yes"}},"type":"Feature"},
	{"geometry":{"coordinates":[90.404295,23.714688],"type":"Point"},"properties":{"osm_id":"2522802594","tag":{"amenity":"waste_basket","dump:official":"yes"}},"type":"Feature"},
	{"geometry":{"coordinates":[90.400003,23.714491],"type":"Point"},"properties":{"osm_id":"2530268567","tag":{"amenity":"waste_basket","dump:official":"no"}},"type":"Feature"},
	{"geometry":{"coordinates":[90.39932,23.714496],"type":"Point"},"properties":{"osm_id":"2530268573","tag":{"amenity":"waste_basket","dump:official":"yes"}},"type":"Feature"},
	{"geometry":{"coordinates":[90.398062,23.71475],"type":"Point"},"properties":{"osm_id":"2530268579","tag":{"amenity":"waste_basket","dump:official":"no"}},"type":"Feature"},
	{"geometry":{"coordinates":[90.400084,23.714756],"type":"Point"},"properties":{"osm_id":"2530268585","tag":{"amenity":"waste_basket","dump:official":"yes"}},"type":"Feature"},
	{"geometry":{"coordinates":[90.399243,23.714901],"type":"Point"},"properties":{"osm_id":"2530268602","tag":{"amenity":"waste_basket","dump:official":"no"}},"type":"Feature"},
	{"geometry":{"coordinates":[90.398544,23.714908],"type":"Point"},"properties":{"osm_id":"2530268606","tag":{"amenity":"waste_basket","dump:official":"yes"}},"type":"Feature"},
	{"geometry":{"coordinates":[90.426847,23.697555],"type":"Point"},"properties":{"osm_id":"3744968852","tag":{"amenity":"waste_disposal"}},"type":"Feature"},
	{"geometry":{"coordinates":[90.42568,23.697825],"type":"Point"},"properties":{"osm_id":"3744969527","tag":{"amenity":"waste_disposal"}},"type":"Feature"},
	{"geometry":{"coordinates":[90.425839,23.69755],"type":"Point"},"properties":{"osm_id":"3744969530","tag":{"amenity":"waste_disposal"}},"type":"Feature"},
	{"geometry":{"coordinates":[90.394927,23.722069],"type":"Point"},"properties":{"osm_id":"4364364703","tag":{"amenity":"waste_basket"}},"type":"Feature"},
	{"geometry":{"coordinates":[90.420505,23.718372],"type":"Point"},"properties":{"osm_id":"4375157469","tag":{"amenity":"waste_disposal"}},"type":"Feature"},
	{"geometry":{"coordinates":[90.372094,23.724075],"type":"Point"},"properties":{"osm_id":"4464515192","tag":{"amenity":"waste_disposal","operator":"Government, city corporation."}},"type":"Feature"},
	{"geometry":{"coordinates":[90.391626,23.715098],"type":"Point"},"properties":{"osm_id":"6851360900","tag":{"addr:street":"Water Works Road","addr:suburb":"Lalbag","amenity":"waste_disposal","neighbourhood":"Islambag","operator":"government"}},"type":"Feature"},
	{"geometry":{"coordinates":[90.391119,23.713738],"type":"Point"},"properties":{"osm_id":"6851360901","tag":{"addr:street":"Water Works Road","addr:suburb":"Lalbag","amenity":"waste_disposal","neighbourhood":"Islambag","operator":"government"}},"type":"Feature"},
	{"geometry":{"coordinates":[90.385216,23.712833],"type":"Point"},"properties":{"osm_id":"6851360902","tag":{"addr:street":"Beribadh Road","addr:suburb":"Lalbag","amenity":"waste_disposal","neighbourhood":"Islambag","operator":"government"}},"type":"Feature"},
	{"geometry":{"coordinates":[90.391413,23.713075],"type":"Point"},"properties":{"osm_id":"6851360903","tag":{"addr:suburb":"Chawk Bazar","amenity":"waste_disposal","neighbourhood":"Islambag","operator":"government"}},"type":"Feature"},
	{"geometry":{"coordinates":[90.391535,23.714885],"type":"Point"},"properties":{"osm_id":"6851360904","tag":{"addr:street":"Rohomotganj Road","addr:suburb":"Chawk Bazar","amenity":"waste_disposal","neighbourhood":"Rohomotganj","operator":"government"}},"type":"Feature"},
	{"geometry":{"coordinates":[90.391336,23.711564],"type":"Point"},"properties":{"osm_id":"6851360905","tag":{"addr:street":"Beribadh Road","addr:suburb":"Lalbag","amenity":"waste_disposal","neighbourhood":"Dhobi Dash Ghat, Posta","operator":"government"}},"type":"Feature"},
	{"geometry":{"coordinates":[90.391415,23.713091],"type":"Point"},"properties":{"osm_id":"6851360906","tag":{"addr:suburb":"Islambag","amenity":"waste_disposal","neighbourhood":"Chadni Ghat","operator":"government"}},"type":"Feature"},
	{"geometry":{"coordinates":[90.391602,23.715202],"type":"Point"},"properties":{"osm_id":"6851360907","tag":{"addr:suburb":"Islambag","amenity":"waste_disposal","neighbourhood":"Chadni Ghat","operator":"government"}},"type":"Feature"},
	{"geometry":{"coordinates":[90.40144,23.723311],"type":"Point"},"properties":{"osm_id":"6851360908","tag":{"addr:suburb":"Nimtoli","amenity":"waste_disposal","neighbourhood":"Nabab Katra","operator":"socity"}},"type":"Feature"},
	{"geometry":{"coordinates":[90.400612,23.722996],"type":"Point"},"properties":{"osm_id":"6851360909","tag":{"addr:suburb":"Nimtoli","amenity":"waste_disposal","neighbourhood":"Nabab Katra","operator":"government"}},"type":"Feature"},
	{"geometry":{"coordinates":[90.400828,23.723321],"type":"Point"},"properties":{"osm_id":"6851360910","tag":{"addr:suburb":"Chawk Bazar","amenity":"waste_disposal","neighbourhood":"Nabab Katra","operator":"government"}},"type":"Feature"},
	{"geometry":{"coordinates":[90.39726,23.72308],"type":"Point"},"properties":{"osm_id":"6851360911","tag":{"addr:street":"Hossaini Dalan Road","addr:suburb":"Chawk Bazar","amenity":"waste_disposal","operator":"government"}},"type":"Feature"},
	{"geometry":{"coordinates":[90.399116,23.7213],"type":"Point"},"properties":{"osm_id":"6851360912","tag":{"addr:street":"Nazimuddin Road","addr:suburb":"Chankharpool","amenity":"waste_disposal","operator":"government"}},"type":"Feature"},
	{"geometry":{"coordinates":[90.399024,23.718681],"type":"Point"},"properties":{"osm_id":"6851360913","tag":{"addr:street":"Abul Hasnat Road","addr:suburb":"Bangshal","amenity":"waste_disposal","operator":"socity"}},"type":"Feature"},
	{"geometry":{"coordinates":[90.398892,23.718514],"type":"Point"},"properties":{"osm_id":"6851360914","tag":{"addr:street":"Abul Hasnat Road","addr:suburb":"Bangshal","amenity":"waste_disposal","operator":"socity"}},"type":"Feature"},
	{"geometry":{"coordinates":[90.399651,23.718641],"type":"Point"},"properties":{"osm_id":"6851360915","tag":{"addr:street":"Abul Hasnat Road","addr:suburb":"Bangshal","amenity":"waste_disposal","operator":"socity"}},"type":"Feature"},
	{"geometry":{"coordinates":[90.399666,23.719676],"type":"Point"},"properties":{"osm_id":"6851360916","tag":{"addr:street":"Abul Hasnat Road","addr:suburb":"Bangshal","amenity":"waste_disposal","operator":"socity"}},"type":"Feature"},
	{"geometry":{"coordinates":[90.394545,23.722013],"type":"Point"},"properties":{"osm_id":"6851360918","tag":{"addr:suburb":"Bakshibazar","amenity":"waste_disposal","neighbourhood":"Alia Madrasa","operator":"government"}},"type":"Feature"},
	{"geometry":{"coordinates":[90.39446,23.72261],"type":"Point"},"properties":{"osm_id":"6851360919","tag":{"addr:suburb":"Bakshibazar","amenity":"waste_basket","neighbourhood":"Alia Madrasa","operator":"government"}},"type":"Feature"},
	{"geometry":{"coordinates":[90.394439,23.722422],"type":"Point"},"properties":{"osm_id":"6851360920","tag":{"addr:suburb":"Bakshibazar","amenity":"waste_basket","neighbourhood":"Alia Madrasa","operator":"government"}},"type":"Feature"},
	{"geometry":{"coordinates":[90.398242,23.720417],"type":"Point"},"properties":{"osm_id":"6851360921","tag":{"addr:street":"Hossaini Dalan Road","addr:suburb":"Bakshibazar","amenity":"waste_disposal","operator":"government"}},"type":"Feature"},
	{"geometry":{"coordinates":[90.39728,23.723086],"type":"Point"},"properties":{"osm_id":"6851360922","tag":{"addr:street":"Hossaini Dalan Road","addr:suburb":"Bakshibazar","amenity":"waste_disposal","operator":"government"}},"type":"Feature"},
	{"geometry":{"coordinates":[90.393115,23.722343],"type":"Point"},"properties":{"osm_id":"6851360923","tag":{"addr:street":"Bakshibazar Road","addr:suburb":"Bakshibazar","amenity":"waste_disposal","operator":"government"}},"type":"Feature"},
	{"geometry":{"coordinates":[90.387159,23.724711],"type":"Point"},"properties":{"osm_id":"6851360926","tag":{"addr:street":"Azimpur Lalbag Road","addr:suburb":"Lalbag","amenity":"waste_disposal","operator":"government"}},"type":"Feature"},
	{"geometry":{"coordinates":[90.387117,23.724017],"type":"Point"},"properties":{"osm_id":"6851360927","tag":{"addr:street":"Azimpur Lalbag Road","addr:suburb":"Lalbag","amenity":"waste_basket","operator":"government"}},"type":"Feature"},
	{"geometry":{"coordinates":[90.387183,23.724336],"type":"Point"},"properties":{"osm_id":"6851360928","tag":{"addr:street":"Azimpur Lalbag Road","addr:suburb":"Lalbag","amenity":"waste_basket","operator":"government"}},"type":"Feature"},
	{"geometry":{"coordinates":[90.385472,23.724032],"type":"Point"},"properties":{"osm_id":"6851360930","tag":{"addr:suburb":"Azimpur","amenity":"waste_disposal","neighbourhood":"Azimpur Chapra Masjid","operator":"government"}},"type":"Feature"},
	{"geometry":{"coordinates":[90.3854,23.72431],"type":"Point"},"properties":{"osm_id":"6851360936","tag":{"addr:street":"Maternity Road","addr:suburb":"Azimpur","amenity":"waste_disposal","operator":"government"}},"type":"Feature"},
	{"geometry":{"coordinates":[90.38584,23.72431],"type":"Point"},"properties":{"osm_id":"6851360937","tag":{"addr:street":"Maternity Road","addr:suburb":"Azimpur","amenity":"waste_disposal","operator":"government"}},"type":"Feature"},
	{"geometry":{"coordinates":[90.38597,23.721765],"type":"Point"},"properties":{"osm_id":"6851360947","tag":{"addr:street":"Sheikh Saheb Bazar Road","addr:suburb":"Lalbag","amenity":"waste_basket","operator":"government"}},"type":"Feature"},
	{"geometry":{"coordinates":[90.389882,23.718064],"type":"Point"},"properties":{"osm_id":"6851360948","tag":{"addr:street":"Shayesta Khan Road","addr:suburb":"Lalbag","amenity":"waste_disposal","operator":"government"}},"type":"Feature"},
	{"geometry":{"coordinates":[90.389928,23.718137],"type":"Point"},"properties":{"osm_id":"6851360949","tag":{"addr:street":"Shayesta Khan Road","addr:suburb":"Lalbag","amenity":"waste_disposal","operator":"government"}},"type":"Feature"},
	{"geometry":{"coordinates":[90.389448,23.717109],"type":"Point"},"properties":{"osm_id":"6851361690","tag":{"addr:street":"Shayesta Khan Road","addr:suburb":"Lalbag","amenity":"waste_disposal","operator":"government"}},"type":"Feature"},
	{"geometry":{"coordinates":[90.389993,23.719292],"type":"Point"},"properties":{"osm_id":"6851361691","tag":{"addr:street":"Shayesta Khan Road","addr:suburb":"Lalbag","amenity":"waste_disposal","operator":"government"}},"type":"Feature"},
	{"geometry":{"coordinates":[90.390072,23.719379],"type":"Point"},"properties":{"osm_id":"6851361692","tag":{"addr:street":"Shayesta Khan Road","addr:suburb":"Lalbag","amenity":"waste_disposal","operator":"government"}},"type":"Feature"},
	{"geometry":{"coordinates":[90.387516,23.717578],"type":"Point"},"properties":{"osm_id":"6851361693","tag":{"addr:street":"Kazi Riyaz Uddin Road","addr:suburb":"Lalbag","amenity":"waste_disposal","operator":"government"}},"type":"Feature"},
	{"geometry":{"coordinates":[90.384949,23.723017],"type":"Point"},"properties":{"osm_id":"6851361694","tag":{"addr:street":"Azimpur Road","addr:suburb":"Lalbag","amenity":"waste_disposal","operator":"government"}},"type":"Feature"},
	{"geometry":{"coordinates":[90.38682,23.72274],"type":"Point"},"properties":{"osm_id":"6851361695","tag":{"addr:street":"Azimpur Lalbag Road","addr:suburb":"Lalbag","amenity":"waste_disposal","operator":"government"}},"type":"Feature"},
	{"geometry":{"coordinates":[90.386545,23.722715],"type":"Point"},"properties":{"osm_id":"6851361696","tag":{"addr:street":"Azimpur Lalbag Road","addr:suburb":"Lalbag","amenity":"waste_disposal","operator":"government"}},"type":"Feature"},
	{"geometry":{"coordinates":[90.387094,23.722791],"type":"Point"},"properties":{"osm_id":"6851361697","tag":{"addr:street":"Azimpur Lalbag Road","addr:suburb":"Lalbag","amenity":"waste_disposal","operator":"government"}},"type":"Feature"},
	{"geometry":{"coordinates":[90.38735,23.723376],"type":"Point"},"properties":{"osm_id":"6851361698","tag":{"addr:street":"Azimpur Lalbag Road","addr:suburb":"Lalbag","amenity":"waste_basket","operator":"government"}},"type":"Feature"},
	{"geometry":{"coordinates":[90.387805,23.721857],"type":"Point"},"properties":{"osm_id":"6851361699","tag":{"addr:street":"Azimpur Lalbag Road","addr:suburb":"Lalbag","amenity":"waste_basket","operator":"government"}},"type":"Feature"},
	{"geometry":{"coordinates":[90.387539,23.723212],"type":"Point"},"properties":{"osm_id":"6851361700","tag":{"addr:street":"Azimpur Lalbag Road","addr:suburb":"Lalbag","amenity":"waste_basket","operator":"government"}},"type":"Feature"},
	{"geometry":{"coordinates":[90.388214,23.721637],"type":"Point"},"properties":{"osm_id":"6851361701","tag":{"addr:street":"Azimpur Lalbag Road","addr:suburb":"Lalbag","amenity":"waste_basket","operator":"government"}},"type":"Feature"},
	{"geometry":{"coordinates":[90.387066,23.72277],"type":"Point"},"properties":{"osm_id":"6851361702","tag":{"addr:suburb":"Azimpur","amenity":"waste_disposal","neighbourhood":"Salimullah Muslim Etimkhana","operator":"government"}},"type":"Feature"},
	{"geometry":{"coordinates":[90.390532,23.722156],"type":"Point"},"properties":{"osm_id":"6851361703","tag":{"addr:suburb":"Azimpur","amenity":"waste_disposal","neighbourhood":"Dhakeshwari Mandir","operator":"government"}},"type":"Feature"},
	{"geometry":{"coordinates":[90.384897,23.721922],"type":"Point"},"properties":{"osm_id":"6851361704","tag":{"addr:street":"Sheikh Saheb Bazar Road","addr:suburb":"Azimpur","amenity":"waste_disposal","operator":"government"}},"type":"Feature"},
	{"geometry":{"coordinates":[90.390445,23.722265],"type":"Point"},"properties":{"osm_id":"6851361705","tag":{"addr:street":"Orphanage Road","addr:suburb":"Azimpur","amenity":"waste_disposal","operator":"government"}},"type":"Feature"},
	{"geometry":{"coordinates":[90.386808,23.723988],"type":"Point"},"properties":{"osm_id":"6851361706","tag":{"addr:street":"Maternity Road","addr:suburb":"Azimpur","amenity":"waste_basket","operator":"government"}},"type":"Feature"},
	{"geometry":{"coordinates":[90.382487,23.722039],"type":"Point"},"properties":{"osm_id":"6851361707","tag":{"addr:street":"Chowdhury Bazar Road","addr:suburb":"Azimpur","amenity":"waste_disposal","operator":"government"}},"type":"Feature"},
	{"geometry":{"coordinates":[90.38483,23.717844],"type":"Point"},"properties":{"osm_id":"6851361708","tag":{"addr:street":"R N D Road","addr:suburb":"Lalbag","amenity":"waste_basket","neighbourhood":"Shahid Nagar","operator":"government"}},"type":"Feature"},
	{"geometry":{"coordinates":[90.384273,23.718082],"type":"Point"},"properties":{"osm_id":"6851361709","tag":{"addr:street":"R N D Road","addr:suburb":"Lalbag","amenity":"waste_disposal","neighbourhood":"Shahid Nagar","operator":"government"}},"type":"Feature"},
	{"geometry":{"coordinates":[90.381372,23.718073],"type":"Point"},"properties":{"osm_id":"6851361710","tag":{"addr:street":"3 No Goli","addr:suburb":"Lalbag","amenity":"waste_basket","neighbourhood":"Shahid Nagar","operator":"government"}},"type":"Feature"},
	{"geometry":{"coordinates":[90.384947,23.720428],"type":"Point"},"properties":{"osm_id":"6851361711","tag":{"addr:street":"Lalbag Road","addr:suburb":"Lalbag","amenity":"waste_basket","neighbourhood":"Mrida Masjid","operator":"government"}},"type":"Feature"},
	{"geometry":{"coordinates":[90.381327,23.718693],"type":"Point"},"properties":{"osm_id":"6851361712","tag":{"addr:street":"Shahid Nagar Road","addr:suburb":"Lalbag","amenity":"waste_disposal","neighbourhood":"Mistir Golli","operator":"government"}},"type":"Feature"},
	{"geometry":{"coordinates":[90.381607,23.71425],"type":"Point"},"properties":{"osm_id":"6851361713","tag":{"addr:street":"Beribadh Road","addr:suburb":"Lalbag","amenity":"waste_disposal","neighbourhood":"Lohar Bridge","operator":"government"}},"type":"Feature"},
	{"geometry":{"coordinates":[90.383938,23.71513],"type":"Point"},"properties":{"osm_id":"6851361714","tag":{"addr:street":"Shahan Ghat Mandir Road","addr:suburb":"Lalbag","amenity":"waste_disposal","operator":"government"}},"type":"Feature"},
	{"geometry":{"coordinates":[90.380738,23.719243],"type":"Point"},"properties":{"osm_id":"6851361715","tag":{"addr:street":"J N Saha Road","addr:suburb":"Lalbag","amenity":"waste_disposal","neighbourhood":"Amligola","operator":"government"}},"type":"Feature"},
	{"geometry":{"coordinates":[90.384723,23.71984],"type":"Point"},"properties":{"osm_id":"6851361716","tag":{"addr:street":"J N Saha Road","addr:suburb":"Lalbag","amenity":"waste_disposal","neighbourhood":"Amligola","operator":"government"}},"type":"Feature"},
	{"geometry":{"coordinates":[90.384618,23.719106],"type":"Point"},"properties":{"osm_id":"6851361717","tag":{"addr:street":"J N Saha Road","addr:suburb":"Lalbag","amenity":"waste_basket","neighbourhood":"Amligola","operator":"government"}},"type":"Feature"},
	{"geometry":{"coordinates":[90.382497,23.718671],"type":"Point"},"properties":{"osm_id":"6851361718","tag":{"addr:street":"R N D Road","addr:suburb":"Shahid Nagar","amenity":"waste_basket","neighbourhood":"Mosarraf Chairman Goli","operator":"government"}},"type":"Feature"},
	{"geometry":{"coordinates":[90.379753,23.720142],"type":"Point"},"properties":{"osm_id":"6851361722","tag":{"addr:street":"Balur Math Road","addr:suburb":"Lalbag","amenity":"waste_disposal","neighbourhood":"Amligola","operator":"government"}},"type":"Feature"},
	{"geometry":{"coordinates":[90.374179,23.72256],"type":"Point"},"properties":{"osm_id":"6851361727","tag":{"addr:street":"Beribadh Road","addr:suburb":"Hazaribag","amenity":"waste_disposal","neighbourhood":"Sekson Dhal","operator":"government"}},"type":"Feature"},
	{"geometry":{"coordinates":[90.373754,23.723014],"type":"Point"},"properties":{"osm_id":"6851361728","tag":{"addr:street":"Beribadh Road","addr:suburb":"Hazaribag","amenity":"waste_disposal","neighbourhood":"Sekson Dhal","operator":"government"}},"type":"Feature"},
	{"geometry":{"coordinates":[90.37091,23.724345],"type":"Point"},"properties":{"osm_id":"6851361731","tag":{"addr:street":"Beribadh Road","addr:suburb":"Hazaribag","amenity":"waste_disposal","neighbourhood":"Company Ghat","operator":"government"}},"type":"Feature"},
	{"geometry":{"coordinates":[90.410518,23.712751],"type":"Point"},"properties":{"osm_id":"7447592234","tag":{"amenity":"waste_disposal","object:neighbourhood":"Goal Nagar","object:suburb":"Ray Saheb Bazar","operator":"government"}},"type":"Feature"},
	{"geometry":{"coordinates":[90.409454,23.713299],"type":"Point"},"properties":{"osm_id":"7447592235","tag":{"amenity":"waste_disposal","object:neighbourhood":"Goal Nagar","object:suburb":"Tati Bazar","operator":"government"}},"type":"Feature"},
	{"geometry":{"coordinates":[90.400628,23.720612],"type":"Point"},"properties":{"osm_id":"7447592237","tag":{"amenity":"waste_disposal","object:street":"Abul Hasnat Road","object:suburb":"Bangshal","operator":"socity"}},"type":"Feature"},
	{"geometry":{"coordinates":[90.402919,23.723199],"type":"Point"},"properties":{"osm_id":"7447592238","tag":{"amenity":"waste_disposal","object:neighbourhood":"Nabab Katra","object:suburb":"Nimtoli","operator":"government"}},"type":"Feature"},
	{"geometry":{"coordinates":[90.409021,23.71082],"type":"Point"},"properties":{"osm_id":"7447592239","tag":{"amenity":"waste_disposal","object:street":"Radhika Mohon Basak Lane","object:suburb":"Tati Bazar","operator":"government"}},"type":"Feature"},
	{"geometry":{"coordinates":[90.406762,23.723271],"type":"Point"},"properties":{"osm_id":"7447592240","tag":{"amenity":"waste_disposal","object:neighbourhood":"Fulbaria","object:suburb":"Gulisthan","operator":"government"}},"type":"Feature"},
	{"geometry":{"coordinates":[90.40368,23.710522],"type":"Point"},"properties":{"osm_id":"7447592241","tag":{"amenity":"waste_disposal","object:neighbourhood":"Badamtoli","object:street":"Kazi Ziauddin Road","object:suburb":"Babu Bazar","operator":"government"}},"type":"Feature"},
	{"geometry":{"coordinates":[90.408387,23.71298],"type":"Point"},"properties":{"osm_id":"7447592242","tag":{"amenity":"waste_disposal","object:suburb":"Tati Bazar","operator":"government"}},"type":"Feature"},
	{"geometry":{"coordinates":[90.408392,23.71047],"type":"Point"},"properties":{"osm_id":"7447592243","tag":{"amenity":"waste_disposal","object:neighbourhood":"Panitola","object:street":"Radhika Mohon Basak Lane","object:suburb":"Tati Bazar","operator":"government"}},"type":"Feature"},
	{"geometry":{"coordinates":[90.406063,23.714194],"type":"Point"},"properties":{"osm_id":"7447592245","tag":{"amenity":"waste_basket","object:street":"Noyabazar Road","object:suburb":"Nayabazar","operator":"government"}},"type":"Feature"},
	{"geometry":{"coordinates":[90.409376,23.713311],"type":"Point"},"properties":{"osm_id":"7447592246","tag":{"amenity":"waste_disposal","object:neighbourhood":"Goal Nagar","object:suburb":"Tati Bazar","operator":"government"}},"type":"Feature"},
	{"geometry":{"coordinates":[90.40876,23.716567],"type":"Point"},"properties":{"osm_id":"7447592247","tag":{"amenity":"waste_disposal","object:street":"North South Road","object:suburb":"Bangshal","operator":"government"}},"type":"Feature"},
	{"geometry":{"coordinates":[90.403262,23.710309],"type":"Point"},"properties":{"osm_id":"7447592248","tag":{"amenity":"waste_disposal","object:neighbourhood":"Badamtoli","object:street":"Kazi Ziauddin Road","object:suburb":"Nayabazar","operator":"government"}},"type":"Feature"},
	{"geometry":{"coordinates":[90.408995,23.713352],"type":"Point"},"properties":{"osm_id":"7447592249","tag":{"amenity":"waste_disposal","object:street":"Radhika Mohon Basak Lane","object:suburb":"Tati Bazar","operator":"government"}},"type":"Feature"},
	{"geometry":{"coordinates":[90.41016,23.712198],"type":"Point"},"properties":{"osm_id":"7447592250","tag":{"amenity":"waste_disposal","object:neighbourhood":"Rajar Deuri, Court Kachari","object:suburb":"Laxmi Bazar","operator":"government"}},"type":"Feature"},
	{"geometry":{"coordinates":[90.406384,23.713116],"type":"Point"},"properties":{"osm_id":"7447592251","tag":{"amenity":"waste_disposal","object:street":"Zindabahar 2nd Lane","object:suburb":"Nayabazar","operator":"government"}},"type":"Feature"},
	{"geometry":{"coordinates":[90.408955,23.712098],"type":"Point"},"properties":{"osm_id":"7447592252","tag":{"amenity":"waste_disposal","object:street":"Radhika Mohon Basak Lane","object:suburb":"Tati Bazar","operator":"government"}},"type":"Feature"},
	{"geometry":{"coordinates":[90.396139,23.714155],"type":"Point"},"properties":{"osm_id":"7447592253","tag":{"amenity":"waste_disposal","object:street":"Champatoli 2nd Lane","object:suburb":"Chawk Bazar","operator":"government"}},"type":"Feature"},
	{"geometry":{"coordinates":[90.408932,23.712537],"type":"Point"},"properties":{"osm_id":"7447592254","tag":{"amenity":"waste_disposal","object:street":"Radhika Mohon Basak Lane","object:suburb":"Tati Bazar","operator":"government"}},"type":"Feature"},
	{"geometry":{"coordinates":[90.400243,23.715057],"type":"Point"},"properties":{"osm_id":"7447592255","tag":{"amenity":"waste_disposal","object:street":"NCC Road","object:suburb":"Mitford","operator":"government"}},"type":"Feature"},
	{"geometry":{"coordinates":[90.406454,23.718241],"type":"Point"},"properties":{"osm_id":"7447592256","tag":{"amenity":"waste_basket","object:street":"Majed Sardar Road","object:suburb":"Bangshal","operator":"government"}},"type":"Feature"},
	{"geometry":{"coordinates":[90.394492,23.711399],"type":"Point"},"properties":{"osm_id":"7447592257","tag":{"amenity":"waste_disposal","object:neighbourhood":"Sowari Ghat","object:street":"Beribadh Road","operator":"government"}},"type":"Feature"},
	{"geometry":{"coordinates":[90.399322,23.712552],"type":"Point"},"properties":{"osm_id":"7447592258","tag":{"amenity":"waste_disposal","object:neighbourhood":"Beltola","object:street":"Jummon Bepari Lane","object:suburb":"Mitford","operator":"government"}},"type":"Feature"},
	{"geometry":{"coordinates":[90.411497,23.713075],"type":"Point"},"properties":{"osm_id":"7447592260","tag":{"amenity":"waste_disposal","object:neighbourhood":"Shakhari Bazar","object:street":"Johnson Road","operator":"government"}},"type":"Feature"},
	{"geometry":{"coordinates":[90.411322,23.714983],"type":"Point"},"properties":{"osm_id":"7447592261","tag":{"amenity":"waste_disposal","object:street":"Nawabpur Road","object:suburb":"Nawabpur","operator":"government"}},"type":"Feature"},
	{"geometry":{"coordinates":[90.412096,23.721763],"type":"Point"},"properties":{"osm_id":"7447592263","tag":{"amenity":"waste_disposal","object:street":"Nawabpur Road","object:suburb":"Nawabpur","operator":"government"}},"type":"Feature"},
	{"geometry":{"coordinates":[90.397867,23.711478],"type":"Point"},"properties":{"osm_id":"7447592265","tag":{"amenity":"waste_disposal","object:neighbourhood":"Choto Katra","object:street":"Beribadh Road","operator":"government"}},"type":"Feature"},
	{"geometry":{"coordinates":[90.404851,23.709364],"type":"Point"},"properties":{"osm_id":"7447592266","tag":{"amenity":"waste_disposal","object:neighbourhood":"Nawab Bari Gol Talab","object:street":"Ahsanullah Road","object:suburb":"Islampur","operator":"government"}},"type":"Feature"},
	{"geometry":{"coordinates":[90.399843,23.718609],"type":"Point"},"properties":{"osm_id":"7447592267","tag":{"amenity":"waste_disposal","object:street":"Abul Hasnat Road","object:suburb":"Bangshal","operator":"government"}},"type":"Feature"},
	{"geometry":{"coordinates":[90.411546,23.711722],"type":"Point"},"properties":{"osm_id":"7447592269","tag":{"amenity":"waste_disposal","object:neighbourhood":"Court Kachari","object:street":"Jonshon Road","object:suburb":"Laxmi Bazar","operator":"government"}},"type":"Feature"},
	{"geometry":{"coordinates":[90.4097,23.719447],"type":"Point"},"properties":{"osm_id":"7447592270","tag":{"amenity":"waste_basket","object:street":"Bangshal Road","object:suburb":"Bangshal","operator":"government"}},"type":"Feature"},
	{"geometry":{"coordinates":[90.411443,23.713432],"type":"Point"},"properties":{"osm_id":"7447592271","tag":{"amenity":"waste_disposal","object:neighbourhood":"Ray Saheb Bazar","object:street":"Jonshon Road","operator":"government"}},"type":"Feature"},
	{"geometry":{"coordinates":[90.387323,23.711793],"type":"Point"},"properties":{"osm_id":"7447592272","tag":{"amenity":"waste_disposal","object:neighbourhood":"Islambag","object:street":"Beribadh Road","object:suburb":"Lalbag","operator":"government"}},"type":"Feature"},
	{"geometry":{"coordinates":[90.410453,23.707252],"type":"Point"},"properties":{"osm_id":"7447592273","tag":{"amenity":"waste_disposal","object:neighbourhood":"Bangla Bazar","object:street":"Patuatuli Road","object:suburb":"Sadarghat","operator":"government"}},"type":"Feature"},
	{"geometry":{"coordinates":[90.406785,23.711158],"type":"Point"},"properties":{"osm_id":"7447592274","tag":{"amenity":"waste_disposal","object:neighbourhood":"Patuatuli","object:street":"Islampur Road","operator":"government"}},"type":"Feature"},
	{"geometry":{"coordinates":[90.402101,23.721978],"type":"Point"},"properties":{"osm_id":"7447592276","tag":{"amenity":"waste_disposal","object:neighbourhood":"Nabab Katra","object:suburb":"Nimtoli","operator":"government"}},"type":"Feature"},
	{"geometry":{"coordinates":[90.408938,23.711317],"type":"Point"},"properties":{"osm_id":"7447592277","tag":{"amenity":"waste_disposal","object:street":"Radhika Mohon Basak Lane","object:suburb":"Tati Bazar","operator":"government"}},"type":"Feature"},
	{"geometry":{"coordinates":[90.406571,23.709184],"type":"Point"},"properties":{"osm_id":"7447592278","tag":{"amenity":"waste_disposal","object:street":"Ahsanullah Road","object:suburb":"Islampur","operator":"government"}},"type":"Feature"},
	{"geometry":{"coordinates":[90.407994,23.711001],"type":"Point"},"properties":{"osm_id":"7447592280","tag":{"amenity":"waste_disposal","object:street":"Kotwali Road","object:suburb":"Tati Bazar","operator":"government"}},"type":"Feature"},
	{"geometry":{"coordinates":[90.408327,23.713106],"type":"Point"},"properties":{"osm_id":"7447592281","tag":{"amenity":"waste_disposal","object:suburb":"Tati Bazar","operator":"government"}},"type":"Feature"},
	{"geometry":{"coordinates":[90.409743,23.713299],"type":"Point"},"properties":{"osm_id":"7447592283","tag":{"amenity":"waste_disposal","object:neighbourhood":"Goal Nagar","object:suburb":"Tati Bazar","operator":"government"}},"type":"Feature"},
	{"geometry":{"coordinates":[90.40487,23.713398],"type":"Point"},"properties":{"osm_id":"7447592284","tag":{"amenity":"waste_basket","object:street":"Nowab Yousuf Road","object:suburb":"Nayabazar","operator":"government"}},"type":"Feature"},
	{"geometry":{"coordinates":[90.400153,23.715561],"type":"Point"},"properties":{"osm_id":"7447592285","tag":{"amenity":"waste_disposal","object:neighbourhood":"Becharan Deuri","object:suburb":"Bangshal","operator":"government"}},"type":"Feature"},
	{"geometry":{"coordinates":[90.405207,23.713883],"type":"Point"},"properties":{"osm_id":"7447592286","tag":{"amenity":"waste_basket","object:street":"Nayabazar Road","object:suburb":"Nayabazar","operator":"government"}},"type":"Feature"},
	{"geometry":{"coordinates":[90.408935,23.712399],"type":"Point"},"properties":{"osm_id":"7447592287","tag":{"amenity":"waste_disposal","object:street":"Radhika Mohon Basak Lane","object:suburb":"Tati Bazar","operator":"government"}},"type":"Feature"},
	{"geometry":{"coordinates":[90.410194,23.712249],"type":"Point"},"properties":{"osm_id":"7447592288","tag":{"amenity":"waste_disposal","object:neighbourhood":"Rajar Deuri, Court Kachari","object:suburb":"Laxmi Bazar","operator":"government"}},"type":"Feature"},
	{"geometry":{"coordinates":[90.406262,23.71413],"type":"Point"},"properties":{"osm_id":"7447592289","tag":{"amenity":"waste_basket","object:street":"Yousuf Ali Road","object:suburb":"Nayabazar","operator":"government"}},"type":"Feature"},
	{"geometry":{"coordinates":[90.408932,23.712588],"type":"Point"},"properties":{"osm_id":"7447592290","tag":{"amenity":"waste_disposal","object:street":"Radhika Mohon Basak Lane","object:suburb":"Tati Bazar","operator":"government"}},"type":"Feature"},
	{"geometry":{"coordinates":[90.39822,23.714065],"type":"Point"},"properties":{"osm_id":"7447592291","tag":{"amenity":"waste_disposal","object:neighbourhood":"Imamganj","object:street":"Mitford Road","object:suburb":"Chawk Bazar","operator":"government"}},"type":"Feature"},
	{"geometry":{"coordinates":[90.406548,23.713354],"type":"Point"},"properties":{"osm_id":"7447592292","tag":{"amenity":"waste_disposal","object:street":"Sayed Awlad Hossain Lane","object:suburb":"Nayabazar","operator":"government"}},"type":"Feature"},
	{"geometry":{"coordinates":[90.40904,23.712981],"type":"Point"},"properties":{"osm_id":"7447592293","tag":{"amenity":"waste_disposal","object:street":"Radhika Mohon Basak Lane","object:suburb":"Tati Bazar","operator":"government"}},"type":"Feature"},
	{"geometry":{"coordinates":[90.406319,23.718167],"type":"Point"},"properties":{"osm_id":"7447592294","tag":{"amenity":"waste_basket","object:street":"Majed Sardar Road","object:suburb":"Bangshal","operator":"government"}},"type":"Feature"},
	{"geometry":{"coordinates":[90.393735,23.71145],"type":"Point"},"properties":{"osm_id":"7447592295","tag":{"amenity":"waste_disposal","object:neighbourhood":"Sowari Ghat","object:street":"Beribadh Road","operator":"government"}},"type":"Feature"},
	{"geometry":{"coordinates":[90.400143,23.714777],"type":"Point"},"properties":{"osm_id":"7447592296","tag":{"amenity":"waste_disposal","object:neighbourhood":"Becharam Dewri","object:street":"B K Roy Lane","object:suburb":"Mitford","operator":"government"}},"type":"Feature"},
	{"geometry":{"coordinates":[90.406203,23.718182],"type":"Point"},"properties":{"osm_id":"7447592297","tag":{"amenity":"waste_basket","object:street":"Majed Sardar Road","object:suburb":"Bangshal","operator":"government"}},"type":"Feature"},
	{"geometry":{"coordinates":[90.402231,23.719346],"type":"Point"},"properties":{"osm_id":"7447592298","tag":{"amenity":"waste_disposal","object:neighbourhood":"Siddik Bazar","object:street":"Agamasi Lane","operator":"government"}},"type":"Feature"},
	{"geometry":{"coordinates":[90.40588,23.707896],"type":"Point"},"properties":{"osm_id":"7447592299","tag":{"amenity":"waste_disposal","object:neighbourhood":"Badamtole","object:street":"Ahsanullah Road","object:suburb":"Nayabazar","operator":"government"}},"type":"Feature"},
	{"geometry":{"coordinates":[90.402732,23.718395],"type":"Point"},"properties":{"osm_id":"7447592300","tag":{"amenity":"waste_disposal","object:street":"Majed Sardar Road","object:suburb":"Bangshal","operator":"socity"}},"type":"Feature"},
	{"geometry":{"coordinates":[90.398343,23.715993],"type":"Point"},"properties":{"osm_id":"7447592301","tag":{"amenity":"waste_disposal","object:street":"Ali Hossain Khan Road","object:suburb":"Moulovi Bazar","operator":"government"}},"type":"Feature"},
	{"geometry":{"coordinates":[90.378651,23.719849],"type":"Point"},"properties":{"osm_id":"7447592304","tag":{"amenity":"waste_disposal","object:neighbourhood":"Balurghat","object:street":"Beribadh Road","object:suburb":"Lalbag","operator":"government"}},"type":"Feature"},
	{"geometry":{"coordinates":[90.400478,23.718204],"type":"Point"},"properties":{"osm_id":"7447592305","tag":{"amenity":"waste_disposal","object:street":"Abul Hasnat Road","object:suburb":"Bangshal","operator":"government"}},"type":"Feature"},
	{"geometry":{"coordinates":[90.404077,23.713102],"type":"Point"},"properties":{"osm_id":"7447592306","tag":{"amenity":"waste_disposal","object:neighbourhood":"Armanitola","object:street":"Jumrail Lane","operator":"government"}},"type":"Feature"},
	{"geometry":{"coordinates":[90.411673,23.71055],"type":"Point"},"properties":{"osm_id":"7447592307","tag":{"amenity":"waste_disposal","object:neighbourhood":"Court Kachari","object:street":"Jonshon Road","object:suburb":"Laxmi Bazar","operator":"government"}},"type":"Feature"},
	{"geometry":{"coordinates":[90.410492,23.721993],"type":"Point"},"properties":{"osm_id":"7447592308","tag":{"amenity":"waste_disposal","object:street":"Bangshal Road","object:suburb":"Bangshal","operator":"government"}},"type":"Feature"},
	{"geometry":{"coordinates":[90.411081,23.713854],"type":"Point"},"properties":{"osm_id":"7447592309","tag":{"amenity":"waste_disposal","object:neighbourhood":"Sadarghat","object:street":"English Road","operator":"government"}},"type":"Feature"},
	{"geometry":{"coordinates":[90.388977,23.711738],"type":"Point"},"properties":{"osm_id":"7447592310","tag":{"amenity":"waste_disposal","object:neighbourhood":"Ali Ghat","object:street":"Beribadh Road","object:suburb":"Islambag","operator":"government"}},"type":"Feature"},
	{"geometry":{"coordinates":[90.37586,23.721396],"type":"Point"},"properties":{"osm_id":"7447592311","tag":{"amenity":"waste_disposal","object:neighbourhood":"Nababganj Park","object:street":"Beribadh Road","object:suburb":"Lalbag","operator":"government"}},"type":"Feature"},
	{"geometry":{"coordinates":[90.406506,23.710484],"type":"Point"},"properties":{"osm_id":"7447592312","tag":{"amenity":"waste_disposal","object:neighbourhood":"Patuatuli","object:street":"Islampur Road","operator":"government"}},"type":"Feature"},
	{"geometry":{"coordinates":[90.406875,23.707279],"type":"Point"},"properties":{"osm_id":"7447592313","tag":{"amenity":"waste_disposal","object:neighbourhood":"Wise Ghat","object:street":"Ahsanullah Road","object:suburb":"Sadar Ghat","operator":"government"}},"type":"Feature"},
	{"geometry":{"coordinates":[90.410641,23.713102],"type":"Point"},"properties":{"osm_id":"7447592315","tag":{"amenity":"waste_disposal","object:neighbourhood":"Goal Nagar","object:suburb":"Ray Saheb Bazar","operator":"government"}},"type":"Feature"},
	{"geometry":{"coordinates":[90.408959,23.711957],"type":"Point"},"properties":{"osm_id":"7447592316","tag":{"amenity":"waste_disposal","object:street":"Radhika Mohon Basak Lane","object:suburb":"Tati Bazar","operator":"government"}},"type":"Feature"},
	{"geometry":{"coordinates":[90.40773,23.711837],"type":"Point"},"properties":{"osm_id":"7447592319","tag":{"amenity":"waste_disposal","object:neighbourhood":"Sutar Nagar","object:street":"Utshab Poddar Lane","object:suburb":"Tati Bazar","operator":"government"}},"type":"Feature"},
	{"geometry":{"coordinates":[90.408369,23.712469],"type":"Point"},"properties":{"osm_id":"7447592320","tag":{"amenity":"waste_disposal","object:suburb":"Tati Bazar","operator":"government"}},"type":"Feature"},
	{"geometry":{"coordinates":[90.409576,23.72238],"type":"Point"},"properties":{"osm_id":"7447592321","tag":{"amenity":"waste_disposal","object:street":"Siddik Bazar Road","object:suburb":"Gulisthan","operator":"government"}},"type":"Feature"},
	{"geometry":{"coordinates":[90.408457,23.710991],"type":"Point"},"properties":{"osm_id":"7447592322","tag":{"amenity":"waste_disposal","object:neighbourhood":"Panitola","object:street":"Radhika Mohon Basak Lane","object:suburb":"Tati Bazar","operator":"government"}},"type":"Feature"},
	{"geometry":{"coordinates":[90.408749,23.711333],"type":"Point"},"properties":{"osm_id":"7447592323","tag":{"amenity":"waste_disposal","object:suburb":"Tati Bazar","operator":"government"}},"type":"Feature"},
	{"geometry":{"coordinates":[90.399788,23.717584],"type":"Point"},"properties":{"osm_id":"7447592324","tag":{"amenity":"waste_disposal","object:neighbourhood":"Begum Bazar","object:street":"K M Aziz Road","object:suburb":"Bangshal","operator":"government"}},"type":"Feature"},
	{"geometry":{"coordinates":[90.40904,23.712929],"type":"Point"},"properties":{"osm_id":"7447592325","tag":{"amenity":"waste_disposal","object:street":"Radhika Mohon Basak Lane","object:suburb":"Tati Bazar","operator":"government"}},"type":"Feature"},
	{"geometry":{"coordinates":[90.405299,23.712898],"type":"Point"},"properties":{"osm_id":"7447592326","tag":{"amenity":"waste_disposal","object:street":"Jindabahar 1st Lane","object:suburb":"Nayabazar","operator":"government"}},"type":"Feature"},
	{"geometry":{"coordinates":[90.40836,23.714649],"type":"Point"},"properties":{"osm_id":"7447592327","tag":{"amenity":"waste_basket","object:street":"North South Road","object:suburb":"Bangshal","operator":"government"}},"type":"Feature"},
	{"geometry":{"coordinates":[90.405402,23.722517],"type":"Point"},"properties":{"osm_id":"7447592328","tag":{"amenity":"waste_disposal","object:street":"Agamasir Lane","object:suburb":"Nazira Bazar","operator":"government"}},"type":"Feature"},
	{"geometry":{"coordinates":[90.409162,23.713311],"type":"Point"},"properties":{"osm_id":"7447592329","tag":{"amenity":"waste_disposal","object:street":"Radhika Mohon Basak Lane","object:suburb":"Tati Bazar","operator":"government"}},"type":"Feature"},
	{"geometry":{"coordinates":[90.396378,23.71149],"type":"Point"},"properties":{"osm_id":"7447592330","tag":{"amenity":"waste_disposal","object:neighbourhood":"Choto Katra","object:street":"Beribadh Road","object:suburb":"Chawk Bazar","operator":"government"}},"type":"Feature"},
	{"geometry":{"coordinates":[90.406757,23.713659],"type":"Point"},"properties":{"osm_id":"7447592331","tag":{"amenity":"waste_disposal","object:street":"Sayed Awlad Hossain Lane","object:suburb":"Nayabazar","operator":"government"}},"type":"Feature"},
	{"geometry":{"coordinates":[90.408996,23.712988],"type":"Point"},"properties":{"osm_id":"7447592332","tag":{"amenity":"waste_disposal","object:street":"Radhika Mohon Basak Lane","object:suburb":"Tati Bazar","operator":"government"}},"type":"Feature"},
	{"geometry":{"coordinates":[90.406121,23.718312],"type":"Point"},"properties":{"osm_id":"7447592333","tag":{"amenity":"waste_basket","object:street":"Majed Sardar Road","object:suburb":"Bangshal","operator":"government"}},"type":"Feature"},
	{"geometry":{"coordinates":[90.400483,23.712383],"type":"Point"},"properties":{"osm_id":"7447592334","tag":{"amenity":"waste_disposal","object:street":"Mitford Road","object:suburb":"Mitford","operator":"government"}},"type":"Feature"},
	{"geometry":{"coordinates":[90.406427,23.718179],"type":"Point"},"properties":{"osm_id":"7447592335","tag":{"amenity":"waste_basket","object:street":"Majed Sardar Road","object:suburb":"Bangshal","operator":"government"}},"type":"Feature"},
	{"geometry":{"coordinates":[90.403724,23.719615],"type":"Point"},"properties":{"osm_id":"7447592336","tag":{"amenity":"waste_disposal","object:neighbourhood":"Siddik Bazar","object:street":"Agamasi Lane","operator":"government"}},"type":"Feature"},
	{"geometry":{"coordinates":[90.404356,23.71321],"type":"Point"},"properties":{"osm_id":"7447592337","tag":{"amenity":"waste_basket","object:neighbourhood":"Armanitola","object:street":"Sayed Hasan Ali Road","object:suburb":"Nayabazar","operator":"government"}},"type":"Feature"},
	{"geometry":{"coordinates":[90.411557,23.72121],"type":"Point"},"properties":{"osm_id":"7447592339","tag":{"amenity":"waste_disposal","object:street":"Nawabpur Road","object:suburb":"Nawabpur","operator":"government"}},"type":"Feature"},
	{"geometry":{"coordinates":[90.402648,23.719098],"type":"Point"},"properties":{"osm_id":"7447592340","tag":{"amenity":"waste_disposal","object:street":"Aga Sadek Road","object:suburb":"Bangshal","operator":"government"}},"type":"Feature"},
	{"geometry":{"coordinates":[90.396023,23.713381],"type":"Point"},"properties":{"osm_id":"7447592341","tag":{"amenity":"waste_disposal","object:neighbourhood":"Sowari Ghat","object:street":"Champatoli Lane","operator":"government"}},"type":"Feature"},
	{"geometry":{"coordinates":[90.401027,23.71719],"type":"Point"},"properties":{"osm_id":"7447592343","tag":{"amenity":"waste_disposal","object:street":"Abul Hasnat Road","object:suburb":"Bangshal","operator":"government"}},"type":"Feature"},
	{"geometry":{"coordinates":[90.404207,23.721645],"type":"Point"},"properties":{"osm_id":"7447592344","tag":{"amenity":"waste_disposal","object:neighbourhood":"Banga Market","object:street":"Agamasi Lane","operator":"socity"}},"type":"Feature"},
	{"geometry":{"coordinates":[90.406599,23.712366],"type":"Point"},"properties":{"osm_id":"7447592345","tag":{"amenity":"waste_disposal","object:street":"Sayed Awlad Hossain Lane","object:suburb":"Islampur","operator":"government"}},"type":"Feature"},
	{"geometry":{"coordinates":[90.409797,23.719525],"type":"Point"},"properties":{"osm_id":"7447592346","tag":{"amenity":"waste_disposal","object:street":"Bangshal Road","object:suburb":"Bangshal","operator":"government"}},"type":"Feature"},
	{"geometry":{"coordinates":[90.411598,23.713087],"type":"Point"},"properties":{"osm_id":"7447592347","tag":{"amenity":"waste_disposal","object:neighbourhood":"Ray Saheb Bazar","object:street":"Jonshon Road","operator":"government"}},"type":"Feature"},
	{"geometry":{"coordinates":[90.378122,23.720119],"type":"Point"},"properties":{"osm_id":"7447592348","tag":{"amenity":"waste_disposal","object:neighbourhood":"Nababganj Park","object:street":"Beribadh Road","object:suburb":"Lalbag","operator":"government"}},"type":"Feature"},
	{"geometry":{"coordinates":[90.409832,23.720111],"type":"Point"},"properties":{"osm_id":"7447592349","tag":{"amenity":"waste_basket","object:street":"Bangshal Road","object:suburb":"Bangshal","operator":"government"}},"type":"Feature"},
	{"geometry":{"coordinates":[90.411607,23.713002],"type":"Point"},"properties":{"osm_id":"7447592350","tag":{"amenity":"waste_basket","object:neighbourhood":"Ray Saheb Bazar","object:street":"Jonshon Road","operator":"government"}},"type":"Feature"},
	{"geometry":{"coordinates":[90.408904,23.711858],"type":"Point"},"properties":{"osm_id":"7447592352","tag":{"amenity":"waste_disposal","object:street":"Radhika Mohon Basak Lane","object:suburb":"Tati Bazar","operator":"government"}},"type":"Feature"},
	{"geometry":{"coordinates":[90.401411,23.722485],"type":"Point"},"properties":{"osm_id":"7447592353","tag":{"amenity":"waste_disposal","object:neighbourhood":"Nabab Katra","object:suburb":"Nimtoli","operator":"government"}},"type":"Feature"},
	{"geometry":{"coordinates":[90.395514,23.719503],"type":"Point"},"properties":{"osm_id":"7447592355","tag":{"amenity":"waste_disposal","object:street":"Unmesh Datta Road","object:suburb":"Bakshibazar","operator":"government"}},"type":"Feature"},
	{"geometry":{"coordinates":[90.40892,23.71143],"type":"Point"},"properties":{"osm_id":"7447592356","tag":{"amenity":"waste_disposal","object:street":"Radhika Mohon Basak Lane","object:suburb":"Tati Bazar","operator":"government"}},"type":"Feature"},
	{"geometry":{"coordinates":[90.408938,23.711323],"type":"Point"},"properties":{"osm_id":"7447592357","tag":{"amenity":"waste_disposal","object:street":"Radhika Mohon Basak Lane","object:suburb":"Tati Bazar","operator":"government"}},"type":"Feature"},
	{"geometry":{"coordinates":[90.406605,23.722719],"type":"Point"},"properties":{"osm_id":"7447592358","tag":{"amenity":"waste_disposal","object:street":"Fulbaria Road","object:suburb":"Gulisthan","operator":"government"}},"type":"Feature"},
	{"geometry":{"coordinates":[90.400829,23.714407],"type":"Point"},"properties":{"osm_id":"7447592359","tag":{"amenity":"waste_disposal","object:neighbourhood":"Becharam Deuri","object:suburb":"Armanitola","operator":"government"}},"type":"Feature"},
	{"geometry":{"coordinates":[90.40919,23.714014],"type":"Point"},"properties":{"osm_id":"7447592360","tag":{"amenity":"waste_disposal","object:neighbourhood":"Din Market","object:street":"English Road","object:suburb":"Tati Bazar","operator":"government"}},"type":"Feature"},
	{"geometry":{"coordinates":[90.408538,23.711321],"type":"Point"},"properties":{"osm_id":"7447592361","tag":{"amenity":"waste_disposal","object:suburb":"Tati Bazar","operator":"government"}},"type":"Feature"},
	{"geometry":{"coordinates":[90.395534,23.721493],"type":"Point"},"properties":{"osm_id":"7447592362","tag":{"amenity":"waste_disposal","object:street":"Nazimuddin Road","object:suburb":"Chankharpool","operator":"others"}},"type":"Feature"},
	{"geometry":{"coordinates":[90.405507,23.714236],"type":"Point"},"properties":{"osm_id":"7447592363","tag":{"amenity":"waste_basket","object:street":"Nayabazar Road","object:suburb":"Nayabazar","operator":"government"}},"type":"Feature"},
	{"geometry":{"coordinates":[90.409137,23.7133],"type":"Point"},"properties":{"osm_id":"7447592364","tag":{"amenity":"waste_disposal","object:street":"Radhika Mohon Basak Lane","object:suburb":"Tati Bazar","operator":"government"}},"type":"Feature"},
	{"geometry":{"coordinates":[90.408932,23.712512],"type":"Point"},"properties":{"osm_id":"7447592366","tag":{"amenity":"waste_disposal","object:street":"Radhika Mohon Basak Lane","object:suburb":"Tati Bazar","operator":"government"}},"type":"Feature"},
	{"geometry":{"coordinates":[90.406363,23.712943],"type":"Point"},"properties":{"osm_id":"7447592367","tag":{"amenity":"waste_disposal","object:street":"Zindabahar 2nd Lane","object:suburb":"Nayabazar","operator":"government"}},"type":"Feature"},
	{"geometry":{"coordinates":[90.407827,23.707455],"type":"Point"},"properties":{"osm_id":"7447592368","tag":{"amenity":"waste_disposal","object:neighbourhood":"Wise Ghat","object:street":"Sinson Road","object:suburb":"Chawk Bazar","operator":"government"}},"type":"Feature"},
	{"geometry":{"coordinates":[90.405929,23.714058],"type":"Point"},"properties":{"osm_id":"7447592369","tag":{"amenity":"waste_basket","object:street":"Yousuf Ali Road","object:suburb":"Nayabazar","operator":"government"}},"type":"Feature"},
	{"geometry":{"coordinates":[90.408959,23.712728],"type":"Point"},"properties":{"osm_id":"7447592370","tag":{"amenity":"waste_disposal","object:street":"Radhika Mohon Basak Lane","object:suburb":"Tati Bazar","operator":"government"}},"type":"Feature"},
	{"geometry":{"coordinates":[90.406219,23.718373],"type":"Point"},"properties":{"osm_id":"7447592371","tag":{"amenity":"waste_basket","object:street":"Majed Sardar Road","object:suburb":"Bangshal","operator":"government"}},"type":"Feature"},
	{"geometry":{"coordinates":[90.40166,23.711777],"type":"Point"},"properties":{"osm_id":"7447592372","tag":{"amenity":"waste_disposal","object:street":"Mitford Road","object:suburb":"Mitford","operator":"government"}},"type":"Feature"},
	{"geometry":{"coordinates":[90.406194,23.718298],"type":"Point"},"properties":{"osm_id":"7447592373","tag":{"amenity":"waste_basket","object:street":"Majed Sardar Road","object:suburb":"Bangshal","operator":"government"}},"type":"Feature"},
	{"geometry":{"coordinates":[90.405893,23.72144],"type":"Point"},"properties":{"osm_id":"7447592374","tag":{"amenity":"waste_disposal","object:neighbourhood":"Siddik Bazar","object:street":"Alauddin Road","operator":"government"}},"type":"Feature"},
	{"geometry":{"coordinates":[90.410923,23.710803],"type":"Point"},"properties":{"osm_id":"7447592375","tag":{"amenity":"waste_basket","object:neighbourhood":"Judge Court","object:street":"Court House Street","object:suburb":"Laxmi Bazar","operator":"government"}},"type":"Feature"},
	{"geometry":{"coordinates":[90.411283,23.716949],"type":"Point"},"properties":{"osm_id":"7447592377","tag":{"amenity":"waste_disposal","object:street":"Nawabpur Road","object:suburb":"Nawabpur","operator":"government"}},"type":"Feature"},
	{"geometry":{"coordinates":[90.406341,23.718393],"type":"Point"},"properties":{"osm_id":"7447592378","tag":{"amenity":"waste_basket","object:street":"Majed Sardar Road","object:suburb":"Bangshal","operator":"government"}},"type":"Feature"},
	{"geometry":{"coordinates":[90.40962,23.714069],"type":"Point"},"properties":{"osm_id":"7447592379","tag":{"amenity":"waste_basket","object:street":"Dholaikhal Road","operator":"government"}},"type":"Feature"},
	{"geometry":{"coordinates":[90.377479,23.720387],"type":"Point"},"properties":{"osm_id":"7447592380","tag":{"amenity":"waste_disposal","object:neighbourhood":"Balurghat","object:street":"Beribadh Road","object:suburb":"Lalbag","operator":"government"}},"type":"Feature"},
	{"geometry":{"coordinates":[90.399779,23.71858],"type":"Point"},"properties":{"osm_id":"7447592381","tag":{"amenity":"waste_disposal","object:street":"Abul Hasnat Road","object:suburb":"Bangshal","operator":"government"}},"type":"Feature"},
	{"geometry":{"coordinates":[90.406506,23.711712],"type":"Point"},"properties":{"osm_id":"7447592382","tag":{"amenity":"waste_disposal","object:neighbourhood":"Babu Bazar","object:street":"Ashok Lane","operator":"government"}},"type":"Feature"},
	{"geometry":{"coordinates":[90.407076,23.710311],"type":"Point"},"properties":{"osm_id":"7447592383","tag":{"amenity":"waste_disposal","object:street":"Nabaray Lane","object:suburb":"Islampur","operator":"government"}},"type":"Feature"},
	{"geometry":{"coordinates":[90.408903,23.71874],"type":"Point"},"properties":{"osm_id":"7447592384","tag":{"amenity":"waste_disposal","object:street":"Bangshal Road","object:suburb":"Bangshal","operator":"government"}},"type":"Feature"},
	{"geometry":{"coordinates":[90.411066,23.716919],"type":"Point"},"properties":{"osm_id":"7447592385","tag":{"amenity":"waste_disposal","object:neighbourhood":"Alu Bazar","object:street":"Hazi Osman Goni Road","operator":"private"}},"type":"Feature"},
	{"geometry":{"coordinates":[90.411606,23.710529],"type":"Point"},"properties":{"osm_id":"7447592386","tag":{"amenity":"waste_disposal","object:neighbourhood":"Court Kachari","object:street":"Jonshon Road","object:suburb":"Laxmi Bazar","operator":"government"}},"type":"Feature"},
	{"geometry":{"coordinates":[90.408482,23.717611],"type":"Point"},"properties":{"osm_id":"7447592387","tag":{"amenity":"waste_basket","object:street":"Bangshal Road","object:suburb":"Bangshal","operator":"government"}},"type":"Feature"},
	{"geometry":{"coordinates":[90.410514,23.713873],"type":"Point"},"properties":{"osm_id":"7447592388","tag":{"amenity":"waste_basket","object:neighbourhood":"Ray Saheb Bazar","object:street":"English Road","operator":"government"}},"type":"Feature"},
	{"geometry":{"coordinates":[90.409323,23.713311],"type":"Point"},"properties":{"osm_id":"7447592391","tag":{"amenity":"waste_disposal","object:neighbourhood":"Goal Nagar","object:suburb":"Tati Bazar","operator":"government"}},"type":"Feature"},
	{"geometry":{"coordinates":[90.400267,23.72042],"type":"Point"},"properties":{"osm_id":"7447592393","tag":{"amenity":"waste_disposal","object:street":"Abul Hasnat Road","object:suburb":"Bangshal","operator":"socity"}},"type":"Feature"},
	{"geometry":{"coordinates":[90.408933,23.711691],"type":"Point"},"properties":{"osm_id":"7447592394","tag":{"amenity":"waste_disposal","object:street":"Radhika Mohon Basak Lane","object:suburb":"Tati Bazar","operator":"government"}},"type":"Feature"},
	{"geometry":{"coordinates":[90.407862,23.710576],"type":"Point"},"properties":{"osm_id":"7447592395","tag":{"amenity":"waste_disposal","object:street":"Kotwali Road","object:suburb":"Tati Bazar","operator":"government"}},"type":"Feature"},
	{"geometry":{"coordinates":[90.406879,23.722965],"type":"Point"},"properties":{"osm_id":"7447592396","tag":{"amenity":"waste_disposal","object:neighbourhood":"Fulbaria","object:suburb":"Gulisthan","operator":"government"}},"type":"Feature"},
	{"geometry":{"coordinates":[90.38063,23.714524],"type":"Point"},"properties":{"osm_id":"7447592397","tag":{"amenity":"waste_disposal","object:neighbourhood":"Lohar Bridge","object:street":"Beribadh Road","object:suburb":"Lalbag","operator":"government"}},"type":"Feature"},
	{"geometry":{"coordinates":[90.407704,23.711629],"type":"Point"},"properties":{"osm_id":"7447592398","tag":{"amenity":"waste_disposal","object:neighbourhood":"Sutar Nagar","object:street":"Utshab Poddar Lane","object:suburb":"Tati Bazar","operator":"government"}},"type":"Feature"},
	{"geometry":{"coordinates":[90.408869,23.711365],"type":"Point"},"properties":{"osm_id":"7447592399","tag":{"amenity":"waste_disposal","object:suburb":"Tati Bazar","operator":"government"}},"type":"Feature"},
	{"geometry":{"coordinates":[90.398424,23.71806],"type":"Point"},"properties":{"osm_id":"7447592400","tag":{"amenity":"waste_disposal","object:neighbourhood":"Begum Bazar","object:suburb":"Bangshal","operator":"others"}},"type":"Feature"},
	{"geometry":{"coordinates":[90.406344,23.714335],"type":"Point"},"properties":{"osm_id":"7447592401","tag":{"amenity":"waste_basket","object:street":"Nayabazar Road","object:suburb":"Nayabazar","operator":"government"}},"type":"Feature"},
	{"geometry":{"coordinates":[90.408933,23.712371],"type":"Point"},"properties":{"osm_id":"7447592402","tag":{"amenity":"waste_disposal","object:street":"Radhika Mohon Basak Lane","object:suburb":"Tati Bazar","operator":"government"}},"type":"Feature"},
	{"geometry":{"coordinates":[90.408602,23.716663],"type":"Point"},"properties":{"osm_id":"7447592403","tag":{"amenity":"waste_disposal","object:street":"North South Road","object:suburb":"Bangshal","operator":"government"}},"type":"Feature"},
	{"geometry":{"coordinates":[90.408987,23.712829],"type":"Point"},"properties":{"osm_id":"7447592405","tag":{"amenity":"waste_disposal","object:street":"Radhika Mohon Basak Lane","object:suburb":"Tati Bazar","operator":"government"}},"type":"Feature"},
	{"geometry":{"coordinates":[90.407531,23.707648],"type":"Point"},"properties":{"osm_id":"7447592406","tag":{"amenity":"waste_disposal","object:neighbourhood":"Wise Ghat","object:street":"Sinson Road","object:suburb":"Chawk Bazar","operator":"government"}},"type":"Feature"},
	{"geometry":{"coordinates":[90.408959,23.712677],"type":"Point"},"properties":{"osm_id":"7447592407","tag":{"amenity":"waste_disposal","object:street":"Radhika Mohon Basak Lane","object:suburb":"Tati Bazar","operator":"government"}},"type":"Feature"},
	{"geometry":{"coordinates":[90.396707,23.716566],"type":"Point"},"properties":{"osm_id":"7447592409","tag":{"amenity":"waste_disposal","object:street":"Jail Road","object:suburb":"Chawk Bazar","operator":"government"}},"type":"Feature"},
	{"geometry":{"coordinates":[90.397984,23.718368],"type":"Point"},"properties":{"osm_id":"7447592410","tag":{"amenity":"waste_disposal","object:street":"Ali Hossain Khan Road","object:suburb":"Moulovi Bazar","operator":"government"}},"type":"Feature"},
	{"geometry":{"coordinates":[90.408931,23.71225],"type":"Point"},"properties":{"osm_id":"7447592411","tag":{"amenity":"waste_disposal","object:street":"Radhika Mohon Basak Lane","object:suburb":"Tati Bazar","operator":"government"}},"type":"Feature"},
	{"geometry":{"coordinates":[90.406233,23.718211],"type":"Point"},"properties":{"osm_id":"7447592412","tag":{"amenity":"waste_basket","object:street":"Majed Sardar Road","object:suburb":"Bangshal","operator":"government"}},"type":"Feature"},
	{"geometry":{"coordinates":[90.404971,23.721781],"type":"Point"},"properties":{"osm_id":"7447592413","tag":{"amenity":"waste_disposal","object:neighbourhood":"Siddik Bazar","object:street":"Agamasi Lane","operator":"government"}},"type":"Feature"},
	{"geometry":{"coordinates":[90.411681,23.71137],"type":"Point"},"properties":{"osm_id":"7447592414","tag":{"amenity":"waste_disposal","object:neighbourhood":"Court Kachari","object:street":"Jonshon Road","object:suburb":"Laxmi Bazar","operator":"government"}},"type":"Feature"},
	{"geometry":{"coordinates":[90.411592,23.709874],"type":"Point"},"properties":{"osm_id":"7447592416","tag":{"amenity":"waste_disposal","object:neighbourhood":"Shakhari Bazar","object:street":"Shakhari Bazar Road","operator":"government"}},"type":"Feature"},
	{"geometry":{"coordinates":[90.411706,23.720029],"type":"Point"},"properties":{"osm_id":"7447592417","tag":{"amenity":"waste_disposal","object:street":"Nawabpur Road","object:suburb":"Nawabpur","operator":"government"}},"type":"Feature"},
	{"geometry":{"coordinates":[90.406346,23.718204],"type":"Point"},"properties":{"osm_id":"7447592418","tag":{"amenity":"waste_basket","object:street":"Majed Sardar Road","object:suburb":"Bangshal","operator":"government"}},"type":"Feature"},
	{"geometry":{"coordinates":[90.4099,23.714021],"type":"Point"},"properties":{"osm_id":"7447592419","tag":{"amenity":"waste_basket","object:street":"Dholaikhal Road","operator":"government"}},"type":"Feature"},
	{"geometry":{"coordinates":[90.376977,23.720607],"type":"Point"},"properties":{"osm_id":"7447592420","tag":{"amenity":"waste_disposal","object:neighbourhood":"Balurghat","object:street":"Beribadh Road","object:suburb":"Lalbag","operator":"government"}},"type":"Feature"},
	{"geometry":{"coordinates":[90.400544,23.718894],"type":"Point"},"properties":{"osm_id":"7447592421","tag":{"amenity":"waste_disposal","object:street":"Aga Sadek Road","object:suburb":"Bangshal","operator":"socity"}},"type":"Feature"},
	{"geometry":{"coordinates":[90.410543,23.723104],"type":"Point"},"properties":{"osm_id":"7447592422","tag":{"amenity":"waste_disposal","object:neighbourhood":"Kaptan Bazar","object:street":"Nababpur Road","operator":"government"}},"type":"Feature"},
	{"geometry":{"coordinates":[90.404795,23.709682],"type":"Point"},"properties":{"osm_id":"7447592423","tag":{"amenity":"waste_disposal","object:neighbourhood":"Nawab Bari Gol Talab","object:street":"Ahsanullah Road","object:suburb":"Islampur","operator":"government"}},"type":"Feature"},
	{"geometry":{"coordinates":[90.408976,23.718872],"type":"Point"},"properties":{"osm_id":"7447592424","tag":{"amenity":"waste_disposal","object:street":"Bangshal Road","object:suburb":"Bangshal","operator":"government"}},"type":"Feature"},
	{"geometry":{"coordinates":[90.403154,23.720668],"type":"Point"},"properties":{"osm_id":"7447592425","tag":{"amenity":"waste_disposal","object:neighbourhood":"Agamasi Lane","object:street":"Abdul Hadi Lane","operator":"socity"}},"type":"Feature"},
	{"geometry":{"coordinates":[90.37893,23.718635],"type":"Point"},"properties":{"osm_id":"7447592426","tag":{"amenity":"waste_disposal","object:neighbourhood":"Shahid Nagar","object:street":"Beribadh Road","object:suburb":"Lalbag","operator":"government"}},"type":"Feature"},
	{"geometry":{"coordinates":[90.408474,23.718116],"type":"Point"},"properties":{"osm_id":"7447592427","tag":{"amenity":"waste_disposal","object:street":"Bangshal Road","object:suburb":"Bangshal","operator":"government"}},"type":"Feature"},
	{"geometry":{"coordinates":[90.411488,23.712544],"type":"Point"},"properties":{"osm_id":"7447592428","tag":{"amenity":"waste_disposal","object:neighbourhood":"Ray Saheb Bazar","object:street":"Jonshon Road","operator":"government"}},"type":"Feature"},
	{"geometry":{"coordinates":[90.379171,23.7163],"type":"Point"},"properties":{"osm_id":"7447592430","tag":{"amenity":"waste_disposal","object:neighbourhood":"Lohar Bridge","object:street":"Beribadh Road","object:suburb":"Lalbag","operator":"government"}},"type":"Feature"}
]
}
