{
"type": "FeatureCollection",
"features": [
	{"geometry":{"coordinates":[22.591111,49.030136],"type":"Point"},"properties":{"name":"\u00d0\u0094\u00d1\u0083\u00d0\u00b1-\u00d1\u0087\u00d0\u00b5\u00d0\u00bc\u00d0\u00bf\u00d1\u0096\u00d0\u00be\u00d0\u00bd","osm_id":"3093918523","tag":{"circumference":"3","denotation":"natural_monument","diameter_crown":"25","height":"30","leaf_cycle":"deciduous","leaf_type":"broadleaved","name:en":"Champion Oak","name:uk":"\u00d0\u0094\u00d1\u0083\u00d0\u00b1-\u00d1\u0087\u00d0\u00b5\u00d0\u00bc\u00d0\u00bf\u00d1\u0096\u00d0\u00be\u00d0\u00bd","natural":"tree","species":"oak","tourism":"attraction"}},"type":"Feature"},
	{"geometry":{"coordinates":[22.590968,49.029257],"type":"Point"},"properties":{"name":"\u00d0\u0094\u00d1\u0096\u00d0\u00b4\u00d0\u00be-\u00d0\u00b4\u00d1\u0083\u00d0\u00b1","osm_id":"3093918525","tag":{"circumference":"3","denotation":"natural_monument","diameter_crown":"25","height":"30","leaf_cycle":"deciduous","leaf_type":"broadleaved","name:en":"GrandPa Oak","name:uk":"\u00d0\u0094\u00d1\u0096\u00d0\u00b4\u00d0\u00be-\u00d0\u00b4\u00d1\u0083\u00d0\u00b1","natural":"tree","opening_hours":"24/7","species":"oak","tourism":"attraction"}},"type":"Feature"}
]
}
