{
"type": "FeatureCollection",
"features": [
	{"geometry":{"coordinates":[8.311754,54.899317],"type":"Point"},"properties":{"osm_id":"320917155","tag":{"amenity":"recycling","recycling:glass":"yes"}},"type":"Feature"},
	{"geometry":{"coordinates":[8.305535,54.896408],"type":"Point"},"properties":{"osm_id":"320932496","tag":{"amenity":"recycling","recycling:glass":"yes","recycling_type":"container"}},"type":"Feature"},
	{"geometry":{"coordinates":[8.310228,54.912302],"type":"Point"},"properties":{"osm_id":"321232105","tag":{"amenity":"recycling","recycling:glass":"yes","recycling_type":"container"}},"type":"Feature"},
	{"geometry":{"coordinates":[8.31341,54.912448],"type":"Point"},"properties":{"osm_id":"1312314772","tag":{"amenity":"waste_basket"}},"type":"Feature"},
	{"geometry":{"coordinates":[8.297078,54.893908],"type":"Point"},"properties":{"osm_id":"1335011540","tag":{"amenity":"recycling","recycling_type":"container"}},"type":"Feature"},
	{"geometry":{"coordinates":[8.305479,54.917139],"type":"Point"},"properties":{"osm_id":"1335030630","tag":{"amenity":"recycling","recycling_type":"container"}},"type":"Feature"},
	{"geometry":{"coordinates":[8.304989,54.917604],"type":"Point"},"properties":{"osm_id":"1335030640","tag":{"amenity":"recycling","mapillary":"0F8mHoixMyNwarBOmW3yvA","recycling:glass":"yes","recycling_type":"container","survey:date":"2016-09-08"}},"type":"Feature"},
	{"geometry":{"coordinates":[8.311421,54.904075],"type":"Point"},"properties":{"osm_id":"2423447316","tag":{"amenity":"recycling","recycling:glass":"yes"}},"type":"Feature"},
	{"geometry":{"coordinates":[8.310903,54.904208],"type":"Point"},"properties":{"osm_id":"2424065482","tag":{"amenity":"recycling","recycling:clothes":"yes"}},"type":"Feature"},
	{"geometry":{"coordinates":[8.302543,54.89791],"type":"Point"},"properties":{"osm_id":"2503069965","tag":{"amenity":"recycling"}},"type":"Feature"},
	{"geometry":{"coordinates":[8.308427,54.900082],"type":"Point"},"properties":{"osm_id":"4394873182","tag":{"amenity":"recycling","recycling:glass_bottles":"yes","recycling_type":"container"}},"type":"Feature"},
	{"geometry":{"coordinates":[8.300017,54.905137],"type":"Point"},"properties":{"osm_id":"4395975707","tag":{"amenity":"recycling","recycling:glass_bottles":"yes","recycling_type":"container"}},"type":"Feature"},
	{"geometry":{"coordinates":[8.32462,54.908532],"type":"Point"},"properties":{"osm_id":"4763741883","tag":{"amenity":"recycling","recycling:glass_bottles":"yes","recycling_type":"container"}},"type":"Feature"},
	{"geometry":{"coordinates":[8.324599,54.908458],"type":"Point"},"properties":{"osm_id":"4763741884","tag":{"amenity":"waste_basket","waste":"trash; plastic; paper"}},"type":"Feature"},
	{"geometry":{"coordinates":[8.307409,54.90647],"type":"Point"},"properties":{"osm_id":"4763741887","tag":{"amenity":"waste_basket"}},"type":"Feature"},
	{"geometry":{"coordinates":[8.320784,54.92506],"type":"Point"},"properties":{"osm_id":"4768120138","tag":{"amenity":"recycling","recycling:glass_bottles":"yes","recycling_type":"container"}},"type":"Feature"},
	{"geometry":{"coordinates":[8.300221,54.895268],"type":"Point"},"properties":{"osm_id":"4770821023","tag":{"amenity":"recycling","recycling:glass_bottles":"yes","recycling_type":"container"}},"type":"Feature"},
	{"geometry":{"coordinates":[8.297006,54.89383],"type":"Point"},"properties":{"osm_id":"5888726561","tag":{"amenity":"waste_basket"}},"type":"Feature"},
	{"geometry":{"coordinates":[8.306676,54.907697],"type":"Point"},"properties":{"osm_id":"6106146630","tag":{"amenity":"waste_basket"}},"type":"Feature"},
	{"geometry":{"coordinates":[8.308661,54.908519],"type":"Point"},"properties":{"osm_id":"6106466951","tag":{"amenity":"recycling","recycling:glass_bottles":"yes","recycling_type":"container"}},"type":"Feature"},
	{"geometry":{"coordinates":[8.311004,54.926896],"type":"Point"},"properties":{"osm_id":"6106467296","tag":{"amenity":"waste_basket"}},"type":"Feature"},
	{"geometry":{"coordinates":[8.310239,54.924845],"type":"Point"},"properties":{"osm_id":"6106467319","tag":{"amenity":"waste_basket"}},"type":"Feature"},
	{"geometry":{"coordinates":[8.309886,54.923864],"type":"Point"},"properties":{"osm_id":"6106467328","tag":{"amenity":"waste_basket"}},"type":"Feature"},
	{"geometry":{"coordinates":[8.309341,54.922946],"type":"Point"},"properties":{"osm_id":"6106467335","tag":{"amenity":"waste_basket"}},"type":"Feature"},
	{"geometry":{"coordinates":[8.306555,54.920589],"type":"Point"},"properties":{"osm_id":"6106467357","tag":{"amenity":"waste_basket"}},"type":"Feature"},
	{"geometry":{"coordinates":[8.302833,54.915958],"type":"Point"},"properties":{"osm_id":"6106467410","tag":{"amenity":"waste_basket"}},"type":"Feature"},
	{"geometry":{"coordinates":[8.301786,54.914035],"type":"Point"},"properties":{"osm_id":"6106467429","tag":{"amenity":"waste_basket"}},"type":"Feature"},
	{"geometry":{"coordinates":[8.300081,54.912155],"type":"Point"},"properties":{"osm_id":"6106467458","tag":{"amenity":"waste_basket"}},"type":"Feature"},
	{"geometry":{"coordinates":[8.299346,54.910971],"type":"Point"},"properties":{"osm_id":"6106467464","tag":{"amenity":"waste_basket"}},"type":"Feature"},
	{"geometry":{"coordinates":[8.301646,54.909184],"type":"Point"},"properties":{"osm_id":"6107605825","tag":{"amenity":"waste_basket"}},"type":"Feature"},
	{"geometry":{"coordinates":[8.308848,54.908623],"type":"Point"},"properties":{"osm_id":"6109622485","tag":{"amenity":"waste_basket"}},"type":"Feature"},
	{"geometry":{"coordinates":[8.321419,54.909878],"type":"Point"},"properties":{"osm_id":"6542521759","tag":{"amenity":"recycling","recycling:glass_bottles":"yes","recycling_type":"container"}},"type":"Feature"},
	{"geometry":{"coordinates":[8.318729,54.914542],"type":"Point"},"properties":{"osm_id":"6543533142","tag":{"amenity":"recycling","recycling:glass_bottles":"yes","recycling_type":"container"}},"type":"Feature"},
	{"geometry":{"coordinates":[8.327825,54.89653],"type":"Point"},"properties":{"osm_id":"6550788124","tag":{"amenity":"recycling","recycling_type":"container"}},"type":"Feature"},
	{"geometry":{"coordinates":[8.320734,54.902694],"type":"Point"},"properties":{"osm_id":"6550797566","tag":{"amenity":"recycling","recycling:glass_bottles":"yes","recycling_type":"container"}},"type":"Feature"},
	{"geometry":{"coordinates":[8.306748,54.911684],"type":"Point"},"properties":{"osm_id":"6557869154","tag":{"amenity":"waste_basket"}},"type":"Feature"},
	{"geometry":{"coordinates":[8.30627,54.911331],"type":"Point"},"properties":{"osm_id":"6557926624","tag":{"amenity":"recycling","opening_hours":"Mo-Sa 08:00-13:00,15:00-20:00; PH off","recycling:glass_bottles":"yes","recycling_type":"container"}},"type":"Feature"},
	{"geometry":{"coordinates":[8.298752,54.896942],"type":"Point"},"properties":{"osm_id":"6606172352","tag":{"amenity":"waste_basket"}},"type":"Feature"},
	{"geometry":{"coordinates":[8.33895,54.900114],"type":"Point"},"properties":{"osm_id":"6703553436","tag":{"amenity":"recycling","recycling:glass_bottles":"yes","recycling_type":"container"}},"type":"Feature"},
	{"geometry":{"coordinates":[8.301577,54.912073],"type":"Point"},"properties":{"osm_id":"6918365547","tag":{"amenity":"waste_basket"}},"type":"Feature"},
	{"geometry":{"coordinates":[8.300507,54.906964],"type":"Point"},"properties":{"osm_id":"6921950961","tag":{"access":"private","amenity":"waste_disposal"}},"type":"Feature"},
	{"geometry":{"coordinates":[8.300844,54.907246],"type":"Point"},"properties":{"osm_id":"6921950962","tag":{"access":"private","amenity":"waste_disposal"}},"type":"Feature"},
	{"geometry":{"coordinates":[8.298572,54.907102],"type":"Point"},"properties":{"osm_id":"6921950974","tag":{"amenity":"waste_basket"}},"type":"Feature"},
	{"geometry":{"coordinates":[8.295108,54.887224],"type":"Point"},"properties":{"osm_id":"6923032675","tag":{"amenity":"recycling","recycling:glass":"yes","recycling_type":"container"}},"type":"Feature"},
	{"geometry":{"coordinates":[8.296289,54.889465],"type":"Point"},"properties":{"osm_id":"6923426187","tag":{"amenity":"waste_basket"}},"type":"Feature"},
	{"geometry":{"coordinates":[8.296523,54.889027],"type":"Point"},"properties":{"osm_id":"6924199600","tag":{"amenity":"waste_basket"}},"type":"Feature"},
	{"geometry":{"coordinates":[8.298561,54.899419],"type":"Point"},"properties":{"osm_id":"6924801262","tag":{"amenity":"waste_basket"}},"type":"Feature"},
	{"geometry":{"coordinates":[8.298499,54.906443],"type":"Point"},"properties":{"osm_id":"6924854921","tag":{"amenity":"waste_basket"}},"type":"Feature"},
	{"geometry":{"coordinates":[8.299003,54.905529],"type":"Point"},"properties":{"osm_id":"6924854923","tag":{"amenity":"waste_basket"}},"type":"Feature"},
	{"geometry":{"coordinates":[8.300039,54.907345],"type":"Point"},"properties":{"osm_id":"6937119201","tag":{"access":"private","amenity":"waste_disposal"}},"type":"Feature"},
	{"geometry":{"coordinates":[8.301898,54.908193],"type":"Point"},"properties":{"osm_id":"6937133572","tag":{"access":"private","amenity":"waste_disposal"}},"type":"Feature"},
	{"geometry":{"coordinates":[8.301898,54.908193],"type":"Point"},"properties":{"osm_id":"6937139894","tag":{"access":"private","amenity":"waste_disposal"}},"type":"Feature"},
	{"geometry":{"coordinates":[8.316201,54.926081],"type":"Point"},"properties":{"osm_id":"7131603702","tag":{"amenity":"waste_basket"}},"type":"Feature"},
	{"geometry":{"coordinates":[8.315734,54.926079],"type":"Point"},"properties":{"osm_id":"7131603703","tag":{"amenity":"recycling","recycling:glass_bottles":"yes","recycling_type":"container"}},"type":"Feature"},
	{"geometry":{"coordinates":[8.318791,54.89617],"type":"Point"},"properties":{"osm_id":"7142310399","tag":{"amenity":"waste_basket"}},"type":"Feature"},
	{"geometry":{"coordinates":[8.327802,54.896961],"type":"Point"},"properties":{"osm_id":"7142310406","tag":{"amenity":"waste_basket"}},"type":"Feature"},
	{"geometry":{"coordinates":[8.343268,54.898405],"type":"Point"},"properties":{"osm_id":"7142310408","tag":{"amenity":"waste_basket"}},"type":"Feature"},
	{"geometry":{"coordinates":[8.338929,54.900793],"type":"Point"},"properties":{"osm_id":"7142310414","tag":{"amenity":"waste_basket"}},"type":"Feature"},
	{"geometry":{"coordinates":[8.330989,54.90177],"type":"Point"},"properties":{"osm_id":"7142310417","tag":{"amenity":"waste_basket"}},"type":"Feature"},
	{"geometry":{"coordinates":[8.330548,54.901425],"type":"Point"},"properties":{"osm_id":"7142310418","tag":{"amenity":"recycling","recycling:glass_bottles":"yes","recycling_type":"container"}},"type":"Feature"},
	{"geometry":{"coordinates":[8.323574,54.90358],"type":"Point"},"properties":{"osm_id":"7142310423","tag":{"amenity":"waste_basket"}},"type":"Feature"},
	{"geometry":{"coordinates":[8.317366,54.895116],"type":"Point"},"properties":{"osm_id":"7142913576","tag":{"amenity":"waste_basket"}},"type":"Feature"},
	{"geometry":{"coordinates":[8.314305,54.894891],"type":"Point"},"properties":{"osm_id":"7142913579","tag":{"amenity":"waste_basket"}},"type":"Feature"},
	{"geometry":{"coordinates":[8.314339,54.894905],"type":"Point"},"properties":{"osm_id":"7142913580","tag":{"amenity":"recycling","recycling:glass_bottles":"yes","recycling_type":"container"}},"type":"Feature"},
	{"geometry":{"coordinates":[8.313897,54.897028],"type":"Point"},"properties":{"osm_id":"7142913582","tag":{"amenity":"waste_basket"}},"type":"Feature"},
	{"geometry":{"coordinates":[8.308275,54.89725],"type":"Point"},"properties":{"osm_id":"7142913584","tag":{"amenity":"waste_basket"}},"type":"Feature"},
	{"geometry":{"coordinates":[8.300877,54.899554],"type":"Point"},"properties":{"osm_id":"7142978988","tag":{"amenity":"waste_basket"}},"type":"Feature"},
	{"geometry":{"coordinates":[8.302586,54.904011],"type":"Point"},"properties":{"osm_id":"7142978992","tag":{"amenity":"waste_basket"}},"type":"Feature"},
	{"geometry":{"coordinates":[8.304902,54.906243],"type":"Point"},"properties":{"osm_id":"7142978993","tag":{"amenity":"waste_basket"}},"type":"Feature"},
	{"geometry":{"coordinates":[8.308782,54.903448],"type":"Point"},"properties":{"osm_id":"7142978997","tag":{"amenity":"waste_basket"}},"type":"Feature"},
	{"geometry":{"coordinates":[8.295435,54.900251],"type":"Point"},"properties":{"osm_id":"7143014933","tag":{"amenity":"waste_basket"}},"type":"Feature"},
	{"geometry":{"coordinates":[8.297536,54.899497],"type":"Point"},"properties":{"osm_id":"7143014942","tag":{"amenity":"waste_basket"}},"type":"Feature"},
	{"geometry":{"coordinates":[8.296363,54.902802],"type":"Point"},"properties":{"osm_id":"7143014951","tag":{"amenity":"waste_basket"}},"type":"Feature"},
	{"geometry":{"coordinates":[8.296864,54.904023],"type":"Point"},"properties":{"osm_id":"7143014955","tag":{"amenity":"waste_basket"}},"type":"Feature"},
	{"geometry":{"coordinates":[8.297268,54.905074],"type":"Point"},"properties":{"osm_id":"7143014960","tag":{"amenity":"waste_basket"}},"type":"Feature"},
	{"geometry":{"coordinates":[8.298387,54.907738],"type":"Point"},"properties":{"osm_id":"7143014963","tag":{"amenity":"waste_basket"}},"type":"Feature"},
	{"geometry":{"coordinates":[8.297989,54.907713],"type":"Point"},"properties":{"osm_id":"7143014964","tag":{"amenity":"waste_basket"}},"type":"Feature"},
	{"geometry":{"coordinates":[8.298123,54.907714],"type":"Point"},"properties":{"osm_id":"7143014965","tag":{"amenity":"waste_basket"}},"type":"Feature"},
	{"geometry":{"coordinates":[8.298232,54.908095],"type":"Point"},"properties":{"osm_id":"7143014966","tag":{"amenity":"waste_basket"}},"type":"Feature"},
	{"geometry":{"coordinates":[8.298717,54.908648],"type":"Point"},"properties":{"osm_id":"7143014983","tag":{"amenity":"waste_basket"}},"type":"Feature"},
	{"geometry":{"coordinates":[8.303048,54.899692],"type":"Point"},"properties":{"osm_id":"7146739176","tag":{"amenity":"waste_basket"}},"type":"Feature"},
	{"geometry":{"coordinates":[8.307017,54.920457],"type":"Point"},"properties":{"osm_id":"7146757639","tag":{"amenity":"waste_basket"}},"type":"Feature"},
	{"geometry":{"coordinates":[8.306574,54.918903],"type":"Point"},"properties":{"osm_id":"7146757642","tag":{"amenity":"waste_basket"}},"type":"Feature"},
	{"geometry":{"coordinates":[8.305225,54.91708],"type":"Point"},"properties":{"osm_id":"7146757647","tag":{"amenity":"waste_basket"}},"type":"Feature"},
	{"geometry":{"coordinates":[8.302493,54.913982],"type":"Point"},"properties":{"osm_id":"7146757649","tag":{"amenity":"waste_basket"}},"type":"Feature"},
	{"geometry":{"coordinates":[8.310549,54.91309],"type":"Point"},"properties":{"osm_id":"7146757653","tag":{"amenity":"waste_basket"}},"type":"Feature"},
	{"geometry":{"coordinates":[8.302955,54.911863],"type":"Point"},"properties":{"osm_id":"7146757655","tag":{"amenity":"waste_basket"}},"type":"Feature"},
	{"geometry":{"coordinates":[8.304976,54.910468],"type":"Point"},"properties":{"osm_id":"7146757659","tag":{"amenity":"waste_basket"}},"type":"Feature"},
	{"geometry":{"coordinates":[8.305306,54.912186],"type":"Point"},"properties":{"osm_id":"7146757661","tag":{"amenity":"waste_basket"}},"type":"Feature"},
	{"geometry":{"coordinates":[8.310132,54.9065],"type":"Point"},"properties":{"osm_id":"7147819076","tag":{"amenity":"waste_basket"}},"type":"Feature"},
	{"geometry":{"coordinates":[8.309888,54.906801],"type":"Point"},"properties":{"osm_id":"7147819077","tag":{"amenity":"waste_basket"}},"type":"Feature"},
	{"geometry":{"coordinates":[8.309467,54.907409],"type":"Point"},"properties":{"osm_id":"7147819081","tag":{"amenity":"waste_basket"}},"type":"Feature"},
	{"geometry":{"coordinates":[8.30994,54.907715],"type":"Point"},"properties":{"osm_id":"7147819084","tag":{"amenity":"waste_basket"}},"type":"Feature"},
	{"geometry":{"coordinates":[8.309098,54.907665],"type":"Point"},"properties":{"osm_id":"7147845785","tag":{"amenity":"waste_basket"}},"type":"Feature"},
	{"geometry":{"coordinates":[8.309402,54.907789],"type":"Point"},"properties":{"osm_id":"7147845794","tag":{"amenity":"waste_basket"}},"type":"Feature"},
	{"geometry":{"coordinates":[8.3084,54.907647],"type":"Point"},"properties":{"osm_id":"7147845795","tag":{"amenity":"waste_basket"}},"type":"Feature"},
	{"geometry":{"coordinates":[8.30747,54.907572],"type":"Point"},"properties":{"osm_id":"7147845797","tag":{"amenity":"waste_basket"}},"type":"Feature"},
	{"geometry":{"coordinates":[8.30677,54.907586],"type":"Point"},"properties":{"osm_id":"7147845798","tag":{"amenity":"waste_basket"}},"type":"Feature"},
	{"geometry":{"coordinates":[8.305311,54.907706],"type":"Point"},"properties":{"osm_id":"7147845799","tag":{"amenity":"waste_basket"}},"type":"Feature"},
	{"geometry":{"coordinates":[8.303375,54.907724],"type":"Point"},"properties":{"osm_id":"7147845804","tag":{"amenity":"waste_basket"}},"type":"Feature"},
	{"geometry":{"coordinates":[8.303416,54.907644],"type":"Point"},"properties":{"osm_id":"7147845805","tag":{"amenity":"waste_basket"}},"type":"Feature"},
	{"geometry":{"coordinates":[8.301967,54.907731],"type":"Point"},"properties":{"osm_id":"7147845807","tag":{"amenity":"waste_basket"}},"type":"Feature"},
	{"geometry":{"coordinates":[8.301226,54.907775],"type":"Point"},"properties":{"osm_id":"7147845810","tag":{"amenity":"waste_basket"}},"type":"Feature"},
	{"geometry":{"coordinates":[8.300388,54.907659],"type":"Point"},"properties":{"osm_id":"7147845811","tag":{"amenity":"waste_basket"}},"type":"Feature"},
	{"geometry":{"coordinates":[8.299647,54.907729],"type":"Point"},"properties":{"osm_id":"7147845813","tag":{"amenity":"waste_basket"}},"type":"Feature"},
	{"geometry":{"coordinates":[8.299063,54.907735],"type":"Point"},"properties":{"osm_id":"7147845815","tag":{"amenity":"waste_basket"}},"type":"Feature"},
	{"geometry":{"coordinates":[8.299202,54.90956],"type":"Point"},"properties":{"osm_id":"7147845817","tag":{"amenity":"waste_basket"}},"type":"Feature"},
	{"geometry":{"coordinates":[8.300813,54.909971],"type":"Point"},"properties":{"osm_id":"7147845819","tag":{"amenity":"waste_basket"}},"type":"Feature"},
	{"geometry":{"coordinates":[8.300764,54.910099],"type":"Point"},"properties":{"osm_id":"7147845820","tag":{"amenity":"waste_basket"}},"type":"Feature"},
	{"geometry":{"coordinates":[8.301553,54.910446],"type":"Point"},"properties":{"osm_id":"7147845822","tag":{"amenity":"waste_basket"}},"type":"Feature"},
	{"geometry":{"coordinates":[8.306949,54.911479],"type":"Point"},"properties":{"osm_id":"7147845826","tag":{"amenity":"waste_basket"}},"type":"Feature"},
	{"geometry":{"coordinates":[8.309115,54.911546],"type":"Point"},"properties":{"osm_id":"7147845832","tag":{"amenity":"waste_basket"}},"type":"Feature"},
	{"geometry":{"coordinates":[8.310022,54.910921],"type":"Point"},"properties":{"osm_id":"7147845835","tag":{"amenity":"waste_basket"}},"type":"Feature"},
	{"geometry":{"coordinates":[8.312399,54.907524],"type":"Point"},"properties":{"osm_id":"7148982266","tag":{"amenity":"waste_basket"}},"type":"Feature"},
	{"geometry":{"coordinates":[8.303229,54.907719],"type":"Point"},"properties":{"osm_id":"7148982269","tag":{"amenity":"waste_basket"}},"type":"Feature"},
	{"geometry":{"coordinates":[8.307738,54.90829],"type":"Point"},"properties":{"osm_id":"7148982273","tag":{"amenity":"waste_basket"}},"type":"Feature"},
	{"geometry":{"coordinates":[8.307899,54.908519],"type":"Point"},"properties":{"osm_id":"7148982275","tag":{"amenity":"waste_basket"}},"type":"Feature"},
	{"geometry":{"coordinates":[8.308324,54.908343],"type":"Point"},"properties":{"osm_id":"7148982277","tag":{"amenity":"waste_basket"}},"type":"Feature"},
	{"geometry":{"coordinates":[8.308924,54.909346],"type":"Point"},"properties":{"osm_id":"7148982278","tag":{"amenity":"waste_basket"}},"type":"Feature"},
	{"geometry":{"coordinates":[8.307265,54.90889],"type":"Point"},"properties":{"osm_id":"7148982279","tag":{"amenity":"waste_basket"}},"type":"Feature"},
	{"geometry":{"coordinates":[8.306095,54.911814],"type":"Point"},"properties":{"osm_id":"7148982281","tag":{"amenity":"waste_basket"}},"type":"Feature"},
	{"geometry":{"coordinates":[8.306201,54.911334],"type":"Point"},"properties":{"osm_id":"7148982282","tag":{"amenity":"waste_basket"}},"type":"Feature"},
	{"geometry":{"coordinates":[8.305947,54.909032],"type":"Point"},"properties":{"osm_id":"7148982283","tag":{"amenity":"waste_basket"}},"type":"Feature"},
	{"geometry":{"coordinates":[8.305751,54.908928],"type":"Point"},"properties":{"osm_id":"7148982284","tag":{"amenity":"waste_basket"}},"type":"Feature"},
	{"geometry":{"coordinates":[8.305807,54.908721],"type":"Point"},"properties":{"osm_id":"7148988586","tag":{"amenity":"waste_basket"}},"type":"Feature"},
	{"geometry":{"coordinates":[8.304756,54.908898],"type":"Point"},"properties":{"osm_id":"7148988591","tag":{"amenity":"waste_basket"}},"type":"Feature"},
	{"geometry":{"coordinates":[8.304246,54.908808],"type":"Point"},"properties":{"osm_id":"7148988592","tag":{"amenity":"waste_basket"}},"type":"Feature"},
	{"geometry":{"coordinates":[8.301346,54.90874],"type":"Point"},"properties":{"osm_id":"7148988599","tag":{"amenity":"waste_basket"}},"type":"Feature"},
	{"geometry":{"coordinates":[8.301348,54.908247],"type":"Point"},"properties":{"osm_id":"7148988601","tag":{"amenity":"waste_basket"}},"type":"Feature"},
	{"geometry":{"coordinates":[8.300816,54.9092],"type":"Point"},"properties":{"osm_id":"7155124114","tag":{"amenity":"waste_basket"}},"type":"Feature"},
	{"geometry":{"coordinates":[8.300866,54.910355],"type":"Point"},"properties":{"osm_id":"7155124117","tag":{"amenity":"waste_basket"}},"type":"Feature"}
]
}
