{
"type": "FeatureCollection",
"features": [
	{"geometry":{"coordinates":[8.291186,52.086097],"type":"Point"},"properties":{"osm_id":"1137314847","ref":"Entsorgungspunkt Recyclinghof Borgholzhausen","tag":{"addr:city":"Borgholzhausen","addr:country":"DE","addr:housenumber":"47a","addr:postcode":"33829","addr:street":"Barenbergweg","amenity":"recycling","recycling:batteries":"yes","recycling:cans":"yes","recycling:clothes":"yes","recycling:glass":"yes","recycling:paper":"yes","recycling:scrap_metal":"yes","recycling_type":"centre"}},"type":"Feature"},
	{"geometry":{"coordinates":[8.346512,52.052667],"type":"Point"},"properties":{"osm_id":"3586318212","tag":{"amenity":"waste_basket"}},"type":"Feature"},
	{"geometry":{"coordinates":[8.346382,52.052926],"type":"Point"},"properties":{"osm_id":"3586318230","tag":{"amenity":"waste_basket"}},"type":"Feature"},
	{"geometry":{"coordinates":[8.323368,52.071996],"type":"Point"},"properties":{"osm_id":"4275330590","tag":{"amenity":"recycling","recycling:clothes":"yes","recycling:glass":"yes","recycling:small_appliances":"yes","recycling_type":"container"}},"type":"Feature"},
	{"geometry":{"coordinates":[8.266397,52.08534],"type":"Point"},"properties":{"osm_id":"5060349718","tag":{"amenity":"waste_basket"}},"type":"Feature"},
	{"geometry":{"coordinates":[8.302838,52.100266],"type":"Point"},"properties":{"osm_id":"7859157965","tag":{"amenity":"waste_basket"}},"type":"Feature"},
	{"geometry":{"coordinates":[8.295367,52.091438],"type":"Point"},"properties":{"osm_id":"8222829963","tag":{"amenity":"waste_basket"}},"type":"Feature"},
	{"geometry":{"coordinates":[8.299958,52.08907],"type":"Point"},"properties":{"osm_id":"8222829974","tag":{"amenity":"waste_basket"}},"type":"Feature"},
	{"geometry":{"coordinates":[8.28988,52.086499],"type":"Point"},"properties":{"osm_id":"8222830009","tag":{"amenity":"waste_basket"}},"type":"Feature"},
	{"geometry":{"coordinates":[8.347689,52.05269],"type":"Point"},"properties":{"osm_id":"8829465125","tag":{"amenity":"recycling","recycling:clothes":"yes","recycling:glass_bottles":"yes","recycling_type":"container"}},"type":"Feature"},
	{"geometry":{"coordinates":[8.298221,52.098318],"type":"Point"},"properties":{"osm_id":"8861119508","tag":{"amenity":"recycling","recycling:clothes":"yes","recycling:glass_bottles":"yes","recycling_type":"container"}},"type":"Feature"},
	{"geometry":{"coordinates":[8.295177,52.094096],"type":"Point"},"properties":{"osm_id":"8861119515","tag":{"amenity":"waste_basket"}},"type":"Feature"},
	{"geometry":{"coordinates":[8.339419,52.102784],"type":"Point"},"properties":{"osm_id":"8940548242","tag":{"amenity":"recycling","recycling:glass_bottles":"yes","recycling:small_appliances":"yes","recycling_type":"container"}},"type":"Feature"}
]
}
