{
"type": "FeatureCollection",
"features": [
	{"geometry":{"coordinates":[8.327427,51.789518],"type":"Point"},"properties":{"osm_id":"289328123","tag":{"amenity":"recycling"}},"type":"Feature"},
	{"geometry":{"coordinates":[8.318227,51.817229],"type":"Point"},"properties":{"osm_id":"369715286","tag":{"amenity":"recycling","recycling:glass_bottles":"yes","recycling_type":"container"}},"type":"Feature"},
	{"geometry":{"coordinates":[8.322699,51.831877],"type":"Point"},"properties":{"osm_id":"425890519","tag":{"amenity":"recycling","recycling:clothes":"yes","recycling:electrical_appliances":"yes","recycling:glass":"yes","recycling:glass_bottles":"yes","recycling_type":"container"}},"type":"Feature"},
	{"geometry":{"coordinates":[8.315168,51.781746],"type":"Point"},"properties":{"osm_id":"567781825","tag":{"amenity":"recycling","recycling:glass":"yes","recycling_type":"container"}},"type":"Feature"},
	{"geometry":{"coordinates":[8.318499,51.828191],"type":"Point"},"properties":{"name":"Elektroschrott","osm_id":"935944803","tag":{"amenity":"recycling","recycling:small_appliances":"yes","recycling_type":"container"}},"type":"Feature"},
	{"geometry":{"coordinates":[8.329964,51.831884],"type":"Point"},"properties":{"osm_id":"1966612622","tag":{"amenity":"waste_basket"}},"type":"Feature"},
	{"geometry":{"coordinates":[8.327424,51.831108],"type":"Point"},"properties":{"osm_id":"1968087426","tag":{"amenity":"waste_basket"}},"type":"Feature"},
	{"geometry":{"coordinates":[8.332163,51.826405],"type":"Point"},"properties":{"osm_id":"1968171913","tag":{"amenity":"waste_basket"}},"type":"Feature"},
	{"geometry":{"coordinates":[8.33038,51.829519],"type":"Point"},"properties":{"osm_id":"1968171959","tag":{"amenity":"waste_basket"}},"type":"Feature"},
	{"geometry":{"coordinates":[8.307163,51.832603],"type":"Point"},"properties":{"osm_id":"3909618190","tag":{"amenity":"recycling","recycling:electrical_appliances":"yes","recycling:glass":"yes","recycling_type":"container"}},"type":"Feature"},
	{"geometry":{"coordinates":[8.31056,51.833357],"type":"Point"},"properties":{"osm_id":"3922252123","tag":{"amenity":"waste_basket"}},"type":"Feature"},
	{"geometry":{"coordinates":[8.309989,51.833477],"type":"Point"},"properties":{"osm_id":"3922252126","tag":{"amenity":"waste_basket"}},"type":"Feature"},
	{"geometry":{"coordinates":[8.327485,51.83131],"type":"Point"},"properties":{"osm_id":"4798891127","tag":{"amenity":"waste_basket"}},"type":"Feature"},
	{"geometry":{"coordinates":[8.327715,51.826171],"type":"Point"},"properties":{"osm_id":"6480390698","tag":{"amenity":"waste_basket"}},"type":"Feature"},
	{"geometry":{"coordinates":[8.326789,51.826168],"type":"Point"},"properties":{"osm_id":"6480579112","tag":{"amenity":"waste_basket"}},"type":"Feature"},
	{"geometry":{"coordinates":[8.330097,51.832245],"type":"Point"},"properties":{"osm_id":"6483115607","tag":{"amenity":"waste_basket"}},"type":"Feature"},
	{"geometry":{"coordinates":[8.33086,51.832541],"type":"Point"},"properties":{"osm_id":"6483733669","tag":{"amenity":"waste_basket"}},"type":"Feature"},
	{"geometry":{"coordinates":[8.330982,51.832417],"type":"Point"},"properties":{"osm_id":"6483733671","tag":{"amenity":"waste_basket"}},"type":"Feature"},
	{"geometry":{"coordinates":[8.330578,51.832262],"type":"Point"},"properties":{"osm_id":"6483733678","tag":{"amenity":"waste_basket"}},"type":"Feature"},
	{"geometry":{"coordinates":[8.330796,51.832169],"type":"Point"},"properties":{"osm_id":"6483733679","tag":{"amenity":"waste_basket"}},"type":"Feature"},
	{"geometry":{"coordinates":[8.314965,51.834725],"type":"Point"},"properties":{"osm_id":"6506056454","tag":{"amenity":"waste_basket"}},"type":"Feature"},
	{"geometry":{"coordinates":[8.3295,51.828256],"type":"Point"},"properties":{"osm_id":"7877246067","tag":{"amenity":"waste_basket","waste":"trash"}},"type":"Feature"},
	{"geometry":{"coordinates":[8.275138,51.825749],"type":"Point"},"properties":{"osm_id":"8386532713","tag":{"amenity":"recycling","recycling:glass_bottles":"yes","recycling_type":"container"}},"type":"Feature"}
]
}
