{
"type": "FeatureCollection",
"features": [
	{"geometry":{"coordinates":[8.299748,51.681454],"type":"Point"},"properties":{"osm_id":"354901644","tag":{"amenity":"recycling","recycling:clothes":"yes","recycling:electrical_appliances":"yes","recycling:glass_bottles":"yes","recycling_type":"container"}},"type":"Feature"},
	{"geometry":{"coordinates":[8.305363,51.679786],"type":"Point"},"properties":{"osm_id":"354901777","tag":{"amenity":"recycling","recycling:clothes":"yes","recycling:glass":"yes","recycling_type":"container"}},"type":"Feature"},
	{"geometry":{"coordinates":[8.333176,51.673674],"type":"Point"},"properties":{"osm_id":"393389777","tag":{"amenity":"waste_disposal","waste":"trash"}},"type":"Feature"},
	{"geometry":{"coordinates":[8.326432,51.676987],"type":"Point"},"properties":{"osm_id":"402655939","tag":{"amenity":"recycling","recycling:glass":"yes","recycling_type":"container"}},"type":"Feature"},
	{"geometry":{"coordinates":[8.346031,51.679524],"type":"Point"},"properties":{"osm_id":"409030869","tag":{"amenity":"recycling","recycling:clothes":"yes","recycling:glass":"yes","recycling_type":"container"}},"type":"Feature"},
	{"geometry":{"coordinates":[8.309794,51.685995],"type":"Point"},"properties":{"osm_id":"450595383","tag":{"amenity":"recycling","recycling:clothes":"yes","recycling_type":"container"}},"type":"Feature"},
	{"geometry":{"coordinates":[8.313456,51.69629],"type":"Point"},"properties":{"osm_id":"1365014572","tag":{"amenity":"waste_basket"}},"type":"Feature"},
	{"geometry":{"coordinates":[8.333662,51.673781],"type":"Point"},"properties":{"osm_id":"1380953885","tag":{"amenity":"recycling","recycling:clothes":"yes","recycling:glass":"yes"}},"type":"Feature"},
	{"geometry":{"coordinates":[8.29798,51.681527],"type":"Point"},"properties":{"osm_id":"1460466485","tag":{"amenity":"waste_basket"}},"type":"Feature"},
	{"geometry":{"coordinates":[8.345314,51.676376],"type":"Point"},"properties":{"osm_id":"3228044534","tag":{"amenity":"recycling","location":"overground","recycling_type":"container"}},"type":"Feature"},
	{"geometry":{"coordinates":[8.326185,51.677687],"type":"Point"},"properties":{"osm_id":"4235704897","tag":{"amenity":"recycling","recycling:clothes":"yes","recycling_type":"container"}},"type":"Feature"},
	{"geometry":{"coordinates":[8.348068,51.679266],"type":"Point"},"properties":{"osm_id":"6484333248","tag":{"amenity":"waste_basket"}},"type":"Feature"},
	{"geometry":{"coordinates":[8.348009,51.679338],"type":"Point"},"properties":{"osm_id":"6484333249","tag":{"amenity":"waste_basket"}},"type":"Feature"},
	{"geometry":{"coordinates":[8.344469,51.676159],"type":"Point"},"properties":{"osm_id":"6488251335","tag":{"amenity":"recycling","recycling:clothes":"yes","recycling:glass_bottles":"yes","recycling_type":"container"}},"type":"Feature"},
	{"geometry":{"coordinates":[8.343784,51.67736],"type":"Point"},"properties":{"osm_id":"7921478120","tag":{"amenity":"waste_basket"}},"type":"Feature"},
	{"geometry":{"coordinates":[8.33588,51.674092],"type":"Point"},"properties":{"osm_id":"7921511230","tag":{"amenity":"waste_basket"}},"type":"Feature"},
	{"geometry":{"coordinates":[8.301867,51.682767],"type":"Point"},"properties":{"osm_id":"7927695286","tag":{"amenity":"waste_basket"}},"type":"Feature"},
	{"geometry":{"coordinates":[8.302708,51.67698],"type":"Point"},"properties":{"osm_id":"7927695300","tag":{"amenity":"waste_basket"}},"type":"Feature"},
	{"geometry":{"coordinates":[8.304373,51.675843],"type":"Point"},"properties":{"osm_id":"7927695302","tag":{"amenity":"waste_basket"}},"type":"Feature"},
	{"geometry":{"coordinates":[8.31115,51.699959],"type":"Point"},"properties":{"osm_id":"7927884143","tag":{"amenity":"waste_basket"}},"type":"Feature"},
	{"geometry":{"coordinates":[8.302473,51.706673],"type":"Point"},"properties":{"osm_id":"7928324014","tag":{"amenity":"waste_basket"}},"type":"Feature"},
	{"geometry":{"coordinates":[8.276689,51.719666],"type":"Point"},"properties":{"osm_id":"7928401225","tag":{"amenity":"waste_basket"}},"type":"Feature"}
]
}
