{
"type": "FeatureCollection",
"features": [
	{"geometry":{"coordinates":[8.304379,50.771956],"type":"Point"},"properties":{"osm_id":"534580494","tag":{"amenity":"recycling","recycling:glass":"yes"}},"type":"Feature"},
	{"geometry":{"coordinates":[8.339449,50.738065],"type":"Point"},"properties":{"osm_id":"1077182406","tag":{"amenity":"waste_basket"}},"type":"Feature"},
	{"geometry":{"coordinates":[8.345925,50.737923],"type":"Point"},"properties":{"osm_id":"1077182483","tag":{"amenity":"waste_basket"}},"type":"Feature"},
	{"geometry":{"coordinates":[8.346396,50.738677],"type":"Point"},"properties":{"osm_id":"1077254324","tag":{"amenity":"waste_basket"}},"type":"Feature"},
	{"geometry":{"coordinates":[8.347731,50.742456],"type":"Point"},"properties":{"osm_id":"1082345000","tag":{"amenity":"waste_basket"}},"type":"Feature"},
	{"geometry":{"coordinates":[8.346495,50.741165],"type":"Point"},"properties":{"osm_id":"1082345281","tag":{"amenity":"waste_basket"}},"type":"Feature"},
	{"geometry":{"coordinates":[8.346674,50.742387],"type":"Point"},"properties":{"osm_id":"1082345417","tag":{"amenity":"waste_basket"}},"type":"Feature"},
	{"geometry":{"coordinates":[8.285139,50.74055],"type":"Point"},"properties":{"osm_id":"1149329746","tag":{"amenity":"recycling","recycling:cans":"no","recycling:glass_bottles":"yes","recycling:paper":"no","recycling_type":"container"}},"type":"Feature"},
	{"geometry":{"coordinates":[8.282195,50.742688],"type":"Point"},"properties":{"osm_id":"1151069102","tag":{"amenity":"recycling","recycling:cans":"no","recycling:clothes":"no","recycling:glass_bottles":"yes","recycling:paper":"no","recycling_type":"container"}},"type":"Feature"},
	{"geometry":{"coordinates":[8.323556,50.74485],"type":"Point"},"properties":{"osm_id":"1361544549","tag":{"amenity":"recycling"}},"type":"Feature"},
	{"geometry":{"coordinates":[8.321329,50.745396],"type":"Point"},"properties":{"osm_id":"1361544550","tag":{"amenity":"recycling"}},"type":"Feature"},
	{"geometry":{"coordinates":[8.31958,50.786338],"type":"Point"},"properties":{"osm_id":"1795289363","tag":{"amenity":"recycling","recycling:glass_bottles":"yes","recycling_type":"container"}},"type":"Feature"},
	{"geometry":{"coordinates":[8.319627,50.786364],"type":"Point"},"properties":{"osm_id":"1795289364","tag":{"amenity":"recycling","recycling:clothes":"yes","recycling:shoes":"yes","recycling_type":"container"}},"type":"Feature"},
	{"geometry":{"coordinates":[8.320588,50.787012],"type":"Point"},"properties":{"osm_id":"1795289365","tag":{"amenity":"recycling","recycling:clothes":"yes","recycling:shoes":"yes","recycling_type":"container"}},"type":"Feature"},
	{"geometry":{"coordinates":[8.276943,50.748801],"type":"Point"},"properties":{"osm_id":"3718004904","tag":{"amenity":"recycling","recycling:clothes":"yes","recycling_type":"container"}},"type":"Feature"},
	{"geometry":{"coordinates":[8.298526,50.739411],"type":"Point"},"properties":{"osm_id":"4386701989","tag":{"amenity":"waste_basket"}},"type":"Feature"},
	{"geometry":{"coordinates":[8.262365,50.768512],"type":"Point"},"properties":{"osm_id":"5040258959","tag":{"amenity":"recycling","recycling:clothes":"yes","recycling:glass_bottles":"yes","recycling_type":"container"}},"type":"Feature"},
	{"geometry":{"coordinates":[8.28835,50.743252],"type":"Point"},"properties":{"osm_id":"5147857608","tag":{"amenity":"waste_basket"}},"type":"Feature"},
	{"geometry":{"coordinates":[8.306432,50.776938],"type":"Point"},"properties":{"osm_id":"5260174643","tag":{"amenity":"recycling","recycling:clothes":"yes","recycling:shoes":"yes","recycling_type":"container"}},"type":"Feature"},
	{"geometry":{"coordinates":[8.274246,50.750156],"type":"Point"},"properties":{"osm_id":"5601126441","tag":{"amenity":"recycling","recycling:clothes":"yes","recycling:glass_bottles":"yes","recycling_type":"container"}},"type":"Feature"},
	{"geometry":{"coordinates":[8.287911,50.76716],"type":"Point"},"properties":{"osm_id":"6109370931","tag":{"amenity":"recycling","operator":"Baliz Textilwerke","recycling:clothes":"yes","recycling:shoes":"yes","recycling_type":"container","wheelchair":"yes"}},"type":"Feature"},
	{"geometry":{"coordinates":[8.316336,50.744306],"type":"Point"},"properties":{"osm_id":"6241591398","tag":{"amenity":"waste_basket"}},"type":"Feature"},
	{"geometry":{"coordinates":[8.31641,50.744461],"type":"Point"},"properties":{"osm_id":"6241591399","tag":{"amenity":"waste_basket"}},"type":"Feature"},
	{"geometry":{"coordinates":[8.316559,50.744344],"type":"Point"},"properties":{"osm_id":"6241591400","tag":{"amenity":"waste_basket"}},"type":"Feature"},
	{"geometry":{"coordinates":[8.316254,50.744408],"type":"Point"},"properties":{"osm_id":"6241591401","tag":{"amenity":"waste_basket"}},"type":"Feature"},
	{"geometry":{"coordinates":[8.284933,50.745091],"type":"Point"},"properties":{"osm_id":"6283356154","tag":{"amenity":"waste_basket"}},"type":"Feature"},
	{"geometry":{"coordinates":[8.286157,50.739146],"type":"Point"},"properties":{"osm_id":"6421382089","tag":{"amenity":"waste_basket"}},"type":"Feature"},
	{"geometry":{"coordinates":[8.286523,50.737006],"type":"Point"},"properties":{"osm_id":"6421383666","tag":{"amenity":"waste_basket"}},"type":"Feature"},
	{"geometry":{"coordinates":[8.285642,50.738279],"type":"Point"},"properties":{"osm_id":"6421384768","tag":{"amenity":"waste_basket"}},"type":"Feature"},
	{"geometry":{"coordinates":[8.296166,50.769057],"type":"Point"},"properties":{"osm_id":"6465053553","tag":{"amenity":"recycling","recycling:clothes":"yes","recycling_type":"container"}},"type":"Feature"},
	{"geometry":{"coordinates":[8.293121,50.769599],"type":"Point"},"properties":{"osm_id":"6465262686","tag":{"amenity":"recycling","recycling:clothes":"yes","recycling:shoes":"yes","recycling_type":"container"}},"type":"Feature"},
	{"geometry":{"coordinates":[8.294454,50.777133],"type":"Point"},"properties":{"osm_id":"6467041408","tag":{"amenity":"recycling","operator":"Detsches Rotes Kreuz","recycling:clothes":"yes","recycling_type":"container"}},"type":"Feature"},
	{"geometry":{"coordinates":[8.286138,50.738151],"type":"Point"},"properties":{"osm_id":"6702674018","tag":{"amenity":"waste_basket","material":"steel"}},"type":"Feature"},
	{"geometry":{"coordinates":[8.324652,50.748139],"type":"Point"},"properties":{"osm_id":"7836896787","tag":{"amenity":"recycling","recycling_type":"container"}},"type":"Feature"}
]
}
