{
"type": "FeatureCollection",
"features": [
	{"geometry":{"coordinates":[8.287797,50.680517],"type":"Point"},"properties":{"osm_id":"325171620","tag":{"amenity":"recycling","recycling:clothes":"yes","recycling:glass_bottles":"yes","recycling_type":"container"}},"type":"Feature"},
	{"geometry":{"coordinates":[8.295471,50.659941],"type":"Point"},"properties":{"osm_id":"602528954","tag":{"amenity":"recycling","shoes":"yes"}},"type":"Feature"},
	{"geometry":{"coordinates":[8.300089,50.657321],"type":"Point"},"properties":{"osm_id":"632305654","tag":{"amenity":"recycling","recycling:clothes":"yes","recycling:glass_bottles":"yes","recycling_type":"container"}},"type":"Feature"},
	{"geometry":{"coordinates":[8.287383,50.65578],"type":"Point"},"properties":{"osm_id":"659951834","tag":{"amenity":"recycling","recycling:glass":"yes"}},"type":"Feature"},
	{"geometry":{"coordinates":[8.292464,50.658213],"type":"Point"},"properties":{"osm_id":"663031763","tag":{"amenity":"recycling","shoes":"yes"}},"type":"Feature"},
	{"geometry":{"coordinates":[8.293105,50.659427],"type":"Point"},"properties":{"osm_id":"663031765","tag":{"amenity":"recycling","shoes":"yes"}},"type":"Feature"},
	{"geometry":{"coordinates":[8.272404,50.652111],"type":"Point"},"properties":{"osm_id":"663061776","tag":{"amenity":"recycling","recycling:glass_bottles":"yes","recycling_type":"container"}},"type":"Feature"},
	{"geometry":{"coordinates":[8.295449,50.655578],"type":"Point"},"properties":{"osm_id":"663061829","tag":{"amenity":"recycling","recycling:glass":"yes"}},"type":"Feature"},
	{"geometry":{"coordinates":[8.327851,50.653783],"type":"Point"},"properties":{"osm_id":"1364291345","tag":{"amenity":"recycling","location":"overground","recycling:glass_bottles":"yes","recycling_type":"container"}},"type":"Feature"},
	{"geometry":{"coordinates":[8.331039,50.657223],"type":"Point"},"properties":{"osm_id":"1381764224","tag":{"amenity":"recycling","recycling:clothes":"yes"}},"type":"Feature"},
	{"geometry":{"coordinates":[8.326156,50.656463],"type":"Point"},"properties":{"osm_id":"1385689063","tag":{"amenity":"recycling","location":"overground","recycling:shoes":"yes","recycling_type":"container"}},"type":"Feature"},
	{"geometry":{"coordinates":[8.290441,50.678],"type":"Point"},"properties":{"osm_id":"1911890812","tag":{"amenity":"recycling","recycling:clothes":"yes","recycling:glass_bottles":"yes","recycling_type":"container"}},"type":"Feature"},
	{"geometry":{"coordinates":[8.339234,50.659231],"type":"Point"},"properties":{"osm_id":"2311101524","tag":{"amenity":"waste_basket"}},"type":"Feature"},
	{"geometry":{"coordinates":[8.339071,50.657675],"type":"Point"},"properties":{"osm_id":"2314896484","tag":{"amenity":"waste_basket"}},"type":"Feature"},
	{"geometry":{"coordinates":[8.337594,50.656111],"type":"Point"},"properties":{"osm_id":"2315068341","tag":{"amenity":"recycling"}},"type":"Feature"},
	{"geometry":{"coordinates":[8.300176,50.680035],"type":"Point"},"properties":{"osm_id":"3066152405","tag":{"amenity":"recycling","recycling:glass_bottles":"yes","recycling_type":"container"}},"type":"Feature"},
	{"geometry":{"coordinates":[8.305447,50.676069],"type":"Point"},"properties":{"osm_id":"3130797856","tag":{"amenity":"recycling","recycling:clothes":"yes","recycling_type":"container"}},"type":"Feature"},
	{"geometry":{"coordinates":[8.333254,50.657253],"type":"Point"},"properties":{"osm_id":"3130914101","tag":{"amenity":"recycling","recycling:clothes":"yes","recycling:glass_bottles":"yes","recycling_type":"container"}},"type":"Feature"},
	{"geometry":{"coordinates":[8.305732,50.670689],"type":"Point"},"properties":{"osm_id":"3840272405","tag":{"amenity":"recycling","recycling:clothes":"yes","recycling_type":"container"}},"type":"Feature"},
	{"geometry":{"coordinates":[8.30754,50.677964],"type":"Point"},"properties":{"osm_id":"4099024037","tag":{"amenity":"waste_basket"}},"type":"Feature"},
	{"geometry":{"coordinates":[8.306121,50.67914],"type":"Point"},"properties":{"osm_id":"4099024040","tag":{"amenity":"waste_basket"}},"type":"Feature"},
	{"geometry":{"coordinates":[8.305891,50.679643],"type":"Point"},"properties":{"osm_id":"4099024042","tag":{"amenity":"waste_basket"}},"type":"Feature"},
	{"geometry":{"coordinates":[8.305717,50.680292],"type":"Point"},"properties":{"osm_id":"4099024044","tag":{"amenity":"waste_basket"}},"type":"Feature"},
	{"geometry":{"coordinates":[8.305842,50.680445],"type":"Point"},"properties":{"osm_id":"4099024048","tag":{"amenity":"waste_basket"}},"type":"Feature"},
	{"geometry":{"coordinates":[8.296948,50.676557],"type":"Point"},"properties":{"osm_id":"4099102054","tag":{"amenity":"recycling","recycling:glass_bottles":"yes","recycling_type":"container"}},"type":"Feature"},
	{"geometry":{"coordinates":[8.297403,50.676605],"type":"Point"},"properties":{"osm_id":"4099102058","tag":{"amenity":"recycling","recycling:clothes":"yes","recycling_type":"container"}},"type":"Feature"},
	{"geometry":{"coordinates":[8.321716,50.660384],"type":"Point"},"properties":{"osm_id":"4173366295","tag":{"amenity":"recycling","recycling_type":"container"}},"type":"Feature"},
	{"geometry":{"coordinates":[8.290569,50.679983],"type":"Point"},"properties":{"osm_id":"4941438197","tag":{"amenity":"waste_basket"}},"type":"Feature"},
	{"geometry":{"coordinates":[8.288059,50.680401],"type":"Point"},"properties":{"osm_id":"4941438198","tag":{"amenity":"waste_basket"}},"type":"Feature"},
	{"geometry":{"coordinates":[8.31649,50.678064],"type":"Point"},"properties":{"osm_id":"5044823039","tag":{"amenity":"recycling","recycling_type":"container"}},"type":"Feature"},
	{"geometry":{"coordinates":[8.305463,50.677621],"type":"Point"},"properties":{"osm_id":"5044823081","tag":{"amenity":"waste_basket"}},"type":"Feature"},
	{"geometry":{"coordinates":[8.307564,50.677403],"type":"Point"},"properties":{"osm_id":"5375114452","tag":{"amenity":"waste_basket"}},"type":"Feature"},
	{"geometry":{"coordinates":[8.30534,50.679409],"type":"Point"},"properties":{"osm_id":"5375114453","tag":{"amenity":"waste_basket"}},"type":"Feature"},
	{"geometry":{"coordinates":[8.308381,50.675547],"type":"Point"},"properties":{"osm_id":"5375407413","tag":{"amenity":"recycling","recycling:clothes":"yes","recycling:glass_bottles":"yes","recycling_type":"container"}},"type":"Feature"},
	{"geometry":{"coordinates":[8.33425,50.653154],"type":"Point"},"properties":{"osm_id":"5652399079","tag":{"amenity":"waste_basket","waste":"dog_excrement"}},"type":"Feature"},
	{"geometry":{"coordinates":[8.334216,50.659798],"type":"Point"},"properties":{"osm_id":"5652404027","tag":{"amenity":"waste_basket","waste":"dog_excrement"}},"type":"Feature"},
	{"geometry":{"coordinates":[8.324933,50.631886],"type":"Point"},"properties":{"osm_id":"5652413103","tag":{"amenity":"waste_basket","waste":"dog_excrement"}},"type":"Feature"},
	{"geometry":{"coordinates":[8.32285,50.633029],"type":"Point"},"properties":{"osm_id":"5652413104","tag":{"amenity":"waste_basket","waste":"dog_excrement"}},"type":"Feature"},
	{"geometry":{"coordinates":[8.32331,50.636013],"type":"Point"},"properties":{"osm_id":"5652413106","tag":{"amenity":"recycling","recycling:clothes":"yes","recycling:glass_bottles":"yes","recycling:shoes":"yes","recycling_type":"container"}},"type":"Feature"},
	{"geometry":{"coordinates":[8.321774,50.629231],"type":"Point"},"properties":{"osm_id":"5652413108","tag":{"amenity":"waste_basket","waste":"dog_excrement"}},"type":"Feature"},
	{"geometry":{"coordinates":[8.315445,50.635986],"type":"Point"},"properties":{"osm_id":"5652413110","tag":{"amenity":"waste_basket","waste":"dog_excrement"}},"type":"Feature"},
	{"geometry":{"coordinates":[8.309794,50.630606],"type":"Point"},"properties":{"osm_id":"5652413835","tag":{"amenity":"waste_basket","waste":"dog_excrement"}},"type":"Feature"},
	{"geometry":{"coordinates":[8.306912,50.631064],"type":"Point"},"properties":{"osm_id":"5652413836","tag":{"amenity":"waste_basket","waste":"dog_excrement"}},"type":"Feature"},
	{"geometry":{"coordinates":[8.332281,50.645949],"type":"Point"},"properties":{"osm_id":"5652462071","tag":{"amenity":"recycling","recycling_type":"centre"}},"type":"Feature"},
	{"geometry":{"coordinates":[8.262794,50.648921],"type":"Point"},"properties":{"osm_id":"6222995431","tag":{"amenity":"waste_basket"}},"type":"Feature"},
	{"geometry":{"coordinates":[8.313431,50.633036],"type":"Point"},"properties":{"osm_id":"6292845242","tag":{"amenity":"waste_basket"}},"type":"Feature"},
	{"geometry":{"coordinates":[8.308389,50.674123],"type":"Point"},"properties":{"osm_id":"6541901964","tag":{"amenity":"waste_basket","colour":"dark","material":"plastic"}},"type":"Feature"},
	{"geometry":{"coordinates":[8.274579,50.676444],"type":"Point"},"properties":{"osm_id":"6582344040","tag":{"amenity":"waste_basket"}},"type":"Feature"},
	{"geometry":{"coordinates":[8.298691,50.657002],"type":"Point"},"properties":{"osm_id":"6598057952","tag":{"amenity":"waste_basket"}},"type":"Feature"},
	{"geometry":{"coordinates":[8.337801,50.656125],"type":"Point"},"properties":{"osm_id":"7109331608","tag":{"amenity":"waste_basket"}},"type":"Feature"},
	{"geometry":{"coordinates":[8.311628,50.666877],"type":"Point"},"properties":{"osm_id":"7142658249","tag":{"amenity":"waste_basket"}},"type":"Feature"},
	{"geometry":{"coordinates":[8.317295,50.663725],"type":"Point"},"properties":{"osm_id":"7142748365","tag":{"amenity":"waste_basket"}},"type":"Feature"},
	{"geometry":{"coordinates":[8.301836,50.673601],"type":"Point"},"properties":{"osm_id":"7826801386","tag":{"amenity":"waste_basket"}},"type":"Feature"},
	{"geometry":{"coordinates":[8.301238,50.673161],"type":"Point"},"properties":{"osm_id":"7826801485","tag":{"amenity":"waste_basket"}},"type":"Feature"},
	{"geometry":{"coordinates":[8.300196,50.672183],"type":"Point"},"properties":{"osm_id":"7830314385","tag":{"amenity":"waste_basket"}},"type":"Feature"},
	{"geometry":{"coordinates":[8.308268,50.678664],"type":"Point"},"properties":{"osm_id":"7833128885","tag":{"amenity":"waste_basket"}},"type":"Feature"},
	{"geometry":{"coordinates":[8.308497,50.663359],"type":"Point"},"properties":{"osm_id":"7840881286","tag":{"amenity":"waste_basket"}},"type":"Feature"},
	{"geometry":{"coordinates":[8.308396,50.669025],"type":"Point"},"properties":{"osm_id":"7840938086","tag":{"amenity":"waste_basket"}},"type":"Feature"},
	{"geometry":{"coordinates":[8.303887,50.672685],"type":"Point"},"properties":{"osm_id":"7840964685","tag":{"amenity":"waste_basket"}},"type":"Feature"},
	{"geometry":{"coordinates":[8.309054,50.669402],"type":"Point"},"properties":{"osm_id":"7881504787","tag":{"amenity":"waste_basket"}},"type":"Feature"},
	{"geometry":{"coordinates":[8.308625,50.669797],"type":"Point"},"properties":{"osm_id":"7881509885","tag":{"amenity":"waste_basket"}},"type":"Feature"},
	{"geometry":{"coordinates":[8.308855,50.669372],"type":"Point"},"properties":{"osm_id":"7881509985","tag":{"amenity":"waste_basket"}},"type":"Feature"},
	{"geometry":{"coordinates":[8.308826,50.669838],"type":"Point"},"properties":{"osm_id":"7881521085","tag":{"amenity":"waste_basket"}},"type":"Feature"},
	{"geometry":{"coordinates":[8.318749,50.660858],"type":"Point"},"properties":{"osm_id":"7881539885","tag":{"amenity":"waste_basket"}},"type":"Feature"},
	{"geometry":{"coordinates":[8.298976,50.6715],"type":"Point"},"properties":{"osm_id":"7888018185","tag":{"amenity":"waste_basket"}},"type":"Feature"},
	{"geometry":{"coordinates":[8.303594,50.672281],"type":"Point"},"properties":{"osm_id":"7897644185","tag":{"amenity":"waste_basket"}},"type":"Feature"},
	{"geometry":{"coordinates":[8.303608,50.672352],"type":"Point"},"properties":{"osm_id":"7897644286","tag":{"amenity":"waste_basket"}},"type":"Feature"},
	{"geometry":{"coordinates":[8.30363,50.672397],"type":"Point"},"properties":{"osm_id":"7897644485","tag":{"amenity":"waste_basket"}},"type":"Feature"}
]
}
