{
"type": "FeatureCollection",
"features": [
	{"geometry":{"coordinates":[8.304339,50.059525],"type":"Point"},"properties":{"osm_id":"300088497","tag":{"amenity":"recycling","recycling:glass":"yes","recycling_type":"container"}},"type":"Feature"},
	{"geometry":{"coordinates":[8.304213,50.055134],"type":"Point"},"properties":{"osm_id":"305410874","tag":{"amenity":"recycling","recycling:glass":"yes","recycling_type":"container"}},"type":"Feature"},
	{"geometry":{"coordinates":[8.29093,50.059437],"type":"Point"},"properties":{"osm_id":"305485526","tag":{"amenity":"recycling","recycling:glass":"yes","recycling_type":"container"}},"type":"Feature"},
	{"geometry":{"coordinates":[8.295883,50.061581],"type":"Point"},"properties":{"osm_id":"305583125","tag":{"amenity":"recycling","recycling:glass":"yes","recycling_type":"container"}},"type":"Feature"},
	{"geometry":{"coordinates":[8.300432,50.058537],"type":"Point"},"properties":{"osm_id":"305583126","tag":{"amenity":"recycling","recycling:glass":"yes","recycling_type":"container"}},"type":"Feature"},
	{"geometry":{"coordinates":[8.299811,50.058466],"type":"Point"},"properties":{"osm_id":"305583127","tag":{"amenity":"recycling","recycling:clothes":"yes","recycling_type":"container"}},"type":"Feature"},
	{"geometry":{"coordinates":[8.341543,50.057156],"type":"Point"},"properties":{"osm_id":"310135050","tag":{"amenity":"recycling","location":"overground","opening_hours":"24/7","recycling:glass":"yes","recycling_type":"container"}},"type":"Feature"},
	{"geometry":{"coordinates":[8.342012,50.062119],"type":"Point"},"properties":{"osm_id":"355316724","tag":{"amenity":"recycling","recycling:glass_bottles":"yes","recycling_type":"container"}},"type":"Feature"},
	{"geometry":{"coordinates":[8.327113,50.05768],"type":"Point"},"properties":{"barrier":"gate","osm_id":"489792078","tag":{"bicycle":"yes","foot":"yes","motorcar":"yes","motorcycle":"yes"}},"type":"Feature"},
	{"geometry":{"coordinates":[8.327257,50.057905],"type":"Point"},"properties":{"barrier":"gate","osm_id":"489792079","tag":{"bicycle":"yes","foot":"yes","motorcar":"yes","motorcycle":"yes"}},"type":"Feature"},
	{"geometry":{"coordinates":[8.340816,50.017992],"type":"Point"},"properties":{"osm_id":"504471144","tag":{"amenity":"recycling","recycling:glass":"yes","recycling_type":"container"}},"type":"Feature"},
	{"geometry":{"coordinates":[8.341359,50.014123],"type":"Point"},"properties":{"osm_id":"504471146","tag":{"amenity":"recycling","recycling:glass":"yes","recycling_type":"container"}},"type":"Feature"},
	{"geometry":{"coordinates":[8.344955,50.012849],"type":"Point"},"properties":{"osm_id":"504471147","tag":{"amenity":"recycling","recycling:glass":"yes","recycling_type":"container"}},"type":"Feature"},
	{"geometry":{"coordinates":[8.29691,50.038064],"type":"Point"},"properties":{"osm_id":"570110882","tag":{"amenity":"recycling","recycling:glass_bottles":"yes","recycling_type":"container"}},"type":"Feature"},
	{"geometry":{"coordinates":[8.338311,50.060792],"type":"Point"},"properties":{"osm_id":"764869833","tag":{"amenity":"recycling","recycling:glass_bottles":"yes","recycling_type":"container"}},"type":"Feature"},
	{"geometry":{"coordinates":[8.26527,50.013107],"type":"Point"},"properties":{"osm_id":"1192389671","tag":{"amenity":"recycling","operator":"Deutsches Rotes Kreuz","recycling:clothes":"yes","recycling:shoes":"yes","recycling_type":"container"}},"type":"Feature"},
	{"geometry":{"coordinates":[8.344478,50.014292],"type":"Point"},"properties":{"osm_id":"1349327522","tag":{"amenity":"recycling","recycling:glass":"yes","recycling_type":"container"}},"type":"Feature"},
	{"geometry":{"coordinates":[8.34689,50.017477],"type":"Point"},"properties":{"osm_id":"2145029120","tag":{"amenity":"waste_basket"}},"type":"Feature"},
	{"geometry":{"coordinates":[8.346996,50.017663],"type":"Point"},"properties":{"osm_id":"2145029121","tag":{"amenity":"waste_basket"}},"type":"Feature"},
	{"geometry":{"coordinates":[8.347489,50.017458],"type":"Point"},"properties":{"osm_id":"2145712176","tag":{"amenity":"waste_basket"}},"type":"Feature"},
	{"geometry":{"coordinates":[8.346198,50.012312],"type":"Point"},"properties":{"osm_id":"2173663740","tag":{"amenity":"waste_basket"}},"type":"Feature"},
	{"geometry":{"coordinates":[8.307979,50.05729],"type":"Point"},"properties":{"osm_id":"2274097156","tag":{"addr:city":"Wiesbaden","addr:postcode":"65205","addr:street":"Oberfeld","amenity":"recycling","recycling:cans":"no","recycling:clothes":"yes","recycling:glass":"yes","recycling:paper":"no","recycling_type":"container"}},"type":"Feature"},
	{"geometry":{"coordinates":[8.281983,50.012654],"type":"Point"},"properties":{"osm_id":"2567821870","tag":{"amenity":"recycling","recycling:glass":"yes","recycling_type":"container"}},"type":"Feature"},
	{"geometry":{"coordinates":[8.30104,50.053536],"type":"Point"},"properties":{"osm_id":"2567821885","tag":{"amenity":"recycling","recycling:clothes":"yes","recycling:glass":"yes","recycling_type":"container"}},"type":"Feature"},
	{"geometry":{"coordinates":[8.344635,50.017008],"type":"Point"},"properties":{"osm_id":"3027636757","tag":{"amenity":"recycling","recycling:clothes":"yes","recycling_type":"container"}},"type":"Feature"},
	{"geometry":{"coordinates":[8.264207,50.043057],"type":"Point"},"properties":{"name":"Kleinannahme","osm_id":"3420545146","tag":{"addr:city":"Wiesbaden","addr:housenumber":"15","addr:postcode":"65205","addr:street":"Deponiestra\u00c3\u009fe","amenity":"recycling","opening_hours":"Mo-Fr 07:00-15:30;Sa 08:00-13:00","operator":"ELW","recycling:batteries":"yes","recycling:cans":"yes","recycling:cardboard":"yes","recycling:clothes":"yes","recycling:electrical_appliances":"yes","recycling:glass":"yes","recycling:glass_bottles":"yes","recycling:green_waste":"yes","recycling:paper":"yes","recycling:plastic":"yes","recycling:plastic_bottles":"yes","recycling:scrap_metal":"yes","recycling:shoes":"yes","recycling:small_appliances":"yes","recycling:waste":"yes","recycling_type":"centre","wheelchair":"yes"}},"type":"Feature"},
	{"geometry":{"coordinates":[8.308173,50.052631],"type":"Point"},"properties":{"osm_id":"3442735651","tag":{"amenity":"recycling","recycling:glass_bottles":"yes","recycling_type":"container"}},"type":"Feature"},
	{"geometry":{"coordinates":[8.301852,50.009936],"type":"Point"},"properties":{"osm_id":"3545246653","tag":{"amenity":"recycling","operator":"S.K.C.","recycling:clothes":"yes","recycling:shoes":"yes","recycling_type":"container"}},"type":"Feature"},
	{"geometry":{"coordinates":[8.298913,50.009975],"type":"Point"},"properties":{"osm_id":"3545246654","tag":{"amenity":"recycling","recycling:glass":"yes","recycling_type":"container"}},"type":"Feature"},
	{"geometry":{"coordinates":[8.293137,50.008973],"type":"Point"},"properties":{"osm_id":"3548007717","tag":{"amenity":"recycling","recycling:glass":"yes","recycling_type":"container"}},"type":"Feature"},
	{"geometry":{"coordinates":[8.291101,50.01097],"type":"Point"},"properties":{"osm_id":"3548007731","tag":{"amenity":"recycling","recycling:glass":"yes","recycling_type":"container"}},"type":"Feature"},
	{"geometry":{"coordinates":[8.297075,50.007834],"type":"Point"},"properties":{"osm_id":"3551914615","tag":{"amenity":"recycling","recycling:clothes":"yes","recycling:shoes":"yes","recycling_type":"container"}},"type":"Feature"},
	{"geometry":{"coordinates":[8.27897,50.025075],"type":"Point"},"properties":{"osm_id":"3594934875","tag":{"amenity":"recycling","operator":"Evren Textil","recycling:clothes":"yes","recycling:shoes":"yes","recycling_type":"container"}},"type":"Feature"},
	{"geometry":{"coordinates":[8.282756,50.007905],"type":"Point"},"properties":{"osm_id":"3595020001","tag":{"amenity":"recycling","recycling:glass":"yes","recycling_type":"container"}},"type":"Feature"},
	{"geometry":{"coordinates":[8.281012,50.010677],"type":"Point"},"properties":{"osm_id":"3595020033","tag":{"amenity":"recycling","operator":"Deutsches Rotes Kreuz","recycling:clothes":"yes","recycling:shoes":"yes","recycling_type":"container"}},"type":"Feature"},
	{"geometry":{"coordinates":[8.281034,50.010705],"type":"Point"},"properties":{"osm_id":"3595020034","tag":{"amenity":"recycling","recycling:glass":"yes","recycling_type":"container"}},"type":"Feature"},
	{"geometry":{"coordinates":[8.297778,50.012825],"type":"Point"},"properties":{"osm_id":"3657656678","tag":{"amenity":"recycling","recycling:glass":"yes","recycling_type":"container"}},"type":"Feature"},
	{"geometry":{"coordinates":[8.296967,50.013551],"type":"Point"},"properties":{"osm_id":"3657656679","tag":{"amenity":"recycling","recycling:clothes":"yes","recycling:shoes":"yes","recycling_type":"container"}},"type":"Feature"},
	{"geometry":{"coordinates":[8.296557,50.013969],"type":"Point"},"properties":{"osm_id":"3657656680","tag":{"amenity":"recycling","recycling:clothes":"yes","recycling:shoes":"yes","recycling_type":"container"}},"type":"Feature"},
	{"geometry":{"coordinates":[8.294692,50.012467],"type":"Point"},"properties":{"osm_id":"3664743086","tag":{"amenity":"recycling","recycling:glass":"yes","recycling_type":"container"}},"type":"Feature"},
	{"geometry":{"coordinates":[8.300894,50.014233],"type":"Point"},"properties":{"osm_id":"3684560476","tag":{"amenity":"recycling","recycling:glass":"yes","recycling_type":"container","survey:date":"2015-08-06"}},"type":"Feature"},
	{"geometry":{"coordinates":[8.302315,50.015772],"type":"Point"},"properties":{"osm_id":"3684560489","tag":{"amenity":"recycling","recycling:clothes":"yes","recycling:shoes":"yes","recycling_type":"container"}},"type":"Feature"},
	{"geometry":{"coordinates":[8.301606,50.0161],"type":"Point"},"properties":{"osm_id":"3684560494","tag":{"amenity":"recycling","recycling:glass":"yes","recycling_type":"container"}},"type":"Feature"},
	{"geometry":{"coordinates":[8.296523,50.017617],"type":"Point"},"properties":{"osm_id":"3684560502","tag":{"amenity":"recycling","recycling:glass":"yes","recycling_type":"container"}},"type":"Feature"},
	{"geometry":{"coordinates":[8.300658,50.018967],"type":"Point"},"properties":{"osm_id":"3684560513","tag":{"amenity":"recycling","recycling:clothes":"yes","recycling:shoes":"yes","recycling_type":"container"}},"type":"Feature"},
	{"geometry":{"coordinates":[8.310315,50.00869],"type":"Point"},"properties":{"osm_id":"3731907401","tag":{"amenity":"recycling","recycling:glass_bottles":"yes","recycling_type":"container"}},"type":"Feature"},
	{"geometry":{"coordinates":[8.30189,50.012052],"type":"Point"},"properties":{"osm_id":"3731907407","tag":{"amenity":"recycling","recycling:glass":"yes","recycling_type":"container"}},"type":"Feature"},
	{"geometry":{"coordinates":[8.301581,50.012735],"type":"Point"},"properties":{"osm_id":"3741574669","tag":{"amenity":"recycling","recycling:clothes":"yes","recycling:shoes":"yes","recycling_type":"container"}},"type":"Feature"},
	{"geometry":{"coordinates":[8.296973,50.038324],"type":"Point"},"properties":{"osm_id":"3874533400","tag":{"amenity":"waste_basket"}},"type":"Feature"},
	{"geometry":{"coordinates":[8.262377,50.03975],"type":"Point"},"properties":{"osm_id":"4016263447","tag":{"amenity":"waste_basket"}},"type":"Feature"},
	{"geometry":{"coordinates":[8.287504,50.015979],"type":"Point"},"properties":{"osm_id":"4053073011","tag":{"amenity":"recycling","recycling:glass":"yes","recycling_type":"container"}},"type":"Feature"},
	{"geometry":{"coordinates":[8.300032,50.008494],"type":"Point"},"properties":{"osm_id":"4200426943","tag":{"amenity":"recycling","recycling:clothes":"yes","recycling:shoes":"yes","recycling_type":"container"}},"type":"Feature"},
	{"geometry":{"coordinates":[8.293576,50.014392],"type":"Point"},"properties":{"osm_id":"4200427235","tag":{"amenity":"recycling","recycling:clothes":"yes","recycling:shoes":"yes","recycling_type":"container"}},"type":"Feature"},
	{"geometry":{"coordinates":[8.29337,50.014542],"type":"Point"},"properties":{"osm_id":"4200427242","tag":{"amenity":"recycling","recycling:glass":"yes","recycling_type":"container"}},"type":"Feature"},
	{"geometry":{"coordinates":[8.283178,50.061012],"type":"Point"},"properties":{"osm_id":"4387305049","tag":{"amenity":"waste_disposal"}},"type":"Feature"},
	{"geometry":{"coordinates":[8.282752,50.014424],"type":"Point"},"properties":{"osm_id":"4411875295","tag":{"amenity":"recycling","recycling:clothes":"yes","recycling:shoes":"yes","recycling_type":"container"}},"type":"Feature"},
	{"geometry":{"coordinates":[8.310356,50.008722],"type":"Point"},"properties":{"osm_id":"4485903632","tag":{"amenity":"recycling","recycling:clothes":"yes","recycling:shoes":"yes","recycling_type":"container"}},"type":"Feature"},
	{"geometry":{"coordinates":[8.269379,50.023074],"type":"Point"},"properties":{"osm_id":"4934433952","tag":{"amenity":"recycling","recycling:glass_bottles":"yes","recycling_type":"container"}},"type":"Feature"},
	{"geometry":{"coordinates":[8.349024,50.020796],"type":"Point"},"properties":{"osm_id":"5031911308","tag":{"amenity":"recycling","opening_hours":"Mo-Sa 08:00-12:00,15:00-19:00; PH closed","recycling:glass_bottles":"yes","recycling_type":"container","wheelchair":"yes"}},"type":"Feature"},
	{"geometry":{"coordinates":[8.345177,50.019886],"type":"Point"},"properties":{"osm_id":"5031911309","tag":{"amenity":"recycling","opening_hours":"24/7","recycling:glass_bottles":"yes","recycling_type":"container","wheelchair":"yes"}},"type":"Feature"},
	{"geometry":{"coordinates":[8.261944,50.059324],"type":"Point"},"properties":{"osm_id":"5327790397","tag":{"amenity":"recycling","recycling:glass":"yes","recycling_type":"container"}},"type":"Feature"},
	{"geometry":{"coordinates":[8.290849,50.060704],"type":"Point"},"properties":{"osm_id":"5340275053","tag":{"amenity":"recycling","recycling:glass":"yes","recycling_type":"container"}},"type":"Feature"},
	{"geometry":{"coordinates":[8.291296,50.061773],"type":"Point"},"properties":{"osm_id":"5340278498","tag":{"amenity":"recycling","recycling:glass":"yes","recycling_type":"container"}},"type":"Feature"},
	{"geometry":{"coordinates":[8.265388,50.009548],"type":"Point"},"properties":{"osm_id":"5774669623","tag":{"amenity":"recycling","mapillary":"UE7rPS_c9TkEXzo8YgBE2Q","recycling:clothes":"yes","recycling:shoes":"yes","recycling_type":"container","survey:date":"2017-09-09"}},"type":"Feature"},
	{"geometry":{"coordinates":[8.286053,50.007786],"type":"Point"},"properties":{"osm_id":"5846875502","tag":{"amenity":"waste_basket"}},"type":"Feature"},
	{"geometry":{"coordinates":[8.286237,50.008644],"type":"Point"},"properties":{"osm_id":"5846875545","tag":{"amenity":"waste_basket"}},"type":"Feature"},
	{"geometry":{"coordinates":[8.286433,50.00876],"type":"Point"},"properties":{"osm_id":"5846875546","tag":{"amenity":"waste_basket"}},"type":"Feature"},
	{"geometry":{"coordinates":[8.281478,50.009892],"type":"Point"},"properties":{"osm_id":"5846875594","tag":{"amenity":"waste_basket"}},"type":"Feature"},
	{"geometry":{"coordinates":[8.281575,50.009837],"type":"Point"},"properties":{"osm_id":"5846875598","tag":{"amenity":"waste_basket"}},"type":"Feature"},
	{"geometry":{"coordinates":[8.298312,50.015363],"type":"Point"},"properties":{"osm_id":"5855941247","tag":{"amenity":"waste_basket"}},"type":"Feature"},
	{"geometry":{"coordinates":[8.298698,50.015384],"type":"Point"},"properties":{"osm_id":"5855941279","tag":{"amenity":"waste_basket"}},"type":"Feature"},
	{"geometry":{"coordinates":[8.298438,50.015283],"type":"Point"},"properties":{"osm_id":"5855941280","tag":{"amenity":"waste_basket"}},"type":"Feature"},
	{"geometry":{"coordinates":[8.298353,50.01552],"type":"Point"},"properties":{"osm_id":"5855941513","tag":{"amenity":"waste_basket"}},"type":"Feature"},
	{"geometry":{"coordinates":[8.298752,50.015682],"type":"Point"},"properties":{"osm_id":"5855941522","tag":{"amenity":"waste_basket"}},"type":"Feature"},
	{"geometry":{"coordinates":[8.29888,50.016629],"type":"Point"},"properties":{"osm_id":"5855941523","tag":{"amenity":"waste_basket"}},"type":"Feature"},
	{"geometry":{"coordinates":[8.298566,50.016611],"type":"Point"},"properties":{"osm_id":"5855941531","tag":{"amenity":"waste_basket"}},"type":"Feature"},
	{"geometry":{"coordinates":[8.298941,50.017045],"type":"Point"},"properties":{"osm_id":"5855941533","tag":{"amenity":"waste_basket"}},"type":"Feature"},
	{"geometry":{"coordinates":[8.299003,50.017495],"type":"Point"},"properties":{"osm_id":"5855941534","tag":{"amenity":"waste_basket"}},"type":"Feature"},
	{"geometry":{"coordinates":[8.298331,50.018026],"type":"Point"},"properties":{"osm_id":"5855941535","tag":{"amenity":"waste_basket"}},"type":"Feature"},
	{"geometry":{"coordinates":[8.30767,50.007864],"type":"Point"},"properties":{"osm_id":"5918609030","tag":{"amenity":"waste_basket"}},"type":"Feature"},
	{"geometry":{"coordinates":[8.30731,50.007856],"type":"Point"},"properties":{"osm_id":"5918609059","tag":{"amenity":"waste_basket"}},"type":"Feature"},
	{"geometry":{"coordinates":[8.279003,50.011474],"type":"Point"},"properties":{"osm_id":"6031383087","tag":{"amenity":"recycling","recycling:glass":"yes","recycling_type":"container"}},"type":"Feature"},
	{"geometry":{"coordinates":[8.265888,50.012662],"type":"Point"},"properties":{"osm_id":"6268477954","tag":{"amenity":"waste_basket"}},"type":"Feature"},
	{"geometry":{"coordinates":[8.266162,50.012176],"type":"Point"},"properties":{"osm_id":"6268477955","tag":{"amenity":"waste_basket"}},"type":"Feature"},
	{"geometry":{"coordinates":[8.266253,50.012029],"type":"Point"},"properties":{"osm_id":"6268477961","tag":{"amenity":"waste_basket"}},"type":"Feature"},
	{"geometry":{"coordinates":[8.266496,50.01196],"type":"Point"},"properties":{"osm_id":"6268477966","tag":{"amenity":"waste_basket"}},"type":"Feature"},
	{"geometry":{"coordinates":[8.266535,50.011859],"type":"Point"},"properties":{"osm_id":"6268477972","tag":{"amenity":"waste_basket"}},"type":"Feature"},
	{"geometry":{"coordinates":[8.266617,50.011726],"type":"Point"},"properties":{"osm_id":"6268477975","tag":{"amenity":"waste_basket"}},"type":"Feature"},
	{"geometry":{"coordinates":[8.266801,50.011634],"type":"Point"},"properties":{"osm_id":"6268477978","tag":{"amenity":"waste_basket"}},"type":"Feature"},
	{"geometry":{"coordinates":[8.266847,50.011535],"type":"Point"},"properties":{"osm_id":"6268477981","tag":{"amenity":"waste_basket"}},"type":"Feature"},
	{"geometry":{"coordinates":[8.267038,50.011431],"type":"Point"},"properties":{"osm_id":"6268479386","tag":{"amenity":"waste_basket"}},"type":"Feature"},
	{"geometry":{"coordinates":[8.267068,50.011345],"type":"Point"},"properties":{"osm_id":"6268479389","tag":{"amenity":"waste_basket"}},"type":"Feature"},
	{"geometry":{"coordinates":[8.26718,50.011402],"type":"Point"},"properties":{"osm_id":"6268479390","tag":{"amenity":"waste_basket"}},"type":"Feature"},
	{"geometry":{"coordinates":[8.267761,50.010828],"type":"Point"},"properties":{"osm_id":"6268479398","tag":{"amenity":"waste_basket"}},"type":"Feature"},
	{"geometry":{"coordinates":[8.267817,50.010716],"type":"Point"},"properties":{"osm_id":"6268479404","tag":{"amenity":"waste_basket"}},"type":"Feature"},
	{"geometry":{"coordinates":[8.268024,50.010614],"type":"Point"},"properties":{"osm_id":"6268479409","tag":{"amenity":"waste_basket"}},"type":"Feature"},
	{"geometry":{"coordinates":[8.268135,50.010451],"type":"Point"},"properties":{"osm_id":"6268479412","tag":{"amenity":"waste_basket"}},"type":"Feature"},
	{"geometry":{"coordinates":[8.268299,50.010382],"type":"Point"},"properties":{"osm_id":"6268479415","tag":{"amenity":"waste_basket"}},"type":"Feature"},
	{"geometry":{"coordinates":[8.268344,50.010272],"type":"Point"},"properties":{"osm_id":"6268479418","tag":{"amenity":"waste_basket"}},"type":"Feature"},
	{"geometry":{"coordinates":[8.268507,50.010203],"type":"Point"},"properties":{"osm_id":"6268479420","tag":{"amenity":"waste_basket"}},"type":"Feature"},
	{"geometry":{"coordinates":[8.268612,50.010045],"type":"Point"},"properties":{"osm_id":"6268479425","tag":{"amenity":"waste_basket"}},"type":"Feature"},
	{"geometry":{"coordinates":[8.277431,50.013369],"type":"Point"},"properties":{"osm_id":"6268479461","tag":{"amenity":"waste_basket"}},"type":"Feature"},
	{"geometry":{"coordinates":[8.276841,50.013124],"type":"Point"},"properties":{"osm_id":"6268479465","tag":{"amenity":"waste_basket"}},"type":"Feature"},
	{"geometry":{"coordinates":[8.277259,50.014879],"type":"Point"},"properties":{"osm_id":"6268479471","tag":{"amenity":"waste_basket"}},"type":"Feature"},
	{"geometry":{"coordinates":[8.275598,50.016464],"type":"Point"},"properties":{"osm_id":"6268479480","tag":{"amenity":"waste_basket"}},"type":"Feature"},
	{"geometry":{"coordinates":[8.262109,50.031284],"type":"Point"},"properties":{"osm_id":"6269529900","tag":{"amenity":"waste_basket"}},"type":"Feature"},
	{"geometry":{"coordinates":[8.261925,50.031397],"type":"Point"},"properties":{"osm_id":"6269529901","tag":{"amenity":"waste_basket"}},"type":"Feature"},
	{"geometry":{"coordinates":[8.283558,50.033387],"type":"Point"},"properties":{"osm_id":"6327543091","tag":{"amenity":"waste_basket"}},"type":"Feature"},
	{"geometry":{"coordinates":[8.327467,50.057696],"type":"Point"},"properties":{"osm_id":"6614494918","tag":{"amenity":"waste_basket"}},"type":"Feature"},
	{"geometry":{"coordinates":[8.300643,50.009785],"type":"Point"},"properties":{"osm_id":"6965993904","tag":{"amenity":"recycling","recycling:clothes":"yes","recycling:shoes":"yes","recycling_type":"container"}},"type":"Feature"},
	{"geometry":{"coordinates":[8.341479,50.057189],"type":"Point"},"properties":{"osm_id":"7087624740","tag":{"amenity":"recycling","location":"overground","opening_hours":"24/7","recycling:clothes":"yes","recycling_type":"container"}},"type":"Feature"},
	{"geometry":{"coordinates":[8.300387,50.0591],"type":"Point"},"properties":{"osm_id":"7254948765","tag":{"amenity":"waste_basket"}},"type":"Feature"},
	{"geometry":{"coordinates":[8.340383,50.016338],"type":"Point"},"properties":{"osm_id":"7332874815","tag":{"amenity":"recycling","recycling:glass":"yes","recycling_type":"container"}},"type":"Feature"}
]
}
