{
"type": "FeatureCollection",
"features": [
	{"geometry":{"coordinates":[8.346339,49.554471],"type":"Point"},"properties":{"barrier":"gate","osm_id":"1743804049"},"type":"Feature"},
	{"geometry":{"coordinates":[8.346164,49.553758],"type":"Point"},"properties":{"osm_id":"2121957552","tag":{"amenity":"recycling","recycling:clothes":"yes","recycling:glass":"yes","recycling:glass_bottles":"yes","recycling_type":"container"}},"type":"Feature"},
	{"geometry":{"coordinates":[8.336773,49.605308],"type":"Point"},"properties":{"osm_id":"4513236068","tag":{"amenity":"recycling","recycling:glass":"yes","recycling_type":"container"}},"type":"Feature"},
	{"geometry":{"coordinates":[8.33212,49.608206],"type":"Point"},"properties":{"osm_id":"4513236074","tag":{"amenity":"recycling","capacity":"6","opening_hours":"Mo-Sa 08:00-18:00","operator":"Jakob Becker Entsorgungs-GmbH","recycling:glass":"no","recycling:glass_bottles":"yes","recycling_type":"container","wikimedia_commons":"File:Altglas Horchheim 1.jpg"}},"type":"Feature"},
	{"geometry":{"coordinates":[8.324749,49.558883],"type":"Point"},"properties":{"osm_id":"4898125312","tag":{"amenity":"waste_basket"}},"type":"Feature"},
	{"geometry":{"coordinates":[8.319228,49.610696],"type":"Point"},"properties":{"osm_id":"9038250327","tag":{"amenity":"recycling","capacity":"2","opening_hours":"Mo-Su 07:00-20:00","operator":"Sehbehinderten Selbsthilfe Kurpfalz-Odenwald e.V","recycling:clothes":"yes","recycling:shoes":"yes","recycling_type":"container","wheelchair":"yes","wikimedia_commons":"File:Horchheim Dogan Container.jpg"}},"type":"Feature"},
	{"geometry":{"coordinates":[8.331306,49.605864],"type":"Point"},"properties":{"osm_id":"9071299696","tag":{"amenity":"recycling","capacity":"4","opening_hours":"Mo-Sa 08:00-18:00","operator":"Jakob Becker Entsorgungs-GmbH","recycling:glass":"no","recycling:glass_bottles":"yes","recycling_type":"container","wikimedia_commons":"File:Altglas Horchheim 2.jpg"}},"type":"Feature"},
	{"geometry":{"coordinates":[8.333903,49.606411],"type":"Point"},"properties":{"osm_id":"9071299710","tag":{"amenity":"recycling","brand":"TEXAID","brand:website":"https://www.texaid.de","brand:wikipedia":"de:Texaid","capacity":"2","opening_hours":"Mo-Fr 07:00-20:15","operator":"TEXAID Collection GmbH","recycling:clothes":"yes","recycling:shoes":"yes","recycling_type":"container","wheelchair":"yes","wikimedia_commons":"File:Weinsheim Container 1.jpg"}},"type":"Feature"},
	{"geometry":{"coordinates":[8.324585,49.607326],"type":"Point"},"properties":{"osm_id":"9121131029","tag":{"amenity":"recycling","capacity":"4","opening_hours":"Mo-Sa 08:00-13:00,15:00-19:00","operator":"Jakob Becker Entsorgungs-GmbH","recycling:glass":"no","recycling:glass_bottles":"yes","recycling_type":"container","wikimedia_commons":"File:Altglas Horchheim 3.jpg"}},"type":"Feature"}
]
}
