{
"type": "FeatureCollection",
"features": [
	{"geometry":{"coordinates":[8.28293,49.49797],"type":"Point"},"properties":{"osm_id":"87201391","tag":{"amenity":"recycling"}},"type":"Feature"},
	{"geometry":{"coordinates":[8.337193,49.50596],"type":"Point"},"properties":{"osm_id":"915408684","tag":{"amenity":"recycling","recycling_type":"container"}},"type":"Feature"},
	{"geometry":{"coordinates":[8.301441,49.505421],"type":"Point"},"properties":{"osm_id":"1341538883","tag":{"amenity":"recycling","opening_hours":"Sa 09:00-11:45; Apr-Oct: We 16:30-17:45"}},"type":"Feature"},
	{"geometry":{"coordinates":[8.347168,49.527664],"type":"Point"},"properties":{"osm_id":"1370924746","tag":{"amenity":"waste_basket"}},"type":"Feature"},
	{"geometry":{"coordinates":[8.342301,49.528749],"type":"Point"},"properties":{"osm_id":"1370942158","tag":{"amenity":"waste_basket"}},"type":"Feature"},
	{"geometry":{"coordinates":[8.340756,49.534416],"type":"Point"},"properties":{"osm_id":"1732050472","tag":{"amenity":"waste_basket"}},"type":"Feature"},
	{"geometry":{"coordinates":[8.346469,49.540217],"type":"Point"},"properties":{"osm_id":"2130240490","tag":{"amenity":"recycling","recycling:clothes":"yes","recycling:glass":"yes","recycling_type":"container"}},"type":"Feature"},
	{"geometry":{"coordinates":[8.346113,49.542824],"type":"Point"},"properties":{"osm_id":"2130240492","tag":{"amenity":"recycling","recycling:clothes":"yes","recycling:glass":"yes","recycling_type":"container"}},"type":"Feature"},
	{"geometry":{"coordinates":[8.279737,49.497675],"type":"Point"},"properties":{"osm_id":"2177477793","tag":{"amenity":"waste_basket"}},"type":"Feature"},
	{"geometry":{"coordinates":[8.334853,49.540566],"type":"Point"},"properties":{"osm_id":"3126694753","tag":{"amenity":"recycling","recycling:glass_bottles":"yes","recycling_type":"container"}},"type":"Feature"},
	{"geometry":{"coordinates":[8.334853,49.540596],"type":"Point"},"properties":{"osm_id":"3126694754","tag":{"amenity":"recycling","recycling:clothes":"yes","recycling_type":"container"}},"type":"Feature"},
	{"geometry":{"coordinates":[8.34946,49.522834],"type":"Point"},"properties":{"osm_id":"3804694412","tag":{"amenity":"waste_basket","layer":"1"}},"type":"Feature"},
	{"geometry":{"coordinates":[8.349483,49.522479],"type":"Point"},"properties":{"osm_id":"3804700549","tag":{"amenity":"waste_basket"}},"type":"Feature"},
	{"geometry":{"coordinates":[8.349497,49.522957],"type":"Point"},"properties":{"osm_id":"3804701942","tag":{"amenity":"waste_basket"}},"type":"Feature"},
	{"geometry":{"coordinates":[8.334909,49.540923],"type":"Point"},"properties":{"osm_id":"4159591883","tag":{"amenity":"waste_basket"}},"type":"Feature"},
	{"geometry":{"coordinates":[8.336922,49.540685],"type":"Point"},"properties":{"osm_id":"4159591885","tag":{"amenity":"waste_basket"}},"type":"Feature"},
	{"geometry":{"coordinates":[8.337265,49.540645],"type":"Point"},"properties":{"osm_id":"4159591886","tag":{"amenity":"waste_basket"}},"type":"Feature"},
	{"geometry":{"coordinates":[8.338662,49.531486],"type":"Point"},"properties":{"osm_id":"4753685371","tag":{"amenity":"recycling","recycling:cans":"no","recycling:clothes":"yes","recycling:glass":"no","recycling:glass_bottles":"no","recycling:paper":"no","recycling:plastic":"no","recycling_type":"container"}},"type":"Feature"},
	{"geometry":{"coordinates":[8.338648,49.531519],"type":"Point"},"properties":{"osm_id":"4753685372","tag":{"amenity":"recycling","recycling:cans":"no","recycling:clothes":"no","recycling:glass":"yes","recycling:glass_bottles":"yes","recycling:paper":"no","recycling:plastic":"no","recycling_type":"container"}},"type":"Feature"},
	{"geometry":{"coordinates":[8.332331,49.515095],"type":"Point"},"properties":{"osm_id":"5876048947","tag":{"amenity":"waste_basket"}},"type":"Feature"},
	{"geometry":{"coordinates":[8.334432,49.515608],"type":"Point"},"properties":{"osm_id":"5876064827","tag":{"amenity":"waste_basket"}},"type":"Feature"},
	{"geometry":{"coordinates":[8.338599,49.516527],"type":"Point"},"properties":{"osm_id":"5876155443","tag":{"amenity":"waste_basket"}},"type":"Feature"},
	{"geometry":{"coordinates":[8.336428,49.517053],"type":"Point"},"properties":{"osm_id":"5877813402","tag":{"amenity":"recycling","recycling:clothes":"yes","recycling:glass":"yes","recycling_type":"container"}},"type":"Feature"},
	{"geometry":{"coordinates":[8.333139,49.513982],"type":"Point"},"properties":{"osm_id":"5877813415","tag":{"amenity":"recycling","recycling:glass":"yes","recycling_type":"container"}},"type":"Feature"},
	{"geometry":{"coordinates":[8.33273,49.511144],"type":"Point"},"properties":{"osm_id":"6110865944","tag":{"amenity":"waste_basket","waste":"dog_excrement"}},"type":"Feature"},
	{"geometry":{"coordinates":[8.33274,49.511263],"type":"Point"},"properties":{"osm_id":"6110865946","tag":{"amenity":"waste_basket"}},"type":"Feature"},
	{"geometry":{"coordinates":[8.334166,49.51136],"type":"Point"},"properties":{"osm_id":"6110919253","tag":{"amenity":"waste_basket"}},"type":"Feature"},
	{"geometry":{"coordinates":[8.333503,49.509422],"type":"Point"},"properties":{"osm_id":"6110919254","tag":{"amenity":"waste_basket","waste":"dog_excrement"}},"type":"Feature"},
	{"geometry":{"coordinates":[8.332265,49.508756],"type":"Point"},"properties":{"osm_id":"6110919264","tag":{"amenity":"waste_basket"}},"type":"Feature"},
	{"geometry":{"coordinates":[8.332027,49.508674],"type":"Point"},"properties":{"osm_id":"6110919272","tag":{"amenity":"waste_basket","waste":"dog_excrement"}},"type":"Feature"},
	{"geometry":{"coordinates":[8.332348,49.50858],"type":"Point"},"properties":{"osm_id":"6110919275","tag":{"amenity":"waste_basket"}},"type":"Feature"},
	{"geometry":{"coordinates":[8.32479,49.50287],"type":"Point"},"properties":{"osm_id":"6368196368","tag":{"amenity":"recycling","recycling:clothes":"yes","recycling:glass_bottles":"yes","recycling_type":"container"}},"type":"Feature"},
	{"geometry":{"coordinates":[8.325003,49.502759],"type":"Point"},"properties":{"osm_id":"6368200507","tag":{"amenity":"waste_basket","waste":"dog_excrement"}},"type":"Feature"},
	{"geometry":{"coordinates":[8.319994,49.514437],"type":"Point"},"properties":{"osm_id":"6415535978","tag":{"amenity":"waste_basket"}},"type":"Feature"},
	{"geometry":{"coordinates":[8.329509,49.512837],"type":"Point"},"properties":{"osm_id":"6417298885","tag":{"amenity":"recycling","recycling:clothes":"yes","recycling:glass":"yes","recycling_type":"container"}},"type":"Feature"},
	{"geometry":{"coordinates":[8.329448,49.51274],"type":"Point"},"properties":{"osm_id":"6417298886","tag":{"amenity":"waste_basket"}},"type":"Feature"},
	{"geometry":{"coordinates":[8.329767,49.513025],"type":"Point"},"properties":{"osm_id":"6433585023","tag":{"amenity":"waste_basket"}},"type":"Feature"},
	{"geometry":{"coordinates":[8.330769,49.513117],"type":"Point"},"properties":{"osm_id":"6433585026","tag":{"amenity":"waste_basket"}},"type":"Feature"},
	{"geometry":{"coordinates":[8.329141,49.512916],"type":"Point"},"properties":{"osm_id":"6433585027","tag":{"amenity":"waste_basket","waste":"dog_excrement"}},"type":"Feature"},
	{"geometry":{"coordinates":[8.330543,49.512963],"type":"Point"},"properties":{"osm_id":"6433585028","tag":{"amenity":"waste_basket"}},"type":"Feature"},
	{"geometry":{"coordinates":[8.33068,49.514705],"type":"Point"},"properties":{"osm_id":"6433587051","tag":{"amenity":"waste_basket"}},"type":"Feature"}
]
}
