{
"type": "FeatureCollection",
"features": [
	{"geometry":{"coordinates":[8.341723,49.41036],"type":"Point"},"properties":{"osm_id":"1327318783","tag":{"amenity":"waste_disposal","location":"overground"}},"type":"Feature"},
	{"geometry":{"coordinates":[8.348919,49.419316],"type":"Point"},"properties":{"name":"Wertstoffhof","osm_id":"1538073171","tag":{"addr:city":"Mutterstadt","addr:country":"DE","addr:postcode":"67112","addr:street":"In der Schlicht","amenity":"recycling"}},"type":"Feature"},
	{"geometry":{"coordinates":[8.319024,49.428393],"type":"Point"},"properties":{"osm_id":"6747052310","tag":{"amenity":"waste_basket","colour":"gray","material":"steel"}},"type":"Feature"},
	{"geometry":{"coordinates":[8.319339,49.428235],"type":"Point"},"properties":{"osm_id":"6747052313","tag":{"amenity":"waste_basket","colour":"gray","material":"steel"}},"type":"Feature"},
	{"geometry":{"coordinates":[8.318707,49.424535],"type":"Point"},"properties":{"osm_id":"8267149789","tag":{"amenity":"waste_basket","waste":"trash;cigarettes"}},"type":"Feature"},
	{"geometry":{"coordinates":[8.319748,49.424552],"type":"Point"},"properties":{"osm_id":"8267149790","tag":{"amenity":"waste_basket","waste":"trash"}},"type":"Feature"},
	{"geometry":{"coordinates":[8.319417,49.42441],"type":"Point"},"properties":{"osm_id":"8267149791","tag":{"amenity":"waste_basket","waste":"trash"}},"type":"Feature"},
	{"geometry":{"coordinates":[8.318931,49.424575],"type":"Point"},"properties":{"osm_id":"8267149793","tag":{"amenity":"waste_basket","waste":"trash"}},"type":"Feature"},
	{"geometry":{"coordinates":[8.318758,49.424832],"type":"Point"},"properties":{"osm_id":"8267149794","tag":{"amenity":"waste_basket","waste":"trash"}},"type":"Feature"},
	{"geometry":{"coordinates":[8.319885,49.424644],"type":"Point"},"properties":{"osm_id":"8267149795","tag":{"amenity":"waste_basket","waste":"trash"}},"type":"Feature"},
	{"geometry":{"coordinates":[8.31907,49.424693],"type":"Point"},"properties":{"osm_id":"8267149797","tag":{"amenity":"waste_basket","waste":"trash"}},"type":"Feature"}
]
}
