{
"type": "FeatureCollection",
"features": [
	{"geometry":{"coordinates":[8.304359,49.3594],"type":"Point"},"properties":{"osm_id":"434479777","tag":{"amenity":"recycling","recycling:clothes":"yes","recycling_type":"container"}},"type":"Feature"},
	{"geometry":{"coordinates":[8.289358,49.334735],"type":"Point"},"properties":{"osm_id":"1309593264","tag":{"amenity":"waste_basket"}},"type":"Feature"},
	{"geometry":{"coordinates":[8.279282,49.326093],"type":"Point"},"properties":{"osm_id":"1695390799","tag":{"amenity":"waste_basket"}},"type":"Feature"},
	{"geometry":{"coordinates":[8.267893,49.336159],"type":"Point"},"properties":{"osm_id":"2468507994","tag":{"amenity":"waste_basket"}},"type":"Feature"},
	{"geometry":{"coordinates":[8.265127,49.341479],"type":"Point"},"properties":{"osm_id":"2468508013","tag":{"amenity":"waste_basket"}},"type":"Feature"},
	{"geometry":{"coordinates":[8.270986,49.342132],"type":"Point"},"properties":{"osm_id":"2468508016","tag":{"amenity":"waste_basket"}},"type":"Feature"},
	{"geometry":{"coordinates":[8.265411,49.344058],"type":"Point"},"properties":{"osm_id":"2468508102","tag":{"amenity":"waste_basket"}},"type":"Feature"},
	{"geometry":{"coordinates":[8.26392,49.344124],"type":"Point"},"properties":{"osm_id":"2468508105","tag":{"amenity":"waste_basket"}},"type":"Feature"},
	{"geometry":{"coordinates":[8.266796,49.344525],"type":"Point"},"properties":{"osm_id":"2468508107","tag":{"amenity":"waste_basket"}},"type":"Feature"},
	{"geometry":{"coordinates":[8.268187,49.344637],"type":"Point"},"properties":{"osm_id":"2468508109","tag":{"amenity":"waste_basket"}},"type":"Feature"},
	{"geometry":{"coordinates":[8.269333,49.344673],"type":"Point"},"properties":{"osm_id":"2468508111","tag":{"amenity":"waste_basket"}},"type":"Feature"},
	{"geometry":{"coordinates":[8.280481,49.349627],"type":"Point"},"properties":{"name":"Gr\u00c3\u00bcnschnittsammelstelle Ha\u00c3\u009floch","osm_id":"3936002292","tag":{"addr:city":"Ha\u00c3\u009floch","addr:country":"DE","addr:housenumber":"12","addr:postcode":"67454","addr:street":"Wei\u00c3\u009fdornweg","amenity":"recycling","opening_hours":"Mar-Nov: Tu,Fr 15:00-18:00; Sa 09:00-12:00; PH off; Dec-Feb: Sa 09:00-12:00; PH off","recycling:green_waste":"yes"}},"type":"Feature"},
	{"geometry":{"coordinates":[8.308889,49.35668],"type":"Point"},"properties":{"osm_id":"3959660574","tag":{"amenity":"waste_basket"}},"type":"Feature"},
	{"geometry":{"coordinates":[8.27205,49.339693],"type":"Point"},"properties":{"osm_id":"4087752222","tag":{"amenity":"waste_basket"}},"type":"Feature"}
]
}
