{
"type": "FeatureCollection",
"features": [
	{"geometry":{"coordinates":[8.333282,49.234184],"type":"Point"},"properties":{"osm_id":"648994465","tag":{"amenity":"waste_basket","wpt_description":"Lat.=49.2341850, Long.=8.3332833, Alt.=112m, Speed=1Km/h, Course=90deg."}},"type":"Feature"},
	{"geometry":{"coordinates":[8.273689,49.234419],"type":"Point"},"properties":{"osm_id":"1505761966","tag":{"addr:city":"Lustadt","addr:housenumber":"130","addr:postcode":"67363","addr:street":"Waldstra\u00c3\u009fe","amenity":"recycling"}},"type":"Feature"},
	{"geometry":{"coordinates":[8.26701,49.242768],"type":"Point"},"properties":{"osm_id":"2340231806","tag":{"amenity":"waste_basket"}},"type":"Feature"},
	{"geometry":{"coordinates":[8.321786,49.244153],"type":"Point"},"properties":{"osm_id":"4577207169","tag":{"amenity":"waste_basket"}},"type":"Feature"},
	{"geometry":{"coordinates":[8.266772,49.242708],"type":"Point"},"properties":{"osm_id":"4933924729","tag":{"amenity":"waste_basket"}},"type":"Feature"},
	{"geometry":{"coordinates":[8.322183,49.242752],"type":"Point"},"properties":{"osm_id":"5450683079","tag":{"amenity":"waste_basket"}},"type":"Feature"},
	{"geometry":{"coordinates":[8.32171,49.244676],"type":"Point"},"properties":{"osm_id":"5450683082","tag":{"amenity":"waste_basket"}},"type":"Feature"},
	{"geometry":{"coordinates":[8.323926,49.24805],"type":"Point"},"properties":{"osm_id":"5450683103","tag":{"amenity":"waste_basket"}},"type":"Feature"},
	{"geometry":{"coordinates":[8.32394,49.249088],"type":"Point"},"properties":{"osm_id":"5450683108","tag":{"amenity":"waste_basket"}},"type":"Feature"},
	{"geometry":{"coordinates":[8.32309,49.247884],"type":"Point"},"properties":{"osm_id":"5450690531","tag":{"amenity":"waste_basket"}},"type":"Feature"},
	{"geometry":{"coordinates":[8.327304,49.245414],"type":"Point"},"properties":{"osm_id":"7293215333","tag":{"amenity":"waste_basket"}},"type":"Feature"},
	{"geometry":{"coordinates":[8.338201,49.247092],"type":"Point"},"properties":{"osm_id":"9059523404","tag":{"amenity":"waste_basket"}},"type":"Feature"}
]
}
