{
"type": "FeatureCollection",
"features": [
	{"geometry":{"coordinates":[8.336946,49.053166],"type":"Point"},"properties":{"osm_id":"29019812","tag":{"access":"private","amenity":"recycling"}},"type":"Feature"},
	{"geometry":{"coordinates":[8.337382,49.051],"type":"Point"},"properties":{"barrier":"gate","osm_id":"29019814"},"type":"Feature"},
	{"geometry":{"coordinates":[8.289796,49.038908],"type":"Point"},"properties":{"osm_id":"29862965","tag":{"amenity":"recycling"}},"type":"Feature"},
	{"geometry":{"coordinates":[8.335221,49.039349],"type":"Point"},"properties":{"osm_id":"1622408896","tag":{"amenity":"recycling","recycling:paper":"yes","recycling_type":"container"}},"type":"Feature"},
	{"geometry":{"coordinates":[8.271261,49.085134],"type":"Point"},"properties":{"osm_id":"2234405222","tag":{"amenity":"waste_basket","excrement_bags":"yes","fee":"yes","operator":"Ortsgemeinde Jockgrim","vending":"excrement_bags"}},"type":"Feature"},
	{"geometry":{"coordinates":[8.265344,49.085899],"type":"Point"},"properties":{"osm_id":"2234405227","tag":{"amenity":"waste_basket"}},"type":"Feature"},
	{"geometry":{"coordinates":[8.270231,49.086284],"type":"Point"},"properties":{"osm_id":"2234405228","tag":{"amenity":"waste_basket"}},"type":"Feature"},
	{"geometry":{"coordinates":[8.284192,49.086406],"type":"Point"},"properties":{"osm_id":"2234405231","tag":{"amenity":"waste_basket"}},"type":"Feature"},
	{"geometry":{"coordinates":[8.264017,49.086887],"type":"Point"},"properties":{"osm_id":"2234405233","tag":{"amenity":"waste_basket"}},"type":"Feature"},
	{"geometry":{"coordinates":[8.287844,49.087675],"type":"Point"},"properties":{"osm_id":"2234405260","tag":{"amenity":"waste_basket"}},"type":"Feature"},
	{"geometry":{"coordinates":[8.269483,49.088822],"type":"Point"},"properties":{"osm_id":"2234405265","tag":{"amenity":"waste_basket"}},"type":"Feature"},
	{"geometry":{"coordinates":[8.266739,49.088988],"type":"Point"},"properties":{"osm_id":"2234405267","tag":{"amenity":"waste_basket"}},"type":"Feature"},
	{"geometry":{"coordinates":[8.274814,49.089206],"type":"Point"},"properties":{"osm_id":"2234405268","tag":{"amenity":"waste_basket","excrement_bags":"yes","fee":"yes","operator":"Ortsgemeinde Jockgrim","vending":"excrement_bags"}},"type":"Feature"},
	{"geometry":{"coordinates":[8.270081,49.089387],"type":"Point"},"properties":{"osm_id":"2234405272","tag":{"amenity":"waste_basket"}},"type":"Feature"},
	{"geometry":{"coordinates":[8.264371,49.089838],"type":"Point"},"properties":{"osm_id":"2234405275","tag":{"amenity":"waste_basket"}},"type":"Feature"},
	{"geometry":{"coordinates":[8.261857,49.089921],"type":"Point"},"properties":{"osm_id":"2234405277","tag":{"amenity":"waste_basket"}},"type":"Feature"},
	{"geometry":{"coordinates":[8.275551,49.090018],"type":"Point"},"properties":{"osm_id":"2234405278","tag":{"amenity":"waste_basket"}},"type":"Feature"},
	{"geometry":{"coordinates":[8.262772,49.090065],"type":"Point"},"properties":{"osm_id":"2234405280","tag":{"amenity":"waste_basket"}},"type":"Feature"},
	{"geometry":{"coordinates":[8.271094,49.090427],"type":"Point"},"properties":{"osm_id":"2234405285","tag":{"amenity":"waste_basket"}},"type":"Feature"},
	{"geometry":{"coordinates":[8.284426,49.09113],"type":"Point"},"properties":{"osm_id":"2234405286","tag":{"amenity":"waste_basket","excrement_bags":"yes","fee":"no","operator":"Ortsgemeinde Jockgrim","vending":"excrement_bags"}},"type":"Feature"},
	{"geometry":{"coordinates":[8.279902,49.09154],"type":"Point"},"properties":{"osm_id":"2234405288","tag":{"amenity":"waste_basket"}},"type":"Feature"},
	{"geometry":{"coordinates":[8.27623,49.091591],"type":"Point"},"properties":{"osm_id":"2234405289","tag":{"amenity":"waste_basket"}},"type":"Feature"},
	{"geometry":{"coordinates":[8.273956,49.091658],"type":"Point"},"properties":{"osm_id":"2234405290","tag":{"amenity":"waste_basket"}},"type":"Feature"},
	{"geometry":{"coordinates":[8.272424,49.091881],"type":"Point"},"properties":{"osm_id":"2234405291","tag":{"amenity":"waste_basket"}},"type":"Feature"},
	{"geometry":{"coordinates":[8.274683,49.094642],"type":"Point"},"properties":{"osm_id":"2234405292","tag":{"amenity":"waste_basket"}},"type":"Feature"},
	{"geometry":{"coordinates":[8.26919,49.078767],"type":"Point"},"properties":{"osm_id":"2603414935","tag":{"amenity":"waste_basket"}},"type":"Feature"},
	{"geometry":{"coordinates":[8.269371,49.079085],"type":"Point"},"properties":{"osm_id":"2603426146","tag":{"amenity":"waste_basket"}},"type":"Feature"},
	{"geometry":{"coordinates":[8.262047,49.043814],"type":"Point"},"properties":{"osm_id":"2824724024","tag":{"amenity":"waste_basket"}},"type":"Feature"},
	{"geometry":{"coordinates":[8.337396,49.073633],"type":"Point"},"properties":{"osm_id":"3464918740","tag":{"amenity":"waste_disposal"}},"type":"Feature"},
	{"geometry":{"coordinates":[8.277081,49.078422],"type":"Point"},"properties":{"osm_id":"4977879231","tag":{"amenity":"waste_basket"}},"type":"Feature"},
	{"geometry":{"coordinates":[8.346692,49.038867],"type":"Point"},"properties":{"osm_id":"5555231586","tag":{"amenity":"recycling","capacity":"6400l","capacity:brown":"1600l","capacity:green":"1600l","capacity:white":"3200l","check_date":"2018-04","location":"overground","manufacturer":"SSI Sch\u00c3\u00a4fer AG","model":"System Grumbach","opening_hours":"Mo-Sa 07:00-19:00;Su,PH off","operator":"Knettenbrech + Gurdulic Rhein-Neckar GmbH","recycling:glass_bottles":"yes","recycling:glass_bottles:colour":"white;green;brown","recycling:others":"no","recycling_type":"container","start_date":"2018-01"}},"type":"Feature"},
	{"geometry":{"coordinates":[8.346669,49.038856],"type":"Point"},"properties":{"osm_id":"5555231587","tag":{"amenity":"recycling","capacity":"3000l","check_date":"2018-04","location":"overground","manufacturer":"Kinshofer Technik","opening_hours":"24/7","operator":"Stadt Karlsruhe","operator:type":"public","recycling:clothes":"yes","recycling:others":"no","recycling:shoes":"yes","recycling_type":"container"}},"type":"Feature"},
	{"geometry":{"coordinates":[8.270724,49.055565],"type":"Point"},"properties":{"osm_id":"7707608247","tag":{"amenity":"waste_basket","waste":"trash"}},"type":"Feature"}
]
}
