{
"type": "FeatureCollection",
"features": [
	{"geometry":{"coordinates":[8.333618,49.014167],"type":"Point"},"properties":{"barrier":"gate","osm_id":"24955614","tag":{"access":"no"}},"type":"Feature"},
	{"geometry":{"coordinates":[8.338732,48.997993],"type":"Point"},"properties":{"osm_id":"25642426","tag":{"amenity":"recycling","location":"overground","recycling:batteries":"yes","recycling:glass_bottles":"yes","recycling_type":"container"}},"type":"Feature"},
	{"geometry":{"coordinates":[8.349591,48.999318],"type":"Point"},"properties":{"osm_id":"25642536","tag":{"amenity":"recycling","recycling_type":"container"}},"type":"Feature"},
	{"geometry":{"coordinates":[8.336604,48.993947],"type":"Point"},"properties":{"osm_id":"25642635","tag":{"amenity":"recycling","location":"overground","recycling_type":"container"}},"type":"Feature"},
	{"geometry":{"coordinates":[8.333068,48.995592],"type":"Point"},"properties":{"osm_id":"25642704","tag":{"amenity":"recycling"}},"type":"Feature"},
	{"geometry":{"coordinates":[8.341738,48.998354],"type":"Point"},"properties":{"osm_id":"25642708","tag":{"amenity":"recycling","location":"overground","recycling:batteries":"yes","recycling:clothes":"yes","recycling:glass_bottles":"yes","recycling_type":"container"}},"type":"Feature"},
	{"geometry":{"coordinates":[8.33617,48.996955],"type":"Point"},"properties":{"osm_id":"25642799","tag":{"amenity":"recycling"}},"type":"Feature"},
	{"geometry":{"coordinates":[8.348372,48.994019],"type":"Point"},"properties":{"osm_id":"25675419","tag":{"amenity":"recycling"}},"type":"Feature"},
	{"geometry":{"coordinates":[8.333748,49.000399],"type":"Point"},"properties":{"osm_id":"25675423","tag":{"amenity":"recycling","location":"overground","recycling:clothes":"yes","recycling:glass_bottles":"yes","recycling_type":"container"}},"type":"Feature"},
	{"geometry":{"coordinates":[8.326642,49.006012],"type":"Point"},"properties":{"osm_id":"25675428","tag":{"amenity":"recycling"}},"type":"Feature"},
	{"geometry":{"coordinates":[8.326703,49.006227],"type":"Point"},"properties":{"osm_id":"25675430","tag":{"amenity":"recycling"}},"type":"Feature"},
	{"geometry":{"coordinates":[8.319724,49.006102],"type":"Point"},"properties":{"osm_id":"25675440","tag":{"amenity":"recycling","location":"overground","recycling:batteries":"yes","recycling:clothes":"yes","recycling_type":"container"}},"type":"Feature"},
	{"geometry":{"coordinates":[8.33826,49.002475],"type":"Point"},"properties":{"osm_id":"26005514","tag":{"amenity":"recycling","recycling:batteries":"yes","recycling:clothes":"yes","recycling:glass_bottles":"yes","recycling_type":"container"}},"type":"Feature"},
	{"geometry":{"coordinates":[8.334363,49.031397],"type":"Point"},"properties":{"osm_id":"28404323","tag":{"amenity":"recycling","location":"overground","recycling_type":"container"}},"type":"Feature"},
	{"geometry":{"coordinates":[8.316487,48.98308],"type":"Point"},"properties":{"osm_id":"29014353","tag":{"amenity":"recycling","location":"overground","recycling_type":"container"}},"type":"Feature"},
	{"geometry":{"coordinates":[8.278739,49.033851],"type":"Point"},"properties":{"osm_id":"29542813","tag":{"amenity":"recycling"}},"type":"Feature"},
	{"geometry":{"coordinates":[8.34401,48.994003],"type":"Point"},"properties":{"osm_id":"31154392","tag":{"amenity":"recycling","location":"overground","recycling:glass_bottles":"yes","recycling_type":"container"}},"type":"Feature"},
	{"geometry":{"coordinates":[8.342239,48.995708],"type":"Point"},"properties":{"osm_id":"31156462","tag":{"amenity":"recycling","location":"overground","recycling:batteries":"yes","recycling:clothes":"yes","recycling:glass_bottles":"yes","recycling_type":"container"}},"type":"Feature"},
	{"geometry":{"coordinates":[8.325677,49.008015],"type":"Point"},"properties":{"osm_id":"32920938","tag":{"amenity":"recycling","check_date":"2019-09","location":"overground","opening_hours":"24/7","operator":"Stadt Karlsruhe","recycling:batteries":"yes","recycling:others":"no","recycling_type":"container"}},"type":"Feature"},
	{"geometry":{"coordinates":[8.323938,48.982612],"type":"Point"},"properties":{"osm_id":"266900564","tag":{"amenity":"recycling","location":"overground","recycling:batteries":"yes","recycling_type":"container"}},"type":"Feature"},
	{"geometry":{"coordinates":[8.34677,48.991088],"type":"Point"},"properties":{"osm_id":"278838984","tag":{"amenity":"waste_basket"}},"type":"Feature"},
	{"geometry":{"coordinates":[8.345925,48.990669],"type":"Point"},"properties":{"osm_id":"281114232","tag":{"amenity":"waste_basket"}},"type":"Feature"},
	{"geometry":{"coordinates":[8.302468,48.983864],"type":"Point"},"properties":{"osm_id":"281116613","tag":{"amenity":"waste_basket","waste":"trash"}},"type":"Feature"},
	{"geometry":{"coordinates":[8.287566,49.033047],"type":"Point"},"properties":{"osm_id":"281117522","tag":{"amenity":"waste_basket"}},"type":"Feature"},
	{"geometry":{"coordinates":[8.287478,49.032829],"type":"Point"},"properties":{"osm_id":"281117523","tag":{"amenity":"waste_basket"}},"type":"Feature"},
	{"geometry":{"coordinates":[8.287571,49.032729],"type":"Point"},"properties":{"osm_id":"281117524","tag":{"amenity":"waste_basket"}},"type":"Feature"},
	{"geometry":{"coordinates":[8.287826,49.032791],"type":"Point"},"properties":{"osm_id":"281117525","tag":{"amenity":"waste_basket"}},"type":"Feature"},
	{"geometry":{"coordinates":[8.262767,48.986371],"type":"Point"},"properties":{"osm_id":"303860128","tag":{"amenity":"waste_basket"}},"type":"Feature"},
	{"geometry":{"coordinates":[8.288488,49.031383],"type":"Point"},"properties":{"osm_id":"388384121","tag":{"amenity":"waste_basket"}},"type":"Feature"},
	{"geometry":{"coordinates":[8.288607,49.031307],"type":"Point"},"properties":{"osm_id":"388384122","tag":{"amenity":"waste_basket"}},"type":"Feature"},
	{"geometry":{"coordinates":[8.336924,49.036875],"type":"Point"},"properties":{"osm_id":"669923521","tag":{"amenity":"recycling","check_date":"2018-04","operator":"Stadt Karlsruhe","operator:type":"public","recycling:batteries":"yes","recycling:others":"no","recycling_type":"container"}},"type":"Feature"},
	{"geometry":{"coordinates":[8.338306,49.033889],"type":"Point"},"properties":{"osm_id":"672630687","tag":{"amenity":"recycling","capacity":"9600l","capacity:brown":"3200l","capacity:green":"3200l","capacity:white":"3200l","check_date":"2018-04","location":"overground","manufacturer":"SSI Sch\u00c3\u00a4fer AG","model":"System Grumbach","opening_hours":"Mo-Sa 07:00-19:00;Su,PH off","operator":"Knettenbrech + Gurdulic Rhein-Neckar GmbH","recycling:glass_bottles":"yes","recycling:glass_bottles:colour":"white;green;brown","recycling:others":"no","recycling_type":"container","start_date":"2018-01"}},"type":"Feature"},
	{"geometry":{"coordinates":[8.340658,49.030234],"type":"Point"},"properties":{"osm_id":"817918954","tag":{"amenity":"recycling","location":"overground","recycling_type":"container"}},"type":"Feature"},
	{"geometry":{"coordinates":[8.340615,49.018399],"type":"Point"},"properties":{"barrier":"gate","osm_id":"1048867121"},"type":"Feature"},
	{"geometry":{"coordinates":[8.340792,49.018398],"type":"Point"},"properties":{"barrier":"gate","osm_id":"1048867149"},"type":"Feature"},
	{"geometry":{"coordinates":[8.345233,49.025188],"type":"Point"},"properties":{"osm_id":"1477856725","tag":{"amenity":"recycling","recycling:clothes":"yes","recycling_type":"container"}},"type":"Feature"},
	{"geometry":{"coordinates":[8.345227,49.025345],"type":"Point"},"properties":{"osm_id":"1477856727","tag":{"amenity":"recycling","recycling:glass":"yes","recycling_type":"container"}},"type":"Feature"},
	{"geometry":{"coordinates":[8.343204,49.029482],"type":"Point"},"properties":{"osm_id":"2327775422","tag":{"amenity":"recycling","recycling:clothes":"yes","recycling:glass_bottles":"yes","recycling_type":"container"}},"type":"Feature"},
	{"geometry":{"coordinates":[8.318734,49.001855],"type":"Point"},"properties":{"osm_id":"2410824748","tag":{"amenity":"waste_basket"}},"type":"Feature"},
	{"geometry":{"coordinates":[8.348189,49.012713],"type":"Point"},"properties":{"osm_id":"2609968852","tag":{"amenity":"recycling","recycling:glass":"yes","recycling_type":"container","wheelchair":"yes"}},"type":"Feature"},
	{"geometry":{"coordinates":[8.334071,49.009187],"type":"Point"},"properties":{"osm_id":"2937292563","tag":{"amenity":"recycling","capacity":"3200l","capacity:brown":"800l","capacity:green":"800l","capacity:white":"1600l","check_date":"2019-07","description":"1 Container f\u00c3\u00bcr Wei\u00c3\u009f-, Braun- und Gr\u00c3\u00bcnglas","location":"overground","manufacturer":"SSI Sch\u00c3\u00a4fer AG","model":"System Grumbach","opening_hours":"Mo-Sa 07:00-19:00;Su,PH off","operator":"Knettenbrech + Gurdulic Rhein-Neckar GmbH","recycling:glass_bottles":"yes","recycling:glass_bottles:colour":"white;green;brown","recycling:others":"no","recycling_type":"container","start_date":"2018-01"}},"type":"Feature"},
	{"geometry":{"coordinates":[8.325529,49.007961],"type":"Point"},"properties":{"barrier":"gate","osm_id":"2937489661","tag":{"access":"private"}},"type":"Feature"},
	{"geometry":{"coordinates":[8.325616,49.007976],"type":"Point"},"properties":{"osm_id":"2937489664","tag":{"amenity":"recycling","capacity":"9600l","capacity:brown":"3200l","capacity:green":"3200l","capacity:white":"3200l","check_date":"2019-09","description":"je 1 Container f\u00c3\u00bcr Wei\u00c3\u009f-, Braun- und Gr\u00c3\u00bcnglas","location":"overground","manufacturer":"SSI Sch\u00c3\u00a4fer AG","model":"System Grumbach","opening_hours":"Mo-Sa 07:00-19:00;Su,PH off","operator":"Knettenbrech + Gurdulic Rhein-Neckar GmbH","recycling:glass_bottles":"yes","recycling:glass_bottles:colour":"white;green;brown","recycling:others":"no","recycling_type":"container","start_date":"2018-01"}},"type":"Feature"},
	{"geometry":{"coordinates":[8.317966,48.980446],"type":"Point"},"properties":{"osm_id":"3687333158","tag":{"amenity":"recycling","recycling:clothes":"yes","recycling:shoes":"yes","recycling_type":"container"}},"type":"Feature"},
	{"geometry":{"coordinates":[8.33812,49.023201],"type":"Point"},"properties":{"osm_id":"3703661189","tag":{"amenity":"waste_basket"}},"type":"Feature"},
	{"geometry":{"coordinates":[8.340547,49.022743],"type":"Point"},"properties":{"osm_id":"3703668078","tag":{"amenity":"waste_basket"}},"type":"Feature"},
	{"geometry":{"coordinates":[8.33902,49.023271],"type":"Point"},"properties":{"osm_id":"3703668725","tag":{"amenity":"waste_basket"}},"type":"Feature"},
	{"geometry":{"coordinates":[8.343472,49.021274],"type":"Point"},"properties":{"osm_id":"3703670696","tag":{"amenity":"waste_basket"}},"type":"Feature"},
	{"geometry":{"coordinates":[8.341732,49.022225],"type":"Point"},"properties":{"osm_id":"3703670841","tag":{"amenity":"waste_basket"}},"type":"Feature"},
	{"geometry":{"coordinates":[8.345436,49.02031],"type":"Point"},"properties":{"osm_id":"3703673588","tag":{"amenity":"waste_basket"}},"type":"Feature"},
	{"geometry":{"coordinates":[8.346357,49.018643],"type":"Point"},"properties":{"osm_id":"3703673626","tag":{"amenity":"waste_basket"}},"type":"Feature"},
	{"geometry":{"coordinates":[8.346912,49.01672],"type":"Point"},"properties":{"osm_id":"3703674038","tag":{"amenity":"waste_basket"}},"type":"Feature"},
	{"geometry":{"coordinates":[8.298495,49.022788],"type":"Point"},"properties":{"osm_id":"3997130918","tag":{"amenity":"waste_basket"}},"type":"Feature"},
	{"geometry":{"coordinates":[8.287496,49.026933],"type":"Point"},"properties":{"osm_id":"3997136535","tag":{"amenity":"waste_basket"}},"type":"Feature"},
	{"geometry":{"coordinates":[8.284573,49.033067],"type":"Point"},"properties":{"osm_id":"3997411808","tag":{"amenity":"waste_basket"}},"type":"Feature"},
	{"geometry":{"coordinates":[8.342444,49.002221],"type":"Point"},"properties":{"osm_id":"4413213040","tag":{"amenity":"recycling","capacity":"1","lastcheck":"2019-04-14","operator":"Stadt Karlsruhe Amt f\u00c3\u00bcr Abfallwirtschaft","recycling:batteries":"yes","recycling:clothes":"yes","recycling_type":"container"}},"type":"Feature"},
	{"geometry":{"coordinates":[8.305323,49.016877],"type":"Point"},"properties":{"osm_id":"4425652674","tag":{"access":"private","amenity":"waste_disposal","description":"M\u00c3\u00bclltonnen f\u00c3\u00bcr Schiffer","seamark:small_craft_facility:category":"refuse_bin","seamark:type":"small_craft_facility","waste":"trash;recycling"}},"type":"Feature"},
	{"geometry":{"coordinates":[8.348484,49.036742],"type":"Point"},"properties":{"osm_id":"4664986779","tag":{"amenity":"waste_basket"}},"type":"Feature"},
	{"geometry":{"coordinates":[8.347742,49.003497],"type":"Point"},"properties":{"osm_id":"4876589058","tag":{"amenity":"waste_basket"}},"type":"Feature"},
	{"geometry":{"coordinates":[8.340834,49.027023],"type":"Point"},"properties":{"osm_id":"5200870281","tag":{"amenity":"waste_basket"}},"type":"Feature"},
	{"geometry":{"coordinates":[8.338429,49.004334],"type":"Point"},"properties":{"osm_id":"5202540621","tag":{"amenity":"recycling","operator":"Malteser Hilfsdienst e.V.","recycling:clothes":"yes","recycling:shoes":"yes","recycling_type":"container"}},"type":"Feature"},
	{"geometry":{"coordinates":[8.332865,49.030755],"type":"Point"},"properties":{"osm_id":"5387416180","tag":{"amenity":"waste_basket"}},"type":"Feature"},
	{"geometry":{"coordinates":[8.333861,49.000152],"type":"Point"},"properties":{"osm_id":"5419104177","tag":{"amenity":"recycling","location":"overground","recycling:batteries":"yes","recycling_type":"container"}},"type":"Feature"},
	{"geometry":{"coordinates":[8.32283,49.005143],"type":"Point"},"properties":{"osm_id":"5437099729","tag":{"amenity":"recycling","location":"overground","recycling:clothes":"yes","recycling:glass_bottles":"yes","recycling_type":"container"}},"type":"Feature"},
	{"geometry":{"coordinates":[8.336925,49.036916],"type":"Point"},"properties":{"osm_id":"5569881893","tag":{"amenity":"recycling","capacity":"6400l","capacity:brown":"1600l","capacity:green":"1600l","capacity:white":"3200l","check_date":"2018-04","location":"overground","manufacturer":"SSI Sch\u00c3\u00a4fer AG","model":"System Grumbach","opening_hours":"Mo-Sa 07:00-19:00;Su,PH off","operator":"Knettenbrech + Gurdulic Rhein-Neckar GmbH","recycling:glass_bottles":"yes","recycling:glass_bottles:colour":"white;green;brown","recycling:others":"no","recycling_type":"container","start_date":"2018-01"}},"type":"Feature"},
	{"geometry":{"coordinates":[8.336933,49.036893],"type":"Point"},"properties":{"osm_id":"5569881894","tag":{"amenity":"recycling","capacity":"3000l","check_date":"2018-04","location":"overground","manufacturer":"Kinshofer Technik","opening_hours":"24/7","operator":"Stadt Karlsruhe","operator:type":"public","recycling:clothes":"yes","recycling:others":"no","recycling:shoes":"yes","recycling_type":"container"}},"type":"Feature"},
	{"geometry":{"coordinates":[8.338325,49.033876],"type":"Point"},"properties":{"osm_id":"5569881896","tag":{"amenity":"recycling","capacity":"6000l","check_date":"2018-04","location":"overground","manufacturer":"Kinshofer Technik","opening_hours":"24/7","operator":"Stadt Karlsruhe","operator:type":"public","recycling:clothes":"yes","recycling:others":"no","recycling:shoes":"yes","recycling_type":"container"}},"type":"Feature"},
	{"geometry":{"coordinates":[8.338345,49.033867],"type":"Point"},"properties":{"osm_id":"5569881897","tag":{"amenity":"recycling","check_date":"2018-04","operator":"Stadt Karlsruhe","operator:type":"public","recycling:batteries":"yes","recycling:others":"no","recycling_type":"container"}},"type":"Feature"},
	{"geometry":{"coordinates":[8.294117,48.999614],"type":"Point"},"properties":{"osm_id":"6284494322","tag":{"amenity":"waste_basket","waste":"trash"}},"type":"Feature"},
	{"geometry":{"coordinates":[8.29111,49.000011],"type":"Point"},"properties":{"osm_id":"6284516962","tag":{"amenity":"waste_basket","waste":"trash"}},"type":"Feature"},
	{"geometry":{"coordinates":[8.292606,49.001633],"type":"Point"},"properties":{"osm_id":"6284516964","tag":{"amenity":"waste_basket","waste":"trash"}},"type":"Feature"},
	{"geometry":{"coordinates":[8.292839,48.998823],"type":"Point"},"properties":{"osm_id":"6289211693","tag":{"amenity":"waste_basket","waste":"trash"}},"type":"Feature"},
	{"geometry":{"coordinates":[8.293507,48.998422],"type":"Point"},"properties":{"osm_id":"6289211694","tag":{"amenity":"waste_basket","waste":"trash"}},"type":"Feature"},
	{"geometry":{"coordinates":[8.294535,48.999584],"type":"Point"},"properties":{"osm_id":"6289211695","tag":{"amenity":"waste_basket","waste":"trash"}},"type":"Feature"},
	{"geometry":{"coordinates":[8.289913,48.998319],"type":"Point"},"properties":{"osm_id":"6289211699","tag":{"amenity":"waste_basket","layer":"1","waste":"trash"}},"type":"Feature"},
	{"geometry":{"coordinates":[8.294488,48.999526],"type":"Point"},"properties":{"osm_id":"6289211702","tag":{"amenity":"waste_basket","waste":"trash"}},"type":"Feature"},
	{"geometry":{"coordinates":[8.29176,48.998261],"type":"Point"},"properties":{"osm_id":"6289211707","tag":{"amenity":"waste_basket","waste":"trash"}},"type":"Feature"},
	{"geometry":{"coordinates":[8.294429,49.000109],"type":"Point"},"properties":{"osm_id":"6289211708","tag":{"amenity":"waste_basket","waste":"trash"}},"type":"Feature"},
	{"geometry":{"coordinates":[8.289849,48.998093],"type":"Point"},"properties":{"osm_id":"6289211712","tag":{"amenity":"waste_basket","waste":"trash"}},"type":"Feature"},
	{"geometry":{"coordinates":[8.293432,48.998678],"type":"Point"},"properties":{"osm_id":"6289211713","tag":{"amenity":"waste_basket","waste":"trash"}},"type":"Feature"},
	{"geometry":{"coordinates":[8.291711,48.997556],"type":"Point"},"properties":{"osm_id":"6289211714","tag":{"amenity":"waste_basket","waste":"trash"}},"type":"Feature"},
	{"geometry":{"coordinates":[8.29318,48.998486],"type":"Point"},"properties":{"osm_id":"6289211716","tag":{"amenity":"waste_basket","waste":"trash"}},"type":"Feature"},
	{"geometry":{"coordinates":[8.342459,49.002194],"type":"Point"},"properties":{"osm_id":"6404760618","tag":{"amenity":"recycling","capacity":"1","lastcheck":"2019-04-14","recycling:glass_bottles":"yes","recycling_type":"container"}},"type":"Feature"},
	{"geometry":{"coordinates":[8.343883,49.007066],"type":"Point"},"properties":{"osm_id":"6404824817","tag":{"amenity":"recycling","opening_hours":"24/7","recycling:batteries":"yes","recycling_type":"container","wheelchair":"yes"}},"type":"Feature"},
	{"geometry":{"coordinates":[8.326329,49.016294],"type":"Point"},"properties":{"barrier":"gate","osm_id":"6512229431"},"type":"Feature"},
	{"geometry":{"coordinates":[8.326329,49.016313],"type":"Point"},"properties":{"barrier":"gate","osm_id":"6512229434"},"type":"Feature"},
	{"geometry":{"coordinates":[8.309991,48.980603],"type":"Point"},"properties":{"osm_id":"6531636281","tag":{"amenity":"waste_basket","waste":"trash"}},"type":"Feature"},
	{"geometry":{"coordinates":[8.33472,49.014053],"type":"Point"},"properties":{"barrier":"gate","osm_id":"6655368571","tag":{"access":"private","gate:type":"sliding","traffic_sign:backward":"DE:267"}},"type":"Feature"},
	{"geometry":{"coordinates":[8.334477,49.014055],"type":"Point"},"properties":{"barrier":"gate","osm_id":"6655368572","tag":{"access":"private","gate:type":"sliding"}},"type":"Feature"},
	{"geometry":{"coordinates":[8.333699,49.014234],"type":"Point"},"properties":{"barrier":"gate","osm_id":"6655368575","tag":{"access":"private"}},"type":"Feature"},
	{"geometry":{"coordinates":[8.334566,49.014218],"type":"Point"},"properties":{"barrier":"gate","osm_id":"6655368581","tag":{"access":"private"}},"type":"Feature"},
	{"geometry":{"coordinates":[8.344277,49.015769],"type":"Point"},"properties":{"osm_id":"6680278114","tag":{"amenity":"recycling","capacity":"3200l","capacity:brown":"800l","capacity:green":"800l","capacity:white":"1600l","check_date":"2019-07","description":"1 Container f\u00c3\u00bcr Wei\u00c3\u009f-, Braun- und Gr\u00c3\u00bcnglas","location":"overground","manufacturer":"SSI Sch\u00c3\u00a4fer AG","model":"System Grumbach","opening_hours":"Mo-Sa 07:00-19:00;Su,PH off","operator":"Knettenbrech + Gurdulic Rhein-Neckar GmbH","recycling:glass_bottles":"yes","recycling:glass_bottles:colour":"white;green;brown","recycling:others":"no","recycling_type":"container","start_date":"2018-01"}},"type":"Feature"},
	{"geometry":{"coordinates":[8.344964,49.016031],"type":"Point"},"properties":{"osm_id":"6680278115","tag":{"amenity":"recycling","check_date":"2019-07","opening_hours":"24/7","operator":"Stadt Karlsruhe","operator:type":"public","recycling:batteries":"yes","recycling:others":"no","recycling_type":"container"}},"type":"Feature"},
	{"geometry":{"coordinates":[8.344362,49.015118],"type":"Point"},"properties":{"osm_id":"6680278116","tag":{"amenity":"waste_basket"}},"type":"Feature"},
	{"geometry":{"coordinates":[8.34429,49.005185],"type":"Point"},"properties":{"osm_id":"6804974077","tag":{"amenity":"waste_basket"}},"type":"Feature"},
	{"geometry":{"coordinates":[8.332761,49.032056],"type":"Point"},"properties":{"osm_id":"7468279580","tag":{"amenity":"waste_basket"}},"type":"Feature"},
	{"geometry":{"coordinates":[8.334498,49.031456],"type":"Point"},"properties":{"osm_id":"7468279583","tag":{"amenity":"waste_basket"}},"type":"Feature"},
	{"geometry":{"coordinates":[8.330667,49.033803],"type":"Point"},"properties":{"osm_id":"7468280090","tag":{"amenity":"waste_basket"}},"type":"Feature"}
]
}
