{
"type": "FeatureCollection",
"features": [
	{"geometry":{"coordinates":[8.286169,48.974091],"type":"Point"},"properties":{"barrier":"gate","osm_id":"26508543"},"type":"Feature"},
	{"geometry":{"coordinates":[8.304218,48.975925],"type":"Point"},"properties":{"osm_id":"26520050","tag":{"amenity":"recycling"}},"type":"Feature"},
	{"geometry":{"coordinates":[8.305335,48.97811],"type":"Point"},"properties":{"osm_id":"26520055","tag":{"amenity":"recycling","recycling:glass_bottles":"yes","recycling_type":"container"}},"type":"Feature"},
	{"geometry":{"coordinates":[8.306644,48.965814],"type":"Point"},"properties":{"osm_id":"28269616","tag":{"amenity":"recycling","recycling:clothes":"yes","recycling:glass":"yes","recycling_type":"container"}},"type":"Feature"},
	{"geometry":{"coordinates":[8.265207,48.970507],"type":"Point"},"properties":{"osm_id":"29369694","tag":{"amenity":"recycling","recycling:clothes":"yes","recycling:glass":"yes","recycling_type":"container"}},"type":"Feature"},
	{"geometry":{"coordinates":[8.267415,48.969549],"type":"Point"},"properties":{"osm_id":"151382163","tag":{"amenity":"recycling","recycling:batteries":"yes","recycling_type":"container"}},"type":"Feature"},
	{"geometry":{"coordinates":[8.266719,48.970614],"type":"Point"},"properties":{"osm_id":"151382243","tag":{"amenity":"recycling","recycling:batteries":"yes"}},"type":"Feature"},
	{"geometry":{"coordinates":[8.283562,48.963067],"type":"Point"},"properties":{"osm_id":"151426519","tag":{"amenity":"recycling","recycling:glass":"yes","recycling_type":"container"}},"type":"Feature"},
	{"geometry":{"coordinates":[8.306995,48.975931],"type":"Point"},"properties":{"osm_id":"151463242","tag":{"amenity":"recycling","recycling:batteries":"yes","recycling_type":"container"}},"type":"Feature"},
	{"geometry":{"coordinates":[8.30997,48.978033],"type":"Point"},"properties":{"osm_id":"151463257","tag":{"amenity":"recycling","recycling:clothes":"yes","recycling:shoes":"yes","recycling_type":"container"}},"type":"Feature"},
	{"geometry":{"coordinates":[8.284693,48.955559],"type":"Point"},"properties":{"osm_id":"235498262","tag":{"amenity":"recycling","recycling:clothes":"yes","recycling:glass":"yes","recycling_type":"container"}},"type":"Feature"},
	{"geometry":{"coordinates":[8.289509,48.952737],"type":"Point"},"properties":{"osm_id":"235498270","tag":{"amenity":"recycling","recycling:glass":"yes","recycling_type":"container"}},"type":"Feature"},
	{"geometry":{"coordinates":[8.294427,48.95888],"type":"Point"},"properties":{"osm_id":"323816228","tag":{"amenity":"recycling","location":"overground","recycling:batteries":"yes","recycling_type":"container"}},"type":"Feature"},
	{"geometry":{"coordinates":[8.293906,48.957994],"type":"Point"},"properties":{"osm_id":"323816593","tag":{"amenity":"recycling","recycling:batteries":"yes","recycling_type":"container"}},"type":"Feature"},
	{"geometry":{"coordinates":[8.293798,48.957773],"type":"Point"},"properties":{"osm_id":"323817014","tag":{"amenity":"recycling","recycling:clothes":"yes","recycling:glass":"yes","recycling_type":"container"}},"type":"Feature"},
	{"geometry":{"coordinates":[8.283762,48.959523],"type":"Point"},"properties":{"osm_id":"323830309","tag":{"amenity":"recycling","location":"overground","recycling:batteries":"yes","recycling_type":"container"}},"type":"Feature"},
	{"geometry":{"coordinates":[8.286291,48.963645],"type":"Point"},"properties":{"osm_id":"410127601","tag":{"amenity":"recycling","recycling:clothes":"yes","recycling:glass":"yes","recycling_type":"container"}},"type":"Feature"},
	{"geometry":{"coordinates":[8.264463,48.932907],"type":"Point"},"properties":{"osm_id":"595775609","tag":{"amenity":"recycling","recycling:glass_bottles":"yes","recycling_type":"container"}},"type":"Feature"},
	{"geometry":{"coordinates":[8.265137,48.932975],"type":"Point"},"properties":{"osm_id":"595775630","tag":{"amenity":"recycling","recycling:glass_bottles":"yes","recycling_type":"container"}},"type":"Feature"},
	{"geometry":{"coordinates":[8.265788,48.933194],"type":"Point"},"properties":{"osm_id":"595775674","tag":{"amenity":"recycling","recycling_type":"container"}},"type":"Feature"},
	{"geometry":{"coordinates":[8.279329,48.938666],"type":"Point"},"properties":{"osm_id":"1331417232","tag":{"amenity":"waste_basket"}},"type":"Feature"},
	{"geometry":{"coordinates":[8.338219,48.963367],"type":"Point"},"properties":{"osm_id":"1704871851","tag":{"amenity":"recycling","recycling:glass":"yes","recycling_type":"container"}},"type":"Feature"},
	{"geometry":{"coordinates":[8.294433,48.965359],"type":"Point"},"properties":{"osm_id":"1747843720","tag":{"amenity":"recycling","recycling:glass_bottles":"yes","recycling_type":"container"}},"type":"Feature"},
	{"geometry":{"coordinates":[8.340886,48.961884],"type":"Point"},"properties":{"osm_id":"1918226507","tag":{"amenity":"recycling","recycling:clothes":"yes","recycling:glass":"yes","recycling_type":"container"}},"type":"Feature"},
	{"geometry":{"coordinates":[8.282149,48.945878],"type":"Point"},"properties":{"osm_id":"2926701535","tag":{"amenity":"recycling","capacity":"2","operator":"Karlsruher Textil & Schuhverwertung","recycling:clothes":"yes","recycling_type":"container"}},"type":"Feature"},
	{"geometry":{"coordinates":[8.282173,48.964159],"type":"Point"},"properties":{"osm_id":"3092849043","tag":{"amenity":"recycling","operator":"Karlsruher Recycling","recycling:clothes":"yes","recycling:shoes":"yes"}},"type":"Feature"},
	{"geometry":{"coordinates":[8.275815,48.958733],"type":"Point"},"properties":{"osm_id":"3097987295","tag":{"amenity":"recycling","recycling:clothes":"yes","recycling:others":"no","recycling:shoes":"unknown","recycling_type":"container"}},"type":"Feature"},
	{"geometry":{"coordinates":[8.292267,48.96421],"type":"Point"},"properties":{"osm_id":"3097987301","tag":{"amenity":"recycling","recycling:clothes":"yes","recycling_type":"container"}},"type":"Feature"},
	{"geometry":{"coordinates":[8.263103,48.923552],"type":"Point"},"properties":{"osm_id":"3148286975","tag":{"amenity":"recycling","capacity":"1","lastcheck":"2016-05-10","operator":"Isevtex","recycling:clothes":"yes","recycling_type":"container"}},"type":"Feature"},
	{"geometry":{"coordinates":[8.270767,48.931678],"type":"Point"},"properties":{"osm_id":"3148287916","tag":{"amenity":"waste_basket"}},"type":"Feature"},
	{"geometry":{"coordinates":[8.302429,48.976145],"type":"Point"},"properties":{"osm_id":"3373779795","tag":{"amenity":"recycling","recycling:glass":"yes","recycling_type":"container"}},"type":"Feature"},
	{"geometry":{"coordinates":[8.30296,48.976252],"type":"Point"},"properties":{"osm_id":"3373779799","tag":{"amenity":"recycling","operator":"AG Textilverbund","recycling:clothes":"yes","recycling:shoes":"yes","recycling_type":"container"}},"type":"Feature"},
	{"geometry":{"coordinates":[8.283548,48.963037],"type":"Point"},"properties":{"osm_id":"3411483323","tag":{"amenity":"recycling","operator":"obskur","recycling:clothes":"yes","recycling:shoes":"yes","recycling_type":"container"}},"type":"Feature"},
	{"geometry":{"coordinates":[8.270333,48.938976],"type":"Point"},"properties":{"osm_id":"3441570174","tag":{"amenity":"recycling","operator":"Deutsches Rotes Kreuz","recycling:clothes":"yes","recycling_type":"container"}},"type":"Feature"},
	{"geometry":{"coordinates":[8.270292,48.93941],"type":"Point"},"properties":{"osm_id":"3441570175","tag":{"amenity":"recycling","recycling:glass":"yes","recycling_type":"container"}},"type":"Feature"},
	{"geometry":{"coordinates":[8.316107,48.979463],"type":"Point"},"properties":{"osm_id":"3683064382","tag":{"amenity":"recycling","recycling:batteries":"yes","recycling_type":"container"}},"type":"Feature"},
	{"geometry":{"coordinates":[8.315777,48.978463],"type":"Point"},"properties":{"osm_id":"3687089632","tag":{"amenity":"recycling","recycling:glass_bottles":"yes","recycling_type":"container"}},"type":"Feature"},
	{"geometry":{"coordinates":[8.315674,48.978502],"type":"Point"},"properties":{"osm_id":"3687089633","tag":{"amenity":"recycling","recycling:clothes":"yes","recycling:shoes":"yes","recycling_type":"container"}},"type":"Feature"},
	{"geometry":{"coordinates":[8.340668,48.951102],"type":"Point"},"properties":{"osm_id":"3783802920","tag":{"amenity":"waste_basket"}},"type":"Feature"},
	{"geometry":{"coordinates":[8.272243,48.927969],"type":"Point"},"properties":{"osm_id":"4009761704","tag":{"amenity":"waste_basket"}},"type":"Feature"},
	{"geometry":{"coordinates":[8.274304,48.938581],"type":"Point"},"properties":{"osm_id":"4175828806","tag":{"amenity":"recycling","capacity":"1","lastcheck":"2016-05-10","recycling:clothes":"yes","recycling_type":"container"}},"type":"Feature"},
	{"geometry":{"coordinates":[8.27802,48.940069],"type":"Point"},"properties":{"osm_id":"4175828819","tag":{"amenity":"recycling","capacity":"1","lastcheck":"2016-05-10","operator":"Karlsruher Textilverwertung","recycling:clothes":"yes","recycling_type":"container"}},"type":"Feature"},
	{"geometry":{"coordinates":[8.264151,48.928306],"type":"Point"},"properties":{"osm_id":"4293322570","tag":{"amenity":"waste_basket"}},"type":"Feature"},
	{"geometry":{"coordinates":[8.26991,48.934112],"type":"Point"},"properties":{"osm_id":"4315560872","tag":{"amenity":"waste_basket"}},"type":"Feature"},
	{"geometry":{"coordinates":[8.325795,48.929227],"type":"Point"},"properties":{"osm_id":"4325955517","tag":{"amenity":"waste_basket"}},"type":"Feature"},
	{"geometry":{"coordinates":[8.30814,48.978786],"type":"Point"},"properties":{"osm_id":"4693836290","tag":{"amenity":"waste_basket"}},"type":"Feature"},
	{"geometry":{"coordinates":[8.309029,48.978743],"type":"Point"},"properties":{"osm_id":"4693836295","tag":{"amenity":"waste_basket"}},"type":"Feature"},
	{"geometry":{"coordinates":[8.310027,48.978474],"type":"Point"},"properties":{"osm_id":"4693842849","tag":{"amenity":"recycling","recycling:clothes":"yes","recycling:glass":"yes","recycling:shoes":"yes","recycling_type":"container"}},"type":"Feature"},
	{"geometry":{"coordinates":[8.305003,48.973261],"type":"Point"},"properties":{"osm_id":"4703961158","tag":{"amenity":"waste_basket"}},"type":"Feature"},
	{"geometry":{"coordinates":[8.303243,48.97214],"type":"Point"},"properties":{"osm_id":"4703961159","tag":{"amenity":"waste_basket"}},"type":"Feature"},
	{"geometry":{"coordinates":[8.30123,48.971075],"type":"Point"},"properties":{"osm_id":"4703961160","tag":{"amenity":"waste_basket"}},"type":"Feature"},
	{"geometry":{"coordinates":[8.288157,48.942643],"type":"Point"},"properties":{"osm_id":"4783142151","tag":{"amenity":"waste_basket"}},"type":"Feature"},
	{"geometry":{"coordinates":[8.275963,48.943363],"type":"Point"},"properties":{"osm_id":"4837265551","tag":{"amenity":"recycling","capacity":"2","lastcheck":"2017-05-05","operator":"Isevtex","recycling:clothes":"yes","recycling_type":"container"}},"type":"Feature"},
	{"geometry":{"coordinates":[8.289772,48.943313],"type":"Point"},"properties":{"osm_id":"5520602922","tag":{"amenity":"waste_basket","waste":"dog_excrement"}},"type":"Feature"},
	{"geometry":{"coordinates":[8.290143,48.959769],"type":"Point"},"properties":{"osm_id":"5652160081","tag":{"amenity":"waste_basket"}},"type":"Feature"},
	{"geometry":{"coordinates":[8.339715,48.962525],"type":"Point"},"properties":{"osm_id":"5661050463","tag":{"amenity":"recycling","recycling:clothes":"yes","recycling_type":"container"}},"type":"Feature"},
	{"geometry":{"coordinates":[8.279736,48.939002],"type":"Point"},"properties":{"osm_id":"5859322517","tag":{"amenity":"waste_basket","waste":"trash"}},"type":"Feature"},
	{"geometry":{"coordinates":[8.27946,48.939729],"type":"Point"},"properties":{"osm_id":"5859348334","tag":{"amenity":"waste_basket","colour":"red","waste":"trash"}},"type":"Feature"},
	{"geometry":{"coordinates":[8.271405,48.935466],"type":"Point"},"properties":{"osm_id":"6048310820","tag":{"amenity":"waste_basket"}},"type":"Feature"},
	{"geometry":{"coordinates":[8.27315,48.937766],"type":"Point"},"properties":{"osm_id":"6048316579","tag":{"amenity":"waste_basket"}},"type":"Feature"},
	{"geometry":{"coordinates":[8.279448,48.939615],"type":"Point"},"properties":{"osm_id":"6048324056","tag":{"amenity":"waste_basket"}},"type":"Feature"},
	{"geometry":{"coordinates":[8.277531,48.943441],"type":"Point"},"properties":{"osm_id":"6048332827","tag":{"amenity":"recycling","recycling:clothes":"yes","recycling:shoes":"yes","recycling_type":"container"}},"type":"Feature"},
	{"geometry":{"coordinates":[8.278408,48.943793],"type":"Point"},"properties":{"osm_id":"6048334627","tag":{"amenity":"recycling","recycling:clothes":"yes","recycling:shoes":"yes","recycling_type":"container"}},"type":"Feature"},
	{"geometry":{"coordinates":[8.28187,48.946045],"type":"Point"},"properties":{"osm_id":"6048334647","tag":{"amenity":"waste_basket"}},"type":"Feature"},
	{"geometry":{"coordinates":[8.27344,48.936537],"type":"Point"},"properties":{"osm_id":"6366935128","tag":{"amenity":"recycling","capacity":"1","lastcheck":"2019-03-28","operator":"Texaid","recycling:clothes":"yes","recycling_type":"container"}},"type":"Feature"},
	{"geometry":{"coordinates":[8.329112,48.967502],"type":"Point"},"properties":{"osm_id":"6509663349","tag":{"amenity":"waste_basket"}},"type":"Feature"},
	{"geometry":{"coordinates":[8.310452,48.978316],"type":"Point"},"properties":{"osm_id":"6509688211","tag":{"amenity":"waste_basket"}},"type":"Feature"},
	{"geometry":{"coordinates":[8.310974,48.975263],"type":"Point"},"properties":{"osm_id":"6509692267","tag":{"amenity":"waste_basket"}},"type":"Feature"},
	{"geometry":{"coordinates":[8.311006,48.980034],"type":"Point"},"properties":{"osm_id":"6509692442","tag":{"amenity":"waste_basket"}},"type":"Feature"},
	{"geometry":{"coordinates":[8.31054,48.978838],"type":"Point"},"properties":{"osm_id":"6509704172","tag":{"amenity":"waste_basket"}},"type":"Feature"},
	{"geometry":{"coordinates":[8.31214,48.975103],"type":"Point"},"properties":{"osm_id":"6509706605","tag":{"amenity":"waste_basket"}},"type":"Feature"},
	{"geometry":{"coordinates":[8.290577,48.95282],"type":"Point"},"properties":{"osm_id":"6512083272","tag":{"amenity":"recycling","recycling:clothes":"yes","recycling:glass_bottles":"yes","recycling:shoes":"yes","recycling_type":"container"}},"type":"Feature"},
	{"geometry":{"coordinates":[8.31013,48.977939],"type":"Point"},"properties":{"osm_id":"6513114948","tag":{"amenity":"recycling","recycling:batteries":"yes","recycling_type":"container"}},"type":"Feature"},
	{"geometry":{"coordinates":[8.29391,48.963073],"type":"Point"},"properties":{"osm_id":"6711067819","tag":{"amenity":"waste_disposal","waste":"organic"}},"type":"Feature"},
	{"geometry":{"coordinates":[8.29425,48.962703],"type":"Point"},"properties":{"osm_id":"6711067820","tag":{"amenity":"waste_basket","waste":"trash"}},"type":"Feature"},
	{"geometry":{"coordinates":[8.293887,48.962547],"type":"Point"},"properties":{"osm_id":"6711067822","tag":{"amenity":"waste_basket","waste":"trash"}},"type":"Feature"},
	{"geometry":{"coordinates":[8.294776,48.962228],"type":"Point"},"properties":{"osm_id":"6711067826","tag":{"amenity":"waste_basket","waste":"trash"}},"type":"Feature"},
	{"geometry":{"coordinates":[8.294385,48.962056],"type":"Point"},"properties":{"osm_id":"6711067827","tag":{"amenity":"waste_basket","waste":"trash"}},"type":"Feature"},
	{"geometry":{"coordinates":[8.294978,48.961992],"type":"Point"},"properties":{"osm_id":"6711067830","tag":{"amenity":"waste_basket","waste":"trash"}},"type":"Feature"},
	{"geometry":{"coordinates":[8.339447,48.948572],"type":"Point"},"properties":{"osm_id":"6773226848","tag":{"amenity":"waste_basket"}},"type":"Feature"},
	{"geometry":{"coordinates":[8.27764,48.96544],"type":"Point"},"properties":{"osm_id":"7058130148","tag":{"amenity":"waste_basket","waste":"trash"}},"type":"Feature"},
	{"geometry":{"coordinates":[8.275749,48.958729],"type":"Point"},"properties":{"osm_id":"7095340762","tag":{"amenity":"recycling","operator":"Suez S\u00c3\u00bcd GmbH","recycling:glass_bottles":"yes","recycling:others":"no","recycling_type":"container"}},"type":"Feature"},
	{"geometry":{"coordinates":[8.284222,48.958711],"type":"Point"},"properties":{"osm_id":"7095340768","tag":{"amenity":"waste_basket","operator":"Albtal-Verkehrs-Gesellschaft mbH","waste":"trash"}},"type":"Feature"},
	{"geometry":{"coordinates":[8.280808,48.941995],"type":"Point"},"properties":{"osm_id":"7300503140","tag":{"amenity":"waste_basket"}},"type":"Feature"},
	{"geometry":{"coordinates":[8.282602,48.943102],"type":"Point"},"properties":{"osm_id":"7300648449","tag":{"amenity":"waste_basket"}},"type":"Feature"},
	{"geometry":{"coordinates":[8.282248,48.942974],"type":"Point"},"properties":{"osm_id":"7300687937","tag":{"amenity":"waste_basket"}},"type":"Feature"},
	{"geometry":{"coordinates":[8.279775,48.938204],"type":"Point"},"properties":{"osm_id":"7556511098","tag":{"amenity":"waste_basket"}},"type":"Feature"}
]
}
