{
"type": "FeatureCollection",
"features": [
	{"geometry":{"coordinates":[8.326409,48.890057],"type":"Point"},"properties":{"osm_id":"294128442","tag":{"amenity":"recycling","recycling:glass_bottles":"yes","recycling_type":"container"}},"type":"Feature"},
	{"geometry":{"coordinates":[8.32295,48.889256],"type":"Point"},"properties":{"osm_id":"299276814","tag":{"amenity":"recycling","recycling:clothes":"yes","recycling_type":"container"}},"type":"Feature"},
	{"geometry":{"coordinates":[8.316627,48.887585],"type":"Point"},"properties":{"osm_id":"302650330","tag":{"amenity":"recycling","recycling:clothes":"yes","recycling:glass":"yes"}},"type":"Feature"},
	{"geometry":{"coordinates":[8.337319,48.869091],"type":"Point"},"properties":{"osm_id":"410595961","tag":{"amenity":"recycling","recycling:glass":"yes"}},"type":"Feature"},
	{"geometry":{"coordinates":[8.280996,48.864942],"type":"Point"},"properties":{"osm_id":"3076004132","tag":{"amenity":"recycling","operator":"Faircollect","recycling:clothes":"yes","recycling_type":"container"}},"type":"Feature"},
	{"geometry":{"coordinates":[8.325386,48.894694],"type":"Point"},"properties":{"osm_id":"3443781165","tag":{"amenity":"waste_basket"}},"type":"Feature"},
	{"geometry":{"coordinates":[8.327178,48.878935],"type":"Point"},"properties":{"osm_id":"3528024740","tag":{"amenity":"recycling","recycling:clothes":"yes","recycling:glass":"yes","recycling_type":"container"}},"type":"Feature"},
	{"geometry":{"coordinates":[8.273749,48.876723],"type":"Point"},"properties":{"osm_id":"4009804576","tag":{"amenity":"waste_basket"}},"type":"Feature"},
	{"geometry":{"coordinates":[8.323944,48.889517],"type":"Point"},"properties":{"osm_id":"4009806199","tag":{"amenity":"waste_basket"}},"type":"Feature"},
	{"geometry":{"coordinates":[8.32384,48.889628],"type":"Point"},"properties":{"osm_id":"4009806216","tag":{"amenity":"waste_basket"}},"type":"Feature"},
	{"geometry":{"coordinates":[8.285948,48.87972],"type":"Point"},"properties":{"osm_id":"4016908823","tag":{"amenity":"waste_basket"}},"type":"Feature"},
	{"geometry":{"coordinates":[8.316294,48.887524],"type":"Point"},"properties":{"osm_id":"4016909092","tag":{"amenity":"recycling","recycling:clothes":"yes","recycling_type":"container"}},"type":"Feature"},
	{"geometry":{"coordinates":[8.289065,48.873363],"type":"Point"},"properties":{"osm_id":"5566541608","tag":{"amenity":"recycling","capacity":"1","lastcheck":"2018-04-20","operator":"Deutsches Rotes Kreuz","recycling:clothes":"yes","recycling_type":"container"}},"type":"Feature"},
	{"geometry":{"coordinates":[8.288273,48.872588],"type":"Point"},"properties":{"osm_id":"5566541609","tag":{"amenity":"recycling","capacity":"2","lastcheck":"2018-04-20","operator":"CityGreenPoint","recycling:clothes":"yes","recycling_type":"container"}},"type":"Feature"},
	{"geometry":{"coordinates":[8.274305,48.868926],"type":"Point"},"properties":{"osm_id":"5648217711","tag":{"amenity":"recycling","capacity":"2","lastcheck":"2018-04-20","operator":"Deutsches Rotes Kreuz","recycling:clothes":"yes","recycling_type":"container"}},"type":"Feature"},
	{"geometry":{"coordinates":[8.28284,48.870352],"type":"Point"},"properties":{"osm_id":"5648217715","tag":{"amenity":"recycling","capacity":"1","lastcheck":"2018-04-20","operator":"Deutsches Rotes Kreuz","recycling:clothes":"yes","recycling_type":"container"}},"type":"Feature"},
	{"geometry":{"coordinates":[8.274383,48.876688],"type":"Point"},"properties":{"osm_id":"5843990472","tag":{"amenity":"waste_basket"}},"type":"Feature"},
	{"geometry":{"coordinates":[8.288975,48.872365],"type":"Point"},"properties":{"osm_id":"5863290230","tag":{"amenity":"waste_basket"}},"type":"Feature"},
	{"geometry":{"coordinates":[8.2744,48.872323],"type":"Point"},"properties":{"osm_id":"6759780263","tag":{"amenity":"waste_basket"}},"type":"Feature"},
	{"geometry":{"coordinates":[8.274454,48.872202],"type":"Point"},"properties":{"osm_id":"6759781863","tag":{"amenity":"waste_basket"}},"type":"Feature"}
]
}
