{
"type": "FeatureCollection",
"features": [
	{"geometry":{"coordinates":[8.281079,48.825202],"type":"Point"},"properties":{"osm_id":"302390381","tag":{"amenity":"recycling","operator":"Johanniter-Unfall-Hilfe","recycling:clothes":"yes"}},"type":"Feature"},
	{"geometry":{"coordinates":[8.281184,48.826207],"type":"Point"},"properties":{"osm_id":"302390383","tag":{"amenity":"recycling","operator":"Deutsches Rotes Kreuz","recycling:clothes":"yes","recycling_type":"container"}},"type":"Feature"},
	{"geometry":{"coordinates":[8.283499,48.834297],"type":"Point"},"properties":{"osm_id":"325229701","tag":{"amenity":"recycling","capacity":"2","lastcheck":"2021-08-16","operator":"Deutsches Rotes Kreuz","recycling:clothes":"yes","recycling_type":"container"}},"type":"Feature"},
	{"geometry":{"coordinates":[8.306416,48.8562],"type":"Point"},"properties":{"name":"Entsorgungsanlage Hintere Dollert","osm_id":"446287716","tag":{"amenity":"recycling","recycling_type":"centre"}},"type":"Feature"},
	{"geometry":{"coordinates":[8.263192,48.828809],"type":"Point"},"properties":{"osm_id":"2036740557","tag":{"amenity":"waste_basket"}},"type":"Feature"},
	{"geometry":{"coordinates":[8.293593,48.827889],"type":"Point"},"properties":{"barrier":"gate","osm_id":"2297687105"},"type":"Feature"},
	{"geometry":{"coordinates":[8.293466,48.828562],"type":"Point"},"properties":{"barrier":"gate","osm_id":"2297687114"},"type":"Feature"},
	{"geometry":{"coordinates":[8.347155,48.810893],"type":"Point"},"properties":{"name":"Gartenabfallplatz Michelbach","osm_id":"2440486251","tag":{"amenity":"recycling","recycling:green_waste":"yes","recycling_type":"centre"}},"type":"Feature"},
	{"geometry":{"coordinates":[8.276308,48.828648],"type":"Point"},"properties":{"osm_id":"2980859308","tag":{"amenity":"recycling","count":"4","lastcheck":"2018-06-09","operator":"CityGreenPoint","recycling:batteries":"yes","recycling:clothes":"yes","recycling:electrical_appliances":"yes","recycling:low_energy_bulbs":"yes","recycling:shoes":"yes","recycling_type":"container"}},"type":"Feature"},
	{"geometry":{"coordinates":[8.276827,48.829728],"type":"Point"},"properties":{"osm_id":"3325811029","tag":{"amenity":"recycling","count":"5","operator":"Hurrle","recycling:glass":"yes","recycling_type":"container"}},"type":"Feature"},
	{"geometry":{"coordinates":[8.30614,48.814979],"type":"Point"},"properties":{"osm_id":"4072242316","tag":{"amenity":"recycling","lastcheck":"2016-03-21","operator":"Deutsches Rotes Kreuz","recycling:clothes":"yes","recycling_type":"container"}},"type":"Feature"},
	{"geometry":{"coordinates":[8.301147,48.816383],"type":"Point"},"properties":{"osm_id":"4072242318","tag":{"amenity":"recycling","capacity":"1","lastcheck":"2021-04-22","operator":"faircollect","recycling:clothes":"yes","recycling_type":"container"}},"type":"Feature"},
	{"geometry":{"coordinates":[8.305602,48.813622],"type":"Point"},"properties":{"osm_id":"4086890241","tag":{"amenity":"recycling","capacity":"1","lastcheck":"2016-03-30","operator":"Deutsches Rotes Kreuz","recycling:clothes":"yes","recycling_type":"container"}},"type":"Feature"},
	{"geometry":{"coordinates":[8.309833,48.810434],"type":"Point"},"properties":{"osm_id":"4258156261","tag":{"amenity":"recycling","capacity":"1","lastcheck":"2016-06-22","operator":"Isevtex","recycling:clothes":"yes","recycling_type":"container"}},"type":"Feature"},
	{"geometry":{"coordinates":[8.34854,48.847491],"type":"Point"},"properties":{"osm_id":"4363574603","tag":{"amenity":"waste_basket"}},"type":"Feature"},
	{"geometry":{"coordinates":[8.317211,48.806885],"type":"Point"},"properties":{"osm_id":"4615813760","tag":{"amenity":"recycling","capacity":"1","lastcheck":"2017-01-18","recycling:clothes":"yes","recycling_type":"container"}},"type":"Feature"},
	{"geometry":{"coordinates":[8.284091,48.827151],"type":"Point"},"properties":{"osm_id":"4617103577","tag":{"amenity":"recycling","operator":"MEDIE Kuppenheim","recycling:clothes":"yes","recycling_type":"container"}},"type":"Feature"},
	{"geometry":{"coordinates":[8.313433,48.814895],"type":"Point"},"properties":{"osm_id":"5467270539","tag":{"amenity":"recycling","capacity":"2","lastcheck":"2018-03-09","operator":"Deutsches Rotes Kreuz","recycling:clothes":"yes","recycling_type":"container"}},"type":"Feature"},
	{"geometry":{"coordinates":[8.312823,48.814742],"type":"Point"},"properties":{"osm_id":"6192184795","tag":{"amenity":"waste_basket"}},"type":"Feature"},
	{"geometry":{"coordinates":[8.277282,48.82837],"type":"Point"},"properties":{"osm_id":"7003721004","tag":{"amenity":"recycling","capacity":"1","lastcheck":"2019-11-23","operator":"MA Textilrecycling","recycling:clothes":"yes","recycling_type":"container"}},"type":"Feature"},
	{"geometry":{"coordinates":[8.298126,48.847676],"type":"Point"},"properties":{"osm_id":"8402252559","tag":{"amenity":"recycling","recycling:clothes":"yes","recycling_type":"container"}},"type":"Feature"},
	{"geometry":{"coordinates":[8.29805,48.84775],"type":"Point"},"properties":{"osm_id":"8402252560","tag":{"amenity":"waste_basket"}},"type":"Feature"},
	{"geometry":{"coordinates":[8.266933,48.82841],"type":"Point"},"properties":{"osm_id":"8911015541","tag":{"amenity":"recycling","recycling:beverage_cartons":"no","recycling:clothes":"yes","recycling_type":"container"}},"type":"Feature"},
	{"geometry":{"coordinates":[8.284156,48.837838],"type":"Point"},"properties":{"osm_id":"9010919738","tag":{"amenity":"waste_basket"}},"type":"Feature"}
]
}
