{
"type": "FeatureCollection",
"features": [
	{"geometry":{"coordinates":[8.309363,48.794988],"type":"Point"},"properties":{"osm_id":"460364370","tag":{"amenity":"recycling","operator:clothes":"drk","recycling:clothes":"yes","recycling_type":"container"}},"type":"Feature"},
	{"geometry":{"coordinates":[8.307124,48.779922],"type":"Point"},"properties":{"osm_id":"501622880","tag":{"amenity":"recycling","operator":"Deutsches Rotes Kreuz","recycling:clothes":"yes","recycling_type":"container"}},"type":"Feature"},
	{"geometry":{"coordinates":[8.3386,48.792528],"type":"Point"},"properties":{"osm_id":"501626142","tag":{"amenity":"recycling","operator:clothes":"KAB","recycling:clothes":"yes","recycling_type":"container"}},"type":"Feature"},
	{"geometry":{"coordinates":[8.267313,48.779752],"type":"Point"},"properties":{"osm_id":"828764218","tag":{"amenity":"waste_basket"}},"type":"Feature"},
	{"geometry":{"coordinates":[8.304246,48.767104],"type":"Point"},"properties":{"osm_id":"878848104","tag":{"amenity":"recycling","operator":"Deutsches Rotes Kreuz","recycling:clothes":"yes","recycling_type":"container"}},"type":"Feature"},
	{"geometry":{"coordinates":[8.34525,48.757462],"type":"Point"},"properties":{"osm_id":"1338997383","tag":{"amenity":"waste_basket"}},"type":"Feature"},
	{"geometry":{"coordinates":[8.339992,48.78052],"type":"Point"},"properties":{"osm_id":"1834698333","tag":{"amenity":"recycling","operator":"Deutsches Rotes Kreuz","recycling:clothes":"yes","recycling_type":"container"}},"type":"Feature"},
	{"geometry":{"coordinates":[8.346563,48.78194],"type":"Point"},"properties":{"osm_id":"1843132947","tag":{"amenity":"recycling","operator":"Deutsches Rotes Kreuz","recycling:clothes":"yes","recycling_type":"container"}},"type":"Feature"},
	{"geometry":{"coordinates":[8.343254,48.782286],"type":"Point"},"properties":{"osm_id":"1843132980","tag":{"amenity":"recycling","lastcheck":"2017-07-07","recycling:batteries":"yes","recycling_type":"container"}},"type":"Feature"},
	{"geometry":{"coordinates":[8.342984,48.783615],"type":"Point"},"properties":{"osm_id":"1843133026","tag":{"amenity":"recycling","operator":"Deutsches Rotes Kreuz","recycling:clothes":"yes","recycling_type":"container"}},"type":"Feature"},
	{"geometry":{"coordinates":[8.348334,48.777],"type":"Point"},"properties":{"osm_id":"2020563789","tag":{"amenity":"waste_basket"}},"type":"Feature"},
	{"geometry":{"coordinates":[8.269307,48.776439],"type":"Point"},"properties":{"osm_id":"2229631084","tag":{"amenity":"recycling","count":"4","recycling:glass":"yes","recycling_type":"container"}},"type":"Feature"},
	{"geometry":{"coordinates":[8.269278,48.776457],"type":"Point"},"properties":{"osm_id":"2240044394","tag":{"amenity":"recycling","operator":"Deutsches Rotes Kreuz","recycling:clothes":"yes","recycling_type":"container"}},"type":"Feature"},
	{"geometry":{"coordinates":[8.267288,48.77946],"type":"Point"},"properties":{"osm_id":"2240044399","tag":{"amenity":"recycling","operator":"Deutsches Rotes Kreuz","recycling:clothes":"yes","recycling_type":"container"}},"type":"Feature"},
	{"geometry":{"coordinates":[8.267267,48.779564],"type":"Point"},"properties":{"osm_id":"2240044403","tag":{"amenity":"recycling","count":"6","recycling:glass":"yes","recycling_type":"container"}},"type":"Feature"},
	{"geometry":{"coordinates":[8.334137,48.763155],"type":"Point"},"properties":{"osm_id":"2260692357","tag":{"amenity":"waste_basket"}},"type":"Feature"},
	{"geometry":{"coordinates":[8.334269,48.76323],"type":"Point"},"properties":{"osm_id":"2260692417","tag":{"amenity":"waste_basket"}},"type":"Feature"},
	{"geometry":{"coordinates":[8.332563,48.764446],"type":"Point"},"properties":{"osm_id":"2260692694","tag":{"amenity":"waste_basket"}},"type":"Feature"},
	{"geometry":{"coordinates":[8.333184,48.764583],"type":"Point"},"properties":{"osm_id":"2260692711","tag":{"amenity":"waste_basket"}},"type":"Feature"},
	{"geometry":{"coordinates":[8.331019,48.762143],"type":"Point"},"properties":{"osm_id":"2264881503","tag":{"amenity":"waste_basket"}},"type":"Feature"},
	{"geometry":{"coordinates":[8.33143,48.762316],"type":"Point"},"properties":{"osm_id":"2264881517","tag":{"amenity":"waste_basket"}},"type":"Feature"},
	{"geometry":{"coordinates":[8.336589,48.763281],"type":"Point"},"properties":{"osm_id":"2266230638","tag":{"amenity":"waste_basket"}},"type":"Feature"},
	{"geometry":{"coordinates":[8.336871,48.763383],"type":"Point"},"properties":{"osm_id":"2266230653","tag":{"amenity":"waste_basket"}},"type":"Feature"},
	{"geometry":{"coordinates":[8.311566,48.778925],"type":"Point"},"properties":{"osm_id":"2273110509","tag":{"amenity":"waste_basket"}},"type":"Feature"},
	{"geometry":{"coordinates":[8.310793,48.780572],"type":"Point"},"properties":{"osm_id":"2273110759","tag":{"amenity":"waste_basket"}},"type":"Feature"},
	{"geometry":{"coordinates":[8.341112,48.764442],"type":"Point"},"properties":{"osm_id":"2385744094","tag":{"amenity":"waste_basket"}},"type":"Feature"},
	{"geometry":{"coordinates":[8.339477,48.764623],"type":"Point"},"properties":{"osm_id":"2385744160","tag":{"amenity":"waste_basket"}},"type":"Feature"},
	{"geometry":{"coordinates":[8.2757,48.775691],"type":"Point"},"properties":{"osm_id":"2406613854","tag":{"amenity":"waste_basket"}},"type":"Feature"},
	{"geometry":{"coordinates":[8.34176,48.760778],"type":"Point"},"properties":{"osm_id":"2817355685","tag":{"amenity":"waste_basket"}},"type":"Feature"},
	{"geometry":{"coordinates":[8.342122,48.76094],"type":"Point"},"properties":{"osm_id":"2817356014","tag":{"amenity":"waste_basket"}},"type":"Feature"},
	{"geometry":{"coordinates":[8.264309,48.762838],"type":"Point"},"properties":{"osm_id":"2969428599","tag":{"amenity":"waste_basket"}},"type":"Feature"},
	{"geometry":{"coordinates":[8.264301,48.762817],"type":"Point"},"properties":{"osm_id":"2969428600","tag":{"amenity":"waste_basket"}},"type":"Feature"},
	{"geometry":{"coordinates":[8.341493,48.789891],"type":"Point"},"properties":{"osm_id":"3177751897","tag":{"amenity":"recycling","capacity":"1","lastcheck":"2016-06-17","operator":"Isevtex","recycling_type":"container"}},"type":"Feature"},
	{"geometry":{"coordinates":[8.339357,48.793943],"type":"Point"},"properties":{"osm_id":"3177753201","tag":{"amenity":"recycling","operator":"Deutsches Rotes Kreuz","recycling:clothes":"yes","recycling_type":"container"}},"type":"Feature"},
	{"geometry":{"coordinates":[8.321119,48.803349],"type":"Point"},"properties":{"osm_id":"3401353861","tag":{"amenity":"recycling","capacity":"1","lastcheck":"2016-03-07","operator":"Deutsches Rotes Kreuz","recycling:clothes":"yes","recycling_type":"container"}},"type":"Feature"},
	{"geometry":{"coordinates":[8.321317,48.803709],"type":"Point"},"properties":{"osm_id":"3401353863","tag":{"amenity":"waste_basket"}},"type":"Feature"},
	{"geometry":{"coordinates":[8.320422,48.804508],"type":"Point"},"properties":{"osm_id":"3401353869","tag":{"amenity":"recycling","capacity":"1","lastcheck":"2016-03-07","network":"FairWertung","operator":"KAB","recycling:clothes":"yes","recycling_type":"container"}},"type":"Feature"},
	{"geometry":{"coordinates":[8.320689,48.805104],"type":"Point"},"properties":{"osm_id":"3401353875","tag":{"amenity":"waste_basket"}},"type":"Feature"},
	{"geometry":{"coordinates":[8.337712,48.787404],"type":"Point"},"properties":{"osm_id":"3750789907","tag":{"amenity":"recycling","operator":"Isevtex","recycling:clothes":"yes","recycling_type":"container"}},"type":"Feature"},
	{"geometry":{"coordinates":[8.333728,48.78805],"type":"Point"},"properties":{"osm_id":"3750789919","tag":{"amenity":"recycling","capacity":"4","operator":"Deutsches Rotes Kreuz","recycling:clothes":"yes","recycling_type":"container"}},"type":"Feature"},
	{"geometry":{"coordinates":[8.324635,48.803774],"type":"Point"},"properties":{"osm_id":"4046809430","tag":{"amenity":"recycling","capacity":"1","lastcheck":"2016-03-07","operator":"Deutsches Rotes Kreuz","recycling:clothes":"yes","recycling_type":"container"}},"type":"Feature"},
	{"geometry":{"coordinates":[8.322042,48.80533],"type":"Point"},"properties":{"osm_id":"4089074484","tag":{"amenity":"recycling","capacity":"2","lastcheck":"2016-03-30","operator":"CityGreenPoint","recycling:clothes":"yes","recycling_type":"container"}},"type":"Feature"},
	{"geometry":{"coordinates":[8.337185,48.764212],"type":"Point"},"properties":{"osm_id":"4192041827","tag":{"amenity":"recycling","capacity":"1","lastcheck":"2016-05-17","operator":"Faiwertung","recycling:clothes":"yes","recycling_type":"container"}},"type":"Feature"},
	{"geometry":{"coordinates":[8.337308,48.768319],"type":"Point"},"properties":{"osm_id":"4381950790","tag":{"amenity":"recycling","capacity":"1","lastcheck":"2016-09-03","operator":"Isevtex","recycling:clothes":"yes","recycling_type":"container"}},"type":"Feature"},
	{"geometry":{"coordinates":[8.317067,48.804261],"type":"Point"},"properties":{"osm_id":"4615813766","tag":{"amenity":"recycling","capacity":"1","lastcheck":"2017-01-18","operator":"Isevtex","recycling:clothes":"yes","recycling_type":"container"}},"type":"Feature"},
	{"geometry":{"coordinates":[8.338284,48.770603],"type":"Point"},"properties":{"osm_id":"4956246446","tag":{"amenity":"recycling","capacity":"3","lastcheck":"2017-07-07","operator":"Faircollect","recycling:clothes":"yes","recycling_type":"container"}},"type":"Feature"},
	{"geometry":{"coordinates":[8.34353,48.774033],"type":"Point"},"properties":{"osm_id":"4956246450","tag":{"amenity":"recycling","capacity":"2","lastcheck":"2017-07-07","operator":"Malteser","recycling:clothes":"yes","recycling_type":"container"}},"type":"Feature"},
	{"geometry":{"coordinates":[8.325338,48.803669],"type":"Point"},"properties":{"osm_id":"5521133113","tag":{"amenity":"waste_disposal","waste":"trash"}},"type":"Feature"},
	{"geometry":{"coordinates":[8.330689,48.764158],"type":"Point"},"properties":{"osm_id":"5637054938","tag":{"amenity":"waste_basket","waste":"trash"}},"type":"Feature"},
	{"geometry":{"coordinates":[8.334674,48.76286],"type":"Point"},"properties":{"osm_id":"5639519614","tag":{"amenity":"waste_basket","waste":"trash"}},"type":"Feature"},
	{"geometry":{"coordinates":[8.284292,48.800728],"type":"Point"},"properties":{"osm_id":"5639519618","tag":{"amenity":"waste_basket","waste":"trash"}},"type":"Feature"},
	{"geometry":{"coordinates":[8.347342,48.755837],"type":"Point"},"properties":{"osm_id":"5715776653","tag":{"amenity":"waste_basket","waste":"trash"}},"type":"Feature"},
	{"geometry":{"coordinates":[8.324482,48.787866],"type":"Point"},"properties":{"name":"Gartenabfallplatz Ottenau","osm_id":"5810339143","tag":{"amenity":"recycling","operator":"Stadt Gaggenau","recycling:green_waste":"yes","recycling_type":"area"}},"type":"Feature"},
	{"geometry":{"coordinates":[8.349115,48.760196],"type":"Point"},"properties":{"osm_id":"5828755325","tag":{"amenity":"waste_basket"}},"type":"Feature"}
]
}
