{
"type": "FeatureCollection",
"features": [
	{"geometry":{"coordinates":[8.262239,48.290308],"type":"Point"},"properties":{"osm_id":"3564330592","tag":{"amenity":"waste_basket"}},"type":"Feature"},
	{"geometry":{"coordinates":[8.341132,48.290777],"type":"Point"},"properties":{"osm_id":"6426697885","tag":{"amenity":"waste_basket"}},"type":"Feature"},
	{"geometry":{"coordinates":[8.270308,48.290684],"type":"Point"},"properties":{"osm_id":"7927400455","tag":{"amenity":"waste_basket","waste":"trash"}},"type":"Feature"},
	{"geometry":{"coordinates":[8.330857,48.291118],"type":"Point"},"properties":{"osm_id":"9096949500","tag":{"access":"yes","amenity":"waste_disposal","operator":"ALBA S\u00c3\u00bcd GmbH & Co. KG","waste":"glass"}},"type":"Feature"},
	{"geometry":{"coordinates":[8.330857,48.291118],"type":"Point"},"properties":{"osm_id":"9096949500","tag":{"amenity":"recycling","operator":"ALBA S\u00c3\u00bcd GmbH & Co. KG","recycling:glass_bottles":"yes","recycling_type":"container"}},"type":"Feature"}
]
}
