{
"type": "FeatureCollection",
"features": [
	{"geometry":{"coordinates":[8.344484,48.124417],"type":"Point"},"properties":{"barrier":"gate","osm_id":"277676221","tag":{"access":"destination"}},"type":"Feature"},
	{"geometry":{"coordinates":[8.328238,48.132192],"type":"Point"},"properties":{"osm_id":"300352946","tag":{"amenity":"recycling","recycling:clothes":"yes","recycling:glass_bottles":"yes","recycling_type":"container"}},"type":"Feature"},
	{"geometry":{"coordinates":[8.33801,48.128598],"type":"Point"},"properties":{"osm_id":"300352947","tag":{"amenity":"recycling","recycling:glass_bottles":"yes","recycling_type":"container"}},"type":"Feature"},
	{"geometry":{"coordinates":[8.335723,48.125278],"type":"Point"},"properties":{"osm_id":"300580975","tag":{"amenity":"recycling","mapillary":"1-taavueAFSEEEWxViFRhQ","recycling_type":"container","survey:date":"2018-02-25"}},"type":"Feature"},
	{"geometry":{"coordinates":[8.327108,48.128304],"type":"Point"},"properties":{"osm_id":"300608194","tag":{"amenity":"recycling","recycling:glass_bottles":"yes","recycling_type":"container"}},"type":"Feature"},
	{"geometry":{"coordinates":[8.33936,48.129419],"type":"Point"},"properties":{"osm_id":"301778181","tag":{"amenity":"recycling","location":"overground","recycling:glass":"yes","recycling_type":"container"}},"type":"Feature"},
	{"geometry":{"coordinates":[8.337257,48.132171],"type":"Point"},"properties":{"osm_id":"301778426","tag":{"amenity":"recycling","recycling:clothes":"yes","recycling:glass_bottles":"yes","recycling_type":"container"}},"type":"Feature"},
	{"geometry":{"coordinates":[8.32166,48.127093],"type":"Point"},"properties":{"osm_id":"303764899","tag":{"amenity":"recycling","recycling:glass_bottles":"yes","recycling_type":"container"}},"type":"Feature"},
	{"geometry":{"coordinates":[8.34016,48.136948],"type":"Point"},"properties":{"osm_id":"303973415","tag":{"amenity":"recycling","recycling:glass_bottles":"yes","recycling_type":"container"}},"type":"Feature"},
	{"geometry":{"coordinates":[8.33908,48.131381],"type":"Point"},"properties":{"osm_id":"305425827","tag":{"amenity":"recycling","recycling_type":"container"}},"type":"Feature"},
	{"geometry":{"coordinates":[8.324479,48.124428],"type":"Point"},"properties":{"osm_id":"307473946","tag":{"amenity":"recycling","recycling:glass":"yes","recycling_type":"container"}},"type":"Feature"},
	{"geometry":{"coordinates":[8.34163,48.129048],"type":"Point"},"properties":{"osm_id":"310798098","tag":{"amenity":"recycling","location":"overground","recycling:glass":"yes","recycling_type":"container"}},"type":"Feature"},
	{"geometry":{"coordinates":[8.333857,48.120271],"type":"Point"},"properties":{"osm_id":"310819616","tag":{"amenity":"recycling","location":"overground","recycling:clothes":"yes","recycling:glass":"yes","recycling_type":"container"}},"type":"Feature"},
	{"geometry":{"coordinates":[8.337815,48.12415],"type":"Point"},"properties":{"osm_id":"1878858652","tag":{"amenity":"recycling","recycling:glass":"yes","recycling_type":"container"}},"type":"Feature"},
	{"geometry":{"coordinates":[8.332346,48.126797],"type":"Point"},"properties":{"osm_id":"2121496536","tag":{"amenity":"waste_basket"}},"type":"Feature"},
	{"geometry":{"coordinates":[8.33183,48.126432],"type":"Point"},"properties":{"osm_id":"2122624699","tag":{"amenity":"waste_basket"}},"type":"Feature"},
	{"geometry":{"coordinates":[8.332332,48.125839],"type":"Point"},"properties":{"osm_id":"2851363783","tag":{"amenity":"waste_basket"}},"type":"Feature"},
	{"geometry":{"coordinates":[8.344503,48.108919],"type":"Point"},"properties":{"name":"Altglas","osm_id":"4220238765","tag":{"amenity":"recycling","location":"overground","recycling_type":"container"}},"type":"Feature"},
	{"geometry":{"coordinates":[8.32911,48.123678],"type":"Point"},"properties":{"osm_id":"4288976392","tag":{"amenity":"waste_basket"}},"type":"Feature"},
	{"geometry":{"coordinates":[8.329048,48.124185],"type":"Point"},"properties":{"osm_id":"4288976393","tag":{"amenity":"waste_basket"}},"type":"Feature"},
	{"geometry":{"coordinates":[8.345108,48.124668],"type":"Point"},"properties":{"barrier":"gate","osm_id":"4299021081","tag":{"access":"destination"}},"type":"Feature"},
	{"geometry":{"coordinates":[8.331485,48.123974],"type":"Point"},"properties":{"osm_id":"4519268879","tag":{"amenity":"recycling","recycling:glass_bottles":"yes","recycling_type":"container"}},"type":"Feature"},
	{"geometry":{"coordinates":[8.337212,48.129501],"type":"Point"},"properties":{"osm_id":"4525801785","tag":{"amenity":"waste_basket"}},"type":"Feature"},
	{"geometry":{"coordinates":[8.308462,48.114136],"type":"Point"},"properties":{"osm_id":"6313205059","tag":{"amenity":"waste_basket"}},"type":"Feature"},
	{"geometry":{"coordinates":[8.308518,48.114244],"type":"Point"},"properties":{"osm_id":"6318749190","tag":{"amenity":"recycling","operator":"Deutsches Rotes Kreuz","recycling:clothes":"yes","recycling:shoes":"yes","recycling_type":"container"}},"type":"Feature"},
	{"geometry":{"coordinates":[8.308552,48.114258],"type":"Point"},"properties":{"osm_id":"6318749191","tag":{"amenity":"recycling","recycling:glass":"yes","recycling_type":"container"}},"type":"Feature"},
	{"geometry":{"coordinates":[8.290641,48.130708],"type":"Point"},"properties":{"osm_id":"6982320530","tag":{"amenity":"waste_basket"}},"type":"Feature"},
	{"geometry":{"coordinates":[8.337953,48.128581],"type":"Point"},"properties":{"osm_id":"7562277238","tag":{"amenity":"recycling","recycling:clothes":"yes","recycling_type":"container"}},"type":"Feature"},
	{"geometry":{"coordinates":[8.333488,48.121543],"type":"Point"},"properties":{"osm_id":"7616538256","tag":{"amenity":"waste_basket","waste":"trash"}},"type":"Feature"},
	{"geometry":{"coordinates":[8.34236,48.124114],"type":"Point"},"properties":{"osm_id":"8169887287","tag":{"amenity":"waste_basket","waste":"trash"}},"type":"Feature"},
	{"geometry":{"coordinates":[8.341609,48.123893],"type":"Point"},"properties":{"osm_id":"8169887316","tag":{"amenity":"waste_basket","waste":"trash"}},"type":"Feature"},
	{"geometry":{"coordinates":[8.343502,48.124425],"type":"Point"},"properties":{"osm_id":"8169887339","tag":{"amenity":"waste_basket","level":"0","waste":"trash"}},"type":"Feature"},
	{"geometry":{"coordinates":[8.342796,48.12414],"type":"Point"},"properties":{"osm_id":"8169887349","tag":{"amenity":"waste_basket","level":"0","waste":"trash"}},"type":"Feature"},
	{"geometry":{"coordinates":[8.322657,48.127968],"type":"Point"},"properties":{"osm_id":"8435780849","tag":{"amenity":"waste_basket","waste":"trash"}},"type":"Feature"},
	{"geometry":{"coordinates":[8.339992,48.134051],"type":"Point"},"properties":{"osm_id":"8437339791","tag":{"amenity":"recycling","recycling:clothes":"yes","recycling:glass":"no","recycling:glass_bottles":"yes","recycling_type":"container"}},"type":"Feature"},
	{"geometry":{"coordinates":[8.329105,48.126721],"type":"Point"},"properties":{"osm_id":"8439121105","tag":{"amenity":"waste_basket"}},"type":"Feature"},
	{"geometry":{"coordinates":[8.324975,48.128247],"type":"Point"},"properties":{"osm_id":"8439121106","tag":{"amenity":"waste_basket","waste":"trash"}},"type":"Feature"},
	{"geometry":{"coordinates":[8.32784,48.126836],"type":"Point"},"properties":{"osm_id":"8440731083","tag":{"amenity":"waste_basket"}},"type":"Feature"},
	{"geometry":{"coordinates":[8.328521,48.126732],"type":"Point"},"properties":{"osm_id":"8440731085","tag":{"amenity":"waste_basket"}},"type":"Feature"},
	{"geometry":{"coordinates":[8.3267,48.127665],"type":"Point"},"properties":{"osm_id":"8442566317","tag":{"amenity":"waste_basket"}},"type":"Feature"},
	{"geometry":{"coordinates":[8.331014,48.125171],"type":"Point"},"properties":{"osm_id":"8482157946","tag":{"amenity":"waste_basket","waste":"trash"}},"type":"Feature"},
	{"geometry":{"coordinates":[8.285818,48.124023],"type":"Point"},"properties":{"osm_id":"8491978065","tag":{"amenity":"waste_basket"}},"type":"Feature"},
	{"geometry":{"coordinates":[8.318308,48.130724],"type":"Point"},"properties":{"osm_id":"8595435962","tag":{"amenity":"waste_basket","waste":"trash"}},"type":"Feature"},
	{"geometry":{"coordinates":[8.317538,48.133186],"type":"Point"},"properties":{"osm_id":"8595435973","tag":{"amenity":"waste_basket","waste":"trash"}},"type":"Feature"},
	{"geometry":{"coordinates":[8.341681,48.123589],"type":"Point"},"properties":{"osm_id":"8718737206","tag":{"amenity":"waste_basket","indoor":"yes","layer":"-1","level":"-1","waste":"trash"}},"type":"Feature"},
	{"geometry":{"coordinates":[8.341508,48.123781],"type":"Point"},"properties":{"osm_id":"8718737207","tag":{"amenity":"waste_basket","indoor":"yes","layer":"-1","level":"-1","waste":"trash"}},"type":"Feature"},
	{"geometry":{"coordinates":[8.342113,48.124007],"type":"Point"},"properties":{"osm_id":"8718737211","tag":{"amenity":"waste_basket","covered":"yes","level":"0","waste":"trash"}},"type":"Feature"},
	{"geometry":{"coordinates":[8.34187,48.124031],"type":"Point"},"properties":{"osm_id":"8718760820","tag":{"amenity":"waste_basket","indoor":"yes","level":"0","waste":"trash"}},"type":"Feature"},
	{"geometry":{"coordinates":[8.341976,48.12396],"type":"Point"},"properties":{"osm_id":"8718760826","tag":{"amenity":"waste_basket","indoor":"yes","level":"0","waste":"trash"}},"type":"Feature"},
	{"geometry":{"coordinates":[8.343014,48.12423],"type":"Point"},"properties":{"osm_id":"8718760827","tag":{"amenity":"waste_basket","level":"0","waste":"trash"}},"type":"Feature"},
	{"geometry":{"coordinates":[8.342503,48.124006],"type":"Point"},"properties":{"osm_id":"8718760829","tag":{"amenity":"waste_basket","level":"0","waste":"trash"}},"type":"Feature"},
	{"geometry":{"coordinates":[8.342029,48.123953],"type":"Point"},"properties":{"osm_id":"8718760849","tag":{"amenity":"waste_basket","covered":"yes","level":"0","waste":"trash"}},"type":"Feature"}
]
}
