{
"type": "FeatureCollection",
"features": [
	{"geometry":{"coordinates":[8.316873,47.721072],"type":"Point"},"properties":{"osm_id":"1421155423","tag":{"amenity":"waste_basket"}},"type":"Feature"},
	{"geometry":{"coordinates":[8.31791,47.721381],"type":"Point"},"properties":{"osm_id":"1421155432","tag":{"amenity":"waste_basket"}},"type":"Feature"},
	{"geometry":{"coordinates":[8.308654,47.748586],"type":"Point"},"properties":{"osm_id":"1424268726","tag":{"amenity":"waste_basket"}},"type":"Feature"},
	{"geometry":{"coordinates":[8.298003,47.749212],"type":"Point"},"properties":{"osm_id":"1424268734","tag":{"amenity":"waste_basket"}},"type":"Feature"},
	{"geometry":{"coordinates":[8.304645,47.746575],"type":"Point"},"properties":{"osm_id":"1428383240","tag":{"amenity":"waste_basket"}},"type":"Feature"},
	{"geometry":{"coordinates":[8.292918,47.751438],"type":"Point"},"properties":{"osm_id":"1428383710","tag":{"amenity":"recycling","recycling:glass":"yes","recycling_type":"container"}},"type":"Feature"},
	{"geometry":{"coordinates":[8.311961,47.750234],"type":"Point"},"properties":{"osm_id":"1867554974","tag":{"amenity":"waste_basket"}},"type":"Feature"},
	{"geometry":{"coordinates":[8.320247,47.752913],"type":"Point"},"properties":{"osm_id":"1916877009","tag":{"amenity":"waste_basket"}},"type":"Feature"},
	{"geometry":{"coordinates":[8.316189,47.750146],"type":"Point"},"properties":{"osm_id":"1917980841","tag":{"amenity":"waste_basket"}},"type":"Feature"},
	{"geometry":{"coordinates":[8.316362,47.715844],"type":"Point"},"properties":{"osm_id":"1930808957","tag":{"amenity":"recycling","recycling_type":"container"}},"type":"Feature"},
	{"geometry":{"coordinates":[8.342274,47.701298],"type":"Point"},"properties":{"osm_id":"2323637640","tag":{"amenity":"recycling","recycling:glass":"yes","recycling_type":"container"}},"type":"Feature"},
	{"geometry":{"coordinates":[8.315302,47.733082],"type":"Point"},"properties":{"osm_id":"2323704582","tag":{"amenity":"waste_basket"}},"type":"Feature"},
	{"geometry":{"coordinates":[8.313561,47.752847],"type":"Point"},"properties":{"osm_id":"2721550467","tag":{"amenity":"recycling","recycling:cans":"yes","recycling:glass":"yes","recycling_type":"container"}},"type":"Feature"},
	{"geometry":{"coordinates":[8.290683,47.71568],"type":"Point"},"properties":{"osm_id":"2758871603","tag":{"amenity":"recycling","recycling:cans":"yes","recycling:glass_bottles":"yes","recycling_type":"container"}},"type":"Feature"},
	{"geometry":{"coordinates":[8.31731,47.718228],"type":"Point"},"properties":{"osm_id":"2819031664","tag":{"amenity":"waste_basket"}},"type":"Feature"},
	{"geometry":{"coordinates":[8.321692,47.743709],"type":"Point"},"properties":{"osm_id":"3100525535","tag":{"amenity":"waste_basket","waste":"trash"}},"type":"Feature"},
	{"geometry":{"coordinates":[8.342428,47.701591],"type":"Point"},"properties":{"osm_id":"4387417191","tag":{"amenity":"recycling","recycling:glass_bottles":"yes","recycling_type":"container"}},"type":"Feature"},
	{"geometry":{"coordinates":[8.342613,47.701443],"type":"Point"},"properties":{"osm_id":"4459277993","tag":{"amenity":"waste_basket"}},"type":"Feature"},
	{"geometry":{"coordinates":[8.278656,47.724818],"type":"Point"},"properties":{"osm_id":"9143359720","tag":{"amenity":"waste_basket"}},"type":"Feature"}
]
}
