{
"type": "FeatureCollection",
"features": [
	{"geometry":{"coordinates":[8.284555,47.618545],"type":"Point"},"properties":{"barrier":"gate","osm_id":"280344596","tag":{"access":"yes","bicycle":"yes","foot":"yes","motorcar":"yes","motorcycle":"yes"}},"type":"Feature"},
	{"geometry":{"coordinates":[8.275216,47.630416],"type":"Point"},"properties":{"osm_id":"343404286","tag":{"amenity":"recycling","recycling:glass_bottles":"yes","recycling_type":"container"}},"type":"Feature"},
	{"geometry":{"coordinates":[8.301244,47.58746],"type":"Point"},"properties":{"osm_id":"608062531","tag":{"amenity":"recycling","recycling:glass":"yes"}},"type":"Feature"},
	{"geometry":{"coordinates":[8.294105,47.610371],"type":"Point"},"properties":{"osm_id":"608590157","tag":{"amenity":"recycling","recycling:glass":"yes","recycling_type":"container"}},"type":"Feature"},
	{"geometry":{"coordinates":[8.281554,47.634028],"type":"Point"},"properties":{"osm_id":"648618527","tag":{"amenity":"recycling","recycling:glass":"yes","recycling_type":"container"}},"type":"Feature"},
	{"geometry":{"coordinates":[8.266544,47.617579],"type":"Point"},"properties":{"osm_id":"681842385","tag":{"amenity":"recycling","recycling:glass_bottles":"yes","recycling_type":"container"}},"type":"Feature"},
	{"geometry":{"coordinates":[8.315681,47.62539],"type":"Point"},"properties":{"osm_id":"1444853701","tag":{"amenity":"waste_basket"}},"type":"Feature"},
	{"geometry":{"coordinates":[8.275076,47.633488],"type":"Point"},"properties":{"osm_id":"1515981466","tag":{"amenity":"recycling","recycling:glass":"yes","recycling_type":"container"}},"type":"Feature"},
	{"geometry":{"coordinates":[8.275291,47.634782],"type":"Point"},"properties":{"osm_id":"1531897724","tag":{"amenity":"waste_basket"}},"type":"Feature"},
	{"geometry":{"coordinates":[8.274392,47.635272],"type":"Point"},"properties":{"osm_id":"1531897796","tag":{"amenity":"waste_basket"}},"type":"Feature"},
	{"geometry":{"coordinates":[8.272509,47.635351],"type":"Point"},"properties":{"osm_id":"1531897814","tag":{"amenity":"waste_basket"}},"type":"Feature"},
	{"geometry":{"coordinates":[8.271851,47.635365],"type":"Point"},"properties":{"osm_id":"1531897831","tag":{"amenity":"waste_basket"}},"type":"Feature"},
	{"geometry":{"coordinates":[8.272929,47.635431],"type":"Point"},"properties":{"osm_id":"1531897872","tag":{"amenity":"waste_basket"}},"type":"Feature"},
	{"geometry":{"coordinates":[8.272153,47.635441],"type":"Point"},"properties":{"osm_id":"1531897875","tag":{"amenity":"waste_basket"}},"type":"Feature"},
	{"geometry":{"coordinates":[8.317005,47.634177],"type":"Point"},"properties":{"name":"Recyclinghof Lauchringen","osm_id":"1607990523","tag":{"amenity":"recycling","opening_hours":"We 13:00-16:00; Fr 15:00-17:00; Sa 09:00-16:00","recycling:clothes":"yes","recycling:paper":"yes","recycling_type":"centre"}},"type":"Feature"},
	{"geometry":{"coordinates":[8.310865,47.627058],"type":"Point"},"properties":{"osm_id":"1622805777","tag":{"amenity":"waste_basket"}},"type":"Feature"},
	{"geometry":{"coordinates":[8.313296,47.628089],"type":"Point"},"properties":{"osm_id":"1622805913","tag":{"amenity":"waste_basket"}},"type":"Feature"},
	{"geometry":{"coordinates":[8.289854,47.635643],"type":"Point"},"properties":{"osm_id":"1639533065","tag":{"amenity":"waste_basket"}},"type":"Feature"},
	{"geometry":{"coordinates":[8.278899,47.632344],"type":"Point"},"properties":{"osm_id":"1659730832","tag":{"amenity":"recycling","recycling:cans":"yes","recycling:glass":"yes","recycling_type":"container"}},"type":"Feature"},
	{"geometry":{"coordinates":[8.327196,47.621653],"type":"Point"},"properties":{"osm_id":"1706426109","tag":{"amenity":"recycling","recycling:glass":"yes","recycling_type":"container"}},"type":"Feature"},
	{"geometry":{"coordinates":[8.306973,47.590205],"type":"Point"},"properties":{"osm_id":"1874272042","tag":{"addr:city":"Rheinheim","addr:postcode":"79790","addr:street":"Unterer Hardtweg","amenity":"recycling","recycling:glass":"no","recycling:glass_bottles":"yes","recycling_type":"container"}},"type":"Feature"},
	{"geometry":{"coordinates":[8.276629,47.600944],"type":"Point"},"properties":{"osm_id":"1878618972","tag":{"amenity":"recycling"}},"type":"Feature"},
	{"geometry":{"coordinates":[8.306149,47.606242],"type":"Point"},"properties":{"name":"excrement_bags","osm_id":"1918390266","tag":{"amenity":"waste_basket","vending":"excrement_bags"}},"type":"Feature"},
	{"geometry":{"coordinates":[8.306749,47.591743],"type":"Point"},"properties":{"name":"excrement_bags","osm_id":"2210827974","tag":{"amenity":"waste_basket","vending":"excrement_bags"}},"type":"Feature"},
	{"geometry":{"coordinates":[8.297974,47.601698],"type":"Point"},"properties":{"osm_id":"2210851361","tag":{"amenity":"waste_basket","vending":"excrement_bags"}},"type":"Feature"},
	{"geometry":{"coordinates":[8.320524,47.598016],"type":"Point"},"properties":{"osm_id":"2221952411","tag":{"amenity":"recycling","recycling_type":"container"}},"type":"Feature"},
	{"geometry":{"coordinates":[8.307695,47.633306],"type":"Point"},"properties":{"osm_id":"2709432982","tag":{"amenity":"waste_basket"}},"type":"Feature"},
	{"geometry":{"coordinates":[8.268224,47.631134],"type":"Point"},"properties":{"osm_id":"2734396249","tag":{"amenity":"recycling","recycling:clothes":"yes","recycling_type":"container"}},"type":"Feature"},
	{"geometry":{"coordinates":[8.275022,47.633936],"type":"Point"},"properties":{"osm_id":"2912969558","tag":{"amenity":"waste_basket"}},"type":"Feature"},
	{"geometry":{"coordinates":[8.289069,47.626189],"type":"Point"},"properties":{"osm_id":"3304877138","tag":{"amenity":"waste_basket"}},"type":"Feature"},
	{"geometry":{"coordinates":[8.304677,47.596443],"type":"Point"},"properties":{"name":"excrement bags","osm_id":"3307876677","tag":{"amenity":"waste_basket"}},"type":"Feature"},
	{"geometry":{"coordinates":[8.306383,47.591468],"type":"Point"},"properties":{"osm_id":"3308578927","tag":{"amenity":"waste_basket"}},"type":"Feature"},
	{"geometry":{"coordinates":[8.297091,47.598642],"type":"Point"},"properties":{"osm_id":"3350523696","tag":{"amenity":"waste_basket"}},"type":"Feature"},
	{"geometry":{"coordinates":[8.297322,47.599552],"type":"Point"},"properties":{"osm_id":"3350540768","tag":{"amenity":"waste_basket","vending":"excrement_bags"}},"type":"Feature"},
	{"geometry":{"coordinates":[8.298471,47.603153],"type":"Point"},"properties":{"osm_id":"3350554655","tag":{"amenity":"waste_basket"}},"type":"Feature"},
	{"geometry":{"coordinates":[8.29868,47.60354],"type":"Point"},"properties":{"osm_id":"3350575023","tag":{"amenity":"waste_basket"}},"type":"Feature"},
	{"geometry":{"coordinates":[8.291904,47.616308],"type":"Point"},"properties":{"osm_id":"3353745047","tag":{"amenity":"waste_basket"}},"type":"Feature"},
	{"geometry":{"coordinates":[8.311254,47.597374],"type":"Point"},"properties":{"osm_id":"3353972107","tag":{"amenity":"waste_basket"}},"type":"Feature"},
	{"geometry":{"coordinates":[8.314888,47.595687],"type":"Point"},"properties":{"name":"excrement bags","osm_id":"3356960939","tag":{"amenity":"waste_basket"}},"type":"Feature"},
	{"geometry":{"coordinates":[8.316442,47.596742],"type":"Point"},"properties":{"name":"excrement bags","osm_id":"3382019393","tag":{"amenity":"waste_basket"}},"type":"Feature"},
	{"geometry":{"coordinates":[8.310922,47.591865],"type":"Point"},"properties":{"osm_id":"3390143836","tag":{"amenity":"waste_basket"}},"type":"Feature"},
	{"geometry":{"coordinates":[8.324813,47.599144],"type":"Point"},"properties":{"name":"excrement bags","osm_id":"3441800874","tag":{"amenity":"waste_basket"}},"type":"Feature"},
	{"geometry":{"coordinates":[8.297157,47.595636],"type":"Point"},"properties":{"osm_id":"3449061115","tag":{"amenity":"waste_basket"}},"type":"Feature"},
	{"geometry":{"coordinates":[8.297226,47.595471],"type":"Point"},"properties":{"name":"excrement bags","osm_id":"3449066251","tag":{"amenity":"waste_basket"}},"type":"Feature"},
	{"geometry":{"coordinates":[8.321168,47.596377],"type":"Point"},"properties":{"osm_id":"3489307584","tag":{"amenity":"waste_basket"}},"type":"Feature"},
	{"geometry":{"coordinates":[8.321217,47.596385],"type":"Point"},"properties":{"name":"excrement bags","osm_id":"3489319921","tag":{"amenity":"waste_basket"}},"type":"Feature"},
	{"geometry":{"coordinates":[8.343787,47.603706],"type":"Point"},"properties":{"osm_id":"3523063526","tag":{"amenity":"recycling","recycling:glass":"yes","recycling_type":"container"}},"type":"Feature"},
	{"geometry":{"coordinates":[8.335559,47.599867],"type":"Point"},"properties":{"name":"excrement bags","osm_id":"3526990829","tag":{"amenity":"waste_basket"}},"type":"Feature"},
	{"geometry":{"coordinates":[8.329175,47.590411],"type":"Point"},"properties":{"osm_id":"3539155004","tag":{"amenity":"waste_basket"}},"type":"Feature"},
	{"geometry":{"coordinates":[8.309824,47.587099],"type":"Point"},"properties":{"name":"excrement bags","osm_id":"3790640161","tag":{"amenity":"waste_basket"}},"type":"Feature"},
	{"geometry":{"coordinates":[8.288483,47.5827],"type":"Point"},"properties":{"osm_id":"4265159070","tag":{"amenity":"waste_basket"}},"type":"Feature"},
	{"geometry":{"coordinates":[8.288854,47.585234],"type":"Point"},"properties":{"osm_id":"4265160825","tag":{"amenity":"waste_basket"}},"type":"Feature"},
	{"geometry":{"coordinates":[8.286059,47.586521],"type":"Point"},"properties":{"osm_id":"4265160870","tag":{"amenity":"waste_basket"}},"type":"Feature"},
	{"geometry":{"coordinates":[8.282971,47.588691],"type":"Point"},"properties":{"osm_id":"4265160883","tag":{"amenity":"waste_basket"}},"type":"Feature"},
	{"geometry":{"coordinates":[8.27926,47.592229],"type":"Point"},"properties":{"osm_id":"4265160890","tag":{"amenity":"waste_basket"}},"type":"Feature"},
	{"geometry":{"coordinates":[8.278753,47.593127],"type":"Point"},"properties":{"osm_id":"4265160894","tag":{"amenity":"waste_basket"}},"type":"Feature"},
	{"geometry":{"coordinates":[8.297211,47.583081],"type":"Point"},"properties":{"osm_id":"4318191589","tag":{"amenity":"waste_basket"}},"type":"Feature"},
	{"geometry":{"coordinates":[8.300693,47.581538],"type":"Point"},"properties":{"osm_id":"4320270164","tag":{"amenity":"waste_basket"}},"type":"Feature"},
	{"geometry":{"coordinates":[8.299913,47.581816],"type":"Point"},"properties":{"osm_id":"4320270167","tag":{"amenity":"waste_basket"}},"type":"Feature"},
	{"geometry":{"coordinates":[8.299111,47.582102],"type":"Point"},"properties":{"osm_id":"4320270169","tag":{"amenity":"waste_basket"}},"type":"Feature"},
	{"geometry":{"coordinates":[8.302967,47.579367],"type":"Point"},"properties":{"osm_id":"4322195910","tag":{"amenity":"waste_basket"}},"type":"Feature"},
	{"geometry":{"coordinates":[8.304019,47.579521],"type":"Point"},"properties":{"osm_id":"4322195913","tag":{"amenity":"waste_basket"}},"type":"Feature"},
	{"geometry":{"coordinates":[8.301781,47.580625],"type":"Point"},"properties":{"osm_id":"4322195917","tag":{"amenity":"waste_basket"}},"type":"Feature"},
	{"geometry":{"coordinates":[8.300633,47.584217],"type":"Point"},"properties":{"osm_id":"4322195921","tag":{"amenity":"waste_basket"}},"type":"Feature"},
	{"geometry":{"coordinates":[8.3213,47.597083],"type":"Point"},"properties":{"osm_id":"4341565441","tag":{"amenity":"waste_basket"}},"type":"Feature"},
	{"geometry":{"coordinates":[8.321178,47.597104],"type":"Point"},"properties":{"osm_id":"4341565445","tag":{"amenity":"waste_basket"}},"type":"Feature"},
	{"geometry":{"coordinates":[8.320467,47.597217],"type":"Point"},"properties":{"osm_id":"4343079566","tag":{"amenity":"waste_basket"}},"type":"Feature"},
	{"geometry":{"coordinates":[8.293629,47.585117],"type":"Point"},"properties":{"osm_id":"4381911690","tag":{"amenity":"waste_basket"}},"type":"Feature"},
	{"geometry":{"coordinates":[8.294509,47.584997],"type":"Point"},"properties":{"osm_id":"4381916027","tag":{"amenity":"waste_basket"}},"type":"Feature"},
	{"geometry":{"coordinates":[8.296976,47.610347],"type":"Point"},"properties":{"osm_id":"4594045673","tag":{"amenity":"recycling","recycling:glass":"no","recycling:glass_bottles":"yes","recycling_type":"container","wheelchair":"limited"}},"type":"Feature"},
	{"geometry":{"coordinates":[8.299354,47.592333],"type":"Point"},"properties":{"osm_id":"4851799217","tag":{"amenity":"recycling","recycling:glass":"no","recycling:glass_bottles":"yes","recycling_type":"container","wheelchair":"limited"}},"type":"Feature"},
	{"geometry":{"coordinates":[8.300133,47.593608],"type":"Point"},"properties":{"osm_id":"4851799534","tag":{"amenity":"waste_basket"}},"type":"Feature"},
	{"geometry":{"coordinates":[8.300285,47.593628],"type":"Point"},"properties":{"osm_id":"4851799537","tag":{"amenity":"waste_basket"}},"type":"Feature"},
	{"geometry":{"coordinates":[8.268783,47.6083],"type":"Point"},"properties":{"osm_id":"4868144450","tag":{"amenity":"waste_basket"}},"type":"Feature"},
	{"geometry":{"coordinates":[8.273974,47.608432],"type":"Point"},"properties":{"osm_id":"4868144454","tag":{"amenity":"waste_basket"}},"type":"Feature"},
	{"geometry":{"coordinates":[8.2864,47.610125],"type":"Point"},"properties":{"osm_id":"4868144455","tag":{"amenity":"waste_basket"}},"type":"Feature"},
	{"geometry":{"coordinates":[8.296588,47.604322],"type":"Point"},"properties":{"osm_id":"4868144456","tag":{"amenity":"waste_basket"}},"type":"Feature"},
	{"geometry":{"coordinates":[8.295868,47.600619],"type":"Point"},"properties":{"osm_id":"4868282050","tag":{"amenity":"waste_basket"}},"type":"Feature"},
	{"geometry":{"coordinates":[8.29627,47.602622],"type":"Point"},"properties":{"osm_id":"4868282051","tag":{"amenity":"waste_basket"}},"type":"Feature"},
	{"geometry":{"coordinates":[8.295685,47.590727],"type":"Point"},"properties":{"osm_id":"4868300246","tag":{"amenity":"waste_basket"}},"type":"Feature"},
	{"geometry":{"coordinates":[8.294777,47.596829],"type":"Point"},"properties":{"osm_id":"4868300248","tag":{"amenity":"waste_basket"}},"type":"Feature"},
	{"geometry":{"coordinates":[8.281475,47.593435],"type":"Point"},"properties":{"osm_id":"4906559049","tag":{"amenity":"waste_basket"}},"type":"Feature"},
	{"geometry":{"coordinates":[8.281554,47.634028],"type":"Point"},"properties":{"osm_id":"5022193910","tag":{"amenity":"recycling","recycling:glass_bottles":"yes","recycling_type":"container"}},"type":"Feature"},
	{"geometry":{"coordinates":[8.280237,47.621563],"type":"Point"},"properties":{"osm_id":"5697329456","tag":{"amenity":"waste_basket","waste":"dog_excrement"}},"type":"Feature"},
	{"geometry":{"coordinates":[8.270877,47.629051],"type":"Point"},"properties":{"osm_id":"5715984763","tag":{"amenity":"waste_basket","waste":"dog_excrement"}},"type":"Feature"},
	{"geometry":{"coordinates":[8.274447,47.631325],"type":"Point"},"properties":{"osm_id":"5715984764","tag":{"amenity":"waste_basket","waste":"dog_excrement"}},"type":"Feature"},
	{"geometry":{"coordinates":[8.308159,47.632734],"type":"Point"},"properties":{"osm_id":"6654491108","tag":{"amenity":"waste_basket","waste":"trash"}},"type":"Feature"},
	{"geometry":{"coordinates":[8.33043,47.619266],"type":"Point"},"properties":{"osm_id":"7512290998","tag":{"amenity":"waste_basket"}},"type":"Feature"}
]
}
