{
"type": "FeatureCollection",
"features": [
	{"geometry":{"coordinates":[8.289179,47.465988],"type":"Point"},"properties":{"name":"Kehl","osm_id":"264530326","tag":{"amenity":"recycling"}},"type":"Feature"},
	{"geometry":{"coordinates":[8.309118,47.474823],"type":"Point"},"properties":{"name":"Oelrainstrasse","osm_id":"288436328","tag":{"amenity":"recycling","recycling:aluminium":"yes","recycling:cans":"yes","recycling:foil":"yes","recycling:glass":"yes","recycling_type":"container"}},"type":"Feature"},
	{"geometry":{"coordinates":[8.295059,47.484108],"type":"Point"},"properties":{"osm_id":"298175486","tag":{"amenity":"recycling","recycling:glass":"yes"}},"type":"Feature"},
	{"geometry":{"coordinates":[8.284284,47.48983],"type":"Point"},"properties":{"osm_id":"298187313","tag":{"amenity":"recycling","recycling_type":"centre"}},"type":"Feature"},
	{"geometry":{"coordinates":[8.287035,47.483069],"type":"Point"},"properties":{"osm_id":"298692156","tag":{"amenity":"recycling","recycling:glass":"yes"}},"type":"Feature"},
	{"geometry":{"coordinates":[8.346769,47.500911],"type":"Point"},"properties":{"osm_id":"323236499","tag":{"amenity":"recycling","recycling:aluminium":"yes","recycling:glass_bottles":"yes","recycling_type":"container"}},"type":"Feature"},
	{"geometry":{"coordinates":[8.308816,47.471659],"type":"Point"},"properties":{"osm_id":"331575371","tag":{"amenity":"recycling","recycling:glass_bottles":"yes","recycling_type":"container"}},"type":"Feature"},
	{"geometry":{"coordinates":[8.305911,47.465935],"type":"Point"},"properties":{"osm_id":"380891120","tag":{"amenity":"recycling","recycling:glass":"yes","recycling:scrap_metal":"yes"}},"type":"Feature"},
	{"geometry":{"coordinates":[8.329856,47.459305],"type":"Point"},"properties":{"osm_id":"385066180","tag":{"amenity":"recycling","recycling:batteries":"yes","recycling:cans":"yes","recycling:clothes":"yes","recycling:glass":"yes","recycling_type":"container"}},"type":"Feature"},
	{"geometry":{"coordinates":[8.287859,47.473423],"type":"Point"},"properties":{"osm_id":"389468389","tag":{"amenity":"recycling","description":"Glas, Aluminium, Blech","recycling:batteries":"no","recycling:books":"no","recycling:cans":"yes","recycling:cardboard":"no","recycling:cartons":"no","recycling:clothes":"no","recycling:glass":"no","recycling:glass_bottles":"yes","recycling:green_waste":"no","recycling:magazines":"no","recycling:newspaper":"no","recycling:paper":"no","recycling:paper_packaging":"no","recycling:plastic":"no","recycling:plastic_bottles":"no","recycling:plastic_packaging":"no","recycling:scrap_metal":"yes","recycling:small_appliances":"no","recycling:waste":"no","recycling:wood":"no","recycling_type":"container"}},"type":"Feature"},
	{"geometry":{"coordinates":[8.307922,47.473285],"type":"Point"},"properties":{"osm_id":"399521156","tag":{"amenity":"waste_basket"}},"type":"Feature"},
	{"geometry":{"coordinates":[8.31694,47.467713],"type":"Point"},"properties":{"osm_id":"559682617","tag":{"amenity":"recycling","recycling:cans":"yes","recycling:glass":"yes"}},"type":"Feature"},
	{"geometry":{"coordinates":[8.341491,47.493612],"type":"Point"},"properties":{"osm_id":"700834136","tag":{"addr:city":"Ehrendingen","addr:postcode":"5420","addr:street":"Breitenstrasse","amenity":"recycling","operator":"Gemeinde Ehrendingen","recycling:cans":"yes","recycling:glass":"yes","recycling:glass_bottles":"yes","recycling:paper":"no","recycling:plastic":"no","recycling_type":"container"}},"type":"Feature"},
	{"geometry":{"coordinates":[8.319567,47.47978],"type":"Point"},"properties":{"osm_id":"1035441858","tag":{"amenity":"recycling","location":"overground","recycling_type":"container"}},"type":"Feature"},
	{"geometry":{"coordinates":[8.324734,47.467799],"type":"Point"},"properties":{"osm_id":"1297367401","tag":{"amenity":"recycling","recycling:batteries":"yes","recycling:cans":"yes","recycling:glass_bottles":"yes"}},"type":"Feature"},
	{"geometry":{"coordinates":[8.333906,47.468804],"type":"Point"},"properties":{"osm_id":"1297478722","tag":{"amenity":"recycling","recycling:batteries":"yes","recycling:cans":"yes","recycling:glass_bottles":"yes"}},"type":"Feature"},
	{"geometry":{"coordinates":[8.316505,47.471992],"type":"Point"},"properties":{"osm_id":"1307512047","tag":{"amenity":"recycling"}},"type":"Feature"},
	{"geometry":{"coordinates":[8.320973,47.469965],"type":"Point"},"properties":{"osm_id":"1307512058","tag":{"amenity":"recycling","recycling:glass":"yes"}},"type":"Feature"},
	{"geometry":{"coordinates":[8.337209,47.467435],"type":"Point"},"properties":{"osm_id":"1307521820","tag":{"amenity":"recycling","recycling:batteries":"yes","recycling:cans":"yes","recycling:glass_bottles":"yes","recycling_type":"container"}},"type":"Feature"},
	{"geometry":{"coordinates":[8.330502,47.46414],"type":"Point"},"properties":{"osm_id":"1334293348","tag":{"amenity":"recycling","opening_hours":"Mo-Sa 07:00-20:00; PH closed","recycling:cans":"yes","recycling:clothes":"yes","recycling:glass_bottles":"yes","recycling_type":"container"}},"type":"Feature"},
	{"geometry":{"coordinates":[8.32058,47.45975],"type":"Point"},"properties":{"osm_id":"1346780529","tag":{"amenity":"waste_basket"}},"type":"Feature"},
	{"geometry":{"coordinates":[8.322254,47.458259],"type":"Point"},"properties":{"osm_id":"1346781719","tag":{"amenity":"waste_basket"}},"type":"Feature"},
	{"geometry":{"coordinates":[8.319699,47.465445],"type":"Point"},"properties":{"osm_id":"1370782412","tag":{"amenity":"waste_basket"}},"type":"Feature"},
	{"geometry":{"coordinates":[8.328484,47.466456],"type":"Point"},"properties":{"osm_id":"1370806161","tag":{"amenity":"waste_basket"}},"type":"Feature"},
	{"geometry":{"coordinates":[8.331279,47.463611],"type":"Point"},"properties":{"osm_id":"1445204857","tag":{"amenity":"waste_basket"}},"type":"Feature"},
	{"geometry":{"coordinates":[8.278068,47.458227],"type":"Point"},"properties":{"osm_id":"1479490192","tag":{"amenity":"recycling","recycling:cans":"yes","recycling:glass":"yes","recycling:glass_bottles":"yes"}},"type":"Feature"},
	{"geometry":{"coordinates":[8.294279,47.487171],"type":"Point"},"properties":{"name":"Sammelstelle Parkplatz Gemeindehaus, Nussbaumen","osm_id":"1788793055","tag":{"amenity":"recycling","recycling:cans":"yes","recycling:glass":"yes","recycling:glass_bottles":"yes","recycling:paper":"no","recycling_type":"container","website":"https://www.obersiggenthal.ch/verwaltung/abfallentsorgung"}},"type":"Feature"},
	{"geometry":{"coordinates":[8.324504,47.465777],"type":"Point"},"properties":{"osm_id":"1866462541","tag":{"amenity":"recycling","recycling:glass":"yes","recycling_type":"underground"}},"type":"Feature"},
	{"geometry":{"coordinates":[8.300171,47.473883],"type":"Point"},"properties":{"osm_id":"2258313992","tag":{"amenity":"recycling","description":"Glas, Aluminium, Blech","recycling:batteries":"no","recycling:books":"no","recycling:cans":"yes","recycling:cardboard":"no","recycling:cartons":"no","recycling:clothes":"no","recycling:electrical_appliances":"no","recycling:glass":"no","recycling:glass_bottles":"yes","recycling:green_waste":"no","recycling:magazines":"no","recycling:newspaper":"no","recycling:paper":"no","recycling:paper_packaging":"no","recycling:plastic":"no","recycling:plastic_bottles":"no","recycling:scrap_metal":"yes","recycling:small_appliances":"no","recycling:waste":"no","recycling:wood":"no","recycling_type":"container"}},"type":"Feature"},
	{"geometry":{"coordinates":[8.296453,47.473824],"type":"Point"},"properties":{"name":"Kleider","osm_id":"2258317500","tag":{"amenity":"recycling","recycling:batteries":"no","recycling:books":"no","recycling:cans":"no","recycling:cardboard":"no","recycling:cartons":"no","recycling:clothes":"yes","recycling:electrical_appliances":"no","recycling:glass":"no","recycling:glass_bottles":"no","recycling:green_waste":"no","recycling:magazines":"no","recycling:newspaper":"no","recycling:paper":"no","recycling:paper_packaging":"no","recycling:plastic":"no","recycling:plastic_bottles":"no","recycling:plastic_packaging":"no","recycling:scrap_metal":"no","recycling:small_appliances":"no","recycling:waste":"no","recycling:wood":"no","recycling_type":"container"}},"type":"Feature"},
	{"geometry":{"coordinates":[8.325954,47.481913],"type":"Point"},"properties":{"osm_id":"2304237397","tag":{"amenity":"recycling","recycling:batteries":"no","recycling:cans":"yes","recycling:glass":"yes"}},"type":"Feature"},
	{"geometry":{"coordinates":[8.323023,47.463],"type":"Point"},"properties":{"osm_id":"2430337004","tag":{"amenity":"recycling","recycling:batteries":"yes","recycling:gas_bottles":"yes","recycling_type":"container"}},"type":"Feature"},
	{"geometry":{"coordinates":[8.307743,47.492543],"type":"Point"},"properties":{"osm_id":"2468139480","tag":{"amenity":"waste_basket"}},"type":"Feature"},
	{"geometry":{"coordinates":[8.309634,47.49409],"type":"Point"},"properties":{"osm_id":"2468139484","tag":{"amenity":"waste_basket"}},"type":"Feature"},
	{"geometry":{"coordinates":[8.325353,47.464088],"type":"Point"},"properties":{"osm_id":"2481379798","tag":{"amenity":"waste_basket"}},"type":"Feature"},
	{"geometry":{"coordinates":[8.311664,47.476173],"type":"Point"},"properties":{"osm_id":"2507992801","tag":{"amenity":"waste_basket"}},"type":"Feature"},
	{"geometry":{"coordinates":[8.312776,47.477484],"type":"Point"},"properties":{"osm_id":"2507992806","tag":{"amenity":"recycling"}},"type":"Feature"},
	{"geometry":{"coordinates":[8.266136,47.47661],"type":"Point"},"properties":{"osm_id":"2514204342","tag":{"amenity":"waste_basket"}},"type":"Feature"},
	{"geometry":{"coordinates":[8.315966,47.464128],"type":"Point"},"properties":{"osm_id":"2609251732","tag":{"amenity":"recycling","location":"underground","mapillary":"xrToXFsGIkvc1d16jCcy4w","recycling:cans":"yes","recycling:glass":"yes","recycling:paper":"no","recycling_type":"container","survey:date":"2019-11-14"}},"type":"Feature"},
	{"geometry":{"coordinates":[8.307553,47.475135],"type":"Point"},"properties":{"osm_id":"2708775543","tag":{"amenity":"waste_basket"}},"type":"Feature"},
	{"geometry":{"coordinates":[8.262315,47.49907],"type":"Point"},"properties":{"osm_id":"2709647791","tag":{"amenity":"waste_basket"}},"type":"Feature"},
	{"geometry":{"coordinates":[8.307692,47.473382],"type":"Point"},"properties":{"osm_id":"2926344419","tag":{"amenity":"waste_basket"}},"type":"Feature"},
	{"geometry":{"coordinates":[8.342511,47.494541],"type":"Point"},"properties":{"osm_id":"3035329805","tag":{"amenity":"waste_basket"}},"type":"Feature"},
	{"geometry":{"coordinates":[8.342042,47.495786],"type":"Point"},"properties":{"osm_id":"3035329808","tag":{"amenity":"waste_basket"}},"type":"Feature"},
	{"geometry":{"coordinates":[8.327769,47.469822],"type":"Point"},"properties":{"osm_id":"3689754873","tag":{"amenity":"waste_basket"}},"type":"Feature"},
	{"geometry":{"coordinates":[8.304936,47.474311],"type":"Point"},"properties":{"osm_id":"3718951578","tag":{"amenity":"recycling","recycling:cans":"yes","recycling:glass_bottles":"yes","recycling:metal":"yes","recycling_type":"container"}},"type":"Feature"},
	{"geometry":{"coordinates":[8.333787,47.468829],"type":"Point"},"properties":{"name":"Wertstoffsammelstelle Werkhof","osm_id":"3782091062","tag":{"amenity":"recycling","name:de":"Wertstoffsammelstelle Werkhof","operator":"Gemeinde Wettingen","recycling:cans":"yes","recycling:clothes":"yes","recycling:glass_bottles":"yes","recycling_type":"container"}},"type":"Feature"},
	{"geometry":{"coordinates":[8.333304,47.469188],"type":"Point"},"properties":{"osm_id":"3782091157","tag":{"amenity":"waste_basket"}},"type":"Feature"},
	{"geometry":{"coordinates":[8.309542,47.476954],"type":"Point"},"properties":{"osm_id":"3939573059","tag":{"amenity":"waste_basket"}},"type":"Feature"},
	{"geometry":{"coordinates":[8.3415,47.493813],"type":"Point"},"properties":{"osm_id":"3956563623","tag":{"addr:city":"Ehrendingen","addr:postcode":"5420","addr:street":"Breitenstrasse","amenity":"recycling","operator":"TexAid","recycling:cans":"no","recycling:clothes":"yes","recycling:glass":"no","recycling:glass_bottles":"no","recycling:paper":"no","recycling:plastic":"no","recycling_type":"container"}},"type":"Feature"},
	{"geometry":{"coordinates":[8.311499,47.473047],"type":"Point"},"properties":{"osm_id":"4064769694","tag":{"amenity":"waste_basket"}},"type":"Feature"},
	{"geometry":{"coordinates":[8.324247,47.483342],"type":"Point"},"properties":{"osm_id":"4136872125","tag":{"amenity":"recycling","recycling:batteries":"yes","recycling:cans":"yes","recycling:clothes":"yes","recycling:glass_bottles":"yes","recycling_type":"container"}},"type":"Feature"},
	{"geometry":{"coordinates":[8.327314,47.468385],"type":"Point"},"properties":{"osm_id":"4165336478","tag":{"amenity":"waste_basket"}},"type":"Feature"},
	{"geometry":{"coordinates":[8.33658,47.462501],"type":"Point"},"properties":{"osm_id":"4165586633","tag":{"amenity":"recycling","operator":"Gemeinde Wettingen","recycling:batteries":"yes","recycling:cans":"yes","recycling:clothes":"yes","recycling:glass_bottles":"yes","recycling_type":"container"}},"type":"Feature"},
	{"geometry":{"coordinates":[8.308113,47.476844],"type":"Point"},"properties":{"osm_id":"4316774022","tag":{"amenity":"waste_basket"}},"type":"Feature"},
	{"geometry":{"coordinates":[8.300198,47.48371],"type":"Point"},"properties":{"osm_id":"4343427800","tag":{"amenity":"waste_basket"}},"type":"Feature"},
	{"geometry":{"coordinates":[8.296255,47.484923],"type":"Point"},"properties":{"osm_id":"4346498758","tag":{"amenity":"waste_basket"}},"type":"Feature"},
	{"geometry":{"coordinates":[8.30982,47.480047],"type":"Point"},"properties":{"osm_id":"4346499117","tag":{"amenity":"waste_basket"}},"type":"Feature"},
	{"geometry":{"coordinates":[8.292134,47.486614],"type":"Point"},"properties":{"osm_id":"4359210108","tag":{"amenity":"waste_basket"}},"type":"Feature"},
	{"geometry":{"coordinates":[8.315994,47.484521],"type":"Point"},"properties":{"osm_id":"4362043179","tag":{"amenity":"waste_basket"}},"type":"Feature"},
	{"geometry":{"coordinates":[8.316273,47.484539],"type":"Point"},"properties":{"osm_id":"4362043180","tag":{"amenity":"waste_basket"}},"type":"Feature"},
	{"geometry":{"coordinates":[8.321103,47.482172],"type":"Point"},"properties":{"osm_id":"4401621260","tag":{"amenity":"waste_basket"}},"type":"Feature"},
	{"geometry":{"coordinates":[8.314734,47.479517],"type":"Point"},"properties":{"osm_id":"4401621264","tag":{"amenity":"waste_basket"}},"type":"Feature"},
	{"geometry":{"coordinates":[8.311589,47.478806],"type":"Point"},"properties":{"osm_id":"4401621268","tag":{"amenity":"waste_basket"}},"type":"Feature"},
	{"geometry":{"coordinates":[8.310726,47.47966],"type":"Point"},"properties":{"osm_id":"4401621273","tag":{"amenity":"waste_basket"}},"type":"Feature"},
	{"geometry":{"coordinates":[8.319816,47.482764],"type":"Point"},"properties":{"osm_id":"4401621276","tag":{"amenity":"waste_basket"}},"type":"Feature"},
	{"geometry":{"coordinates":[8.314349,47.479416],"type":"Point"},"properties":{"osm_id":"4401621351","tag":{"amenity":"waste_basket"}},"type":"Feature"},
	{"geometry":{"coordinates":[8.312456,47.480017],"type":"Point"},"properties":{"osm_id":"4401621360","tag":{"amenity":"waste_basket"}},"type":"Feature"},
	{"geometry":{"coordinates":[8.327407,47.484422],"type":"Point"},"properties":{"osm_id":"4401621392","tag":{"amenity":"waste_basket"}},"type":"Feature"},
	{"geometry":{"coordinates":[8.306925,47.476128],"type":"Point"},"properties":{"osm_id":"4530313942","tag":{"amenity":"waste_basket"}},"type":"Feature"},
	{"geometry":{"coordinates":[8.306983,47.476275],"type":"Point"},"properties":{"osm_id":"4530313943","tag":{"amenity":"waste_basket"}},"type":"Feature"},
	{"geometry":{"coordinates":[8.309295,47.473313],"type":"Point"},"properties":{"osm_id":"4567625906","tag":{"amenity":"waste_basket"}},"type":"Feature"},
	{"geometry":{"coordinates":[8.307844,47.474167],"type":"Point"},"properties":{"osm_id":"4567625910","tag":{"amenity":"waste_basket"}},"type":"Feature"},
	{"geometry":{"coordinates":[8.308112,47.472858],"type":"Point"},"properties":{"osm_id":"4567625916","tag":{"amenity":"waste_basket"}},"type":"Feature"},
	{"geometry":{"coordinates":[8.307892,47.473942],"type":"Point"},"properties":{"osm_id":"4567625917","tag":{"amenity":"waste_basket"}},"type":"Feature"},
	{"geometry":{"coordinates":[8.307987,47.474422],"type":"Point"},"properties":{"osm_id":"4567625918","tag":{"amenity":"waste_basket"}},"type":"Feature"},
	{"geometry":{"coordinates":[8.308316,47.475008],"type":"Point"},"properties":{"osm_id":"4567625921","tag":{"amenity":"waste_basket"}},"type":"Feature"},
	{"geometry":{"coordinates":[8.307858,47.472803],"type":"Point"},"properties":{"osm_id":"4567625922","tag":{"amenity":"waste_basket"}},"type":"Feature"},
	{"geometry":{"coordinates":[8.306426,47.474148],"type":"Point"},"properties":{"osm_id":"4569426776","tag":{"amenity":"waste_basket"}},"type":"Feature"},
	{"geometry":{"coordinates":[8.305106,47.471183],"type":"Point"},"properties":{"osm_id":"4569426777","tag":{"amenity":"waste_basket"}},"type":"Feature"},
	{"geometry":{"coordinates":[8.314348,47.470594],"type":"Point"},"properties":{"osm_id":"4745078225","tag":{"amenity":"waste_basket"}},"type":"Feature"},
	{"geometry":{"coordinates":[8.26374,47.497795],"type":"Point"},"properties":{"osm_id":"4828463331","tag":{"amenity":"waste_basket"}},"type":"Feature"},
	{"geometry":{"coordinates":[8.267015,47.496752],"type":"Point"},"properties":{"osm_id":"4878452024","tag":{"amenity":"waste_basket"}},"type":"Feature"},
	{"geometry":{"coordinates":[8.309648,47.478414],"type":"Point"},"properties":{"osm_id":"5500651562","tag":{"amenity":"waste_basket"}},"type":"Feature"},
	{"geometry":{"coordinates":[8.302602,47.478134],"type":"Point"},"properties":{"osm_id":"5540725225","tag":{"amenity":"waste_basket","waste":"trash"}},"type":"Feature"},
	{"geometry":{"coordinates":[8.3025,47.478238],"type":"Point"},"properties":{"osm_id":"5540725232","tag":{"amenity":"waste_basket","waste":"trash"}},"type":"Feature"},
	{"geometry":{"coordinates":[8.315107,47.484794],"type":"Point"},"properties":{"osm_id":"6376830690","tag":{"amenity":"waste_basket"}},"type":"Feature"},
	{"geometry":{"coordinates":[8.321711,47.465555],"type":"Point"},"properties":{"osm_id":"6596785284","tag":{"amenity":"waste_basket","waste":"trash"}},"type":"Feature"},
	{"geometry":{"coordinates":[8.328122,47.503269],"type":"Point"},"properties":{"osm_id":"7170585617","tag":{"amenity":"waste_basket","waste":"trash"}},"type":"Feature"},
	{"geometry":{"coordinates":[8.328197,47.503491],"type":"Point"},"properties":{"osm_id":"7170585625","tag":{"amenity":"waste_basket","waste":"trash"}},"type":"Feature"}
]
}
