{
"type": "FeatureCollection",
"features": [
	{"geometry":{"coordinates":[8.34802,47.348217],"type":"Point"},"properties":{"osm_id":"399268234","tag":{"amenity":"recycling","recycling:cans":"yes","recycling:glass":"yes"}},"type":"Feature"},
	{"geometry":{"coordinates":[8.341113,47.353168],"type":"Point"},"properties":{"osm_id":"401912435","tag":{"amenity":"recycling","recycling:cans":"yes","recycling:glass":"yes"}},"type":"Feature"},
	{"geometry":{"coordinates":[8.341612,47.35328],"type":"Point"},"properties":{"osm_id":"401912436","tag":{"amenity":"recycling","recycling:scrap_metal":"yes"}},"type":"Feature"},
	{"geometry":{"coordinates":[8.341005,47.369731],"type":"Point"},"properties":{"osm_id":"766931794","tag":{"amenity":"recycling","recycling:glass":"yes"}},"type":"Feature"},
	{"geometry":{"coordinates":[8.341419,47.348999],"type":"Point"},"properties":{"osm_id":"852859769","tag":{"amenity":"recycling","location":"underground","recycling:cans":"yes","recycling:glass":"yes","recycling_type":"container"}},"type":"Feature"},
	{"geometry":{"coordinates":[8.2816,47.351638],"type":"Point"},"properties":{"osm_id":"989429139","tag":{"amenity":"recycling","recycling:glass":"yes"}},"type":"Feature"},
	{"geometry":{"coordinates":[8.271676,47.350598],"type":"Point"},"properties":{"osm_id":"1102278168","tag":{"amenity":"recycling","recycling:cans":"yes","recycling:glass":"no","recycling:glass_bottles":"yes","recycling_type":"container"}},"type":"Feature"},
	{"geometry":{"coordinates":[8.307401,47.394419],"type":"Point"},"properties":{"osm_id":"1305021498","tag":{"amenity":"waste_basket"}},"type":"Feature"},
	{"geometry":{"coordinates":[8.277683,47.350204],"type":"Point"},"properties":{"osm_id":"2165477964","tag":{"amenity":"waste_basket"}},"type":"Feature"},
	{"geometry":{"coordinates":[8.278085,47.350073],"type":"Point"},"properties":{"osm_id":"2173431581","tag":{"amenity":"waste_basket"}},"type":"Feature"},
	{"geometry":{"coordinates":[8.293195,47.379648],"type":"Point"},"properties":{"osm_id":"3746157712","tag":{"amenity":"recycling","recycling_type":"container"}},"type":"Feature"},
	{"geometry":{"coordinates":[8.34028,47.369982],"type":"Point"},"properties":{"osm_id":"3939554965","tag":{"amenity":"waste_basket"}},"type":"Feature"},
	{"geometry":{"coordinates":[8.342683,47.366091],"type":"Point"},"properties":{"osm_id":"3941957159","tag":{"amenity":"waste_basket"}},"type":"Feature"},
	{"geometry":{"coordinates":[8.346322,47.360495],"type":"Point"},"properties":{"osm_id":"3946515562","tag":{"amenity":"waste_basket"}},"type":"Feature"},
	{"geometry":{"coordinates":[8.34557,47.374432],"type":"Point"},"properties":{"osm_id":"3948038190","tag":{"amenity":"waste_basket"}},"type":"Feature"},
	{"geometry":{"coordinates":[8.34416,47.370536],"type":"Point"},"properties":{"osm_id":"3948040963","tag":{"amenity":"waste_basket"}},"type":"Feature"},
	{"geometry":{"coordinates":[8.29267,47.397818],"type":"Point"},"properties":{"name":"Biogasanlage","osm_id":"4090787004","tag":{"amenity":"recycling","description":"Gr\u00c3\u00bcngut entsorgung","recycling:cans":"no","recycling:clothes":"no","recycling:glass":"no","recycling:glass_bottles":"no","recycling:paper":"no","recycling:plastic":"no"}},"type":"Feature"},
	{"geometry":{"coordinates":[8.29234,47.394353],"type":"Point"},"properties":{"name":"Entsorgungstelle","osm_id":"4090787005","tag":{"amenity":"recycling","operator":"Hubschmid","recycling_type":"centre"}},"type":"Feature"},
	{"geometry":{"coordinates":[8.277426,47.346089],"type":"Point"},"properties":{"osm_id":"4403413903","tag":{"amenity":"recycling","recycling:batteries":"yes","recycling:cans":"yes","recycling:glass":"yes","recycling_type":"container"}},"type":"Feature"},
	{"geometry":{"coordinates":[8.34712,47.343124],"type":"Point"},"properties":{"osm_id":"4689014914","tag":{"amenity":"waste_basket"}},"type":"Feature"},
	{"geometry":{"coordinates":[8.347556,47.342428],"type":"Point"},"properties":{"osm_id":"4689014932","tag":{"amenity":"waste_basket"}},"type":"Feature"},
	{"geometry":{"coordinates":[8.342915,47.348913],"type":"Point"},"properties":{"osm_id":"4722188133","tag":{"amenity":"waste_basket"}},"type":"Feature"},
	{"geometry":{"coordinates":[8.339857,47.352478],"type":"Point"},"properties":{"osm_id":"4722188159","tag":{"amenity":"waste_basket"}},"type":"Feature"},
	{"geometry":{"coordinates":[8.311011,47.340164],"type":"Point"},"properties":{"osm_id":"4880303893","tag":{"amenity":"waste_basket"}},"type":"Feature"},
	{"geometry":{"coordinates":[8.270964,47.350194],"type":"Point"},"properties":{"osm_id":"5634143388","tag":{"amenity":"waste_basket","waste":"trash"}},"type":"Feature"},
	{"geometry":{"coordinates":[8.326448,47.387983],"type":"Point"},"properties":{"osm_id":"5641501023","tag":{"amenity":"waste_basket","waste":"dog_excrement"}},"type":"Feature"},
	{"geometry":{"coordinates":[8.329034,47.388044],"type":"Point"},"properties":{"osm_id":"5641506855","tag":{"amenity":"waste_basket","emergency":"fire_hydrant","fire_hydrant:type":"pillar","waste":"dog_excrement"}},"type":"Feature"},
	{"geometry":{"coordinates":[8.329033,47.388041],"type":"Point"},"properties":{"osm_id":"5641508612","tag":{"amenity":"waste_basket","waste":"dog_excrement"}},"type":"Feature"},
	{"geometry":{"coordinates":[8.333551,47.393222],"type":"Point"},"properties":{"osm_id":"5663442103","tag":{"amenity":"waste_basket","waste":"dog_excrement"}},"type":"Feature"},
	{"geometry":{"coordinates":[8.330365,47.394015],"type":"Point"},"properties":{"osm_id":"5666501888","tag":{"amenity":"waste_basket","waste":"trash"}},"type":"Feature"},
	{"geometry":{"coordinates":[8.323144,47.389089],"type":"Point"},"properties":{"osm_id":"5704953631","tag":{"amenity":"waste_basket","fireplace":"yes","tourism":"picnic_site","waste":"trash"}},"type":"Feature"},
	{"geometry":{"coordinates":[8.325182,47.391159],"type":"Point"},"properties":{"osm_id":"5720065055","tag":{"amenity":"waste_basket","waste":"trash"}},"type":"Feature"},
	{"geometry":{"coordinates":[8.325185,47.391148],"type":"Point"},"properties":{"osm_id":"5720065056","tag":{"amenity":"waste_basket","waste":"dog_excrement"}},"type":"Feature"},
	{"geometry":{"coordinates":[8.267492,47.349848],"type":"Point"},"properties":{"osm_id":"5865490585","tag":{"amenity":"recycling"}},"type":"Feature"},
	{"geometry":{"coordinates":[8.34097,47.348863],"type":"Point"},"properties":{"osm_id":"6229966432","tag":{"amenity":"waste_basket"}},"type":"Feature"},
	{"geometry":{"coordinates":[8.275523,47.339587],"type":"Point"},"properties":{"osm_id":"6357957783","tag":{"amenity":"waste_basket","waste":"dog_excrement"}},"type":"Feature"},
	{"geometry":{"coordinates":[8.339322,47.351076],"type":"Point"},"properties":{"osm_id":"6680847074","tag":{"amenity":"waste_basket","material":"steel"}},"type":"Feature"},
	{"geometry":{"coordinates":[8.348143,47.352037],"type":"Point"},"properties":{"osm_id":"6718975486","tag":{"amenity":"recycling","recycling:clothes":"yes","recycling:shoes":"yes","recycling_type":"container"}},"type":"Feature"},
	{"geometry":{"coordinates":[8.33925,47.348656],"type":"Point"},"properties":{"osm_id":"6742434800","tag":{"amenity":"waste_basket","waste":"trash"}},"type":"Feature"},
	{"geometry":{"coordinates":[8.341735,47.346337],"type":"Point"},"properties":{"osm_id":"6742434816","tag":{"amenity":"waste_basket","waste":"trash"}},"type":"Feature"},
	{"geometry":{"coordinates":[8.34148,47.345673],"type":"Point"},"properties":{"osm_id":"6742434857","tag":{"amenity":"waste_basket","waste":"trash"}},"type":"Feature"},
	{"geometry":{"coordinates":[8.305211,47.351411],"type":"Point"},"properties":{"osm_id":"7617996391","tag":{"amenity":"waste_basket","waste":"trash"}},"type":"Feature"},
	{"geometry":{"coordinates":[8.340598,47.349665],"type":"Point"},"properties":{"osm_id":"7630398827","tag":{"amenity":"waste_basket","material":"steel","waste":"trash"}},"type":"Feature"},
	{"geometry":{"coordinates":[8.34071,47.349669],"type":"Point"},"properties":{"osm_id":"7630398828","tag":{"amenity":"waste_basket","material":"steel","waste":"trash"}},"type":"Feature"},
	{"geometry":{"coordinates":[8.342706,47.348745],"type":"Point"},"properties":{"osm_id":"7630398829","tag":{"amenity":"waste_basket","material":"concrete","waste":"trash"}},"type":"Feature"},
	{"geometry":{"coordinates":[8.343048,47.351106],"type":"Point"},"properties":{"osm_id":"7652544390","tag":{"amenity":"waste_basket","material":"metal","waste":"trash"}},"type":"Feature"},
	{"geometry":{"coordinates":[8.342638,47.350918],"type":"Point"},"properties":{"osm_id":"7652544391","tag":{"amenity":"waste_basket","material":"metal","waste":"trash"}},"type":"Feature"}
]
}
