{
"type": "FeatureCollection",
"features": [
	{"geometry":{"coordinates":[8.340295,47.054765],"type":"Point"},"properties":{"osm_id":"303928114","tag":{"amenity":"recycling"}},"type":"Feature"},
	{"geometry":{"coordinates":[8.323687,47.059888],"type":"Point"},"properties":{"osm_id":"303928115","tag":{"amenity":"recycling","recycling:batteries":"yes","recycling:glass":"yes","recycling_type":"container"}},"type":"Feature"},
	{"geometry":{"coordinates":[8.334678,47.057595],"type":"Point"},"properties":{"osm_id":"304003293","tag":{"amenity":"recycling","recycling:cans":"yes","recycling:clothes":"yes","recycling:glass_bottles":"yes"}},"type":"Feature"},
	{"geometry":{"coordinates":[8.304018,47.0431],"type":"Point"},"properties":{"osm_id":"313278982","tag":{"amenity":"recycling","recycling:batteries":"yes","recycling:cans":"yes","recycling:clothes":"yes","recycling_type":"container"}},"type":"Feature"},
	{"geometry":{"coordinates":[8.287615,47.08055],"type":"Point"},"properties":{"osm_id":"322108899","tag":{"amenity":"recycling","recycling:batteries":"yes","recycling:clothes":"yes","recycling:glass":"yes"}},"type":"Feature"},
	{"geometry":{"coordinates":[8.281057,47.089776],"type":"Point"},"properties":{"osm_id":"322119890","tag":{"amenity":"recycling","recycling:batteries":"no","recycling:clothes":"yes","recycling:glass":"yes"}},"type":"Feature"},
	{"geometry":{"coordinates":[8.271712,47.08042],"type":"Point"},"properties":{"osm_id":"322420362","tag":{"amenity":"recycling","recycling:batteries":"yes","recycling:clothes":"yes","recycling:cooking_oil":"yes","recycling:glass":"yes"}},"type":"Feature"},
	{"geometry":{"coordinates":[8.300951,47.040363],"type":"Point"},"properties":{"osm_id":"332285764","tag":{"amenity":"recycling","location":"overground","recycling:batteries":"yes","recycling:cans":"yes","recycling:clothes":"yes","recycling:glass":"yes","recycling_type":"container"}},"type":"Feature"},
	{"geometry":{"coordinates":[8.308547,47.045539],"type":"Point"},"properties":{"osm_id":"341445344","tag":{"amenity":"recycling","recycling:batteries":"yes","recycling:cans":"yes","recycling:clothes":"yes","recycling:glass_bottles":"yes","recycling_type":"container"}},"type":"Feature"},
	{"geometry":{"coordinates":[8.315182,47.04451],"type":"Point"},"properties":{"osm_id":"506894179","tag":{"amenity":"recycling","recycling:batteries":"yes","recycling:glass":"yes","recycling:white_alloy":"yes","recycling_type":"container"}},"type":"Feature"},
	{"geometry":{"coordinates":[8.315593,47.046867],"type":"Point"},"properties":{"osm_id":"512024730","tag":{"amenity":"recycling","recycling:batteries":"yes","recycling:clothes":"yes","recycling:glass_bottles":"yes","recycling:vegetable_oil":"yes","recycling:white_alloy":"yes","recycling_type":"container"}},"type":"Feature"},
	{"geometry":{"coordinates":[8.288306,47.073668],"type":"Point"},"properties":{"osm_id":"1107955041","tag":{"amenity":"recycling","location":"underground","recycling:batteries":"yes","recycling:clothes":"yes","recycling:glass":"yes","recycling_type":"container"}},"type":"Feature"},
	{"geometry":{"coordinates":[8.292198,47.054468],"type":"Point"},"properties":{"osm_id":"1142784303","tag":{"amenity":"recycling","recycling:batteries":"yes","recycling:cans":"yes","recycling:clothes":"yes","recycling:glass_bottles":"yes","recycling_type":"container"}},"type":"Feature"},
	{"geometry":{"coordinates":[8.276702,47.084913],"type":"Point"},"properties":{"osm_id":"1156866576","tag":{"amenity":"recycling","recycling:batteries":"yes","recycling:cans":"yes","recycling:clothes":"yes","recycling:compost":"yes","recycling:glass":"yes","recycling:paper":"yes"}},"type":"Feature"},
	{"geometry":{"coordinates":[8.313448,47.045163],"type":"Point"},"properties":{"osm_id":"1303930095","tag":{"amenity":"waste_basket","denotation":"urban","natural":"tree"}},"type":"Feature"},
	{"geometry":{"coordinates":[8.299935,47.079529],"type":"Point"},"properties":{"osm_id":"1414408505","tag":{"amenity":"recycling","recycling_type":"container"}},"type":"Feature"},
	{"geometry":{"coordinates":[8.309707,47.082101],"type":"Point"},"properties":{"osm_id":"1430252861","tag":{"amenity":"recycling"}},"type":"Feature"},
	{"geometry":{"coordinates":[8.290261,47.085181],"type":"Point"},"properties":{"osm_id":"1474357194","tag":{"amenity":"waste_basket"}},"type":"Feature"},
	{"geometry":{"coordinates":[8.290516,47.085494],"type":"Point"},"properties":{"osm_id":"1474357196","tag":{"amenity":"waste_basket"}},"type":"Feature"},
	{"geometry":{"coordinates":[8.29092,47.085501],"type":"Point"},"properties":{"osm_id":"1474357197","tag":{"amenity":"waste_basket"}},"type":"Feature"},
	{"geometry":{"coordinates":[8.289046,47.08773],"type":"Point"},"properties":{"osm_id":"1474357247","tag":{"amenity":"waste_basket"}},"type":"Feature"},
	{"geometry":{"coordinates":[8.289267,47.087881],"type":"Point"},"properties":{"osm_id":"1474357254","tag":{"amenity":"waste_basket"}},"type":"Feature"},
	{"geometry":{"coordinates":[8.289138,47.088117],"type":"Point"},"properties":{"osm_id":"1474357259","tag":{"amenity":"waste_basket"}},"type":"Feature"},
	{"geometry":{"coordinates":[8.288273,47.088193],"type":"Point"},"properties":{"osm_id":"1474357261","tag":{"amenity":"waste_basket"}},"type":"Feature"},
	{"geometry":{"coordinates":[8.287756,47.088291],"type":"Point"},"properties":{"osm_id":"1474357267","tag":{"amenity":"recycling","recycling:plastic_bottles":"yes","recycling_type":"container"}},"type":"Feature"},
	{"geometry":{"coordinates":[8.2885,47.088382],"type":"Point"},"properties":{"osm_id":"1474357268","tag":{"amenity":"waste_basket"}},"type":"Feature"},
	{"geometry":{"coordinates":[8.300508,47.061908],"type":"Point"},"properties":{"osm_id":"1480899729","tag":{"amenity":"recycling","recycling:batteries":"no","recycling_type":"container"}},"type":"Feature"},
	{"geometry":{"coordinates":[8.288081,47.044043],"type":"Point"},"properties":{"osm_id":"1495151318","tag":{"amenity":"waste_basket"}},"type":"Feature"},
	{"geometry":{"coordinates":[8.308041,47.061506],"type":"Point"},"properties":{"osm_id":"1504787170","tag":{"amenity":"recycling","location":"overground","recycling:cans":"yes","recycling:clothes":"yes","recycling:glass":"yes","recycling_type":"container"}},"type":"Feature"},
	{"geometry":{"coordinates":[8.287112,47.084147],"type":"Point"},"properties":{"osm_id":"1534943880","tag":{"amenity":"recycling","recycling:batteries":"yes","recycling:cans":"yes","recycling:clothes":"yes","recycling:glass":"yes","recycling_type":"container"}},"type":"Feature"},
	{"geometry":{"coordinates":[8.277421,47.072667],"type":"Point"},"properties":{"name":"\u00c3\u0096kihof Luzern Nord","osm_id":"1699339191","tag":{"amenity":"recycling","collection_times":"Mo-Fr 08:30-12:00,13:30-17:30; Sa 08:00-12:30","operator":"real","recycling:batteries":"yes","recycling:books":"yes","recycling:cans":"yes","recycling:cardboard":"yes","recycling:cartons":"yes","recycling:clothes":"yes","recycling:electrical_appliances":"yes","recycling:glass":"yes","recycling:glass_bottles":"yes","recycling:magazines":"yes","recycling:newspaper":"yes","recycling:paper":"yes","recycling:paper_packaging":"yes","recycling:plastic":"yes","recycling:plastic_bottles":"yes","recycling:plastic_packaging":"yes","recycling:scrap_metal":"yes","recycling:small_appliances":"yes","recycling:wood":"yes","recycling_type":"centre"}},"type":"Feature"},
	{"geometry":{"coordinates":[8.298672,47.053888],"type":"Point"},"properties":{"osm_id":"1824534641","tag":{"amenity":"recycling","recycling:batteries":"yes","recycling:cans":"yes","recycling:clothes":"yes","recycling:glass_bottles":"yes","recycling_type":"container"}},"type":"Feature"},
	{"geometry":{"coordinates":[8.267921,47.096739],"type":"Point"},"properties":{"osm_id":"1896486131","tag":{"amenity":"recycling","recycling_type":"container"}},"type":"Feature"},
	{"geometry":{"coordinates":[8.314858,47.055698],"type":"Point"},"properties":{"osm_id":"2112611044","tag":{"amenity":"waste_basket"}},"type":"Feature"},
	{"geometry":{"coordinates":[8.312734,47.055993],"type":"Point"},"properties":{"osm_id":"2112611120","tag":{"amenity":"waste_basket"}},"type":"Feature"},
	{"geometry":{"coordinates":[8.305396,47.054228],"type":"Point"},"properties":{"osm_id":"2774901949","tag":{"amenity":"waste_basket"}},"type":"Feature"},
	{"geometry":{"coordinates":[8.305589,47.054236],"type":"Point"},"properties":{"osm_id":"2774902560","tag":{"amenity":"waste_basket"}},"type":"Feature"},
	{"geometry":{"coordinates":[8.305579,47.05369],"type":"Point"},"properties":{"osm_id":"2774903698","tag":{"amenity":"waste_basket"}},"type":"Feature"},
	{"geometry":{"coordinates":[8.305952,47.05172],"type":"Point"},"properties":{"osm_id":"2775234108","tag":{"amenity":"waste_basket"}},"type":"Feature"},
	{"geometry":{"coordinates":[8.30618,47.05176],"type":"Point"},"properties":{"osm_id":"2775234941","tag":{"amenity":"waste_basket"}},"type":"Feature"},
	{"geometry":{"coordinates":[8.306408,47.051806],"type":"Point"},"properties":{"osm_id":"2775237432","tag":{"amenity":"waste_basket"}},"type":"Feature"},
	{"geometry":{"coordinates":[8.27023,47.09371],"type":"Point"},"properties":{"osm_id":"2775854472","tag":{"amenity":"waste_basket"}},"type":"Feature"},
	{"geometry":{"coordinates":[8.269194,47.093809],"type":"Point"},"properties":{"osm_id":"2775854481","tag":{"amenity":"recycling","recycling:glass":"no"}},"type":"Feature"},
	{"geometry":{"coordinates":[8.26799,47.098749],"type":"Point"},"properties":{"osm_id":"2775854540","tag":{"amenity":"waste_basket"}},"type":"Feature"},
	{"geometry":{"coordinates":[8.272944,47.087313],"type":"Point"},"properties":{"osm_id":"3055710224","tag":{"amenity":"waste_basket"}},"type":"Feature"},
	{"geometry":{"coordinates":[8.334855,47.051469],"type":"Point"},"properties":{"osm_id":"3802363032","tag":{"amenity":"waste_basket"}},"type":"Feature"},
	{"geometry":{"coordinates":[8.334752,47.051952],"type":"Point"},"properties":{"osm_id":"3802363034","tag":{"amenity":"waste_basket"}},"type":"Feature"},
	{"geometry":{"coordinates":[8.333915,47.0533],"type":"Point"},"properties":{"osm_id":"3802363035","tag":{"amenity":"waste_basket"}},"type":"Feature"},
	{"geometry":{"coordinates":[8.326725,47.054023],"type":"Point"},"properties":{"osm_id":"3802385472","tag":{"amenity":"waste_basket"}},"type":"Feature"},
	{"geometry":{"coordinates":[8.325415,47.054311],"type":"Point"},"properties":{"osm_id":"3802385475","tag":{"amenity":"waste_basket"}},"type":"Feature"},
	{"geometry":{"coordinates":[8.331163,47.054735],"type":"Point"},"properties":{"osm_id":"3802385478","tag":{"amenity":"waste_basket"}},"type":"Feature"},
	{"geometry":{"coordinates":[8.330241,47.05483],"type":"Point"},"properties":{"osm_id":"3802385481","tag":{"amenity":"waste_basket"}},"type":"Feature"},
	{"geometry":{"coordinates":[8.329232,47.054999],"type":"Point"},"properties":{"osm_id":"3802385487","tag":{"amenity":"waste_basket"}},"type":"Feature"},
	{"geometry":{"coordinates":[8.324942,47.054498],"type":"Point"},"properties":{"osm_id":"3802388271","tag":{"amenity":"waste_basket"}},"type":"Feature"},
	{"geometry":{"coordinates":[8.292621,47.046615],"type":"Point"},"properties":{"osm_id":"3902978847","tag":{"amenity":"recycling"}},"type":"Feature"},
	{"geometry":{"coordinates":[8.307638,47.04874],"type":"Point"},"properties":{"osm_id":"3962548730","tag":{"amenity":"recycling","recycling:batteries":"yes","recycling:cans":"yes","recycling:glass_bottles":"yes","recycling_type":"container"}},"type":"Feature"},
	{"geometry":{"coordinates":[8.306751,47.046585],"type":"Point"},"properties":{"osm_id":"4004868399","tag":{"amenity":"recycling","recycling:plastic":"yes","recycling_type":"container","wheelchair":"yes"}},"type":"Feature"},
	{"geometry":{"coordinates":[8.308139,47.048894],"type":"Point"},"properties":{"osm_id":"4097110191","tag":{"amenity":"waste_basket"}},"type":"Feature"},
	{"geometry":{"coordinates":[8.30788,47.04828],"type":"Point"},"properties":{"osm_id":"4097110192","tag":{"amenity":"waste_basket"}},"type":"Feature"},
	{"geometry":{"coordinates":[8.308456,47.048228],"type":"Point"},"properties":{"osm_id":"4097156493","tag":{"amenity":"waste_basket"}},"type":"Feature"},
	{"geometry":{"coordinates":[8.307945,47.048571],"type":"Point"},"properties":{"osm_id":"4097156495","tag":{"amenity":"waste_basket"}},"type":"Feature"},
	{"geometry":{"coordinates":[8.331907,47.054643],"type":"Point"},"properties":{"osm_id":"4100140198","tag":{"amenity":"waste_basket"}},"type":"Feature"},
	{"geometry":{"coordinates":[8.332888,47.054319],"type":"Point"},"properties":{"osm_id":"4100147690","tag":{"amenity":"waste_basket"}},"type":"Feature"},
	{"geometry":{"coordinates":[8.302011,47.046485],"type":"Point"},"properties":{"osm_id":"4254800694","tag":{"amenity":"waste_basket"}},"type":"Feature"},
	{"geometry":{"coordinates":[8.299105,47.047202],"type":"Point"},"properties":{"osm_id":"4264679491","tag":{"amenity":"waste_basket"}},"type":"Feature"},
	{"geometry":{"coordinates":[8.264773,47.042791],"type":"Point"},"properties":{"osm_id":"4281977594","tag":{"amenity":"waste_basket"}},"type":"Feature"},
	{"geometry":{"coordinates":[8.310602,47.056385],"type":"Point"},"properties":{"osm_id":"4294773700","tag":{"amenity":"recycling","recycling:batteries":"yes","recycling:cans":"yes","recycling:glass":"yes","recycling:glass_bottles":"yes","recycling_type":"container"}},"type":"Feature"},
	{"geometry":{"coordinates":[8.34302,47.086853],"type":"Point"},"properties":{"name":"\u00c3\u0096kihof Ebikon","osm_id":"4302919342","tag":{"addr:city":"Ebikon","addr:housenumber":"9","addr:postcode":"6032","addr:street":"Ronmatte","amenity":"recycling","operator":"D\u00c3\u00bcring AG","phone":"+41 41 445 12 92","recycling:aluminium":"yes","recycling:batteries":"yes","recycling:books":"yes","recycling:cans":"yes","recycling:cardboard":"yes","recycling:clothes":"yes","recycling:cooking_oil":"yes","recycling:fluorescent_tubes":"yes","recycling:glass":"yes","recycling:hardcore":"yes","recycling:low_energy_bulbs":"yes","recycling:paper":"yes","recycling:plastic":"yes","recycling:plastic_bottles":"yes","recycling:scrap_metal":"yes","recycling:shoes":"yes","recycling:small_appliances":"yes","recycling:styrofoam":"yes","recycling:tyres":"yes","recycling:waste_oil":"yes","recycling:wood":"yes"}},"type":"Feature"},
	{"geometry":{"coordinates":[8.306801,47.05471],"type":"Point"},"properties":{"osm_id":"4326560635","tag":{"amenity":"waste_basket"}},"type":"Feature"},
	{"geometry":{"coordinates":[8.333103,47.06145],"type":"Point"},"properties":{"osm_id":"4434449489","tag":{"amenity":"waste_basket"}},"type":"Feature"},
	{"geometry":{"coordinates":[8.303809,47.052556],"type":"Point"},"properties":{"osm_id":"4449332004","tag":{"amenity":"recycling","recycling:PET":"no","recycling:batteries":"yes","recycling:cans":"yes","recycling:glass_bottles":"yes","recycling_type":"container"}},"type":"Feature"},
	{"geometry":{"coordinates":[8.301756,47.062949],"type":"Point"},"properties":{"osm_id":"4460267099","tag":{"amenity":"waste_basket"}},"type":"Feature"},
	{"geometry":{"coordinates":[8.309018,47.066248],"type":"Point"},"properties":{"osm_id":"4460267195","tag":{"amenity":"waste_basket"}},"type":"Feature"},
	{"geometry":{"coordinates":[8.311181,47.067493],"type":"Point"},"properties":{"osm_id":"4460323896","tag":{"amenity":"waste_basket"}},"type":"Feature"},
	{"geometry":{"coordinates":[8.311397,47.067678],"type":"Point"},"properties":{"osm_id":"4460323897","tag":{"amenity":"waste_basket"}},"type":"Feature"},
	{"geometry":{"coordinates":[8.300988,47.06266],"type":"Point"},"properties":{"osm_id":"4460323992","tag":{"amenity":"waste_basket"}},"type":"Feature"},
	{"geometry":{"coordinates":[8.310674,47.067157],"type":"Point"},"properties":{"osm_id":"4460324591","tag":{"amenity":"waste_basket"}},"type":"Feature"},
	{"geometry":{"coordinates":[8.307805,47.065774],"type":"Point"},"properties":{"osm_id":"4460324693","tag":{"amenity":"waste_basket"}},"type":"Feature"},
	{"geometry":{"coordinates":[8.311895,47.068101],"type":"Point"},"properties":{"osm_id":"4460324694","tag":{"amenity":"waste_basket"}},"type":"Feature"},
	{"geometry":{"coordinates":[8.312608,47.067511],"type":"Point"},"properties":{"osm_id":"4460397880","tag":{"amenity":"waste_basket"}},"type":"Feature"},
	{"geometry":{"coordinates":[8.305914,47.064678],"type":"Point"},"properties":{"osm_id":"4460402491","tag":{"amenity":"waste_basket"}},"type":"Feature"},
	{"geometry":{"coordinates":[8.312644,47.06767],"type":"Point"},"properties":{"osm_id":"4460421890","tag":{"amenity":"waste_basket"}},"type":"Feature"},
	{"geometry":{"coordinates":[8.311312,47.066927],"type":"Point"},"properties":{"osm_id":"4460421892","tag":{"amenity":"waste_basket"}},"type":"Feature"},
	{"geometry":{"coordinates":[8.309956,47.059626],"type":"Point"},"properties":{"osm_id":"4466978792","tag":{"amenity":"waste_basket"}},"type":"Feature"},
	{"geometry":{"coordinates":[8.301871,47.052968],"type":"Point"},"properties":{"osm_id":"4483884791","tag":{"amenity":"waste_basket"}},"type":"Feature"},
	{"geometry":{"coordinates":[8.325338,47.07367],"type":"Point"},"properties":{"osm_id":"4498333095","tag":{"amenity":"waste_basket"}},"type":"Feature"},
	{"geometry":{"coordinates":[8.302885,47.060123],"type":"Point"},"properties":{"osm_id":"4498334589","tag":{"amenity":"waste_basket"}},"type":"Feature"},
	{"geometry":{"coordinates":[8.304059,47.064097],"type":"Point"},"properties":{"osm_id":"4498339292","tag":{"amenity":"waste_basket"}},"type":"Feature"},
	{"geometry":{"coordinates":[8.305053,47.064495],"type":"Point"},"properties":{"osm_id":"4498351489","tag":{"amenity":"waste_basket"}},"type":"Feature"},
	{"geometry":{"coordinates":[8.306549,47.065296],"type":"Point"},"properties":{"osm_id":"4498354889","tag":{"amenity":"waste_basket"}},"type":"Feature"},
	{"geometry":{"coordinates":[8.315664,47.069141],"type":"Point"},"properties":{"osm_id":"4498364890","tag":{"amenity":"waste_basket"}},"type":"Feature"},
	{"geometry":{"coordinates":[8.323802,47.073165],"type":"Point"},"properties":{"osm_id":"4498364893","tag":{"amenity":"waste_basket"}},"type":"Feature"},
	{"geometry":{"coordinates":[8.327798,47.075121],"type":"Point"},"properties":{"osm_id":"4498364894","tag":{"amenity":"waste_basket"}},"type":"Feature"},
	{"geometry":{"coordinates":[8.329023,47.077873],"type":"Point"},"properties":{"osm_id":"4498374092","tag":{"amenity":"waste_basket"}},"type":"Feature"},
	{"geometry":{"coordinates":[8.331644,47.077661],"type":"Point"},"properties":{"osm_id":"4498393191","tag":{"amenity":"waste_basket"}},"type":"Feature"},
	{"geometry":{"coordinates":[8.32701,47.077494],"type":"Point"},"properties":{"osm_id":"4498442702","tag":{"amenity":"waste_basket"}},"type":"Feature"},
	{"geometry":{"coordinates":[8.301795,47.065245],"type":"Point"},"properties":{"osm_id":"4498449895","tag":{"amenity":"waste_basket"}},"type":"Feature"},
	{"geometry":{"coordinates":[8.324691,47.076338],"type":"Point"},"properties":{"osm_id":"4498456192","tag":{"amenity":"waste_basket"}},"type":"Feature"},
	{"geometry":{"coordinates":[8.306296,47.067145],"type":"Point"},"properties":{"osm_id":"4498459896","tag":{"amenity":"waste_basket"}},"type":"Feature"},
	{"geometry":{"coordinates":[8.304366,47.066429],"type":"Point"},"properties":{"osm_id":"4498460094","tag":{"amenity":"waste_basket"}},"type":"Feature"},
	{"geometry":{"coordinates":[8.309591,47.068761],"type":"Point"},"properties":{"osm_id":"4498460290","tag":{"amenity":"waste_basket"}},"type":"Feature"},
	{"geometry":{"coordinates":[8.310316,47.058335],"type":"Point"},"properties":{"osm_id":"4535621398","tag":{"amenity":"waste_basket"}},"type":"Feature"},
	{"geometry":{"coordinates":[8.310235,47.056819],"type":"Point"},"properties":{"osm_id":"4545250191","tag":{"amenity":"waste_basket"}},"type":"Feature"},
	{"geometry":{"coordinates":[8.310474,47.058198],"type":"Point"},"properties":{"osm_id":"4545279189","tag":{"amenity":"waste_basket"}},"type":"Feature"},
	{"geometry":{"coordinates":[8.321857,47.060399],"type":"Point"},"properties":{"osm_id":"4558562691","tag":{"amenity":"waste_basket"}},"type":"Feature"},
	{"geometry":{"coordinates":[8.310522,47.057992],"type":"Point"},"properties":{"osm_id":"4558653290","tag":{"amenity":"waste_basket"}},"type":"Feature"},
	{"geometry":{"coordinates":[8.315162,47.060763],"type":"Point"},"properties":{"osm_id":"4558655089","tag":{"amenity":"waste_basket"}},"type":"Feature"},
	{"geometry":{"coordinates":[8.322475,47.060599],"type":"Point"},"properties":{"osm_id":"4558655091","tag":{"amenity":"waste_basket"}},"type":"Feature"},
	{"geometry":{"coordinates":[8.321262,47.060244],"type":"Point"},"properties":{"osm_id":"4558656890","tag":{"amenity":"waste_basket"}},"type":"Feature"},
	{"geometry":{"coordinates":[8.321402,47.06174],"type":"Point"},"properties":{"osm_id":"4558661890","tag":{"amenity":"waste_basket"}},"type":"Feature"},
	{"geometry":{"coordinates":[8.319696,47.061797],"type":"Point"},"properties":{"osm_id":"4558661989","tag":{"amenity":"waste_basket"}},"type":"Feature"},
	{"geometry":{"coordinates":[8.322415,47.06235],"type":"Point"},"properties":{"osm_id":"4558677190","tag":{"amenity":"waste_basket"}},"type":"Feature"},
	{"geometry":{"coordinates":[8.320803,47.059978],"type":"Point"},"properties":{"osm_id":"4558683790","tag":{"amenity":"waste_basket"}},"type":"Feature"},
	{"geometry":{"coordinates":[8.313038,47.061841],"type":"Point"},"properties":{"osm_id":"4558797189","tag":{"amenity":"waste_basket"}},"type":"Feature"},
	{"geometry":{"coordinates":[8.322096,47.075484],"type":"Point"},"properties":{"osm_id":"4559966501","tag":{"amenity":"waste_basket"}},"type":"Feature"},
	{"geometry":{"coordinates":[8.314614,47.071528],"type":"Point"},"properties":{"osm_id":"4559967399","tag":{"amenity":"waste_basket"}},"type":"Feature"},
	{"geometry":{"coordinates":[8.322731,47.071989],"type":"Point"},"properties":{"osm_id":"4559975489","tag":{"amenity":"waste_basket"}},"type":"Feature"},
	{"geometry":{"coordinates":[8.32475,47.073092],"type":"Point"},"properties":{"osm_id":"4559975889","tag":{"amenity":"waste_basket"}},"type":"Feature"},
	{"geometry":{"coordinates":[8.323535,47.07583],"type":"Point"},"properties":{"osm_id":"4559980000","tag":{"amenity":"waste_basket"}},"type":"Feature"},
	{"geometry":{"coordinates":[8.322936,47.075693],"type":"Point"},"properties":{"osm_id":"4559980001","tag":{"amenity":"waste_basket"}},"type":"Feature"},
	{"geometry":{"coordinates":[8.321838,47.075333],"type":"Point"},"properties":{"osm_id":"4560000706","tag":{"amenity":"waste_basket"}},"type":"Feature"},
	{"geometry":{"coordinates":[8.322379,47.075558],"type":"Point"},"properties":{"osm_id":"4560001100","tag":{"amenity":"waste_basket"}},"type":"Feature"},
	{"geometry":{"coordinates":[8.314115,47.071295],"type":"Point"},"properties":{"osm_id":"4560020393","tag":{"amenity":"waste_basket"}},"type":"Feature"},
	{"geometry":{"coordinates":[8.315619,47.072329],"type":"Point"},"properties":{"osm_id":"4560040589","tag":{"amenity":"waste_basket"}},"type":"Feature"},
	{"geometry":{"coordinates":[8.30887,47.063027],"type":"Point"},"properties":{"osm_id":"4560227489","tag":{"amenity":"waste_basket"}},"type":"Feature"},
	{"geometry":{"coordinates":[8.308826,47.061989],"type":"Point"},"properties":{"osm_id":"4564271691","tag":{"amenity":"waste_basket"}},"type":"Feature"},
	{"geometry":{"coordinates":[8.308963,47.061001],"type":"Point"},"properties":{"osm_id":"4564271693","tag":{"amenity":"waste_basket"}},"type":"Feature"},
	{"geometry":{"coordinates":[8.306271,47.052746],"type":"Point"},"properties":{"osm_id":"4593238189","tag":{"amenity":"waste_basket"}},"type":"Feature"},
	{"geometry":{"coordinates":[8.310917,47.057231],"type":"Point"},"properties":{"osm_id":"4596262798","tag":{"amenity":"waste_basket"}},"type":"Feature"},
	{"geometry":{"coordinates":[8.311741,47.057428],"type":"Point"},"properties":{"osm_id":"4596325796","tag":{"amenity":"waste_basket"}},"type":"Feature"},
	{"geometry":{"coordinates":[8.32207,47.064546],"type":"Point"},"properties":{"osm_id":"4596328193","tag":{"amenity":"waste_basket"}},"type":"Feature"},
	{"geometry":{"coordinates":[8.318446,47.063224],"type":"Point"},"properties":{"osm_id":"4596328196","tag":{"amenity":"waste_basket"}},"type":"Feature"},
	{"geometry":{"coordinates":[8.313562,47.056164],"type":"Point"},"properties":{"osm_id":"4596330994","tag":{"amenity":"waste_basket"}},"type":"Feature"},
	{"geometry":{"coordinates":[8.322205,47.064436],"type":"Point"},"properties":{"osm_id":"4596330996","tag":{"amenity":"waste_basket"}},"type":"Feature"},
	{"geometry":{"coordinates":[8.31885,47.062749],"type":"Point"},"properties":{"osm_id":"4596331292","tag":{"amenity":"waste_basket"}},"type":"Feature"},
	{"geometry":{"coordinates":[8.324451,47.058737],"type":"Point"},"properties":{"osm_id":"4596341096","tag":{"amenity":"waste_basket"}},"type":"Feature"},
	{"geometry":{"coordinates":[8.32369,47.064402],"type":"Point"},"properties":{"osm_id":"4596353793","tag":{"amenity":"waste_basket"}},"type":"Feature"},
	{"geometry":{"coordinates":[8.324047,47.058802],"type":"Point"},"properties":{"osm_id":"4596381091","tag":{"amenity":"waste_basket"}},"type":"Feature"},
	{"geometry":{"coordinates":[8.324072,47.059218],"type":"Point"},"properties":{"osm_id":"4596398290","tag":{"amenity":"waste_basket"}},"type":"Feature"},
	{"geometry":{"coordinates":[8.324347,47.061536],"type":"Point"},"properties":{"osm_id":"4596402990","tag":{"amenity":"waste_basket"}},"type":"Feature"},
	{"geometry":{"coordinates":[8.323762,47.05856],"type":"Point"},"properties":{"osm_id":"4596411489","tag":{"amenity":"waste_basket"}},"type":"Feature"},
	{"geometry":{"coordinates":[8.306901,47.059791],"type":"Point"},"properties":{"osm_id":"4607871995","tag":{"amenity":"waste_basket"}},"type":"Feature"},
	{"geometry":{"coordinates":[8.3124,47.062167],"type":"Point"},"properties":{"osm_id":"4607962396","tag":{"amenity":"waste_basket"}},"type":"Feature"},
	{"geometry":{"coordinates":[8.308718,47.052906],"type":"Point"},"properties":{"osm_id":"4609623001","tag":{"amenity":"waste_basket"}},"type":"Feature"},
	{"geometry":{"coordinates":[8.308603,47.053054],"type":"Point"},"properties":{"osm_id":"4609623002","tag":{"amenity":"waste_basket"}},"type":"Feature"},
	{"geometry":{"coordinates":[8.306524,47.046611],"type":"Point"},"properties":{"osm_id":"4609881190","tag":{"amenity":"waste_basket"}},"type":"Feature"},
	{"geometry":{"coordinates":[8.307071,47.045585],"type":"Point"},"properties":{"osm_id":"4609898290","tag":{"amenity":"waste_basket"}},"type":"Feature"},
	{"geometry":{"coordinates":[8.307056,47.045975],"type":"Point"},"properties":{"osm_id":"4609898291","tag":{"amenity":"waste_basket"}},"type":"Feature"},
	{"geometry":{"coordinates":[8.307474,47.046142],"type":"Point"},"properties":{"osm_id":"4610630291","tag":{"amenity":"waste_basket"}},"type":"Feature"},
	{"geometry":{"coordinates":[8.310531,47.055736],"type":"Point"},"properties":{"osm_id":"4610643891","tag":{"amenity":"waste_basket"}},"type":"Feature"},
	{"geometry":{"coordinates":[8.310452,47.055799],"type":"Point"},"properties":{"osm_id":"4610643892","tag":{"amenity":"waste_basket"}},"type":"Feature"},
	{"geometry":{"coordinates":[8.306651,47.050891],"type":"Point"},"properties":{"osm_id":"4610643989","tag":{"amenity":"waste_basket"}},"type":"Feature"},
	{"geometry":{"coordinates":[8.327599,47.061142],"type":"Point"},"properties":{"osm_id":"4680185396","tag":{"amenity":"waste_basket"}},"type":"Feature"},
	{"geometry":{"coordinates":[8.328344,47.061157],"type":"Point"},"properties":{"osm_id":"4680193590","tag":{"amenity":"waste_basket"}},"type":"Feature"},
	{"geometry":{"coordinates":[8.32404,47.060013],"type":"Point"},"properties":{"osm_id":"4680193790","tag":{"amenity":"waste_basket"}},"type":"Feature"},
	{"geometry":{"coordinates":[8.324948,47.060367],"type":"Point"},"properties":{"osm_id":"4680193791","tag":{"amenity":"waste_basket"}},"type":"Feature"},
	{"geometry":{"coordinates":[8.312518,47.058237],"type":"Point"},"properties":{"osm_id":"4680308194","tag":{"amenity":"waste_basket"}},"type":"Feature"},
	{"geometry":{"coordinates":[8.340683,47.065142],"type":"Point"},"properties":{"osm_id":"4680308791","tag":{"amenity":"waste_basket"}},"type":"Feature"},
	{"geometry":{"coordinates":[8.301316,47.045954],"type":"Point"},"properties":{"osm_id":"4689331084","tag":{"amenity":"recycling","recycling:batteries":"yes","recycling:glass_bottles":"yes","recycling_type":"container"}},"type":"Feature"},
	{"geometry":{"coordinates":[8.301004,47.058875],"type":"Point"},"properties":{"osm_id":"4741600626","tag":{"amenity":"waste_basket"}},"type":"Feature"},
	{"geometry":{"coordinates":[8.303046,47.055737],"type":"Point"},"properties":{"osm_id":"4741600628","tag":{"amenity":"waste_basket"}},"type":"Feature"},
	{"geometry":{"coordinates":[8.319001,47.064656],"type":"Point"},"properties":{"osm_id":"4745926522","tag":{"amenity":"recycling","location":"overground","recycling_type":"container"}},"type":"Feature"},
	{"geometry":{"coordinates":[8.30998,47.05485],"type":"Point"},"properties":{"osm_id":"4784631726","tag":{"amenity":"waste_basket"}},"type":"Feature"},
	{"geometry":{"coordinates":[8.308991,47.054519],"type":"Point"},"properties":{"osm_id":"4784653123","tag":{"amenity":"waste_basket"}},"type":"Feature"},
	{"geometry":{"coordinates":[8.309406,47.054547],"type":"Point"},"properties":{"osm_id":"4784653125","tag":{"amenity":"waste_basket"}},"type":"Feature"},
	{"geometry":{"coordinates":[8.309502,47.054543],"type":"Point"},"properties":{"osm_id":"4784653126","tag":{"amenity":"waste_basket"}},"type":"Feature"},
	{"geometry":{"coordinates":[8.309158,47.054572],"type":"Point"},"properties":{"osm_id":"4784670423","tag":{"amenity":"waste_basket"}},"type":"Feature"},
	{"geometry":{"coordinates":[8.309348,47.054711],"type":"Point"},"properties":{"osm_id":"4784670424","tag":{"amenity":"waste_basket"}},"type":"Feature"},
	{"geometry":{"coordinates":[8.316408,47.057263],"type":"Point"},"properties":{"osm_id":"4786750325","tag":{"amenity":"waste_basket"}},"type":"Feature"},
	{"geometry":{"coordinates":[8.315899,47.057065],"type":"Point"},"properties":{"osm_id":"4786750326","tag":{"amenity":"waste_basket"}},"type":"Feature"},
	{"geometry":{"coordinates":[8.312922,47.055075],"type":"Point"},"properties":{"osm_id":"4786750331","tag":{"amenity":"waste_basket"}},"type":"Feature"},
	{"geometry":{"coordinates":[8.315028,47.056761],"type":"Point"},"properties":{"osm_id":"4786758024","tag":{"amenity":"waste_basket"}},"type":"Feature"},
	{"geometry":{"coordinates":[8.316056,47.056796],"type":"Point"},"properties":{"osm_id":"4786762621","tag":{"amenity":"waste_basket"}},"type":"Feature"},
	{"geometry":{"coordinates":[8.31342,47.055397],"type":"Point"},"properties":{"osm_id":"4786776822","tag":{"amenity":"waste_basket"}},"type":"Feature"},
	{"geometry":{"coordinates":[8.312947,47.055189],"type":"Point"},"properties":{"osm_id":"4787582026","tag":{"amenity":"waste_basket"}},"type":"Feature"},
	{"geometry":{"coordinates":[8.305661,47.05461],"type":"Point"},"properties":{"osm_id":"4789030821","tag":{"amenity":"waste_basket"}},"type":"Feature"},
	{"geometry":{"coordinates":[8.304614,47.055168],"type":"Point"},"properties":{"osm_id":"4789030822","tag":{"amenity":"waste_basket"}},"type":"Feature"},
	{"geometry":{"coordinates":[8.304934,47.055634],"type":"Point"},"properties":{"osm_id":"4789030823","tag":{"amenity":"waste_basket"}},"type":"Feature"},
	{"geometry":{"coordinates":[8.305534,47.054756],"type":"Point"},"properties":{"osm_id":"4789030921","tag":{"amenity":"waste_basket"}},"type":"Feature"},
	{"geometry":{"coordinates":[8.312857,47.061381],"type":"Point"},"properties":{"osm_id":"4853794455","tag":{"amenity":"waste_basket"}},"type":"Feature"},
	{"geometry":{"coordinates":[8.329949,47.061186],"type":"Point"},"properties":{"osm_id":"4853816423","tag":{"amenity":"waste_basket"}},"type":"Feature"},
	{"geometry":{"coordinates":[8.328769,47.066706],"type":"Point"},"properties":{"osm_id":"4853839722","tag":{"amenity":"waste_basket"}},"type":"Feature"},
	{"geometry":{"coordinates":[8.327589,47.067388],"type":"Point"},"properties":{"osm_id":"4853839724","tag":{"amenity":"waste_basket"}},"type":"Feature"},
	{"geometry":{"coordinates":[8.323984,47.067639],"type":"Point"},"properties":{"osm_id":"4853839725","tag":{"amenity":"waste_basket"}},"type":"Feature"},
	{"geometry":{"coordinates":[8.324338,47.06783],"type":"Point"},"properties":{"osm_id":"4853854922","tag":{"amenity":"waste_basket"}},"type":"Feature"},
	{"geometry":{"coordinates":[8.323056,47.072478],"type":"Point"},"properties":{"osm_id":"4945631925","tag":{"amenity":"waste_basket"}},"type":"Feature"},
	{"geometry":{"coordinates":[8.322489,47.072102],"type":"Point"},"properties":{"osm_id":"4945640123","tag":{"amenity":"waste_basket"}},"type":"Feature"},
	{"geometry":{"coordinates":[8.323068,47.062105],"type":"Point"},"properties":{"osm_id":"4947068425","tag":{"amenity":"waste_basket"}},"type":"Feature"},
	{"geometry":{"coordinates":[8.317491,47.061368],"type":"Point"},"properties":{"osm_id":"4947115421","tag":{"amenity":"waste_basket"}},"type":"Feature"},
	{"geometry":{"coordinates":[8.306821,47.055491],"type":"Point"},"properties":{"osm_id":"4958368422","tag":{"amenity":"waste_basket"}},"type":"Feature"},
	{"geometry":{"coordinates":[8.303694,47.056012],"type":"Point"},"properties":{"osm_id":"4958397922","tag":{"amenity":"waste_basket"}},"type":"Feature"},
	{"geometry":{"coordinates":[8.302366,47.05579],"type":"Point"},"properties":{"osm_id":"4958397924","tag":{"amenity":"waste_basket"}},"type":"Feature"},
	{"geometry":{"coordinates":[8.300481,47.054189],"type":"Point"},"properties":{"osm_id":"4958400722","tag":{"amenity":"waste_basket"}},"type":"Feature"},
	{"geometry":{"coordinates":[8.299638,47.053359],"type":"Point"},"properties":{"osm_id":"4958401222","tag":{"amenity":"waste_basket"}},"type":"Feature"},
	{"geometry":{"coordinates":[8.297231,47.05098],"type":"Point"},"properties":{"osm_id":"4958404523","tag":{"amenity":"waste_basket"}},"type":"Feature"},
	{"geometry":{"coordinates":[8.296685,47.051708],"type":"Point"},"properties":{"osm_id":"4958408421","tag":{"amenity":"waste_basket"}},"type":"Feature"},
	{"geometry":{"coordinates":[8.296631,47.051343],"type":"Point"},"properties":{"osm_id":"4958414021","tag":{"amenity":"waste_basket"}},"type":"Feature"},
	{"geometry":{"coordinates":[8.296633,47.051518],"type":"Point"},"properties":{"osm_id":"4958418622","tag":{"amenity":"waste_basket"}},"type":"Feature"},
	{"geometry":{"coordinates":[8.268448,47.043556],"type":"Point"},"properties":{"osm_id":"4958521622","tag":{"amenity":"waste_basket"}},"type":"Feature"},
	{"geometry":{"coordinates":[8.322497,47.040582],"type":"Point"},"properties":{"osm_id":"4959830623","tag":{"amenity":"waste_basket"}},"type":"Feature"},
	{"geometry":{"coordinates":[8.32329,47.041178],"type":"Point"},"properties":{"osm_id":"4959848121","tag":{"amenity":"waste_basket"}},"type":"Feature"},
	{"geometry":{"coordinates":[8.310715,47.065838],"type":"Point"},"properties":{"osm_id":"4990701022","tag":{"amenity":"waste_basket"}},"type":"Feature"},
	{"geometry":{"coordinates":[8.309099,47.063513],"type":"Point"},"properties":{"osm_id":"4990745922","tag":{"amenity":"waste_basket"}},"type":"Feature"},
	{"geometry":{"coordinates":[8.309215,47.063501],"type":"Point"},"properties":{"osm_id":"4990806321","tag":{"amenity":"waste_basket"}},"type":"Feature"},
	{"geometry":{"coordinates":[8.32591,47.069602],"type":"Point"},"properties":{"osm_id":"5016512325","tag":{"amenity":"waste_basket"}},"type":"Feature"},
	{"geometry":{"coordinates":[8.323293,47.069934],"type":"Point"},"properties":{"osm_id":"5016524122","tag":{"amenity":"waste_basket"}},"type":"Feature"},
	{"geometry":{"coordinates":[8.317133,47.067592],"type":"Point"},"properties":{"osm_id":"5016530222","tag":{"amenity":"waste_basket"}},"type":"Feature"},
	{"geometry":{"coordinates":[8.320447,47.068777],"type":"Point"},"properties":{"osm_id":"5016536521","tag":{"amenity":"waste_basket"}},"type":"Feature"},
	{"geometry":{"coordinates":[8.304102,47.046234],"type":"Point"},"properties":{"osm_id":"5018111023","tag":{"amenity":"waste_basket"}},"type":"Feature"},
	{"geometry":{"coordinates":[8.30369,47.043979],"type":"Point"},"properties":{"osm_id":"5018111124","tag":{"amenity":"waste_basket"}},"type":"Feature"},
	{"geometry":{"coordinates":[8.301769,47.049892],"type":"Point"},"properties":{"osm_id":"5018111424","tag":{"amenity":"waste_basket"}},"type":"Feature"},
	{"geometry":{"coordinates":[8.302734,47.041917],"type":"Point"},"properties":{"osm_id":"5018126721","tag":{"amenity":"waste_basket"}},"type":"Feature"},
	{"geometry":{"coordinates":[8.302487,47.041772],"type":"Point"},"properties":{"osm_id":"5018129423","tag":{"amenity":"waste_basket"}},"type":"Feature"},
	{"geometry":{"coordinates":[8.312897,47.057558],"type":"Point"},"properties":{"osm_id":"5046254522","tag":{"amenity":"waste_basket"}},"type":"Feature"},
	{"geometry":{"coordinates":[8.313498,47.057732],"type":"Point"},"properties":{"osm_id":"5046254825","tag":{"amenity":"waste_basket"}},"type":"Feature"},
	{"geometry":{"coordinates":[8.313849,47.057716],"type":"Point"},"properties":{"osm_id":"5046268623","tag":{"amenity":"waste_basket"}},"type":"Feature"},
	{"geometry":{"coordinates":[8.313664,47.057914],"type":"Point"},"properties":{"osm_id":"5046275823","tag":{"amenity":"waste_basket"}},"type":"Feature"},
	{"geometry":{"coordinates":[8.347512,47.061236],"type":"Point"},"properties":{"osm_id":"5046382925","tag":{"amenity":"waste_basket"}},"type":"Feature"},
	{"geometry":{"coordinates":[8.347879,47.060364],"type":"Point"},"properties":{"osm_id":"5046386222","tag":{"amenity":"waste_basket"}},"type":"Feature"},
	{"geometry":{"coordinates":[8.332144,47.058693],"type":"Point"},"properties":{"osm_id":"5046447924","tag":{"amenity":"waste_basket"}},"type":"Feature"},
	{"geometry":{"coordinates":[8.303828,47.052045],"type":"Point"},"properties":{"osm_id":"5063382864","tag":{"amenity":"waste_basket"}},"type":"Feature"},
	{"geometry":{"coordinates":[8.291976,47.058895],"type":"Point"},"properties":{"osm_id":"5075370826","tag":{"amenity":"waste_basket"}},"type":"Feature"},
	{"geometry":{"coordinates":[8.291087,47.057507],"type":"Point"},"properties":{"osm_id":"5075378925","tag":{"amenity":"waste_basket"}},"type":"Feature"},
	{"geometry":{"coordinates":[8.290892,47.05771],"type":"Point"},"properties":{"osm_id":"5075389421","tag":{"amenity":"waste_basket"}},"type":"Feature"},
	{"geometry":{"coordinates":[8.290677,47.059324],"type":"Point"},"properties":{"osm_id":"5075398522","tag":{"amenity":"waste_basket"}},"type":"Feature"},
	{"geometry":{"coordinates":[8.289761,47.060004],"type":"Point"},"properties":{"osm_id":"5075400521","tag":{"amenity":"waste_basket"}},"type":"Feature"},
	{"geometry":{"coordinates":[8.324571,47.057879],"type":"Point"},"properties":{"osm_id":"5098577422","tag":{"amenity":"waste_basket"}},"type":"Feature"},
	{"geometry":{"coordinates":[8.290203,47.070562],"type":"Point"},"properties":{"osm_id":"5101563227","tag":{"amenity":"recycling","recycling:batteries":"yes","recycling:glass_bottles":"yes","recycling:scrap_metal":"yes","recycling_type":"container"}},"type":"Feature"},
	{"geometry":{"coordinates":[8.309971,47.05913],"type":"Point"},"properties":{"osm_id":"5102069521","tag":{"amenity":"waste_basket"}},"type":"Feature"},
	{"geometry":{"coordinates":[8.332913,47.074866],"type":"Point"},"properties":{"osm_id":"5124384122","tag":{"amenity":"waste_basket"}},"type":"Feature"},
	{"geometry":{"coordinates":[8.337456,47.078292],"type":"Point"},"properties":{"osm_id":"5124384126","tag":{"amenity":"waste_basket"}},"type":"Feature"},
	{"geometry":{"coordinates":[8.33099,47.07406],"type":"Point"},"properties":{"osm_id":"5124386121","tag":{"amenity":"waste_basket"}},"type":"Feature"},
	{"geometry":{"coordinates":[8.321478,47.078488],"type":"Point"},"properties":{"osm_id":"5124453724","tag":{"amenity":"waste_basket"}},"type":"Feature"},
	{"geometry":{"coordinates":[8.326925,47.072761],"type":"Point"},"properties":{"osm_id":"5124461022","tag":{"amenity":"recycling","location":"underground","recycling:cans":"yes","recycling:glass_bottles":"yes","recycling_type":"container"}},"type":"Feature"},
	{"geometry":{"coordinates":[8.313545,47.076687],"type":"Point"},"properties":{"osm_id":"5124472921","tag":{"amenity":"waste_basket"}},"type":"Feature"},
	{"geometry":{"coordinates":[8.302873,47.069819],"type":"Point"},"properties":{"osm_id":"5124506124","tag":{"amenity":"waste_basket"}},"type":"Feature"},
	{"geometry":{"coordinates":[8.298016,47.068054],"type":"Point"},"properties":{"osm_id":"5124506125","tag":{"amenity":"waste_basket"}},"type":"Feature"},
	{"geometry":{"coordinates":[8.29794,47.06673],"type":"Point"},"properties":{"osm_id":"5124524227","tag":{"amenity":"waste_basket"}},"type":"Feature"},
	{"geometry":{"coordinates":[8.281874,47.065877],"type":"Point"},"properties":{"osm_id":"5175498789","tag":{"amenity":"waste_basket"}},"type":"Feature"},
	{"geometry":{"coordinates":[8.285373,47.065827],"type":"Point"},"properties":{"osm_id":"5175503723","tag":{"amenity":"waste_basket"}},"type":"Feature"},
	{"geometry":{"coordinates":[8.284543,47.065879],"type":"Point"},"properties":{"osm_id":"5175505978","tag":{"amenity":"waste_basket"}},"type":"Feature"},
	{"geometry":{"coordinates":[8.286606,47.067502],"type":"Point"},"properties":{"osm_id":"5175506179","tag":{"amenity":"waste_basket"}},"type":"Feature"},
	{"geometry":{"coordinates":[8.293543,47.06954],"type":"Point"},"properties":{"osm_id":"5175529122","tag":{"amenity":"waste_basket"}},"type":"Feature"},
	{"geometry":{"coordinates":[8.292376,47.07046],"type":"Point"},"properties":{"osm_id":"5175530744","tag":{"amenity":"waste_basket"}},"type":"Feature"},
	{"geometry":{"coordinates":[8.287612,47.066303],"type":"Point"},"properties":{"osm_id":"5175532421","tag":{"amenity":"waste_basket"}},"type":"Feature"},
	{"geometry":{"coordinates":[8.292724,47.070021],"type":"Point"},"properties":{"osm_id":"5175546928","tag":{"amenity":"waste_basket"}},"type":"Feature"},
	{"geometry":{"coordinates":[8.292758,47.070227],"type":"Point"},"properties":{"osm_id":"5175547528","tag":{"amenity":"waste_basket"}},"type":"Feature"},
	{"geometry":{"coordinates":[8.300155,47.065538],"type":"Point"},"properties":{"osm_id":"5180126325","tag":{"amenity":"waste_basket"}},"type":"Feature"},
	{"geometry":{"coordinates":[8.274452,47.062963],"type":"Point"},"properties":{"osm_id":"5180804256","tag":{"amenity":"waste_basket"}},"type":"Feature"},
	{"geometry":{"coordinates":[8.274399,47.063038],"type":"Point"},"properties":{"osm_id":"5180804257","tag":{"amenity":"waste_basket"}},"type":"Feature"},
	{"geometry":{"coordinates":[8.279167,47.064764],"type":"Point"},"properties":{"osm_id":"5180804258","tag":{"amenity":"waste_basket"}},"type":"Feature"},
	{"geometry":{"coordinates":[8.271683,47.067145],"type":"Point"},"properties":{"osm_id":"5180804260","tag":{"amenity":"waste_basket"}},"type":"Feature"},
	{"geometry":{"coordinates":[8.271463,47.068939],"type":"Point"},"properties":{"osm_id":"5180804261","tag":{"amenity":"waste_basket"}},"type":"Feature"},
	{"geometry":{"coordinates":[8.297805,47.04883],"type":"Point"},"properties":{"osm_id":"5181650322","tag":{"amenity":"waste_basket"}},"type":"Feature"},
	{"geometry":{"coordinates":[8.298416,47.045081],"type":"Point"},"properties":{"osm_id":"5181668721","tag":{"amenity":"waste_basket"}},"type":"Feature"},
	{"geometry":{"coordinates":[8.298262,47.045199],"type":"Point"},"properties":{"osm_id":"5181671221","tag":{"amenity":"waste_basket"}},"type":"Feature"},
	{"geometry":{"coordinates":[8.297481,47.04646],"type":"Point"},"properties":{"osm_id":"5181671322","tag":{"amenity":"waste_basket"}},"type":"Feature"},
	{"geometry":{"coordinates":[8.308252,47.060028],"type":"Point"},"properties":{"osm_id":"5181717422","tag":{"amenity":"waste_basket"}},"type":"Feature"},
	{"geometry":{"coordinates":[8.298557,47.052754],"type":"Point"},"properties":{"osm_id":"5182744621","tag":{"amenity":"waste_basket"}},"type":"Feature"},
	{"geometry":{"coordinates":[8.314637,47.046112],"type":"Point"},"properties":{"osm_id":"5186368722","tag":{"amenity":"waste_basket"}},"type":"Feature"},
	{"geometry":{"coordinates":[8.314629,47.045848],"type":"Point"},"properties":{"osm_id":"5186392923","tag":{"amenity":"waste_basket"}},"type":"Feature"},
	{"geometry":{"coordinates":[8.315723,47.046647],"type":"Point"},"properties":{"osm_id":"5186401621","tag":{"amenity":"waste_basket"}},"type":"Feature"},
	{"geometry":{"coordinates":[8.303325,47.058803],"type":"Point"},"properties":{"osm_id":"5196100523","tag":{"amenity":"waste_basket"}},"type":"Feature"},
	{"geometry":{"coordinates":[8.297502,47.054745],"type":"Point"},"properties":{"osm_id":"5196126123","tag":{"amenity":"waste_basket"}},"type":"Feature"},
	{"geometry":{"coordinates":[8.297225,47.054826],"type":"Point"},"properties":{"osm_id":"5196174722","tag":{"amenity":"waste_basket"}},"type":"Feature"},
	{"geometry":{"coordinates":[8.294259,47.055338],"type":"Point"},"properties":{"osm_id":"5196201121","tag":{"amenity":"waste_basket"}},"type":"Feature"},
	{"geometry":{"coordinates":[8.288358,47.056929],"type":"Point"},"properties":{"osm_id":"5196201126","tag":{"amenity":"waste_basket"}},"type":"Feature"},
	{"geometry":{"coordinates":[8.288509,47.057293],"type":"Point"},"properties":{"osm_id":"5196201127","tag":{"amenity":"waste_basket"}},"type":"Feature"},
	{"geometry":{"coordinates":[8.320882,47.066424],"type":"Point"},"properties":{"osm_id":"5198369121","tag":{"amenity":"waste_basket"}},"type":"Feature"},
	{"geometry":{"coordinates":[8.340926,47.04922],"type":"Point"},"properties":{"osm_id":"5212538130","tag":{"amenity":"waste_basket"}},"type":"Feature"},
	{"geometry":{"coordinates":[8.291441,47.058171],"type":"Point"},"properties":{"osm_id":"5224760725","tag":{"amenity":"waste_basket"}},"type":"Feature"},
	{"geometry":{"coordinates":[8.291949,47.058334],"type":"Point"},"properties":{"osm_id":"5224766321","tag":{"amenity":"waste_basket"}},"type":"Feature"},
	{"geometry":{"coordinates":[8.308759,47.055351],"type":"Point"},"properties":{"osm_id":"5225001910","tag":{"amenity":"waste_basket"}},"type":"Feature"},
	{"geometry":{"coordinates":[8.304907,47.054309],"type":"Point"},"properties":{"osm_id":"5225001913","tag":{"amenity":"waste_basket"}},"type":"Feature"},
	{"geometry":{"coordinates":[8.30513,47.054431],"type":"Point"},"properties":{"osm_id":"5225001914","tag":{"amenity":"waste_basket"}},"type":"Feature"},
	{"geometry":{"coordinates":[8.306915,47.046693],"type":"Point"},"properties":{"osm_id":"5237735923","tag":{"amenity":"waste_basket"}},"type":"Feature"},
	{"geometry":{"coordinates":[8.30568,47.046193],"type":"Point"},"properties":{"osm_id":"5237803234","tag":{"amenity":"waste_basket"}},"type":"Feature"},
	{"geometry":{"coordinates":[8.335675,47.070503],"type":"Point"},"properties":{"osm_id":"5248692421","tag":{"amenity":"waste_basket"}},"type":"Feature"},
	{"geometry":{"coordinates":[8.283579,47.052166],"type":"Point"},"properties":{"osm_id":"5328582305","tag":{"amenity":"waste_basket"}},"type":"Feature"},
	{"geometry":{"coordinates":[8.29397,47.042566],"type":"Point"},"properties":{"osm_id":"5338997823","tag":{"amenity":"waste_basket"}},"type":"Feature"},
	{"geometry":{"coordinates":[8.3005,47.059803],"type":"Point"},"properties":{"osm_id":"5386621522","tag":{"amenity":"waste_basket"}},"type":"Feature"},
	{"geometry":{"coordinates":[8.275131,47.05089],"type":"Point"},"properties":{"osm_id":"5469195723","tag":{"amenity":"recycling"}},"type":"Feature"},
	{"geometry":{"coordinates":[8.284707,47.056768],"type":"Point"},"properties":{"osm_id":"5469211322","tag":{"amenity":"recycling"}},"type":"Feature"},
	{"geometry":{"coordinates":[8.292779,47.05488],"type":"Point"},"properties":{"osm_id":"5469289829","tag":{"amenity":"waste_basket"}},"type":"Feature"},
	{"geometry":{"coordinates":[8.295118,47.054656],"type":"Point"},"properties":{"osm_id":"5469289834","tag":{"amenity":"waste_basket"}},"type":"Feature"},
	{"geometry":{"coordinates":[8.31279,47.06499],"type":"Point"},"properties":{"osm_id":"5470934923","tag":{"amenity":"waste_basket"}},"type":"Feature"},
	{"geometry":{"coordinates":[8.348094,47.071698],"type":"Point"},"properties":{"osm_id":"5552511623","tag":{"amenity":"waste_basket"}},"type":"Feature"},
	{"geometry":{"coordinates":[8.33901,47.076464],"type":"Point"},"properties":{"osm_id":"5552549025","tag":{"amenity":"waste_basket"}},"type":"Feature"},
	{"geometry":{"coordinates":[8.337847,47.078646],"type":"Point"},"properties":{"osm_id":"5552568822","tag":{"amenity":"waste_basket"}},"type":"Feature"},
	{"geometry":{"coordinates":[8.302565,47.053373],"type":"Point"},"properties":{"osm_id":"5564679224","tag":{"amenity":"waste_basket"}},"type":"Feature"},
	{"geometry":{"coordinates":[8.27021,47.051288],"type":"Point"},"properties":{"osm_id":"5674178384","tag":{"amenity":"recycling","recycling:aluminium":"yes","recycling:batteries":"yes","recycling:cans":"yes","recycling:clothes":"yes","recycling:glass":"yes","recycling:oil":"yes","recycling_type":"container"}},"type":"Feature"},
	{"geometry":{"coordinates":[8.302758,47.049233],"type":"Point"},"properties":{"osm_id":"5696694724","tag":{"amenity":"waste_basket"}},"type":"Feature"},
	{"geometry":{"coordinates":[8.30385,47.04727],"type":"Point"},"properties":{"osm_id":"5787218653","tag":{"amenity":"waste_basket"}},"type":"Feature"},
	{"geometry":{"coordinates":[8.303373,47.048587],"type":"Point"},"properties":{"osm_id":"5787221153","tag":{"amenity":"waste_basket"}},"type":"Feature"},
	{"geometry":{"coordinates":[8.339754,47.054275],"type":"Point"},"properties":{"osm_id":"5890735755","tag":{"amenity":"recycling","recycling:plastic_bottles":"yes","recycling_type":"container"}},"type":"Feature"},
	{"geometry":{"coordinates":[8.286556,47.048132],"type":"Point"},"properties":{"osm_id":"5901322747","tag":{"amenity":"waste_basket","waste":"trash"}},"type":"Feature"},
	{"geometry":{"coordinates":[8.268465,47.099617],"type":"Point"},"properties":{"osm_id":"5903565549","tag":{"amenity":"recycling","recycling:batteries":"yes","recycling:clothes":"yes","recycling:glass":"yes","recycling:shoes":"yes","recycling_type":"container"}},"type":"Feature"},
	{"geometry":{"coordinates":[8.33835,47.085139],"type":"Point"},"properties":{"osm_id":"5923963088","tag":{"amenity":"waste_basket"}},"type":"Feature"},
	{"geometry":{"coordinates":[8.342537,47.089861],"type":"Point"},"properties":{"osm_id":"5923982485","tag":{"amenity":"waste_basket"}},"type":"Feature"},
	{"geometry":{"coordinates":[8.344675,47.092102],"type":"Point"},"properties":{"osm_id":"5923987596","tag":{"amenity":"waste_basket"}},"type":"Feature"},
	{"geometry":{"coordinates":[8.346456,47.0949],"type":"Point"},"properties":{"osm_id":"5923995385","tag":{"amenity":"waste_basket"}},"type":"Feature"},
	{"geometry":{"coordinates":[8.27998,47.043916],"type":"Point"},"properties":{"osm_id":"5961399685","tag":{"amenity":"waste_basket"}},"type":"Feature"},
	{"geometry":{"coordinates":[8.275497,47.040207],"type":"Point"},"properties":{"osm_id":"5961428785","tag":{"amenity":"waste_basket"}},"type":"Feature"},
	{"geometry":{"coordinates":[8.307575,47.041092],"type":"Point"},"properties":{"osm_id":"5961619785","tag":{"amenity":"waste_basket"}},"type":"Feature"},
	{"geometry":{"coordinates":[8.344086,47.081944],"type":"Point"},"properties":{"osm_id":"5982852886","tag":{"amenity":"waste_basket"}},"type":"Feature"},
	{"geometry":{"coordinates":[8.348581,47.081179],"type":"Point"},"properties":{"osm_id":"5982852888","tag":{"amenity":"waste_basket"}},"type":"Feature"},
	{"geometry":{"coordinates":[8.290168,47.050126],"type":"Point"},"properties":{"osm_id":"5984876651","tag":{"amenity":"waste_basket","waste":"trash"}},"type":"Feature"},
	{"geometry":{"coordinates":[8.298572,47.080191],"type":"Point"},"properties":{"osm_id":"6145598934","tag":{"amenity":"recycling","recycling:cans":"yes","recycling:plastic_bottles":"yes","recycling_type":"container"}},"type":"Feature"},
	{"geometry":{"coordinates":[8.296373,47.046667],"type":"Point"},"properties":{"osm_id":"6205627689","tag":{"amenity":"waste_basket"}},"type":"Feature"},
	{"geometry":{"coordinates":[8.295883,47.046313],"type":"Point"},"properties":{"osm_id":"6205627690","tag":{"amenity":"waste_basket"}},"type":"Feature"},
	{"geometry":{"coordinates":[8.296747,47.046748],"type":"Point"},"properties":{"osm_id":"6205648188","tag":{"amenity":"waste_basket"}},"type":"Feature"},
	{"geometry":{"coordinates":[8.296005,47.046624],"type":"Point"},"properties":{"osm_id":"6205651288","tag":{"amenity":"waste_basket"}},"type":"Feature"},
	{"geometry":{"coordinates":[8.287325,47.075524],"type":"Point"},"properties":{"osm_id":"6289510140","tag":{"amenity":"recycling","recycling:clothes":"yes","recycling_type":"container"}},"type":"Feature"},
	{"geometry":{"coordinates":[8.287005,47.075517],"type":"Point"},"properties":{"osm_id":"6289510141","tag":{"amenity":"recycling","recycling:cans":"yes","recycling:glass":"yes","recycling_type":"container"}},"type":"Feature"},
	{"geometry":{"coordinates":[8.275146,47.061573],"type":"Point"},"properties":{"name":"Sammelstelle","osm_id":"6434350038","tag":{"amenity":"recycling"}},"type":"Feature"},
	{"geometry":{"coordinates":[8.28328,47.043501],"type":"Point"},"properties":{"osm_id":"6468023085","tag":{"amenity":"waste_basket"}},"type":"Feature"},
	{"geometry":{"coordinates":[8.33831,47.080894],"type":"Point"},"properties":{"osm_id":"6502060685","tag":{"amenity":"recycling"}},"type":"Feature"},
	{"geometry":{"coordinates":[8.335265,47.054125],"type":"Point"},"properties":{"osm_id":"6807090990","tag":{"amenity":"waste_basket"}},"type":"Feature"},
	{"geometry":{"coordinates":[8.335081,47.054035],"type":"Point"},"properties":{"osm_id":"6807114274","tag":{"amenity":"waste_basket"}},"type":"Feature"},
	{"geometry":{"coordinates":[8.294666,47.053597],"type":"Point"},"properties":{"osm_id":"6815612785","tag":{"amenity":"waste_basket"}},"type":"Feature"},
	{"geometry":{"coordinates":[8.279958,47.040899],"type":"Point"},"properties":{"osm_id":"6938998076","tag":{"amenity":"waste_basket","waste":"dog_excrement"}},"type":"Feature"},
	{"geometry":{"coordinates":[8.277264,47.040392],"type":"Point"},"properties":{"osm_id":"6938998162","tag":{"amenity":"waste_basket"}},"type":"Feature"},
	{"geometry":{"coordinates":[8.271076,47.087326],"type":"Point"},"properties":{"osm_id":"7010970854","tag":{"amenity":"recycling","recycling:clothes":"yes","recycling_type":"container"}},"type":"Feature"},
	{"geometry":{"coordinates":[8.272702,47.084208],"type":"Point"},"properties":{"osm_id":"7152325201","tag":{"amenity":"recycling","operator":"Coop","recycling:clothes":"yes","recycling_type":"container"}},"type":"Feature"},
	{"geometry":{"coordinates":[8.279253,47.064747],"type":"Point"},"properties":{"osm_id":"7179131785","tag":{"amenity":"recycling"}},"type":"Feature"},
	{"geometry":{"coordinates":[8.285948,47.063876],"type":"Point"},"properties":{"osm_id":"7216620885","tag":{"amenity":"waste_basket"}},"type":"Feature"},
	{"geometry":{"coordinates":[8.30238,47.074342],"type":"Point"},"properties":{"osm_id":"7216652487","tag":{"amenity":"waste_basket"}},"type":"Feature"},
	{"geometry":{"coordinates":[8.311399,47.080029],"type":"Point"},"properties":{"osm_id":"7216675892","tag":{"amenity":"waste_basket"}},"type":"Feature"},
	{"geometry":{"coordinates":[8.29608,47.062581],"type":"Point"},"properties":{"osm_id":"7253073392","tag":{"amenity":"waste_basket"}},"type":"Feature"},
	{"geometry":{"coordinates":[8.296368,47.062048],"type":"Point"},"properties":{"osm_id":"7253073398","tag":{"amenity":"waste_basket"}},"type":"Feature"},
	{"geometry":{"coordinates":[8.286602,47.041528],"type":"Point"},"properties":{"osm_id":"7299006621","tag":{"amenity":"waste_basket"}},"type":"Feature"},
	{"geometry":{"coordinates":[8.308437,47.063277],"type":"Point"},"properties":{"osm_id":"7341344780","tag":{"amenity":"waste_basket"}},"type":"Feature"},
	{"geometry":{"coordinates":[8.303387,47.043556],"type":"Point"},"properties":{"osm_id":"7551712041","tag":{"amenity":"waste_basket"}},"type":"Feature"},
	{"geometry":{"coordinates":[8.308591,47.049866],"type":"Point"},"properties":{"osm_id":"7666780472","tag":{"amenity":"waste_basket"}},"type":"Feature"}
]
}
