{
"type": "FeatureCollection",
"features": [
	{"geometry":{"coordinates":[-71.325268,42.653432],"type":"Point"},"properties":{"osm_id":"6778575810","tag":{"amenity":"waste_basket"}},"type":"Feature"},
	{"geometry":{"coordinates":[-71.326925,42.653164],"type":"Point"},"properties":{"osm_id":"6783553729","tag":{"amenity":"waste_basket","waste":"trash"}},"type":"Feature"},
	{"geometry":{"coordinates":[-71.325642,42.655508],"type":"Point"},"properties":{"osm_id":"6880416596","tag":{"amenity":"waste_basket","mapillary":"HaMC6ECRtEfCS_9ET6X3Sg","waste":"trash"}},"type":"Feature"},
	{"geometry":{"coordinates":[-71.326,42.6542],"type":"Point"},"properties":{"osm_id":"6882104149","tag":{"amenity":"waste_basket","description":"Trash and recycle"}},"type":"Feature"},
	{"geometry":{"coordinates":[-71.3262,42.6541],"type":"Point"},"properties":{"osm_id":"6882122683","tag":{"amenity":"waste_basket","description":"Trash & recycle"}},"type":"Feature"},
	{"geometry":{"coordinates":[-71.325693,42.654104],"type":"Point"},"properties":{"osm_id":"6882123469","tag":{"amenity":"waste_basket","waste":"trash"}},"type":"Feature"},
	{"geometry":{"coordinates":[-71.326239,42.653665],"type":"Point"},"properties":{"osm_id":"6882142435","tag":{"amenity":"waste_basket","waste":"trash"}},"type":"Feature"},
	{"geometry":{"coordinates":[-71.326417,42.653535],"type":"Point"},"properties":{"osm_id":"6882325754","tag":{"amenity":"waste_basket"}},"type":"Feature"},
	{"geometry":{"coordinates":[-71.326243,42.65366],"type":"Point"},"properties":{"osm_id":"6882325755","tag":{"amenity":"recycling","recycling:cans":"yes","recycling:glass":"yes","recycling:plastic":"yes","recycling_type":"container"}},"type":"Feature"},
	{"geometry":{"coordinates":[-71.32569,42.654102],"type":"Point"},"properties":{"osm_id":"6882325756","tag":{"amenity":"recycling","recycling:cans":"yes","recycling:glass":"yes","recycling:plastic":"yes","recycling_type":"container"}},"type":"Feature"}
]
}
