{
"type": "FeatureCollection",
"features": [
	{"geometry":{"coordinates":[-71.337004,-29.970449],"type":"Point"},"properties":{"osm_id":"2406529908","tag":{"amenity":"waste_basket"}},"type":"Feature"},
	{"geometry":{"coordinates":[-71.33687,-29.970482],"type":"Point"},"properties":{"osm_id":"2406529909","tag":{"amenity":"waste_basket"}},"type":"Feature"},
	{"geometry":{"coordinates":[-71.336735,-29.970528],"type":"Point"},"properties":{"osm_id":"2406529915","tag":{"amenity":"waste_basket"}},"type":"Feature"},
	{"geometry":{"coordinates":[-71.33699,-29.970612],"type":"Point"},"properties":{"osm_id":"2406529921","tag":{"amenity":"waste_basket"}},"type":"Feature"},
	{"geometry":{"coordinates":[-71.336751,-29.970659],"type":"Point"},"properties":{"osm_id":"2406529925","tag":{"amenity":"waste_basket"}},"type":"Feature"},
	{"geometry":{"coordinates":[-71.337713,-29.971597],"type":"Point"},"properties":{"osm_id":"5462853538","tag":{"amenity":"waste_basket"}},"type":"Feature"},
	{"geometry":{"coordinates":[-71.337519,-29.971499],"type":"Point"},"properties":{"osm_id":"5462853539","tag":{"amenity":"waste_basket"}},"type":"Feature"},
	{"geometry":{"coordinates":[-71.337631,-29.971715],"type":"Point"},"properties":{"osm_id":"5462853540","tag":{"amenity":"waste_basket"}},"type":"Feature"},
	{"geometry":{"coordinates":[-71.337928,-29.971824],"type":"Point"},"properties":{"osm_id":"5462853541","tag":{"amenity":"waste_basket"}},"type":"Feature"},
	{"geometry":{"coordinates":[-71.343449,-29.989654],"type":"Point"},"properties":{"osm_id":"5464668874","tag":{"amenity":"recycling","recycling:glass_bottles":"yes","recycling_type":"container"}},"type":"Feature"},
	{"geometry":{"coordinates":[-71.33623,-29.95589],"type":"Point"},"properties":{"osm_id":"5622285983","tag":{"amenity":"waste_basket"}},"type":"Feature"},
	{"geometry":{"coordinates":[-71.336758,-29.955526],"type":"Point"},"properties":{"osm_id":"5622286007","tag":{"amenity":"waste_basket"}},"type":"Feature"},
	{"geometry":{"coordinates":[-71.336612,-29.955464],"type":"Point"},"properties":{"osm_id":"5622286008","tag":{"amenity":"waste_basket"}},"type":"Feature"},
	{"geometry":{"coordinates":[-71.336559,-29.956221],"type":"Point"},"properties":{"osm_id":"5622286009","tag":{"amenity":"waste_basket"}},"type":"Feature"},
	{"geometry":{"coordinates":[-71.336541,-29.956983],"type":"Point"},"properties":{"osm_id":"5622286010","tag":{"amenity":"waste_basket"}},"type":"Feature"},
	{"geometry":{"coordinates":[-71.336873,-29.957152],"type":"Point"},"properties":{"osm_id":"5622286011","tag":{"amenity":"waste_basket"}},"type":"Feature"},
	{"geometry":{"coordinates":[-71.336008,-29.95763],"type":"Point"},"properties":{"osm_id":"5622286012","tag":{"amenity":"waste_basket"}},"type":"Feature"},
	{"geometry":{"coordinates":[-71.336132,-29.957518],"type":"Point"},"properties":{"osm_id":"5622286013","tag":{"amenity":"waste_basket"}},"type":"Feature"},
	{"geometry":{"coordinates":[-71.336025,-29.957158],"type":"Point"},"properties":{"osm_id":"5622286016","tag":{"amenity":"waste_basket"}},"type":"Feature"},
	{"geometry":{"coordinates":[-71.336129,-29.95613],"type":"Point"},"properties":{"osm_id":"5622286017","tag":{"amenity":"waste_basket"}},"type":"Feature"},
	{"geometry":{"coordinates":[-71.335982,-29.956014],"type":"Point"},"properties":{"osm_id":"5622286018","tag":{"amenity":"waste_basket"}},"type":"Feature"},
	{"geometry":{"coordinates":[-71.335997,-29.955789],"type":"Point"},"properties":{"osm_id":"5622286019","tag":{"amenity":"waste_basket"}},"type":"Feature"},
	{"geometry":{"coordinates":[-71.336424,-29.955672],"type":"Point"},"properties":{"osm_id":"5622286020","tag":{"amenity":"waste_basket"}},"type":"Feature"},
	{"geometry":{"coordinates":[-71.336227,-29.955667],"type":"Point"},"properties":{"osm_id":"5622286121","tag":{"amenity":"waste_basket"}},"type":"Feature"},
	{"geometry":{"coordinates":[-71.336961,-29.957557],"type":"Point"},"properties":{"osm_id":"5622286122","tag":{"amenity":"waste_basket"}},"type":"Feature"},
	{"geometry":{"coordinates":[-71.32603,-29.978198],"type":"Point"},"properties":{"name":"Punto Limpio El Culebr\u00c3\u00b3n","osm_id":"6803079685","tag":{"amenity":"recycling","operator":"Municipalidad de Coquimbo","operator:type":"public","recycling_type":"centre"}},"type":"Feature"}
]
}
