{
"type": "FeatureCollection",
"features": [
	{"geometry":{"coordinates":[15.003076,60.737702],"type":"Point"},"properties":{"osm_id":"904850739","tag":{"amenity":"recycling","recycling_type":"container"}},"type":"Feature"},
	{"geometry":{"coordinates":[15.014076,60.731211],"type":"Point"},"properties":{"osm_id":"1632532835","tag":{"amenity":"recycling","recycling:cans":"yes","recycling:glass_bottles":"yes","recycling:paper":"yes","recycling:paper_packaging":"yes","recycling:plastic_packaging":"yes","recycling_type":"container"}},"type":"Feature"},
	{"geometry":{"coordinates":[14.972147,60.750265],"type":"Point"},"properties":{"name":"Hundlatrin","osm_id":"1767924246","tag":{"amenity":"waste_basket"}},"type":"Feature"},
	{"geometry":{"coordinates":[14.990699,60.730365],"type":"Point"},"properties":{"osm_id":"1768081169","tag":{"amenity":"waste_basket"}},"type":"Feature"},
	{"geometry":{"coordinates":[14.992485,60.730163],"type":"Point"},"properties":{"osm_id":"1768081180","tag":{"amenity":"waste_basket"}},"type":"Feature"},
	{"geometry":{"coordinates":[14.995805,60.730412],"type":"Point"},"properties":{"osm_id":"1768081788","tag":{"amenity":"waste_basket"}},"type":"Feature"},
	{"geometry":{"coordinates":[15.01051,60.718061],"type":"Point"},"properties":{"osm_id":"2129006327","tag":{"amenity":"recycling","recycling_type":"container"}},"type":"Feature"},
	{"geometry":{"coordinates":[14.99344,60.747459],"type":"Point"},"properties":{"name":"Leksand Limhagen \u00c3\u0085VC","osm_id":"2275405220","tag":{"amenity":"recycling","opening_hours":"Mo 10:00-18:00; Tu 08:00-14:00; We 10:00-18:00; Tu 08:00-14:00; Fr 10:00-18:00; Sa 09:00-12:00","recycling:batteries":"yes","recycling:cans":"yes","recycling:cardboard":"yes","recycling:electrical_appliances":"yes","recycling:glass":"yes","recycling:glass_bottles":"yes","recycling:paper":"yes","recycling:paper_packaging":"yes","recycling:plastic_packaging":"yes","recycling:scrap_metal":"yes","recycling:wood":"yes","recycling_type":"centre"}},"type":"Feature"},
	{"geometry":{"coordinates":[14.968454,60.752527],"type":"Point"},"properties":{"osm_id":"2804629603","tag":{"amenity":"waste_basket"}},"type":"Feature"},
	{"geometry":{"coordinates":[14.969242,60.753157],"type":"Point"},"properties":{"name":"Handlatrin","osm_id":"2804629606","tag":{"amenity":"waste_basket","dog":"yes"}},"type":"Feature"},
	{"geometry":{"coordinates":[14.984401,60.733899],"type":"Point"},"properties":{"osm_id":"4216856899","tag":{"amenity":"waste_basket"}},"type":"Feature"},
	{"geometry":{"coordinates":[14.973508,60.747654],"type":"Point"},"properties":{"osm_id":"4216956593","tag":{"amenity":"waste_basket"}},"type":"Feature"},
	{"geometry":{"coordinates":[15.010629,60.718538],"type":"Point"},"properties":{"osm_id":"4217159789","tag":{"amenity":"waste_basket"}},"type":"Feature"},
	{"geometry":{"coordinates":[14.977263,60.740445],"type":"Point"},"properties":{"osm_id":"4217398000","tag":{"amenity":"waste_basket"}},"type":"Feature"}
]
}
