{
"type": "FeatureCollection",
"features": [
	{"geometry":{"coordinates":[14.985613,48.772975],"type":"Point"},"properties":{"osm_id":"2477532460","tag":{"amenity":"waste_basket"}},"type":"Feature"},
	{"geometry":{"coordinates":[14.985938,48.77299],"type":"Point"},"properties":{"osm_id":"2477532464","tag":{"amenity":"waste_basket"}},"type":"Feature"},
	{"geometry":{"coordinates":[14.98127,48.761483],"type":"Point"},"properties":{"osm_id":"3328706647","tag":{"amenity":"recycling","recycling:cans":"yes","recycling:glass":"yes","recycling_type":"container","website":"http://gmuend.abfallverband.at/"}},"type":"Feature"},
	{"geometry":{"coordinates":[14.984451,48.771492],"type":"Point"},"properties":{"osm_id":"4326743075","tag":{"amenity":"waste_basket"}},"type":"Feature"},
	{"geometry":{"coordinates":[15.027052,48.774943],"type":"Point"},"properties":{"osm_id":"4348659153","tag":{"amenity":"recycling","recycling:cans":"yes","recycling:glass_bottles":"yes","recycling_type":"container"}},"type":"Feature"},
	{"geometry":{"coordinates":[14.987518,48.772193],"type":"Point"},"properties":{"osm_id":"4369014379","tag":{"amenity":"recycling"}},"type":"Feature"},
	{"geometry":{"coordinates":[14.986254,48.772959],"type":"Point"},"properties":{"osm_id":"4389395353","tag":{"amenity":"waste_basket"}},"type":"Feature"},
	{"geometry":{"coordinates":[15.014308,48.774595],"type":"Point"},"properties":{"name":"Altstoffsammelzentrum Hoheneich-Gm\u00c3\u00bcnd","osm_id":"4589546468","tag":{"amenity":"recycling","recycling:batteries":"no","recycling:electrical_appliances":"no","recycling:paper":"no","recycling:scrap_metal":"no","recycling_type":"centre","wheelchair":"yes"}},"type":"Feature"},
	{"geometry":{"coordinates":[15.022626,48.77347],"type":"Point"},"properties":{"osm_id":"4698114045","tag":{"amenity":"recycling","recycling:cans":"yes","recycling:glass_bottles":"yes","recycling_type":"container"}},"type":"Feature"},
	{"geometry":{"coordinates":[15.02599,48.773086],"type":"Point"},"properties":{"osm_id":"4698114046","tag":{"amenity":"recycling","recycling:cans":"yes","recycling:glass_bottles":"yes","recycling_type":"container"}},"type":"Feature"},
	{"geometry":{"coordinates":[15.024712,48.767636],"type":"Point"},"properties":{"osm_id":"5457558266","tag":{"amenity":"waste_basket"}},"type":"Feature"},
	{"geometry":{"coordinates":[15.022726,48.768372],"type":"Point"},"properties":{"osm_id":"5457558303","tag":{"amenity":"waste_basket"}},"type":"Feature"},
	{"geometry":{"coordinates":[14.995516,48.779788],"type":"Point"},"properties":{"osm_id":"5469924626","tag":{"amenity":"waste_basket"}},"type":"Feature"},
	{"geometry":{"coordinates":[14.996378,48.779194],"type":"Point"},"properties":{"osm_id":"5469924652","tag":{"amenity":"waste_basket"}},"type":"Feature"},
	{"geometry":{"coordinates":[14.996629,48.77723],"type":"Point"},"properties":{"osm_id":"5469924693","tag":{"amenity":"waste_basket"}},"type":"Feature"},
	{"geometry":{"coordinates":[14.996813,48.776245],"type":"Point"},"properties":{"osm_id":"5469924697","tag":{"amenity":"waste_basket","leisure":"picnic_table"}},"type":"Feature"},
	{"geometry":{"coordinates":[14.998743,48.776695],"type":"Point"},"properties":{"osm_id":"5469924700","tag":{"amenity":"waste_basket"}},"type":"Feature"},
	{"geometry":{"coordinates":[14.991753,48.773781],"type":"Point"},"properties":{"osm_id":"5483605548","tag":{"amenity":"waste_basket"}},"type":"Feature"},
	{"geometry":{"coordinates":[14.993413,48.771913],"type":"Point"},"properties":{"osm_id":"5483605825","tag":{"amenity":"waste_basket"}},"type":"Feature"},
	{"geometry":{"coordinates":[14.994363,48.771848],"type":"Point"},"properties":{"osm_id":"5483605830","tag":{"amenity":"waste_basket"}},"type":"Feature"},
	{"geometry":{"coordinates":[14.995014,48.77171],"type":"Point"},"properties":{"osm_id":"5483605835","tag":{"amenity":"waste_basket"}},"type":"Feature"},
	{"geometry":{"coordinates":[14.972876,48.756042],"type":"Point"},"properties":{"osm_id":"5505299179","tag":{"amenity":"waste_basket"}},"type":"Feature"},
	{"geometry":{"coordinates":[14.97071,48.757776],"type":"Point"},"properties":{"osm_id":"5505299200","tag":{"amenity":"waste_basket"}},"type":"Feature"},
	{"geometry":{"coordinates":[14.983145,48.771964],"type":"Point"},"properties":{"osm_id":"5506550493","tag":{"amenity":"waste_basket"}},"type":"Feature"},
	{"geometry":{"coordinates":[14.995202,48.773276],"type":"Point"},"properties":{"osm_id":"5511756749","tag":{"amenity":"waste_basket"}},"type":"Feature"},
	{"geometry":{"coordinates":[15.007047,48.77998],"type":"Point"},"properties":{"osm_id":"5511756826","tag":{"amenity":"waste_basket"}},"type":"Feature"},
	{"geometry":{"coordinates":[14.970527,48.757924],"type":"Point"},"properties":{"osm_id":"5552585811","tag":{"amenity":"waste_basket"}},"type":"Feature"}
]
}
