{
"type": "FeatureCollection",
"lastupdate": "2020-08-03T00:00:00Z",
"features": [
	{"geometry":{"coordinates":[14.946709,48.647259],"type":"Point"},"properties":{"name":"Altstoffsammelzentrum Gro\u00c3\u009fsch\u00c3\u00b6nau","osm_id":"1837820534","tag":{"amenity":"recycling","recycling_centre":"yes","recycling_type":"centre"}},"type":"Feature"},
	{"geometry":{"coordinates":[14.966088,48.671238],"type":"Point"},"properties":{"osm_id":"2116808643","tag":{"amenity":"waste_basket"}},"type":"Feature"},
	{"geometry":{"coordinates":[14.942101,48.651445],"type":"Point"},"properties":{"osm_id":"2503226171","tag":{"amenity":"waste_basket"}},"type":"Feature"},
	{"geometry":{"coordinates":[14.941781,48.651556],"type":"Point"},"properties":{"osm_id":"2503226175","tag":{"amenity":"waste_basket"}},"type":"Feature"},
	{"geometry":{"coordinates":[14.942035,48.651729],"type":"Point"},"properties":{"osm_id":"2503226177","tag":{"amenity":"waste_basket"}},"type":"Feature"},
	{"geometry":{"coordinates":[14.942094,48.651791],"type":"Point"},"properties":{"osm_id":"2503290773","tag":{"amenity":"waste_basket"}},"type":"Feature"},
	{"geometry":{"coordinates":[14.941916,48.653357],"type":"Point"},"properties":{"osm_id":"2503312987","tag":{"amenity":"waste_basket"}},"type":"Feature"},
	{"geometry":{"coordinates":[14.941811,48.657399],"type":"Point"},"properties":{"osm_id":"2503313007","tag":{"amenity":"waste_basket"}},"type":"Feature"},
	{"geometry":{"coordinates":[14.942231,48.651236],"type":"Point"},"properties":{"osm_id":"2533993770","tag":{"amenity":"waste_basket"}},"type":"Feature"},
	{"geometry":{"coordinates":[14.96364,48.672493],"type":"Point"},"properties":{"osm_id":"2677232483","tag":{"amenity":"recycling","recycling_type":"container"}},"type":"Feature"},
	{"geometry":{"coordinates":[14.942009,48.653224],"type":"Point"},"properties":{"osm_id":"2775685587","tag":{"amenity":"recycling"}},"type":"Feature"},
	{"geometry":{"coordinates":[14.950287,48.648601],"type":"Point"},"properties":{"osm_id":"2876737062","tag":{"amenity":"waste_basket"}},"type":"Feature"},
	{"geometry":{"coordinates":[14.963608,48.672507],"type":"Point"},"properties":{"osm_id":"3188438807","tag":{"amenity":"waste_basket"}},"type":"Feature"}
]
}
