{
"type": "FeatureCollection",
"features": [
	{"geometry":{"coordinates":[14.959118,48.23692],"type":"Point"},"properties":{"osm_id":"897467439","tag":{"amenity":"recycling","recycling:clothes":"yes","recycling:glass":"yes","recycling:paper":"yes","recycling:plastic":"yes","recycling:scrap_metal":"yes"}},"type":"Feature"},
	{"geometry":{"coordinates":[14.953319,48.232321],"type":"Point"},"properties":{"osm_id":"897519538","tag":{"amenity":"recycling"}},"type":"Feature"},
	{"geometry":{"coordinates":[14.974335,48.277096],"type":"Point"},"properties":{"osm_id":"904046492","tag":{"amenity":"waste_basket"}},"type":"Feature"},
	{"geometry":{"coordinates":[14.953283,48.276734],"type":"Point"},"properties":{"osm_id":"904047053","tag":{"amenity":"waste_basket"}},"type":"Feature"},
	{"geometry":{"coordinates":[14.955069,48.282624],"type":"Point"},"properties":{"osm_id":"958581593","tag":{"amenity":"waste_basket"}},"type":"Feature"},
	{"geometry":{"coordinates":[14.956907,48.281518],"type":"Point"},"properties":{"osm_id":"958581654","tag":{"amenity":"waste_basket"}},"type":"Feature"},
	{"geometry":{"coordinates":[14.954907,48.281935],"type":"Point"},"properties":{"osm_id":"958581912","tag":{"amenity":"waste_basket"}},"type":"Feature"},
	{"geometry":{"coordinates":[14.955279,48.281451],"type":"Point"},"properties":{"osm_id":"958581920","tag":{"amenity":"waste_basket"}},"type":"Feature"},
	{"geometry":{"coordinates":[14.956753,48.281312],"type":"Point"},"properties":{"osm_id":"958581925","tag":{"amenity":"waste_basket"}},"type":"Feature"},
	{"geometry":{"coordinates":[14.957143,48.283031],"type":"Point"},"properties":{"osm_id":"958581969","tag":{"amenity":"waste_basket"}},"type":"Feature"},
	{"geometry":{"coordinates":[14.954969,48.282425],"type":"Point"},"properties":{"osm_id":"958582077","tag":{"amenity":"waste_basket"}},"type":"Feature"},
	{"geometry":{"coordinates":[14.957172,48.282735],"type":"Point"},"properties":{"osm_id":"958582120","tag":{"amenity":"waste_basket"}},"type":"Feature"},
	{"geometry":{"coordinates":[14.95169,48.274501],"type":"Point"},"properties":{"osm_id":"962059499","tag":{"amenity":"waste_basket"}},"type":"Feature"},
	{"geometry":{"coordinates":[14.951986,48.269684],"type":"Point"},"properties":{"osm_id":"1374544860","tag":{"amenity":"recycling","recycling:glass":"yes","recycling:paper":"yes","recycling:plastic":"yes","recycling_type":"container"}},"type":"Feature"},
	{"geometry":{"coordinates":[14.945696,48.240998],"type":"Point"},"properties":{"osm_id":"1438772554","tag":{"amenity":"recycling","recycling:glass":"yes","recycling:paper":"yes","recycling_type":"container"}},"type":"Feature"},
	{"geometry":{"coordinates":[14.981875,48.228161],"type":"Point"},"properties":{"osm_id":"3505386432","tag":{"amenity":"recycling","description":"ASI N\u00c3\u00b6chling 1: N\u00c3\u00b6chling - Sportplatz-Parkplatz","recycling_type":"container"}},"type":"Feature"},
	{"geometry":{"coordinates":[15.01433,48.250262],"type":"Point"},"properties":{"osm_id":"3505388188","tag":{"amenity":"recycling","description":"ASI St. Oswald 4: F\u00c3\u00bcnfling - Kreuzung Glatzhof - bei Bushaltestelle","recycling_type":"container"}},"type":"Feature"},
	{"geometry":{"coordinates":[14.950321,48.271256],"type":"Point"},"properties":{"osm_id":"3902301598","tag":{"amenity":"waste_basket"}},"type":"Feature"},
	{"geometry":{"coordinates":[14.949576,48.274772],"type":"Point"},"properties":{"osm_id":"3902301619","tag":{"amenity":"waste_basket"}},"type":"Feature"},
	{"geometry":{"coordinates":[14.950552,48.275073],"type":"Point"},"properties":{"osm_id":"3902301623","tag":{"amenity":"waste_basket"}},"type":"Feature"},
	{"geometry":{"coordinates":[14.953271,48.278105],"type":"Point"},"properties":{"osm_id":"3902301635","tag":{"amenity":"waste_basket"}},"type":"Feature"},
	{"geometry":{"coordinates":[14.953361,48.279183],"type":"Point"},"properties":{"osm_id":"3902301647","tag":{"amenity":"waste_basket"}},"type":"Feature"},
	{"geometry":{"coordinates":[14.95353,48.2796],"type":"Point"},"properties":{"osm_id":"3902301651","tag":{"amenity":"waste_basket"}},"type":"Feature"},
	{"geometry":{"coordinates":[14.952124,48.269472],"type":"Point"},"properties":{"osm_id":"6857884746","tag":{"amenity":"recycling","recycling_type":"container"}},"type":"Feature"}
]
}
