{
"type": "FeatureCollection",
"features": [
	{"geometry":{"coordinates":[-2.02561,53.522446],"type":"Point"},"properties":{"osm_id":"8728648438","tag":{"amenity":"waste_basket"}},"type":"Feature"},
	{"geometry":{"coordinates":[-2.024294,53.514659],"type":"Point"},"properties":{"osm_id":"8746005886","tag":{"amenity":"waste_basket"}},"type":"Feature"},
	{"geometry":{"coordinates":[-2.023697,53.529741],"type":"Point"},"properties":{"osm_id":"8746012762","tag":{"amenity":"waste_basket"}},"type":"Feature"},
	{"geometry":{"coordinates":[-2.028118,53.502439],"type":"Point"},"properties":{"osm_id":"8746046140","tag":{"amenity":"waste_basket"}},"type":"Feature"},
	{"geometry":{"coordinates":[-2.055749,53.537507],"type":"Point"},"properties":{"osm_id":"8778710006","tag":{"amenity":"waste_basket"}},"type":"Feature"},
	{"geometry":{"coordinates":[-2.079137,53.492779],"type":"Point"},"properties":{"osm_id":"8993557597","tag":{"amenity":"waste_basket"}},"type":"Feature"},
	{"geometry":{"coordinates":[-2.079139,53.492575],"type":"Point"},"properties":{"osm_id":"8993557599","tag":{"amenity":"waste_basket"}},"type":"Feature"},
	{"geometry":{"coordinates":[-2.078795,53.492705],"type":"Point"},"properties":{"osm_id":"8993557600","tag":{"amenity":"waste_basket"}},"type":"Feature"},
	{"geometry":{"coordinates":[-2.078055,53.49315],"type":"Point"},"properties":{"osm_id":"8993557601","tag":{"amenity":"waste_basket"}},"type":"Feature"},
	{"geometry":{"coordinates":[-2.039174,53.495571],"type":"Point"},"properties":{"name":"Grove Road Rubbish Disposal","osm_id":"9165677495","tag":{"access":"permissive","amenity":"waste_disposal","centralkey":"crt_watermate","operator":"Canal and River Trust","waste":"trash","waterway":"waste_disposal"}},"type":"Feature"}
]
}
