{
"type": "FeatureCollection",
"features": [
	{"geometry":{"coordinates":[-2.099375,53.472481],"type":"Point"},"properties":{"name":"PolyMelt","osm_id":"2327394201","tag":{"addr:full":"Unit 6, Globe Industrial Park, Platt Street, Dukinfield, Cheshire, SK16 4RE","addr:housename":"Unit 6","addr:postcode":"SK16 4RE","addr:street":"Platt Street","amenity":"recycling","recycling:plastic_packaging":"yes","recycling:polystyrene":"yes","recycling_type":"centre","website":"www.polymeltltd.com"}},"type":"Feature"},
	{"geometry":{"coordinates":[-2.065924,53.483314],"type":"Point"},"properties":{"name":"Bayley Street Recycling Centre","osm_id":"2400436368","tag":{"addr:city":"Stalybridge","addr:street":"Bayley Street","amenity":"recycling","description":"Accepts more types of waste than those tagged","opening_hours":"Mo-Su 08:00-18:00","operator":"S U E Z Recycling And Recovery U K Ltd","owner":"GMCA","ownership":"municipal","recycling:electrical_appliances":"yes","recycling:garden_waste":"yes","recycling:scrap_metal":"yes","recycling:waste":"yes","recycling:wood":"yes","recycling_type":"centre","website":"https://recycleforgreatermanchester.com/recycle-centre/bayley-street-recycling-centre/","wikidata":"Q106093249"}},"type":"Feature"},
	{"geometry":{"coordinates":[-2.064867,53.45455],"type":"Point"},"properties":{"osm_id":"6335165373","tag":{"amenity":"waste_basket"}},"type":"Feature"},
	{"geometry":{"coordinates":[-2.042392,53.486592],"type":"Point"},"properties":{"osm_id":"8728672542","tag":{"amenity":"waste_basket"}},"type":"Feature"},
	{"geometry":{"coordinates":[-2.050746,53.483622],"type":"Point"},"properties":{"osm_id":"8740773605","tag":{"amenity":"waste_basket"}},"type":"Feature"},
	{"geometry":{"coordinates":[-2.065661,53.483229],"type":"Point"},"properties":{"osm_id":"8746085261","tag":{"amenity":"recycling","recycling_type":"container"}},"type":"Feature"}
]
}
