{
"type": "FeatureCollection",
"features": [
	{"geometry":{"coordinates":[-2.107722,52.819076],"type":"Point"},"properties":{"osm_id":"7910116441","tag":{"amenity":"waste_basket"}},"type":"Feature"},
	{"geometry":{"coordinates":[-2.108117,52.819161],"type":"Point"},"properties":{"osm_id":"7910116442","tag":{"amenity":"waste_basket"}},"type":"Feature"},
	{"geometry":{"coordinates":[-2.106242,52.818432],"type":"Point"},"properties":{"osm_id":"7910116443","tag":{"amenity":"waste_basket"}},"type":"Feature"},
	{"geometry":{"coordinates":[-2.106258,52.818389],"type":"Point"},"properties":{"osm_id":"7910116444","tag":{"amenity":"waste_basket"}},"type":"Feature"},
	{"geometry":{"coordinates":[-2.105365,52.81855],"type":"Point"},"properties":{"osm_id":"7910116445","tag":{"amenity":"waste_basket"}},"type":"Feature"},
	{"geometry":{"coordinates":[-2.107477,52.821284],"type":"Point"},"properties":{"osm_id":"7954064484","tag":{"amenity":"waste_basket","colour":"black"}},"type":"Feature"},
	{"geometry":{"coordinates":[-2.106997,52.819542],"type":"Point"},"properties":{"osm_id":"7963285954","tag":{"amenity":"waste_basket","colour":"black","waste":"trash"}},"type":"Feature"},
	{"geometry":{"coordinates":[-2.106893,52.81956],"type":"Point"},"properties":{"osm_id":"7963285955","tag":{"amenity":"waste_basket","colour":"black","waste":"trash"}},"type":"Feature"},
	{"geometry":{"coordinates":[-2.104372,52.821621],"type":"Point"},"properties":{"osm_id":"8651175582","tag":{"amenity":"waste_basket"}},"type":"Feature"},
	{"geometry":{"coordinates":[-2.103345,52.812098],"type":"Point"},"properties":{"osm_id":"8818064902","tag":{"amenity":"waste_basket"}},"type":"Feature"},
	{"geometry":{"coordinates":[-2.100763,52.81065],"type":"Point"},"properties":{"osm_id":"8820792949","tag":{"amenity":"waste_basket"}},"type":"Feature"},
	{"geometry":{"coordinates":[-2.079285,52.808643],"type":"Point"},"properties":{"osm_id":"8825177942","tag":{"amenity":"waste_basket"}},"type":"Feature"}
]
}
