{
"type": "FeatureCollection",
"features": [
	{"geometry":{"coordinates":[-2.093242,51.914115],"type":"Point"},"properties":{"name":"Swindon Road Recycling Centre","osm_id":"367927273","tag":{"amenity":"recycling","operator":"Cheltenham Borough Council","recycling:batteries":"yes","recycling:cans":"yes","recycling:cardboard":"yes","recycling:clothes":"yes","recycling:electrical_appliances":"yes","recycling:glass":"yes","recycling:glass_bottles":"yes","recycling:green_waste":"yes","recycling:paper":"yes","recycling:plastic":"yes","recycling:scrap_metal":"yes","recycling:small_appliances":"yes","recycling:waste":"yes","recycling_type":"centre","website":"https://www.cheltenham.gov.uk/info/5/bins_and_recycling/919/recycling_centres_and_bring_banks","wheelchair":"no"}},"type":"Feature"},
	{"geometry":{"coordinates":[-2.100006,51.942347],"type":"Point"},"properties":{"osm_id":"417964542","tag":{"amenity":"recycling"}},"type":"Feature"},
	{"geometry":{"coordinates":[-2.105473,51.917155],"type":"Point"},"properties":{"osm_id":"462638942","tag":{"amenity":"recycling","location":"overground","recycling:beverage_cartons":"yes","recycling:cans":"yes","recycling:clothes":"yes","recycling:glass":"yes","recycling:glass_bottles":"yes","recycling:light_bulbs":"yes","recycling:paper":"yes","recycling:plastic_bottles":"yes","recycling:shoes":"yes","recycling_type":"container"}},"type":"Feature"},
	{"geometry":{"coordinates":[-2.049777,51.902324],"type":"Point"},"properties":{"name":"Sainsbury's","osm_id":"717371397","tag":{"amenity":"recycling","recycling:cans":"yes","recycling:cardboard":"yes","recycling:clothes":"yes","recycling:glass":"yes","recycling_type":"container"}},"type":"Feature"},
	{"geometry":{"coordinates":[-2.069187,51.898994],"type":"Point"},"properties":{"osm_id":"2027033680","tag":{"amenity":"recycling","location":"overground","recycling_type":"container"}},"type":"Feature"},
	{"geometry":{"coordinates":[-2.046113,51.943488],"type":"Point"},"properties":{"osm_id":"2554541581","tag":{"amenity":"waste_basket"}},"type":"Feature"},
	{"geometry":{"coordinates":[-2.047704,51.943642],"type":"Point"},"properties":{"osm_id":"2554541584","tag":{"amenity":"waste_basket"}},"type":"Feature"},
	{"geometry":{"coordinates":[-2.104832,51.89053],"type":"Point"},"properties":{"osm_id":"2580238400","tag":{"amenity":"waste_basket"}},"type":"Feature"},
	{"geometry":{"coordinates":[-2.08671,51.89228],"type":"Point"},"properties":{"osm_id":"6965754565","tag":{"amenity":"waste_basket"}},"type":"Feature"},
	{"geometry":{"coordinates":[-2.098651,51.890513],"type":"Point"},"properties":{"osm_id":"7124459019","tag":{"amenity":"waste_basket","waste":"trash"}},"type":"Feature"},
	{"geometry":{"coordinates":[-2.096997,51.890578],"type":"Point"},"properties":{"osm_id":"7714260974","tag":{"amenity":"waste_basket","waste":"trash"}},"type":"Feature"},
	{"geometry":{"coordinates":[-2.096993,51.890576],"type":"Point"},"properties":{"osm_id":"7714271716","tag":{"amenity":"waste_basket"}},"type":"Feature"},
	{"geometry":{"coordinates":[-2.082994,51.895224],"type":"Point"},"properties":{"osm_id":"8019640428","tag":{"amenity":"waste_basket","covered":"booth","waste":"trash"}},"type":"Feature"},
	{"geometry":{"coordinates":[-2.081482,51.89813],"type":"Point"},"properties":{"osm_id":"8019640433","tag":{"amenity":"waste_basket","waste":"trash"}},"type":"Feature"},
	{"geometry":{"coordinates":[-2.09585,51.890191],"type":"Point"},"properties":{"osm_id":"8019687674","tag":{"amenity":"waste_basket","waste":"trash"}},"type":"Feature"},
	{"geometry":{"coordinates":[-2.097391,51.897554],"type":"Point"},"properties":{"osm_id":"8094608193","tag":{"amenity":"waste_basket","waste":"trash"}},"type":"Feature"},
	{"geometry":{"coordinates":[-2.089719,51.895444],"type":"Point"},"properties":{"osm_id":"8151823793","tag":{"amenity":"waste_basket","waste":"trash"}},"type":"Feature"},
	{"geometry":{"coordinates":[-2.07476,51.909539],"type":"Point"},"properties":{"osm_id":"9066649240","tag":{"amenity":"waste_basket","material":"metal"}},"type":"Feature"},
	{"geometry":{"coordinates":[-2.076466,51.911048],"type":"Point"},"properties":{"osm_id":"9066649243","tag":{"amenity":"waste_basket","material":"metal"}},"type":"Feature"},
	{"geometry":{"coordinates":[-2.044904,51.908398],"type":"Point"},"properties":{"osm_id":"9070886511","tag":{"amenity":"waste_basket"}},"type":"Feature"}
]
}
