{
"type": "FeatureCollection",
"features": [
	{"geometry":{"coordinates":[-2.079792,51.889968],"type":"Point"},"properties":{"name":"Bath Road Car Park","osm_id":"1685251483","tag":{"amenity":"recycling","recycling:cans":"yes","recycling:clothes":"yes","recycling:glass":"yes","recycling:paper":"yes"}},"type":"Feature"},
	{"geometry":{"coordinates":[-2.108543,51.879337],"type":"Point"},"properties":{"osm_id":"2390343648","tag":{"amenity":"recycling","location":"overground","recycling:cardboard":"yes","recycling:glass":"yes","recycling:paper":"yes","recycling_type":"container"}},"type":"Feature"},
	{"geometry":{"coordinates":[-2.091124,51.889158],"type":"Point"},"properties":{"osm_id":"6594653392","tag":{"amenity":"waste_basket","waste":"trash"}},"type":"Feature"},
	{"geometry":{"coordinates":[-2.091834,51.887191],"type":"Point"},"properties":{"osm_id":"6594653406","tag":{"amenity":"waste_basket","waste":"trash"}},"type":"Feature"},
	{"geometry":{"coordinates":[-2.091763,51.8866],"type":"Point"},"properties":{"osm_id":"6594653408","tag":{"amenity":"waste_basket","waste":"trash"}},"type":"Feature"},
	{"geometry":{"coordinates":[-2.089925,51.885382],"type":"Point"},"properties":{"osm_id":"6594653409","tag":{"amenity":"waste_basket","waste":"trash"}},"type":"Feature"},
	{"geometry":{"coordinates":[-2.103866,51.883834],"type":"Point"},"properties":{"osm_id":"6617808800","tag":{"amenity":"waste_basket","waste":"trash"}},"type":"Feature"},
	{"geometry":{"coordinates":[-2.106014,51.881265],"type":"Point"},"properties":{"osm_id":"6617810287","tag":{"amenity":"waste_basket","waste":"trash"}},"type":"Feature"},
	{"geometry":{"coordinates":[-2.09291,51.88164],"type":"Point"},"properties":{"osm_id":"6617810342","tag":{"amenity":"waste_basket","waste":"trash"}},"type":"Feature"},
	{"geometry":{"coordinates":[-2.093639,51.889996],"type":"Point"},"properties":{"osm_id":"7847079668","tag":{"amenity":"waste_basket","waste":"trash"}},"type":"Feature"},
	{"geometry":{"coordinates":[-2.108766,51.888588],"type":"Point"},"properties":{"osm_id":"7859172244","tag":{"amenity":"waste_basket","waste":"trash"}},"type":"Feature"},
	{"geometry":{"coordinates":[-2.108434,51.881037],"type":"Point"},"properties":{"osm_id":"7900223435","tag":{"amenity":"waste_basket","waste":"trash"}},"type":"Feature"},
	{"geometry":{"coordinates":[-2.108689,51.881035],"type":"Point"},"properties":{"osm_id":"7900223440","tag":{"amenity":"waste_basket","waste":"trash"}},"type":"Feature"},
	{"geometry":{"coordinates":[-2.100456,51.879011],"type":"Point"},"properties":{"osm_id":"7926211137","tag":{"amenity":"waste_basket","waste":"trash"}},"type":"Feature"},
	{"geometry":{"coordinates":[-2.101399,51.878813],"type":"Point"},"properties":{"osm_id":"7926211142","tag":{"amenity":"waste_basket","waste":"trash"}},"type":"Feature"},
	{"geometry":{"coordinates":[-2.102776,51.879394],"type":"Point"},"properties":{"osm_id":"7926211143","tag":{"amenity":"waste_basket","waste":"trash"}},"type":"Feature"},
	{"geometry":{"coordinates":[-2.10538,51.880074],"type":"Point"},"properties":{"osm_id":"7926211146","tag":{"amenity":"waste_basket","waste":"trash"}},"type":"Feature"},
	{"geometry":{"coordinates":[-2.104972,51.880348],"type":"Point"},"properties":{"osm_id":"7926211148","tag":{"amenity":"waste_basket","waste":"trash"}},"type":"Feature"},
	{"geometry":{"coordinates":[-2.096279,51.88282],"type":"Point"},"properties":{"osm_id":"7949138148","tag":{"amenity":"waste_basket","waste":"trash"}},"type":"Feature"},
	{"geometry":{"coordinates":[-2.096371,51.883136],"type":"Point"},"properties":{"osm_id":"7949138154","tag":{"amenity":"waste_basket","waste":"trash"}},"type":"Feature"},
	{"geometry":{"coordinates":[-2.091085,51.888097],"type":"Point"},"properties":{"osm_id":"7949173813","tag":{"amenity":"waste_basket","waste":"trash"}},"type":"Feature"},
	{"geometry":{"coordinates":[-2.090467,51.888305],"type":"Point"},"properties":{"osm_id":"7949173821","tag":{"amenity":"waste_basket","waste":"trash"}},"type":"Feature"},
	{"geometry":{"coordinates":[-2.08862,51.888652],"type":"Point"},"properties":{"osm_id":"7949173874","tag":{"amenity":"waste_basket","waste":"trash"}},"type":"Feature"},
	{"geometry":{"coordinates":[-2.091085,51.89001],"type":"Point"},"properties":{"osm_id":"7949174183","tag":{"amenity":"waste_basket","waste":"trash"}},"type":"Feature"}
]
}
