{
"type": "FeatureCollection",
"features": [
	{"geometry":{"coordinates":[-2.101751,48.093175],"type":"Point"},"properties":{"osm_id":"917051069","tag":{"amenity":"recycling","recycling:glass":"yes","recycling_type":"container"}},"type":"Feature"},
	{"geometry":{"coordinates":[-2.098723,48.093232],"type":"Point"},"properties":{"osm_id":"1290799994","tag":{"amenity":"waste_basket"}},"type":"Feature"},
	{"geometry":{"coordinates":[-2.104762,48.080341],"type":"Point"},"properties":{"osm_id":"1855923697","tag":{"amenity":"recycling","recycling:glass":"yes","recycling_type":"container"}},"type":"Feature"},
	{"geometry":{"coordinates":[-2.058696,48.054426],"type":"Point"},"properties":{"osm_id":"1874581796","tag":{"amenity":"recycling","recycling:glass":"yes","recycling_type":"container"}},"type":"Feature"},
	{"geometry":{"coordinates":[-2.029089,48.100182],"type":"Point"},"properties":{"osm_id":"2360805169","tag":{"amenity":"waste_basket"}},"type":"Feature"},
	{"geometry":{"coordinates":[-2.029615,48.100269],"type":"Point"},"properties":{"osm_id":"2360805182","tag":{"amenity":"waste_basket"}},"type":"Feature"},
	{"geometry":{"coordinates":[-2.031936,48.100298],"type":"Point"},"properties":{"osm_id":"2360805184","tag":{"amenity":"waste_basket"}},"type":"Feature"},
	{"geometry":{"coordinates":[-2.029911,48.100379],"type":"Point"},"properties":{"osm_id":"2360805193","tag":{"amenity":"waste_basket"}},"type":"Feature"},
	{"geometry":{"coordinates":[-2.030033,48.100423],"type":"Point"},"properties":{"osm_id":"2360805199","tag":{"amenity":"waste_basket"}},"type":"Feature"},
	{"geometry":{"coordinates":[-2.030319,48.100466],"type":"Point"},"properties":{"osm_id":"2360805207","tag":{"amenity":"waste_basket"}},"type":"Feature"},
	{"geometry":{"coordinates":[-2.030328,48.10047],"type":"Point"},"properties":{"osm_id":"2360805209","tag":{"amenity":"waste_basket"}},"type":"Feature"},
	{"geometry":{"coordinates":[-2.031661,48.100538],"type":"Point"},"properties":{"osm_id":"2360805228","tag":{"amenity":"waste_basket"}},"type":"Feature"},
	{"geometry":{"coordinates":[-2.03181,48.101624],"type":"Point"},"properties":{"osm_id":"2360805427","tag":{"amenity":"recycling","description":"Plan du Domaine de Tr\u00c3\u00a9melin","hiking":"yes","horse":"yes","information":"map","map_size":"site","map_type":"scheme","mtb":"yes","recycling:glass":"yes","recycling_type":"container","tourism":"information"}},"type":"Feature"},
	{"geometry":{"coordinates":[-2.029853,48.101629],"type":"Point"},"properties":{"osm_id":"2360805458","tag":{"amenity":"waste_basket"}},"type":"Feature"},
	{"geometry":{"coordinates":[-2.032925,48.099544],"type":"Point"},"properties":{"osm_id":"3323954464","tag":{"amenity":"recycling","recycling:glass":"yes","recycling_type":"container"}},"type":"Feature"},
	{"geometry":{"coordinates":[-2.032053,48.101485],"type":"Point"},"properties":{"osm_id":"3323954486","tag":{"amenity":"recycling","recycling:glass":"yes","recycling_type":"container"}},"type":"Feature"}
]
}
