{
"type": "FeatureCollection",
"features": [
	{"geometry":{"coordinates":[-2.066612,47.704211],"type":"Point"},"properties":{"osm_id":"3500527693","tag":{"amenity":"recycling","recycling_type":"container"}},"type":"Feature"},
	{"geometry":{"coordinates":[-2.042918,47.719067],"type":"Point"},"properties":{"name":"Bains sur Oust - Les Bois - 1","osm_id":"4823350671","tag":{"amenity":"recycling","operator":"Communaut\u00c3\u00a9 de Communes du Pays de Redon","recycling:glass_bottles":"yes","recycling_type":"container"}},"type":"Feature"},
	{"geometry":{"coordinates":[-2.085205,47.708278],"type":"Point"},"properties":{"name":"Bains sur Oust - Ateliers Municipaux - 5","osm_id":"4823350673","tag":{"amenity":"recycling","operator":"Communaut\u00c3\u00a9 de Communes du Pays de Redon","recycling:glass_bottles":"yes","recycling_type":"container"}},"type":"Feature"},
	{"geometry":{"coordinates":[-2.053058,47.744309],"type":"Point"},"properties":{"name":"Bains sur Oust - La Coudraye - 2","osm_id":"4823352126","tag":{"amenity":"recycling","operator":"Communaut\u00c3\u00a9 de Communes du Pays de Redon","recycling:glass_bottles":"yes","recycling_type":"container"}},"type":"Feature"},
	{"geometry":{"coordinates":[-2.083083,47.727186],"type":"Point"},"properties":{"name":"Bains sur Oust - Les Touches - 3","osm_id":"4823352141","tag":{"amenity":"recycling","operator":"Communaut\u00c3\u00a9 de Communes du Pays de Redon","recycling:glass_bottles":"yes","recycling_type":"container"}},"type":"Feature"},
	{"geometry":{"coordinates":[-2.066577,47.704178],"type":"Point"},"properties":{"name":"Bains sur Oust - Salle Polyvalente - 6","osm_id":"4823352191","tag":{"amenity":"recycling","operator":"Communaut\u00c3\u00a9 de Communes du Pays de Redon","recycling:glass_bottles":"yes","recycling_type":"container"}},"type":"Feature"}
]
}
