{
"type": "FeatureCollection",
"features": [
	{"geometry":{"coordinates":[-2.072763,47.661018],"type":"Point"},"properties":{"osm_id":"550691684","tag":{"amenity":"recycling","recycling:paper":"yes","recycling_type":"container"}},"type":"Feature"},
	{"geometry":{"coordinates":[-2.083215,47.651186],"type":"Point"},"properties":{"name":"Redon - Cours Bertrand","osm_id":"3880761113","tag":{"amenity":"recycling","operator":"Communaut\u00c3\u00a9 de Communes du Pays de Redon","recycling:cans":"no","recycling:clothes":"no","recycling:glass_bottles":"yes","recycling:paper":"no","recycling:plastic":"no","recycling_type":"container","wheelchair":"yes"}},"type":"Feature"},
	{"geometry":{"coordinates":[-2.083235,47.651165],"type":"Point"},"properties":{"osm_id":"3880761114","tag":{"amenity":"recycling","operator":"Syndicat de traitement des d\u00c3\u00a9chets du Sud-Est Morbihan","recycling:cans":"no","recycling:clothes":"no","recycling:glass":"no","recycling:glass_bottles":"no","recycling:paper":"yes","recycling:plastic":"no","recycling_type":"container","wheelchair":"yes"}},"type":"Feature"},
	{"geometry":{"coordinates":[-2.106832,47.668352],"type":"Point"},"properties":{"osm_id":"3880761123","tag":{"amenity":"recycling","recycling:cans":"no","recycling:clothes":"yes","recycling:glass":"no","recycling:glass_bottles":"no","recycling:paper":"no","recycling:plastic":"no","recycling_type":"container","wheelchair":"no"}},"type":"Feature"},
	{"geometry":{"coordinates":[-2.075774,47.664691],"type":"Point"},"properties":{"osm_id":"4223789474","tag":{"amenity":"recycling","recycling:paper":"yes","recycling_type":"container"}},"type":"Feature"},
	{"geometry":{"coordinates":[-2.064317,47.672855],"type":"Point"},"properties":{"osm_id":"4223791589","tag":{"addr:city":"Redon","addr:postcode":"35600","amenity":"recycling","recycling:paper":"yes","recycling_type":"container"}},"type":"Feature"},
	{"geometry":{"coordinates":[-2.084748,47.649562],"type":"Point"},"properties":{"osm_id":"4225438499","tag":{"amenity":"waste_basket"}},"type":"Feature"},
	{"geometry":{"coordinates":[-2.060664,47.660559],"type":"Point"},"properties":{"osm_id":"4369897275","tag":{"amenity":"waste_basket"}},"type":"Feature"},
	{"geometry":{"coordinates":[-2.105493,47.667572],"type":"Point"},"properties":{"osm_id":"4446070658","tag":{"amenity":"waste_basket"}},"type":"Feature"},
	{"geometry":{"coordinates":[-2.105783,47.667626],"type":"Point"},"properties":{"osm_id":"4446070659","tag":{"amenity":"waste_basket"}},"type":"Feature"},
	{"geometry":{"coordinates":[-2.105838,47.667296],"type":"Point"},"properties":{"osm_id":"4446071334","tag":{"amenity":"waste_basket"}},"type":"Feature"},
	{"geometry":{"coordinates":[-2.085778,47.651138],"type":"Point"},"properties":{"osm_id":"4703727965","tag":{"amenity":"recycling","description":"Conteneur enterr\u00c3\u00a9 pour les sacs jaunes","recycling:plastic_packaging":"yes","recycling_type":"container"}},"type":"Feature"},
	{"geometry":{"coordinates":[-2.085786,47.651119],"type":"Point"},"properties":{"osm_id":"4703727966","tag":{"amenity":"waste_disposal","description":"Conteneur enterr\u00c3\u00a9"}},"type":"Feature"},
	{"geometry":{"coordinates":[-2.0742,47.660106],"type":"Point"},"properties":{"name":"Redon-Rue G\u00c3\u00a9n\u00c3\u00a9ral Churchill 1 Face Rue Jean Moulin- 5","osm_id":"4823350653","tag":{"amenity":"recycling","operator":"Communaut\u00c3\u00a9 de Communes du Pays de Redon","recycling:glass_bottles":"yes","recycling_type":"container"}},"type":"Feature"},
	{"geometry":{"coordinates":[-2.080724,47.648957],"type":"Point"},"properties":{"name":"Saint-Nicolas de Redon Rue des Tanins 1","osm_id":"4823350660","tag":{"amenity":"recycling","operator":"Communaut\u00c3\u00a9 de Communes du Pays de Redon","recycling:glass_bottles":"yes","recycling_type":"container"}},"type":"Feature"},
	{"geometry":{"coordinates":[-2.088113,47.67226],"type":"Point"},"properties":{"name":"Redon - Rue de la Marionnette - 10","osm_id":"4823350666","tag":{"amenity":"recycling","operator":"Communaut\u00c3\u00a9 de Communes du Pays de Redon","recycling:glass_bottles":"yes","recycling_type":"container"}},"type":"Feature"},
	{"geometry":{"coordinates":[-2.079388,47.653525],"type":"Point"},"properties":{"name":"Redon - H\u00c3\u00b4pital - Avenue \u00c3\u0089tienne Gascon - 32","osm_id":"4823350667","tag":{"amenity":"recycling","operator":"Communaut\u00c3\u00a9 de Communes du Pays de Redon","recycling:glass_bottles":"yes","recycling_type":"container"}},"type":"Feature"},
	{"geometry":{"coordinates":[-2.085204,47.661461],"type":"Point"},"properties":{"name":"Redon - Avenue de Broceliande - 28","osm_id":"4823350672","tag":{"amenity":"recycling","operator":"Communaut\u00c3\u00a9 de Communes du Pays de Redon","recycling:glass_bottles":"yes","recycling_type":"container"}},"type":"Feature"},
	{"geometry":{"coordinates":[-2.078602,47.656197],"type":"Point"},"properties":{"name":"Redon - Maison des F\u00c3\u00aates - Bellevue - 31","osm_id":"4823350674","tag":{"amenity":"recycling","operator":"Communaut\u00c3\u00a9 de Communes du Pays de Redon","recycling:glass_bottles":"yes","recycling_type":"container"}},"type":"Feature"},
	{"geometry":{"coordinates":[-2.095108,47.648686],"type":"Point"},"properties":{"name":"Redon - Rue du Clos Marbet - 18","osm_id":"4823350676","tag":{"amenity":"recycling","operator":"Communaut\u00c3\u00a9 de Communes du Pays de Redon","recycling:glass_bottles":"yes","recycling_type":"container"}},"type":"Feature"},
	{"geometry":{"coordinates":[-2.089606,47.658635],"type":"Point"},"properties":{"name":"Redon - Rue de la Butte - 27","osm_id":"4823350677","tag":{"amenity":"recycling","operator":"Communaut\u00c3\u00a9 de Communes du Pays de Redon","recycling:glass_bottles":"yes","recycling_type":"container"}},"type":"Feature"},
	{"geometry":{"coordinates":[-2.064061,47.661113],"type":"Point"},"properties":{"name":"Redon - Rue de la Riaudaie - 35","osm_id":"4823350678","tag":{"amenity":"recycling","operator":"Communaut\u00c3\u00a9 de Communes du Pays de Redon","recycling:glass_bottles":"yes","recycling_type":"container"}},"type":"Feature"},
	{"geometry":{"coordinates":[-2.084654,47.657551],"type":"Point"},"properties":{"name":"Redon - Foyer Rue de Barre - 21","osm_id":"4823350679","tag":{"amenity":"recycling","operator":"Communaut\u00c3\u00a9 de Communes du Pays de Redon","recycling:glass_bottles":"yes","recycling_type":"container"}},"type":"Feature"},
	{"geometry":{"coordinates":[-2.085844,47.652675],"type":"Point"},"properties":{"name":"Redon - Rue Thiers - 22","osm_id":"4823350680","tag":{"amenity":"recycling","operator":"Communaut\u00c3\u00a9 de Communes du Pays de Redon","recycling:glass_bottles":"yes","recycling_type":"container"}},"type":"Feature"},
	{"geometry":{"coordinates":[-2.085519,47.649383],"type":"Point"},"properties":{"name":"Redon - Parking Duguesclin - 2","osm_id":"4823350681","tag":{"amenity":"recycling","operator":"Communaut\u00c3\u00a9 de Communes du Pays de Redon","recycling:glass_bottles":"yes","recycling_type":"container"}},"type":"Feature"},
	{"geometry":{"coordinates":[-2.085597,47.65159],"type":"Point"},"properties":{"name":"Redon - Place de la R\u00c3\u00a9publique - 24","osm_id":"4823350684","tag":{"amenity":"recycling","operator":"Communaut\u00c3\u00a9 de Communes du Pays de Redon","recycling:glass_bottles":"yes","recycling_type":"container"}},"type":"Feature"},
	{"geometry":{"coordinates":[-2.069405,47.642491],"type":"Point"},"properties":{"name":"Saint-Nicolas de Redon - Place de la Mairie - 12","osm_id":"4823350687","tag":{"amenity":"recycling","operator":"Communaut\u00c3\u00a9 de Communes du Pays de Redon","recycling:glass_bottles":"yes","recycling_type":"container"}},"type":"Feature"},
	{"geometry":{"coordinates":[-2.075929,47.66479],"type":"Point"},"properties":{"name":"Redon - Avenue des Nouies - 11","osm_id":"4823350688","tag":{"amenity":"recycling","operator":"Communaut\u00c3\u00a9 de Communes du Pays de Redon","recycling:glass_bottles":"yes","recycling_type":"container"}},"type":"Feature"},
	{"geometry":{"coordinates":[-2.070348,47.645124],"type":"Point"},"properties":{"name":"Saint-Nicolas de Redon - Tabaggo 8","osm_id":"4823350691","tag":{"amenity":"recycling","operator":"Communaut\u00c3\u00a9 de Communes du Pays de Redon","recycling:glass_bottles":"yes","recycling_type":"container"}},"type":"Feature"},
	{"geometry":{"coordinates":[-2.083475,47.678993],"type":"Point"},"properties":{"name":"Bains sur Oust - Moulin de Via - 8","osm_id":"4823350692","tag":{"amenity":"recycling","operator":"Communaut\u00c3\u00a9 de Communes du Pays de Redon","recycling:glass_bottles":"yes","recycling_type":"container"}},"type":"Feature"},
	{"geometry":{"coordinates":[-2.089684,47.644969],"type":"Point"},"properties":{"name":"Redon - Quai Surcouf - 14","osm_id":"4823350696","tag":{"amenity":"recycling","operator":"Communaut\u00c3\u00a9 de Communes du Pays de Redon","recycling:glass_bottles":"yes","recycling_type":"container"}},"type":"Feature"},
	{"geometry":{"coordinates":[-2.088112,47.649615],"type":"Point"},"properties":{"name":"Redon - Parc Anger - 17","osm_id":"4823350699","tag":{"amenity":"recycling","operator":"Communaut\u00c3\u00a9 de Communes du Pays de Redon","recycling:glass_bottles":"yes","recycling_type":"container"}},"type":"Feature"},
	{"geometry":{"coordinates":[-2.075065,47.658481],"type":"Point"},"properties":{"name":"Redon - Avenue G. S\u00c3\u00a9billeau - 30","osm_id":"4823350702","tag":{"amenity":"recycling","operator":"Communaut\u00c3\u00a9 de Communes du Pays de Redon","recycling:glass_bottles":"yes","recycling_type":"container"}},"type":"Feature"},
	{"geometry":{"coordinates":[-2.083396,47.654067],"type":"Point"},"properties":{"name":"Redon - Place Charles de Gaulle - 23","osm_id":"4823350705","tag":{"amenity":"recycling","operator":"Communaut\u00c3\u00a9 de Communes du Pays de Redon","recycling:glass_bottles":"yes","recycling_type":"container"}},"type":"Feature"},
	{"geometry":{"coordinates":[-2.088006,47.646422],"type":"Point"},"properties":{"name":"Redon - Quai Jean Bart - 15","osm_id":"4823350708","tag":{"amenity":"recycling","operator":"Communaut\u00c3\u00a9 de Communes du Pays de Redon","recycling:glass_bottles":"yes","recycling_type":"container"}},"type":"Feature"},
	{"geometry":{"coordinates":[-2.090785,47.649731],"type":"Point"},"properties":{"name":"Redon - Rue de la Maillardaie - 19","osm_id":"4823350709","tag":{"amenity":"recycling","operator":"Communaut\u00c3\u00a9 de Communes du Pays de Redon","recycling:glass_bottles":"yes","recycling_type":"container"}},"type":"Feature"},
	{"geometry":{"coordinates":[-2.085911,47.646246],"type":"Point"},"properties":{"name":"Redon - Rue du Plessis - Ch\u00c3\u00a2teau du Mail - 16","osm_id":"4823350710","tag":{"amenity":"recycling","operator":"Communaut\u00c3\u00a9 de Communes du Pays de Redon","recycling:glass_bottles":"yes","recycling_type":"container"}},"type":"Feature"},
	{"geometry":{"coordinates":[-2.064689,47.657552],"type":"Point"},"properties":{"name":"Redon - Boulevard Lanrua - 36","osm_id":"4823350716","tag":{"amenity":"recycling","operator":"Communaut\u00c3\u00a9 de Communes du Pays de Redon","recycling:glass_bottles":"yes","recycling_type":"container"}},"type":"Feature"},
	{"geometry":{"coordinates":[-2.07648,47.657977],"type":"Point"},"properties":{"name":"Redon - Rue Pouesnaie - 29","osm_id":"4823350717","tag":{"amenity":"recycling","operator":"Communaut\u00c3\u00a9 de Communes du Pays de Redon","recycling:glass_bottles":"yes","recycling_type":"container"}},"type":"Feature"},
	{"geometry":{"coordinates":[-2.096444,47.657048],"type":"Point"},"properties":{"name":"Redon - Rue des Ajoncs - 26","osm_id":"4823352121","tag":{"amenity":"recycling","operator":"Communaut\u00c3\u00a9 de Communes du Pays de Redon","recycling:glass_bottles":"yes","recycling_type":"container"}},"type":"Feature"},
	{"geometry":{"coordinates":[-2.072785,47.661113],"type":"Point"},"properties":{"name":"Redon - Rue Auguste R\u00c3\u00a9gent - 34","osm_id":"4823352125","tag":{"amenity":"recycling","operator":"Communaut\u00c3\u00a9 de Communes du Pays de Redon","recycling:glass_bottles":"yes","recycling_type":"container"}},"type":"Feature"},
	{"geometry":{"coordinates":[-2.059423,47.644427],"type":"Point"},"properties":{"name":"Saint-Nicolas de Redon - Salle du Ch\u00c3\u00a2teau d'Eau 9","osm_id":"4823352128","tag":{"amenity":"recycling","operator":"Communaut\u00c3\u00a9 de Communes du Pays de Redon","recycling:glass_bottles":"yes","recycling_type":"container"}},"type":"Feature"},
	{"geometry":{"coordinates":[-2.044207,47.649268],"type":"Point"},"properties":{"name":"Saint-Nicolas de Redon - \u00c3\u0089triel - La God\u00c3\u00a9e 4","osm_id":"4823352136","tag":{"amenity":"recycling","operator":"Communaut\u00c3\u00a9 de Communes du Pays de Redon","recycling:glass_bottles":"yes","recycling_type":"container"}},"type":"Feature"},
	{"geometry":{"coordinates":[-2.07365,47.661268],"type":"Point"},"properties":{"name":"Redon - Rue Mar\u00c3\u00a9chal Leclerc - 6","osm_id":"4823352138","tag":{"amenity":"recycling","operator":"Communaut\u00c3\u00a9 de Communes du Pays de Redon","recycling:glass_bottles":"yes","recycling_type":"container"}},"type":"Feature"},
	{"geometry":{"coordinates":[-2.061152,47.642568],"type":"Point"},"properties":{"name":"Saint-Nicolas de Redon L'Herbinerie 3","osm_id":"4823352170","tag":{"amenity":"recycling","operator":"Communaut\u00c3\u00a9 de Communes du Pays de Redon","recycling:glass_bottles":"yes","recycling_type":"container"}},"type":"Feature"},
	{"geometry":{"coordinates":[-2.032869,47.678401],"type":"Point"},"properties":{"name":"Sainte-Marie - La Roulinais - 4","osm_id":"4823352174","tag":{"amenity":"recycling","operator":"Communaut\u00c3\u00a9 de Communes du Pays de Redon","recycling:glass_bottles":"yes","recycling_type":"container"}},"type":"Feature"},
	{"geometry":{"coordinates":[-2.105719,47.667654],"type":"Point"},"properties":{"name":"Saint-Perreux - Salle des F\u00c3\u00aates - 1","osm_id":"4823352176","tag":{"amenity":"recycling","operator":"Communaut\u00c3\u00a9 de Communes du Pays de Redon","recycling:glass_bottles":"yes","recycling_type":"container","wheelchair":"yes"}},"type":"Feature"},
	{"geometry":{"coordinates":[-2.064297,47.67284],"type":"Point"},"properties":{"name":"Redon - Intermarch\u00c3\u00a9 Cap Nord - 12","osm_id":"4823352180","tag":{"amenity":"recycling","operator":"Communaut\u00c3\u00a9 de Communes du Pays de Redon","recycling:glass_bottles":"yes","recycling_type":"container"}},"type":"Feature"},
	{"geometry":{"coordinates":[-2.089127,47.651447],"type":"Point"},"properties":{"osm_id":"4983261699","tag":{"amenity":"waste_basket"}},"type":"Feature"},
	{"geometry":{"coordinates":[-2.088686,47.652194],"type":"Point"},"properties":{"osm_id":"4983263223","tag":{"amenity":"waste_basket"}},"type":"Feature"},
	{"geometry":{"coordinates":[-2.088005,47.65205],"type":"Point"},"properties":{"osm_id":"4983263224","tag":{"amenity":"waste_basket"}},"type":"Feature"},
	{"geometry":{"coordinates":[-2.088345,47.652338],"type":"Point"},"properties":{"osm_id":"4983263353","tag":{"amenity":"waste_basket"}},"type":"Feature"},
	{"geometry":{"coordinates":[-2.089517,47.652225],"type":"Point"},"properties":{"osm_id":"4983263415","tag":{"amenity":"waste_basket"}},"type":"Feature"},
	{"geometry":{"coordinates":[-2.088391,47.651146],"type":"Point"},"properties":{"osm_id":"4983263416","tag":{"amenity":"waste_basket"}},"type":"Feature"},
	{"geometry":{"coordinates":[-2.092963,47.651839],"type":"Point"},"properties":{"osm_id":"4983263417","tag":{"amenity":"waste_basket"}},"type":"Feature"},
	{"geometry":{"coordinates":[-2.091601,47.651828],"type":"Point"},"properties":{"osm_id":"4983263418","tag":{"amenity":"waste_basket"}},"type":"Feature"},
	{"geometry":{"coordinates":[-2.090534,47.651685],"type":"Point"},"properties":{"osm_id":"4983263419","tag":{"amenity":"waste_basket"}},"type":"Feature"},
	{"geometry":{"coordinates":[-2.08975,47.651581],"type":"Point"},"properties":{"osm_id":"4983263420","tag":{"amenity":"waste_basket"}},"type":"Feature"},
	{"geometry":{"coordinates":[-2.08946,47.65131],"type":"Point"},"properties":{"osm_id":"4983263421","tag":{"amenity":"waste_basket"}},"type":"Feature"},
	{"geometry":{"coordinates":[-2.087108,47.650983],"type":"Point"},"properties":{"osm_id":"4984323963","tag":{"amenity":"waste_basket"}},"type":"Feature"},
	{"geometry":{"coordinates":[-2.087211,47.650823],"type":"Point"},"properties":{"osm_id":"4984323964","tag":{"amenity":"waste_basket"}},"type":"Feature"},
	{"geometry":{"coordinates":[-2.092902,47.653023],"type":"Point"},"properties":{"osm_id":"4984352921","tag":{"amenity":"waste_basket"}},"type":"Feature"},
	{"geometry":{"coordinates":[-2.089853,47.652354],"type":"Point"},"properties":{"osm_id":"4984352925","tag":{"amenity":"waste_basket"}},"type":"Feature"},
	{"geometry":{"coordinates":[-2.089353,47.649901],"type":"Point"},"properties":{"osm_id":"4984444969","tag":{"amenity":"waste_basket"}},"type":"Feature"},
	{"geometry":{"coordinates":[-2.089133,47.650565],"type":"Point"},"properties":{"osm_id":"4984444971","tag":{"amenity":"waste_basket"}},"type":"Feature"},
	{"geometry":{"coordinates":[-2.088532,47.650955],"type":"Point"},"properties":{"osm_id":"4984444980","tag":{"amenity":"waste_basket"}},"type":"Feature"},
	{"geometry":{"coordinates":[-2.088837,47.650913],"type":"Point"},"properties":{"osm_id":"4984495051","tag":{"amenity":"waste_basket"}},"type":"Feature"},
	{"geometry":{"coordinates":[-2.088327,47.651955],"type":"Point"},"properties":{"osm_id":"4984531689","tag":{"amenity":"waste_basket","waste":"trash;recycling"}},"type":"Feature"},
	{"geometry":{"coordinates":[-2.091628,47.652593],"type":"Point"},"properties":{"osm_id":"4984564783","tag":{"amenity":"waste_basket"}},"type":"Feature"},
	{"geometry":{"coordinates":[-2.08906,47.651547],"type":"Point"},"properties":{"osm_id":"4999294767","tag":{"amenity":"waste_basket"}},"type":"Feature"},
	{"geometry":{"coordinates":[-2.088648,47.651851],"type":"Point"},"properties":{"osm_id":"4999339065","tag":{"amenity":"waste_basket"}},"type":"Feature"},
	{"geometry":{"coordinates":[-2.088316,47.651928],"type":"Point"},"properties":{"osm_id":"4999339068","tag":{"amenity":"waste_basket","waste":"trash;recycling"}},"type":"Feature"},
	{"geometry":{"coordinates":[-2.088722,47.651981],"type":"Point"},"properties":{"osm_id":"4999339076","tag":{"amenity":"waste_basket","waste":"trash;recycling"}},"type":"Feature"},
	{"geometry":{"coordinates":[-2.081686,47.647261],"type":"Point"},"properties":{"osm_id":"5212189223","tag":{"amenity":"waste_basket"}},"type":"Feature"},
	{"geometry":{"coordinates":[-2.108379,47.669218],"type":"Point"},"properties":{"osm_id":"5640151019","tag":{"access":"private","amenity":"recycling","operator":"Cantine municipale de Saint-Perreux","recycling:organic":"yes"}},"type":"Feature"},
	{"geometry":{"coordinates":[-2.07504,47.659627],"type":"Point"},"properties":{"osm_id":"5809781359","tag":{"amenity":"waste_basket"}},"type":"Feature"},
	{"geometry":{"coordinates":[-2.076507,47.659919],"type":"Point"},"properties":{"osm_id":"5907581522","tag":{"amenity":"waste_disposal"}},"type":"Feature"},
	{"geometry":{"coordinates":[-2.058566,47.644783],"type":"Point"},"properties":{"osm_id":"6214092907","tag":{"amenity":"waste_basket"}},"type":"Feature"},
	{"geometry":{"coordinates":[-2.106179,47.667004],"type":"Point"},"properties":{"osm_id":"6241899601","tag":{"amenity":"waste_basket"}},"type":"Feature"},
	{"geometry":{"coordinates":[-2.104045,47.667771],"type":"Point"},"properties":{"osm_id":"6241899604","tag":{"amenity":"waste_basket"}},"type":"Feature"},
	{"geometry":{"coordinates":[-2.08865,47.680111],"type":"Point"},"properties":{"osm_id":"6298085017","tag":{"amenity":"recycling","recycling:paper":"yes","recycling_type":"container"}},"type":"Feature"},
	{"geometry":{"coordinates":[-2.088652,47.680127],"type":"Point"},"properties":{"osm_id":"6298085018","tag":{"amenity":"recycling","operator":"Communaut\u00c3\u00a9 de Communes du Pays de Redon","recycling:glass_bottles":"yes","recycling_type":"container"}},"type":"Feature"},
	{"geometry":{"coordinates":[-2.08862,47.654487],"type":"Point"},"properties":{"osm_id":"6318693164","tag":{"amenity":"waste_basket"}},"type":"Feature"},
	{"geometry":{"coordinates":[-2.088728,47.654687],"type":"Point"},"properties":{"osm_id":"6318693165","tag":{"amenity":"waste_basket"}},"type":"Feature"},
	{"geometry":{"coordinates":[-2.089033,47.654686],"type":"Point"},"properties":{"osm_id":"6318693166","tag":{"amenity":"waste_basket"}},"type":"Feature"},
	{"geometry":{"coordinates":[-2.075667,47.659787],"type":"Point"},"properties":{"osm_id":"6360601449","tag":{"amenity":"waste_basket"}},"type":"Feature"},
	{"geometry":{"coordinates":[-2.075531,47.660253],"type":"Point"},"properties":{"osm_id":"6360601452","tag":{"amenity":"waste_basket"}},"type":"Feature"},
	{"geometry":{"coordinates":[-2.075293,47.66001],"type":"Point"},"properties":{"osm_id":"6360601453","tag":{"amenity":"waste_basket"}},"type":"Feature"},
	{"geometry":{"coordinates":[-2.075473,47.660055],"type":"Point"},"properties":{"osm_id":"6360601455","tag":{"amenity":"waste_basket"}},"type":"Feature"},
	{"geometry":{"coordinates":[-2.078025,47.656699],"type":"Point"},"properties":{"osm_id":"6360601475","tag":{"amenity":"waste_basket"}},"type":"Feature"},
	{"geometry":{"coordinates":[-2.088686,47.645485],"type":"Point"},"properties":{"osm_id":"6605849935","tag":{"amenity":"recycling","opening_hours":"24/7","operator":"Le Relais","recycling:clothes":"yes","recycling:shoes":"yes","recycling_type":"container"}},"type":"Feature"},
	{"geometry":{"coordinates":[-2.087694,47.646357],"type":"Point"},"properties":{"osm_id":"6605849944","tag":{"amenity":"waste_basket"}},"type":"Feature"},
	{"geometry":{"coordinates":[-2.055497,47.660149],"type":"Point"},"properties":{"osm_id":"6700586199","tag":{"amenity":"waste_basket"}},"type":"Feature"},
	{"geometry":{"coordinates":[-2.07169,47.668828],"type":"Point"},"properties":{"name":"La Redonnerie","osm_id":"7120399785","tag":{"amenity":"recycling","charity":"yes","collection_times":"We,Fr 14h00-17h00; Sa 9:30-12:30, 14:00-17:00","contact:city":"Redon","contact:email":"contact@laredonnerie.fr","contact:facebook":"https://www.facebook.com/LaRedonnerie/","contact:housenumber":"7","contact:phone":"+33 2 57 71 00 35","contact:postcode":"35600","contact:street":"rue de Briangaud","contact:website":"http://laredonnerie.fr/","description":"Recyclerie associative (ou ressourcerie). Nous collectons vos objets dont vous n'avez plus besoin et qui peuvent \u00c3\u00aatre r\u00c3\u00a9utilis\u00c3\u00a9s, r\u00c3\u00a9employ\u00c3\u00a9s. Nous les trions, revalorisons, r\u00c3\u00a9parons si possible et les vendons \u00c3\u00a0 petits prix dans notre boutique.","opening_hours":"We,Sa 09:30-12:30,14:00-18:00; Fr 12:00-18:00","recycling:clothes":"yes","recycling:computers":"yes","recycling:furniture":"yes","recycling:shoes":"yes","recycling:toys":"yes","second_hand":"only","shop":"general"}},"type":"Feature"},
	{"geometry":{"coordinates":[-2.08512,47.650332],"type":"Point"},"properties":{"osm_id":"7384551728","tag":{"amenity":"recycling","location":"underground","recycling_type":"container","wheelchair":"no"}},"type":"Feature"}
]
}
