{
"type": "FeatureCollection",
"lastupdate": "2020-07-31T00:00:00Z",
"features": [
	{"geometry":{"coordinates":[-2.061858,47.602551],"type":"Point"},"properties":{"name":"F\u00c3\u00a9gr\u00c3\u00a9ac - \u00c3\u0089tang d'Aum\u00c3\u00a9e - 7","osm_id":"4823350652","tag":{"amenity":"recycling","operator":"Communaut\u00e9 de Communes du Pays de Redon","recycling:glass_bottles":"yes","recycling_type":"container"}},"type":"Feature"},
	{"geometry":{"coordinates":[-2.072706,47.630833],"type":"Point"},"properties":{"name":"Saint-Nicolas de Redon - Quinsignac 6","osm_id":"4823350656","tag":{"amenity":"recycling","operator":"Communaut\u00e9 de Communes du Pays de Redon","recycling:glass_bottles":"yes","recycling_type":"container"}},"type":"Feature"},
	{"geometry":{"coordinates":[-2.100452,47.598133],"type":"Point"},"properties":{"name":"Rieux - Camping Municipal - 2","osm_id":"4823352129","tag":{"amenity":"recycling","operator":"Communaut\u00e9 de Communes du Pays de Redon","recycling:glass_bottles":"yes","recycling_type":"container"}},"type":"Feature"},
	{"geometry":{"coordinates":[-2.066967,47.599722],"type":"Point"},"properties":{"name":"F\u00c3\u00a9gr\u00c3\u00a9ac - La No\u00c3\u00ab 5","osm_id":"4823352142","tag":{"amenity":"recycling","operator":"Communaut\u00e9 de Communes du Pays de Redon","recycling:glass_bottles":"yes","recycling_type":"container"}},"type":"Feature"},
	{"geometry":{"coordinates":[-2.039378,47.583404],"type":"Point"},"properties":{"name":"F\u00c3\u00a9gr\u00c3\u00a9ac Cimeti\u00c3\u00a8re 2","osm_id":"4823352151","tag":{"amenity":"recycling","operator":"Communaut\u00e9 de Communes du Pays de Redon","recycling:glass_bottles":"yes","recycling_type":"container"}},"type":"Feature"},
	{"geometry":{"coordinates":[-2.067203,47.620142],"type":"Point"},"properties":{"name":"Saint-Nicolas de Redon - C\u00c3\u00a9zelas 7","osm_id":"4823352160","tag":{"amenity":"recycling","operator":"Communaut\u00e9 de Communes du Pays de Redon","recycling:glass_bottles":"yes","recycling_type":"container"}},"type":"Feature"},
	{"geometry":{"coordinates":[-2.108988,47.59733],"type":"Point"},"properties":{"name":"Rieux - Derri\u00c3\u00a8re Salle Paroissiale 5","osm_id":"4823352193","tag":{"amenity":"recycling","operator":"Communaut\u00e9 de Communes du Pays de Redon","recycling:glass_bottles":"yes","recycling_type":"container"}},"type":"Feature"},
	{"geometry":{"coordinates":[-2.101085,47.630329],"type":"Point"},"properties":{"name":"Rieux - Rue et Aucfer - 1","osm_id":"4823352194","tag":{"amenity":"recycling","operator":"Communaut\u00e9 de Communes du Pays de Redon","recycling:glass_bottles":"yes","recycling_type":"container"}},"type":"Feature"},
	{"geometry":{"coordinates":[-2.091125,47.599208],"type":"Point"},"properties":{"osm_id":"5682228091","tag":{"amenity":"recycling","recycling_type":"container"}},"type":"Feature"},
	{"geometry":{"coordinates":[-2.107236,47.597496],"type":"Point"},"properties":{"osm_id":"6876090937","tag":{"amenity":"waste_basket"}},"type":"Feature"},
	{"geometry":{"coordinates":[-2.109,47.598236],"type":"Point"},"properties":{"osm_id":"6876090939","tag":{"amenity":"waste_basket"}},"type":"Feature"}
]
}
