{
"type": "FeatureCollection",
"features": [
	{"geometry":{"coordinates":[-2.044084,47.513991],"type":"Point"},"properties":{"name":"point de collecte de dechets","osm_id":"4364648990","tag":{"amenity":"recycling","recycling:cardboard":"yes","recycling:glass":"yes","recycling_type":"centre"}},"type":"Feature"},
	{"geometry":{"coordinates":[-2.037804,47.511592],"type":"Point"},"properties":{"osm_id":"4857591430","tag":{"amenity":"recycling","recycling:cardboard":"yes","recycling:paper":"yes","recycling:plastic":"yes","recycling_type":"container"}},"type":"Feature"},
	{"geometry":{"coordinates":[-2.037837,47.511613],"type":"Point"},"properties":{"osm_id":"4857591431","tag":{"amenity":"recycling","opening_hours":"24/7","recycling:glass":"yes","recycling_type":"container"}},"type":"Feature"},
	{"geometry":{"coordinates":[-2.057945,47.475065],"type":"Point"},"properties":{"osm_id":"4994904725","tag":{"amenity":"waste_basket"}},"type":"Feature"},
	{"geometry":{"coordinates":[-2.066867,47.468282],"type":"Point"},"properties":{"name":"Recyclerie Nord-Atlantique Dr\u00c3\u00a9ffeac","osm_id":"6580330131","tag":{"amenity":"recycling"}},"type":"Feature"},
	{"geometry":{"coordinates":[-2.059935,47.473922],"type":"Point"},"properties":{"osm_id":"8710829445","tag":{"amenity":"waste_basket","waste":"trash"}},"type":"Feature"},
	{"geometry":{"coordinates":[-2.038341,47.514356],"type":"Point"},"properties":{"osm_id":"8722062404","tag":{"amenity":"waste_basket","waste":"trash"}},"type":"Feature"}
]
}
