{
"type": "FeatureCollection",
"features": [
	{"geometry":{"coordinates":[-2.029898,47.402132],"type":"Point"},"properties":{"name":"La Maziere","osm_id":"2333091927","tag":{"amenity":"recycling","recycling:beverage_cartons":"yes","recycling:glass":"yes","recycling:paper":"yes","recycling_type":"container"}},"type":"Feature"},
	{"geometry":{"coordinates":[-2.09239,47.436927],"type":"Point"},"properties":{"osm_id":"4945484427","tag":{"amenity":"waste_basket"}},"type":"Feature"},
	{"geometry":{"coordinates":[-2.089549,47.438203],"type":"Point"},"properties":{"osm_id":"4945499735","tag":{"amenity":"waste_basket"}},"type":"Feature"},
	{"geometry":{"coordinates":[-2.08851,47.437946],"type":"Point"},"properties":{"osm_id":"4945524417","tag":{"amenity":"waste_basket"}},"type":"Feature"},
	{"geometry":{"coordinates":[-2.089168,47.437768],"type":"Point"},"properties":{"osm_id":"4945524419","tag":{"amenity":"waste_basket"}},"type":"Feature"},
	{"geometry":{"coordinates":[-2.089621,47.437382],"type":"Point"},"properties":{"osm_id":"4945547837","tag":{"amenity":"waste_basket"}},"type":"Feature"},
	{"geometry":{"coordinates":[-2.089019,47.436566],"type":"Point"},"properties":{"osm_id":"4945547842","tag":{"amenity":"waste_basket"}},"type":"Feature"},
	{"geometry":{"coordinates":[-2.088668,47.437092],"type":"Point"},"properties":{"osm_id":"4945547846","tag":{"amenity":"waste_basket"}},"type":"Feature"},
	{"geometry":{"coordinates":[-2.088613,47.437417],"type":"Point"},"properties":{"osm_id":"4945561169","tag":{"amenity":"waste_basket"}},"type":"Feature"},
	{"geometry":{"coordinates":[-2.089894,47.436566],"type":"Point"},"properties":{"osm_id":"4945608375","tag":{"amenity":"waste_basket"}},"type":"Feature"},
	{"geometry":{"coordinates":[-2.095192,47.437243],"type":"Point"},"properties":{"osm_id":"4945666713","tag":{"amenity":"waste_basket"}},"type":"Feature"},
	{"geometry":{"coordinates":[-2.09462,47.43717],"type":"Point"},"properties":{"osm_id":"4945666714","tag":{"amenity":"waste_basket"}},"type":"Feature"},
	{"geometry":{"coordinates":[-2.088861,47.435513],"type":"Point"},"properties":{"osm_id":"4945676814","tag":{"amenity":"waste_basket"}},"type":"Feature"},
	{"geometry":{"coordinates":[-2.093757,47.436904],"type":"Point"},"properties":{"osm_id":"4945879150","tag":{"amenity":"recycling","recycling:glass_bottles":"yes","recycling:paper":"yes","recycling_type":"container"}},"type":"Feature"},
	{"geometry":{"coordinates":[-2.090875,47.435303],"type":"Point"},"properties":{"osm_id":"4947423470","tag":{"amenity":"waste_basket"}},"type":"Feature"},
	{"geometry":{"coordinates":[-2.087833,47.434048],"type":"Point"},"properties":{"osm_id":"4947502688","tag":{"amenity":"waste_basket"}},"type":"Feature"},
	{"geometry":{"coordinates":[-2.088927,47.434454],"type":"Point"},"properties":{"osm_id":"4949759561","tag":{"amenity":"waste_basket"}},"type":"Feature"},
	{"geometry":{"coordinates":[-2.088546,47.434416],"type":"Point"},"properties":{"osm_id":"4949759562","tag":{"amenity":"waste_basket"}},"type":"Feature"},
	{"geometry":{"coordinates":[-2.1069,47.442288],"type":"Point"},"properties":{"osm_id":"5180258728","tag":{"amenity":"recycling","recycling_type":"container"}},"type":"Feature"},
	{"geometry":{"coordinates":[-2.106681,47.442499],"type":"Point"},"properties":{"osm_id":"5187234509","tag":{"amenity":"waste_basket"}},"type":"Feature"}
]
}
