{
"type": "FeatureCollection",
"features": [
	{"geometry":{"coordinates":[39.063849,55.363733],"type":"Point"},"properties":{"osm_id":"2630551321","tag":{"amenity":"waste_disposal"}},"type":"Feature"},
	{"geometry":{"coordinates":[39.053987,55.363959],"type":"Point"},"properties":{"osm_id":"2630551393","tag":{"amenity":"waste_disposal"}},"type":"Feature"},
	{"geometry":{"coordinates":[39.049669,55.367242],"type":"Point"},"properties":{"osm_id":"2630552363","tag":{"amenity":"waste_disposal"}},"type":"Feature"},
	{"geometry":{"coordinates":[39.06422,55.368189],"type":"Point"},"properties":{"osm_id":"2630552588","tag":{"amenity":"waste_disposal"}},"type":"Feature"},
	{"geometry":{"coordinates":[39.057107,55.369358],"type":"Point"},"properties":{"osm_id":"2630552805","tag":{"amenity":"waste_disposal"}},"type":"Feature"},
	{"geometry":{"coordinates":[39.052906,55.372041],"type":"Point"},"properties":{"osm_id":"2630553381","tag":{"amenity":"waste_disposal"}},"type":"Feature"},
	{"geometry":{"coordinates":[39.06357,55.37546],"type":"Point"},"properties":{"osm_id":"2630554106","tag":{"amenity":"waste_disposal"}},"type":"Feature"},
	{"geometry":{"coordinates":[39.065308,55.375631],"type":"Point"},"properties":{"osm_id":"2630554146","tag":{"amenity":"waste_disposal"}},"type":"Feature"},
	{"geometry":{"coordinates":[39.068233,55.375708],"type":"Point"},"properties":{"osm_id":"2630554197","tag":{"amenity":"waste_disposal"}},"type":"Feature"},
	{"geometry":{"coordinates":[39.059404,55.373474],"type":"Point"},"properties":{"osm_id":"2915432236","tag":{"amenity":"waste_disposal"}},"type":"Feature"},
	{"geometry":{"coordinates":[39.077886,55.365142],"type":"Point"},"properties":{"osm_id":"5701442136","tag":{"amenity":"recycling","recycling:batteries":"yes","recycling:low_energy_bulbs":"yes","recycling:thermometers":"yes","recycling_type":"container"}},"type":"Feature"},
	{"geometry":{"coordinates":[39.061524,55.378735],"type":"Point"},"properties":{"osm_id":"7472485558","tag":{"amenity":"waste_disposal"}},"type":"Feature"},
	{"geometry":{"coordinates":[39.063901,55.370125],"type":"Point"},"properties":{"osm_id":"7473776022","tag":{"amenity":"waste_basket"}},"type":"Feature"},
	{"geometry":{"coordinates":[39.064505,55.369857],"type":"Point"},"properties":{"osm_id":"7473776044","tag":{"amenity":"waste_basket"}},"type":"Feature"},
	{"geometry":{"coordinates":[39.066146,55.369405],"type":"Point"},"properties":{"osm_id":"7473776084","tag":{"amenity":"waste_basket","waste":"trash"}},"type":"Feature"},
	{"geometry":{"coordinates":[39.065981,55.369457],"type":"Point"},"properties":{"osm_id":"7473802985","tag":{"amenity":"waste_basket","waste":"trash"}},"type":"Feature"},
	{"geometry":{"coordinates":[39.065461,55.369608],"type":"Point"},"properties":{"osm_id":"7473802987","tag":{"amenity":"waste_basket","waste":"trash"}},"type":"Feature"},
	{"geometry":{"coordinates":[39.065327,55.369657],"type":"Point"},"properties":{"osm_id":"7473802989","tag":{"amenity":"waste_basket","waste":"trash"}},"type":"Feature"},
	{"geometry":{"coordinates":[39.065243,55.369688],"type":"Point"},"properties":{"osm_id":"7473802990","tag":{"amenity":"waste_basket","waste":"trash"}},"type":"Feature"},
	{"geometry":{"coordinates":[39.061644,55.37228],"type":"Point"},"properties":{"osm_id":"7476837094","tag":{"amenity":"waste_disposal"}},"type":"Feature"},
	{"geometry":{"coordinates":[39.066669,55.370522],"type":"Point"},"properties":{"osm_id":"7476837158","tag":{"amenity":"waste_disposal","waste":"trash"}},"type":"Feature"},
	{"geometry":{"coordinates":[39.051064,55.377144],"type":"Point"},"properties":{"osm_id":"7491727570","tag":{"amenity":"waste_disposal"}},"type":"Feature"},
	{"geometry":{"coordinates":[39.061178,55.366216],"type":"Point"},"properties":{"osm_id":"7554704170","tag":{"amenity":"waste_disposal"}},"type":"Feature"},
	{"geometry":{"coordinates":[39.059249,55.366009],"type":"Point"},"properties":{"osm_id":"7554711704","tag":{"amenity":"waste_disposal"}},"type":"Feature"},
	{"geometry":{"coordinates":[39.065988,55.368669],"type":"Point"},"properties":{"osm_id":"7560980228","tag":{"amenity":"waste_basket"}},"type":"Feature"}
]
}
