{
"type": "FeatureCollection",
"features": [
	{"geometry":{"coordinates":[39.099084,50.870428],"type":"Point"},"properties":{"osm_id":"1226825212","tag":{"amenity":"waste_disposal","location":"overground"}},"type":"Feature"},
	{"geometry":{"coordinates":[39.085973,50.875132],"type":"Point"},"properties":{"osm_id":"1226825215","tag":{"amenity":"waste_disposal","location":"overground"}},"type":"Feature"},
	{"geometry":{"coordinates":[39.094102,50.865222],"type":"Point"},"properties":{"osm_id":"1226825221","tag":{"amenity":"waste_disposal","location":"overground"}},"type":"Feature"},
	{"geometry":{"coordinates":[39.091803,50.875748],"type":"Point"},"properties":{"osm_id":"1226826842","tag":{"amenity":"waste_disposal","location":"overground"}},"type":"Feature"},
	{"geometry":{"coordinates":[39.094515,50.875493],"type":"Point"},"properties":{"osm_id":"1227853200","tag":{"amenity":"waste_disposal"}},"type":"Feature"},
	{"geometry":{"coordinates":[39.073535,50.867686],"type":"Point"},"properties":{"osm_id":"1491785784","tag":{"amenity":"waste_disposal"}},"type":"Feature"},
	{"geometry":{"coordinates":[39.067784,50.867245],"type":"Point"},"properties":{"osm_id":"2306730116","tag":{"amenity":"waste_disposal","source:position":"bing"}},"type":"Feature"},
	{"geometry":{"coordinates":[39.061356,50.872489],"type":"Point"},"properties":{"osm_id":"2306730506","tag":{"amenity":"waste_disposal","source:position":"bing"}},"type":"Feature"},
	{"geometry":{"coordinates":[39.057837,50.876502],"type":"Point"},"properties":{"osm_id":"2306730906","tag":{"amenity":"waste_disposal","source:position":"bing"}},"type":"Feature"},
	{"geometry":{"coordinates":[39.077415,50.857581],"type":"Point"},"properties":{"osm_id":"3283156120","tag":{"amenity":"waste_disposal","source:position":"bing"}},"type":"Feature"},
	{"geometry":{"coordinates":[39.07005,50.854859],"type":"Point"},"properties":{"name":"\u00d0\u009f\u00d1\u0080\u00d0\u00b8\u00d0\u00b5\u00d0\u00bc \u00d0\u00bc\u00d0\u00b0\u00d0\u00ba\u00d1\u0083\u00d0\u00bb\u00d0\u00b0\u00d1\u0082\u00d1\u0083\u00d1\u0080\u00d1\u008b","osm_id":"4493833039","tag":{"amenity":"recycling","recycling_type":"centre"}},"type":"Feature"},
	{"geometry":{"coordinates":[39.066824,50.856615],"type":"Point"},"properties":{"osm_id":"4534125681","tag":{"amenity":"waste_disposal"}},"type":"Feature"},
	{"geometry":{"coordinates":[39.075872,50.865063],"type":"Point"},"properties":{"osm_id":"4539622089","tag":{"amenity":"waste_disposal"}},"type":"Feature"},
	{"geometry":{"coordinates":[39.061762,50.852529],"type":"Point"},"properties":{"osm_id":"4655270113","tag":{"amenity":"waste_disposal"}},"type":"Feature"},
	{"geometry":{"coordinates":[39.102575,50.878152],"type":"Point"},"properties":{"osm_id":"4674239517","tag":{"amenity":"waste_disposal"}},"type":"Feature"},
	{"geometry":{"coordinates":[39.085854,50.865491],"type":"Point"},"properties":{"osm_id":"4681495920","tag":{"amenity":"waste_disposal"}},"type":"Feature"},
	{"geometry":{"coordinates":[39.065712,50.876914],"type":"Point"},"properties":{"osm_id":"4873011042","tag":{"amenity":"waste_disposal"}},"type":"Feature"},
	{"geometry":{"coordinates":[39.069946,50.868142],"type":"Point"},"properties":{"osm_id":"4973496114","tag":{"amenity":"waste_disposal"}},"type":"Feature"},
	{"geometry":{"coordinates":[39.066837,50.873193],"type":"Point"},"properties":{"osm_id":"5083462570","tag":{"amenity":"waste_disposal"}},"type":"Feature"},
	{"geometry":{"coordinates":[39.070791,50.869219],"type":"Point"},"properties":{"osm_id":"5083462571","tag":{"amenity":"waste_disposal"}},"type":"Feature"},
	{"geometry":{"coordinates":[39.048802,50.862484],"type":"Point"},"properties":{"osm_id":"5677844848","tag":{"amenity":"waste_disposal"}},"type":"Feature"},
	{"geometry":{"coordinates":[39.029076,50.848592],"type":"Point"},"properties":{"osm_id":"6257516260","tag":{"amenity":"waste_disposal"}},"type":"Feature"}
]
}
