{
"type": "FeatureCollection",
"features": [
	{"geometry":{"coordinates":[39.109192,22.315797],"type":"Point"},"properties":{"osm_id":"3147145111","tag":{"amenity":"waste_basket"}},"type":"Feature"},
	{"geometry":{"coordinates":[39.108319,22.3161],"type":"Point"},"properties":{"osm_id":"3147145115","tag":{"amenity":"waste_basket"}},"type":"Feature"},
	{"geometry":{"coordinates":[39.108222,22.316242],"type":"Point"},"properties":{"osm_id":"3147145116","tag":{"amenity":"waste_basket"}},"type":"Feature"},
	{"geometry":{"coordinates":[39.105611,22.316328],"type":"Point"},"properties":{"osm_id":"3147145117","tag":{"amenity":"waste_basket"}},"type":"Feature"},
	{"geometry":{"coordinates":[39.109772,22.316369],"type":"Point"},"properties":{"osm_id":"3147145120","tag":{"amenity":"waste_basket"}},"type":"Feature"},
	{"geometry":{"coordinates":[39.108169,22.316586],"type":"Point"},"properties":{"osm_id":"3147145123","tag":{"amenity":"waste_basket"}},"type":"Feature"},
	{"geometry":{"coordinates":[39.108208,22.316683],"type":"Point"},"properties":{"osm_id":"3147145124","tag":{"amenity":"waste_basket"}},"type":"Feature"},
	{"geometry":{"coordinates":[39.105453,22.317475],"type":"Point"},"properties":{"osm_id":"3147145131","tag":{"amenity":"waste_basket"}},"type":"Feature"},
	{"geometry":{"coordinates":[39.1107,22.317525],"type":"Point"},"properties":{"osm_id":"3147145132","tag":{"amenity":"waste_basket"}},"type":"Feature"},
	{"geometry":{"coordinates":[39.110181,22.318319],"type":"Point"},"properties":{"osm_id":"3147145137","tag":{"amenity":"waste_basket"}},"type":"Feature"},
	{"geometry":{"coordinates":[39.110333,22.318575],"type":"Point"},"properties":{"osm_id":"3147145139","tag":{"amenity":"waste_basket"}},"type":"Feature"},
	{"geometry":{"coordinates":[39.10428,22.324554],"type":"Point"},"properties":{"osm_id":"3147145154","tag":{"amenity":"waste_basket"}},"type":"Feature"},
	{"geometry":{"coordinates":[39.096446,22.306579],"type":"Point"},"properties":{"osm_id":"3148953406","tag":{"amenity":"waste_basket"}},"type":"Feature"},
	{"geometry":{"coordinates":[39.094037,22.306909],"type":"Point"},"properties":{"osm_id":"3148953408","tag":{"amenity":"waste_basket"}},"type":"Feature"},
	{"geometry":{"coordinates":[39.092948,22.308995],"type":"Point"},"properties":{"osm_id":"3148953415","tag":{"amenity":"waste_basket"}},"type":"Feature"},
	{"geometry":{"coordinates":[39.097028,22.309442],"type":"Point"},"properties":{"osm_id":"3148953417","tag":{"amenity":"waste_basket"}},"type":"Feature"},
	{"geometry":{"coordinates":[39.09335,22.311016],"type":"Point"},"properties":{"osm_id":"3148953422","tag":{"amenity":"waste_basket"}},"type":"Feature"},
	{"geometry":{"coordinates":[39.093236,22.311937],"type":"Point"},"properties":{"osm_id":"3148953426","tag":{"amenity":"waste_basket"}},"type":"Feature"},
	{"geometry":{"coordinates":[39.093151,22.313799],"type":"Point"},"properties":{"osm_id":"3148953932","tag":{"amenity":"waste_basket"}},"type":"Feature"},
	{"geometry":{"coordinates":[39.095506,22.313909],"type":"Point"},"properties":{"osm_id":"3148953933","tag":{"amenity":"waste_basket"}},"type":"Feature"},
	{"geometry":{"coordinates":[39.096262,22.314316],"type":"Point"},"properties":{"osm_id":"3148953937","tag":{"amenity":"waste_basket"}},"type":"Feature"},
	{"geometry":{"coordinates":[39.093362,22.315011],"type":"Point"},"properties":{"osm_id":"3148953940","tag":{"amenity":"waste_basket"}},"type":"Feature"},
	{"geometry":{"coordinates":[39.096516,22.315677],"type":"Point"},"properties":{"osm_id":"3148953944","tag":{"amenity":"waste_basket"}},"type":"Feature"},
	{"geometry":{"coordinates":[39.093436,22.31664],"type":"Point"},"properties":{"osm_id":"3148953949","tag":{"amenity":"waste_basket"}},"type":"Feature"},
	{"geometry":{"coordinates":[39.096592,22.316898],"type":"Point"},"properties":{"osm_id":"3148953950","tag":{"amenity":"waste_basket"}},"type":"Feature"},
	{"geometry":{"coordinates":[39.09317,22.317606],"type":"Point"},"properties":{"osm_id":"3148953954","tag":{"amenity":"waste_basket"}},"type":"Feature"},
	{"geometry":{"coordinates":[39.096285,22.317753],"type":"Point"},"properties":{"osm_id":"3148953956","tag":{"amenity":"waste_basket"}},"type":"Feature"},
	{"geometry":{"coordinates":[39.09326,22.324546],"type":"Point"},"properties":{"osm_id":"3148953980","tag":{"amenity":"waste_basket"}},"type":"Feature"},
	{"geometry":{"coordinates":[39.110534,22.316305],"type":"Point"},"properties":{"osm_id":"3149154509","tag":{"amenity":"waste_basket"}},"type":"Feature"},
	{"geometry":{"coordinates":[39.107152,22.318427],"type":"Point"},"properties":{"osm_id":"3149155834","tag":{"amenity":"waste_basket"}},"type":"Feature"},
	{"geometry":{"coordinates":[39.10762,22.318464],"type":"Point"},"properties":{"osm_id":"3149155839","tag":{"amenity":"waste_basket"}},"type":"Feature"},
	{"geometry":{"coordinates":[39.107643,22.318506],"type":"Point"},"properties":{"osm_id":"3149155845","tag":{"amenity":"waste_basket"}},"type":"Feature"},
	{"geometry":{"coordinates":[39.103153,22.3203],"type":"Point"},"properties":{"osm_id":"3149155938","tag":{"amenity":"waste_basket"}},"type":"Feature"},
	{"geometry":{"coordinates":[39.103171,22.320676],"type":"Point"},"properties":{"osm_id":"3149155959","tag":{"amenity":"waste_basket"}},"type":"Feature"},
	{"geometry":{"coordinates":[39.103224,22.32104],"type":"Point"},"properties":{"osm_id":"3149155969","tag":{"amenity":"waste_basket"}},"type":"Feature"},
	{"geometry":{"coordinates":[39.103011,22.322149],"type":"Point"},"properties":{"osm_id":"3149155979","tag":{"amenity":"waste_basket"}},"type":"Feature"},
	{"geometry":{"coordinates":[39.102917,22.32264],"type":"Point"},"properties":{"osm_id":"3149155989","tag":{"amenity":"waste_basket"}},"type":"Feature"},
	{"geometry":{"coordinates":[39.102653,22.322668],"type":"Point"},"properties":{"osm_id":"3149155993","tag":{"amenity":"waste_basket"}},"type":"Feature"},
	{"geometry":{"coordinates":[39.102411,22.32269],"type":"Point"},"properties":{"osm_id":"3149155997","tag":{"amenity":"waste_basket"}},"type":"Feature"},
	{"geometry":{"coordinates":[39.101957,22.322938],"type":"Point"},"properties":{"osm_id":"3149156010","tag":{"amenity":"waste_basket"}},"type":"Feature"},
	{"geometry":{"coordinates":[39.102069,22.323682],"type":"Point"},"properties":{"osm_id":"3149156022","tag":{"amenity":"waste_basket"}},"type":"Feature"},
	{"geometry":{"coordinates":[39.102374,22.325002],"type":"Point"},"properties":{"osm_id":"3149156046","tag":{"amenity":"waste_basket"}},"type":"Feature"},
	{"geometry":{"coordinates":[39.102593,22.325641],"type":"Point"},"properties":{"osm_id":"3149156061","tag":{"amenity":"waste_basket"}},"type":"Feature"},
	{"geometry":{"coordinates":[39.10258,22.32665],"type":"Point"},"properties":{"osm_id":"3149156080","tag":{"amenity":"waste_basket"}},"type":"Feature"},
	{"geometry":{"coordinates":[39.102979,22.328194],"type":"Point"},"properties":{"osm_id":"3149156115","tag":{"amenity":"waste_basket"}},"type":"Feature"},
	{"geometry":{"coordinates":[39.103796,22.329082],"type":"Point"},"properties":{"osm_id":"3149156234","tag":{"amenity":"waste_basket"}},"type":"Feature"},
	{"geometry":{"coordinates":[39.10416,22.329407],"type":"Point"},"properties":{"osm_id":"3149156240","tag":{"amenity":"waste_basket"}},"type":"Feature"},
	{"geometry":{"coordinates":[39.105765,22.329782],"type":"Point"},"properties":{"osm_id":"3149156261","tag":{"amenity":"waste_basket"}},"type":"Feature"},
	{"geometry":{"coordinates":[39.104608,22.329792],"type":"Point"},"properties":{"osm_id":"3149156263","tag":{"amenity":"waste_basket"}},"type":"Feature"},
	{"geometry":{"coordinates":[39.106029,22.32981],"type":"Point"},"properties":{"osm_id":"3149156267","tag":{"amenity":"waste_basket"}},"type":"Feature"},
	{"geometry":{"coordinates":[39.106436,22.329908],"type":"Point"},"properties":{"osm_id":"3149156279","tag":{"amenity":"waste_basket"}},"type":"Feature"},
	{"geometry":{"coordinates":[39.104896,22.330012],"type":"Point"},"properties":{"osm_id":"3149156283","tag":{"amenity":"waste_basket"}},"type":"Feature"},
	{"geometry":{"coordinates":[39.105191,22.330247],"type":"Point"},"properties":{"osm_id":"3149156295","tag":{"amenity":"waste_basket"}},"type":"Feature"},
	{"geometry":{"coordinates":[39.111066,22.330271],"type":"Point"},"properties":{"osm_id":"3149156298","tag":{"amenity":"waste_basket"}},"type":"Feature"},
	{"geometry":{"coordinates":[39.110443,22.330365],"type":"Point"},"properties":{"osm_id":"3149156303","tag":{"amenity":"waste_basket"}},"type":"Feature"},
	{"geometry":{"coordinates":[39.109764,22.330436],"type":"Point"},"properties":{"osm_id":"3149156309","tag":{"amenity":"waste_basket"}},"type":"Feature"},
	{"geometry":{"coordinates":[39.108482,22.330468],"type":"Point"},"properties":{"osm_id":"3149156313","tag":{"amenity":"waste_basket"}},"type":"Feature"},
	{"geometry":{"coordinates":[39.10387,22.309147],"type":"Point"},"properties":{"osm_id":"3152654371","tag":{"amenity":"waste_basket"}},"type":"Feature"},
	{"geometry":{"coordinates":[39.104404,22.309158],"type":"Point"},"properties":{"osm_id":"3152654372","tag":{"amenity":"waste_basket"}},"type":"Feature"},
	{"geometry":{"coordinates":[39.104283,22.309199],"type":"Point"},"properties":{"osm_id":"3152654373","tag":{"amenity":"waste_basket"}},"type":"Feature"},
	{"geometry":{"coordinates":[39.103997,22.309232],"type":"Point"},"properties":{"osm_id":"3152654374","tag":{"amenity":"waste_basket"}},"type":"Feature"},
	{"geometry":{"coordinates":[39.103622,22.30956],"type":"Point"},"properties":{"osm_id":"3152654375","tag":{"amenity":"waste_basket"}},"type":"Feature"},
	{"geometry":{"coordinates":[39.103735,22.309961],"type":"Point"},"properties":{"osm_id":"3152654376","tag":{"amenity":"waste_basket"}},"type":"Feature"},
	{"geometry":{"coordinates":[39.101855,22.310502],"type":"Point"},"properties":{"osm_id":"3152654382","tag":{"amenity":"waste_basket"}},"type":"Feature"},
	{"geometry":{"coordinates":[39.10215,22.31072],"type":"Point"},"properties":{"osm_id":"3152654383","tag":{"amenity":"waste_basket"}},"type":"Feature"},
	{"geometry":{"coordinates":[39.102403,22.311024],"type":"Point"},"properties":{"osm_id":"3152654385","tag":{"amenity":"waste_basket"}},"type":"Feature"},
	{"geometry":{"coordinates":[39.102145,22.311263],"type":"Point"},"properties":{"osm_id":"3152654386","tag":{"amenity":"waste_basket"}},"type":"Feature"},
	{"geometry":{"coordinates":[39.102033,22.313092],"type":"Point"},"properties":{"osm_id":"3152654389","tag":{"amenity":"waste_basket"}},"type":"Feature"},
	{"geometry":{"coordinates":[39.103072,22.315758],"type":"Point"},"properties":{"osm_id":"3152654392","tag":{"amenity":"waste_basket"}},"type":"Feature"},
	{"geometry":{"coordinates":[39.104538,22.308834],"type":"Point"},"properties":{"osm_id":"3153761743","tag":{"amenity":"waste_basket"}},"type":"Feature"},
	{"geometry":{"coordinates":[39.096495,22.306937],"type":"Point"},"properties":{"osm_id":"3177037863","tag":{"amenity":"waste_basket"}},"type":"Feature"},
	{"geometry":{"coordinates":[39.097701,22.310162],"type":"Point"},"properties":{"osm_id":"3177037895","tag":{"amenity":"waste_basket"}},"type":"Feature"},
	{"geometry":{"coordinates":[39.09809,22.310466],"type":"Point"},"properties":{"osm_id":"3177037897","tag":{"amenity":"waste_basket"}},"type":"Feature"},
	{"geometry":{"coordinates":[39.101227,22.316581],"type":"Point"},"properties":{"osm_id":"3177037927","tag":{"amenity":"waste_basket"}},"type":"Feature"},
	{"geometry":{"coordinates":[39.10128,22.316885],"type":"Point"},"properties":{"osm_id":"3177037928","tag":{"amenity":"waste_basket"}},"type":"Feature"},
	{"geometry":{"coordinates":[39.101343,22.316978],"type":"Point"},"properties":{"osm_id":"3177037930","tag":{"amenity":"waste_basket"}},"type":"Feature"},
	{"geometry":{"coordinates":[39.103554,22.3206],"type":"Point"},"properties":{"osm_id":"3179041140","tag":{"amenity":"waste_basket"}},"type":"Feature"},
	{"geometry":{"coordinates":[39.103547,22.320673],"type":"Point"},"properties":{"osm_id":"3179041766","tag":{"amenity":"waste_basket"}},"type":"Feature"},
	{"geometry":{"coordinates":[39.10655,22.318916],"type":"Point"},"properties":{"osm_id":"3180192019","tag":{"amenity":"waste_basket"}},"type":"Feature"},
	{"geometry":{"coordinates":[39.094045,22.309098],"type":"Point"},"properties":{"osm_id":"3184105071","tag":{"amenity":"waste_basket"}},"type":"Feature"},
	{"geometry":{"coordinates":[39.09441,22.309302],"type":"Point"},"properties":{"osm_id":"3184105072","tag":{"amenity":"waste_basket"}},"type":"Feature"},
	{"geometry":{"coordinates":[39.094353,22.309937],"type":"Point"},"properties":{"osm_id":"3184105074","tag":{"amenity":"waste_basket"}},"type":"Feature"},
	{"geometry":{"coordinates":[39.094135,22.310117],"type":"Point"},"properties":{"osm_id":"3184105075","tag":{"amenity":"waste_basket"}},"type":"Feature"},
	{"geometry":{"coordinates":[39.094831,22.310541],"type":"Point"},"properties":{"osm_id":"3184105077","tag":{"amenity":"waste_basket"}},"type":"Feature"},
	{"geometry":{"coordinates":[39.094591,22.310566],"type":"Point"},"properties":{"osm_id":"3184105078","tag":{"amenity":"waste_basket"}},"type":"Feature"},
	{"geometry":{"coordinates":[39.095253,22.310657],"type":"Point"},"properties":{"osm_id":"3184105080","tag":{"amenity":"waste_basket"}},"type":"Feature"},
	{"geometry":{"coordinates":[39.095594,22.308466],"type":"Point"},"properties":{"osm_id":"3186054970","tag":{"amenity":"waste_basket"}},"type":"Feature"},
	{"geometry":{"coordinates":[39.10855,22.324339],"type":"Point"},"properties":{"osm_id":"3186056356","tag":{"amenity":"waste_basket"}},"type":"Feature"},
	{"geometry":{"coordinates":[39.104119,22.308385],"type":"Point"},"properties":{"osm_id":"3186505679","tag":{"amenity":"waste_basket"}},"type":"Feature"},
	{"geometry":{"coordinates":[39.089905,22.340961],"type":"Point"},"properties":{"osm_id":"3738962643","tag":{"amenity":"waste_basket"}},"type":"Feature"},
	{"geometry":{"coordinates":[39.090851,22.34133],"type":"Point"},"properties":{"osm_id":"3738962652","tag":{"amenity":"waste_basket"}},"type":"Feature"},
	{"geometry":{"coordinates":[39.089786,22.341713],"type":"Point"},"properties":{"man_made":"surveillance","osm_id":"3738962675","tag":{"amenity":"waste_basket","camera:mount":"pole","camera:type":"panning","height":"7","surveillance:type":"camera"}},"type":"Feature"},
	{"geometry":{"coordinates":[39.089784,22.341731],"type":"Point"},"properties":{"osm_id":"3738962678","tag":{"amenity":"waste_basket"}},"type":"Feature"},
	{"geometry":{"coordinates":[39.088852,22.341835],"type":"Point"},"properties":{"osm_id":"3738962694","tag":{"amenity":"waste_basket"}},"type":"Feature"},
	{"geometry":{"coordinates":[39.087859,22.341855],"type":"Point"},"properties":{"osm_id":"3738962699","tag":{"amenity":"waste_basket"}},"type":"Feature"},
	{"geometry":{"coordinates":[39.0904,22.341942],"type":"Point"},"properties":{"man_made":"surveillance","osm_id":"3738962719","tag":{"amenity":"waste_basket","camera:mount":"pole","camera:type":"panning","height":"7","surveillance:type":"camera"}},"type":"Feature"},
	{"geometry":{"coordinates":[39.090389,22.341952],"type":"Point"},"properties":{"osm_id":"3738962724","tag":{"amenity":"waste_basket"}},"type":"Feature"},
	{"geometry":{"coordinates":[39.089964,22.342024],"type":"Point"},"properties":{"osm_id":"3738962939","tag":{"amenity":"waste_basket"}},"type":"Feature"},
	{"geometry":{"coordinates":[39.089784,22.343446],"type":"Point"},"properties":{"osm_id":"3738963481","tag":{"amenity":"waste_basket"}},"type":"Feature"}
]
}
