{
"type": "FeatureCollection",
"features": [
	{"geometry":{"coordinates":[-76.944771,38.86983],"type":"Point"},"properties":{"osm_id":"559193532","tag":{"amenity":"waste_basket","dc-gis:dataset":"pubdate,2009-06-25","dc-gis:litter_id":"4576"}},"type":"Feature"},
	{"geometry":{"coordinates":[-76.979051,38.881126],"type":"Point"},"properties":{"osm_id":"1827029207","tag":{"amenity":"waste_basket"}},"type":"Feature"},
	{"geometry":{"coordinates":[-76.930492,38.846219],"type":"Point"},"properties":{"osm_id":"2386843387","tag":{"amenity":"waste_basket"}},"type":"Feature"},
	{"geometry":{"coordinates":[-76.930791,38.846269],"type":"Point"},"properties":{"osm_id":"2386843392","tag":{"amenity":"waste_basket"}},"type":"Feature"},
	{"geometry":{"coordinates":[-76.930649,38.846361],"type":"Point"},"properties":{"osm_id":"2386843398","tag":{"amenity":"waste_basket"}},"type":"Feature"},
	{"geometry":{"coordinates":[-76.931185,38.846757],"type":"Point"},"properties":{"osm_id":"2386843400","tag":{"amenity":"waste_basket"}},"type":"Feature"},
	{"geometry":{"coordinates":[-76.933457,38.850541],"type":"Point"},"properties":{"osm_id":"2394223284","tag":{"amenity":"waste_basket"}},"type":"Feature"},
	{"geometry":{"coordinates":[-76.937087,38.851069],"type":"Point"},"properties":{"osm_id":"2394223288","tag":{"amenity":"waste_basket"}},"type":"Feature"},
	{"geometry":{"coordinates":[-76.929082,38.846495],"type":"Point"},"properties":{"osm_id":"2409173801","tag":{"amenity":"waste_basket"}},"type":"Feature"},
	{"geometry":{"coordinates":[-76.929443,38.84759],"type":"Point"},"properties":{"osm_id":"2409173810","tag":{"amenity":"waste_basket"}},"type":"Feature"},
	{"geometry":{"coordinates":[-76.989807,38.864992],"type":"Point"},"properties":{"osm_id":"4640488396","tag":{"amenity":"waste_basket"}},"type":"Feature"},
	{"geometry":{"coordinates":[-76.990901,38.863582],"type":"Point"},"properties":{"osm_id":"4640622729","tag":{"amenity":"waste_basket"}},"type":"Feature"}
]
}
