{
"type": "FeatureCollection",
"features": [
	{"geometry":{"coordinates":[21.186567,44.19983],"type":"Point"},"properties":{"osm_id":"6421775812","tag":{"natural":"tree"}},"type":"Feature"},
	{"geometry":{"coordinates":[21.186522,44.199817],"type":"Point"},"properties":{"osm_id":"6421775813","tag":{"natural":"tree"}},"type":"Feature"},
	{"geometry":{"coordinates":[21.186472,44.199809],"type":"Point"},"properties":{"osm_id":"6421775814","tag":{"natural":"tree"}},"type":"Feature"},
	{"geometry":{"coordinates":[21.18642,44.199799],"type":"Point"},"properties":{"osm_id":"6421775815","tag":{"natural":"tree"}},"type":"Feature"},
	{"geometry":{"coordinates":[21.186517,44.199747],"type":"Point"},"properties":{"osm_id":"6421775816","tag":{"natural":"tree"}},"type":"Feature"},
	{"geometry":{"coordinates":[21.186475,44.199762],"type":"Point"},"properties":{"osm_id":"6421775817","tag":{"natural":"tree"}},"type":"Feature"},
	{"geometry":{"coordinates":[21.186558,44.199733],"type":"Point"},"properties":{"osm_id":"6421775818","tag":{"natural":"tree"}},"type":"Feature"},
	{"geometry":{"coordinates":[21.186598,44.199719],"type":"Point"},"properties":{"osm_id":"6421775819","tag":{"natural":"tree"}},"type":"Feature"},
	{"geometry":{"coordinates":[21.186642,44.199705],"type":"Point"},"properties":{"osm_id":"6421775820","tag":{"natural":"tree"}},"type":"Feature"},
	{"geometry":{"coordinates":[21.186793,44.19965],"type":"Point"},"properties":{"osm_id":"6421775821","tag":{"natural":"tree"}},"type":"Feature"},
	{"geometry":{"coordinates":[21.186843,44.19965],"type":"Point"},"properties":{"osm_id":"6421775822","tag":{"natural":"tree"}},"type":"Feature"},
	{"geometry":{"coordinates":[21.186896,44.19965],"type":"Point"},"properties":{"osm_id":"6421775823","tag":{"natural":"tree"}},"type":"Feature"},
	{"geometry":{"coordinates":[21.186946,44.199648],"type":"Point"},"properties":{"osm_id":"6421775824","tag":{"natural":"tree"}},"type":"Feature"},
	{"geometry":{"coordinates":[21.186988,44.199644],"type":"Point"},"properties":{"osm_id":"6421775825","tag":{"natural":"tree"}},"type":"Feature"},
	{"geometry":{"coordinates":[21.186331,44.199968],"type":"Point"},"properties":{"osm_id":"6421775826","tag":{"natural":"tree"}},"type":"Feature"},
	{"geometry":{"coordinates":[21.186544,44.199961],"type":"Point"},"properties":{"osm_id":"6421775827","tag":{"natural":"tree"}},"type":"Feature"},
	{"geometry":{"coordinates":[21.186473,44.199962],"type":"Point"},"properties":{"osm_id":"6421775828","tag":{"natural":"tree"}},"type":"Feature"},
	{"geometry":{"coordinates":[21.18675,44.199762],"type":"Point"},"properties":{"osm_id":"6421775829","tag":{"natural":"tree"}},"type":"Feature"},
	{"geometry":{"coordinates":[21.186718,44.199733],"type":"Point"},"properties":{"osm_id":"6421775830","tag":{"natural":"tree"}},"type":"Feature"},
	{"geometry":{"coordinates":[21.186195,44.199893],"type":"Point"},"properties":{"osm_id":"6421775831","tag":{"natural":"tree"}},"type":"Feature"},
	{"geometry":{"coordinates":[21.186167,44.199935],"type":"Point"},"properties":{"osm_id":"6421775832","tag":{"natural":"tree"}},"type":"Feature"},
	{"geometry":{"coordinates":[21.186208,44.199929],"type":"Point"},"properties":{"osm_id":"6421775833","tag":{"natural":"tree"}},"type":"Feature"},
	{"geometry":{"coordinates":[21.186236,44.199953],"type":"Point"},"properties":{"osm_id":"6421775834","tag":{"natural":"tree"}},"type":"Feature"},
	{"geometry":{"coordinates":[21.186159,44.199902],"type":"Point"},"properties":{"osm_id":"6421775835","tag":{"natural":"tree"}},"type":"Feature"},
	{"geometry":{"coordinates":[21.186185,44.199865],"type":"Point"},"properties":{"osm_id":"6421775836","tag":{"natural":"tree"}},"type":"Feature"},
	{"geometry":{"coordinates":[21.186731,44.199855],"type":"Point"},"properties":{"osm_id":"6421806238","tag":{"natural":"tree"}},"type":"Feature"},
	{"geometry":{"coordinates":[21.18635,44.199734],"type":"Point"},"properties":{"osm_id":"6427488839","tag":{"natural":"tree"}},"type":"Feature"},
	{"geometry":{"coordinates":[21.18631,44.199748],"type":"Point"},"properties":{"osm_id":"6427488840","tag":{"natural":"tree"}},"type":"Feature"},
	{"geometry":{"coordinates":[21.186269,44.199762],"type":"Point"},"properties":{"osm_id":"6427488841","tag":{"natural":"tree"}},"type":"Feature"},
	{"geometry":{"coordinates":[21.186228,44.199778],"type":"Point"},"properties":{"osm_id":"6427488842","tag":{"natural":"tree"}},"type":"Feature"},
	{"geometry":{"coordinates":[21.186395,44.19972],"type":"Point"},"properties":{"osm_id":"6427488843","tag":{"natural":"tree"}},"type":"Feature"},
	{"geometry":{"coordinates":[21.186561,44.199658],"type":"Point"},"properties":{"osm_id":"6427488844","tag":{"natural":"tree"}},"type":"Feature"},
	{"geometry":{"coordinates":[21.186521,44.199672],"type":"Point"},"properties":{"osm_id":"6427488845","tag":{"natural":"tree"}},"type":"Feature"},
	{"geometry":{"coordinates":[21.18648,44.199686],"type":"Point"},"properties":{"osm_id":"6427488846","tag":{"natural":"tree"}},"type":"Feature"},
	{"geometry":{"coordinates":[21.186438,44.199701],"type":"Point"},"properties":{"osm_id":"6427488847","tag":{"natural":"tree"}},"type":"Feature"},
	{"geometry":{"coordinates":[21.186606,44.199644],"type":"Point"},"properties":{"osm_id":"6427488848","tag":{"natural":"tree"}},"type":"Feature"},
	{"geometry":{"coordinates":[21.2315,44.187],"type":"Point"},"properties":{"name":"\u00d0\u0097\u00d0\u00b0\u00d0\u00bf\u00d0\u00b8\u00d1\u0081 \u00d0\u009c\u00d0\u00b8\u00d0\u00bb\u00d0\u00b0\u00d0\u00bd\u00d0\u00be\u00d0\u00b2\u00d0\u00b8\u00d1\u009b\u00d0\u00b0 \u00d1\u0085\u00d1\u0080\u00d0\u00b0\u00d1\u0081\u00d1\u0082","osm_id":"8393666417","tag":{"denomination":"serbian_orthodox","genus":"Quercus","leaf_type":"broadleaved","name:sr":"\u00d0\u0097\u00d0\u00b0\u00d0\u00bf\u00d0\u00b8\u00d1\u0081 \u00d0\u009c\u00d0\u00b8\u00d0\u00bb\u00d0\u00b0\u00d0\u00bd\u00d0\u00be\u00d0\u00b2\u00d0\u00b8\u00d1\u009b\u00d0\u00b0 \u00d1\u0085\u00d1\u0080\u00d0\u00b0\u00d1\u0081\u00d1\u0082","name:sr-Latn":"Zapis Milanovi\u00c4\u0087a hrast","natural":"tree","ref:zapis":"0277","religion":"christian","wikidata":"Q51785843","wikipedia":"sr:\u00d0\u0097\u00d0\u00b0\u00d0\u00bf\u00d0\u00b8\u00d1\u0081 \u00d0\u009c\u00d0\u00b8\u00d0\u00bb\u00d0\u00b0\u00d0\u00bd\u00d0\u00be\u00d0\u00b2\u00d0\u00b8\u00d1\u009b\u00d0\u00b0 \u00d1\u0085\u00d1\u0080\u00d0\u00b0\u00d1\u0081\u00d1\u0082 (\u00d0\u0093\u00d1\u0080\u00d0\u00b0\u00d0\u00b1\u00d0\u00be\u00d0\u00b2\u00d0\u00b0\u00d1\u0086)"}},"type":"Feature"},
	{"geometry":{"coordinates":[21.2414,44.1888],"type":"Point"},"properties":{"name":"\u00d0\u0097\u00d0\u00b0\u00d0\u00bf\u00d0\u00b8\u00d1\u0081 \u00d0\u009c\u00d0\u00b8\u00d0\u00bb\u00d0\u00be\u00d1\u0080\u00d0\u00b0\u00d0\u00b4\u00d0\u00be\u00d0\u00b2\u00d0\u00b8\u00d1\u009b\u00d0\u00b0 \u00d1\u0085\u00d1\u0080\u00d0\u00b0\u00d1\u0081\u00d1\u0082","osm_id":"8393666418","tag":{"denomination":"serbian_orthodox","genus":"Quercus","leaf_type":"broadleaved","name:sr":"\u00d0\u0097\u00d0\u00b0\u00d0\u00bf\u00d0\u00b8\u00d1\u0081 \u00d0\u009c\u00d0\u00b8\u00d0\u00bb\u00d0\u00be\u00d1\u0080\u00d0\u00b0\u00d0\u00b4\u00d0\u00be\u00d0\u00b2\u00d0\u00b8\u00d1\u009b\u00d0\u00b0 \u00d1\u0085\u00d1\u0080\u00d0\u00b0\u00d1\u0081\u00d1\u0082","name:sr-Latn":"Zapis Miloradovi\u00c4\u0087a hrast","natural":"tree","ref:zapis":"0278","religion":"christian","wikidata":"Q51785873","wikipedia":"sr:\u00d0\u0097\u00d0\u00b0\u00d0\u00bf\u00d0\u00b8\u00d1\u0081 \u00d0\u009c\u00d0\u00b8\u00d0\u00bb\u00d0\u00be\u00d1\u0080\u00d0\u00b0\u00d0\u00b4\u00d0\u00be\u00d0\u00b2\u00d0\u00b8\u00d1\u009b\u00d0\u00b0 \u00d1\u0085\u00d1\u0080\u00d0\u00b0\u00d1\u0081\u00d1\u0082 (\u00d0\u0093\u00d1\u0080\u00d0\u00b0\u00d0\u00b1\u00d0\u00be\u00d0\u00b2\u00d0\u00b0\u00d1\u0086)"}},"type":"Feature"},
	{"geometry":{"coordinates":[21.253,44.2072],"type":"Point"},"properties":{"name":"\u00d0\u0097\u00d0\u00b0\u00d0\u00bf\u00d0\u00b8\u00d1\u0081 \u00d0\u00a1\u00d0\u00b8\u00d0\u00bd\u00d1\u0092\u00d0\u00b5\u00d0\u00bb\u00d0\u00b8\u00d1\u009b\u00d0\u00b0 \u00d1\u0085\u00d1\u0080\u00d0\u00b0\u00d1\u0081\u00d1\u0082","osm_id":"8396231418","tag":{"denomination":"serbian_orthodox","genus":"Quercus","leaf_type":"broadleaved","name:sr":"\u00d0\u0097\u00d0\u00b0\u00d0\u00bf\u00d0\u00b8\u00d1\u0081 \u00d0\u00a1\u00d0\u00b8\u00d0\u00bd\u00d1\u0092\u00d0\u00b5\u00d0\u00bb\u00d0\u00b8\u00d1\u009b\u00d0\u00b0 \u00d1\u0085\u00d1\u0080\u00d0\u00b0\u00d1\u0081\u00d1\u0082","name:sr-Latn":"Zapis Sin\u00c4\u0091eli\u00c4\u0087a hrast","natural":"tree","ref:zapis":"0279","religion":"christian","wikidata":"Q51785917","wikipedia":"sr:\u00d0\u0097\u00d0\u00b0\u00d0\u00bf\u00d0\u00b8\u00d1\u0081 \u00d0\u00a1\u00d0\u00b8\u00d0\u00bd\u00d1\u009b\u00d0\u00b5\u00d0\u00bb\u00d0\u00b8\u00d1\u009b\u00d0\u00b0 \u00d1\u0085\u00d1\u0080\u00d0\u00b0\u00d1\u0081\u00d1\u0082 (\u00d0\u0093\u00d1\u0080\u00d0\u00b0\u00d0\u00b1\u00d0\u00be\u00d0\u00b2\u00d0\u00b0\u00d1\u0086)"}},"type":"Feature"}
]
}
