{
"type": "FeatureCollection",
"lastupdate": "2020-08-02T00:00:00Z",
"features": [
	{"geometry":{"coordinates":[6.229969,53.29104],"type":"Point"},"properties":{"osm_id":"3988263699","tag":{"amenity":"waste_basket","waste":"trash"}},"type":"Feature"},
	{"geometry":{"coordinates":[6.153986,53.281435],"type":"Point"},"properties":{"osm_id":"3999516257","tag":{"amenity":"recycling","location":"underground","recycling:glass_bottles":"yes","recycling_type":"container"}},"type":"Feature"},
	{"geometry":{"coordinates":[6.158525,53.291079],"type":"Point"},"properties":{"osm_id":"4190483747","tag":{"amenity":"waste_basket","description":"blikvanger","waste":"trash"}},"type":"Feature"},
	{"geometry":{"coordinates":[6.153498,53.282539],"type":"Point"},"properties":{"osm_id":"4231865230","tag":{"amenity":"recycling","location":"underground","recycling:glass_bottles":"yes","recycling_type":"container"}},"type":"Feature"},
	{"geometry":{"coordinates":[6.154043,53.280256],"type":"Point"},"properties":{"osm_id":"5219407612","tag":{"amenity":"waste_basket","waste":"trash"}},"type":"Feature"},
	{"geometry":{"coordinates":[6.154528,53.282832],"type":"Point"},"properties":{"osm_id":"5219764502","tag":{"amenity":"recycling","recycling:clothes":"yes","recycling_type":"container"}},"type":"Feature"},
	{"geometry":{"coordinates":[6.15296,53.280349],"type":"Point"},"properties":{"osm_id":"5294618438","tag":{"amenity":"waste_basket","waste":"trash"}},"type":"Feature"},
	{"geometry":{"coordinates":[6.15341,53.280835],"type":"Point"},"properties":{"osm_id":"5294618442","tag":{"amenity":"waste_basket","waste":"trash"}},"type":"Feature"},
	{"geometry":{"coordinates":[6.153896,53.282451],"type":"Point"},"properties":{"osm_id":"5294618444","tag":{"amenity":"waste_basket","waste":"trash"}},"type":"Feature"},
	{"geometry":{"coordinates":[6.236788,53.321812],"type":"Point"},"properties":{"osm_id":"5939639953","tag":{"amenity":"waste_basket","material":"metal","waste":"trash"}},"type":"Feature"},
	{"geometry":{"coordinates":[6.220314,53.321555],"type":"Point"},"properties":{"osm_id":"6088499834","tag":{"amenity":"waste_basket","material":"metal","waste":"trash"}},"type":"Feature"},
	{"geometry":{"coordinates":[6.206186,53.322065],"type":"Point"},"properties":{"osm_id":"6088499836","tag":{"amenity":"waste_basket","material":"metal","waste":"trash"}},"type":"Feature"},
	{"geometry":{"coordinates":[6.23499,53.295915],"type":"Point"},"properties":{"osm_id":"6203864420","tag":{"amenity":"recycling","location":"underground","recycling:glass_bottles":"yes","recycling_type":"container"}},"type":"Feature"},
	{"geometry":{"coordinates":[6.205331,53.279745],"type":"Point"},"properties":{"osm_id":"6467118534","tag":{"amenity":"waste_basket","material":"metal","waste":"trash"}},"type":"Feature"},
	{"geometry":{"coordinates":[6.187456,53.321143],"type":"Point"},"properties":{"osm_id":"7243449510","tag":{"amenity":"waste_basket","waste":"trash"}},"type":"Feature"},
	{"geometry":{"coordinates":[6.174427,53.317455],"type":"Point"},"properties":{"osm_id":"7243624153","tag":{"amenity":"waste_basket","waste":"trash"}},"type":"Feature"},
	{"geometry":{"coordinates":[6.176122,53.318578],"type":"Point"},"properties":{"osm_id":"7243624154","tag":{"amenity":"waste_basket","waste":"trash"}},"type":"Feature"},
	{"geometry":{"coordinates":[6.204264,53.322489],"type":"Point"},"properties":{"osm_id":"7243624155","tag":{"amenity":"waste_basket","waste":"trash"}},"type":"Feature"},
	{"geometry":{"coordinates":[6.187784,53.28731],"type":"Point"},"properties":{"osm_id":"7360535459","tag":{"amenity":"waste_basket","waste":"trash"}},"type":"Feature"},
	{"geometry":{"coordinates":[6.196448,53.302163],"type":"Point"},"properties":{"osm_id":"7435671973","tag":{"amenity":"waste_basket","waste":"trash"}},"type":"Feature"},
	{"geometry":{"coordinates":[6.186113,53.306672],"type":"Point"},"properties":{"osm_id":"7439846231","tag":{"amenity":"waste_basket","waste":"trash"}},"type":"Feature"},
	{"geometry":{"coordinates":[6.192801,53.303152],"type":"Point"},"properties":{"osm_id":"7439846253","tag":{"amenity":"waste_basket","waste":"trash"}},"type":"Feature"},
	{"geometry":{"coordinates":[6.189933,53.304908],"type":"Point"},"properties":{"osm_id":"7439962781","tag":{"amenity":"recycling","location":"underground","recycling:glass_bottles":"yes","recycling_type":"container"}},"type":"Feature"},
	{"geometry":{"coordinates":[6.194154,53.30666],"type":"Point"},"properties":{"osm_id":"7440035280","tag":{"amenity":"waste_basket","waste":"trash"}},"type":"Feature"},
	{"geometry":{"coordinates":[6.191044,53.30872],"type":"Point"},"properties":{"osm_id":"7447377660","tag":{"amenity":"waste_basket","waste":"trash"}},"type":"Feature"},
	{"geometry":{"coordinates":[6.159966,53.308364],"type":"Point"},"properties":{"osm_id":"7472636293","tag":{"amenity":"waste_basket","waste":"trash"}},"type":"Feature"}
]
}
