{
"type": "FeatureCollection",
"features": [
	{"geometry":{"coordinates":[6.185038,52.25565],"type":"Point"},"properties":{"osm_id":"808441098","tag":{"amenity":"recycling","recycling_type":"container"}},"type":"Feature"},
	{"geometry":{"coordinates":[6.184781,52.255549],"type":"Point"},"properties":{"osm_id":"808441107","tag":{"amenity":"recycling","location":"overground","recycling_type":"container"}},"type":"Feature"},
	{"geometry":{"coordinates":[6.167095,52.250727],"type":"Point"},"properties":{"osm_id":"3051945968","tag":{"amenity":"recycling","location":"underground","recycling_type":"container"}},"type":"Feature"},
	{"geometry":{"coordinates":[6.193631,52.254541],"type":"Point"},"properties":{"osm_id":"3427065938","tag":{"amenity":"waste_basket"}},"type":"Feature"},
	{"geometry":{"coordinates":[6.209772,52.260109],"type":"Point"},"properties":{"osm_id":"3427065949","tag":{"amenity":"waste_basket"}},"type":"Feature"},
	{"geometry":{"coordinates":[6.210387,52.259481],"type":"Point"},"properties":{"osm_id":"3427144380","tag":{"amenity":"waste_basket"}},"type":"Feature"},
	{"geometry":{"coordinates":[6.210949,52.260104],"type":"Point"},"properties":{"osm_id":"3427144793","tag":{"amenity":"waste_basket"}},"type":"Feature"},
	{"geometry":{"coordinates":[6.212179,52.258458],"type":"Point"},"properties":{"osm_id":"3427183807","tag":{"amenity":"waste_basket"}},"type":"Feature"},
	{"geometry":{"coordinates":[6.211328,52.259075],"type":"Point"},"properties":{"osm_id":"3427183810","tag":{"amenity":"waste_basket"}},"type":"Feature"},
	{"geometry":{"coordinates":[6.211949,52.259546],"type":"Point"},"properties":{"osm_id":"3427183811","tag":{"amenity":"waste_basket"}},"type":"Feature"},
	{"geometry":{"coordinates":[6.212382,52.256194],"type":"Point"},"properties":{"osm_id":"3427245890","tag":{"amenity":"waste_basket"}},"type":"Feature"},
	{"geometry":{"coordinates":[6.214542,52.25698],"type":"Point"},"properties":{"osm_id":"3427254697","tag":{"amenity":"waste_basket"}},"type":"Feature"},
	{"geometry":{"coordinates":[6.213399,52.257532],"type":"Point"},"properties":{"osm_id":"3427254700","tag":{"amenity":"waste_basket"}},"type":"Feature"},
	{"geometry":{"coordinates":[6.21444,52.257521],"type":"Point"},"properties":{"osm_id":"3428157133","tag":{"amenity":"waste_basket"}},"type":"Feature"},
	{"geometry":{"coordinates":[6.215201,52.258007],"type":"Point"},"properties":{"osm_id":"3428157154","tag":{"amenity":"waste_basket"}},"type":"Feature"},
	{"geometry":{"coordinates":[6.216946,52.256522],"type":"Point"},"properties":{"osm_id":"3428202811","tag":{"amenity":"waste_basket"}},"type":"Feature"},
	{"geometry":{"coordinates":[6.219972,52.255142],"type":"Point"},"properties":{"osm_id":"3428238458","tag":{"amenity":"waste_basket"}},"type":"Feature"},
	{"geometry":{"coordinates":[6.218028,52.255197],"type":"Point"},"properties":{"osm_id":"3428238472","tag":{"amenity":"waste_basket"}},"type":"Feature"},
	{"geometry":{"coordinates":[6.219478,52.255538],"type":"Point"},"properties":{"osm_id":"3428238712","tag":{"amenity":"waste_basket"}},"type":"Feature"},
	{"geometry":{"coordinates":[6.219226,52.255652],"type":"Point"},"properties":{"osm_id":"3428238718","tag":{"amenity":"waste_basket"}},"type":"Feature"},
	{"geometry":{"coordinates":[6.218785,52.256055],"type":"Point"},"properties":{"osm_id":"3428238734","tag":{"amenity":"waste_basket"}},"type":"Feature"},
	{"geometry":{"coordinates":[6.21793,52.256424],"type":"Point"},"properties":{"osm_id":"3428238735","tag":{"amenity":"waste_basket"}},"type":"Feature"},
	{"geometry":{"coordinates":[6.218904,52.256889],"type":"Point"},"properties":{"osm_id":"3428262302","tag":{"amenity":"waste_basket"}},"type":"Feature"},
	{"geometry":{"coordinates":[6.224141,52.255781],"type":"Point"},"properties":{"osm_id":"3428581402","tag":{"amenity":"waste_basket"}},"type":"Feature"},
	{"geometry":{"coordinates":[6.222235,52.256383],"type":"Point"},"properties":{"osm_id":"3428581406","tag":{"amenity":"waste_basket"}},"type":"Feature"},
	{"geometry":{"coordinates":[6.224974,52.253708],"type":"Point"},"properties":{"osm_id":"3428608044","tag":{"amenity":"waste_basket"}},"type":"Feature"},
	{"geometry":{"coordinates":[6.222382,52.252679],"type":"Point"},"properties":{"osm_id":"3428610716","tag":{"amenity":"waste_basket"}},"type":"Feature"},
	{"geometry":{"coordinates":[6.223822,52.247864],"type":"Point"},"properties":{"osm_id":"3428907147","tag":{"amenity":"waste_basket"}},"type":"Feature"},
	{"geometry":{"coordinates":[6.228723,52.248509],"type":"Point"},"properties":{"osm_id":"3428907151","tag":{"amenity":"waste_basket"}},"type":"Feature"},
	{"geometry":{"coordinates":[6.232306,52.246569],"type":"Point"},"properties":{"osm_id":"3428971946","tag":{"amenity":"waste_basket"}},"type":"Feature"},
	{"geometry":{"coordinates":[6.18951,52.26792],"type":"Point"},"properties":{"osm_id":"3430538156","tag":{"amenity":"waste_basket"}},"type":"Feature"},
	{"geometry":{"coordinates":[6.18317,52.258859],"type":"Point"},"properties":{"osm_id":"3431255151","tag":{"amenity":"waste_basket"}},"type":"Feature"},
	{"geometry":{"coordinates":[6.185208,52.260103],"type":"Point"},"properties":{"osm_id":"3431255166","tag":{"amenity":"waste_basket"}},"type":"Feature"},
	{"geometry":{"coordinates":[6.183174,52.260176],"type":"Point"},"properties":{"osm_id":"3431255170","tag":{"amenity":"waste_basket"}},"type":"Feature"},
	{"geometry":{"coordinates":[6.152621,52.253186],"type":"Point"},"properties":{"osm_id":"3444465776","tag":{"amenity":"waste_basket"}},"type":"Feature"},
	{"geometry":{"coordinates":[6.154659,52.254709],"type":"Point"},"properties":{"osm_id":"3444465896","tag":{"amenity":"waste_basket"}},"type":"Feature"},
	{"geometry":{"coordinates":[6.177468,52.257764],"type":"Point"},"properties":{"osm_id":"3471687246","tag":{"amenity":"waste_basket"}},"type":"Feature"},
	{"geometry":{"coordinates":[6.221063,52.261585],"type":"Point"},"properties":{"osm_id":"3481500919","tag":{"amenity":"waste_basket"}},"type":"Feature"},
	{"geometry":{"coordinates":[6.222761,52.262394],"type":"Point"},"properties":{"osm_id":"3481500920","tag":{"amenity":"waste_basket"}},"type":"Feature"},
	{"geometry":{"coordinates":[6.22981,52.2219],"type":"Point"},"properties":{"osm_id":"3495140611","tag":{"amenity":"waste_basket"}},"type":"Feature"},
	{"geometry":{"coordinates":[6.197586,52.225817],"type":"Point"},"properties":{"osm_id":"3629267088","tag":{"amenity":"waste_basket"}},"type":"Feature"},
	{"geometry":{"coordinates":[6.168061,52.245756],"type":"Point"},"properties":{"osm_id":"3629267423","tag":{"amenity":"waste_basket"}},"type":"Feature"},
	{"geometry":{"coordinates":[6.154331,52.250786],"type":"Point"},"properties":{"osm_id":"3629267451","tag":{"amenity":"waste_basket"}},"type":"Feature"},
	{"geometry":{"coordinates":[6.153246,52.251682],"type":"Point"},"properties":{"osm_id":"3629267461","tag":{"amenity":"waste_basket"}},"type":"Feature"},
	{"geometry":{"coordinates":[6.201762,52.224687],"type":"Point"},"properties":{"osm_id":"3629470460","tag":{"amenity":"waste_basket"}},"type":"Feature"},
	{"geometry":{"coordinates":[6.201961,52.224855],"type":"Point"},"properties":{"osm_id":"3629470462","tag":{"amenity":"waste_basket"}},"type":"Feature"},
	{"geometry":{"coordinates":[6.233037,52.225024],"type":"Point"},"properties":{"osm_id":"3659115163","tag":{"amenity":"waste_basket"}},"type":"Feature"},
	{"geometry":{"coordinates":[6.219877,52.24519],"type":"Point"},"properties":{"osm_id":"3723520216","tag":{"amenity":"waste_basket"}},"type":"Feature"},
	{"geometry":{"coordinates":[6.220131,52.2452],"type":"Point"},"properties":{"osm_id":"3723520219","tag":{"amenity":"waste_basket"}},"type":"Feature"},
	{"geometry":{"coordinates":[6.217847,52.245209],"type":"Point"},"properties":{"osm_id":"3723520220","tag":{"amenity":"waste_basket"}},"type":"Feature"},
	{"geometry":{"coordinates":[6.229611,52.244025],"type":"Point"},"properties":{"osm_id":"3725050053","tag":{"amenity":"waste_basket"}},"type":"Feature"},
	{"geometry":{"coordinates":[6.191021,52.250712],"type":"Point"},"properties":{"osm_id":"3742993367","tag":{"amenity":"waste_basket"}},"type":"Feature"},
	{"geometry":{"coordinates":[6.189339,52.262698],"type":"Point"},"properties":{"osm_id":"3744544035","tag":{"amenity":"waste_basket"}},"type":"Feature"},
	{"geometry":{"coordinates":[6.200782,52.265728],"type":"Point"},"properties":{"osm_id":"3744544558","tag":{"amenity":"waste_basket"}},"type":"Feature"},
	{"geometry":{"coordinates":[6.211211,52.263198],"type":"Point"},"properties":{"osm_id":"3744557730","tag":{"amenity":"waste_basket"}},"type":"Feature"},
	{"geometry":{"coordinates":[6.206373,52.258951],"type":"Point"},"properties":{"osm_id":"3744561040","tag":{"amenity":"waste_basket"}},"type":"Feature"},
	{"geometry":{"coordinates":[6.16986,52.265489],"type":"Point"},"properties":{"osm_id":"3747273994","tag":{"amenity":"waste_basket"}},"type":"Feature"},
	{"geometry":{"coordinates":[6.173172,52.266547],"type":"Point"},"properties":{"osm_id":"3747461772","tag":{"amenity":"waste_basket"}},"type":"Feature"},
	{"geometry":{"coordinates":[6.173701,52.266669],"type":"Point"},"properties":{"osm_id":"3747461774","tag":{"amenity":"waste_basket"}},"type":"Feature"},
	{"geometry":{"coordinates":[6.174347,52.266821],"type":"Point"},"properties":{"osm_id":"3747461776","tag":{"amenity":"waste_basket"}},"type":"Feature"},
	{"geometry":{"coordinates":[6.152577,52.258788],"type":"Point"},"properties":{"osm_id":"3751981344","tag":{"amenity":"waste_basket"}},"type":"Feature"},
	{"geometry":{"coordinates":[6.172214,52.261773],"type":"Point"},"properties":{"osm_id":"4273601292","tag":{"amenity":"waste_disposal"}},"type":"Feature"},
	{"geometry":{"coordinates":[6.23734,52.22163],"type":"Point"},"properties":{"osm_id":"4293281792","tag":{"amenity":"waste_basket"}},"type":"Feature"},
	{"geometry":{"coordinates":[6.18785,52.261532],"type":"Point"},"properties":{"osm_id":"4559794677","tag":{"amenity":"waste_basket"}},"type":"Feature"},
	{"geometry":{"coordinates":[6.164421,52.25266],"type":"Point"},"properties":{"osm_id":"4587655066","tag":{"amenity":"waste_basket"}},"type":"Feature"},
	{"geometry":{"coordinates":[6.226825,52.241193],"type":"Point"},"properties":{"osm_id":"4597629541","tag":{"amenity":"waste_basket"}},"type":"Feature"},
	{"geometry":{"coordinates":[6.152743,52.256859],"type":"Point"},"properties":{"osm_id":"4599774520","tag":{"amenity":"waste_basket"}},"type":"Feature"},
	{"geometry":{"coordinates":[6.157224,52.252002],"type":"Point"},"properties":{"osm_id":"4606303451","tag":{"amenity":"waste_basket"}},"type":"Feature"},
	{"geometry":{"coordinates":[6.163351,52.253292],"type":"Point"},"properties":{"osm_id":"4611525607","tag":{"amenity":"waste_basket"}},"type":"Feature"},
	{"geometry":{"coordinates":[6.164076,52.252121],"type":"Point"},"properties":{"osm_id":"4613616473","tag":{"amenity":"waste_basket"}},"type":"Feature"},
	{"geometry":{"coordinates":[6.164675,52.253308],"type":"Point"},"properties":{"osm_id":"4613616474","tag":{"amenity":"waste_basket"}},"type":"Feature"},
	{"geometry":{"coordinates":[6.229914,52.241193],"type":"Point"},"properties":{"osm_id":"4694841584","tag":{"amenity":"waste_basket"}},"type":"Feature"},
	{"geometry":{"coordinates":[6.235175,52.257115],"type":"Point"},"properties":{"osm_id":"5124580358","tag":{"amenity":"waste_basket"}},"type":"Feature"},
	{"geometry":{"coordinates":[6.21169,52.239551],"type":"Point"},"properties":{"osm_id":"5128703427","tag":{"amenity":"waste_basket"}},"type":"Feature"},
	{"geometry":{"coordinates":[6.186689,52.237586],"type":"Point"},"properties":{"osm_id":"5145826236","tag":{"amenity":"waste_basket"}},"type":"Feature"},
	{"geometry":{"coordinates":[6.178998,52.265099],"type":"Point"},"properties":{"osm_id":"5181669829","tag":{"amenity":"waste_basket"}},"type":"Feature"},
	{"geometry":{"coordinates":[6.178536,52.264769],"type":"Point"},"properties":{"osm_id":"5181669832","tag":{"amenity":"waste_basket"}},"type":"Feature"},
	{"geometry":{"coordinates":[6.160511,52.257052],"type":"Point"},"properties":{"osm_id":"5514237223","tag":{"amenity":"waste_basket"}},"type":"Feature"},
	{"geometry":{"coordinates":[6.160344,52.25702],"type":"Point"},"properties":{"osm_id":"5514237224","tag":{"amenity":"waste_basket"}},"type":"Feature"},
	{"geometry":{"coordinates":[6.160556,52.256924],"type":"Point"},"properties":{"osm_id":"5514237226","tag":{"amenity":"waste_basket"}},"type":"Feature"},
	{"geometry":{"coordinates":[6.160858,52.256808],"type":"Point"},"properties":{"osm_id":"5514237228","tag":{"amenity":"waste_basket"}},"type":"Feature"},
	{"geometry":{"coordinates":[6.161339,52.256607],"type":"Point"},"properties":{"osm_id":"5514237229","tag":{"amenity":"waste_basket"}},"type":"Feature"},
	{"geometry":{"coordinates":[6.160612,52.257579],"type":"Point"},"properties":{"osm_id":"5514237234","tag":{"amenity":"waste_basket"}},"type":"Feature"},
	{"geometry":{"coordinates":[6.160648,52.257433],"type":"Point"},"properties":{"osm_id":"5514237235","tag":{"amenity":"waste_basket"}},"type":"Feature"},
	{"geometry":{"coordinates":[6.160758,52.257536],"type":"Point"},"properties":{"osm_id":"5514237236","tag":{"amenity":"waste_basket"}},"type":"Feature"},
	{"geometry":{"coordinates":[6.161234,52.25721],"type":"Point"},"properties":{"osm_id":"5514237238","tag":{"amenity":"waste_basket"}},"type":"Feature"},
	{"geometry":{"coordinates":[6.160213,52.257644],"type":"Point"},"properties":{"osm_id":"5514237240","tag":{"amenity":"waste_basket"}},"type":"Feature"},
	{"geometry":{"coordinates":[6.160266,52.257705],"type":"Point"},"properties":{"osm_id":"5514237244","tag":{"amenity":"waste_basket"}},"type":"Feature"},
	{"geometry":{"coordinates":[6.159885,52.257776],"type":"Point"},"properties":{"osm_id":"5514237245","tag":{"amenity":"waste_basket"}},"type":"Feature"},
	{"geometry":{"coordinates":[6.159975,52.257823],"type":"Point"},"properties":{"osm_id":"5514237246","tag":{"amenity":"waste_basket"}},"type":"Feature"},
	{"geometry":{"coordinates":[6.158862,52.258232],"type":"Point"},"properties":{"osm_id":"5514237250","tag":{"amenity":"waste_basket"}},"type":"Feature"},
	{"geometry":{"coordinates":[6.158822,52.258277],"type":"Point"},"properties":{"osm_id":"5514237251","tag":{"amenity":"waste_basket"}},"type":"Feature"},
	{"geometry":{"coordinates":[6.159053,52.257871],"type":"Point"},"properties":{"osm_id":"5514237252","tag":{"amenity":"waste_basket"}},"type":"Feature"},
	{"geometry":{"coordinates":[6.162212,52.256843],"type":"Point"},"properties":{"osm_id":"5514237259","tag":{"amenity":"waste_basket"}},"type":"Feature"},
	{"geometry":{"coordinates":[6.162214,52.256565],"type":"Point"},"properties":{"osm_id":"5514237260","tag":{"amenity":"waste_basket"}},"type":"Feature"},
	{"geometry":{"coordinates":[6.1868,52.253716],"type":"Point"},"properties":{"osm_id":"5590766067","tag":{"amenity":"waste_basket","waste":"trash"}},"type":"Feature"},
	{"geometry":{"coordinates":[6.187816,52.254],"type":"Point"},"properties":{"osm_id":"5590766068","tag":{"amenity":"waste_basket","waste":"trash"}},"type":"Feature"},
	{"geometry":{"coordinates":[6.165387,52.249292],"type":"Point"},"properties":{"osm_id":"5702825676","tag":{"amenity":"waste_basket"}},"type":"Feature"},
	{"geometry":{"coordinates":[6.162866,52.252059],"type":"Point"},"properties":{"osm_id":"5704739353","tag":{"amenity":"waste_basket"}},"type":"Feature"},
	{"geometry":{"coordinates":[6.158989,52.257147],"type":"Point"},"properties":{"osm_id":"5761860097","tag":{"amenity":"waste_basket","waste":"trash"}},"type":"Feature"},
	{"geometry":{"coordinates":[6.202052,52.222669],"type":"Point"},"properties":{"osm_id":"5766144588","tag":{"amenity":"waste_basket","waste":"trash"}},"type":"Feature"},
	{"geometry":{"coordinates":[6.181834,52.266735],"type":"Point"},"properties":{"osm_id":"6172407496","tag":{"amenity":"waste_basket","waste":"trash"}},"type":"Feature"},
	{"geometry":{"coordinates":[6.225252,52.261272],"type":"Point"},"properties":{"osm_id":"6299071503","tag":{"amenity":"recycling","recycling:glass":"yes","recycling_type":"container"}},"type":"Feature"},
	{"geometry":{"coordinates":[6.225268,52.261259],"type":"Point"},"properties":{"osm_id":"6299071504","tag":{"amenity":"recycling","recycling:glass":"yes","recycling_type":"container"}},"type":"Feature"},
	{"geometry":{"coordinates":[6.225282,52.261245],"type":"Point"},"properties":{"osm_id":"6299071505","tag":{"amenity":"recycling","recycling:textiles":"yes","recycling_type":"container"}},"type":"Feature"},
	{"geometry":{"coordinates":[6.225301,52.261229],"type":"Point"},"properties":{"osm_id":"6299071506","tag":{"amenity":"recycling","recycling:textiles":"yes","recycling_type":"container"}},"type":"Feature"},
	{"geometry":{"coordinates":[6.220644,52.260937],"type":"Point"},"properties":{"osm_id":"6326034686","tag":{"amenity":"waste_basket","waste":"trash"}},"type":"Feature"},
	{"geometry":{"coordinates":[6.206766,52.253518],"type":"Point"},"properties":{"osm_id":"7235089167","tag":{"amenity":"waste_basket"}},"type":"Feature"}
]
}
