{
"type": "FeatureCollection",
"features": [
	{"geometry":{"coordinates":[6.192358,52.140244],"type":"Point"},"properties":{"osm_id":"2211678901","tag":{"amenity":"waste_disposal"}},"type":"Feature"},
	{"geometry":{"coordinates":[6.191507,52.146143],"type":"Point"},"properties":{"osm_id":"3306533235","tag":{"amenity":"recycling","recycling_type":"container"}},"type":"Feature"},
	{"geometry":{"coordinates":[6.190158,52.142125],"type":"Point"},"properties":{"osm_id":"3417611903","tag":{"amenity":"waste_basket"}},"type":"Feature"},
	{"geometry":{"coordinates":[6.190101,52.142289],"type":"Point"},"properties":{"osm_id":"3417611904","tag":{"amenity":"waste_basket"}},"type":"Feature"},
	{"geometry":{"coordinates":[6.198648,52.146582],"type":"Point"},"properties":{"osm_id":"3441030138","tag":{"amenity":"waste_basket"}},"type":"Feature"},
	{"geometry":{"coordinates":[6.194085,52.134192],"type":"Point"},"properties":{"osm_id":"3508067177","tag":{"amenity":"waste_disposal"}},"type":"Feature"},
	{"geometry":{"coordinates":[6.236348,52.152357],"type":"Point"},"properties":{"osm_id":"3564253477","tag":{"amenity":"waste_basket"}},"type":"Feature"},
	{"geometry":{"coordinates":[6.181617,52.148754],"type":"Point"},"properties":{"osm_id":"3616989307","tag":{"amenity":"waste_basket"}},"type":"Feature"},
	{"geometry":{"coordinates":[6.236207,52.151377],"type":"Point"},"properties":{"osm_id":"3621463741","tag":{"amenity":"waste_basket"}},"type":"Feature"},
	{"geometry":{"coordinates":[6.182439,52.117178],"type":"Point"},"properties":{"osm_id":"3635355311","tag":{"amenity":"waste_basket"}},"type":"Feature"},
	{"geometry":{"coordinates":[6.182084,52.11748],"type":"Point"},"properties":{"osm_id":"3635355313","tag":{"amenity":"waste_basket"}},"type":"Feature"},
	{"geometry":{"coordinates":[6.192989,52.120637],"type":"Point"},"properties":{"osm_id":"3635355323","tag":{"amenity":"waste_basket"}},"type":"Feature"},
	{"geometry":{"coordinates":[6.190977,52.121836],"type":"Point"},"properties":{"osm_id":"3635355330","tag":{"amenity":"waste_basket"}},"type":"Feature"},
	{"geometry":{"coordinates":[6.189537,52.124571],"type":"Point"},"properties":{"osm_id":"3635355335","tag":{"amenity":"waste_basket"}},"type":"Feature"},
	{"geometry":{"coordinates":[6.190605,52.127002],"type":"Point"},"properties":{"osm_id":"3635438568","tag":{"amenity":"waste_basket"}},"type":"Feature"},
	{"geometry":{"coordinates":[6.19151,52.128722],"type":"Point"},"properties":{"osm_id":"3635438577","tag":{"amenity":"waste_basket"}},"type":"Feature"},
	{"geometry":{"coordinates":[6.193076,52.132942],"type":"Point"},"properties":{"osm_id":"3635438582","tag":{"amenity":"waste_basket"}},"type":"Feature"},
	{"geometry":{"coordinates":[6.192356,52.135602],"type":"Point"},"properties":{"osm_id":"3635719358","tag":{"amenity":"waste_basket"}},"type":"Feature"},
	{"geometry":{"coordinates":[6.19431,52.138289],"type":"Point"},"properties":{"osm_id":"3635719367","tag":{"amenity":"waste_basket"}},"type":"Feature"},
	{"geometry":{"coordinates":[6.194228,52.138459],"type":"Point"},"properties":{"osm_id":"3635719371","tag":{"amenity":"waste_basket"}},"type":"Feature"},
	{"geometry":{"coordinates":[6.192327,52.13848],"type":"Point"},"properties":{"osm_id":"3635719374","tag":{"amenity":"waste_basket"}},"type":"Feature"},
	{"geometry":{"coordinates":[6.192627,52.138532],"type":"Point"},"properties":{"osm_id":"3635719377","tag":{"amenity":"waste_basket"}},"type":"Feature"},
	{"geometry":{"coordinates":[6.192992,52.138595],"type":"Point"},"properties":{"osm_id":"3635719379","tag":{"amenity":"waste_basket"}},"type":"Feature"},
	{"geometry":{"coordinates":[6.236958,52.142675],"type":"Point"},"properties":{"osm_id":"3637340039","tag":{"amenity":"waste_basket"}},"type":"Feature"},
	{"geometry":{"coordinates":[6.196385,52.139615],"type":"Point"},"properties":{"osm_id":"3639728260","tag":{"amenity":"waste_basket"}},"type":"Feature"},
	{"geometry":{"coordinates":[6.207535,52.145753],"type":"Point"},"properties":{"osm_id":"3639728271","tag":{"amenity":"waste_basket"}},"type":"Feature"},
	{"geometry":{"coordinates":[6.220416,52.107607],"type":"Point"},"properties":{"osm_id":"3646507865","tag":{"amenity":"waste_basket"}},"type":"Feature"},
	{"geometry":{"coordinates":[6.216067,52.110864],"type":"Point"},"properties":{"osm_id":"3647518645","tag":{"amenity":"waste_basket"}},"type":"Feature"},
	{"geometry":{"coordinates":[6.200037,52.119683],"type":"Point"},"properties":{"osm_id":"3647704295","tag":{"amenity":"waste_basket"}},"type":"Feature"},
	{"geometry":{"coordinates":[6.196572,52.132493],"type":"Point"},"properties":{"osm_id":"3647761275","tag":{"amenity":"waste_basket"}},"type":"Feature"},
	{"geometry":{"coordinates":[6.196795,52.132945],"type":"Point"},"properties":{"osm_id":"3647761277","tag":{"amenity":"waste_basket"}},"type":"Feature"},
	{"geometry":{"coordinates":[6.210884,52.146172],"type":"Point"},"properties":{"osm_id":"3647761901","tag":{"amenity":"waste_basket"}},"type":"Feature"},
	{"geometry":{"coordinates":[6.20184,52.12104],"type":"Point"},"properties":{"osm_id":"3750391194","tag":{"amenity":"waste_basket"}},"type":"Feature"},
	{"geometry":{"coordinates":[6.215695,52.13027],"type":"Point"},"properties":{"osm_id":"3750820480","tag":{"amenity":"waste_basket"}},"type":"Feature"},
	{"geometry":{"coordinates":[6.216631,52.135916],"type":"Point"},"properties":{"osm_id":"3751870772","tag":{"amenity":"waste_basket"}},"type":"Feature"},
	{"geometry":{"coordinates":[6.236876,52.141941],"type":"Point"},"properties":{"osm_id":"3882142662","tag":{"amenity":"waste_basket"}},"type":"Feature"},
	{"geometry":{"coordinates":[6.223253,52.14553],"type":"Point"},"properties":{"osm_id":"3889021690","tag":{"amenity":"waste_basket"}},"type":"Feature"},
	{"geometry":{"coordinates":[6.218009,52.148346],"type":"Point"},"properties":{"osm_id":"3889021756","tag":{"amenity":"waste_basket"}},"type":"Feature"},
	{"geometry":{"coordinates":[6.216395,52.148526],"type":"Point"},"properties":{"osm_id":"3889021860","tag":{"amenity":"waste_basket"}},"type":"Feature"},
	{"geometry":{"coordinates":[6.237491,52.139696],"type":"Point"},"properties":{"osm_id":"4168032869","tag":{"amenity":"waste_basket"}},"type":"Feature"},
	{"geometry":{"coordinates":[6.194834,52.143284],"type":"Point"},"properties":{"osm_id":"4296958539","tag":{"amenity":"waste_basket"}},"type":"Feature"},
	{"geometry":{"coordinates":[6.19394,52.143345],"type":"Point"},"properties":{"osm_id":"4296958540","tag":{"amenity":"waste_basket"}},"type":"Feature"},
	{"geometry":{"coordinates":[6.193617,52.143358],"type":"Point"},"properties":{"osm_id":"4296958541","tag":{"amenity":"waste_basket"}},"type":"Feature"},
	{"geometry":{"coordinates":[6.195026,52.143669],"type":"Point"},"properties":{"osm_id":"4296958542","tag":{"amenity":"waste_basket"}},"type":"Feature"},
	{"geometry":{"coordinates":[6.19462,52.14433],"type":"Point"},"properties":{"osm_id":"4296958543","tag":{"amenity":"waste_basket"}},"type":"Feature"},
	{"geometry":{"coordinates":[6.195265,52.143619],"type":"Point"},"properties":{"osm_id":"4301217023","tag":{"amenity":"waste_basket"}},"type":"Feature"},
	{"geometry":{"coordinates":[6.195191,52.143593],"type":"Point"},"properties":{"osm_id":"4301217024","tag":{"amenity":"waste_basket"}},"type":"Feature"},
	{"geometry":{"coordinates":[6.195375,52.143597],"type":"Point"},"properties":{"osm_id":"4301217025","tag":{"amenity":"waste_basket"}},"type":"Feature"},
	{"geometry":{"coordinates":[6.195266,52.143708],"type":"Point"},"properties":{"osm_id":"4301217026","tag":{"amenity":"waste_basket"}},"type":"Feature"},
	{"geometry":{"coordinates":[6.19457,52.144395],"type":"Point"},"properties":{"osm_id":"4301217027","tag":{"amenity":"waste_basket"}},"type":"Feature"},
	{"geometry":{"coordinates":[6.194435,52.147339],"type":"Point"},"properties":{"osm_id":"4720534814","tag":{"amenity":"recycling","location":"underground","recycling_type":"container"}},"type":"Feature"},
	{"geometry":{"coordinates":[6.193378,52.147267],"type":"Point"},"properties":{"osm_id":"4720534815","tag":{"amenity":"recycling","location":"underground","recycling_type":"container"}},"type":"Feature"},
	{"geometry":{"coordinates":[6.219737,52.142123],"type":"Point"},"properties":{"osm_id":"5066405569","tag":{"amenity":"waste_basket"}},"type":"Feature"},
	{"geometry":{"coordinates":[6.192794,52.13934],"type":"Point"},"properties":{"osm_id":"5501699878","tag":{"amenity":"waste_basket","waste":"trash"}},"type":"Feature"},
	{"geometry":{"coordinates":[6.194257,52.144689],"type":"Point"},"properties":{"osm_id":"5522493533","tag":{"amenity":"waste_basket","layer":"-1"}},"type":"Feature"},
	{"geometry":{"coordinates":[6.194166,52.144811],"type":"Point"},"properties":{"osm_id":"5522493537","tag":{"amenity":"waste_basket","layer":"-1"}},"type":"Feature"},
	{"geometry":{"coordinates":[6.193869,52.144758],"type":"Point"},"properties":{"osm_id":"5522493541","tag":{"amenity":"waste_basket"}},"type":"Feature"},
	{"geometry":{"coordinates":[6.193737,52.144538],"type":"Point"},"properties":{"osm_id":"5522493558","tag":{"amenity":"waste_basket"}},"type":"Feature"},
	{"geometry":{"coordinates":[6.194149,52.144658],"type":"Point"},"properties":{"osm_id":"5522493563","tag":{"amenity":"waste_basket"}},"type":"Feature"},
	{"geometry":{"coordinates":[6.192999,52.144508],"type":"Point"},"properties":{"osm_id":"5522493564","tag":{"amenity":"waste_basket"}},"type":"Feature"},
	{"geometry":{"coordinates":[6.193382,52.144609],"type":"Point"},"properties":{"osm_id":"5522493565","tag":{"amenity":"waste_basket"}},"type":"Feature"},
	{"geometry":{"coordinates":[6.19375,52.144721],"type":"Point"},"properties":{"osm_id":"5522493566","tag":{"amenity":"waste_basket"}},"type":"Feature"},
	{"geometry":{"coordinates":[6.194348,52.1449],"type":"Point"},"properties":{"osm_id":"5522493567","tag":{"amenity":"waste_basket"}},"type":"Feature"},
	{"geometry":{"coordinates":[6.19466,52.144995],"type":"Point"},"properties":{"osm_id":"5522493568","tag":{"amenity":"waste_basket"}},"type":"Feature"},
	{"geometry":{"coordinates":[6.194963,52.145087],"type":"Point"},"properties":{"osm_id":"5522493569","tag":{"amenity":"waste_basket"}},"type":"Feature"},
	{"geometry":{"coordinates":[6.195254,52.145189],"type":"Point"},"properties":{"osm_id":"5522493570","tag":{"amenity":"waste_basket"}},"type":"Feature"},
	{"geometry":{"coordinates":[6.19643,52.142905],"type":"Point"},"properties":{"osm_id":"5580262634","tag":{"amenity":"waste_basket","waste":"trash"}},"type":"Feature"},
	{"geometry":{"coordinates":[6.195199,52.143245],"type":"Point"},"properties":{"osm_id":"5580262635","tag":{"amenity":"waste_basket","waste":"trash"}},"type":"Feature"},
	{"geometry":{"coordinates":[6.200208,52.142581],"type":"Point"},"properties":{"osm_id":"5580262945","tag":{"amenity":"waste_basket","waste":"trash"}},"type":"Feature"},
	{"geometry":{"coordinates":[6.20208,52.143224],"type":"Point"},"properties":{"osm_id":"5580262953","tag":{"amenity":"waste_basket","waste":"trash"}},"type":"Feature"},
	{"geometry":{"coordinates":[6.214401,52.146701],"type":"Point"},"properties":{"osm_id":"5580262977","tag":{"amenity":"waste_basket","waste":"trash"}},"type":"Feature"},
	{"geometry":{"coordinates":[6.220075,52.153128],"type":"Point"},"properties":{"osm_id":"5580263057","tag":{"amenity":"waste_basket","waste":"trash"}},"type":"Feature"},
	{"geometry":{"coordinates":[6.21495,52.118274],"type":"Point"},"properties":{"osm_id":"5581888688","tag":{"amenity":"waste_basket","waste":"trash"}},"type":"Feature"},
	{"geometry":{"coordinates":[6.211426,52.120561],"type":"Point"},"properties":{"osm_id":"5581888689","tag":{"amenity":"waste_basket","waste":"trash"}},"type":"Feature"},
	{"geometry":{"coordinates":[6.210627,52.120316],"type":"Point"},"properties":{"osm_id":"5581888859","tag":{"amenity":"waste_basket","waste":"trash"}},"type":"Feature"},
	{"geometry":{"coordinates":[6.209374,52.129009],"type":"Point"},"properties":{"osm_id":"5581997954","tag":{"amenity":"waste_basket","waste":"trash"}},"type":"Feature"},
	{"geometry":{"coordinates":[6.208161,52.128067],"type":"Point"},"properties":{"osm_id":"5581997962","tag":{"amenity":"waste_basket","waste":"trash"}},"type":"Feature"},
	{"geometry":{"coordinates":[6.201943,52.128035],"type":"Point"},"properties":{"osm_id":"5581998933","tag":{"amenity":"waste_basket","waste":"trash"}},"type":"Feature"},
	{"geometry":{"coordinates":[6.195927,52.148145],"type":"Point"},"properties":{"osm_id":"7922018151","tag":{"amenity":"waste_basket","waste":"trash"}},"type":"Feature"},
	{"geometry":{"coordinates":[6.195963,52.148065],"type":"Point"},"properties":{"osm_id":"7922018152","tag":{"amenity":"waste_basket","waste":"trash"}},"type":"Feature"},
	{"geometry":{"coordinates":[6.196003,52.147976],"type":"Point"},"properties":{"osm_id":"7922018153","tag":{"amenity":"waste_basket","waste":"trash"}},"type":"Feature"},
	{"geometry":{"coordinates":[6.196038,52.147892],"type":"Point"},"properties":{"osm_id":"7922018154","tag":{"amenity":"waste_basket","waste":"trash"}},"type":"Feature"}
]
}
