{
"type": "FeatureCollection",
"lastupdate": "2020-08-03T00:00:00Z",
"features": [
	{"geometry":{"coordinates":[6.233601,51.875528],"type":"Point"},"properties":{"osm_id":"5122200335","tag":{"amenity":"waste_basket"}},"type":"Feature"},
	{"geometry":{"coordinates":[6.163233,51.869237],"type":"Point"},"properties":{"osm_id":"5700157414","tag":{"amenity":"waste_basket"}},"type":"Feature"},
	{"geometry":{"coordinates":[6.163941,51.868784],"type":"Point"},"properties":{"osm_id":"5700157416","tag":{"amenity":"waste_basket"}},"type":"Feature"},
	{"geometry":{"coordinates":[6.167211,51.865771],"type":"Point"},"properties":{"osm_id":"5700157630","tag":{"amenity":"waste_basket"}},"type":"Feature"},
	{"geometry":{"coordinates":[6.171312,51.863332],"type":"Point"},"properties":{"osm_id":"5700157647","tag":{"amenity":"waste_basket"}},"type":"Feature"},
	{"geometry":{"coordinates":[6.171526,51.863466],"type":"Point"},"properties":{"osm_id":"5700157648","tag":{"amenity":"waste_basket"}},"type":"Feature"},
	{"geometry":{"coordinates":[6.172005,51.863584],"type":"Point"},"properties":{"osm_id":"5700157650","tag":{"amenity":"waste_basket"}},"type":"Feature"},
	{"geometry":{"coordinates":[6.240013,51.87471],"type":"Point"},"properties":{"osm_id":"6682461305","tag":{"amenity":"waste_basket"}},"type":"Feature"},
	{"geometry":{"coordinates":[6.179848,51.867885],"type":"Point"},"properties":{"osm_id":"7146690854","tag":{"amenity":"waste_basket","source:position":"extrapolation"}},"type":"Feature"}
]
}
