{
"type": "FeatureCollection",
"features": [
	{"geometry":{"coordinates":[6.178204,51.68243],"type":"Point"},"properties":{"osm_id":"778312174","tag":{"amenity":"recycling","recycling:glass_bottles":"yes","recycling_type":"container","wpt_description":"19-MAI-10 9:00:32"}},"type":"Feature"},
	{"geometry":{"coordinates":[6.169397,51.675609],"type":"Point"},"properties":{"osm_id":"3926546548","tag":{"amenity":"waste_disposal","waste":"trash"}},"type":"Feature"},
	{"geometry":{"coordinates":[6.169401,51.675638],"type":"Point"},"properties":{"osm_id":"3926546549","tag":{"amenity":"recycling","opening_hours":"24/7","recycling:paper":"yes","recycling_type":"container"}},"type":"Feature"},
	{"geometry":{"coordinates":[6.169603,51.675754],"type":"Point"},"properties":{"osm_id":"3926546556","tag":{"amenity":"recycling","opening_hours":"24/7","recycling:glass":"yes","recycling_type":"container"}},"type":"Feature"},
	{"geometry":{"coordinates":[6.154379,51.677386],"type":"Point"},"properties":{"osm_id":"8976958767","tag":{"amenity":"waste_basket","waste":"trash"}},"type":"Feature"},
	{"geometry":{"coordinates":[6.157968,51.674921],"type":"Point"},"properties":{"osm_id":"8976982446","tag":{"amenity":"waste_basket","waste":"trash"}},"type":"Feature"},
	{"geometry":{"coordinates":[6.156582,51.67532],"type":"Point"},"properties":{"osm_id":"8976982449","tag":{"amenity":"waste_basket","waste":"trash"}},"type":"Feature"},
	{"geometry":{"coordinates":[6.158239,51.675812],"type":"Point"},"properties":{"osm_id":"8977177706","tag":{"amenity":"waste_basket","waste":"trash"}},"type":"Feature"}
]
}
