{
"type": "FeatureCollection",
"features": [
	{"geometry":{"coordinates":[6.186655,51.55627],"type":"Point"},"properties":{"osm_id":"3898872521","tag":{"amenity":"waste_disposal","waste":"grey_water"}},"type":"Feature"},
	{"geometry":{"coordinates":[6.186615,51.556307],"type":"Point"},"properties":{"osm_id":"3898872522","tag":{"amenity":"waste_disposal","waste":"chemical_toilet"}},"type":"Feature"},
	{"geometry":{"coordinates":[6.186524,51.556104],"type":"Point"},"properties":{"osm_id":"3898872524","tag":{"amenity":"waste_disposal","waste":"trash"}},"type":"Feature"},
	{"geometry":{"coordinates":[6.201603,51.559983],"type":"Point"},"properties":{"osm_id":"6644105499","tag":{"amenity":"waste_basket","waste":"trash"}},"type":"Feature"},
	{"geometry":{"coordinates":[6.201402,51.559893],"type":"Point"},"properties":{"osm_id":"6644105500","tag":{"amenity":"waste_basket","waste":"trash"}},"type":"Feature"},
	{"geometry":{"coordinates":[6.201203,51.559807],"type":"Point"},"properties":{"osm_id":"6644105501","tag":{"amenity":"waste_basket","waste":"trash"}},"type":"Feature"},
	{"geometry":{"coordinates":[6.201006,51.559716],"type":"Point"},"properties":{"osm_id":"6644105502","tag":{"amenity":"waste_basket","waste":"trash"}},"type":"Feature"},
	{"geometry":{"coordinates":[6.200807,51.55962],"type":"Point"},"properties":{"osm_id":"6644105503","tag":{"amenity":"waste_basket","waste":"trash"}},"type":"Feature"},
	{"geometry":{"coordinates":[6.200614,51.55953],"type":"Point"},"properties":{"osm_id":"6644105504","tag":{"amenity":"waste_basket","waste":"trash"}},"type":"Feature"},
	{"geometry":{"coordinates":[6.200411,51.559445],"type":"Point"},"properties":{"osm_id":"6644105505","tag":{"amenity":"waste_basket","waste":"trash"}},"type":"Feature"},
	{"geometry":{"coordinates":[6.200214,51.559348],"type":"Point"},"properties":{"osm_id":"6644105506","tag":{"amenity":"waste_basket","waste":"trash"}},"type":"Feature"},
	{"geometry":{"coordinates":[6.200014,51.559263],"type":"Point"},"properties":{"osm_id":"6644105507","tag":{"amenity":"waste_basket","waste":"trash"}},"type":"Feature"},
	{"geometry":{"coordinates":[6.199826,51.55917],"type":"Point"},"properties":{"osm_id":"6644105508","tag":{"amenity":"waste_basket","waste":"trash"}},"type":"Feature"},
	{"geometry":{"coordinates":[6.199635,51.559084],"type":"Point"},"properties":{"osm_id":"6644105509","tag":{"amenity":"waste_basket","waste":"trash"}},"type":"Feature"},
	{"geometry":{"coordinates":[6.19942,51.558988],"type":"Point"},"properties":{"osm_id":"6644105510","tag":{"amenity":"waste_basket","waste":"trash"}},"type":"Feature"},
	{"geometry":{"coordinates":[6.199233,51.558903],"type":"Point"},"properties":{"osm_id":"6644105511","tag":{"amenity":"waste_basket","waste":"trash"}},"type":"Feature"},
	{"geometry":{"coordinates":[6.199041,51.558808],"type":"Point"},"properties":{"osm_id":"6644105512","tag":{"amenity":"waste_basket","waste":"trash"}},"type":"Feature"},
	{"geometry":{"coordinates":[6.198842,51.55872],"type":"Point"},"properties":{"osm_id":"6644105513","tag":{"amenity":"waste_basket","waste":"trash"}},"type":"Feature"},
	{"geometry":{"coordinates":[6.198645,51.558628],"type":"Point"},"properties":{"osm_id":"6644105514","tag":{"amenity":"waste_basket","waste":"trash"}},"type":"Feature"},
	{"geometry":{"coordinates":[6.19844,51.558533],"type":"Point"},"properties":{"osm_id":"6644105515","tag":{"amenity":"waste_basket","waste":"trash"}},"type":"Feature"},
	{"geometry":{"coordinates":[6.198253,51.558442],"type":"Point"},"properties":{"osm_id":"6644105516","tag":{"amenity":"waste_basket","waste":"trash"}},"type":"Feature"},
	{"geometry":{"coordinates":[6.202756,51.557882],"type":"Point"},"properties":{"osm_id":"6644105517","tag":{"amenity":"waste_basket","waste":"trash"}},"type":"Feature"}
]
}
