{
"type": "FeatureCollection",
"features": [
	{"geometry":{"coordinates":[6.228004,51.219748],"type":"Point"},"properties":{"osm_id":"951310044","tag":{"amenity":"waste_basket"}},"type":"Feature"},
	{"geometry":{"coordinates":[6.225826,51.222608],"type":"Point"},"properties":{"osm_id":"951310045","tag":{"amenity":"waste_basket"}},"type":"Feature"},
	{"geometry":{"coordinates":[6.229891,51.217576],"type":"Point"},"properties":{"osm_id":"951310046","tag":{"amenity":"recycling","recycling:glass_bottles":"yes","recycling_type":"container"}},"type":"Feature"},
	{"geometry":{"coordinates":[6.227986,51.220684],"type":"Point"},"properties":{"osm_id":"951310049","tag":{"amenity":"waste_basket"}},"type":"Feature"},
	{"geometry":{"coordinates":[6.224352,51.225309],"type":"Point"},"properties":{"osm_id":"951310054","tag":{"amenity":"waste_basket"}},"type":"Feature"},
	{"geometry":{"coordinates":[6.225728,51.218542],"type":"Point"},"properties":{"osm_id":"951371417","tag":{"amenity":"waste_basket","check_date":"2021-08-02"}},"type":"Feature"},
	{"geometry":{"coordinates":[6.225973,51.219287],"type":"Point"},"properties":{"osm_id":"951398131","tag":{"amenity":"waste_basket"}},"type":"Feature"},
	{"geometry":{"coordinates":[6.226759,51.218757],"type":"Point"},"properties":{"osm_id":"951398170","tag":{"amenity":"waste_basket"}},"type":"Feature"},
	{"geometry":{"coordinates":[6.227143,51.218719],"type":"Point"},"properties":{"osm_id":"951398183","tag":{"amenity":"waste_basket"}},"type":"Feature"},
	{"geometry":{"coordinates":[6.22103,51.225825],"type":"Point"},"properties":{"osm_id":"951398209","tag":{"amenity":"waste_basket"}},"type":"Feature"},
	{"geometry":{"coordinates":[6.21919,51.226449],"type":"Point"},"properties":{"osm_id":"3908351020","tag":{"amenity":"waste_basket"}},"type":"Feature"},
	{"geometry":{"coordinates":[6.219966,51.22661],"type":"Point"},"properties":{"osm_id":"3908351021","tag":{"amenity":"waste_basket"}},"type":"Feature"},
	{"geometry":{"coordinates":[6.220018,51.226953],"type":"Point"},"properties":{"osm_id":"3908351022","tag":{"amenity":"waste_basket"}},"type":"Feature"},
	{"geometry":{"coordinates":[6.220043,51.227305],"type":"Point"},"properties":{"osm_id":"3908351023","tag":{"amenity":"waste_basket"}},"type":"Feature"},
	{"geometry":{"coordinates":[6.218937,51.227381],"type":"Point"},"properties":{"osm_id":"3908351025","tag":{"amenity":"waste_basket"}},"type":"Feature"},
	{"geometry":{"coordinates":[6.219089,51.227757],"type":"Point"},"properties":{"osm_id":"3908351029","tag":{"amenity":"waste_basket"}},"type":"Feature"},
	{"geometry":{"coordinates":[6.216773,51.198873],"type":"Point"},"properties":{"osm_id":"8381832828","tag":{"amenity":"waste_basket"}},"type":"Feature"},
	{"geometry":{"coordinates":[6.217044,51.199461],"type":"Point"},"properties":{"osm_id":"8381832869","tag":{"amenity":"waste_basket"}},"type":"Feature"},
	{"geometry":{"coordinates":[6.216788,51.199468],"type":"Point"},"properties":{"osm_id":"8381832870","tag":{"amenity":"waste_basket"}},"type":"Feature"},
	{"geometry":{"coordinates":[6.217083,51.199264],"type":"Point"},"properties":{"osm_id":"8381832871","tag":{"amenity":"waste_basket"}},"type":"Feature"},
	{"geometry":{"coordinates":[6.162662,51.212494],"type":"Point"},"properties":{"osm_id":"8724398302","tag":{"amenity":"recycling","description":"Container f\u00c3\u00bcr Alttextilien und Altschuhe","recycling:clothes":"yes","recycling:shoes":"yes","recycling_type":"container"}},"type":"Feature"},
	{"geometry":{"coordinates":[6.165769,51.213376],"type":"Point"},"properties":{"osm_id":"8724560432","tag":{"amenity":"recycling","description":"Container f\u00c3\u00bcr Alttextilien und Altschuhe","recycling:clothes":"yes","recycling:shoes":"yes","recycling_type":"container"}},"type":"Feature"},
	{"geometry":{"coordinates":[6.161289,51.231039],"type":"Point"},"properties":{"osm_id":"8724580834","tag":{"amenity":"recycling","recycling:clothes":"yes","recycling:shoes":"yes","recycling_type":"container"}},"type":"Feature"},
	{"geometry":{"coordinates":[6.218586,51.215903],"type":"Point"},"properties":{"osm_id":"8724655198","tag":{"amenity":"recycling","recycling:clothes":"yes","recycling:shoes":"yes","recycling_type":"container","website":"https://www.niederkruechten.de/de/dienstleistungen/altkleider-altschuhcontainer/"}},"type":"Feature"},
	{"geometry":{"coordinates":[6.166165,51.212119],"type":"Point"},"properties":{"osm_id":"8813917269","tag":{"amenity":"recycling","description":"Container f\u00c3\u00bcr Alttextilien und Altschuhe","recycling:clothes":"yes","recycling:shoes":"yes","recycling_type":"container"}},"type":"Feature"}
]
}
