{
"type": "FeatureCollection",
"features": [
	{"geometry":{"coordinates":[6.18621,50.985242],"type":"Point"},"properties":{"osm_id":"415593975","tag":{"amenity":"recycling","recycling:glass_bottles":"yes","recycling_type":"container"}},"type":"Feature"},
	{"geometry":{"coordinates":[6.189929,50.981197],"type":"Point"},"properties":{"osm_id":"429278721","tag":{"amenity":"waste_basket"}},"type":"Feature"},
	{"geometry":{"coordinates":[6.188515,50.986087],"type":"Point"},"properties":{"osm_id":"430742710","tag":{"amenity":"waste_basket"}},"type":"Feature"},
	{"geometry":{"coordinates":[6.18806,50.986444],"type":"Point"},"properties":{"osm_id":"430742712","tag":{"amenity":"waste_basket"}},"type":"Feature"},
	{"geometry":{"coordinates":[6.186949,50.987172],"type":"Point"},"properties":{"osm_id":"430742714","tag":{"amenity":"waste_basket"}},"type":"Feature"},
	{"geometry":{"coordinates":[6.18074,50.987322],"type":"Point"},"properties":{"osm_id":"430769638","tag":{"amenity":"waste_basket"}},"type":"Feature"},
	{"geometry":{"coordinates":[6.182467,50.9853],"type":"Point"},"properties":{"osm_id":"430769646","tag":{"amenity":"waste_basket"}},"type":"Feature"},
	{"geometry":{"coordinates":[6.195179,50.980194],"type":"Point"},"properties":{"osm_id":"431243044","tag":{"amenity":"waste_basket"}},"type":"Feature"},
	{"geometry":{"coordinates":[6.196122,50.977838],"type":"Point"},"properties":{"osm_id":"431243049","tag":{"amenity":"waste_basket"}},"type":"Feature"},
	{"geometry":{"coordinates":[6.195882,50.978225],"type":"Point"},"properties":{"osm_id":"431243053","tag":{"amenity":"waste_basket"}},"type":"Feature"},
	{"geometry":{"coordinates":[6.196155,50.97762],"type":"Point"},"properties":{"osm_id":"431243055","tag":{"amenity":"waste_basket"}},"type":"Feature"},
	{"geometry":{"coordinates":[6.166643,50.969193],"type":"Point"},"properties":{"osm_id":"432516996","tag":{"amenity":"waste_basket"}},"type":"Feature"},
	{"geometry":{"coordinates":[6.167885,50.96817],"type":"Point"},"properties":{"osm_id":"432517025","tag":{"amenity":"waste_basket"}},"type":"Feature"},
	{"geometry":{"coordinates":[6.177964,50.990972],"type":"Point"},"properties":{"osm_id":"442703913","tag":{"amenity":"waste_basket"}},"type":"Feature"},
	{"geometry":{"coordinates":[6.174563,50.981536],"type":"Point"},"properties":{"osm_id":"443061032","tag":{"amenity":"waste_basket"}},"type":"Feature"},
	{"geometry":{"coordinates":[6.165207,50.964764],"type":"Point"},"properties":{"osm_id":"471174818","tag":{"amenity":"recycling","recycling:glass":"yes"}},"type":"Feature"},
	{"geometry":{"coordinates":[6.165991,50.972187],"type":"Point"},"properties":{"osm_id":"471174868","tag":{"amenity":"waste_basket"}},"type":"Feature"},
	{"geometry":{"coordinates":[6.165776,50.991011],"type":"Point"},"properties":{"osm_id":"471174945","tag":{"amenity":"waste_basket"}},"type":"Feature"},
	{"geometry":{"coordinates":[6.165585,50.99127],"type":"Point"},"properties":{"osm_id":"471174947","tag":{"amenity":"recycling","recycling:glass":"yes"}},"type":"Feature"},
	{"geometry":{"coordinates":[6.171247,50.997969],"type":"Point"},"properties":{"osm_id":"471174978","tag":{"amenity":"waste_basket"}},"type":"Feature"},
	{"geometry":{"coordinates":[6.166448,50.989366],"type":"Point"},"properties":{"osm_id":"471174979","tag":{"amenity":"waste_basket"}},"type":"Feature"},
	{"geometry":{"coordinates":[6.166196,50.989077],"type":"Point"},"properties":{"osm_id":"471174982","tag":{"amenity":"waste_basket"}},"type":"Feature"},
	{"geometry":{"coordinates":[6.16605,50.98956],"type":"Point"},"properties":{"osm_id":"471174984","tag":{"amenity":"waste_basket"}},"type":"Feature"},
	{"geometry":{"coordinates":[6.166617,50.989385],"type":"Point"},"properties":{"osm_id":"471174986","tag":{"amenity":"waste_basket"}},"type":"Feature"},
	{"geometry":{"coordinates":[6.174747,50.99958],"type":"Point"},"properties":{"osm_id":"471174990","tag":{"amenity":"recycling","recycling:glass":"yes"}},"type":"Feature"},
	{"geometry":{"coordinates":[6.191275,50.99912],"type":"Point"},"properties":{"osm_id":"471175055","tag":{"amenity":"waste_basket"}},"type":"Feature"},
	{"geometry":{"coordinates":[6.214063,50.997176],"type":"Point"},"properties":{"highway":"bus_stop","name":"Linnicher Stra\u00c3\u009fe","osm_id":"471607834","tag":{"amenity":"waste_basket","network":"AVV","public_transport":"platform"}},"type":"Feature"},
	{"geometry":{"coordinates":[6.208631,50.998609],"type":"Point"},"properties":{"osm_id":"471607875","tag":{"amenity":"waste_basket"}},"type":"Feature"},
	{"geometry":{"coordinates":[6.207974,50.998589],"type":"Point"},"properties":{"osm_id":"471607876","tag":{"amenity":"waste_basket"}},"type":"Feature"},
	{"geometry":{"coordinates":[6.168933,50.987813],"type":"Point"},"properties":{"osm_id":"471607942","tag":{"amenity":"waste_basket"}},"type":"Feature"},
	{"geometry":{"coordinates":[6.16441,50.99298],"type":"Point"},"properties":{"osm_id":"509577696","tag":{"amenity":"waste_basket"}},"type":"Feature"},
	{"geometry":{"coordinates":[6.1714,50.994687],"type":"Point"},"properties":{"osm_id":"509583430","tag":{"amenity":"waste_basket"}},"type":"Feature"},
	{"geometry":{"coordinates":[6.189358,50.985203],"type":"Point"},"properties":{"osm_id":"613501345","tag":{"amenity":"waste_basket"}},"type":"Feature"},
	{"geometry":{"coordinates":[6.18462,50.991822],"type":"Point"},"properties":{"osm_id":"613501351","tag":{"amenity":"waste_basket"}},"type":"Feature"},
	{"geometry":{"coordinates":[6.186155,50.987621],"type":"Point"},"properties":{"osm_id":"613501368","tag":{"amenity":"waste_basket"}},"type":"Feature"},
	{"geometry":{"coordinates":[6.175904,51.007253],"type":"Point"},"properties":{"osm_id":"613501386","tag":{"amenity":"waste_basket"}},"type":"Feature"},
	{"geometry":{"coordinates":[6.170458,51.002398],"type":"Point"},"properties":{"osm_id":"692863736","tag":{"amenity":"waste_basket"}},"type":"Feature"},
	{"geometry":{"coordinates":[6.156595,50.984095],"type":"Point"},"properties":{"osm_id":"696929745","tag":{"amenity":"waste_basket"}},"type":"Feature"},
	{"geometry":{"coordinates":[6.167036,50.990236],"type":"Point"},"properties":{"osm_id":"696929767","tag":{"amenity":"waste_basket"}},"type":"Feature"},
	{"geometry":{"coordinates":[6.190483,50.985031],"type":"Point"},"properties":{"osm_id":"703358495","tag":{"amenity":"waste_basket"}},"type":"Feature"},
	{"geometry":{"coordinates":[6.205968,50.99665],"type":"Point"},"properties":{"osm_id":"1948130486","tag":{"amenity":"recycling","recycling:clothes":"yes","recycling_type":"container"}},"type":"Feature"},
	{"geometry":{"coordinates":[6.213782,50.996998],"type":"Point"},"properties":{"osm_id":"1948130506","tag":{"amenity":"recycling"}},"type":"Feature"},
	{"geometry":{"coordinates":[6.181536,50.993426],"type":"Point"},"properties":{"osm_id":"2357414099","tag":{"amenity":"recycling","recycling:glass":"yes"}},"type":"Feature"}
]
}
