{
"type": "FeatureCollection",
"features": [
	{"geometry":{"coordinates":[6.182506,50.909466],"type":"Point"},"properties":{"osm_id":"342928268","tag":{"amenity":"recycling","recycling:glass":"no","recycling:glass_bottles":"yes","recycling_type":"container"}},"type":"Feature"},
	{"geometry":{"coordinates":[6.199291,50.923525],"type":"Point"},"properties":{"osm_id":"392128780","tag":{"amenity":"recycling","recycling:glass_bottles":"yes","recycling_type":"container"}},"type":"Feature"},
	{"geometry":{"coordinates":[6.197946,50.919272],"type":"Point"},"properties":{"osm_id":"393761150","tag":{"amenity":"recycling","location":"overground","recycling:glass_bottles":"yes","recycling_type":"container"}},"type":"Feature"},
	{"geometry":{"coordinates":[6.20739,50.919729],"type":"Point"},"properties":{"osm_id":"395224217","tag":{"amenity":"recycling","recycling:glass_bottles":"yes","recycling_type":"container"}},"type":"Feature"},
	{"geometry":{"coordinates":[6.164343,50.948138],"type":"Point"},"properties":{"osm_id":"414928711","tag":{"amenity":"recycling","recycling:glass_bottles":"yes","recycling_type":"container"}},"type":"Feature"},
	{"geometry":{"coordinates":[6.161335,50.910751],"type":"Point"},"properties":{"osm_id":"416016097","tag":{"amenity":"waste_basket"}},"type":"Feature"},
	{"geometry":{"coordinates":[6.155104,50.910098],"type":"Point"},"properties":{"osm_id":"416016098","tag":{"amenity":"waste_basket"}},"type":"Feature"},
	{"geometry":{"coordinates":[6.155448,50.911018],"type":"Point"},"properties":{"osm_id":"416016105","tag":{"amenity":"waste_basket"}},"type":"Feature"},
	{"geometry":{"coordinates":[6.155682,50.90944],"type":"Point"},"properties":{"osm_id":"416016113","tag":{"amenity":"waste_basket"}},"type":"Feature"},
	{"geometry":{"coordinates":[6.160414,50.909537],"type":"Point"},"properties":{"osm_id":"416016115","tag":{"amenity":"waste_basket"}},"type":"Feature"},
	{"geometry":{"coordinates":[6.193524,50.927225],"type":"Point"},"properties":{"osm_id":"434780057","tag":{"amenity":"recycling"}},"type":"Feature"},
	{"geometry":{"coordinates":[6.186383,50.929732],"type":"Point"},"properties":{"osm_id":"435667470","tag":{"amenity":"recycling","recycling:glass_bottles":"yes"}},"type":"Feature"},
	{"geometry":{"coordinates":[6.210793,50.928134],"type":"Point"},"properties":{"osm_id":"441895356","tag":{"amenity":"recycling","recycling:clothes":"yes"}},"type":"Feature"},
	{"geometry":{"coordinates":[6.157359,50.910194],"type":"Point"},"properties":{"osm_id":"452903602","tag":{"amenity":"waste_basket"}},"type":"Feature"},
	{"geometry":{"coordinates":[6.211441,50.927054],"type":"Point"},"properties":{"osm_id":"462354715","tag":{"amenity":"recycling","recycling:clothes":"yes"}},"type":"Feature"},
	{"geometry":{"coordinates":[6.191939,50.952723],"type":"Point"},"properties":{"osm_id":"700821378","tag":{"amenity":"recycling","recycling:glass_bottles":"yes","recycling_type":"container"}},"type":"Feature"},
	{"geometry":{"coordinates":[6.215025,50.95144],"type":"Point"},"properties":{"osm_id":"700821447","tag":{"amenity":"waste_basket"}},"type":"Feature"},
	{"geometry":{"coordinates":[6.17954,50.905635],"type":"Point"},"properties":{"osm_id":"905450437","tag":{"amenity":"recycling","recycling:glass_bottles":"yes","recycling_type":"container"}},"type":"Feature"},
	{"geometry":{"coordinates":[6.188322,50.909132],"type":"Point"},"properties":{"osm_id":"2357833624","tag":{"amenity":"recycling","recycling:clothes":"yes","recycling_type":"container"}},"type":"Feature"},
	{"geometry":{"coordinates":[6.153198,50.91248],"type":"Point"},"properties":{"osm_id":"4915122316","tag":{"amenity":"waste_basket"}},"type":"Feature"},
	{"geometry":{"coordinates":[6.153792,50.905842],"type":"Point"},"properties":{"osm_id":"4915181210","tag":{"amenity":"waste_basket"}},"type":"Feature"},
	{"geometry":{"coordinates":[6.153635,50.912481],"type":"Point"},"properties":{"osm_id":"4926901592","tag":{"amenity":"waste_basket"}},"type":"Feature"},
	{"geometry":{"coordinates":[6.165465,50.909305],"type":"Point"},"properties":{"osm_id":"4926971613","tag":{"amenity":"waste_basket"}},"type":"Feature"},
	{"geometry":{"coordinates":[6.164788,50.91114],"type":"Point"},"properties":{"osm_id":"4926971617","tag":{"amenity":"waste_basket"}},"type":"Feature"},
	{"geometry":{"coordinates":[6.177543,50.91647],"type":"Point"},"properties":{"name":"Volker Heinen Entsorgungsfachbetrieb - Schrott & Metalle","osm_id":"5121604368","tag":{"amenity":"recycling","brand":"commercial","contact:email":"info@volkerheinen.de","contact:fax":"+49 2401 895 389","contact:phone":"+49 2401 810\u00ef\u00bb\u00bf2","contact:website":"https://www.volkerheinen.de","opening_hours":"Mo-Fr 08:00-18:00; Sa 08:00-13:00; Su,PH off","operator":"Volker Heinen","recycling:electrical_appliances":"yes","recycling:green_waste":"yes","recycling:hardcore":"yes","recycling:scrap_metal":"yes","recycling:small_appliances":"yes","recycling:wood":"yes","recycling_type":"centre"}},"type":"Feature"},
	{"geometry":{"coordinates":[6.175816,50.916962],"type":"Point"},"properties":{"name":"Krampen Recycling","osm_id":"5121604369","tag":{"amenity":"recycling","brand":"commercial","contact:email":"info@krampen-recycling.de","contact:fax":"+49 2401 895309","contact:phone":"+49 2401 4654","contact:website":"http://www.krampen-recycling.de/","opening_hours":"Mo-Fr 08:00-18:00; Sa 08:00-13:00; Su,PH off","operator":"Thomas Krampen","recycling:electrical_appliances":"yes","recycling:scrap_metal":"yes","recycling:small_appliances":"yes","recycling_type":"centre"}},"type":"Feature"},
	{"geometry":{"coordinates":[6.169067,50.908727],"type":"Point"},"properties":{"osm_id":"7682534505","tag":{"amenity":"recycling","recycling:clothes":"yes","recycling_type":"container"}},"type":"Feature"},
	{"geometry":{"coordinates":[6.202614,50.923331],"type":"Point"},"properties":{"osm_id":"7683057333","tag":{"amenity":"recycling","recycling:glass":"no","recycling:glass_bottles":"yes","recycling_type":"container"}},"type":"Feature"},
	{"geometry":{"coordinates":[6.174854,50.910324],"type":"Point"},"properties":{"osm_id":"7683084814","tag":{"amenity":"recycling","recycling:glass_bottles":"yes","recycling_type":"container"}},"type":"Feature"},
	{"geometry":{"coordinates":[6.174873,50.910309],"type":"Point"},"properties":{"osm_id":"7683084815","tag":{"amenity":"recycling","recycling:clothes":"yes","recycling_type":"container"}},"type":"Feature"},
	{"geometry":{"coordinates":[6.18253,50.910894],"type":"Point"},"properties":{"osm_id":"7683107443","tag":{"amenity":"waste_basket","colour":"zinc-grey","covered":"no","indoor":"no","material":"metal","waste":"trash"}},"type":"Feature"},
	{"geometry":{"coordinates":[6.182251,50.903976],"type":"Point"},"properties":{"osm_id":"7684717640","tag":{"amenity":"waste_basket","material":"metal","waste":"trash"}},"type":"Feature"},
	{"geometry":{"coordinates":[6.182067,50.903374],"type":"Point"},"properties":{"osm_id":"7684717643","tag":{"amenity":"waste_basket","material":"metal","waste":"trash"}},"type":"Feature"},
	{"geometry":{"coordinates":[6.179556,50.905605],"type":"Point"},"properties":{"osm_id":"7900209416","tag":{"amenity":"recycling","recycling:glass_bottles":"yes","recycling_type":"container"}},"type":"Feature"},
	{"geometry":{"coordinates":[6.179547,50.905624],"type":"Point"},"properties":{"osm_id":"7900209417","tag":{"amenity":"recycling","recycling:glass_bottles":"yes","recycling_type":"container"}},"type":"Feature"},
	{"geometry":{"coordinates":[6.179629,50.905534],"type":"Point"},"properties":{"osm_id":"7900209419","tag":{"amenity":"waste_basket","material":"metal","waste":"trash"}},"type":"Feature"},
	{"geometry":{"coordinates":[6.181029,50.90777],"type":"Point"},"properties":{"osm_id":"7900212036","tag":{"amenity":"waste_basket","material":"metal","waste":"trash"}},"type":"Feature"},
	{"geometry":{"coordinates":[6.202777,50.923339],"type":"Point"},"properties":{"osm_id":"7902428669","tag":{"amenity":"waste_basket","material":"metal","waste":"trash"}},"type":"Feature"},
	{"geometry":{"coordinates":[6.200253,50.924116],"type":"Point"},"properties":{"osm_id":"7902448259","tag":{"amenity":"waste_basket","waste":"trash"}},"type":"Feature"},
	{"geometry":{"coordinates":[6.200768,50.923259],"type":"Point"},"properties":{"osm_id":"7902448262","tag":{"amenity":"waste_basket","waste":"trash"}},"type":"Feature"},
	{"geometry":{"coordinates":[6.200066,50.922877],"type":"Point"},"properties":{"osm_id":"7902448263","tag":{"amenity":"waste_basket","waste":"trash"}},"type":"Feature"},
	{"geometry":{"coordinates":[6.201383,50.923419],"type":"Point"},"properties":{"osm_id":"7902465333","tag":{"amenity":"waste_basket","waste":"trash"}},"type":"Feature"}
]
}
