{
"type": "FeatureCollection",
"features": [
	{"geometry":{"coordinates":[6.227929,50.846589],"type":"Point"},"properties":{"osm_id":"246806408","tag":{"amenity":"recycling","recycling_type":"container"}},"type":"Feature"},
	{"geometry":{"coordinates":[6.225993,50.845755],"type":"Point"},"properties":{"osm_id":"246806409","tag":{"amenity":"recycling","recycling:glass":"yes","recycling_type":"container"}},"type":"Feature"},
	{"geometry":{"coordinates":[6.21235,50.835793],"type":"Point"},"properties":{"osm_id":"246849594","tag":{"amenity":"recycling","mapillary":"5RCN1QnN4mBf1reNPSXJEQ","recycling_type":"container","survey:date":"2018-05-12"}},"type":"Feature"},
	{"geometry":{"coordinates":[6.169402,50.82244],"type":"Point"},"properties":{"osm_id":"247096392","tag":{"amenity":"recycling"}},"type":"Feature"},
	{"geometry":{"coordinates":[6.166651,50.829361],"type":"Point"},"properties":{"osm_id":"324026834","tag":{"amenity":"recycling","recycling:glass":"yes"}},"type":"Feature"},
	{"geometry":{"coordinates":[6.223136,50.845046],"type":"Point"},"properties":{"osm_id":"379851403","tag":{"amenity":"recycling","recycling_type":"container"}},"type":"Feature"},
	{"geometry":{"coordinates":[6.238709,50.793166],"type":"Point"},"properties":{"osm_id":"405659507","tag":{"amenity":"recycling","recycling_type":"container"}},"type":"Feature"},
	{"geometry":{"coordinates":[6.236922,50.795601],"type":"Point"},"properties":{"osm_id":"408459732","tag":{"amenity":"recycling","recycling_type":"container"}},"type":"Feature"},
	{"geometry":{"coordinates":[6.154419,50.809771],"type":"Point"},"properties":{"osm_id":"418729224","tag":{"amenity":"recycling","recycling:glass":"yes","recycling_type":"container"}},"type":"Feature"},
	{"geometry":{"coordinates":[6.154482,50.80976],"type":"Point"},"properties":{"osm_id":"418729225","tag":{"amenity":"recycling","recycling:clothes":"yes","recycling_type":"container"}},"type":"Feature"},
	{"geometry":{"coordinates":[6.23881,50.822969],"type":"Point"},"properties":{"osm_id":"420037228","tag":{"amenity":"recycling","recycling:cans":"no","recycling:glass":"yes","recycling:glass_bottles":"yes","recycling:paper":"no","recycling:plastic":"no","recycling_type":"container"}},"type":"Feature"},
	{"geometry":{"coordinates":[6.238903,50.822859],"type":"Point"},"properties":{"osm_id":"420674335","tag":{"amenity":"recycling","recycling:cans":"no","recycling:clothes":"yes","recycling:glass":"no","recycling:glass_bottles":"no","recycling:paper":"no","recycling:plastic":"no","recycling_type":"container"}},"type":"Feature"},
	{"geometry":{"coordinates":[6.239448,50.817475],"type":"Point"},"properties":{"osm_id":"428056519","tag":{"amenity":"recycling","recycling:clothes":"yes"}},"type":"Feature"},
	{"geometry":{"coordinates":[6.168019,50.798278],"type":"Point"},"properties":{"osm_id":"534953278","tag":{"amenity":"waste_basket"}},"type":"Feature"},
	{"geometry":{"coordinates":[6.157191,50.813604],"type":"Point"},"properties":{"osm_id":"632310624","tag":{"amenity":"recycling","recycling:glass":"yes"}},"type":"Feature"},
	{"geometry":{"coordinates":[6.170972,50.826657],"type":"Point"},"properties":{"osm_id":"632310639","tag":{"amenity":"recycling","recycling:glass_bottles":"yes","recycling_type":"container"}},"type":"Feature"},
	{"geometry":{"coordinates":[6.182597,50.838892],"type":"Point"},"properties":{"osm_id":"645530554","tag":{"amenity":"recycling","recycling:glass":"yes","recycling_type":"container"}},"type":"Feature"},
	{"geometry":{"coordinates":[6.2342,50.82119],"type":"Point"},"properties":{"osm_id":"727699429","tag":{"amenity":"recycling","recycling:clothes":"yes","recycling_type":"container"}},"type":"Feature"},
	{"geometry":{"coordinates":[6.22126,50.816936],"type":"Point"},"properties":{"osm_id":"732649128","tag":{"amenity":"waste_basket"}},"type":"Feature"},
	{"geometry":{"coordinates":[6.223004,50.81973],"type":"Point"},"properties":{"osm_id":"732649140","tag":{"amenity":"waste_basket"}},"type":"Feature"},
	{"geometry":{"coordinates":[6.225318,50.818553],"type":"Point"},"properties":{"osm_id":"732649150","tag":{"amenity":"waste_basket"}},"type":"Feature"},
	{"geometry":{"coordinates":[6.23934,50.807491],"type":"Point"},"properties":{"osm_id":"748346303","tag":{"amenity":"recycling","recycling:clothes":"yes","recycling_type":"container"}},"type":"Feature"},
	{"geometry":{"coordinates":[6.240102,50.798559],"type":"Point"},"properties":{"osm_id":"775342692","tag":{"amenity":"recycling","recycling:clothes":"yes","recycling:glass":"yes","recycling_type":"container"}},"type":"Feature"},
	{"geometry":{"coordinates":[6.155212,50.797437],"type":"Point"},"properties":{"osm_id":"1224619728","tag":{"amenity":"recycling","recycling:glass_bottles":"yes","recycling_type":"container"}},"type":"Feature"},
	{"geometry":{"coordinates":[6.1549,50.797414],"type":"Point"},"properties":{"osm_id":"1224619735","tag":{"amenity":"recycling","recycling:clothes":"yes","recycling_type":"container"}},"type":"Feature"},
	{"geometry":{"coordinates":[6.207533,50.838881],"type":"Point"},"properties":{"osm_id":"1352477116","tag":{"amenity":"recycling"}},"type":"Feature"},
	{"geometry":{"coordinates":[6.16001,50.813289],"type":"Point"},"properties":{"name":"DRK Kleidercontainer","osm_id":"2357766936","tag":{"amenity":"recycling","recycling:clothes":"yes","recycling_type":"container"}},"type":"Feature"},
	{"geometry":{"coordinates":[6.239321,50.827794],"type":"Point"},"properties":{"osm_id":"4133242663","tag":{"amenity":"waste_basket"}},"type":"Feature"},
	{"geometry":{"coordinates":[6.217863,50.794548],"type":"Point"},"properties":{"osm_id":"4178159327","tag":{"amenity":"waste_basket","mapillary":"IXYncRlFPoQXite96_U8CA"}},"type":"Feature"},
	{"geometry":{"coordinates":[6.218811,50.794249],"type":"Point"},"properties":{"osm_id":"4271733780","tag":{"amenity":"waste_basket"}},"type":"Feature"},
	{"geometry":{"coordinates":[6.201951,50.835145],"type":"Point"},"properties":{"osm_id":"4830214796","tag":{"amenity":"waste_basket","level":"0"}},"type":"Feature"},
	{"geometry":{"coordinates":[6.201582,50.83478],"type":"Point"},"properties":{"osm_id":"4830214797","tag":{"amenity":"waste_basket","level":"0"}},"type":"Feature"},
	{"geometry":{"coordinates":[6.155418,50.796524],"type":"Point"},"properties":{"osm_id":"4905885072","tag":{"amenity":"waste_basket"}},"type":"Feature"},
	{"geometry":{"coordinates":[6.155354,50.796487],"type":"Point"},"properties":{"osm_id":"4905885073","tag":{"amenity":"waste_basket"}},"type":"Feature"},
	{"geometry":{"coordinates":[6.218671,50.794354],"type":"Point"},"properties":{"osm_id":"6295241645","tag":{"amenity":"waste_basket"}},"type":"Feature"},
	{"geometry":{"coordinates":[6.218364,50.794147],"type":"Point"},"properties":{"osm_id":"6320991268","tag":{"amenity":"waste_basket"}},"type":"Feature"}
]
}
