{
"type": "FeatureCollection",
"lastupdate": "2020-07-31T00:00:00Z",
"features": [
	{"geometry":{"coordinates":[6.184316,50.698806],"type":"Point"},"properties":{"osm_id":"343412312","tag":{"amenity":"recycling","recycling:glass_bottles":"yes","recycling_type":"container"}},"type":"Feature"},
	{"geometry":{"coordinates":[6.219213,50.733337],"type":"Point"},"properties":{"osm_id":"475579611","tag":{"amenity":"recycling","recycling:clothes":"yes","recycling_type":"container"}},"type":"Feature"},
	{"geometry":{"coordinates":[6.22183,50.698429],"type":"Point"},"properties":{"osm_id":"525400501","tag":{"amenity":"recycling","recycling:clothes":"yes","recycling:glass":"yes"}},"type":"Feature"},
	{"geometry":{"coordinates":[6.222606,50.729073],"type":"Point"},"properties":{"osm_id":"525400508","tag":{"amenity":"waste_basket"}},"type":"Feature"},
	{"geometry":{"coordinates":[6.215098,50.72821],"type":"Point"},"properties":{"osm_id":"697320164","tag":{"amenity":"recycling","recycling:glass_bottles":"yes","recycling_type":"container"}},"type":"Feature"},
	{"geometry":{"coordinates":[6.164291,50.690818],"type":"Point"},"properties":{"osm_id":"715699482","tag":{"amenity":"recycling","recycling:clothes":"yes"}},"type":"Feature"},
	{"geometry":{"coordinates":[6.164225,50.695438],"type":"Point"},"properties":{"osm_id":"715699497","tag":{"amenity":"recycling","recycling:glass_bottles":"yes","recycling_type":"container"}},"type":"Feature"},
	{"geometry":{"coordinates":[6.22525,50.733305],"type":"Point"},"properties":{"osm_id":"805788359","tag":{"amenity":"recycling","recycling:clothes":"yes","recycling:glass_bottles":"yes","recycling_type":"container"}},"type":"Feature"},
	{"geometry":{"coordinates":[6.2091,50.729453],"type":"Point"},"properties":{"osm_id":"811798488","tag":{"amenity":"recycling","recycling:clothes":"yes"}},"type":"Feature"},
	{"geometry":{"coordinates":[6.210402,50.683578],"type":"Point"},"properties":{"osm_id":"997974188","tag":{"amenity":"recycling","recycling:cans":"no","recycling:clothes":"no","recycling:glass":"yes","recycling:glass_bottles":"yes","recycling:paper":"no","recycling_type":"container"}},"type":"Feature"},
	{"geometry":{"coordinates":[6.217345,50.684212],"type":"Point"},"properties":{"name":"Schadstoffmobil","osm_id":"997975290","tag":{"amenity":"recycling"}},"type":"Feature"},
	{"geometry":{"coordinates":[6.213654,50.713083],"type":"Point"},"properties":{"osm_id":"1271451259","tag":{"amenity":"recycling","recycling:glass_bottles":"yes","recycling_type":"container"}},"type":"Feature"},
	{"geometry":{"coordinates":[6.182263,50.704805],"type":"Point"},"properties":{"osm_id":"1443614982","tag":{"amenity":"recycling","recycling:glass_bottles":"yes","recycling_type":"container"}},"type":"Feature"},
	{"geometry":{"coordinates":[6.185474,50.711729],"type":"Point"},"properties":{"osm_id":"1443670655","tag":{"amenity":"recycling","recycling:glass_bottles":"yes","recycling_type":"container"}},"type":"Feature"},
	{"geometry":{"coordinates":[6.176286,50.710052],"type":"Point"},"properties":{"osm_id":"1445398440","tag":{"amenity":"recycling","recycling:glass_bottles":"yes","recycling_type":"container"}},"type":"Feature"},
	{"geometry":{"coordinates":[6.177548,50.703351],"type":"Point"},"properties":{"osm_id":"2552788600","tag":{"amenity":"waste_basket"}},"type":"Feature"},
	{"geometry":{"coordinates":[6.178143,50.703606],"type":"Point"},"properties":{"osm_id":"2552788603","tag":{"amenity":"waste_basket"}},"type":"Feature"},
	{"geometry":{"coordinates":[6.178999,50.704238],"type":"Point"},"properties":{"osm_id":"2552788604","tag":{"amenity":"waste_basket"}},"type":"Feature"},
	{"geometry":{"coordinates":[6.180452,50.727499],"type":"Point"},"properties":{"osm_id":"2552788611","tag":{"amenity":"waste_basket"}},"type":"Feature"},
	{"geometry":{"coordinates":[6.174799,50.731068],"type":"Point"},"properties":{"osm_id":"2552788614","tag":{"amenity":"waste_basket"}},"type":"Feature"},
	{"geometry":{"coordinates":[6.172768,50.732714],"type":"Point"},"properties":{"osm_id":"2552788615","tag":{"amenity":"waste_basket"}},"type":"Feature"},
	{"geometry":{"coordinates":[6.179525,50.725959],"type":"Point"},"properties":{"osm_id":"5718557492","tag":{"amenity":"recycling","recycling:clothes":"yes","recycling:glass_bottles":"yes","recycling_type":"container"}},"type":"Feature"},
	{"geometry":{"coordinates":[6.155755,50.731592],"type":"Point"},"properties":{"osm_id":"6419508128","tag":{"amenity":"waste_basket"}},"type":"Feature"},
	{"geometry":{"coordinates":[6.171041,50.687605],"type":"Point"},"properties":{"osm_id":"6817931197","tag":{"amenity":"waste_basket"}},"type":"Feature"},
	{"geometry":{"coordinates":[6.214614,50.681605],"type":"Point"},"properties":{"osm_id":"6913268596","tag":{"amenity":"recycling","recycling:clothes":"yes","recycling_type":"container"}},"type":"Feature"}
]
}
