{
"type": "FeatureCollection",
"features": [
	{"geometry":{"coordinates":[6.200605,50.645776],"type":"Point"},"properties":{"osm_id":"942627493","tag":{"amenity":"recycling","recycling:clothes":"yes","recycling:glass_bottles":"yes","recycling:shoes":"yes","recycling_type":"container"}},"type":"Feature"},
	{"geometry":{"coordinates":[6.198793,50.650041],"type":"Point"},"properties":{"osm_id":"942627496","tag":{"amenity":"recycling","recycling:clothes":"yes","recycling_type":"container"}},"type":"Feature"},
	{"geometry":{"coordinates":[6.191407,50.648387],"type":"Point"},"properties":{"osm_id":"980544765","tag":{"amenity":"recycling","recycling:glass_bottles":"yes","recycling_type":"container"}},"type":"Feature"},
	{"geometry":{"coordinates":[6.212136,50.654116],"type":"Point"},"properties":{"osm_id":"3077175013","tag":{"amenity":"recycling","recycling:clothes":"yes","recycling:glass":"yes","recycling_type":"container"}},"type":"Feature"},
	{"geometry":{"coordinates":[6.209166,50.676904],"type":"Point"},"properties":{"osm_id":"3944887916","tag":{"amenity":"waste_basket"}},"type":"Feature"},
	{"geometry":{"coordinates":[6.186078,50.626975],"type":"Point"},"properties":{"osm_id":"4011748099","tag":{"amenity":"waste_basket"}},"type":"Feature"},
	{"geometry":{"coordinates":[6.188425,50.652738],"type":"Point"},"properties":{"osm_id":"4502744152","tag":{"amenity":"waste_basket"}},"type":"Feature"},
	{"geometry":{"coordinates":[6.218932,50.64383],"type":"Point"},"properties":{"osm_id":"6441233503","tag":{"amenity":"waste_basket","waste":"trash"}},"type":"Feature"},
	{"geometry":{"coordinates":[6.187636,50.637978],"type":"Point"},"properties":{"osm_id":"6753090786","tag":{"amenity":"recycling","recycling:clothes":"yes","recycling:glass_bottles":"yes","recycling:shoes":"yes","recycling_type":"container"}},"type":"Feature"},
	{"geometry":{"coordinates":[6.187542,50.644074],"type":"Point"},"properties":{"osm_id":"6755729777","tag":{"amenity":"recycling","recycling:clothes":"yes","recycling_type":"container"}},"type":"Feature"},
	{"geometry":{"coordinates":[6.197999,50.638837],"type":"Point"},"properties":{"osm_id":"6779583846","tag":{"amenity":"recycling","recycling:clothes":"yes","recycling_type":"container"}},"type":"Feature"},
	{"geometry":{"coordinates":[6.181132,50.649469],"type":"Point"},"properties":{"osm_id":"6786152860","tag":{"amenity":"recycling","recycling:clothes":"yes","recycling:glass_bottles":"yes","recycling_type":"container"}},"type":"Feature"},
	{"geometry":{"coordinates":[6.183899,50.647322],"type":"Point"},"properties":{"osm_id":"6791436232","tag":{"amenity":"waste_basket","waste":"trash"}},"type":"Feature"},
	{"geometry":{"coordinates":[6.194381,50.647801],"type":"Point"},"properties":{"osm_id":"6799800490","tag":{"amenity":"recycling","recycling:batteries":"yes","recycling:clothes":"yes","recycling:glass_bottles":"yes","recycling:shoes":"yes","recycling_type":"container"}},"type":"Feature"},
	{"geometry":{"coordinates":[6.195741,50.647507],"type":"Point"},"properties":{"osm_id":"6799800491","tag":{"amenity":"waste_basket"}},"type":"Feature"},
	{"geometry":{"coordinates":[6.195495,50.647683],"type":"Point"},"properties":{"osm_id":"6799800494","tag":{"amenity":"waste_basket"}},"type":"Feature"},
	{"geometry":{"coordinates":[6.195004,50.647815],"type":"Point"},"properties":{"osm_id":"6799800497","tag":{"amenity":"waste_basket"}},"type":"Feature"},
	{"geometry":{"coordinates":[6.1959,50.647742],"type":"Point"},"properties":{"osm_id":"6799800498","tag":{"amenity":"waste_basket"}},"type":"Feature"},
	{"geometry":{"coordinates":[6.214171,50.640805],"type":"Point"},"properties":{"osm_id":"6914581280","tag":{"amenity":"recycling","recycling:glass_bottles":"yes"}},"type":"Feature"},
	{"geometry":{"coordinates":[6.189237,50.642927],"type":"Point"},"properties":{"osm_id":"7211048020","tag":{"amenity":"recycling","recycling:clothes":"yes","recycling_type":"container"}},"type":"Feature"},
	{"geometry":{"coordinates":[6.156566,50.658582],"type":"Point"},"properties":{"osm_id":"7221193774","tag":{"amenity":"waste_basket"}},"type":"Feature"},
	{"geometry":{"coordinates":[6.201246,50.63715],"type":"Point"},"properties":{"osm_id":"7276204659","tag":{"amenity":"recycling","recycling:glass_bottles":"yes","recycling_type":"container"}},"type":"Feature"},
	{"geometry":{"coordinates":[6.201146,50.636744],"type":"Point"},"properties":{"osm_id":"7276204662","tag":{"amenity":"waste_basket"}},"type":"Feature"},
	{"geometry":{"coordinates":[6.177516,50.643426],"type":"Point"},"properties":{"osm_id":"7315069272","tag":{"amenity":"recycling","recycling:glass_bottles":"yes","recycling_type":"container"}},"type":"Feature"},
	{"geometry":{"coordinates":[6.188957,50.639795],"type":"Point"},"properties":{"osm_id":"7601717531","tag":{"amenity":"waste_basket"}},"type":"Feature"},
	{"geometry":{"coordinates":[6.184054,50.647043],"type":"Point"},"properties":{"osm_id":"7817420068","tag":{"amenity":"waste_basket","waste":"trash"}},"type":"Feature"},
	{"geometry":{"coordinates":[6.215331,50.643857],"type":"Point"},"properties":{"osm_id":"7907669005","tag":{"amenity":"waste_basket"}},"type":"Feature"},
	{"geometry":{"coordinates":[6.216151,50.643251],"type":"Point"},"properties":{"osm_id":"7907669006","tag":{"amenity":"recycling","recycling:clothes":"yes","recycling:glass_bottles":"yes","recycling_type":"container"}},"type":"Feature"},
	{"geometry":{"coordinates":[6.194426,50.645228],"type":"Point"},"properties":{"osm_id":"7911897568","tag":{"amenity":"waste_basket"}},"type":"Feature"},
	{"geometry":{"coordinates":[6.191272,50.64508],"type":"Point"},"properties":{"osm_id":"7911897570","tag":{"amenity":"waste_basket"}},"type":"Feature"},
	{"geometry":{"coordinates":[6.19644,50.648684],"type":"Point"},"properties":{"osm_id":"7911897571","tag":{"amenity":"waste_basket"}},"type":"Feature"},
	{"geometry":{"coordinates":[6.191757,50.643335],"type":"Point"},"properties":{"osm_id":"7913800353","tag":{"amenity":"waste_basket"}},"type":"Feature"},
	{"geometry":{"coordinates":[6.20014,50.639943],"type":"Point"},"properties":{"osm_id":"7919705187","tag":{"amenity":"waste_basket"}},"type":"Feature"}
]
}
