{
"type": "FeatureCollection",
"features": [
	{"geometry":{"coordinates":[6.228038,49.160313],"type":"Point"},"properties":{"osm_id":"548757598","tag":{"amenity":"recycling","location":"underground","recycling:glass":"yes","recycling:paper":"yes","recycling_type":"container"}},"type":"Feature"},
	{"geometry":{"coordinates":[6.155933,49.205119],"type":"Point"},"properties":{"name":"D\u00c3\u00a9ch\u00c3\u00a8terie","osm_id":"698639752","tag":{"amenity":"recycling","recycling_type":"centre"}},"type":"Feature"},
	{"geometry":{"coordinates":[6.167684,49.158903],"type":"Point"},"properties":{"name":"Centre de Recyclage de Mat\u00c3\u00a9riaux Inertes","osm_id":"3496217667","tag":{"amenity":"recycling","operator":"Jean Lev\u00c3\u00a8bvre","recycling:waste":"yes","recycling_type":"centre"}},"type":"Feature"},
	{"geometry":{"coordinates":[6.213942,49.205892],"type":"Point"},"properties":{"osm_id":"4319158973","tag":{"amenity":"waste_basket"}},"type":"Feature"},
	{"geometry":{"coordinates":[6.212518,49.206103],"type":"Point"},"properties":{"osm_id":"4319158983","tag":{"amenity":"waste_basket"}},"type":"Feature"},
	{"geometry":{"coordinates":[6.15287,49.156002],"type":"Point"},"properties":{"osm_id":"4533001434","tag":{"amenity":"recycling","recycling:glass_bottles":"yes","recycling_type":"container"}},"type":"Feature"},
	{"geometry":{"coordinates":[6.200112,49.188644],"type":"Point"},"properties":{"osm_id":"6759237319","tag":{"amenity":"recycling","recycling:clothes":"yes","recycling_type":"container"}},"type":"Feature"}
]
}
