{
"type": "FeatureCollection",
"features": [
	{"geometry":{"coordinates":[6.169168,48.587738],"type":"Point"},"properties":{"osm_id":"2267261838","tag":{"amenity":"recycling","recycling:glass_bottles":"yes","recycling_type":"container"}},"type":"Feature"},
	{"geometry":{"coordinates":[6.169209,48.587759],"type":"Point"},"properties":{"osm_id":"2267261839","tag":{"amenity":"recycling","recycling:paper":"yes","recycling_type":"container"}},"type":"Feature"},
	{"geometry":{"coordinates":[6.201562,48.620231],"type":"Point"},"properties":{"osm_id":"2516684952","tag":{"amenity":"recycling","recycling:glass_bottles":"yes","recycling_type":"container"}},"type":"Feature"},
	{"geometry":{"coordinates":[6.201589,48.620273],"type":"Point"},"properties":{"osm_id":"2516684953","tag":{"amenity":"recycling","recycling:paper":"yes","recycling_type":"container"}},"type":"Feature"},
	{"geometry":{"coordinates":[6.207169,48.628821],"type":"Point"},"properties":{"osm_id":"2516685149","tag":{"amenity":"recycling","recycling:clothes":"yes","recycling_type":"container"}},"type":"Feature"},
	{"geometry":{"coordinates":[6.207184,48.628845],"type":"Point"},"properties":{"osm_id":"2516685150","tag":{"amenity":"recycling","recycling:paper":"yes","recycling_type":"container"}},"type":"Feature"},
	{"geometry":{"coordinates":[6.207201,48.62886],"type":"Point"},"properties":{"osm_id":"2516685151","tag":{"amenity":"recycling","recycling:glass_bottles":"yes","recycling_type":"container"}},"type":"Feature"},
	{"geometry":{"coordinates":[6.203227,48.614718],"type":"Point"},"properties":{"osm_id":"2516751376","tag":{"amenity":"recycling","recycling:glass_bottles":"yes","recycling_type":"container"}},"type":"Feature"},
	{"geometry":{"coordinates":[6.203205,48.614725],"type":"Point"},"properties":{"osm_id":"2516751377","tag":{"amenity":"recycling","recycling:paper":"yes","recycling_type":"container"}},"type":"Feature"},
	{"geometry":{"coordinates":[6.169269,48.593308],"type":"Point"},"properties":{"osm_id":"2721339823","tag":{"amenity":"recycling","recycling:clothes":"yes","recycling_type":"container"}},"type":"Feature"},
	{"geometry":{"coordinates":[6.171654,48.622348],"type":"Point"},"properties":{"osm_id":"2892487596","tag":{"amenity":"recycling","recycling:paper":"yes","recycling_type":"container"}},"type":"Feature"},
	{"geometry":{"coordinates":[6.171681,48.622357],"type":"Point"},"properties":{"osm_id":"2892487597","tag":{"amenity":"recycling","recycling:glass_bottles":"yes","recycling_type":"container"}},"type":"Feature"},
	{"geometry":{"coordinates":[6.174243,48.61023],"type":"Point"},"properties":{"osm_id":"3092304091","tag":{"entrance":"yes"}},"type":"Feature"},
	{"geometry":{"coordinates":[6.173957,48.618661],"type":"Point"},"properties":{"osm_id":"3238598069","tag":{"amenity":"recycling","recycling:paper":"yes","recycling_type":"container"}},"type":"Feature"},
	{"geometry":{"coordinates":[6.173964,48.618674],"type":"Point"},"properties":{"osm_id":"3238598070","tag":{"amenity":"recycling","recycling:paper":"yes","recycling_type":"container"}},"type":"Feature"},
	{"geometry":{"coordinates":[6.169122,48.60011],"type":"Point"},"properties":{"osm_id":"3990026586","tag":{"amenity":"recycling","recycling_type":"container"}},"type":"Feature"},
	{"geometry":{"coordinates":[6.180647,48.624362],"type":"Point"},"properties":{"osm_id":"4526573963","tag":{"amenity":"recycling","recycling:paper":"yes","recycling_type":"container"}},"type":"Feature"},
	{"geometry":{"coordinates":[6.180667,48.624372],"type":"Point"},"properties":{"osm_id":"4526573964","tag":{"amenity":"recycling","recycling:paper":"yes","recycling_type":"container"}},"type":"Feature"},
	{"geometry":{"coordinates":[6.177306,48.619199],"type":"Point"},"properties":{"osm_id":"4526606566","tag":{"amenity":"waste_basket"}},"type":"Feature"},
	{"geometry":{"coordinates":[6.163527,48.616676],"type":"Point"},"properties":{"osm_id":"4526731176","tag":{"amenity":"recycling","recycling:clothes":"yes","recycling:shoes":"yes","recycling_type":"container"}},"type":"Feature"},
	{"geometry":{"coordinates":[6.160196,48.616981],"type":"Point"},"properties":{"osm_id":"4527009126","tag":{"amenity":"recycling","recycling:paper":"yes","recycling_type":"container"}},"type":"Feature"},
	{"geometry":{"coordinates":[6.160183,48.616993],"type":"Point"},"properties":{"osm_id":"4527009127","tag":{"amenity":"recycling","recycling:paper":"yes","recycling_type":"container"}},"type":"Feature"},
	{"geometry":{"coordinates":[6.160155,48.616979],"type":"Point"},"properties":{"osm_id":"4527009128","tag":{"amenity":"recycling","recycling:glass_bottles":"yes","recycling_type":"container"}},"type":"Feature"},
	{"geometry":{"coordinates":[6.160169,48.616967],"type":"Point"},"properties":{"osm_id":"4527009129","tag":{"amenity":"recycling","recycling:glass_bottles":"yes","recycling_type":"container"}},"type":"Feature"},
	{"geometry":{"coordinates":[6.163099,48.617993],"type":"Point"},"properties":{"osm_id":"4527009142","tag":{"amenity":"recycling","recycling:clothes":"yes","recycling:shoes":"yes","recycling_type":"container"}},"type":"Feature"},
	{"geometry":{"coordinates":[6.16311,48.618006],"type":"Point"},"properties":{"osm_id":"4527009143","tag":{"amenity":"recycling","recycling:clothes":"yes","recycling:shoes":"yes","recycling_type":"container"}},"type":"Feature"},
	{"geometry":{"coordinates":[6.165107,48.618137],"type":"Point"},"properties":{"osm_id":"4527009151","tag":{"amenity":"waste_basket"}},"type":"Feature"},
	{"geometry":{"coordinates":[6.164974,48.61794],"type":"Point"},"properties":{"osm_id":"4527009152","tag":{"amenity":"recycling","recycling:glass_bottles":"yes","recycling_type":"container"}},"type":"Feature"},
	{"geometry":{"coordinates":[6.164981,48.617956],"type":"Point"},"properties":{"osm_id":"4527009153","tag":{"amenity":"recycling","recycling:glass_bottles":"yes","recycling_type":"container"}},"type":"Feature"},
	{"geometry":{"coordinates":[6.16499,48.617973],"type":"Point"},"properties":{"osm_id":"4527009154","tag":{"amenity":"recycling","recycling:paper":"yes","recycling_type":"container"}},"type":"Feature"},
	{"geometry":{"coordinates":[6.165,48.617987],"type":"Point"},"properties":{"osm_id":"4527009155","tag":{"amenity":"recycling","recycling:paper":"yes","recycling_type":"container"}},"type":"Feature"},
	{"geometry":{"coordinates":[6.212311,48.628405],"type":"Point"},"properties":{"osm_id":"4808214328","tag":{"amenity":"recycling","recycling:glass_bottles":"yes","recycling_type":"container"}},"type":"Feature"},
	{"geometry":{"coordinates":[6.212321,48.628431],"type":"Point"},"properties":{"osm_id":"4808214329","tag":{"amenity":"recycling","recycling:paper":"yes","recycling_type":"container"}},"type":"Feature"},
	{"geometry":{"coordinates":[6.21021,48.626248],"type":"Point"},"properties":{"osm_id":"4808274733","tag":{"amenity":"waste_basket"}},"type":"Feature"},
	{"geometry":{"coordinates":[6.207585,48.624115],"type":"Point"},"properties":{"osm_id":"4808315393","tag":{"amenity":"waste_basket"}},"type":"Feature"},
	{"geometry":{"coordinates":[6.197009,48.62185],"type":"Point"},"properties":{"osm_id":"4808428008","tag":{"amenity":"recycling","recycling:clothes":"yes","recycling:shoes":"yes","recycling_type":"container"}},"type":"Feature"},
	{"geometry":{"coordinates":[6.197152,48.621821],"type":"Point"},"properties":{"osm_id":"4808428010","tag":{"amenity":"recycling","recycling:paper":"yes","recycling_type":"container"}},"type":"Feature"},
	{"geometry":{"coordinates":[6.197182,48.621833],"type":"Point"},"properties":{"osm_id":"4808428011","tag":{"amenity":"recycling","recycling:glass_bottles":"yes","recycling_type":"container"}},"type":"Feature"},
	{"geometry":{"coordinates":[6.168748,48.610618],"type":"Point"},"properties":{"osm_id":"4909563853","tag":{"amenity":"recycling","recycling:glass_bottles":"yes","recycling_type":"container"}},"type":"Feature"},
	{"geometry":{"coordinates":[6.168718,48.610613],"type":"Point"},"properties":{"osm_id":"4909563854","tag":{"amenity":"recycling","recycling:paper":"yes","recycling_type":"container"}},"type":"Feature"},
	{"geometry":{"coordinates":[6.161467,48.623248],"type":"Point"},"properties":{"osm_id":"4915521584","tag":{"amenity":"recycling","recycling:glass_bottles":"yes","recycling_type":"container"}},"type":"Feature"},
	{"geometry":{"coordinates":[6.161454,48.623232],"type":"Point"},"properties":{"osm_id":"4915521585","tag":{"amenity":"recycling","recycling:paper":"yes","recycling_type":"container"}},"type":"Feature"},
	{"geometry":{"coordinates":[6.155762,48.631999],"type":"Point"},"properties":{"osm_id":"4915588228","tag":{"amenity":"waste_basket"}},"type":"Feature"},
	{"geometry":{"coordinates":[6.154534,48.62988],"type":"Point"},"properties":{"osm_id":"4915588237","tag":{"amenity":"recycling","recycling:paper":"yes","recycling_type":"container"}},"type":"Feature"},
	{"geometry":{"coordinates":[6.154564,48.629891],"type":"Point"},"properties":{"osm_id":"4915588238","tag":{"amenity":"recycling","recycling:glass_bottles":"yes","recycling_type":"container"}},"type":"Feature"},
	{"geometry":{"coordinates":[6.155859,48.630237],"type":"Point"},"properties":{"osm_id":"4915588240","tag":{"amenity":"waste_basket"}},"type":"Feature"},
	{"geometry":{"coordinates":[6.204778,48.614195],"type":"Point"},"properties":{"osm_id":"5033043776","tag":{"amenity":"waste_basket"}},"type":"Feature"},
	{"geometry":{"coordinates":[6.192252,48.61315],"type":"Point"},"properties":{"osm_id":"5033091103","tag":{"amenity":"recycling","recycling:glass_bottles":"yes","recycling_type":"container"}},"type":"Feature"},
	{"geometry":{"coordinates":[6.192281,48.613163],"type":"Point"},"properties":{"osm_id":"5033091104","tag":{"amenity":"recycling","recycling:paper":"yes","recycling_type":"container"}},"type":"Feature"},
	{"geometry":{"coordinates":[6.165669,48.619293],"type":"Point"},"properties":{"osm_id":"5037013001","tag":{"amenity":"waste_basket"}},"type":"Feature"},
	{"geometry":{"coordinates":[6.217699,48.628715],"type":"Point"},"properties":{"osm_id":"5588206422","tag":{"amenity":"waste_basket"}},"type":"Feature"},
	{"geometry":{"coordinates":[6.204233,48.619299],"type":"Point"},"properties":{"osm_id":"5600623825","tag":{"amenity":"waste_basket"}},"type":"Feature"},
	{"geometry":{"coordinates":[6.20877,48.620986],"type":"Point"},"properties":{"osm_id":"5600623874","tag":{"amenity":"waste_basket"}},"type":"Feature"},
	{"geometry":{"coordinates":[6.217021,48.624422],"type":"Point"},"properties":{"osm_id":"5600623876","tag":{"amenity":"waste_basket"}},"type":"Feature"},
	{"geometry":{"coordinates":[6.156516,48.601869],"type":"Point"},"properties":{"osm_id":"5604182102","tag":{"amenity":"waste_basket"}},"type":"Feature"},
	{"geometry":{"coordinates":[6.175923,48.616539],"type":"Point"},"properties":{"osm_id":"5645912423","tag":{"amenity":"recycling","recycling:glass_bottles":"yes","recycling_type":"container"}},"type":"Feature"},
	{"geometry":{"coordinates":[6.175919,48.616559],"type":"Point"},"properties":{"osm_id":"5645912424","tag":{"amenity":"recycling","recycling:glass_bottles":"yes","recycling_type":"container"}},"type":"Feature"},
	{"geometry":{"coordinates":[6.175914,48.616585],"type":"Point"},"properties":{"osm_id":"5645912425","tag":{"amenity":"recycling","recycling:paper":"yes","recycling_type":"container"}},"type":"Feature"},
	{"geometry":{"coordinates":[6.175911,48.616604],"type":"Point"},"properties":{"osm_id":"5645912426","tag":{"amenity":"recycling","recycling:paper":"yes","recycling_type":"container"}},"type":"Feature"}
]
}
