{
"type": "FeatureCollection",
"features": [
	{"geometry":{"coordinates":[6.220456,46.453451],"type":"Point"},"properties":{"osm_id":"495552440","tag":{"amenity":"recycling","recycling:cans":"yes","recycling:glass":"yes","recycling:paper":"yes"}},"type":"Feature"},
	{"geometry":{"coordinates":[6.210543,46.439444],"type":"Point"},"properties":{"osm_id":"683093773","tag":{"amenity":"recycling"}},"type":"Feature"},
	{"geometry":{"coordinates":[6.156966,46.445473],"type":"Point"},"properties":{"osm_id":"1783503849","tag":{"amenity":"waste_basket"}},"type":"Feature"},
	{"geometry":{"coordinates":[6.168972,46.451317],"type":"Point"},"properties":{"osm_id":"1783530890","tag":{"amenity":"waste_basket"}},"type":"Feature"},
	{"geometry":{"coordinates":[6.229452,46.465695],"type":"Point"},"properties":{"osm_id":"3251160858","tag":{"amenity":"waste_disposal"}},"type":"Feature"},
	{"geometry":{"coordinates":[6.229411,46.465819],"type":"Point"},"properties":{"osm_id":"3251164265","tag":{"amenity":"recycling","recycling:cans":"yes","recycling:glass":"yes","recycling:paper":"yes","recycling:scrap_metal":"yes"}},"type":"Feature"},
	{"geometry":{"coordinates":[6.157847,46.446078],"type":"Point"},"properties":{"osm_id":"5003254925","tag":{"amenity":"waste_basket"}},"type":"Feature"},
	{"geometry":{"coordinates":[6.221521,46.439105],"type":"Point"},"properties":{"name":"D\u00c3\u00a9chetterie de Genolier","osm_id":"6944722039","tag":{"amenity":"recycling","recycling_type":"centre"}},"type":"Feature"}
]
}
