{
"type": "FeatureCollection",
"features": [
	{"geometry":{"coordinates":[6.165915,46.305789],"type":"Point"},"properties":{"osm_id":"1253953083","tag":{"amenity":"recycling","recycling:batteries":"yes","recycling:cans":"yes","recycling:cardboard":"yes","recycling:cartons":"yes","recycling:clothes":"yes","recycling:electrical_appliances":"yes","recycling:glass":"yes","recycling:glass_bottles":"yes","recycling:green_waste":"yes","recycling:magazines":"yes","recycling:newspaper":"yes","recycling:paper":"yes","recycling:paper_packaging":"yes","recycling:plastic":"yes","recycling:plastic_bottles":"yes","recycling:plastic_packaging":"yes","recycling:scrap_metal":"yes","recycling:small_appliances":"yes","recycling_type":"container"}},"type":"Feature"},
	{"geometry":{"coordinates":[6.166095,46.285629],"type":"Point"},"properties":{"osm_id":"1842979182","tag":{"amenity":"recycling"}},"type":"Feature"},
	{"geometry":{"coordinates":[6.226432,46.27436],"type":"Point"},"properties":{"osm_id":"1876085085","tag":{"amenity":"recycling"}},"type":"Feature"},
	{"geometry":{"coordinates":[6.225508,46.26003],"type":"Point"},"properties":{"osm_id":"1884068202","tag":{"amenity":"recycling","location":"underground","recycling_type":"container"}},"type":"Feature"},
	{"geometry":{"coordinates":[6.163247,46.276797],"type":"Point"},"properties":{"osm_id":"5777079133","tag":{"amenity":"waste_basket"}},"type":"Feature"},
	{"geometry":{"coordinates":[6.165117,46.276241],"type":"Point"},"properties":{"osm_id":"5777079357","tag":{"amenity":"waste_basket"}},"type":"Feature"},
	{"geometry":{"coordinates":[6.165447,46.276126],"type":"Point"},"properties":{"osm_id":"5777079606","tag":{"amenity":"waste_basket"}},"type":"Feature"},
	{"geometry":{"coordinates":[6.201374,46.263657],"type":"Point"},"properties":{"osm_id":"5846245586","tag":{"amenity":"recycling","description":"Point de tri des d\u00c3\u00a9chets pour les utilisateurs du parc de La Savonni\u00c3\u00a8re","recycling:paper":"yes","recycling:waste":"yes","recycling_type":"container"}},"type":"Feature"},
	{"geometry":{"coordinates":[6.157308,46.283733],"type":"Point"},"properties":{"osm_id":"7873349518","tag":{"amenity":"waste_disposal","waste":"trash;paper"}},"type":"Feature"},
	{"geometry":{"coordinates":[6.161176,46.28038],"type":"Point"},"properties":{"osm_id":"7888362389","tag":{"amenity":"waste_disposal"}},"type":"Feature"},
	{"geometry":{"coordinates":[6.161199,46.280373],"type":"Point"},"properties":{"osm_id":"7888362390","tag":{"amenity":"recycling","recycling_type":"container"}},"type":"Feature"},
	{"geometry":{"coordinates":[6.153838,46.286788],"type":"Point"},"properties":{"osm_id":"7894140515","tag":{"amenity":"waste_disposal"}},"type":"Feature"},
	{"geometry":{"coordinates":[6.153841,46.286775],"type":"Point"},"properties":{"osm_id":"7894140516","tag":{"amenity":"recycling","recycling_type":"centre"}},"type":"Feature"},
	{"geometry":{"coordinates":[6.158138,46.282349],"type":"Point"},"properties":{"osm_id":"8142045681","tag":{"amenity":"waste_disposal"}},"type":"Feature"},
	{"geometry":{"coordinates":[6.155804,46.281716],"type":"Point"},"properties":{"osm_id":"8158481182","tag":{"amenity":"recycling","recycling_type":"container"}},"type":"Feature"},
	{"geometry":{"coordinates":[6.155819,46.281734],"type":"Point"},"properties":{"osm_id":"8158481183","tag":{"amenity":"recycling","recycling:paper":"yes","recycling_type":"container"}},"type":"Feature"},
	{"geometry":{"coordinates":[6.154714,46.283532],"type":"Point"},"properties":{"osm_id":"8158481184","tag":{"amenity":"recycling","recycling:waste":"yes","recycling_type":"container"}},"type":"Feature"},
	{"geometry":{"coordinates":[6.154729,46.283551],"type":"Point"},"properties":{"osm_id":"8158481185","tag":{"amenity":"recycling","recycling:paper":"yes","recycling_type":"container"}},"type":"Feature"},
	{"geometry":{"coordinates":[6.164867,46.280055],"type":"Point"},"properties":{"osm_id":"8190366669","tag":{"amenity":"recycling","recycling_type":"container"}},"type":"Feature"},
	{"geometry":{"coordinates":[6.164888,46.280059],"type":"Point"},"properties":{"osm_id":"8190366670","tag":{"amenity":"recycling","recycling_type":"container"}},"type":"Feature"},
	{"geometry":{"coordinates":[6.164909,46.280064],"type":"Point"},"properties":{"osm_id":"8190366671","tag":{"amenity":"recycling","recycling_type":"container"}},"type":"Feature"},
	{"geometry":{"coordinates":[6.16361,46.28244],"type":"Point"},"properties":{"osm_id":"8190366690","tag":{"amenity":"recycling","recycling_type":"container"}},"type":"Feature"},
	{"geometry":{"coordinates":[6.163619,46.282421],"type":"Point"},"properties":{"osm_id":"8190366691","tag":{"amenity":"recycling","recycling_type":"container"}},"type":"Feature"},
	{"geometry":{"coordinates":[6.163641,46.282427],"type":"Point"},"properties":{"osm_id":"8190366692","tag":{"amenity":"recycling","recycling_type":"container"}},"type":"Feature"},
	{"geometry":{"coordinates":[6.165089,46.281944],"type":"Point"},"properties":{"osm_id":"8190423694","tag":{"amenity":"recycling","recycling_type":"container"}},"type":"Feature"},
	{"geometry":{"coordinates":[6.165103,46.281957],"type":"Point"},"properties":{"osm_id":"8190423695","tag":{"amenity":"recycling","recycling_type":"container"}},"type":"Feature"},
	{"geometry":{"coordinates":[6.165116,46.281971],"type":"Point"},"properties":{"osm_id":"8190423696","tag":{"amenity":"recycling","recycling_type":"container"}},"type":"Feature"},
	{"geometry":{"coordinates":[6.167484,46.27941],"type":"Point"},"properties":{"osm_id":"8190425725","tag":{"amenity":"recycling","recycling_type":"container"}},"type":"Feature"},
	{"geometry":{"coordinates":[6.16747,46.2794],"type":"Point"},"properties":{"osm_id":"8190425726","tag":{"amenity":"recycling","recycling_type":"container"}},"type":"Feature"},
	{"geometry":{"coordinates":[6.167787,46.276826],"type":"Point"},"properties":{"osm_id":"8190425735","tag":{"amenity":"recycling","recycling_type":"container"}},"type":"Feature"},
	{"geometry":{"coordinates":[6.167785,46.276807],"type":"Point"},"properties":{"osm_id":"8190425736","tag":{"amenity":"recycling","recycling_type":"container"}},"type":"Feature"},
	{"geometry":{"coordinates":[6.167784,46.276792],"type":"Point"},"properties":{"osm_id":"8190425737","tag":{"amenity":"recycling","recycling_type":"container"}},"type":"Feature"},
	{"geometry":{"coordinates":[6.167812,46.276822],"type":"Point"},"properties":{"osm_id":"8190425738","tag":{"amenity":"recycling","recycling_type":"container"}},"type":"Feature"},
	{"geometry":{"coordinates":[6.16781,46.276806],"type":"Point"},"properties":{"osm_id":"8190425739","tag":{"amenity":"recycling","recycling_type":"container"}},"type":"Feature"},
	{"geometry":{"coordinates":[6.167806,46.276789],"type":"Point"},"properties":{"osm_id":"8190425740","tag":{"amenity":"recycling","recycling_type":"container"}},"type":"Feature"},
	{"geometry":{"coordinates":[6.167829,46.276787],"type":"Point"},"properties":{"osm_id":"8190425741","tag":{"amenity":"recycling","recycling_type":"container"}},"type":"Feature"},
	{"geometry":{"coordinates":[6.167832,46.276806],"type":"Point"},"properties":{"osm_id":"8190425742","tag":{"amenity":"recycling","recycling_type":"container"}},"type":"Feature"},
	{"geometry":{"coordinates":[6.167833,46.276824],"type":"Point"},"properties":{"osm_id":"8190425743","tag":{"amenity":"recycling","recycling_type":"container"}},"type":"Feature"},
	{"geometry":{"coordinates":[6.169409,46.276816],"type":"Point"},"properties":{"osm_id":"8190425746","tag":{"amenity":"recycling","recycling_type":"container"}},"type":"Feature"},
	{"geometry":{"coordinates":[6.169419,46.276797],"type":"Point"},"properties":{"osm_id":"8190425747","tag":{"amenity":"recycling","recycling_type":"container"}},"type":"Feature"},
	{"geometry":{"coordinates":[6.167481,46.275584],"type":"Point"},"properties":{"osm_id":"8411336416","tag":{"amenity":"waste_disposal"}},"type":"Feature"},
	{"geometry":{"coordinates":[6.167504,46.275586],"type":"Point"},"properties":{"osm_id":"8411336426","tag":{"amenity":"recycling","recycling_type":"container"}},"type":"Feature"},
	{"geometry":{"coordinates":[6.16754,46.275584],"type":"Point"},"properties":{"osm_id":"8411336427","tag":{"amenity":"recycling","recycling_type":"container"}},"type":"Feature"},
	{"geometry":{"coordinates":[6.161796,46.285619],"type":"Point"},"properties":{"osm_id":"8699332896","tag":{"amenity":"recycling","recycling_type":"centre"}},"type":"Feature"},
	{"geometry":{"coordinates":[6.16187,46.285619],"type":"Point"},"properties":{"osm_id":"8699332897","tag":{"amenity":"waste_disposal"}},"type":"Feature"},
	{"geometry":{"coordinates":[6.164936,46.291985],"type":"Point"},"properties":{"osm_id":"8699376805","tag":{"amenity":"recycling","recycling_type":"centre"}},"type":"Feature"},
	{"geometry":{"coordinates":[6.16497,46.291992],"type":"Point"},"properties":{"osm_id":"8699376806","tag":{"amenity":"waste_disposal"}},"type":"Feature"},
	{"geometry":{"coordinates":[6.162538,46.292406],"type":"Point"},"properties":{"osm_id":"8699425655","tag":{"amenity":"waste_disposal"}},"type":"Feature"},
	{"geometry":{"coordinates":[6.162555,46.292396],"type":"Point"},"properties":{"osm_id":"8699425656","tag":{"amenity":"recycling","recycling_type":"centre"}},"type":"Feature"},
	{"geometry":{"coordinates":[6.165413,46.293733],"type":"Point"},"properties":{"osm_id":"8699454226","tag":{"amenity":"recycling","recycling_type":"centre"}},"type":"Feature"},
	{"geometry":{"coordinates":[6.165434,46.293727],"type":"Point"},"properties":{"osm_id":"8699454227","tag":{"amenity":"waste_disposal"}},"type":"Feature"},
	{"geometry":{"coordinates":[6.165896,46.292037],"type":"Point"},"properties":{"osm_id":"8887685351","tag":{"amenity":"waste_disposal"}},"type":"Feature"},
	{"geometry":{"coordinates":[6.165873,46.29204],"type":"Point"},"properties":{"osm_id":"8887685352","tag":{"amenity":"waste_disposal"}},"type":"Feature"},
	{"geometry":{"coordinates":[6.22261,46.263003],"type":"Point"},"properties":{"osm_id":"9106296259","tag":{"amenity":"waste_basket","material":"steel"}},"type":"Feature"},
	{"geometry":{"coordinates":[6.226607,46.260765],"type":"Point"},"properties":{"osm_id":"9122870554","tag":{"amenity":"waste_basket"}},"type":"Feature"},
	{"geometry":{"coordinates":[6.200672,46.263342],"type":"Point"},"properties":{"osm_id":"9179510407","tag":{"amenity":"recycling"}},"type":"Feature"},
	{"geometry":{"coordinates":[6.22389,46.277351],"type":"Point"},"properties":{"osm_id":"9179545710","tag":{"amenity":"recycling"}},"type":"Feature"}
]
}
