{
"type": "FeatureCollection",
"features": [
	{"geometry":{"coordinates":[6.199118,46.237803],"type":"Point"},"properties":{"osm_id":"1269914111","tag":{"amenity":"recycling","recycling_type":"container"}},"type":"Feature"},
	{"geometry":{"coordinates":[6.153611,46.199825],"type":"Point"},"properties":{"osm_id":"1459882370","tag":{"amenity":"waste_basket"}},"type":"Feature"},
	{"geometry":{"coordinates":[6.153595,46.199962],"type":"Point"},"properties":{"osm_id":"1459882371","tag":{"amenity":"waste_basket"}},"type":"Feature"},
	{"geometry":{"coordinates":[6.153752,46.200039],"type":"Point"},"properties":{"osm_id":"1459882380","tag":{"amenity":"waste_basket"}},"type":"Feature"},
	{"geometry":{"coordinates":[6.153216,46.200069],"type":"Point"},"properties":{"osm_id":"1459882392","tag":{"amenity":"waste_basket"}},"type":"Feature"},
	{"geometry":{"coordinates":[6.153481,46.200215],"type":"Point"},"properties":{"osm_id":"1459882399","tag":{"amenity":"waste_basket"}},"type":"Feature"},
	{"geometry":{"coordinates":[6.160488,46.197955],"type":"Point"},"properties":{"osm_id":"1486033692","tag":{"amenity":"recycling"}},"type":"Feature"},
	{"geometry":{"coordinates":[6.155163,46.198365],"type":"Point"},"properties":{"osm_id":"1493746698","tag":{"amenity":"recycling"}},"type":"Feature"},
	{"geometry":{"coordinates":[6.16366,46.204838],"type":"Point"},"properties":{"osm_id":"1889011238","tag":{"addr:city":"Gen\u00c3\u00a8ve","addr:housenumber":"72","addr:street":"Rue de Montchoisy","amenity":"recycling","operator":"Ville de Geneve","recycling:aluminium":"yes","recycling:aluminium_cans":"yes","recycling:aluminium_tins":"yes","recycling:batteries":"yes","recycling:cans":"yes","recycling:clothes":"yes","recycling:coffee_capsules":"yes","recycling:glass_bottles":"yes","recycling:plastic_bottles":"yes","recycling:shoes":"yes","recycling:textiles":"yes"}},"type":"Feature"},
	{"geometry":{"coordinates":[6.153642,46.198236],"type":"Point"},"properties":{"osm_id":"1902642741","tag":{"amenity":"recycling"}},"type":"Feature"},
	{"geometry":{"coordinates":[6.238948,46.204716],"type":"Point"},"properties":{"osm_id":"2102196021","tag":{"amenity":"recycling","opening_hours":"24/7","operator":"Sidefage","recycling:glass_bottles":"yes","recycling_type":"container"}},"type":"Feature"},
	{"geometry":{"coordinates":[6.231146,46.198188],"type":"Point"},"properties":{"osm_id":"2102196023","tag":{"amenity":"recycling","opening_hours":"24/7","operator":"Sidefage","recycling:glass_bottles":"yes","recycling_type":"container"}},"type":"Feature"},
	{"geometry":{"coordinates":[6.187007,46.203604],"type":"Point"},"properties":{"osm_id":"2107473947","tag":{"amenity":"recycling"}},"type":"Feature"},
	{"geometry":{"coordinates":[6.185685,46.199254],"type":"Point"},"properties":{"osm_id":"2124549906","tag":{"amenity":"recycling"}},"type":"Feature"},
	{"geometry":{"coordinates":[6.173173,46.201452],"type":"Point"},"properties":{"osm_id":"2158161901","tag":{"addr:city":"Gen\u00c3\u00a8ve","addr:housenumber":"21","addr:postcode":"1208","addr:street":"Chemin des Tulipiers","amenity":"recycling","operator":"Ville de Geneve","recycling:aerosol_cans":"yes","recycling:aluminium":"yes","recycling:aluminium_cans":"yes","recycling:aluminium_tins":"yes","recycling:batteries":"yes","recycling:cans":"yes","recycling:clothes":"yes","recycling:coffee_capsules":"yes","recycling:glass_bottles":"yes","recycling:plastic_bottles":"yes","recycling:shoes":"yes","recycling:textiles":"yes"}},"type":"Feature"},
	{"geometry":{"coordinates":[6.163287,46.197689],"type":"Point"},"properties":{"osm_id":"2161912100","tag":{"amenity":"recycling"}},"type":"Feature"},
	{"geometry":{"coordinates":[6.224218,46.220158],"type":"Point"},"properties":{"osm_id":"2194649309","tag":{"amenity":"recycling"}},"type":"Feature"},
	{"geometry":{"coordinates":[6.228759,46.222439],"type":"Point"},"properties":{"osm_id":"2194649657","tag":{"amenity":"recycling"}},"type":"Feature"},
	{"geometry":{"coordinates":[6.172135,46.195546],"type":"Point"},"properties":{"osm_id":"2194822661","tag":{"amenity":"recycling","recycling:batteries":"yes","recycling:cans":"yes","recycling:clothes":"yes","recycling:glass":"yes","recycling:paper":"yes","recycling_type":"container","survey:date":"2013-03-10"}},"type":"Feature"},
	{"geometry":{"coordinates":[6.22201,46.222741],"type":"Point"},"properties":{"osm_id":"2194926014","tag":{"amenity":"recycling"}},"type":"Feature"},
	{"geometry":{"coordinates":[6.223517,46.225896],"type":"Point"},"properties":{"osm_id":"2198552593","tag":{"amenity":"recycling"}},"type":"Feature"},
	{"geometry":{"coordinates":[6.235121,46.247315],"type":"Point"},"properties":{"osm_id":"2208176819","tag":{"amenity":"recycling"}},"type":"Feature"},
	{"geometry":{"coordinates":[6.155061,46.202416],"type":"Point"},"properties":{"osm_id":"2292525057","tag":{"addr:city":"Gen\u00c3\u00a8ve","addr:housenumber":"35","addr:postcode":"1206","addr:street":"Boulevard Helv\u00c3\u00a9tique","amenity":"recycling","operator":"Ville de Geneve","recycling:aerosol_cans":"yes","recycling:aluminium":"yes","recycling:aluminium_cans":"yes","recycling:aluminium_tins":"yes","recycling:batteries":"yes","recycling:cans":"yes","recycling:coffee_capsules":"yes","recycling:glass_bottles":"yes","recycling:plastic_bottles":"yes"}},"type":"Feature"},
	{"geometry":{"coordinates":[6.152436,46.210875],"type":"Point"},"properties":{"osm_id":"2587295809","tag":{"addr:city":"Gen\u00c3\u00a8ve","addr:housenumber":"27","addr:street":"Quai du Mont-Blanc","amenity":"recycling","operator":"Ville de Geneve","recycling:aerosol_cans":"yes","recycling:aluminium":"yes","recycling:aluminium_cans":"yes","recycling:aluminium_tins":"yes","recycling:cans":"yes","recycling:glass_bottles":"yes"}},"type":"Feature"},
	{"geometry":{"coordinates":[6.194418,46.196008],"type":"Point"},"properties":{"osm_id":"2946346768","tag":{"amenity":"recycling"}},"type":"Feature"},
	{"geometry":{"coordinates":[6.18639,46.197459],"type":"Point"},"properties":{"osm_id":"2947358695","tag":{"amenity":"recycling"}},"type":"Feature"},
	{"geometry":{"coordinates":[6.232153,46.19533],"type":"Point"},"properties":{"osm_id":"3171982274","tag":{"amenity":"recycling","opening_hours":"24/7","operator":"Sidefage","recycling:glass_bottles":"yes","recycling_type":"container"}},"type":"Feature"},
	{"geometry":{"coordinates":[6.224469,46.19935],"type":"Point"},"properties":{"osm_id":"3300336758","tag":{"amenity":"recycling","opening_hours":"24/7","operator":"Sidefage","recycling:clothes":"yes","recycling:glass_bottles":"yes","recycling_type":"container"}},"type":"Feature"},
	{"geometry":{"coordinates":[6.223386,46.196196],"type":"Point"},"properties":{"osm_id":"3317229905","tag":{"amenity":"waste_basket"}},"type":"Feature"},
	{"geometry":{"coordinates":[6.222863,46.19758],"type":"Point"},"properties":{"osm_id":"3317229906","tag":{"amenity":"waste_basket"}},"type":"Feature"},
	{"geometry":{"coordinates":[6.238703,46.195103],"type":"Point"},"properties":{"osm_id":"3388098394","tag":{"amenity":"waste_basket"}},"type":"Feature"},
	{"geometry":{"coordinates":[6.238594,46.195278],"type":"Point"},"properties":{"osm_id":"3388098405","tag":{"amenity":"waste_basket","waste":"trash"}},"type":"Feature"},
	{"geometry":{"coordinates":[6.238783,46.195448],"type":"Point"},"properties":{"osm_id":"3388098411","tag":{"amenity":"waste_basket"}},"type":"Feature"},
	{"geometry":{"coordinates":[6.163463,46.195445],"type":"Point"},"properties":{"osm_id":"3453711825","tag":{"amenity":"recycling"}},"type":"Feature"},
	{"geometry":{"coordinates":[6.207522,46.19717],"type":"Point"},"properties":{"osm_id":"3681905668","tag":{"amenity":"recycling","recycling:cans":"yes","recycling:clothes":"yes","recycling:glass":"yes","recycling:paper":"yes"}},"type":"Feature"},
	{"geometry":{"coordinates":[6.213944,46.19858],"type":"Point"},"properties":{"osm_id":"3681905669","tag":{"amenity":"recycling","recycling:cans":"yes","recycling:clothes":"no","recycling:glass":"yes","recycling:paper":"yes"}},"type":"Feature"},
	{"geometry":{"coordinates":[6.226828,46.199318],"type":"Point"},"properties":{"osm_id":"3986684151","tag":{"amenity":"recycling","opening_hours":"24/7","operator":"Sidefage","recycling:glass_bottles":"yes","recycling_type":"container"}},"type":"Feature"},
	{"geometry":{"coordinates":[6.231854,46.201024],"type":"Point"},"properties":{"osm_id":"3988552011","tag":{"amenity":"waste_basket"}},"type":"Feature"},
	{"geometry":{"coordinates":[6.155252,46.20426],"type":"Point"},"properties":{"name":"Touring Club Suisse","osm_id":"4199186707","tag":{"addr:city":"Gen\u00c3\u00a8ve","addr:housenumber":"2","addr:street":"Quai Gustave Ador","amenity":"recycling","location":"overground","operator":"Ville de Geneve","recycling:aerosol_cans":"yes","recycling:aluminium":"yes","recycling:aluminium_cans":"yes","recycling:aluminium_tins":"yes","recycling:cans":"yes","recycling:glass_bottles":"yes","recycling:plastic_bottles":"yes","recycling_type":"container"}},"type":"Feature"},
	{"geometry":{"coordinates":[6.157479,46.205319],"type":"Point"},"properties":{"osm_id":"4199187411","tag":{"addr:city":"Gen\u00c3\u00a8ve","addr:housenumber":"20","addr:street":"Quai Gustave-Ador","amenity":"recycling","location":"overground","operator":"Ville de Geneve","recycling:aluminium":"yes","recycling:aluminium_cans":"yes","recycling:aluminium_tins":"yes","recycling:cans":"yes","recycling:glass_bottles":"yes","recycling:plastic_bottles":"yes","recycling_type":"container"}},"type":"Feature"},
	{"geometry":{"coordinates":[6.163137,46.208315],"type":"Point"},"properties":{"osm_id":"4199187750","tag":{"addr:city":"Gen\u00c3\u00a8ve","addr:street":"Quai Gustave-Ador","amenity":"recycling","operator":"Ville de Geneve","recycling:aerosol_cans":"yes","recycling:aluminium":"yes","recycling:aluminium_cans":"yes","recycling:aluminium_tins":"yes","recycling:cans":"yes","recycling:glass_bottles":"yes","recycling:plastic_bottles":"yes"}},"type":"Feature"},
	{"geometry":{"coordinates":[6.171902,46.205708],"type":"Point"},"properties":{"osm_id":"4199194924","tag":{"addr:city":"Gen\u00c3\u00a8ve","addr:housenumber":"106","addr:postcode":"1208","addr:street":"Route de Frontenex","amenity":"recycling","operator":"Ville de Geneve","recycling:aerosol_cans":"yes","recycling:aluminium":"yes","recycling:aluminium_cans":"yes","recycling:aluminium_tins":"yes","recycling:batteries":"yes","recycling:cans":"yes","recycling:clothes":"yes","recycling:glass_bottles":"yes","recycling:plastic_bottles":"yes","recycling:shoes":"yes","recycling:textiles":"yes"}},"type":"Feature"},
	{"geometry":{"coordinates":[6.169624,46.202514],"type":"Point"},"properties":{"osm_id":"4207693477","tag":{"addr:city":"Gen\u00c3\u00a8ve","addr:housenumber":"26","addr:postcode":"1207","addr:street":"Avenue de la Gare-des-Eaux-Vives","amenity":"recycling","operator":"Ville de Geneve","recycling:aerosol_cans":"yes","recycling:aluminium":"yes","recycling:aluminium_cans":"yes","recycling:aluminium_tins":"yes","recycling:batteries":"yes","recycling:cans":"yes","recycling:glass_bottles":"yes","recycling_type":"container"}},"type":"Feature"},
	{"geometry":{"coordinates":[6.16528,46.201625],"type":"Point"},"properties":{"osm_id":"4207703197","tag":{"addr:city":"Gen\u00c3\u00a8ve","addr:housenumber":"14","addr:postcode":"1207","addr:street":"Rue Viollier","amenity":"recycling","operator":"Ville de Geneve","recycling:aerosol_cans":"yes","recycling:aluminium":"yes","recycling:aluminium_cans":"yes","recycling:aluminium_tins":"yes","recycling:batteries":"yes","recycling:cans":"yes","recycling:clothes":"yes","recycling:glass_bottles":"yes","recycling:shoes":"yes","recycling:textiles":"yes"}},"type":"Feature"},
	{"geometry":{"coordinates":[6.16456,46.200519],"type":"Point"},"properties":{"osm_id":"4207707235","tag":{"addr:city":"Gen\u00c3\u00a8ve","addr:housenumber":"5","addr:postcode":"1207","addr:street":"Avenue de Chamonix","amenity":"recycling","operator":"Ville de Geneve","recycling:aerosol_cans":"yes","recycling:aluminium":"yes","recycling:aluminium_cans":"yes","recycling:aluminium_tins":"yes","recycling:batteries":"yes","recycling:cans":"yes","recycling:clothes":"yes","recycling:glass_bottles":"yes","recycling:plastic_bottles":"yes","recycling:shoes":"yes","recycling:textiles":"yes"}},"type":"Feature"},
	{"geometry":{"coordinates":[6.159811,46.20073],"type":"Point"},"properties":{"osm_id":"4207711099","tag":{"addr:city":"Gen\u00c3\u00a8ve","addr:housenumber":"5","addr:postcode":"1207","addr:street":"Rue de Jargonnant","amenity":"recycling","recycling:aerosol_cans":"yes","recycling:aluminium":"yes","recycling:aluminium_cans":"yes","recycling:aluminium_tins":"yes","recycling:batteries":"yes","recycling:cans":"yes","recycling:clothes":"yes","recycling:glass_bottles":"yes","recycling:shoes":"yes","recycling:textiles":"yes"}},"type":"Feature"},
	{"geometry":{"coordinates":[6.159102,46.201983],"type":"Point"},"properties":{"osm_id":"4207711588","tag":{"addr:city":"Gen\u00c3\u00a8ve","addr:housenumber":"35","addr:postcode":"1207","addr:street":"Rue de la Mairie","amenity":"recycling","operator":"Ville de Geneve","recycling:aerosol_cans":"yes","recycling:aluminium":"yes","recycling:aluminium_cans":"yes","recycling:aluminium_tins":"yes","recycling:batteries":"yes","recycling:cans":"yes","recycling:clothes":"yes","recycling:coffee_capsules":"yes","recycling:glass_bottles":"yes","recycling:shoes":"yes","recycling:textiles":"yes"}},"type":"Feature"},
	{"geometry":{"coordinates":[6.162652,46.202923],"type":"Point"},"properties":{"osm_id":"4207723790","tag":{"addr:city":"Gen\u00c3\u00a8ve","addr:housenumber":"8","addr:postcode":"1207","addr:street":"Rue des Cordiers","amenity":"recycling","operator":"Ville de Geneve","recycling:aerosol_cans":"yes","recycling:aluminium":"yes","recycling:aluminium_cans":"yes","recycling:aluminium_tins":"yes","recycling:batteries":"yes","recycling:cans":"yes","recycling:clothes":"yes","recycling:glass_bottles":"yes","recycling:shoes":"yes","recycling:textiles":"yes"}},"type":"Feature"},
	{"geometry":{"coordinates":[6.238973,46.200054],"type":"Point"},"properties":{"osm_id":"4487237521","tag":{"amenity":"waste_basket"}},"type":"Feature"},
	{"geometry":{"coordinates":[6.236972,46.196117],"type":"Point"},"properties":{"osm_id":"4579861905","tag":{"amenity":"recycling","location":"underground","opening_hours":"24/7","operator":"Sidefage","recycling_type":"container"}},"type":"Feature"},
	{"geometry":{"coordinates":[6.235176,46.19764],"type":"Point"},"properties":{"osm_id":"4679120569","tag":{"amenity":"waste_basket"}},"type":"Feature"},
	{"geometry":{"coordinates":[6.232169,46.195305],"type":"Point"},"properties":{"osm_id":"4679193352","tag":{"amenity":"waste_basket","colour":"black","waste":"trash"}},"type":"Feature"},
	{"geometry":{"coordinates":[6.238979,46.197661],"type":"Point"},"properties":{"osm_id":"4712946603","tag":{"amenity":"waste_basket","colour":"green","waste":"trash"}},"type":"Feature"},
	{"geometry":{"coordinates":[6.238183,46.19782],"type":"Point"},"properties":{"osm_id":"4715097852","tag":{"amenity":"waste_basket"}},"type":"Feature"},
	{"geometry":{"coordinates":[6.223011,46.197596],"type":"Point"},"properties":{"osm_id":"4972027987","tag":{"amenity":"recycling","location":"underground","recycling:cans":"yes","recycling:glass_bottles":"yes","recycling:paper":"yes","recycling:plastic_bottles":"yes","recycling_type":"container"}},"type":"Feature"},
	{"geometry":{"coordinates":[6.221945,46.195708],"type":"Point"},"properties":{"osm_id":"4976077790","tag":{"amenity":"waste_basket"}},"type":"Feature"},
	{"geometry":{"coordinates":[6.219758,46.196254],"type":"Point"},"properties":{"osm_id":"4976089124","tag":{"amenity":"waste_basket"}},"type":"Feature"},
	{"geometry":{"coordinates":[6.223115,46.196352],"type":"Point"},"properties":{"osm_id":"4977113813","tag":{"amenity":"waste_basket"}},"type":"Feature"},
	{"geometry":{"coordinates":[6.223016,46.19691],"type":"Point"},"properties":{"osm_id":"4977113815","tag":{"amenity":"waste_basket"}},"type":"Feature"},
	{"geometry":{"coordinates":[6.223594,46.195724],"type":"Point"},"properties":{"osm_id":"4985551135","tag":{"amenity":"waste_basket"}},"type":"Feature"},
	{"geometry":{"coordinates":[6.222466,46.198326],"type":"Point"},"properties":{"osm_id":"4985586380","tag":{"amenity":"waste_basket"}},"type":"Feature"},
	{"geometry":{"coordinates":[6.220257,46.197021],"type":"Point"},"properties":{"osm_id":"4985671497","tag":{"amenity":"waste_basket"}},"type":"Feature"},
	{"geometry":{"coordinates":[6.224717,46.1954],"type":"Point"},"properties":{"osm_id":"4987773455","tag":{"amenity":"waste_basket"}},"type":"Feature"},
	{"geometry":{"coordinates":[6.224403,46.195258],"type":"Point"},"properties":{"osm_id":"4987775441","tag":{"amenity":"waste_basket"}},"type":"Feature"},
	{"geometry":{"coordinates":[6.226639,46.196503],"type":"Point"},"properties":{"osm_id":"4987880674","tag":{"amenity":"waste_basket"}},"type":"Feature"},
	{"geometry":{"coordinates":[6.237228,46.19636],"type":"Point"},"properties":{"osm_id":"5308150419","tag":{"amenity":"recycling","location":"underground","opening_hours":"24/7","operator":"Sidefage","recycling_type":"container"}},"type":"Feature"},
	{"geometry":{"coordinates":[6.237379,46.196553],"type":"Point"},"properties":{"osm_id":"5308153125","tag":{"amenity":"waste_basket","colour":"pink","waste":"trash"}},"type":"Feature"},
	{"geometry":{"coordinates":[6.237268,46.196531],"type":"Point"},"properties":{"osm_id":"5308153126","tag":{"amenity":"waste_basket","colour":"blue","waste":"trash"}},"type":"Feature"},
	{"geometry":{"coordinates":[6.236898,46.197438],"type":"Point"},"properties":{"osm_id":"5310435470","tag":{"amenity":"recycling","location":"underground","operator":"Sidefage","recycling:glass_bottles":"yes","recycling_type":"container"}},"type":"Feature"},
	{"geometry":{"coordinates":[6.236858,46.196015],"type":"Point"},"properties":{"osm_id":"5313832434","tag":{"amenity":"recycling","location":"underground","opening_hours":"24/7","operator":"Sidefage","recycling_type":"container"}},"type":"Feature"},
	{"geometry":{"coordinates":[6.237962,46.196005],"type":"Point"},"properties":{"osm_id":"5321974442","tag":{"amenity":"waste_basket","colour":"green","waste":"trash"}},"type":"Feature"},
	{"geometry":{"coordinates":[6.24006,46.19618],"type":"Point"},"properties":{"osm_id":"5329725927","tag":{"amenity":"waste_basket"}},"type":"Feature"},
	{"geometry":{"coordinates":[6.239901,46.196012],"type":"Point"},"properties":{"osm_id":"5329725928","tag":{"amenity":"waste_basket"}},"type":"Feature"},
	{"geometry":{"coordinates":[6.167533,46.203401],"type":"Point"},"properties":{"osm_id":"5329728123","tag":{"amenity":"waste_disposal"}},"type":"Feature"},
	{"geometry":{"coordinates":[6.240029,46.196573],"type":"Point"},"properties":{"osm_id":"5341269549","tag":{"amenity":"waste_basket"}},"type":"Feature"},
	{"geometry":{"coordinates":[6.240024,46.196429],"type":"Point"},"properties":{"osm_id":"5341269550","tag":{"amenity":"waste_basket"}},"type":"Feature"},
	{"geometry":{"coordinates":[6.15273,46.203221],"type":"Point"},"properties":{"osm_id":"5366098231","tag":{"amenity":"waste_basket"}},"type":"Feature"},
	{"geometry":{"coordinates":[6.152582,46.203257],"type":"Point"},"properties":{"osm_id":"5366098236","tag":{"amenity":"waste_basket"}},"type":"Feature"},
	{"geometry":{"coordinates":[6.236189,46.197053],"type":"Point"},"properties":{"osm_id":"5459801994","tag":{"amenity":"waste_basket"}},"type":"Feature"},
	{"geometry":{"coordinates":[6.237812,46.196976],"type":"Point"},"properties":{"osm_id":"5467928711","tag":{"amenity":"waste_basket","colour":"green","waste":"trash"}},"type":"Feature"},
	{"geometry":{"coordinates":[6.236261,46.19644],"type":"Point"},"properties":{"osm_id":"5628643566","tag":{"amenity":"waste_basket"}},"type":"Feature"},
	{"geometry":{"coordinates":[6.200869,46.206989],"type":"Point"},"properties":{"name":"Ecopoint de Mirani","osm_id":"5838562434","tag":{"amenity":"recycling","opening_hours":"Mo-Sa 08:00-19:00"}},"type":"Feature"},
	{"geometry":{"coordinates":[6.238356,46.197532],"type":"Point"},"properties":{"osm_id":"6489446190","tag":{"amenity":"waste_basket","colour":"orange","waste":"trash"}},"type":"Feature"},
	{"geometry":{"coordinates":[6.238472,46.197638],"type":"Point"},"properties":{"osm_id":"6489446191","tag":{"amenity":"waste_basket","colour":"green","waste":"trash"}},"type":"Feature"},
	{"geometry":{"coordinates":[6.238791,46.197937],"type":"Point"},"properties":{"osm_id":"6498004925","tag":{"amenity":"waste_basket","colour":"blue","waste":"trash"}},"type":"Feature"},
	{"geometry":{"coordinates":[6.237888,46.19709],"type":"Point"},"properties":{"osm_id":"6499496257","tag":{"amenity":"waste_basket","colour":"blue"}},"type":"Feature"},
	{"geometry":{"coordinates":[6.237932,46.196895],"type":"Point"},"properties":{"osm_id":"6499496258","tag":{"amenity":"waste_basket","colour":"green"}},"type":"Feature"},
	{"geometry":{"coordinates":[6.23853,46.197235],"type":"Point"},"properties":{"osm_id":"6499496260","tag":{"amenity":"waste_basket","colour":"blue","waste":"trash"}},"type":"Feature"},
	{"geometry":{"coordinates":[6.238652,46.197264],"type":"Point"},"properties":{"osm_id":"6499496261","tag":{"amenity":"waste_basket","colour":"orange","waste":"trash"}},"type":"Feature"},
	{"geometry":{"coordinates":[6.238664,46.197834],"type":"Point"},"properties":{"osm_id":"6499496262","tag":{"amenity":"waste_basket","colour":"orange","waste":"trash"}},"type":"Feature"},
	{"geometry":{"coordinates":[6.23366,46.197139],"type":"Point"},"properties":{"osm_id":"6556177203","tag":{"amenity":"waste_basket"}},"type":"Feature"},
	{"geometry":{"coordinates":[6.233483,46.19726],"type":"Point"},"properties":{"osm_id":"6556177206","tag":{"amenity":"waste_basket"}},"type":"Feature"},
	{"geometry":{"coordinates":[6.158949,46.199911],"type":"Point"},"properties":{"osm_id":"6564343313","tag":{"amenity":"waste_basket"}},"type":"Feature"},
	{"geometry":{"coordinates":[6.235246,46.197586],"type":"Point"},"properties":{"osm_id":"6578324633","tag":{"amenity":"waste_basket"}},"type":"Feature"},
	{"geometry":{"coordinates":[6.236148,46.197801],"type":"Point"},"properties":{"osm_id":"6639931986","tag":{"amenity":"waste_basket","colour":"black","waste":"trash"}},"type":"Feature"},
	{"geometry":{"coordinates":[6.235793,46.197601],"type":"Point"},"properties":{"osm_id":"6639931989","tag":{"amenity":"waste_basket"}},"type":"Feature"},
	{"geometry":{"coordinates":[6.234933,46.196159],"type":"Point"},"properties":{"osm_id":"6639931994","tag":{"amenity":"waste_basket","waste":"dog_excrement"}},"type":"Feature"},
	{"geometry":{"coordinates":[6.237513,46.19784],"type":"Point"},"properties":{"osm_id":"6639942741","tag":{"amenity":"waste_basket","colour":"orange","waste":"trash"}},"type":"Feature"},
	{"geometry":{"coordinates":[6.23676,46.197073],"type":"Point"},"properties":{"osm_id":"6639942745","tag":{"amenity":"waste_basket"}},"type":"Feature"},
	{"geometry":{"coordinates":[6.234058,46.195139],"type":"Point"},"properties":{"osm_id":"6639984051","tag":{"amenity":"waste_basket","waste":"trash"}},"type":"Feature"},
	{"geometry":{"coordinates":[6.232082,46.195289],"type":"Point"},"properties":{"osm_id":"6644542718","tag":{"amenity":"waste_basket","colour":"green","waste":"dog_excrement"}},"type":"Feature"},
	{"geometry":{"coordinates":[6.224406,46.199341],"type":"Point"},"properties":{"osm_id":"6681245690","tag":{"amenity":"waste_basket","waste":"trash"}},"type":"Feature"},
	{"geometry":{"coordinates":[6.230213,46.202122],"type":"Point"},"properties":{"osm_id":"6681261140","tag":{"amenity":"recycling","opening_hours":"24/7","operator":"Sidefage","recycling:glass_bottles":"yes","recycling_type":"container"}},"type":"Feature"},
	{"geometry":{"coordinates":[6.218281,46.196763],"type":"Point"},"properties":{"osm_id":"6681261143","tag":{"amenity":"recycling","opening_hours":"24/7","operator":"Sidefage","recycling:glass_bottles":"yes","recycling_type":"container"}},"type":"Feature"},
	{"geometry":{"coordinates":[6.239138,46.196066],"type":"Point"},"properties":{"osm_id":"6997182399","tag":{"amenity":"waste_basket","waste":"trash"}},"type":"Feature"},
	{"geometry":{"coordinates":[6.234942,46.196157],"type":"Point"},"properties":{"osm_id":"7002877073","tag":{"amenity":"waste_basket","waste":"trash"}},"type":"Feature"},
	{"geometry":{"coordinates":[6.237316,46.196314],"type":"Point"},"properties":{"osm_id":"7006947588","tag":{"amenity":"waste_basket","colour":"black","waste":"trash"}},"type":"Feature"},
	{"geometry":{"coordinates":[6.239178,46.198194],"type":"Point"},"properties":{"osm_id":"7009217213","tag":{"amenity":"waste_basket","colour":"red","waste":"trash"}},"type":"Feature"},
	{"geometry":{"coordinates":[6.237968,46.198344],"type":"Point"},"properties":{"osm_id":"7015250762","tag":{"amenity":"waste_basket","waste":"trash"}},"type":"Feature"},
	{"geometry":{"coordinates":[6.235561,46.197227],"type":"Point"},"properties":{"osm_id":"7015250763","tag":{"amenity":"waste_basket","colour":"blue","waste":"trash"}},"type":"Feature"},
	{"geometry":{"coordinates":[6.235696,46.195206],"type":"Point"},"properties":{"osm_id":"7020378419","tag":{"amenity":"waste_basket","colour":"black","waste":"trash"}},"type":"Feature"},
	{"geometry":{"coordinates":[6.237981,46.198616],"type":"Point"},"properties":{"osm_id":"7020378422","tag":{"amenity":"waste_basket","waste":"dog_excrement"}},"type":"Feature"},
	{"geometry":{"coordinates":[6.237751,46.19688],"type":"Point"},"properties":{"osm_id":"7029532320","tag":{"amenity":"waste_basket","colour":"green","waste":"dog_excrement"}},"type":"Feature"},
	{"geometry":{"coordinates":[6.236217,46.197943],"type":"Point"},"properties":{"osm_id":"7029532323","tag":{"amenity":"waste_basket","colour":"orange","waste":"trash"}},"type":"Feature"},
	{"geometry":{"coordinates":[6.231219,46.195748],"type":"Point"},"properties":{"osm_id":"7029532324","tag":{"amenity":"waste_basket","colour":"black","waste":"trash"}},"type":"Feature"},
	{"geometry":{"coordinates":[6.235961,46.197938],"type":"Point"},"properties":{"osm_id":"7039198740","tag":{"amenity":"waste_basket","colour":"black","waste":"trash"}},"type":"Feature"},
	{"geometry":{"coordinates":[6.236944,46.196091],"type":"Point"},"properties":{"osm_id":"7039198741","tag":{"amenity":"waste_basket","colour":"blue","waste":"trash"}},"type":"Feature"},
	{"geometry":{"coordinates":[6.238711,46.195225],"type":"Point"},"properties":{"osm_id":"7039198742","tag":{"amenity":"waste_basket","colour":"blue","waste":"trash"}},"type":"Feature"},
	{"geometry":{"coordinates":[6.234384,46.201865],"type":"Point"},"properties":{"osm_id":"7052749682","tag":{"amenity":"waste_basket","colour":"brown","waste":"trash"}},"type":"Feature"},
	{"geometry":{"coordinates":[6.2348,46.201745],"type":"Point"},"properties":{"osm_id":"7078438659","tag":{"amenity":"recycling","opening_hours":"24/7","operator":"Sidefage","recycling:glass_bottles":"yes","recycling_type":"container"}},"type":"Feature"},
	{"geometry":{"coordinates":[6.238917,46.20471],"type":"Point"},"properties":{"osm_id":"7197953306","tag":{"amenity":"recycling","opening_hours":"24/7","operator":"Le Relais","recycling:clothes":"yes","recycling_type":"container"}},"type":"Feature"},
	{"geometry":{"coordinates":[6.239858,46.196659],"type":"Point"},"properties":{"osm_id":"7251467950","tag":{"amenity":"waste_basket","colour":"pink","waste":"trash"}},"type":"Feature"},
	{"geometry":{"coordinates":[6.237879,46.199239],"type":"Point"},"properties":{"osm_id":"7806161499","tag":{"amenity":"waste_basket","colour":"yellow","waste":"trash"}},"type":"Feature"},
	{"geometry":{"coordinates":[6.238472,46.199572],"type":"Point"},"properties":{"osm_id":"7806161500","tag":{"amenity":"waste_basket","colour":"yellow","waste":"trash"}},"type":"Feature"},
	{"geometry":{"coordinates":[6.238006,46.199454],"type":"Point"},"properties":{"osm_id":"7806161501","tag":{"amenity":"waste_basket","colour":"yellow","waste":"trash"}},"type":"Feature"},
	{"geometry":{"coordinates":[6.238131,46.199525],"type":"Point"},"properties":{"osm_id":"7806161502","tag":{"amenity":"waste_basket","colour":"yellow","waste":"trash"}},"type":"Feature"},
	{"geometry":{"coordinates":[6.238186,46.199555],"type":"Point"},"properties":{"osm_id":"7806161503","tag":{"amenity":"waste_basket","colour":"yellow","waste":"trash"}},"type":"Feature"},
	{"geometry":{"coordinates":[6.238271,46.199603],"type":"Point"},"properties":{"osm_id":"7806161504","tag":{"amenity":"waste_basket","colour":"yellow","waste":"trash"}},"type":"Feature"},
	{"geometry":{"coordinates":[6.238355,46.19965],"type":"Point"},"properties":{"osm_id":"7806161505","tag":{"amenity":"waste_basket","colour":"yellow","waste":"trash"}},"type":"Feature"},
	{"geometry":{"coordinates":[6.238436,46.199696],"type":"Point"},"properties":{"osm_id":"7806161506","tag":{"amenity":"waste_basket","colour":"yellow","waste":"trash"}},"type":"Feature"},
	{"geometry":{"coordinates":[6.238628,46.199803],"type":"Point"},"properties":{"osm_id":"7806161507","tag":{"amenity":"waste_basket","colour":"yellow","waste":"trash"}},"type":"Feature"},
	{"geometry":{"coordinates":[6.23872,46.199855],"type":"Point"},"properties":{"osm_id":"7806161508","tag":{"amenity":"waste_basket","colour":"yellow","waste":"trash"}},"type":"Feature"},
	{"geometry":{"coordinates":[6.154251,46.254907],"type":"Point"},"properties":{"osm_id":"7890290205","tag":{"amenity":"waste_disposal"}},"type":"Feature"},
	{"geometry":{"coordinates":[6.154241,46.254881],"type":"Point"},"properties":{"osm_id":"7890290206","tag":{"amenity":"recycling","recycling_type":"container"}},"type":"Feature"},
	{"geometry":{"coordinates":[6.237164,46.199211],"type":"Point"},"properties":{"osm_id":"7905929561","tag":{"amenity":"waste_basket","colour":"yellow","waste":"trash"}},"type":"Feature"},
	{"geometry":{"coordinates":[6.23656,46.198854],"type":"Point"},"properties":{"osm_id":"7905929565","tag":{"amenity":"waste_basket","colour":"yellow","waste":"trash"}},"type":"Feature"}
]
}
