{
"type": "FeatureCollection",
"features": [
	{"geometry":{"coordinates":[6.163215,45.926188],"type":"Point"},"properties":{"osm_id":"888593339","tag":{"amenity":"recycling","recycling:beverage_cartons":"yes","recycling:cans":"yes","recycling:cartons":"yes","recycling:glass_bottles":"yes","recycling:magazines":"yes","recycling:newspaper":"yes","recycling:paper":"yes","recycling:paper_packaging":"yes","recycling:plastic_bottles":"yes","recycling_type":"container"}},"type":"Feature"},
	{"geometry":{"coordinates":[6.167918,45.894085],"type":"Point"},"properties":{"osm_id":"4448519193","tag":{"amenity":"waste_disposal","location":"underground"}},"type":"Feature"},
	{"geometry":{"coordinates":[6.167899,45.894102],"type":"Point"},"properties":{"osm_id":"4448519194","tag":{"amenity":"recycling","location":"underground","opening_hours":"24/7","recycling:glass":"yes","recycling:glass_bottles":"yes","recycling_type":"container","wheelchair":"yes"}},"type":"Feature"},
	{"geometry":{"coordinates":[6.152719,45.925811],"type":"Point"},"properties":{"osm_id":"4680528766","tag":{"amenity":"waste_basket"}},"type":"Feature"},
	{"geometry":{"coordinates":[6.165848,45.924583],"type":"Point"},"properties":{"osm_id":"4680528776","tag":{"amenity":"waste_basket"}},"type":"Feature"},
	{"geometry":{"coordinates":[6.166649,45.927084],"type":"Point"},"properties":{"osm_id":"4680528778","tag":{"amenity":"waste_basket"}},"type":"Feature"},
	{"geometry":{"coordinates":[6.163293,45.9267],"type":"Point"},"properties":{"osm_id":"4680528783","tag":{"amenity":"waste_basket"}},"type":"Feature"},
	{"geometry":{"coordinates":[6.155199,45.945512],"type":"Point"},"properties":{"osm_id":"4927407463","tag":{"amenity":"recycling","recycling_type":"container"}},"type":"Feature"},
	{"geometry":{"coordinates":[6.153716,45.911348],"type":"Point"},"properties":{"osm_id":"5001917315","tag":{"amenity":"recycling","recycling:cans":"yes","recycling:glass_bottles":"yes","recycling_type":"container"}},"type":"Feature"},
	{"geometry":{"coordinates":[6.153724,45.911325],"type":"Point"},"properties":{"osm_id":"5001917316","tag":{"amenity":"waste_basket"}},"type":"Feature"},
	{"geometry":{"coordinates":[6.17005,45.921663],"type":"Point"},"properties":{"osm_id":"5002240909","tag":{"amenity":"recycling","recycling:glass":"yes","recycling_type":"container"}},"type":"Feature"},
	{"geometry":{"coordinates":[6.170395,45.921603],"type":"Point"},"properties":{"osm_id":"5002240910","tag":{"amenity":"waste_basket"}},"type":"Feature"},
	{"geometry":{"coordinates":[6.154091,45.928827],"type":"Point"},"properties":{"osm_id":"5044515125","tag":{"amenity":"waste_basket"}},"type":"Feature"},
	{"geometry":{"coordinates":[6.154089,45.928449],"type":"Point"},"properties":{"osm_id":"5044515126","tag":{"amenity":"waste_basket"}},"type":"Feature"},
	{"geometry":{"coordinates":[6.155533,45.924777],"type":"Point"},"properties":{"osm_id":"5044546259","tag":{"amenity":"recycling","recycling:glass_bottles":"yes","recycling_type":"container"}},"type":"Feature"},
	{"geometry":{"coordinates":[6.155388,45.926608],"type":"Point"},"properties":{"osm_id":"5053858592","tag":{"amenity":"waste_basket"}},"type":"Feature"},
	{"geometry":{"coordinates":[6.156729,45.927139],"type":"Point"},"properties":{"osm_id":"6481595292","tag":{"amenity":"waste_basket"}},"type":"Feature"},
	{"geometry":{"coordinates":[6.189671,45.949427],"type":"Point"},"properties":{"osm_id":"6695862658","tag":{"amenity":"recycling","recycling:cans":"yes","recycling:glass_bottles":"yes","recycling:paper":"yes","recycling:plastic":"yes","recycling_type":"container"}},"type":"Feature"},
	{"geometry":{"coordinates":[6.186356,45.947325],"type":"Point"},"properties":{"osm_id":"6695914827","tag":{"amenity":"waste_disposal"}},"type":"Feature"},
	{"geometry":{"coordinates":[6.185111,45.931318],"type":"Point"},"properties":{"osm_id":"6924736592","tag":{"amenity":"recycling"}},"type":"Feature"},
	{"geometry":{"coordinates":[6.189226,45.934728],"type":"Point"},"properties":{"osm_id":"6924750838","tag":{"amenity":"recycling"}},"type":"Feature"},
	{"geometry":{"coordinates":[6.159423,45.93147],"type":"Point"},"properties":{"osm_id":"7001763277","tag":{"amenity":"waste_basket"}},"type":"Feature"},
	{"geometry":{"coordinates":[6.156488,45.932073],"type":"Point"},"properties":{"osm_id":"7001792758","tag":{"amenity":"waste_basket"}},"type":"Feature"},
	{"geometry":{"coordinates":[6.158646,45.932773],"type":"Point"},"properties":{"osm_id":"7001803400","tag":{"amenity":"waste_basket"}},"type":"Feature"},
	{"geometry":{"coordinates":[6.178949,45.928036],"type":"Point"},"properties":{"osm_id":"7620650793","tag":{"amenity":"recycling","recycling:glass_bottles":"yes","recycling_type":"container"}},"type":"Feature"},
	{"geometry":{"coordinates":[6.1655,45.894707],"type":"Point"},"properties":{"osm_id":"7822643487","tag":{"amenity":"waste_basket"}},"type":"Feature"},
	{"geometry":{"coordinates":[6.158418,45.90526],"type":"Point"},"properties":{"osm_id":"8422931119","tag":{"amenity":"waste_disposal","waste":"trash"}},"type":"Feature"},
	{"geometry":{"coordinates":[6.15845,45.905257],"type":"Point"},"properties":{"osm_id":"8422931120","tag":{"amenity":"recycling","recycling:glass_bottles":"yes","recycling_type":"container"}},"type":"Feature"},
	{"geometry":{"coordinates":[6.166025,45.939979],"type":"Point"},"properties":{"osm_id":"8610333904","tag":{"amenity":"recycling","recycling_type":"container"}},"type":"Feature"},
	{"geometry":{"coordinates":[6.189318,45.934823],"type":"Point"},"properties":{"osm_id":"8620450385","tag":{"amenity":"recycling","recycling:glass_bottles":"yes","recycling_type":"container"}},"type":"Feature"},
	{"geometry":{"coordinates":[6.189296,45.934807],"type":"Point"},"properties":{"osm_id":"8620450386","tag":{"amenity":"recycling","recycling:paper":"yes","recycling_type":"container"}},"type":"Feature"},
	{"geometry":{"coordinates":[6.189278,45.934791],"type":"Point"},"properties":{"osm_id":"8620450387","tag":{"amenity":"waste_disposal","recycling:paper":"yes"}},"type":"Feature"},
	{"geometry":{"coordinates":[6.18926,45.934772],"type":"Point"},"properties":{"osm_id":"8620450388","tag":{"amenity":"recycling","recycling:clothes":"yes","recycling_type":"container"}},"type":"Feature"},
	{"geometry":{"coordinates":[6.158709,45.905761],"type":"Point"},"properties":{"osm_id":"8693455214","tag":{"amenity":"recycling","recycling:glass_bottles":"yes","recycling_type":"container"}},"type":"Feature"},
	{"geometry":{"coordinates":[6.158701,45.905754],"type":"Point"},"properties":{"osm_id":"8693455215","tag":{"amenity":"recycling","recycling:glass_bottles":"yes","recycling_type":"container"}},"type":"Feature"},
	{"geometry":{"coordinates":[6.158082,45.913408],"type":"Point"},"properties":{"osm_id":"8693522531","tag":{"amenity":"waste_disposal"}},"type":"Feature"},
	{"geometry":{"coordinates":[6.165465,45.921204],"type":"Point"},"properties":{"osm_id":"8709524985","tag":{"access":"yes","amenity":"waste_disposal","waste":"recycling;normal"}},"type":"Feature"},
	{"geometry":{"coordinates":[6.222074,45.907464],"type":"Point"},"properties":{"osm_id":"8807298620","tag":{"amenity":"waste_basket","material":"wood","survey:date":"2021-06-05"}},"type":"Feature"},
	{"geometry":{"coordinates":[6.222604,45.902097],"type":"Point"},"properties":{"osm_id":"8821529732","tag":{"amenity":"recycling","recycling_type":"container"}},"type":"Feature"}
]
}
