{
"type": "FeatureCollection",
"features": [
	{"geometry":{"coordinates":[6.19089,44.56672],"type":"Point"},"properties":{"name":"point Ordure m\u00c3\u00a9nag\u00c3\u00a9re","osm_id":"2403184714","tag":{"amenity":"recycling","recycling:glass":"yes","recycling:paper":"yes","recycling:paper_packaging":"yes"}},"type":"Feature"},
	{"geometry":{"coordinates":[6.204721,44.563946],"type":"Point"},"properties":{"osm_id":"2409468972","tag":{"amenity":"recycling","recycling:glass":"yes","recycling:paper":"yes","recycling_type":"container"}},"type":"Feature"},
	{"geometry":{"coordinates":[6.197076,44.564931],"type":"Point"},"properties":{"osm_id":"3033122040","tag":{"amenity":"waste_disposal"}},"type":"Feature"},
	{"geometry":{"coordinates":[6.197337,44.565081],"type":"Point"},"properties":{"osm_id":"3033122041","tag":{"amenity":"waste_disposal"}},"type":"Feature"},
	{"geometry":{"coordinates":[6.194509,44.56528],"type":"Point"},"properties":{"osm_id":"3033122042","tag":{"amenity":"waste_disposal"}},"type":"Feature"},
	{"geometry":{"coordinates":[6.195645,44.565747],"type":"Point"},"properties":{"osm_id":"3033122046","tag":{"amenity":"waste_disposal"}},"type":"Feature"},
	{"geometry":{"coordinates":[6.196069,44.56645],"type":"Point"},"properties":{"osm_id":"3033122047","tag":{"amenity":"waste_disposal"}},"type":"Feature"},
	{"geometry":{"coordinates":[6.195654,44.566465],"type":"Point"},"properties":{"osm_id":"3033122048","tag":{"amenity":"waste_disposal"}},"type":"Feature"},
	{"geometry":{"coordinates":[6.196821,44.56666],"type":"Point"},"properties":{"osm_id":"3033122049","tag":{"amenity":"waste_disposal"}},"type":"Feature"},
	{"geometry":{"coordinates":[6.190823,44.566748],"type":"Point"},"properties":{"osm_id":"3033122054","tag":{"amenity":"waste_disposal"}},"type":"Feature"},
	{"geometry":{"coordinates":[6.196027,44.566882],"type":"Point"},"properties":{"osm_id":"3033122055","tag":{"amenity":"waste_disposal"}},"type":"Feature"},
	{"geometry":{"coordinates":[6.195409,44.567879],"type":"Point"},"properties":{"osm_id":"3033122057","tag":{"amenity":"waste_disposal"}},"type":"Feature"},
	{"geometry":{"coordinates":[6.196326,44.567968],"type":"Point"},"properties":{"osm_id":"3033122058","tag":{"amenity":"waste_disposal"}},"type":"Feature"},
	{"geometry":{"coordinates":[6.195447,44.568352],"type":"Point"},"properties":{"osm_id":"3033122060","tag":{"amenity":"waste_disposal"}},"type":"Feature"},
	{"geometry":{"coordinates":[6.195917,44.568582],"type":"Point"},"properties":{"osm_id":"3033122061","tag":{"amenity":"waste_disposal"}},"type":"Feature"},
	{"geometry":{"coordinates":[6.195258,44.568833],"type":"Point"},"properties":{"osm_id":"3033122062","tag":{"amenity":"waste_disposal"}},"type":"Feature"},
	{"geometry":{"coordinates":[6.193153,44.568853],"type":"Point"},"properties":{"osm_id":"3033122063","tag":{"amenity":"waste_disposal"}},"type":"Feature"},
	{"geometry":{"coordinates":[6.235286,44.557278],"type":"Point"},"properties":{"osm_id":"3078025395","tag":{"amenity":"recycling","recycling:waste":"yes"}},"type":"Feature"},
	{"geometry":{"coordinates":[6.195872,44.566856],"type":"Point"},"properties":{"osm_id":"5848257816","tag":{"amenity":"recycling","recycling:glass":"yes","recycling:paper":"yes","recycling:paper_packaging":"yes","recycling_type":"container"}},"type":"Feature"},
	{"geometry":{"coordinates":[6.184926,44.573418],"type":"Point"},"properties":{"osm_id":"6447875914","tag":{"amenity":"recycling","recycling_type":"container"}},"type":"Feature"},
	{"geometry":{"coordinates":[6.220694,44.558778],"type":"Point"},"properties":{"osm_id":"7252729556","tag":{"amenity":"recycling","recycling_type":"container"}},"type":"Feature"},
	{"geometry":{"coordinates":[6.20907,44.557174],"type":"Point"},"properties":{"name":"D\u00c3\u00a9ch\u00c3\u00a8terie d'Avan\u00c3\u00a7on","osm_id":"7875066756","tag":{"amenity":"recycling","recycling_type":"centre"}},"type":"Feature"}
]
}
