{
"type": "FeatureCollection",
"features": [
	{"geometry":{"coordinates":[6.195074,44.465467],"type":"Point"},"properties":{"osm_id":"3028114635","tag":{"amenity":"recycling","recycling:cans":"yes","recycling:glass":"yes","recycling:paper":"yes","recycling_type":"container"}},"type":"Feature"},
	{"geometry":{"coordinates":[6.170633,44.467847],"type":"Point"},"properties":{"osm_id":"3028114637","tag":{"amenity":"recycling","recycling:cans":"yes","recycling:glass":"yes","recycling:paper":"yes","recycling_type":"container"}},"type":"Feature"},
	{"geometry":{"coordinates":[6.155687,44.521103],"type":"Point"},"properties":{"osm_id":"3255792838","tag":{"amenity":"recycling","recycling:cans":"yes","recycling:glass":"yes","recycling:paper":"no","recycling:scrap_metal":"no","recycling_type":"container"}},"type":"Feature"},
	{"geometry":{"coordinates":[6.15238,44.520171],"type":"Point"},"properties":{"osm_id":"3257407165","tag":{"amenity":"recycling"}},"type":"Feature"},
	{"geometry":{"coordinates":[6.157958,44.50311],"type":"Point"},"properties":{"osm_id":"3767440762","tag":{"amenity":"waste_basket"}},"type":"Feature"},
	{"geometry":{"coordinates":[6.15787,44.503254],"type":"Point"},"properties":{"osm_id":"3767440763","tag":{"amenity":"recycling","recycling:glass":"yes","recycling:paper":"yes","recycling:plastic":"yes","recycling_type":"container"}},"type":"Feature"},
	{"geometry":{"coordinates":[6.22508,44.466191],"type":"Point"},"properties":{"osm_id":"5908242830","tag":{"amenity":"recycling","recycling_type":"container"}},"type":"Feature"},
	{"geometry":{"coordinates":[6.225343,44.466617],"type":"Point"},"properties":{"osm_id":"5908274075","tag":{"amenity":"waste_basket"}},"type":"Feature"},
	{"geometry":{"coordinates":[6.223156,44.467486],"type":"Point"},"properties":{"osm_id":"5908297584","tag":{"amenity":"recycling","recycling_type":"container"}},"type":"Feature"},
	{"geometry":{"coordinates":[6.221883,44.46784],"type":"Point"},"properties":{"osm_id":"5908298290","tag":{"amenity":"recycling","recycling_type":"container"}},"type":"Feature"},
	{"geometry":{"coordinates":[6.220125,44.466707],"type":"Point"},"properties":{"osm_id":"5908331699","tag":{"amenity":"recycling","recycling_type":"container"}},"type":"Feature"},
	{"geometry":{"coordinates":[6.219696,44.46758],"type":"Point"},"properties":{"osm_id":"5908331712","tag":{"amenity":"recycling","recycling_type":"container"}},"type":"Feature"},
	{"geometry":{"coordinates":[6.21672,44.466925],"type":"Point"},"properties":{"osm_id":"5908331714","tag":{"amenity":"recycling","recycling_type":"container"}},"type":"Feature"},
	{"geometry":{"coordinates":[6.221424,44.467245],"type":"Point"},"properties":{"osm_id":"5908341339","tag":{"amenity":"recycling","recycling_type":"container"}},"type":"Feature"},
	{"geometry":{"coordinates":[6.223597,44.466481],"type":"Point"},"properties":{"osm_id":"5908341343","tag":{"amenity":"recycling","recycling_type":"container"}},"type":"Feature"},
	{"geometry":{"coordinates":[6.176504,44.520824],"type":"Point"},"properties":{"osm_id":"5927488263","tag":{"amenity":"recycling","recycling_type":"container"}},"type":"Feature"},
	{"geometry":{"coordinates":[6.183143,44.465217],"type":"Point"},"properties":{"name":"D\u00c3\u00a9ch\u00c3\u00a8terie de Remollon","osm_id":"7875000141","tag":{"amenity":"recycling","recycling_type":"centre"}},"type":"Feature"}
]
}
