{
"type": "FeatureCollection",
"features": [
	{"geometry":{"coordinates":[6.22657,44.089307],"type":"Point"},"properties":{"osm_id":"4267988389","tag":{"amenity":"recycling","recycling:cans":"yes","recycling:glass":"yes","recycling_type":"container"}},"type":"Feature"},
	{"geometry":{"coordinates":[6.232502,44.092379],"type":"Point"},"properties":{"osm_id":"4413399175","tag":{"amenity":"recycling","location":"overground","recycling_type":"container","survey:date":"2017-07-21"}},"type":"Feature"},
	{"geometry":{"coordinates":[6.231669,44.091833],"type":"Point"},"properties":{"osm_id":"4413407874","tag":{"amenity":"recycling","location":"overground","recycling:glass_bottles":"yes","recycling:plastic":"yes","recycling_type":"container","survey:date":"2017-07-21"}},"type":"Feature"},
	{"geometry":{"coordinates":[6.222975,44.088713],"type":"Point"},"properties":{"osm_id":"4426497531","tag":{"amenity":"waste_basket"}},"type":"Feature"},
	{"geometry":{"coordinates":[6.222948,44.088667],"type":"Point"},"properties":{"osm_id":"4426497758","tag":{"amenity":"waste_basket"}},"type":"Feature"},
	{"geometry":{"coordinates":[6.233618,44.093287],"type":"Point"},"properties":{"osm_id":"4457814676","tag":{"amenity":"waste_disposal","survey:date":"2017-07-03"}},"type":"Feature"},
	{"geometry":{"coordinates":[6.230818,44.092624],"type":"Point"},"properties":{"osm_id":"4457817625","tag":{"amenity":"waste_disposal","survey:date":"2017-07-21"}},"type":"Feature"},
	{"geometry":{"coordinates":[6.231899,44.093178],"type":"Point"},"properties":{"osm_id":"4457817641","tag":{"amenity":"waste_disposal","survey:date":"2019-03-01"}},"type":"Feature"},
	{"geometry":{"coordinates":[6.23184,44.093363],"type":"Point"},"properties":{"osm_id":"4457817648","tag":{"amenity":"waste_disposal","survey:date":"2019-03-01"}},"type":"Feature"},
	{"geometry":{"coordinates":[6.231576,44.094003],"type":"Point"},"properties":{"osm_id":"4457818077","tag":{"amenity":"waste_disposal","survey:date":"2019-03-01"}},"type":"Feature"},
	{"geometry":{"coordinates":[6.235305,44.093016],"type":"Point"},"properties":{"osm_id":"4720426760","tag":{"amenity":"recycling","recycling_type":"container"}},"type":"Feature"},
	{"geometry":{"coordinates":[6.230245,44.090113],"type":"Point"},"properties":{"osm_id":"4747205775","tag":{"amenity":"waste_basket"}},"type":"Feature"},
	{"geometry":{"coordinates":[6.229888,44.089835],"type":"Point"},"properties":{"osm_id":"4747205779","tag":{"amenity":"waste_basket"}},"type":"Feature"},
	{"geometry":{"coordinates":[6.238128,44.090684],"type":"Point"},"properties":{"osm_id":"5232227522","tag":{"addr:city":"Digne-les-Bains","addr:postcode":"04000","addr:street":"Avenue de Bad Mergentheim","amenity":"recycling","recycling:cans":"yes","recycling:glass_bottles":"yes","recycling:paper":"yes","recycling:plastic_bottles":"yes","recycling_type":"container","waste":"poubelle recyclage, dechet m\u00c3\u00a9nagers"}},"type":"Feature"},
	{"geometry":{"coordinates":[6.232685,44.090687],"type":"Point"},"properties":{"osm_id":"5315170134","tag":{"amenity":"recycling","recycling:cans":"yes","recycling:glass":"yes","recycling:paper":"yes","recycling:plastic":"yes","recycling_type":"container","survey_date":"2017-04-13"}},"type":"Feature"},
	{"geometry":{"coordinates":[6.238683,44.093441],"type":"Point"},"properties":{"osm_id":"5482893113","tag":{"amenity":"recycling","recycling_type":"container"}},"type":"Feature"},
	{"geometry":{"coordinates":[6.235233,44.092927],"type":"Point"},"properties":{"osm_id":"5651969402","tag":{"amenity":"recycling","recycling_type":"container","survey:date":"2018-09-10"}},"type":"Feature"},
	{"geometry":{"coordinates":[6.235038,44.095448],"type":"Point"},"properties":{"osm_id":"5651969403","tag":{"amenity":"recycling","recycling_type":"container"}},"type":"Feature"},
	{"geometry":{"coordinates":[6.235015,44.095492],"type":"Point"},"properties":{"osm_id":"5651969404","tag":{"amenity":"waste_disposal"}},"type":"Feature"},
	{"geometry":{"coordinates":[6.23458,44.096072],"type":"Point"},"properties":{"osm_id":"5651969405","tag":{"amenity":"recycling","recycling_type":"container"}},"type":"Feature"},
	{"geometry":{"coordinates":[6.234148,44.096929],"type":"Point"},"properties":{"osm_id":"5651969406","tag":{"amenity":"recycling","recycling_type":"container"}},"type":"Feature"},
	{"geometry":{"coordinates":[6.233263,44.098056],"type":"Point"},"properties":{"osm_id":"5651969407","tag":{"amenity":"recycling","recycling_type":"container"}},"type":"Feature"},
	{"geometry":{"coordinates":[6.23294,44.098446],"type":"Point"},"properties":{"osm_id":"5651969408","tag":{"amenity":"recycling","recycling_type":"container"}},"type":"Feature"},
	{"geometry":{"coordinates":[6.232232,44.099392],"type":"Point"},"properties":{"osm_id":"5651969409","tag":{"amenity":"recycling","recycling_type":"container"}},"type":"Feature"},
	{"geometry":{"coordinates":[6.231659,44.100107],"type":"Point"},"properties":{"osm_id":"5651969410","tag":{"amenity":"recycling","recycling_type":"container"}},"type":"Feature"},
	{"geometry":{"coordinates":[6.230819,44.101209],"type":"Point"},"properties":{"osm_id":"5651969411","tag":{"amenity":"recycling","recycling:glass_bottles":"yes","recycling:plastic":"yes","recycling_type":"container"}},"type":"Feature"},
	{"geometry":{"coordinates":[6.235408,44.095327],"type":"Point"},"properties":{"osm_id":"5651969412","tag":{"amenity":"recycling","recycling_type":"container"}},"type":"Feature"},
	{"geometry":{"coordinates":[6.235611,44.093865],"type":"Point"},"properties":{"osm_id":"5651969415","tag":{"amenity":"recycling","recycling:cans":"yes","recycling:paper":"yes","recycling:plastic_bottles":"yes","recycling_type":"container"}},"type":"Feature"},
	{"geometry":{"coordinates":[6.233731,44.097132],"type":"Point"},"properties":{"osm_id":"5651969416","tag":{"amenity":"recycling","recycling_type":"container"}},"type":"Feature"},
	{"geometry":{"coordinates":[6.233623,44.097569],"type":"Point"},"properties":{"osm_id":"5651969417","tag":{"amenity":"recycling","recycling_type":"container"}},"type":"Feature"},
	{"geometry":{"coordinates":[6.231094,44.100677],"type":"Point"},"properties":{"osm_id":"5651969418","tag":{"amenity":"recycling","recycling_type":"container"}},"type":"Feature"},
	{"geometry":{"coordinates":[6.230967,44.101726],"type":"Point"},"properties":{"osm_id":"5651969419","tag":{"amenity":"waste_disposal"}},"type":"Feature"},
	{"geometry":{"coordinates":[6.230241,44.098773],"type":"Point"},"properties":{"osm_id":"5651969420","tag":{"amenity":"recycling","recycling:plastic":"no","recycling:plastic_packaging":"yes","recycling_type":"container"}},"type":"Feature"},
	{"geometry":{"coordinates":[6.230222,44.098734],"type":"Point"},"properties":{"osm_id":"5651969621","tag":{"amenity":"waste_disposal"}},"type":"Feature"},
	{"geometry":{"coordinates":[6.230044,44.09834],"type":"Point"},"properties":{"osm_id":"5651969622","tag":{"amenity":"waste_disposal"}},"type":"Feature"},
	{"geometry":{"coordinates":[6.230336,44.096511],"type":"Point"},"properties":{"osm_id":"5651969623","tag":{"amenity":"recycling","recycling:plastic":"yes","recycling_type":"container"}},"type":"Feature"},
	{"geometry":{"coordinates":[6.230432,44.096103],"type":"Point"},"properties":{"osm_id":"5651969625","tag":{"amenity":"waste_disposal"}},"type":"Feature"},
	{"geometry":{"coordinates":[6.236133,44.096291],"type":"Point"},"properties":{"osm_id":"5651969629","tag":{"amenity":"recycling","recycling_type":"container"}},"type":"Feature"},
	{"geometry":{"coordinates":[6.23745,44.096096],"type":"Point"},"properties":{"osm_id":"5651969630","tag":{"amenity":"recycling","recycling_type":"container","survey:date":"2019-03-01"}},"type":"Feature"},
	{"geometry":{"coordinates":[6.237359,44.096084],"type":"Point"},"properties":{"osm_id":"5651969631","tag":{"amenity":"recycling","recycling_type":"container","survey:date":"2019-03-01"}},"type":"Feature"},
	{"geometry":{"coordinates":[6.237334,44.096059],"type":"Point"},"properties":{"osm_id":"5651969632","tag":{"amenity":"waste_disposal"}},"type":"Feature"},
	{"geometry":{"coordinates":[6.237513,44.096091],"type":"Point"},"properties":{"osm_id":"5651969633","tag":{"amenity":"waste_disposal","survey:date":"2019-03-01"}},"type":"Feature"},
	{"geometry":{"coordinates":[6.238386,44.096244],"type":"Point"},"properties":{"osm_id":"5651969634","tag":{"amenity":"recycling","recycling_type":"container"}},"type":"Feature"},
	{"geometry":{"coordinates":[6.239809,44.096617],"type":"Point"},"properties":{"osm_id":"5651969635","tag":{"amenity":"recycling","recycling:cans":"yes","recycling:paper":"yes","recycling:plastic_bottles":"yes","recycling_type":"container"}},"type":"Feature"},
	{"geometry":{"coordinates":[6.239776,44.096479],"type":"Point"},"properties":{"osm_id":"5651969636","tag":{"amenity":"waste_disposal"}},"type":"Feature"},
	{"geometry":{"coordinates":[6.240232,44.096678],"type":"Point"},"properties":{"osm_id":"5651969637","tag":{"amenity":"recycling","recycling_type":"container"}},"type":"Feature"},
	{"geometry":{"coordinates":[6.225305,44.088162],"type":"Point"},"properties":{"osm_id":"5933852859","tag":{"amenity":"recycling","recycling_type":"container"}},"type":"Feature"},
	{"geometry":{"coordinates":[6.222285,44.088173],"type":"Point"},"properties":{"osm_id":"5933852862","tag":{"amenity":"recycling","recycling_type":"container"}},"type":"Feature"},
	{"geometry":{"coordinates":[6.222666,44.088232],"type":"Point"},"properties":{"osm_id":"5933852863","tag":{"amenity":"recycling","recycling_type":"container"}},"type":"Feature"},
	{"geometry":{"coordinates":[6.218164,44.087634],"type":"Point"},"properties":{"osm_id":"5933852864","tag":{"amenity":"recycling","recycling_type":"container"}},"type":"Feature"},
	{"geometry":{"coordinates":[6.233724,44.105048],"type":"Point"},"properties":{"osm_id":"6046630874","tag":{"addr:city":"Digne-les-Bains","addr:postcode":"04000","addr:street":"Rue Charles Grouiller","amenity":"recycling","recycling:cans":"yes","recycling:paper":"yes","recycling:plastic_bottles":"yes","recycling_type":"container"}},"type":"Feature"},
	{"geometry":{"coordinates":[6.23795,44.094152],"type":"Point"},"properties":{"osm_id":"6060774144","tag":{"addr:city":"Digne-les-Bains","addr:postcode":"04000","addr:street":"Place des Cordeliers","amenity":"recycling","recycling:cans":"yes","recycling:glass":"yes","recycling:paper":"yes","recycling:plastic_bottles":"yes","recycling_type":"container"}},"type":"Feature"},
	{"geometry":{"coordinates":[6.205351,44.10533],"type":"Point"},"properties":{"osm_id":"6161202587","tag":{"amenity":"recycling"}},"type":"Feature"},
	{"geometry":{"coordinates":[6.230236,44.087812],"type":"Point"},"properties":{"osm_id":"6875654170","tag":{"amenity":"recycling","operator":"Agglom\u00c3\u00a9ration PAA","recycling:aluminium":"yes","recycling:beverage_cartons":"yes","recycling:cans":"yes","recycling:cardboard":"yes","recycling:magazines":"yes","recycling:newspaper":"yes","recycling:paper":"yes","recycling:paper_packaging":"yes","recycling:plastic":"yes","recycling:plastic_bottles":"yes","recycling:plastic_packaging":"yes","recycling:waste":"yes","recycling_type":"container"}},"type":"Feature"},
	{"geometry":{"coordinates":[6.230199,44.087618],"type":"Point"},"properties":{"osm_id":"6875654173","tag":{"amenity":"recycling","operator":"Agglom\u00c3\u00a9ration PAA","recycling:aluminium":"yes","recycling:beverage_cartons":"yes","recycling:cans":"yes","recycling:cardboard":"yes","recycling:glass":"yes","recycling:glass_bottles":"yes","recycling:magazines":"yes","recycling:newspaper":"yes","recycling:paper":"yes","recycling:paper_packaging":"yes","recycling:plastic":"yes","recycling:plastic_bottles":"yes","recycling:plastic_packaging":"yes","recycling:waste":"yes","recycling_type":"container"}},"type":"Feature"},
	{"geometry":{"coordinates":[6.228339,44.087719],"type":"Point"},"properties":{"osm_id":"6905970165","tag":{"amenity":"waste_basket"}},"type":"Feature"},
	{"geometry":{"coordinates":[6.232866,44.090666],"type":"Point"},"properties":{"osm_id":"7036970161","tag":{"amenity":"waste_basket","waste":"trash"}},"type":"Feature"},
	{"geometry":{"coordinates":[6.232841,44.090642],"type":"Point"},"properties":{"osm_id":"7036970162","tag":{"amenity":"waste_basket","waste":"dog_excrement"}},"type":"Feature"},
	{"geometry":{"coordinates":[6.231792,44.09049],"type":"Point"},"properties":{"osm_id":"7038991038","tag":{"amenity":"waste_basket","waste":"trash"}},"type":"Feature"},
	{"geometry":{"coordinates":[6.232054,44.090825],"type":"Point"},"properties":{"osm_id":"7039000415","tag":{"amenity":"waste_basket","waste":"trash"}},"type":"Feature"},
	{"geometry":{"coordinates":[6.227977,44.08763],"type":"Point"},"properties":{"osm_id":"7040307865","tag":{"amenity":"waste_basket","waste":"trash"}},"type":"Feature"},
	{"geometry":{"coordinates":[6.231586,44.090614],"type":"Point"},"properties":{"osm_id":"7040362618","tag":{"amenity":"waste_basket"}},"type":"Feature"},
	{"geometry":{"coordinates":[6.230689,44.091484],"type":"Point"},"properties":{"osm_id":"7070439767","tag":{"amenity":"waste_disposal"}},"type":"Feature"},
	{"geometry":{"coordinates":[6.230688,44.091475],"type":"Point"},"properties":{"osm_id":"7070439768","tag":{"amenity":"recycling","recycling_type":"container"}},"type":"Feature"},
	{"geometry":{"coordinates":[6.233088,44.09095],"type":"Point"},"properties":{"osm_id":"7099365012","tag":{"amenity":"recycling","recycling_type":"container"}},"type":"Feature"},
	{"geometry":{"coordinates":[6.2327,44.091574],"type":"Point"},"properties":{"osm_id":"7099365013","tag":{"amenity":"waste_basket","waste":"dog_excrement"}},"type":"Feature"},
	{"geometry":{"coordinates":[6.232705,44.091569],"type":"Point"},"properties":{"osm_id":"7099365015","tag":{"amenity":"waste_basket"}},"type":"Feature"},
	{"geometry":{"coordinates":[6.232415,44.091569],"type":"Point"},"properties":{"osm_id":"7099365017","tag":{"amenity":"waste_basket"}},"type":"Feature"},
	{"geometry":{"coordinates":[6.232204,44.09147],"type":"Point"},"properties":{"osm_id":"7099365018","tag":{"amenity":"waste_basket"}},"type":"Feature"},
	{"geometry":{"coordinates":[6.231631,44.091292],"type":"Point"},"properties":{"osm_id":"7133137484","tag":{"amenity":"waste_basket"}},"type":"Feature"},
	{"geometry":{"coordinates":[6.230455,44.089639],"type":"Point"},"properties":{"osm_id":"7142274363","tag":{"amenity":"recycling","recycling:green_waste":"yes","recycling_type":"container"}},"type":"Feature"},
	{"geometry":{"coordinates":[6.230462,44.089645],"type":"Point"},"properties":{"osm_id":"7142274364","tag":{"amenity":"recycling","recycling:green_waste":"yes","recycling_type":"container"}},"type":"Feature"},
	{"geometry":{"coordinates":[6.230484,44.089665],"type":"Point"},"properties":{"osm_id":"7142274365","tag":{"amenity":"recycling","recycling:green_waste":"yes","recycling_type":"container"}},"type":"Feature"},
	{"geometry":{"coordinates":[6.230493,44.089672],"type":"Point"},"properties":{"osm_id":"7142274366","tag":{"amenity":"recycling","recycling:green_waste":"yes","recycling_type":"container"}},"type":"Feature"},
	{"geometry":{"coordinates":[6.230501,44.08968],"type":"Point"},"properties":{"osm_id":"7142274367","tag":{"amenity":"recycling","recycling:green_waste":"yes","recycling_type":"container"}},"type":"Feature"},
	{"geometry":{"coordinates":[6.23052,44.089699],"type":"Point"},"properties":{"osm_id":"7142274368","tag":{"amenity":"recycling","recycling:green_waste":"yes","recycling_type":"container"}},"type":"Feature"},
	{"geometry":{"coordinates":[6.230514,44.089693],"type":"Point"},"properties":{"osm_id":"7142274369","tag":{"amenity":"recycling","recycling:green_waste":"yes","recycling_type":"container"}},"type":"Feature"},
	{"geometry":{"coordinates":[6.230507,44.089686],"type":"Point"},"properties":{"osm_id":"7142274370","tag":{"amenity":"recycling","recycling:green_waste":"yes","recycling_type":"container"}},"type":"Feature"},
	{"geometry":{"coordinates":[6.234584,44.091043],"type":"Point"},"properties":{"osm_id":"7156363167","tag":{"amenity":"waste_basket"}},"type":"Feature"},
	{"geometry":{"coordinates":[6.234417,44.091277],"type":"Point"},"properties":{"osm_id":"7156363168","tag":{"amenity":"waste_basket"}},"type":"Feature"},
	{"geometry":{"coordinates":[6.234407,44.091565],"type":"Point"},"properties":{"osm_id":"7156363169","tag":{"amenity":"waste_basket"}},"type":"Feature"},
	{"geometry":{"coordinates":[6.234705,44.092086],"type":"Point"},"properties":{"osm_id":"7156363170","tag":{"amenity":"waste_basket"}},"type":"Feature"},
	{"geometry":{"coordinates":[6.233322,44.09137],"type":"Point"},"properties":{"osm_id":"7188524675","tag":{"amenity":"recycling","recycling:cans":"yes","recycling:cardboard":"yes","recycling:glass":"yes","recycling:glass_bottles":"no","recycling:paper":"yes","recycling:plastic":"yes","recycling:plastic_bottles":"yes","recycling:plastic_packaging":"yes","recycling:waste":"yes","recycling_type":"container"}},"type":"Feature"},
	{"geometry":{"coordinates":[6.230299,44.101143],"type":"Point"},"properties":{"osm_id":"7234191656","tag":{"amenity":"recycling","recycling:clothes":"yes","recycling_type":"container"}},"type":"Feature"},
	{"geometry":{"coordinates":[6.223069,44.088779],"type":"Point"},"properties":{"osm_id":"7276405013","tag":{"amenity":"waste_basket"}},"type":"Feature"},
	{"geometry":{"coordinates":[6.234167,44.090453],"type":"Point"},"properties":{"osm_id":"7407509033","tag":{"amenity":"recycling","recycling:beverage_cartons":"yes","recycling:cans":"yes","recycling:cardboard":"yes","recycling:clothes":"no","recycling:glass":"yes","recycling:glass_bottles":"yes","recycling:magazines":"yes","recycling:newspaper":"yes","recycling:paper":"yes","recycling:paper_packaging":"yes","recycling:plastic":"yes","recycling:plastic_bottles":"yes","recycling:plastic_packaging":"yes","recycling:waste":"yes","recycling_type":"container"}},"type":"Feature"},
	{"geometry":{"coordinates":[6.236221,44.092269],"type":"Point"},"properties":{"osm_id":"7415454853","tag":{"amenity":"waste_basket","waste":"trash"}},"type":"Feature"},
	{"geometry":{"coordinates":[6.234734,44.092513],"type":"Point"},"properties":{"osm_id":"7430666654","tag":{"amenity":"waste_basket"}},"type":"Feature"},
	{"geometry":{"coordinates":[6.225722,44.088752],"type":"Point"},"properties":{"osm_id":"7624636168","tag":{"amenity":"waste_basket","waste":"trash"}},"type":"Feature"},
	{"geometry":{"coordinates":[6.222014,44.089407],"type":"Point"},"properties":{"osm_id":"7639778782","tag":{"amenity":"recycling","recycling_type":"container"}},"type":"Feature"},
	{"geometry":{"coordinates":[6.222005,44.08941],"type":"Point"},"properties":{"osm_id":"7639778783","tag":{"amenity":"waste_basket"}},"type":"Feature"},
	{"geometry":{"coordinates":[6.234166,44.092257],"type":"Point"},"properties":{"osm_id":"7648679988","tag":{"amenity":"waste_basket"}},"type":"Feature"},
	{"geometry":{"coordinates":[6.233745,44.092163],"type":"Point"},"properties":{"osm_id":"7648679989","tag":{"amenity":"waste_basket"}},"type":"Feature"},
	{"geometry":{"coordinates":[6.233953,44.092258],"type":"Point"},"properties":{"osm_id":"7648679992","tag":{"amenity":"waste_basket"}},"type":"Feature"},
	{"geometry":{"coordinates":[6.234371,44.092352],"type":"Point"},"properties":{"osm_id":"7648679993","tag":{"amenity":"waste_basket"}},"type":"Feature"},
	{"geometry":{"coordinates":[6.235048,44.092643],"type":"Point"},"properties":{"osm_id":"7648679994","tag":{"amenity":"waste_basket"}},"type":"Feature"},
	{"geometry":{"coordinates":[6.234661,44.092597],"type":"Point"},"properties":{"osm_id":"7648679995","tag":{"amenity":"waste_basket"}},"type":"Feature"},
	{"geometry":{"coordinates":[6.234955,44.092728],"type":"Point"},"properties":{"osm_id":"7648679996","tag":{"amenity":"waste_basket"}},"type":"Feature"},
	{"geometry":{"coordinates":[6.233313,44.091973],"type":"Point"},"properties":{"osm_id":"7648679998","tag":{"amenity":"waste_basket"}},"type":"Feature"},
	{"geometry":{"coordinates":[6.232993,44.091807],"type":"Point"},"properties":{"osm_id":"7648679999","tag":{"amenity":"waste_basket"}},"type":"Feature"},
	{"geometry":{"coordinates":[6.232483,44.091489],"type":"Point"},"properties":{"osm_id":"7648680002","tag":{"amenity":"waste_basket"}},"type":"Feature"},
	{"geometry":{"coordinates":[6.23229,44.0914],"type":"Point"},"properties":{"osm_id":"7648680003","tag":{"amenity":"waste_basket"}},"type":"Feature"},
	{"geometry":{"coordinates":[6.231668,44.091092],"type":"Point"},"properties":{"osm_id":"7648680004","tag":{"amenity":"waste_basket"}},"type":"Feature"},
	{"geometry":{"coordinates":[6.231397,44.088088],"type":"Point"},"properties":{"osm_id":"7649936668","tag":{"amenity":"recycling","recycling:cans":"yes","recycling:cardboard":"yes","recycling:glass":"yes","recycling:glass_bottles":"yes","recycling:paper":"yes","recycling:plastic":"yes","recycling:plastic_bottles":"yes","recycling:plastic_packaging":"yes","recycling_type":"container"}},"type":"Feature"},
	{"geometry":{"coordinates":[6.230634,44.088805],"type":"Point"},"properties":{"osm_id":"7843614732","tag":{"amenity":"recycling","operator":"Agglom\u00c3\u00a9ration PAA","recycling:aluminium":"yes","recycling:beverage_cartons":"no","recycling:cans":"no","recycling:cardboard":"no","recycling:glass":"yes","recycling:glass_bottles":"yes","recycling:magazines":"no","recycling:newspaper":"no","recycling:paper":"no","recycling:paper_packaging":"no","recycling:plastic":"no","recycling:plastic_bottles":"no","recycling:plastic_packaging":"no","recycling:waste":"yes","recycling_type":"container"}},"type":"Feature"},
	{"geometry":{"coordinates":[6.230409,44.08852],"type":"Point"},"properties":{"osm_id":"7843614733","tag":{"amenity":"recycling","operator":"Agglom\u00c3\u00a9ration PAA","recycling:aluminium":"yes","recycling:beverage_cartons":"yes","recycling:cans":"yes","recycling:cardboard":"yes","recycling:glass":"yes","recycling:glass_bottles":"yes","recycling:magazines":"yes","recycling:newspaper":"yes","recycling:paper":"yes","recycling:paper_packaging":"yes","recycling:plastic":"yes","recycling:plastic_bottles":"yes","recycling:plastic_packaging":"yes","recycling:waste":"yes","recycling_type":"container"}},"type":"Feature"},
	{"geometry":{"coordinates":[6.162222,44.096064],"type":"Point"},"properties":{"osm_id":"7905489272","tag":{"amenity":"recycling","recycling:cans":"yes","recycling:clothes":"no","recycling:glass":"yes","recycling:glass_bottles":"yes","recycling:paper":"yes","recycling:plastic":"yes","recycling:plastic_bottles":"yes","recycling:plastic_packaging":"yes","recycling_type":"container"}},"type":"Feature"}
]
}
