{
"type": "FeatureCollection",
"features": [
	{"geometry":{"coordinates":[6.199097,44.046522],"type":"Point"},"properties":{"osm_id":"3866807963","tag":{"amenity":"waste_basket"}},"type":"Feature"},
	{"geometry":{"coordinates":[6.19914,44.046339],"type":"Point"},"properties":{"osm_id":"3866808195","tag":{"amenity":"waste_basket"}},"type":"Feature"},
	{"geometry":{"coordinates":[6.210985,44.077519],"type":"Point"},"properties":{"osm_id":"4720562486","tag":{"amenity":"recycling","recycling_type":"container"}},"type":"Feature"},
	{"geometry":{"coordinates":[6.208702,44.077653],"type":"Point"},"properties":{"osm_id":"5480584622","tag":{"amenity":"recycling","recycling:cans":"yes","recycling:glass_bottles":"yes","recycling:paper":"yes","recycling:plastic":"yes","recycling:plastic_bags":"yes","recycling:plastic_bottles":"yes","recycling_type":"container","survey:date":"2018-12-11"}},"type":"Feature"},
	{"geometry":{"coordinates":[6.213864,44.083212],"type":"Point"},"properties":{"osm_id":"5480767447","tag":{"amenity":"recycling","recycling_type":"container"}},"type":"Feature"},
	{"geometry":{"coordinates":[6.199316,44.079842],"type":"Point"},"properties":{"osm_id":"5498664722","tag":{"amenity":"recycling","recycling_type":"container"}},"type":"Feature"},
	{"geometry":{"coordinates":[6.167563,44.08552],"type":"Point"},"properties":{"osm_id":"5698844359","tag":{"amenity":"recycling","recycling_type":"container"}},"type":"Feature"},
	{"geometry":{"coordinates":[6.167633,44.085503],"type":"Point"},"properties":{"osm_id":"5698844360","tag":{"amenity":"waste_disposal"}},"type":"Feature"},
	{"geometry":{"coordinates":[6.212534,44.086235],"type":"Point"},"properties":{"osm_id":"5811899635","tag":{"amenity":"recycling","recycling:clothes":"yes","recycling_type":"container"}},"type":"Feature"},
	{"geometry":{"coordinates":[6.207741,44.084728],"type":"Point"},"properties":{"osm_id":"5811927138","tag":{"amenity":"recycling","recycling_type":"container"}},"type":"Feature"},
	{"geometry":{"coordinates":[6.202842,44.077114],"type":"Point"},"properties":{"osm_id":"5812001492","tag":{"amenity":"recycling","recycling:cans":"yes","recycling:glass_bottles":"yes","recycling:paper":"yes","recycling:plastic":"yes","recycling:plastic_bags":"yes","recycling:plastic_bottles":"yes","recycling_type":"container","survey:date":"2018-12-11"}},"type":"Feature"},
	{"geometry":{"coordinates":[6.177831,44.060207],"type":"Point"},"properties":{"osm_id":"5812325020","tag":{"amenity":"recycling","recycling_type":"container"}},"type":"Feature"},
	{"geometry":{"coordinates":[6.223134,44.086088],"type":"Point"},"properties":{"osm_id":"5933852854","tag":{"amenity":"recycling","recycling_type":"container"}},"type":"Feature"},
	{"geometry":{"coordinates":[6.22423,44.086613],"type":"Point"},"properties":{"osm_id":"5933852855","tag":{"amenity":"recycling","recycling_type":"container"}},"type":"Feature"},
	{"geometry":{"coordinates":[6.211721,44.082608],"type":"Point"},"properties":{"osm_id":"5933852870","tag":{"amenity":"recycling","recycling_type":"container"}},"type":"Feature"},
	{"geometry":{"coordinates":[6.211786,44.082224],"type":"Point"},"properties":{"osm_id":"5933852872","tag":{"amenity":"recycling","recycling_type":"container"}},"type":"Feature"},
	{"geometry":{"coordinates":[6.211594,44.080977],"type":"Point"},"properties":{"osm_id":"5933852873","tag":{"amenity":"recycling","recycling_type":"container"}},"type":"Feature"},
	{"geometry":{"coordinates":[6.219612,44.084354],"type":"Point"},"properties":{"osm_id":"5933853500","tag":{"amenity":"recycling","recycling_type":"container"}},"type":"Feature"},
	{"geometry":{"coordinates":[6.220519,44.084773],"type":"Point"},"properties":{"osm_id":"5933853501","tag":{"amenity":"recycling","recycling_type":"container"}},"type":"Feature"},
	{"geometry":{"coordinates":[6.221461,44.085275],"type":"Point"},"properties":{"osm_id":"5933853502","tag":{"amenity":"recycling","recycling_type":"container"}},"type":"Feature"},
	{"geometry":{"coordinates":[6.207259,44.060128],"type":"Point"},"properties":{"osm_id":"6046637470","tag":{"addr:city":"Digne-les-Bains","addr:postcode":"04000","addr:street":"Mont\u00c3\u00a9e de la Miellerie de Gaubert","amenity":"recycling","recycling:cans":"yes","recycling:paper":"yes","recycling:plastic":"yes","recycling:plastic_bottles":"yes","recycling_type":"container"}},"type":"Feature"},
	{"geometry":{"coordinates":[6.210328,44.075726],"type":"Point"},"properties":{"osm_id":"6060796870","tag":{"addr:city":"Digne-les-Bains","addr:postcode":"04000","addr:street":"Le P\u00c3\u00a9age","amenity":"recycling","recycling:cans":"yes","recycling:glass":"yes","recycling:glass_bottles":"yes","recycling:plastic":"yes","recycling:plastic_bottles":"yes","recycling:waste":"yes","recycling_type":"container"}},"type":"Feature"},
	{"geometry":{"coordinates":[6.209096,44.067334],"type":"Point"},"properties":{"osm_id":"6063648075","tag":{"amenity":"recycling","recycling_type":"container"}},"type":"Feature"},
	{"geometry":{"coordinates":[6.190992,44.077215],"type":"Point"},"properties":{"osm_id":"6167747198","tag":{"amenity":"recycling","recycling:clothes":"yes","recycling_type":"container"}},"type":"Feature"},
	{"geometry":{"coordinates":[6.176365,44.06403],"type":"Point"},"properties":{"osm_id":"6312662687","tag":{"amenity":"waste_basket"}},"type":"Feature"},
	{"geometry":{"coordinates":[6.17635,44.064499],"type":"Point"},"properties":{"osm_id":"6312688985","tag":{"amenity":"waste_basket"}},"type":"Feature"},
	{"geometry":{"coordinates":[6.177364,44.063849],"type":"Point"},"properties":{"osm_id":"6313089542","tag":{"amenity":"waste_basket"}},"type":"Feature"},
	{"geometry":{"coordinates":[6.175274,44.063241],"type":"Point"},"properties":{"osm_id":"6652548185","tag":{"amenity":"waste_basket"}},"type":"Feature"},
	{"geometry":{"coordinates":[6.1758,44.081039],"type":"Point"},"properties":{"osm_id":"6835584058","tag":{"amenity":"waste_basket"}},"type":"Feature"},
	{"geometry":{"coordinates":[6.175231,44.080665],"type":"Point"},"properties":{"osm_id":"6835584067","tag":{"amenity":"waste_disposal"}},"type":"Feature"},
	{"geometry":{"coordinates":[6.210196,44.085798],"type":"Point"},"properties":{"osm_id":"6857090898","tag":{"amenity":"waste_disposal"}},"type":"Feature"},
	{"geometry":{"coordinates":[6.210175,44.085796],"type":"Point"},"properties":{"osm_id":"6857090899","tag":{"amenity":"recycling","recycling:cans":"yes","recycling:cardboard":"yes","recycling:paper":"yes","recycling:plastic":"yes","recycling:plastic_bottles":"yes","recycling:plastic_packaging":"yes","recycling_type":"container"}},"type":"Feature"},
	{"geometry":{"coordinates":[6.227016,44.085469],"type":"Point"},"properties":{"osm_id":"6982998212","tag":{"amenity":"waste_basket"}},"type":"Feature"},
	{"geometry":{"coordinates":[6.226898,44.085332],"type":"Point"},"properties":{"osm_id":"6984215828","tag":{"amenity":"recycling","recycling:cans":"yes","recycling:cardboard":"yes","recycling:paper":"yes","recycling:plastic_bottles":"yes","recycling:plastic_packaging":"yes","recycling_type":"container"}},"type":"Feature"},
	{"geometry":{"coordinates":[6.227493,44.086571],"type":"Point"},"properties":{"osm_id":"6984271958","tag":{"amenity":"waste_basket"}},"type":"Feature"},
	{"geometry":{"coordinates":[6.228392,44.087201],"type":"Point"},"properties":{"osm_id":"7040219579","tag":{"amenity":"recycling","recycling:cans":"yes","recycling:cardboard":"yes","recycling:paper":"yes","recycling:plastic":"yes","recycling:plastic_bottles":"yes","recycling:plastic_packaging":"yes","recycling_type":"container"}},"type":"Feature"},
	{"geometry":{"coordinates":[6.228398,44.087215],"type":"Point"},"properties":{"osm_id":"7040219580","tag":{"amenity":"waste_basket"}},"type":"Feature"},
	{"geometry":{"coordinates":[6.228338,44.087396],"type":"Point"},"properties":{"osm_id":"7040307866","tag":{"amenity":"waste_basket","waste":"trash"}},"type":"Feature"},
	{"geometry":{"coordinates":[6.226851,44.085389],"type":"Point"},"properties":{"osm_id":"7042869901","tag":{"amenity":"waste_basket"}},"type":"Feature"},
	{"geometry":{"coordinates":[6.22709,44.085563],"type":"Point"},"properties":{"osm_id":"7042869904","tag":{"amenity":"waste_basket"}},"type":"Feature"},
	{"geometry":{"coordinates":[6.226894,44.086035],"type":"Point"},"properties":{"osm_id":"7042869908","tag":{"amenity":"waste_basket"}},"type":"Feature"},
	{"geometry":{"coordinates":[6.22703,44.086118],"type":"Point"},"properties":{"osm_id":"7042869909","tag":{"amenity":"waste_basket"}},"type":"Feature"},
	{"geometry":{"coordinates":[6.227161,44.085965],"type":"Point"},"properties":{"osm_id":"7042869911","tag":{"amenity":"waste_basket"}},"type":"Feature"},
	{"geometry":{"coordinates":[6.211708,44.079258],"type":"Point"},"properties":{"osm_id":"7098466996","tag":{"amenity":"waste_basket"}},"type":"Feature"},
	{"geometry":{"coordinates":[6.209288,44.077787],"type":"Point"},"properties":{"osm_id":"7098466998","tag":{"amenity":"waste_basket"}},"type":"Feature"},
	{"geometry":{"coordinates":[6.210016,44.071916],"type":"Point"},"properties":{"osm_id":"7098467001","tag":{"amenity":"waste_basket"}},"type":"Feature"},
	{"geometry":{"coordinates":[6.210025,44.071913],"type":"Point"},"properties":{"osm_id":"7098467002","tag":{"amenity":"recycling","recycling_type":"container"}},"type":"Feature"},
	{"geometry":{"coordinates":[6.215079,44.08606],"type":"Point"},"properties":{"osm_id":"7100001772","tag":{"amenity":"recycling","recycling_type":"container"}},"type":"Feature"},
	{"geometry":{"coordinates":[6.215841,44.083932],"type":"Point"},"properties":{"osm_id":"7112111165","tag":{"amenity":"recycling","recycling_type":"container"}},"type":"Feature"},
	{"geometry":{"coordinates":[6.219476,44.080858],"type":"Point"},"properties":{"osm_id":"7124272736","tag":{"amenity":"recycling","recycling_type":"container"}},"type":"Feature"},
	{"geometry":{"coordinates":[6.226209,44.085306],"type":"Point"},"properties":{"osm_id":"7173104520","tag":{"amenity":"waste_basket","waste":"trash"}},"type":"Feature"},
	{"geometry":{"coordinates":[6.221392,44.082452],"type":"Point"},"properties":{"osm_id":"7236321004","tag":{"amenity":"recycling","recycling_type":"container"}},"type":"Feature"},
	{"geometry":{"coordinates":[6.209176,44.078094],"type":"Point"},"properties":{"osm_id":"7236441220","tag":{"amenity":"waste_basket","waste":"trash"}},"type":"Feature"},
	{"geometry":{"coordinates":[6.215577,44.083254],"type":"Point"},"properties":{"osm_id":"7296455173","tag":{"amenity":"waste_basket","waste":"trash"}},"type":"Feature"},
	{"geometry":{"coordinates":[6.215432,44.083181],"type":"Point"},"properties":{"osm_id":"7296455174","tag":{"amenity":"waste_basket","waste":"trash"}},"type":"Feature"},
	{"geometry":{"coordinates":[6.226047,44.085438],"type":"Point"},"properties":{"osm_id":"7306281814","tag":{"amenity":"waste_basket","waste":"trash"}},"type":"Feature"},
	{"geometry":{"coordinates":[6.210995,44.07838],"type":"Point"},"properties":{"osm_id":"7548770909","tag":{"amenity":"waste_basket","waste":"trash"}},"type":"Feature"},
	{"geometry":{"coordinates":[6.211165,44.078934],"type":"Point"},"properties":{"osm_id":"7548828290","tag":{"amenity":"waste_basket"}},"type":"Feature"},
	{"geometry":{"coordinates":[6.212862,44.079034],"type":"Point"},"properties":{"osm_id":"7548878482","tag":{"amenity":"waste_basket"}},"type":"Feature"},
	{"geometry":{"coordinates":[6.211141,44.078947],"type":"Point"},"properties":{"osm_id":"7548997125","tag":{"amenity":"waste_basket","waste":"trash"}},"type":"Feature"},
	{"geometry":{"coordinates":[6.210074,44.078618],"type":"Point"},"properties":{"osm_id":"7549671666","tag":{"amenity":"waste_basket"}},"type":"Feature"},
	{"geometry":{"coordinates":[6.211796,44.079383],"type":"Point"},"properties":{"osm_id":"7549671667","tag":{"amenity":"waste_basket"}},"type":"Feature"},
	{"geometry":{"coordinates":[6.213568,44.080022],"type":"Point"},"properties":{"osm_id":"7549671668","tag":{"amenity":"waste_basket"}},"type":"Feature"},
	{"geometry":{"coordinates":[6.214176,44.080045],"type":"Point"},"properties":{"osm_id":"7549671669","tag":{"amenity":"waste_basket"}},"type":"Feature"},
	{"geometry":{"coordinates":[6.21431,44.079942],"type":"Point"},"properties":{"osm_id":"7549671670","tag":{"amenity":"waste_basket"}},"type":"Feature"},
	{"geometry":{"coordinates":[6.214318,44.079602],"type":"Point"},"properties":{"osm_id":"7549671671","tag":{"amenity":"waste_basket"}},"type":"Feature"},
	{"geometry":{"coordinates":[6.214063,44.07932],"type":"Point"},"properties":{"osm_id":"7549671672","tag":{"amenity":"waste_basket"}},"type":"Feature"},
	{"geometry":{"coordinates":[6.213118,44.079034],"type":"Point"},"properties":{"osm_id":"7549671673","tag":{"amenity":"waste_basket"}},"type":"Feature"},
	{"geometry":{"coordinates":[6.21297,44.079034],"type":"Point"},"properties":{"osm_id":"7549671674","tag":{"amenity":"waste_basket"}},"type":"Feature"},
	{"geometry":{"coordinates":[6.176051,44.064876],"type":"Point"},"properties":{"osm_id":"7761462815","tag":{"amenity":"recycling","recycling_type":"container"}},"type":"Feature"},
	{"geometry":{"coordinates":[6.176012,44.062842],"type":"Point"},"properties":{"osm_id":"7764532791","tag":{"amenity":"waste_basket"}},"type":"Feature"},
	{"geometry":{"coordinates":[6.176506,44.062859],"type":"Point"},"properties":{"osm_id":"7764532794","tag":{"amenity":"waste_basket"}},"type":"Feature"},
	{"geometry":{"coordinates":[6.176805,44.063446],"type":"Point"},"properties":{"osm_id":"7764532795","tag":{"amenity":"waste_basket"}},"type":"Feature"},
	{"geometry":{"coordinates":[6.223357,44.082946],"type":"Point"},"properties":{"osm_id":"7828794695","tag":{"amenity":"recycling","recycling:beverage_cartons":"yes","recycling:cans":"yes","recycling:cardboard":"yes","recycling:glass":"yes","recycling:glass_bottles":"yes","recycling:magazines":"yes","recycling:newspaper":"yes","recycling:paper":"yes","recycling:paper_packaging":"yes","recycling:plastic":"yes","recycling:plastic_bottles":"yes","recycling:plastic_packaging":"yes","recycling:waste":"yes","recycling_type":"container"}},"type":"Feature"},
	{"geometry":{"coordinates":[6.218213,44.081452],"type":"Point"},"properties":{"osm_id":"7828794696","tag":{"amenity":"recycling","recycling:beverage_cartons":"yes","recycling:cans":"yes","recycling:cardboard":"yes","recycling:glass":"yes","recycling:glass_bottles":"yes","recycling:magazines":"yes","recycling:newspaper":"yes","recycling:paper":"yes","recycling:paper_packaging":"yes","recycling:plastic":"yes","recycling:plastic_bottles":"yes","recycling:plastic_packaging":"yes","recycling:waste":"yes","recycling_type":"container"}},"type":"Feature"},
	{"geometry":{"coordinates":[6.223922,44.083061],"type":"Point"},"properties":{"osm_id":"7843248538","tag":{"amenity":"recycling","recycling:beverage_cartons":"yes","recycling:cans":"yes","recycling:cardboard":"yes","recycling:glass":"yes","recycling:glass_bottles":"yes","recycling:magazines":"yes","recycling:newspaper":"yes","recycling:paper":"yes","recycling:paper_packaging":"yes","recycling:plastic":"yes","recycling:plastic_bottles":"yes","recycling:plastic_packaging":"yes","recycling:waste":"yes","recycling_type":"container"}},"type":"Feature"}
]
}
