{
"type": "FeatureCollection",
"features": [
	{"geometry":{"coordinates":[-121.575294,37.017196],"type":"Point"},"properties":{"name":"AMD Recycling Incorporated","osm_id":"309019744","tag":{"addr:city":"Gilroy","addr:country":"US","addr:county":"Santa Clara","addr:housenumber":"150","addr:postcode":"95020","addr:state":"CA","addr:street":"Howson Street","amenity":"recycling","contact:phone":"+1 408-842-0288","opening_hours":"Mo-Sa 09:00-16:30","phone":"+1 408-842-0288","recycling_type":"centre"}},"type":"Feature"},
	{"geometry":{"coordinates":[-121.55842,36.992032],"type":"Point"},"properties":{"name":"Martin's Recycling","osm_id":"309021848","tag":{"amenity":"recycling"}},"type":"Feature"},
	{"geometry":{"coordinates":[-121.558404,36.992193],"type":"Point"},"properties":{"name":"Thomas Recycling","osm_id":"2196516917","tag":{"amenity":"recycling"}},"type":"Feature"},
	{"geometry":{"coordinates":[-121.558576,36.994386],"type":"Point"},"properties":{"name":"A&S Metals","osm_id":"2196525981","tag":{"addr:city":"Gilroy","addr:country":"US","addr:county":"Santa Clara","addr:housenumber":"6310","addr:postcode":"95020","addr:state":"CA","addr:street":"Automall Parkway","amenity":"recycling","contact:phone":"+1 408-842-0288","opening_hours":"Mo-Sa 08:30-17:00"}},"type":"Feature"},
	{"geometry":{"coordinates":[-121.594253,37.013228],"type":"Point"},"properties":{"osm_id":"8189399660","tag":{"amenity":"waste_disposal"}},"type":"Feature"},
	{"geometry":{"coordinates":[-121.574958,36.999976],"type":"Point"},"properties":{"osm_id":"8246176610","tag":{"amenity":"waste_disposal"}},"type":"Feature"}
]
}
