{
"type": "FeatureCollection",
"features": [
	{"geometry":{"coordinates":[16.323491,50.855188],"type":"Point"},"properties":{"osm_id":"2627449080","tag":{"amenity":"waste_disposal"}},"type":"Feature"},
	{"geometry":{"coordinates":[16.322428,50.855589],"type":"Point"},"properties":{"osm_id":"2627449090","tag":{"amenity":"waste_disposal"}},"type":"Feature"},
	{"geometry":{"coordinates":[16.321716,50.855962],"type":"Point"},"properties":{"osm_id":"2627449131","tag":{"amenity":"waste_disposal"}},"type":"Feature"},
	{"geometry":{"coordinates":[16.320715,50.856245],"type":"Point"},"properties":{"osm_id":"2627449154","tag":{"amenity":"waste_disposal"}},"type":"Feature"},
	{"geometry":{"coordinates":[16.296379,50.860091],"type":"Point"},"properties":{"osm_id":"2627449189","tag":{"amenity":"waste_disposal"}},"type":"Feature"},
	{"geometry":{"coordinates":[16.295848,50.860474],"type":"Point"},"properties":{"osm_id":"2627449222","tag":{"amenity":"waste_disposal"}},"type":"Feature"},
	{"geometry":{"coordinates":[16.310145,50.8591],"type":"Point"},"properties":{"osm_id":"2688612687","tag":{"amenity":"recycling","recycling:glass":"yes","recycling:paper":"yes","recycling_type":"container"}},"type":"Feature"},
	{"geometry":{"coordinates":[16.310039,50.860978],"type":"Point"},"properties":{"osm_id":"2689605406","tag":{"amenity":"recycling","recycling:glass":"yes","recycling:paper":"yes","recycling_type":"container"}},"type":"Feature"},
	{"geometry":{"coordinates":[16.306345,50.861828],"type":"Point"},"properties":{"osm_id":"2689605448","tag":{"amenity":"recycling","recycling:glass":"yes","recycling:paper":"yes","recycling_type":"container"}},"type":"Feature"},
	{"geometry":{"coordinates":[16.305154,50.862771],"type":"Point"},"properties":{"osm_id":"2689605461","tag":{"amenity":"recycling","recycling:glass":"yes","recycling:paper":"yes","recycling_type":"container"}},"type":"Feature"},
	{"geometry":{"coordinates":[16.319917,50.859484],"type":"Point"},"properties":{"osm_id":"2709391445","tag":{"amenity":"waste_basket"}},"type":"Feature"},
	{"geometry":{"coordinates":[16.319452,50.85959],"type":"Point"},"properties":{"osm_id":"2709391520","tag":{"amenity":"waste_basket"}},"type":"Feature"},
	{"geometry":{"coordinates":[16.319619,50.859738],"type":"Point"},"properties":{"osm_id":"2709391631","tag":{"amenity":"waste_basket"}},"type":"Feature"},
	{"geometry":{"coordinates":[16.320223,50.859963],"type":"Point"},"properties":{"osm_id":"2709391744","tag":{"amenity":"waste_basket"}},"type":"Feature"},
	{"geometry":{"coordinates":[16.319769,50.859983],"type":"Point"},"properties":{"osm_id":"2709391754","tag":{"amenity":"waste_basket"}},"type":"Feature"},
	{"geometry":{"coordinates":[16.319742,50.860079],"type":"Point"},"properties":{"osm_id":"2709391772","tag":{"amenity":"waste_basket"}},"type":"Feature"},
	{"geometry":{"coordinates":[16.315025,50.86221],"type":"Point"},"properties":{"osm_id":"2841481216","tag":{"amenity":"waste_basket"}},"type":"Feature"},
	{"geometry":{"coordinates":[16.314321,50.86234],"type":"Point"},"properties":{"osm_id":"2841481218","tag":{"amenity":"waste_basket"}},"type":"Feature"},
	{"geometry":{"coordinates":[16.314702,50.862601],"type":"Point"},"properties":{"osm_id":"2841481219","tag":{"amenity":"waste_basket"}},"type":"Feature"},
	{"geometry":{"coordinates":[16.314692,50.862799],"type":"Point"},"properties":{"osm_id":"2841481227","tag":{"amenity":"waste_basket"}},"type":"Feature"},
	{"geometry":{"coordinates":[16.313693,50.863216],"type":"Point"},"properties":{"osm_id":"2841481245","tag":{"amenity":"waste_basket"}},"type":"Feature"},
	{"geometry":{"coordinates":[16.315877,50.85046],"type":"Point"},"properties":{"osm_id":"2858844216","tag":{"amenity":"waste_basket","source_ref":"https://www.flickr.com/photos/124589265@N07/14185585805/"}},"type":"Feature"},
	{"geometry":{"coordinates":[16.315182,50.850473],"type":"Point"},"properties":{"osm_id":"2858844217","tag":{"amenity":"waste_basket","source_ref":"https://www.flickr.com/photos/124589265@N07/14205706933/"}},"type":"Feature"},
	{"geometry":{"coordinates":[16.314111,50.850544],"type":"Point"},"properties":{"osm_id":"2858844220","tag":{"amenity":"waste_basket","source_ref":"https://www.flickr.com/photos/124589265@N07/13998944167/"}},"type":"Feature"},
	{"geometry":{"coordinates":[16.314564,50.856617],"type":"Point"},"properties":{"osm_id":"2877684888","tag":{"amenity":"waste_basket","source_ref":"https://www.flickr.com/photos/124589265@N07/14065238329"}},"type":"Feature"},
	{"geometry":{"coordinates":[16.309798,50.865016],"type":"Point"},"properties":{"osm_id":"3189074021","tag":{"amenity":"waste_basket"}},"type":"Feature"},
	{"geometry":{"coordinates":[16.309764,50.865102],"type":"Point"},"properties":{"osm_id":"3189074027","tag":{"amenity":"waste_basket"}},"type":"Feature"}
]
}
