{
"type": "FeatureCollection",
"lastupdate": "2020-07-31T00:00:00Z",
"features": [
	{"geometry":{"coordinates":[16.276252,50.166124],"type":"Point"},"properties":{"osm_id":"4826872867","tag":{"amenity":"waste_basket"}},"type":"Feature"},
	{"geometry":{"coordinates":[16.276554,50.165994],"type":"Point"},"properties":{"osm_id":"4826873316","tag":{"amenity":"waste_basket"}},"type":"Feature"},
	{"geometry":{"coordinates":[16.276724,50.165927],"type":"Point"},"properties":{"osm_id":"4826875450","tag":{"amenity":"waste_basket"}},"type":"Feature"},
	{"geometry":{"coordinates":[16.276891,50.165302],"type":"Point"},"properties":{"osm_id":"4826903062","tag":{"amenity":"waste_basket"}},"type":"Feature"},
	{"geometry":{"coordinates":[16.275584,50.165463],"type":"Point"},"properties":{"osm_id":"4826909680","tag":{"amenity":"waste_basket"}},"type":"Feature"},
	{"geometry":{"coordinates":[16.276081,50.163519],"type":"Point"},"properties":{"osm_id":"4827584090","tag":{"amenity":"waste_basket"}},"type":"Feature"},
	{"geometry":{"coordinates":[16.275856,50.163922],"type":"Point"},"properties":{"osm_id":"4827585263","tag":{"amenity":"recycling","recycling:glass":"yes","recycling:plastics":"yes","recycling_type":"container"}},"type":"Feature"},
	{"geometry":{"coordinates":[16.278203,50.165041],"type":"Point"},"properties":{"osm_id":"4827589479","tag":{"amenity":"waste_basket"}},"type":"Feature"},
	{"geometry":{"coordinates":[16.277036,50.163987],"type":"Point"},"properties":{"osm_id":"4827590341","tag":{"amenity":"waste_basket"}},"type":"Feature"},
	{"geometry":{"coordinates":[16.277127,50.164358],"type":"Point"},"properties":{"osm_id":"4827591048","tag":{"amenity":"waste_basket"}},"type":"Feature"},
	{"geometry":{"coordinates":[16.275247,50.163224],"type":"Point"},"properties":{"osm_id":"4827592146","tag":{"amenity":"waste_basket"}},"type":"Feature"},
	{"geometry":{"coordinates":[16.277713,50.164854],"type":"Point"},"properties":{"osm_id":"4827593359","tag":{"amenity":"waste_basket"}},"type":"Feature"},
	{"geometry":{"coordinates":[16.279924,50.166394],"type":"Point"},"properties":{"osm_id":"4827608920","tag":{"amenity":"waste_basket"}},"type":"Feature"},
	{"geometry":{"coordinates":[16.28025,50.166546],"type":"Point"},"properties":{"osm_id":"4827610241","tag":{"amenity":"waste_basket"}},"type":"Feature"},
	{"geometry":{"coordinates":[16.274376,50.162953],"type":"Point"},"properties":{"osm_id":"4827615305","tag":{"amenity":"waste_basket"}},"type":"Feature"},
	{"geometry":{"coordinates":[16.274824,50.162869],"type":"Point"},"properties":{"osm_id":"4827616117","tag":{"amenity":"waste_basket"}},"type":"Feature"},
	{"geometry":{"coordinates":[16.274025,50.163209],"type":"Point"},"properties":{"osm_id":"4827617425","tag":{"amenity":"waste_basket"}},"type":"Feature"},
	{"geometry":{"coordinates":[16.275022,50.163364],"type":"Point"},"properties":{"osm_id":"4827618658","tag":{"amenity":"waste_basket"}},"type":"Feature"},
	{"geometry":{"coordinates":[16.27325,50.163709],"type":"Point"},"properties":{"osm_id":"4827622178","tag":{"amenity":"waste_basket"}},"type":"Feature"},
	{"geometry":{"coordinates":[16.273428,50.163808],"type":"Point"},"properties":{"osm_id":"4827623327","tag":{"amenity":"waste_basket"}},"type":"Feature"},
	{"geometry":{"coordinates":[16.278413,50.158862],"type":"Point"},"properties":{"osm_id":"7487632287","tag":{"amenity":"recycling","recycling_type":"container"}},"type":"Feature"},
	{"geometry":{"coordinates":[16.277753,50.158536],"type":"Point"},"properties":{"osm_id":"7487632288","tag":{"amenity":"recycling","recycling_type":"container"}},"type":"Feature"},
	{"geometry":{"coordinates":[16.278827,50.159221],"type":"Point"},"properties":{"osm_id":"7561035270","tag":{"amenity":"recycling","recycling_type":"container"}},"type":"Feature"}
]
}
