{
"type": "FeatureCollection",
"features": [
	{"geometry":{"coordinates":[16.261074,50.105682],"type":"Point"},"properties":{"osm_id":"4625234013","tag":{"amenity":"recycling","opening_hours":"24/7","recycling:PET":"yes","recycling:glass":"yes","recycling:glass_bottles":"yes","recycling:paper":"yes","recycling:plastic":"yes","recycling:plastic_bottles":"yes","recycling:plastic_packaging":"yes","recycling_type":"container"}},"type":"Feature"},
	{"geometry":{"coordinates":[16.260327,50.107187],"type":"Point"},"properties":{"osm_id":"4625234439","tag":{"amenity":"recycling","opening_hours":"24/7","recycling:PET":"yes","recycling:glass":"yes","recycling:glass_bottles":"yes","recycling:paper":"yes","recycling:plastic":"yes","recycling:plastic_bottles":"yes","recycling:plastic_packaging":"yes","recycling_type":"container"}},"type":"Feature"},
	{"geometry":{"coordinates":[16.262788,50.104244],"type":"Point"},"properties":{"osm_id":"4625235114","tag":{"amenity":"recycling","opening_hours":"24/7","recycling:PET":"yes","recycling:clothes":"yes","recycling:electrical_appliances":"yes","recycling:glass":"yes","recycling:glass_bottles":"yes","recycling:paper":"yes","recycling:plastic":"yes","recycling:plastic_bottles":"yes","recycling:plastic_packaging":"yes","recycling_type":"container"}},"type":"Feature"},
	{"geometry":{"coordinates":[16.261058,50.103833],"type":"Point"},"properties":{"osm_id":"4626498820","tag":{"amenity":"recycling","collection_times":"24/7","recycling:glass":"yes","recycling:glass_bottles":"yes","recycling:paper":"yes","recycling:plastic":"yes","recycling_type":"container"}},"type":"Feature"},
	{"geometry":{"coordinates":[16.260625,50.109912],"type":"Point"},"properties":{"osm_id":"4636083152","tag":{"amenity":"recycling","recycling_type":"container"}},"type":"Feature"},
	{"geometry":{"coordinates":[16.260452,50.104318],"type":"Point"},"properties":{"osm_id":"4670074186","tag":{"amenity":"recycling","collection_times":"24/7","recycling:glass":"yes","recycling:glass_bottles":"yes","recycling:plastic":"yes","recycling:plastic_bags":"yes","recycling:plastic_bottles":"yes","recycling:plastic_packaging":"yes","recycling_type":"container"}},"type":"Feature"},
	{"geometry":{"coordinates":[16.260149,50.102246],"type":"Point"},"properties":{"osm_id":"4670120650","tag":{"amenity":"recycling","collection_times":"24/7","recycling:glass":"yes","recycling:glass_bottles":"yes","recycling:plastic":"yes","recycling:plastic_bottles":"yes","recycling_type":"container"}},"type":"Feature"},
	{"geometry":{"coordinates":[16.302163,50.082736],"type":"Point"},"properties":{"osm_id":"4670181591","tag":{"amenity":"recycling","recycling:glass":"yes","recycling:glass_bottles":"yes","recycling:plastic":"yes","recycling_type":"container"}},"type":"Feature"},
	{"geometry":{"coordinates":[16.261645,50.106205],"type":"Point"},"properties":{"osm_id":"4827601117","tag":{"amenity":"waste_basket"}},"type":"Feature"},
	{"geometry":{"coordinates":[16.263188,50.105687],"type":"Point"},"properties":{"osm_id":"4827608919","tag":{"amenity":"waste_basket"}},"type":"Feature"},
	{"geometry":{"coordinates":[16.26671,50.103892],"type":"Point"},"properties":{"osm_id":"4827610033","tag":{"amenity":"waste_basket"}},"type":"Feature"},
	{"geometry":{"coordinates":[16.264757,50.105672],"type":"Point"},"properties":{"osm_id":"4827613009","tag":{"amenity":"waste_basket"}},"type":"Feature"},
	{"geometry":{"coordinates":[16.261119,50.106591],"type":"Point"},"properties":{"osm_id":"4827769280","tag":{"amenity":"waste_basket"}},"type":"Feature"},
	{"geometry":{"coordinates":[16.260963,50.106907],"type":"Point"},"properties":{"osm_id":"4827794872","tag":{"amenity":"waste_basket"}},"type":"Feature"},
	{"geometry":{"coordinates":[16.260301,50.10617],"type":"Point"},"properties":{"osm_id":"4827796911","tag":{"amenity":"waste_basket"}},"type":"Feature"},
	{"geometry":{"coordinates":[16.26095,50.107336],"type":"Point"},"properties":{"osm_id":"4827797062","tag":{"amenity":"waste_basket"}},"type":"Feature"},
	{"geometry":{"coordinates":[16.260607,50.107077],"type":"Point"},"properties":{"osm_id":"4827798185","tag":{"amenity":"waste_basket"}},"type":"Feature"},
	{"geometry":{"coordinates":[16.260418,50.106872],"type":"Point"},"properties":{"osm_id":"4827798217","tag":{"amenity":"waste_basket"}},"type":"Feature"},
	{"geometry":{"coordinates":[16.260321,50.10657],"type":"Point"},"properties":{"osm_id":"4827798220","tag":{"amenity":"waste_basket"}},"type":"Feature"},
	{"geometry":{"coordinates":[16.260474,50.106435],"type":"Point"},"properties":{"osm_id":"4827798735","tag":{"amenity":"waste_basket"}},"type":"Feature"},
	{"geometry":{"coordinates":[16.26048,50.106124],"type":"Point"},"properties":{"osm_id":"4827802205","tag":{"amenity":"waste_basket"}},"type":"Feature"},
	{"geometry":{"coordinates":[16.260566,50.105789],"type":"Point"},"properties":{"osm_id":"4827802208","tag":{"amenity":"waste_basket"}},"type":"Feature"},
	{"geometry":{"coordinates":[16.26112,50.10658],"type":"Point"},"properties":{"osm_id":"4827802901","tag":{"amenity":"waste_basket"}},"type":"Feature"},
	{"geometry":{"coordinates":[16.260701,50.104359],"type":"Point"},"properties":{"osm_id":"4827804901","tag":{"amenity":"waste_basket"}},"type":"Feature"},
	{"geometry":{"coordinates":[16.260572,50.107518],"type":"Point"},"properties":{"osm_id":"4827818757","tag":{"amenity":"waste_basket"}},"type":"Feature"},
	{"geometry":{"coordinates":[16.261735,50.107501],"type":"Point"},"properties":{"osm_id":"4827821881","tag":{"amenity":"waste_basket"}},"type":"Feature"},
	{"geometry":{"coordinates":[16.261376,50.108956],"type":"Point"},"properties":{"osm_id":"4827823544","tag":{"amenity":"waste_basket"}},"type":"Feature"},
	{"geometry":{"coordinates":[16.261706,50.109711],"type":"Point"},"properties":{"osm_id":"4827823547","tag":{"amenity":"waste_basket"}},"type":"Feature"},
	{"geometry":{"coordinates":[16.260522,50.109933],"type":"Point"},"properties":{"osm_id":"4827825814","tag":{"amenity":"waste_basket"}},"type":"Feature"},
	{"geometry":{"coordinates":[16.260395,50.109824],"type":"Point"},"properties":{"osm_id":"4827828139","tag":{"amenity":"waste_basket"}},"type":"Feature"},
	{"geometry":{"coordinates":[16.310848,50.083542],"type":"Point"},"properties":{"osm_id":"6644726263","tag":{"amenity":"recycling","recycling:glass":"yes","recycling:paper":"yes","recycling:plastic":"yes","recycling_type":"container"}},"type":"Feature"}
]
}
