{
"type": "FeatureCollection",
"lastupdate": "2020-08-01T00:00:00Z",
"features": [
	{"geometry":{"coordinates":[16.315769,48.413287],"type":"Point"},"properties":{"osm_id":"1038069021","tag":{"amenity":"waste_basket"}},"type":"Feature"},
	{"geometry":{"coordinates":[16.272776,48.421927],"type":"Point"},"properties":{"osm_id":"1038393898","tag":{"amenity":"waste_basket"}},"type":"Feature"},
	{"geometry":{"coordinates":[16.289452,48.427803],"type":"Point"},"properties":{"osm_id":"1038465769","tag":{"amenity":"waste_basket"}},"type":"Feature"},
	{"geometry":{"coordinates":[16.289369,48.4291],"type":"Point"},"properties":{"osm_id":"1038465781","tag":{"amenity":"waste_basket"}},"type":"Feature"},
	{"geometry":{"coordinates":[16.338187,48.422168],"type":"Point"},"properties":{"osm_id":"1049124588","tag":{"amenity":"waste_basket","information":"guidepost","tourism":"information"}},"type":"Feature"},
	{"geometry":{"coordinates":[16.338312,48.42551],"type":"Point"},"properties":{"osm_id":"1049125352","tag":{"amenity":"waste_basket"}},"type":"Feature"},
	{"geometry":{"coordinates":[16.338291,48.425558],"type":"Point"},"properties":{"osm_id":"1049125384","tag":{"amenity":"waste_basket"}},"type":"Feature"},
	{"geometry":{"coordinates":[16.336382,48.417201],"type":"Point"},"properties":{"osm_id":"5773514891","tag":{"amenity":"waste_basket"}},"type":"Feature"}
]
}
