{
"type": "FeatureCollection",
"features": [
	{"geometry":{"coordinates":[16.322863,48.312511],"type":"Point"},"properties":{"highway":"turning_circle","osm_id":"73088532"},"type":"Feature"},
	{"geometry":{"coordinates":[16.299499,48.313095],"type":"Point"},"properties":{"osm_id":"293637590","tag":{"amenity":"recycling","location":"overground","recycling:cans":"yes","recycling:glass_bottles":"yes","recycling:plastic_bottles":"yes","recycling_type":"container"}},"type":"Feature"},
	{"geometry":{"coordinates":[16.327918,48.302403],"type":"Point"},"properties":{"osm_id":"444379344","tag":{"amenity":"recycling","location":"overground","recycling:glass_bottles":"yes","recycling:plastic":"yes","recycling_type":"container"}},"type":"Feature"},
	{"geometry":{"coordinates":[16.327206,48.298118],"type":"Point"},"properties":{"osm_id":"497735861","tag":{"amenity":"recycling","recycling:glass":"yes","recycling_type":"container"}},"type":"Feature"},
	{"geometry":{"coordinates":[16.327624,48.293996],"type":"Point"},"properties":{"osm_id":"538348293","tag":{"amenity":"recycling","recycling_type":"container"}},"type":"Feature"},
	{"geometry":{"coordinates":[16.296779,48.337001],"type":"Point"},"properties":{"osm_id":"683591293","tag":{"amenity":"recycling"}},"type":"Feature"},
	{"geometry":{"coordinates":[16.331474,48.29077],"type":"Point"},"properties":{"name":"Altstoffsammelinsel Josefsteig","osm_id":"733536116","tag":{"amenity":"recycling","recycling:cans":"yes","recycling:glass_bottles":"yes","recycling_type":"container"}},"type":"Feature"},
	{"geometry":{"coordinates":[16.296761,48.32636],"type":"Point"},"properties":{"osm_id":"1036254497","tag":{"amenity":"waste_basket"}},"type":"Feature"},
	{"geometry":{"coordinates":[16.292868,48.327359],"type":"Point"},"properties":{"osm_id":"1036254817","tag":{"amenity":"waste_basket"}},"type":"Feature"},
	{"geometry":{"coordinates":[16.290669,48.323774],"type":"Point"},"properties":{"osm_id":"1036255067","tag":{"amenity":"waste_basket"}},"type":"Feature"},
	{"geometry":{"coordinates":[16.304129,48.324895],"type":"Point"},"properties":{"osm_id":"1036255769","tag":{"amenity":"waste_basket"}},"type":"Feature"},
	{"geometry":{"coordinates":[16.304217,48.324792],"type":"Point"},"properties":{"name":"Altstoffsammelinsel Kierlinger Gasse","osm_id":"1036255774","tag":{"amenity":"recycling","recycling:cans":"yes","recycling:glass":"yes","recycling:plastic_bottles":"yes","recycling_type":"container"}},"type":"Feature"},
	{"geometry":{"coordinates":[16.304191,48.324802],"type":"Point"},"properties":{"osm_id":"1036255782","tag":{"amenity":"waste_basket"}},"type":"Feature"},
	{"geometry":{"coordinates":[16.289406,48.339756],"type":"Point"},"properties":{"osm_id":"1037589302","tag":{"amenity":"waste_basket"}},"type":"Feature"},
	{"geometry":{"coordinates":[16.287074,48.339982],"type":"Point"},"properties":{"osm_id":"1037589359","tag":{"amenity":"waste_basket"}},"type":"Feature"},
	{"geometry":{"coordinates":[16.273683,48.339918],"type":"Point"},"properties":{"osm_id":"1037590140","tag":{"amenity":"waste_basket"}},"type":"Feature"},
	{"geometry":{"coordinates":[16.292998,48.31395],"type":"Point"},"properties":{"osm_id":"1368782102","tag":{"amenity":"recycling"}},"type":"Feature"},
	{"geometry":{"coordinates":[16.304702,48.313782],"type":"Point"},"properties":{"osm_id":"1719483360","tag":{"amenity":"recycling","recycling:glass_bottles":"yes","recycling_type":"container"}},"type":"Feature"},
	{"geometry":{"coordinates":[16.322831,48.307593],"type":"Point"},"properties":{"osm_id":"1726197374","tag":{"amenity":"waste_basket"}},"type":"Feature"},
	{"geometry":{"coordinates":[16.324095,48.309597],"type":"Point"},"properties":{"osm_id":"1777879313","tag":{"amenity":"recycling","recycling_type":"container"}},"type":"Feature"},
	{"geometry":{"coordinates":[16.320367,48.301102],"type":"Point"},"properties":{"osm_id":"1780439658","tag":{"amenity":"recycling"}},"type":"Feature"},
	{"geometry":{"coordinates":[16.328465,48.295195],"type":"Point"},"properties":{"osm_id":"1780487498","tag":{"amenity":"recycling","recycling:cans":"yes","recycling:glass_bottles":"yes","recycling:plastic":"no","recycling:plastic_packaging":"yes","recycling_type":"container"}},"type":"Feature"},
	{"geometry":{"coordinates":[16.328967,48.293284],"type":"Point"},"properties":{"osm_id":"1874308232","tag":{"amenity":"recycling","recycling_type":"container"}},"type":"Feature"},
	{"geometry":{"coordinates":[16.299211,48.305856],"type":"Point"},"properties":{"osm_id":"2047975371","tag":{"amenity":"recycling","recycling:cans":"yes","recycling:plastic_bottles":"yes"}},"type":"Feature"},
	{"geometry":{"coordinates":[16.318366,48.309654],"type":"Point"},"properties":{"name":"M\u00c3\u00bcllinsel","osm_id":"2258858036","tag":{"amenity":"recycling","name:de":"M\u00c3\u00bcllinsel","recycling:cans":"yes","recycling:glass":"yes","recycling:plastic_bottles":"yes","recycling:waste":"yes","recycling_type":"container"}},"type":"Feature"},
	{"geometry":{"coordinates":[16.304212,48.339426],"type":"Point"},"properties":{"osm_id":"2354846367","tag":{"amenity":"waste_basket"}},"type":"Feature"},
	{"geometry":{"coordinates":[16.304276,48.339388],"type":"Point"},"properties":{"osm_id":"2354846386","tag":{"amenity":"recycling"}},"type":"Feature"},
	{"geometry":{"coordinates":[16.302811,48.340332],"type":"Point"},"properties":{"osm_id":"2354846466","tag":{"amenity":"recycling"}},"type":"Feature"},
	{"geometry":{"coordinates":[16.308948,48.337757],"type":"Point"},"properties":{"osm_id":"2355067388","tag":{"amenity":"recycling"}},"type":"Feature"},
	{"geometry":{"coordinates":[16.30509,48.340162],"type":"Point"},"properties":{"osm_id":"2366325979","tag":{"amenity":"recycling"}},"type":"Feature"},
	{"geometry":{"coordinates":[16.322486,48.337843],"type":"Point"},"properties":{"osm_id":"2459791525","tag":{"amenity":"waste_basket"}},"type":"Feature"},
	{"geometry":{"coordinates":[16.309537,48.339439],"type":"Point"},"properties":{"osm_id":"3276815265","tag":{"amenity":"recycling"}},"type":"Feature"},
	{"geometry":{"coordinates":[16.30477,48.3415],"type":"Point"},"properties":{"osm_id":"3276815266","tag":{"amenity":"recycling"}},"type":"Feature"},
	{"geometry":{"coordinates":[16.298399,48.336173],"type":"Point"},"properties":{"osm_id":"3360106571","tag":{"amenity":"waste_basket"}},"type":"Feature"},
	{"geometry":{"coordinates":[16.339949,48.341138],"type":"Point"},"properties":{"osm_id":"3953560885","tag":{"amenity":"recycling","operator":"HUMANA","recycling:cans":"no","recycling:clothes":"yes","recycling:glass":"no","recycling:glass_bottles":"no","recycling:paper":"no","recycling:plastic":"no","recycling_type":"container"}},"type":"Feature"},
	{"geometry":{"coordinates":[16.333615,48.306699],"type":"Point"},"properties":{"osm_id":"4417808778","tag":{"amenity":"waste_basket"}},"type":"Feature"},
	{"geometry":{"coordinates":[16.333809,48.306732],"type":"Point"},"properties":{"osm_id":"4417808779","tag":{"amenity":"waste_basket"}},"type":"Feature"},
	{"geometry":{"coordinates":[16.3293,48.301532],"type":"Point"},"properties":{"osm_id":"4471487984","tag":{"amenity":"waste_basket"}},"type":"Feature"},
	{"geometry":{"coordinates":[16.333805,48.307588],"type":"Point"},"properties":{"osm_id":"4705476945","tag":{"amenity":"waste_basket"}},"type":"Feature"},
	{"geometry":{"coordinates":[16.333501,48.296803],"type":"Point"},"properties":{"osm_id":"4705693646","tag":{"amenity":"recycling","opening_hours":"Mo-Fr 07:00-20:00; PH off","recycling:cans":"yes","recycling:glass_bottles":"yes","recycling_type":"container"}},"type":"Feature"},
	{"geometry":{"coordinates":[16.334042,48.297329],"type":"Point"},"properties":{"osm_id":"4705693650","tag":{"amenity":"waste_basket"}},"type":"Feature"},
	{"geometry":{"coordinates":[16.326234,48.309612],"type":"Point"},"properties":{"osm_id":"4771708926","tag":{"amenity":"waste_basket"}},"type":"Feature"},
	{"geometry":{"coordinates":[16.324143,48.309598],"type":"Point"},"properties":{"osm_id":"4771708938","tag":{"amenity":"waste_basket"}},"type":"Feature"},
	{"geometry":{"coordinates":[16.324719,48.309954],"type":"Point"},"properties":{"osm_id":"4771708941","tag":{"amenity":"waste_basket"}},"type":"Feature"},
	{"geometry":{"coordinates":[16.325402,48.309876],"type":"Point"},"properties":{"osm_id":"4771708947","tag":{"amenity":"waste_basket"}},"type":"Feature"},
	{"geometry":{"coordinates":[16.326361,48.309065],"type":"Point"},"properties":{"osm_id":"4771708967","tag":{"amenity":"recycling","recycling_type":"container"}},"type":"Feature"},
	{"geometry":{"coordinates":[16.324043,48.309398],"type":"Point"},"properties":{"osm_id":"4784979051","tag":{"amenity":"waste_basket"}},"type":"Feature"},
	{"geometry":{"coordinates":[16.324578,48.309956],"type":"Point"},"properties":{"osm_id":"4784979053","tag":{"amenity":"waste_basket"}},"type":"Feature"},
	{"geometry":{"coordinates":[16.323998,48.309674],"type":"Point"},"properties":{"osm_id":"4784979061","tag":{"amenity":"waste_basket"}},"type":"Feature"},
	{"geometry":{"coordinates":[16.32529,48.304739],"type":"Point"},"properties":{"osm_id":"4826068210","tag":{"amenity":"waste_basket"}},"type":"Feature"},
	{"geometry":{"coordinates":[16.324741,48.305512],"type":"Point"},"properties":{"osm_id":"4826069826","tag":{"amenity":"waste_basket"}},"type":"Feature"},
	{"geometry":{"coordinates":[16.346723,48.283881],"type":"Point"},"properties":{"osm_id":"5032799949","tag":{"amenity":"recycling","recycling:clothes":"yes","recycling_type":"container"}},"type":"Feature"},
	{"geometry":{"coordinates":[16.309218,48.319669],"type":"Point"},"properties":{"osm_id":"5157933714","tag":{"amenity":"recycling","recycling:clothes":"yes","recycling_type":"container"}},"type":"Feature"},
	{"geometry":{"coordinates":[16.304442,48.323251],"type":"Point"},"properties":{"osm_id":"5157933718","tag":{"amenity":"recycling","recycling:clothes":"yes","recycling:glass_bottles":"yes","recycling_type":"container"}},"type":"Feature"},
	{"geometry":{"coordinates":[16.300374,48.330496],"type":"Point"},"properties":{"osm_id":"5157933823","tag":{"amenity":"recycling","recycling_type":"container"}},"type":"Feature"},
	{"geometry":{"coordinates":[16.300345,48.330515],"type":"Point"},"properties":{"osm_id":"5157933824","tag":{"amenity":"waste_basket"}},"type":"Feature"},
	{"geometry":{"coordinates":[16.297742,48.336455],"type":"Point"},"properties":{"osm_id":"5157933825","tag":{"amenity":"waste_basket"}},"type":"Feature"},
	{"geometry":{"coordinates":[16.297499,48.336716],"type":"Point"},"properties":{"osm_id":"5157933827","tag":{"amenity":"waste_basket"}},"type":"Feature"},
	{"geometry":{"coordinates":[16.304828,48.298884],"type":"Point"},"properties":{"osm_id":"5254066883","tag":{"amenity":"waste_basket"}},"type":"Feature"},
	{"geometry":{"coordinates":[16.327767,48.308553],"type":"Point"},"properties":{"osm_id":"5583991626","tag":{"amenity":"waste_basket"}},"type":"Feature"},
	{"geometry":{"coordinates":[16.310657,48.337451],"type":"Point"},"properties":{"osm_id":"5691769053","tag":{"amenity":"recycling","recycling_type":"container"}},"type":"Feature"},
	{"geometry":{"coordinates":[16.307072,48.337266],"type":"Point"},"properties":{"osm_id":"5691769055","tag":{"amenity":"recycling","recycling_type":"container"}},"type":"Feature"},
	{"geometry":{"coordinates":[16.329096,48.294992],"type":"Point"},"properties":{"osm_id":"5716164111","tag":{"amenity":"waste_basket"}},"type":"Feature"},
	{"geometry":{"coordinates":[16.328505,48.295215],"type":"Point"},"properties":{"osm_id":"5716164112","tag":{"amenity":"waste_basket"}},"type":"Feature"},
	{"geometry":{"coordinates":[16.321775,48.301741],"type":"Point"},"properties":{"osm_id":"5716165332","tag":{"amenity":"waste_basket"}},"type":"Feature"},
	{"geometry":{"coordinates":[16.317461,48.305269],"type":"Point"},"properties":{"osm_id":"5716165333","tag":{"amenity":"waste_basket"}},"type":"Feature"},
	{"geometry":{"coordinates":[16.315965,48.3059],"type":"Point"},"properties":{"osm_id":"5716165335","tag":{"amenity":"recycling","recycling_type":"container"}},"type":"Feature"},
	{"geometry":{"coordinates":[16.32251,48.306791],"type":"Point"},"properties":{"osm_id":"5716165341","tag":{"amenity":"waste_basket"}},"type":"Feature"},
	{"geometry":{"coordinates":[16.322388,48.306633],"type":"Point"},"properties":{"osm_id":"5716165342","tag":{"amenity":"waste_basket"}},"type":"Feature"},
	{"geometry":{"coordinates":[16.322402,48.306619],"type":"Point"},"properties":{"osm_id":"5716165343","tag":{"amenity":"recycling","recycling_type":"container"}},"type":"Feature"},
	{"geometry":{"coordinates":[16.322555,48.307688],"type":"Point"},"properties":{"osm_id":"5716165351","tag":{"amenity":"waste_basket"}},"type":"Feature"},
	{"geometry":{"coordinates":[16.322169,48.307955],"type":"Point"},"properties":{"osm_id":"5716165355","tag":{"amenity":"waste_basket"}},"type":"Feature"},
	{"geometry":{"coordinates":[16.305915,48.322378],"type":"Point"},"properties":{"osm_id":"5757084834","tag":{"amenity":"waste_basket"}},"type":"Feature"},
	{"geometry":{"coordinates":[16.309023,48.323228],"type":"Point"},"properties":{"osm_id":"5757084836","tag":{"amenity":"waste_disposal","recycling:cans":"yes","recycling:glass":"yes"}},"type":"Feature"},
	{"geometry":{"coordinates":[16.313926,48.31661],"type":"Point"},"properties":{"osm_id":"5757084839","tag":{"amenity":"waste_basket"}},"type":"Feature"},
	{"geometry":{"coordinates":[16.317968,48.311425],"type":"Point"},"properties":{"osm_id":"5757094760","tag":{"amenity":"waste_basket"}},"type":"Feature"},
	{"geometry":{"coordinates":[16.335101,48.295638],"type":"Point"},"properties":{"osm_id":"5760789289","tag":{"amenity":"waste_basket"}},"type":"Feature"},
	{"geometry":{"coordinates":[16.323578,48.285317],"type":"Point"},"properties":{"osm_id":"5761305285","tag":{"amenity":"waste_basket"}},"type":"Feature"},
	{"geometry":{"coordinates":[16.330044,48.290272],"type":"Point"},"properties":{"osm_id":"5761313530","tag":{"amenity":"waste_basket"}},"type":"Feature"},
	{"geometry":{"coordinates":[16.311734,48.29086],"type":"Point"},"properties":{"osm_id":"5821470049","tag":{"amenity":"waste_basket"}},"type":"Feature"},
	{"geometry":{"coordinates":[16.32936,48.341131],"type":"Point"},"properties":{"osm_id":"5899412265","tag":{"amenity":"waste_basket"}},"type":"Feature"},
	{"geometry":{"coordinates":[16.330736,48.341514],"type":"Point"},"properties":{"osm_id":"5899458059","tag":{"amenity":"waste_basket"}},"type":"Feature"},
	{"geometry":{"coordinates":[16.330947,48.341209],"type":"Point"},"properties":{"osm_id":"5899458060","tag":{"amenity":"waste_basket"}},"type":"Feature"},
	{"geometry":{"coordinates":[16.331074,48.341256],"type":"Point"},"properties":{"osm_id":"5899458061","tag":{"amenity":"waste_basket"}},"type":"Feature"},
	{"geometry":{"coordinates":[16.331307,48.34111],"type":"Point"},"properties":{"osm_id":"5899458068","tag":{"amenity":"waste_basket"}},"type":"Feature"},
	{"geometry":{"coordinates":[16.306186,48.306935],"type":"Point"},"properties":{"name":"Altstoffsammelinsel Kierlinger Stra\u00c3\u009fe 61","osm_id":"5952070996","tag":{"amenity":"recycling","recycling:cans":"yes","recycling:clothes":"yes","recycling:glass":"yes","recycling_type":"container"}},"type":"Feature"},
	{"geometry":{"coordinates":[16.309294,48.306815],"type":"Point"},"properties":{"osm_id":"5952070998","tag":{"amenity":"waste_basket"}},"type":"Feature"},
	{"geometry":{"coordinates":[16.313514,48.316888],"type":"Point"},"properties":{"osm_id":"6510810593","tag":{"amenity":"waste_basket"}},"type":"Feature"},
	{"geometry":{"coordinates":[16.324402,48.309611],"type":"Point"},"properties":{"osm_id":"6766031355","tag":{"amenity":"waste_basket"}},"type":"Feature"},
	{"geometry":{"coordinates":[16.323325,48.30899],"type":"Point"},"properties":{"osm_id":"6766168818","tag":{"amenity":"waste_basket"}},"type":"Feature"},
	{"geometry":{"coordinates":[16.299232,48.306011],"type":"Point"},"properties":{"osm_id":"6789603565","tag":{"amenity":"waste_basket"}},"type":"Feature"},
	{"geometry":{"coordinates":[16.29925,48.306022],"type":"Point"},"properties":{"osm_id":"6789666360","tag":{"amenity":"waste_basket"}},"type":"Feature"},
	{"geometry":{"coordinates":[16.299226,48.306034],"type":"Point"},"properties":{"osm_id":"6789675399","tag":{"amenity":"waste_basket"}},"type":"Feature"},
	{"geometry":{"coordinates":[16.299234,48.306029],"type":"Point"},"properties":{"osm_id":"6789676629","tag":{"amenity":"waste_basket"}},"type":"Feature"},
	{"geometry":{"coordinates":[16.324561,48.308228],"type":"Point"},"properties":{"osm_id":"6902316102","tag":{"amenity":"recycling","recycling:clothes":"yes","recycling_type":"container"}},"type":"Feature"},
	{"geometry":{"coordinates":[16.330483,48.293556],"type":"Point"},"properties":{"osm_id":"6918431502","tag":{"amenity":"recycling","operator":"Caritas","recycling:clothes":"yes","recycling_type":"container"}},"type":"Feature"},
	{"geometry":{"coordinates":[16.345018,48.288388],"type":"Point"},"properties":{"osm_id":"6932968283","tag":{"amenity":"recycling","recycling:clothes":"yes","recycling_type":"container"}},"type":"Feature"},
	{"geometry":{"coordinates":[16.299212,48.305772],"type":"Point"},"properties":{"osm_id":"7470287881","tag":{"amenity":"recycling","recycling:glass":"yes","recycling_type":"container"}},"type":"Feature"},
	{"geometry":{"coordinates":[16.3266,48.295012],"type":"Point"},"properties":{"osm_id":"7878560466","tag":{"amenity":"recycling","recycling_type":"container"}},"type":"Feature"},
	{"geometry":{"coordinates":[16.324428,48.295756],"type":"Point"},"properties":{"osm_id":"7878560472","tag":{"amenity":"waste_basket"}},"type":"Feature"},
	{"geometry":{"coordinates":[16.324309,48.296144],"type":"Point"},"properties":{"osm_id":"7878560473","tag":{"amenity":"waste_basket"}},"type":"Feature"}
]
}
