{
"type": "FeatureCollection",
"features": [
	{"geometry":{"coordinates":[16.299843,48.01441],"type":"Point"},"properties":{"osm_id":"864899214","tag":{"amenity":"recycling"}},"type":"Feature"},
	{"geometry":{"coordinates":[16.260472,48.045861],"type":"Point"},"properties":{"osm_id":"1096235784","tag":{"amenity":"waste_basket"}},"type":"Feature"},
	{"geometry":{"coordinates":[16.262115,48.038464],"type":"Point"},"properties":{"osm_id":"1097015321","tag":{"amenity":"waste_basket"}},"type":"Feature"},
	{"geometry":{"coordinates":[16.263268,48.026395],"type":"Point"},"properties":{"osm_id":"1097168027","tag":{"amenity":"waste_basket"}},"type":"Feature"},
	{"geometry":{"coordinates":[16.261122,48.017295],"type":"Point"},"properties":{"osm_id":"1639692149","tag":{"amenity":"recycling","recycling:glass":"yes"}},"type":"Feature"},
	{"geometry":{"coordinates":[16.261548,48.012313],"type":"Point"},"properties":{"osm_id":"1639692174","tag":{"amenity":"recycling","recycling:glass":"yes","recycling:scrap_metal":"yes","recycling_type":"container"}},"type":"Feature"},
	{"geometry":{"coordinates":[16.294295,48.006029],"type":"Point"},"properties":{"osm_id":"1859940367","tag":{"amenity":"waste_basket"}},"type":"Feature"},
	{"geometry":{"coordinates":[16.295299,48.006917],"type":"Point"},"properties":{"osm_id":"1859940385","tag":{"amenity":"recycling","recycling:clothes":"yes","recycling:glass":"yes","recycling:scrap_metal":"yes","recycling_type":"container"}},"type":"Feature"},
	{"geometry":{"coordinates":[16.293853,48.008359],"type":"Point"},"properties":{"osm_id":"2285854334","tag":{"amenity":"recycling","recycling:clothes":"yes","recycling:glass":"yes","recycling:scrap_metal":"yes","recycling_type":"container"}},"type":"Feature"},
	{"geometry":{"coordinates":[16.294901,48.006585],"type":"Point"},"properties":{"osm_id":"2295037381","tag":{"emergency":"fire_hydrant","fire_hydrant:type":"pillar"}},"type":"Feature"},
	{"geometry":{"coordinates":[16.304662,48.038875],"type":"Point"},"properties":{"osm_id":"2300151029","tag":{"amenity":"recycling"}},"type":"Feature"},
	{"geometry":{"coordinates":[16.306956,48.036924],"type":"Point"},"properties":{"osm_id":"2300151033","tag":{"amenity":"recycling"}},"type":"Feature"},
	{"geometry":{"coordinates":[16.309105,48.038817],"type":"Point"},"properties":{"osm_id":"2300151034","tag":{"amenity":"recycling"}},"type":"Feature"},
	{"geometry":{"coordinates":[16.26382,48.04648],"type":"Point"},"properties":{"osm_id":"2505566096","tag":{"amenity":"waste_basket"}},"type":"Feature"},
	{"geometry":{"coordinates":[16.308855,48.047815],"type":"Point"},"properties":{"osm_id":"2802920750","tag":{"amenity":"recycling","recycling:glass_bottles":"yes","recycling:paper":"yes","recycling:scrap_metal":"yes","recycling_type":"container"}},"type":"Feature"},
	{"geometry":{"coordinates":[16.296537,48.027581],"type":"Point"},"properties":{"osm_id":"3279501726","tag":{"amenity":"recycling","recycling_type":"container"}},"type":"Feature"},
	{"geometry":{"coordinates":[16.298207,48.02105],"type":"Point"},"properties":{"osm_id":"3304822375","tag":{"amenity":"recycling","recycling:cans":"yes","recycling:glass":"yes","recycling_type":"container"}},"type":"Feature"},
	{"geometry":{"coordinates":[16.288104,48.006022],"type":"Point"},"properties":{"osm_id":"3475775238","tag":{"amenity":"recycling","recycling:cans":"yes","recycling:clothes":"yes","recycling:glass":"yes"}},"type":"Feature"},
	{"geometry":{"coordinates":[16.341201,47.995427],"type":"Point"},"properties":{"osm_id":"3493929249","tag":{"amenity":"recycling","recycling:clothes":"yes","recycling_type":"container"}},"type":"Feature"},
	{"geometry":{"coordinates":[16.336467,47.998829],"type":"Point"},"properties":{"osm_id":"3493929385","tag":{"amenity":"recycling","recycling:cans":"yes","recycling:glass":"yes","recycling_type":"container"}},"type":"Feature"},
	{"geometry":{"coordinates":[16.273394,48.00307],"type":"Point"},"properties":{"osm_id":"3509214513","tag":{"amenity":"waste_basket"}},"type":"Feature"},
	{"geometry":{"coordinates":[16.275714,47.990242],"type":"Point"},"properties":{"osm_id":"3771116880","tag":{"amenity":"recycling","recycling:cans":"yes","recycling:glass":"yes","recycling_type":"container"}},"type":"Feature"},
	{"geometry":{"coordinates":[16.275477,47.990314],"type":"Point"},"properties":{"osm_id":"3771116881","tag":{"amenity":"waste_basket"}},"type":"Feature"},
	{"geometry":{"coordinates":[16.276886,47.99115],"type":"Point"},"properties":{"osm_id":"3771116893","tag":{"amenity":"recycling","recycling:cans":"yes","recycling:glass":"yes","recycling:metal":"yes","recycling_type":"container"}},"type":"Feature"},
	{"geometry":{"coordinates":[16.276633,47.991302],"type":"Point"},"properties":{"osm_id":"3771116895","tag":{"amenity":"waste_basket"}},"type":"Feature"},
	{"geometry":{"coordinates":[16.27002,47.999144],"type":"Point"},"properties":{"osm_id":"3771116912","tag":{"amenity":"waste_basket"}},"type":"Feature"},
	{"geometry":{"coordinates":[16.269764,47.999418],"type":"Point"},"properties":{"osm_id":"3771116937","tag":{"amenity":"recycling","recycling:cans":"yes","recycling:glass":"yes","recycling_type":"container"}},"type":"Feature"},
	{"geometry":{"coordinates":[16.260366,48.000183],"type":"Point"},"properties":{"osm_id":"3771118886","tag":{"amenity":"waste_basket"}},"type":"Feature"},
	{"geometry":{"coordinates":[16.292723,48.014971],"type":"Point"},"properties":{"osm_id":"4236920466","tag":{"amenity":"waste_basket"}},"type":"Feature"},
	{"geometry":{"coordinates":[16.269844,48.002044],"type":"Point"},"properties":{"osm_id":"4939116510","tag":{"amenity":"recycling","recycling:glass_bottles":"yes","recycling_type":"container"}},"type":"Feature"},
	{"geometry":{"coordinates":[16.300599,48.028834],"type":"Point"},"properties":{"osm_id":"5136100473","tag":{"amenity":"recycling","recycling:glass_bottles":"yes","recycling_type":"container"}},"type":"Feature"},
	{"geometry":{"coordinates":[16.283069,48.038913],"type":"Point"},"properties":{"osm_id":"5863205055","tag":{"amenity":"waste_basket"}},"type":"Feature"},
	{"geometry":{"coordinates":[16.289942,48.035346],"type":"Point"},"properties":{"name":"Altstoffsammelzentrum","osm_id":"5863209571","tag":{"amenity":"recycling","opening_hours":"Th 16:00-18:00; Fr 13:00-16:00; Sa 09:00-12:00","recycling_type":"centre","website":"https://www.gumpoldskirchen.at/Altstoffsammelzentrum"}},"type":"Feature"},
	{"geometry":{"coordinates":[16.283608,48.038602],"type":"Point"},"properties":{"osm_id":"5864100709","tag":{"amenity":"recycling","recycling_type":"container"}},"type":"Feature"},
	{"geometry":{"coordinates":[16.315796,48.048657],"type":"Point"},"properties":{"osm_id":"5916131193","tag":{"amenity":"waste_basket"}},"type":"Feature"},
	{"geometry":{"coordinates":[16.319349,48.045996],"type":"Point"},"properties":{"osm_id":"6482643998","tag":{"amenity":"waste_basket"}},"type":"Feature"},
	{"geometry":{"coordinates":[16.321891,48.044637],"type":"Point"},"properties":{"osm_id":"6482644000","tag":{"amenity":"waste_basket"}},"type":"Feature"},
	{"geometry":{"coordinates":[16.318958,48.046229],"type":"Point"},"properties":{"osm_id":"6482644001","tag":{"amenity":"recycling","recycling:cans":"yes","recycling:clothes":"yes","recycling:glass":"yes","recycling:paper":"yes","recycling_type":"container"}},"type":"Feature"},
	{"geometry":{"coordinates":[16.317682,48.046403],"type":"Point"},"properties":{"osm_id":"6482644012","tag":{"amenity":"waste_basket"}},"type":"Feature"},
	{"geometry":{"coordinates":[16.265919,48.017099],"type":"Point"},"properties":{"osm_id":"6584730334","tag":{"amenity":"waste_basket"}},"type":"Feature"},
	{"geometry":{"coordinates":[16.270738,48.046693],"type":"Point"},"properties":{"osm_id":"6828361697","tag":{"amenity":"waste_basket"}},"type":"Feature"},
	{"geometry":{"coordinates":[16.267733,48.007788],"type":"Point"},"properties":{"osm_id":"7343489198","tag":{"amenity":"recycling","recycling:clothes":"yes","recycling_type":"container"}},"type":"Feature"},
	{"geometry":{"coordinates":[16.266943,48.008178],"type":"Point"},"properties":{"osm_id":"7343489200","tag":{"amenity":"waste_basket"}},"type":"Feature"},
	{"geometry":{"coordinates":[16.28341,48.028193],"type":"Point"},"properties":{"osm_id":"7343489254","tag":{"amenity":"waste_basket"}},"type":"Feature"},
	{"geometry":{"coordinates":[16.283291,48.037469],"type":"Point"},"properties":{"osm_id":"7368751961","tag":{"amenity":"waste_basket"}},"type":"Feature"},
	{"geometry":{"coordinates":[16.288817,48.036692],"type":"Point"},"properties":{"osm_id":"7368751967","tag":{"amenity":"waste_basket"}},"type":"Feature"},
	{"geometry":{"coordinates":[16.330536,48.040439],"type":"Point"},"properties":{"osm_id":"7374823440","tag":{"amenity":"waste_basket"}},"type":"Feature"},
	{"geometry":{"coordinates":[16.32144,48.025662],"type":"Point"},"properties":{"osm_id":"7380463035","tag":{"amenity":"waste_basket"}},"type":"Feature"},
	{"geometry":{"coordinates":[16.294374,48.005936],"type":"Point"},"properties":{"osm_id":"7406093293","tag":{"amenity":"waste_basket"}},"type":"Feature"},
	{"geometry":{"coordinates":[16.271335,48.007759],"type":"Point"},"properties":{"osm_id":"7486761067","tag":{"amenity":"recycling","recycling_type":"container"}},"type":"Feature"},
	{"geometry":{"coordinates":[16.292227,48.038307],"type":"Point"},"properties":{"osm_id":"7504044810","tag":{"amenity":"recycling","recycling:clothes":"yes","recycling:glass_bottles":"yes","recycling_type":"container"}},"type":"Feature"},
	{"geometry":{"coordinates":[16.288672,48.040446],"type":"Point"},"properties":{"osm_id":"7504044828","tag":{"amenity":"waste_basket"}},"type":"Feature"},
	{"geometry":{"coordinates":[16.288304,48.040286],"type":"Point"},"properties":{"osm_id":"7504044837","tag":{"amenity":"recycling","recycling_type":"container"}},"type":"Feature"},
	{"geometry":{"coordinates":[16.270835,48.046462],"type":"Point"},"properties":{"osm_id":"7543549872","tag":{"amenity":"waste_basket"}},"type":"Feature"},
	{"geometry":{"coordinates":[16.27264,48.044601],"type":"Point"},"properties":{"osm_id":"7543583173","tag":{"amenity":"waste_basket"}},"type":"Feature"},
	{"geometry":{"coordinates":[16.290713,48.0359],"type":"Point"},"properties":{"osm_id":"7714671486","tag":{"amenity":"recycling","recycling:cans":"yes","recycling:glass_bottles":"yes","recycling_type":"container"}},"type":"Feature"},
	{"geometry":{"coordinates":[16.266918,48.017091],"type":"Point"},"properties":{"osm_id":"7725426238","tag":{"amenity":"waste_basket"}},"type":"Feature"},
	{"geometry":{"coordinates":[16.266676,48.017149],"type":"Point"},"properties":{"osm_id":"7725426239","tag":{"amenity":"waste_basket"}},"type":"Feature"},
	{"geometry":{"coordinates":[16.263303,48.017594],"type":"Point"},"properties":{"osm_id":"7725426250","tag":{"amenity":"recycling","recycling:paper":"yes","recycling_type":"container"}},"type":"Feature"},
	{"geometry":{"coordinates":[16.262935,48.017301],"type":"Point"},"properties":{"osm_id":"7725426253","tag":{"amenity":"waste_basket"}},"type":"Feature"},
	{"geometry":{"coordinates":[16.262866,48.017059],"type":"Point"},"properties":{"osm_id":"7725426254","tag":{"amenity":"waste_basket"}},"type":"Feature"},
	{"geometry":{"coordinates":[16.260719,48.015699],"type":"Point"},"properties":{"osm_id":"7725426260","tag":{"amenity":"waste_basket"}},"type":"Feature"},
	{"geometry":{"coordinates":[16.271832,48.015901],"type":"Point"},"properties":{"osm_id":"7725426277","tag":{"amenity":"waste_basket"}},"type":"Feature"},
	{"geometry":{"coordinates":[16.268723,48.016432],"type":"Point"},"properties":{"osm_id":"7725426282","tag":{"amenity":"waste_basket"}},"type":"Feature"}
]
}
