{
"type": "FeatureCollection",
"features": [
	{"geometry":{"coordinates":[16.283052,47.948274],"type":"Point"},"properties":{"osm_id":"335468289","tag":{"amenity":"waste_basket"}},"type":"Feature"},
	{"geometry":{"coordinates":[16.26158,47.947949],"type":"Point"},"properties":{"barrier":"gate","osm_id":"1164920771"},"type":"Feature"},
	{"geometry":{"coordinates":[16.261253,47.948051],"type":"Point"},"properties":{"barrier":"gate","osm_id":"1164920960"},"type":"Feature"},
	{"geometry":{"coordinates":[16.260599,47.93883],"type":"Point"},"properties":{"osm_id":"1175683249","tag":{"amenity":"waste_basket"}},"type":"Feature"},
	{"geometry":{"coordinates":[16.259912,47.944247],"type":"Point"},"properties":{"osm_id":"1496349249","tag":{"amenity":"waste_basket"}},"type":"Feature"},
	{"geometry":{"coordinates":[16.268307,47.947524],"type":"Point"},"properties":{"osm_id":"1517894140","tag":{"amenity":"waste_basket"}},"type":"Feature"},
	{"geometry":{"coordinates":[16.281142,47.947554],"type":"Point"},"properties":{"osm_id":"1563063047","tag":{"amenity":"recycling","recycling:glass":"yes","recycling:glass_bottles":"yes","recycling:green_waste":"no","recycling_type":"container"}},"type":"Feature"},
	{"geometry":{"coordinates":[16.269006,47.945804],"type":"Point"},"properties":{"osm_id":"1618225580","tag":{"amenity":"waste_basket"}},"type":"Feature"},
	{"geometry":{"coordinates":[16.260008,47.943919],"type":"Point"},"properties":{"osm_id":"1639427302","tag":{"amenity":"recycling","recycling:clothes":"yes","recycling_type":"container"}},"type":"Feature"},
	{"geometry":{"coordinates":[16.261851,47.938611],"type":"Point"},"properties":{"osm_id":"1718138178","tag":{"amenity":"waste_basket"}},"type":"Feature"},
	{"geometry":{"coordinates":[16.261585,47.939412],"type":"Point"},"properties":{"osm_id":"1718138228","tag":{"amenity":"waste_basket"}},"type":"Feature"},
	{"geometry":{"coordinates":[16.263399,47.940378],"type":"Point"},"properties":{"osm_id":"1718138254","tag":{"amenity":"waste_basket"}},"type":"Feature"},
	{"geometry":{"coordinates":[16.262986,47.940673],"type":"Point"},"properties":{"osm_id":"1718138273","tag":{"amenity":"waste_basket"}},"type":"Feature"},
	{"geometry":{"coordinates":[16.261509,47.943221],"type":"Point"},"properties":{"osm_id":"1718138295","tag":{"amenity":"waste_basket"}},"type":"Feature"},
	{"geometry":{"coordinates":[16.260716,47.943627],"type":"Point"},"properties":{"osm_id":"1718138313","tag":{"amenity":"recycling","recycling:glass":"yes","recycling_type":"container"}},"type":"Feature"},
	{"geometry":{"coordinates":[16.260016,47.945645],"type":"Point"},"properties":{"osm_id":"1718138321","tag":{"amenity":"waste_basket"}},"type":"Feature"},
	{"geometry":{"coordinates":[16.261492,47.94009],"type":"Point"},"properties":{"osm_id":"1718216509","tag":{"amenity":"waste_basket"}},"type":"Feature"},
	{"geometry":{"coordinates":[16.26122,47.940091],"type":"Point"},"properties":{"osm_id":"1718216513","tag":{"amenity":"waste_basket"}},"type":"Feature"},
	{"geometry":{"coordinates":[16.272486,47.980187],"type":"Point"},"properties":{"osm_id":"2854548150","tag":{"amenity":"recycling","recycling:cans":"yes","recycling:glass":"yes","recycling_type":"container"}},"type":"Feature"},
	{"geometry":{"coordinates":[16.283415,47.948673],"type":"Point"},"properties":{"osm_id":"2960915342","tag":{"amenity":"waste_basket"}},"type":"Feature"},
	{"geometry":{"coordinates":[16.265924,47.945567],"type":"Point"},"properties":{"osm_id":"3252224687","tag":{"amenity":"recycling","recycling_type":"container"}},"type":"Feature"},
	{"geometry":{"coordinates":[16.261395,47.940975],"type":"Point"},"properties":{"osm_id":"3282880444","tag":{"amenity":"recycling","recycling_type":"container"}},"type":"Feature"},
	{"geometry":{"coordinates":[16.263846,47.947075],"type":"Point"},"properties":{"osm_id":"3306811746","tag":{"amenity":"waste_basket"}},"type":"Feature"},
	{"geometry":{"coordinates":[16.279708,47.949408],"type":"Point"},"properties":{"osm_id":"3782382632","tag":{"amenity":"waste_basket"}},"type":"Feature"},
	{"geometry":{"coordinates":[16.283288,47.948379],"type":"Point"},"properties":{"osm_id":"4471127624","tag":{"amenity":"waste_basket"}},"type":"Feature"},
	{"geometry":{"coordinates":[16.285615,47.94911],"type":"Point"},"properties":{"osm_id":"4471127647","tag":{"amenity":"waste_basket"}},"type":"Feature"},
	{"geometry":{"coordinates":[16.285975,47.949378],"type":"Point"},"properties":{"osm_id":"4471127654","tag":{"amenity":"waste_basket"}},"type":"Feature"},
	{"geometry":{"coordinates":[16.285978,47.949756],"type":"Point"},"properties":{"osm_id":"4471127659","tag":{"amenity":"recycling","recycling:paper":"yes","recycling_type":"container"}},"type":"Feature"},
	{"geometry":{"coordinates":[16.281074,47.950718],"type":"Point"},"properties":{"osm_id":"4471127663","tag":{"amenity":"waste_basket"}},"type":"Feature"},
	{"geometry":{"coordinates":[16.289778,47.942911],"type":"Point"},"properties":{"osm_id":"4609721060","tag":{"amenity":"recycling","recycling_type":"container"}},"type":"Feature"},
	{"geometry":{"coordinates":[16.327977,47.974825],"type":"Point"},"properties":{"osm_id":"4609933686","tag":{"amenity":"waste_basket"}},"type":"Feature"},
	{"geometry":{"coordinates":[16.279365,47.95035],"type":"Point"},"properties":{"osm_id":"4729749166","tag":{"amenity":"waste_basket"}},"type":"Feature"},
	{"geometry":{"coordinates":[16.320475,47.975457],"type":"Point"},"properties":{"osm_id":"4953331096","tag":{"amenity":"recycling","recycling:glass_bottles":"yes","recycling_type":"container"}},"type":"Feature"},
	{"geometry":{"coordinates":[16.283078,47.94844],"type":"Point"},"properties":{"osm_id":"5036906720","tag":{"amenity":"waste_basket"}},"type":"Feature"},
	{"geometry":{"coordinates":[16.309505,47.958697],"type":"Point"},"properties":{"osm_id":"5046430466","tag":{"amenity":"recycling","opening_hours":"Mo 07:00-08:00; Fr 14:00-17:00","recycling_type":"centre"}},"type":"Feature"},
	{"geometry":{"coordinates":[16.279438,47.951494],"type":"Point"},"properties":{"osm_id":"5046430470","tag":{"amenity":"waste_basket"}},"type":"Feature"},
	{"geometry":{"coordinates":[16.319179,47.980229],"type":"Point"},"properties":{"osm_id":"5124891070","tag":{"amenity":"waste_basket"}},"type":"Feature"},
	{"geometry":{"coordinates":[16.319099,47.980295],"type":"Point"},"properties":{"osm_id":"5124891077","tag":{"amenity":"waste_basket"}},"type":"Feature"},
	{"geometry":{"coordinates":[16.318994,47.980295],"type":"Point"},"properties":{"osm_id":"5124891078","tag":{"amenity":"waste_basket"}},"type":"Feature"},
	{"geometry":{"coordinates":[16.280495,47.952169],"type":"Point"},"properties":{"osm_id":"5237732708","tag":{"amenity":"recycling","recycling:glass_bottles":"yes","recycling_type":"container"}},"type":"Feature"},
	{"geometry":{"coordinates":[16.280846,47.949781],"type":"Point"},"properties":{"osm_id":"5339585490","tag":{"amenity":"waste_basket"}},"type":"Feature"},
	{"geometry":{"coordinates":[16.279697,47.949231],"type":"Point"},"properties":{"osm_id":"5339585491","tag":{"amenity":"waste_basket"}},"type":"Feature"},
	{"geometry":{"coordinates":[16.277981,47.948692],"type":"Point"},"properties":{"osm_id":"5339585496","tag":{"amenity":"waste_basket"}},"type":"Feature"},
	{"geometry":{"coordinates":[16.27562,47.949355],"type":"Point"},"properties":{"osm_id":"5339585515","tag":{"amenity":"waste_basket"}},"type":"Feature"},
	{"geometry":{"coordinates":[16.264525,47.945765],"type":"Point"},"properties":{"osm_id":"6388239258","tag":{"amenity":"recycling","recycling:clothes":"yes","recycling_type":"container"}},"type":"Feature"},
	{"geometry":{"coordinates":[16.283334,47.964737],"type":"Point"},"properties":{"name":"Gr\u00c3\u00bcnschnitt Sammelstelle","osm_id":"6433891691","tag":{"amenity":"recycling","operator":"W.W.Park Teesdorf","recycling:green_waste":"yes"}},"type":"Feature"},
	{"geometry":{"coordinates":[16.283533,47.964399],"type":"Point"},"properties":{"osm_id":"6433891738","tag":{"amenity":"recycling","recycling:glass":"yes","recycling:scrap_metal":"yes","recycling_type":"container"}},"type":"Feature"},
	{"geometry":{"coordinates":[16.300561,47.957658],"type":"Point"},"properties":{"osm_id":"6547820488","tag":{"amenity":"recycling","recycling:cans":"yes","recycling:clothes":"yes","recycling:glass":"no","recycling:glass_bottles":"yes","recycling:scrap_metal":"no","recycling_type":"container"}},"type":"Feature"},
	{"geometry":{"coordinates":[16.322884,47.973745],"type":"Point"},"properties":{"osm_id":"6854416559","tag":{"amenity":"recycling","recycling:cans":"yes","recycling:clothes":"yes","recycling:glass":"yes","recycling_type":"container"}},"type":"Feature"},
	{"geometry":{"coordinates":[16.332279,47.984957],"type":"Point"},"properties":{"osm_id":"6939491728","tag":{"amenity":"waste_basket","waste":"trash"}},"type":"Feature"},
	{"geometry":{"coordinates":[16.33183,47.984154],"type":"Point"},"properties":{"osm_id":"6939502956","tag":{"amenity":"waste_basket","waste":"trash"}},"type":"Feature"},
	{"geometry":{"coordinates":[16.322638,47.969063],"type":"Point"},"properties":{"osm_id":"6943191931","tag":{"amenity":"waste_basket","waste":"trash"}},"type":"Feature"},
	{"geometry":{"coordinates":[16.312233,47.957929],"type":"Point"},"properties":{"osm_id":"6943211609","tag":{"amenity":"waste_basket","waste":"trash"}},"type":"Feature"},
	{"geometry":{"coordinates":[16.306641,47.961405],"type":"Point"},"properties":{"osm_id":"6943224757","tag":{"amenity":"waste_basket","waste":"trash"}},"type":"Feature"},
	{"geometry":{"coordinates":[16.263202,47.942552],"type":"Point"},"properties":{"osm_id":"7344187609","tag":{"amenity":"recycling","recycling:clothes":"yes","recycling_type":"container"}},"type":"Feature"},
	{"geometry":{"coordinates":[16.332232,47.932037],"type":"Point"},"properties":{"osm_id":"7644273159","tag":{"amenity":"waste_basket"}},"type":"Feature"},
	{"geometry":{"coordinates":[16.303315,47.955473],"type":"Point"},"properties":{"osm_id":"7728937705","tag":{"amenity":"waste_basket"}},"type":"Feature"}
]
}
