{
"type": "FeatureCollection",
"features": [
	{"geometry":{"coordinates":[-70.205977,44.106339],"type":"Point"},"properties":{"osm_id":"4193696046","tag":{"amenity":"recycling","recycling:batteries":"yes","recycling:cardboard":"yes","recycling:glass":"yes","recycling:newspaper":"yes","recycling:paper":"yes","recycling:plastic":"yes"}},"type":"Feature"},
	{"geometry":{"coordinates":[-70.2058,44.106536],"type":"Point"},"properties":{"osm_id":"4193696048","tag":{"amenity":"waste_basket"}},"type":"Feature"},
	{"geometry":{"coordinates":[-70.205703,44.106513],"type":"Point"},"properties":{"osm_id":"4193696049","tag":{"amenity":"waste_basket"}},"type":"Feature"},
	{"geometry":{"coordinates":[-70.207307,44.10553],"type":"Point"},"properties":{"osm_id":"4193696481","tag":{"amenity":"waste_basket"}},"type":"Feature"},
	{"geometry":{"coordinates":[-70.207318,44.105507],"type":"Point"},"properties":{"osm_id":"4193696482","tag":{"amenity":"recycling"}},"type":"Feature"},
	{"geometry":{"coordinates":[-70.205794,44.106536],"type":"Point"},"properties":{"osm_id":"4193720563","tag":{"amenity":"waste_basket"}},"type":"Feature"},
	{"geometry":{"coordinates":[-70.205703,44.106517],"type":"Point"},"properties":{"osm_id":"4193720564","tag":{"amenity":"waste_basket"}},"type":"Feature"},
	{"geometry":{"coordinates":[-70.205885,44.10627],"type":"Point"},"properties":{"osm_id":"4193720566","tag":{"amenity":"waste_basket"}},"type":"Feature"},
	{"geometry":{"coordinates":[-70.204496,44.106175],"type":"Point"},"properties":{"osm_id":"4193741958","tag":{"amenity":"waste_disposal"}},"type":"Feature"},
	{"geometry":{"coordinates":[-70.20428,44.106459],"type":"Point"},"properties":{"osm_id":"4193741959","tag":{"amenity":"waste_disposal"}},"type":"Feature"},
	{"geometry":{"coordinates":[-70.203127,44.106332],"type":"Point"},"properties":{"osm_id":"4193741960","tag":{"amenity":"waste_disposal"}},"type":"Feature"},
	{"geometry":{"coordinates":[-70.203014,44.106984],"type":"Point"},"properties":{"osm_id":"4193741961","tag":{"amenity":"waste_disposal"}},"type":"Feature"},
	{"geometry":{"coordinates":[-70.20416,44.106995],"type":"Point"},"properties":{"osm_id":"4193741962","tag":{"amenity":"waste_disposal"}},"type":"Feature"},
	{"geometry":{"coordinates":[-70.198003,44.105558],"type":"Point"},"properties":{"osm_id":"4193828177","tag":{"amenity":"waste_basket"}},"type":"Feature"},
	{"geometry":{"coordinates":[-70.19769,44.105577],"type":"Point"},"properties":{"osm_id":"4193828178","tag":{"amenity":"waste_basket"}},"type":"Feature"},
	{"geometry":{"coordinates":[-70.1981,44.105647],"type":"Point"},"properties":{"osm_id":"4193828180","tag":{"amenity":"waste_basket"}},"type":"Feature"},
	{"geometry":{"coordinates":[-70.198194,44.105658],"type":"Point"},"properties":{"osm_id":"4193828181","tag":{"amenity":"waste_basket"}},"type":"Feature"},
	{"geometry":{"coordinates":[-70.197612,44.105662],"type":"Point"},"properties":{"osm_id":"4193828182","tag":{"amenity":"waste_basket"}},"type":"Feature"},
	{"geometry":{"coordinates":[-70.198207,44.105697],"type":"Point"},"properties":{"osm_id":"4193828184","tag":{"amenity":"waste_basket"}},"type":"Feature"},
	{"geometry":{"coordinates":[-70.198258,44.105716],"type":"Point"},"properties":{"osm_id":"4193828186","tag":{"amenity":"waste_basket"}},"type":"Feature"},
	{"geometry":{"coordinates":[-70.198288,44.105733],"type":"Point"},"properties":{"osm_id":"4193828187","tag":{"amenity":"waste_basket"}},"type":"Feature"},
	{"geometry":{"coordinates":[-70.198226,44.105737],"type":"Point"},"properties":{"osm_id":"4193828188","tag":{"amenity":"waste_basket"}},"type":"Feature"},
	{"geometry":{"coordinates":[-70.198132,44.105758],"type":"Point"},"properties":{"osm_id":"4193829989","tag":{"amenity":"waste_basket"}},"type":"Feature"},
	{"geometry":{"coordinates":[-70.198258,44.105762],"type":"Point"},"properties":{"osm_id":"4193829990","tag":{"amenity":"waste_basket"}},"type":"Feature"},
	{"geometry":{"coordinates":[-70.197513,44.105766],"type":"Point"},"properties":{"osm_id":"4193829991","tag":{"amenity":"waste_basket"}},"type":"Feature"},
	{"geometry":{"coordinates":[-70.198229,44.105791],"type":"Point"},"properties":{"osm_id":"4193829992","tag":{"amenity":"waste_basket"}},"type":"Feature"},
	{"geometry":{"coordinates":[-70.198164,44.105839],"type":"Point"},"properties":{"osm_id":"4193829993","tag":{"amenity":"waste_basket"}},"type":"Feature"},
	{"geometry":{"coordinates":[-70.198033,44.10586],"type":"Point"},"properties":{"osm_id":"4193829994","tag":{"amenity":"waste_basket"}},"type":"Feature"},
	{"geometry":{"coordinates":[-70.198121,44.105925],"type":"Point"},"properties":{"osm_id":"4193829996","tag":{"amenity":"waste_basket"}},"type":"Feature"},
	{"geometry":{"coordinates":[-70.197615,44.105939],"type":"Point"},"properties":{"osm_id":"4193829997","tag":{"amenity":"recycling"}},"type":"Feature"},
	{"geometry":{"coordinates":[-70.198046,44.105951],"type":"Point"},"properties":{"osm_id":"4193829998","tag":{"amenity":"waste_basket"}},"type":"Feature"},
	{"geometry":{"coordinates":[-70.197657,44.105962],"type":"Point"},"properties":{"osm_id":"4193829999","tag":{"amenity":"recycling"}},"type":"Feature"},
	{"geometry":{"coordinates":[-70.197722,44.105974],"type":"Point"},"properties":{"osm_id":"4193830000","tag":{"amenity":"recycling"}},"type":"Feature"},
	{"geometry":{"coordinates":[-70.197524,44.106014],"type":"Point"},"properties":{"osm_id":"4193830001","tag":{"amenity":"recycling"}},"type":"Feature"},
	{"geometry":{"coordinates":[-70.197944,44.106041],"type":"Point"},"properties":{"osm_id":"4193830002","tag":{"amenity":"waste_basket"}},"type":"Feature"},
	{"geometry":{"coordinates":[-70.197574,44.106044],"type":"Point"},"properties":{"osm_id":"4193830004","tag":{"amenity":"recycling"}},"type":"Feature"},
	{"geometry":{"coordinates":[-70.197623,44.106073],"type":"Point"},"properties":{"osm_id":"4193830005","tag":{"amenity":"recycling"}},"type":"Feature"},
	{"geometry":{"coordinates":[-70.197673,44.106102],"type":"Point"},"properties":{"osm_id":"4193830007","tag":{"amenity":"recycling"}},"type":"Feature"},
	{"geometry":{"coordinates":[-70.197802,44.106103],"type":"Point"},"properties":{"osm_id":"4193830008","tag":{"amenity":"waste_basket"}},"type":"Feature"},
	{"geometry":{"coordinates":[-70.197911,44.106118],"type":"Point"},"properties":{"osm_id":"4193830009","tag":{"amenity":"waste_basket"}},"type":"Feature"},
	{"geometry":{"coordinates":[-70.198595,44.106198],"type":"Point"},"properties":{"osm_id":"4193830011","tag":{"amenity":"waste_basket"}},"type":"Feature"},
	{"geometry":{"coordinates":[-70.198059,44.106254],"type":"Point"},"properties":{"osm_id":"4193830012","tag":{"amenity":"waste_basket"}},"type":"Feature"},
	{"geometry":{"coordinates":[-70.206228,44.103341],"type":"Point"},"properties":{"osm_id":"4193831418","tag":{"amenity":"waste_basket"}},"type":"Feature"},
	{"geometry":{"coordinates":[-70.196724,44.103998],"type":"Point"},"properties":{"osm_id":"4193838530","tag":{"amenity":"waste_basket"}},"type":"Feature"},
	{"geometry":{"coordinates":[-70.196368,44.104037],"type":"Point"},"properties":{"osm_id":"4193838531","tag":{"amenity":"waste_basket"}},"type":"Feature"},
	{"geometry":{"coordinates":[-70.19664,44.104078],"type":"Point"},"properties":{"osm_id":"4193838532","tag":{"amenity":"waste_basket"}},"type":"Feature"},
	{"geometry":{"coordinates":[-70.196485,44.104095],"type":"Point"},"properties":{"osm_id":"4193838533","tag":{"amenity":"waste_basket"}},"type":"Feature"},
	{"geometry":{"coordinates":[-70.196216,44.104095],"type":"Point"},"properties":{"osm_id":"4193838534","tag":{"amenity":"waste_basket"}},"type":"Feature"},
	{"geometry":{"coordinates":[-70.196269,44.104334],"type":"Point"},"properties":{"osm_id":"4193838535","tag":{"amenity":"waste_basket"}},"type":"Feature"},
	{"geometry":{"coordinates":[-70.196559,44.104623],"type":"Point"},"properties":{"osm_id":"4193838536","tag":{"amenity":"waste_basket"}},"type":"Feature"},
	{"geometry":{"coordinates":[-70.198483,44.105318],"type":"Point"},"properties":{"osm_id":"4193845696","tag":{"amenity":"waste_basket"}},"type":"Feature"},
	{"geometry":{"coordinates":[-70.205849,44.107554],"type":"Point"},"properties":{"osm_id":"4194125657","tag":{"amenity":"waste_basket"}},"type":"Feature"},
	{"geometry":{"coordinates":[-70.205683,44.107504],"type":"Point"},"properties":{"osm_id":"4194125658","tag":{"amenity":"waste_basket"}},"type":"Feature"},
	{"geometry":{"coordinates":[-70.205667,44.10745],"type":"Point"},"properties":{"osm_id":"4194125659","tag":{"amenity":"recycling","recycling:batteries":"yes","recycling:cardboard":"yes","recycling:glass":"yes","recycling:newspaper":"yes","recycling:paper":"yes","recycling:plastic":"yes"}},"type":"Feature"},
	{"geometry":{"coordinates":[-70.208247,44.105274],"type":"Point"},"properties":{"osm_id":"4194137167","tag":{"amenity":"waste_basket"}},"type":"Feature"},
	{"geometry":{"coordinates":[-70.208269,44.105262],"type":"Point"},"properties":{"osm_id":"4194137168","tag":{"amenity":"recycling","recycling:batteries":"yes","recycling:cardboard":"yes","recycling:glass":"yes","recycling:newspaper":"yes","recycling:paper":"yes","recycling:plastic":"yes"}},"type":"Feature"},
	{"geometry":{"coordinates":[-70.208317,44.105201],"type":"Point"},"properties":{"osm_id":"4194137169","tag":{"amenity":"waste_basket"}},"type":"Feature"},
	{"geometry":{"coordinates":[-70.208285,44.105197],"type":"Point"},"properties":{"osm_id":"4194137170","tag":{"amenity":"recycling","recycling:batteries":"yes","recycling:cardboard":"yes","recycling:glass":"yes","recycling:newspaper":"yes","recycling:paper":"yes","recycling:plastic":"yes"}},"type":"Feature"},
	{"geometry":{"coordinates":[-70.206466,44.10688],"type":"Point"},"properties":{"osm_id":"4194137484","tag":{"amenity":"waste_basket"}},"type":"Feature"},
	{"geometry":{"coordinates":[-70.206675,44.106903],"type":"Point"},"properties":{"osm_id":"4194137485","tag":{"amenity":"waste_basket"}},"type":"Feature"},
	{"geometry":{"coordinates":[-70.206905,44.107098],"type":"Point"},"properties":{"osm_id":"4194137486","tag":{"amenity":"waste_basket"}},"type":"Feature"},
	{"geometry":{"coordinates":[-70.206777,44.107223],"type":"Point"},"properties":{"osm_id":"4194137487","tag":{"amenity":"waste_basket"}},"type":"Feature"},
	{"geometry":{"coordinates":[-70.206756,44.107277],"type":"Point"},"properties":{"osm_id":"4194137488","tag":{"amenity":"recycling","recycling:batteries":"yes","recycling:cardboard":"yes","recycling:glass":"yes","recycling:newspaper":"yes","recycling:paper":"yes","recycling:plastic":"yes"}},"type":"Feature"},
	{"geometry":{"coordinates":[-70.206541,44.1072],"type":"Point"},"properties":{"osm_id":"4194137989","tag":{"amenity":"waste_basket"}},"type":"Feature"},
	{"geometry":{"coordinates":[-70.20637,44.107115],"type":"Point"},"properties":{"osm_id":"4194137990","tag":{"amenity":"waste_basket"}},"type":"Feature"},
	{"geometry":{"coordinates":[-70.2063,44.107088],"type":"Point"},"properties":{"osm_id":"4194137991","tag":{"amenity":"recycling","recycling:batteries":"yes","recycling:cardboard":"yes","recycling:glass":"yes","recycling:newspaper":"yes","recycling:paper":"yes","recycling:plastic":"yes"}},"type":"Feature"},
	{"geometry":{"coordinates":[-70.206332,44.107027],"type":"Point"},"properties":{"name":"Compost Disposal","osm_id":"4194137992","tag":{"amenity":"recycling","recycling:green_waste":"yes","recycling:organic":"yes"}},"type":"Feature"},
	{"geometry":{"coordinates":[-70.206123,44.107027],"type":"Point"},"properties":{"osm_id":"4194141305","tag":{"amenity":"waste_basket"}},"type":"Feature"},
	{"geometry":{"coordinates":[-70.206053,44.10705],"type":"Point"},"properties":{"osm_id":"4194141306","tag":{"amenity":"waste_basket"}},"type":"Feature"},
	{"geometry":{"coordinates":[-70.206032,44.106942],"type":"Point"},"properties":{"osm_id":"4194141307","tag":{"amenity":"recycling","recycling:batteries":"yes","recycling:cardboard":"yes","recycling:glass":"yes","recycling:newspaper":"yes","recycling:paper":"yes","recycling:plastic":"yes"}},"type":"Feature"},
	{"geometry":{"coordinates":[-70.206026,44.106915],"type":"Point"},"properties":{"osm_id":"4194141308","tag":{"amenity":"waste_basket"}},"type":"Feature"},
	{"geometry":{"coordinates":[-70.206144,44.106757],"type":"Point"},"properties":{"osm_id":"4194141309","tag":{"amenity":"waste_basket"}},"type":"Feature"},
	{"geometry":{"coordinates":[-70.206589,44.106718],"type":"Point"},"properties":{"osm_id":"4194145189","tag":{"amenity":"recycling","recycling:batteries":"yes","recycling:cardboard":"yes","recycling:glass":"yes","recycling:newspaper":"yes","recycling:paper":"yes","recycling:plastic":"yes"}},"type":"Feature"},
	{"geometry":{"coordinates":[-70.206659,44.106749],"type":"Point"},"properties":{"osm_id":"4194145190","tag":{"amenity":"waste_basket"}},"type":"Feature"},
	{"geometry":{"coordinates":[-70.206809,44.106483],"type":"Point"},"properties":{"osm_id":"4194145191","tag":{"amenity":"waste_basket"}},"type":"Feature"},
	{"geometry":{"coordinates":[-70.206868,44.106499],"type":"Point"},"properties":{"osm_id":"4194145192","tag":{"amenity":"recycling","recycling:batteries":"yes","recycling:cardboard":"yes","recycling:glass":"yes","recycling:newspaper":"yes","recycling:paper":"yes","recycling:plastic":"yes"}},"type":"Feature"},
	{"geometry":{"coordinates":[-70.206675,44.106626],"type":"Point"},"properties":{"osm_id":"4194145193","tag":{"amenity":"recycling","recycling:beverage_cartons":"yes","recycling:cans":"yes","recycling:glass_bottles":"yes","recycling:magazines":"yes","recycling:plastic_bottles":"yes"}},"type":"Feature"},
	{"geometry":{"coordinates":[-70.206724,44.106591],"type":"Point"},"properties":{"osm_id":"4194145194","tag":{"amenity":"waste_basket"}},"type":"Feature"},
	{"geometry":{"coordinates":[-70.206949,44.106141],"type":"Point"},"properties":{"osm_id":"4194146093","tag":{"amenity":"waste_basket"}},"type":"Feature"},
	{"geometry":{"coordinates":[-70.20697,44.106106],"type":"Point"},"properties":{"osm_id":"4194146094","tag":{"amenity":"recycling","recycling:batteries":"yes","recycling:cardboard":"yes","recycling:glass":"yes","recycling:newspaper":"yes","recycling:paper":"yes","recycling:plastic":"yes"}},"type":"Feature"},
	{"geometry":{"coordinates":[-70.207796,44.105428],"type":"Point"},"properties":{"osm_id":"4194146668","tag":{"amenity":"waste_basket"}},"type":"Feature"},
	{"geometry":{"coordinates":[-70.207748,44.105432],"type":"Point"},"properties":{"osm_id":"4194146669","tag":{"amenity":"recycling","recycling:batteries":"yes","recycling:cardboard":"yes","recycling:glass":"yes","recycling:newspaper":"yes","recycling:paper":"yes","recycling:plastic":"yes"}},"type":"Feature"},
	{"geometry":{"coordinates":[-70.206944,44.10537],"type":"Point"},"properties":{"osm_id":"4194146746","tag":{"amenity":"waste_basket"}},"type":"Feature"},
	{"geometry":{"coordinates":[-70.208075,44.105709],"type":"Point"},"properties":{"osm_id":"4194152499","tag":{"amenity":"waste_basket"}},"type":"Feature"},
	{"geometry":{"coordinates":[-70.208038,44.105701],"type":"Point"},"properties":{"name":"Compost disposal","osm_id":"4194152502","tag":{"amenity":"recycling","recycling:green_waste":"yes","recycling:organic":"yes"}},"type":"Feature"},
	{"geometry":{"coordinates":[-70.208,44.105694],"type":"Point"},"properties":{"osm_id":"4194152503","tag":{"amenity":"recycling","recycling:beverage_cartons":"yes","recycling:cans":"yes","recycling:glass_bottles":"yes","recycling:magazines":"yes","recycling:plastic_bottles":"yes"}},"type":"Feature"},
	{"geometry":{"coordinates":[-70.207459,44.105285],"type":"Point"},"properties":{"osm_id":"4194154797","tag":{"amenity":"recycling","recycling:batteries":"yes","recycling:cardboard":"yes","recycling:glass":"yes","recycling:newspaper":"yes","recycling:paper":"yes","recycling:plastic":"yes"}},"type":"Feature"},
	{"geometry":{"coordinates":[-70.207496,44.105282],"type":"Point"},"properties":{"osm_id":"4194154798","tag":{"amenity":"waste_basket"}},"type":"Feature"},
	{"geometry":{"coordinates":[-70.201614,44.102265],"type":"Point"},"properties":{"osm_id":"4195366256","tag":{"amenity":"waste_basket"}},"type":"Feature"},
	{"geometry":{"coordinates":[-70.201684,44.102281],"type":"Point"},"properties":{"osm_id":"4195366258","tag":{"amenity":"waste_basket"}},"type":"Feature"},
	{"geometry":{"coordinates":[-70.201469,44.102454],"type":"Point"},"properties":{"osm_id":"4195366262","tag":{"amenity":"recycling","recycling_type":"container"}},"type":"Feature"},
	{"geometry":{"coordinates":[-70.201523,44.102458],"type":"Point"},"properties":{"osm_id":"4195366263","tag":{"amenity":"recycling","recycling_type":"container"}},"type":"Feature"},
	{"geometry":{"coordinates":[-70.201491,44.102493],"type":"Point"},"properties":{"osm_id":"4195366264","tag":{"amenity":"recycling","recycling_type":"container"}},"type":"Feature"},
	{"geometry":{"coordinates":[-70.201458,44.102527],"type":"Point"},"properties":{"osm_id":"4195366266","tag":{"amenity":"recycling","recycling_type":"container"}},"type":"Feature"},
	{"geometry":{"coordinates":[-70.201432,44.102562],"type":"Point"},"properties":{"osm_id":"4195366268","tag":{"amenity":"recycling","recycling_type":"container"}},"type":"Feature"},
	{"geometry":{"coordinates":[-70.201324,44.10267],"type":"Point"},"properties":{"osm_id":"4195366270","tag":{"amenity":"waste_basket"}},"type":"Feature"},
	{"geometry":{"coordinates":[-70.202993,44.102754],"type":"Point"},"properties":{"osm_id":"4195366275","tag":{"amenity":"waste_basket"}},"type":"Feature"},
	{"geometry":{"coordinates":[-70.202917,44.102816],"type":"Point"},"properties":{"osm_id":"4195366277","tag":{"amenity":"waste_basket"}},"type":"Feature"},
	{"geometry":{"coordinates":[-70.201228,44.102832],"type":"Point"},"properties":{"osm_id":"4195366280","tag":{"amenity":"waste_basket"}},"type":"Feature"},
	{"geometry":{"coordinates":[-70.201004,44.105626],"type":"Point"},"properties":{"osm_id":"4195380385","tag":{"amenity":"waste_basket"}},"type":"Feature"},
	{"geometry":{"coordinates":[-70.200942,44.10572],"type":"Point"},"properties":{"osm_id":"4195380386","tag":{"amenity":"waste_basket"}},"type":"Feature"},
	{"geometry":{"coordinates":[-70.200888,44.105722],"type":"Point"},"properties":{"osm_id":"4195380387","tag":{"amenity":"waste_basket"}},"type":"Feature"},
	{"geometry":{"coordinates":[-70.200585,44.10603],"type":"Point"},"properties":{"osm_id":"4195380388","tag":{"amenity":"waste_basket"}},"type":"Feature"},
	{"geometry":{"coordinates":[-70.200676,44.106134],"type":"Point"},"properties":{"osm_id":"4195381490","tag":{"amenity":"waste_basket"}},"type":"Feature"},
	{"geometry":{"coordinates":[-70.200287,44.105775],"type":"Point"},"properties":{"osm_id":"4195381491","tag":{"amenity":"waste_basket"}},"type":"Feature"},
	{"geometry":{"coordinates":[-70.200587,44.1062],"type":"Point"},"properties":{"osm_id":"4195381492","tag":{"amenity":"waste_basket"}},"type":"Feature"},
	{"geometry":{"coordinates":[-70.200187,44.106479],"type":"Point"},"properties":{"osm_id":"4195381493","tag":{"amenity":"waste_basket"}},"type":"Feature"},
	{"geometry":{"coordinates":[-70.201421,44.106537],"type":"Point"},"properties":{"osm_id":"4195381495","tag":{"amenity":"waste_basket"}},"type":"Feature"},
	{"geometry":{"coordinates":[-70.205577,44.105136],"type":"Point"},"properties":{"osm_id":"4195383306","tag":{"amenity":"waste_basket"}},"type":"Feature"},
	{"geometry":{"coordinates":[-70.203769,44.105652],"type":"Point"},"properties":{"osm_id":"4195387414","tag":{"amenity":"waste_basket"}},"type":"Feature"},
	{"geometry":{"coordinates":[-70.204133,44.105325],"type":"Point"},"properties":{"osm_id":"4195387415","tag":{"amenity":"waste_basket"}},"type":"Feature"},
	{"geometry":{"coordinates":[-70.203972,44.104693],"type":"Point"},"properties":{"osm_id":"4195387416","tag":{"amenity":"waste_basket"}},"type":"Feature"},
	{"geometry":{"coordinates":[-70.203242,44.105083],"type":"Point"},"properties":{"osm_id":"4195387417","tag":{"amenity":"waste_basket"}},"type":"Feature"},
	{"geometry":{"coordinates":[-70.192642,44.104358],"type":"Point"},"properties":{"osm_id":"4195557211","tag":{"amenity":"recycling"}},"type":"Feature"},
	{"geometry":{"coordinates":[-70.192617,44.104201],"type":"Point"},"properties":{"osm_id":"4195557212","tag":{"amenity":"recycling"}},"type":"Feature"},
	{"geometry":{"coordinates":[-70.192662,44.104305],"type":"Point"},"properties":{"osm_id":"4195557213","tag":{"amenity":"waste_basket"}},"type":"Feature"},
	{"geometry":{"coordinates":[-70.193466,44.104717],"type":"Point"},"properties":{"osm_id":"4195557214","tag":{"amenity":"waste_disposal"}},"type":"Feature"},
	{"geometry":{"coordinates":[-70.193151,44.103574],"type":"Point"},"properties":{"osm_id":"4195557215","tag":{"amenity":"waste_disposal"}},"type":"Feature"},
	{"geometry":{"coordinates":[-70.19412,44.104082],"type":"Point"},"properties":{"osm_id":"4195557216","tag":{"amenity":"waste_basket"}},"type":"Feature"},
	{"geometry":{"coordinates":[-70.194045,44.104165],"type":"Point"},"properties":{"osm_id":"4195557217","tag":{"amenity":"recycling"}},"type":"Feature"},
	{"geometry":{"coordinates":[-70.204093,44.105417],"type":"Point"},"properties":{"osm_id":"4983522736","tag":{"amenity":"recycling","amenity_1":"waste_basket","recycling:cans":"yes","recycling:paper":"yes","recycling_type":"container"}},"type":"Feature"},
	{"geometry":{"coordinates":[-70.203846,44.106213],"type":"Point"},"properties":{"osm_id":"5027375417","tag":{"amenity":"recycling","amenity_1":"waste_disposal","recycling:glass":"yes","recycling:paper":"yes","recycling_type":"container"}},"type":"Feature"},
	{"geometry":{"coordinates":[-70.203153,44.106457],"type":"Point"},"properties":{"osm_id":"5027375418","tag":{"amenity":"recycling","amenity_1":"waste_basket","recycling:cans":"yes","recycling:compost":"yes","recycling:paper":"yes","recycling_type":"container"}},"type":"Feature"},
	{"geometry":{"coordinates":[-70.216692,44.097477],"type":"Point"},"properties":{"osm_id":"5045489511","tag":{"amenity":"waste_basket"}},"type":"Feature"}
]
}
