{
"type": "FeatureCollection",
"features": [
	{"geometry":{"coordinates":[-15.567381,27.758246],"type":"Point"},"properties":{"osm_id":"1625007354","tag":{"amenity":"recycling","recycling:glass":"yes","recycling_type":"container"}},"type":"Feature"},
	{"geometry":{"coordinates":[-15.586282,27.754663],"type":"Point"},"properties":{"osm_id":"1696383138","tag":{"amenity":"recycling","recycling:glass":"yes","recycling_type":"container"}},"type":"Feature"},
	{"geometry":{"coordinates":[-15.585616,27.758788],"type":"Point"},"properties":{"osm_id":"1696383592","tag":{"amenity":"recycling","recycling:glass":"yes"}},"type":"Feature"},
	{"geometry":{"coordinates":[-15.583999,27.75214],"type":"Point"},"properties":{"osm_id":"1697607884","tag":{"amenity":"recycling","recycling:glass":"yes","recycling:paper":"yes","recycling:plastic":"yes","recycling_type":"container"}},"type":"Feature"},
	{"geometry":{"coordinates":[-15.590119,27.757485],"type":"Point"},"properties":{"osm_id":"1704144897","tag":{"amenity":"recycling","recycling:glass":"yes"}},"type":"Feature"},
	{"geometry":{"coordinates":[-15.571398,27.75419],"type":"Point"},"properties":{"osm_id":"2269265702","tag":{"amenity":"recycling","recycling:cartons":"yes","recycling:glass":"yes","recycling:glass_bottles":"yes","recycling:paper":"yes","recycling:paper_packaging":"yes","recycling_type":"container"}},"type":"Feature"},
	{"geometry":{"coordinates":[-15.59382,27.759849],"type":"Point"},"properties":{"osm_id":"3294873344","tag":{"amenity":"recycling"}},"type":"Feature"},
	{"geometry":{"coordinates":[-15.583101,27.759387],"type":"Point"},"properties":{"osm_id":"3312759794","tag":{"amenity":"recycling","mapillary":"S3OFu_LwtrD8LldzRXj9Rw","recycling_type":"container","survey:date":"2018-02-14"}},"type":"Feature"},
	{"geometry":{"coordinates":[-15.585857,27.755803],"type":"Point"},"properties":{"osm_id":"4040668186","tag":{"amenity":"recycling"}},"type":"Feature"},
	{"geometry":{"coordinates":[-15.595446,27.738448],"type":"Point"},"properties":{"osm_id":"4040671451","tag":{"amenity":"recycling"}},"type":"Feature"},
	{"geometry":{"coordinates":[-15.578849,27.755435],"type":"Point"},"properties":{"osm_id":"4040671593","tag":{"amenity":"recycling"}},"type":"Feature"},
	{"geometry":{"coordinates":[-15.569045,27.757519],"type":"Point"},"properties":{"osm_id":"4041833599","tag":{"amenity":"recycling"}},"type":"Feature"},
	{"geometry":{"coordinates":[-15.574061,27.754165],"type":"Point"},"properties":{"osm_id":"4375886363","tag":{"amenity":"recycling","recycling:cartons":"yes","recycling:glass":"yes","recycling:glass_bottles":"yes","recycling:paper":"yes","recycling:paper_packaging":"yes","recycling_type":"container"}},"type":"Feature"},
	{"geometry":{"coordinates":[-15.57271,27.75439],"type":"Point"},"properties":{"osm_id":"4375886377","tag":{"amenity":"recycling","recycling:cartons":"yes","recycling:glass":"yes","recycling:glass_bottles":"yes","recycling:paper":"yes","recycling:paper_packaging":"yes","recycling_type":"container"}},"type":"Feature"},
	{"geometry":{"coordinates":[-15.587958,27.752206],"type":"Point"},"properties":{"osm_id":"4649691065","tag":{"amenity":"recycling"}},"type":"Feature"},
	{"geometry":{"coordinates":[-15.574094,27.759645],"type":"Point"},"properties":{"osm_id":"4864607352","tag":{"amenity":"recycling","recycling:cardboard":"yes","recycling:glass":"yes","recycling:glass_bottles":"yes","recycling:paper":"yes","recycling:plastic":"yes","recycling:plastic_bottles":"yes","recycling:plastic_packaging":"yes","recycling_type":"container"}},"type":"Feature"},
	{"geometry":{"coordinates":[-15.596471,27.738719],"type":"Point"},"properties":{"osm_id":"5046581475","tag":{"amenity":"recycling","recycling_type":"container"}},"type":"Feature"},
	{"geometry":{"coordinates":[-15.566237,27.758956],"type":"Point"},"properties":{"osm_id":"5633595727","tag":{"amenity":"recycling","recycling:glass_bottles":"yes","recycling:plastic":"yes","recycling_type":"container"}},"type":"Feature"},
	{"geometry":{"coordinates":[-15.566465,27.759024],"type":"Point"},"properties":{"osm_id":"5633596122","tag":{"amenity":"waste_basket"}},"type":"Feature"},
	{"geometry":{"coordinates":[-15.568488,27.750615],"type":"Point"},"properties":{"osm_id":"5979649858","tag":{"amenity":"waste_basket"}},"type":"Feature"},
	{"geometry":{"coordinates":[-15.568369,27.75119],"type":"Point"},"properties":{"osm_id":"5979651654","tag":{"amenity":"waste_basket"}},"type":"Feature"},
	{"geometry":{"coordinates":[-15.568634,27.749781],"type":"Point"},"properties":{"osm_id":"5979653343","tag":{"amenity":"waste_basket"}},"type":"Feature"},
	{"geometry":{"coordinates":[-15.566791,27.757138],"type":"Point"},"properties":{"osm_id":"5979657082","tag":{"amenity":"waste_basket"}},"type":"Feature"},
	{"geometry":{"coordinates":[-15.574047,27.748005],"type":"Point"},"properties":{"osm_id":"5979657959","tag":{"amenity":"waste_basket"}},"type":"Feature"},
	{"geometry":{"coordinates":[-15.573583,27.748695],"type":"Point"},"properties":{"osm_id":"5979657960","tag":{"amenity":"waste_basket"}},"type":"Feature"},
	{"geometry":{"coordinates":[-15.566418,27.75734],"type":"Point"},"properties":{"osm_id":"5979658928","tag":{"amenity":"waste_basket"}},"type":"Feature"},
	{"geometry":{"coordinates":[-15.56704,27.756911],"type":"Point"},"properties":{"osm_id":"5979658931","tag":{"amenity":"waste_basket"}},"type":"Feature"},
	{"geometry":{"coordinates":[-15.574314,27.747516],"type":"Point"},"properties":{"osm_id":"5979658934","tag":{"amenity":"waste_basket"}},"type":"Feature"},
	{"geometry":{"coordinates":[-15.572752,27.749851],"type":"Point"},"properties":{"osm_id":"5979658939","tag":{"amenity":"waste_basket"}},"type":"Feature"},
	{"geometry":{"coordinates":[-15.574551,27.747125],"type":"Point"},"properties":{"osm_id":"5979659488","tag":{"amenity":"waste_basket"}},"type":"Feature"},
	{"geometry":{"coordinates":[-15.573818,27.748349],"type":"Point"},"properties":{"osm_id":"5979659489","tag":{"amenity":"waste_basket"}},"type":"Feature"},
	{"geometry":{"coordinates":[-15.573027,27.749462],"type":"Point"},"properties":{"osm_id":"5979659490","tag":{"amenity":"waste_basket"}},"type":"Feature"},
	{"geometry":{"coordinates":[-15.576288,27.747416],"type":"Point"},"properties":{"osm_id":"6718728507","tag":{"amenity":"waste_disposal","waste":"bottles (PET,Glass)"}},"type":"Feature"},
	{"geometry":{"coordinates":[-15.57637,27.757835],"type":"Point"},"properties":{"osm_id":"6750135604","tag":{"addr:floor":"1","amenity":"recycling","recycling:cardboard":"yes","recycling_type":"container"}},"type":"Feature"},
	{"geometry":{"coordinates":[-15.577506,27.757894],"type":"Point"},"properties":{"osm_id":"6750581720","tag":{"addr:floor":"1","amenity":"recycling","recycling:cardboard":"yes","recycling_type":"container"}},"type":"Feature"},
	{"geometry":{"coordinates":[-15.568391,27.753739],"type":"Point"},"properties":{"osm_id":"6760605204","tag":{"amenity":"waste_disposal"}},"type":"Feature"},
	{"geometry":{"coordinates":[-15.56931,27.75407],"type":"Point"},"properties":{"osm_id":"6760611393","tag":{"amenity":"waste_disposal"}},"type":"Feature"},
	{"geometry":{"coordinates":[-15.569118,27.75357],"type":"Point"},"properties":{"osm_id":"6760611394","tag":{"amenity":"waste_disposal"}},"type":"Feature"},
	{"geometry":{"coordinates":[-15.568195,27.754858],"type":"Point"},"properties":{"osm_id":"6760611395","tag":{"amenity":"waste_disposal"}},"type":"Feature"},
	{"geometry":{"coordinates":[-15.60146,27.739678],"type":"Point"},"properties":{"osm_id":"6760725611","tag":{"amenity":"waste_basket"}},"type":"Feature"},
	{"geometry":{"coordinates":[-15.589473,27.755408],"type":"Point"},"properties":{"osm_id":"6760725762","tag":{"amenity":"waste_disposal"}},"type":"Feature"},
	{"geometry":{"coordinates":[-15.59011,27.756138],"type":"Point"},"properties":{"osm_id":"6760725763","tag":{"amenity":"waste_disposal"}},"type":"Feature"},
	{"geometry":{"coordinates":[-15.589882,27.75779],"type":"Point"},"properties":{"osm_id":"6760725765","tag":{"amenity":"waste_disposal"}},"type":"Feature"},
	{"geometry":{"coordinates":[-15.601286,27.739468],"type":"Point"},"properties":{"osm_id":"6760725848","tag":{"amenity":"waste_basket"}},"type":"Feature"},
	{"geometry":{"coordinates":[-15.599987,27.738959],"type":"Point"},"properties":{"osm_id":"6760726491","tag":{"amenity":"waste_basket"}},"type":"Feature"},
	{"geometry":{"coordinates":[-15.600272,27.739224],"type":"Point"},"properties":{"osm_id":"6760726492","tag":{"amenity":"waste_basket"}},"type":"Feature"}
]
}
