{
"type": "FeatureCollection",
"features": [
	{"geometry":{"coordinates":[132.483456,34.391289],"type":"Point"},"properties":{"osm_id":"1017455583","tag":{"genus":"Cinnamomum","leaf_cycle":"evergreen","leaf_type":"broadleaved","natural":"tree","species":"Cinnamomum camphora","species:ja":"\u00e3\u0082\u00af\u00e3\u0082\u00b9\u00e3\u0083\u008e\u00e3\u0082\u00ad"}},"type":"Feature"},
	{"geometry":{"coordinates":[132.455976,34.394584],"type":"Point"},"properties":{"osm_id":"2479173814","tag":{"natural":"tree"}},"type":"Feature"},
	{"geometry":{"coordinates":[132.459842,34.401671],"type":"Point"},"properties":{"name":"\u00e8\u00a2\u00ab\u00e7\u0088\u0086\u00e6\u00a8\u00b9\u00e6\u009c\u00a8\u00e3\u0082\u00af\u00e3\u0083\u00ad\u00e3\u0082\u00ac\u00e3\u0083\u008d\u00e3\u0083\u00a2\u00e3\u0083\u0081","osm_id":"3687638610","tag":{"name:en":"Atomic Bombed Ilex Rotunda Tree","natural":"tree"}},"type":"Feature"},
	{"geometry":{"coordinates":[132.459616,34.400449],"type":"Point"},"properties":{"name":"\u00e8\u00a2\u00ab\u00e7\u0088\u0086\u00e6\u00a8\u00b9\u00e6\u009c\u00a8\u00e3\u0083\u009e\u00e3\u0083\u00ab\u00e3\u0083\u0090\u00e3\u0083\u00a4\u00e3\u0083\u008a\u00e3\u0082\u00ae","osm_id":"3687638611","tag":{"name:en":"Atomic Bombed Salix Chaenomeloides Tree","natural":"tree"}},"type":"Feature"},
	{"geometry":{"coordinates":[132.459449,34.400202],"type":"Point"},"properties":{"name":"\u00e8\u00a2\u00ab\u00e7\u0088\u0086\u00e6\u00a8\u00b9\u00e6\u009c\u00a8\u00ef\u00be\u0095\u00ef\u00bd\u00b0\u00ef\u00bd\u00b6\u00ef\u00be\u0098","osm_id":"3687638612","tag":{"name:en":"Atomic Bombed Eucalyptus Tree","natural":"tree"}},"type":"Feature"},
	{"geometry":{"coordinates":[132.453386,34.391871],"type":"Point"},"properties":{"name":"\u00e8\u00a2\u00ab\u00e7\u0088\u0086\u00e3\u0082\u00a2\u00e3\u0082\u00aa\u00e3\u0082\u00ae\u00e3\u0083\u00aa","osm_id":"4280116069","tag":{"name:en":"Aogiri, Chinese Parasol Tree: Exposure to A-Bomb","name:ja":"\u00e8\u00a2\u00ab\u00e7\u0088\u0086\u00e3\u0082\u00a2\u00e3\u0082\u00aa\u00e3\u0082\u00ae\u00e3\u0083\u00aa","natural":"tree","wikidata":"Q2089641","wikipedia":"ja:\u00e8\u00a2\u00ab\u00e7\u0088\u0086\u00e3\u0082\u00a2\u00e3\u0082\u00aa\u00e3\u0082\u00ae\u00e3\u0083\u00aa"}},"type":"Feature"},
	{"geometry":{"coordinates":[132.454105,34.395886],"type":"Point"},"properties":{"osm_id":"4280116071","tag":{"natural":"tree"}},"type":"Feature"},
	{"geometry":{"coordinates":[132.454005,34.395864],"type":"Point"},"properties":{"osm_id":"4280116072","tag":{"natural":"tree"}},"type":"Feature"},
	{"geometry":{"coordinates":[132.453807,34.395878],"type":"Point"},"properties":{"osm_id":"4280116073","tag":{"natural":"tree"}},"type":"Feature"},
	{"geometry":{"coordinates":[132.453831,34.395969],"type":"Point"},"properties":{"osm_id":"4280116074","tag":{"natural":"tree"}},"type":"Feature"},
	{"geometry":{"coordinates":[132.45356,34.396022],"type":"Point"},"properties":{"osm_id":"4280116075","tag":{"natural":"tree"}},"type":"Feature"},
	{"geometry":{"coordinates":[132.453405,34.396048],"type":"Point"},"properties":{"osm_id":"4280116076","tag":{"natural":"tree"}},"type":"Feature"},
	{"geometry":{"coordinates":[132.453582,34.39589],"type":"Point"},"properties":{"osm_id":"4280116077","tag":{"natural":"tree"}},"type":"Feature"},
	{"geometry":{"coordinates":[132.45326,34.395932],"type":"Point"},"properties":{"osm_id":"4280116078","tag":{"natural":"tree"}},"type":"Feature"},
	{"geometry":{"coordinates":[132.45323,34.396057],"type":"Point"},"properties":{"osm_id":"4280116079","tag":{"natural":"tree"}},"type":"Feature"},
	{"geometry":{"coordinates":[132.454225,34.395658],"type":"Point"},"properties":{"osm_id":"4280116080","tag":{"natural":"tree"}},"type":"Feature"},
	{"geometry":{"coordinates":[132.454105,34.395516],"type":"Point"},"properties":{"osm_id":"4280116081","tag":{"natural":"tree"}},"type":"Feature"},
	{"geometry":{"coordinates":[132.45412,34.395407],"type":"Point"},"properties":{"osm_id":"4280116082","tag":{"natural":"tree"}},"type":"Feature"},
	{"geometry":{"coordinates":[132.454148,34.395296],"type":"Point"},"properties":{"osm_id":"4280116083","tag":{"natural":"tree"}},"type":"Feature"},
	{"geometry":{"coordinates":[132.454071,34.395273],"type":"Point"},"properties":{"osm_id":"4280116084","tag":{"natural":"tree"}},"type":"Feature"},
	{"geometry":{"coordinates":[132.454222,34.395493],"type":"Point"},"properties":{"osm_id":"4280116085","tag":{"natural":"tree"}},"type":"Feature"},
	{"geometry":{"coordinates":[132.453773,34.395171],"type":"Point"},"properties":{"osm_id":"4280116086","tag":{"natural":"tree"}},"type":"Feature"},
	{"geometry":{"coordinates":[132.45366,34.394887],"type":"Point"},"properties":{"osm_id":"4280116087","tag":{"natural":"tree"}},"type":"Feature"},
	{"geometry":{"coordinates":[132.453869,34.394867],"type":"Point"},"properties":{"osm_id":"4280116088","tag":{"natural":"tree"}},"type":"Feature"},
	{"geometry":{"coordinates":[132.453769,34.394706],"type":"Point"},"properties":{"osm_id":"4280116089","tag":{"natural":"tree"}},"type":"Feature"},
	{"geometry":{"coordinates":[132.454065,34.395036],"type":"Point"},"properties":{"osm_id":"4280116090","tag":{"natural":"tree"}},"type":"Feature"},
	{"geometry":{"coordinates":[132.454012,34.394897],"type":"Point"},"properties":{"osm_id":"4280116091","tag":{"natural":"tree"}},"type":"Feature"},
	{"geometry":{"coordinates":[132.453995,34.394745],"type":"Point"},"properties":{"osm_id":"4280116092","tag":{"natural":"tree"}},"type":"Feature"},
	{"geometry":{"coordinates":[132.453818,34.394616],"type":"Point"},"properties":{"osm_id":"4280116093","tag":{"natural":"tree"}},"type":"Feature"},
	{"geometry":{"coordinates":[132.453854,34.394535],"type":"Point"},"properties":{"osm_id":"4280116094","tag":{"natural":"tree"}},"type":"Feature"},
	{"geometry":{"coordinates":[132.453961,34.394362],"type":"Point"},"properties":{"osm_id":"4280116095","tag":{"natural":"tree"}},"type":"Feature"},
	{"geometry":{"coordinates":[132.454014,34.394504],"type":"Point"},"properties":{"osm_id":"4280116096","tag":{"natural":"tree"}},"type":"Feature"},
	{"geometry":{"coordinates":[132.45401,34.39459],"type":"Point"},"properties":{"osm_id":"4280116097","tag":{"natural":"tree"}},"type":"Feature"},
	{"geometry":{"coordinates":[132.454059,34.394332],"type":"Point"},"properties":{"osm_id":"4280116098","tag":{"natural":"tree"}},"type":"Feature"},
	{"geometry":{"coordinates":[132.453924,34.394448],"type":"Point"},"properties":{"osm_id":"4280116099","tag":{"natural":"tree"}},"type":"Feature"},
	{"geometry":{"coordinates":[132.48334,34.391347],"type":"Point"},"properties":{"osm_id":"6056226571","tag":{"genus":"Cinnamomum","leaf_cycle":"evergreen","leaf_type":"broadleaved","natural":"tree","species":"Cinnamomum camphora","species:ja":"\u00e3\u0082\u00af\u00e3\u0082\u00b9\u00e3\u0083\u008e\u00e3\u0082\u00ad"}},"type":"Feature"},
	{"geometry":{"coordinates":[132.483113,34.391959],"type":"Point"},"properties":{"osm_id":"6056226572","tag":{"genus":"Cinnamomum","leaf_cycle":"evergreen","leaf_type":"broadleaved","natural":"tree","species":"Cinnamomum camphora","species:ja":"\u00e3\u0082\u00af\u00e3\u0082\u00b9\u00e3\u0083\u008e\u00e3\u0082\u00ad"}},"type":"Feature"},
	{"geometry":{"coordinates":[132.483173,34.392066],"type":"Point"},"properties":{"osm_id":"6056226573","tag":{"genus":"Cinnamomum","leaf_cycle":"evergreen","leaf_type":"broadleaved","natural":"tree","species":"Cinnamomum camphora","species:ja":"\u00e3\u0082\u00af\u00e3\u0082\u00b9\u00e3\u0083\u008e\u00e3\u0082\u00ad"}},"type":"Feature"},
	{"geometry":{"coordinates":[132.483238,34.392158],"type":"Point"},"properties":{"osm_id":"6056226574","tag":{"genus":"Cinnamomum","leaf_cycle":"evergreen","leaf_type":"broadleaved","natural":"tree","species":"Cinnamomum camphora","species:ja":"\u00e3\u0082\u00af\u00e3\u0082\u00b9\u00e3\u0083\u008e\u00e3\u0082\u00ad"}},"type":"Feature"},
	{"geometry":{"coordinates":[132.483332,34.392236],"type":"Point"},"properties":{"osm_id":"6056226575","tag":{"genus":"Cinnamomum","leaf_cycle":"evergreen","leaf_type":"broadleaved","natural":"tree","species":"Cinnamomum camphora","species:ja":"\u00e3\u0082\u00af\u00e3\u0082\u00b9\u00e3\u0083\u008e\u00e3\u0082\u00ad"}},"type":"Feature"},
	{"geometry":{"coordinates":[132.483022,34.392011],"type":"Point"},"properties":{"osm_id":"6085555798","tag":{"genus":"Cinnamomum","leaf_cycle":"evergreen","leaf_type":"broadleaved","natural":"tree","species":"Cinnamomum camphora","species:ja":"\u00e3\u0082\u00af\u00e3\u0082\u00b9\u00e3\u0083\u008e\u00e3\u0082\u00ad"}},"type":"Feature"},
	{"geometry":{"coordinates":[132.483424,34.392322],"type":"Point"},"properties":{"osm_id":"6085555799","tag":{"genus":"Cinnamomum","leaf_cycle":"evergreen","leaf_type":"broadleaved","natural":"tree","species":"Cinnamomum camphora","species:ja":"\u00e3\u0082\u00af\u00e3\u0082\u00b9\u00e3\u0083\u008e\u00e3\u0082\u00ad"}},"type":"Feature"},
	{"geometry":{"coordinates":[132.452548,34.393433],"type":"Point"},"properties":{"name":"SGI\u00e4\u00b8\u0096\u00e7\u0095\u008c\u00e5\u00b9\u00b3\u00e5\u0092\u008c\u00e3\u0081\u00ae\u00e6\u00a8\u00b9","osm_id":"6432574681","tag":{"natural":"tree"}},"type":"Feature"},
	{"geometry":{"coordinates":[132.458652,34.404624],"type":"Point"},"properties":{"osm_id":"7185509685","tag":{"natural":"tree"}},"type":"Feature"},
	{"geometry":{"coordinates":[132.461498,34.391966],"type":"Point"},"properties":{"osm_id":"7188513691","tag":{"natural":"tree"}},"type":"Feature"},
	{"geometry":{"coordinates":[132.469396,34.404495],"type":"Point"},"properties":{"osm_id":"7920337300","tag":{"natural":"tree"}},"type":"Feature"},
	{"geometry":{"coordinates":[132.471412,34.403877],"type":"Point"},"properties":{"osm_id":"7921687112","tag":{"natural":"tree"}},"type":"Feature"},
	{"geometry":{"coordinates":[132.471297,34.403932],"type":"Point"},"properties":{"osm_id":"7921687113","tag":{"natural":"tree"}},"type":"Feature"},
	{"geometry":{"coordinates":[132.470498,34.404575],"type":"Point"},"properties":{"osm_id":"7921692357","tag":{"natural":"tree"}},"type":"Feature"},
	{"geometry":{"coordinates":[132.475477,34.403344],"type":"Point"},"properties":{"osm_id":"7921736681","tag":{"natural":"tree"}},"type":"Feature"},
	{"geometry":{"coordinates":[132.452671,34.394102],"type":"Point"},"properties":{"osm_id":"8205644119","tag":{"natural":"tree"}},"type":"Feature"},
	{"geometry":{"coordinates":[132.452719,34.394225],"type":"Point"},"properties":{"osm_id":"8205644120","tag":{"natural":"tree"}},"type":"Feature"},
	{"geometry":{"coordinates":[132.452842,34.394216],"type":"Point"},"properties":{"osm_id":"8205644121","tag":{"natural":"tree"}},"type":"Feature"}
]
}
