{
"type": "FeatureCollection",
"lastupdate": "2020-08-05T00:00:00Z",
"features": [
	{"geometry":{"coordinates":[3.927297,51.647662],"type":"Point"},"properties":{"osm_id":"3554720973","tag":{"amenity":"waste_basket"}},"type":"Feature"},
	{"geometry":{"coordinates":[3.927159,51.647666],"type":"Point"},"properties":{"osm_id":"3554720978","tag":{"amenity":"waste_basket"}},"type":"Feature"},
	{"geometry":{"coordinates":[3.89844,51.636891],"type":"Point"},"properties":{"osm_id":"3733605425","tag":{"amenity":"waste_basket"}},"type":"Feature"},
	{"geometry":{"coordinates":[3.911461,51.652407],"type":"Point"},"properties":{"osm_id":"3733605484","tag":{"amenity":"waste_basket"}},"type":"Feature"},
	{"geometry":{"coordinates":[3.940425,51.646494],"type":"Point"},"properties":{"osm_id":"4375894155","tag":{"amenity":"waste_basket"}},"type":"Feature"},
	{"geometry":{"coordinates":[3.913183,51.641513],"type":"Point"},"properties":{"name":"Milieustraat Schouwen-Duiveland","osm_id":"4776683130","tag":{"amenity":"recycling","opening_hours":"We,Fr 10:00-12:30,13:00-16:00; Sa 09:00-15:00; PH off","operator":"Zeeuwse ReinigingsDienst B.V.","phone":"+31 111 410081","recycling:batteries":"yes","recycling:clothes":"yes","recycling:electrical_appliances":"yes","recycling:fluorescent_tubes":"yes","recycling:garden_waste":"yes","recycling:glass":"yes","recycling:glass_bottles":"yes","recycling:green_waste":"yes","recycling:hazardous_waste":"yes","recycling:low_energy_bulbs":"yes","recycling:organic":"yes","recycling:paint":"yes","recycling:paper":"yes","recycling:plastic":"yes","recycling:rubble":"yes","recycling:scrap_metal":"yes","recycling:small_appliances":"yes","recycling:tyres":"no","recycling:waste":"yes","recycling:white_goods":"yes","recycling:wood":"yes","recycling_type":"centre","website":"https://www.zrd.nl/milieustraten/locaties/locatie:schouwen-duiveland.htm"}},"type":"Feature"},
	{"geometry":{"coordinates":[3.935725,51.64818],"type":"Point"},"properties":{"osm_id":"5562871647","tag":{"amenity":"waste_basket"}},"type":"Feature"},
	{"geometry":{"coordinates":[3.935112,51.648155],"type":"Point"},"properties":{"osm_id":"5562871652","tag":{"amenity":"waste_basket"}},"type":"Feature"},
	{"geometry":{"coordinates":[3.92249,51.654423],"type":"Point"},"properties":{"osm_id":"5564039685","tag":{"amenity":"waste_basket"}},"type":"Feature"},
	{"geometry":{"coordinates":[3.922692,51.654405],"type":"Point"},"properties":{"osm_id":"5564039686","tag":{"amenity":"waste_basket"}},"type":"Feature"},
	{"geometry":{"coordinates":[3.923185,51.654095],"type":"Point"},"properties":{"osm_id":"5564039695","tag":{"amenity":"waste_basket"}},"type":"Feature"},
	{"geometry":{"coordinates":[3.923359,51.654121],"type":"Point"},"properties":{"osm_id":"5564039697","tag":{"amenity":"waste_basket"}},"type":"Feature"},
	{"geometry":{"coordinates":[3.923363,51.654199],"type":"Point"},"properties":{"osm_id":"5564039701","tag":{"amenity":"waste_basket"}},"type":"Feature"}
]
}
