{
"type": "FeatureCollection",
"features": [
	{"geometry":{"coordinates":[3.894399,51.492988],"type":"Point"},"properties":{"osm_id":"428040368","tag":{"amenity":"recycling","opening_hours":"24/7","recycling:plastic_bags":"yes","recycling:plastic_bottles":"yes","recycling:plastic_packaging":"yes","recycling_type":"container"}},"type":"Feature"},
	{"geometry":{"coordinates":[3.882006,51.496281],"type":"Point"},"properties":{"name":"Goese Metaalhandel Van Son","osm_id":"2897678940","tag":{"addr:city":"Goes","addr:housenumber":"1A","addr:postcode":"4462EX","addr:street":"Van Doornestraat","amenity":"recycling","opening_hours":"Mo-Fr 08:00-12:00, Mo-Fr 13:00-17:00, Sa 08:00-12:00; PH,Su off","recycling:aluminium":"yes","recycling:cable":"yes","recycling:scrap_metal":"yes","recycling:sheet_metal":"yes","recycling_type":"centre","source:date":"2014-06-03","website":"http://www.goesemetaalhandel.nl/"}},"type":"Feature"},
	{"geometry":{"coordinates":[3.889209,51.508687],"type":"Point"},"properties":{"osm_id":"3741050658","tag":{"amenity":"recycling","recycling:glass":"yes","recycling:glass_bottles":"yes","recycling_type":"container","wheelchair":"yes"}},"type":"Feature"},
	{"geometry":{"coordinates":[3.879132,51.468575],"type":"Point"},"properties":{"osm_id":"3898001187","tag":{"amenity":"waste_basket"}},"type":"Feature"},
	{"geometry":{"coordinates":[3.944342,51.508656],"type":"Point"},"properties":{"osm_id":"4443635760","tag":{"amenity":"waste_basket"}},"type":"Feature"},
	{"geometry":{"coordinates":[3.907022,51.490687],"type":"Point"},"properties":{"osm_id":"4510937301","tag":{"amenity":"waste_basket"}},"type":"Feature"},
	{"geometry":{"coordinates":[3.91152,51.498868],"type":"Point"},"properties":{"osm_id":"4688725396","tag":{"amenity":"waste_basket"}},"type":"Feature"},
	{"geometry":{"coordinates":[3.911811,51.498709],"type":"Point"},"properties":{"osm_id":"4688725398","tag":{"amenity":"waste_basket"}},"type":"Feature"},
	{"geometry":{"coordinates":[3.907,51.503356],"type":"Point"},"properties":{"osm_id":"4689355580","tag":{"amenity":"waste_basket"}},"type":"Feature"},
	{"geometry":{"coordinates":[3.950813,51.481759],"type":"Point"},"properties":{"name":"Milieustraat Kapelle","osm_id":"4776518521","tag":{"amenity":"recycling","opening_hours":"Mo-Fr 10:00-12:00; Sa 09:00-15:00; PH off","operator":"Zeeuwse ReinigingsDienst B.V.","phone":"+31 113 745757","recycling:batteries":"yes","recycling:clothes":"yes","recycling:electrical_appliances":"yes","recycling:fluorescent_tubes":"yes","recycling:garden_waste":"yes","recycling:glass":"yes","recycling:glass_bottles":"yes","recycling:green_waste":"yes","recycling:hazardous_waste":"yes","recycling:low_energy_bulbs":"yes","recycling:organic":"yes","recycling:paint":"yes","recycling:paper":"yes","recycling:plastic":"yes","recycling:rubble":"yes","recycling:scrap_metal":"yes","recycling:small_appliances":"yes","recycling:tyres":"no","recycling:waste":"yes","recycling:white_goods":"yes","recycling:wood":"yes","recycling_type":"centre","website":"https://www.zrd.nl/milieustraten/locaties/locatie:kapelle.htm"}},"type":"Feature"},
	{"geometry":{"coordinates":[3.894167,51.492918],"type":"Point"},"properties":{"osm_id":"4926523228","tag":{"amenity":"recycling","opening_hours":"24/7","recycling:glass_bottles":"yes","recycling_type":"container"}},"type":"Feature"},
	{"geometry":{"coordinates":[3.894213,51.492932],"type":"Point"},"properties":{"osm_id":"4926523229","tag":{"amenity":"recycling","opening_hours":"24/7","recycling:glass_bottles":"yes","recycling_type":"container"}},"type":"Feature"},
	{"geometry":{"coordinates":[3.894257,51.492945],"type":"Point"},"properties":{"osm_id":"4926523230","tag":{"amenity":"recycling","opening_hours":"24/7","recycling:glass_bottles":"yes","recycling_type":"container"}},"type":"Feature"},
	{"geometry":{"coordinates":[3.894294,51.492957],"type":"Point"},"properties":{"osm_id":"4926523231","tag":{"amenity":"recycling","opening_hours":"24/7","recycling:plastic_bags":"yes","recycling:plastic_bottles":"yes","recycling:plastic_packaging":"yes","recycling_type":"container"}},"type":"Feature"},
	{"geometry":{"coordinates":[3.894331,51.492968],"type":"Point"},"properties":{"osm_id":"4926523232","tag":{"amenity":"recycling","opening_hours":"24/7","recycling:plastic_bags":"yes","recycling:plastic_bottles":"yes","recycling:plastic_packaging":"yes","recycling_type":"container"}},"type":"Feature"},
	{"geometry":{"coordinates":[3.894437,51.492999],"type":"Point"},"properties":{"osm_id":"4926523233","tag":{"amenity":"recycling","opening_hours":"24/7","recycling:plastic_bags":"yes","recycling:plastic_bottles":"yes","recycling:plastic_packaging":"yes","recycling_type":"container"}},"type":"Feature"},
	{"geometry":{"coordinates":[3.903092,51.479563],"type":"Point"},"properties":{"osm_id":"4986902686","tag":{"amenity":"waste_basket","description":"blikvanger"}},"type":"Feature"},
	{"geometry":{"coordinates":[3.905453,51.500392],"type":"Point"},"properties":{"osm_id":"5124746440","tag":{"amenity":"waste_basket"}},"type":"Feature"},
	{"geometry":{"coordinates":[3.905698,51.50141],"type":"Point"},"properties":{"osm_id":"5124746446","tag":{"amenity":"waste_basket"}},"type":"Feature"},
	{"geometry":{"coordinates":[3.892944,51.504857],"type":"Point"},"properties":{"osm_id":"5966167951","tag":{"amenity":"waste_basket"}},"type":"Feature"},
	{"geometry":{"coordinates":[3.87582,51.492453],"type":"Point"},"properties":{"osm_id":"6145136942","tag":{"amenity":"waste_basket","description":"blikvanger"}},"type":"Feature"},
	{"geometry":{"coordinates":[3.90275,51.498487],"type":"Point"},"properties":{"osm_id":"6483541082","tag":{"amenity":"waste_basket"}},"type":"Feature"}
]
}
