{
"type": "FeatureCollection",
"lastupdate": "2020-08-02T00:00:00Z",
"features": [
	{"geometry":{"coordinates":[3.913241,51.079218],"type":"Point"},"properties":{"osm_id":"1625601549","tag":{"amenity":"recycling","recycling:glass":"yes"}},"type":"Feature"},
	{"geometry":{"coordinates":[3.900216,51.10741],"type":"Point"},"properties":{"osm_id":"1625601926","tag":{"amenity":"recycling","location":"overground","recycling:glass":"yes","recycling_type":"container"}},"type":"Feature"},
	{"geometry":{"coordinates":[3.885968,51.108096],"type":"Point"},"properties":{"osm_id":"1625601965","tag":{"amenity":"recycling"}},"type":"Feature"},
	{"geometry":{"coordinates":[3.926272,51.1212],"type":"Point"},"properties":{"osm_id":"1626130065","tag":{"amenity":"recycling","location":"overground","recycling:clothes":"yes","recycling_type":"container"}},"type":"Feature"},
	{"geometry":{"coordinates":[3.878669,51.105066],"type":"Point"},"properties":{"name":"Recyclagepark","osm_id":"4895033323","tag":{"addr:housenumber":"26","addr:street":"Bedrijvenlaan","amenity":"recycling","description:nl":"Recyclagepark Lochristi","recycling_type":"centre"}},"type":"Feature"},
	{"geometry":{"coordinates":[3.916965,51.092738],"type":"Point"},"properties":{"osm_id":"5910214104","tag":{"amenity":"waste_basket"}},"type":"Feature"},
	{"geometry":{"coordinates":[3.916918,51.09279],"type":"Point"},"properties":{"osm_id":"5910214105","tag":{"amenity":"recycling","recycling_type":"container"}},"type":"Feature"},
	{"geometry":{"coordinates":[3.920683,51.122317],"type":"Point"},"properties":{"osm_id":"6655726054","tag":{"amenity":"recycling","colour":"green","material":"steel","recycling:glass":"yes","recycling_type":"container"}},"type":"Feature"}
]
}
