{
"type": "FeatureCollection",
"features": [
	{"geometry":{"coordinates":[3.923441,50.792675],"type":"Point"},"properties":{"osm_id":"2323312318","tag":{"amenity":"waste_basket"}},"type":"Feature"},
	{"geometry":{"coordinates":[3.921005,50.792146],"type":"Point"},"properties":{"osm_id":"2323312334","tag":{"amenity":"waste_basket"}},"type":"Feature"},
	{"geometry":{"coordinates":[3.924299,50.793122],"type":"Point"},"properties":{"osm_id":"2323312790","tag":{"amenity":"waste_basket"}},"type":"Feature"},
	{"geometry":{"coordinates":[3.921703,50.792654],"type":"Point"},"properties":{"osm_id":"2323312795","tag":{"amenity":"waste_basket"}},"type":"Feature"},
	{"geometry":{"coordinates":[3.920572,50.792064],"type":"Point"},"properties":{"osm_id":"3762386340","tag":{"amenity":"waste_basket"}},"type":"Feature"},
	{"geometry":{"coordinates":[3.909234,50.792228],"type":"Point"},"properties":{"osm_id":"3762386348","tag":{"amenity":"waste_basket"}},"type":"Feature"},
	{"geometry":{"coordinates":[3.920056,50.793045],"type":"Point"},"properties":{"osm_id":"3762386501","tag":{"amenity":"waste_basket"}},"type":"Feature"},
	{"geometry":{"coordinates":[3.914778,50.793164],"type":"Point"},"properties":{"osm_id":"3762386518","tag":{"amenity":"waste_basket"}},"type":"Feature"},
	{"geometry":{"coordinates":[3.903272,50.793287],"type":"Point"},"properties":{"osm_id":"3762386531","tag":{"amenity":"waste_basket"}},"type":"Feature"},
	{"geometry":{"coordinates":[3.915696,50.793442],"type":"Point"},"properties":{"osm_id":"3762386542","tag":{"amenity":"waste_basket"}},"type":"Feature"},
	{"geometry":{"coordinates":[3.906197,50.793506],"type":"Point"},"properties":{"osm_id":"3762386546","tag":{"amenity":"waste_basket","amw":"a"}},"type":"Feature"},
	{"geometry":{"coordinates":[3.906097,50.793514],"type":"Point"},"properties":{"osm_id":"3762386548","tag":{"amenity":"waste_basket","amw":"a"}},"type":"Feature"},
	{"geometry":{"coordinates":[3.904403,50.793695],"type":"Point"},"properties":{"osm_id":"3762386573","tag":{"amenity":"waste_basket"}},"type":"Feature"},
	{"geometry":{"coordinates":[3.903077,50.793813],"type":"Point"},"properties":{"osm_id":"3762386579","tag":{"amenity":"waste_basket"}},"type":"Feature"},
	{"geometry":{"coordinates":[3.918481,50.7939],"type":"Point"},"properties":{"osm_id":"3762386583","tag":{"amenity":"waste_basket"}},"type":"Feature"},
	{"geometry":{"coordinates":[3.916775,50.794176],"type":"Point"},"properties":{"osm_id":"3762386611","tag":{"amenity":"waste_basket"}},"type":"Feature"},
	{"geometry":{"coordinates":[3.910699,50.792857],"type":"Point"},"properties":{"osm_id":"3763598893","tag":{"amenity":"waste_basket"}},"type":"Feature"},
	{"geometry":{"coordinates":[3.929976,50.798933],"type":"Point"},"properties":{"osm_id":"4934487766","tag":{"amenity":"waste_basket"}},"type":"Feature"}
]
}
