{
"type": "FeatureCollection",
"features": [
	{"geometry":{"coordinates":[3.934801,50.663752],"type":"Point"},"properties":{"osm_id":"665554876","tag":{"amenity":"recycling","recycling:glass_bottles":"yes","recycling_type":"container"}},"type":"Feature"},
	{"geometry":{"coordinates":[3.892536,50.663138],"type":"Point"},"properties":{"osm_id":"842273961","tag":{"amenity":"recycling","recycling:glass_bottles":"yes","recycling_type":"container"}},"type":"Feature"},
	{"geometry":{"coordinates":[3.933816,50.662436],"type":"Point"},"properties":{"name":"Recyparc de Silly","osm_id":"1434126529","tag":{"amenity":"recycling","recycling:batteries":"yes","recycling:cans":"yes","recycling:clothes":"yes","recycling:glass":"yes","recycling:paper":"yes","recycling:scrap_metal":"yes","recycling_type":"centre","website":"https://www.ipalle.be/"}},"type":"Feature"},
	{"geometry":{"coordinates":[3.87315,50.659605],"type":"Point"},"properties":{"osm_id":"1887384921","tag":{"amenity":"recycling","recycling:clothes":"yes","recycling:glass":"yes","recycling_type":"container"}},"type":"Feature"},
	{"geometry":{"coordinates":[3.870787,50.663231],"type":"Point"},"properties":{"osm_id":"2211739481","tag":{"amenity":"waste_basket"}},"type":"Feature"},
	{"geometry":{"coordinates":[3.935745,50.675688],"type":"Point"},"properties":{"osm_id":"4759595051","tag":{"amenity":"waste_basket"}},"type":"Feature"},
	{"geometry":{"coordinates":[3.935313,50.675149],"type":"Point"},"properties":{"osm_id":"4759595721","tag":{"amenity":"waste_basket"}},"type":"Feature"}
]
}
