{
"type": "FeatureCollection",
"features": [
	{"geometry":{"coordinates":[3.933492,50.430729],"type":"Point"},"properties":{"name":"Ecoparc de Cuesmes","osm_id":"1317598651","tag":{"addr:housenumber":"265","addr:street":"Rue de Ciply","amenity":"recycling","operator":"Hygea","recycling_type":"centre"}},"type":"Feature"},
	{"geometry":{"coordinates":[3.875467,50.457039],"type":"Point"},"properties":{"osm_id":"1348528580","tag":{"amenity":"recycling","recycling_type":"centre"}},"type":"Feature"},
	{"geometry":{"coordinates":[3.918183,50.431392],"type":"Point"},"properties":{"osm_id":"1463795038","tag":{"amenity":"recycling","recycling:glass_bottles":"yes","recycling_type":"container"}},"type":"Feature"},
	{"geometry":{"coordinates":[3.922229,50.431501],"type":"Point"},"properties":{"osm_id":"1464881179","tag":{"amenity":"recycling","recycling:glass_bottles":"yes","recycling_type":"container"}},"type":"Feature"},
	{"geometry":{"coordinates":[3.924476,50.431573],"type":"Point"},"properties":{"osm_id":"1464881193","tag":{"amenity":"recycling","recycling:glass_bottles":"yes","recycling_type":"container"}},"type":"Feature"},
	{"geometry":{"coordinates":[3.941776,50.428495],"type":"Point"},"properties":{"osm_id":"1707764938","tag":{"amenity":"recycling","recycling:glass_bottles":"yes","recycling_type":"container"}},"type":"Feature"},
	{"geometry":{"coordinates":[3.931503,50.45579],"type":"Point"},"properties":{"osm_id":"1748297327","tag":{"amenity":"recycling","indoor":"yes","recycling:glass_bottles":"yes","recycling_type":"container"}},"type":"Feature"},
	{"geometry":{"coordinates":[3.92905,50.453488],"type":"Point"},"properties":{"osm_id":"1754954908","tag":{"amenity":"recycling","recycling:glass":"no","recycling:glass_bottles":"yes","recycling_type":"container"}},"type":"Feature"},
	{"geometry":{"coordinates":[3.945523,50.448621],"type":"Point"},"properties":{"osm_id":"1785877025","tag":{"amenity":"recycling","recycling:glass_bottles":"yes","recycling_type":"container"}},"type":"Feature"},
	{"geometry":{"coordinates":[3.945137,50.44519],"type":"Point"},"properties":{"osm_id":"1793268472","tag":{"amenity":"recycling","recycling:glass_bottles":"yes","recycling_type":"container"}},"type":"Feature"},
	{"geometry":{"coordinates":[3.95111,50.445204],"type":"Point"},"properties":{"osm_id":"1823325367","tag":{"amenity":"waste_basket"}},"type":"Feature"},
	{"geometry":{"coordinates":[3.951601,50.445394],"type":"Point"},"properties":{"osm_id":"1823325394","tag":{"amenity":"waste_basket"}},"type":"Feature"},
	{"geometry":{"coordinates":[3.946225,50.453747],"type":"Point"},"properties":{"osm_id":"1854118575","tag":{"amenity":"waste_basket"}},"type":"Feature"},
	{"geometry":{"coordinates":[3.946014,50.453774],"type":"Point"},"properties":{"osm_id":"1854118590","tag":{"amenity":"waste_basket"}},"type":"Feature"},
	{"geometry":{"coordinates":[3.944972,50.415861],"type":"Point"},"properties":{"osm_id":"2068253489","tag":{"amenity":"recycling","recycling:glass_bottles":"yes","recycling_type":"container"}},"type":"Feature"},
	{"geometry":{"coordinates":[3.947296,50.433349],"type":"Point"},"properties":{"osm_id":"2125308808","tag":{"amenity":"waste_basket"}},"type":"Feature"},
	{"geometry":{"coordinates":[3.947525,50.433643],"type":"Point"},"properties":{"osm_id":"2125308809","tag":{"amenity":"waste_basket"}},"type":"Feature"},
	{"geometry":{"coordinates":[3.947791,50.435551],"type":"Point"},"properties":{"osm_id":"2125308810","tag":{"amenity":"recycling","operator":"Hygea","recycling:cans":"no","recycling:clothes":"no","recycling:glass_bottles":"yes","recycling:paper":"no","recycling_type":"container"}},"type":"Feature"},
	{"geometry":{"coordinates":[3.945628,50.440843],"type":"Point"},"properties":{"osm_id":"2125308817","tag":{"amenity":"waste_basket"}},"type":"Feature"},
	{"geometry":{"coordinates":[3.949712,50.444821],"type":"Point"},"properties":{"osm_id":"2141651498","tag":{"amenity":"waste_basket"}},"type":"Feature"},
	{"geometry":{"coordinates":[3.950004,50.44495],"type":"Point"},"properties":{"osm_id":"2141651501","tag":{"amenity":"waste_basket"}},"type":"Feature"},
	{"geometry":{"coordinates":[3.95221,50.445509],"type":"Point"},"properties":{"osm_id":"2142293845","tag":{"amenity":"waste_basket"}},"type":"Feature"},
	{"geometry":{"coordinates":[3.952705,50.445686],"type":"Point"},"properties":{"osm_id":"2142293846","tag":{"amenity":"waste_basket"}},"type":"Feature"},
	{"geometry":{"coordinates":[3.953357,50.445816],"type":"Point"},"properties":{"osm_id":"2142293847","tag":{"amenity":"waste_basket"}},"type":"Feature"},
	{"geometry":{"coordinates":[3.953639,50.445945],"type":"Point"},"properties":{"osm_id":"2142293849","tag":{"amenity":"waste_basket"}},"type":"Feature"},
	{"geometry":{"coordinates":[3.948923,50.448498],"type":"Point"},"properties":{"osm_id":"2142561684","tag":{"amenity":"waste_basket"}},"type":"Feature"},
	{"geometry":{"coordinates":[3.949476,50.449593],"type":"Point"},"properties":{"osm_id":"2142561686","tag":{"amenity":"waste_basket","waste":"trash"}},"type":"Feature"},
	{"geometry":{"coordinates":[3.907139,50.403872],"type":"Point"},"properties":{"osm_id":"2277383551","tag":{"amenity":"recycling","recycling:glass_bottles":"yes","recycling_type":"container"}},"type":"Feature"},
	{"geometry":{"coordinates":[3.920328,50.437161],"type":"Point"},"properties":{"osm_id":"2313152224","tag":{"amenity":"recycling","recycling:batteries":"no","recycling:books":"no","recycling:cans":"no","recycling:cardboard":"no","recycling:cartons":"no","recycling:clothes":"no","recycling:electrical_appliances":"no","recycling:glass":"no","recycling:glass_bottles":"yes","recycling:green_waste":"no","recycling:magazines":"no","recycling:newspaper":"no","recycling:paper":"no","recycling:paper_packaging":"no","recycling:plastic":"no","recycling:plastic_bottles":"no","recycling:plastic_packaging":"no","recycling:scrap_metal":"no","recycling:small_appliances":"no","recycling:waste":"no","recycling_type":"container"}},"type":"Feature"},
	{"geometry":{"coordinates":[3.939502,50.449698],"type":"Point"},"properties":{"osm_id":"2402170516","tag":{"amenity":"waste_basket"}},"type":"Feature"},
	{"geometry":{"coordinates":[3.909405,50.431617],"type":"Point"},"properties":{"osm_id":"2595494455","tag":{"amenity":"waste_basket"}},"type":"Feature"},
	{"geometry":{"coordinates":[3.91812,50.412034],"type":"Point"},"properties":{"name":"Hygea - Ecoparc","osm_id":"3477041881","tag":{"amenity":"recycling","operator":"Hygea","recycling:batteries":"yes","recycling:cartons":"yes","recycling:clothes":"yes","recycling:electrical_appliances":"yes","recycling:glass":"yes","recycling:green_waste":"yes","recycling:magazines":"yes","recycling:newspaper":"yes","recycling:paper":"yes","recycling:plastic":"yes","recycling:scrap_metal":"yes","recycling:waste":"yes","recycling:wood":"yes","recycling_type":"centre"}},"type":"Feature"},
	{"geometry":{"coordinates":[3.950891,50.448553],"type":"Point"},"properties":{"osm_id":"3694148468","tag":{"amenity":"recycling","recycling:glass_bottles":"yes","recycling_type":"container"}},"type":"Feature"},
	{"geometry":{"coordinates":[3.950889,50.448577],"type":"Point"},"properties":{"osm_id":"3694148469","tag":{"amenity":"recycling","recycling:glass_bottles":"yes","recycling_type":"container"}},"type":"Feature"},
	{"geometry":{"coordinates":[3.944813,50.425155],"type":"Point"},"properties":{"osm_id":"4301787642","tag":{"amenity":"recycling","operator":"Hygea","recycling:glass_bottles":"yes","recycling_type":"container"}},"type":"Feature"},
	{"geometry":{"coordinates":[3.919445,50.45249],"type":"Point"},"properties":{"osm_id":"4302204911","tag":{"amenity":"recycling","operator":"La Cha\u00c3\u00aene du c\u00c5\u0093ur","recycling:clothes":"yes","recycling:shoes":"yes","recycling_type":"container"}},"type":"Feature"},
	{"geometry":{"coordinates":[3.896138,50.401803],"type":"Point"},"properties":{"osm_id":"4676539593","tag":{"amenity":"recycling","recycling:clothes":"yes","recycling:glass_bottles":"yes","recycling_type":"container"}},"type":"Feature"},
	{"geometry":{"coordinates":[3.874919,50.405057],"type":"Point"},"properties":{"osm_id":"4832949246","tag":{"amenity":"recycling","operator":"Hygea","recycling:glass_bottles":"yes"}},"type":"Feature"},
	{"geometry":{"coordinates":[3.895166,50.404283],"type":"Point"},"properties":{"osm_id":"5174215479","tag":{"amenity":"waste_basket"}},"type":"Feature"},
	{"geometry":{"coordinates":[3.89457,50.405134],"type":"Point"},"properties":{"osm_id":"5174215480","tag":{"amenity":"recycling","recycling:glass_bottles":"yes","recycling_type":"container"}},"type":"Feature"},
	{"geometry":{"coordinates":[3.930096,50.404041],"type":"Point"},"properties":{"osm_id":"5178368612","tag":{"amenity":"recycling","recycling:glass_bottles":"yes","recycling_type":"container"}},"type":"Feature"},
	{"geometry":{"coordinates":[3.951349,50.455708],"type":"Point"},"properties":{"osm_id":"5289917141","tag":{"amenity":"waste_basket"}},"type":"Feature"},
	{"geometry":{"coordinates":[3.951386,50.455674],"type":"Point"},"properties":{"osm_id":"5289917142","tag":{"amenity":"waste_basket"}},"type":"Feature"},
	{"geometry":{"coordinates":[3.951721,50.455229],"type":"Point"},"properties":{"osm_id":"5289917144","tag":{"amenity":"waste_basket"}},"type":"Feature"},
	{"geometry":{"coordinates":[3.951715,50.455502],"type":"Point"},"properties":{"osm_id":"5289917154","tag":{"amenity":"waste_basket"}},"type":"Feature"},
	{"geometry":{"coordinates":[3.951783,50.455464],"type":"Point"},"properties":{"osm_id":"5289917156","tag":{"amenity":"waste_basket"}},"type":"Feature"},
	{"geometry":{"coordinates":[3.951839,50.455504],"type":"Point"},"properties":{"osm_id":"5289917157","tag":{"amenity":"waste_basket"}},"type":"Feature"},
	{"geometry":{"coordinates":[3.951433,50.455218],"type":"Point"},"properties":{"osm_id":"5289917188","tag":{"amenity":"waste_basket"}},"type":"Feature"},
	{"geometry":{"coordinates":[3.949285,50.454185],"type":"Point"},"properties":{"osm_id":"5292012357","tag":{"amenity":"waste_basket"}},"type":"Feature"},
	{"geometry":{"coordinates":[3.949244,50.454227],"type":"Point"},"properties":{"osm_id":"5292012359","tag":{"amenity":"waste_basket"}},"type":"Feature"},
	{"geometry":{"coordinates":[3.949093,50.454208],"type":"Point"},"properties":{"osm_id":"5292012360","tag":{"amenity":"waste_basket"}},"type":"Feature"},
	{"geometry":{"coordinates":[3.951412,50.457459],"type":"Point"},"properties":{"osm_id":"5297692388","tag":{"amenity":"waste_basket"}},"type":"Feature"},
	{"geometry":{"coordinates":[3.94912,50.444699],"type":"Point"},"properties":{"osm_id":"5297841333","tag":{"amenity":"waste_basket"}},"type":"Feature"},
	{"geometry":{"coordinates":[3.94877,50.42225],"type":"Point"},"properties":{"osm_id":"5379093687","tag":{"amenity":"recycling","recycling:clothes":"yes","recycling_type":"container"}},"type":"Feature"},
	{"geometry":{"coordinates":[3.900454,50.408014],"type":"Point"},"properties":{"osm_id":"5546545829","tag":{"amenity":"recycling","recycling:glass_bottles":"yes","recycling_type":"container"}},"type":"Feature"},
	{"geometry":{"coordinates":[3.892351,50.41347],"type":"Point"},"properties":{"osm_id":"5547823570","tag":{"amenity":"recycling","recycling:glass_bottles":"yes","recycling_type":"container"}},"type":"Feature"},
	{"geometry":{"coordinates":[3.907374,50.403568],"type":"Point"},"properties":{"osm_id":"5555268030","tag":{"amenity":"waste_basket"}},"type":"Feature"},
	{"geometry":{"coordinates":[3.890137,50.41102],"type":"Point"},"properties":{"osm_id":"5806900355","tag":{"amenity":"waste_basket"}},"type":"Feature"},
	{"geometry":{"coordinates":[3.890253,50.410999],"type":"Point"},"properties":{"osm_id":"5806900357","tag":{"amenity":"waste_basket"}},"type":"Feature"},
	{"geometry":{"coordinates":[3.872656,50.406633],"type":"Point"},"properties":{"osm_id":"5827936964","tag":{"amenity":"recycling","recycling:clothes":"yes","recycling_type":"container"}},"type":"Feature"},
	{"geometry":{"coordinates":[3.872668,50.406647],"type":"Point"},"properties":{"osm_id":"5827936965","tag":{"amenity":"recycling","recycling:glass_bottles":"yes","recycling_type":"container"}},"type":"Feature"},
	{"geometry":{"coordinates":[3.87268,50.406661],"type":"Point"},"properties":{"osm_id":"5827936966","tag":{"amenity":"recycling","recycling:glass_bottles":"yes","recycling_type":"container"}},"type":"Feature"},
	{"geometry":{"coordinates":[3.871969,50.407206],"type":"Point"},"properties":{"osm_id":"5827937654","tag":{"amenity":"waste_basket"}},"type":"Feature"},
	{"geometry":{"coordinates":[3.872324,50.407134],"type":"Point"},"properties":{"osm_id":"5827937655","tag":{"amenity":"waste_basket"}},"type":"Feature"},
	{"geometry":{"coordinates":[3.915357,50.44915],"type":"Point"},"properties":{"osm_id":"5830683015","tag":{"amenity":"waste_basket","waste":"trash"}},"type":"Feature"},
	{"geometry":{"coordinates":[3.915381,50.448945],"type":"Point"},"properties":{"osm_id":"5830683017","tag":{"amenity":"waste_basket","waste":"trash"}},"type":"Feature"},
	{"geometry":{"coordinates":[3.915502,50.449417],"type":"Point"},"properties":{"osm_id":"5830683771","tag":{"amenity":"waste_basket","waste":"trash"}},"type":"Feature"},
	{"geometry":{"coordinates":[3.922048,50.435971],"type":"Point"},"properties":{"osm_id":"5879611319","tag":{"amenity":"recycling","recycling:clothes":"yes","recycling_type":"container"}},"type":"Feature"},
	{"geometry":{"coordinates":[3.929151,50.438237],"type":"Point"},"properties":{"osm_id":"5967214360","tag":{"amenity":"recycling","recycling:clothes":"yes","recycling_type":"container"}},"type":"Feature"},
	{"geometry":{"coordinates":[3.922072,50.435983],"type":"Point"},"properties":{"osm_id":"5967214361","tag":{"amenity":"recycling","recycling:clothes":"yes","recycling_type":"container"}},"type":"Feature"},
	{"geometry":{"coordinates":[3.922025,50.435959],"type":"Point"},"properties":{"osm_id":"5967214362","tag":{"amenity":"recycling","recycling:clothes":"yes","recycling_type":"container"}},"type":"Feature"},
	{"geometry":{"coordinates":[3.922015,50.435823],"type":"Point"},"properties":{"osm_id":"5967214363","tag":{"amenity":"recycling","recycling:waste":"yes","recycling_type":"container"}},"type":"Feature"},
	{"geometry":{"coordinates":[3.921997,50.435838],"type":"Point"},"properties":{"osm_id":"5967214364","tag":{"amenity":"recycling","recycling:waste":"yes","recycling_type":"container"}},"type":"Feature"},
	{"geometry":{"coordinates":[3.921474,50.435898],"type":"Point"},"properties":{"osm_id":"5967214366","tag":{"amenity":"waste_basket","waste":"trash"}},"type":"Feature"},
	{"geometry":{"coordinates":[3.880146,50.445549],"type":"Point"},"properties":{"osm_id":"6604437056","tag":{"amenity":"recycling","recycling:glass_bottles":"yes","recycling_type":"container"}},"type":"Feature"},
	{"geometry":{"coordinates":[3.948438,50.427342],"type":"Point"},"properties":{"osm_id":"6957796370","tag":{"amenity":"waste_basket","waste":"trash"}},"type":"Feature"},
	{"geometry":{"coordinates":[3.94587,50.42775],"type":"Point"},"properties":{"osm_id":"6958266394","tag":{"amenity":"recycling","recycling:waste":"yes","recycling_type":"container"}},"type":"Feature"},
	{"geometry":{"coordinates":[3.951971,50.45459],"type":"Point"},"properties":{"osm_id":"7089005582","tag":{"amenity":"recycling","recycling:glass_bottles":"yes","recycling_type":"container"}},"type":"Feature"},
	{"geometry":{"coordinates":[3.868002,50.442472],"type":"Point"},"properties":{"osm_id":"7674575495","tag":{"amenity":"waste_basket"}},"type":"Feature"},
	{"geometry":{"coordinates":[3.867589,50.442526],"type":"Point"},"properties":{"osm_id":"7674575497","tag":{"amenity":"waste_basket"}},"type":"Feature"},
	{"geometry":{"coordinates":[3.868658,50.442342],"type":"Point"},"properties":{"osm_id":"7674575498","tag":{"amenity":"waste_basket"}},"type":"Feature"}
]
}
