{
"type": "FeatureCollection",
"features": [
	{"geometry":{"coordinates":[3.884634,45.048928],"type":"Point"},"properties":{"osm_id":"276612750","tag":{"amenity":"recycling","recycling:glass_bottles":"yes","recycling_type":"container"}},"type":"Feature"},
	{"geometry":{"coordinates":[3.889403,45.043186],"type":"Point"},"properties":{"osm_id":"1836174413","tag":{"amenity":"recycling","recycling:glass_bottles":"yes","recycling_type":"container"}},"type":"Feature"},
	{"geometry":{"coordinates":[3.888849,45.04322],"type":"Point"},"properties":{"osm_id":"1836174414","tag":{"amenity":"waste_basket"}},"type":"Feature"},
	{"geometry":{"coordinates":[3.890653,45.045935],"type":"Point"},"properties":{"osm_id":"1836982468","tag":{"amenity":"waste_basket"}},"type":"Feature"},
	{"geometry":{"coordinates":[3.890725,45.046037],"type":"Point"},"properties":{"osm_id":"1836982472","tag":{"amenity":"waste_basket"}},"type":"Feature"},
	{"geometry":{"coordinates":[3.891471,45.046181],"type":"Point"},"properties":{"osm_id":"1836982491","tag":{"amenity":"recycling","recycling:glass_bottles":"yes","recycling_type":"container"}},"type":"Feature"},
	{"geometry":{"coordinates":[3.886476,45.043026],"type":"Point"},"properties":{"osm_id":"1837292284","tag":{"amenity":"waste_basket"}},"type":"Feature"},
	{"geometry":{"coordinates":[3.883867,45.045521],"type":"Point"},"properties":{"osm_id":"1839081283","tag":{"amenity":"waste_basket"}},"type":"Feature"},
	{"geometry":{"coordinates":[3.88391,45.044304],"type":"Point"},"properties":{"osm_id":"1839102768","tag":{"amenity":"waste_basket"}},"type":"Feature"},
	{"geometry":{"coordinates":[3.898788,45.053713],"type":"Point"},"properties":{"osm_id":"2381496726","tag":{"amenity":"recycling","recycling:clothes":"yes","recycling:glass_bottles":"yes","recycling_type":"container"}},"type":"Feature"},
	{"geometry":{"coordinates":[3.890614,45.042189],"type":"Point"},"properties":{"osm_id":"3715536102","tag":{"amenity":"waste_basket"}},"type":"Feature"},
	{"geometry":{"coordinates":[3.889953,45.042265],"type":"Point"},"properties":{"osm_id":"3715536111","tag":{"amenity":"waste_basket"}},"type":"Feature"},
	{"geometry":{"coordinates":[3.882468,45.051052],"type":"Point"},"properties":{"osm_id":"4260200054","tag":{"amenity":"recycling","recycling:glass_bottles":"yes","recycling_type":"container"}},"type":"Feature"},
	{"geometry":{"coordinates":[3.896004,45.0393],"type":"Point"},"properties":{"osm_id":"5045110385","tag":{"amenity":"recycling","recycling_type":"container"}},"type":"Feature"},
	{"geometry":{"coordinates":[3.882444,45.042988],"type":"Point"},"properties":{"osm_id":"5339511039","tag":{"amenity":"recycling","recycling:mobile_phones":"yes","recycling_type":"container"}},"type":"Feature"},
	{"geometry":{"coordinates":[3.911162,45.07161],"type":"Point"},"properties":{"osm_id":"5743688266","tag":{"amenity":"recycling","recycling_type":"container"}},"type":"Feature"},
	{"geometry":{"coordinates":[3.912493,45.07417],"type":"Point"},"properties":{"osm_id":"5743688267","tag":{"amenity":"recycling","recycling_type":"container"}},"type":"Feature"},
	{"geometry":{"coordinates":[3.911405,45.070458],"type":"Point"},"properties":{"osm_id":"5743688268","tag":{"amenity":"recycling","recycling_type":"container"}},"type":"Feature"},
	{"geometry":{"coordinates":[3.902857,45.061731],"type":"Point"},"properties":{"osm_id":"5745067399","tag":{"amenity":"recycling","recycling_type":"container"}},"type":"Feature"},
	{"geometry":{"coordinates":[3.911339,45.069428],"type":"Point"},"properties":{"osm_id":"5745067401","tag":{"amenity":"recycling","recycling_type":"container"}},"type":"Feature"},
	{"geometry":{"coordinates":[3.878675,45.048501],"type":"Point"},"properties":{"osm_id":"6971005564","tag":{"amenity":"waste_basket"}},"type":"Feature"},
	{"geometry":{"coordinates":[3.878542,45.048337],"type":"Point"},"properties":{"osm_id":"6971005569","tag":{"amenity":"waste_basket"}},"type":"Feature"},
	{"geometry":{"coordinates":[3.878444,45.048627],"type":"Point"},"properties":{"osm_id":"6971005574","tag":{"amenity":"waste_basket"}},"type":"Feature"},
	{"geometry":{"coordinates":[3.909828,45.071287],"type":"Point"},"properties":{"osm_id":"7704605822","tag":{"amenity":"recycling"}},"type":"Feature"},
	{"geometry":{"coordinates":[3.908884,45.07258],"type":"Point"},"properties":{"osm_id":"7704631476","tag":{"amenity":"recycling"}},"type":"Feature"},
	{"geometry":{"coordinates":[3.912331,45.069907],"type":"Point"},"properties":{"osm_id":"7705313428","tag":{"amenity":"recycling"}},"type":"Feature"}
]
}
