{
"type": "FeatureCollection",
"features": [
	{"geometry":{"coordinates":[3.925243,43.722938],"type":"Point"},"properties":{"osm_id":"3894270972","tag":{"amenity":"recycling","recycling:glass":"yes","recycling:plastic":"yes","recycling_type":"container"}},"type":"Feature"},
	{"geometry":{"coordinates":[3.869222,43.763583],"type":"Point"},"properties":{"osm_id":"3904771906","tag":{"amenity":"waste_basket"}},"type":"Feature"},
	{"geometry":{"coordinates":[3.869081,43.7636],"type":"Point"},"properties":{"osm_id":"3904771908","tag":{"amenity":"waste_basket"}},"type":"Feature"},
	{"geometry":{"coordinates":[3.869284,43.763742],"type":"Point"},"properties":{"osm_id":"3904771923","tag":{"amenity":"waste_basket"}},"type":"Feature"},
	{"geometry":{"coordinates":[3.869508,43.712613],"type":"Point"},"properties":{"name":"D\u00c3\u00a9chetterie de St Vincent de Barbayrargues","osm_id":"4195717124","tag":{"amenity":"recycling","opening_hours":"Mo 14:00-18:00; Th-Sa 09:00-12:00,14:00-18:00; Su 09:00-12:00","operator":"Communaut\u00c3\u00a9 de Commune du Grand Pic St-Loup","recycling_type":"centre"}},"type":"Feature"},
	{"geometry":{"coordinates":[3.868033,43.769949],"type":"Point"},"properties":{"osm_id":"5876692277","tag":{"amenity":"waste_basket","waste":"trash"}},"type":"Feature"},
	{"geometry":{"coordinates":[3.867711,43.768476],"type":"Point"},"properties":{"osm_id":"8587365995","tag":{"amenity":"waste_basket"}},"type":"Feature"},
	{"geometry":{"coordinates":[3.87263,43.770859],"type":"Point"},"properties":{"osm_id":"8712841000","tag":{"amenity":"recycling","recycling:waste":"yes","recycling_type":"container"}},"type":"Feature"}
]
}
