{
"type": "FeatureCollection",
"features": [
	{"geometry":{"coordinates":[10.895826,54.289625],"type":"Point"},"properties":{"osm_id":"309420204","tag":{"amenity":"recycling","recycling:clothes":"yes","recycling:glass":"yes","recycling:paper":"yes","recycling_type":"container"}},"type":"Feature"},
	{"geometry":{"coordinates":[10.857616,54.297097],"type":"Point"},"properties":{"osm_id":"310256706","tag":{"amenity":"recycling","recycling:glass":"yes","recycling_type":"container"}},"type":"Feature"},
	{"geometry":{"coordinates":[10.885281,54.29754],"type":"Point"},"properties":{"osm_id":"2470091402","tag":{"amenity":"recycling","operator":"Karl Meyer Umweltdienste GmbH","recycling:clothes":"no","recycling:glass":"yes","recycling:paper":"no","recycling_type":"container"}},"type":"Feature"},
	{"geometry":{"coordinates":[10.890256,54.294753],"type":"Point"},"properties":{"osm_id":"2470134810","tag":{"amenity":"waste_basket"}},"type":"Feature"},
	{"geometry":{"coordinates":[10.897699,54.289791],"type":"Point"},"properties":{"osm_id":"2492322458","tag":{"amenity":"recycling","recycling:clothes":"yes","recycling:glass":"yes","recycling:paper":"yes","recycling_type":"container","survey:date":"2013-10-10"}},"type":"Feature"},
	{"geometry":{"coordinates":[10.896523,54.292321],"type":"Point"},"properties":{"osm_id":"2492322483","tag":{"amenity":"recycling","recycling:clothes":"yes","recycling_type":"container"}},"type":"Feature"},
	{"geometry":{"coordinates":[10.882258,54.29296],"type":"Point"},"properties":{"osm_id":"2492322507","tag":{"amenity":"waste_basket"}},"type":"Feature"},
	{"geometry":{"coordinates":[10.882773,54.293436],"type":"Point"},"properties":{"osm_id":"2492322542","tag":{"amenity":"waste_basket"}},"type":"Feature"},
	{"geometry":{"coordinates":[10.896876,54.293774],"type":"Point"},"properties":{"osm_id":"2492322572","tag":{"amenity":"waste_basket"}},"type":"Feature"},
	{"geometry":{"coordinates":[10.88259,54.294022],"type":"Point"},"properties":{"osm_id":"2492322582","tag":{"amenity":"waste_basket"}},"type":"Feature"},
	{"geometry":{"coordinates":[10.88803,54.291154],"type":"Point"},"properties":{"osm_id":"4169497694","tag":{"amenity":"recycling","recycling:clothes":"yes","recycling_type":"container"}},"type":"Feature"},
	{"geometry":{"coordinates":[10.885322,54.297583],"type":"Point"},"properties":{"osm_id":"4509129856","tag":{"amenity":"recycling","operator":"ZVO Entsorgungs-GmbH","recycling:paper":"yes","recycling_type":"container"}},"type":"Feature"},
	{"geometry":{"coordinates":[10.885301,54.297561],"type":"Point"},"properties":{"osm_id":"4509129857","tag":{"amenity":"recycling","operator":"Alpha Handelskontor GmbH","recycling:clothes":"yes","recycling:glass":"no","recycling:paper":"no","recycling_type":"container"}},"type":"Feature"},
	{"geometry":{"coordinates":[10.891071,54.281056],"type":"Point"},"properties":{"osm_id":"7973201657","tag":{"amenity":"waste_basket"}},"type":"Feature"}
]
}
