{
"type": "FeatureCollection",
"features": [
	{"geometry":{"coordinates":[10.887416,54.222011],"type":"Point"},"properties":{"osm_id":"968000338","tag":{"amenity":"recycling","recycling:glass":"yes","recycling:paper":"yes","recycling_type":"container"}},"type":"Feature"},
	{"geometry":{"coordinates":[10.896512,54.218607],"type":"Point"},"properties":{"osm_id":"2470134757","tag":{"amenity":"recycling","operator":"Karl Meyer Umweltdienste GmbH","recycling:glass":"yes","recycling_type":"container","wheelchair":"yes"}},"type":"Feature"},
	{"geometry":{"coordinates":[10.877394,54.220098],"type":"Point"},"properties":{"osm_id":"3394026097","tag":{"amenity":"recycling","recycling_type":"container"}},"type":"Feature"},
	{"geometry":{"coordinates":[10.885118,54.219814],"type":"Point"},"properties":{"osm_id":"3394424939","tag":{"amenity":"recycling","recycling:clothes":"yes","recycling:glass_bottles":"yes","recycling:shoes":"yes","recycling_type":"container"}},"type":"Feature"},
	{"geometry":{"coordinates":[10.891636,54.217866],"type":"Point"},"properties":{"osm_id":"3679083059","tag":{"amenity":"recycling","operator":"ZVO","recycling:clothes":"yes","recycling:shoes":"yes","recycling_type":"container"}},"type":"Feature"},
	{"geometry":{"coordinates":[10.888103,54.22287],"type":"Point"},"properties":{"osm_id":"3686006385","tag":{"amenity":"recycling","recycling:clothes":"yes","recycling:shoes":"yes","recycling_type":"container"}},"type":"Feature"},
	{"geometry":{"coordinates":[10.887205,54.222026],"type":"Point"},"properties":{"osm_id":"3741144987","tag":{"amenity":"recycling","operator":"ZVO","recycling:clothes":"yes","recycling:shoes":"yes","recycling_type":"container"}},"type":"Feature"},
	{"geometry":{"coordinates":[10.8363,54.222335],"type":"Point"},"properties":{"osm_id":"3770517468","tag":{"amenity":"recycling","operator":"Deutsches Rotes Kreuz","recycling:clothes":"yes","recycling_type":"container"}},"type":"Feature"},
	{"geometry":{"coordinates":[10.896419,54.218541],"type":"Point"},"properties":{"osm_id":"3989527226","tag":{"amenity":"recycling","operator":"ZVO","recycling:clothes":"yes","recycling:paper":"yes","recycling_type":"container","wheelchair":"yes"}},"type":"Feature"},
	{"geometry":{"coordinates":[10.888588,54.219299],"type":"Point"},"properties":{"osm_id":"4522718931","tag":{"amenity":"waste_basket"}},"type":"Feature"}
]
}
