{
"type": "FeatureCollection",
"features": [
	{"geometry":{"coordinates":[10.869717,53.959286],"type":"Point"},"properties":{"osm_id":"386895524","tag":{"amenity":"recycling","check_date":"2014-04-02","recycling:clothes":"yes","recycling:glass_bottles":"yes","recycling:paper":"yes","recycling_type":"container"}},"type":"Feature"},
	{"geometry":{"coordinates":[10.820551,53.967236],"type":"Point"},"properties":{"osm_id":"394745174","tag":{"amenity":"recycling","recycling:clothes":"yes","recycling:glass":"yes"}},"type":"Feature"},
	{"geometry":{"coordinates":[10.855831,53.957154],"type":"Point"},"properties":{"osm_id":"425572080","tag":{"amenity":"recycling","recycling:clothes":"yes","recycling:glass":"yes","recycling:paper":"yes","recycling_type":"container"}},"type":"Feature"},
	{"geometry":{"coordinates":[10.842789,53.95858],"type":"Point"},"properties":{"osm_id":"425572094","tag":{"amenity":"recycling","recycling:glass":"yes","recycling:paper":"yes"}},"type":"Feature"},
	{"geometry":{"coordinates":[10.838592,53.964982],"type":"Point"},"properties":{"osm_id":"425634558","tag":{"amenity":"recycling","check_date":"2017-04-06","recycling:glass":"yes","recycling:paper":"yes","recycling_type":"container"}},"type":"Feature"},
	{"geometry":{"coordinates":[10.847845,53.958635],"type":"Point"},"properties":{"osm_id":"429345579","tag":{"amenity":"recycling","operator":"Vorwerker Heime","recycling:clothes":"yes","recycling_type":"container"}},"type":"Feature"},
	{"geometry":{"coordinates":[10.814846,53.993298],"type":"Point"},"properties":{"osm_id":"477201909","tag":{"amenity":"recycling","lastcheck":"2012-07-28","recycling:glass":"yes","recycling_type":"container"}},"type":"Feature"},
	{"geometry":{"coordinates":[10.878719,53.967726],"type":"Point"},"properties":{"osm_id":"549751133","tag":{"amenity":"waste_basket"}},"type":"Feature"},
	{"geometry":{"coordinates":[10.855015,53.959163],"type":"Point"},"properties":{"osm_id":"574850311","tag":{"amenity":"recycling"}},"type":"Feature"},
	{"geometry":{"coordinates":[10.882712,53.979196],"type":"Point"},"properties":{"osm_id":"1363577202","tag":{"amenity":"waste_basket","waste":"trash"}},"type":"Feature"},
	{"geometry":{"coordinates":[10.882617,53.98027],"type":"Point"},"properties":{"osm_id":"1363577206","tag":{"amenity":"waste_basket","waste":"trash"}},"type":"Feature"},
	{"geometry":{"coordinates":[10.881631,53.981446],"type":"Point"},"properties":{"osm_id":"1363577208","tag":{"amenity":"waste_basket","waste":"trash"}},"type":"Feature"},
	{"geometry":{"coordinates":[10.881346,53.981819],"type":"Point"},"properties":{"osm_id":"1363577210","tag":{"amenity":"waste_basket","waste":"trash"}},"type":"Feature"},
	{"geometry":{"coordinates":[10.88061,53.982624],"type":"Point"},"properties":{"osm_id":"1363577215","tag":{"amenity":"waste_basket","waste":"trash"}},"type":"Feature"},
	{"geometry":{"coordinates":[10.876692,53.986554],"type":"Point"},"properties":{"osm_id":"1363577219","tag":{"amenity":"waste_basket","waste":"trash"}},"type":"Feature"},
	{"geometry":{"coordinates":[10.812735,53.993732],"type":"Point"},"properties":{"osm_id":"1369688372","tag":{"amenity":"recycling","location":"overground","recycling:glass":"no","recycling:glass_bottles":"yes","recycling_type":"container"}},"type":"Feature"},
	{"geometry":{"coordinates":[10.866101,53.956999],"type":"Point"},"properties":{"osm_id":"1592347415","tag":{"amenity":"waste_basket"}},"type":"Feature"},
	{"geometry":{"coordinates":[10.86609,53.957079],"type":"Point"},"properties":{"osm_id":"1592347437","tag":{"amenity":"waste_basket"}},"type":"Feature"},
	{"geometry":{"coordinates":[10.865038,53.958321],"type":"Point"},"properties":{"osm_id":"1592347498","tag":{"amenity":"waste_basket"}},"type":"Feature"},
	{"geometry":{"coordinates":[10.882442,53.973452],"type":"Point"},"properties":{"osm_id":"1702276792","tag":{"amenity":"recycling","check_date":"2015-08-25","operator:clothes":"Entsorgungsbetriebe L\u00c3\u00bcbeck;Kleiderbox","operator:glass":"remondis","operator:paper":"Entsorgungsbetriebe L\u00c3\u00bcbeck","recycling:clothes":"yes","recycling:glass":"yes","recycling:paper":"no","recycling_type":"container"}},"type":"Feature"},
	{"geometry":{"coordinates":[10.859157,53.957501],"type":"Point"},"properties":{"osm_id":"1716309301","tag":{"amenity":"recycling","check_date":"2015-07-17","recycling:clothes":"yes","recycling:shoes":"yes","recycling_type":"container"}},"type":"Feature"},
	{"geometry":{"coordinates":[10.865292,53.965336],"type":"Point"},"properties":{"osm_id":"1726657159","tag":{"amenity":"recycling","recycling:clothes":"yes","recycling:paper":"yes"}},"type":"Feature"},
	{"geometry":{"coordinates":[10.880151,53.967412],"type":"Point"},"properties":{"osm_id":"1818539392","tag":{"amenity":"recycling","recycling:clothes":"no","recycling:glass":"no","recycling:paper":"yes","recycling_type":"container"}},"type":"Feature"},
	{"geometry":{"coordinates":[10.870229,53.970406],"type":"Point"},"properties":{"osm_id":"1835026928","tag":{"amenity":"recycling","recycling:clothes":"yes","recycling:glass":"no","recycling:glass_bottles":"yes","recycling:magazines":"yes","recycling:newspaper":"yes","recycling:paper":"yes","recycling:paper_packaging":"yes","recycling_type":"container"}},"type":"Feature"},
	{"geometry":{"coordinates":[10.87071,53.958284],"type":"Point"},"properties":{"osm_id":"1854987024","tag":{"amenity":"waste_basket"}},"type":"Feature"},
	{"geometry":{"coordinates":[10.870363,53.958513],"type":"Point"},"properties":{"osm_id":"1854987026","tag":{"amenity":"waste_basket"}},"type":"Feature"},
	{"geometry":{"coordinates":[10.818167,53.99338],"type":"Point"},"properties":{"osm_id":"1930133245","tag":{"amenity":"recycling","check_date":"2017-03-31","recycling:clothes":"no","recycling:glass":"yes","recycling:paper":"no","recycling_type":"container"}},"type":"Feature"},
	{"geometry":{"coordinates":[10.876945,53.964352],"type":"Point"},"properties":{"osm_id":"2377669544","tag":{"amenity":"recycling","recycling_type":"container"}},"type":"Feature"},
	{"geometry":{"coordinates":[10.873577,53.95965],"type":"Point"},"properties":{"osm_id":"2400010342","tag":{"amenity":"waste_basket"}},"type":"Feature"},
	{"geometry":{"coordinates":[10.873343,53.959755],"type":"Point"},"properties":{"osm_id":"2400010343","tag":{"amenity":"waste_basket"}},"type":"Feature"},
	{"geometry":{"coordinates":[10.828585,53.992451],"type":"Point"},"properties":{"osm_id":"2450702850","tag":{"amenity":"recycling","check_date":"2017-03-31","recycling:glass":"yes","recycling_type":"container"}},"type":"Feature"},
	{"geometry":{"coordinates":[10.844875,53.992008],"type":"Point"},"properties":{"osm_id":"2485702493","tag":{"amenity":"waste_basket","waste":"trash"}},"type":"Feature"},
	{"geometry":{"coordinates":[10.879185,53.984474],"type":"Point"},"properties":{"osm_id":"2486141872","tag":{"amenity":"waste_basket","waste":"trash"}},"type":"Feature"},
	{"geometry":{"coordinates":[10.878318,53.985358],"type":"Point"},"properties":{"osm_id":"2486141878","tag":{"amenity":"waste_basket","waste":"trash"}},"type":"Feature"},
	{"geometry":{"coordinates":[10.866212,53.991786],"type":"Point"},"properties":{"osm_id":"2486141888","tag":{"amenity":"waste_basket","waste":"trash"}},"type":"Feature"},
	{"geometry":{"coordinates":[10.850723,53.992715],"type":"Point"},"properties":{"osm_id":"2486141898","tag":{"amenity":"waste_basket","waste":"trash"}},"type":"Feature"},
	{"geometry":{"coordinates":[10.854494,53.993354],"type":"Point"},"properties":{"osm_id":"2486141912","tag":{"amenity":"waste_basket","waste":"trash"}},"type":"Feature"},
	{"geometry":{"coordinates":[10.870684,53.973969],"type":"Point"},"properties":{"osm_id":"2488272744","tag":{"amenity":"recycling","recycling:cartons":"yes","recycling:clothes":"yes","recycling:glass":"yes","recycling:glass_bottles":"yes","recycling:paper":"yes","recycling:paper_packaging":"yes","recycling_type":"container"}},"type":"Feature"},
	{"geometry":{"coordinates":[10.864078,53.970598],"type":"Point"},"properties":{"osm_id":"2488278321","tag":{"amenity":"recycling","recycling:clothes":"yes","recycling:glass":"yes","recycling:paper":"yes","recycling_type":"container"}},"type":"Feature"},
	{"geometry":{"coordinates":[10.877492,53.970462],"type":"Point"},"properties":{"osm_id":"2503997067","tag":{"amenity":"recycling","recycling:glass_bottles":"yes","recycling:paper":"yes","recycling_type":"container"}},"type":"Feature"},
	{"geometry":{"coordinates":[10.820578,53.967236],"type":"Point"},"properties":{"osm_id":"2579984239","tag":{"amenity":"recycling","recycling:glass":"yes","recycling_type":"container"}},"type":"Feature"},
	{"geometry":{"coordinates":[10.832423,53.987933],"type":"Point"},"properties":{"osm_id":"2579984286","tag":{"amenity":"recycling","check_date":"2018-01-04","recycling:clothes":"yes","recycling:glass":"yes","recycling:paper":"yes","recycling_type":"container"}},"type":"Feature"},
	{"geometry":{"coordinates":[10.812441,53.985675],"type":"Point"},"properties":{"osm_id":"2620661833","tag":{"amenity":"waste_basket"}},"type":"Feature"},
	{"geometry":{"coordinates":[10.872111,53.966277],"type":"Point"},"properties":{"osm_id":"3001822804","tag":{"amenity":"waste_basket"}},"type":"Feature"},
	{"geometry":{"coordinates":[10.871398,53.967571],"type":"Point"},"properties":{"osm_id":"3001822811","tag":{"amenity":"waste_basket"}},"type":"Feature"},
	{"geometry":{"coordinates":[10.870864,53.968855],"type":"Point"},"properties":{"osm_id":"3001822820","tag":{"amenity":"waste_basket"}},"type":"Feature"},
	{"geometry":{"coordinates":[10.814522,53.987716],"type":"Point"},"properties":{"osm_id":"3123713376","tag":{"amenity":"waste_basket"}},"type":"Feature"},
	{"geometry":{"coordinates":[10.865575,53.966002],"type":"Point"},"properties":{"osm_id":"3164542379","tag":{"addr:street":"Nordlandring","amenity":"recycling","recycling:clothes":"yes","recycling_type":"container"}},"type":"Feature"},
	{"geometry":{"coordinates":[10.882226,53.976954],"type":"Point"},"properties":{"osm_id":"3166222833","tag":{"amenity":"waste_basket","waste":"trash"}},"type":"Feature"},
	{"geometry":{"coordinates":[10.878516,53.974168],"type":"Point"},"properties":{"osm_id":"3166267680","tag":{"amenity":"recycling","check_date":"2018-02-18","recycling:glass":"yes","recycling:paper":"yes","recycling_type":"container"}},"type":"Feature"},
	{"geometry":{"coordinates":[10.862284,53.988111],"type":"Point"},"properties":{"osm_id":"3417446305","tag":{"amenity":"recycling","check_date":"2018-08-09","operator:glass":"remondis","operator:paper":"Entsorgungsbetriebe L\u00c3\u00bcbeck","recycling:glass":"yes","recycling:paper":"yes","recycling_type":"container"}},"type":"Feature"},
	{"geometry":{"coordinates":[10.859213,53.962496],"type":"Point"},"properties":{"osm_id":"3714980808","tag":{"amenity":"recycling","recycling:clothes":"yes","recycling_type":"container"}},"type":"Feature"},
	{"geometry":{"coordinates":[10.883788,53.961152],"type":"Point"},"properties":{"osm_id":"3903097770","tag":{"amenity":"waste_basket"}},"type":"Feature"},
	{"geometry":{"coordinates":[10.883713,53.961255],"type":"Point"},"properties":{"osm_id":"3903097771","tag":{"amenity":"waste_basket"}},"type":"Feature"},
	{"geometry":{"coordinates":[10.882505,53.962113],"type":"Point"},"properties":{"osm_id":"3910895900","tag":{"amenity":"waste_basket"}},"type":"Feature"},
	{"geometry":{"coordinates":[10.882294,53.962536],"type":"Point"},"properties":{"osm_id":"3918866501","tag":{"amenity":"waste_basket"}},"type":"Feature"},
	{"geometry":{"coordinates":[10.882159,53.96274],"type":"Point"},"properties":{"osm_id":"3918866507","tag":{"amenity":"waste_basket"}},"type":"Feature"},
	{"geometry":{"coordinates":[10.881993,53.962986],"type":"Point"},"properties":{"osm_id":"3918866514","tag":{"amenity":"waste_basket"}},"type":"Feature"},
	{"geometry":{"coordinates":[10.880775,53.965092],"type":"Point"},"properties":{"osm_id":"3954806478","tag":{"amenity":"waste_basket"}},"type":"Feature"},
	{"geometry":{"coordinates":[10.880635,53.965946],"type":"Point"},"properties":{"osm_id":"3954806479","tag":{"amenity":"waste_basket"}},"type":"Feature"},
	{"geometry":{"coordinates":[10.880654,53.966309],"type":"Point"},"properties":{"osm_id":"3955099734","tag":{"amenity":"waste_basket","colour":"brown","material":"wood","seats":"4"}},"type":"Feature"},
	{"geometry":{"coordinates":[10.881859,53.970092],"type":"Point"},"properties":{"osm_id":"3956292761","tag":{"amenity":"waste_basket"}},"type":"Feature"},
	{"geometry":{"coordinates":[10.881276,53.962997],"type":"Point"},"properties":{"osm_id":"4061307548","tag":{"amenity":"waste_basket"}},"type":"Feature"},
	{"geometry":{"coordinates":[10.859084,53.964489],"type":"Point"},"properties":{"osm_id":"4088034882","tag":{"amenity":"recycling","recycling:clothes":"yes","recycling_type":"container"}},"type":"Feature"},
	{"geometry":{"coordinates":[10.885047,53.957384],"type":"Point"},"properties":{"osm_id":"4225809595","tag":{"amenity":"waste_basket"}},"type":"Feature"},
	{"geometry":{"coordinates":[10.819009,53.994234],"type":"Point"},"properties":{"osm_id":"4258539390","tag":{"amenity":"waste_basket"}},"type":"Feature"},
	{"geometry":{"coordinates":[10.818256,53.994188],"type":"Point"},"properties":{"osm_id":"4383874976","tag":{"amenity":"waste_basket"}},"type":"Feature"},
	{"geometry":{"coordinates":[10.818099,53.994265],"type":"Point"},"properties":{"osm_id":"4383874977","tag":{"amenity":"waste_basket"}},"type":"Feature"},
	{"geometry":{"coordinates":[10.87293,53.966273],"type":"Point"},"properties":{"osm_id":"4678077315","tag":{"amenity":"waste_basket"}},"type":"Feature"},
	{"geometry":{"coordinates":[10.858103,53.956495],"type":"Point"},"properties":{"osm_id":"4694327781","tag":{"amenity":"waste_basket"}},"type":"Feature"},
	{"geometry":{"coordinates":[10.873503,53.965544],"type":"Point"},"properties":{"osm_id":"4712041019","tag":{"amenity":"waste_basket"}},"type":"Feature"},
	{"geometry":{"coordinates":[10.829103,53.992735],"type":"Point"},"properties":{"osm_id":"4876540421","tag":{"amenity":"waste_basket"}},"type":"Feature"},
	{"geometry":{"coordinates":[10.827695,53.992971],"type":"Point"},"properties":{"osm_id":"4876562021","tag":{"amenity":"waste_basket"}},"type":"Feature"},
	{"geometry":{"coordinates":[10.826701,53.993191],"type":"Point"},"properties":{"osm_id":"4876652022","tag":{"amenity":"waste_basket"}},"type":"Feature"},
	{"geometry":{"coordinates":[10.826155,53.993301],"type":"Point"},"properties":{"osm_id":"4876663921","tag":{"amenity":"waste_basket"}},"type":"Feature"},
	{"geometry":{"coordinates":[10.825651,53.993435],"type":"Point"},"properties":{"osm_id":"4876664022","tag":{"amenity":"waste_basket"}},"type":"Feature"},
	{"geometry":{"coordinates":[10.827342,53.989272],"type":"Point"},"properties":{"osm_id":"4878357122","tag":{"amenity":"waste_basket"}},"type":"Feature"},
	{"geometry":{"coordinates":[10.827697,53.989609],"type":"Point"},"properties":{"osm_id":"4878358339","tag":{"amenity":"waste_basket"}},"type":"Feature"},
	{"geometry":{"coordinates":[10.833517,53.986546],"type":"Point"},"properties":{"osm_id":"4878419178","tag":{"amenity":"waste_basket"}},"type":"Feature"},
	{"geometry":{"coordinates":[10.833302,53.986755],"type":"Point"},"properties":{"osm_id":"4878419186","tag":{"amenity":"waste_basket"}},"type":"Feature"},
	{"geometry":{"coordinates":[10.878958,53.964246],"type":"Point"},"properties":{"osm_id":"4880293101","tag":{"amenity":"waste_basket"}},"type":"Feature"},
	{"geometry":{"coordinates":[10.82592,53.992927],"type":"Point"},"properties":{"osm_id":"4880575240","tag":{"amenity":"waste_basket"}},"type":"Feature"},
	{"geometry":{"coordinates":[10.828157,53.992924],"type":"Point"},"properties":{"osm_id":"4880709551","tag":{"amenity":"waste_basket"}},"type":"Feature"},
	{"geometry":{"coordinates":[10.860623,53.962453],"type":"Point"},"properties":{"osm_id":"4880784848","tag":{"amenity":"recycling","recycling:clothes":"yes","recycling:glass_bottles":"yes","recycling:paper":"yes","recycling_type":"container"}},"type":"Feature"},
	{"geometry":{"coordinates":[10.882739,53.958363],"type":"Point"},"properties":{"osm_id":"4931196122","tag":{"amenity":"waste_basket"}},"type":"Feature"},
	{"geometry":{"coordinates":[10.883122,53.958591],"type":"Point"},"properties":{"osm_id":"4931196123","tag":{"amenity":"waste_basket"}},"type":"Feature"},
	{"geometry":{"coordinates":[10.882361,53.958127],"type":"Point"},"properties":{"osm_id":"4931196124","tag":{"amenity":"waste_basket"}},"type":"Feature"},
	{"geometry":{"coordinates":[10.874559,53.959085],"type":"Point"},"properties":{"osm_id":"4936437570","tag":{"amenity":"waste_basket"}},"type":"Feature"},
	{"geometry":{"coordinates":[10.882636,53.958308],"type":"Point"},"properties":{"osm_id":"4954569494","tag":{"amenity":"waste_basket"}},"type":"Feature"},
	{"geometry":{"coordinates":[10.882911,53.958468],"type":"Point"},"properties":{"osm_id":"4954569495","tag":{"amenity":"waste_basket"}},"type":"Feature"},
	{"geometry":{"coordinates":[10.829703,53.990737],"type":"Point"},"properties":{"osm_id":"5454649565","tag":{"amenity":"recycling","check_date":"2020-07-05","recycling:clothes":"yes","recycling_type":"container"}},"type":"Feature"},
	{"geometry":{"coordinates":[10.8587,53.957299],"type":"Point"},"properties":{"osm_id":"5517953786","tag":{"amenity":"recycling","check_date":"2018-03-30","mapillary":"1LrbgUuyl6l9wrAr2teaNg","recycling:clothes":"yes","recycling_type":"container","survey:date":"2019-03-31"}},"type":"Feature"},
	{"geometry":{"coordinates":[10.882805,53.961433],"type":"Point"},"properties":{"osm_id":"5818415250","tag":{"amenity":"waste_basket"}},"type":"Feature"},
	{"geometry":{"coordinates":[10.880391,53.961234],"type":"Point"},"properties":{"osm_id":"5933918877","tag":{"amenity":"waste_disposal","waste":"trash"}},"type":"Feature"},
	{"geometry":{"coordinates":[10.880294,53.96124],"type":"Point"},"properties":{"osm_id":"5933918878","tag":{"amenity":"waste_disposal","waste":"trash"}},"type":"Feature"},
	{"geometry":{"coordinates":[10.880198,53.961245],"type":"Point"},"properties":{"osm_id":"5933918879","tag":{"amenity":"waste_disposal","waste":"trash"}},"type":"Feature"},
	{"geometry":{"coordinates":[10.881201,53.97712],"type":"Point"},"properties":{"osm_id":"6181658078","tag":{"amenity":"waste_basket","waste":"trash"}},"type":"Feature"},
	{"geometry":{"coordinates":[10.874483,53.987647],"type":"Point"},"properties":{"osm_id":"6181658081","tag":{"amenity":"waste_basket","waste":"trash"}},"type":"Feature"},
	{"geometry":{"coordinates":[10.860055,53.993241],"type":"Point"},"properties":{"osm_id":"6181658083","tag":{"amenity":"waste_basket","waste":"trash"}},"type":"Feature"},
	{"geometry":{"coordinates":[10.883203,53.975772],"type":"Point"},"properties":{"osm_id":"6181658084","tag":{"amenity":"waste_basket","waste":"trash"}},"type":"Feature"},
	{"geometry":{"coordinates":[10.882642,53.974854],"type":"Point"},"properties":{"osm_id":"6181658785","tag":{"amenity":"waste_basket","waste":"trash"}},"type":"Feature"},
	{"geometry":{"coordinates":[10.865468,53.991957],"type":"Point"},"properties":{"osm_id":"6181658788","tag":{"amenity":"waste_basket","waste":"trash"}},"type":"Feature"},
	{"geometry":{"coordinates":[10.874502,53.987587],"type":"Point"},"properties":{"osm_id":"6181658792","tag":{"amenity":"waste_basket","waste":"trash"}},"type":"Feature"},
	{"geometry":{"coordinates":[10.84301,53.991703],"type":"Point"},"properties":{"osm_id":"6181658794","tag":{"amenity":"waste_basket","waste":"trash"}},"type":"Feature"},
	{"geometry":{"coordinates":[10.879546,53.983828],"type":"Point"},"properties":{"osm_id":"6181658797","tag":{"amenity":"waste_basket","waste":"trash"}},"type":"Feature"},
	{"geometry":{"coordinates":[10.86736,53.991154],"type":"Point"},"properties":{"osm_id":"6181658799","tag":{"amenity":"waste_basket","waste":"trash"}},"type":"Feature"},
	{"geometry":{"coordinates":[10.865749,53.99161],"type":"Point"},"properties":{"osm_id":"6181658800","tag":{"amenity":"waste_basket","waste":"trash"}},"type":"Feature"},
	{"geometry":{"coordinates":[10.855148,53.993538],"type":"Point"},"properties":{"osm_id":"6181658802","tag":{"amenity":"waste_basket","waste":"trash"}},"type":"Feature"},
	{"geometry":{"coordinates":[10.873622,53.988152],"type":"Point"},"properties":{"osm_id":"6181658804","tag":{"amenity":"waste_basket","waste":"trash"}},"type":"Feature"},
	{"geometry":{"coordinates":[10.873559,53.960916],"type":"Point"},"properties":{"osm_id":"6339947908","tag":{"amenity":"waste_basket","waste":"trash"}},"type":"Feature"},
	{"geometry":{"coordinates":[10.873679,53.961378],"type":"Point"},"properties":{"osm_id":"6339947909","tag":{"amenity":"waste_basket","waste":"trash"}},"type":"Feature"},
	{"geometry":{"coordinates":[10.873391,53.96039],"type":"Point"},"properties":{"osm_id":"6339947910","tag":{"amenity":"waste_basket","waste":"trash"}},"type":"Feature"},
	{"geometry":{"coordinates":[10.882602,53.957607],"type":"Point"},"properties":{"osm_id":"6790480221","tag":{"amenity":"waste_disposal","waste":"trash"}},"type":"Feature"},
	{"geometry":{"coordinates":[10.882645,53.957688],"type":"Point"},"properties":{"osm_id":"6790480222","tag":{"amenity":"recycling","opening_hours":"24/7","recycling:cardboard":"yes","recycling:glass":"yes","recycling:paper":"yes","recycling_type":"container"}},"type":"Feature"},
	{"geometry":{"coordinates":[10.879426,53.956401],"type":"Point"},"properties":{"osm_id":"6790769023","tag":{"amenity":"waste_basket"}},"type":"Feature"},
	{"geometry":{"coordinates":[10.878703,53.956274],"type":"Point"},"properties":{"osm_id":"6790769024","tag":{"amenity":"waste_basket"}},"type":"Feature"},
	{"geometry":{"coordinates":[10.882321,53.957896],"type":"Point"},"properties":{"osm_id":"6808314606","tag":{"amenity":"waste_basket"}},"type":"Feature"},
	{"geometry":{"coordinates":[10.877972,53.976006],"type":"Point"},"properties":{"osm_id":"7389640888","tag":{"amenity":"recycling","opening_hours":"24/7","recycling:glass":"yes","recycling:glass_bottles":"yes","recycling:paper":"yes","recycling:plastic":"no","recycling:plastic_bottles":"yes","recycling:plastic_packaging":"yes","recycling:waste":"yes","recycling_type":"container","wheelchair":"yes"}},"type":"Feature"},
	{"geometry":{"coordinates":[10.835832,53.990491],"type":"Point"},"properties":{"osm_id":"7724794451","tag":{"access":"private","amenity":"recycling","operator":"ZVO","recycling:paper":"yes","recycling:plastic":"yes","recycling:waste":"yes","recycling_type":"container"}},"type":"Feature"},
	{"geometry":{"coordinates":[10.836578,53.990993],"type":"Point"},"properties":{"osm_id":"7726237476","tag":{"access":"private","amenity":"recycling","operator":"ZVO","recycling:paper":"yes","recycling:plastic":"yes","recycling:waste":"yes","recycling_type":"container"}},"type":"Feature"},
	{"geometry":{"coordinates":[10.882182,53.971082],"type":"Point"},"properties":{"osm_id":"7780382307","tag":{"amenity":"waste_basket","waste":"trash"}},"type":"Feature"},
	{"geometry":{"coordinates":[10.882595,53.972185],"type":"Point"},"properties":{"osm_id":"7780382309","tag":{"amenity":"waste_basket","waste":"trash"}},"type":"Feature"},
	{"geometry":{"coordinates":[10.882296,53.97125],"type":"Point"},"properties":{"osm_id":"7780382311","tag":{"amenity":"waste_basket","waste":"trash"}},"type":"Feature"},
	{"geometry":{"coordinates":[10.882372,53.971561],"type":"Point"},"properties":{"osm_id":"7780382313","tag":{"amenity":"waste_basket","waste":"trash"}},"type":"Feature"},
	{"geometry":{"coordinates":[10.882508,53.972058],"type":"Point"},"properties":{"osm_id":"7780382315","tag":{"amenity":"waste_basket","waste":"trash"}},"type":"Feature"},
	{"geometry":{"coordinates":[10.882519,53.97319],"type":"Point"},"properties":{"osm_id":"7780382316","tag":{"amenity":"waste_basket","waste":"trash"}},"type":"Feature"}
]
}
