{
"type": "FeatureCollection",
"features": [
	{"geometry":{"coordinates":[10.885951,52.492887],"type":"Point"},"properties":{"highway":"turning_circle","osm_id":"307788841"},"type":"Feature"},
	{"geometry":{"coordinates":[10.891547,52.492773],"type":"Point"},"properties":{"osm_id":"308111093","tag":{"amenity":"recycling","recycling:clothes":"yes","recycling:glass":"yes","recycling_type":"container"}},"type":"Feature"},
	{"geometry":{"coordinates":[10.882341,52.529781],"type":"Point"},"properties":{"osm_id":"1259828624","tag":{"amenity":"recycling","recycling:glass":"yes"}},"type":"Feature"},
	{"geometry":{"coordinates":[10.867907,52.483707],"type":"Point"},"properties":{"osm_id":"2270420475","tag":{"amenity":"recycling","recycling_type":"container"}},"type":"Feature"},
	{"geometry":{"coordinates":[10.841092,52.490137],"type":"Point"},"properties":{"osm_id":"3194434171","tag":{"amenity":"recycling","recycling:clothes":"yes","recycling:glass":"yes","recycling_type":"centre"}},"type":"Feature"},
	{"geometry":{"coordinates":[10.887164,52.48727],"type":"Point"},"properties":{"osm_id":"3431228284","tag":{"amenity":"waste_basket","material":"plastic"}},"type":"Feature"}
]
}
