{
"type": "FeatureCollection",
"features": [
	{"geometry":{"coordinates":[10.845588,52.435583],"type":"Point"},"properties":{"osm_id":"442837099","tag":{"amenity":"recycling","recycling:clothes":"yes","recycling:glass":"yes","recycling:paper":"yes"}},"type":"Feature"},
	{"geometry":{"coordinates":[10.83097,52.445095],"type":"Point"},"properties":{"osm_id":"442894017","tag":{"amenity":"recycling","recycling:glass":"yes"}},"type":"Feature"},
	{"geometry":{"coordinates":[10.844739,52.444384],"type":"Point"},"properties":{"osm_id":"801161006","tag":{"amenity":"waste_basket","recycling:clothes":"yes","recycling:glass":"no","recycling:paper":"yes"}},"type":"Feature"},
	{"geometry":{"coordinates":[10.845757,52.446749],"type":"Point"},"properties":{"osm_id":"801165882","tag":{"amenity":"recycling","recycling:scrap_metal":"yes","recycling_type":"container"}},"type":"Feature"},
	{"geometry":{"coordinates":[10.851863,52.462435],"type":"Point"},"properties":{"osm_id":"810016770","tag":{"amenity":"recycling","recycling:clothes":"yes","recycling:glass":"yes","recycling:paper":"yes","recycling_type":"container"}},"type":"Feature"},
	{"geometry":{"coordinates":[10.840095,52.448189],"type":"Point"},"properties":{"osm_id":"810020367","tag":{"amenity":"recycling","recycling:glass":"yes","recycling_type":"container"}},"type":"Feature"},
	{"geometry":{"coordinates":[10.829406,52.438447],"type":"Point"},"properties":{"osm_id":"810020375","tag":{"amenity":"recycling","recycling:clothes":"yes","recycling:glass":"yes","recycling:paper":"yes","recycling_type":"container"}},"type":"Feature"},
	{"geometry":{"coordinates":[10.851548,52.436602],"type":"Point"},"properties":{"osm_id":"811986959","tag":{"amenity":"recycling","recycling:clothes":"yes","recycling:glass":"yes","recycling:paper":"yes","recycling_type":"container"}},"type":"Feature"},
	{"geometry":{"coordinates":[10.822088,52.476396],"type":"Point"},"properties":{"osm_id":"1875504713","tag":{"amenity":"recycling","recycling:clothes":"yes","recycling:glass":"yes","recycling:paper":"yes","recycling_type":"container"}},"type":"Feature"},
	{"geometry":{"coordinates":[10.813055,52.436646],"type":"Point"},"properties":{"osm_id":"2299418853","tag":{"amenity":"waste_basket"}},"type":"Feature"},
	{"geometry":{"coordinates":[10.812856,52.4367],"type":"Point"},"properties":{"osm_id":"2299418855","tag":{"amenity":"waste_basket"}},"type":"Feature"},
	{"geometry":{"coordinates":[10.819604,52.431665],"type":"Point"},"properties":{"osm_id":"2323965566","tag":{"amenity":"waste_basket"}},"type":"Feature"},
	{"geometry":{"coordinates":[10.819445,52.431671],"type":"Point"},"properties":{"osm_id":"2323965567","tag":{"amenity":"waste_basket"}},"type":"Feature"},
	{"geometry":{"coordinates":[10.819623,52.431838],"type":"Point"},"properties":{"osm_id":"2323965568","tag":{"amenity":"waste_basket"}},"type":"Feature"},
	{"geometry":{"coordinates":[10.819464,52.431845],"type":"Point"},"properties":{"osm_id":"2323965569","tag":{"amenity":"waste_basket"}},"type":"Feature"},
	{"geometry":{"coordinates":[10.834066,52.436528],"type":"Point"},"properties":{"osm_id":"3284709563","tag":{"amenity":"recycling","recycling:glass_bottles":"yes","recycling_type":"container"}},"type":"Feature"},
	{"geometry":{"coordinates":[10.814434,52.440205],"type":"Point"},"properties":{"osm_id":"3284709615","tag":{"amenity":"waste_basket"}},"type":"Feature"},
	{"geometry":{"coordinates":[10.815882,52.435021],"type":"Point"},"properties":{"osm_id":"3289681404","tag":{"amenity":"waste_basket"}},"type":"Feature"},
	{"geometry":{"coordinates":[10.816632,52.435057],"type":"Point"},"properties":{"osm_id":"3289681405","tag":{"amenity":"waste_basket"}},"type":"Feature"},
	{"geometry":{"coordinates":[10.815822,52.435659],"type":"Point"},"properties":{"osm_id":"3296310261","tag":{"amenity":"waste_basket"}},"type":"Feature"},
	{"geometry":{"coordinates":[10.816498,52.435303],"type":"Point"},"properties":{"osm_id":"3296310262","tag":{"amenity":"waste_basket"}},"type":"Feature"},
	{"geometry":{"coordinates":[10.816833,52.434969],"type":"Point"},"properties":{"osm_id":"3296310264","tag":{"amenity":"waste_basket"}},"type":"Feature"},
	{"geometry":{"coordinates":[10.845163,52.43418],"type":"Point"},"properties":{"osm_id":"3534427192","tag":{"amenity":"waste_basket"}},"type":"Feature"},
	{"geometry":{"coordinates":[10.857279,52.435518],"type":"Point"},"properties":{"osm_id":"3534432600","tag":{"amenity":"waste_basket"}},"type":"Feature"},
	{"geometry":{"coordinates":[10.887204,52.467228],"type":"Point"},"properties":{"osm_id":"4128292171","tag":{"amenity":"waste_basket"}},"type":"Feature"},
	{"geometry":{"coordinates":[10.897466,52.473823],"type":"Point"},"properties":{"osm_id":"4128292590","tag":{"amenity":"waste_disposal"}},"type":"Feature"},
	{"geometry":{"coordinates":[10.823243,52.444413],"type":"Point"},"properties":{"osm_id":"4411063483","tag":{"amenity":"recycling","recycling:clothes":"yes","recycling:glass":"yes"}},"type":"Feature"},
	{"geometry":{"coordinates":[10.848338,52.432546],"type":"Point"},"properties":{"osm_id":"4428752913","tag":{"amenity":"waste_basket"}},"type":"Feature"},
	{"geometry":{"coordinates":[10.81061,52.44559],"type":"Point"},"properties":{"name":"Abfallverwertung","osm_id":"5484092298","tag":{"amenity":"recycling"}},"type":"Feature"},
	{"geometry":{"coordinates":[10.821843,52.444924],"type":"Point"},"properties":{"osm_id":"7792556044","tag":{"amenity":"waste_basket"}},"type":"Feature"},
	{"geometry":{"coordinates":[10.822136,52.44495],"type":"Point"},"properties":{"osm_id":"7792556047","tag":{"amenity":"waste_basket"}},"type":"Feature"},
	{"geometry":{"coordinates":[10.81768,52.444491],"type":"Point"},"properties":{"osm_id":"7792583864","tag":{"amenity":"waste_basket"}},"type":"Feature"},
	{"geometry":{"coordinates":[10.817606,52.444476],"type":"Point"},"properties":{"osm_id":"7792583867","tag":{"amenity":"waste_basket"}},"type":"Feature"},
	{"geometry":{"coordinates":[10.817145,52.444412],"type":"Point"},"properties":{"osm_id":"7792583869","tag":{"amenity":"waste_basket"}},"type":"Feature"}
]
}
