{
"type": "FeatureCollection",
"features": [
	{"geometry":{"coordinates":[10.887162,50.637307],"type":"Point"},"properties":{"name":"Wanderh\u00c3\u00bctte Kn\u00c3\u00b6pfelstaler Teich","osm_id":"279188206","tag":{"amenity":"waste_basket","covered":"yes","tourism":"picnic_site"}},"type":"Feature"},
	{"geometry":{"coordinates":[10.856823,50.667456],"type":"Point"},"properties":{"osm_id":"300393812","tag":{"amenity":"recycling"}},"type":"Feature"},
	{"geometry":{"coordinates":[10.854701,50.666567],"type":"Point"},"properties":{"osm_id":"748281148","tag":{"amenity":"waste_basket"}},"type":"Feature"},
	{"geometry":{"coordinates":[10.857563,50.675569],"type":"Point"},"properties":{"osm_id":"778430074","tag":{"amenity":"recycling","recycling:cans":"yes","recycling:glass":"yes","recycling:paper":"yes","recycling:scrap_metal":"yes"}},"type":"Feature"},
	{"geometry":{"coordinates":[10.898356,50.666722],"type":"Point"},"properties":{"osm_id":"943058377","tag":{"amenity":"waste_basket"}},"type":"Feature"},
	{"geometry":{"coordinates":[10.856841,50.668536],"type":"Point"},"properties":{"osm_id":"2377435172","tag":{"amenity":"waste_basket"}},"type":"Feature"},
	{"geometry":{"coordinates":[10.856805,50.669214],"type":"Point"},"properties":{"osm_id":"2377435182","tag":{"amenity":"waste_basket"}},"type":"Feature"},
	{"geometry":{"coordinates":[10.856362,50.670325],"type":"Point"},"properties":{"osm_id":"2377435187","tag":{"amenity":"waste_basket"}},"type":"Feature"},
	{"geometry":{"coordinates":[10.842536,50.651558],"type":"Point"},"properties":{"osm_id":"7846275974","tag":{"amenity":"recycling","recycling:cans":"yes","recycling:glass":"yes","recycling:glass_bottles":"yes","recycling:paper":"yes","recycling:plastic_bottles":"yes","recycling:plastic_packaging":"yes","recycling:waste":"yes","recycling_type":"container","wheelchair":"yes"}},"type":"Feature"}
]
}
