{
"type": "FeatureCollection",
"features": [
	{"geometry":{"coordinates":[10.873327,50.519678],"type":"Point"},"properties":{"osm_id":"2736324573","tag":{"amenity":"recycling","recycling:glass_bottles":"yes","recycling_type":"container"}},"type":"Feature"},
	{"geometry":{"coordinates":[10.847713,50.524235],"type":"Point"},"properties":{"osm_id":"2806097409","tag":{"amenity":"recycling","recycling:glass":"no","recycling:glass_bottles":"yes","recycling_type":"container"}},"type":"Feature"},
	{"geometry":{"coordinates":[10.882658,50.543269],"type":"Point"},"properties":{"osm_id":"2887324969","tag":{"amenity":"waste_basket"}},"type":"Feature"},
	{"geometry":{"coordinates":[10.878907,50.544806],"type":"Point"},"properties":{"osm_id":"2887324976","tag":{"amenity":"waste_basket"}},"type":"Feature"},
	{"geometry":{"coordinates":[10.846819,50.525316],"type":"Point"},"properties":{"osm_id":"2924605364","tag":{"amenity":"waste_basket"}},"type":"Feature"},
	{"geometry":{"coordinates":[10.847205,50.525881],"type":"Point"},"properties":{"osm_id":"2924605366","tag":{"amenity":"waste_basket"}},"type":"Feature"},
	{"geometry":{"coordinates":[10.881762,50.567792],"type":"Point"},"properties":{"osm_id":"3517379011","tag":{"amenity":"waste_basket"}},"type":"Feature"},
	{"geometry":{"coordinates":[10.878973,50.528675],"type":"Point"},"properties":{"osm_id":"3597057631","tag":{"amenity":"recycling","recycling:clothes":"yes","recycling_type":"container"}},"type":"Feature"},
	{"geometry":{"coordinates":[10.874649,50.519777],"type":"Point"},"properties":{"osm_id":"4028759101","tag":{"amenity":"recycling","recycling:clothes":"yes","recycling_type":"container"}},"type":"Feature"},
	{"geometry":{"coordinates":[10.876288,50.547613],"type":"Point"},"properties":{"osm_id":"4730703386","tag":{"amenity":"waste_basket"}},"type":"Feature"},
	{"geometry":{"coordinates":[10.87749,50.522903],"type":"Point"},"properties":{"osm_id":"4794992073","tag":{"amenity":"recycling","collection_times":"\"Leerung unter 0176-93756618\"; PH off","operator":"Entsorgungsfachbetrieb Ein Herz f\u00c3\u00bcr Th\u00c3\u00bcringen","recycling:clothes":"yes","recycling:shoes":"yes","recycling_type":"container"}},"type":"Feature"},
	{"geometry":{"coordinates":[10.877479,50.522891],"type":"Point"},"properties":{"osm_id":"4794992074","tag":{"amenity":"recycling","operator":"Malteser Hilfsdienst","recycling:clothes":"yes","recycling:shoes":"yes","recycling_type":"container"}},"type":"Feature"},
	{"geometry":{"coordinates":[10.877468,50.52288],"type":"Point"},"properties":{"osm_id":"4794992075","tag":{"amenity":"recycling","operator":"DRK Kreisverband Hildburghausen","recycling:clothes":"yes","recycling:shoes":"yes","recycling_type":"container","website":"http://www.rotes-kreuz-hildburghausen.de"}},"type":"Feature"},
	{"geometry":{"coordinates":[10.879334,50.542952],"type":"Point"},"properties":{"osm_id":"5734456011","tag":{"amenity":"waste_basket"}},"type":"Feature"},
	{"geometry":{"coordinates":[10.829127,50.544037],"type":"Point"},"properties":{"osm_id":"5957296404","tag":{"amenity":"waste_basket","waste":"trash"}},"type":"Feature"}
]
}
