{
"type": "FeatureCollection",
"features": [
	{"geometry":{"coordinates":[10.895309,49.971123],"type":"Point"},"properties":{"osm_id":"274093525","tag":{"amenity":"recycling","recycling:cans":"yes","recycling:clothes":"yes","recycling:glass_bottles":"yes","recycling:shoes":"yes","recycling_type":"container"}},"type":"Feature"},
	{"geometry":{"coordinates":[10.882896,49.967792],"type":"Point"},"properties":{"osm_id":"286697175","tag":{"amenity":"recycling","recycling:cans":"yes","recycling:glass_bottles":"yes","recycling_type":"container"}},"type":"Feature"},
	{"geometry":{"coordinates":[10.881687,49.957133],"type":"Point"},"properties":{"osm_id":"603069511","tag":{"amenity":"recycling","recycling:cans":"yes","recycling:clothes":"yes","recycling:glass_bottles":"yes","recycling_type":"container"}},"type":"Feature"},
	{"geometry":{"coordinates":[10.87367,49.958232],"type":"Point"},"properties":{"osm_id":"603564882","tag":{"amenity":"recycling","recycling:cans":"yes","recycling:glass_bottles":"yes","recycling_type":"container"}},"type":"Feature"},
	{"geometry":{"coordinates":[10.851764,49.980022],"type":"Point"},"properties":{"osm_id":"639006384","tag":{"amenity":"recycling","recycling:cans":"yes","recycling:clothes":"yes","recycling:glass_bottles":"yes","recycling_type":"container"}},"type":"Feature"},
	{"geometry":{"coordinates":[10.846452,49.988258],"type":"Point"},"properties":{"osm_id":"984873546","tag":{"amenity":"recycling"}},"type":"Feature"},
	{"geometry":{"coordinates":[10.86599,49.963691],"type":"Point"},"properties":{"osm_id":"1430562932","tag":{"amenity":"waste_basket"}},"type":"Feature"},
	{"geometry":{"coordinates":[10.853612,49.988956],"type":"Point"},"properties":{"osm_id":"1474546005","tag":{"amenity":"waste_basket"}},"type":"Feature"},
	{"geometry":{"coordinates":[10.870451,49.952037],"type":"Point"},"properties":{"osm_id":"1669020151","tag":{"amenity":"waste_basket"}},"type":"Feature"},
	{"geometry":{"coordinates":[10.872228,49.952581],"type":"Point"},"properties":{"osm_id":"1669020153","tag":{"amenity":"waste_basket"}},"type":"Feature"},
	{"geometry":{"coordinates":[10.871912,49.952758],"type":"Point"},"properties":{"osm_id":"1669020154","tag":{"amenity":"waste_basket"}},"type":"Feature"},
	{"geometry":{"coordinates":[10.871056,49.953445],"type":"Point"},"properties":{"osm_id":"1669020157","tag":{"amenity":"waste_basket"}},"type":"Feature"},
	{"geometry":{"coordinates":[10.883122,49.954162],"type":"Point"},"properties":{"osm_id":"1669020159","tag":{"amenity":"waste_basket"}},"type":"Feature"},
	{"geometry":{"coordinates":[10.869554,49.955327],"type":"Point"},"properties":{"osm_id":"1669020161","tag":{"amenity":"waste_basket"}},"type":"Feature"},
	{"geometry":{"coordinates":[10.868126,49.958565],"type":"Point"},"properties":{"osm_id":"1669020165","tag":{"amenity":"waste_basket"}},"type":"Feature"},
	{"geometry":{"coordinates":[10.859002,49.960425],"type":"Point"},"properties":{"osm_id":"1669020170","tag":{"amenity":"waste_basket"}},"type":"Feature"},
	{"geometry":{"coordinates":[10.84957,49.989542],"type":"Point"},"properties":{"osm_id":"1678210838","tag":{"amenity":"waste_basket"}},"type":"Feature"},
	{"geometry":{"coordinates":[10.842596,49.991052],"type":"Point"},"properties":{"osm_id":"1678211124","tag":{"amenity":"waste_basket"}},"type":"Feature"},
	{"geometry":{"coordinates":[10.851751,49.984812],"type":"Point"},"properties":{"osm_id":"2309914195","tag":{"amenity":"waste_basket"}},"type":"Feature"},
	{"geometry":{"coordinates":[10.88534,49.967771],"type":"Point"},"properties":{"osm_id":"2506722806","tag":{"amenity":"waste_basket"}},"type":"Feature"},
	{"geometry":{"coordinates":[10.896376,49.971222],"type":"Point"},"properties":{"osm_id":"2515250145","tag":{"amenity":"waste_basket"}},"type":"Feature"},
	{"geometry":{"coordinates":[10.87424,49.951429],"type":"Point"},"properties":{"osm_id":"2628547963","tag":{"amenity":"waste_basket"}},"type":"Feature"},
	{"geometry":{"coordinates":[10.854606,49.992625],"type":"Point"},"properties":{"osm_id":"2697434669","tag":{"amenity":"recycling","recycling:cans":"yes","recycling:clothes":"yes","recycling:glass_bottles":"yes","recycling_type":"container"}},"type":"Feature"},
	{"geometry":{"coordinates":[10.848829,49.985723],"type":"Point"},"properties":{"osm_id":"2716705832","tag":{"amenity":"waste_basket"}},"type":"Feature"},
	{"geometry":{"coordinates":[10.846178,49.986092],"type":"Point"},"properties":{"osm_id":"2716705855","tag":{"amenity":"waste_basket"}},"type":"Feature"},
	{"geometry":{"coordinates":[10.849417,49.977425],"type":"Point"},"properties":{"osm_id":"2753516308","tag":{"amenity":"waste_basket"}},"type":"Feature"},
	{"geometry":{"coordinates":[10.89064,49.976687],"type":"Point"},"properties":{"osm_id":"2914616716","tag":{"amenity":"waste_basket"}},"type":"Feature"},
	{"geometry":{"coordinates":[10.890792,49.97732],"type":"Point"},"properties":{"osm_id":"2914616717","tag":{"amenity":"waste_basket"}},"type":"Feature"},
	{"geometry":{"coordinates":[10.883691,49.967871],"type":"Point"},"properties":{"osm_id":"3033898513","tag":{"amenity":"waste_basket"}},"type":"Feature"},
	{"geometry":{"coordinates":[10.881725,49.95731],"type":"Point"},"properties":{"osm_id":"3046198251","tag":{"amenity":"waste_basket"}},"type":"Feature"},
	{"geometry":{"coordinates":[10.887242,49.967847],"type":"Point"},"properties":{"osm_id":"3046734891","tag":{"amenity":"waste_basket"}},"type":"Feature"},
	{"geometry":{"coordinates":[10.895076,49.96672],"type":"Point"},"properties":{"osm_id":"3050691887","tag":{"amenity":"waste_basket"}},"type":"Feature"},
	{"geometry":{"coordinates":[10.88046,49.963111],"type":"Point"},"properties":{"osm_id":"3347521648","tag":{"amenity":"waste_basket"}},"type":"Feature"},
	{"geometry":{"coordinates":[10.890355,49.97147],"type":"Point"},"properties":{"osm_id":"3396414708","tag":{"amenity":"waste_basket"}},"type":"Feature"},
	{"geometry":{"coordinates":[10.888738,49.973807],"type":"Point"},"properties":{"osm_id":"3984480401","tag":{"amenity":"waste_basket"}},"type":"Feature"},
	{"geometry":{"coordinates":[10.888688,49.974677],"type":"Point"},"properties":{"osm_id":"3984480415","tag":{"amenity":"waste_basket"}},"type":"Feature"},
	{"geometry":{"coordinates":[10.828109,49.98524],"type":"Point"},"properties":{"osm_id":"4165788994","tag":{"amenity":"waste_basket"}},"type":"Feature"},
	{"geometry":{"coordinates":[10.844715,49.977979],"type":"Point"},"properties":{"osm_id":"4319511001","tag":{"amenity":"recycling","description":"Gr\u00c3\u00bcnschnitt-Sammelstelle","recycling:green_waste":"yes","recycling_type":"centre"}},"type":"Feature"},
	{"geometry":{"coordinates":[10.886966,49.96604],"type":"Point"},"properties":{"osm_id":"4405739035","tag":{"amenity":"waste_basket"}},"type":"Feature"},
	{"geometry":{"coordinates":[10.872987,49.95357],"type":"Point"},"properties":{"osm_id":"4758739926","tag":{"amenity":"waste_basket"}},"type":"Feature"},
	{"geometry":{"coordinates":[10.872965,49.953641],"type":"Point"},"properties":{"osm_id":"4758739928","tag":{"amenity":"waste_basket"}},"type":"Feature"},
	{"geometry":{"coordinates":[10.863889,50.002969],"type":"Point"},"properties":{"osm_id":"5592207451","tag":{"amenity":"waste_basket"}},"type":"Feature"},
	{"geometry":{"coordinates":[10.856992,49.978648],"type":"Point"},"properties":{"osm_id":"5726292274","tag":{"amenity":"waste_basket"}},"type":"Feature"},
	{"geometry":{"coordinates":[10.851522,49.980001],"type":"Point"},"properties":{"osm_id":"5726328407","tag":{"amenity":"waste_basket"}},"type":"Feature"},
	{"geometry":{"coordinates":[10.893808,49.974838],"type":"Point"},"properties":{"name":"Hundekot station","osm_id":"6308435217","tag":{"amenity":"waste_basket","waste":"dog_excrement"}},"type":"Feature"},
	{"geometry":{"coordinates":[10.896291,49.971194],"type":"Point"},"properties":{"name":"Hundekot station","osm_id":"6308535792","tag":{"amenity":"waste_basket","waste":"dog_excrement"}},"type":"Feature"},
	{"geometry":{"coordinates":[10.886766,49.966263],"type":"Point"},"properties":{"osm_id":"6815735314","tag":{"amenity":"waste_basket"}},"type":"Feature"},
	{"geometry":{"coordinates":[10.887219,49.96623],"type":"Point"},"properties":{"osm_id":"6815735315","tag":{"amenity":"waste_basket"}},"type":"Feature"},
	{"geometry":{"coordinates":[10.896292,49.972653],"type":"Point"},"properties":{"osm_id":"6824537027","tag":{"amenity":"waste_basket"}},"type":"Feature"},
	{"geometry":{"coordinates":[10.850686,49.984214],"type":"Point"},"properties":{"osm_id":"7835367207","tag":{"amenity":"waste_basket"}},"type":"Feature"},
	{"geometry":{"coordinates":[10.857067,49.981391],"type":"Point"},"properties":{"osm_id":"7835367260","tag":{"amenity":"waste_basket"}},"type":"Feature"},
	{"geometry":{"coordinates":[10.872985,49.954287],"type":"Point"},"properties":{"osm_id":"7875775169","tag":{"amenity":"waste_basket"}},"type":"Feature"},
	{"geometry":{"coordinates":[10.872893,49.953836],"type":"Point"},"properties":{"osm_id":"7875775177","tag":{"amenity":"waste_basket"}},"type":"Feature"},
	{"geometry":{"coordinates":[10.872757,49.95319],"type":"Point"},"properties":{"osm_id":"7875792792","tag":{"amenity":"waste_basket"}},"type":"Feature"},
	{"geometry":{"coordinates":[10.874362,49.951627],"type":"Point"},"properties":{"osm_id":"7875792828","tag":{"amenity":"waste_basket"}},"type":"Feature"}
]
}
