{
"type": "FeatureCollection",
"features": [
	{"geometry":{"coordinates":[10.878342,49.849558],"type":"Point"},"properties":{"osm_id":"298219444","tag":{"amenity":"recycling","recycling_type":"centre"}},"type":"Feature"},
	{"geometry":{"coordinates":[10.873688,49.893033],"type":"Point"},"properties":{"osm_id":"447812950","tag":{"amenity":"recycling","recycling:glass_bottles":"yes","recycling_type":"container"}},"type":"Feature"},
	{"geometry":{"coordinates":[10.876359,49.891005],"type":"Point"},"properties":{"osm_id":"447833934","tag":{"amenity":"recycling","recycling:glass_bottles":"yes","recycling_type":"container"}},"type":"Feature"},
	{"geometry":{"coordinates":[10.886578,49.889906],"type":"Point"},"properties":{"osm_id":"448405167","tag":{"amenity":"recycling","recycling:glass_bottles":"yes","recycling_type":"container"}},"type":"Feature"},
	{"geometry":{"coordinates":[10.896856,49.889713],"type":"Point"},"properties":{"osm_id":"449023739","tag":{"amenity":"recycling","recycling:clothes":"yes","recycling:glass_bottles":"yes","recycling:shoes":"yes","recycling_type":"container"}},"type":"Feature"},
	{"geometry":{"coordinates":[10.882628,49.886491],"type":"Point"},"properties":{"osm_id":"450799922","tag":{"amenity":"recycling","recycling:glass_bottles":"yes","recycling_type":"container"}},"type":"Feature"},
	{"geometry":{"coordinates":[10.889731,49.871778],"type":"Point"},"properties":{"osm_id":"454338406","tag":{"amenity":"recycling","recycling:clothes":"yes","recycling:glass_bottles":"yes","recycling:shoes":"yes","recycling_type":"container"}},"type":"Feature"},
	{"geometry":{"coordinates":[10.884357,49.877553],"type":"Point"},"properties":{"osm_id":"454364028","tag":{"amenity":"recycling","recycling:clothes":"yes","recycling:glass_bottles":"yes","recycling_type":"container"}},"type":"Feature"},
	{"geometry":{"coordinates":[10.886085,49.883045],"type":"Point"},"properties":{"osm_id":"454382168","tag":{"amenity":"recycling","recycling:clothes":"yes","recycling:glass_bottles":"yes","recycling_type":"container"}},"type":"Feature"},
	{"geometry":{"coordinates":[10.870937,49.888858],"type":"Point"},"properties":{"osm_id":"457363937","tag":{"amenity":"recycling","recycling:glass_bottles":"yes","recycling_type":"container"}},"type":"Feature"},
	{"geometry":{"coordinates":[10.873404,49.875028],"type":"Point"},"properties":{"osm_id":"458874070","tag":{"amenity":"recycling","recycling:clothes":"yes","recycling:glass_bottles":"yes","recycling:shoes":"yes","recycling_type":"container"}},"type":"Feature"},
	{"geometry":{"coordinates":[10.878707,49.88604],"type":"Point"},"properties":{"osm_id":"459496749","tag":{"amenity":"recycling","recycling:clothes":"yes","recycling:glass_bottles":"yes","recycling_type":"container"}},"type":"Feature"},
	{"geometry":{"coordinates":[10.882207,49.879146],"type":"Point"},"properties":{"osm_id":"459644527","tag":{"amenity":"recycling","recycling:clothes":"yes","recycling:glass_bottles":"yes","recycling_type":"container"}},"type":"Feature"},
	{"geometry":{"coordinates":[10.883496,49.880043],"type":"Point"},"properties":{"osm_id":"459666718","tag":{"amenity":"recycling","recycling:glass_bottles":"yes","recycling_type":"container"}},"type":"Feature"},
	{"geometry":{"coordinates":[10.856077,49.880616],"type":"Point"},"properties":{"osm_id":"464010284","tag":{"amenity":"recycling","recycling:clothes":"yes","recycling:glass_bottles":"yes","recycling_type":"container"}},"type":"Feature"},
	{"geometry":{"coordinates":[10.870287,49.870571],"type":"Point"},"properties":{"osm_id":"464090668","tag":{"amenity":"recycling","recycling:clothes":"yes","recycling:glass_bottles":"yes","recycling_type":"container"}},"type":"Feature"},
	{"geometry":{"coordinates":[10.892204,49.879659],"type":"Point"},"properties":{"osm_id":"475298644","tag":{"amenity":"recycling","recycling:clothes":"yes","recycling:glass_bottles":"yes","recycling_type":"container"}},"type":"Feature"},
	{"geometry":{"coordinates":[10.881967,49.873383],"type":"Point"},"properties":{"osm_id":"481077123","tag":{"amenity":"recycling","recycling:glass_bottles":"yes","recycling_type":"container"}},"type":"Feature"},
	{"geometry":{"coordinates":[10.89171,49.874847],"type":"Point"},"properties":{"osm_id":"491378938","tag":{"amenity":"recycling","recycling:glass_bottles":"yes","recycling_type":"container"}},"type":"Feature"},
	{"geometry":{"coordinates":[10.890839,49.870139],"type":"Point"},"properties":{"osm_id":"493598138","tag":{"amenity":"recycling","recycling:clothes":"yes","recycling:glass_bottles":"yes","recycling_type":"container"}},"type":"Feature"},
	{"geometry":{"coordinates":[10.882736,49.882962],"type":"Point"},"properties":{"osm_id":"794941839","tag":{"amenity":"recycling","recycling:clothes":"yes","recycling:glass_bottles":"yes","recycling_type":"container"}},"type":"Feature"},
	{"geometry":{"coordinates":[10.891742,49.894263],"type":"Point"},"properties":{"osm_id":"815189097","tag":{"amenity":"recycling","recycling:glass_bottles":"yes","recycling_type":"container"}},"type":"Feature"},
	{"geometry":{"coordinates":[10.840464,49.86856],"type":"Point"},"properties":{"osm_id":"868261674","tag":{"amenity":"recycling","recycling:cans":"yes","recycling:glass":"yes","recycling_type":"centre"}},"type":"Feature"},
	{"geometry":{"coordinates":[10.848267,49.863219],"type":"Point"},"properties":{"osm_id":"1231424177","tag":{"amenity":"recycling","location":"overground","recycling_type":"container"}},"type":"Feature"},
	{"geometry":{"coordinates":[10.81146,49.865805],"type":"Point"},"properties":{"osm_id":"1232590963","tag":{"amenity":"recycling","recycling:cans":"yes","recycling:clothes":"yes","recycling:glass_bottles":"yes","recycling_type":"container"}},"type":"Feature"},
	{"geometry":{"coordinates":[10.890593,49.888602],"type":"Point"},"properties":{"osm_id":"1270837828","tag":{"amenity":"waste_basket"}},"type":"Feature"},
	{"geometry":{"coordinates":[10.890111,49.887791],"type":"Point"},"properties":{"osm_id":"1331033568","tag":{"amenity":"waste_basket"}},"type":"Feature"},
	{"geometry":{"coordinates":[10.889243,49.890577],"type":"Point"},"properties":{"osm_id":"1331033575","tag":{"amenity":"waste_basket"}},"type":"Feature"},
	{"geometry":{"coordinates":[10.889172,49.89076],"type":"Point"},"properties":{"osm_id":"1331033577","tag":{"amenity":"waste_basket"}},"type":"Feature"},
	{"geometry":{"coordinates":[10.890071,49.888755],"type":"Point"},"properties":{"osm_id":"1345114549","tag":{"amenity":"waste_basket"}},"type":"Feature"},
	{"geometry":{"coordinates":[10.889544,49.889923],"type":"Point"},"properties":{"osm_id":"1345114553","tag":{"amenity":"waste_basket"}},"type":"Feature"},
	{"geometry":{"coordinates":[10.883005,49.892197],"type":"Point"},"properties":{"osm_id":"1390089659","tag":{"amenity":"waste_basket"}},"type":"Feature"},
	{"geometry":{"coordinates":[10.887147,49.887837],"type":"Point"},"properties":{"osm_id":"1460087387","tag":{"amenity":"recycling","recycling:glass_bottles":"yes","recycling_type":"container"}},"type":"Feature"},
	{"geometry":{"coordinates":[10.883511,49.888909],"type":"Point"},"properties":{"osm_id":"1477470779","tag":{"amenity":"recycling","recycling:glass_bottles":"yes","recycling_type":"container"}},"type":"Feature"},
	{"geometry":{"coordinates":[10.867789,49.880553],"type":"Point"},"properties":{"osm_id":"1589654889","tag":{"amenity":"waste_basket"}},"type":"Feature"},
	{"geometry":{"coordinates":[10.897181,49.891676],"type":"Point"},"properties":{"osm_id":"1617869142","tag":{"amenity":"recycling","recycling:glass_bottles":"yes","recycling_type":"container"}},"type":"Feature"},
	{"geometry":{"coordinates":[10.897272,49.892845],"type":"Point"},"properties":{"osm_id":"1639173621","tag":{"amenity":"waste_basket"}},"type":"Feature"},
	{"geometry":{"coordinates":[10.896576,49.893248],"type":"Point"},"properties":{"osm_id":"1639173631","tag":{"amenity":"waste_basket"}},"type":"Feature"},
	{"geometry":{"coordinates":[10.895894,49.893515],"type":"Point"},"properties":{"osm_id":"1639173635","tag":{"amenity":"waste_basket"}},"type":"Feature"},
	{"geometry":{"coordinates":[10.897635,49.893669],"type":"Point"},"properties":{"osm_id":"1645656452","tag":{"amenity":"waste_basket"}},"type":"Feature"},
	{"geometry":{"coordinates":[10.897019,49.894016],"type":"Point"},"properties":{"osm_id":"1645656467","tag":{"amenity":"waste_basket"}},"type":"Feature"},
	{"geometry":{"coordinates":[10.893797,49.88926],"type":"Point"},"properties":{"osm_id":"1646993874","tag":{"amenity":"waste_basket"}},"type":"Feature"},
	{"geometry":{"coordinates":[10.856089,49.880656],"type":"Point"},"properties":{"osm_id":"1659123512","tag":{"amenity":"waste_basket"}},"type":"Feature"},
	{"geometry":{"coordinates":[10.879072,49.876005],"type":"Point"},"properties":{"osm_id":"1659164213","tag":{"amenity":"waste_basket"}},"type":"Feature"},
	{"geometry":{"coordinates":[10.878738,49.876189],"type":"Point"},"properties":{"osm_id":"1659164214","tag":{"amenity":"waste_basket"}},"type":"Feature"},
	{"geometry":{"coordinates":[10.87833,49.876326],"type":"Point"},"properties":{"osm_id":"1659164217","tag":{"amenity":"waste_basket"}},"type":"Feature"},
	{"geometry":{"coordinates":[10.877919,49.876446],"type":"Point"},"properties":{"osm_id":"1659164218","tag":{"amenity":"waste_basket"}},"type":"Feature"},
	{"geometry":{"coordinates":[10.884788,49.887694],"type":"Point"},"properties":{"osm_id":"1659200695","tag":{"amenity":"waste_basket"}},"type":"Feature"},
	{"geometry":{"coordinates":[10.884403,49.877533],"type":"Point"},"properties":{"osm_id":"1687401956","tag":{"amenity":"waste_basket"}},"type":"Feature"},
	{"geometry":{"coordinates":[10.889317,49.893774],"type":"Point"},"properties":{"osm_id":"1704234772","tag":{"amenity":"waste_basket"}},"type":"Feature"},
	{"geometry":{"coordinates":[10.889497,49.893913],"type":"Point"},"properties":{"osm_id":"1704234775","tag":{"amenity":"waste_basket"}},"type":"Feature"},
	{"geometry":{"coordinates":[10.889722,49.894093],"type":"Point"},"properties":{"osm_id":"1704234776","tag":{"amenity":"waste_basket"}},"type":"Feature"},
	{"geometry":{"coordinates":[10.898318,49.882519],"type":"Point"},"properties":{"osm_id":"1805148715","tag":{"amenity":"waste_basket"}},"type":"Feature"},
	{"geometry":{"coordinates":[10.895673,49.885565],"type":"Point"},"properties":{"osm_id":"1805148738","tag":{"amenity":"waste_basket"}},"type":"Feature"},
	{"geometry":{"coordinates":[10.895178,49.88613],"type":"Point"},"properties":{"osm_id":"1805148742","tag":{"amenity":"waste_basket"}},"type":"Feature"},
	{"geometry":{"coordinates":[10.888144,49.892178],"type":"Point"},"properties":{"osm_id":"1842516711","tag":{"amenity":"waste_basket"}},"type":"Feature"},
	{"geometry":{"coordinates":[10.888528,49.892357],"type":"Point"},"properties":{"osm_id":"1842516716","tag":{"amenity":"waste_basket"}},"type":"Feature"},
	{"geometry":{"coordinates":[10.888541,49.892699],"type":"Point"},"properties":{"osm_id":"1842516721","tag":{"amenity":"waste_basket"}},"type":"Feature"},
	{"geometry":{"coordinates":[10.888611,49.892699],"type":"Point"},"properties":{"osm_id":"1842516727","tag":{"amenity":"waste_basket"}},"type":"Feature"},
	{"geometry":{"coordinates":[10.888525,49.892768],"type":"Point"},"properties":{"osm_id":"1842516728","tag":{"amenity":"waste_basket"}},"type":"Feature"},
	{"geometry":{"coordinates":[10.888585,49.892768],"type":"Point"},"properties":{"osm_id":"1842516731","tag":{"amenity":"waste_basket"}},"type":"Feature"},
	{"geometry":{"coordinates":[10.876031,49.893324],"type":"Point"},"properties":{"osm_id":"1842571438","tag":{"amenity":"waste_basket"}},"type":"Feature"},
	{"geometry":{"coordinates":[10.888426,49.893111],"type":"Point"},"properties":{"osm_id":"1842897513","tag":{"amenity":"waste_basket"}},"type":"Feature"},
	{"geometry":{"coordinates":[10.892868,49.886097],"type":"Point"},"properties":{"osm_id":"1979485907","tag":{"amenity":"waste_basket"}},"type":"Feature"},
	{"geometry":{"coordinates":[10.892105,49.891805],"type":"Point"},"properties":{"osm_id":"1979485919","tag":{"amenity":"waste_basket"}},"type":"Feature"},
	{"geometry":{"coordinates":[10.897215,49.891812],"type":"Point"},"properties":{"osm_id":"1979485921","tag":{"amenity":"recycling","recycling:glass_bottles":"yes","recycling_type":"container"}},"type":"Feature"},
	{"geometry":{"coordinates":[10.888308,49.880852],"type":"Point"},"properties":{"osm_id":"1987006848","tag":{"amenity":"waste_basket"}},"type":"Feature"},
	{"geometry":{"coordinates":[10.885204,49.890382],"type":"Point"},"properties":{"osm_id":"2088293735","tag":{"amenity":"waste_basket"}},"type":"Feature"},
	{"geometry":{"coordinates":[10.885851,49.890582],"type":"Point"},"properties":{"osm_id":"2088293742","tag":{"amenity":"waste_basket"}},"type":"Feature"},
	{"geometry":{"coordinates":[10.886262,49.891159],"type":"Point"},"properties":{"osm_id":"2088293750","tag":{"amenity":"waste_basket"}},"type":"Feature"},
	{"geometry":{"coordinates":[10.882258,49.879129],"type":"Point"},"properties":{"osm_id":"2088329431","tag":{"amenity":"waste_basket"}},"type":"Feature"},
	{"geometry":{"coordinates":[10.882262,49.882012],"type":"Point"},"properties":{"osm_id":"2088329438","tag":{"amenity":"waste_basket"}},"type":"Feature"},
	{"geometry":{"coordinates":[10.883542,49.889221],"type":"Point"},"properties":{"osm_id":"2088329536","tag":{"amenity":"waste_basket"}},"type":"Feature"},
	{"geometry":{"coordinates":[10.897637,49.880771],"type":"Point"},"properties":{"osm_id":"2088395011","tag":{"amenity":"waste_basket"}},"type":"Feature"},
	{"geometry":{"coordinates":[10.895652,49.883237],"type":"Point"},"properties":{"osm_id":"2088395015","tag":{"amenity":"waste_basket"}},"type":"Feature"},
	{"geometry":{"coordinates":[10.894952,49.884278],"type":"Point"},"properties":{"osm_id":"2088395016","tag":{"amenity":"waste_basket"}},"type":"Feature"},
	{"geometry":{"coordinates":[10.886658,49.892821],"type":"Point"},"properties":{"osm_id":"2117341437","tag":{"amenity":"waste_basket"}},"type":"Feature"},
	{"geometry":{"coordinates":[10.885617,49.894246],"type":"Point"},"properties":{"osm_id":"2138735115","tag":{"amenity":"waste_basket"}},"type":"Feature"},
	{"geometry":{"coordinates":[10.890003,49.893112],"type":"Point"},"properties":{"osm_id":"2138736617","tag":{"amenity":"waste_basket"}},"type":"Feature"},
	{"geometry":{"coordinates":[10.888353,49.893219],"type":"Point"},"properties":{"osm_id":"2138736618","tag":{"amenity":"waste_basket"}},"type":"Feature"},
	{"geometry":{"coordinates":[10.891383,49.869484],"type":"Point"},"properties":{"osm_id":"2142212215","tag":{"amenity":"waste_basket"}},"type":"Feature"},
	{"geometry":{"coordinates":[10.890749,49.870128],"type":"Point"},"properties":{"osm_id":"2142212216","tag":{"amenity":"waste_basket"}},"type":"Feature"},
	{"geometry":{"coordinates":[10.89583,49.893438],"type":"Point"},"properties":{"osm_id":"2144987737","tag":{"amenity":"waste_basket"}},"type":"Feature"},
	{"geometry":{"coordinates":[10.895701,49.887938],"type":"Point"},"properties":{"osm_id":"2159475344","tag":{"amenity":"waste_basket"}},"type":"Feature"},
	{"geometry":{"coordinates":[10.895086,49.889498],"type":"Point"},"properties":{"osm_id":"2159475359","tag":{"amenity":"waste_basket"}},"type":"Feature"},
	{"geometry":{"coordinates":[10.891018,49.89219],"type":"Point"},"properties":{"osm_id":"2159475363","tag":{"amenity":"waste_basket"}},"type":"Feature"},
	{"geometry":{"coordinates":[10.890934,49.892212],"type":"Point"},"properties":{"osm_id":"2159475366","tag":{"amenity":"waste_basket"}},"type":"Feature"},
	{"geometry":{"coordinates":[10.890879,49.892222],"type":"Point"},"properties":{"osm_id":"2159475376","tag":{"amenity":"waste_basket"}},"type":"Feature"},
	{"geometry":{"coordinates":[10.887433,49.892198],"type":"Point"},"properties":{"osm_id":"2242361075","tag":{"amenity":"waste_basket"}},"type":"Feature"},
	{"geometry":{"coordinates":[10.883574,49.88877],"type":"Point"},"properties":{"osm_id":"2255424945","tag":{"amenity":"waste_basket"}},"type":"Feature"},
	{"geometry":{"coordinates":[10.881575,49.88881],"type":"Point"},"properties":{"osm_id":"2255424946","tag":{"amenity":"waste_basket"}},"type":"Feature"},
	{"geometry":{"coordinates":[10.892267,49.890945],"type":"Point"},"properties":{"osm_id":"2255424964","tag":{"amenity":"waste_basket"}},"type":"Feature"},
	{"geometry":{"coordinates":[10.892213,49.891059],"type":"Point"},"properties":{"osm_id":"2255424973","tag":{"amenity":"waste_basket"}},"type":"Feature"},
	{"geometry":{"coordinates":[10.883449,49.892582],"type":"Point"},"properties":{"osm_id":"2331569335","tag":{"amenity":"waste_basket"}},"type":"Feature"},
	{"geometry":{"coordinates":[10.840732,49.860463],"type":"Point"},"properties":{"osm_id":"2422007473","tag":{"amenity":"waste_basket"}},"type":"Feature"},
	{"geometry":{"coordinates":[10.83189,49.853733],"type":"Point"},"properties":{"osm_id":"2422036563","tag":{"amenity":"waste_basket"}},"type":"Feature"},
	{"geometry":{"coordinates":[10.865491,49.857807],"type":"Point"},"properties":{"osm_id":"2512574979","tag":{"amenity":"recycling","recycling:glass_bottles":"yes","recycling_type":"container"}},"type":"Feature"},
	{"geometry":{"coordinates":[10.89615,49.883474],"type":"Point"},"properties":{"osm_id":"2539692445","tag":{"amenity":"waste_basket"}},"type":"Feature"},
	{"geometry":{"coordinates":[10.895956,49.883893],"type":"Point"},"properties":{"osm_id":"2539692466","tag":{"amenity":"waste_basket"}},"type":"Feature"},
	{"geometry":{"coordinates":[10.895967,49.883978],"type":"Point"},"properties":{"osm_id":"2539692474","tag":{"amenity":"waste_basket"}},"type":"Feature"},
	{"geometry":{"coordinates":[10.896449,49.884078],"type":"Point"},"properties":{"osm_id":"2539692485","tag":{"amenity":"waste_basket"}},"type":"Feature"},
	{"geometry":{"coordinates":[10.895999,49.884104],"type":"Point"},"properties":{"osm_id":"2539692487","tag":{"amenity":"waste_basket"}},"type":"Feature"},
	{"geometry":{"coordinates":[10.896141,49.884223],"type":"Point"},"properties":{"osm_id":"2539692509","tag":{"amenity":"waste_basket"}},"type":"Feature"},
	{"geometry":{"coordinates":[10.890845,49.890811],"type":"Point"},"properties":{"osm_id":"2539741661","tag":{"amenity":"waste_basket"}},"type":"Feature"},
	{"geometry":{"coordinates":[10.891888,49.879617],"type":"Point"},"properties":{"osm_id":"2697743913","tag":{"amenity":"waste_basket"}},"type":"Feature"},
	{"geometry":{"coordinates":[10.883608,49.879683],"type":"Point"},"properties":{"osm_id":"2697743922","tag":{"amenity":"waste_basket"}},"type":"Feature"},
	{"geometry":{"coordinates":[10.88348,49.880078],"type":"Point"},"properties":{"osm_id":"2697743930","tag":{"amenity":"waste_basket"}},"type":"Feature"},
	{"geometry":{"coordinates":[10.896452,49.881713],"type":"Point"},"properties":{"osm_id":"2697743980","tag":{"amenity":"waste_basket"}},"type":"Feature"},
	{"geometry":{"coordinates":[10.894904,49.883645],"type":"Point"},"properties":{"osm_id":"2697743989","tag":{"amenity":"waste_basket"}},"type":"Feature"},
	{"geometry":{"coordinates":[10.852224,49.866973],"type":"Point"},"properties":{"osm_id":"2911627128","tag":{"amenity":"waste_basket"}},"type":"Feature"},
	{"geometry":{"coordinates":[10.868219,49.880766],"type":"Point"},"properties":{"osm_id":"2922206832","tag":{"amenity":"waste_basket"}},"type":"Feature"},
	{"geometry":{"coordinates":[10.813473,49.865162],"type":"Point"},"properties":{"osm_id":"2943855571","tag":{"amenity":"waste_basket"}},"type":"Feature"},
	{"geometry":{"coordinates":[10.81577,49.866394],"type":"Point"},"properties":{"osm_id":"2944066406","tag":{"amenity":"waste_basket"}},"type":"Feature"},
	{"geometry":{"coordinates":[10.811818,49.867764],"type":"Point"},"properties":{"osm_id":"2944106704","tag":{"amenity":"waste_basket"}},"type":"Feature"},
	{"geometry":{"coordinates":[10.811961,49.868264],"type":"Point"},"properties":{"osm_id":"2944106720","tag":{"amenity":"waste_basket"}},"type":"Feature"},
	{"geometry":{"coordinates":[10.857078,49.857812],"type":"Point"},"properties":{"osm_id":"2946212620","tag":{"amenity":"recycling","recycling:cans":"yes","recycling:clothes":"yes","recycling:glass_bottles":"yes","recycling_type":"container"}},"type":"Feature"},
	{"geometry":{"coordinates":[10.88222,49.887658],"type":"Point"},"properties":{"osm_id":"2948048078","tag":{"amenity":"waste_basket"}},"type":"Feature"},
	{"geometry":{"coordinates":[10.863811,49.855191],"type":"Point"},"properties":{"osm_id":"3022455561","tag":{"amenity":"waste_basket"}},"type":"Feature"},
	{"geometry":{"coordinates":[10.840626,49.860597],"type":"Point"},"properties":{"osm_id":"3022545732","tag":{"amenity":"waste_basket"}},"type":"Feature"},
	{"geometry":{"coordinates":[10.853765,49.864471],"type":"Point"},"properties":{"osm_id":"3022619082","tag":{"amenity":"waste_basket"}},"type":"Feature"},
	{"geometry":{"coordinates":[10.861584,49.866677],"type":"Point"},"properties":{"osm_id":"3022646493","tag":{"amenity":"waste_basket"}},"type":"Feature"},
	{"geometry":{"coordinates":[10.891617,49.89002],"type":"Point"},"properties":{"osm_id":"3022783940","tag":{"amenity":"waste_basket"}},"type":"Feature"},
	{"geometry":{"coordinates":[10.892669,49.892406],"type":"Point"},"properties":{"osm_id":"3022783945","tag":{"amenity":"waste_basket"}},"type":"Feature"},
	{"geometry":{"coordinates":[10.892843,49.892854],"type":"Point"},"properties":{"osm_id":"3022783948","tag":{"amenity":"waste_basket"}},"type":"Feature"},
	{"geometry":{"coordinates":[10.897776,49.882261],"type":"Point"},"properties":{"osm_id":"3348198380","tag":{"amenity":"waste_basket"}},"type":"Feature"},
	{"geometry":{"coordinates":[10.845099,49.863822],"type":"Point"},"properties":{"osm_id":"3600956900","tag":{"amenity":"waste_basket"}},"type":"Feature"},
	{"geometry":{"coordinates":[10.845771,49.86488],"type":"Point"},"properties":{"osm_id":"3600956904","tag":{"amenity":"waste_basket"}},"type":"Feature"},
	{"geometry":{"coordinates":[10.893367,49.891576],"type":"Point"},"properties":{"osm_id":"3896814957","tag":{"amenity":"waste_basket"}},"type":"Feature"},
	{"geometry":{"coordinates":[10.893366,49.891658],"type":"Point"},"properties":{"osm_id":"3896814966","tag":{"amenity":"waste_basket"}},"type":"Feature"},
	{"geometry":{"coordinates":[10.887185,49.888252],"type":"Point"},"properties":{"osm_id":"4181198876","tag":{"amenity":"waste_basket"}},"type":"Feature"},
	{"geometry":{"coordinates":[10.886242,49.890293],"type":"Point"},"properties":{"osm_id":"4181201896","tag":{"amenity":"waste_basket"}},"type":"Feature"},
	{"geometry":{"coordinates":[10.892282,49.890519],"type":"Point"},"properties":{"osm_id":"4203696195","tag":{"amenity":"waste_basket"}},"type":"Feature"},
	{"geometry":{"coordinates":[10.892378,49.89072],"type":"Point"},"properties":{"osm_id":"4203696196","tag":{"amenity":"waste_basket"}},"type":"Feature"},
	{"geometry":{"coordinates":[10.891552,49.889978],"type":"Point"},"properties":{"osm_id":"4203697419","tag":{"amenity":"recycling","operator":"Malteser, Kolping","recycling:clothes":"yes","recycling_type":"container","wheelchair":"limited"}},"type":"Feature"},
	{"geometry":{"coordinates":[10.888069,49.891297],"type":"Point"},"properties":{"osm_id":"4294729217","tag":{"amenity":"waste_basket"}},"type":"Feature"},
	{"geometry":{"coordinates":[10.868289,49.880571],"type":"Point"},"properties":{"osm_id":"4349793987","tag":{"amenity":"waste_basket"}},"type":"Feature"},
	{"geometry":{"coordinates":[10.87163,49.892388],"type":"Point"},"properties":{"osm_id":"4351502571","tag":{"amenity":"recycling","recycling:glass_bottles":"yes","recycling_type":"container"}},"type":"Feature"},
	{"geometry":{"coordinates":[10.87167,49.892408],"type":"Point"},"properties":{"osm_id":"4351502572","tag":{"amenity":"waste_basket"}},"type":"Feature"},
	{"geometry":{"coordinates":[10.898051,49.879759],"type":"Point"},"properties":{"osm_id":"4351570502","tag":{"amenity":"waste_basket"}},"type":"Feature"},
	{"geometry":{"coordinates":[10.883183,49.893459],"type":"Point"},"properties":{"osm_id":"4481969638","tag":{"amenity":"waste_basket"}},"type":"Feature"},
	{"geometry":{"coordinates":[10.878205,49.891765],"type":"Point"},"properties":{"osm_id":"4506804253","tag":{"amenity":"waste_basket"}},"type":"Feature"},
	{"geometry":{"coordinates":[10.871897,49.892335],"type":"Point"},"properties":{"osm_id":"4518441763","tag":{"amenity":"waste_basket"}},"type":"Feature"},
	{"geometry":{"coordinates":[10.886003,49.893718],"type":"Point"},"properties":{"osm_id":"4553313839","tag":{"amenity":"waste_basket"}},"type":"Feature"},
	{"geometry":{"coordinates":[10.885806,49.893989],"type":"Point"},"properties":{"osm_id":"4553313846","tag":{"amenity":"waste_basket"}},"type":"Feature"},
	{"geometry":{"coordinates":[10.890271,49.8893],"type":"Point"},"properties":{"osm_id":"4556513901","tag":{"amenity":"waste_basket"}},"type":"Feature"},
	{"geometry":{"coordinates":[10.892621,49.892245],"type":"Point"},"properties":{"osm_id":"4562951490","tag":{"amenity":"waste_basket"}},"type":"Feature"},
	{"geometry":{"coordinates":[10.882902,49.892874],"type":"Point"},"properties":{"osm_id":"4581362848","tag":{"amenity":"waste_basket"}},"type":"Feature"},
	{"geometry":{"coordinates":[10.856849,49.881579],"type":"Point"},"properties":{"osm_id":"4594335724","tag":{"amenity":"waste_basket"}},"type":"Feature"},
	{"geometry":{"coordinates":[10.874177,49.884098],"type":"Point"},"properties":{"osm_id":"4594343813","tag":{"amenity":"waste_basket"}},"type":"Feature"},
	{"geometry":{"coordinates":[10.875862,49.88497],"type":"Point"},"properties":{"osm_id":"4594358020","tag":{"amenity":"waste_basket"}},"type":"Feature"},
	{"geometry":{"coordinates":[10.882995,49.891064],"type":"Point"},"properties":{"osm_id":"4594363642","tag":{"amenity":"waste_basket"}},"type":"Feature"},
	{"geometry":{"coordinates":[10.883234,49.890907],"type":"Point"},"properties":{"osm_id":"4594363643","tag":{"amenity":"waste_basket"}},"type":"Feature"},
	{"geometry":{"coordinates":[10.889755,49.871819],"type":"Point"},"properties":{"osm_id":"4609648777","tag":{"amenity":"waste_basket"}},"type":"Feature"},
	{"geometry":{"coordinates":[10.880696,49.888655],"type":"Point"},"properties":{"osm_id":"4609776539","tag":{"amenity":"waste_basket"}},"type":"Feature"},
	{"geometry":{"coordinates":[10.877506,49.894323],"type":"Point"},"properties":{"osm_id":"4681599288","tag":{"amenity":"waste_basket"}},"type":"Feature"},
	{"geometry":{"coordinates":[10.865397,49.876416],"type":"Point"},"properties":{"osm_id":"4681647517","tag":{"amenity":"waste_basket"}},"type":"Feature"},
	{"geometry":{"coordinates":[10.858079,49.880207],"type":"Point"},"properties":{"osm_id":"4681647523","tag":{"amenity":"waste_basket"}},"type":"Feature"},
	{"geometry":{"coordinates":[10.886628,49.888813],"type":"Point"},"properties":{"osm_id":"4681676067","tag":{"amenity":"waste_basket"}},"type":"Feature"},
	{"geometry":{"coordinates":[10.886485,49.888755],"type":"Point"},"properties":{"osm_id":"4681676068","tag":{"amenity":"waste_basket"}},"type":"Feature"},
	{"geometry":{"coordinates":[10.886352,49.88334],"type":"Point"},"properties":{"osm_id":"4681676069","tag":{"amenity":"waste_basket"}},"type":"Feature"},
	{"geometry":{"coordinates":[10.889811,49.89462],"type":"Point"},"properties":{"osm_id":"4887922821","tag":{"amenity":"waste_basket"}},"type":"Feature"},
	{"geometry":{"coordinates":[10.878562,49.894278],"type":"Point"},"properties":{"osm_id":"5126639140","tag":{"amenity":"waste_basket"}},"type":"Feature"},
	{"geometry":{"coordinates":[10.891649,49.886925],"type":"Point"},"properties":{"osm_id":"5201906045","tag":{"amenity":"recycling","recycling:clothes":"yes","recycling_type":"container"}},"type":"Feature"},
	{"geometry":{"coordinates":[10.878089,49.887332],"type":"Point"},"properties":{"osm_id":"5261677725","tag":{"amenity":"waste_basket"}},"type":"Feature"},
	{"geometry":{"coordinates":[10.891418,49.893393],"type":"Point"},"properties":{"osm_id":"5269863819","tag":{"amenity":"waste_basket"}},"type":"Feature"},
	{"geometry":{"coordinates":[10.891493,49.893556],"type":"Point"},"properties":{"osm_id":"5269863820","tag":{"amenity":"waste_basket"}},"type":"Feature"},
	{"geometry":{"coordinates":[10.891547,49.893695],"type":"Point"},"properties":{"osm_id":"5269864621","tag":{"amenity":"waste_basket"}},"type":"Feature"},
	{"geometry":{"coordinates":[10.891558,49.893713],"type":"Point"},"properties":{"osm_id":"5269864622","tag":{"amenity":"waste_basket"}},"type":"Feature"},
	{"geometry":{"coordinates":[10.89161,49.893855],"type":"Point"},"properties":{"osm_id":"5269864623","tag":{"amenity":"waste_basket"}},"type":"Feature"},
	{"geometry":{"coordinates":[10.891619,49.893876],"type":"Point"},"properties":{"osm_id":"5269864624","tag":{"amenity":"waste_basket"}},"type":"Feature"},
	{"geometry":{"coordinates":[10.891647,49.893988],"type":"Point"},"properties":{"osm_id":"5269864625","tag":{"amenity":"waste_basket"}},"type":"Feature"},
	{"geometry":{"coordinates":[10.891658,49.894016],"type":"Point"},"properties":{"osm_id":"5269864626","tag":{"amenity":"waste_basket"}},"type":"Feature"},
	{"geometry":{"coordinates":[10.886533,49.893446],"type":"Point"},"properties":{"osm_id":"5470556521","tag":{"amenity":"waste_basket"}},"type":"Feature"},
	{"geometry":{"coordinates":[10.884699,49.893974],"type":"Point"},"properties":{"osm_id":"5778944950","tag":{"amenity":"waste_disposal"}},"type":"Feature"},
	{"geometry":{"coordinates":[10.88467,49.893966],"type":"Point"},"properties":{"osm_id":"5778944951","tag":{"amenity":"waste_disposal"}},"type":"Feature"},
	{"geometry":{"coordinates":[10.884639,49.893959],"type":"Point"},"properties":{"osm_id":"5778944952","tag":{"amenity":"waste_disposal"}},"type":"Feature"},
	{"geometry":{"coordinates":[10.884613,49.893954],"type":"Point"},"properties":{"osm_id":"5778968135","tag":{"amenity":"waste_disposal"}},"type":"Feature"},
	{"geometry":{"coordinates":[10.884587,49.893947],"type":"Point"},"properties":{"osm_id":"5778968136","tag":{"amenity":"waste_disposal"}},"type":"Feature"},
	{"geometry":{"coordinates":[10.884509,49.894407],"type":"Point"},"properties":{"osm_id":"5778972463","tag":{"amenity":"waste_basket"}},"type":"Feature"},
	{"geometry":{"coordinates":[10.884564,49.893854],"type":"Point"},"properties":{"osm_id":"5778975142","tag":{"amenity":"waste_basket"}},"type":"Feature"},
	{"geometry":{"coordinates":[10.871442,49.890926],"type":"Point"},"properties":{"osm_id":"6316044690","tag":{"amenity":"waste_basket"}},"type":"Feature"},
	{"geometry":{"coordinates":[10.891781,49.894241],"type":"Point"},"properties":{"osm_id":"6483405620","tag":{"amenity":"recycling","recycling:bottles":"yes","recycling_type":"container"}},"type":"Feature"},
	{"geometry":{"coordinates":[10.893278,49.894066],"type":"Point"},"properties":{"osm_id":"6483405629","tag":{"amenity":"waste_basket"}},"type":"Feature"},
	{"geometry":{"coordinates":[10.877217,49.892229],"type":"Point"},"properties":{"osm_id":"6544448363","tag":{"amenity":"waste_basket"}},"type":"Feature"},
	{"geometry":{"coordinates":[10.892735,49.893059],"type":"Point"},"properties":{"osm_id":"6699983610","tag":{"amenity":"waste_basket"}},"type":"Feature"},
	{"geometry":{"coordinates":[10.892349,49.893117],"type":"Point"},"properties":{"osm_id":"6699983611","tag":{"amenity":"waste_basket"}},"type":"Feature"},
	{"geometry":{"coordinates":[10.897951,49.879959],"type":"Point"},"properties":{"osm_id":"6990377403","tag":{"amenity":"waste_basket"}},"type":"Feature"},
	{"geometry":{"coordinates":[10.893823,49.885305],"type":"Point"},"properties":{"osm_id":"6990397748","tag":{"amenity":"waste_basket"}},"type":"Feature"},
	{"geometry":{"coordinates":[10.884568,49.89084],"type":"Point"},"properties":{"osm_id":"7077873200","tag":{"amenity":"waste_basket"}},"type":"Feature"},
	{"geometry":{"coordinates":[10.881052,49.89105],"type":"Point"},"properties":{"osm_id":"7077873203","tag":{"amenity":"waste_basket"}},"type":"Feature"},
	{"geometry":{"coordinates":[10.897153,49.892359],"type":"Point"},"properties":{"osm_id":"7096081939","tag":{"amenity":"waste_basket"}},"type":"Feature"},
	{"geometry":{"coordinates":[10.891557,49.890015],"type":"Point"},"properties":{"osm_id":"7100350339","ref":"1547","tag":{"amenity":"recycling","opening_hours":"Mo-Fr 07:00-20:00; PH,Su off","operator":"Knettenbrech Gurdulic","recycling:glass_bottles":"yes","recycling:glass_bottles:colour":"white","recycling_type":"container","wheelchair":"yes"}},"type":"Feature"},
	{"geometry":{"coordinates":[10.891568,49.889999],"type":"Point"},"properties":{"osm_id":"7100350340","ref":"1609","tag":{"amenity":"recycling","opening_hours":"Mo-Fr 07:00-20:00; PH,Su off","operator":"Knettenbrech Gurdulic","recycling:glass_bottles":"yes","recycling:glass_bottles:colour":"green","recycling_type":"container","wheelchair":"limited"}},"type":"Feature"},
	{"geometry":{"coordinates":[10.89158,49.889987],"type":"Point"},"properties":{"osm_id":"7100350341","ref":"1690","tag":{"amenity":"recycling","opening_hours":"Mo-Fr 07:00-20:00; PH,Su off","operator":"Knettenbrech Gurdulic","recycling:glass_bottles":"yes","recycling:glass_bottles:colour":"brown","recycling_type":"container","wheelchair":"limited"}},"type":"Feature"},
	{"geometry":{"coordinates":[10.881752,49.889322],"type":"Point"},"properties":{"osm_id":"7100350374","tag":{"amenity":"waste_basket","waste":"trash"}},"type":"Feature"},
	{"geometry":{"coordinates":[10.881476,49.889106],"type":"Point"},"properties":{"osm_id":"7100350377","tag":{"amenity":"waste_basket","waste":"trash"}},"type":"Feature"},
	{"geometry":{"coordinates":[10.893053,49.878151],"type":"Point"},"properties":{"osm_id":"7153510551","tag":{"amenity":"waste_basket"}},"type":"Feature"},
	{"geometry":{"coordinates":[10.878666,49.888168],"type":"Point"},"properties":{"osm_id":"7158509818","tag":{"amenity":"waste_basket"}},"type":"Feature"},
	{"geometry":{"coordinates":[10.891555,49.874867],"type":"Point"},"properties":{"osm_id":"7160375664","tag":{"amenity":"waste_basket"}},"type":"Feature"},
	{"geometry":{"coordinates":[10.886328,49.890018],"type":"Point"},"properties":{"osm_id":"7175505433","tag":{"amenity":"waste_basket"}},"type":"Feature"},
	{"geometry":{"coordinates":[10.884462,49.888941],"type":"Point"},"properties":{"osm_id":"7175505455","tag":{"amenity":"waste_basket"}},"type":"Feature"},
	{"geometry":{"coordinates":[10.879168,49.882747],"type":"Point"},"properties":{"osm_id":"7187746792","tag":{"amenity":"waste_basket"}},"type":"Feature"},
	{"geometry":{"coordinates":[10.892565,49.891329],"type":"Point"},"properties":{"osm_id":"7207970917","tag":{"amenity":"waste_basket"}},"type":"Feature"},
	{"geometry":{"coordinates":[10.86538,49.883095],"type":"Point"},"properties":{"osm_id":"7230766096","tag":{"amenity":"waste_basket"}},"type":"Feature"},
	{"geometry":{"coordinates":[10.862954,49.885727],"type":"Point"},"properties":{"osm_id":"7230766097","tag":{"amenity":"waste_basket"}},"type":"Feature"},
	{"geometry":{"coordinates":[10.870446,49.882258],"type":"Point"},"properties":{"osm_id":"7230808454","tag":{"amenity":"waste_basket"}},"type":"Feature"},
	{"geometry":{"coordinates":[10.880918,49.894453],"type":"Point"},"properties":{"osm_id":"7511769265","tag":{"amenity":"waste_basket"}},"type":"Feature"},
	{"geometry":{"coordinates":[10.880302,49.89432],"type":"Point"},"properties":{"osm_id":"7511769266","tag":{"amenity":"waste_basket"}},"type":"Feature"},
	{"geometry":{"coordinates":[10.85667,49.857857],"type":"Point"},"properties":{"osm_id":"7636382206","tag":{"amenity":"waste_basket","waste":"trash"}},"type":"Feature"},
	{"geometry":{"coordinates":[10.853718,49.866324],"type":"Point"},"properties":{"osm_id":"7706952168","tag":{"amenity":"waste_basket","waste":"trash"}},"type":"Feature"},
	{"geometry":{"coordinates":[10.877888,49.851781],"type":"Point"},"properties":{"osm_id":"7706952171","tag":{"amenity":"waste_basket","backrest":"yes","colour":"brown","material":"wood","seats":"3","waste":"trash"}},"type":"Feature"},
	{"geometry":{"coordinates":[10.8634,49.853721],"type":"Point"},"properties":{"osm_id":"7706952175","tag":{"amenity":"waste_basket","waste":"trash"}},"type":"Feature"},
	{"geometry":{"coordinates":[10.8536,49.866477],"type":"Point"},"properties":{"osm_id":"7706952177","tag":{"amenity":"waste_basket","waste":"trash"}},"type":"Feature"},
	{"geometry":{"coordinates":[10.88452,49.876388],"type":"Point"},"properties":{"osm_id":"7777514631","tag":{"amenity":"waste_basket"}},"type":"Feature"},
	{"geometry":{"coordinates":[10.877757,49.890548],"type":"Point"},"properties":{"osm_id":"7880568599","tag":{"amenity":"waste_basket"}},"type":"Feature"},
	{"geometry":{"coordinates":[10.881744,49.888656],"type":"Point"},"properties":{"osm_id":"7880619236","tag":{"amenity":"waste_basket"}},"type":"Feature"},
	{"geometry":{"coordinates":[10.883453,49.889042],"type":"Point"},"properties":{"osm_id":"7880625856","tag":{"amenity":"waste_basket"}},"type":"Feature"},
	{"geometry":{"coordinates":[10.89225,49.892582],"type":"Point"},"properties":{"osm_id":"7880645114","tag":{"amenity":"waste_basket"}},"type":"Feature"},
	{"geometry":{"coordinates":[10.8909,49.890539],"type":"Point"},"properties":{"osm_id":"7880645121","tag":{"amenity":"waste_basket"}},"type":"Feature"}
]
}
