{
"type": "FeatureCollection",
"features": [
	{"geometry":{"coordinates":[10.861811,49.707528],"type":"Point"},"properties":{"name":"Wertstoffhof Medbach","osm_id":"25916382","tag":{"amenity":"recycling","opening_hours":"Mo-Fr 08:00-12:00,13:00-17:00; Sa 08:00-14:00","phone":"+49 9193 7954"}},"type":"Feature"},
	{"geometry":{"coordinates":[10.862804,49.71118],"type":"Point"},"properties":{"name":"Kompostanlage Medbach","osm_id":"25916385","tag":{"amenity":"recycling"}},"type":"Feature"},
	{"geometry":{"coordinates":[10.879875,49.684979],"type":"Point"},"properties":{"osm_id":"26371241","tag":{"amenity":"recycling","recycling_type":"container"}},"type":"Feature"},
	{"geometry":{"coordinates":[10.814305,49.704652],"type":"Point"},"properties":{"osm_id":"302322877","tag":{"amenity":"recycling","recycling:cans":"yes","recycling:clothes":"yes","recycling:glass_bottles":"yes","recycling_type":"container"}},"type":"Feature"},
	{"geometry":{"coordinates":[10.811326,49.707824],"type":"Point"},"properties":{"osm_id":"302322878","tag":{"amenity":"recycling","recycling:clothes":"yes","recycling:glass_bottles":"yes","recycling_type":"container"}},"type":"Feature"},
	{"geometry":{"coordinates":[10.819407,49.715103],"type":"Point"},"properties":{"osm_id":"302322891","tag":{"amenity":"recycling","recycling:clothes":"yes","recycling:glass_bottles":"yes","recycling_type":"container"}},"type":"Feature"},
	{"geometry":{"coordinates":[10.811338,49.702842],"type":"Point"},"properties":{"osm_id":"302322893","tag":{"amenity":"recycling","recycling:clothes":"yes","recycling:glass_bottles":"yes","recycling_type":"container"}},"type":"Feature"},
	{"geometry":{"coordinates":[10.822233,49.709516],"type":"Point"},"properties":{"osm_id":"302322894","tag":{"amenity":"recycling","recycling:clothes":"yes","recycling:glass_bottles":"yes","recycling_type":"container"}},"type":"Feature"},
	{"geometry":{"coordinates":[10.819326,49.703488],"type":"Point"},"properties":{"osm_id":"303815410","tag":{"amenity":"recycling","recycling:clothes":"yes","recycling:glass_bottles":"yes","recycling_type":"container"}},"type":"Feature"},
	{"geometry":{"coordinates":[10.824119,49.707375],"type":"Point"},"properties":{"osm_id":"303822256","tag":{"amenity":"recycling","recycling:clothes":"yes","recycling:glass":"yes","recycling_type":"container"}},"type":"Feature"},
	{"geometry":{"coordinates":[10.831651,49.707793],"type":"Point"},"properties":{"osm_id":"303822258","tag":{"amenity":"recycling","recycling:glass":"yes","recycling_type":"container"}},"type":"Feature"},
	{"geometry":{"coordinates":[10.835279,49.698507],"type":"Point"},"properties":{"osm_id":"326126080","tag":{"amenity":"recycling","recycling:cans":"yes","recycling:clothes":"yes","recycling:glass":"yes"}},"type":"Feature"},
	{"geometry":{"coordinates":[10.830263,49.69401],"type":"Point"},"properties":{"osm_id":"326126292","tag":{"amenity":"recycling","recycling:cans":"yes","recycling:clothes":"yes","recycling:glass":"yes"}},"type":"Feature"},
	{"geometry":{"coordinates":[10.841627,49.696564],"type":"Point"},"properties":{"osm_id":"1757655512","tag":{"amenity":"waste_basket"}},"type":"Feature"},
	{"geometry":{"coordinates":[10.844136,49.697064],"type":"Point"},"properties":{"osm_id":"1757655519","tag":{"amenity":"waste_basket"}},"type":"Feature"},
	{"geometry":{"coordinates":[10.846234,49.697395],"type":"Point"},"properties":{"osm_id":"1757655521","tag":{"amenity":"waste_basket"}},"type":"Feature"},
	{"geometry":{"coordinates":[10.848425,49.697985],"type":"Point"},"properties":{"osm_id":"1757655528","tag":{"amenity":"waste_basket"}},"type":"Feature"},
	{"geometry":{"coordinates":[10.815045,49.71533],"type":"Point"},"properties":{"osm_id":"2319742618","tag":{"amenity":"recycling","recycling:clothes":"yes","recycling_type":"container"}},"type":"Feature"},
	{"geometry":{"coordinates":[10.855214,49.679893],"type":"Point"},"properties":{"osm_id":"4202650296","tag":{"amenity":"recycling","check_date":"2016-05-11","recycling:cans":"yes","recycling:clothes":"yes","recycling:glass_bottles":"yes","recycling:shoes":"yes","recycling_type":"container"}},"type":"Feature"},
	{"geometry":{"coordinates":[10.883372,49.7216],"type":"Point"},"properties":{"osm_id":"7631890731","tag":{"amenity":"recycling","recycling_type":"container"}},"type":"Feature"},
	{"geometry":{"coordinates":[10.886472,49.724473],"type":"Point"},"properties":{"osm_id":"7631890732","tag":{"amenity":"recycling","recycling_type":"container"}},"type":"Feature"}
]
}
