{
"type": "FeatureCollection",
"features": [
	{"geometry":{"coordinates":[10.822114,49.52698],"type":"Point"},"properties":{"osm_id":"1141282617","tag":{"amenity":"recycling","recycling:cans":"yes","recycling:glass":"no","recycling:glass_bottles":"yes","recycling_type":"container"}},"type":"Feature"},
	{"geometry":{"coordinates":[10.887686,49.506858],"type":"Point"},"properties":{"osm_id":"1585689455","tag":{"amenity":"recycling","recycling:clothes":"yes","recycling:glass":"yes","recycling:glass_bottles":"yes","recycling_type":"container"}},"type":"Feature"},
	{"geometry":{"coordinates":[10.840444,49.523448],"type":"Point"},"properties":{"osm_id":"1666857425","tag":{"amenity":"recycling","recycling_type":"container"}},"type":"Feature"},
	{"geometry":{"coordinates":[10.871796,49.513833],"type":"Point"},"properties":{"osm_id":"2108663631","tag":{"amenity":"recycling","recycling:clothes":"yes","recycling:glass":"yes","recycling:glass_bottles":"yes","recycling_type":"container"}},"type":"Feature"},
	{"geometry":{"coordinates":[10.879634,49.551083],"type":"Point"},"properties":{"osm_id":"2208487584","tag":{"amenity":"recycling","recycling_type":"container"}},"type":"Feature"},
	{"geometry":{"coordinates":[10.893139,49.504853],"type":"Point"},"properties":{"osm_id":"2923439324","tag":{"amenity":"recycling","recycling:glass":"yes","recycling_type":"container"}},"type":"Feature"},
	{"geometry":{"coordinates":[10.871517,49.504239],"type":"Point"},"properties":{"name":"Gr\u00c3\u00bcngutsammelstelle Veitsbronn-Siegelsdorf","osm_id":"3422245915","tag":{"addr:housenumber":"11","addr:street":"Reitweg","alt_name":"Kompostieranlage","amenity":"recycling","description":"Abgabe von Bio- Gartenabf\u00c3\u00a4llen, Kompostierung","recycling:green_waste":"yes","recycling_type":"centre"}},"type":"Feature"},
	{"geometry":{"coordinates":[10.898376,49.534938],"type":"Point"},"properties":{"osm_id":"3476216662","tag":{"amenity":"waste_basket"}},"type":"Feature"},
	{"geometry":{"coordinates":[10.8756,49.50621],"type":"Point"},"properties":{"osm_id":"3915050597","tag":{"amenity":"waste_basket"}},"type":"Feature"},
	{"geometry":{"coordinates":[10.87587,49.506193],"type":"Point"},"properties":{"osm_id":"3915050598","tag":{"amenity":"waste_basket"}},"type":"Feature"},
	{"geometry":{"coordinates":[10.875211,49.506004],"type":"Point"},"properties":{"osm_id":"3915050757","tag":{"amenity":"recycling","recycling:clothes":"yes","recycling_type":"container"}},"type":"Feature"},
	{"geometry":{"coordinates":[10.879222,49.513917],"type":"Point"},"properties":{"osm_id":"5695503277","tag":{"amenity":"waste_basket"}},"type":"Feature"},
	{"geometry":{"coordinates":[10.879397,49.513876],"type":"Point"},"properties":{"osm_id":"5695503278","tag":{"amenity":"waste_basket"}},"type":"Feature"},
	{"geometry":{"coordinates":[10.879431,49.513584],"type":"Point"},"properties":{"osm_id":"5695503279","tag":{"amenity":"waste_basket"}},"type":"Feature"},
	{"geometry":{"coordinates":[10.879689,49.513734],"type":"Point"},"properties":{"osm_id":"5695503280","tag":{"amenity":"waste_basket"}},"type":"Feature"},
	{"geometry":{"coordinates":[10.878803,49.513932],"type":"Point"},"properties":{"osm_id":"5695503297","tag":{"amenity":"waste_basket"}},"type":"Feature"},
	{"geometry":{"coordinates":[10.879882,49.513686],"type":"Point"},"properties":{"osm_id":"5695510121","tag":{"amenity":"waste_basket"}},"type":"Feature"},
	{"geometry":{"coordinates":[10.880038,49.513395],"type":"Point"},"properties":{"osm_id":"5695510123","tag":{"amenity":"waste_basket"}},"type":"Feature"},
	{"geometry":{"coordinates":[10.88051,49.513371],"type":"Point"},"properties":{"osm_id":"5695510124","tag":{"amenity":"waste_basket"}},"type":"Feature"},
	{"geometry":{"coordinates":[10.891037,49.501624],"type":"Point"},"properties":{"osm_id":"5849060030","tag":{"amenity":"waste_basket","fee":"no","vending":"excrement_bags"}},"type":"Feature"},
	{"geometry":{"coordinates":[10.890579,49.529409],"type":"Point"},"properties":{"osm_id":"5973282854","tag":{"amenity":"waste_basket"}},"type":"Feature"},
	{"geometry":{"coordinates":[10.894823,49.502757],"type":"Point"},"properties":{"osm_id":"6268075062","tag":{"amenity":"waste_basket"}},"type":"Feature"},
	{"geometry":{"coordinates":[10.894857,49.502977],"type":"Point"},"properties":{"osm_id":"6268075063","tag":{"amenity":"waste_basket"}},"type":"Feature"}
]
}
