{
"type": "FeatureCollection",
"features": [
	{"geometry":{"coordinates":[10.883358,48.427721],"type":"Point"},"properties":{"osm_id":"492705601","tag":{"amenity":"recycling","recycling:cans":"yes","recycling:clothes":"yes","recycling:glass":"yes","recycling:paper":"yes","recycling_type":"container"}},"type":"Feature"},
	{"geometry":{"coordinates":[10.884329,48.403251],"type":"Point"},"properties":{"osm_id":"648813605","tag":{"amenity":"recycling","mapillary":"aGBP269QKpcOvklz2xsjgw","recycling:glass":"yes","recycling_type":"container","survey:date":"2019-06-19"}},"type":"Feature"},
	{"geometry":{"coordinates":[10.817204,48.404069],"type":"Point"},"properties":{"osm_id":"670343919","tag":{"amenity":"recycling","recycling:clothes":"yes","recycling:glass":"yes","recycling:shoes":"yes"}},"type":"Feature"},
	{"geometry":{"coordinates":[10.882363,48.40826],"type":"Point"},"properties":{"osm_id":"675032259","tag":{"amenity":"recycling","recycling:cans":"yes","recycling:glass":"yes","recycling_type":"container"}},"type":"Feature"},
	{"geometry":{"coordinates":[10.892361,48.411384],"type":"Point"},"properties":{"osm_id":"675032266","tag":{"amenity":"recycling","recycling:glass":"yes","recycling_type":"container"}},"type":"Feature"},
	{"geometry":{"coordinates":[10.837224,48.407206],"type":"Point"},"properties":{"name":"Thaler Recycling","osm_id":"846976850","tag":{"amenity":"recycling","recycling_type":"centre"}},"type":"Feature"},
	{"geometry":{"coordinates":[10.876075,48.41631],"type":"Point"},"properties":{"osm_id":"914370986","tag":{"amenity":"recycling","operator":"Fa. Ibeko","recycling:shoes":"yes","recycling_type":"container"}},"type":"Feature"},
	{"geometry":{"coordinates":[10.876065,48.41626],"type":"Point"},"properties":{"osm_id":"914371013","tag":{"amenity":"recycling","operator":"REMONDIS","recycling:glass":"yes","recycling_type":"container"}},"type":"Feature"},
	{"geometry":{"coordinates":[10.876042,48.4162],"type":"Point"},"properties":{"osm_id":"914371073","tag":{"amenity":"recycling","operator":"Fa. Veolia","recycling:paper":"yes","recycling_type":"container"}},"type":"Feature"},
	{"geometry":{"coordinates":[10.876039,48.416294],"type":"Point"},"properties":{"osm_id":"914371196","tag":{"amenity":"recycling","operator":"Fa. Seidenberger","recycling:cans":"yes","recycling_type":"container"}},"type":"Feature"},
	{"geometry":{"coordinates":[10.891534,48.407984],"type":"Point"},"properties":{"osm_id":"1141161000","tag":{"amenity":"recycling","operator":"REMONDIS","recycling:glass":"yes","recycling_type":"container"}},"type":"Feature"},
	{"geometry":{"coordinates":[10.898042,48.420008],"type":"Point"},"properties":{"name":"Wertstoffsammelstelle Depot Nord","osm_id":"1634969352","tag":{"addr:city":"Augsburg","addr:country":"DE","addr:housenumber":"11","addr:postcode":"86169","addr:street":"Oberer Auweg","amenity":"recycling","opening_hours":"Mo-Fr 08:00-12:00,13:00-16:00; Sa 09:00-12:00","recycling_type":"centre"}},"type":"Feature"},
	{"geometry":{"coordinates":[10.898048,48.404098],"type":"Point"},"properties":{"osm_id":"1823778087","tag":{"amenity":"recycling","opening_hours":"Mo-Sa 07:00-12:00,14:00-20:00; PH off","operator":"Stadt Augsburg (AWS)","recycling:small_appliances":"yes","recycling_type":"container"}},"type":"Feature"},
	{"geometry":{"coordinates":[10.898056,48.404119],"type":"Point"},"properties":{"osm_id":"1823778091","tag":{"amenity":"recycling","operator":"Aktion Hoffnung","recycling:clothes":"yes","recycling:shoes":"yes","recycling_type":"container"}},"type":"Feature"},
	{"geometry":{"coordinates":[10.898062,48.404137],"type":"Point"},"properties":{"osm_id":"1823778096","tag":{"amenity":"recycling","operator":"REMONDIS","recycling:glass":"yes","recycling_type":"container"}},"type":"Feature"},
	{"geometry":{"coordinates":[10.891482,48.407973],"type":"Point"},"properties":{"osm_id":"1823778119","tag":{"amenity":"recycling","operator":"Aktion Hoffnung","recycling:clothes":"yes","recycling:shoes":"yes","recycling_type":"container"}},"type":"Feature"},
	{"geometry":{"coordinates":[10.891443,48.407977],"type":"Point"},"properties":{"osm_id":"1823778124","tag":{"amenity":"recycling","opening_hours":"Mo-Sa 07:00-12:00,14:00-20:00; PH off","operator":"Stadt Augsburg (AWS)","recycling:small_appliances":"yes","recycling_type":"container"}},"type":"Feature"},
	{"geometry":{"coordinates":[10.873547,48.434851],"type":"Point"},"properties":{"osm_id":"2068066158","tag":{"amenity":"recycling","recycling:cans":"yes","recycling:clothes":"yes","recycling:glass":"yes","recycling:shoes":"yes","recycling_type":"container"}},"type":"Feature"},
	{"geometry":{"coordinates":[10.815592,48.429923],"type":"Point"},"properties":{"osm_id":"2070662535","tag":{"amenity":"recycling","recycling:cans":"yes","recycling:clothes":"yes","recycling:glass":"yes","recycling:shoes":"yes","recycling_type":"container"}},"type":"Feature"},
	{"geometry":{"coordinates":[10.878392,48.401626],"type":"Point"},"properties":{"osm_id":"2510794995","tag":{"amenity":"waste_basket"}},"type":"Feature"},
	{"geometry":{"coordinates":[10.878993,48.401653],"type":"Point"},"properties":{"osm_id":"2510794996","tag":{"amenity":"recycling","recycling:small_appliances":"yes","recycling_type":"container"}},"type":"Feature"},
	{"geometry":{"coordinates":[10.884666,48.401632],"type":"Point"},"properties":{"osm_id":"2617219974","tag":{"amenity":"recycling","opening_hours":"Mo-Sa 07:00-12:00,14:00-20:00; PH off","operator":"Stadt Augsburg (AWS)","recycling:small_appliances":"yes","recycling_type":"container"}},"type":"Feature"},
	{"geometry":{"coordinates":[10.880111,48.433356],"type":"Point"},"properties":{"osm_id":"2711657607","tag":{"amenity":"waste_basket"}},"type":"Feature"},
	{"geometry":{"coordinates":[10.86626,48.422235],"type":"Point"},"properties":{"osm_id":"2863137324","tag":{"amenity":"recycling","recycling:cans":"yes","recycling:glass":"yes","recycling_type":"container"}},"type":"Feature"},
	{"geometry":{"coordinates":[10.884058,48.433017],"type":"Point"},"properties":{"osm_id":"3887646704","tag":{"amenity":"recycling","recycling:clothes":"yes","recycling:shoes":"yes","recycling_type":"container"}},"type":"Feature"},
	{"geometry":{"coordinates":[10.884051,48.433029],"type":"Point"},"properties":{"osm_id":"3887646705","tag":{"amenity":"recycling","recycling:cans":"yes","recycling_type":"container"}},"type":"Feature"},
	{"geometry":{"coordinates":[10.884054,48.433056],"type":"Point"},"properties":{"osm_id":"3887646709","tag":{"amenity":"recycling","operator":"Fa. Remondis","recycling:glass":"yes","recycling_type":"container"}},"type":"Feature"},
	{"geometry":{"coordinates":[10.87826,48.446403],"type":"Point"},"properties":{"osm_id":"4348042557","tag":{"amenity":"waste_basket"}},"type":"Feature"},
	{"geometry":{"coordinates":[10.876972,48.401667],"type":"Point"},"properties":{"osm_id":"4691793104","tag":{"amenity":"waste_basket"}},"type":"Feature"},
	{"geometry":{"coordinates":[10.876625,48.401714],"type":"Point"},"properties":{"osm_id":"4691793128","tag":{"amenity":"waste_basket"}},"type":"Feature"},
	{"geometry":{"coordinates":[10.875251,48.424267],"type":"Point"},"properties":{"osm_id":"5333579942","tag":{"amenity":"recycling","recycling:cans":"no","recycling:clothes":"yes","recycling:glass":"yes","recycling:glass_bottles":"yes","recycling:paper":"yes","recycling:plastic":"no","recycling_type":"container"}},"type":"Feature"},
	{"geometry":{"coordinates":[10.854675,48.409225],"type":"Point"},"properties":{"osm_id":"5367837323","tag":{"amenity":"waste_basket"}},"type":"Feature"},
	{"geometry":{"coordinates":[10.853609,48.408485],"type":"Point"},"properties":{"osm_id":"5367837326","tag":{"amenity":"waste_basket"}},"type":"Feature"},
	{"geometry":{"coordinates":[10.85015,48.413333],"type":"Point"},"properties":{"osm_id":"5367837328","tag":{"amenity":"waste_basket"}},"type":"Feature"},
	{"geometry":{"coordinates":[10.852827,48.409921],"type":"Point"},"properties":{"osm_id":"5367837333","tag":{"amenity":"waste_basket"}},"type":"Feature"},
	{"geometry":{"coordinates":[10.859041,48.413606],"type":"Point"},"properties":{"osm_id":"5405246818","tag":{"amenity":"waste_basket"}},"type":"Feature"},
	{"geometry":{"coordinates":[10.854391,48.413129],"type":"Point"},"properties":{"osm_id":"5405246819","tag":{"amenity":"waste_basket"}},"type":"Feature"},
	{"geometry":{"coordinates":[10.856257,48.410091],"type":"Point"},"properties":{"osm_id":"5420295431","tag":{"amenity":"waste_basket"}},"type":"Feature"},
	{"geometry":{"coordinates":[10.855659,48.410347],"type":"Point"},"properties":{"osm_id":"5420295437","tag":{"amenity":"waste_basket"}},"type":"Feature"},
	{"geometry":{"coordinates":[10.854873,48.412101],"type":"Point"},"properties":{"osm_id":"5420295439","tag":{"amenity":"waste_basket"}},"type":"Feature"},
	{"geometry":{"coordinates":[10.855108,48.410519],"type":"Point"},"properties":{"osm_id":"5420295446","tag":{"amenity":"waste_basket"}},"type":"Feature"},
	{"geometry":{"coordinates":[10.891972,48.42369],"type":"Point"},"properties":{"osm_id":"5422959004","tag":{"amenity":"waste_basket"}},"type":"Feature"},
	{"geometry":{"coordinates":[10.875288,48.424584],"type":"Point"},"properties":{"osm_id":"5792843217","tag":{"amenity":"waste_basket"}},"type":"Feature"},
	{"geometry":{"coordinates":[10.876986,48.424214],"type":"Point"},"properties":{"osm_id":"5854447579","tag":{"amenity":"waste_basket"}},"type":"Feature"},
	{"geometry":{"coordinates":[10.865805,48.425628],"type":"Point"},"properties":{"osm_id":"6021454541","tag":{"amenity":"recycling","operator":"REMONDIS","recycling:glass":"yes","recycling_type":"container"}},"type":"Feature"},
	{"geometry":{"coordinates":[10.865838,48.425628],"type":"Point"},"properties":{"osm_id":"6021454542","tag":{"amenity":"recycling","recycling_type":"container"}},"type":"Feature"},
	{"geometry":{"coordinates":[10.86587,48.425628],"type":"Point"},"properties":{"osm_id":"6021454543","tag":{"amenity":"recycling","operator":"Aktion Hoffnung","recycling:clothes":"yes","recycling:shoes":"yes","recycling_type":"container"}},"type":"Feature"},
	{"geometry":{"coordinates":[10.868457,48.429714],"type":"Point"},"properties":{"osm_id":"6021454562","tag":{"amenity":"recycling","recycling:cans":"yes","recycling_type":"container"}},"type":"Feature"},
	{"geometry":{"coordinates":[10.868466,48.429735],"type":"Point"},"properties":{"osm_id":"6021454563","tag":{"amenity":"recycling","operator":"Aktion Hoffnung","recycling:clothes":"yes","recycling:shoes":"yes","recycling_type":"container"}},"type":"Feature"},
	{"geometry":{"coordinates":[10.868452,48.429685],"type":"Point"},"properties":{"osm_id":"6021454564","tag":{"amenity":"recycling","operator":"REMONDIS","recycling:cans":"yes","recycling:glass":"yes","recycling_type":"container"}},"type":"Feature"},
	{"geometry":{"coordinates":[10.86869,48.425608],"type":"Point"},"properties":{"osm_id":"6021454566","tag":{"amenity":"recycling","recycling:cans":"yes","recycling_type":"container"}},"type":"Feature"},
	{"geometry":{"coordinates":[10.868706,48.425639],"type":"Point"},"properties":{"osm_id":"6021454567","tag":{"amenity":"recycling","recycling:clothes":"yes","recycling:shoes":"yes","recycling_type":"container"}},"type":"Feature"},
	{"geometry":{"coordinates":[10.868713,48.425586],"type":"Point"},"properties":{"osm_id":"6021454568","tag":{"amenity":"recycling","operator":"REMONDIS","recycling:cans":"yes","recycling:glass":"yes","recycling_type":"container"}},"type":"Feature"},
	{"geometry":{"coordinates":[10.878696,48.433067],"type":"Point"},"properties":{"osm_id":"6022712973","tag":{"amenity":"waste_basket"}},"type":"Feature"},
	{"geometry":{"coordinates":[10.878777,48.416389],"type":"Point"},"properties":{"osm_id":"6474484485","tag":{"amenity":"waste_basket"}},"type":"Feature"},
	{"geometry":{"coordinates":[10.87899,48.4166],"type":"Point"},"properties":{"osm_id":"6474484488","tag":{"amenity":"waste_basket"}},"type":"Feature"},
	{"geometry":{"coordinates":[10.819013,48.401722],"type":"Point"},"properties":{"osm_id":"6697420660","tag":{"amenity":"waste_basket"}},"type":"Feature"},
	{"geometry":{"coordinates":[10.892014,48.423278],"type":"Point"},"properties":{"osm_id":"7478468731","tag":{"amenity":"waste_basket"}},"type":"Feature"},
	{"geometry":{"coordinates":[10.825321,48.400045],"type":"Point"},"properties":{"osm_id":"7932757130","tag":{"amenity":"waste_basket","material":"metal"}},"type":"Feature"}
]
}
