{
"type": "FeatureCollection",
"features": [
	{"geometry":{"coordinates":[10.833794,48.398653],"type":"Point"},"properties":{"osm_id":"33218011","tag":{"amenity":"recycling"}},"type":"Feature"},
	{"geometry":{"coordinates":[10.867829,48.36255],"type":"Point"},"properties":{"osm_id":"299139441","tag":{"amenity":"recycling","recycling:glass":"yes","recycling_type":"container"}},"type":"Feature"},
	{"geometry":{"coordinates":[10.881534,48.347767],"type":"Point"},"properties":{"osm_id":"302048132","tag":{"amenity":"recycling","operator":"REMONDIS","recycling:glass":"yes","recycling_type":"container"}},"type":"Feature"},
	{"geometry":{"coordinates":[10.888789,48.378001],"type":"Point"},"properties":{"osm_id":"312859182","tag":{"amenity":"recycling","operator":"Remondis","recycling:glass":"yes","recycling_type":"container"}},"type":"Feature"},
	{"geometry":{"coordinates":[10.881288,48.374305],"type":"Point"},"properties":{"osm_id":"313821454","tag":{"amenity":"recycling","opening_hours":"Mo-Sa 07:00-12:00,14:00-20:00","recycling:clothes":"yes","recycling:shoes":"yes","recycling_type":"container"}},"type":"Feature"},
	{"geometry":{"coordinates":[10.885681,48.382694],"type":"Point"},"properties":{"osm_id":"315746372","tag":{"amenity":"recycling","recycling:glass":"yes","recycling_type":"container"}},"type":"Feature"},
	{"geometry":{"coordinates":[10.850141,48.379137],"type":"Point"},"properties":{"osm_id":"437551668","tag":{"amenity":"recycling","location":"overground","recycling:paper":"yes","recycling:waste":"yes","recycling_type":"container"}},"type":"Feature"},
	{"geometry":{"coordinates":[10.861617,48.35761],"type":"Point"},"properties":{"osm_id":"498999165","tag":{"amenity":"recycling","operator":"Aktion Hoffnung","recycling:clothes":"yes","recycling:shoes":"yes","recycling_type":"container"}},"type":"Feature"},
	{"geometry":{"coordinates":[10.886096,48.343293],"type":"Point"},"properties":{"osm_id":"519956799","tag":{"amenity":"recycling","recycling:clothes":"yes","recycling:glass":"yes","recycling_type":"container"}},"type":"Feature"},
	{"geometry":{"coordinates":[10.889852,48.367477],"type":"Point"},"properties":{"osm_id":"541441425","tag":{"amenity":"recycling","operator":"REMONDIS","recycling:glass":"yes","recycling_type":"container"}},"type":"Feature"},
	{"geometry":{"coordinates":[10.867772,48.344365],"type":"Point"},"properties":{"osm_id":"599551310","tag":{"amenity":"recycling","operator":"Aktion Hoffnung","recycling:clothes":"yes","recycling:shoes":"yes","recycling_type":"container"}},"type":"Feature"},
	{"geometry":{"coordinates":[10.877311,48.354605],"type":"Point"},"properties":{"osm_id":"618275189","tag":{"amenity":"recycling","recycling:glass":"yes","recycling_type":"container"}},"type":"Feature"},
	{"geometry":{"coordinates":[10.869655,48.342739],"type":"Point"},"properties":{"osm_id":"621910214","tag":{"amenity":"recycling","recycling:clothes":"yes","recycling:shoes":"yes","recycling_type":"container"}},"type":"Feature"},
	{"geometry":{"coordinates":[10.869848,48.344972],"type":"Point"},"properties":{"osm_id":"622294179","tag":{"amenity":"recycling","recycling:glass":"yes","recycling_type":"container"}},"type":"Feature"},
	{"geometry":{"coordinates":[10.879721,48.356162],"type":"Point"},"properties":{"osm_id":"631820169","tag":{"amenity":"waste_basket"}},"type":"Feature"},
	{"geometry":{"coordinates":[10.88025,48.356167],"type":"Point"},"properties":{"osm_id":"631820170","tag":{"amenity":"waste_basket"}},"type":"Feature"},
	{"geometry":{"coordinates":[10.881915,48.35628],"type":"Point"},"properties":{"osm_id":"631820181","tag":{"amenity":"waste_basket"}},"type":"Feature"},
	{"geometry":{"coordinates":[10.877554,48.356903],"type":"Point"},"properties":{"osm_id":"631820188","tag":{"amenity":"waste_basket"}},"type":"Feature"},
	{"geometry":{"coordinates":[10.878618,48.356369],"type":"Point"},"properties":{"osm_id":"631820196","tag":{"amenity":"waste_basket"}},"type":"Feature"},
	{"geometry":{"coordinates":[10.88172,48.356635],"type":"Point"},"properties":{"osm_id":"631820222","tag":{"amenity":"recycling","recycling:clothes":"yes","recycling:glass":"yes","recycling:shoes":"yes","recycling_type":"container"}},"type":"Feature"},
	{"geometry":{"coordinates":[10.8819,48.356941],"type":"Point"},"properties":{"osm_id":"631820227","tag":{"amenity":"waste_basket"}},"type":"Feature"},
	{"geometry":{"coordinates":[10.880982,48.358201],"type":"Point"},"properties":{"osm_id":"631820243","tag":{"amenity":"waste_basket"}},"type":"Feature"},
	{"geometry":{"coordinates":[10.881108,48.35772],"type":"Point"},"properties":{"osm_id":"631820250","tag":{"amenity":"waste_basket"}},"type":"Feature"},
	{"geometry":{"coordinates":[10.881881,48.358871],"type":"Point"},"properties":{"osm_id":"631820253","tag":{"amenity":"waste_basket"}},"type":"Feature"},
	{"geometry":{"coordinates":[10.883261,48.356893],"type":"Point"},"properties":{"osm_id":"631820263","tag":{"amenity":"waste_basket"}},"type":"Feature"},
	{"geometry":{"coordinates":[10.883214,48.357371],"type":"Point"},"properties":{"osm_id":"631820266","tag":{"amenity":"waste_basket"}},"type":"Feature"},
	{"geometry":{"coordinates":[10.882105,48.358207],"type":"Point"},"properties":{"osm_id":"631820273","tag":{"amenity":"waste_basket"}},"type":"Feature"},
	{"geometry":{"coordinates":[10.883623,48.358183],"type":"Point"},"properties":{"osm_id":"631820282","tag":{"amenity":"waste_basket"}},"type":"Feature"},
	{"geometry":{"coordinates":[10.883564,48.358602],"type":"Point"},"properties":{"osm_id":"631820284","tag":{"amenity":"waste_basket"}},"type":"Feature"},
	{"geometry":{"coordinates":[10.883353,48.358865],"type":"Point"},"properties":{"osm_id":"631820298","tag":{"amenity":"waste_basket"}},"type":"Feature"},
	{"geometry":{"coordinates":[10.882607,48.359196],"type":"Point"},"properties":{"osm_id":"631820299","tag":{"amenity":"waste_basket"}},"type":"Feature"},
	{"geometry":{"coordinates":[10.882934,48.359773],"type":"Point"},"properties":{"osm_id":"631820302","tag":{"amenity":"waste_basket"}},"type":"Feature"},
	{"geometry":{"coordinates":[10.885034,48.360367],"type":"Point"},"properties":{"osm_id":"631820308","tag":{"amenity":"waste_basket"}},"type":"Feature"},
	{"geometry":{"coordinates":[10.885981,48.360413],"type":"Point"},"properties":{"osm_id":"631820313","tag":{"amenity":"waste_basket"}},"type":"Feature"},
	{"geometry":{"coordinates":[10.885672,48.360313],"type":"Point"},"properties":{"osm_id":"631820315","tag":{"amenity":"waste_basket"}},"type":"Feature"},
	{"geometry":{"coordinates":[10.886275,48.360378],"type":"Point"},"properties":{"osm_id":"631820324","tag":{"amenity":"waste_basket"}},"type":"Feature"},
	{"geometry":{"coordinates":[10.887133,48.360568],"type":"Point"},"properties":{"osm_id":"631820331","tag":{"amenity":"waste_basket"}},"type":"Feature"},
	{"geometry":{"coordinates":[10.888009,48.359704],"type":"Point"},"properties":{"osm_id":"631820332","tag":{"amenity":"waste_basket"}},"type":"Feature"},
	{"geometry":{"coordinates":[10.888521,48.359463],"type":"Point"},"properties":{"osm_id":"631820335","tag":{"amenity":"waste_basket"}},"type":"Feature"},
	{"geometry":{"coordinates":[10.888929,48.360436],"type":"Point"},"properties":{"osm_id":"631820338","tag":{"amenity":"waste_basket"}},"type":"Feature"},
	{"geometry":{"coordinates":[10.887606,48.360424],"type":"Point"},"properties":{"osm_id":"631820340","tag":{"amenity":"waste_basket"}},"type":"Feature"},
	{"geometry":{"coordinates":[10.869587,48.372594],"type":"Point"},"properties":{"osm_id":"639780754","tag":{"amenity":"recycling","operator":"REMONDIS","recycling:glass":"yes","recycling_type":"container"}},"type":"Feature"},
	{"geometry":{"coordinates":[10.858744,48.352837],"type":"Point"},"properties":{"osm_id":"649191906","tag":{"amenity":"recycling","operator":"REMONDIS","recycling:glass":"yes","recycling_type":"container"}},"type":"Feature"},
	{"geometry":{"coordinates":[10.853853,48.382342],"type":"Point"},"properties":{"osm_id":"653801549","tag":{"amenity":"recycling","operator":"RWE Umwelt","recycling:glass":"yes","recycling_type":"container"}},"type":"Feature"},
	{"geometry":{"coordinates":[10.839107,48.378368],"type":"Point"},"properties":{"osm_id":"653929973","tag":{"amenity":"recycling","recycling:clothes":"yes","recycling:shoes":"yes"}},"type":"Feature"},
	{"geometry":{"coordinates":[10.841241,48.390322],"type":"Point"},"properties":{"osm_id":"660101217","tag":{"amenity":"recycling","recycling:clothes":"yes","recycling:glass_bottles":"yes","recycling:shoes":"yes","recycling_type":"container"}},"type":"Feature"},
	{"geometry":{"coordinates":[10.847548,48.395186],"type":"Point"},"properties":{"osm_id":"660112710","tag":{"amenity":"recycling","operator":"REMONDIS","recycling:glass":"yes","recycling_type":"container"}},"type":"Feature"},
	{"geometry":{"coordinates":[10.852291,48.399943],"type":"Point"},"properties":{"osm_id":"660112719","tag":{"amenity":"recycling","recycling:clothes":"yes","recycling:glass":"yes","recycling:shoes":"yes"}},"type":"Feature"},
	{"geometry":{"coordinates":[10.852324,48.362412],"type":"Point"},"properties":{"osm_id":"663953388","tag":{"amenity":"recycling","operator":"REMONDIS","recycling:glass":"yes","recycling_type":"container"}},"type":"Feature"},
	{"geometry":{"coordinates":[10.857598,48.375343],"type":"Point"},"properties":{"osm_id":"665607744","tag":{"amenity":"recycling","check_date":"2014-11-16","operator":"REMONDIS","recycling:glass":"yes","recycling_type":"container"}},"type":"Feature"},
	{"geometry":{"coordinates":[10.86172,48.379186],"type":"Point"},"properties":{"osm_id":"665619395","tag":{"amenity":"recycling","check_date":"2014-11-16","operator":"Aktion Hoffnung","recycling:clothes":"yes","recycling:shoes":"yes","recycling_type":"container"}},"type":"Feature"},
	{"geometry":{"coordinates":[10.88925,48.36602],"type":"Point"},"properties":{"osm_id":"675307017","tag":{"amenity":"waste_basket"}},"type":"Feature"},
	{"geometry":{"coordinates":[10.887553,48.366047],"type":"Point"},"properties":{"osm_id":"675307024","tag":{"amenity":"waste_basket"}},"type":"Feature"},
	{"geometry":{"coordinates":[10.896655,48.361595],"type":"Point"},"properties":{"osm_id":"679922527","tag":{"amenity":"waste_basket"}},"type":"Feature"},
	{"geometry":{"coordinates":[10.895535,48.363659],"type":"Point"},"properties":{"osm_id":"679922539","tag":{"amenity":"waste_basket"}},"type":"Feature"},
	{"geometry":{"coordinates":[10.895312,48.36397],"type":"Point"},"properties":{"osm_id":"679922547","tag":{"amenity":"waste_basket"}},"type":"Feature"},
	{"geometry":{"coordinates":[10.896232,48.362406],"type":"Point"},"properties":{"osm_id":"679922554","tag":{"amenity":"waste_basket"}},"type":"Feature"},
	{"geometry":{"coordinates":[10.818859,48.386621],"type":"Point"},"properties":{"osm_id":"687012450","tag":{"amenity":"recycling","recycling:clothes":"yes","recycling:glass_bottles":"yes","recycling_type":"container"}},"type":"Feature"},
	{"geometry":{"coordinates":[10.821389,48.393294],"type":"Point"},"properties":{"osm_id":"687772413","tag":{"amenity":"recycling","recycling:cans":"yes","recycling:clothes":"yes","recycling:glass":"yes","recycling_type":"container"}},"type":"Feature"},
	{"geometry":{"coordinates":[10.891509,48.366208],"type":"Point"},"properties":{"osm_id":"687951354","tag":{"amenity":"waste_basket"}},"type":"Feature"},
	{"geometry":{"coordinates":[10.891877,48.366266],"type":"Point"},"properties":{"osm_id":"687951357","tag":{"amenity":"waste_basket"}},"type":"Feature"},
	{"geometry":{"coordinates":[10.892553,48.366363],"type":"Point"},"properties":{"osm_id":"687951359","tag":{"amenity":"waste_basket"}},"type":"Feature"},
	{"geometry":{"coordinates":[10.897592,48.364446],"type":"Point"},"properties":{"osm_id":"713155768","tag":{"amenity":"recycling","recycling:clothes":"yes","recycling:glass":"yes","recycling_type":"container"}},"type":"Feature"},
	{"geometry":{"coordinates":[10.87368,48.352113],"type":"Point"},"properties":{"osm_id":"719830203","tag":{"amenity":"recycling","recycling:glass":"yes","recycling_type":"container"}},"type":"Feature"},
	{"geometry":{"coordinates":[10.874106,48.342732],"type":"Point"},"properties":{"osm_id":"725918656","tag":{"amenity":"recycling","check_date":"2016-03-12","operator":"REMONDIS","recycling:glass":"yes","recycling_type":"container"}},"type":"Feature"},
	{"geometry":{"coordinates":[10.875054,48.348887],"type":"Point"},"properties":{"osm_id":"731962796","tag":{"amenity":"recycling","operator":"REMONDIS","recycling:glass":"yes","recycling_type":"container"}},"type":"Feature"},
	{"geometry":{"coordinates":[10.876111,48.350746],"type":"Point"},"properties":{"osm_id":"731962859","tag":{"amenity":"recycling","operator":"REMONDIS","recycling:glass":"yes","recycling_type":"container"}},"type":"Feature"},
	{"geometry":{"coordinates":[10.876096,48.350773],"type":"Point"},"properties":{"osm_id":"731962864","tag":{"amenity":"recycling","operator":"Aktion Hoffnung","recycling:clothes":"yes","recycling:shoes":"yes","recycling_type":"container"}},"type":"Feature"},
	{"geometry":{"coordinates":[10.855374,48.349667],"type":"Point"},"properties":{"barrier":"gate","osm_id":"738141377","tag":{"bicycle":"yes","foot":"yes","motorcar":"yes"}},"type":"Feature"},
	{"geometry":{"coordinates":[10.852407,48.350338],"type":"Point"},"properties":{"osm_id":"739437518","tag":{"amenity":"recycling","recycling:clothes":"yes","recycling:shoes":"yes"}},"type":"Feature"},
	{"geometry":{"coordinates":[10.855447,48.349711],"type":"Point"},"properties":{"name":"Wertstoffsammelstelle Landkreis Augsburg","osm_id":"739437519","tag":{"amenity":"recycling","opening_hours":"Jan-Feb: Fr 14:00-16:00, Sa 09:00-15:00; Mar-Nov: Fr 14:00-18:00; Sa 09:00-15:00; Dec: Fr 14:00-16:00; Sa 09:00-15:00","operator":"Landkreis Augsburg","recycling_type":"centre"}},"type":"Feature"},
	{"geometry":{"coordinates":[10.85543,48.349598],"type":"Point"},"properties":{"name":"Wertsthoffhof Stadtbergen","osm_id":"739437547","tag":{"amenity":"recycling","opening_hours":"Mar-Nov: Fr 14:00-18:00, Sa 09:00-15:00; Dec-Feb: Sa 09:00-15:00","operator":"Stadt Stadtbergen","recycling_type":"centre"}},"type":"Feature"},
	{"geometry":{"coordinates":[10.884557,48.357592],"type":"Point"},"properties":{"osm_id":"748444147","tag":{"amenity":"recycling","recycling:clothes":"yes","recycling_type":"container"}},"type":"Feature"},
	{"geometry":{"coordinates":[10.880034,48.383148],"type":"Point"},"properties":{"osm_id":"751827573","tag":{"amenity":"recycling","recycling:glass":"yes","recycling_type":"container"}},"type":"Feature"},
	{"geometry":{"coordinates":[10.889386,48.35595],"type":"Point"},"properties":{"osm_id":"751988767","tag":{"amenity":"waste_basket"}},"type":"Feature"},
	{"geometry":{"coordinates":[10.890169,48.355649],"type":"Point"},"properties":{"osm_id":"751988847","tag":{"amenity":"waste_basket"}},"type":"Feature"},
	{"geometry":{"coordinates":[10.883149,48.360187],"type":"Point"},"properties":{"osm_id":"754423432","tag":{"amenity":"recycling","check_date":"2014-11-16","operator":"REMONDIS","recycling:glass":"yes","recycling_type":"container"}},"type":"Feature"},
	{"geometry":{"coordinates":[10.889769,48.353986],"type":"Point"},"properties":{"osm_id":"779003255","tag":{"amenity":"recycling","operator":"REMONDIS","recycling:glass":"yes","recycling_type":"container"}},"type":"Feature"},
	{"geometry":{"coordinates":[10.878678,48.360671],"type":"Point"},"properties":{"osm_id":"783275073","tag":{"amenity":"waste_basket"}},"type":"Feature"},
	{"geometry":{"coordinates":[10.878524,48.359754],"type":"Point"},"properties":{"osm_id":"783275347","tag":{"amenity":"waste_basket"}},"type":"Feature"},
	{"geometry":{"coordinates":[10.875449,48.357256],"type":"Point"},"properties":{"osm_id":"783275505","tag":{"amenity":"waste_basket"}},"type":"Feature"},
	{"geometry":{"coordinates":[10.878293,48.359652],"type":"Point"},"properties":{"osm_id":"783275527","tag":{"amenity":"waste_basket"}},"type":"Feature"},
	{"geometry":{"coordinates":[10.883163,48.362825],"type":"Point"},"properties":{"osm_id":"783275551","tag":{"amenity":"waste_basket"}},"type":"Feature"},
	{"geometry":{"coordinates":[10.892461,48.351874],"type":"Point"},"properties":{"osm_id":"807762532","tag":{"amenity":"recycling","location":"overground","recycling:glass":"yes","recycling_type":"container"}},"type":"Feature"},
	{"geometry":{"coordinates":[10.888773,48.371214],"type":"Point"},"properties":{"osm_id":"823766657","tag":{"amenity":"recycling","recycling:glass":"yes","recycling_type":"container"}},"type":"Feature"},
	{"geometry":{"coordinates":[10.880678,48.376185],"type":"Point"},"properties":{"osm_id":"823803998","tag":{"amenity":"recycling","opening_hours":"24/7","recycling:glass_bottles":"yes","recycling_type":"container","wheelchair":"yes"}},"type":"Feature"},
	{"geometry":{"coordinates":[10.895663,48.37005],"type":"Point"},"properties":{"osm_id":"824099350","tag":{"amenity":"waste_basket"}},"type":"Feature"},
	{"geometry":{"coordinates":[10.889011,48.351761],"type":"Point"},"properties":{"osm_id":"830370592","tag":{"amenity":"recycling","location":"overground","recycling:clothes":"yes","recycling:shoes":"yes","recycling_type":"container"}},"type":"Feature"},
	{"geometry":{"coordinates":[10.897994,48.345344],"type":"Point"},"properties":{"osm_id":"833406901","tag":{"amenity":"recycling","recycling:glass":"yes","recycling_type":"container"}},"type":"Feature"},
	{"geometry":{"coordinates":[10.895211,48.349548],"type":"Point"},"properties":{"osm_id":"833974065","tag":{"amenity":"recycling","operator":"Aktion Hoffnung","recycling:clothes":"yes","recycling:glass_bottles":"yes","recycling:shoes":"yes","recycling_type":"container"}},"type":"Feature"},
	{"geometry":{"coordinates":[10.894151,48.344158],"type":"Point"},"properties":{"osm_id":"833974082","tag":{"amenity":"recycling","operator":"REMONDIS","recycling:glass_bottles":"yes","recycling_type":"container"}},"type":"Feature"},
	{"geometry":{"coordinates":[10.897445,48.350669],"type":"Point"},"properties":{"osm_id":"835185192","tag":{"amenity":"recycling","recycling:glass":"yes","recycling_type":"container"}},"type":"Feature"},
	{"geometry":{"coordinates":[10.898315,48.350685],"type":"Point"},"properties":{"osm_id":"835185234","tag":{"amenity":"recycling","recycling:clothes":"yes","recycling:shoes":"yes","recycling_type":"container"}},"type":"Feature"},
	{"geometry":{"coordinates":[10.897501,48.350923],"type":"Point"},"properties":{"osm_id":"835185334","tag":{"amenity":"recycling","recycling:clothes":"yes","recycling:shoes":"yes","recycling_type":"container"}},"type":"Feature"},
	{"geometry":{"coordinates":[10.878458,48.348092],"type":"Point"},"properties":{"osm_id":"845342945","tag":{"amenity":"recycling","opening_hours":"Mo-Sa 07:00-19:00; PH off","operator":"Doll Textilrecycling","recycling:clothes":"yes","recycling:shoes":"yes","recycling_type":"container"}},"type":"Feature"},
	{"geometry":{"coordinates":[10.892633,48.355729],"type":"Point"},"properties":{"osm_id":"846830941","tag":{"amenity":"recycling","operator":"REMONDIS","recycling:glass":"yes","recycling_type":"container"}},"type":"Feature"},
	{"geometry":{"coordinates":[10.868473,48.355831],"type":"Point"},"properties":{"osm_id":"851126637","tag":{"amenity":"recycling","operator":"REMONDIS","recycling:glass":"yes","recycling_type":"container"}},"type":"Feature"},
	{"geometry":{"coordinates":[10.868464,48.355796],"type":"Point"},"properties":{"osm_id":"851126647","tag":{"amenity":"recycling","operator":"Aktion Hoffnung","recycling:clothes":"yes","recycling:shoes":"yes","recycling_type":"container"}},"type":"Feature"},
	{"geometry":{"coordinates":[10.869671,48.367694],"type":"Point"},"properties":{"osm_id":"851328265","tag":{"amenity":"recycling","operator":"REMONDIS","recycling:glass":"no","recycling:glass_bottles":"yes","recycling_type":"container"}},"type":"Feature"},
	{"geometry":{"coordinates":[10.864761,48.366793],"type":"Point"},"properties":{"osm_id":"851328325","tag":{"amenity":"recycling","operator":"REMONDIS","recycling:glass":"yes","recycling_type":"container"}},"type":"Feature"},
	{"geometry":{"coordinates":[10.861617,48.357631],"type":"Point"},"properties":{"osm_id":"851328425","tag":{"amenity":"recycling","operator":"REMONDIS","recycling:glass":"yes","recycling_type":"container"}},"type":"Feature"},
	{"geometry":{"coordinates":[10.864762,48.366821],"type":"Point"},"properties":{"osm_id":"851328496","tag":{"amenity":"recycling","operator":"Aktion Hoffnung","recycling:clothes":"yes","recycling:shoes":"yes","recycling_type":"container"}},"type":"Feature"},
	{"geometry":{"coordinates":[10.857425,48.379849],"type":"Point"},"properties":{"osm_id":"852630520","tag":{"amenity":"recycling","check_date":"2018-05-26","operator":"REMONDIS","recycling:glass":"yes","recycling_type":"container"}},"type":"Feature"},
	{"geometry":{"coordinates":[10.869802,48.371481],"type":"Point"},"properties":{"osm_id":"856372382","tag":{"amenity":"recycling","operator":"Aktion Hoffnung","recycling:clothes":"yes","recycling:shoes":"yes","recycling_type":"container"}},"type":"Feature"},
	{"geometry":{"coordinates":[10.851952,48.379592],"type":"Point"},"properties":{"osm_id":"858222536","tag":{"amenity":"recycling","operator":"Aktion Hoffnung","recycling:clothes":"yes","recycling:shoes":"yes","recycling_type":"container"}},"type":"Feature"},
	{"geometry":{"coordinates":[10.875065,48.348909],"type":"Point"},"properties":{"osm_id":"860534998","tag":{"amenity":"recycling","check_date":"2018-12-08","operator":"Stadt Augsburg","recycling:clothes":"yes","recycling:shoes":"yes","recycling_type":"container"}},"type":"Feature"},
	{"geometry":{"coordinates":[10.893834,48.353598],"type":"Point"},"properties":{"osm_id":"870526076","tag":{"amenity":"recycling","recycling:glass_bottles":"yes","recycling_type":"container"}},"type":"Feature"},
	{"geometry":{"coordinates":[10.835313,48.346489],"type":"Point"},"properties":{"osm_id":"872692285","tag":{"amenity":"recycling","recycling:glass":"yes"}},"type":"Feature"},
	{"geometry":{"coordinates":[10.848088,48.361184],"type":"Point"},"properties":{"osm_id":"874293846","tag":{"amenity":"recycling","operator":"REMONDIS","recycling:glass":"yes","recycling_type":"container"}},"type":"Feature"},
	{"geometry":{"coordinates":[10.873428,48.380752],"type":"Point"},"properties":{"osm_id":"875454625","tag":{"amenity":"recycling","check_date":"2014-11-16","operator":"REMONDIS","recycling:glass":"yes","recycling_type":"container"}},"type":"Feature"},
	{"geometry":{"coordinates":[10.869495,48.381085],"type":"Point"},"properties":{"osm_id":"877741121","tag":{"amenity":"recycling","check_date":"2018-05-26","operator":"Aktion Hoffnung","recycling:clothes":"yes","recycling:shoes":"yes","recycling_type":"container"}},"type":"Feature"},
	{"geometry":{"coordinates":[10.873059,48.379215],"type":"Point"},"properties":{"osm_id":"877741542","tag":{"amenity":"recycling","operator":"Aktion Hoffnung","recycling:clothes":"yes","recycling:shoes":"yes","recycling_type":"container"}},"type":"Feature"},
	{"geometry":{"coordinates":[10.873038,48.379246],"type":"Point"},"properties":{"osm_id":"877741613","tag":{"amenity":"recycling","operator":"REMONDIS","recycling:glass":"yes","recycling_type":"container"}},"type":"Feature"},
	{"geometry":{"coordinates":[10.858779,48.352808],"type":"Point"},"properties":{"osm_id":"882327781","tag":{"amenity":"recycling","operator":"Aktion Hoffnung","recycling:clothes":"yes","recycling:shoes":"yes","recycling_type":"container"}},"type":"Feature"},
	{"geometry":{"coordinates":[10.854192,48.367708],"type":"Point"},"properties":{"osm_id":"882327874","tag":{"amenity":"recycling","operator":"Cleanaway Gersthofen","recycling:cans":"yes","recycling:glass":"yes","recycling_type":"container"}},"type":"Feature"},
	{"geometry":{"coordinates":[10.87498,48.359818],"type":"Point"},"properties":{"osm_id":"886382199","tag":{"amenity":"recycling","operator":"Aktion Hoffnung","recycling:clothes":"yes","recycling:shoes":"yes","recycling_type":"container"}},"type":"Feature"},
	{"geometry":{"coordinates":[10.874963,48.359806],"type":"Point"},"properties":{"osm_id":"886382260","tag":{"amenity":"recycling","operator":"REMONDIS","recycling:glass":"no","recycling:glass_bottles":"yes","recycling_type":"container"}},"type":"Feature"},
	{"geometry":{"coordinates":[10.86837,48.383512],"type":"Point"},"properties":{"osm_id":"886473452","tag":{"amenity":"recycling","operator":"Aktion Hoffnung","recycling:clothes":"yes","recycling:shoes":"yes","recycling_type":"container"}},"type":"Feature"},
	{"geometry":{"coordinates":[10.868421,48.383476],"type":"Point"},"properties":{"osm_id":"886473497","tag":{"amenity":"recycling","operator":"REMONDIS","recycling:glass":"yes","recycling_type":"container"}},"type":"Feature"},
	{"geometry":{"coordinates":[10.858243,48.381672],"type":"Point"},"properties":{"osm_id":"889958769","tag":{"amenity":"recycling","check_date":"2016-07-16","operator":"Aktion Hoffnung","recycling:clothes":"yes","recycling:shoes":"yes","recycling_type":"container"}},"type":"Feature"},
	{"geometry":{"coordinates":[10.858302,48.381662],"type":"Point"},"properties":{"osm_id":"889958778","tag":{"amenity":"recycling","check_date":"2016-07-16","operator":"REMONDIS","recycling:glass":"yes","recycling_type":"container"}},"type":"Feature"},
	{"geometry":{"coordinates":[10.847594,48.395141],"type":"Point"},"properties":{"osm_id":"889958798","tag":{"amenity":"recycling","operator":"Aktion Hoffnung","recycling:clothes":"yes","recycling:shoes":"yes","recycling_type":"container"}},"type":"Feature"},
	{"geometry":{"coordinates":[10.849371,48.391452],"type":"Point"},"properties":{"osm_id":"898024259","ref":"Wildtaubenweg","tag":{"amenity":"recycling","recycling_type":"container"}},"type":"Feature"},
	{"geometry":{"coordinates":[10.842917,48.358132],"type":"Point"},"properties":{"osm_id":"905326989","tag":{"amenity":"recycling","recycling:glass":"yes","recycling_type":"container"}},"type":"Feature"},
	{"geometry":{"coordinates":[10.884079,48.394063],"type":"Point"},"properties":{"osm_id":"914309211","tag":{"amenity":"recycling","operator":"REMONDIS","recycling:glass":"yes","recycling_type":"container"}},"type":"Feature"},
	{"geometry":{"coordinates":[10.884082,48.39409],"type":"Point"},"properties":{"osm_id":"914309238","tag":{"amenity":"recycling","operator":"Aktion Hoffnung","recycling:clothes":"yes","recycling:shoes":"yes","recycling_type":"container"}},"type":"Feature"},
	{"geometry":{"coordinates":[10.857237,48.387919],"type":"Point"},"properties":{"osm_id":"914720452","tag":{"amenity":"recycling","operator":"REMONDIS","recycling:glass":"yes"}},"type":"Feature"},
	{"geometry":{"coordinates":[10.846702,48.379407],"type":"Point"},"properties":{"osm_id":"914763190","tag":{"amenity":"recycling","operator":"REMONDIS","recycling:glass":"yes","recycling_type":"container"}},"type":"Feature"},
	{"geometry":{"coordinates":[10.846751,48.379409],"type":"Point"},"properties":{"osm_id":"914763197","tag":{"amenity":"recycling","operator":"Aktion Hoffnung","recycling:clothes":"yes","recycling:shoes":"yes","recycling_type":"container"}},"type":"Feature"},
	{"geometry":{"coordinates":[10.859905,48.391215],"type":"Point"},"properties":{"osm_id":"915668849","tag":{"amenity":"recycling","operator":"REMONDIS","recycling:glass":"yes","recycling_type":"container"}},"type":"Feature"},
	{"geometry":{"coordinates":[10.852279,48.362399],"type":"Point"},"properties":{"osm_id":"919419996","tag":{"amenity":"recycling","operator":"Fa. Seidenberger","recycling:cans":"yes","recycling_type":"container"}},"type":"Feature"},
	{"geometry":{"coordinates":[10.852331,48.362377],"type":"Point"},"properties":{"osm_id":"919420001","tag":{"amenity":"recycling","operator":"Aktion Hoffnung","recycling:clothes":"yes","recycling:shoes":"yes","recycling_type":"container"}},"type":"Feature"},
	{"geometry":{"coordinates":[10.889474,48.359739],"type":"Point"},"properties":{"osm_id":"927361587","tag":{"amenity":"recycling","check_date":"2015-08-22","mapillary":"M9xwMkt3TJIdbUXNgtfXxw","operator":"REMONDIS","recycling:glass":"no","recycling:glass_bottles":"yes","recycling_type":"container","survey:date":"2018-04-18"}},"type":"Feature"},
	{"geometry":{"coordinates":[10.874895,48.3466],"type":"Point"},"properties":{"osm_id":"927361659","tag":{"amenity":"waste_basket"}},"type":"Feature"},
	{"geometry":{"coordinates":[10.89434,48.37788],"type":"Point"},"properties":{"osm_id":"948237488","tag":{"amenity":"recycling","mapillary":"AWyix-0qGHB1pacX_kVPPQ","operator":"REMONDIS","recycling:glass":"no","recycling:glass_bottles":"yes","recycling_type":"container","survey:date":"2020-05-08"}},"type":"Feature"},
	{"geometry":{"coordinates":[10.816206,48.360483],"type":"Point"},"properties":{"osm_id":"950693531","tag":{"amenity":"recycling","recycling:cans":"yes","recycling:clothes":"yes","recycling:glass":"yes"}},"type":"Feature"},
	{"geometry":{"coordinates":[10.880488,48.398501],"type":"Point"},"properties":{"osm_id":"960689445","tag":{"amenity":"recycling","operator":"REMONDIS","recycling:glass":"yes"}},"type":"Feature"},
	{"geometry":{"coordinates":[10.865515,48.35433],"type":"Point"},"properties":{"osm_id":"1176826716","tag":{"amenity":"recycling","operator":"REMONDIS","recycling:glass":"yes","recycling_type":"container"}},"type":"Feature"},
	{"geometry":{"coordinates":[10.873999,48.389001],"type":"Point"},"properties":{"osm_id":"1188858100","tag":{"amenity":"recycling","recycling:glass":"yes"}},"type":"Feature"},
	{"geometry":{"coordinates":[10.814236,48.371414],"type":"Point"},"properties":{"name":"Wertstoffhof Steppach","osm_id":"1381531063","tag":{"addr:city":"Neus\u00c3\u00a4\u00c3\u009f","addr:housenumber":"92a","addr:postcode":"86356","addr:street":"Ulmer Stra\u00c3\u009fe","amenity":"recycling","opening_hours":"Tu 14:00-18:00; Fr 14:00-17:00; Sa 09:00-14:00","operator":"Stadt Neus\u00c3\u00a4\u00c3\u009f","phone":"+49 821 482150","recycling:cans":"yes","recycling:clothes":"yes","recycling:glass":"yes","recycling:paper":"yes","recycling_type":"centre","website":"https://mobil.neusaess.de/de/Rathaus/Wertstoffsammelstellen-Kompostieranlage"}},"type":"Feature"},
	{"geometry":{"coordinates":[10.864304,48.384398],"type":"Point"},"properties":{"osm_id":"1465266979","tag":{"amenity":"recycling","check_date":"2014-11-16","operator":"Aktion Hoffnung","recycling:clothes":"yes","recycling_type":"container"}},"type":"Feature"},
	{"geometry":{"coordinates":[10.864424,48.384432],"type":"Point"},"properties":{"osm_id":"1465266980","tag":{"amenity":"recycling","check_date":"2014-11-16","operator":"REMONDIS","recycling:glass":"yes","recycling_type":"container"}},"type":"Feature"},
	{"geometry":{"coordinates":[10.856008,48.384414],"type":"Point"},"properties":{"osm_id":"1477530612","tag":{"amenity":"recycling","recycling:clothes":"yes","recycling:shoes":"yes","recycling_type":"container"}},"type":"Feature"},
	{"geometry":{"coordinates":[10.86685,48.392746],"type":"Point"},"properties":{"osm_id":"1478085146","tag":{"amenity":"recycling","operator":"Aktion Hoffnung","recycling:clothes":"yes","recycling:shoes":"yes","recycling_type":"container"}},"type":"Feature"},
	{"geometry":{"coordinates":[10.866831,48.392782],"type":"Point"},"properties":{"osm_id":"1478085147","tag":{"amenity":"recycling","operator":"REMONDIS","recycling:glass":"yes","recycling_type":"container"}},"type":"Feature"},
	{"geometry":{"coordinates":[10.874692,48.371216],"type":"Point"},"properties":{"osm_id":"1551148578","tag":{"amenity":"recycling","operator":"Faircollect","recycling:clothes":"yes","recycling_type":"container"}},"type":"Feature"},
	{"geometry":{"coordinates":[10.875829,48.375303],"type":"Point"},"properties":{"osm_id":"1551148678","tag":{"amenity":"recycling","check_date":"2014-11-16","operator":"REMONDIS","recycling:glass":"yes","recycling_type":"container"}},"type":"Feature"},
	{"geometry":{"coordinates":[10.8724,48.376911],"type":"Point"},"properties":{"osm_id":"1554318391","tag":{"amenity":"recycling","operator":"Aktion Hoffnung","recycling:clothes":"yes","recycling:shoes":"yes","recycling_type":"container"}},"type":"Feature"},
	{"geometry":{"coordinates":[10.872428,48.37695],"type":"Point"},"properties":{"osm_id":"1554318407","tag":{"amenity":"recycling","operator":"REMONDIS","recycling:glass":"yes","recycling_type":"container"}},"type":"Feature"},
	{"geometry":{"coordinates":[10.860028,48.372468],"type":"Point"},"properties":{"osm_id":"1561265254","tag":{"amenity":"recycling","check_date":"2014-11-16","operator":"REMONDIS","recycling:glass":"yes","recycling_type":"container"}},"type":"Feature"},
	{"geometry":{"coordinates":[10.860023,48.372441],"type":"Point"},"properties":{"osm_id":"1561265255","tag":{"amenity":"recycling","check_date":"2014-11-16","operator":"Aktion Hoffnung","recycling:clothes":"yes","recycling:shoes":"yes","recycling_type":"container"}},"type":"Feature"},
	{"geometry":{"coordinates":[10.865497,48.354304],"type":"Point"},"properties":{"osm_id":"1572722980","tag":{"amenity":"recycling","operator":"Aktion Hoffnung","recycling:clothes":"yes","recycling:shoes":"yes","recycling_type":"container"}},"type":"Feature"},
	{"geometry":{"coordinates":[10.885492,48.365983],"type":"Point"},"properties":{"osm_id":"1655854239","tag":{"amenity":"waste_basket","level":"0"}},"type":"Feature"},
	{"geometry":{"coordinates":[10.82041,48.347737],"type":"Point"},"properties":{"osm_id":"1668711711","tag":{"amenity":"waste_basket"}},"type":"Feature"},
	{"geometry":{"coordinates":[10.886695,48.371449],"type":"Point"},"properties":{"osm_id":"1676026109","tag":{"amenity":"waste_basket"}},"type":"Feature"},
	{"geometry":{"coordinates":[10.887361,48.372137],"type":"Point"},"properties":{"osm_id":"1676026112","tag":{"amenity":"waste_basket"}},"type":"Feature"},
	{"geometry":{"coordinates":[10.867808,48.362563],"type":"Point"},"properties":{"osm_id":"1695262613","tag":{"amenity":"recycling","recycling:clothes":"yes","recycling:shoes":"yes","recycling_type":"container"}},"type":"Feature"},
	{"geometry":{"coordinates":[10.889791,48.367468],"type":"Point"},"properties":{"osm_id":"1711343809","tag":{"amenity":"recycling","operator":"Aktion Hoffnung","recycling:clothes":"yes","recycling:shoes":"yes","recycling_type":"container"}},"type":"Feature"},
	{"geometry":{"coordinates":[10.852409,48.372592],"type":"Point"},"properties":{"osm_id":"1753988849","tag":{"amenity":"recycling","operator":"Aktion Hoffnung","recycling:clothes":"yes","recycling:shoes":"yes","recycling_type":"container"}},"type":"Feature"},
	{"geometry":{"coordinates":[10.852343,48.372582],"type":"Point"},"properties":{"osm_id":"1753988850","tag":{"amenity":"recycling","operator":"REMONDIS","recycling:glass":"yes","recycling_type":"container"}},"type":"Feature"},
	{"geometry":{"coordinates":[10.857614,48.375356],"type":"Point"},"properties":{"osm_id":"1753988901","tag":{"amenity":"recycling","check_date":"2014-11-16","opening_hours":"Mo-Sa 07:00-12:00,14:00-20:00; PH off","operator":"Stadt Augsburg (AWS)","recycling:small_appliances":"yes","recycling_type":"container"}},"type":"Feature"},
	{"geometry":{"coordinates":[10.867527,48.371574],"type":"Point"},"properties":{"osm_id":"1755243679","tag":{"amenity":"recycling","operator":"Aktion Hoffnung","recycling:clothes":"yes","recycling:shoes":"yes","recycling_type":"container"}},"type":"Feature"},
	{"geometry":{"coordinates":[10.863367,48.360883],"type":"Point"},"properties":{"osm_id":"1755793343","tag":{"amenity":"recycling","recycling:clothes":"yes","recycling:shoes":"yes","recycling_type":"container"}},"type":"Feature"},
	{"geometry":{"coordinates":[10.894157,48.344185],"type":"Point"},"properties":{"osm_id":"1773521741","tag":{"amenity":"recycling","opening_hours":"Mo-Sa 07:00-12:00,14:00-20:00; PH off","operator":"Stadt Augsburg (AWS)","recycling:small_appliances":"yes","recycling_type":"container"}},"type":"Feature"},
	{"geometry":{"coordinates":[10.867778,48.344374],"type":"Point"},"properties":{"osm_id":"1773521742","tag":{"amenity":"recycling","opening_hours":"Mo-Sa 07:00-12:00,14:00-20:00; PH off","operator":"Stadt Augsburg (AWS)","recycling:small_appliances":"yes","recycling_type":"container"}},"type":"Feature"},
	{"geometry":{"coordinates":[10.867788,48.34438],"type":"Point"},"properties":{"osm_id":"1773521743","tag":{"amenity":"recycling","operator":"REMONDIS","recycling:glass":"yes","recycling_type":"container"}},"type":"Feature"},
	{"geometry":{"coordinates":[10.86846,48.355778],"type":"Point"},"properties":{"osm_id":"1773521744","tag":{"amenity":"recycling","opening_hours":"Mo-Sa 07:00-12:00,14:00-20:00; PH off","operator":"Stadt Augsburg (AWS)","recycling:small_appliances":"yes","recycling_type":"container"}},"type":"Feature"},
	{"geometry":{"coordinates":[10.86162,48.357591],"type":"Point"},"properties":{"osm_id":"1773521745","tag":{"amenity":"recycling","opening_hours":"Mo-Sa 07:00-12:00,14:00-20:00; PH off","operator":"Stadt Augsburg (AWS)","recycling:small_appliances":"yes","recycling_type":"container"}},"type":"Feature"},
	{"geometry":{"coordinates":[10.876025,48.36999],"type":"Point"},"properties":{"osm_id":"1773521747","tag":{"amenity":"recycling","opening_hours":"Mo-Sa 07:00-12:00,14:00-20:00; PH off","operator":"Stadt Augsburg (AWS)","recycling:small_appliances":"yes","recycling_type":"container"}},"type":"Feature"},
	{"geometry":{"coordinates":[10.888788,48.371245],"type":"Point"},"properties":{"osm_id":"1773521748","tag":{"amenity":"recycling","opening_hours":"Mo-Sa 07:00-12:00,14:00-20:00; PH off","operator":"Stadt Augsburg (AWS)","recycling:small_appliances":"yes","recycling_type":"container"}},"type":"Feature"},
	{"geometry":{"coordinates":[10.861582,48.394546],"type":"Point"},"properties":{"osm_id":"1805734033","tag":{"amenity":"recycling","operator":"REMONDIS","recycling:glass":"yes","recycling_type":"container"}},"type":"Feature"},
	{"geometry":{"coordinates":[10.857422,48.379829],"type":"Point"},"properties":{"osm_id":"1805760345","tag":{"amenity":"recycling","check_date":"2018-05-26","opening_hours":"Mo-Sa 07:00-12:00,14:00-20:00; PH off","operator":"Stadt Augsburg (AWS)","recycling:small_appliances":"yes","recycling_type":"container"}},"type":"Feature"},
	{"geometry":{"coordinates":[10.853895,48.382363],"type":"Point"},"properties":{"osm_id":"1823777984","tag":{"amenity":"recycling","operator":"Aktion Hoffnung","recycling:clothes":"yes","recycling:shoes":"yes","recycling_type":"container"}},"type":"Feature"},
	{"geometry":{"coordinates":[10.853926,48.382379],"type":"Point"},"properties":{"osm_id":"1823777988","tag":{"amenity":"recycling","opening_hours":"Mo-Sa 07:00-12:00,14:00-20:00; PH off","operator":"Stadt Augsburg (AWS)","recycling:small_appliances":"yes","recycling_type":"container"}},"type":"Feature"},
	{"geometry":{"coordinates":[10.878231,48.391963],"type":"Point"},"properties":{"osm_id":"1823778001","tag":{"amenity":"recycling","check_date":"2014-11-16","operator":"Aktion Hoffnung","recycling:clothes":"yes","recycling:shoes":"yes","recycling_type":"container"}},"type":"Feature"},
	{"geometry":{"coordinates":[10.878304,48.39201],"type":"Point"},"properties":{"osm_id":"1823778022","tag":{"amenity":"recycling","check_date":"2014-11-16","operator":"REMONDIS","recycling:glass":"yes","recycling_type":"container"}},"type":"Feature"},
	{"geometry":{"coordinates":[10.866824,48.392798],"type":"Point"},"properties":{"osm_id":"1823778026","tag":{"amenity":"recycling","opening_hours":"Mo-Sa 07:00-12:00,14:00-20:00; PH off","operator":"Stadt Augsburg (AWS)","recycling:small_appliances":"yes","recycling_type":"container"}},"type":"Feature"},
	{"geometry":{"coordinates":[10.847548,48.395162],"type":"Point"},"properties":{"osm_id":"1823778030","tag":{"amenity":"recycling","opening_hours":"Mo-Sa 07:00-12:00,14:00-20:00; PH off","operator":"Stadt Augsburg (AWS)","recycling:small_appliances":"yes","recycling_type":"container"}},"type":"Feature"},
	{"geometry":{"coordinates":[10.881738,48.356732],"type":"Point"},"properties":{"osm_id":"1823829819","tag":{"amenity":"recycling","opening_hours":"Mo-Sa 07:00-12:00,14:00-20:00; PH off","operator":"Stadt Augsburg (AWS)","recycling:small_appliances":"yes","recycling_type":"container"}},"type":"Feature"},
	{"geometry":{"coordinates":[10.893946,48.362747],"type":"Point"},"properties":{"osm_id":"2298057777","tag":{"amenity":"recycling","recycling:glass":"yes","recycling_type":"container"}},"type":"Feature"},
	{"geometry":{"coordinates":[10.860658,48.396049],"type":"Point"},"properties":{"osm_id":"2364986650","tag":{"amenity":"recycling","recycling:clothes":"yes","recycling:shoes":"yes","recycling_type":"container"}},"type":"Feature"},
	{"geometry":{"coordinates":[10.861541,48.394531],"type":"Point"},"properties":{"osm_id":"2365415334","tag":{"amenity":"recycling","opening_hours":"Mo-Sa 07:00-12:00,14:00-20:00; PH off","operator":"Stadt Augsburg (AWS)","recycling:small_appliances":"yes","recycling_type":"container"}},"type":"Feature"},
	{"geometry":{"coordinates":[10.859971,48.391208],"type":"Point"},"properties":{"osm_id":"2368120019","tag":{"amenity":"recycling","operator":"Aktion Hoffnung","recycling:clothes":"yes","recycling:shoes":"yes","recycling_type":"container"}},"type":"Feature"},
	{"geometry":{"coordinates":[10.873708,48.361254],"type":"Point"},"properties":{"osm_id":"2387540609","tag":{"amenity":"recycling","operator":"REMONDIS","recycling:glass":"no","recycling:glass_bottles":"yes","recycling_type":"container"}},"type":"Feature"},
	{"geometry":{"coordinates":[10.873671,48.361245],"type":"Point"},"properties":{"osm_id":"2387540610","tag":{"amenity":"recycling","operator":"Aktion Hoffnung","recycling:clothes":"yes","recycling:shoes":"yes","recycling_type":"container"}},"type":"Feature"},
	{"geometry":{"coordinates":[10.873743,48.361266],"type":"Point"},"properties":{"osm_id":"2387540611","tag":{"amenity":"recycling","opening_hours":"Mo-Sa 07:00-12:00,14:00-20:00; PH off","operator":"Stadt Augsburg (AWS)","recycling:cans":"yes","recycling:cds":"yes","recycling:scrap_metal":"yes","recycling:small_electrical_appliances":"yes","recycling_type":"container"}},"type":"Feature"},
	{"geometry":{"coordinates":[10.858261,48.381669],"type":"Point"},"properties":{"osm_id":"2469704968","tag":{"amenity":"recycling","check_date":"2016-07-16","opening_hours":"Mo-Sa 07:00-12:00,14:00-20:00; PH off","operator":"Stadt Augsburg (AWS)","recycling:small_appliances":"yes","recycling_type":"container"}},"type":"Feature"},
	{"geometry":{"coordinates":[10.89382,48.366994],"type":"Point"},"properties":{"osm_id":"2500265338","tag":{"amenity":"waste_basket"}},"type":"Feature"},
	{"geometry":{"coordinates":[10.875788,48.392956],"type":"Point"},"properties":{"osm_id":"2510794925","tag":{"amenity":"waste_basket"}},"type":"Feature"},
	{"geometry":{"coordinates":[10.880482,48.39814],"type":"Point"},"properties":{"osm_id":"2510794987","tag":{"amenity":"waste_basket"}},"type":"Feature"},
	{"geometry":{"coordinates":[10.876019,48.370028],"type":"Point"},"properties":{"osm_id":"2518240788","tag":{"amenity":"recycling","operator":"REMONDIS","recycling:glass":"yes","recycling_type":"container"}},"type":"Feature"},
	{"geometry":{"coordinates":[10.860026,48.372455],"type":"Point"},"properties":{"osm_id":"2598736948","tag":{"amenity":"recycling","check_date":"2014-11-16","opening_hours":"Mo-Sa 07:00-12:00,14:00-20:00; PH off","operator":"Stadt Augsburg (AWS)","recycling:small_appliances":"yes","recycling_type":"container"}},"type":"Feature"},
	{"geometry":{"coordinates":[10.873409,48.380752],"type":"Point"},"properties":{"osm_id":"2599038585","tag":{"amenity":"recycling","check_date":"2014-11-16","opening_hours":"Mo-Sa 07:00-12:00,14:00-20:00; PH off","operator":"Stadt Augsburg (AWS)","recycling:small_appliances":"yes","recycling_type":"container"}},"type":"Feature"},
	{"geometry":{"coordinates":[10.873387,48.380752],"type":"Point"},"properties":{"osm_id":"2599331428","tag":{"amenity":"recycling","check_date":"2014-11-16","operator":"Aktion Hoffnung","recycling:clothes":"yes","recycling:shoes":"yes","recycling_type":"container"}},"type":"Feature"},
	{"geometry":{"coordinates":[10.858851,48.352796],"type":"Point"},"properties":{"osm_id":"2617219960","tag":{"amenity":"recycling","opening_hours":"Mo-Sa 07:00-12:00,14:00-20:00; PH off","operator":"Stadt Augsburg (AWS)","recycling:small_appliances":"yes","recycling_type":"container"}},"type":"Feature"},
	{"geometry":{"coordinates":[10.869741,48.367701],"type":"Point"},"properties":{"osm_id":"2617219963","tag":{"amenity":"recycling","opening_hours":"Mo-Sa 07:00-12:00,14:00-20:00; PH off","operator":"Stadt Augsburg (AWS)","recycling:small_appliances":"yes","recycling_type":"container"}},"type":"Feature"},
	{"geometry":{"coordinates":[10.869657,48.372586],"type":"Point"},"properties":{"osm_id":"2617219968","tag":{"amenity":"recycling","operator":"Aktion Hoffnung","recycling:clothes":"yes","recycling:shoes":"yes","recycling_type":"container"}},"type":"Feature"},
	{"geometry":{"coordinates":[10.86963,48.372589],"type":"Point"},"properties":{"osm_id":"2617219969","tag":{"amenity":"recycling","opening_hours":"Mo-Sa 07:00-12:00,14:00-20:00; PH off","operator":"Stadt Augsburg (AWS)","recycling:small_appliances":"yes","recycling_type":"container"}},"type":"Feature"},
	{"geometry":{"coordinates":[10.889623,48.359712],"type":"Point"},"properties":{"osm_id":"2617258455","tag":{"amenity":"recycling","check_date":"2015-08-22","opening_hours":"Mo-Sa 07:00-12:00,14:00-20:00; PH off","operator":"Stadt Augsburg (AWS)","recycling:small_appliances":"yes","recycling_type":"container"}},"type":"Feature"},
	{"geometry":{"coordinates":[10.889599,48.359754],"type":"Point"},"properties":{"osm_id":"2617258457","tag":{"amenity":"recycling","check_date":"2015-08-22","operator":"Aktion Hoffnung","recycling:clothes":"yes","recycling:shoes":"yes","recycling_type":"container"}},"type":"Feature"},
	{"geometry":{"coordinates":[10.838421,48.366257],"type":"Point"},"properties":{"osm_id":"2628965810","tag":{"amenity":"recycling","recycling:cans":"yes","recycling:glass":"yes","recycling_type":"container"}},"type":"Feature"},
	{"geometry":{"coordinates":[10.867127,48.347686],"type":"Point"},"properties":{"osm_id":"2660984174","tag":{"amenity":"recycling","operator":"Collecting People Textil","recycling:clothes":"yes","recycling:shoes":"yes","recycling_type":"container"}},"type":"Feature"},
	{"geometry":{"coordinates":[10.881522,48.347745],"type":"Point"},"properties":{"osm_id":"2660984175","tag":{"amenity":"recycling","opening_hours":"Mo-Sa 07:00-12:00,14:00-20:00; PH off","operator":"Stadt Augsburg (AWS)","recycling:small_appliances":"yes","recycling_type":"container"}},"type":"Feature"},
	{"geometry":{"coordinates":[10.881548,48.347787],"type":"Point"},"properties":{"osm_id":"2660984176","tag":{"amenity":"recycling","operator":"Aktion Hoffnung","recycling:clothes":"yes","recycling:shoes":"yes","recycling_type":"container"}},"type":"Feature"},
	{"geometry":{"coordinates":[10.889752,48.35398],"type":"Point"},"properties":{"osm_id":"2660984232","tag":{"amenity":"recycling","opening_hours":"Mo-Sa 07:00-12:00,14:00-20:00; PH off","operator":"Stadt Augsburg (AWS)","recycling:small_appliances":"yes","recycling_type":"container"}},"type":"Feature"},
	{"geometry":{"coordinates":[10.887385,48.380205],"type":"Point"},"properties":{"osm_id":"2661353651","tag":{"amenity":"recycling","operator":"Remondis","recycling:glass":"yes","recycling_type":"container"}},"type":"Feature"},
	{"geometry":{"coordinates":[10.894715,48.366157],"type":"Point"},"properties":{"osm_id":"2684826872","tag":{"amenity":"waste_basket"}},"type":"Feature"},
	{"geometry":{"coordinates":[10.895166,48.367375],"type":"Point"},"properties":{"osm_id":"2684826873","tag":{"amenity":"waste_basket"}},"type":"Feature"},
	{"geometry":{"coordinates":[10.896599,48.367372],"type":"Point"},"properties":{"osm_id":"2684826874","tag":{"amenity":"waste_basket"}},"type":"Feature"},
	{"geometry":{"coordinates":[10.896119,48.367472],"type":"Point"},"properties":{"osm_id":"2684826875","tag":{"amenity":"waste_basket"}},"type":"Feature"},
	{"geometry":{"coordinates":[10.896031,48.3675],"type":"Point"},"properties":{"osm_id":"2684826876","tag":{"amenity":"waste_basket"}},"type":"Feature"},
	{"geometry":{"coordinates":[10.89549,48.367546],"type":"Point"},"properties":{"osm_id":"2684826878","tag":{"amenity":"waste_basket"}},"type":"Feature"},
	{"geometry":{"coordinates":[10.895672,48.367657],"type":"Point"},"properties":{"osm_id":"2684826880","tag":{"amenity":"waste_basket"}},"type":"Feature"},
	{"geometry":{"coordinates":[10.896821,48.367725],"type":"Point"},"properties":{"osm_id":"2684826882","tag":{"amenity":"waste_basket"}},"type":"Feature"},
	{"geometry":{"coordinates":[10.896943,48.367895],"type":"Point"},"properties":{"osm_id":"2684826883","tag":{"amenity":"waste_basket"}},"type":"Feature"},
	{"geometry":{"coordinates":[10.897111,48.36828],"type":"Point"},"properties":{"osm_id":"2684826884","tag":{"amenity":"waste_basket"}},"type":"Feature"},
	{"geometry":{"coordinates":[10.897208,48.36886],"type":"Point"},"properties":{"osm_id":"2684826886","tag":{"amenity":"waste_basket"}},"type":"Feature"},
	{"geometry":{"coordinates":[10.856933,48.354059],"type":"Point"},"properties":{"osm_id":"2773189366","tag":{"amenity":"waste_basket"}},"type":"Feature"},
	{"geometry":{"coordinates":[10.857089,48.355306],"type":"Point"},"properties":{"osm_id":"2777291271","tag":{"amenity":"waste_basket"}},"type":"Feature"},
	{"geometry":{"coordinates":[10.857128,48.356912],"type":"Point"},"properties":{"osm_id":"2777291294","tag":{"amenity":"waste_basket"}},"type":"Feature"},
	{"geometry":{"coordinates":[10.857232,48.359604],"type":"Point"},"properties":{"osm_id":"2777291295","tag":{"amenity":"waste_basket"}},"type":"Feature"},
	{"geometry":{"coordinates":[10.894143,48.344127],"type":"Point"},"properties":{"osm_id":"2849840168","tag":{"amenity":"recycling","operator":"Aktion Hoffnung","recycling:clothes":"yes","recycling:shoes":"yes","recycling_type":"container"}},"type":"Feature"},
	{"geometry":{"coordinates":[10.8524,48.372572],"type":"Point"},"properties":{"osm_id":"2850990955","tag":{"amenity":"recycling","opening_hours":"Mo-Sa 07:00-12:00,14:00-20:00; PH off","operator":"Stadt Augsburg (AWS)","recycling:small_appliances":"yes","recycling_type":"container"}},"type":"Feature"},
	{"geometry":{"coordinates":[10.867787,48.362576],"type":"Point"},"properties":{"osm_id":"3001339895","tag":{"amenity":"recycling","opening_hours":"Mo-Sa 07:00-12:00,14:00-20:00; PH off","operator":"Stadt Augsburg (AWS)","recycling:small_appliances":"yes","recycling_type":"container"}},"type":"Feature"},
	{"geometry":{"coordinates":[10.880646,48.376202],"type":"Point"},"properties":{"osm_id":"3009365208","tag":{"amenity":"recycling","opening_hours":"Mo-Sa 07:00-12:00,14:00-20:00; PH off","operator":"Stadt Augsburg (AWS)","recycling:small_appliances":"yes","recycling_type":"container","wheelchair":"yes"}},"type":"Feature"},
	{"geometry":{"coordinates":[10.867553,48.371578],"type":"Point"},"properties":{"osm_id":"3050756224","tag":{"amenity":"recycling","opening_hours":"Mo-Sa 07:00-12:00,14:00-20:00; PH off","operator":"Stadt Augsburg (AWS)","recycling:small_appliances":"yes","recycling_type":"container"}},"type":"Feature"},
	{"geometry":{"coordinates":[10.867577,48.371581],"type":"Point"},"properties":{"osm_id":"3050756225","tag":{"amenity":"recycling","operator":"REMONDIS","recycling:glass":"yes","recycling_type":"container"}},"type":"Feature"},
	{"geometry":{"coordinates":[10.846805,48.37941],"type":"Point"},"properties":{"osm_id":"3064640678","tag":{"amenity":"recycling","opening_hours":"Mo-Sa 07:00-12:00,14:00-20:00; PH off","operator":"Stadt Augsburg (AWS)","recycling:small_appliances":"yes","recycling_type":"container"}},"type":"Feature"},
	{"geometry":{"coordinates":[10.851507,48.384637],"type":"Point"},"properties":{"osm_id":"3064640708","tag":{"amenity":"recycling","opening_hours":"Mo-Sa 07:00-12:00,14:00-20:00; PH off","operator":"Stadt Augsburg (AWS)","recycling:small_appliances":"yes","recycling_type":"container"}},"type":"Feature"},
	{"geometry":{"coordinates":[10.85151,48.384647],"type":"Point"},"properties":{"osm_id":"3064640709","tag":{"amenity":"recycling","recycling:glass":"yes","recycling_type":"container"}},"type":"Feature"},
	{"geometry":{"coordinates":[10.889606,48.371356],"type":"Point"},"properties":{"osm_id":"3113619286","tag":{"amenity":"waste_basket"}},"type":"Feature"},
	{"geometry":{"coordinates":[10.883188,48.360206],"type":"Point"},"properties":{"osm_id":"3192953305","tag":{"amenity":"recycling","check_date":"2014-11-16","opening_hours":"Mo-Sa 07:00-12:00,14:00-20:00; PH off","operator":"Stadt Augsburg (AWS)","recycling:small_appliances":"yes","recycling_type":"container"}},"type":"Feature"},
	{"geometry":{"coordinates":[10.857573,48.375318],"type":"Point"},"properties":{"osm_id":"3192953311","tag":{"amenity":"recycling","check_date":"2014-11-16","operator":"Aktion Hoffnung","recycling:clothes":"yes","recycling:shoes":"yes","recycling_type":"container"}},"type":"Feature"},
	{"geometry":{"coordinates":[10.8624,48.379585],"type":"Point"},"properties":{"osm_id":"3192953313","tag":{"amenity":"recycling","check_date":"2014-11-16","operator":"REMONDIS","recycling:glass":"yes","recycling_type":"container"}},"type":"Feature"},
	{"geometry":{"coordinates":[10.864441,48.384464],"type":"Point"},"properties":{"osm_id":"3192953323","tag":{"amenity":"recycling","check_date":"2014-11-16","opening_hours":"Mo-Sa 07:00-12:00,14:00-20:00; PH off","operator":"Stadt Augsburg (AWS)","recycling:small_appliances":"yes","recycling_type":"container"}},"type":"Feature"},
	{"geometry":{"coordinates":[10.869067,48.3878],"type":"Point"},"properties":{"osm_id":"3192953324","tag":{"amenity":"recycling","check_date":"2014-11-16","note:de":"keine Kontaktangaben vorhanden, nicht Aktion Hoffnung","operator":"unknown","recycling:clothes":"yes","recycling:shoes":"yes","recycling_type":"container"}},"type":"Feature"},
	{"geometry":{"coordinates":[10.877818,48.389506],"type":"Point"},"properties":{"osm_id":"3192953325","tag":{"amenity":"recycling","operator":"REMONDIS","recycling:glass":"yes","recycling_type":"container"}},"type":"Feature"},
	{"geometry":{"coordinates":[10.896473,48.39759],"type":"Point"},"properties":{"osm_id":"3273540368","tag":{"amenity":"recycling","recycling:clothes":"yes","recycling_type":"container"}},"type":"Feature"},
	{"geometry":{"coordinates":[10.896463,48.397604],"type":"Point"},"properties":{"osm_id":"3273540369","tag":{"amenity":"recycling","opening_hours":"Mo-Sa 07:00-12:00,14:00-20:00; PH off","operator":"Stadt Augsburg (AWS)","recycling:small_appliances":"yes","recycling_type":"container"}},"type":"Feature"},
	{"geometry":{"coordinates":[10.874025,48.361452],"type":"Point"},"properties":{"osm_id":"3328561034","tag":{"amenity":"waste_basket"}},"type":"Feature"},
	{"geometry":{"coordinates":[10.874259,48.362677],"type":"Point"},"properties":{"osm_id":"3328562228","tag":{"amenity":"waste_basket"}},"type":"Feature"},
	{"geometry":{"coordinates":[10.875068,48.363971],"type":"Point"},"properties":{"osm_id":"3328562576","tag":{"amenity":"waste_basket"}},"type":"Feature"},
	{"geometry":{"coordinates":[10.874893,48.364064],"type":"Point"},"properties":{"osm_id":"3328562577","tag":{"amenity":"waste_basket"}},"type":"Feature"},
	{"geometry":{"coordinates":[10.879563,48.365022],"type":"Point"},"properties":{"osm_id":"3328597507","tag":{"amenity":"waste_basket"}},"type":"Feature"},
	{"geometry":{"coordinates":[10.832232,48.372556],"type":"Point"},"properties":{"osm_id":"3568854906","tag":{"amenity":"waste_basket"}},"type":"Feature"},
	{"geometry":{"coordinates":[10.830038,48.383482],"type":"Point"},"properties":{"osm_id":"3577286412","tag":{"amenity":"waste_basket","waste":"dog_excrement"}},"type":"Feature"},
	{"geometry":{"coordinates":[10.85963,48.363233],"type":"Point"},"properties":{"osm_id":"3606143995","tag":{"amenity":"waste_basket"}},"type":"Feature"},
	{"geometry":{"coordinates":[10.859819,48.365039],"type":"Point"},"properties":{"osm_id":"3606143996","tag":{"amenity":"waste_basket"}},"type":"Feature"},
	{"geometry":{"coordinates":[10.857585,48.360302],"type":"Point"},"properties":{"osm_id":"3609527253","tag":{"amenity":"waste_basket"}},"type":"Feature"},
	{"geometry":{"coordinates":[10.859742,48.364034],"type":"Point"},"properties":{"osm_id":"3609527272","tag":{"amenity":"waste_basket"}},"type":"Feature"},
	{"geometry":{"coordinates":[10.860466,48.364129],"type":"Point"},"properties":{"osm_id":"3609527273","tag":{"amenity":"waste_basket"}},"type":"Feature"},
	{"geometry":{"coordinates":[10.885834,48.36473],"type":"Point"},"properties":{"osm_id":"3637355092","tag":{"amenity":"waste_basket","level":"0"}},"type":"Feature"},
	{"geometry":{"coordinates":[10.886019,48.364805],"type":"Point"},"properties":{"osm_id":"3637355593","tag":{"amenity":"waste_basket","level":"0"}},"type":"Feature"},
	{"geometry":{"coordinates":[10.886219,48.364883],"type":"Point"},"properties":{"osm_id":"3637355594","tag":{"amenity":"waste_basket","level":"0"}},"type":"Feature"},
	{"geometry":{"coordinates":[10.886401,48.364952],"type":"Point"},"properties":{"osm_id":"3637355595","tag":{"amenity":"waste_basket","level":"0"}},"type":"Feature"},
	{"geometry":{"coordinates":[10.885516,48.365093],"type":"Point"},"properties":{"osm_id":"3637355596","tag":{"amenity":"waste_basket","level":"0"}},"type":"Feature"},
	{"geometry":{"coordinates":[10.885731,48.365132],"type":"Point"},"properties":{"osm_id":"3637355597","tag":{"amenity":"waste_basket","level":"0"}},"type":"Feature"},
	{"geometry":{"coordinates":[10.885899,48.365244],"type":"Point"},"properties":{"osm_id":"3637355598","tag":{"amenity":"waste_basket","level":"0"}},"type":"Feature"},
	{"geometry":{"coordinates":[10.88536,48.365269],"type":"Point"},"properties":{"osm_id":"3637355599","tag":{"amenity":"waste_basket","level":"0"}},"type":"Feature"},
	{"geometry":{"coordinates":[10.886082,48.365318],"type":"Point"},"properties":{"osm_id":"3637355600","tag":{"amenity":"waste_basket","level":"0"}},"type":"Feature"},
	{"geometry":{"coordinates":[10.885546,48.365348],"type":"Point"},"properties":{"osm_id":"3637355601","tag":{"amenity":"waste_basket","level":"0"}},"type":"Feature"},
	{"geometry":{"coordinates":[10.88574,48.365421],"type":"Point"},"properties":{"osm_id":"3637355602","tag":{"amenity":"waste_basket","level":"0"}},"type":"Feature"},
	{"geometry":{"coordinates":[10.886255,48.365437],"type":"Point"},"properties":{"osm_id":"3637355603","tag":{"amenity":"waste_basket"}},"type":"Feature"},
	{"geometry":{"coordinates":[10.885925,48.365495],"type":"Point"},"properties":{"osm_id":"3637355604","tag":{"amenity":"waste_basket","level":"0"}},"type":"Feature"},
	{"geometry":{"coordinates":[10.8861,48.365561],"type":"Point"},"properties":{"osm_id":"3637355606","tag":{"amenity":"waste_basket"}},"type":"Feature"},
	{"geometry":{"coordinates":[10.87743,48.348834],"type":"Point"},"properties":{"osm_id":"3710213253","tag":{"amenity":"recycling","recycling:clothes":"yes","recycling:shoes":"yes","recycling_type":"container"}},"type":"Feature"},
	{"geometry":{"coordinates":[10.888267,48.356229],"type":"Point"},"properties":{"osm_id":"3710213257","tag":{"amenity":"recycling","operator":"Remondis","recycling:glass":"yes","recycling_type":"container"}},"type":"Feature"},
	{"geometry":{"coordinates":[10.888237,48.356241],"type":"Point"},"properties":{"osm_id":"3710213258","tag":{"amenity":"recycling","operator":"Aktion Hoffnung","recycling:clothes":"yes","recycling:shoes":"yes","recycling_type":"container"}},"type":"Feature"},
	{"geometry":{"coordinates":[10.881927,48.377137],"type":"Point"},"properties":{"osm_id":"3903599259","tag":{"amenity":"waste_disposal"}},"type":"Feature"},
	{"geometry":{"coordinates":[10.88286,48.377144],"type":"Point"},"properties":{"osm_id":"3903599260","tag":{"amenity":"waste_disposal"}},"type":"Feature"},
	{"geometry":{"coordinates":[10.87167,48.356899],"type":"Point"},"properties":{"osm_id":"3930271421","tag":{"amenity":"recycling","operator":"REMONDIS","recycling:cans":"no","recycling:clothes":"no","recycling:glass":"yes","recycling:glass_bottles":"yes","recycling:paper":"no","recycling:plastic":"no","recycling_type":"container"}},"type":"Feature"},
	{"geometry":{"coordinates":[10.874049,48.342735],"type":"Point"},"properties":{"osm_id":"4056433434","tag":{"amenity":"recycling","check_date":"2016-03-12","opening_hours":"Mo-Sa 07:00-12:00,14:00-20:00; PH off","operator":"Stadt Augsburg (AWS)","recycling:small_appliances":"yes","recycling_type":"container"}},"type":"Feature"},
	{"geometry":{"coordinates":[10.866224,48.341778],"type":"Point"},"properties":{"osm_id":"4104262677","tag":{"amenity":"recycling","operator":"BRK","recycling:clothes":"yes","recycling:shoes":"yes","recycling_type":"container"}},"type":"Feature"},
	{"geometry":{"coordinates":[10.874049,48.363204],"type":"Point"},"properties":{"osm_id":"4156279494","tag":{"amenity":"waste_basket"}},"type":"Feature"},
	{"geometry":{"coordinates":[10.860876,48.366182],"type":"Point"},"properties":{"osm_id":"4227086592","tag":{"amenity":"waste_basket"}},"type":"Feature"},
	{"geometry":{"coordinates":[10.860701,48.366207],"type":"Point"},"properties":{"osm_id":"4227086593","tag":{"amenity":"waste_basket"}},"type":"Feature"},
	{"geometry":{"coordinates":[10.895096,48.371963],"type":"Point"},"properties":{"osm_id":"4233681698","tag":{"amenity":"waste_basket"}},"type":"Feature"},
	{"geometry":{"coordinates":[10.886222,48.347381],"type":"Point"},"properties":{"osm_id":"4265593420","tag":{"amenity":"recycling","operator":"Aktion Hoffnung","recycling:clothes":"yes","recycling:shoes":"yes","recycling_type":"container"}},"type":"Feature"},
	{"geometry":{"coordinates":[10.886222,48.34739],"type":"Point"},"properties":{"osm_id":"4265593421","tag":{"amenity":"recycling","opening_hours":"Mo-Sa 07:00-12:00,14:00-20:00; PH off","operator":"Stadt Augsburg (AWS)","recycling:small_appliances":"yes","recycling_type":"container"}},"type":"Feature"},
	{"geometry":{"coordinates":[10.871811,48.356894],"type":"Point"},"properties":{"osm_id":"4310019273","tag":{"amenity":"recycling","operator":"Aktion Hoffnung","recycling:clothes":"yes","recycling:shoes":"yes","recycling_type":"container"}},"type":"Feature"},
	{"geometry":{"coordinates":[10.886097,48.391619],"type":"Point"},"properties":{"osm_id":"4379881237","tag":{"amenity":"recycling","recycling:glass":"yes","recycling_type":"container"}},"type":"Feature"},
	{"geometry":{"coordinates":[10.886373,48.39428],"type":"Point"},"properties":{"osm_id":"4379888557","tag":{"amenity":"recycling","recycling:glass":"yes","recycling_type":"container"}},"type":"Feature"},
	{"geometry":{"coordinates":[10.886374,48.394305],"type":"Point"},"properties":{"osm_id":"4379888558","tag":{"amenity":"recycling","opening_hours":"Mo-Sa 07:00-12:00,14:00-20:00; PH off","operator":"Stadt Augsburg (AWS)","recycling:electrical_appliances":"yes","recycling:small_appliances":"yes","recycling_type":"container"}},"type":"Feature"},
	{"geometry":{"coordinates":[10.878221,48.364085],"type":"Point"},"properties":{"osm_id":"4392267791","tag":{"amenity":"waste_basket"}},"type":"Feature"},
	{"geometry":{"coordinates":[10.891788,48.360055],"type":"Point"},"properties":{"osm_id":"4462285616","tag":{"amenity":"recycling","check_date":"2016-10-22","operator":"???","recycling:glass":"yes","recycling_type":"container"}},"type":"Feature"},
	{"geometry":{"coordinates":[10.858874,48.364929],"type":"Point"},"properties":{"osm_id":"4501128662","tag":{"amenity":"recycling","mapillary":"sSRQyKRDrBvLPI5QKTTxtw","opening_hours":"Mo-Sa 07:00-12:00,14:00-20:00; PH off","operator":"Gigler","recycling:glass":"no","recycling:glass_bottles":"yes","recycling:small_appliances":"yes","recycling_type":"container","survey:date":"2019-08-29"}},"type":"Feature"},
	{"geometry":{"coordinates":[10.858873,48.364948],"type":"Point"},"properties":{"osm_id":"4501128663","tag":{"amenity":"recycling","opening_hours":"Mo-Sa 07:00-12:00,14:00-20:00; PH off","operator":"Stadt Augsburg (AWS)","recycling:small_appliances":"yes","recycling_type":"container"}},"type":"Feature"},
	{"geometry":{"coordinates":[10.872976,48.354097],"type":"Point"},"properties":{"osm_id":"4549927060","tag":{"amenity":"recycling","operator":"Aktion Hoffnung","recycling:clothes":"yes","recycling:shoes":"yes","recycling_type":"container"}},"type":"Feature"},
	{"geometry":{"coordinates":[10.872972,48.354108],"type":"Point"},"properties":{"osm_id":"4549927061","tag":{"amenity":"recycling","operator":"REMONDIS","recycling:glass":"yes","recycling:glass_bottles":"yes","recycling_type":"container"}},"type":"Feature"},
	{"geometry":{"coordinates":[10.872982,48.354087],"type":"Point"},"properties":{"osm_id":"4549927062","tag":{"amenity":"recycling","opening_hours":"Mo-Sa 07:00-12:00,14:00-20:00; PH off","operator":"Stadt Augsburg (AWS)","recycling:small_appliances":"yes","recycling_type":"container"}},"type":"Feature"},
	{"geometry":{"coordinates":[10.878715,48.365789],"type":"Point"},"properties":{"osm_id":"4549927065","tag":{"amenity":"waste_basket"}},"type":"Feature"},
	{"geometry":{"coordinates":[10.878183,48.366863],"type":"Point"},"properties":{"osm_id":"4549927067","tag":{"amenity":"waste_basket"}},"type":"Feature"},
	{"geometry":{"coordinates":[10.878026,48.367662],"type":"Point"},"properties":{"osm_id":"4549927068","tag":{"amenity":"waste_basket"}},"type":"Feature"},
	{"geometry":{"coordinates":[10.858379,48.361417],"type":"Point"},"properties":{"osm_id":"4689367609","tag":{"amenity":"waste_basket"}},"type":"Feature"},
	{"geometry":{"coordinates":[10.858848,48.357528],"type":"Point"},"properties":{"osm_id":"4690586257","tag":{"amenity":"waste_basket"}},"type":"Feature"},
	{"geometry":{"coordinates":[10.856146,48.358036],"type":"Point"},"properties":{"osm_id":"4690586258","tag":{"amenity":"waste_basket"}},"type":"Feature"},
	{"geometry":{"coordinates":[10.859001,48.361826],"type":"Point"},"properties":{"osm_id":"4690586259","tag":{"amenity":"waste_basket"}},"type":"Feature"},
	{"geometry":{"coordinates":[10.857708,48.358033],"type":"Point"},"properties":{"osm_id":"4690586261","tag":{"amenity":"waste_basket"}},"type":"Feature"},
	{"geometry":{"coordinates":[10.857273,48.358843],"type":"Point"},"properties":{"osm_id":"4690586262","tag":{"amenity":"waste_basket"}},"type":"Feature"},
	{"geometry":{"coordinates":[10.858297,48.357572],"type":"Point"},"properties":{"osm_id":"4690586263","tag":{"amenity":"waste_basket"}},"type":"Feature"},
	{"geometry":{"coordinates":[10.856956,48.358456],"type":"Point"},"properties":{"osm_id":"4690586264","tag":{"amenity":"waste_basket"}},"type":"Feature"},
	{"geometry":{"coordinates":[10.853812,48.360548],"type":"Point"},"properties":{"osm_id":"4710097204","tag":{"amenity":"waste_basket"}},"type":"Feature"},
	{"geometry":{"coordinates":[10.854938,48.356965],"type":"Point"},"properties":{"osm_id":"4710585178","tag":{"amenity":"waste_basket"}},"type":"Feature"},
	{"geometry":{"coordinates":[10.854741,48.357062],"type":"Point"},"properties":{"osm_id":"4710585181","tag":{"amenity":"waste_basket"}},"type":"Feature"},
	{"geometry":{"coordinates":[10.853884,48.359847],"type":"Point"},"properties":{"osm_id":"4710585182","tag":{"amenity":"waste_basket"}},"type":"Feature"},
	{"geometry":{"coordinates":[10.853604,48.359736],"type":"Point"},"properties":{"osm_id":"4710585186","tag":{"amenity":"waste_basket"}},"type":"Feature"},
	{"geometry":{"coordinates":[10.858826,48.362245],"type":"Point"},"properties":{"osm_id":"4712805852","tag":{"amenity":"waste_basket"}},"type":"Feature"},
	{"geometry":{"coordinates":[10.859304,48.36271],"type":"Point"},"properties":{"osm_id":"4712805853","tag":{"amenity":"waste_basket"}},"type":"Feature"},
	{"geometry":{"coordinates":[10.86217,48.362493],"type":"Point"},"properties":{"osm_id":"4714080893","tag":{"amenity":"waste_basket"}},"type":"Feature"},
	{"geometry":{"coordinates":[10.842735,48.357996],"type":"Point"},"properties":{"osm_id":"4716261192","tag":{"amenity":"recycling","operator":"Aktion Hoffnung","recycling:clothes":"yes","recycling_type":"container"}},"type":"Feature"},
	{"geometry":{"coordinates":[10.841283,48.35826],"type":"Point"},"properties":{"osm_id":"4716261194","tag":{"amenity":"waste_basket"}},"type":"Feature"},
	{"geometry":{"coordinates":[10.852469,48.357323],"type":"Point"},"properties":{"osm_id":"4716261197","tag":{"amenity":"waste_basket"}},"type":"Feature"},
	{"geometry":{"coordinates":[10.859554,48.363501],"type":"Point"},"properties":{"osm_id":"4721519752","tag":{"amenity":"waste_basket"}},"type":"Feature"},
	{"geometry":{"coordinates":[10.859864,48.362523],"type":"Point"},"properties":{"osm_id":"4722995521","tag":{"amenity":"waste_basket"}},"type":"Feature"},
	{"geometry":{"coordinates":[10.811626,48.357888],"type":"Point"},"properties":{"osm_id":"4740200479","tag":{"amenity":"waste_basket"}},"type":"Feature"},
	{"geometry":{"coordinates":[10.887425,48.380199],"type":"Point"},"properties":{"osm_id":"4743495561","tag":{"amenity":"recycling","opening_hours":"Mo-Sa 07:00-12:00,14:00-20:00; PH off","operator":"Stadt Augsburg (AWS)","recycling:small_appliances":"yes","recycling_type":"container"}},"type":"Feature"},
	{"geometry":{"coordinates":[10.887421,48.380558],"type":"Point"},"properties":{"osm_id":"4743495569","tag":{"amenity":"recycling","operator":"Aktion Hoffnung","recycling:clothes":"yes","recycling:shoes":"yes","recycling_type":"container"}},"type":"Feature"},
	{"geometry":{"coordinates":[10.880531,48.382581],"type":"Point"},"properties":{"osm_id":"4747352089","tag":{"amenity":"recycling","operator":"TexAID","recycling:clothes":"yes","recycling:shoes":"yes","recycling_type":"container"}},"type":"Feature"},
	{"geometry":{"coordinates":[10.854178,48.366451],"type":"Point"},"properties":{"osm_id":"4818577610","tag":{"amenity":"waste_basket"}},"type":"Feature"},
	{"geometry":{"coordinates":[10.854139,48.367709],"type":"Point"},"properties":{"osm_id":"4818577618","tag":{"amenity":"recycling","operator":"Aktion Hoffnung","recycling:clothes":"yes","recycling_type":"container"}},"type":"Feature"},
	{"geometry":{"coordinates":[10.854209,48.365406],"type":"Point"},"properties":{"osm_id":"4818577823","tag":{"amenity":"waste_basket"}},"type":"Feature"},
	{"geometry":{"coordinates":[10.865826,48.370577],"type":"Point"},"properties":{"osm_id":"4844262845","tag":{"amenity":"waste_basket"}},"type":"Feature"},
	{"geometry":{"coordinates":[10.864766,48.366767],"type":"Point"},"properties":{"osm_id":"4844444469","tag":{"amenity":"recycling","opening_hours":"Mo-Sa 07:00-12:00,14:00-20:00; PH off","operator":"Stadt Augsburg (AWS)","recycling:small_appliances":"yes","recycling_type":"container"}},"type":"Feature"},
	{"geometry":{"coordinates":[10.886636,48.364992],"type":"Point"},"properties":{"osm_id":"4916880548","tag":{"amenity":"waste_basket"}},"type":"Feature"},
	{"geometry":{"coordinates":[10.886946,48.364973],"type":"Point"},"properties":{"osm_id":"4932026476","tag":{"amenity":"waste_basket"}},"type":"Feature"},
	{"geometry":{"coordinates":[10.88699,48.365043],"type":"Point"},"properties":{"osm_id":"4932026487","tag":{"amenity":"waste_basket"}},"type":"Feature"},
	{"geometry":{"coordinates":[10.86588,48.344206],"type":"Point"},"properties":{"osm_id":"4966583657","tag":{"amenity":"waste_basket"}},"type":"Feature"},
	{"geometry":{"coordinates":[10.816182,48.393053],"type":"Point"},"properties":{"name":"Altpapier-Container","osm_id":"4974710971","tag":{"amenity":"recycling","recycling:paper":"yes","recycling_type":"container"}},"type":"Feature"},
	{"geometry":{"coordinates":[10.824627,48.393503],"type":"Point"},"properties":{"name":"Altglas-Sammelstelle","osm_id":"4974710972","tag":{"amenity":"recycling","recycling:cans":"yes","recycling:glass":"yes","recycling_type":"container"}},"type":"Feature"},
	{"geometry":{"coordinates":[10.81699,48.392981],"type":"Point"},"properties":{"osm_id":"4974710973","tag":{"amenity":"recycling","recycling:clothes":"yes","recycling_type":"container"}},"type":"Feature"},
	{"geometry":{"coordinates":[10.856535,48.356364],"type":"Point"},"properties":{"osm_id":"5027690654","tag":{"amenity":"waste_basket"}},"type":"Feature"},
	{"geometry":{"coordinates":[10.812673,48.362551],"type":"Point"},"properties":{"osm_id":"5069990744","tag":{"amenity":"recycling","recycling:cans":"no","recycling:clothes":"yes","recycling:glass":"yes","recycling:glass_bottles":"yes","recycling:paper":"no","recycling:plastic":"no","recycling_type":"container"}},"type":"Feature"},
	{"geometry":{"coordinates":[10.857077,48.356114],"type":"Point"},"properties":{"osm_id":"5070637798","tag":{"amenity":"waste_basket"}},"type":"Feature"},
	{"geometry":{"coordinates":[10.822085,48.366965],"type":"Point"},"properties":{"osm_id":"5091409434","tag":{"amenity":"waste_basket"}},"type":"Feature"},
	{"geometry":{"coordinates":[10.829028,48.363953],"type":"Point"},"properties":{"osm_id":"5091409436","tag":{"amenity":"waste_basket"}},"type":"Feature"},
	{"geometry":{"coordinates":[10.829239,48.363166],"type":"Point"},"properties":{"osm_id":"5091409438","tag":{"amenity":"waste_basket"}},"type":"Feature"},
	{"geometry":{"coordinates":[10.827114,48.366529],"type":"Point"},"properties":{"osm_id":"5091409442","tag":{"amenity":"waste_basket"}},"type":"Feature"},
	{"geometry":{"coordinates":[10.884085,48.360403],"type":"Point"},"properties":{"osm_id":"5101317753","tag":{"amenity":"waste_basket"}},"type":"Feature"},
	{"geometry":{"coordinates":[10.850715,48.363113],"type":"Point"},"properties":{"osm_id":"5141686839","tag":{"amenity":"waste_basket"}},"type":"Feature"},
	{"geometry":{"coordinates":[10.853908,48.353632],"type":"Point"},"properties":{"osm_id":"5156363079","tag":{"amenity":"waste_basket"}},"type":"Feature"},
	{"geometry":{"coordinates":[10.874017,48.361302],"type":"Point"},"properties":{"osm_id":"5190318376","tag":{"amenity":"waste_basket"}},"type":"Feature"},
	{"geometry":{"coordinates":[10.896596,48.368913],"type":"Point"},"properties":{"osm_id":"5218345407","tag":{"amenity":"waste_basket"}},"type":"Feature"},
	{"geometry":{"coordinates":[10.873046,48.36157],"type":"Point"},"properties":{"osm_id":"5261860716","tag":{"amenity":"waste_basket"}},"type":"Feature"},
	{"geometry":{"coordinates":[10.876023,48.359258],"type":"Point"},"properties":{"osm_id":"5327983267","tag":{"amenity":"waste_basket"}},"type":"Feature"},
	{"geometry":{"coordinates":[10.877775,48.361892],"type":"Point"},"properties":{"osm_id":"5327985529","tag":{"amenity":"waste_basket"}},"type":"Feature"},
	{"geometry":{"coordinates":[10.877928,48.36436],"type":"Point"},"properties":{"osm_id":"5336555617","tag":{"amenity":"waste_basket"}},"type":"Feature"},
	{"geometry":{"coordinates":[10.885934,48.365754],"type":"Point"},"properties":{"osm_id":"5336685221","tag":{"amenity":"waste_basket"}},"type":"Feature"},
	{"geometry":{"coordinates":[10.877925,48.363705],"type":"Point"},"properties":{"osm_id":"5344495775","tag":{"amenity":"waste_basket"}},"type":"Feature"},
	{"geometry":{"coordinates":[10.866686,48.3488],"type":"Point"},"properties":{"osm_id":"5379802126","tag":{"amenity":"waste_basket"}},"type":"Feature"},
	{"geometry":{"coordinates":[10.816686,48.371974],"type":"Point"},"properties":{"osm_id":"5396152927","tag":{"amenity":"waste_basket"}},"type":"Feature"},
	{"geometry":{"coordinates":[10.874224,48.347724],"type":"Point"},"properties":{"osm_id":"5407937497","tag":{"amenity":"waste_basket"}},"type":"Feature"},
	{"geometry":{"coordinates":[10.873381,48.346434],"type":"Point"},"properties":{"osm_id":"5407937498","tag":{"amenity":"waste_basket"}},"type":"Feature"},
	{"geometry":{"coordinates":[10.875884,48.357918],"type":"Point"},"properties":{"osm_id":"5412748996","tag":{"amenity":"waste_basket"}},"type":"Feature"},
	{"geometry":{"coordinates":[10.872622,48.354098],"type":"Point"},"properties":{"osm_id":"5412748998","tag":{"amenity":"waste_basket"}},"type":"Feature"},
	{"geometry":{"coordinates":[10.873135,48.356297],"type":"Point"},"properties":{"osm_id":"5412801452","tag":{"amenity":"waste_basket"}},"type":"Feature"},
	{"geometry":{"coordinates":[10.874877,48.357852],"type":"Point"},"properties":{"osm_id":"5412801454","tag":{"amenity":"waste_basket"}},"type":"Feature"},
	{"geometry":{"coordinates":[10.830186,48.372378],"type":"Point"},"properties":{"osm_id":"5425263970","tag":{"amenity":"waste_basket"}},"type":"Feature"},
	{"geometry":{"coordinates":[10.830367,48.37215],"type":"Point"},"properties":{"osm_id":"5425263971","tag":{"amenity":"waste_basket"}},"type":"Feature"},
	{"geometry":{"coordinates":[10.831102,48.37028],"type":"Point"},"properties":{"osm_id":"5425263972","tag":{"amenity":"waste_basket"}},"type":"Feature"},
	{"geometry":{"coordinates":[10.829702,48.372055],"type":"Point"},"properties":{"osm_id":"5425263974","tag":{"amenity":"waste_basket"}},"type":"Feature"},
	{"geometry":{"coordinates":[10.829527,48.372112],"type":"Point"},"properties":{"osm_id":"5425263975","tag":{"amenity":"waste_basket"}},"type":"Feature"},
	{"geometry":{"coordinates":[10.847246,48.375762],"type":"Point"},"properties":{"osm_id":"5443218598","tag":{"amenity":"waste_basket"}},"type":"Feature"},
	{"geometry":{"coordinates":[10.879682,48.363224],"type":"Point"},"properties":{"osm_id":"5562197821","tag":{"amenity":"waste_basket"}},"type":"Feature"},
	{"geometry":{"coordinates":[10.877063,48.360749],"type":"Point"},"properties":{"osm_id":"5562197823","tag":{"amenity":"waste_basket"}},"type":"Feature"},
	{"geometry":{"coordinates":[10.877524,48.361974],"type":"Point"},"properties":{"osm_id":"5562197824","tag":{"amenity":"waste_basket"}},"type":"Feature"},
	{"geometry":{"coordinates":[10.876741,48.360809],"type":"Point"},"properties":{"osm_id":"5562197924","tag":{"amenity":"waste_basket"}},"type":"Feature"},
	{"geometry":{"coordinates":[10.866455,48.342638],"type":"Point"},"properties":{"osm_id":"5588803616","tag":{"amenity":"waste_basket"}},"type":"Feature"},
	{"geometry":{"coordinates":[10.866847,48.342276],"type":"Point"},"properties":{"osm_id":"5588803620","tag":{"amenity":"waste_basket"}},"type":"Feature"},
	{"geometry":{"coordinates":[10.866142,48.342938],"type":"Point"},"properties":{"osm_id":"5588804224","tag":{"amenity":"waste_basket"}},"type":"Feature"},
	{"geometry":{"coordinates":[10.866533,48.342589],"type":"Point"},"properties":{"osm_id":"5588804229","tag":{"amenity":"waste_basket"}},"type":"Feature"},
	{"geometry":{"coordinates":[10.876756,48.346215],"type":"Point"},"properties":{"osm_id":"5597225922","tag":{"amenity":"waste_basket"}},"type":"Feature"},
	{"geometry":{"coordinates":[10.866163,48.376883],"type":"Point"},"properties":{"osm_id":"5617999012","tag":{"amenity":"waste_basket"}},"type":"Feature"},
	{"geometry":{"coordinates":[10.866612,48.379788],"type":"Point"},"properties":{"osm_id":"5617999015","tag":{"amenity":"waste_basket"}},"type":"Feature"},
	{"geometry":{"coordinates":[10.866743,48.377661],"type":"Point"},"properties":{"osm_id":"5617999724","tag":{"amenity":"waste_basket"}},"type":"Feature"},
	{"geometry":{"coordinates":[10.867051,48.380542],"type":"Point"},"properties":{"osm_id":"5617999726","tag":{"amenity":"waste_basket"}},"type":"Feature"},
	{"geometry":{"coordinates":[10.86602,48.376836],"type":"Point"},"properties":{"osm_id":"5617999731","tag":{"amenity":"waste_basket"}},"type":"Feature"},
	{"geometry":{"coordinates":[10.866787,48.380041],"type":"Point"},"properties":{"osm_id":"5617999746","tag":{"amenity":"waste_basket"}},"type":"Feature"},
	{"geometry":{"coordinates":[10.866211,48.379066],"type":"Point"},"properties":{"osm_id":"5617999747","tag":{"amenity":"waste_basket"}},"type":"Feature"},
	{"geometry":{"coordinates":[10.869838,48.345001],"type":"Point"},"properties":{"osm_id":"5625183745","tag":{"amenity":"recycling","recycling:clothes":"yes","recycling_type":"container"}},"type":"Feature"},
	{"geometry":{"coordinates":[10.868142,48.344749],"type":"Point"},"properties":{"osm_id":"5625183748","tag":{"amenity":"waste_basket"}},"type":"Feature"},
	{"geometry":{"coordinates":[10.87389,48.34273],"type":"Point"},"properties":{"osm_id":"5625183758","tag":{"amenity":"waste_basket"}},"type":"Feature"},
	{"geometry":{"coordinates":[10.811592,48.365958],"type":"Point"},"properties":{"osm_id":"5642182677","tag":{"amenity":"waste_basket"}},"type":"Feature"},
	{"geometry":{"coordinates":[10.811185,48.367218],"type":"Point"},"properties":{"osm_id":"5642182679","tag":{"amenity":"waste_basket"}},"type":"Feature"},
	{"geometry":{"coordinates":[10.857465,48.379817],"type":"Point"},"properties":{"osm_id":"5644346630","tag":{"amenity":"recycling","check_date":"2018-05-26","operator":"Aktion Hoffnung","recycling:clothes":"yes","recycling:shoes":"yes","recycling_type":"container"}},"type":"Feature"},
	{"geometry":{"coordinates":[10.86394,48.361569],"type":"Point"},"properties":{"osm_id":"5647048615","tag":{"amenity":"recycling","operator":"Aktion Hoffnung","recycling:clothes":"yes","recycling:shoes":"yes","recycling_type":"container"}},"type":"Feature"},
	{"geometry":{"coordinates":[10.871309,48.394642],"type":"Point"},"properties":{"osm_id":"5664527826","tag":{"amenity":"waste_basket"}},"type":"Feature"},
	{"geometry":{"coordinates":[10.850302,48.360293],"type":"Point"},"properties":{"osm_id":"5670107783","tag":{"amenity":"waste_basket"}},"type":"Feature"},
	{"geometry":{"coordinates":[10.84813,48.364586],"type":"Point"},"properties":{"osm_id":"5670107787","tag":{"amenity":"waste_basket"}},"type":"Feature"},
	{"geometry":{"coordinates":[10.84833,48.364582],"type":"Point"},"properties":{"osm_id":"5670107788","tag":{"amenity":"recycling","operator":"Aktion Hoffnung","recycling:clothes":"yes","recycling_type":"container"}},"type":"Feature"},
	{"geometry":{"coordinates":[10.84831,48.364606],"type":"Point"},"properties":{"osm_id":"5670107789","tag":{"amenity":"recycling","operator":"REMONDIS","recycling:cans":"yes","recycling:glass":"yes","recycling:glass_bottles":"yes","recycling_type":"container"}},"type":"Feature"},
	{"geometry":{"coordinates":[10.874256,48.349683],"type":"Point"},"properties":{"osm_id":"5673150525","tag":{"amenity":"recycling","operator":"Aktion Hoffnung","recycling:clothes":"yes","recycling_type":"container"}},"type":"Feature"},
	{"geometry":{"coordinates":[10.873543,48.353315],"type":"Point"},"properties":{"osm_id":"5673150527","tag":{"amenity":"waste_basket"}},"type":"Feature"},
	{"geometry":{"coordinates":[10.872929,48.345893],"type":"Point"},"properties":{"osm_id":"5676041978","tag":{"amenity":"waste_basket"}},"type":"Feature"},
	{"geometry":{"coordinates":[10.875439,48.345326],"type":"Point"},"properties":{"osm_id":"5676041979","tag":{"amenity":"waste_basket"}},"type":"Feature"},
	{"geometry":{"coordinates":[10.880611,48.390006],"type":"Point"},"properties":{"osm_id":"5679786436","tag":{"amenity":"recycling","operator":"Simaytex","recycling:clothes":"yes","recycling:shoes":"yes","recycling_type":"container"}},"type":"Feature"},
	{"geometry":{"coordinates":[10.829296,48.364337],"type":"Point"},"properties":{"osm_id":"5680141199","tag":{"amenity":"waste_basket"}},"type":"Feature"},
	{"geometry":{"coordinates":[10.829321,48.364249],"type":"Point"},"properties":{"osm_id":"5680141210","tag":{"amenity":"waste_basket"}},"type":"Feature"},
	{"geometry":{"coordinates":[10.84776,48.379273],"type":"Point"},"properties":{"osm_id":"5688514206","tag":{"amenity":"recycling","operator":"Aktion Hoffnung","recycling:clothes":"yes","recycling_type":"container"}},"type":"Feature"},
	{"geometry":{"coordinates":[10.842461,48.378014],"type":"Point"},"properties":{"osm_id":"5688514208","tag":{"amenity":"waste_basket"}},"type":"Feature"},
	{"geometry":{"coordinates":[10.885375,48.344323],"type":"Point"},"properties":{"osm_id":"5709317128","tag":{"amenity":"waste_basket"}},"type":"Feature"},
	{"geometry":{"coordinates":[10.873311,48.363118],"type":"Point"},"properties":{"osm_id":"5711755802","tag":{"amenity":"waste_basket"}},"type":"Feature"},
	{"geometry":{"coordinates":[10.873287,48.350437],"type":"Point"},"properties":{"osm_id":"5718476254","tag":{"amenity":"waste_basket"}},"type":"Feature"},
	{"geometry":{"coordinates":[10.815058,48.363479],"type":"Point"},"properties":{"osm_id":"5730386715","tag":{"amenity":"waste_basket"}},"type":"Feature"},
	{"geometry":{"coordinates":[10.889814,48.36747],"type":"Point"},"properties":{"osm_id":"5762083011","tag":{"amenity":"recycling","opening_hours":"Mo-Sa 07:00-12:00,14:00-20:00; PH off","operator":"Stadt Augsburg (AWS)","recycling:small_appliances":"yes","recycling_type":"container"}},"type":"Feature"},
	{"geometry":{"coordinates":[10.821084,48.383907],"type":"Point"},"properties":{"osm_id":"5851907007","tag":{"amenity":"waste_basket"}},"type":"Feature"},
	{"geometry":{"coordinates":[10.821482,48.384287],"type":"Point"},"properties":{"osm_id":"5851907014","tag":{"amenity":"waste_basket"}},"type":"Feature"},
	{"geometry":{"coordinates":[10.8206,48.384315],"type":"Point"},"properties":{"osm_id":"5851907033","tag":{"amenity":"waste_basket"}},"type":"Feature"},
	{"geometry":{"coordinates":[10.866921,48.343172],"type":"Point"},"properties":{"osm_id":"5964486274","tag":{"amenity":"waste_basket"}},"type":"Feature"},
	{"geometry":{"coordinates":[10.866579,48.343117],"type":"Point"},"properties":{"osm_id":"5964486275","tag":{"amenity":"waste_basket"}},"type":"Feature"},
	{"geometry":{"coordinates":[10.840038,48.373506],"type":"Point"},"properties":{"osm_id":"5971898842","tag":{"amenity":"waste_basket"}},"type":"Feature"},
	{"geometry":{"coordinates":[10.854563,48.345602],"type":"Point"},"properties":{"barrier":"gate","osm_id":"6052842451"},"type":"Feature"},
	{"geometry":{"coordinates":[10.886737,48.364832],"type":"Point"},"properties":{"osm_id":"6082870228","tag":{"amenity":"waste_basket","level":"0","smoking":"yes"}},"type":"Feature"},
	{"geometry":{"coordinates":[10.87903,48.351271],"type":"Point"},"properties":{"osm_id":"6124978332","tag":{"amenity":"recycling","check_date":"2018-12-08","operator":"Aktion Hoffnung","recycling:clothes":"yes","recycling:shoes":"yes","recycling_type":"container"}},"type":"Feature"},
	{"geometry":{"coordinates":[10.874489,48.348664],"type":"Point"},"properties":{"osm_id":"6124978339","tag":{"amenity":"recycling","check_date":"2018-12-08","operator":"Aktion Hoffnung","recycling:clothes":"yes","recycling:shoes":"yes","recycling_type":"container"}},"type":"Feature"},
	{"geometry":{"coordinates":[10.888791,48.377975],"type":"Point"},"properties":{"osm_id":"6126512116","tag":{"amenity":"recycling","recycling:clothes":"yes","recycling_type":"container"}},"type":"Feature"},
	{"geometry":{"coordinates":[10.888825,48.377977],"type":"Point"},"properties":{"osm_id":"6126512117","tag":{"amenity":"recycling","recycling:small_appliances":"yes","recycling_type":"container"}},"type":"Feature"},
	{"geometry":{"coordinates":[10.883905,48.377338],"type":"Point"},"properties":{"osm_id":"6151090733","tag":{"amenity":"waste_disposal"}},"type":"Feature"},
	{"geometry":{"coordinates":[10.883583,48.377355],"type":"Point"},"properties":{"osm_id":"6151090734","tag":{"amenity":"waste_disposal"}},"type":"Feature"},
	{"geometry":{"coordinates":[10.833473,48.3942],"type":"Point"},"properties":{"osm_id":"6171513049","tag":{"amenity":"waste_basket"}},"type":"Feature"},
	{"geometry":{"coordinates":[10.848064,48.361221],"type":"Point"},"properties":{"osm_id":"6174408791","tag":{"amenity":"recycling","operator":"Seidenberger","recycling:cans":"yes","recycling_type":"container"}},"type":"Feature"},
	{"geometry":{"coordinates":[10.84802,48.361192],"type":"Point"},"properties":{"osm_id":"6174408792","tag":{"amenity":"recycling","check_date":"2018-12-29","operator":"Simaytex, G\u00c3\u00bcnzburg","recycling:clothes":"yes","recycling:shoes":"yes","recycling_type":"container"}},"type":"Feature"},
	{"geometry":{"coordinates":[10.848132,48.361181],"type":"Point"},"properties":{"osm_id":"6174408793","tag":{"amenity":"recycling","check_date":"2018-12-29","operator":"Aktion Hoffnung","recycling:clothes":"yes","recycling:shoes":"yes","recycling_type":"container"}},"type":"Feature"},
	{"geometry":{"coordinates":[10.886985,48.375894],"type":"Point"},"properties":{"osm_id":"6175521257","tag":{"amenity":"recycling","recycling:clothes":"yes","recycling_type":"container"}},"type":"Feature"},
	{"geometry":{"coordinates":[10.886963,48.375901],"type":"Point"},"properties":{"osm_id":"6175521258","tag":{"amenity":"recycling","operator":"Remondis","recycling:glass":"yes","recycling_type":"container"}},"type":"Feature"},
	{"geometry":{"coordinates":[10.873558,48.361032],"type":"Point"},"properties":{"osm_id":"6297184171","tag":{"amenity":"waste_basket"}},"type":"Feature"},
	{"geometry":{"coordinates":[10.856869,48.364607],"type":"Point"},"properties":{"osm_id":"6382972580","tag":{"amenity":"recycling","contact:website":"https://abfallratgeber.augsburg.de","opening_hours":"Mo-Sa 07:00-12:00,14:00-20:00; PH off","operator":"Stadt Augsburg (AWS)","recycling:small_appliances":"yes","recycling_type":"container"}},"type":"Feature"},
	{"geometry":{"coordinates":[10.856783,48.364612],"type":"Point"},"properties":{"osm_id":"6382972581","tag":{"amenity":"recycling","contact:website":"https://abfallratgeber.augsburg.de","opening_hours":"Mo-Sa 07:00-12:00,14:00-20:00; PH off","operator":"Stadt Augsburg (AWS)","recycling:clothes":"yes","recycling:shoes":"yes","recycling_type":"container"}},"type":"Feature"},
	{"geometry":{"coordinates":[10.856702,48.364615],"type":"Point"},"properties":{"osm_id":"6382972582","tag":{"amenity":"recycling","operator":"REMONDIS","phone":"+49 821 490030","recycling:glass":"yes","recycling_type":"container"}},"type":"Feature"},
	{"geometry":{"coordinates":[10.898148,48.364253],"type":"Point"},"properties":{"osm_id":"6495424254","tag":{"amenity":"waste_disposal","operator":"Holbein Gymnasium","private":"yes"}},"type":"Feature"},
	{"geometry":{"coordinates":[10.897109,48.364707],"type":"Point"},"properties":{"osm_id":"6495439712","tag":{"amenity":"waste_disposal","operator":"Holbein Gymnasium","private":"yes"}},"type":"Feature"},
	{"geometry":{"coordinates":[10.87254,48.361844],"type":"Point"},"properties":{"osm_id":"6644700985","tag":{"amenity":"waste_basket"}},"type":"Feature"},
	{"geometry":{"coordinates":[10.84227,48.348226],"type":"Point"},"properties":{"osm_id":"6647198132","tag":{"amenity":"recycling","material":"glass","recycling_type":"container"}},"type":"Feature"},
	{"geometry":{"coordinates":[10.897005,48.368324],"type":"Point"},"properties":{"osm_id":"6854980865","tag":{"amenity":"waste_basket"}},"type":"Feature"},
	{"geometry":{"coordinates":[10.886692,48.34839],"type":"Point"},"properties":{"osm_id":"6945190130","tag":{"amenity":"recycling","recycling:glass_bottles":"yes","recycling_type":"container"}},"type":"Feature"},
	{"geometry":{"coordinates":[10.877168,48.370193],"type":"Point"},"properties":{"osm_id":"7021625750","tag":{"amenity":"waste_basket","backrest":"yes"}},"type":"Feature"},
	{"geometry":{"coordinates":[10.870825,48.354319],"type":"Point"},"properties":{"osm_id":"7036300415","tag":{"amenity":"waste_basket"}},"type":"Feature"},
	{"geometry":{"coordinates":[10.869114,48.353238],"type":"Point"},"properties":{"osm_id":"7036300416","tag":{"amenity":"waste_basket"}},"type":"Feature"},
	{"geometry":{"coordinates":[10.869138,48.353],"type":"Point"},"properties":{"osm_id":"7036300418","tag":{"amenity":"waste_basket"}},"type":"Feature"},
	{"geometry":{"coordinates":[10.871644,48.357922],"type":"Point"},"properties":{"osm_id":"7049117111","tag":{"amenity":"waste_basket"}},"type":"Feature"},
	{"geometry":{"coordinates":[10.871911,48.385981],"type":"Point"},"properties":{"osm_id":"7066292284","tag":{"amenity":"recycling","recycling:clothes":"yes","recycling:shoes":"yes","recycling_type":"container","survey:date":"2019-12-07"}},"type":"Feature"},
	{"geometry":{"coordinates":[10.873038,48.382365],"type":"Point"},"properties":{"osm_id":"7066368089","tag":{"amenity":"recycling","recycling:clothes":"yes","recycling:shoes":"yes","recycling_type":"container","survey:date":"2019-12-07"}},"type":"Feature"},
	{"geometry":{"coordinates":[10.879888,48.376631],"type":"Point"},"properties":{"osm_id":"7630004432","tag":{"amenity":"waste_basket","waste":"trash"}},"type":"Feature"},
	{"geometry":{"coordinates":[10.883583,48.374109],"type":"Point"},"properties":{"osm_id":"7630004436","tag":{"amenity":"waste_basket","waste":"trash"}},"type":"Feature"},
	{"geometry":{"coordinates":[10.879125,48.377007],"type":"Point"},"properties":{"osm_id":"7630004444","tag":{"amenity":"recycling","opening_hours":"24/7","recycling:clothes":"yes","recycling_type":"container","wheelchair":"yes"}},"type":"Feature"},
	{"geometry":{"coordinates":[10.879138,48.376903],"type":"Point"},"properties":{"osm_id":"7630019305","tag":{"amenity":"waste_basket"}},"type":"Feature"},
	{"geometry":{"coordinates":[10.879486,48.37685],"type":"Point"},"properties":{"osm_id":"7630034986","tag":{"amenity":"waste_basket"}},"type":"Feature"},
	{"geometry":{"coordinates":[10.897342,48.372116],"type":"Point"},"properties":{"osm_id":"7630040660","tag":{"amenity":"waste_basket"}},"type":"Feature"},
	{"geometry":{"coordinates":[10.869738,48.367685],"type":"Point"},"properties":{"osm_id":"7650124946","tag":{"amenity":"recycling","recycling:clothes":"yes","recycling_type":"container"}},"type":"Feature"},
	{"geometry":{"coordinates":[10.894462,48.370992],"type":"Point"},"properties":{"osm_id":"7661110858","tag":{"amenity":"waste_basket","waste":"trash"}},"type":"Feature"},
	{"geometry":{"coordinates":[10.894258,48.372056],"type":"Point"},"properties":{"osm_id":"7661110859","tag":{"amenity":"waste_basket","waste":"trash"}},"type":"Feature"},
	{"geometry":{"coordinates":[10.894614,48.373589],"type":"Point"},"properties":{"osm_id":"7661110860","tag":{"amenity":"waste_basket","waste":"trash"}},"type":"Feature"},
	{"geometry":{"coordinates":[10.895645,48.377898],"type":"Point"},"properties":{"osm_id":"7661110861","tag":{"amenity":"waste_basket","waste":"trash"}},"type":"Feature"},
	{"geometry":{"coordinates":[10.88059,48.357143],"type":"Point"},"properties":{"osm_id":"7705752846","tag":{"amenity":"waste_basket"}},"type":"Feature"},
	{"geometry":{"coordinates":[10.871311,48.362475],"type":"Point"},"properties":{"osm_id":"7777670616","tag":{"amenity":"recycling","recycling:clothes":"yes","recycling_type":"container"}},"type":"Feature"},
	{"geometry":{"coordinates":[10.872115,48.361295],"type":"Point"},"properties":{"osm_id":"7777670617","tag":{"amenity":"recycling","recycling:clothes":"yes","recycling_type":"container"}},"type":"Feature"},
	{"geometry":{"coordinates":[10.827434,48.398713],"type":"Point"},"properties":{"osm_id":"7932757132","tag":{"amenity":"waste_basket"}},"type":"Feature"},
	{"geometry":{"coordinates":[10.829449,48.397081],"type":"Point"},"properties":{"osm_id":"7932757135","tag":{"amenity":"waste_basket"}},"type":"Feature"},
	{"geometry":{"coordinates":[10.836173,48.391759],"type":"Point"},"properties":{"osm_id":"7932757171","tag":{"amenity":"waste_basket"}},"type":"Feature"},
	{"geometry":{"coordinates":[10.834418,48.393287],"type":"Point"},"properties":{"osm_id":"7934573500","tag":{"amenity":"waste_basket"}},"type":"Feature"}
]
}
