{
"type": "FeatureCollection",
"features": [
	{"geometry":{"coordinates":[10.857216,48.33635],"type":"Point"},"properties":{"osm_id":"281538626","tag":{"amenity":"recycling","location":"overground","recycling_type":"container"}},"type":"Feature"},
	{"geometry":{"coordinates":[10.839448,48.283324],"type":"Point"},"properties":{"name":"Wertstoffsammelstelle","osm_id":"283134040","tag":{"amenity":"recycling","opening_hours":"We 14:00-17:00; Sa 09:00-12:00","recycling_type":"centre"}},"type":"Feature"},
	{"geometry":{"coordinates":[10.865215,48.333273],"type":"Point"},"properties":{"osm_id":"286674972","tag":{"amenity":"recycling","operator":"REMONDIS","recycling:glass":"yes","recycling_type":"container"}},"type":"Feature"},
	{"geometry":{"coordinates":[10.876045,48.337541],"type":"Point"},"properties":{"osm_id":"288467930","tag":{"amenity":"recycling","operator":"REMONDIS","recycling:glass_bottles":"yes","recycling_type":"container"}},"type":"Feature"},
	{"geometry":{"coordinates":[10.868374,48.330686],"type":"Point"},"properties":{"osm_id":"292629903","tag":{"amenity":"recycling","location":"overground","recycling:clothes":"yes","recycling:glass_bottles":"yes","recycling:small_electrical_appliances":"yes","recycling_type":"container"}},"type":"Feature"},
	{"geometry":{"coordinates":[10.897846,48.317955],"type":"Point"},"properties":{"osm_id":"296413105","tag":{"amenity":"recycling","operator":"Remondis","recycling:clothes":"yes","recycling_type":"container"}},"type":"Feature"},
	{"geometry":{"coordinates":[10.827969,48.321748],"type":"Point"},"properties":{"osm_id":"304007550","tag":{"amenity":"recycling","recycling:glass":"yes","recycling_type":"container"}},"type":"Feature"},
	{"geometry":{"coordinates":[10.858412,48.310381],"type":"Point"},"properties":{"osm_id":"322675627","tag":{"amenity":"recycling","recycling:glass":"yes","recycling_type":"container"}},"type":"Feature"},
	{"geometry":{"coordinates":[10.890964,48.297169],"type":"Point"},"properties":{"osm_id":"365982350","tag":{"amenity":"recycling","recycling:clothes":"yes","recycling:glass":"yes","recycling_type":"container"}},"type":"Feature"},
	{"geometry":{"coordinates":[10.866134,48.308838],"type":"Point"},"properties":{"osm_id":"380951349","tag":{"amenity":"recycling","recycling:clothes":"yes","recycling:glass":"yes","recycling:shoes":"yes","recycling_type":"container"}},"type":"Feature"},
	{"geometry":{"coordinates":[10.862089,48.318692],"type":"Point"},"properties":{"osm_id":"473156559","tag":{"amenity":"recycling","operator":"Aktion Hoffnung","recycling:clothes":"yes","recycling:shoes":"yes","recycling_type":"container"}},"type":"Feature"},
	{"geometry":{"coordinates":[10.835842,48.329705],"type":"Point"},"properties":{"osm_id":"494326861","tag":{"amenity":"recycling","operator":"Aktion Hoffnung","recycling:clothes":"yes","recycling:shoes":"yes"}},"type":"Feature"},
	{"geometry":{"coordinates":[10.88964,48.336725],"type":"Point"},"properties":{"osm_id":"616753516","tag":{"amenity":"recycling","recycling:glass":"yes","recycling_type":"container"}},"type":"Feature"},
	{"geometry":{"coordinates":[10.856148,48.337278],"type":"Point"},"properties":{"osm_id":"671159792","tag":{"amenity":"recycling","recycling:clothes":"yes","recycling:shoes":"yes","recycling_type":"container"}},"type":"Feature"},
	{"geometry":{"coordinates":[10.895141,48.296464],"type":"Point"},"properties":{"osm_id":"679765648","tag":{"amenity":"recycling","operator":"Aktion Hoffnung","recycling:clothes":"yes","recycling:shoes":"yes","recycling_type":"container"}},"type":"Feature"},
	{"geometry":{"coordinates":[10.883064,48.339411],"type":"Point"},"properties":{"osm_id":"694472665","tag":{"amenity":"waste_basket"}},"type":"Feature"},
	{"geometry":{"coordinates":[10.867448,48.336698],"type":"Point"},"properties":{"osm_id":"703772636","tag":{"amenity":"recycling","recycling:shoes":"yes","recycling_type":"container"}},"type":"Feature"},
	{"geometry":{"coordinates":[10.865084,48.338575],"type":"Point"},"properties":{"osm_id":"704411084","tag":{"amenity":"recycling","operator":"REMONDIS","recycling:glass":"yes","recycling_type":"container"}},"type":"Feature"},
	{"geometry":{"coordinates":[10.854439,48.338452],"type":"Point"},"properties":{"osm_id":"740677062","tag":{"amenity":"recycling","operator":"REMONDIS","recycling:glass":"yes","recycling_type":"container"}},"type":"Feature"},
	{"geometry":{"coordinates":[10.862213,48.340453],"type":"Point"},"properties":{"osm_id":"740707344","tag":{"amenity":"recycling","recycling:cans":"no","recycling:clothes":"no","recycling:glass":"yes","recycling:glass_bottles":"yes","recycling:paper":"no","recycling:plastic":"no","recycling_type":"container"}},"type":"Feature"},
	{"geometry":{"coordinates":[10.876242,48.337538],"type":"Point"},"properties":{"osm_id":"746957986","tag":{"amenity":"waste_basket"}},"type":"Feature"},
	{"geometry":{"coordinates":[10.876591,48.337531],"type":"Point"},"properties":{"osm_id":"746957988","tag":{"amenity":"waste_basket"}},"type":"Feature"},
	{"geometry":{"coordinates":[10.870756,48.337706],"type":"Point"},"properties":{"osm_id":"841522019","tag":{"amenity":"recycling","operator":"REMONDIS","recycling:glass":"yes","recycling_type":"container"}},"type":"Feature"},
	{"geometry":{"coordinates":[10.882209,48.333767],"type":"Point"},"properties":{"osm_id":"841522128","tag":{"amenity":"waste_basket"}},"type":"Feature"},
	{"geometry":{"coordinates":[10.869222,48.336045],"type":"Point"},"properties":{"name":"Sammelstelle Elektro- und Elektronikschrott Infau","osm_id":"841522146","tag":{"addr:city":"Augsburg","addr:country":"DE","addr:housename":"Clemens-H\u00c3\u00b6gg-Haus","addr:housenumber":"50","addr:postcode":"86199","addr:street":"R\u00c3\u00b6merweg","amenity":"recycling","opening_hours":"Th 15:00-18:00;Sa 10:00-13:00","operator":"Arbeiterwohlfahrt Augsburg (AWO)","recycling_type":"centre"}},"type":"Feature"},
	{"geometry":{"coordinates":[10.86953,48.333084],"type":"Point"},"properties":{"osm_id":"841522309","tag":{"amenity":"recycling","check_date":"2017-03-17","operator":"REMONDIS","recycling:glass":"yes","recycling_type":"container"}},"type":"Feature"},
	{"geometry":{"coordinates":[10.874411,48.337529],"type":"Point"},"properties":{"osm_id":"868100306","tag":{"amenity":"recycling","operator":"REMONDIS","recycling:clothes":"yes","recycling:shoes":"yes","recycling_type":"container"}},"type":"Feature"},
	{"geometry":{"coordinates":[10.85693,48.341236],"type":"Point"},"properties":{"osm_id":"885868416","tag":{"amenity":"waste_basket"}},"type":"Feature"},
	{"geometry":{"coordinates":[10.895412,48.31804],"type":"Point"},"properties":{"osm_id":"899311244","tag":{"amenity":"recycling","operator":"REMONDIS","recycling:glass":"yes","recycling_type":"container"}},"type":"Feature"},
	{"geometry":{"coordinates":[10.895447,48.318039],"type":"Point"},"properties":{"osm_id":"899311264","tag":{"amenity":"recycling","operator":"Aktion Hoffnung","recycling:clothes":"yes","recycling:shoes":"yes","recycling_type":"container"}},"type":"Feature"},
	{"geometry":{"coordinates":[10.876074,48.337541],"type":"Point"},"properties":{"osm_id":"899311366","tag":{"amenity":"recycling","operator":"Aktion Hoffnung","recycling:clothes":"yes","recycling:shoes":"yes","recycling_type":"container"}},"type":"Feature"},
	{"geometry":{"coordinates":[10.87463,48.304382],"type":"Point"},"properties":{"osm_id":"927310749","tag":{"amenity":"waste_basket"}},"type":"Feature"},
	{"geometry":{"coordinates":[10.870735,48.337669],"type":"Point"},"properties":{"osm_id":"1121654939","tag":{"amenity":"recycling","operator":"Aktion Hoffnung","recycling:clothes":"yes","recycling:shoes":"yes","recycling_type":"container"}},"type":"Feature"},
	{"geometry":{"coordinates":[10.896532,48.306862],"type":"Point"},"properties":{"osm_id":"1136131504","tag":{"amenity":"recycling","recycling:green_waste":"yes","recycling_type":"container"}},"type":"Feature"},
	{"geometry":{"coordinates":[10.894061,48.30824],"type":"Point"},"properties":{"osm_id":"1136131557","tag":{"amenity":"recycling","recycling:green_waste":"yes","recycling_type":"container"}},"type":"Feature"},
	{"geometry":{"coordinates":[10.894473,48.308805],"type":"Point"},"properties":{"osm_id":"1136131571","tag":{"amenity":"waste_basket"}},"type":"Feature"},
	{"geometry":{"coordinates":[10.896329,48.307748],"type":"Point"},"properties":{"osm_id":"1136131766","tag":{"amenity":"recycling","recycling:green_waste":"yes","recycling_type":"container"}},"type":"Feature"},
	{"geometry":{"coordinates":[10.895767,48.306501],"type":"Point"},"properties":{"osm_id":"1136131973","tag":{"amenity":"recycling","recycling:green_waste":"yes","recycling_type":"container"}},"type":"Feature"},
	{"geometry":{"coordinates":[10.895086,48.307044],"type":"Point"},"properties":{"osm_id":"1136131994","tag":{"amenity":"recycling","recycling:green_waste":"yes","recycling_type":"container"}},"type":"Feature"},
	{"geometry":{"coordinates":[10.895218,48.307694],"type":"Point"},"properties":{"osm_id":"1136132045","tag":{"amenity":"recycling","recycling:green_waste":"yes","recycling_type":"container"}},"type":"Feature"},
	{"geometry":{"coordinates":[10.896513,48.308057],"type":"Point"},"properties":{"osm_id":"1136132056","tag":{"amenity":"recycling","recycling:green_waste":"yes","recycling_type":"container"}},"type":"Feature"},
	{"geometry":{"coordinates":[10.89679,48.306394],"type":"Point"},"properties":{"osm_id":"1136132058","tag":{"amenity":"recycling","recycling:green_waste":"yes","recycling_type":"container"}},"type":"Feature"},
	{"geometry":{"coordinates":[10.895698,48.307],"type":"Point"},"properties":{"osm_id":"1136132101","tag":{"amenity":"recycling","recycling:green_waste":"yes","recycling_type":"container"}},"type":"Feature"},
	{"geometry":{"coordinates":[10.895387,48.308172],"type":"Point"},"properties":{"osm_id":"1136132107","tag":{"amenity":"recycling","recycling:green_waste":"yes","recycling_type":"container"}},"type":"Feature"},
	{"geometry":{"coordinates":[10.869522,48.333071],"type":"Point"},"properties":{"osm_id":"1137663246","tag":{"amenity":"recycling","check_date":"2017-03-17","operator":"Aktion Hoffnung","recycling:clothes":"yes","recycling:shoes":"yes","recycling_type":"container"}},"type":"Feature"},
	{"geometry":{"coordinates":[10.865227,48.333301],"type":"Point"},"properties":{"osm_id":"1137779614","tag":{"amenity":"recycling","operator":"Aktion Hoffnung","recycling:clothes":"yes","recycling:shoes":"yes","recycling_type":"container"}},"type":"Feature"},
	{"geometry":{"coordinates":[10.898437,48.311943],"type":"Point"},"properties":{"osm_id":"1161336921","tag":{"amenity":"recycling","recycling:glass":"yes","recycling_type":"container"}},"type":"Feature"},
	{"geometry":{"coordinates":[10.896225,48.323562],"type":"Point"},"properties":{"osm_id":"1248938622","tag":{"amenity":"recycling","check_date":"2016-07-17","recycling:clothes":"yes","recycling:glass":"yes","recycling_type":"container"}},"type":"Feature"},
	{"geometry":{"coordinates":[10.827942,48.320782],"type":"Point"},"properties":{"osm_id":"1619089779","tag":{"amenity":"recycling","recycling:glass":"yes","recycling_type":"container"}},"type":"Feature"},
	{"geometry":{"coordinates":[10.891545,48.294993],"type":"Point"},"properties":{"osm_id":"1657145774","tag":{"amenity":"recycling","operator":"Remondis; Aktion Hoffnung","recycling:clothes":"yes","recycling:glass":"yes","recycling_type":"container"}},"type":"Feature"},
	{"geometry":{"coordinates":[10.892287,48.286834],"type":"Point"},"properties":{"osm_id":"1657451433","tag":{"amenity":"recycling","recycling:clothes":"yes","recycling:shoes":"yes","recycling_type":"container"}},"type":"Feature"},
	{"geometry":{"coordinates":[10.892612,48.310644],"type":"Point"},"properties":{"osm_id":"1666029729","tag":{"amenity":"recycling","recycling:clothes":"yes","recycling:glass":"no","recycling_type":"container"}},"type":"Feature"},
	{"geometry":{"coordinates":[10.893819,48.308786],"type":"Point"},"properties":{"osm_id":"1668711688","tag":{"amenity":"recycling","recycling:clothes":"yes","recycling:shoes":"yes","recycling_type":"container"}},"type":"Feature"},
	{"geometry":{"coordinates":[10.897378,48.302566],"type":"Point"},"properties":{"osm_id":"1738366747","tag":{"amenity":"recycling","operator":"REMONDIS","recycling:glass":"yes","recycling_type":"container"}},"type":"Feature"},
	{"geometry":{"coordinates":[10.897382,48.302587],"type":"Point"},"properties":{"osm_id":"1738366748","tag":{"amenity":"recycling","opening_hours":"Mo-Sa 07:00-12:00,14:00-20:00; PH off","operator":"Stadt Augsburg (AWS)","recycling:small_appliances":"yes","recycling_type":"container"}},"type":"Feature"},
	{"geometry":{"coordinates":[10.894513,48.304993],"type":"Point"},"properties":{"osm_id":"1738366749","tag":{"amenity":"recycling","operator":"Remondis","recycling:glass":"yes","recycling_type":"container"}},"type":"Feature"},
	{"geometry":{"coordinates":[10.89513,48.296442],"type":"Point"},"properties":{"osm_id":"1738460513","tag":{"amenity":"recycling","opening_hours":"Mo-Sa 07:00-12:00,14:00-20:00; PH off","operator":"Stadt Augsburg (AWS)","recycling:small_appliances":"yes","recycling_type":"container"}},"type":"Feature"},
	{"geometry":{"coordinates":[10.895149,48.296481],"type":"Point"},"properties":{"osm_id":"1738460514","tag":{"amenity":"recycling","recycling:glass":"yes","recycling_type":"container"}},"type":"Feature"},
	{"geometry":{"coordinates":[10.876101,48.337539],"type":"Point"},"properties":{"osm_id":"1760587924","tag":{"amenity":"recycling","opening_hours":"Mo-Sa 07:00-12:00,14:00-20:00; PH off","operator":"Stadt Augsburg (AWS)","recycling:small_appliances":"yes","recycling_type":"container"}},"type":"Feature"},
	{"geometry":{"coordinates":[10.897248,48.306416],"type":"Point"},"properties":{"osm_id":"1773331047","tag":{"amenity":"recycling","operator":"Aktion Hoffnung","recycling:clothes":"yes","recycling:shoes":"yes","recycling_type":"container"}},"type":"Feature"},
	{"geometry":{"coordinates":[10.897244,48.306432],"type":"Point"},"properties":{"osm_id":"1773331048","tag":{"amenity":"recycling","operator":"REMONDIS","recycling:glass":"yes","recycling_type":"container"}},"type":"Feature"},
	{"geometry":{"coordinates":[10.897256,48.306398],"type":"Point"},"properties":{"osm_id":"1773331049","tag":{"amenity":"recycling","opening_hours":"Mo-Sa 07:00-12:00,14:00-20:00; PH off","operator":"Stadt Augsburg (AWS)","recycling:small_appliances":"yes","recycling_type":"container"}},"type":"Feature"},
	{"geometry":{"coordinates":[10.890016,48.310993],"type":"Point"},"properties":{"osm_id":"1773331051","tag":{"amenity":"recycling","opening_hours":"Mo-Sa 07:00-12:00,14:00-20:00; PH off","operator":"Stadt Augsburg (AWS)","recycling:small_appliances":"yes","recycling_type":"container"}},"type":"Feature"},
	{"geometry":{"coordinates":[10.890022,48.311024],"type":"Point"},"properties":{"osm_id":"1773331052","tag":{"amenity":"recycling","operator":"REMONDIS","recycling:glass":"yes","recycling_type":"container"}},"type":"Feature"},
	{"geometry":{"coordinates":[10.897764,48.317961],"type":"Point"},"properties":{"osm_id":"1773331053","tag":{"amenity":"recycling","opening_hours":"Mo-Sa 07:00-12:00,14:00-20:00; PH off","operator":"Stadt Augsburg (AWS)","recycling:small_appliances":"yes","recycling_type":"container"}},"type":"Feature"},
	{"geometry":{"coordinates":[10.897375,48.302545],"type":"Point"},"properties":{"osm_id":"1777250898","tag":{"amenity":"recycling","operator":"Aktion Hoffnung","recycling:clothes":"yes","recycling:shoes":"yes","recycling_type":"container"}},"type":"Feature"},
	{"geometry":{"coordinates":[10.898408,48.311971],"type":"Point"},"properties":{"osm_id":"1963170602","tag":{"amenity":"recycling","operator":"Aktion Hoffnung","recycling:clothes":"yes","recycling_type":"container"}},"type":"Feature"},
	{"geometry":{"coordinates":[10.898408,48.311987],"type":"Point"},"properties":{"osm_id":"1963170609","tag":{"amenity":"recycling","recycling:shoes":"yes","recycling_type":"container"}},"type":"Feature"},
	{"geometry":{"coordinates":[10.848695,48.314728],"type":"Point"},"properties":{"osm_id":"1989609825","tag":{"amenity":"recycling","operator":"Aktion Hoffnung","recycling:clothes":"yes","recycling:shoes":"yes","recycling_type":"container"}},"type":"Feature"},
	{"geometry":{"coordinates":[10.890783,48.31486],"type":"Point"},"properties":{"osm_id":"2125420998","tag":{"amenity":"recycling","operator":"Aktion Hoffnung;Remondis","recycling:clothes":"yes","recycling:glass":"yes","recycling_type":"container"}},"type":"Feature"},
	{"geometry":{"coordinates":[10.868384,48.311087],"type":"Point"},"properties":{"osm_id":"2125420999","tag":{"amenity":"recycling","recycling:clothes":"yes","recycling_type":"container"}},"type":"Feature"},
	{"geometry":{"coordinates":[10.894297,48.294728],"type":"Point"},"properties":{"osm_id":"2298405299","tag":{"amenity":"waste_basket"}},"type":"Feature"},
	{"geometry":{"coordinates":[10.82788,48.321686],"type":"Point"},"properties":{"osm_id":"2300085814","tag":{"amenity":"recycling","opening_hours":"Mo-Sa 07:00-12:00,14:00-20:00; PH off","operator":"Stadt Augsburg (AWS)","recycling:small_appliances":"yes","recycling_type":"container"}},"type":"Feature"},
	{"geometry":{"coordinates":[10.827998,48.321768],"type":"Point"},"properties":{"osm_id":"2300085819","tag":{"amenity":"recycling","operator":"Aktion Hoffnung","recycling:clothes":"yes","recycling:shoes":"yes","recycling_type":"container"}},"type":"Feature"},
	{"geometry":{"coordinates":[10.827959,48.3208],"type":"Point"},"properties":{"osm_id":"2300551886","tag":{"amenity":"recycling","recycling:clothes":"yes","recycling:shoes":"yes","recycling_type":"container"}},"type":"Feature"},
	{"geometry":{"coordinates":[10.894717,48.289025],"type":"Point"},"properties":{"osm_id":"2315925862","tag":{"amenity":"waste_basket"}},"type":"Feature"},
	{"geometry":{"coordinates":[10.888479,48.291438],"type":"Point"},"properties":{"osm_id":"2315925863","tag":{"amenity":"recycling","recycling:glass":"yes","recycling_type":"container"}},"type":"Feature"},
	{"geometry":{"coordinates":[10.894751,48.29576],"type":"Point"},"properties":{"osm_id":"2318538091","tag":{"amenity":"waste_basket"}},"type":"Feature"},
	{"geometry":{"coordinates":[10.894095,48.296013],"type":"Point"},"properties":{"osm_id":"2318538094","tag":{"amenity":"waste_basket"}},"type":"Feature"},
	{"geometry":{"coordinates":[10.890095,48.311365],"type":"Point"},"properties":{"osm_id":"2335020693","tag":{"amenity":"waste_basket"}},"type":"Feature"},
	{"geometry":{"coordinates":[10.890029,48.311713],"type":"Point"},"properties":{"osm_id":"2335020694","tag":{"amenity":"waste_basket"}},"type":"Feature"},
	{"geometry":{"coordinates":[10.890456,48.313451],"type":"Point"},"properties":{"osm_id":"2335020697","tag":{"amenity":"waste_basket"}},"type":"Feature"},
	{"geometry":{"coordinates":[10.890341,48.313618],"type":"Point"},"properties":{"osm_id":"2335020698","tag":{"amenity":"waste_basket"}},"type":"Feature"},
	{"geometry":{"coordinates":[10.891811,48.315714],"type":"Point"},"properties":{"osm_id":"2335020707","tag":{"amenity":"recycling","operator":"Aktion Hoffnung","recycling:clothes":"yes","recycling_type":"container"}},"type":"Feature"},
	{"geometry":{"coordinates":[10.832137,48.293684],"type":"Point"},"properties":{"osm_id":"2386534513","tag":{"amenity":"waste_basket"}},"type":"Feature"},
	{"geometry":{"coordinates":[10.847039,48.31551],"type":"Point"},"properties":{"osm_id":"2386534516","tag":{"amenity":"waste_basket"}},"type":"Feature"},
	{"geometry":{"coordinates":[10.893132,48.295387],"type":"Point"},"properties":{"osm_id":"2394115814","tag":{"amenity":"waste_basket"}},"type":"Feature"},
	{"geometry":{"coordinates":[10.897727,48.29565],"type":"Point"},"properties":{"osm_id":"2394115817","tag":{"amenity":"waste_basket"}},"type":"Feature"},
	{"geometry":{"coordinates":[10.896597,48.308011],"type":"Point"},"properties":{"osm_id":"2403071040","tag":{"amenity":"recycling","recycling:clothes":"yes","recycling:glass":"yes","recycling:shoes":"yes","recycling:small_appliances":"yes","recycling_type":"container"}},"type":"Feature"},
	{"geometry":{"coordinates":[10.822217,48.28339],"type":"Point"},"properties":{"osm_id":"2426683887","tag":{"amenity":"waste_basket"}},"type":"Feature"},
	{"geometry":{"coordinates":[10.831962,48.289053],"type":"Point"},"properties":{"osm_id":"2426684061","tag":{"amenity":"waste_basket"}},"type":"Feature"},
	{"geometry":{"coordinates":[10.831598,48.289076],"type":"Point"},"properties":{"osm_id":"2426684062","tag":{"amenity":"waste_basket"}},"type":"Feature"},
	{"geometry":{"coordinates":[10.896737,48.293002],"type":"Point"},"properties":{"osm_id":"2466347569","tag":{"amenity":"waste_basket"}},"type":"Feature"},
	{"geometry":{"coordinates":[10.89743,48.333056],"type":"Point"},"properties":{"osm_id":"2496039797","tag":{"amenity":"waste_basket"}},"type":"Feature"},
	{"geometry":{"coordinates":[10.855035,48.309767],"type":"Point"},"properties":{"osm_id":"2586471255","tag":{"amenity":"recycling","opening_hours":"Mo-Sa 07:00-12:00,14:00-20:00; PH off","operator":"Stadt Augsburg (AWS)","recycling:small_appliances":"yes","recycling_type":"container"}},"type":"Feature"},
	{"geometry":{"coordinates":[10.885836,48.338449],"type":"Point"},"properties":{"osm_id":"2608002449","tag":{"amenity":"waste_basket"}},"type":"Feature"},
	{"geometry":{"coordinates":[10.886094,48.338534],"type":"Point"},"properties":{"osm_id":"2608002454","tag":{"amenity":"waste_basket"}},"type":"Feature"},
	{"geometry":{"coordinates":[10.848718,48.314701],"type":"Point"},"properties":{"osm_id":"2617219950","tag":{"amenity":"recycling","operator":"REMONDIS","recycling:glass":"yes","recycling_type":"container"}},"type":"Feature"},
	{"geometry":{"coordinates":[10.848706,48.314715],"type":"Point"},"properties":{"osm_id":"2617219951","tag":{"amenity":"recycling","opening_hours":"Mo-Sa 07:00-12:00,14:00-20:00; PH off","operator":"Stadt Augsburg (AWS)","recycling:small_appliances":"yes","recycling_type":"container"}},"type":"Feature"},
	{"geometry":{"coordinates":[10.879214,48.337032],"type":"Point"},"properties":{"osm_id":"2617219956","tag":{"amenity":"recycling","operator":"Aktion Hoffnung","recycling:clothes":"yes","recycling:shoes":"yes","recycling_type":"container"}},"type":"Feature"},
	{"geometry":{"coordinates":[10.879218,48.337048],"type":"Point"},"properties":{"osm_id":"2617219957","tag":{"amenity":"recycling","operator":"REMONDIS","recycling:glass_bottles":"yes","recycling_type":"container"}},"type":"Feature"},
	{"geometry":{"coordinates":[10.879223,48.337064],"type":"Point"},"properties":{"osm_id":"2617219958","tag":{"amenity":"recycling","opening_hours":"Mo-Sa 07:00-12:00,14:00-20:00;PH off","operator":"Stadt Augsburg (AWS)","recycling:small_appliances":"yes","recycling_type":"container"}},"type":"Feature"},
	{"geometry":{"coordinates":[10.862029,48.318694],"type":"Point"},"properties":{"osm_id":"2622793508","tag":{"amenity":"recycling","operator":"REMONDIS","recycling:glass":"yes","recycling_type":"container"}},"type":"Feature"},
	{"geometry":{"coordinates":[10.896819,48.30025],"type":"Point"},"properties":{"osm_id":"2698065264","tag":{"amenity":"recycling","recycling:glass":"yes","recycling_type":"container"}},"type":"Feature"},
	{"geometry":{"coordinates":[10.896779,48.300257],"type":"Point"},"properties":{"osm_id":"2698065268","tag":{"amenity":"recycling","operator":"Stadt Augsburg (AWS)","recycling:small_appliances":"yes","recycling_type":"container"}},"type":"Feature"},
	{"geometry":{"coordinates":[10.854373,48.338379],"type":"Point"},"properties":{"osm_id":"2850990952","tag":{"amenity":"recycling","opening_hours":"Mo-Sa 07:00-12:00,14:00-20:00; PH off","operator":"Stadt Augsburg (AWS)","recycling:small_appliances":"yes","recycling_type":"container"}},"type":"Feature"},
	{"geometry":{"coordinates":[10.854411,48.338415],"type":"Point"},"properties":{"osm_id":"2850990953","tag":{"amenity":"recycling","operator":"Aktion Hoffnung","recycling:clothes":"yes","recycling:shoes":"yes","recycling_type":"container"}},"type":"Feature"},
	{"geometry":{"coordinates":[10.837464,48.292567],"type":"Point"},"properties":{"osm_id":"4248934599","tag":{"amenity":"waste_basket"}},"type":"Feature"},
	{"geometry":{"coordinates":[10.896429,48.333357],"type":"Point"},"properties":{"osm_id":"4618253246","tag":{"amenity":"waste_basket"}},"type":"Feature"},
	{"geometry":{"coordinates":[10.896257,48.333313],"type":"Point"},"properties":{"osm_id":"4618253250","tag":{"amenity":"waste_basket"}},"type":"Feature"},
	{"geometry":{"coordinates":[10.848678,48.314439],"type":"Point"},"properties":{"osm_id":"4685445556","tag":{"amenity":"waste_basket"}},"type":"Feature"},
	{"geometry":{"coordinates":[10.848691,48.332334],"type":"Point"},"properties":{"osm_id":"4711755540","tag":{"amenity":"waste_basket"}},"type":"Feature"},
	{"geometry":{"coordinates":[10.877351,48.329954],"type":"Point"},"properties":{"osm_id":"5620220691","tag":{"amenity":"waste_basket"}},"type":"Feature"},
	{"geometry":{"coordinates":[10.881264,48.333636],"type":"Point"},"properties":{"osm_id":"5620220697","tag":{"amenity":"waste_basket"}},"type":"Feature"},
	{"geometry":{"coordinates":[10.86008,48.33118],"type":"Point"},"properties":{"osm_id":"5622792480","tag":{"amenity":"waste_basket"}},"type":"Feature"},
	{"geometry":{"coordinates":[10.859121,48.331337],"type":"Point"},"properties":{"osm_id":"5622792494","tag":{"amenity":"waste_basket"}},"type":"Feature"},
	{"geometry":{"coordinates":[10.879702,48.334796],"type":"Point"},"properties":{"osm_id":"5638206848","tag":{"amenity":"waste_basket"}},"type":"Feature"},
	{"geometry":{"coordinates":[10.883202,48.334957],"type":"Point"},"properties":{"osm_id":"5638206876","tag":{"amenity":"waste_basket"}},"type":"Feature"},
	{"geometry":{"coordinates":[10.882199,48.336863],"type":"Point"},"properties":{"osm_id":"5638206881","tag":{"amenity":"waste_basket"}},"type":"Feature"},
	{"geometry":{"coordinates":[10.879706,48.332685],"type":"Point"},"properties":{"osm_id":"5638206890","tag":{"amenity":"waste_basket"}},"type":"Feature"},
	{"geometry":{"coordinates":[10.898171,48.328108],"type":"Point"},"properties":{"osm_id":"5640288184","tag":{"amenity":"waste_basket"}},"type":"Feature"},
	{"geometry":{"coordinates":[10.898008,48.329748],"type":"Point"},"properties":{"osm_id":"5640288187","tag":{"amenity":"waste_basket"}},"type":"Feature"},
	{"geometry":{"coordinates":[10.897874,48.329743],"type":"Point"},"properties":{"osm_id":"5640288189","tag":{"amenity":"waste_basket"}},"type":"Feature"},
	{"geometry":{"coordinates":[10.888433,48.326072],"type":"Point"},"properties":{"osm_id":"5703073950","tag":{"amenity":"waste_basket"}},"type":"Feature"},
	{"geometry":{"coordinates":[10.886131,48.326217],"type":"Point"},"properties":{"osm_id":"5703073952","tag":{"amenity":"waste_basket"}},"type":"Feature"},
	{"geometry":{"coordinates":[10.889477,48.325778],"type":"Point"},"properties":{"osm_id":"5703073955","tag":{"amenity":"waste_basket"}},"type":"Feature"},
	{"geometry":{"coordinates":[10.884835,48.326309],"type":"Point"},"properties":{"osm_id":"5703073959","tag":{"amenity":"waste_basket"}},"type":"Feature"},
	{"geometry":{"coordinates":[10.890608,48.325701],"type":"Point"},"properties":{"osm_id":"5703073961","tag":{"amenity":"waste_basket"}},"type":"Feature"},
	{"geometry":{"coordinates":[10.888019,48.325892],"type":"Point"},"properties":{"osm_id":"5703073964","tag":{"amenity":"waste_basket"}},"type":"Feature"},
	{"geometry":{"coordinates":[10.884393,48.323554],"type":"Point"},"properties":{"osm_id":"5832566886","tag":{"amenity":"waste_basket"}},"type":"Feature"},
	{"geometry":{"coordinates":[10.884316,48.323134],"type":"Point"},"properties":{"osm_id":"5832566888","tag":{"amenity":"waste_basket"}},"type":"Feature"},
	{"geometry":{"coordinates":[10.884422,48.322786],"type":"Point"},"properties":{"osm_id":"5832566890","tag":{"amenity":"waste_basket"}},"type":"Feature"},
	{"geometry":{"coordinates":[10.884449,48.322467],"type":"Point"},"properties":{"osm_id":"5832566892","tag":{"amenity":"waste_basket"}},"type":"Feature"},
	{"geometry":{"coordinates":[10.884463,48.322206],"type":"Point"},"properties":{"osm_id":"5832566894","tag":{"amenity":"waste_basket"}},"type":"Feature"},
	{"geometry":{"coordinates":[10.883939,48.322256],"type":"Point"},"properties":{"osm_id":"5832566896","tag":{"amenity":"waste_basket"}},"type":"Feature"},
	{"geometry":{"coordinates":[10.883398,48.32231],"type":"Point"},"properties":{"osm_id":"5832566899","tag":{"amenity":"waste_basket"}},"type":"Feature"},
	{"geometry":{"coordinates":[10.882833,48.322372],"type":"Point"},"properties":{"osm_id":"5832566901","tag":{"amenity":"waste_basket"}},"type":"Feature"},
	{"geometry":{"coordinates":[10.884348,48.324018],"type":"Point"},"properties":{"osm_id":"5832566902","tag":{"amenity":"waste_basket"}},"type":"Feature"},
	{"geometry":{"coordinates":[10.882332,48.322425],"type":"Point"},"properties":{"osm_id":"5832566903","tag":{"amenity":"waste_basket"}},"type":"Feature"},
	{"geometry":{"coordinates":[10.884373,48.323774],"type":"Point"},"properties":{"osm_id":"5832566904","tag":{"amenity":"waste_basket"}},"type":"Feature"},
	{"geometry":{"coordinates":[10.881886,48.322467],"type":"Point"},"properties":{"osm_id":"5832566905","tag":{"amenity":"waste_basket"}},"type":"Feature"},
	{"geometry":{"coordinates":[10.879875,48.339049],"type":"Point"},"properties":{"osm_id":"5895171249","tag":{"amenity":"recycling","operator":"REMONDIS","recycling:glass":"yes","recycling_type":"container"}},"type":"Feature"},
	{"geometry":{"coordinates":[10.873833,48.337119],"type":"Point"},"properties":{"osm_id":"5976000955","tag":{"amenity":"waste_basket"}},"type":"Feature"},
	{"geometry":{"coordinates":[10.874249,48.337491],"type":"Point"},"properties":{"osm_id":"5976000959","tag":{"amenity":"waste_basket"}},"type":"Feature"},
	{"geometry":{"coordinates":[10.895595,48.334549],"type":"Point"},"properties":{"osm_id":"6455898460","tag":{"amenity":"waste_basket"}},"type":"Feature"},
	{"geometry":{"coordinates":[10.895963,48.333898],"type":"Point"},"properties":{"osm_id":"6455909325","tag":{"amenity":"waste_basket"}},"type":"Feature"},
	{"geometry":{"coordinates":[10.895573,48.333505],"type":"Point"},"properties":{"osm_id":"6455928218","tag":{"amenity":"waste_basket"}},"type":"Feature"},
	{"geometry":{"coordinates":[10.894473,48.3336],"type":"Point"},"properties":{"osm_id":"6455953673","tag":{"amenity":"waste_basket"}},"type":"Feature"},
	{"geometry":{"coordinates":[10.89417,48.333179],"type":"Point"},"properties":{"osm_id":"6455978156","tag":{"amenity":"waste_basket"}},"type":"Feature"},
	{"geometry":{"coordinates":[10.895343,48.335683],"type":"Point"},"properties":{"osm_id":"6464577199","tag":{"amenity":"waste_basket"}},"type":"Feature"},
	{"geometry":{"coordinates":[10.89382,48.335518],"type":"Point"},"properties":{"osm_id":"6468232683","tag":{"amenity":"waste_basket"}},"type":"Feature"},
	{"geometry":{"coordinates":[10.893846,48.335319],"type":"Point"},"properties":{"osm_id":"6468232684","tag":{"amenity":"waste_basket"}},"type":"Feature"},
	{"geometry":{"coordinates":[10.893846,48.335086],"type":"Point"},"properties":{"osm_id":"6468235085","tag":{"amenity":"waste_basket"}},"type":"Feature"},
	{"geometry":{"coordinates":[10.895157,48.334267],"type":"Point"},"properties":{"osm_id":"6469628490","tag":{"amenity":"waste_basket"}},"type":"Feature"},
	{"geometry":{"coordinates":[10.894508,48.334256],"type":"Point"},"properties":{"osm_id":"6469628491","tag":{"amenity":"waste_basket"}},"type":"Feature"},
	{"geometry":{"coordinates":[10.894136,48.334261],"type":"Point"},"properties":{"osm_id":"6469628492","tag":{"amenity":"waste_basket"}},"type":"Feature"},
	{"geometry":{"coordinates":[10.896193,48.333781],"type":"Point"},"properties":{"osm_id":"6472308074","tag":{"amenity":"waste_basket"}},"type":"Feature"},
	{"geometry":{"coordinates":[10.896134,48.333829],"type":"Point"},"properties":{"osm_id":"6472311893","tag":{"amenity":"waste_basket"}},"type":"Feature"},
	{"geometry":{"coordinates":[10.896193,48.333355],"type":"Point"},"properties":{"osm_id":"6472325136","tag":{"amenity":"waste_basket"}},"type":"Feature"},
	{"geometry":{"coordinates":[10.896431,48.333316],"type":"Point"},"properties":{"osm_id":"6472351271","tag":{"amenity":"waste_basket"}},"type":"Feature"},
	{"geometry":{"coordinates":[10.8971,48.333193],"type":"Point"},"properties":{"osm_id":"6472369033","tag":{"amenity":"waste_basket"}},"type":"Feature"},
	{"geometry":{"coordinates":[10.897292,48.333512],"type":"Point"},"properties":{"osm_id":"6472369034","tag":{"amenity":"waste_disposal"}},"type":"Feature"},
	{"geometry":{"coordinates":[10.896599,48.333753],"type":"Point"},"properties":{"osm_id":"6472369035","tag":{"amenity":"waste_basket"}},"type":"Feature"},
	{"geometry":{"coordinates":[10.898359,48.33335],"type":"Point"},"properties":{"osm_id":"6472392939","tag":{"amenity":"waste_basket"}},"type":"Feature"},
	{"geometry":{"coordinates":[10.898077,48.33317],"type":"Point"},"properties":{"osm_id":"6472399210","tag":{"amenity":"waste_basket"}},"type":"Feature"},
	{"geometry":{"coordinates":[10.89806,48.333922],"type":"Point"},"properties":{"osm_id":"6472407631","tag":{"amenity":"waste_basket"}},"type":"Feature"},
	{"geometry":{"coordinates":[10.898414,48.33376],"type":"Point"},"properties":{"osm_id":"6472407633","tag":{"amenity":"waste_basket"}},"type":"Feature"},
	{"geometry":{"coordinates":[10.898321,48.333929],"type":"Point"},"properties":{"osm_id":"6472407636","tag":{"amenity":"waste_basket"}},"type":"Feature"},
	{"geometry":{"coordinates":[10.897273,48.33351],"type":"Point"},"properties":{"osm_id":"6472433820","tag":{"amenity":"waste_disposal"}},"type":"Feature"},
	{"geometry":{"coordinates":[10.897318,48.333511],"type":"Point"},"properties":{"osm_id":"6472433821","tag":{"amenity":"waste_disposal"}},"type":"Feature"},
	{"geometry":{"coordinates":[10.897882,48.333944],"type":"Point"},"properties":{"osm_id":"6472496648","tag":{"amenity":"waste_basket"}},"type":"Feature"},
	{"geometry":{"coordinates":[10.897478,48.333889],"type":"Point"},"properties":{"osm_id":"6472516094","tag":{"amenity":"waste_basket"}},"type":"Feature"},
	{"geometry":{"coordinates":[10.896552,48.333846],"type":"Point"},"properties":{"osm_id":"6472516097","tag":{"amenity":"waste_basket"}},"type":"Feature"},
	{"geometry":{"coordinates":[10.896465,48.333844],"type":"Point"},"properties":{"osm_id":"6472516098","tag":{"amenity":"waste_basket"}},"type":"Feature"},
	{"geometry":{"coordinates":[10.896268,48.335518],"type":"Point"},"properties":{"osm_id":"6472681056","tag":{"amenity":"waste_basket"}},"type":"Feature"},
	{"geometry":{"coordinates":[10.897865,48.333923],"type":"Point"},"properties":{"osm_id":"6473821204","tag":{"amenity":"waste_basket"}},"type":"Feature"},
	{"geometry":{"coordinates":[10.898239,48.33629],"type":"Point"},"properties":{"osm_id":"6506087408","tag":{"amenity":"waste_basket"}},"type":"Feature"},
	{"geometry":{"coordinates":[10.898154,48.33603],"type":"Point"},"properties":{"osm_id":"6506087409","tag":{"amenity":"waste_basket"}},"type":"Feature"},
	{"geometry":{"coordinates":[10.896197,48.335421],"type":"Point"},"properties":{"osm_id":"6506091093","tag":{"amenity":"waste_basket"}},"type":"Feature"},
	{"geometry":{"coordinates":[10.896829,48.334854],"type":"Point"},"properties":{"osm_id":"6506091094","tag":{"amenity":"waste_basket"}},"type":"Feature"},
	{"geometry":{"coordinates":[10.898015,48.335783],"type":"Point"},"properties":{"osm_id":"6506096904","tag":{"amenity":"waste_basket"}},"type":"Feature"},
	{"geometry":{"coordinates":[10.898012,48.335775],"type":"Point"},"properties":{"osm_id":"6506097059","tag":{"amenity":"waste_basket"}},"type":"Feature"},
	{"geometry":{"coordinates":[10.896873,48.335553],"type":"Point"},"properties":{"osm_id":"6506111878","tag":{"amenity":"waste_basket"}},"type":"Feature"},
	{"geometry":{"coordinates":[10.894703,48.335618],"type":"Point"},"properties":{"osm_id":"6518315886","tag":{"amenity":"waste_basket"}},"type":"Feature"},
	{"geometry":{"coordinates":[10.894488,48.335619],"type":"Point"},"properties":{"osm_id":"6518315887","tag":{"amenity":"waste_basket"}},"type":"Feature"},
	{"geometry":{"coordinates":[10.896034,48.33542],"type":"Point"},"properties":{"osm_id":"6520713225","tag":{"amenity":"waste_basket"}},"type":"Feature"},
	{"geometry":{"coordinates":[10.896289,48.335589],"type":"Point"},"properties":{"osm_id":"6520805864","tag":{"amenity":"waste_basket"}},"type":"Feature"},
	{"geometry":{"coordinates":[10.896247,48.335921],"type":"Point"},"properties":{"osm_id":"6520805866","tag":{"amenity":"waste_basket"}},"type":"Feature"},
	{"geometry":{"coordinates":[10.896325,48.336083],"type":"Point"},"properties":{"osm_id":"6520805868","tag":{"amenity":"waste_basket"}},"type":"Feature"},
	{"geometry":{"coordinates":[10.896263,48.336034],"type":"Point"},"properties":{"osm_id":"6520805869","tag":{"amenity":"waste_basket"}},"type":"Feature"},
	{"geometry":{"coordinates":[10.896341,48.336092],"type":"Point"},"properties":{"osm_id":"6520805870","tag":{"amenity":"waste_basket","waste":"dog_excrement"}},"type":"Feature"},
	{"geometry":{"coordinates":[10.895534,48.336413],"type":"Point"},"properties":{"osm_id":"6520805871","tag":{"amenity":"waste_basket"}},"type":"Feature"},
	{"geometry":{"coordinates":[10.89568,48.334949],"type":"Point"},"properties":{"osm_id":"6520805874","tag":{"amenity":"waste_basket"}},"type":"Feature"},
	{"geometry":{"coordinates":[10.897534,48.33031],"type":"Point"},"properties":{"osm_id":"6859937690","tag":{"amenity":"waste_basket"}},"type":"Feature"},
	{"geometry":{"coordinates":[10.897533,48.330377],"type":"Point"},"properties":{"osm_id":"6859937691","tag":{"amenity":"waste_basket"}},"type":"Feature"},
	{"geometry":{"coordinates":[10.897524,48.330815],"type":"Point"},"properties":{"osm_id":"6859937693","tag":{"amenity":"waste_basket"}},"type":"Feature"},
	{"geometry":{"coordinates":[10.89751,48.330898],"type":"Point"},"properties":{"osm_id":"6859937694","tag":{"amenity":"waste_basket"}},"type":"Feature"},
	{"geometry":{"coordinates":[10.897463,48.331326],"type":"Point"},"properties":{"osm_id":"6859937698","tag":{"amenity":"waste_basket"}},"type":"Feature"},
	{"geometry":{"coordinates":[10.89732,48.331658],"type":"Point"},"properties":{"osm_id":"6859937700","tag":{"amenity":"waste_basket"}},"type":"Feature"},
	{"geometry":{"coordinates":[10.895933,48.331219],"type":"Point"},"properties":{"osm_id":"6859937708","tag":{"amenity":"waste_basket"}},"type":"Feature"},
	{"geometry":{"coordinates":[10.895799,48.331146],"type":"Point"},"properties":{"osm_id":"6859937717","tag":{"amenity":"waste_basket"}},"type":"Feature"},
	{"geometry":{"coordinates":[10.895769,48.33121],"type":"Point"},"properties":{"osm_id":"6859937718","tag":{"amenity":"waste_basket"}},"type":"Feature"},
	{"geometry":{"coordinates":[10.898425,48.335695],"type":"Point"},"properties":{"osm_id":"6895281029","tag":{"access":"private","amenity":"waste_disposal"}},"type":"Feature"}
]
}
