{
"type": "FeatureCollection",
"features": [
	{"geometry":{"coordinates":[10.835704,48.278549],"type":"Point"},"properties":{"osm_id":"283134042","tag":{"amenity":"recycling","recycling:clothes":"yes","recycling:shoes":"yes","recycling_type":"container"}},"type":"Feature"},
	{"geometry":{"coordinates":[10.885156,48.277521],"type":"Point"},"properties":{"osm_id":"463642903","tag":{"amenity":"recycling","recycling:cans":"yes","recycling:clothes":"yes","recycling:glass":"yes","recycling:paper":"yes","recycling:scrap_metal":"yes"}},"type":"Feature"},
	{"geometry":{"coordinates":[10.884673,48.28264],"type":"Point"},"properties":{"osm_id":"463643148","tag":{"amenity":"recycling","recycling:cans":"yes","recycling:clothes":"yes","recycling:glass":"yes","recycling:paper":"yes"}},"type":"Feature"},
	{"geometry":{"coordinates":[10.881155,48.269223],"type":"Point"},"properties":{"osm_id":"603135736","tag":{"amenity":"recycling","location":"overground","recycling:cans":"yes","recycling:clothes":"yes","recycling:glass_bottles":"yes","recycling:shoes":"yes","recycling_type":"container"}},"type":"Feature"},
	{"geometry":{"coordinates":[10.8877,48.276371],"type":"Point"},"properties":{"osm_id":"808628159","tag":{"amenity":"recycling"}},"type":"Feature"},
	{"geometry":{"coordinates":[10.890157,48.260707],"type":"Point"},"properties":{"osm_id":"886628226","tag":{"amenity":"recycling"}},"type":"Feature"},
	{"geometry":{"coordinates":[10.892739,48.277766],"type":"Point"},"properties":{"osm_id":"926429824","tag":{"amenity":"recycling","recycling:paper":"yes","recycling_type":"container"}},"type":"Feature"},
	{"geometry":{"coordinates":[10.892695,48.277751],"type":"Point"},"properties":{"osm_id":"926429957","tag":{"amenity":"recycling","operator":"Fa. Cleanaway","recycling:glass":"yes","recycling_type":"container"}},"type":"Feature"},
	{"geometry":{"coordinates":[10.892716,48.27772],"type":"Point"},"properties":{"osm_id":"926430044","tag":{"amenity":"recycling","operator":"Fa. Seidenberger","recycling:cans":"yes","recycling_type":"container"}},"type":"Feature"},
	{"geometry":{"coordinates":[10.892671,48.277777],"type":"Point"},"properties":{"osm_id":"926430046","tag":{"amenity":"recycling","operator":"Aktion Hoffnung","recycling:clothes":"yes","recycling:shoes":"yes","recycling_type":"container"}},"type":"Feature"},
	{"geometry":{"coordinates":[10.829053,48.27803],"type":"Point"},"properties":{"osm_id":"957601123","tag":{"amenity":"waste_basket"}},"type":"Feature"},
	{"geometry":{"coordinates":[10.826234,48.268953],"type":"Point"},"properties":{"osm_id":"959562441","tag":{"amenity":"recycling","recycling:glass":"yes"}},"type":"Feature"},
	{"geometry":{"coordinates":[10.890569,48.237673],"type":"Point"},"properties":{"osm_id":"1226810846","tag":{"amenity":"recycling"}},"type":"Feature"},
	{"geometry":{"coordinates":[10.863866,48.233818],"type":"Point"},"properties":{"osm_id":"1464244831","tag":{"amenity":"waste_basket"}},"type":"Feature"},
	{"geometry":{"coordinates":[10.830286,48.26853],"type":"Point"},"properties":{"osm_id":"2027050703","tag":{"amenity":"waste_basket"}},"type":"Feature"},
	{"geometry":{"coordinates":[10.89023,48.28102],"type":"Point"},"properties":{"osm_id":"2315925835","tag":{"amenity":"waste_basket"}},"type":"Feature"},
	{"geometry":{"coordinates":[10.897895,48.281107],"type":"Point"},"properties":{"osm_id":"2315925840","tag":{"amenity":"waste_basket"}},"type":"Feature"},
	{"geometry":{"coordinates":[10.897876,48.281324],"type":"Point"},"properties":{"osm_id":"2315925844","tag":{"amenity":"waste_basket"}},"type":"Feature"},
	{"geometry":{"coordinates":[10.888142,48.281726],"type":"Point"},"properties":{"osm_id":"2315925847","tag":{"amenity":"waste_basket"}},"type":"Feature"},
	{"geometry":{"coordinates":[10.889097,48.281754],"type":"Point"},"properties":{"osm_id":"2315925848","tag":{"amenity":"waste_basket"}},"type":"Feature"},
	{"geometry":{"coordinates":[10.886786,48.282002],"type":"Point"},"properties":{"osm_id":"2315925853","tag":{"amenity":"waste_basket"}},"type":"Feature"},
	{"geometry":{"coordinates":[10.885891,48.282235],"type":"Point"},"properties":{"osm_id":"2315925856","tag":{"amenity":"waste_basket"}},"type":"Feature"},
	{"geometry":{"coordinates":[10.830163,48.280015],"type":"Point"},"properties":{"osm_id":"2332001444","tag":{"amenity":"waste_basket"}},"type":"Feature"},
	{"geometry":{"coordinates":[10.898279,48.280659],"type":"Point"},"properties":{"osm_id":"2443918628","tag":{"amenity":"waste_basket"}},"type":"Feature"},
	{"geometry":{"coordinates":[10.897991,48.281779],"type":"Point"},"properties":{"osm_id":"2443918638","tag":{"amenity":"waste_basket"}},"type":"Feature"},
	{"geometry":{"coordinates":[10.89808,48.281992],"type":"Point"},"properties":{"osm_id":"2443918642","tag":{"amenity":"waste_basket"}},"type":"Feature"},
	{"geometry":{"coordinates":[10.898215,48.282279],"type":"Point"},"properties":{"osm_id":"2443918643","tag":{"amenity":"waste_basket"}},"type":"Feature"},
	{"geometry":{"coordinates":[10.876956,48.230924],"type":"Point"},"properties":{"osm_id":"2707592704","tag":{"amenity":"waste_basket"}},"type":"Feature"},
	{"geometry":{"coordinates":[10.83571,48.278567],"type":"Point"},"properties":{"osm_id":"3677830406","tag":{"amenity":"recycling","operator":"K\u00c3\u00bchl","recycling:cans":"yes","recycling_type":"container"}},"type":"Feature"},
	{"geometry":{"coordinates":[10.835716,48.278584],"type":"Point"},"properties":{"osm_id":"3677830408","tag":{"amenity":"recycling","operator":"Cleanaway, Gersthofen","recycling:glass":"yes","recycling_type":"container"}},"type":"Feature"},
	{"geometry":{"coordinates":[10.843357,48.278301],"type":"Point"},"properties":{"osm_id":"3678413590","tag":{"amenity":"recycling","operator":"Coinvest","recycling:clothes":"yes","recycling:shoes":"yes","recycling_type":"container"}},"type":"Feature"},
	{"geometry":{"coordinates":[10.843336,48.278305],"type":"Point"},"properties":{"osm_id":"3678413591","tag":{"amenity":"recycling","operator":"K\u00c3\u00bchl","recycling:cans":"yes","recycling_type":"container"}},"type":"Feature"},
	{"geometry":{"coordinates":[10.843312,48.278313],"type":"Point"},"properties":{"osm_id":"3678413592","tag":{"amenity":"recycling","operator":"Remondis","recycling:glass":"yes","recycling_type":"container"}},"type":"Feature"},
	{"geometry":{"coordinates":[10.843293,48.278319],"type":"Point"},"properties":{"osm_id":"3678413593","tag":{"amenity":"recycling","recycling:clothes":"yes","recycling:shoes":"yes","recycling_type":"container"}},"type":"Feature"},
	{"geometry":{"coordinates":[10.835129,48.271411],"type":"Point"},"properties":{"osm_id":"3845993023","tag":{"amenity":"recycling","recycling:clothes":"yes","recycling:shoes":"yes","recycling_type":"container"}},"type":"Feature"},
	{"geometry":{"coordinates":[10.839728,48.275077],"type":"Point"},"properties":{"osm_id":"3974753973","tag":{"amenity":"recycling","operator":"Mario Sedita GmbH, 73431 Aalen","recycling:shoes":"yes","recycling_type":"container"}},"type":"Feature"},
	{"geometry":{"coordinates":[10.816563,48.279393],"type":"Point"},"properties":{"osm_id":"4813836866","tag":{"amenity":"waste_basket"}},"type":"Feature"},
	{"geometry":{"coordinates":[10.880726,48.272759],"type":"Point"},"properties":{"osm_id":"5494254213","tag":{"amenity":"waste_basket"}},"type":"Feature"},
	{"geometry":{"coordinates":[10.897612,48.282533],"type":"Point"},"properties":{"osm_id":"5696782347","tag":{"amenity":"recycling","recycling:glass":"yes","recycling_type":"container"}},"type":"Feature"},
	{"geometry":{"coordinates":[10.897609,48.282509],"type":"Point"},"properties":{"osm_id":"5696782348","tag":{"amenity":"recycling","recycling:clothes":"yes","recycling_type":"container"}},"type":"Feature"},
	{"geometry":{"coordinates":[10.88245,48.278213],"type":"Point"},"properties":{"osm_id":"5754455380","tag":{"amenity":"waste_basket"}},"type":"Feature"},
	{"geometry":{"coordinates":[10.881171,48.278027],"type":"Point"},"properties":{"osm_id":"5754455385","tag":{"amenity":"waste_basket"}},"type":"Feature"},
	{"geometry":{"coordinates":[10.897008,48.270659],"type":"Point"},"properties":{"osm_id":"5849417426","tag":{"amenity":"waste_basket"}},"type":"Feature"},
	{"geometry":{"coordinates":[10.897826,48.270543],"type":"Point"},"properties":{"osm_id":"5849417429","tag":{"amenity":"waste_basket"}},"type":"Feature"},
	{"geometry":{"coordinates":[10.896722,48.271449],"type":"Point"},"properties":{"osm_id":"5849417432","tag":{"amenity":"waste_basket"}},"type":"Feature"},
	{"geometry":{"coordinates":[10.883238,48.270947],"type":"Point"},"properties":{"osm_id":"5959453452","tag":{"amenity":"waste_basket"}},"type":"Feature"},
	{"geometry":{"coordinates":[10.882824,48.271083],"type":"Point"},"properties":{"osm_id":"5959453453","tag":{"amenity":"waste_basket"}},"type":"Feature"},
	{"geometry":{"coordinates":[10.883771,48.27136],"type":"Point"},"properties":{"osm_id":"5959486320","tag":{"amenity":"waste_basket"}},"type":"Feature"},
	{"geometry":{"coordinates":[10.885746,48.270935],"type":"Point"},"properties":{"osm_id":"5959497685","tag":{"amenity":"waste_basket"}},"type":"Feature"},
	{"geometry":{"coordinates":[10.887184,48.270247],"type":"Point"},"properties":{"osm_id":"5959497686","tag":{"amenity":"waste_basket"}},"type":"Feature"},
	{"geometry":{"coordinates":[10.884107,48.271313],"type":"Point"},"properties":{"osm_id":"5959497688","tag":{"amenity":"waste_basket"}},"type":"Feature"},
	{"geometry":{"coordinates":[10.870844,48.256265],"type":"Point"},"properties":{"osm_id":"6079407414","tag":{"amenity":"recycling","recycling:clothes":"yes","recycling_type":"container"}},"type":"Feature"},
	{"geometry":{"coordinates":[10.85144,48.240395],"type":"Point"},"properties":{"osm_id":"6534910669","tag":{"amenity":"waste_basket","waste":"dog_excrement"}},"type":"Feature"},
	{"geometry":{"coordinates":[10.838827,48.264138],"type":"Point"},"properties":{"osm_id":"6711800803","tag":{"amenity":"recycling","recycling:clothes":"yes","recycling_type":"container"}},"type":"Feature"}
]
}
