{
"type": "FeatureCollection",
"lastupdate": "2020-08-04T00:00:00Z",
"features": [
	{"geometry":{"coordinates":[10.817131,48.14849],"type":"Point"},"properties":{"name":"Wertstroffsammelstelle des Landkreises Landsberg am Lech","osm_id":"550597986","tag":{"amenity":"recycling","recycling_type":"centre"}},"type":"Feature"},
	{"geometry":{"coordinates":[10.833628,48.145503],"type":"Point"},"properties":{"name":"Sortieranlage Obermeitingen","osm_id":"550598037","tag":{"amenity":"recycling","operator":"Veolia Umweltservice","phone":"+49 8232 968410","recycling_type":"centre","website":"http://www.veolia-umweltservice.de/standorte/detail/Entsorgung-und-Abfallmanagement-in-Obermeitingen/153"}},"type":"Feature"},
	{"geometry":{"coordinates":[10.839034,48.154218],"type":"Point"},"properties":{"osm_id":"557275739","tag":{"amenity":"recycling","recycling:green_waste":"yes","recycling_type":"dump"}},"type":"Feature"},
	{"geometry":{"coordinates":[10.831912,48.152419],"type":"Point"},"properties":{"osm_id":"558644113","tag":{"amenity":"recycling","recycling:cans":"yes","recycling:clothes":"yes","recycling:glass":"yes"}},"type":"Feature"},
	{"geometry":{"coordinates":[10.815607,48.124225],"type":"Point"},"properties":{"name":"Wertstoffsammelhof Hurlach","osm_id":"559278452","tag":{"amenity":"recycling","recycling:batteries":"yes","recycling:cans":"yes","recycling:clothes":"yes","recycling:glass":"yes","recycling:paper":"yes","recycling:scrap_metal":"yes","recycling_type":"centre"}},"type":"Feature"},
	{"geometry":{"coordinates":[10.869384,48.107635],"type":"Point"},"properties":{"osm_id":"1781968780","tag":{"amenity":"waste_basket"}},"type":"Feature"},
	{"geometry":{"coordinates":[10.864916,48.11462],"type":"Point"},"properties":{"osm_id":"1781968782","tag":{"amenity":"waste_basket"}},"type":"Feature"},
	{"geometry":{"coordinates":[10.838448,48.164362],"type":"Point"},"properties":{"osm_id":"4213496828","tag":{"amenity":"waste_basket","waste":"dog_excrement"}},"type":"Feature"},
	{"geometry":{"coordinates":[10.818716,48.157578],"type":"Point"},"properties":{"osm_id":"4213515359","tag":{"amenity":"waste_basket","waste":"dog_excrement"}},"type":"Feature"},
	{"geometry":{"coordinates":[10.815714,48.163029],"type":"Point"},"properties":{"osm_id":"4213515361","tag":{"amenity":"waste_basket","waste":"dog_excrement"}},"type":"Feature"},
	{"geometry":{"coordinates":[10.831999,48.147525],"type":"Point"},"properties":{"osm_id":"4239049826","tag":{"amenity":"waste_basket","waste":"dog_excrement"}},"type":"Feature"},
	{"geometry":{"coordinates":[10.813405,48.147898],"type":"Point"},"properties":{"osm_id":"4239049828","tag":{"amenity":"waste_basket","waste":"dog_excrement"}},"type":"Feature"},
	{"geometry":{"coordinates":[10.824363,48.150573],"type":"Point"},"properties":{"osm_id":"4239049832","tag":{"amenity":"waste_basket","waste":"dog_excrement"}},"type":"Feature"},
	{"geometry":{"coordinates":[10.814463,48.150803],"type":"Point"},"properties":{"osm_id":"4239049834","tag":{"amenity":"waste_basket","waste":"dog_excrement"}},"type":"Feature"},
	{"geometry":{"coordinates":[10.825148,48.153751],"type":"Point"},"properties":{"osm_id":"4239049836","tag":{"amenity":"waste_basket","waste":"dog_excrement"}},"type":"Feature"},
	{"geometry":{"coordinates":[10.830144,48.158186],"type":"Point"},"properties":{"osm_id":"4239049840","tag":{"amenity":"waste_basket","waste":"dog_excrement"}},"type":"Feature"},
	{"geometry":{"coordinates":[10.814716,48.158208],"type":"Point"},"properties":{"osm_id":"4239049842","tag":{"amenity":"waste_basket","waste":"dog_excrement"}},"type":"Feature"},
	{"geometry":{"coordinates":[10.837956,48.160456],"type":"Point"},"properties":{"osm_id":"4239049844","tag":{"amenity":"waste_basket","waste":"dog_excrement"}},"type":"Feature"},
	{"geometry":{"coordinates":[10.812378,48.161928],"type":"Point"},"properties":{"osm_id":"4239049846","tag":{"amenity":"waste_basket","waste":"dog_excrement"}},"type":"Feature"},
	{"geometry":{"coordinates":[10.839134,48.162711],"type":"Point"},"properties":{"osm_id":"4239049848","tag":{"amenity":"waste_basket","waste":"dog_excrement"}},"type":"Feature"},
	{"geometry":{"coordinates":[10.832215,48.162868],"type":"Point"},"properties":{"osm_id":"4239049850","tag":{"amenity":"waste_basket","waste":"dog_excrement"}},"type":"Feature"},
	{"geometry":{"coordinates":[10.82171,48.121456],"type":"Point"},"properties":{"osm_id":"4417977716","tag":{"amenity":"waste_basket","waste":"excrement"}},"type":"Feature"},
	{"geometry":{"coordinates":[10.833817,48.157799],"type":"Point"},"properties":{"osm_id":"5109534624","tag":{"amenity":"waste_basket"}},"type":"Feature"},
	{"geometry":{"coordinates":[10.819323,48.159904],"type":"Point"},"properties":{"osm_id":"5119093821","tag":{"amenity":"waste_basket"}},"type":"Feature"},
	{"geometry":{"coordinates":[10.862845,48.108861],"type":"Point"},"properties":{"osm_id":"5631893635","tag":{"amenity":"waste_basket"}},"type":"Feature"},
	{"geometry":{"coordinates":[10.862024,48.109673],"type":"Point"},"properties":{"osm_id":"5631918769","tag":{"amenity":"waste_basket"}},"type":"Feature"},
	{"geometry":{"coordinates":[10.860008,48.110637],"type":"Point"},"properties":{"osm_id":"5631923808","tag":{"amenity":"waste_basket"}},"type":"Feature"},
	{"geometry":{"coordinates":[10.817009,48.160527],"type":"Point"},"properties":{"osm_id":"6036362774","tag":{"amenity":"waste_basket"}},"type":"Feature"},
	{"geometry":{"coordinates":[10.816873,48.160631],"type":"Point"},"properties":{"osm_id":"6036362781","tag":{"amenity":"waste_basket"}},"type":"Feature"},
	{"geometry":{"coordinates":[10.866402,48.113001],"type":"Point"},"properties":{"osm_id":"6681977448","tag":{"amenity":"waste_basket"}},"type":"Feature"},
	{"geometry":{"coordinates":[10.868266,48.110335],"type":"Point"},"properties":{"osm_id":"6681977450","tag":{"amenity":"waste_basket"}},"type":"Feature"},
	{"geometry":{"coordinates":[10.868627,48.109782],"type":"Point"},"properties":{"osm_id":"6681977452","tag":{"amenity":"waste_basket"}},"type":"Feature"},
	{"geometry":{"coordinates":[10.86902,48.108641],"type":"Point"},"properties":{"osm_id":"6681977454","tag":{"amenity":"waste_basket"}},"type":"Feature"},
	{"geometry":{"coordinates":[10.865472,48.113734],"type":"Point"},"properties":{"osm_id":"6682000213","tag":{"amenity":"waste_basket"}},"type":"Feature"}
]
}
