{
"type": "FeatureCollection",
"features": [
	{"geometry":{"coordinates":[10.884324,48.05079],"type":"Point"},"properties":{"osm_id":"276530019","tag":{"amenity":"recycling"}},"type":"Feature"},
	{"geometry":{"coordinates":[10.811591,48.070817],"type":"Point"},"properties":{"name":"Wertstoffsammelstelle Igling","osm_id":"277317896","tag":{"amenity":"recycling","recycling_type":"centre"}},"type":"Feature"},
	{"geometry":{"coordinates":[10.81209,48.073114],"type":"Point"},"properties":{"osm_id":"277320323","tag":{"amenity":"recycling"}},"type":"Feature"},
	{"geometry":{"coordinates":[10.874103,48.050857],"type":"Point"},"properties":{"osm_id":"292126440","tag":{"amenity":"recycling","recycling_type":"container"}},"type":"Feature"},
	{"geometry":{"coordinates":[10.87107,48.076774],"type":"Point"},"properties":{"osm_id":"386897293","tag":{"amenity":"recycling","collection_times":"Mo,We 13:30-16:00; Tu-Fr 13:30-18:00; Sa 09:00-16:00","phone":"+49 8191 922250","recycling:batteries":"yes","recycling:beverage_cartons":"yes","recycling:cans":"yes","recycling:clothes":"yes","recycling:computers":"yes","recycling:cork":"yes","recycling:drugs":"no","recycling:engine_oil":"no","recycling:glass":"yes","recycling:paper":"yes","recycling:plastic":"yes","recycling:scrap_metal":"yes","recycling:shoes":"no","recycling:styrofoam":"yes","recycling:tv_monitor":"yes","recycling_type":"centre","website":"http://www.kaufering.de/?language=DE&kat=Recyclinghof"}},"type":"Feature"},
	{"geometry":{"coordinates":[10.87404,48.059557],"type":"Point"},"properties":{"osm_id":"761731284","tag":{"amenity":"recycling","recycling:glass":"yes","recycling:paper":"yes","recycling:scrap_metal":"no","recycling:shoes":"yes"}},"type":"Feature"},
	{"geometry":{"coordinates":[10.87297,48.055945],"type":"Point"},"properties":{"osm_id":"762090159","tag":{"amenity":"recycling","recycling:glass_bottles":"yes","recycling:paper":"yes","recycling_type":"container"}},"type":"Feature"},
	{"geometry":{"coordinates":[10.857853,48.087063],"type":"Point"},"properties":{"osm_id":"866080191","tag":{"amenity":"recycling","location":"overground","recycling_type":"container"}},"type":"Feature"},
	{"geometry":{"coordinates":[10.861017,48.093965],"type":"Point"},"properties":{"osm_id":"1250240710","tag":{"amenity":"waste_basket"}},"type":"Feature"},
	{"geometry":{"coordinates":[10.865953,48.095161],"type":"Point"},"properties":{"osm_id":"1250240730","tag":{"amenity":"waste_basket","waste":"excrements"}},"type":"Feature"},
	{"geometry":{"coordinates":[10.841822,48.089347],"type":"Point"},"properties":{"osm_id":"1250240739","tag":{"amenity":"waste_basket"}},"type":"Feature"},
	{"geometry":{"coordinates":[10.860821,48.093284],"type":"Point"},"properties":{"osm_id":"1250240764","tag":{"amenity":"waste_basket"}},"type":"Feature"},
	{"geometry":{"coordinates":[10.867335,48.050016],"type":"Point"},"properties":{"osm_id":"1329466676","tag":{"amenity":"waste_basket","waste":"excrements"}},"type":"Feature"},
	{"geometry":{"coordinates":[10.864645,48.062715],"type":"Point"},"properties":{"osm_id":"1334754592","tag":{"amenity":"waste_basket","waste":"excrements"}},"type":"Feature"},
	{"geometry":{"coordinates":[10.858614,48.084024],"type":"Point"},"properties":{"osm_id":"1491566609","tag":{"amenity":"waste_basket"}},"type":"Feature"},
	{"geometry":{"coordinates":[10.858405,48.084098],"type":"Point"},"properties":{"osm_id":"1491566612","tag":{"amenity":"waste_basket"}},"type":"Feature"},
	{"geometry":{"coordinates":[10.860181,48.08442],"type":"Point"},"properties":{"osm_id":"1491566622","tag":{"amenity":"waste_basket"}},"type":"Feature"},
	{"geometry":{"coordinates":[10.864509,48.050851],"type":"Point"},"properties":{"osm_id":"1690919805","tag":{"amenity":"recycling","recycling:clothes":"yes","recycling_type":"container"}},"type":"Feature"},
	{"geometry":{"coordinates":[10.869774,48.058039],"type":"Point"},"properties":{"osm_id":"1813009907","tag":{"amenity":"waste_basket","waste":"excrements"}},"type":"Feature"},
	{"geometry":{"coordinates":[10.867586,48.063433],"type":"Point"},"properties":{"osm_id":"1813009942","tag":{"amenity":"waste_basket"}},"type":"Feature"},
	{"geometry":{"coordinates":[10.8475,48.080565],"type":"Point"},"properties":{"osm_id":"1833033665","tag":{"amenity":"waste_basket"}},"type":"Feature"},
	{"geometry":{"coordinates":[10.865697,48.095667],"type":"Point"},"properties":{"osm_id":"1891263649","tag":{"amenity":"waste_basket"}},"type":"Feature"},
	{"geometry":{"coordinates":[10.869605,48.056789],"type":"Point"},"properties":{"osm_id":"2098452022","tag":{"amenity":"waste_basket","waste":"excrements"}},"type":"Feature"},
	{"geometry":{"coordinates":[10.861937,48.058823],"type":"Point"},"properties":{"osm_id":"2103359918","tag":{"amenity":"waste_basket","waste":"excrements"}},"type":"Feature"},
	{"geometry":{"coordinates":[10.859492,48.073828],"type":"Point"},"properties":{"osm_id":"2175330304","tag":{"amenity":"recycling","recycling:clothes":"yes","recycling_type":"container"}},"type":"Feature"},
	{"geometry":{"coordinates":[10.850895,48.055295],"type":"Point"},"properties":{"osm_id":"2685051280","tag":{"amenity":"waste_basket","waste":"excrements"}},"type":"Feature"},
	{"geometry":{"coordinates":[10.874411,48.050343],"type":"Point"},"properties":{"osm_id":"3166964251","tag":{"amenity":"waste_basket","waste":"excrements"}},"type":"Feature"},
	{"geometry":{"coordinates":[10.874063,48.053423],"type":"Point"},"properties":{"osm_id":"3166964317","tag":{"amenity":"waste_basket","waste":"excrements"}},"type":"Feature"},
	{"geometry":{"coordinates":[10.87335,48.054007],"type":"Point"},"properties":{"osm_id":"3389500153","tag":{"amenity":"waste_basket","waste":"excrements"}},"type":"Feature"},
	{"geometry":{"coordinates":[10.853456,48.050328],"type":"Point"},"properties":{"osm_id":"3760147859","tag":{"amenity":"waste_basket","waste":"excrements"}},"type":"Feature"},
	{"geometry":{"coordinates":[10.856094,48.050799],"type":"Point"},"properties":{"osm_id":"3766120256","tag":{"amenity":"waste_basket","waste":"excrements"}},"type":"Feature"},
	{"geometry":{"coordinates":[10.853453,48.055824],"type":"Point"},"properties":{"osm_id":"3770701174","tag":{"amenity":"waste_basket","waste":"excrements"}},"type":"Feature"},
	{"geometry":{"coordinates":[10.854885,48.058237],"type":"Point"},"properties":{"osm_id":"3770701185","tag":{"amenity":"waste_basket","waste":"excrements"}},"type":"Feature"},
	{"geometry":{"coordinates":[10.861681,48.062536],"type":"Point"},"properties":{"osm_id":"3770701192","tag":{"amenity":"waste_basket","waste":"excrements"}},"type":"Feature"},
	{"geometry":{"coordinates":[10.864755,48.09648],"type":"Point"},"properties":{"osm_id":"3770701232","tag":{"amenity":"waste_basket"}},"type":"Feature"},
	{"geometry":{"coordinates":[10.863276,48.09849],"type":"Point"},"properties":{"osm_id":"3770701234","tag":{"amenity":"waste_basket"}},"type":"Feature"},
	{"geometry":{"coordinates":[10.863693,48.103372],"type":"Point"},"properties":{"osm_id":"3770701237","tag":{"amenity":"waste_basket"}},"type":"Feature"},
	{"geometry":{"coordinates":[10.863911,48.106827],"type":"Point"},"properties":{"osm_id":"3770701242","tag":{"amenity":"waste_basket"}},"type":"Feature"},
	{"geometry":{"coordinates":[10.855071,48.05231],"type":"Point"},"properties":{"osm_id":"3770776372","tag":{"amenity":"waste_basket","waste":"excrements"}},"type":"Feature"},
	{"geometry":{"coordinates":[10.855822,48.054262],"type":"Point"},"properties":{"osm_id":"3770776373","tag":{"amenity":"waste_basket","waste":"excrements"}},"type":"Feature"},
	{"geometry":{"coordinates":[10.816475,48.084393],"type":"Point"},"properties":{"osm_id":"3770776388","tag":{"amenity":"waste_basket","waste":"excrements"}},"type":"Feature"},
	{"geometry":{"coordinates":[10.879238,48.049989],"type":"Point"},"properties":{"osm_id":"3978475114","tag":{"amenity":"waste_basket"}},"type":"Feature"},
	{"geometry":{"coordinates":[10.872238,48.04899],"type":"Point"},"properties":{"osm_id":"4044137861","tag":{"amenity":"waste_basket"}},"type":"Feature"},
	{"geometry":{"coordinates":[10.871837,48.049364],"type":"Point"},"properties":{"osm_id":"4044137866","tag":{"amenity":"waste_basket"}},"type":"Feature"},
	{"geometry":{"coordinates":[10.881948,48.049859],"type":"Point"},"properties":{"osm_id":"4078387154","tag":{"amenity":"waste_basket"}},"type":"Feature"},
	{"geometry":{"coordinates":[10.870722,48.050686],"type":"Point"},"properties":{"osm_id":"4080183238","tag":{"amenity":"waste_basket"}},"type":"Feature"},
	{"geometry":{"coordinates":[10.873762,48.055452],"type":"Point"},"properties":{"osm_id":"4080183362","tag":{"amenity":"waste_basket"}},"type":"Feature"},
	{"geometry":{"coordinates":[10.875583,48.056103],"type":"Point"},"properties":{"osm_id":"4080183405","tag":{"amenity":"recycling","recycling:clothes":"yes","recycling:shoes":"yes","recycling_type":"container"}},"type":"Feature"},
	{"geometry":{"coordinates":[10.875506,48.056342],"type":"Point"},"properties":{"osm_id":"4080183423","tag":{"amenity":"waste_basket","waste":"excrements"}},"type":"Feature"},
	{"geometry":{"coordinates":[10.874237,48.051836],"type":"Point"},"properties":{"osm_id":"4083303497","tag":{"amenity":"waste_basket"}},"type":"Feature"},
	{"geometry":{"coordinates":[10.873834,48.053357],"type":"Point"},"properties":{"osm_id":"4083303525","tag":{"amenity":"waste_basket","waste":"dog_excrement"}},"type":"Feature"},
	{"geometry":{"coordinates":[10.868393,48.053505],"type":"Point"},"properties":{"osm_id":"4083303530","tag":{"amenity":"waste_basket"}},"type":"Feature"},
	{"geometry":{"coordinates":[10.874936,48.053523],"type":"Point"},"properties":{"osm_id":"4083303531","tag":{"amenity":"waste_basket"}},"type":"Feature"},
	{"geometry":{"coordinates":[10.868711,48.053706],"type":"Point"},"properties":{"osm_id":"4083303539","tag":{"amenity":"waste_basket"}},"type":"Feature"},
	{"geometry":{"coordinates":[10.869328,48.055116],"type":"Point"},"properties":{"osm_id":"4083303559","tag":{"amenity":"waste_basket"}},"type":"Feature"},
	{"geometry":{"coordinates":[10.875532,48.055459],"type":"Point"},"properties":{"osm_id":"4083303566","tag":{"amenity":"waste_basket"}},"type":"Feature"},
	{"geometry":{"coordinates":[10.869162,48.05582],"type":"Point"},"properties":{"osm_id":"4083303571","tag":{"amenity":"waste_basket"}},"type":"Feature"},
	{"geometry":{"coordinates":[10.859237,48.056097],"type":"Point"},"properties":{"osm_id":"4111996149","tag":{"amenity":"recycling","operator":"Aktion Hoffnung","recycling:clothes":"yes","recycling:shoes":"yes","recycling_type":"container"}},"type":"Feature"},
	{"geometry":{"coordinates":[10.86037,48.05564],"type":"Point"},"properties":{"osm_id":"4112275369","tag":{"amenity":"waste_basket"}},"type":"Feature"},
	{"geometry":{"coordinates":[10.860871,48.055732],"type":"Point"},"properties":{"osm_id":"4112275371","tag":{"amenity":"waste_basket"}},"type":"Feature"},
	{"geometry":{"coordinates":[10.860686,48.055787],"type":"Point"},"properties":{"osm_id":"4112275373","tag":{"amenity":"waste_basket"}},"type":"Feature"},
	{"geometry":{"coordinates":[10.861136,48.055932],"type":"Point"},"properties":{"osm_id":"4112275380","tag":{"amenity":"waste_basket"}},"type":"Feature"},
	{"geometry":{"coordinates":[10.874954,48.057579],"type":"Point"},"properties":{"osm_id":"4139355235","tag":{"amenity":"waste_basket"}},"type":"Feature"},
	{"geometry":{"coordinates":[10.88317,48.053004],"type":"Point"},"properties":{"osm_id":"4156212778","tag":{"amenity":"recycling","recycling:clothes":"yes","recycling:shoes":"yes","recycling_type":"container"}},"type":"Feature"},
	{"geometry":{"coordinates":[10.850442,48.05948],"type":"Point"},"properties":{"osm_id":"4291317251","tag":{"amenity":"recycling","recycling:batteries":"yes","recycling:clothes":"yes","recycling:glass":"yes","recycling_type":"centre"}},"type":"Feature"},
	{"geometry":{"coordinates":[10.862564,48.054808],"type":"Point"},"properties":{"osm_id":"4369820937","tag":{"amenity":"waste_basket","waste":"excrements"}},"type":"Feature"},
	{"geometry":{"coordinates":[10.862927,48.054825],"type":"Point"},"properties":{"osm_id":"4369820938","tag":{"amenity":"waste_basket"}},"type":"Feature"},
	{"geometry":{"coordinates":[10.874121,48.05444],"type":"Point"},"properties":{"osm_id":"4538322425","tag":{"amenity":"waste_basket"}},"type":"Feature"},
	{"geometry":{"coordinates":[10.877781,48.05233],"type":"Point"},"properties":{"osm_id":"4538322439","tag":{"amenity":"waste_basket"}},"type":"Feature"},
	{"geometry":{"coordinates":[10.88114,48.062119],"type":"Point"},"properties":{"osm_id":"4575471223","tag":{"amenity":"waste_basket","waste":"excrements"}},"type":"Feature"},
	{"geometry":{"coordinates":[10.879961,48.055759],"type":"Point"},"properties":{"osm_id":"4575471335","tag":{"amenity":"waste_basket","waste":"excrements"}},"type":"Feature"},
	{"geometry":{"coordinates":[10.878596,48.054331],"type":"Point"},"properties":{"osm_id":"4575471356","tag":{"amenity":"waste_basket"}},"type":"Feature"},
	{"geometry":{"coordinates":[10.872187,48.0563],"type":"Point"},"properties":{"osm_id":"4701940032","tag":{"amenity":"waste_basket"}},"type":"Feature"},
	{"geometry":{"coordinates":[10.891476,48.05425],"type":"Point"},"properties":{"osm_id":"4853859440","tag":{"amenity":"waste_disposal","waste":"excrements"}},"type":"Feature"},
	{"geometry":{"coordinates":[10.863173,48.100759],"type":"Point"},"properties":{"osm_id":"5016724572","tag":{"amenity":"waste_basket"}},"type":"Feature"},
	{"geometry":{"coordinates":[10.875567,48.054055],"type":"Point"},"properties":{"osm_id":"5179922624","tag":{"amenity":"waste_basket"}},"type":"Feature"},
	{"geometry":{"coordinates":[10.877458,48.056092],"type":"Point"},"properties":{"osm_id":"5196344999","tag":{"amenity":"waste_basket","waste":"excrements"}},"type":"Feature"},
	{"geometry":{"coordinates":[10.875262,48.065689],"type":"Point"},"properties":{"osm_id":"5202544706","tag":{"amenity":"waste_basket","waste":"excrements"}},"type":"Feature"},
	{"geometry":{"coordinates":[10.861631,48.057438],"type":"Point"},"properties":{"osm_id":"5202629944","tag":{"amenity":"waste_basket","waste":"excrements"}},"type":"Feature"},
	{"geometry":{"coordinates":[10.848058,48.058516],"type":"Point"},"properties":{"osm_id":"5313855138","tag":{"amenity":"waste_basket"}},"type":"Feature"},
	{"geometry":{"coordinates":[10.856973,48.049013],"type":"Point"},"properties":{"osm_id":"5586806311","tag":{"amenity":"waste_basket"}},"type":"Feature"},
	{"geometry":{"coordinates":[10.863229,48.100895],"type":"Point"},"properties":{"osm_id":"5631889377","tag":{"amenity":"waste_basket"}},"type":"Feature"},
	{"geometry":{"coordinates":[10.876409,48.048903],"type":"Point"},"properties":{"osm_id":"6051416412","tag":{"amenity":"waste_basket"}},"type":"Feature"},
	{"geometry":{"coordinates":[10.875372,48.052468],"type":"Point"},"properties":{"osm_id":"6171261471","tag":{"amenity":"waste_basket"}},"type":"Feature"},
	{"geometry":{"coordinates":[10.875328,48.05253],"type":"Point"},"properties":{"osm_id":"6533760047","tag":{"amenity":"waste_basket"}},"type":"Feature"},
	{"geometry":{"coordinates":[10.877233,48.049829],"type":"Point"},"properties":{"osm_id":"6533777123","tag":{"amenity":"waste_basket"}},"type":"Feature"},
	{"geometry":{"coordinates":[10.855129,48.080267],"type":"Point"},"properties":{"osm_id":"6566651361","tag":{"amenity":"recycling","recycling:clothes":"yes","recycling:shoes":"yes","recycling_type":"container"}},"type":"Feature"},
	{"geometry":{"coordinates":[10.811384,48.068449],"type":"Point"},"properties":{"osm_id":"6614770084","tag":{"amenity":"waste_basket","waste":"dog_excrement"}},"type":"Feature"},
	{"geometry":{"coordinates":[10.874591,48.0736],"type":"Point"},"properties":{"osm_id":"6658825846","tag":{"amenity":"waste_basket"}},"type":"Feature"},
	{"geometry":{"coordinates":[10.872635,48.089377],"type":"Point"},"properties":{"osm_id":"6661951771","tag":{"amenity":"waste_basket"}},"type":"Feature"},
	{"geometry":{"coordinates":[10.872942,48.090188],"type":"Point"},"properties":{"osm_id":"6662096838","tag":{"amenity":"waste_basket"}},"type":"Feature"},
	{"geometry":{"coordinates":[10.870115,48.103948],"type":"Point"},"properties":{"osm_id":"6681973390","tag":{"amenity":"waste_basket"}},"type":"Feature"},
	{"geometry":{"coordinates":[10.869234,48.101992],"type":"Point"},"properties":{"osm_id":"6681973394","tag":{"amenity":"waste_basket"}},"type":"Feature"},
	{"geometry":{"coordinates":[10.868075,48.100604],"type":"Point"},"properties":{"osm_id":"6681973396","tag":{"amenity":"waste_basket"}},"type":"Feature"},
	{"geometry":{"coordinates":[10.867695,48.100172],"type":"Point"},"properties":{"osm_id":"6681973399","tag":{"amenity":"waste_basket"}},"type":"Feature"},
	{"geometry":{"coordinates":[10.86739,48.099804],"type":"Point"},"properties":{"osm_id":"6681973400","tag":{"amenity":"waste_basket"}},"type":"Feature"},
	{"geometry":{"coordinates":[10.874899,48.049387],"type":"Point"},"properties":{"osm_id":"7398790333","tag":{"amenity":"waste_basket"}},"type":"Feature"},
	{"geometry":{"coordinates":[10.845489,48.084412],"type":"Point"},"properties":{"osm_id":"7619922227","tag":{"amenity":"waste_basket","waste":"dog_excrement"}},"type":"Feature"}
]
}
