{
"type": "FeatureCollection",
"features": [
	{"geometry":{"coordinates":[10.836374,45.89772],"type":"Point"},"properties":{"name":"Centro Raccolta Materiali","osm_id":"353182845","tag":{"amenity":"recycling","location":"overground","recycling:batteries":"yes","recycling:cans":"yes","recycling:glass":"yes","recycling:paper":"yes","recycling:scrap_metal":"yes","recycling_type":"container"}},"type":"Feature"},
	{"geometry":{"coordinates":[10.840159,45.907327],"type":"Point"},"properties":{"osm_id":"461102485","tag":{"amenity":"recycling","recycling:glass":"yes","recycling:paper":"yes"}},"type":"Feature"},
	{"geometry":{"coordinates":[10.891952,45.918154],"type":"Point"},"properties":{"osm_id":"476780825","tag":{"amenity":"recycling","recycling:cans":"yes","recycling:glass":"yes","recycling:paper":"yes"}},"type":"Feature"},
	{"geometry":{"coordinates":[10.869538,45.93181],"type":"Point"},"properties":{"osm_id":"528945700","tag":{"amenity":"recycling","recycling:glass":"yes","recycling:paper":"yes"}},"type":"Feature"},
	{"geometry":{"coordinates":[10.864195,45.92262],"type":"Point"},"properties":{"osm_id":"642206792","tag":{"amenity":"recycling","recycling:cans":"yes","recycling:glass":"yes","recycling:paper":"yes"}},"type":"Feature"},
	{"geometry":{"coordinates":[10.893402,45.932543],"type":"Point"},"properties":{"osm_id":"862994264","tag":{"amenity":"waste_disposal"}},"type":"Feature"},
	{"geometry":{"coordinates":[10.876334,45.917115],"type":"Point"},"properties":{"osm_id":"913628425","tag":{"amenity":"recycling","recycling:cans":"yes","recycling:glass":"yes","recycling:paper":"yes"}},"type":"Feature"},
	{"geometry":{"coordinates":[10.85793,45.917996],"type":"Point"},"properties":{"osm_id":"955954368","tag":{"amenity":"recycling","recycling:cans":"yes","recycling:glass":"yes","recycling:paper":"yes"}},"type":"Feature"},
	{"geometry":{"coordinates":[10.88764,45.904677],"type":"Point"},"properties":{"osm_id":"1119117554","tag":{"amenity":"recycling","recycling:glass":"yes","recycling:paper":"yes"}},"type":"Feature"},
	{"geometry":{"coordinates":[10.889697,45.92099],"type":"Point"},"properties":{"osm_id":"2552191236","tag":{"amenity":"recycling","recycling:cans":"yes","recycling:glass":"yes","recycling:paper":"yes","recycling_type":"container"}},"type":"Feature"},
	{"geometry":{"coordinates":[10.845673,45.901609],"type":"Point"},"properties":{"osm_id":"2890064127","tag":{"amenity":"recycling","recycling_type":"container"}},"type":"Feature"},
	{"geometry":{"coordinates":[10.887948,45.919753],"type":"Point"},"properties":{"osm_id":"3744627835","tag":{"amenity":"waste_basket"}},"type":"Feature"},
	{"geometry":{"coordinates":[10.850141,45.894809],"type":"Point"},"properties":{"osm_id":"4003293870","tag":{"amenity":"recycling","recycling_type":"container"}},"type":"Feature"},
	{"geometry":{"coordinates":[10.890834,45.927608],"type":"Point"},"properties":{"osm_id":"4175487142","tag":{"amenity":"waste_disposal"}},"type":"Feature"},
	{"geometry":{"coordinates":[10.857348,45.905234],"type":"Point"},"properties":{"osm_id":"4731160141","tag":{"amenity":"recycling","recycling_type":"container"}},"type":"Feature"},
	{"geometry":{"coordinates":[10.89581,45.931341],"type":"Point"},"properties":{"osm_id":"4894833661","tag":{"amenity":"recycling","recycling:beverage_cartons":"yes","recycling_type":"container"}},"type":"Feature"},
	{"geometry":{"coordinates":[10.895825,45.931331],"type":"Point"},"properties":{"osm_id":"4894833662","tag":{"amenity":"recycling","recycling:plastic":"yes","recycling_type":"container"}},"type":"Feature"},
	{"geometry":{"coordinates":[10.893364,45.927779],"type":"Point"},"properties":{"osm_id":"4894833682","tag":{"amenity":"waste_basket"}},"type":"Feature"},
	{"geometry":{"coordinates":[10.895172,45.925298],"type":"Point"},"properties":{"osm_id":"4895732741","tag":{"amenity":"recycling","recycling:plastic":"yes","recycling_type":"container"}},"type":"Feature"},
	{"geometry":{"coordinates":[10.895154,45.925291],"type":"Point"},"properties":{"osm_id":"4895732742","tag":{"amenity":"recycling","recycling:beverage_cartons":"yes","recycling_type":"container"}},"type":"Feature"},
	{"geometry":{"coordinates":[10.84844,45.919394],"type":"Point"},"properties":{"osm_id":"5850903878","tag":{"amenity":"recycling","recycling:cans":"yes","recycling:cardboard":"yes","recycling:glass_bottles":"yes","recycling:green_waste":"yes","recycling:plastic_bottles":"yes","recycling:plastic_packaging":"yes","recycling:waste":"yes","recycling_type":"container","wheelchair":"yes"}},"type":"Feature"},
	{"geometry":{"coordinates":[10.848634,45.918267],"type":"Point"},"properties":{"osm_id":"5853573550","tag":{"amenity":"recycling","recycling:cans":"yes","recycling:green_waste":"yes","recycling:plastic_bottles":"yes","recycling:plastic_packaging":"yes","recycling_type":"container","wheelchair":"yes"}},"type":"Feature"},
	{"geometry":{"coordinates":[10.887341,45.918029],"type":"Point"},"properties":{"osm_id":"5936948096","tag":{"amenity":"recycling","recycling:batteries":"yes","recycling:cans":"yes","recycling:clothes":"no","recycling:glass":"yes","recycling:glass_bottles":"yes","recycling:paper":"yes","recycling:plastic":"yes","recycling:plastic_bottles":"yes","recycling:waste":"no","recycling_type":"container"}},"type":"Feature"},
	{"geometry":{"coordinates":[10.880524,45.900651],"type":"Point"},"properties":{"osm_id":"6828635613","tag":{"amenity":"waste_basket"}},"type":"Feature"},
	{"geometry":{"coordinates":[10.880457,45.8979],"type":"Point"},"properties":{"osm_id":"6987219431","tag":{"amenity":"waste_basket"}},"type":"Feature"},
	{"geometry":{"coordinates":[10.832261,45.917389],"type":"Point"},"properties":{"osm_id":"7623368863","tag":{"amenity":"recycling","recycling_type":"container"}},"type":"Feature"},
	{"geometry":{"coordinates":[10.828374,45.921863],"type":"Point"},"properties":{"osm_id":"7630091894","tag":{"amenity":"recycling","recycling_type":"container"}},"type":"Feature"},
	{"geometry":{"coordinates":[10.841761,45.890414],"type":"Point"},"properties":{"osm_id":"7920762073","tag":{"amenity":"recycling","recycling_type":"centre"}},"type":"Feature"},
	{"geometry":{"coordinates":[10.844809,45.894651],"type":"Point"},"properties":{"osm_id":"7931295586","tag":{"amenity":"recycling","recycling_type":"container"}},"type":"Feature"},
	{"geometry":{"coordinates":[10.844356,45.893876],"type":"Point"},"properties":{"osm_id":"7938116774","tag":{"amenity":"recycling","recycling_type":"container"}},"type":"Feature"},
	{"geometry":{"coordinates":[10.844384,45.89387],"type":"Point"},"properties":{"osm_id":"7938116775","tag":{"amenity":"recycling","recycling_type":"container"}},"type":"Feature"},
	{"geometry":{"coordinates":[10.844409,45.893871],"type":"Point"},"properties":{"osm_id":"7938116776","tag":{"amenity":"recycling","recycling_type":"container"}},"type":"Feature"},
	{"geometry":{"coordinates":[10.844686,45.891634],"type":"Point"},"properties":{"osm_id":"7938439241","tag":{"amenity":"recycling","recycling_type":"container"}},"type":"Feature"},
	{"geometry":{"coordinates":[10.844722,45.891626],"type":"Point"},"properties":{"osm_id":"7938439242","tag":{"amenity":"recycling","recycling_type":"container"}},"type":"Feature"},
	{"geometry":{"coordinates":[10.844753,45.891619],"type":"Point"},"properties":{"osm_id":"7938439243","tag":{"amenity":"recycling","recycling_type":"container"}},"type":"Feature"},
	{"geometry":{"coordinates":[10.844783,45.891616],"type":"Point"},"properties":{"osm_id":"7938439244","tag":{"amenity":"recycling","recycling_type":"container"}},"type":"Feature"},
	{"geometry":{"coordinates":[10.842615,45.892933],"type":"Point"},"properties":{"osm_id":"7938952716","tag":{"amenity":"recycling","recycling_type":"container"}},"type":"Feature"},
	{"geometry":{"coordinates":[10.84264,45.892933],"type":"Point"},"properties":{"osm_id":"7938952717","tag":{"amenity":"recycling","recycling_type":"container"}},"type":"Feature"},
	{"geometry":{"coordinates":[10.842662,45.892931],"type":"Point"},"properties":{"osm_id":"7938952718","tag":{"amenity":"recycling","recycling_type":"container"}},"type":"Feature"},
	{"geometry":{"coordinates":[10.842686,45.892932],"type":"Point"},"properties":{"osm_id":"7938952719","tag":{"amenity":"recycling","recycling_type":"container"}},"type":"Feature"},
	{"geometry":{"coordinates":[10.842711,45.892932],"type":"Point"},"properties":{"osm_id":"7938952720","tag":{"amenity":"recycling","recycling_type":"container"}},"type":"Feature"},
	{"geometry":{"coordinates":[10.842741,45.892933],"type":"Point"},"properties":{"osm_id":"7938952721","tag":{"amenity":"recycling","recycling_type":"container"}},"type":"Feature"},
	{"geometry":{"coordinates":[10.846917,45.892124],"type":"Point"},"properties":{"osm_id":"7939008756","tag":{"amenity":"recycling","recycling_type":"container"}},"type":"Feature"},
	{"geometry":{"coordinates":[10.846896,45.892152],"type":"Point"},"properties":{"osm_id":"7939008757","tag":{"amenity":"recycling","recycling_type":"container"}},"type":"Feature"},
	{"geometry":{"coordinates":[10.846907,45.892139],"type":"Point"},"properties":{"osm_id":"7939008758","tag":{"amenity":"recycling","recycling_type":"container"}},"type":"Feature"},
	{"geometry":{"coordinates":[10.812483,45.935497],"type":"Point"},"properties":{"osm_id":"7961315233","tag":{"amenity":"recycling","recycling_type":"container"}},"type":"Feature"},
	{"geometry":{"coordinates":[10.812483,45.935487],"type":"Point"},"properties":{"osm_id":"7961315234","tag":{"amenity":"recycling","recycling_type":"container"}},"type":"Feature"},
	{"geometry":{"coordinates":[10.812484,45.935476],"type":"Point"},"properties":{"osm_id":"7961315235","tag":{"amenity":"recycling","recycling_type":"container"}},"type":"Feature"},
	{"geometry":{"coordinates":[10.812666,45.934775],"type":"Point"},"properties":{"osm_id":"7961315463","tag":{"amenity":"recycling","recycling_type":"container"}},"type":"Feature"},
	{"geometry":{"coordinates":[10.812654,45.934754],"type":"Point"},"properties":{"osm_id":"7961315464","tag":{"amenity":"recycling","recycling_type":"container"}},"type":"Feature"},
	{"geometry":{"coordinates":[10.812643,45.934736],"type":"Point"},"properties":{"osm_id":"7961315465","tag":{"amenity":"recycling","recycling_type":"container"}},"type":"Feature"},
	{"geometry":{"coordinates":[10.812632,45.934721],"type":"Point"},"properties":{"osm_id":"7961315466","tag":{"amenity":"recycling","recycling_type":"container"}},"type":"Feature"},
	{"geometry":{"coordinates":[10.812621,45.934707],"type":"Point"},"properties":{"osm_id":"7961315467","tag":{"amenity":"recycling","recycling_type":"container"}},"type":"Feature"},
	{"geometry":{"coordinates":[10.812601,45.934725],"type":"Point"},"properties":{"osm_id":"7961315468","tag":{"amenity":"recycling","recycling_type":"container"}},"type":"Feature"},
	{"geometry":{"coordinates":[10.812583,45.934743],"type":"Point"},"properties":{"osm_id":"7961315469","tag":{"amenity":"recycling","recycling_type":"container"}},"type":"Feature"},
	{"geometry":{"coordinates":[10.812566,45.93476],"type":"Point"},"properties":{"osm_id":"7961315470","tag":{"amenity":"recycling","recycling_type":"container"}},"type":"Feature"},
	{"geometry":{"coordinates":[10.812548,45.934777],"type":"Point"},"properties":{"osm_id":"7961315471","tag":{"amenity":"recycling","recycling_type":"container"}},"type":"Feature"},
	{"geometry":{"coordinates":[10.812533,45.934794],"type":"Point"},"properties":{"osm_id":"7961315472","tag":{"amenity":"recycling","recycling_type":"container"}},"type":"Feature"},
	{"geometry":{"coordinates":[10.812518,45.934811],"type":"Point"},"properties":{"osm_id":"7961315473","tag":{"amenity":"recycling","recycling_type":"container"}},"type":"Feature"},
	{"geometry":{"coordinates":[10.810783,45.934948],"type":"Point"},"properties":{"osm_id":"7961485213","tag":{"amenity":"recycling","recycling_type":"container"}},"type":"Feature"},
	{"geometry":{"coordinates":[10.810779,45.934919],"type":"Point"},"properties":{"osm_id":"7961485214","tag":{"amenity":"recycling","recycling_type":"container"}},"type":"Feature"},
	{"geometry":{"coordinates":[10.810779,45.934891],"type":"Point"},"properties":{"osm_id":"7961485215","tag":{"amenity":"recycling","recycling_type":"container"}},"type":"Feature"},
	{"geometry":{"coordinates":[10.811733,45.935189],"type":"Point"},"properties":{"osm_id":"7963678049","tag":{"amenity":"recycling","recycling_type":"container"}},"type":"Feature"},
	{"geometry":{"coordinates":[10.811753,45.935194],"type":"Point"},"properties":{"osm_id":"7963678050","tag":{"amenity":"recycling","recycling_type":"container"}},"type":"Feature"},
	{"geometry":{"coordinates":[10.811771,45.935198],"type":"Point"},"properties":{"osm_id":"7963678051","tag":{"amenity":"recycling","recycling_type":"container"}},"type":"Feature"},
	{"geometry":{"coordinates":[10.811786,45.935201],"type":"Point"},"properties":{"osm_id":"7963678052","tag":{"amenity":"recycling","recycling_type":"container"}},"type":"Feature"}
]
}
