{
"type": "FeatureCollection",
"features": [
	{"geometry":{"coordinates":[10.873512,45.872295],"type":"Point"},"properties":{"osm_id":"287393184","tag":{"amenity":"recycling","location":"overground","recycling:cans":"yes","recycling:glass_bottles":"yes","recycling:paper":"yes","recycling:plastic":"no","recycling:plastic_packaging":"yes","recycling_type":"container"}},"type":"Feature"},
	{"geometry":{"coordinates":[10.875661,45.872956],"type":"Point"},"properties":{"osm_id":"416856002","tag":{"amenity":"recycling","location":"overground","recycling:cans":"yes","recycling:glass_bottles":"yes","recycling:paper":"yes","recycling:plastic":"no","recycling:plastic_bottles":"yes","recycling:plastic_packaging":"no","recycling_type":"container"}},"type":"Feature"},
	{"geometry":{"coordinates":[10.877184,45.867841],"type":"Point"},"properties":{"osm_id":"489869106","tag":{"amenity":"recycling","location":"overground","recycling:cans":"yes","recycling:clothes":"no","recycling:glass_bottles":"yes","recycling:paper":"yes","recycling_type":"container"}},"type":"Feature"},
	{"geometry":{"coordinates":[10.879214,45.864833],"type":"Point"},"properties":{"osm_id":"489869110","tag":{"amenity":"recycling","location":"overground","recycling:cans":"yes","recycling:glass_bottles":"yes","recycling:paper":"yes","recycling_type":"container"}},"type":"Feature"},
	{"geometry":{"coordinates":[10.837901,45.888347],"type":"Point"},"properties":{"osm_id":"492906161","tag":{"amenity":"recycling","location":"overground","recycling:cans":"yes","recycling:glass_bottles":"yes","recycling:paper":"yes","recycling:plastic":"no","recycling:plastic_packaging":"yes","recycling_type":"container"}},"type":"Feature"},
	{"geometry":{"coordinates":[10.839249,45.886992],"type":"Point"},"properties":{"osm_id":"492906164","tag":{"amenity":"recycling","location":"overground","recycling:cans":"yes","recycling:glass_bottles":"yes","recycling:paper":"yes","recycling:plastic":"no","recycling:plastic_packaging":"yes","recycling_type":"container"}},"type":"Feature"},
	{"geometry":{"coordinates":[10.839979,45.886663],"type":"Point"},"properties":{"osm_id":"803634497","tag":{"amenity":"recycling","location":"underground","recycling:cans":"yes","recycling:glass_bottles":"yes","recycling:paper":"yes","recycling:plastic":"no","recycling:plastic_packaging":"yes","recycling_type":"container"}},"type":"Feature"},
	{"geometry":{"coordinates":[10.874576,45.870469],"type":"Point"},"properties":{"osm_id":"861317494","tag":{"amenity":"recycling","recycling:glass_bottles":"yes","recycling:paper":"yes","recycling_type":"container"}},"type":"Feature"},
	{"geometry":{"coordinates":[10.876747,45.866985],"type":"Point"},"properties":{"osm_id":"1385156561","tag":{"amenity":"waste_basket","check_date":"2020-12-26"}},"type":"Feature"},
	{"geometry":{"coordinates":[10.875106,45.864411],"type":"Point"},"properties":{"osm_id":"1385156604","tag":{"amenity":"recycling","location":"overground","recycling:cans":"yes","recycling:glass_bottles":"yes","recycling:plastic":"no","recycling:plastic_packaging":"yes","recycling_type":"container"}},"type":"Feature"},
	{"geometry":{"coordinates":[10.876937,45.867486],"type":"Point"},"properties":{"osm_id":"1385197107","tag":{"amenity":"waste_basket","check_date":"2020-12-26"}},"type":"Feature"},
	{"geometry":{"coordinates":[10.872705,45.874748],"type":"Point"},"properties":{"osm_id":"1385221196","tag":{"amenity":"recycling","location":"overground","recycling:cans":"yes","recycling:glass_bottles":"yes","recycling:plastic":"no","recycling:plastic_packaging":"yes","recycling_type":"container"}},"type":"Feature"},
	{"geometry":{"coordinates":[10.877982,45.865819],"type":"Point"},"properties":{"name":"Ecological area","osm_id":"1828284233","tag":{"amenity":"recycling","check_date":"2021-06-29","recycling:cartons":"yes","recycling:glass":"yes","recycling:glass_bottles":"yes","recycling:newspaper":"yes","recycling:paper":"yes","recycling:paper_packaging":"yes","recycling:plastic":"yes","recycling:plastic_bottles":"yes","recycling:plastic_packaging":"yes","recycling:scrap_metal":"yes","recycling_type":"container"}},"type":"Feature"},
	{"geometry":{"coordinates":[10.876914,45.86837],"type":"Point"},"properties":{"osm_id":"2896337774","tag":{"amenity":"waste_basket"}},"type":"Feature"},
	{"geometry":{"coordinates":[10.875198,45.871768],"type":"Point"},"properties":{"osm_id":"3154984372","tag":{"amenity":"waste_basket"}},"type":"Feature"},
	{"geometry":{"coordinates":[10.845317,45.887075],"type":"Point"},"properties":{"osm_id":"3255551587","tag":{"amenity":"recycling","recycling:paper":"yes","recycling_type":"container"}},"type":"Feature"},
	{"geometry":{"coordinates":[10.849891,45.886804],"type":"Point"},"properties":{"osm_id":"4003293547","tag":{"amenity":"recycling","recycling_type":"container"}},"type":"Feature"},
	{"geometry":{"coordinates":[10.863698,45.878054],"type":"Point"},"properties":{"osm_id":"4503218895","tag":{"amenity":"waste_basket"}},"type":"Feature"},
	{"geometry":{"coordinates":[10.867382,45.87914],"type":"Point"},"properties":{"osm_id":"4503218900","tag":{"amenity":"waste_basket","check_date":"2020-12-26"}},"type":"Feature"},
	{"geometry":{"coordinates":[10.847896,45.881594],"type":"Point"},"properties":{"osm_id":"5114843289","tag":{"amenity":"waste_basket"}},"type":"Feature"},
	{"geometry":{"coordinates":[10.846361,45.882008],"type":"Point"},"properties":{"osm_id":"5114843908","tag":{"amenity":"waste_basket"}},"type":"Feature"},
	{"geometry":{"coordinates":[10.845035,45.883214],"type":"Point"},"properties":{"osm_id":"5114843916","tag":{"amenity":"waste_basket"}},"type":"Feature"},
	{"geometry":{"coordinates":[10.854062,45.879197],"type":"Point"},"properties":{"osm_id":"5114844098","tag":{"amenity":"waste_basket"}},"type":"Feature"},
	{"geometry":{"coordinates":[10.850532,45.880178],"type":"Point"},"properties":{"osm_id":"5114844229","tag":{"amenity":"waste_basket"}},"type":"Feature"},
	{"geometry":{"coordinates":[10.853931,45.879349],"type":"Point"},"properties":{"osm_id":"5114844325","tag":{"amenity":"waste_basket"}},"type":"Feature"},
	{"geometry":{"coordinates":[10.856899,45.878737],"type":"Point"},"properties":{"osm_id":"5119739087","tag":{"amenity":"waste_basket"}},"type":"Feature"},
	{"geometry":{"coordinates":[10.855103,45.880982],"type":"Point"},"properties":{"osm_id":"5119739089","tag":{"amenity":"waste_basket"}},"type":"Feature"},
	{"geometry":{"coordinates":[10.825532,45.837144],"type":"Point"},"properties":{"osm_id":"5763551193","tag":{"amenity":"waste_basket"}},"type":"Feature"},
	{"geometry":{"coordinates":[10.821885,45.828989],"type":"Point"},"properties":{"osm_id":"5763560274","tag":{"amenity":"waste_basket"}},"type":"Feature"},
	{"geometry":{"coordinates":[10.822502,45.829496],"type":"Point"},"properties":{"osm_id":"5763560275","tag":{"amenity":"waste_basket"}},"type":"Feature"},
	{"geometry":{"coordinates":[10.822748,45.830088],"type":"Point"},"properties":{"osm_id":"5763560276","tag":{"amenity":"waste_basket"}},"type":"Feature"},
	{"geometry":{"coordinates":[10.823044,45.830618],"type":"Point"},"properties":{"osm_id":"5763560277","tag":{"amenity":"waste_basket"}},"type":"Feature"},
	{"geometry":{"coordinates":[10.823407,45.831161],"type":"Point"},"properties":{"osm_id":"5763560278","tag":{"amenity":"waste_basket"}},"type":"Feature"},
	{"geometry":{"coordinates":[10.824036,45.831593],"type":"Point"},"properties":{"osm_id":"5763560279","tag":{"amenity":"waste_basket"}},"type":"Feature"},
	{"geometry":{"coordinates":[10.82467,45.832024],"type":"Point"},"properties":{"osm_id":"5763560280","tag":{"amenity":"waste_basket"}},"type":"Feature"},
	{"geometry":{"coordinates":[10.825104,45.832584],"type":"Point"},"properties":{"osm_id":"5763560281","tag":{"amenity":"waste_basket"}},"type":"Feature"},
	{"geometry":{"coordinates":[10.825365,45.833122],"type":"Point"},"properties":{"osm_id":"5763560282","tag":{"amenity":"waste_basket"}},"type":"Feature"},
	{"geometry":{"coordinates":[10.825556,45.833743],"type":"Point"},"properties":{"osm_id":"5763560283","tag":{"amenity":"waste_basket"}},"type":"Feature"},
	{"geometry":{"coordinates":[10.825599,45.834326],"type":"Point"},"properties":{"osm_id":"5763560284","tag":{"amenity":"waste_basket"}},"type":"Feature"},
	{"geometry":{"coordinates":[10.825647,45.834882],"type":"Point"},"properties":{"osm_id":"5763560285","tag":{"amenity":"waste_basket"}},"type":"Feature"},
	{"geometry":{"coordinates":[10.82545,45.835444],"type":"Point"},"properties":{"osm_id":"5763560287","tag":{"amenity":"waste_basket"}},"type":"Feature"},
	{"geometry":{"coordinates":[10.825291,45.836006],"type":"Point"},"properties":{"osm_id":"5763560289","tag":{"amenity":"waste_basket"}},"type":"Feature"},
	{"geometry":{"coordinates":[10.82536,45.836587],"type":"Point"},"properties":{"osm_id":"5763560290","tag":{"amenity":"waste_basket"}},"type":"Feature"},
	{"geometry":{"coordinates":[10.825659,45.837701],"type":"Point"},"properties":{"osm_id":"5763560294","tag":{"amenity":"waste_basket"}},"type":"Feature"},
	{"geometry":{"coordinates":[10.877168,45.875297],"type":"Point"},"properties":{"osm_id":"5897212945","tag":{"amenity":"recycling","recycling:cans":"yes","recycling:glass_bottles":"yes","recycling:paper":"yes","recycling:plastic":"no","recycling:plastic_packaging":"yes","recycling_type":"container"}},"type":"Feature"},
	{"geometry":{"coordinates":[10.877152,45.875281],"type":"Point"},"properties":{"osm_id":"5897212946","tag":{"amenity":"recycling","recycling:cans":"yes","recycling:glass_bottles":"yes","recycling:paper":"yes","recycling:plastic":"no","recycling:plastic_packaging":"yes","recycling_type":"container"}},"type":"Feature"},
	{"geometry":{"coordinates":[10.87713,45.87526],"type":"Point"},"properties":{"osm_id":"5897212947","tag":{"amenity":"recycling","recycling:cans":"yes","recycling:glass_bottles":"yes","recycling:paper":"yes","recycling:plastic":"no","recycling:plastic_packaging":"yes","recycling_type":"container"}},"type":"Feature"},
	{"geometry":{"coordinates":[10.878674,45.876202],"type":"Point"},"properties":{"osm_id":"5897212948","tag":{"amenity":"recycling","recycling:glass_bottles":"yes","recycling_type":"container"}},"type":"Feature"},
	{"geometry":{"coordinates":[10.878696,45.876212],"type":"Point"},"properties":{"osm_id":"5897212949","tag":{"amenity":"recycling","recycling:cans":"yes","recycling:glass_bottles":"yes","recycling:plastic":"no","recycling:plastic_packaging":"yes","recycling_type":"container"}},"type":"Feature"},
	{"geometry":{"coordinates":[10.878714,45.87622],"type":"Point"},"properties":{"osm_id":"5897212950","tag":{"amenity":"recycling","recycling:cans":"yes","recycling:glass_bottles":"yes","recycling:plastic":"no","recycling:plastic_packaging":"yes","recycling_type":"container"}},"type":"Feature"},
	{"geometry":{"coordinates":[10.878762,45.876242],"type":"Point"},"properties":{"osm_id":"5897212951","tag":{"amenity":"recycling","recycling:cans":"yes","recycling_type":"container"}},"type":"Feature"},
	{"geometry":{"coordinates":[10.878777,45.876249],"type":"Point"},"properties":{"osm_id":"5897212952","tag":{"amenity":"recycling","recycling:plastic":"no","recycling:plastic_packaging":"yes","recycling_type":"container"}},"type":"Feature"},
	{"geometry":{"coordinates":[10.878793,45.876256],"type":"Point"},"properties":{"osm_id":"5897212953","tag":{"amenity":"recycling","recycling:paper":"yes","recycling_type":"container"}},"type":"Feature"},
	{"geometry":{"coordinates":[10.878809,45.876264],"type":"Point"},"properties":{"osm_id":"5897212954","tag":{"amenity":"recycling","recycling:glass_bottles":"yes","recycling:paper":"yes","recycling:plastic":"no","recycling:plastic_packaging":"yes","recycling_type":"container"}},"type":"Feature"},
	{"geometry":{"coordinates":[10.87736,45.867807],"type":"Point"},"properties":{"osm_id":"6592903117","tag":{"amenity":"recycling","recycling:cans":"yes","recycling:glass_bottles":"yes","recycling:plastic":"no","recycling:plastic_packaging":"yes","recycling_type":"container"}},"type":"Feature"},
	{"geometry":{"coordinates":[10.893292,45.877097],"type":"Point"},"properties":{"osm_id":"6646268969","tag":{"amenity":"recycling","recycling_type":"container"}},"type":"Feature"},
	{"geometry":{"coordinates":[10.878197,45.87372],"type":"Point"},"properties":{"osm_id":"6680187982","tag":{"amenity":"recycling","recycling:cans":"yes","recycling:glass_bottles":"yes","recycling:paper":"yes","recycling:plastic":"no","recycling:plastic_packaging":"yes","recycling_type":"container"}},"type":"Feature"},
	{"geometry":{"coordinates":[10.875106,45.864424],"type":"Point"},"properties":{"osm_id":"6698971288","tag":{"amenity":"recycling","location":"overground","recycling:cans":"yes","recycling:glass_bottles":"yes","recycling_type":"container"}},"type":"Feature"},
	{"geometry":{"coordinates":[10.839694,45.887685],"type":"Point"},"properties":{"osm_id":"6777589597","tag":{"amenity":"waste_basket"}},"type":"Feature"},
	{"geometry":{"coordinates":[10.88007,45.879865],"type":"Point"},"properties":{"osm_id":"6987038117","tag":{"amenity":"waste_basket"}},"type":"Feature"},
	{"geometry":{"coordinates":[10.879415,45.879428],"type":"Point"},"properties":{"osm_id":"6987216690","tag":{"amenity":"waste_basket"}},"type":"Feature"},
	{"geometry":{"coordinates":[10.881064,45.880714],"type":"Point"},"properties":{"osm_id":"6987216691","tag":{"amenity":"waste_basket"}},"type":"Feature"},
	{"geometry":{"coordinates":[10.876542,45.871018],"type":"Point"},"properties":{"osm_id":"7611961305","tag":{"amenity":"recycling","recycling:glass_bottles":"yes","recycling:waste":"yes","recycling_type":"container"}},"type":"Feature"},
	{"geometry":{"coordinates":[10.86031,45.837697],"type":"Point"},"properties":{"osm_id":"7632946788","tag":{"amenity":"waste_disposal"}},"type":"Feature"},
	{"geometry":{"coordinates":[10.845629,45.8817],"type":"Point"},"properties":{"osm_id":"7806488982","tag":{"amenity":"waste_basket"}},"type":"Feature"},
	{"geometry":{"coordinates":[10.845657,45.882061],"type":"Point"},"properties":{"osm_id":"7806499185","tag":{"amenity":"waste_basket"}},"type":"Feature"},
	{"geometry":{"coordinates":[10.84688,45.881606],"type":"Point"},"properties":{"osm_id":"7806499186","tag":{"amenity":"waste_basket"}},"type":"Feature"},
	{"geometry":{"coordinates":[10.843064,45.888567],"type":"Point"},"properties":{"osm_id":"7806522561","tag":{"amenity":"waste_basket"}},"type":"Feature"},
	{"geometry":{"coordinates":[10.860481,45.885372],"type":"Point"},"properties":{"osm_id":"7825981903","tag":{"amenity":"recycling","recycling_type":"container"}},"type":"Feature"},
	{"geometry":{"coordinates":[10.838827,45.889],"type":"Point"},"properties":{"osm_id":"7900535115","tag":{"amenity":"waste_disposal"}},"type":"Feature"},
	{"geometry":{"coordinates":[10.856167,45.886033],"type":"Point"},"properties":{"osm_id":"7930673801","tag":{"amenity":"waste_disposal"}},"type":"Feature"},
	{"geometry":{"coordinates":[10.850881,45.884304],"type":"Point"},"properties":{"osm_id":"7935511358","tag":{"amenity":"recycling","recycling_type":"container"}},"type":"Feature"},
	{"geometry":{"coordinates":[10.850865,45.884294],"type":"Point"},"properties":{"osm_id":"7935511359","tag":{"amenity":"recycling","recycling_type":"container"}},"type":"Feature"},
	{"geometry":{"coordinates":[10.850848,45.884281],"type":"Point"},"properties":{"osm_id":"7935511360","tag":{"amenity":"recycling","recycling_type":"container"}},"type":"Feature"},
	{"geometry":{"coordinates":[10.852047,45.883564],"type":"Point"},"properties":{"osm_id":"7939428925","tag":{"amenity":"recycling","recycling_type":"container"}},"type":"Feature"},
	{"geometry":{"coordinates":[10.852058,45.883572],"type":"Point"},"properties":{"osm_id":"7939428926","tag":{"amenity":"recycling","recycling_type":"container"}},"type":"Feature"},
	{"geometry":{"coordinates":[10.85207,45.883578],"type":"Point"},"properties":{"osm_id":"7939428927","tag":{"amenity":"recycling","recycling_type":"container"}},"type":"Feature"},
	{"geometry":{"coordinates":[10.852093,45.883568],"type":"Point"},"properties":{"osm_id":"7939428928","tag":{"amenity":"recycling","recycling_type":"container"}},"type":"Feature"},
	{"geometry":{"coordinates":[10.852089,45.883555],"type":"Point"},"properties":{"osm_id":"7939428929","tag":{"amenity":"recycling","recycling_type":"container"}},"type":"Feature"},
	{"geometry":{"coordinates":[10.852082,45.883546],"type":"Point"},"properties":{"osm_id":"7939428930","tag":{"amenity":"recycling","recycling_type":"container"}},"type":"Feature"},
	{"geometry":{"coordinates":[10.83988,45.887692],"type":"Point"},"properties":{"osm_id":"7942289482","tag":{"amenity":"waste_disposal"}},"type":"Feature"},
	{"geometry":{"coordinates":[10.839902,45.887691],"type":"Point"},"properties":{"osm_id":"7942289483","tag":{"amenity":"recycling","recycling_type":"container"}},"type":"Feature"},
	{"geometry":{"coordinates":[10.839916,45.887689],"type":"Point"},"properties":{"osm_id":"7942289484","tag":{"amenity":"recycling","recycling_type":"container"}},"type":"Feature"},
	{"geometry":{"coordinates":[10.829972,45.856346],"type":"Point"},"properties":{"osm_id":"7945979903","tag":{"amenity":"recycling","recycling_type":"container"}},"type":"Feature"},
	{"geometry":{"coordinates":[10.84381,45.88946],"type":"Point"},"properties":{"osm_id":"8016017908","tag":{"amenity":"recycling","recycling_type":"container"}},"type":"Feature"},
	{"geometry":{"coordinates":[10.843834,45.889479],"type":"Point"},"properties":{"osm_id":"8016017909","tag":{"amenity":"recycling","recycling_type":"container"}},"type":"Feature"},
	{"geometry":{"coordinates":[10.843858,45.889498],"type":"Point"},"properties":{"osm_id":"8016017910","tag":{"amenity":"recycling","recycling_type":"container"}},"type":"Feature"},
	{"geometry":{"coordinates":[10.843886,45.889522],"type":"Point"},"properties":{"osm_id":"8016017911","tag":{"amenity":"waste_disposal"}},"type":"Feature"},
	{"geometry":{"coordinates":[10.892778,45.87966],"type":"Point"},"properties":{"osm_id":"8041273655","tag":{"amenity":"waste_disposal"}},"type":"Feature"},
	{"geometry":{"coordinates":[10.892786,45.879672],"type":"Point"},"properties":{"osm_id":"8041273656","tag":{"amenity":"waste_disposal"}},"type":"Feature"},
	{"geometry":{"coordinates":[10.893197,45.88001],"type":"Point"},"properties":{"osm_id":"8042001304","tag":{"amenity":"waste_disposal"}},"type":"Feature"},
	{"geometry":{"coordinates":[10.893212,45.880021],"type":"Point"},"properties":{"osm_id":"8042001305","tag":{"amenity":"waste_disposal"}},"type":"Feature"},
	{"geometry":{"coordinates":[10.893252,45.880052],"type":"Point"},"properties":{"osm_id":"8042001306","tag":{"amenity":"recycling","recycling_type":"container"}},"type":"Feature"},
	{"geometry":{"coordinates":[10.89327,45.880065],"type":"Point"},"properties":{"osm_id":"8042001307","tag":{"amenity":"recycling","recycling_type":"container"}},"type":"Feature"},
	{"geometry":{"coordinates":[10.856739,45.883809],"type":"Point"},"properties":{"osm_id":"8734573088","tag":{"amenity":"waste_disposal"}},"type":"Feature"},
	{"geometry":{"coordinates":[10.847276,45.885967],"type":"Point"},"properties":{"osm_id":"8806139906","tag":{"amenity":"recycling","recycling_type":"container"}},"type":"Feature"},
	{"geometry":{"coordinates":[10.847271,45.88595],"type":"Point"},"properties":{"osm_id":"8806139907","tag":{"amenity":"recycling","recycling_type":"container"}},"type":"Feature"},
	{"geometry":{"coordinates":[10.847282,45.885982],"type":"Point"},"properties":{"osm_id":"8806139908","tag":{"amenity":"recycling","recycling_type":"container"}},"type":"Feature"},
	{"geometry":{"coordinates":[10.847263,45.885931],"type":"Point"},"properties":{"osm_id":"8806139909","tag":{"amenity":"waste_disposal"}},"type":"Feature"},
	{"geometry":{"coordinates":[10.847255,45.885914],"type":"Point"},"properties":{"osm_id":"8806139910","tag":{"amenity":"waste_disposal"}},"type":"Feature"},
	{"geometry":{"coordinates":[10.878068,45.866138],"type":"Point"},"properties":{"osm_id":"8862763387","tag":{"amenity":"recycling","recycling_type":"container"}},"type":"Feature"},
	{"geometry":{"coordinates":[10.878061,45.866112],"type":"Point"},"properties":{"osm_id":"8862763388","tag":{"amenity":"recycling","recycling_type":"container"}},"type":"Feature"},
	{"geometry":{"coordinates":[10.878057,45.866087],"type":"Point"},"properties":{"osm_id":"8862763389","tag":{"amenity":"recycling","recycling_type":"container"}},"type":"Feature"},
	{"geometry":{"coordinates":[10.878053,45.866062],"type":"Point"},"properties":{"osm_id":"8862763390","tag":{"amenity":"recycling","recycling_type":"container"}},"type":"Feature"},
	{"geometry":{"coordinates":[10.878048,45.866037],"type":"Point"},"properties":{"osm_id":"8862763391","tag":{"amenity":"recycling","recycling_type":"container"}},"type":"Feature"},
	{"geometry":{"coordinates":[10.878076,45.866172],"type":"Point"},"properties":{"osm_id":"8862763392","tag":{"amenity":"waste_disposal"}},"type":"Feature"},
	{"geometry":{"coordinates":[10.873989,45.873269],"type":"Point"},"properties":{"osm_id":"8871763280","tag":{"amenity":"waste_basket"}},"type":"Feature"},
	{"geometry":{"coordinates":[10.82996,45.856318],"type":"Point"},"properties":{"osm_id":"8901870496","tag":{"amenity":"recycling","recycling_type":"container"}},"type":"Feature"},
	{"geometry":{"coordinates":[10.829953,45.856291],"type":"Point"},"properties":{"osm_id":"8901870497","tag":{"amenity":"recycling","recycling_type":"container"}},"type":"Feature"},
	{"geometry":{"coordinates":[10.829944,45.856265],"type":"Point"},"properties":{"osm_id":"8901870498","tag":{"amenity":"recycling","recycling_type":"container"}},"type":"Feature"},
	{"geometry":{"coordinates":[10.860306,45.83771],"type":"Point"},"properties":{"osm_id":"9110393686","tag":{"amenity":"waste_disposal"}},"type":"Feature"},
	{"geometry":{"coordinates":[10.860315,45.837687],"type":"Point"},"properties":{"osm_id":"9110393687","tag":{"amenity":"recycling","recycling_type":"container"}},"type":"Feature"},
	{"geometry":{"coordinates":[10.860319,45.837678],"type":"Point"},"properties":{"osm_id":"9110393688","tag":{"amenity":"recycling","recycling_type":"container"}},"type":"Feature"},
	{"geometry":{"coordinates":[10.860322,45.837669],"type":"Point"},"properties":{"osm_id":"9110393689","tag":{"amenity":"recycling","recycling_type":"container"}},"type":"Feature"},
	{"geometry":{"coordinates":[10.872679,45.874735],"type":"Point"},"properties":{"osm_id":"9121861509","tag":{"amenity":"recycling","location":"overground","recycling:cans":"yes","recycling:glass_bottles":"yes","recycling:plastic":"no","recycling:plastic_packaging":"yes","recycling_type":"container"}},"type":"Feature"},
	{"geometry":{"coordinates":[10.872737,45.874769],"type":"Point"},"properties":{"osm_id":"9121861510","tag":{"amenity":"recycling","location":"overground","recycling:cans":"yes","recycling:glass_bottles":"yes","recycling:plastic":"no","recycling:plastic_packaging":"yes","recycling_type":"container"}},"type":"Feature"},
	{"geometry":{"coordinates":[10.875673,45.872996],"type":"Point"},"properties":{"osm_id":"9122102013","tag":{"amenity":"recycling","location":"overground","recycling:cans":"yes","recycling:glass_bottles":"yes","recycling:paper":"yes","recycling:plastic":"no","recycling:plastic_bottles":"yes","recycling:plastic_packaging":"no","recycling_type":"container"}},"type":"Feature"},
	{"geometry":{"coordinates":[10.875691,45.873046],"type":"Point"},"properties":{"osm_id":"9122102014","tag":{"amenity":"recycling","location":"overground","recycling:cans":"yes","recycling:glass_bottles":"yes","recycling:paper":"yes","recycling:plastic":"no","recycling:plastic_bottles":"yes","recycling:plastic_packaging":"no","recycling_type":"container"}},"type":"Feature"},
	{"geometry":{"coordinates":[10.874594,45.870435],"type":"Point"},"properties":{"osm_id":"9126308330","tag":{"amenity":"recycling","recycling:glass_bottles":"yes","recycling:paper":"yes","recycling_type":"container"}},"type":"Feature"},
	{"geometry":{"coordinates":[10.874529,45.87046],"type":"Point"},"properties":{"osm_id":"9126308331","tag":{"amenity":"recycling","recycling:glass_bottles":"yes","recycling:paper":"yes","recycling_type":"container"}},"type":"Feature"},
	{"geometry":{"coordinates":[10.874089,45.870394],"type":"Point"},"properties":{"osm_id":"9126308336","tag":{"amenity":"recycling","recycling_type":"container"}},"type":"Feature"},
	{"geometry":{"coordinates":[10.874075,45.870391],"type":"Point"},"properties":{"osm_id":"9126308337","tag":{"amenity":"recycling","recycling_type":"container"}},"type":"Feature"}
]
}
