{
"type": "FeatureCollection",
"features": [
	{"geometry":{"coordinates":[10.859613,45.276212],"type":"Point"},"properties":{"osm_id":"2412025064","tag":{"amenity":"recycling"}},"type":"Feature"},
	{"geometry":{"coordinates":[10.819421,45.305289],"type":"Point"},"properties":{"osm_id":"2595098139","tag":{"amenity":"waste_basket"}},"type":"Feature"},
	{"geometry":{"coordinates":[10.819654,45.305295],"type":"Point"},"properties":{"osm_id":"2595098140","tag":{"amenity":"waste_basket"}},"type":"Feature"},
	{"geometry":{"coordinates":[10.816317,45.305548],"type":"Point"},"properties":{"osm_id":"2595530082","tag":{"amenity":"waste_basket"}},"type":"Feature"},
	{"geometry":{"coordinates":[10.81615,45.305725],"type":"Point"},"properties":{"osm_id":"2595530087","tag":{"amenity":"waste_basket"}},"type":"Feature"},
	{"geometry":{"coordinates":[10.816343,45.305928],"type":"Point"},"properties":{"osm_id":"2595530115","tag":{"amenity":"waste_basket"}},"type":"Feature"},
	{"geometry":{"coordinates":[10.816427,45.306151],"type":"Point"},"properties":{"osm_id":"2595530121","tag":{"amenity":"waste_basket"}},"type":"Feature"},
	{"geometry":{"coordinates":[10.816578,45.30636],"type":"Point"},"properties":{"osm_id":"2595530127","tag":{"amenity":"waste_basket"}},"type":"Feature"},
	{"geometry":{"coordinates":[10.817122,45.306196],"type":"Point"},"properties":{"osm_id":"2595530159","tag":{"amenity":"waste_basket"}},"type":"Feature"},
	{"geometry":{"coordinates":[10.817351,45.305939],"type":"Point"},"properties":{"osm_id":"2595530162","tag":{"amenity":"waste_basket"}},"type":"Feature"},
	{"geometry":{"coordinates":[10.817204,45.306337],"type":"Point"},"properties":{"osm_id":"2595530169","tag":{"amenity":"waste_basket"}},"type":"Feature"},
	{"geometry":{"coordinates":[10.817167,45.306441],"type":"Point"},"properties":{"osm_id":"2595530175","tag":{"amenity":"recycling","recycling:clothes":"yes","recycling_type":"container"}},"type":"Feature"},
	{"geometry":{"coordinates":[10.817318,45.306527],"type":"Point"},"properties":{"osm_id":"2595530184","tag":{"amenity":"waste_basket"}},"type":"Feature"},
	{"geometry":{"coordinates":[10.817366,45.306639],"type":"Point"},"properties":{"osm_id":"2595530187","tag":{"amenity":"waste_basket"}},"type":"Feature"},
	{"geometry":{"coordinates":[10.81815,45.306395],"type":"Point"},"properties":{"osm_id":"2595530195","tag":{"amenity":"waste_basket"}},"type":"Feature"},
	{"geometry":{"coordinates":[10.81782,45.306069],"type":"Point"},"properties":{"osm_id":"2595530224","tag":{"amenity":"waste_basket"}},"type":"Feature"},
	{"geometry":{"coordinates":[10.817707,45.305886],"type":"Point"},"properties":{"osm_id":"2595530226","tag":{"amenity":"waste_basket"}},"type":"Feature"},
	{"geometry":{"coordinates":[10.817724,45.305732],"type":"Point"},"properties":{"osm_id":"2595530235","tag":{"amenity":"recycling","recycling:glass":"yes","recycling_type":"container"}},"type":"Feature"},
	{"geometry":{"coordinates":[10.821196,45.307145],"type":"Point"},"properties":{"osm_id":"2595530386","tag":{"amenity":"recycling","recycling:glass":"yes","recycling_type":"container"}},"type":"Feature"},
	{"geometry":{"coordinates":[10.820969,45.309753],"type":"Point"},"properties":{"osm_id":"2595956216","tag":{"amenity":"recycling","recycling:glass":"yes","recycling_type":"container"}},"type":"Feature"},
	{"geometry":{"coordinates":[10.821111,45.309594],"type":"Point"},"properties":{"osm_id":"2595956229","tag":{"amenity":"waste_basket"}},"type":"Feature"},
	{"geometry":{"coordinates":[10.824324,45.309364],"type":"Point"},"properties":{"osm_id":"2595976492","tag":{"amenity":"waste_basket"}},"type":"Feature"},
	{"geometry":{"coordinates":[10.824685,45.309516],"type":"Point"},"properties":{"osm_id":"2595976497","tag":{"amenity":"waste_basket"}},"type":"Feature"},
	{"geometry":{"coordinates":[10.814362,45.312109],"type":"Point"},"properties":{"osm_id":"2596000725","tag":{"amenity":"recycling","recycling:glass":"yes","recycling_type":"container"}},"type":"Feature"},
	{"geometry":{"coordinates":[10.814295,45.312069],"type":"Point"},"properties":{"osm_id":"2596000726","tag":{"amenity":"waste_basket"}},"type":"Feature"},
	{"geometry":{"coordinates":[10.814097,45.311815],"type":"Point"},"properties":{"osm_id":"2596000727","tag":{"amenity":"waste_basket"}},"type":"Feature"},
	{"geometry":{"coordinates":[10.816315,45.31161],"type":"Point"},"properties":{"osm_id":"2596008174","tag":{"amenity":"waste_basket"}},"type":"Feature"},
	{"geometry":{"coordinates":[10.816337,45.31065],"type":"Point"},"properties":{"osm_id":"2596019272","tag":{"amenity":"recycling","recycling:glass":"yes","recycling_type":"container"}},"type":"Feature"},
	{"geometry":{"coordinates":[10.815707,45.310783],"type":"Point"},"properties":{"osm_id":"2596019281","tag":{"amenity":"waste_basket"}},"type":"Feature"},
	{"geometry":{"coordinates":[10.815522,45.309463],"type":"Point"},"properties":{"osm_id":"2596042823","tag":{"amenity":"recycling","recycling:glass":"yes","recycling_type":"container"}},"type":"Feature"},
	{"geometry":{"coordinates":[10.817395,45.30869],"type":"Point"},"properties":{"osm_id":"2596043206","tag":{"amenity":"waste_basket"}},"type":"Feature"},
	{"geometry":{"coordinates":[10.815732,45.30708],"type":"Point"},"properties":{"osm_id":"2596118752","tag":{"amenity":"recycling","recycling:glass":"yes"}},"type":"Feature"},
	{"geometry":{"coordinates":[10.814932,45.305664],"type":"Point"},"properties":{"osm_id":"2596118753","tag":{"amenity":"recycling","recycling:glass":"yes","recycling_type":"container"}},"type":"Feature"},
	{"geometry":{"coordinates":[10.81649,45.302627],"type":"Point"},"properties":{"osm_id":"2596118776","tag":{"amenity":"waste_basket"}},"type":"Feature"},
	{"geometry":{"coordinates":[10.816736,45.302912],"type":"Point"},"properties":{"osm_id":"2596118778","tag":{"amenity":"waste_basket"}},"type":"Feature"},
	{"geometry":{"coordinates":[10.811768,45.305825],"type":"Point"},"properties":{"osm_id":"2609108498","tag":{"amenity":"recycling","recycling:glass":"yes","recycling_type":"container"}},"type":"Feature"},
	{"geometry":{"coordinates":[10.810567,45.306363],"type":"Point"},"properties":{"osm_id":"2609117198","tag":{"amenity":"recycling","recycling_type":"container"}},"type":"Feature"},
	{"geometry":{"coordinates":[10.811427,45.307462],"type":"Point"},"properties":{"osm_id":"2609117199","tag":{"amenity":"recycling","recycling:cans":"no","recycling:clothes":"no","recycling:glass":"yes","recycling:paper":"no"}},"type":"Feature"},
	{"geometry":{"coordinates":[10.816024,45.312454],"type":"Point"},"properties":{"osm_id":"2727180537","tag":{"amenity":"recycling","recycling:glass":"yes","recycling_type":"container"}},"type":"Feature"},
	{"geometry":{"coordinates":[10.828846,45.318579],"type":"Point"},"properties":{"osm_id":"2777501316","tag":{"amenity":"recycling","recycling:batteries":"no","recycling:glass":"yes","recycling_type":"container"}},"type":"Feature"},
	{"geometry":{"coordinates":[10.832168,45.32015],"type":"Point"},"properties":{"osm_id":"2777501317","tag":{"amenity":"recycling","recycling:cans":"no","recycling:clothes":"no","recycling:glass":"yes","recycling:paper":"no","recycling_type":"container"}},"type":"Feature"},
	{"geometry":{"coordinates":[10.829167,45.320432],"type":"Point"},"properties":{"osm_id":"2780141939","tag":{"amenity":"recycling","recycling:glass":"yes","recycling_type":"container"}},"type":"Feature"},
	{"geometry":{"coordinates":[10.858318,45.31455],"type":"Point"},"properties":{"name":"vetro","osm_id":"2787311435","tag":{"amenity":"recycling","recycling:glass":"yes","recycling_type":"container"}},"type":"Feature"},
	{"geometry":{"coordinates":[10.8311,45.320364],"type":"Point"},"properties":{"osm_id":"2787311437","tag":{"amenity":"recycling","recycling:batteries":"yes","recycling:cans":"no","recycling:clothes":"yes","recycling:glass":"no","recycling:paper":"no","recycling:scrap_metal":"no"}},"type":"Feature"},
	{"geometry":{"coordinates":[10.812702,45.302704],"type":"Point"},"properties":{"osm_id":"2790491239","tag":{"amenity":"recycling","recycling:cans":"no","recycling:clothes":"no","recycling:glass":"yes","recycling:paper":"no","recycling_type":"container"}},"type":"Feature"},
	{"geometry":{"coordinates":[10.818494,45.309808],"type":"Point"},"properties":{"osm_id":"2791271910","tag":{"amenity":"recycling","recycling:cans":"no","recycling:clothes":"no","recycling:glass":"yes","recycling:paper":"no","recycling_type":"container"}},"type":"Feature"},
	{"geometry":{"coordinates":[10.815808,45.305622],"type":"Point"},"properties":{"osm_id":"2791275353","tag":{"amenity":"waste_basket"}},"type":"Feature"},
	{"geometry":{"coordinates":[10.816263,45.305816],"type":"Point"},"properties":{"osm_id":"2791275358","tag":{"amenity":"recycling","recycling:glass":"yes"}},"type":"Feature"},
	{"geometry":{"coordinates":[10.816897,45.308308],"type":"Point"},"properties":{"osm_id":"2791422729","tag":{"amenity":"waste_basket"}},"type":"Feature"},
	{"geometry":{"coordinates":[10.81651,45.308024],"type":"Point"},"properties":{"osm_id":"2791935878","tag":{"amenity":"waste_basket"}},"type":"Feature"},
	{"geometry":{"coordinates":[10.819517,45.304975],"type":"Point"},"properties":{"osm_id":"2792027406","tag":{"amenity":"recycling","recycling:cans":"no","recycling:glass":"yes","recycling_type":"container"}},"type":"Feature"},
	{"geometry":{"coordinates":[10.81627,45.305457],"type":"Point"},"properties":{"osm_id":"2792175990","tag":{"amenity":"recycling","recycling:glass":"yes","recycling_type":"container"}},"type":"Feature"},
	{"geometry":{"coordinates":[10.812294,45.307078],"type":"Point"},"properties":{"osm_id":"2793420913","tag":{"amenity":"recycling","recycling:clothes":"yes","recycling_type":"container"}},"type":"Feature"},
	{"geometry":{"coordinates":[10.824327,45.288494],"type":"Point"},"properties":{"osm_id":"2805558343","tag":{"amenity":"recycling","recycling:glass":"yes","recycling_type":"container"}},"type":"Feature"},
	{"geometry":{"coordinates":[10.822321,45.290883],"type":"Point"},"properties":{"osm_id":"2805558344","tag":{"amenity":"recycling","recycling:glass":"yes","recycling_type":"container"}},"type":"Feature"},
	{"geometry":{"coordinates":[10.812683,45.311948],"type":"Point"},"properties":{"osm_id":"2805584890","tag":{"amenity":"recycling","recycling:glass":"yes","recycling_type":"container"}},"type":"Feature"},
	{"geometry":{"coordinates":[10.811483,45.311408],"type":"Point"},"properties":{"osm_id":"2805584891","tag":{"amenity":"recycling","recycling:glass":"yes","recycling_type":"container"}},"type":"Feature"},
	{"geometry":{"coordinates":[10.811508,45.311405],"type":"Point"},"properties":{"osm_id":"2805584892","tag":{"amenity":"recycling","recycling:glass":"yes","recycling_type":"container"}},"type":"Feature"},
	{"geometry":{"coordinates":[10.813818,45.311428],"type":"Point"},"properties":{"osm_id":"2805584893","tag":{"amenity":"recycling","recycling:glass":"yes","recycling_type":"container"}},"type":"Feature"},
	{"geometry":{"coordinates":[10.82287,45.288319],"type":"Point"},"properties":{"osm_id":"2805592940","tag":{"amenity":"recycling","recycling:batteries":"yes","recycling:clothes":"yes","recycling:glass":"yes","recycling_type":"container"}},"type":"Feature"},
	{"geometry":{"coordinates":[10.814497,45.313536],"type":"Point"},"properties":{"osm_id":"2805604446","tag":{"amenity":"recycling","recycling:glass":"yes","recycling_type":"container"}},"type":"Feature"},
	{"geometry":{"coordinates":[10.815299,45.311304],"type":"Point"},"properties":{"osm_id":"2805623688","tag":{"amenity":"recycling","recycling:glass":"yes","recycling_type":"container"}},"type":"Feature"},
	{"geometry":{"coordinates":[10.813702,45.301211],"type":"Point"},"properties":{"osm_id":"2807883913","tag":{"amenity":"recycling","recycling:glass":"yes","recycling_type":"container"}},"type":"Feature"},
	{"geometry":{"coordinates":[10.812082,45.302692],"type":"Point"},"properties":{"osm_id":"2807883914","tag":{"amenity":"recycling","recycling:glass":"yes","recycling_type":"container"}},"type":"Feature"},
	{"geometry":{"coordinates":[10.816297,45.302198],"type":"Point"},"properties":{"osm_id":"2807883915","tag":{"amenity":"recycling","recycling:glass":"yes","recycling_type":"container"}},"type":"Feature"},
	{"geometry":{"coordinates":[10.816233,45.30223],"type":"Point"},"properties":{"osm_id":"2807883916","tag":{"amenity":"recycling","recycling:clothes":"yes","recycling_type":"container"}},"type":"Feature"},
	{"geometry":{"coordinates":[10.815229,45.302698],"type":"Point"},"properties":{"osm_id":"2807883919","tag":{"amenity":"recycling","recycling:glass":"yes","recycling_type":"container"}},"type":"Feature"},
	{"geometry":{"coordinates":[10.81954,45.307722],"type":"Point"},"properties":{"osm_id":"2807898008","tag":{"amenity":"recycling","recycling:glass":"yes","recycling_type":"container"}},"type":"Feature"},
	{"geometry":{"coordinates":[10.819528,45.307706],"type":"Point"},"properties":{"osm_id":"2807898009","tag":{"amenity":"recycling","recycling:glass":"yes","recycling_type":"container"}},"type":"Feature"},
	{"geometry":{"coordinates":[10.821006,45.309744],"type":"Point"},"properties":{"osm_id":"2807898011","tag":{"amenity":"recycling","recycling:glass":"yes","recycling_type":"container"}},"type":"Feature"},
	{"geometry":{"coordinates":[10.824866,45.309166],"type":"Point"},"properties":{"osm_id":"2807898012","tag":{"amenity":"recycling","recycling:glass":"yes","recycling_type":"container"}},"type":"Feature"},
	{"geometry":{"coordinates":[10.826107,45.310941],"type":"Point"},"properties":{"name":"Vetro e lattine","osm_id":"2807898013","tag":{"amenity":"recycling","recycling:glass":"yes","recycling_type":"container"}},"type":"Feature"},
	{"geometry":{"coordinates":[10.823291,45.312117],"type":"Point"},"properties":{"osm_id":"2807898014","tag":{"amenity":"recycling","recycling:clothes":"yes","recycling_type":"container"}},"type":"Feature"},
	{"geometry":{"coordinates":[10.832701,45.310614],"type":"Point"},"properties":{"osm_id":"2807904588","tag":{"amenity":"recycling","recycling:glass":"yes","recycling_type":"container"}},"type":"Feature"},
	{"geometry":{"coordinates":[10.825001,45.316188],"type":"Point"},"properties":{"osm_id":"2807904589","tag":{"amenity":"recycling","recycling:glass":"yes","recycling_type":"container"}},"type":"Feature"},
	{"geometry":{"coordinates":[10.81655,45.307833],"type":"Point"},"properties":{"name":"Medicinali scaduti","osm_id":"2807904590","tag":{"amenity":"recycling","recycling:batteries":"yes","recycling:medicine":"yes","recycling_type":"container"}},"type":"Feature"},
	{"geometry":{"coordinates":[10.817946,45.309672],"type":"Point"},"properties":{"osm_id":"2807914604","tag":{"amenity":"recycling","recycling:batteries":"yes","recycling:medicines":"yes","recycling_type":"container"}},"type":"Feature"},
	{"geometry":{"coordinates":[10.814576,45.306802],"type":"Point"},"properties":{"osm_id":"2807932559","tag":{"amenity":"recycling","recycling:glass":"yes","recycling_type":"container"}},"type":"Feature"},
	{"geometry":{"coordinates":[10.814602,45.306792],"type":"Point"},"properties":{"osm_id":"2807932560","tag":{"amenity":"recycling","recycling:glass":"yes","recycling_type":"container"}},"type":"Feature"},
	{"geometry":{"coordinates":[10.814632,45.30678],"type":"Point"},"properties":{"name":"Humana","osm_id":"2807932561","tag":{"amenity":"recycling","recycling:clothes":"yes","recycling_type":"container"}},"type":"Feature"},
	{"geometry":{"coordinates":[10.814674,45.306766],"type":"Point"},"properties":{"name":"Batterie e medicinali","osm_id":"2807932562","tag":{"amenity":"recycling","recycling:batteries":"yes","recycling:medicines":"yes","recycling_type":"container"}},"type":"Feature"},
	{"geometry":{"coordinates":[10.812041,45.307818],"type":"Point"},"properties":{"osm_id":"2807960035","tag":{"amenity":"recycling","recycling:glass":"yes","recycling_type":"container"}},"type":"Feature"},
	{"geometry":{"coordinates":[10.81303,45.309179],"type":"Point"},"properties":{"osm_id":"2807960036","tag":{"amenity":"recycling","recycling:glass":"yes","recycling_type":"container"}},"type":"Feature"},
	{"geometry":{"coordinates":[10.826892,45.320903],"type":"Point"},"properties":{"osm_id":"2807981511","tag":{"amenity":"recycling","recycling:glass":"yes","recycling_type":"container"}},"type":"Feature"},
	{"geometry":{"coordinates":[10.828837,45.321447],"type":"Point"},"properties":{"name":"Vetro","osm_id":"2807988550","tag":{"amenity":"recycling","recycling:glass":"yes","recycling_type":"container"}},"type":"Feature"},
	{"geometry":{"coordinates":[10.828788,45.321445],"type":"Point"},"properties":{"name":"Humana","osm_id":"2807988551","tag":{"amenity":"recycling","recycling:clothes":"yes","recycling_type":"container"}},"type":"Feature"},
	{"geometry":{"coordinates":[10.831301,45.31967],"type":"Point"},"properties":{"osm_id":"2807988552","tag":{"amenity":"recycling","recycling:batteries":"yes","recycling:medicines":"yes"}},"type":"Feature"},
	{"geometry":{"coordinates":[10.83308,45.322185],"type":"Point"},"properties":{"osm_id":"2807988555","tag":{"amenity":"recycling","recycling:glass":"yes","recycling_type":"container"}},"type":"Feature"},
	{"geometry":{"coordinates":[10.831692,45.321249],"type":"Point"},"properties":{"osm_id":"2807988556","tag":{"amenity":"recycling","recycling:glass":"yes","recycling_type":"container"}},"type":"Feature"},
	{"geometry":{"coordinates":[10.832705,45.321374],"type":"Point"},"properties":{"osm_id":"2807996230","tag":{"amenity":"recycling","recycling:glass":"yes","recycling_type":"container"}},"type":"Feature"},
	{"geometry":{"coordinates":[10.858358,45.314547],"type":"Point"},"properties":{"name":"vetro","osm_id":"2808026416","tag":{"amenity":"recycling","recycling:glass":"yes","recycling_type":"container"}},"type":"Feature"},
	{"geometry":{"coordinates":[10.858276,45.314556],"type":"Point"},"properties":{"name":"medicinali e batterie","osm_id":"2808026417","tag":{"amenity":"recycling","recycling:batteries":"yes","recycling:medicines":"yes"}},"type":"Feature"},
	{"geometry":{"coordinates":[10.855922,45.318205],"type":"Point"},"properties":{"osm_id":"2808042979","tag":{"amenity":"recycling","recycling:glass":"yes","recycling_type":"container"}},"type":"Feature"},
	{"geometry":{"coordinates":[10.855924,45.318176],"type":"Point"},"properties":{"osm_id":"2808042980","tag":{"amenity":"recycling","recycling:glass":"yes","recycling_type":"container"}},"type":"Feature"},
	{"geometry":{"coordinates":[10.857344,45.317052],"type":"Point"},"properties":{"osm_id":"2808042981","tag":{"amenity":"recycling","recycling:glass":"yes","recycling_type":"container"}},"type":"Feature"},
	{"geometry":{"coordinates":[10.857383,45.317459],"type":"Point"},"properties":{"osm_id":"2808042982","tag":{"amenity":"recycling","recycling:batteries":"yes","recycling:medicines":"yes"}},"type":"Feature"},
	{"geometry":{"coordinates":[10.85822,45.315164],"type":"Point"},"properties":{"name":"vetro","osm_id":"2808042983","tag":{"amenity":"recycling","recycling:glass":"yes","recycling_type":"container"}},"type":"Feature"},
	{"geometry":{"coordinates":[10.859493,45.315697],"type":"Point"},"properties":{"osm_id":"2808042984","tag":{"amenity":"recycling","recycling:glass":"yes","recycling_type":"container"}},"type":"Feature"},
	{"geometry":{"coordinates":[10.858116,45.317329],"type":"Point"},"properties":{"osm_id":"2808042985","tag":{"amenity":"recycling","recycling:glass":"yes","recycling_type":"container"}},"type":"Feature"},
	{"geometry":{"coordinates":[10.813376,45.305721],"type":"Point"},"properties":{"osm_id":"2817154498","tag":{"amenity":"recycling","recycling:glass":"yes","recycling_type":"container"}},"type":"Feature"},
	{"geometry":{"coordinates":[10.858239,45.314562],"type":"Point"},"properties":{"name":"Humana","osm_id":"2822403976","tag":{"amenity":"recycling","recycling:clothes":"yes"}},"type":"Feature"},
	{"geometry":{"coordinates":[10.858947,45.315501],"type":"Point"},"properties":{"name":"vetro","osm_id":"2822403977","tag":{"amenity":"recycling","recycling:glass":"yes"}},"type":"Feature"},
	{"geometry":{"coordinates":[10.856747,45.315295],"type":"Point"},"properties":{"osm_id":"2822406409","tag":{"amenity":"recycling","recycling:glass":"yes","recycling_type":"container"}},"type":"Feature"},
	{"geometry":{"coordinates":[10.855873,45.318223],"type":"Point"},"properties":{"osm_id":"2822987455","tag":{"amenity":"waste_basket"}},"type":"Feature"},
	{"geometry":{"coordinates":[10.857124,45.315078],"type":"Point"},"properties":{"osm_id":"2822995615","tag":{"amenity":"waste_basket"}},"type":"Feature"},
	{"geometry":{"coordinates":[10.857026,45.314948],"type":"Point"},"properties":{"osm_id":"2822995616","tag":{"amenity":"waste_basket"}},"type":"Feature"},
	{"geometry":{"coordinates":[10.856018,45.318267],"type":"Point"},"properties":{"osm_id":"2823008733","tag":{"amenity":"waste_basket"}},"type":"Feature"},
	{"geometry":{"coordinates":[10.824866,45.288604],"type":"Point"},"properties":{"osm_id":"2828060340","tag":{"amenity":"waste_basket"}},"type":"Feature"},
	{"geometry":{"coordinates":[10.817243,45.309138],"type":"Point"},"properties":{"osm_id":"3475456870","tag":{"amenity":"waste_basket"}},"type":"Feature"},
	{"geometry":{"coordinates":[10.816374,45.306486],"type":"Point"},"properties":{"osm_id":"3563510895","tag":{"amenity":"recycling","recycling:glass":"yes"}},"type":"Feature"},
	{"geometry":{"coordinates":[10.81807,45.308487],"type":"Point"},"properties":{"osm_id":"3581444589","tag":{"amenity":"waste_basket"}},"type":"Feature"},
	{"geometry":{"coordinates":[10.81864,45.302895],"type":"Point"},"properties":{"osm_id":"3586251169","tag":{"amenity":"recycling","recycling:glass":"yes"}},"type":"Feature"},
	{"geometry":{"coordinates":[10.819126,45.303381],"type":"Point"},"properties":{"osm_id":"3586270575","tag":{"amenity":"waste_basket"}},"type":"Feature"},
	{"geometry":{"coordinates":[10.81917,45.304332],"type":"Point"},"properties":{"osm_id":"3615251772","tag":{"amenity":"waste_basket"}},"type":"Feature"},
	{"geometry":{"coordinates":[10.819505,45.304959],"type":"Point"},"properties":{"osm_id":"3615782118","tag":{"amenity":"recycling","recycling:clothes":"yes","recycling_type":"container"}},"type":"Feature"},
	{"geometry":{"coordinates":[10.81955,45.305023],"type":"Point"},"properties":{"osm_id":"3615782119","tag":{"amenity":"waste_basket"}},"type":"Feature"},
	{"geometry":{"coordinates":[10.820148,45.30576],"type":"Point"},"properties":{"osm_id":"3615782121","tag":{"amenity":"waste_basket"}},"type":"Feature"},
	{"geometry":{"coordinates":[10.820907,45.306756],"type":"Point"},"properties":{"osm_id":"3615782126","tag":{"amenity":"waste_basket"}},"type":"Feature"},
	{"geometry":{"coordinates":[10.818303,45.312043],"type":"Point"},"properties":{"osm_id":"4100752392","tag":{"amenity":"waste_disposal"}},"type":"Feature"},
	{"geometry":{"coordinates":[10.81156,45.312112],"type":"Point"},"properties":{"osm_id":"4100752393","tag":{"amenity":"waste_disposal"}},"type":"Feature"},
	{"geometry":{"coordinates":[10.816057,45.313032],"type":"Point"},"properties":{"osm_id":"4100776091","tag":{"amenity":"waste_disposal"}},"type":"Feature"},
	{"geometry":{"coordinates":[10.812997,45.313996],"type":"Point"},"properties":{"osm_id":"4273597891","tag":{"amenity":"waste_disposal"}},"type":"Feature"},
	{"geometry":{"coordinates":[10.89791,45.297159],"type":"Point"},"properties":{"osm_id":"5783302154","tag":{"amenity":"recycling"}},"type":"Feature"}
]
}
