{
"type": "FeatureCollection",
"features": [
	{"geometry":{"coordinates":[10.849989,44.588837],"type":"Point"},"properties":{"name":"Stazione Ecologica BOOMERANG","osm_id":"992924855","tag":{"amenity":"recycling","recycling:batteries":"yes","recycling:cans":"yes","recycling:clothes":"yes","recycling:glass":"yes","recycling:paper":"yes","recycling:scrap_metal":"yes"}},"type":"Feature"},
	{"geometry":{"coordinates":[10.811782,44.538941],"type":"Point"},"properties":{"osm_id":"2108489449","tag":{"amenity":"waste_basket"}},"type":"Feature"},
	{"geometry":{"coordinates":[10.811711,44.539024],"type":"Point"},"properties":{"osm_id":"2108489498","tag":{"amenity":"waste_basket"}},"type":"Feature"},
	{"geometry":{"coordinates":[10.812201,44.539287],"type":"Point"},"properties":{"osm_id":"2108767432","tag":{"amenity":"waste_basket"}},"type":"Feature"},
	{"geometry":{"coordinates":[10.811904,44.539344],"type":"Point"},"properties":{"osm_id":"2108767438","tag":{"amenity":"waste_basket"}},"type":"Feature"},
	{"geometry":{"coordinates":[10.812314,44.539393],"type":"Point"},"properties":{"osm_id":"2108767451","tag":{"amenity":"waste_basket"}},"type":"Feature"},
	{"geometry":{"coordinates":[10.81193,44.539464],"type":"Point"},"properties":{"osm_id":"2108767471","tag":{"amenity":"waste_basket"}},"type":"Feature"},
	{"geometry":{"coordinates":[10.812167,44.538928],"type":"Point"},"properties":{"osm_id":"2110341066","tag":{"amenity":"waste_basket"}},"type":"Feature"},
	{"geometry":{"coordinates":[10.812497,44.539897],"type":"Point"},"properties":{"osm_id":"2123623972","tag":{"amenity":"waste_basket"}},"type":"Feature"},
	{"geometry":{"coordinates":[10.812652,44.540013],"type":"Point"},"properties":{"osm_id":"2123623975","tag":{"amenity":"waste_basket"}},"type":"Feature"},
	{"geometry":{"coordinates":[10.817055,44.548327],"type":"Point"},"properties":{"barrier":"gate","osm_id":"2272563739"},"type":"Feature"},
	{"geometry":{"coordinates":[10.817065,44.548349],"type":"Point"},"properties":{"name":"Stazione Ecologica di Fiorano Modenese - Via Ghiarola Vecchia","osm_id":"2272596578","tag":{"addr:city":"Fiorano Modenese","addr:country":"IT","addr:housenumber":"51","addr:postcode":"41042","addr:street":"Via Ghiarola Vecchia","amenity":"recycling","recycling:batteries":"yes","recycling:cans":"yes","recycling:clothes":"yes","recycling:glass":"yes","recycling:paper":"yes","recycling:scrap_metal":"yes","recycling_type":"centre","website":"http://www.gruppohera.it/clienti/casa/casa_lista_servizi/casa_servizio_ambiente/casa_racc_diff/casa_stazioni_ecologiche/pagina257-32221.html"}},"type":"Feature"},
	{"geometry":{"coordinates":[10.81446,44.539759],"type":"Point"},"properties":{"osm_id":"2453816634","tag":{"amenity":"recycling","operator":"HERA","recycling:paper":"yes","recycling_type":"container"}},"type":"Feature"},
	{"geometry":{"coordinates":[10.814473,44.539769],"type":"Point"},"properties":{"osm_id":"2453816635","tag":{"amenity":"recycling","operator":"HERA","recycling:plastic":"yes","recycling_type":"container"}},"type":"Feature"},
	{"geometry":{"coordinates":[10.814487,44.539781],"type":"Point"},"properties":{"osm_id":"2453816637","tag":{"amenity":"waste_disposal","operator":"HERA","waste":"trash"}},"type":"Feature"},
	{"geometry":{"coordinates":[10.8145,44.539791],"type":"Point"},"properties":{"osm_id":"2453816638","tag":{"amenity":"recycling","operator":"HERA","recycling:cans":"yes","recycling:glass":"yes","recycling_type":"container"}},"type":"Feature"},
	{"geometry":{"coordinates":[10.814616,44.539821],"type":"Point"},"properties":{"osm_id":"2453816641","tag":{"amenity":"recycling","operator":"HERA","recycling:batteries":"yes","recycling_type":"container"}},"type":"Feature"},
	{"geometry":{"coordinates":[10.816555,44.54194],"type":"Point"},"properties":{"osm_id":"2453924706","tag":{"amenity":"recycling","operator":"HERA","recycling:cans":"yes","recycling:glass":"yes","recycling_type":"container"}},"type":"Feature"},
	{"geometry":{"coordinates":[10.816525,44.541947],"type":"Point"},"properties":{"osm_id":"2453924707","tag":{"amenity":"waste_disposal","operator":"HERA","waste":"trash"}},"type":"Feature"},
	{"geometry":{"coordinates":[10.816495,44.541954],"type":"Point"},"properties":{"osm_id":"2453924708","tag":{"amenity":"recycling","operator":"HERA","recycling:plastic":"yes","recycling_type":"container"}},"type":"Feature"},
	{"geometry":{"coordinates":[10.816467,44.54196],"type":"Point"},"properties":{"osm_id":"2453924709","tag":{"amenity":"recycling","operator":"HERA","recycling:paper":"yes","recycling_type":"container"}},"type":"Feature"},
	{"geometry":{"coordinates":[10.815149,44.541901],"type":"Point"},"properties":{"osm_id":"2454033271","tag":{"amenity":"recycling","operator":"UIC","recycling:clothes":"yes","recycling_type":"container"}},"type":"Feature"},
	{"geometry":{"coordinates":[10.814863,44.541971],"type":"Point"},"properties":{"osm_id":"2454033284","tag":{"amenity":"recycling","operator":"HERA","recycling:garden_waste":"yes","recycling:organic":"yes","recycling_type":"container"}},"type":"Feature"},
	{"geometry":{"coordinates":[10.814833,44.541978],"type":"Point"},"properties":{"osm_id":"2454033291","tag":{"amenity":"waste_disposal","operator":"HERA","waste":"trash"}},"type":"Feature"},
	{"geometry":{"coordinates":[10.814803,44.541985],"type":"Point"},"properties":{"osm_id":"2454033297","tag":{"amenity":"recycling","operator":"HERA","recycling:plastic":"yes","recycling_type":"container"}},"type":"Feature"},
	{"geometry":{"coordinates":[10.814775,44.541991],"type":"Point"},"properties":{"osm_id":"2454033302","tag":{"amenity":"recycling","operator":"HERA","recycling:paper":"yes","recycling_type":"container"}},"type":"Feature"},
	{"geometry":{"coordinates":[10.81489,44.540706],"type":"Point"},"properties":{"osm_id":"2454194431","tag":{"amenity":"recycling","operator":"HERA","recycling:cans":"yes","recycling:glass":"yes","recycling_type":"container"}},"type":"Feature"},
	{"geometry":{"coordinates":[10.814872,44.54071],"type":"Point"},"properties":{"osm_id":"2454194432","tag":{"amenity":"recycling","operator":"HERA","recycling:garden_waste":"yes","recycling:organic":"yes","recycling_type":"container"}},"type":"Feature"},
	{"geometry":{"coordinates":[10.814854,44.540715],"type":"Point"},"properties":{"osm_id":"2454194433","tag":{"amenity":"recycling","operator":"HERA","recycling:paper":"yes","recycling_type":"container"}},"type":"Feature"},
	{"geometry":{"coordinates":[10.814831,44.540721],"type":"Point"},"properties":{"osm_id":"2454194434","tag":{"amenity":"recycling","operator":"HERA","recycling:plastic":"yes","recycling_type":"container"}},"type":"Feature"},
	{"geometry":{"coordinates":[10.814804,44.540729],"type":"Point"},"properties":{"osm_id":"2454194435","tag":{"amenity":"waste_disposal","operator":"HERA","waste":"trash"}},"type":"Feature"},
	{"geometry":{"coordinates":[10.813295,44.539224],"type":"Point"},"properties":{"osm_id":"2454631385","tag":{"amenity":"recycling","operator":"HERA","recycling:batteries":"yes","recycling_type":"container"}},"type":"Feature"},
	{"geometry":{"coordinates":[10.813279,44.539232],"type":"Point"},"properties":{"osm_id":"2454631386","tag":{"amenity":"recycling","operator":"HERA","recycling:garden_waste":"yes","recycling:organic":"yes","recycling_type":"container"}},"type":"Feature"},
	{"geometry":{"coordinates":[10.813261,44.53924],"type":"Point"},"properties":{"osm_id":"2454631387","tag":{"amenity":"recycling","operator":"UIC","recycling:clothes":"yes","recycling_type":"container"}},"type":"Feature"},
	{"geometry":{"coordinates":[10.813245,44.539247],"type":"Point"},"properties":{"osm_id":"2454631388","tag":{"amenity":"waste_disposal","operator":"HERA","waste":"trash"}},"type":"Feature"},
	{"geometry":{"coordinates":[10.813224,44.539256],"type":"Point"},"properties":{"osm_id":"2454631389","tag":{"amenity":"recycling","operator":"HERA","recycling:paper":"yes","recycling_type":"container"}},"type":"Feature"},
	{"geometry":{"coordinates":[10.813205,44.539265],"type":"Point"},"properties":{"osm_id":"2454631390","tag":{"amenity":"recycling","operator":"HERA","recycling:plastic":"yes","recycling_type":"container"}},"type":"Feature"},
	{"geometry":{"coordinates":[10.813187,44.539273],"type":"Point"},"properties":{"osm_id":"2454631391","tag":{"amenity":"recycling","operator":"HERA","recycling:cans":"yes","recycling:glass":"yes","recycling_type":"container"}},"type":"Feature"},
	{"geometry":{"coordinates":[10.813004,44.54028],"type":"Point"},"properties":{"osm_id":"2455115931","tag":{"amenity":"recycling","operator":"HERA","recycling:cans":"yes","recycling:glass":"yes","recycling:paper":"wall_loops","recycling:plastic":"wall_loops","recycling_type":"container"}},"type":"Feature"},
	{"geometry":{"coordinates":[10.813332,44.540519],"type":"Point"},"properties":{"osm_id":"2455115932","tag":{"amenity":"recycling","operator":"HERA","recycling:garden_waste":"yes","recycling:organic":"yes","recycling_type":"container"}},"type":"Feature"},
	{"geometry":{"coordinates":[10.813338,44.540527],"type":"Point"},"properties":{"osm_id":"2455115933","tag":{"amenity":"waste_disposal","operator":"HERA","waste":"trash"}},"type":"Feature"},
	{"geometry":{"coordinates":[10.812201,44.540262],"type":"Point"},"properties":{"osm_id":"2455723915","tag":{"amenity":"waste_disposal","operator":"HERA","waste":"trash"}},"type":"Feature"},
	{"geometry":{"coordinates":[10.812204,44.540274],"type":"Point"},"properties":{"osm_id":"2455723916","tag":{"amenity":"recycling","operator":"HERA","recycling:garden_waste":"yes","recycling:organic":"yes","recycling_type":"container"}},"type":"Feature"},
	{"geometry":{"coordinates":[10.812485,44.54104],"type":"Point"},"properties":{"osm_id":"2455723917","tag":{"amenity":"waste_disposal","operator":"HERA","waste":"trash"}},"type":"Feature"},
	{"geometry":{"coordinates":[10.812489,44.541052],"type":"Point"},"properties":{"osm_id":"2455723918","tag":{"amenity":"recycling","operator":"HERA","recycling:garden_waste":"yes","recycling:organic":"yes","recycling_type":"container"}},"type":"Feature"},
	{"geometry":{"coordinates":[10.812824,44.541715],"type":"Point"},"properties":{"osm_id":"2455723919","tag":{"amenity":"waste_disposal","operator":"HERA","waste":"trash"}},"type":"Feature"},
	{"geometry":{"coordinates":[10.812827,44.541727],"type":"Point"},"properties":{"osm_id":"2455723920","tag":{"amenity":"recycling","operator":"HERA","recycling:garden_waste":"yes","recycling:organic":"yes","recycling_type":"container"}},"type":"Feature"},
	{"geometry":{"coordinates":[10.81343,44.542947],"type":"Point"},"properties":{"osm_id":"2455723921","tag":{"amenity":"recycling","operator":"HERA","recycling:paper":"yes","recycling_type":"container"}},"type":"Feature"},
	{"geometry":{"coordinates":[10.813438,44.54296],"type":"Point"},"properties":{"osm_id":"2455723922","tag":{"amenity":"recycling","operator":"HERA","recycling:plastic":"yes","recycling_type":"container"}},"type":"Feature"},
	{"geometry":{"coordinates":[10.813445,44.542973],"type":"Point"},"properties":{"osm_id":"2455723923","tag":{"amenity":"recycling","operator":"HERA","recycling:paper":"yes","recycling_type":"container"}},"type":"Feature"},
	{"geometry":{"coordinates":[10.813452,44.542985],"type":"Point"},"properties":{"osm_id":"2455723924","tag":{"amenity":"recycling","operator":"HERA","recycling:garden_waste":"yes","recycling:organic":"yes","recycling_type":"container"}},"type":"Feature"},
	{"geometry":{"coordinates":[10.811846,44.541387],"type":"Point"},"properties":{"osm_id":"2456653949","tag":{"amenity":"recycling","operator":"UIC","recycling:clothes":"yes","recycling_type":"container"}},"type":"Feature"},
	{"geometry":{"coordinates":[10.810843,44.543064],"type":"Point"},"properties":{"osm_id":"2457941304","tag":{"amenity":"recycling","operator":"HERA","recycling:paper":"yes","recycling_type":"container"}},"type":"Feature"},
	{"geometry":{"coordinates":[10.810845,44.543076],"type":"Point"},"properties":{"osm_id":"2457941305","tag":{"amenity":"recycling","operator":"HERA","recycling:garden_waste":"yes","recycling:organic":"yes","recycling_type":"container"}},"type":"Feature"},
	{"geometry":{"coordinates":[10.810847,44.543091],"type":"Point"},"properties":{"osm_id":"2457941306","tag":{"amenity":"waste_disposal","operator":"HERA","waste":"trash"}},"type":"Feature"},
	{"geometry":{"coordinates":[10.810855,44.543106],"type":"Point"},"properties":{"osm_id":"2457941307","tag":{"amenity":"recycling","operator":"HERA","recycling:glass":"yes","recycling_type":"container"}},"type":"Feature"},
	{"geometry":{"coordinates":[10.81086,44.543122],"type":"Point"},"properties":{"osm_id":"2457941308","tag":{"amenity":"recycling","operator":"HERA","recycling:plastic":"yes","recycling_type":"container"}},"type":"Feature"},
	{"geometry":{"coordinates":[10.82424,44.537258],"type":"Point"},"properties":{"osm_id":"2460100353","tag":{"amenity":"waste_disposal","operator":"HERA","waste":"trash"}},"type":"Feature"},
	{"geometry":{"coordinates":[10.82073,44.540464],"type":"Point"},"properties":{"osm_id":"2460100354","tag":{"amenity":"recycling","operator":"HERA","recycling:paper":"yes","recycling_type":"container"}},"type":"Feature"},
	{"geometry":{"coordinates":[10.820744,44.540473],"type":"Point"},"properties":{"osm_id":"2460100355","tag":{"amenity":"waste_disposal","operator":"HERA","waste":"trash"}},"type":"Feature"},
	{"geometry":{"coordinates":[10.821207,44.54067],"type":"Point"},"properties":{"osm_id":"2460100356","tag":{"amenity":"waste_disposal","operator":"HERA","waste":"trash"}},"type":"Feature"},
	{"geometry":{"coordinates":[10.821183,44.540672],"type":"Point"},"properties":{"osm_id":"2460100357","tag":{"amenity":"recycling","operator":"HERA","recycling:plastic":"yes","recycling_type":"container"}},"type":"Feature"},
	{"geometry":{"coordinates":[10.818594,44.541572],"type":"Point"},"properties":{"osm_id":"2460100358","tag":{"amenity":"waste_disposal","operator":"HERA","waste":"trash"}},"type":"Feature"},
	{"geometry":{"coordinates":[10.815202,44.542779],"type":"Point"},"properties":{"osm_id":"2460100359","tag":{"amenity":"recycling","operator":"HERA","recycling:glass":"yes","recycling_type":"container"}},"type":"Feature"},
	{"geometry":{"coordinates":[10.815179,44.542782],"type":"Point"},"properties":{"osm_id":"2460100360","tag":{"amenity":"waste_disposal","operator":"HERA","waste":"trash"}},"type":"Feature"},
	{"geometry":{"coordinates":[10.815155,44.542784],"type":"Point"},"properties":{"osm_id":"2460100361","tag":{"amenity":"recycling","operator":"HERA","recycling:paper":"yes","recycling_type":"container"}},"type":"Feature"},
	{"geometry":{"coordinates":[10.814107,44.537981],"type":"Point"},"properties":{"osm_id":"2461326628","tag":{"amenity":"recycling","operator":"HERA","recycling:paper":"yes","recycling_type":"container"}},"type":"Feature"},
	{"geometry":{"coordinates":[10.814087,44.537991],"type":"Point"},"properties":{"osm_id":"2461326629","tag":{"amenity":"waste_disposal","operator":"HERA","waste":"trash"}},"type":"Feature"},
	{"geometry":{"coordinates":[10.814066,44.538002],"type":"Point"},"properties":{"osm_id":"2461326630","tag":{"amenity":"recycling","operator":"HERA","recycling:cans":"yes","recycling:glass":"yes","recycling_type":"container"}},"type":"Feature"},
	{"geometry":{"coordinates":[10.814045,44.538013],"type":"Point"},"properties":{"osm_id":"2461326631","tag":{"amenity":"recycling","operator":"HERA","recycling:plastic":"yes","recycling_type":"container"}},"type":"Feature"},
	{"geometry":{"coordinates":[10.814027,44.538023],"type":"Point"},"properties":{"osm_id":"2461326632","tag":{"amenity":"recycling","operator":"HERA","recycling:garden_waste":"yes","recycling:organic":"yes","recycling_type":"container"}},"type":"Feature"},
	{"geometry":{"coordinates":[10.814117,44.537285],"type":"Point"},"properties":{"osm_id":"2461335671","tag":{"amenity":"waste_disposal","operator":"HERA","waste":"trash"}},"type":"Feature"},
	{"geometry":{"coordinates":[10.814128,44.537293],"type":"Point"},"properties":{"osm_id":"2461335672","tag":{"amenity":"recycling","operator":"HERA","recycling:plastic":"yes","recycling_type":"container"}},"type":"Feature"},
	{"geometry":{"coordinates":[10.81415,44.537307],"type":"Point"},"properties":{"osm_id":"2461335673","tag":{"amenity":"recycling","operator":"HERA","recycling:paper":"yes","recycling_type":"container"}},"type":"Feature"},
	{"geometry":{"coordinates":[10.814166,44.537317],"type":"Point"},"properties":{"osm_id":"2461335675","tag":{"amenity":"recycling","operator":"HERA","recycling:cans":"yes","recycling:glass":"yes","recycling_type":"container"}},"type":"Feature"},
	{"geometry":{"coordinates":[10.81418,44.537326],"type":"Point"},"properties":{"osm_id":"2461335676","tag":{"amenity":"recycling","operator":"HERA","recycling:garden_waste":"yes","recycling:organic":"yes","recycling_type":"container"}},"type":"Feature"},
	{"geometry":{"coordinates":[10.812194,44.535201],"type":"Point"},"properties":{"osm_id":"2461366327","tag":{"amenity":"recycling","operator":"HERA","recycling:paper":"yes","recycling_type":"container"}},"type":"Feature"},
	{"geometry":{"coordinates":[10.812195,44.535221],"type":"Point"},"properties":{"osm_id":"2461366328","tag":{"amenity":"recycling","operator":"HERA","recycling:garden_waste":"yes","recycling:organic":"yes","recycling_type":"container"}},"type":"Feature"},
	{"geometry":{"coordinates":[10.812195,44.535238],"type":"Point"},"properties":{"osm_id":"2461366329","tag":{"amenity":"waste_disposal","operator":"HERA","waste":"trash"}},"type":"Feature"},
	{"geometry":{"coordinates":[10.812195,44.535255],"type":"Point"},"properties":{"osm_id":"2461366330","tag":{"amenity":"recycling","operator":"HERA","recycling:plastic":"yes","recycling_type":"container"}},"type":"Feature"},
	{"geometry":{"coordinates":[10.812195,44.535279],"type":"Point"},"properties":{"osm_id":"2461366331","tag":{"amenity":"recycling","operator":"HERA","recycling:cans":"yes","recycling:glass":"yes","recycling_type":"container"}},"type":"Feature"},
	{"geometry":{"coordinates":[10.813259,44.536793],"type":"Point"},"properties":{"osm_id":"2461366332","tag":{"amenity":"waste_disposal","operator":"HERA","waste":"trash"}},"type":"Feature"},
	{"geometry":{"coordinates":[10.81328,44.536809],"type":"Point"},"properties":{"osm_id":"2461366333","tag":{"amenity":"recycling","operator":"HERA","recycling:cans":"yes","recycling:glass":"yes","recycling_type":"container"}},"type":"Feature"},
	{"geometry":{"coordinates":[10.813296,44.536825],"type":"Point"},"properties":{"osm_id":"2461366334","tag":{"amenity":"recycling","operator":"HERA","recycling:garden_waste":"yes","recycling:organic":"yes","recycling_type":"container"}},"type":"Feature"},
	{"geometry":{"coordinates":[10.813284,44.536832],"type":"Point"},"properties":{"osm_id":"2461366335","tag":{"amenity":"recycling","operator":"UIC","recycling:clothes":"yes","recycling_type":"container"}},"type":"Feature"},
	{"geometry":{"coordinates":[10.812215,44.534181],"type":"Point"},"properties":{"osm_id":"2461491409","tag":{"amenity":"recycling","operator":"HERA","recycling:garden_waste":"yes","recycling:organic":"yes","recycling_type":"container"}},"type":"Feature"},
	{"geometry":{"coordinates":[10.812219,44.534201],"type":"Point"},"properties":{"osm_id":"2461491410","tag":{"amenity":"waste_disposal","operator":"HERA","waste":"trash"}},"type":"Feature"},
	{"geometry":{"coordinates":[10.813456,44.534295],"type":"Point"},"properties":{"osm_id":"2461512172","tag":{"amenity":"recycling","operator":"HERA","recycling:paper":"yes","recycling_type":"container"}},"type":"Feature"},
	{"geometry":{"coordinates":[10.813457,44.534315],"type":"Point"},"properties":{"osm_id":"2461512173","tag":{"amenity":"recycling","operator":"HERA","recycling:garden_waste":"yes","recycling:organic":"yes","recycling_type":"container"}},"type":"Feature"},
	{"geometry":{"coordinates":[10.813457,44.534332],"type":"Point"},"properties":{"osm_id":"2461512174","tag":{"amenity":"waste_disposal","operator":"HERA","waste":"trash"}},"type":"Feature"},
	{"geometry":{"coordinates":[10.813457,44.53435],"type":"Point"},"properties":{"osm_id":"2461512175","tag":{"amenity":"recycling","operator":"HERA","recycling:plastic":"yes","recycling_type":"container"}},"type":"Feature"},
	{"geometry":{"coordinates":[10.813458,44.534373],"type":"Point"},"properties":{"osm_id":"2461512176","tag":{"amenity":"recycling","operator":"HERA","recycling:cans":"yes","recycling:glass":"yes","recycling_type":"container"}},"type":"Feature"},
	{"geometry":{"coordinates":[10.813789,44.535026],"type":"Point"},"properties":{"osm_id":"2461512177","tag":{"amenity":"recycling","operator":"HERA","recycling:paper":"yes","recycling_type":"container"}},"type":"Feature"},
	{"geometry":{"coordinates":[10.813807,44.535046],"type":"Point"},"properties":{"osm_id":"2461512178","tag":{"amenity":"recycling","operator":"HERA","recycling:garden_waste":"yes","recycling:organic":"yes","recycling_type":"container"}},"type":"Feature"},
	{"geometry":{"coordinates":[10.813823,44.535065],"type":"Point"},"properties":{"osm_id":"2461512179","tag":{"amenity":"recycling","operator":"HERA","recycling:plastic":"yes","recycling_type":"container"}},"type":"Feature"},
	{"geometry":{"coordinates":[10.813844,44.535088],"type":"Point"},"properties":{"osm_id":"2461512180","tag":{"amenity":"waste_disposal","operator":"HERA","waste":"trash"}},"type":"Feature"},
	{"geometry":{"coordinates":[10.814522,44.535887],"type":"Point"},"properties":{"osm_id":"2461512182","tag":{"amenity":"waste_disposal","operator":"HERA","waste":"trash"}},"type":"Feature"},
	{"geometry":{"coordinates":[10.814385,44.536164],"type":"Point"},"properties":{"osm_id":"2461512184","tag":{"amenity":"waste_disposal","operator":"HERA","waste":"trash"}},"type":"Feature"},
	{"geometry":{"coordinates":[10.814421,44.536196],"type":"Point"},"properties":{"osm_id":"2461512185","tag":{"amenity":"recycling","operator":"HERA","recycling:garden_waste":"yes","recycling:organic":"yes","recycling_type":"container"}},"type":"Feature"},
	{"geometry":{"coordinates":[10.815536,44.529175],"type":"Point"},"properties":{"osm_id":"2461641949","tag":{"amenity":"waste_disposal","operator":"HERA","waste":"trash"}},"type":"Feature"},
	{"geometry":{"coordinates":[10.813516,44.532556],"type":"Point"},"properties":{"osm_id":"2461641969","tag":{"amenity":"waste_disposal","operator":"HERA","waste":"trash"}},"type":"Feature"},
	{"geometry":{"coordinates":[10.81769,44.537864],"type":"Point"},"properties":{"osm_id":"2461755491","tag":{"amenity":"waste_disposal","operator":"HERA","waste":"trash"}},"type":"Feature"},
	{"geometry":{"coordinates":[10.817705,44.537865],"type":"Point"},"properties":{"osm_id":"2461755492","tag":{"amenity":"recycling","operator":"HERA","recycling:paper":"yes","recycling_type":"container"}},"type":"Feature"},
	{"geometry":{"coordinates":[10.817718,44.537865],"type":"Point"},"properties":{"osm_id":"2461755493","tag":{"amenity":"recycling","operator":"HERA","recycling:garden_waste":"yes","recycling:organic":"yes","recycling_type":"container"}},"type":"Feature"},
	{"geometry":{"coordinates":[10.818697,44.537883],"type":"Point"},"properties":{"osm_id":"2461755494","tag":{"amenity":"waste_disposal","operator":"HERA","waste":"trash"}},"type":"Feature"},
	{"geometry":{"coordinates":[10.816225,44.537938],"type":"Point"},"properties":{"osm_id":"2461755496","tag":{"amenity":"recycling","operator":"HERA","recycling:cans":"yes","recycling:glass":"yes","recycling_type":"container"}},"type":"Feature"},
	{"geometry":{"coordinates":[10.81626,44.537944],"type":"Point"},"properties":{"osm_id":"2461755498","tag":{"amenity":"waste_disposal","operator":"HERA","waste":"trash"}},"type":"Feature"},
	{"geometry":{"coordinates":[10.816231,44.53796],"type":"Point"},"properties":{"osm_id":"2461755499","tag":{"amenity":"recycling","operator":"UIC","recycling:clothes":"yes","recycling_type":"container"}},"type":"Feature"},
	{"geometry":{"coordinates":[10.816268,44.537965],"type":"Point"},"properties":{"osm_id":"2461755501","tag":{"amenity":"recycling","operator":"HERA","recycling:paper":"yes","recycling_type":"container"}},"type":"Feature"},
	{"geometry":{"coordinates":[10.816278,44.537988],"type":"Point"},"properties":{"osm_id":"2461755502","tag":{"amenity":"recycling","operator":"HERA","recycling:plastic":"yes","recycling_type":"container"}},"type":"Feature"},
	{"geometry":{"coordinates":[10.816287,44.538012],"type":"Point"},"properties":{"osm_id":"2461755504","tag":{"amenity":"recycling","operator":"HERA","recycling:garden_waste":"yes","recycling:organic":"yes","recycling_type":"container"}},"type":"Feature"},
	{"geometry":{"coordinates":[10.819106,44.535986],"type":"Point"},"properties":{"osm_id":"2461825974","tag":{"amenity":"recycling","operator":"HERA","recycling:garden_waste":"yes","recycling:organic":"yes","recycling_type":"container"}},"type":"Feature"},
	{"geometry":{"coordinates":[10.819083,44.535994],"type":"Point"},"properties":{"osm_id":"2461825976","tag":{"amenity":"waste_disposal","operator":"HERA","waste":"trash"}},"type":"Feature"},
	{"geometry":{"coordinates":[10.819125,44.536022],"type":"Point"},"properties":{"osm_id":"2461825979","tag":{"amenity":"recycling","operator":"HERA","recycling:paper":"yes","recycling_type":"container"}},"type":"Feature"},
	{"geometry":{"coordinates":[10.819102,44.536026],"type":"Point"},"properties":{"osm_id":"2461825984","tag":{"amenity":"recycling","operator":"HERA","recycling:plastic":"yes","recycling_type":"container"}},"type":"Feature"},
	{"geometry":{"coordinates":[10.819126,44.536039],"type":"Point"},"properties":{"osm_id":"2461825988","tag":{"amenity":"recycling","operator":"HERA","recycling:cans":"yes","recycling:glass":"yes","recycling_type":"container"}},"type":"Feature"},
	{"geometry":{"coordinates":[10.820993,44.537339],"type":"Point"},"properties":{"osm_id":"2462756244","tag":{"amenity":"recycling","operator":"UIC","recycling:clothes":"yes","recycling_type":"container"}},"type":"Feature"},
	{"geometry":{"coordinates":[10.820933,44.537355],"type":"Point"},"properties":{"osm_id":"2462756249","tag":{"amenity":"recycling","operator":"HERA","recycling:cans":"yes","recycling:glass":"yes","recycling_type":"container"}},"type":"Feature"},
	{"geometry":{"coordinates":[10.820915,44.53736],"type":"Point"},"properties":{"osm_id":"2462756253","tag":{"amenity":"recycling","operator":"HERA","recycling:cans":"yes","recycling:glass":"yes","recycling_type":"container"}},"type":"Feature"},
	{"geometry":{"coordinates":[10.820952,44.537371],"type":"Point"},"properties":{"osm_id":"2462756257","tag":{"amenity":"waste_disposal","operator":"HERA","waste":"trash"}},"type":"Feature"},
	{"geometry":{"coordinates":[10.820926,44.537377],"type":"Point"},"properties":{"osm_id":"2462756260","tag":{"amenity":"waste_disposal","operator":"HERA","waste":"trash"}},"type":"Feature"},
	{"geometry":{"coordinates":[10.8209,44.537384],"type":"Point"},"properties":{"osm_id":"2462756263","tag":{"amenity":"recycling","operator":"HERA","recycling:paper":"yes","recycling_type":"container"}},"type":"Feature"},
	{"geometry":{"coordinates":[10.820878,44.53739],"type":"Point"},"properties":{"osm_id":"2462756267","tag":{"amenity":"recycling","operator":"HERA","recycling:paper":"yes","recycling_type":"container"}},"type":"Feature"},
	{"geometry":{"coordinates":[10.820865,44.537393],"type":"Point"},"properties":{"osm_id":"2462756270","tag":{"amenity":"recycling","operator":"HERA","recycling:plastic":"yes","recycling_type":"container"}},"type":"Feature"},
	{"geometry":{"coordinates":[10.820848,44.537397],"type":"Point"},"properties":{"osm_id":"2462756274","tag":{"amenity":"recycling","operator":"HERA","recycling:garden_waste":"yes","recycling:organic":"yes","recycling_type":"container"}},"type":"Feature"},
	{"geometry":{"coordinates":[10.822016,44.536111],"type":"Point"},"properties":{"osm_id":"2462816094","tag":{"amenity":"waste_disposal","operator":"HERA","waste":"trash"}},"type":"Feature"},
	{"geometry":{"coordinates":[10.820746,44.536429],"type":"Point"},"properties":{"osm_id":"2462816113","tag":{"amenity":"waste_disposal","operator":"HERA","waste":"trash"}},"type":"Feature"},
	{"geometry":{"coordinates":[10.82072,44.536435],"type":"Point"},"properties":{"osm_id":"2462816120","tag":{"amenity":"waste_disposal","operator":"HERA","waste":"trash"}},"type":"Feature"},
	{"geometry":{"coordinates":[10.821573,44.535016],"type":"Point"},"properties":{"osm_id":"2462914155","tag":{"amenity":"recycling","operator":"HERA","recycling:paper":"yes","recycling_type":"container"}},"type":"Feature"},
	{"geometry":{"coordinates":[10.821546,44.535024],"type":"Point"},"properties":{"osm_id":"2462914156","tag":{"amenity":"recycling","operator":"HERA","recycling:plastic":"yes","recycling_type":"container"}},"type":"Feature"},
	{"geometry":{"coordinates":[10.821522,44.535031],"type":"Point"},"properties":{"osm_id":"2462914157","tag":{"amenity":"waste_disposal","operator":"HERA","waste":"trash"}},"type":"Feature"},
	{"geometry":{"coordinates":[10.821489,44.535041],"type":"Point"},"properties":{"osm_id":"2462914158","tag":{"amenity":"recycling","operator":"HERA","recycling:garden_waste":"yes","recycling:organic":"yes","recycling_type":"container"}},"type":"Feature"},
	{"geometry":{"coordinates":[10.821504,44.535056],"type":"Point"},"properties":{"osm_id":"2462914159","tag":{"amenity":"recycling","operator":"HERA","recycling:cans":"yes","recycling:glass":"yes","recycling_type":"container"}},"type":"Feature"},
	{"geometry":{"coordinates":[10.822449,44.535818],"type":"Point"},"properties":{"osm_id":"2463720022","tag":{"amenity":"waste_disposal","operator":"HERA","waste":"trash"}},"type":"Feature"},
	{"geometry":{"coordinates":[10.82278,44.536331],"type":"Point"},"properties":{"osm_id":"2463720024","tag":{"amenity":"recycling","operator":"HERA","recycling:cans":"yes","recycling:glass":"yes","recycling_type":"container"}},"type":"Feature"},
	{"geometry":{"coordinates":[10.822787,44.536347],"type":"Point"},"properties":{"osm_id":"2463720025","tag":{"amenity":"waste_disposal","operator":"HERA","waste":"trash"}},"type":"Feature"},
	{"geometry":{"coordinates":[10.822793,44.536364],"type":"Point"},"properties":{"osm_id":"2463720026","tag":{"amenity":"recycling","operator":"HERA","recycling:plastic":"yes","recycling_type":"container"}},"type":"Feature"},
	{"geometry":{"coordinates":[10.822799,44.536379],"type":"Point"},"properties":{"osm_id":"2463720027","tag":{"amenity":"recycling","operator":"HERA","recycling:garden_waste":"yes","recycling:organic":"yes","recycling_type":"container"}},"type":"Feature"},
	{"geometry":{"coordinates":[10.822854,44.536455],"type":"Point"},"properties":{"osm_id":"2463720028","tag":{"amenity":"waste_disposal","operator":"HERA","waste":"trash"}},"type":"Feature"},
	{"geometry":{"coordinates":[10.822866,44.536474],"type":"Point"},"properties":{"osm_id":"2463720029","tag":{"amenity":"recycling","operator":"HERA","recycling:paper":"yes","recycling_type":"container"}},"type":"Feature"},
	{"geometry":{"coordinates":[10.822793,44.534465],"type":"Point"},"properties":{"osm_id":"2463805899","tag":{"amenity":"recycling","operator":"HERA","recycling:paper":"yes","recycling_type":"container"}},"type":"Feature"},
	{"geometry":{"coordinates":[10.822775,44.53447],"type":"Point"},"properties":{"osm_id":"2463805900","tag":{"amenity":"recycling","operator":"HERA","recycling:cans":"yes","recycling:glass":"yes","recycling_type":"container"}},"type":"Feature"},
	{"geometry":{"coordinates":[10.822761,44.534474],"type":"Point"},"properties":{"osm_id":"2463805901","tag":{"amenity":"recycling","operator":"HERA","recycling:plastic":"yes","recycling_type":"container"}},"type":"Feature"},
	{"geometry":{"coordinates":[10.822742,44.534479],"type":"Point"},"properties":{"osm_id":"2463805902","tag":{"amenity":"recycling","operator":"HERA","recycling:garden_waste":"yes","recycling:organic":"yes","recycling_type":"container"}},"type":"Feature"},
	{"geometry":{"coordinates":[10.822725,44.534483],"type":"Point"},"properties":{"osm_id":"2463805903","tag":{"amenity":"waste_disposal","operator":"HERA","waste":"trash"}},"type":"Feature"},
	{"geometry":{"coordinates":[10.82303,44.534606],"type":"Point"},"properties":{"osm_id":"2463805904","tag":{"amenity":"waste_disposal","operator":"HERA","waste":"trash"}},"type":"Feature"},
	{"geometry":{"coordinates":[10.823038,44.534616],"type":"Point"},"properties":{"osm_id":"2463805905","tag":{"amenity":"recycling","operator":"HERA","recycling:garden_waste":"yes","recycling:organic":"yes","recycling_type":"container"}},"type":"Feature"},
	{"geometry":{"coordinates":[10.824303,44.535222],"type":"Point"},"properties":{"osm_id":"2463805907","tag":{"amenity":"recycling","operator":"HERA","recycling:cans":"yes","recycling:glass":"yes","recycling_type":"container"}},"type":"Feature"},
	{"geometry":{"coordinates":[10.824278,44.535226],"type":"Point"},"properties":{"osm_id":"2463805908","tag":{"amenity":"waste_disposal","operator":"HERA","waste":"trash"}},"type":"Feature"},
	{"geometry":{"coordinates":[10.824253,44.535231],"type":"Point"},"properties":{"osm_id":"2463805909","tag":{"amenity":"recycling","operator":"HERA","recycling:plastic":"yes","recycling_type":"container"}},"type":"Feature"},
	{"geometry":{"coordinates":[10.824227,44.535235],"type":"Point"},"properties":{"osm_id":"2463805910","tag":{"amenity":"recycling","operator":"HERA","recycling:paper":"yes","recycling_type":"container"}},"type":"Feature"},
	{"geometry":{"coordinates":[10.824202,44.535239],"type":"Point"},"properties":{"osm_id":"2463805911","tag":{"amenity":"recycling","operator":"HERA","recycling:garden_waste":"yes","recycling:organic":"yes","recycling_type":"container"}},"type":"Feature"},
	{"geometry":{"coordinates":[10.823752,44.536018],"type":"Point"},"properties":{"osm_id":"2463805914","tag":{"amenity":"recycling","operator":"UIC","recycling:clothes":"yes","recycling_type":"container"}},"type":"Feature"},
	{"geometry":{"coordinates":[10.823747,44.536045],"type":"Point"},"properties":{"osm_id":"2463805915","tag":{"amenity":"recycling","operator":"HERA","recycling:paper":"yes","recycling_type":"container"}},"type":"Feature"},
	{"geometry":{"coordinates":[10.823757,44.536066],"type":"Point"},"properties":{"osm_id":"2463805916","tag":{"amenity":"recycling","operator":"HERA","recycling:plastic":"yes","recycling_type":"container"}},"type":"Feature"},
	{"geometry":{"coordinates":[10.823764,44.536082],"type":"Point"},"properties":{"osm_id":"2463805917","tag":{"amenity":"waste_disposal","operator":"HERA","waste":"trash"}},"type":"Feature"},
	{"geometry":{"coordinates":[10.823773,44.536101],"type":"Point"},"properties":{"osm_id":"2463805918","tag":{"amenity":"recycling","operator":"HERA","recycling:garden_waste":"yes","recycling:organic":"yes","recycling_type":"container"}},"type":"Feature"},
	{"geometry":{"coordinates":[10.823781,44.53612],"type":"Point"},"properties":{"osm_id":"2463805919","tag":{"amenity":"recycling","operator":"HERA","recycling:cans":"yes","recycling:glass":"yes","recycling_type":"container"}},"type":"Feature"},
	{"geometry":{"coordinates":[10.823556,44.537255],"type":"Point"},"properties":{"osm_id":"2464134979","tag":{"amenity":"recycling","operator":"HERA","recycling:paper":"yes","recycling_type":"container"}},"type":"Feature"},
	{"geometry":{"coordinates":[10.823606,44.537274],"type":"Point"},"properties":{"osm_id":"2464134983","tag":{"amenity":"recycling","operator":"HERA","recycling:cans":"yes","recycling:glass":"yes","recycling_type":"container"}},"type":"Feature"},
	{"geometry":{"coordinates":[10.823568,44.537275],"type":"Point"},"properties":{"osm_id":"2464134986","tag":{"amenity":"recycling","operator":"HERA","recycling:plastic":"yes","recycling_type":"container"}},"type":"Feature"},
	{"geometry":{"coordinates":[10.823578,44.537293],"type":"Point"},"properties":{"osm_id":"2464134990","tag":{"amenity":"waste_disposal","operator":"HERA","waste":"trash"}},"type":"Feature"},
	{"geometry":{"coordinates":[10.823588,44.537312],"type":"Point"},"properties":{"osm_id":"2464134992","tag":{"amenity":"recycling","operator":"HERA","recycling:garden_waste":"yes","recycling:organic":"yes","recycling_type":"container"}},"type":"Feature"},
	{"geometry":{"coordinates":[10.821474,44.537948],"type":"Point"},"properties":{"osm_id":"2465723488","tag":{"amenity":"waste_disposal","operator":"HERA","waste":"trash"}},"type":"Feature"},
	{"geometry":{"coordinates":[10.821672,44.538332],"type":"Point"},"properties":{"osm_id":"2465723489","tag":{"amenity":"recycling","operator":"HERA","recycling:garden_waste":"yes","recycling:organic":"yes","recycling_type":"container"}},"type":"Feature"},
	{"geometry":{"coordinates":[10.821681,44.538352],"type":"Point"},"properties":{"osm_id":"2465723490","tag":{"amenity":"waste_disposal","operator":"HERA","waste":"trash"}},"type":"Feature"},
	{"geometry":{"coordinates":[10.821691,44.538377],"type":"Point"},"properties":{"osm_id":"2465723491","tag":{"amenity":"waste_disposal","operator":"HERA","waste":"trash"}},"type":"Feature"},
	{"geometry":{"coordinates":[10.822085,44.53868],"type":"Point"},"properties":{"osm_id":"2465723492","tag":{"amenity":"recycling","operator":"HERA","recycling:cans":"yes","recycling:glass":"yes","recycling_type":"container"}},"type":"Feature"},
	{"geometry":{"coordinates":[10.822064,44.538687],"type":"Point"},"properties":{"osm_id":"2465723493","tag":{"amenity":"recycling","operator":"HERA","recycling:paper":"yes","recycling_type":"container"}},"type":"Feature"},
	{"geometry":{"coordinates":[10.821373,44.53888],"type":"Point"},"properties":{"osm_id":"2465723494","tag":{"amenity":"recycling","operator":"HERA","recycling:plastic":"yes","recycling_type":"container"}},"type":"Feature"},
	{"geometry":{"coordinates":[10.821362,44.538891],"type":"Point"},"properties":{"osm_id":"2465723495","tag":{"amenity":"waste_disposal","operator":"HERA","waste":"trash"}},"type":"Feature"},
	{"geometry":{"coordinates":[10.821348,44.538905],"type":"Point"},"properties":{"osm_id":"2465723496","tag":{"amenity":"recycling","operator":"HERA","recycling:garden_waste":"yes","recycling:organic":"yes","recycling_type":"container"}},"type":"Feature"},
	{"geometry":{"coordinates":[10.821137,44.538936],"type":"Point"},"properties":{"osm_id":"2465723497","tag":{"amenity":"recycling","operator":"HERA","recycling:garden_waste":"yes","recycling:organic":"yes","recycling_type":"container"}},"type":"Feature"},
	{"geometry":{"coordinates":[10.821116,44.538943],"type":"Point"},"properties":{"osm_id":"2465723498","tag":{"amenity":"waste_disposal","operator":"HERA","waste":"trash"}},"type":"Feature"},
	{"geometry":{"coordinates":[10.821092,44.53895],"type":"Point"},"properties":{"osm_id":"2465723499","tag":{"amenity":"waste_disposal","operator":"HERA","waste":"trash"}},"type":"Feature"},
	{"geometry":{"coordinates":[10.819771,44.538405],"type":"Point"},"properties":{"osm_id":"2465730881","tag":{"amenity":"waste_disposal","operator":"HERA","waste":"trash"}},"type":"Feature"},
	{"geometry":{"coordinates":[10.819783,44.538427],"type":"Point"},"properties":{"osm_id":"2465730882","tag":{"amenity":"waste_disposal","operator":"HERA","waste":"trash"}},"type":"Feature"},
	{"geometry":{"coordinates":[10.819795,44.538449],"type":"Point"},"properties":{"osm_id":"2465730883","tag":{"amenity":"recycling","operator":"HERA","recycling:paper":"yes","recycling_type":"container"}},"type":"Feature"},
	{"geometry":{"coordinates":[10.819806,44.53847],"type":"Point"},"properties":{"osm_id":"2465730884","tag":{"amenity":"recycling","operator":"HERA","recycling:plastic":"yes","recycling_type":"container"}},"type":"Feature"},
	{"geometry":{"coordinates":[10.819815,44.538486],"type":"Point"},"properties":{"osm_id":"2465730885","tag":{"amenity":"recycling","operator":"HERA","recycling:garden_waste":"yes","recycling:organic":"yes","recycling_type":"container"}},"type":"Feature"},
	{"geometry":{"coordinates":[10.819823,44.538501],"type":"Point"},"properties":{"osm_id":"2465730886","tag":{"amenity":"recycling","operator":"HERA","recycling:cans":"yes","recycling:glass":"yes","recycling_type":"container"}},"type":"Feature"},
	{"geometry":{"coordinates":[10.820357,44.539513],"type":"Point"},"properties":{"osm_id":"2465730888","tag":{"amenity":"recycling","operator":"HERA","recycling:plastic":"yes","recycling_type":"container"}},"type":"Feature"},
	{"geometry":{"coordinates":[10.820364,44.539532],"type":"Point"},"properties":{"osm_id":"2465730889","tag":{"amenity":"recycling","operator":"HERA","recycling:paper":"yes","recycling_type":"container"}},"type":"Feature"},
	{"geometry":{"coordinates":[10.820372,44.539554],"type":"Point"},"properties":{"osm_id":"2465730890","tag":{"amenity":"recycling","operator":"HERA","recycling:garden_waste":"yes","recycling:organic":"yes","recycling_type":"container"}},"type":"Feature"},
	{"geometry":{"coordinates":[10.82038,44.539576],"type":"Point"},"properties":{"osm_id":"2465730891","tag":{"amenity":"waste_disposal","operator":"HERA","waste":"trash"}},"type":"Feature"},
	{"geometry":{"coordinates":[10.820387,44.539597],"type":"Point"},"properties":{"osm_id":"2465730892","tag":{"amenity":"recycling","operator":"HERA","recycling:cans":"yes","recycling:glass":"yes","recycling_type":"container"}},"type":"Feature"},
	{"geometry":{"coordinates":[10.81937,44.540041],"type":"Point"},"properties":{"osm_id":"2465737930","tag":{"amenity":"recycling","operator":"HERA","recycling:garden_waste":"yes","recycling:organic":"yes","recycling_type":"container"}},"type":"Feature"},
	{"geometry":{"coordinates":[10.819344,44.540046],"type":"Point"},"properties":{"osm_id":"2465737935","tag":{"amenity":"waste_disposal","operator":"HERA","waste":"trash"}},"type":"Feature"},
	{"geometry":{"coordinates":[10.819316,44.540053],"type":"Point"},"properties":{"osm_id":"2465737939","tag":{"amenity":"waste_disposal","operator":"HERA","waste":"trash"}},"type":"Feature"},
	{"geometry":{"coordinates":[10.819272,44.54006],"type":"Point"},"properties":{"osm_id":"2465737942","tag":{"amenity":"recycling","operator":"HERA","recycling:plastic":"yes","recycling_type":"container"}},"type":"Feature"},
	{"geometry":{"coordinates":[10.819246,44.540065],"type":"Point"},"properties":{"osm_id":"2465737947","tag":{"amenity":"recycling","operator":"HERA","recycling:paper":"yes","recycling_type":"container"}},"type":"Feature"},
	{"geometry":{"coordinates":[10.816417,44.539016],"type":"Point"},"properties":{"osm_id":"2465751657","tag":{"amenity":"recycling","operator":"HERA","recycling:cans":"yes","recycling:glass":"yes","recycling_type":"container"}},"type":"Feature"},
	{"geometry":{"coordinates":[10.816428,44.539032],"type":"Point"},"properties":{"osm_id":"2465751658","tag":{"amenity":"recycling","operator":"HERA","recycling:paper":"yes","recycling_type":"container"}},"type":"Feature"},
	{"geometry":{"coordinates":[10.816438,44.539048],"type":"Point"},"properties":{"osm_id":"2465751659","tag":{"amenity":"waste_disposal","operator":"HERA","waste":"trash"}},"type":"Feature"},
	{"geometry":{"coordinates":[10.817826,44.539436],"type":"Point"},"properties":{"osm_id":"2465751660","tag":{"amenity":"waste_disposal","operator":"HERA","waste":"trash"}},"type":"Feature"},
	{"geometry":{"coordinates":[10.817835,44.539457],"type":"Point"},"properties":{"osm_id":"2465751661","tag":{"amenity":"recycling","operator":"HERA","recycling:paper":"yes","recycling_type":"container"}},"type":"Feature"},
	{"geometry":{"coordinates":[10.817864,44.539461],"type":"Point"},"properties":{"osm_id":"2465751662","tag":{"amenity":"recycling","operator":"HERA","recycling:cans":"yes","recycling:glass":"yes","recycling_type":"container"}},"type":"Feature"},
	{"geometry":{"coordinates":[10.817841,44.539481],"type":"Point"},"properties":{"osm_id":"2465751663","tag":{"amenity":"recycling","operator":"HERA","recycling:plastic":"yes","recycling_type":"container"}},"type":"Feature"},
	{"geometry":{"coordinates":[10.818663,44.539491],"type":"Point"},"properties":{"osm_id":"2465751664","tag":{"amenity":"waste_disposal","operator":"HERA","waste":"trash"}},"type":"Feature"},
	{"geometry":{"coordinates":[10.818638,44.539495],"type":"Point"},"properties":{"osm_id":"2465751665","tag":{"amenity":"recycling","operator":"HERA","recycling:garden_waste":"yes","recycling:organic":"yes","recycling_type":"container"}},"type":"Feature"},
	{"geometry":{"coordinates":[10.818614,44.5395],"type":"Point"},"properties":{"osm_id":"2465751666","tag":{"amenity":"recycling","operator":"HERA","recycling:paper":"yes","recycling_type":"container"}},"type":"Feature"},
	{"geometry":{"coordinates":[10.818591,44.539504],"type":"Point"},"properties":{"osm_id":"2465751667","tag":{"amenity":"recycling","operator":"HERA","recycling:plastic":"yes","recycling_type":"container"}},"type":"Feature"},
	{"geometry":{"coordinates":[10.81692,44.540325],"type":"Point"},"properties":{"osm_id":"2465751669","tag":{"amenity":"waste_disposal","operator":"HERA","waste":"trash"}},"type":"Feature"},
	{"geometry":{"coordinates":[10.816998,44.541034],"type":"Point"},"properties":{"osm_id":"2465751671","tag":{"amenity":"recycling","operator":"HERA","recycling:paper":"yes","recycling_type":"container"}},"type":"Feature"},
	{"geometry":{"coordinates":[10.817008,44.541057],"type":"Point"},"properties":{"osm_id":"2465751672","tag":{"amenity":"waste_disposal","operator":"HERA","waste":"trash"}},"type":"Feature"},
	{"geometry":{"coordinates":[10.817015,44.541073],"type":"Point"},"properties":{"osm_id":"2465751673","tag":{"amenity":"recycling","operator":"HERA","recycling:cans":"yes","recycling:glass":"yes","recycling_type":"container"}},"type":"Feature"},
	{"geometry":{"coordinates":[10.817316,44.538715],"type":"Point"},"properties":{"osm_id":"2465755540","tag":{"amenity":"waste_disposal","operator":"HERA","waste":"trash"}},"type":"Feature"},
	{"geometry":{"coordinates":[10.817323,44.538737],"type":"Point"},"properties":{"osm_id":"2465755544","tag":{"amenity":"recycling","operator":"HERA","recycling:garden_waste":"yes","recycling:organic":"yes","recycling_type":"container"}},"type":"Feature"},
	{"geometry":{"coordinates":[10.811072,44.544472],"type":"Point"},"properties":{"osm_id":"2468429307","tag":{"amenity":"recycling","operator":"HERA","recycling:glass":"yes","recycling_type":"container"}},"type":"Feature"},
	{"geometry":{"coordinates":[10.811076,44.544544],"type":"Point"},"properties":{"osm_id":"2468429308","tag":{"amenity":"recycling","operator":"HERA","recycling:paper":"yes","recycling_type":"container"}},"type":"Feature"},
	{"geometry":{"coordinates":[10.811076,44.544562],"type":"Point"},"properties":{"osm_id":"2468429309","tag":{"amenity":"recycling","operator":"HERA","recycling:paper":"yes","recycling_type":"container"}},"type":"Feature"},
	{"geometry":{"coordinates":[10.811078,44.544583],"type":"Point"},"properties":{"osm_id":"2468429310","tag":{"amenity":"recycling","operator":"HERA","recycling:plastic":"yes","recycling_type":"container"}},"type":"Feature"},
	{"geometry":{"coordinates":[10.811078,44.544603],"type":"Point"},"properties":{"osm_id":"2468429312","tag":{"amenity":"waste_disposal","operator":"HERA","waste":"trash"}},"type":"Feature"},
	{"geometry":{"coordinates":[10.811079,44.544621],"type":"Point"},"properties":{"osm_id":"2468429313","tag":{"amenity":"waste_disposal","operator":"HERA","waste":"trash"}},"type":"Feature"},
	{"geometry":{"coordinates":[10.81108,44.544641],"type":"Point"},"properties":{"osm_id":"2468429314","tag":{"amenity":"waste_disposal","operator":"HERA","waste":"trash"}},"type":"Feature"},
	{"geometry":{"coordinates":[10.811081,44.544659],"type":"Point"},"properties":{"osm_id":"2468429315","tag":{"amenity":"waste_disposal","operator":"HERA","waste":"trash"}},"type":"Feature"},
	{"geometry":{"coordinates":[10.811121,44.544986],"type":"Point"},"properties":{"osm_id":"2468446786","tag":{"amenity":"recycling","operator":"HERA","recycling:garden_waste":"yes","recycling:organic":"yes","recycling_type":"container"}},"type":"Feature"},
	{"geometry":{"coordinates":[10.810944,44.545613],"type":"Point"},"properties":{"osm_id":"2468446795","tag":{"amenity":"waste_disposal","operator":"HERA","waste":"trash"}},"type":"Feature"},
	{"geometry":{"coordinates":[10.810948,44.546166],"type":"Point"},"properties":{"osm_id":"2468446799","tag":{"amenity":"waste_disposal","operator":"HERA","waste":"trash"}},"type":"Feature"},
	{"geometry":{"coordinates":[10.810943,44.547181],"type":"Point"},"properties":{"osm_id":"2468446802","tag":{"amenity":"waste_disposal","operator":"HERA","waste":"trash"}},"type":"Feature"},
	{"geometry":{"coordinates":[10.810942,44.548165],"type":"Point"},"properties":{"osm_id":"2468449327","tag":{"amenity":"recycling","operator":"HERA","recycling:glass":"yes","recycling_type":"container"}},"type":"Feature"},
	{"geometry":{"coordinates":[10.810942,44.548195],"type":"Point"},"properties":{"osm_id":"2468449328","tag":{"amenity":"recycling","operator":"HERA","recycling:garden_waste":"yes","recycling:organic":"yes","recycling_type":"container"}},"type":"Feature"},
	{"geometry":{"coordinates":[10.810941,44.548217],"type":"Point"},"properties":{"osm_id":"2468449329","tag":{"amenity":"recycling","operator":"HERA","recycling:paper":"yes","recycling_type":"container"}},"type":"Feature"},
	{"geometry":{"coordinates":[10.810941,44.548238],"type":"Point"},"properties":{"osm_id":"2468449330","tag":{"amenity":"recycling","operator":"HERA","recycling:plastic":"yes","recycling_type":"container"}},"type":"Feature"},
	{"geometry":{"coordinates":[10.81094,44.548263],"type":"Point"},"properties":{"osm_id":"2468449331","tag":{"amenity":"waste_disposal","operator":"HERA","waste":"trash"}},"type":"Feature"},
	{"geometry":{"coordinates":[10.811133,44.548353],"type":"Point"},"properties":{"osm_id":"2468449332","tag":{"amenity":"waste_disposal","operator":"HERA","waste":"trash"}},"type":"Feature"},
	{"geometry":{"coordinates":[10.811016,44.549637],"type":"Point"},"properties":{"osm_id":"2468598109","tag":{"amenity":"waste_disposal","operator":"HERA","waste":"trash"}},"type":"Feature"},
	{"geometry":{"coordinates":[10.811158,44.54992],"type":"Point"},"properties":{"osm_id":"2468598110","tag":{"amenity":"waste_disposal","operator":"HERA","waste":"trash"}},"type":"Feature"},
	{"geometry":{"coordinates":[10.810965,44.55112],"type":"Point"},"properties":{"osm_id":"2468598111","tag":{"amenity":"waste_disposal","operator":"HERA","waste":"trash"}},"type":"Feature"},
	{"geometry":{"coordinates":[10.81074,44.552167],"type":"Point"},"properties":{"osm_id":"2468598112","tag":{"amenity":"waste_disposal","operator":"HERA","waste":"trash"}},"type":"Feature"},
	{"geometry":{"coordinates":[10.81059,44.554215],"type":"Point"},"properties":{"osm_id":"2469059843","tag":{"amenity":"recycling","operator":"HERA","recycling:paper":"yes","recycling_type":"container"}},"type":"Feature"},
	{"geometry":{"coordinates":[10.81059,44.554238],"type":"Point"},"properties":{"osm_id":"2469059844","tag":{"amenity":"waste_disposal","operator":"HERA","waste":"trash"}},"type":"Feature"},
	{"geometry":{"coordinates":[10.810958,44.555503],"type":"Point"},"properties":{"osm_id":"2469059845","tag":{"amenity":"waste_disposal","operator":"HERA","waste":"trash"}},"type":"Feature"},
	{"geometry":{"coordinates":[10.81098,44.556198],"type":"Point"},"properties":{"osm_id":"2469059846","tag":{"amenity":"waste_disposal","operator":"HERA","waste":"trash"}},"type":"Feature"},
	{"geometry":{"coordinates":[10.811846,44.558663],"type":"Point"},"properties":{"osm_id":"2469059847","tag":{"amenity":"recycling","operator":"HERA","recycling:paper":"yes","recycling_type":"container"}},"type":"Feature"},
	{"geometry":{"coordinates":[10.811853,44.558687],"type":"Point"},"properties":{"osm_id":"2469059848","tag":{"amenity":"waste_disposal","operator":"HERA","waste":"trash"}},"type":"Feature"},
	{"geometry":{"coordinates":[10.812105,44.560433],"type":"Point"},"properties":{"osm_id":"2469059849","tag":{"amenity":"waste_disposal","operator":"HERA","waste":"trash"}},"type":"Feature"},
	{"geometry":{"coordinates":[10.81233,44.561098],"type":"Point"},"properties":{"osm_id":"2469059850","tag":{"amenity":"waste_basket"}},"type":"Feature"},
	{"geometry":{"coordinates":[10.812641,44.561176],"type":"Point"},"properties":{"osm_id":"2469059851","tag":{"amenity":"waste_basket"}},"type":"Feature"},
	{"geometry":{"coordinates":[10.820685,44.558901],"type":"Point"},"properties":{"osm_id":"2469929941","tag":{"amenity":"waste_disposal","operator":"HERA","waste":"trash"}},"type":"Feature"},
	{"geometry":{"coordinates":[10.81986,44.559614],"type":"Point"},"properties":{"osm_id":"2469929943","tag":{"amenity":"waste_disposal","operator":"HERA","waste":"trash"}},"type":"Feature"},
	{"geometry":{"coordinates":[10.823893,44.560516],"type":"Point"},"properties":{"osm_id":"2469929944","tag":{"amenity":"waste_disposal","operator":"HERA","waste":"trash"}},"type":"Feature"},
	{"geometry":{"coordinates":[10.821894,44.561291],"type":"Point"},"properties":{"osm_id":"2469929945","tag":{"amenity":"waste_disposal","operator":"HERA","waste":"trash"}},"type":"Feature"},
	{"geometry":{"coordinates":[10.821903,44.561314],"type":"Point"},"properties":{"osm_id":"2469929946","tag":{"amenity":"recycling","operator":"HERA","recycling:garden_waste":"yes","recycling:organic":"yes","recycling_type":"container"}},"type":"Feature"},
	{"geometry":{"coordinates":[10.821914,44.561339],"type":"Point"},"properties":{"osm_id":"2469929947","tag":{"amenity":"recycling","operator":"HERA","recycling:paper":"yes","recycling_type":"container"}},"type":"Feature"},
	{"geometry":{"coordinates":[10.821924,44.561364],"type":"Point"},"properties":{"osm_id":"2469929948","tag":{"amenity":"recycling","operator":"HERA","recycling:plastic":"yes","recycling_type":"container"}},"type":"Feature"},
	{"geometry":{"coordinates":[10.821935,44.561391],"type":"Point"},"properties":{"osm_id":"2469929950","tag":{"amenity":"recycling","operator":"HERA","recycling:glass":"yes","recycling_type":"container"}},"type":"Feature"},
	{"geometry":{"coordinates":[10.82195,44.561739],"type":"Point"},"properties":{"osm_id":"2469929953","tag":{"amenity":"waste_disposal","operator":"HERA","waste":"trash"}},"type":"Feature"},
	{"geometry":{"coordinates":[10.821966,44.56177],"type":"Point"},"properties":{"osm_id":"2469929954","tag":{"amenity":"recycling","operator":"HERA","recycling:paper":"yes","recycling_type":"container"}},"type":"Feature"},
	{"geometry":{"coordinates":[10.818479,44.553174],"type":"Point"},"properties":{"osm_id":"2470131618","tag":{"amenity":"waste_disposal","operator":"HERA","waste":"trash"}},"type":"Feature"},
	{"geometry":{"coordinates":[10.824577,44.557246],"type":"Point"},"properties":{"osm_id":"2470729749","tag":{"amenity":"waste_disposal","operator":"HERA","waste":"trash"}},"type":"Feature"},
	{"geometry":{"coordinates":[10.824551,44.557255],"type":"Point"},"properties":{"osm_id":"2470729751","tag":{"amenity":"recycling","operator":"HERA","recycling:paper":"yes","recycling_type":"container"}},"type":"Feature"},
	{"geometry":{"coordinates":[10.821945,44.557957],"type":"Point"},"properties":{"osm_id":"2470729752","tag":{"amenity":"waste_disposal","operator":"HERA","waste":"trash"}},"type":"Feature"},
	{"geometry":{"coordinates":[10.821919,44.557966],"type":"Point"},"properties":{"osm_id":"2470729753","tag":{"amenity":"recycling","operator":"HERA","recycling:paper":"yes","recycling_type":"container"}},"type":"Feature"},
	{"geometry":{"coordinates":[10.824497,44.558484],"type":"Point"},"properties":{"osm_id":"2470737871","tag":{"amenity":"waste_disposal","operator":"HERA","waste":"trash"}},"type":"Feature"},
	{"geometry":{"coordinates":[10.824599,44.556469],"type":"Point"},"properties":{"osm_id":"2470999189","tag":{"amenity":"waste_disposal","operator":"HERA","waste":"trash"}},"type":"Feature"},
	{"geometry":{"coordinates":[10.816651,44.544533],"type":"Point"},"properties":{"osm_id":"2471258270","tag":{"amenity":"waste_disposal","operator":"HERA","waste":"trash"}},"type":"Feature"},
	{"geometry":{"coordinates":[10.817223,44.54729],"type":"Point"},"properties":{"osm_id":"2471258271","tag":{"amenity":"waste_disposal","operator":"HERA","waste":"trash"}},"type":"Feature"},
	{"geometry":{"coordinates":[10.817816,44.548189],"type":"Point"},"properties":{"osm_id":"2471258272","tag":{"amenity":"waste_disposal","operator":"HERA","waste":"trash"}},"type":"Feature"},
	{"geometry":{"coordinates":[10.817782,44.548197],"type":"Point"},"properties":{"osm_id":"2471258273","tag":{"amenity":"waste_disposal","operator":"HERA","waste":"trash"}},"type":"Feature"},
	{"geometry":{"coordinates":[10.819297,44.549836],"type":"Point"},"properties":{"osm_id":"2471258276","tag":{"amenity":"recycling","operator":"HERA","recycling:glass":"yes","recycling_type":"container"}},"type":"Feature"},
	{"geometry":{"coordinates":[10.819277,44.54984],"type":"Point"},"properties":{"osm_id":"2471258277","tag":{"amenity":"recycling","operator":"HERA","recycling:plastic":"yes","recycling_type":"container"}},"type":"Feature"},
	{"geometry":{"coordinates":[10.819251,44.549846],"type":"Point"},"properties":{"osm_id":"2471258278","tag":{"amenity":"recycling","operator":"HERA","recycling:paper":"yes","recycling_type":"container"}},"type":"Feature"},
	{"geometry":{"coordinates":[10.819224,44.549852],"type":"Point"},"properties":{"osm_id":"2471258279","tag":{"amenity":"recycling","operator":"HERA","recycling:paper":"yes","recycling_type":"container"}},"type":"Feature"},
	{"geometry":{"coordinates":[10.819198,44.549858],"type":"Point"},"properties":{"osm_id":"2471258280","tag":{"amenity":"waste_disposal","operator":"HERA","waste":"trash"}},"type":"Feature"},
	{"geometry":{"coordinates":[10.819167,44.549865],"type":"Point"},"properties":{"osm_id":"2471258281","tag":{"amenity":"waste_disposal","operator":"HERA","waste":"trash"}},"type":"Feature"},
	{"geometry":{"coordinates":[10.819132,44.549872],"type":"Point"},"properties":{"osm_id":"2471258282","tag":{"amenity":"waste_disposal","operator":"HERA","waste":"trash"}},"type":"Feature"},
	{"geometry":{"coordinates":[10.816842,44.548331],"type":"Point"},"properties":{"osm_id":"2471260292","tag":{"amenity":"recycling","operator":"HERA","recycling:plastic":"yes","recycling_type":"container"}},"type":"Feature"},
	{"geometry":{"coordinates":[10.816815,44.548338],"type":"Point"},"properties":{"osm_id":"2471260300","tag":{"amenity":"recycling","operator":"HERA","recycling:plastic":"yes","recycling_type":"container"}},"type":"Feature"},
	{"geometry":{"coordinates":[10.816789,44.548344],"type":"Point"},"properties":{"osm_id":"2471260307","tag":{"amenity":"recycling","operator":"HERA","recycling:plastic":"yes","recycling_type":"container"}},"type":"Feature"},
	{"geometry":{"coordinates":[10.816937,44.548405],"type":"Point"},"properties":{"osm_id":"2471260313","tag":{"amenity":"recycling","operator":"HERA","recycling:paper":"yes","recycling_type":"container"}},"type":"Feature"},
	{"geometry":{"coordinates":[10.816908,44.548411],"type":"Point"},"properties":{"osm_id":"2471260321","tag":{"amenity":"recycling","operator":"HERA","recycling:paper":"yes","recycling_type":"container"}},"type":"Feature"},
	{"geometry":{"coordinates":[10.816875,44.548418],"type":"Point"},"properties":{"osm_id":"2471260327","tag":{"amenity":"recycling","operator":"HERA","recycling:paper":"yes","recycling_type":"container"}},"type":"Feature"},
	{"geometry":{"coordinates":[10.817496,44.542627],"type":"Point"},"properties":{"osm_id":"2472100391","tag":{"amenity":"waste_disposal","operator":"HERA","waste":"trash"}},"type":"Feature"},
	{"geometry":{"coordinates":[10.817467,44.542635],"type":"Point"},"properties":{"osm_id":"2472100392","tag":{"amenity":"recycling","operator":"HERA","recycling:garden_waste":"yes","recycling:organic":"yes","recycling_type":"container"}},"type":"Feature"},
	{"geometry":{"coordinates":[10.826188,44.540939],"type":"Point"},"properties":{"osm_id":"2472259875","tag":{"amenity":"waste_disposal","operator":"HERA","waste":"trash"}},"type":"Feature"},
	{"geometry":{"coordinates":[10.826185,44.540962],"type":"Point"},"properties":{"osm_id":"2472259876","tag":{"amenity":"waste_disposal","operator":"HERA","waste":"trash"}},"type":"Feature"},
	{"geometry":{"coordinates":[10.826184,44.540987],"type":"Point"},"properties":{"osm_id":"2472259877","tag":{"amenity":"waste_disposal","operator":"HERA","waste":"trash"}},"type":"Feature"},
	{"geometry":{"coordinates":[10.826183,44.541007],"type":"Point"},"properties":{"osm_id":"2472259878","tag":{"amenity":"recycling","operator":"HERA","recycling:cans":"yes","recycling:glass":"yes","recycling_type":"container"}},"type":"Feature"},
	{"geometry":{"coordinates":[10.826185,44.541033],"type":"Point"},"properties":{"osm_id":"2472259879","tag":{"amenity":"waste_disposal","operator":"HERA","waste":"trash"}},"type":"Feature"},
	{"geometry":{"coordinates":[10.828129,44.541468],"type":"Point"},"properties":{"osm_id":"2472356005","tag":{"amenity":"waste_disposal","operator":"HERA","waste":"trash"}},"type":"Feature"},
	{"geometry":{"coordinates":[10.828307,44.536373],"type":"Point"},"properties":{"osm_id":"2475566276","tag":{"amenity":"waste_disposal","operator":"HERA","waste":"trash"}},"type":"Feature"},
	{"geometry":{"coordinates":[10.840763,44.535254],"type":"Point"},"properties":{"osm_id":"2480135209","tag":{"amenity":"waste_disposal","operator":"HERA","waste":"trash"}},"type":"Feature"},
	{"geometry":{"coordinates":[10.824985,44.53688],"type":"Point"},"properties":{"osm_id":"2480144764","tag":{"amenity":"recycling","operator":"HERA","recycling:cans":"yes","recycling:glass":"yes","recycling_type":"container"}},"type":"Feature"},
	{"geometry":{"coordinates":[10.824997,44.536897],"type":"Point"},"properties":{"osm_id":"2480144765","tag":{"amenity":"recycling","operator":"HERA","recycling:paper":"yes","recycling_type":"container"}},"type":"Feature"},
	{"geometry":{"coordinates":[10.825007,44.536912],"type":"Point"},"properties":{"osm_id":"2480144766","tag":{"amenity":"recycling","operator":"HERA","recycling:plastic":"yes","recycling_type":"container"}},"type":"Feature"},
	{"geometry":{"coordinates":[10.825018,44.536929],"type":"Point"},"properties":{"osm_id":"2480144767","tag":{"amenity":"waste_disposal","operator":"HERA","waste":"trash"}},"type":"Feature"},
	{"geometry":{"coordinates":[10.825029,44.536945],"type":"Point"},"properties":{"osm_id":"2480144768","tag":{"amenity":"waste_disposal","operator":"HERA","waste":"trash"}},"type":"Feature"},
	{"geometry":{"coordinates":[10.82451,44.534144],"type":"Point"},"properties":{"osm_id":"2480240054","tag":{"amenity":"recycling","operator":"HERA","recycling:garden_waste":"yes","recycling:organic":"yes","recycling_type":"container"}},"type":"Feature"},
	{"geometry":{"coordinates":[10.82448,44.534152],"type":"Point"},"properties":{"osm_id":"2480240055","tag":{"amenity":"recycling","operator":"HERA","recycling:cans":"yes","recycling:glass":"yes","recycling_type":"container"}},"type":"Feature"},
	{"geometry":{"coordinates":[10.82451,44.534161],"type":"Point"},"properties":{"osm_id":"2480240056","tag":{"amenity":"waste_disposal","operator":"HERA","waste":"trash"}},"type":"Feature"},
	{"geometry":{"coordinates":[10.825512,44.536015],"type":"Point"},"properties":{"osm_id":"2480240058","tag":{"amenity":"waste_disposal","operator":"HERA","waste":"trash"}},"type":"Feature"},
	{"geometry":{"coordinates":[10.825485,44.536024],"type":"Point"},"properties":{"osm_id":"2480240059","tag":{"amenity":"recycling","operator":"HERA","recycling:garden_waste":"yes","recycling:organic":"yes","recycling_type":"container"}},"type":"Feature"},
	{"geometry":{"coordinates":[10.825883,44.533714],"type":"Point"},"properties":{"osm_id":"2480245746","tag":{"amenity":"waste_disposal","operator":"HERA","waste":"trash"}},"type":"Feature"},
	{"geometry":{"coordinates":[10.826529,44.534766],"type":"Point"},"properties":{"osm_id":"2482334070","tag":{"amenity":"recycling","operator":"HERA","recycling:cans":"yes","recycling:glass":"yes","recycling_type":"container"}},"type":"Feature"},
	{"geometry":{"coordinates":[10.826513,44.534778],"type":"Point"},"properties":{"osm_id":"2482334071","tag":{"amenity":"recycling","operator":"HERA","recycling:garden_waste":"yes","recycling:organic":"yes","recycling_type":"container"}},"type":"Feature"},
	{"geometry":{"coordinates":[10.826497,44.534789],"type":"Point"},"properties":{"osm_id":"2482334075","tag":{"amenity":"recycling","operator":"HERA","recycling:paper":"yes","recycling_type":"container"}},"type":"Feature"},
	{"geometry":{"coordinates":[10.826476,44.534804],"type":"Point"},"properties":{"osm_id":"2482334079","tag":{"amenity":"recycling","operator":"HERA","recycling:plastic":"yes","recycling_type":"container"}},"type":"Feature"},
	{"geometry":{"coordinates":[10.826456,44.534817],"type":"Point"},"properties":{"osm_id":"2482334083","tag":{"amenity":"waste_disposal","operator":"HERA","waste":"trash"}},"type":"Feature"},
	{"geometry":{"coordinates":[10.826441,44.534828],"type":"Point"},"properties":{"osm_id":"2482334087","tag":{"amenity":"waste_disposal","operator":"HERA","waste":"trash"}},"type":"Feature"},
	{"geometry":{"coordinates":[10.826633,44.535814],"type":"Point"},"properties":{"osm_id":"2482334103","tag":{"amenity":"waste_disposal","operator":"HERA","waste":"trash"}},"type":"Feature"},
	{"geometry":{"coordinates":[10.826603,44.535818],"type":"Point"},"properties":{"osm_id":"2482334107","tag":{"amenity":"waste_disposal","operator":"HERA","waste":"trash"}},"type":"Feature"},
	{"geometry":{"coordinates":[10.826569,44.535822],"type":"Point"},"properties":{"osm_id":"2482334110","tag":{"amenity":"recycling","operator":"HERA","recycling:cans":"yes","recycling:glass":"yes","recycling_type":"container"}},"type":"Feature"},
	{"geometry":{"coordinates":[10.826529,44.535828],"type":"Point"},"properties":{"osm_id":"2482334117","tag":{"amenity":"recycling","operator":"HERA","recycling:plastic":"yes","recycling_type":"container"}},"type":"Feature"},
	{"geometry":{"coordinates":[10.826504,44.535831],"type":"Point"},"properties":{"osm_id":"2482334121","tag":{"amenity":"recycling","operator":"HERA","recycling:paper":"yes","recycling_type":"container"}},"type":"Feature"},
	{"geometry":{"coordinates":[10.826469,44.535836],"type":"Point"},"properties":{"osm_id":"2482334125","tag":{"amenity":"recycling","operator":"HERA","recycling:garden_waste":"yes","recycling:organic":"yes","recycling_type":"container"}},"type":"Feature"},
	{"geometry":{"coordinates":[10.82668,44.535809],"type":"Point"},"properties":{"osm_id":"2482581548","tag":{"amenity":"recycling","operator":"Caritas","recycling:clothes":"yes","recycling_type":"container"}},"type":"Feature"},
	{"geometry":{"coordinates":[10.827701,44.53447],"type":"Point"},"properties":{"osm_id":"2483620665","tag":{"amenity":"waste_disposal","operator":"HERA","waste":"trash"}},"type":"Feature"},
	{"geometry":{"coordinates":[10.827706,44.534494],"type":"Point"},"properties":{"osm_id":"2483620671","tag":{"amenity":"recycling","operator":"HERA","recycling:cans":"yes","recycling:glass":"yes","recycling_type":"container"}},"type":"Feature"},
	{"geometry":{"coordinates":[10.82771,44.534516],"type":"Point"},"properties":{"osm_id":"2483620682","tag":{"amenity":"recycling","operator":"HERA","recycling:paper":"yes","recycling_type":"container"}},"type":"Feature"},
	{"geometry":{"coordinates":[10.827714,44.534535],"type":"Point"},"properties":{"osm_id":"2483620692","tag":{"amenity":"recycling","operator":"HERA","recycling:garden_waste":"yes","recycling:organic":"yes","recycling_type":"container"}},"type":"Feature"},
	{"geometry":{"coordinates":[10.827717,44.534556],"type":"Point"},"properties":{"osm_id":"2483620704","tag":{"amenity":"recycling","operator":"HERA","recycling:plastic":"yes","recycling_type":"container"}},"type":"Feature"},
	{"geometry":{"coordinates":[10.827722,44.534579],"type":"Point"},"properties":{"osm_id":"2483620710","tag":{"amenity":"waste_disposal","operator":"HERA","waste":"trash"}},"type":"Feature"},
	{"geometry":{"coordinates":[10.827725,44.5346],"type":"Point"},"properties":{"osm_id":"2483620719","tag":{"amenity":"recycling","operator":"HERA","recycling:cans":"yes","recycling:glass":"yes","recycling_type":"container"}},"type":"Feature"},
	{"geometry":{"coordinates":[10.840636,44.549192],"type":"Point"},"properties":{"osm_id":"2486799888","tag":{"amenity":"waste_disposal","operator":"HERA","waste":"trash"}},"type":"Feature"},
	{"geometry":{"coordinates":[10.840624,44.549202],"type":"Point"},"properties":{"osm_id":"2486799893","tag":{"amenity":"recycling","operator":"HERA","recycling:cans":"yes","recycling:glass":"yes","recycling_type":"container"}},"type":"Feature"},
	{"geometry":{"coordinates":[10.835181,44.53819],"type":"Point"},"properties":{"osm_id":"2487620677","tag":{"amenity":"waste_disposal","operator":"HERA","waste":"trash"}},"type":"Feature"},
	{"geometry":{"coordinates":[10.835355,44.539796],"type":"Point"},"properties":{"osm_id":"2487620704","tag":{"amenity":"waste_disposal","operator":"HERA","waste":"trash"}},"type":"Feature"},
	{"geometry":{"coordinates":[10.83508,44.535693],"type":"Point"},"properties":{"osm_id":"2488391738","tag":{"amenity":"recycling","operator":"HERA","recycling:plastic":"yes","recycling_type":"container"}},"type":"Feature"},
	{"geometry":{"coordinates":[10.835049,44.535698],"type":"Point"},"properties":{"osm_id":"2488391744","tag":{"amenity":"recycling","operator":"HERA","recycling:paper":"yes","recycling_type":"container"}},"type":"Feature"},
	{"geometry":{"coordinates":[10.835018,44.535702],"type":"Point"},"properties":{"osm_id":"2488391748","tag":{"amenity":"recycling","operator":"HERA","recycling:paper":"yes","recycling_type":"container"}},"type":"Feature"},
	{"geometry":{"coordinates":[10.834987,44.535707],"type":"Point"},"properties":{"osm_id":"2488391751","tag":{"amenity":"waste_disposal","operator":"HERA","waste":"trash"}},"type":"Feature"},
	{"geometry":{"coordinates":[10.834956,44.535711],"type":"Point"},"properties":{"osm_id":"2488391759","tag":{"amenity":"recycling","operator":"HERA","recycling:cans":"yes","recycling:glass":"yes","recycling_type":"container"}},"type":"Feature"},
	{"geometry":{"coordinates":[10.828764,44.53536],"type":"Point"},"properties":{"osm_id":"2490805215","tag":{"amenity":"waste_disposal","operator":"HERA","waste":"trash"}},"type":"Feature"},
	{"geometry":{"coordinates":[10.828529,44.534339],"type":"Point"},"properties":{"osm_id":"2491000548","tag":{"amenity":"recycling","operator":"HERA","recycling:garden_waste":"yes","recycling:organic":"yes","recycling_type":"container"}},"type":"Feature"},
	{"geometry":{"coordinates":[10.828532,44.534357],"type":"Point"},"properties":{"osm_id":"2491000559","tag":{"amenity":"recycling","operator":"HERA","recycling:plastic":"yes","recycling_type":"container"}},"type":"Feature"},
	{"geometry":{"coordinates":[10.828536,44.534377],"type":"Point"},"properties":{"osm_id":"2491000571","tag":{"amenity":"waste_disposal","operator":"HERA","waste":"trash"}},"type":"Feature"},
	{"geometry":{"coordinates":[10.828541,44.534399],"type":"Point"},"properties":{"osm_id":"2491000579","tag":{"amenity":"recycling","operator":"HERA","recycling:paper":"yes","recycling_type":"container"}},"type":"Feature"},
	{"geometry":{"coordinates":[10.828544,44.534414],"type":"Point"},"properties":{"osm_id":"2491000586","tag":{"amenity":"recycling","operator":"HERA","recycling:cans":"yes","recycling:glass":"yes","recycling_type":"container"}},"type":"Feature"},
	{"geometry":{"coordinates":[10.830745,44.534985],"type":"Point"},"properties":{"osm_id":"2493675803","tag":{"amenity":"recycling","operator":"HERA","recycling:cans":"yes","recycling:glass":"yes","recycling_type":"container"}},"type":"Feature"},
	{"geometry":{"coordinates":[10.830783,44.534986],"type":"Point"},"properties":{"osm_id":"2493675806","tag":{"amenity":"waste_disposal","operator":"HERA","waste":"trash"}},"type":"Feature"},
	{"geometry":{"coordinates":[10.830786,44.535004],"type":"Point"},"properties":{"osm_id":"2493675809","tag":{"amenity":"waste_disposal","operator":"HERA","waste":"trash"}},"type":"Feature"},
	{"geometry":{"coordinates":[10.83079,44.535024],"type":"Point"},"properties":{"osm_id":"2493675810","tag":{"amenity":"recycling","operator":"HERA","recycling:garden_waste":"yes","recycling:organic":"yes","recycling_type":"container"}},"type":"Feature"},
	{"geometry":{"coordinates":[10.830794,44.535042],"type":"Point"},"properties":{"osm_id":"2493675812","tag":{"amenity":"recycling","operator":"HERA","recycling:paper":"yes","recycling_type":"container"}},"type":"Feature"},
	{"geometry":{"coordinates":[10.830797,44.535058],"type":"Point"},"properties":{"osm_id":"2493675815","tag":{"amenity":"recycling","operator":"HERA","recycling:plastic":"yes","recycling_type":"container"}},"type":"Feature"},
	{"geometry":{"coordinates":[10.831463,44.534959],"type":"Point"},"properties":{"osm_id":"2494686624","tag":{"amenity":"waste_disposal","operator":"HERA","waste":"trash"}},"type":"Feature"},
	{"geometry":{"coordinates":[10.831936,44.534008],"type":"Point"},"properties":{"osm_id":"2496072534","tag":{"amenity":"recycling","operator":"HERA","recycling:garden_waste":"yes","recycling:organic":"yes","recycling_type":"container"}},"type":"Feature"},
	{"geometry":{"coordinates":[10.831939,44.534018],"type":"Point"},"properties":{"osm_id":"2496072535","tag":{"amenity":"waste_disposal","operator":"HERA","waste":"trash"}},"type":"Feature"},
	{"geometry":{"coordinates":[10.831941,44.534027],"type":"Point"},"properties":{"osm_id":"2496072536","tag":{"amenity":"recycling","operator":"HERA","recycling:paper":"yes","recycling_type":"container"}},"type":"Feature"},
	{"geometry":{"coordinates":[10.83132,44.534281],"type":"Point"},"properties":{"osm_id":"2496072547","tag":{"amenity":"waste_disposal","operator":"HERA","waste":"trash"}},"type":"Feature"},
	{"geometry":{"coordinates":[10.832037,44.534417],"type":"Point"},"properties":{"osm_id":"2496072552","tag":{"amenity":"waste_disposal","operator":"HERA","waste":"trash"}},"type":"Feature"},
	{"geometry":{"coordinates":[10.831462,44.534944],"type":"Point"},"properties":{"osm_id":"2496072579","tag":{"amenity":"recycling","operator":"HERA","recycling:garden_waste":"yes","recycling:organic":"yes","recycling_type":"container"}},"type":"Feature"},
	{"geometry":{"coordinates":[10.833017,44.535177],"type":"Point"},"properties":{"osm_id":"2496960422","tag":{"amenity":"waste_disposal","operator":"HERA","waste":"trash"}},"type":"Feature"},
	{"geometry":{"coordinates":[10.832642,44.53387],"type":"Point"},"properties":{"osm_id":"2497566550","tag":{"amenity":"recycling","operator":"HERA","recycling:garden_waste":"yes","recycling:organic":"yes","recycling_type":"container"}},"type":"Feature"},
	{"geometry":{"coordinates":[10.832644,44.53388],"type":"Point"},"properties":{"osm_id":"2497566551","tag":{"amenity":"waste_disposal","operator":"HERA","waste":"trash"}},"type":"Feature"},
	{"geometry":{"coordinates":[10.83392,44.535034],"type":"Point"},"properties":{"osm_id":"2498493895","tag":{"amenity":"recycling","operator":"HERA","recycling:plastic":"yes","recycling_type":"container"}},"type":"Feature"},
	{"geometry":{"coordinates":[10.833888,44.535038],"type":"Point"},"properties":{"osm_id":"2498493896","tag":{"amenity":"recycling","operator":"HERA","recycling:paper":"yes","recycling_type":"container"}},"type":"Feature"},
	{"geometry":{"coordinates":[10.833857,44.535041],"type":"Point"},"properties":{"osm_id":"2498493897","tag":{"amenity":"waste_disposal","operator":"HERA","waste":"trash"}},"type":"Feature"},
	{"geometry":{"coordinates":[10.833825,44.535044],"type":"Point"},"properties":{"osm_id":"2498493898","tag":{"amenity":"recycling","operator":"HERA","recycling:cans":"yes","recycling:glass":"yes","recycling_type":"container"}},"type":"Feature"},
	{"geometry":{"coordinates":[10.833795,44.535047],"type":"Point"},"properties":{"osm_id":"2498493899","tag":{"amenity":"recycling","operator":"HERA","recycling:garden_waste":"yes","recycling:organic":"yes","recycling_type":"container"}},"type":"Feature"},
	{"geometry":{"coordinates":[10.833958,44.53466],"type":"Point"},"properties":{"osm_id":"2499408421","tag":{"amenity":"recycling","operator":"HERA","recycling:paper":"yes","recycling_type":"container"}},"type":"Feature"},
	{"geometry":{"coordinates":[10.833961,44.534669],"type":"Point"},"properties":{"osm_id":"2499408428","tag":{"amenity":"waste_disposal","operator":"HERA","waste":"trash"}},"type":"Feature"},
	{"geometry":{"coordinates":[10.834512,44.534148],"type":"Point"},"properties":{"osm_id":"2501462039","tag":{"amenity":"recycling","operator":"HERA","recycling:plastic":"yes","recycling_type":"container"}},"type":"Feature"},
	{"geometry":{"coordinates":[10.834537,44.534151],"type":"Point"},"properties":{"osm_id":"2501462046","tag":{"amenity":"recycling","operator":"HERA","recycling:cans":"yes","recycling:glass":"yes","recycling_type":"container"}},"type":"Feature"},
	{"geometry":{"coordinates":[10.834518,44.534163],"type":"Point"},"properties":{"osm_id":"2501462054","tag":{"amenity":"recycling","operator":"HERA","recycling:paper":"yes","recycling_type":"container"}},"type":"Feature"},
	{"geometry":{"coordinates":[10.834524,44.534176],"type":"Point"},"properties":{"osm_id":"2501462064","tag":{"amenity":"waste_disposal","operator":"HERA","waste":"trash"}},"type":"Feature"},
	{"geometry":{"coordinates":[10.835311,44.534882],"type":"Point"},"properties":{"osm_id":"2501550513","tag":{"amenity":"waste_disposal","operator":"HERA","waste":"trash"}},"type":"Feature"},
	{"geometry":{"coordinates":[10.835315,44.534899],"type":"Point"},"properties":{"osm_id":"2501550514","tag":{"amenity":"recycling","operator":"HERA","recycling:cans":"yes","recycling:glass":"yes","recycling_type":"container"}},"type":"Feature"},
	{"geometry":{"coordinates":[10.836249,44.535284],"type":"Point"},"properties":{"osm_id":"2502430222","tag":{"amenity":"recycling","recycling:paper":"yes","recycling_type":"container"}},"type":"Feature"},
	{"geometry":{"coordinates":[10.836496,44.535336],"type":"Point"},"properties":{"osm_id":"2502430224","tag":{"amenity":"waste_basket"}},"type":"Feature"},
	{"geometry":{"coordinates":[10.83661,44.535437],"type":"Point"},"properties":{"osm_id":"2502430226","tag":{"amenity":"waste_basket"}},"type":"Feature"},
	{"geometry":{"coordinates":[10.836483,44.535556],"type":"Point"},"properties":{"osm_id":"2502430233","tag":{"amenity":"waste_basket"}},"type":"Feature"},
	{"geometry":{"coordinates":[10.834882,44.531168],"type":"Point"},"properties":{"osm_id":"2504101673","tag":{"amenity":"waste_disposal","operator":"HERA","waste":"trash"}},"type":"Feature"},
	{"geometry":{"coordinates":[10.835368,44.532742],"type":"Point"},"properties":{"osm_id":"2504101706","tag":{"amenity":"waste_disposal","operator":"HERA","waste":"trash"}},"type":"Feature"},
	{"geometry":{"coordinates":[10.835548,44.533296],"type":"Point"},"properties":{"osm_id":"2504101744","tag":{"amenity":"waste_disposal","operator":"HERA","waste":"trash"}},"type":"Feature"},
	{"geometry":{"coordinates":[10.835552,44.533312],"type":"Point"},"properties":{"osm_id":"2504101748","tag":{"amenity":"recycling","operator":"HERA","recycling:garden_waste":"yes","recycling:organic":"yes","recycling_type":"container"}},"type":"Feature"},
	{"geometry":{"coordinates":[10.835752,44.533967],"type":"Point"},"properties":{"osm_id":"2504101782","tag":{"amenity":"waste_disposal","operator":"HERA","waste":"trash"}},"type":"Feature"},
	{"geometry":{"coordinates":[10.835933,44.534574],"type":"Point"},"properties":{"osm_id":"2504101805","tag":{"amenity":"waste_disposal","operator":"HERA","waste":"trash"}},"type":"Feature"},
	{"geometry":{"coordinates":[10.834897,44.53306],"type":"Point"},"properties":{"osm_id":"2504622269","tag":{"amenity":"recycling","operator":"HERA","recycling:cans":"yes","recycling:glass":"yes","recycling_type":"container"}},"type":"Feature"},
	{"geometry":{"coordinates":[10.834868,44.533065],"type":"Point"},"properties":{"osm_id":"2504622270","tag":{"amenity":"recycling","operator":"HERA","recycling:plastic":"yes","recycling_type":"container"}},"type":"Feature"},
	{"geometry":{"coordinates":[10.834832,44.533071],"type":"Point"},"properties":{"osm_id":"2504622271","tag":{"amenity":"recycling","operator":"HERA","recycling:paper":"yes","recycling_type":"container"}},"type":"Feature"},
	{"geometry":{"coordinates":[10.834785,44.533078],"type":"Point"},"properties":{"osm_id":"2504622272","tag":{"amenity":"waste_disposal","operator":"HERA","waste":"trash"}},"type":"Feature"},
	{"geometry":{"coordinates":[10.83476,44.533082],"type":"Point"},"properties":{"osm_id":"2504622273","tag":{"amenity":"recycling","operator":"HERA","recycling:garden_waste":"yes","recycling:organic":"yes","recycling_type":"container"}},"type":"Feature"},
	{"geometry":{"coordinates":[10.828086,44.533908],"type":"Point"},"properties":{"osm_id":"2504829205","tag":{"amenity":"waste_disposal","operator":"HERA","waste":"trash"}},"type":"Feature"},
	{"geometry":{"coordinates":[10.828107,44.533908],"type":"Point"},"properties":{"osm_id":"2504829206","tag":{"amenity":"recycling","operator":"HERA","recycling:paper":"yes","recycling_type":"container"}},"type":"Feature"},
	{"geometry":{"coordinates":[10.829139,44.533943],"type":"Point"},"properties":{"osm_id":"2505732381","tag":{"amenity":"waste_disposal","operator":"HERA","waste":"trash"}},"type":"Feature"},
	{"geometry":{"coordinates":[10.829116,44.533946],"type":"Point"},"properties":{"osm_id":"2505732385","tag":{"amenity":"recycling","operator":"HERA","recycling:garden_waste":"yes","recycling:organic":"yes","recycling_type":"container"}},"type":"Feature"},
	{"geometry":{"coordinates":[10.82942,44.533359],"type":"Point"},"properties":{"osm_id":"2506039069","tag":{"amenity":"recycling","operator":"HERA","recycling:batteries":"yes","recycling_type":"container"}},"type":"Feature"},
	{"geometry":{"coordinates":[10.829449,44.533367],"type":"Point"},"properties":{"osm_id":"2506039073","tag":{"amenity":"recycling","operator":"HERA","recycling:plastic":"yes","recycling_type":"container"}},"type":"Feature"},
	{"geometry":{"coordinates":[10.829424,44.533382],"type":"Point"},"properties":{"osm_id":"2506039077","tag":{"amenity":"recycling","operator":"HERA","recycling:cans":"yes","recycling:glass":"yes","recycling_type":"container"}},"type":"Feature"},
	{"geometry":{"coordinates":[10.829453,44.533388],"type":"Point"},"properties":{"osm_id":"2506039081","tag":{"amenity":"recycling","operator":"HERA","recycling:garden_waste":"yes","recycling:organic":"yes","recycling_type":"container"}},"type":"Feature"},
	{"geometry":{"coordinates":[10.829457,44.533406],"type":"Point"},"properties":{"osm_id":"2506039085","tag":{"amenity":"recycling","operator":"HERA","recycling:paper":"yes","recycling_type":"container"}},"type":"Feature"},
	{"geometry":{"coordinates":[10.829429,44.533409],"type":"Point"},"properties":{"osm_id":"2506039089","tag":{"amenity":"recycling","operator":"UIC","recycling:clothes":"yes","recycling_type":"container"}},"type":"Feature"},
	{"geometry":{"coordinates":[10.829462,44.53343],"type":"Point"},"properties":{"osm_id":"2506039093","tag":{"amenity":"waste_disposal","operator":"HERA","waste":"trash"}},"type":"Feature"},
	{"geometry":{"coordinates":[10.831043,44.533182],"type":"Point"},"properties":{"osm_id":"2508135190","tag":{"amenity":"waste_disposal","operator":"HERA","waste":"trash"}},"type":"Feature"},
	{"geometry":{"coordinates":[10.83176,44.532958],"type":"Point"},"properties":{"osm_id":"2508169568","tag":{"amenity":"recycling","operator":"HERA","recycling:cans":"yes","recycling:glass":"yes","recycling_type":"container"}},"type":"Feature"},
	{"geometry":{"coordinates":[10.831766,44.532979],"type":"Point"},"properties":{"osm_id":"2508169572","tag":{"amenity":"recycling","operator":"HERA","recycling:paper":"yes","recycling_type":"container"}},"type":"Feature"},
	{"geometry":{"coordinates":[10.831773,44.533],"type":"Point"},"properties":{"osm_id":"2508169577","tag":{"amenity":"recycling","operator":"HERA","recycling:plastic":"yes","recycling_type":"container"}},"type":"Feature"},
	{"geometry":{"coordinates":[10.831779,44.533022],"type":"Point"},"properties":{"osm_id":"2508169583","tag":{"amenity":"waste_disposal","operator":"HERA","waste":"trash"}},"type":"Feature"},
	{"geometry":{"coordinates":[10.831785,44.533045],"type":"Point"},"properties":{"osm_id":"2508169586","tag":{"amenity":"recycling","operator":"HERA","recycling:garden_waste":"yes","recycling:organic":"yes","recycling_type":"container"}},"type":"Feature"},
	{"geometry":{"coordinates":[10.832368,44.532969],"type":"Point"},"properties":{"osm_id":"2508481889","tag":{"amenity":"waste_disposal","operator":"HERA","waste":"trash"}},"type":"Feature"},
	{"geometry":{"coordinates":[10.832375,44.532993],"type":"Point"},"properties":{"osm_id":"2508481891","tag":{"amenity":"recycling","operator":"HERA","recycling:garden_waste":"yes","recycling:organic":"yes","recycling_type":"container"}},"type":"Feature"},
	{"geometry":{"coordinates":[10.833405,44.53343],"type":"Point"},"properties":{"osm_id":"2509117178","tag":{"amenity":"recycling","operator":"HERA","recycling:plastic":"yes","recycling_type":"container"}},"type":"Feature"},
	{"geometry":{"coordinates":[10.833372,44.533435],"type":"Point"},"properties":{"osm_id":"2509117180","tag":{"amenity":"recycling","operator":"HERA","recycling:paper":"yes","recycling_type":"container"}},"type":"Feature"},
	{"geometry":{"coordinates":[10.833345,44.533439],"type":"Point"},"properties":{"osm_id":"2509117181","tag":{"amenity":"waste_disposal","operator":"HERA","waste":"trash"}},"type":"Feature"},
	{"geometry":{"coordinates":[10.833313,44.533443],"type":"Point"},"properties":{"osm_id":"2509117182","tag":{"amenity":"recycling","operator":"HERA","recycling:garden_waste":"yes","recycling:organic":"yes","recycling_type":"container"}},"type":"Feature"},
	{"geometry":{"coordinates":[10.833366,44.532585],"type":"Point"},"properties":{"osm_id":"2511691386","tag":{"amenity":"waste_disposal","operator":"HERA","waste":"trash"}},"type":"Feature"},
	{"geometry":{"coordinates":[10.833338,44.532588],"type":"Point"},"properties":{"osm_id":"2511691388","tag":{"amenity":"recycling","operator":"HERA","recycling:garden_waste":"yes","recycling:organic":"yes","recycling_type":"container"}},"type":"Feature"},
	{"geometry":{"coordinates":[10.830089,44.532996],"type":"Point"},"properties":{"osm_id":"2512307228","tag":{"amenity":"waste_disposal","operator":"HERA","waste":"trash"}},"type":"Feature"},
	{"geometry":{"coordinates":[10.83006,44.532999],"type":"Point"},"properties":{"osm_id":"2512307229","tag":{"amenity":"recycling","operator":"HERA","recycling:garden_waste":"yes","recycling:organic":"yes","recycling_type":"container"}},"type":"Feature"},
	{"geometry":{"coordinates":[10.830892,44.531627],"type":"Point"},"properties":{"osm_id":"2512559167","tag":{"amenity":"waste_basket"}},"type":"Feature"},
	{"geometry":{"coordinates":[10.830914,44.532137],"type":"Point"},"properties":{"osm_id":"2512559197","tag":{"amenity":"recycling","operator":"HERA","recycling:batteries":"yes","recycling_type":"container"}},"type":"Feature"},
	{"geometry":{"coordinates":[10.83078,44.532149],"type":"Point"},"properties":{"osm_id":"2512559201","tag":{"amenity":"waste_disposal","operator":"HERA","waste":"trash"}},"type":"Feature"},
	{"geometry":{"coordinates":[10.830886,44.532588],"type":"Point"},"properties":{"osm_id":"2512559254","tag":{"amenity":"waste_disposal","operator":"HERA","waste":"trash"}},"type":"Feature"},
	{"geometry":{"coordinates":[10.830888,44.532605],"type":"Point"},"properties":{"osm_id":"2512559256","tag":{"amenity":"recycling","operator":"HERA","recycling:garden_waste":"yes","recycling:organic":"yes","recycling_type":"container"}},"type":"Feature"},
	{"geometry":{"coordinates":[10.83297,44.532268],"type":"Point"},"properties":{"osm_id":"2513596947","tag":{"amenity":"waste_disposal","operator":"HERA","waste":"trash"}},"type":"Feature"},
	{"geometry":{"coordinates":[10.832973,44.532288],"type":"Point"},"properties":{"osm_id":"2513596950","tag":{"amenity":"recycling","operator":"HERA","recycling:garden_waste":"yes","recycling:organic":"yes","recycling_type":"container"}},"type":"Feature"},
	{"geometry":{"coordinates":[10.83142,44.532151],"type":"Point"},"properties":{"osm_id":"2514097461","tag":{"amenity":"waste_basket"}},"type":"Feature"},
	{"geometry":{"coordinates":[10.831803,44.532152],"type":"Point"},"properties":{"osm_id":"2514097464","tag":{"amenity":"waste_disposal","operator":"HERA","waste":"trash"}},"type":"Feature"},
	{"geometry":{"coordinates":[10.831302,44.532164],"type":"Point"},"properties":{"osm_id":"2514097467","tag":{"amenity":"waste_basket"}},"type":"Feature"},
	{"geometry":{"coordinates":[10.831331,44.532183],"type":"Point"},"properties":{"osm_id":"2514097475","tag":{"amenity":"recycling","operator":"UIC","recycling:clothes":"yes","recycling_type":"container"}},"type":"Feature"},
	{"geometry":{"coordinates":[10.831155,44.532187],"type":"Point"},"properties":{"osm_id":"2514097479","tag":{"amenity":"waste_basket"}},"type":"Feature"},
	{"geometry":{"coordinates":[10.831305,44.532188],"type":"Point"},"properties":{"osm_id":"2514097481","tag":{"amenity":"recycling","operator":"HERA","recycling:cans":"yes","recycling:glass":"yes","recycling_type":"container"}},"type":"Feature"},
	{"geometry":{"coordinates":[10.831279,44.532192],"type":"Point"},"properties":{"osm_id":"2514097485","tag":{"amenity":"recycling","operator":"HERA","recycling:cans":"yes","recycling:glass":"yes","recycling_type":"container"}},"type":"Feature"},
	{"geometry":{"coordinates":[10.831333,44.532197],"type":"Point"},"properties":{"osm_id":"2514097494","tag":{"amenity":"recycling","operator":"HERA","recycling:garden_waste":"yes","recycling:organic":"yes","recycling_type":"container"}},"type":"Feature"},
	{"geometry":{"coordinates":[10.831311,44.5322],"type":"Point"},"properties":{"osm_id":"2514097498","tag":{"amenity":"recycling","operator":"HERA","recycling:paper":"yes","recycling_type":"container"}},"type":"Feature"},
	{"geometry":{"coordinates":[10.831281,44.532205],"type":"Point"},"properties":{"osm_id":"2514097502","tag":{"amenity":"recycling","operator":"HERA","recycling:plastic":"yes","recycling_type":"container"}},"type":"Feature"},
	{"geometry":{"coordinates":[10.831278,44.53229],"type":"Point"},"properties":{"osm_id":"2514097511","tag":{"amenity":"waste_disposal","operator":"HERA","waste":"trash"}},"type":"Feature"},
	{"geometry":{"coordinates":[10.830138,44.531592],"type":"Point"},"properties":{"osm_id":"2514232146","tag":{"amenity":"recycling","operator":"HERA","recycling:paper":"yes","recycling_type":"container"}},"type":"Feature"},
	{"geometry":{"coordinates":[10.830114,44.531602],"type":"Point"},"properties":{"osm_id":"2514232147","tag":{"amenity":"recycling","operator":"HERA","recycling:plastic":"yes","recycling_type":"container"}},"type":"Feature"},
	{"geometry":{"coordinates":[10.830092,44.531616],"type":"Point"},"properties":{"osm_id":"2514232149","tag":{"amenity":"waste_disposal","operator":"HERA","waste":"trash"}},"type":"Feature"},
	{"geometry":{"coordinates":[10.830967,44.530946],"type":"Point"},"properties":{"osm_id":"2514248044","tag":{"amenity":"recycling","operator":"HERA","recycling:plastic":"yes","recycling_type":"container"}},"type":"Feature"},
	{"geometry":{"coordinates":[10.83095,44.530967],"type":"Point"},"properties":{"osm_id":"2514248047","tag":{"amenity":"recycling","operator":"HERA","recycling:paper":"yes","recycling_type":"container"}},"type":"Feature"},
	{"geometry":{"coordinates":[10.830927,44.530997],"type":"Point"},"properties":{"osm_id":"2514248051","tag":{"amenity":"recycling","operator":"HERA","recycling:cans":"yes","recycling:glass":"yes","recycling_type":"container"}},"type":"Feature"},
	{"geometry":{"coordinates":[10.830908,44.531021],"type":"Point"},"properties":{"osm_id":"2514248060","tag":{"amenity":"recycling","operator":"HERA","recycling:garden_waste":"yes","recycling:organic":"yes","recycling_type":"container"}},"type":"Feature"},
	{"geometry":{"coordinates":[10.830877,44.531353],"type":"Point"},"properties":{"osm_id":"2514248078","tag":{"amenity":"waste_basket"}},"type":"Feature"},
	{"geometry":{"coordinates":[10.830973,44.529571],"type":"Point"},"properties":{"osm_id":"2514899241","tag":{"amenity":"waste_disposal","operator":"HERA","waste":"trash"}},"type":"Feature"},
	{"geometry":{"coordinates":[10.830951,44.529603],"type":"Point"},"properties":{"osm_id":"2514899245","tag":{"amenity":"recycling","operator":"HERA","recycling:garden_waste":"yes","recycling:organic":"yes","recycling_type":"container"}},"type":"Feature"},
	{"geometry":{"coordinates":[10.831956,44.529882],"type":"Point"},"properties":{"osm_id":"2517657669","tag":{"amenity":"waste_disposal","operator":"HERA","waste":"trash"}},"type":"Feature"},
	{"geometry":{"coordinates":[10.831591,44.530687],"type":"Point"},"properties":{"osm_id":"2517657759","tag":{"amenity":"waste_disposal","operator":"HERA","waste":"trash"}},"type":"Feature"},
	{"geometry":{"coordinates":[10.832495,44.530437],"type":"Point"},"properties":{"osm_id":"2518809798","tag":{"amenity":"recycling","operator":"HERA","recycling:garden_waste":"yes","recycling:organic":"yes","recycling_type":"container"}},"type":"Feature"},
	{"geometry":{"coordinates":[10.832496,44.530449],"type":"Point"},"properties":{"osm_id":"2518809799","tag":{"amenity":"waste_disposal","operator":"HERA","waste":"trash"}},"type":"Feature"},
	{"geometry":{"coordinates":[10.834678,44.532256],"type":"Point"},"properties":{"osm_id":"2519665700","tag":{"amenity":"waste_disposal","operator":"HERA","waste":"trash"}},"type":"Feature"},
	{"geometry":{"coordinates":[10.834567,44.53173],"type":"Point"},"properties":{"osm_id":"2519679528","tag":{"amenity":"waste_disposal","operator":"HERA","waste":"trash"}},"type":"Feature"},
	{"geometry":{"coordinates":[10.835503,44.531579],"type":"Point"},"properties":{"osm_id":"2519714331","tag":{"amenity":"waste_disposal","operator":"HERA","waste":"trash"}},"type":"Feature"},
	{"geometry":{"coordinates":[10.835482,44.531583],"type":"Point"},"properties":{"osm_id":"2519714336","tag":{"amenity":"recycling","operator":"HERA","recycling:garden_waste":"yes","recycling:organic":"yes","recycling_type":"container"}},"type":"Feature"},
	{"geometry":{"coordinates":[10.835149,44.531624],"type":"Point"},"properties":{"osm_id":"2519714356","tag":{"amenity":"waste_disposal","operator":"HERA","waste":"trash"}},"type":"Feature"},
	{"geometry":{"coordinates":[10.835219,44.530692],"type":"Point"},"properties":{"osm_id":"2520097761","tag":{"amenity":"waste_disposal","operator":"HERA","waste":"trash"}},"type":"Feature"},
	{"geometry":{"coordinates":[10.833704,44.530982],"type":"Point"},"properties":{"osm_id":"2520097842","tag":{"amenity":"recycling","operator":"HERA","recycling:garden_waste":"yes","recycling:organic":"yes","recycling_type":"container"}},"type":"Feature"},
	{"geometry":{"coordinates":[10.833692,44.530985],"type":"Point"},"properties":{"osm_id":"2520097845","tag":{"amenity":"waste_disposal","operator":"HERA","waste":"trash"}},"type":"Feature"},
	{"geometry":{"coordinates":[10.833679,44.530988],"type":"Point"},"properties":{"osm_id":"2520097847","tag":{"amenity":"recycling","operator":"HERA","recycling:plastic":"yes","recycling_type":"container"}},"type":"Feature"},
	{"geometry":{"coordinates":[10.833665,44.530991],"type":"Point"},"properties":{"osm_id":"2520097852","tag":{"amenity":"recycling","operator":"HERA","recycling:cans":"yes","recycling:glass":"yes","recycling_type":"container"}},"type":"Feature"},
	{"geometry":{"coordinates":[10.833649,44.530994],"type":"Point"},"properties":{"osm_id":"2520097857","tag":{"amenity":"recycling","operator":"HERA","recycling:paper":"yes","recycling_type":"container"}},"type":"Feature"},
	{"geometry":{"coordinates":[10.83563,44.530524],"type":"Point"},"properties":{"osm_id":"2521127191","tag":{"amenity":"waste_disposal","operator":"HERA","waste":"trash"}},"type":"Feature"},
	{"geometry":{"coordinates":[10.835603,44.530531],"type":"Point"},"properties":{"osm_id":"2521127197","tag":{"amenity":"recycling","operator":"HERA","recycling:paper":"yes","recycling_type":"container"}},"type":"Feature"},
	{"geometry":{"coordinates":[10.836575,44.531072],"type":"Point"},"properties":{"osm_id":"2521127348","tag":{"amenity":"waste_disposal","operator":"HERA","waste":"trash"}},"type":"Feature"},
	{"geometry":{"coordinates":[10.836576,44.531092],"type":"Point"},"properties":{"osm_id":"2521127354","tag":{"amenity":"recycling","operator":"HERA","recycling:garden_waste":"yes","recycling:organic":"yes","recycling_type":"container"}},"type":"Feature"},
	{"geometry":{"coordinates":[10.835315,44.531062],"type":"Point"},"properties":{"osm_id":"2522212666","tag":{"amenity":"recycling","operator":"UIC","recycling:clothes":"yes","recycling_type":"container"}},"type":"Feature"},
	{"geometry":{"coordinates":[10.83532,44.531078],"type":"Point"},"properties":{"osm_id":"2522212671","tag":{"amenity":"recycling","operator":"HERA","recycling:cans":"yes","recycling:glass":"yes","recycling_type":"container"}},"type":"Feature"},
	{"geometry":{"coordinates":[10.835325,44.531093],"type":"Point"},"properties":{"osm_id":"2522212680","tag":{"amenity":"recycling","operator":"HERA","recycling:paper":"yes","recycling_type":"container"}},"type":"Feature"},
	{"geometry":{"coordinates":[10.83533,44.53111],"type":"Point"},"properties":{"osm_id":"2522212689","tag":{"amenity":"recycling","operator":"HERA","recycling:plastic":"yes","recycling_type":"container"}},"type":"Feature"},
	{"geometry":{"coordinates":[10.835336,44.531127],"type":"Point"},"properties":{"osm_id":"2522212693","tag":{"amenity":"recycling","operator":"HERA","recycling:garden_waste":"yes","recycling:organic":"yes","recycling_type":"container"}},"type":"Feature"},
	{"geometry":{"coordinates":[10.83639,44.532654],"type":"Point"},"properties":{"osm_id":"2522384085","tag":{"amenity":"waste_disposal","operator":"HERA","waste":"trash"}},"type":"Feature"},
	{"geometry":{"coordinates":[10.836395,44.532668],"type":"Point"},"properties":{"osm_id":"2522384088","tag":{"amenity":"recycling","operator":"HERA","recycling:cans":"yes","recycling:glass":"yes","recycling_type":"container"}},"type":"Feature"},
	{"geometry":{"coordinates":[10.836308,44.532682],"type":"Point"},"properties":{"osm_id":"2522384092","tag":{"amenity":"recycling","operator":"HERA","recycling:paper":"yes","recycling_type":"container"}},"type":"Feature"},
	{"geometry":{"coordinates":[10.8364,44.532684],"type":"Point"},"properties":{"osm_id":"2522384093","tag":{"amenity":"recycling","operator":"HERA","recycling:garden_waste":"yes","recycling:organic":"yes","recycling_type":"container"}},"type":"Feature"},
	{"geometry":{"coordinates":[10.836317,44.532699],"type":"Point"},"properties":{"osm_id":"2522384098","tag":{"amenity":"recycling","operator":"HERA","recycling:plastic":"yes","recycling_type":"container"}},"type":"Feature"},
	{"geometry":{"coordinates":[10.833633,44.527974],"type":"Point"},"properties":{"osm_id":"2523131141","tag":{"amenity":"waste_disposal","operator":"HERA","waste":"trash"}},"type":"Feature"},
	{"geometry":{"coordinates":[10.83366,44.527979],"type":"Point"},"properties":{"osm_id":"2523131144","tag":{"amenity":"recycling","operator":"HERA","recycling:garden_waste":"yes","recycling:organic":"yes","recycling_type":"container"}},"type":"Feature"},
	{"geometry":{"coordinates":[10.833882,44.527993],"type":"Point"},"properties":{"osm_id":"2523131151","tag":{"amenity":"waste_basket"}},"type":"Feature"},
	{"geometry":{"coordinates":[10.833675,44.528042],"type":"Point"},"properties":{"osm_id":"2523131163","tag":{"amenity":"recycling","operator":"HERA","recycling:paper":"yes","recycling_type":"container"}},"type":"Feature"},
	{"geometry":{"coordinates":[10.833707,44.52805],"type":"Point"},"properties":{"osm_id":"2523131168","tag":{"amenity":"recycling","operator":"HERA","recycling:plastic":"yes","recycling_type":"container"}},"type":"Feature"},
	{"geometry":{"coordinates":[10.834686,44.528866],"type":"Point"},"properties":{"osm_id":"2523131222","tag":{"amenity":"waste_disposal","operator":"HERA","waste":"trash"}},"type":"Feature"},
	{"geometry":{"coordinates":[10.834715,44.528866],"type":"Point"},"properties":{"osm_id":"2523131224","tag":{"amenity":"recycling","operator":"HERA","recycling:cans":"yes","recycling:glass":"yes","recycling_type":"container"}},"type":"Feature"},
	{"geometry":{"coordinates":[10.834395,44.529838],"type":"Point"},"properties":{"osm_id":"2523131312","tag":{"amenity":"waste_disposal","operator":"HERA","waste":"trash"}},"type":"Feature"},
	{"geometry":{"coordinates":[10.833852,44.529958],"type":"Point"},"properties":{"osm_id":"2523131373","tag":{"amenity":"recycling","operator":"HERA","recycling:paper":"yes","recycling_type":"container"}},"type":"Feature"},
	{"geometry":{"coordinates":[10.833825,44.529965],"type":"Point"},"properties":{"osm_id":"2523131377","tag":{"amenity":"recycling","operator":"HERA","recycling:cans":"yes","recycling:glass":"yes","recycling_type":"container"}},"type":"Feature"},
	{"geometry":{"coordinates":[10.833803,44.529971],"type":"Point"},"properties":{"osm_id":"2523131385","tag":{"amenity":"recycling","operator":"HERA","recycling:plastic":"yes","recycling_type":"container"}},"type":"Feature"},
	{"geometry":{"coordinates":[10.833775,44.529978],"type":"Point"},"properties":{"osm_id":"2523131392","tag":{"amenity":"recycling","operator":"HERA","recycling:garden_waste":"yes","recycling:organic":"yes","recycling_type":"container"}},"type":"Feature"},
	{"geometry":{"coordinates":[10.836995,44.528063],"type":"Point"},"properties":{"osm_id":"2541699897","tag":{"amenity":"waste_disposal","operator":"HERA","waste":"trash"}},"type":"Feature"},
	{"geometry":{"coordinates":[10.839547,44.528488],"type":"Point"},"properties":{"osm_id":"2553904264","tag":{"amenity":"waste_disposal","operator":"HERA","waste":"trash"}},"type":"Feature"},
	{"geometry":{"coordinates":[10.839528,44.52849],"type":"Point"},"properties":{"osm_id":"2553904265","tag":{"amenity":"waste_disposal","operator":"HERA","waste":"trash"}},"type":"Feature"},
	{"geometry":{"coordinates":[10.839509,44.528492],"type":"Point"},"properties":{"osm_id":"2553904266","tag":{"amenity":"waste_disposal","operator":"HERA","waste":"trash"}},"type":"Feature"},
	{"geometry":{"coordinates":[10.839489,44.528494],"type":"Point"},"properties":{"osm_id":"2553904268","tag":{"amenity":"waste_disposal","operator":"HERA","waste":"trash"}},"type":"Feature"},
	{"geometry":{"coordinates":[10.839464,44.528496],"type":"Point"},"properties":{"osm_id":"2553904269","tag":{"amenity":"waste_disposal","operator":"HERA","waste":"trash"}},"type":"Feature"},
	{"geometry":{"coordinates":[10.839442,44.528498],"type":"Point"},"properties":{"osm_id":"2553904271","tag":{"amenity":"waste_disposal","operator":"HERA","waste":"trash"}},"type":"Feature"},
	{"geometry":{"coordinates":[10.839419,44.5285],"type":"Point"},"properties":{"osm_id":"2553904275","tag":{"amenity":"recycling","operator":"HERA","recycling:plastic":"yes","recycling_type":"container"}},"type":"Feature"},
	{"geometry":{"coordinates":[10.839397,44.528502],"type":"Point"},"properties":{"osm_id":"2553904281","tag":{"amenity":"recycling","operator":"HERA","recycling:cans":"yes","recycling:glass":"yes","recycling_type":"container"}},"type":"Feature"},
	{"geometry":{"coordinates":[10.839379,44.528504],"type":"Point"},"properties":{"osm_id":"2553904286","tag":{"amenity":"recycling","operator":"HERA","recycling:paper":"yes","recycling_type":"container"}},"type":"Feature"},
	{"geometry":{"coordinates":[10.839342,44.528508],"type":"Point"},"properties":{"osm_id":"2553904287","tag":{"amenity":"recycling","operator":"HERA","recycling:batteries":"yes","recycling_type":"container"}},"type":"Feature"},
	{"geometry":{"coordinates":[10.815282,44.567935],"type":"Point"},"properties":{"osm_id":"2562762027","tag":{"amenity":"waste_disposal","operator":"HERA","waste":"trash"}},"type":"Feature"},
	{"geometry":{"coordinates":[10.843696,44.528033],"type":"Point"},"properties":{"osm_id":"2606098941","tag":{"amenity":"recycling","operator":"HERA","recycling:plastic":"yes","recycling_type":"container"}},"type":"Feature"},
	{"geometry":{"coordinates":[10.843724,44.528047],"type":"Point"},"properties":{"osm_id":"2606098942","tag":{"amenity":"recycling","operator":"HERA","recycling:paper":"yes","recycling_type":"container"}},"type":"Feature"},
	{"geometry":{"coordinates":[10.843742,44.528066],"type":"Point"},"properties":{"osm_id":"2606098944","tag":{"amenity":"recycling","operator":"HERA","recycling:garden_waste":"yes","recycling:organic":"yes","recycling_type":"container"}},"type":"Feature"},
	{"geometry":{"coordinates":[10.843828,44.528116],"type":"Point"},"properties":{"osm_id":"2606098947","tag":{"amenity":"recycling","operator":"HERA","recycling:cans":"yes","recycling:glass":"yes","recycling_type":"container"}},"type":"Feature"},
	{"geometry":{"coordinates":[10.844021,44.528239],"type":"Point"},"properties":{"osm_id":"2606098955","tag":{"amenity":"waste_disposal","operator":"HERA","waste":"trash"}},"type":"Feature"},
	{"geometry":{"coordinates":[10.841563,44.531633],"type":"Point"},"properties":{"osm_id":"2610882437","tag":{"amenity":"recycling","operator":"HERA","recycling:cans":"yes","recycling:glass":"yes","recycling_type":"container"}},"type":"Feature"},
	{"geometry":{"coordinates":[10.841578,44.531644],"type":"Point"},"properties":{"osm_id":"2610882442","tag":{"amenity":"waste_disposal","operator":"HERA","waste":"trash"}},"type":"Feature"},
	{"geometry":{"coordinates":[10.841551,44.531652],"type":"Point"},"properties":{"osm_id":"2610882445","tag":{"amenity":"recycling","operator":"HERA","recycling:garden_waste":"yes","recycling:organic":"yes","recycling_type":"container"}},"type":"Feature"},
	{"geometry":{"coordinates":[10.841526,44.531658],"type":"Point"},"properties":{"osm_id":"2610882449","tag":{"amenity":"recycling","operator":"HERA","recycling:paper":"yes","recycling_type":"container"}},"type":"Feature"},
	{"geometry":{"coordinates":[10.841499,44.531666],"type":"Point"},"properties":{"osm_id":"2610882450","tag":{"amenity":"recycling","operator":"HERA","recycling:plastic":"yes","recycling_type":"container"}},"type":"Feature"},
	{"geometry":{"coordinates":[10.842711,44.531316],"type":"Point"},"properties":{"osm_id":"2610951346","tag":{"amenity":"waste_disposal","operator":"HERA","waste":"trash"}},"type":"Feature"},
	{"geometry":{"coordinates":[10.842682,44.531324],"type":"Point"},"properties":{"osm_id":"2610951350","tag":{"amenity":"waste_disposal","operator":"HERA","waste":"trash"}},"type":"Feature"},
	{"geometry":{"coordinates":[10.842656,44.531332],"type":"Point"},"properties":{"osm_id":"2610951353","tag":{"amenity":"recycling","operator":"HERA","recycling:plastic":"yes","recycling_type":"container"}},"type":"Feature"},
	{"geometry":{"coordinates":[10.842634,44.531338],"type":"Point"},"properties":{"osm_id":"2610951354","tag":{"amenity":"recycling","operator":"HERA","recycling:garden_waste":"yes","recycling:organic":"yes","recycling_type":"container"}},"type":"Feature"},
	{"geometry":{"coordinates":[10.84262,44.531343],"type":"Point"},"properties":{"osm_id":"2610951355","tag":{"amenity":"recycling","operator":"HERA","recycling:cans":"yes","recycling:glass":"yes","recycling_type":"container"}},"type":"Feature"},
	{"geometry":{"coordinates":[10.843478,44.531346],"type":"Point"},"properties":{"osm_id":"2613302996","tag":{"amenity":"recycling","operator":"HERA","recycling:plastic":"yes","recycling_type":"container"}},"type":"Feature"},
	{"geometry":{"coordinates":[10.84348,44.531367],"type":"Point"},"properties":{"osm_id":"2613302998","tag":{"amenity":"recycling","operator":"HERA","recycling:paper":"yes","recycling_type":"container"}},"type":"Feature"},
	{"geometry":{"coordinates":[10.843482,44.531387],"type":"Point"},"properties":{"osm_id":"2613302999","tag":{"amenity":"recycling","operator":"HERA","recycling:garden_waste":"yes","recycling:organic":"yes","recycling_type":"container"}},"type":"Feature"},
	{"geometry":{"coordinates":[10.843484,44.5314],"type":"Point"},"properties":{"osm_id":"2613303000","tag":{"amenity":"waste_disposal","operator":"HERA","waste":"trash"}},"type":"Feature"},
	{"geometry":{"coordinates":[10.842483,44.530687],"type":"Point"},"properties":{"osm_id":"2616954402","tag":{"amenity":"waste_disposal","operator":"HERA","waste":"trash"}},"type":"Feature"},
	{"geometry":{"coordinates":[10.842511,44.530697],"type":"Point"},"properties":{"osm_id":"2616954405","tag":{"amenity":"recycling","operator":"HERA","recycling:garden_waste":"yes","recycling:organic":"yes","recycling_type":"container"}},"type":"Feature"},
	{"geometry":{"coordinates":[10.842529,44.530708],"type":"Point"},"properties":{"osm_id":"2616954407","tag":{"amenity":"recycling","operator":"HERA","recycling:paper":"yes","recycling_type":"container"}},"type":"Feature"},
	{"geometry":{"coordinates":[10.842552,44.530719],"type":"Point"},"properties":{"osm_id":"2616954411","tag":{"amenity":"recycling","operator":"HERA","recycling:cans":"yes","recycling:glass":"yes","recycling_type":"container"}},"type":"Feature"},
	{"geometry":{"coordinates":[10.842492,44.530722],"type":"Point"},"properties":{"osm_id":"2616954412","tag":{"amenity":"recycling","operator":"HERA","recycling:batteries":"yes","recycling_type":"container"}},"type":"Feature"},
	{"geometry":{"coordinates":[10.842567,44.530736],"type":"Point"},"properties":{"osm_id":"2616954425","tag":{"amenity":"recycling","operator":"HERA","recycling:plastic":"yes","recycling_type":"container"}},"type":"Feature"},
	{"geometry":{"coordinates":[10.84131,44.530998],"type":"Point"},"properties":{"osm_id":"2618246158","tag":{"amenity":"recycling","operator":"HERA","recycling:cans":"yes","recycling:glass":"yes","recycling_type":"container"}},"type":"Feature"},
	{"geometry":{"coordinates":[10.841274,44.531005],"type":"Point"},"properties":{"osm_id":"2618246159","tag":{"amenity":"recycling","operator":"HERA","recycling:plastic":"yes","recycling_type":"container"}},"type":"Feature"},
	{"geometry":{"coordinates":[10.841229,44.531019],"type":"Point"},"properties":{"osm_id":"2618246160","tag":{"amenity":"recycling","operator":"HERA","recycling:paper":"yes","recycling_type":"container"}},"type":"Feature"},
	{"geometry":{"coordinates":[10.841204,44.531029],"type":"Point"},"properties":{"osm_id":"2618246161","tag":{"amenity":"waste_disposal","operator":"HERA","waste":"trash"}},"type":"Feature"},
	{"geometry":{"coordinates":[10.841191,44.531038],"type":"Point"},"properties":{"osm_id":"2618246162","tag":{"amenity":"recycling","operator":"HERA","recycling:garden_waste":"yes","recycling:organic":"yes","recycling_type":"container"}},"type":"Feature"},
	{"geometry":{"coordinates":[10.838152,44.534903],"type":"Point"},"properties":{"osm_id":"2620688871","tag":{"amenity":"recycling","operator":"HERA","recycling:cans":"yes","recycling:glass":"yes","recycling_type":"container"}},"type":"Feature"},
	{"geometry":{"coordinates":[10.838162,44.534916],"type":"Point"},"properties":{"osm_id":"2620688873","tag":{"amenity":"recycling","operator":"HERA","recycling:cans":"yes","recycling:glass":"yes","recycling_type":"container"}},"type":"Feature"},
	{"geometry":{"coordinates":[10.838173,44.534931],"type":"Point"},"properties":{"osm_id":"2620688874","tag":{"amenity":"recycling","operator":"HERA","recycling:plastic":"yes","recycling_type":"container"}},"type":"Feature"},
	{"geometry":{"coordinates":[10.838189,44.534951],"type":"Point"},"properties":{"osm_id":"2620688876","tag":{"amenity":"recycling","operator":"HERA","recycling:paper":"yes","recycling_type":"container"}},"type":"Feature"},
	{"geometry":{"coordinates":[10.83816,44.534958],"type":"Point"},"properties":{"osm_id":"2620688878","tag":{"amenity":"recycling","operator":"HERA","recycling:batteries":"yes","recycling_type":"container"}},"type":"Feature"},
	{"geometry":{"coordinates":[10.838203,44.534969],"type":"Point"},"properties":{"osm_id":"2620688880","tag":{"amenity":"recycling","operator":"HERA","recycling:garden_waste":"yes","recycling:organic":"yes","recycling_type":"container"}},"type":"Feature"},
	{"geometry":{"coordinates":[10.838247,44.535026],"type":"Point"},"properties":{"osm_id":"2620688886","tag":{"amenity":"waste_disposal","operator":"HERA","waste":"trash"}},"type":"Feature"},
	{"geometry":{"coordinates":[10.838259,44.535042],"type":"Point"},"properties":{"osm_id":"2620688888","tag":{"amenity":"waste_disposal","operator":"HERA","waste":"trash"}},"type":"Feature"},
	{"geometry":{"coordinates":[10.838271,44.535057],"type":"Point"},"properties":{"osm_id":"2620688889","tag":{"amenity":"recycling","operator":"UIC","recycling:clothes":"yes","recycling_type":"container"}},"type":"Feature"},
	{"geometry":{"coordinates":[10.838244,44.535082],"type":"Point"},"properties":{"osm_id":"2620688891","tag":{"amenity":"recycling","operator":"HERA","recycling:paper":"yes","recycling_type":"container"}},"type":"Feature"},
	{"geometry":{"coordinates":[10.838252,44.535094],"type":"Point"},"properties":{"osm_id":"2620688893","tag":{"amenity":"recycling","operator":"HERA","recycling:paper":"yes","recycling_type":"container"}},"type":"Feature"},
	{"geometry":{"coordinates":[10.838394,44.535223],"type":"Point"},"properties":{"osm_id":"2620688895","tag":{"amenity":"recycling","operator":"HERA","recycling:garden_waste":"yes","recycling:organic":"yes","recycling_type":"container"}},"type":"Feature"},
	{"geometry":{"coordinates":[10.838273,44.534086],"type":"Point"},"properties":{"osm_id":"2625653295","tag":{"amenity":"waste_disposal","operator":"HERA","waste":"trash"}},"type":"Feature"},
	{"geometry":{"coordinates":[10.838772,44.534189],"type":"Point"},"properties":{"osm_id":"2625653298","tag":{"amenity":"recycling","operator":"HERA","recycling:medicines":"yes","recycling_type":"container"}},"type":"Feature"},
	{"geometry":{"coordinates":[10.840292,44.533365],"type":"Point"},"properties":{"osm_id":"2629461552","tag":{"amenity":"waste_disposal","operator":"HERA","waste":"trash"}},"type":"Feature"},
	{"geometry":{"coordinates":[10.840405,44.533945],"type":"Point"},"properties":{"osm_id":"2630835416","tag":{"amenity":"recycling","operator":"HERA","recycling:garden_waste":"yes","recycling:organic":"yes","recycling_type":"container"}},"type":"Feature"},
	{"geometry":{"coordinates":[10.840413,44.533962],"type":"Point"},"properties":{"osm_id":"2630835417","tag":{"amenity":"waste_disposal","operator":"HERA","waste":"trash"}},"type":"Feature"},
	{"geometry":{"coordinates":[10.840422,44.53398],"type":"Point"},"properties":{"osm_id":"2630835419","tag":{"amenity":"recycling","operator":"HERA","recycling:paper":"yes","recycling_type":"container"}},"type":"Feature"},
	{"geometry":{"coordinates":[10.840467,44.534068],"type":"Point"},"properties":{"osm_id":"2630835424","tag":{"amenity":"recycling","operator":"HERA","recycling:cans":"yes","recycling:glass":"yes","recycling_type":"container"}},"type":"Feature"},
	{"geometry":{"coordinates":[10.840475,44.534084],"type":"Point"},"properties":{"osm_id":"2630835426","tag":{"amenity":"recycling","operator":"HERA","recycling:plastic":"yes","recycling_type":"container"}},"type":"Feature"},
	{"geometry":{"coordinates":[10.840484,44.534102],"type":"Point"},"properties":{"osm_id":"2630835427","tag":{"amenity":"recycling","operator":"HERA","recycling:paper":"yes","recycling_type":"container"}},"type":"Feature"},
	{"geometry":{"coordinates":[10.840646,44.534429],"type":"Point"},"properties":{"osm_id":"2630992386","tag":{"amenity":"waste_disposal","operator":"HERA","waste":"trash"}},"type":"Feature"},
	{"geometry":{"coordinates":[10.839445,44.53438],"type":"Point"},"properties":{"osm_id":"2632641974","tag":{"amenity":"recycling","operator":"HERA","recycling:paper":"yes","recycling_type":"container"}},"type":"Feature"},
	{"geometry":{"coordinates":[10.839406,44.534388],"type":"Point"},"properties":{"osm_id":"2632641978","tag":{"amenity":"recycling","operator":"HERA","recycling:garden_waste":"yes","recycling:organic":"yes","recycling_type":"container"}},"type":"Feature"},
	{"geometry":{"coordinates":[10.839373,44.534402],"type":"Point"},"properties":{"osm_id":"2632641983","tag":{"amenity":"waste_disposal","operator":"HERA","waste":"trash"}},"type":"Feature"},
	{"geometry":{"coordinates":[10.826857,44.540596],"type":"Point"},"properties":{"osm_id":"6718160187","tag":{"amenity":"waste_disposal"}},"type":"Feature"}
]
}
