{
"type": "FeatureCollection",
"features": [
	{"geometry":{"coordinates":[10.860974,44.525721],"type":"Point"},"properties":{"osm_id":"871277569","tag":{"amenity":"waste_basket"}},"type":"Feature"},
	{"geometry":{"coordinates":[10.813543,44.52639],"type":"Point"},"properties":{"osm_id":"2461641841","tag":{"amenity":"recycling","operator":"HERA","recycling:garden_waste":"yes","recycling:organic":"yes","recycling_type":"container"}},"type":"Feature"},
	{"geometry":{"coordinates":[10.813569,44.526398],"type":"Point"},"properties":{"osm_id":"2461641852","tag":{"amenity":"waste_disposal","operator":"HERA","waste":"trash"}},"type":"Feature"},
	{"geometry":{"coordinates":[10.815059,44.527531],"type":"Point"},"properties":{"osm_id":"2461641924","tag":{"amenity":"waste_disposal","operator":"HERA","waste":"trash"}},"type":"Feature"},
	{"geometry":{"coordinates":[10.833326,44.526895],"type":"Point"},"properties":{"osm_id":"2527784389","tag":{"amenity":"recycling","operator":"HERA","recycling:cans":"yes","recycling:glass":"yes","recycling_type":"container"}},"type":"Feature"},
	{"geometry":{"coordinates":[10.833349,44.5269],"type":"Point"},"properties":{"osm_id":"2527784391","tag":{"amenity":"waste_disposal","operator":"HERA","waste":"trash"}},"type":"Feature"},
	{"geometry":{"coordinates":[10.833369,44.526905],"type":"Point"},"properties":{"osm_id":"2527784394","tag":{"amenity":"waste_disposal","operator":"HERA","waste":"trash"}},"type":"Feature"},
	{"geometry":{"coordinates":[10.833391,44.52691],"type":"Point"},"properties":{"osm_id":"2527784397","tag":{"amenity":"recycling","operator":"HERA","recycling:plastic":"yes","recycling_type":"container"}},"type":"Feature"},
	{"geometry":{"coordinates":[10.83341,44.526914],"type":"Point"},"properties":{"osm_id":"2527784401","tag":{"amenity":"recycling","operator":"HERA","recycling:paper":"yes","recycling_type":"container"}},"type":"Feature"},
	{"geometry":{"coordinates":[10.832463,44.52565],"type":"Point"},"properties":{"osm_id":"2532586514","tag":{"amenity":"recycling","operator":"HERA","recycling:garden_waste":"yes","recycling:organic":"yes","recycling_type":"container"}},"type":"Feature"},
	{"geometry":{"coordinates":[10.832436,44.525652],"type":"Point"},"properties":{"osm_id":"2532586515","tag":{"amenity":"waste_disposal","operator":"HERA","waste":"trash"}},"type":"Feature"},
	{"geometry":{"coordinates":[10.833189,44.52575],"type":"Point"},"properties":{"osm_id":"2532586516","tag":{"amenity":"waste_disposal","operator":"HERA","waste":"trash"}},"type":"Feature"},
	{"geometry":{"coordinates":[10.833156,44.525753],"type":"Point"},"properties":{"osm_id":"2532586519","tag":{"amenity":"recycling","operator":"HERA","recycling:garden_waste":"yes","recycling:organic":"yes","recycling_type":"container"}},"type":"Feature"},
	{"geometry":{"coordinates":[10.833126,44.525755],"type":"Point"},"properties":{"osm_id":"2532586523","tag":{"amenity":"recycling","operator":"HERA","recycling:plastic":"yes","recycling_type":"container"}},"type":"Feature"},
	{"geometry":{"coordinates":[10.833097,44.525757],"type":"Point"},"properties":{"osm_id":"2532586527","tag":{"amenity":"recycling","operator":"HERA","recycling:paper":"yes","recycling_type":"container"}},"type":"Feature"},
	{"geometry":{"coordinates":[10.833169,44.525769],"type":"Point"},"properties":{"osm_id":"2532586530","tag":{"amenity":"recycling","operator":"HERA","recycling:cans":"yes","recycling:glass":"yes","recycling_type":"container"}},"type":"Feature"},
	{"geometry":{"coordinates":[10.832318,44.525762],"type":"Point"},"properties":{"osm_id":"2533248637","tag":{"amenity":"waste_basket"}},"type":"Feature"},
	{"geometry":{"coordinates":[10.83322,44.526273],"type":"Point"},"properties":{"osm_id":"2533248652","tag":{"amenity":"recycling","operator":"HERA","recycling:garden_waste":"yes","recycling:organic":"yes","recycling_type":"container"}},"type":"Feature"},
	{"geometry":{"coordinates":[10.833215,44.526299],"type":"Point"},"properties":{"osm_id":"2533248654","tag":{"amenity":"waste_disposal","operator":"HERA","waste":"trash"}},"type":"Feature"},
	{"geometry":{"coordinates":[10.834024,44.526645],"type":"Point"},"properties":{"osm_id":"2533758262","tag":{"amenity":"recycling","operator":"HERA","recycling:batteries":"yes","recycling_type":"container"}},"type":"Feature"},
	{"geometry":{"coordinates":[10.834046,44.52666],"type":"Point"},"properties":{"osm_id":"2533758263","tag":{"amenity":"waste_disposal","operator":"HERA","waste":"trash"}},"type":"Feature"},
	{"geometry":{"coordinates":[10.834026,44.526673],"type":"Point"},"properties":{"osm_id":"2533758264","tag":{"amenity":"recycling","operator":"HERA","recycling:cans":"yes","recycling:glass":"yes","recycling_type":"container"}},"type":"Feature"},
	{"geometry":{"coordinates":[10.834044,44.526673],"type":"Point"},"properties":{"osm_id":"2533758265","tag":{"amenity":"waste_disposal","operator":"HERA","waste":"trash"}},"type":"Feature"},
	{"geometry":{"coordinates":[10.834041,44.526683],"type":"Point"},"properties":{"osm_id":"2533758267","tag":{"amenity":"recycling","operator":"HERA","recycling:paper":"yes","recycling_type":"container"}},"type":"Feature"},
	{"geometry":{"coordinates":[10.83404,44.526691],"type":"Point"},"properties":{"osm_id":"2533758268","tag":{"amenity":"recycling","operator":"HERA","recycling:plastic":"yes","recycling_type":"container"}},"type":"Feature"},
	{"geometry":{"coordinates":[10.834016,44.526704],"type":"Point"},"properties":{"osm_id":"2533758269","tag":{"amenity":"recycling","operator":"UIC","recycling:clothes":"yes","recycling_type":"container"}},"type":"Feature"},
	{"geometry":{"coordinates":[10.834038,44.526705],"type":"Point"},"properties":{"osm_id":"2533758270","tag":{"amenity":"recycling","operator":"HERA","recycling:garden_waste":"yes","recycling:organic":"yes","recycling_type":"container"}},"type":"Feature"},
	{"geometry":{"coordinates":[10.835004,44.527068],"type":"Point"},"properties":{"osm_id":"2533845318","tag":{"amenity":"waste_disposal","operator":"HERA","waste":"trash"}},"type":"Feature"},
	{"geometry":{"coordinates":[10.835477,44.525683],"type":"Point"},"properties":{"osm_id":"2536050708","tag":{"amenity":"waste_disposal","operator":"HERA","waste":"trash"}},"type":"Feature"},
	{"geometry":{"coordinates":[10.835472,44.525709],"type":"Point"},"properties":{"osm_id":"2536050713","tag":{"amenity":"recycling","operator":"HERA","recycling:garden_waste":"yes","recycling:organic":"yes","recycling_type":"container"}},"type":"Feature"},
	{"geometry":{"coordinates":[10.835349,44.526294],"type":"Point"},"properties":{"osm_id":"2536050733","tag":{"amenity":"recycling","operator":"HERA","recycling:cans":"yes","recycling:glass":"yes","recycling_type":"container"}},"type":"Feature"},
	{"geometry":{"coordinates":[10.835365,44.526333],"type":"Point"},"properties":{"osm_id":"2536050740","tag":{"amenity":"waste_disposal","operator":"HERA","waste":"trash"}},"type":"Feature"},
	{"geometry":{"coordinates":[10.835362,44.526354],"type":"Point"},"properties":{"osm_id":"2536050743","tag":{"amenity":"recycling","operator":"HERA","recycling:paper":"yes","recycling_type":"container"}},"type":"Feature"},
	{"geometry":{"coordinates":[10.835359,44.526374],"type":"Point"},"properties":{"osm_id":"2536050748","tag":{"amenity":"recycling","operator":"HERA","recycling:plastic":"yes","recycling_type":"container"}},"type":"Feature"},
	{"geometry":{"coordinates":[10.834582,44.525604],"type":"Point"},"properties":{"osm_id":"2537039287","tag":{"amenity":"waste_disposal","operator":"HERA","waste":"trash"}},"type":"Feature"},
	{"geometry":{"coordinates":[10.834617,44.525604],"type":"Point"},"properties":{"osm_id":"2537039291","tag":{"amenity":"recycling","operator":"HERA","recycling:garden_waste":"yes","recycling:organic":"yes","recycling_type":"container"}},"type":"Feature"},
	{"geometry":{"coordinates":[10.840268,44.527746],"type":"Point"},"properties":{"osm_id":"2555440520","tag":{"amenity":"waste_disposal","operator":"HERA","waste":"trash"}},"type":"Feature"},
	{"geometry":{"coordinates":[10.841141,44.527777],"type":"Point"},"properties":{"osm_id":"2561207375","tag":{"amenity":"recycling","operator":"HERA","recycling:plastic":"yes","recycling_type":"container"}},"type":"Feature"},
	{"geometry":{"coordinates":[10.841083,44.52778],"type":"Point"},"properties":{"osm_id":"2561207379","tag":{"amenity":"recycling","operator":"HERA","recycling:paper":"yes","recycling_type":"container"}},"type":"Feature"},
	{"geometry":{"coordinates":[10.841058,44.527781],"type":"Point"},"properties":{"osm_id":"2561207383","tag":{"amenity":"recycling","operator":"HERA","recycling:cans":"yes","recycling:glass":"yes","recycling_type":"container"}},"type":"Feature"},
	{"geometry":{"coordinates":[10.841019,44.527783],"type":"Point"},"properties":{"osm_id":"2561207387","tag":{"amenity":"recycling","operator":"HERA","recycling:garden_waste":"yes","recycling:organic":"yes","recycling_type":"container"}},"type":"Feature"},
	{"geometry":{"coordinates":[10.840986,44.527784],"type":"Point"},"properties":{"osm_id":"2561207392","tag":{"amenity":"recycling","operator":"HERA","recycling:garden_waste":"yes","recycling:organic":"yes","recycling_type":"container"}},"type":"Feature"},
	{"geometry":{"coordinates":[10.843421,44.527446],"type":"Point"},"properties":{"osm_id":"2565881304","tag":{"amenity":"recycling","operator":"HERA","recycling:cans":"yes","recycling:glass":"yes","recycling_type":"container"}},"type":"Feature"},
	{"geometry":{"coordinates":[10.843408,44.527461],"type":"Point"},"properties":{"osm_id":"2565881305","tag":{"amenity":"recycling","operator":"HERA","recycling:garden_waste":"yes","recycling:organic":"yes","recycling_type":"container"}},"type":"Feature"},
	{"geometry":{"coordinates":[10.843395,44.527477],"type":"Point"},"properties":{"osm_id":"2565881306","tag":{"amenity":"recycling","operator":"HERA","recycling:plastic":"yes","recycling_type":"container"}},"type":"Feature"},
	{"geometry":{"coordinates":[10.84338,44.527495],"type":"Point"},"properties":{"osm_id":"2565881308","tag":{"amenity":"recycling","operator":"HERA","recycling:paper":"yes","recycling_type":"container"}},"type":"Feature"},
	{"geometry":{"coordinates":[10.843363,44.527515],"type":"Point"},"properties":{"osm_id":"2565881310","tag":{"amenity":"waste_disposal","operator":"HERA","waste":"trash"}},"type":"Feature"},
	{"geometry":{"coordinates":[10.842003,44.527663],"type":"Point"},"properties":{"osm_id":"2565881339","tag":{"amenity":"waste_disposal","operator":"HERA","waste":"trash"}},"type":"Feature"},
	{"geometry":{"coordinates":[10.841815,44.526422],"type":"Point"},"properties":{"osm_id":"2566008138","tag":{"amenity":"recycling","operator":"HERA","recycling:garden_waste":"yes","recycling:organic":"yes","recycling_type":"container"}},"type":"Feature"},
	{"geometry":{"coordinates":[10.841832,44.526438],"type":"Point"},"properties":{"osm_id":"2566008139","tag":{"amenity":"waste_disposal","operator":"HERA","waste":"trash"}},"type":"Feature"},
	{"geometry":{"coordinates":[10.842337,44.52718],"type":"Point"},"properties":{"osm_id":"2566008143","tag":{"amenity":"waste_disposal","operator":"HERA","waste":"trash"}},"type":"Feature"},
	{"geometry":{"coordinates":[10.840112,44.527198],"type":"Point"},"properties":{"osm_id":"2566372802","tag":{"amenity":"recycling","operator":"HERA","recycling:garden_waste":"yes","recycling:organic":"yes","recycling_type":"container"}},"type":"Feature"},
	{"geometry":{"coordinates":[10.840125,44.527218],"type":"Point"},"properties":{"osm_id":"2566372803","tag":{"amenity":"waste_disposal","operator":"HERA","waste":"trash"}},"type":"Feature"},
	{"geometry":{"coordinates":[10.840658,44.526077],"type":"Point"},"properties":{"osm_id":"2567516248","tag":{"amenity":"waste_disposal","operator":"HERA","waste":"trash"}},"type":"Feature"},
	{"geometry":{"coordinates":[10.840634,44.526087],"type":"Point"},"properties":{"osm_id":"2567516249","tag":{"amenity":"recycling","operator":"HERA","recycling:paper":"yes","recycling_type":"container"}},"type":"Feature"},
	{"geometry":{"coordinates":[10.840614,44.526095],"type":"Point"},"properties":{"osm_id":"2567516250","tag":{"amenity":"recycling","operator":"HERA","recycling:garden_waste":"yes","recycling:organic":"yes","recycling_type":"container"}},"type":"Feature"},
	{"geometry":{"coordinates":[10.840593,44.526104],"type":"Point"},"properties":{"osm_id":"2567516251","tag":{"amenity":"recycling","operator":"HERA","recycling:cans":"yes","recycling:glass":"yes","recycling_type":"container"}},"type":"Feature"},
	{"geometry":{"coordinates":[10.840562,44.526117],"type":"Point"},"properties":{"osm_id":"2567516254","tag":{"amenity":"recycling","operator":"HERA","recycling:plastic":"yes","recycling_type":"container"}},"type":"Feature"},
	{"geometry":{"coordinates":[10.840632,44.524962],"type":"Point"},"properties":{"osm_id":"2576603071","tag":{"amenity":"recycling","operator":"HERA","recycling:garden_waste":"yes","recycling:organic":"yes","recycling_type":"container"}},"type":"Feature"},
	{"geometry":{"coordinates":[10.840639,44.524976],"type":"Point"},"properties":{"osm_id":"2576603072","tag":{"amenity":"recycling","operator":"HERA","recycling:paper":"yes","recycling_type":"container"}},"type":"Feature"},
	{"geometry":{"coordinates":[10.840623,44.524991],"type":"Point"},"properties":{"osm_id":"2576603073","tag":{"amenity":"recycling","operator":"HERA","recycling:cans":"yes","recycling:glass":"yes","recycling_type":"container"}},"type":"Feature"},
	{"geometry":{"coordinates":[10.840647,44.524993],"type":"Point"},"properties":{"osm_id":"2576603074","tag":{"amenity":"recycling","operator":"HERA","recycling:plastic":"yes","recycling_type":"container"}},"type":"Feature"},
	{"geometry":{"coordinates":[10.841078,44.525415],"type":"Point"},"properties":{"osm_id":"2576603129","tag":{"amenity":"recycling","operator":"HERA","recycling:garden_waste":"yes","recycling:organic":"yes","recycling_type":"container"}},"type":"Feature"},
	{"geometry":{"coordinates":[10.841095,44.525431],"type":"Point"},"properties":{"osm_id":"2576603131","tag":{"amenity":"waste_disposal","operator":"HERA","waste":"trash"}},"type":"Feature"},
	{"geometry":{"coordinates":[10.840454,44.524596],"type":"Point"},"properties":{"osm_id":"2586765747","tag":{"amenity":"waste_disposal","operator":"HERA","waste":"trash"}},"type":"Feature"},
	{"geometry":{"coordinates":[10.839829,44.524394],"type":"Point"},"properties":{"osm_id":"2587946615","tag":{"amenity":"waste_disposal","operator":"HERA","waste":"trash"}},"type":"Feature"},
	{"geometry":{"coordinates":[10.839808,44.524397],"type":"Point"},"properties":{"osm_id":"2587946618","tag":{"amenity":"recycling","operator":"HERA","recycling:garden_waste":"yes","recycling:organic":"yes","recycling_type":"container"}},"type":"Feature"},
	{"geometry":{"coordinates":[10.839916,44.525241],"type":"Point"},"properties":{"osm_id":"2588771867","tag":{"amenity":"waste_disposal","operator":"HERA","waste":"trash"}},"type":"Feature"},
	{"geometry":{"coordinates":[10.839922,44.525262],"type":"Point"},"properties":{"osm_id":"2588771870","tag":{"amenity":"recycling","operator":"HERA","recycling:garden_waste":"yes","recycling:organic":"yes","recycling_type":"container"}},"type":"Feature"},
	{"geometry":{"coordinates":[10.839991,44.525042],"type":"Point"},"properties":{"osm_id":"2591126607","tag":{"amenity":"waste_basket"}},"type":"Feature"},
	{"geometry":{"coordinates":[10.836875,44.513354],"type":"Point"},"properties":{"osm_id":"2598271898","tag":{"amenity":"waste_disposal","operator":"HERA","waste":"trash"}},"type":"Feature"},
	{"geometry":{"coordinates":[10.836903,44.513367],"type":"Point"},"properties":{"osm_id":"2598271899","tag":{"amenity":"waste_disposal","operator":"HERA","waste":"trash"}},"type":"Feature"},
	{"geometry":{"coordinates":[10.836925,44.513385],"type":"Point"},"properties":{"osm_id":"2598271902","tag":{"amenity":"waste_disposal","operator":"HERA","waste":"trash"}},"type":"Feature"},
	{"geometry":{"coordinates":[10.83695,44.513393],"type":"Point"},"properties":{"osm_id":"2598271904","tag":{"amenity":"waste_disposal","operator":"HERA","waste":"trash"}},"type":"Feature"},
	{"geometry":{"coordinates":[10.836975,44.513405],"type":"Point"},"properties":{"osm_id":"2598271905","tag":{"amenity":"recycling","operator":"HERA","recycling:plastic":"yes","recycling_type":"container"}},"type":"Feature"},
	{"geometry":{"coordinates":[10.836996,44.513421],"type":"Point"},"properties":{"osm_id":"2598271907","tag":{"amenity":"recycling","operator":"HERA","recycling:plastic":"yes","recycling_type":"container"}},"type":"Feature"},
	{"geometry":{"coordinates":[10.837016,44.513428],"type":"Point"},"properties":{"osm_id":"2598271908","tag":{"amenity":"recycling","operator":"HERA","recycling:cans":"yes","recycling:glass":"yes","recycling_type":"container"}},"type":"Feature"},
	{"geometry":{"coordinates":[10.837034,44.513438],"type":"Point"},"properties":{"osm_id":"2598271909","tag":{"amenity":"recycling","operator":"HERA","recycling:cans":"yes","recycling:glass":"yes","recycling_type":"container"}},"type":"Feature"},
	{"geometry":{"coordinates":[10.837058,44.513447],"type":"Point"},"properties":{"osm_id":"2598271910","tag":{"amenity":"recycling","operator":"HERA","recycling:paper":"yes","recycling_type":"container"}},"type":"Feature"},
	{"geometry":{"coordinates":[10.837081,44.513458],"type":"Point"},"properties":{"osm_id":"2598271911","tag":{"amenity":"recycling","operator":"HERA","recycling:paper":"yes","recycling_type":"container"}},"type":"Feature"},
	{"geometry":{"coordinates":[10.837117,44.513478],"type":"Point"},"properties":{"osm_id":"2598271914","tag":{"amenity":"recycling","operator":"UIC","recycling:clothes":"yes","recycling_type":"container"}},"type":"Feature"},
	{"geometry":{"coordinates":[10.838051,44.51426],"type":"Point"},"properties":{"osm_id":"2599222835","tag":{"amenity":"waste_disposal","operator":"HERA","waste":"trash"}},"type":"Feature"},
	{"geometry":{"coordinates":[10.840537,44.516188],"type":"Point"},"properties":{"osm_id":"2599449563","tag":{"amenity":"recycling","operator":"HERA","recycling:paper":"yes","recycling_type":"container"}},"type":"Feature"},
	{"geometry":{"coordinates":[10.84055,44.516205],"type":"Point"},"properties":{"osm_id":"2599449564","tag":{"amenity":"recycling","operator":"HERA","recycling:plastic":"yes","recycling_type":"container"}},"type":"Feature"},
	{"geometry":{"coordinates":[10.840564,44.516223],"type":"Point"},"properties":{"osm_id":"2599449568","tag":{"amenity":"recycling","operator":"HERA","recycling:cans":"yes","recycling:glass":"yes","recycling_type":"container"}},"type":"Feature"},
	{"geometry":{"coordinates":[10.840579,44.51624],"type":"Point"},"properties":{"osm_id":"2599449570","tag":{"amenity":"waste_disposal","operator":"HERA","waste":"trash"}},"type":"Feature"},
	{"geometry":{"coordinates":[10.841794,44.518749],"type":"Point"},"properties":{"osm_id":"2600898050","tag":{"amenity":"waste_disposal","operator":"HERA","waste":"trash"}},"type":"Feature"},
	{"geometry":{"coordinates":[10.842754,44.524417],"type":"Point"},"properties":{"osm_id":"2600898136","tag":{"amenity":"waste_disposal","operator":"HERA","waste":"trash"}},"type":"Feature"},
	{"geometry":{"coordinates":[10.843815,44.525249],"type":"Point"},"properties":{"osm_id":"2604497565","tag":{"amenity":"waste_disposal","operator":"HERA","waste":"trash"}},"type":"Feature"},
	{"geometry":{"coordinates":[10.861033,44.525362],"type":"Point"},"properties":{"highway":"street_lamp","osm_id":"3849758461","tag":{"amenity":"waste_basket"}},"type":"Feature"},
	{"geometry":{"coordinates":[10.860676,44.525572],"type":"Point"},"properties":{"osm_id":"3871330458","tag":{"addr:city":"Maranello","addr:postcode":"41053","addr:street":"Via Giuseppe Graziosi","amenity":"recycling","recycling:cans":"yes","recycling:clothes":"no","recycling:glass":"yes","recycling:paper":"no","recycling:plastic":"no","recycling_type":"container"}},"type":"Feature"},
	{"geometry":{"coordinates":[10.860881,44.525558],"type":"Point"},"properties":{"osm_id":"3871330459","tag":{"addr:city":"Maranello","addr:postcode":"41053","addr:street":"Via Giuseppe Graziosi","amenity":"recycling","recycling:cans":"no","recycling:clothes":"yes","recycling:glass":"no","recycling:glass_bottles":"no","recycling:paper":"no","recycling:plastic":"no","recycling_type":"container"}},"type":"Feature"},
	{"geometry":{"coordinates":[10.860854,44.525562],"type":"Point"},"properties":{"osm_id":"3871330460","tag":{"addr:city":"Maranello","addr:postcode":"41053","addr:street":"Via Giuseppe Graziosi","amenity":"recycling","operator":"HERA","recycling:clothes":"no","recycling:glass":"no","recycling:glass_bottles":"no","recycling:paper":"no","recycling:plastic":"yes","recycling_type":"container"}},"type":"Feature"},
	{"geometry":{"coordinates":[10.860825,44.525568],"type":"Point"},"properties":{"osm_id":"3871330461","tag":{"addr:city":"Maranello","addr:postcode":"41053","addr:street":"Via Giuseppe Graziosi","amenity":"recycling","operator":"HERA","recycling:cans":"no","recycling:clothes":"no","recycling:glass":"no","recycling:glass_bottles":"no","recycling:paper":"yes","recycling:plastic":"no","recycling_type":"container"}},"type":"Feature"},
	{"geometry":{"coordinates":[10.860792,44.525571],"type":"Point"},"properties":{"osm_id":"3871330462","tag":{"amenity":"waste_disposal","operator":"HERA","waste":"trash"}},"type":"Feature"},
	{"geometry":{"coordinates":[10.86076,44.525574],"type":"Point"},"properties":{"osm_id":"3871330463","tag":{"amenity":"waste_disposal","operator":"HERA","waste":"trash"}},"type":"Feature"},
	{"geometry":{"coordinates":[10.860732,44.525575],"type":"Point"},"properties":{"osm_id":"3871330464","tag":{"addr:postcode":"41053","addr:street":"Via Giuseppe Graziosi","amenity":"recycling","operator":"HERA","recycling:cans":"no","recycling:clothes":"no","recycling:garden_waste":"yes","recycling:glass":"no","recycling:glass_bottles":"no","recycling:green_waste":"yes","recycling:paper":"no","recycling:plastic":"no","recycling:wood":"yes","recycling_type":"container"}},"type":"Feature"},
	{"geometry":{"coordinates":[10.860705,44.525574],"type":"Point"},"properties":{"osm_id":"3871330465","tag":{"addr:city":"Maranello","addr:postcode":"41053","addr:street":"Via Giuseppe Graziosi","amenity":"recycling","operator":"HERA","recycling_type":"container"}},"type":"Feature"},
	{"geometry":{"coordinates":[10.860626,44.525569],"type":"Point"},"properties":{"osm_id":"3871330466","tag":{"addr:city":"Maranello","addr:postcode":"41053","addr:street":"Via Giuseppe Graziosi","amenity":"recycling","operator":"HERA","recycling:cans":"no","recycling:clothes":"no","recycling:glass":"no","recycling:glass_bottles":"no","recycling:organic":"yes","recycling:paper":"no","recycling:plastic":"no","recycling_type":"container"}},"type":"Feature"},
	{"geometry":{"coordinates":[10.860638,44.525573],"type":"Point"},"properties":{"osm_id":"3871330467","tag":{"addr:city":"Maranello","addr:postcode":"41053","addr:street":"Via Giuseppe Graziosi","amenity":"recycling","operator":"HERA","recycling:cans":"no","recycling:clothes":"no","recycling:glass":"no","recycling:glass_bottles":"no","recycling:organic":"yes","recycling:paper":"no","recycling:plastic":"no","recycling_type":"container"}},"type":"Feature"},
	{"geometry":{"coordinates":[10.8725,44.525549],"type":"Point"},"properties":{"osm_id":"3871361162","tag":{"addr:city":"Maranello","addr:postcode":"41053","addr:street":"Piazza Giovanni Amendola","amenity":"recycling","recycling:cans":"no","recycling:clothes":"no","recycling:drugs":"yes","recycling_type":"container"}},"type":"Feature"},
	{"geometry":{"coordinates":[10.870362,44.524089],"type":"Point"},"properties":{"osm_id":"3871371246","tag":{"addr:city":"Maranello","addr:postcode":"41053","addr:street":"Via Zozi","amenity":"recycling","recycling:batteries":"yes","recycling:cans":"no","recycling:car_batteries":"no","recycling:clothes":"no","recycling:glass":"no","recycling:glass_bottles":"no","recycling_type":"container"}},"type":"Feature"},
	{"geometry":{"coordinates":[10.860876,44.525626],"type":"Point"},"properties":{"osm_id":"3871387828","tag":{"amenity":"waste_basket"}},"type":"Feature"}
]
}
