{
"type": "FeatureCollection",
"lastupdate": "2020-08-03T00:00:00Z",
"features": [
	{"geometry":{"coordinates":[-99.187046,19.368511],"type":"Point"},"properties":{"name":"Super Capturador SuperDrecksKescht","osm_id":"1642185580","tag":{"amenity":"recycling","recycling:batteries":"yes","recycling:cans":"yes","recycling:electrical_appliances":"yes","recycling:paper":"yes","recycling:paper_packaging":"yes","recycling:plastic":"yes","recycling:plastic_bottles":"yes","recycling:plastic_packaging":"yes","recycling:scrap_metal":"yes","recycling:small_appliances":"yes","recycling:waste":"yes","recycling_type":"centre"}},"type":"Feature"},
	{"geometry":{"coordinates":[-99.181589,19.344874],"type":"Point"},"properties":{"name":"Reciclaje","osm_id":"3586392989","tag":{"amenity":"recycling"}},"type":"Feature"},
	{"geometry":{"coordinates":[-99.174453,19.323073],"type":"Point"},"properties":{"osm_id":"3836795342","tag":{"amenity":"recycling","recycling:batteries":"yes","recycling_type":"container"}},"type":"Feature"},
	{"geometry":{"coordinates":[-99.183701,19.337374],"type":"Point"},"properties":{"osm_id":"3836795343","tag":{"amenity":"recycling","recycling:batteries":"yes","recycling_type":"container"}},"type":"Feature"},
	{"geometry":{"coordinates":[-99.164899,19.35999],"type":"Point"},"properties":{"osm_id":"4160318792","tag":{"amenity":"waste_basket"}},"type":"Feature"},
	{"geometry":{"coordinates":[-99.179197,19.324964],"type":"Point"},"properties":{"osm_id":"4193053099","tag":{"amenity":"waste_basket"}},"type":"Feature"},
	{"geometry":{"coordinates":[-99.179499,19.324653],"type":"Point"},"properties":{"osm_id":"4193053100","tag":{"amenity":"waste_basket"}},"type":"Feature"},
	{"geometry":{"coordinates":[-99.179462,19.324298],"type":"Point"},"properties":{"osm_id":"4193053101","tag":{"amenity":"waste_basket"}},"type":"Feature"},
	{"geometry":{"coordinates":[-99.179474,19.324143],"type":"Point"},"properties":{"osm_id":"4193053102","tag":{"amenity":"waste_basket"}},"type":"Feature"},
	{"geometry":{"coordinates":[-99.179643,19.324253],"type":"Point"},"properties":{"osm_id":"4193053103","tag":{"amenity":"waste_basket"}},"type":"Feature"},
	{"geometry":{"coordinates":[-99.179171,19.324717],"type":"Point"},"properties":{"osm_id":"4193053104","tag":{"amenity":"waste_basket"}},"type":"Feature"},
	{"geometry":{"coordinates":[-99.179861,19.324831],"type":"Point"},"properties":{"osm_id":"4193053105","tag":{"amenity":"waste_basket"}},"type":"Feature"},
	{"geometry":{"coordinates":[-99.181677,19.311578],"type":"Point"},"properties":{"osm_id":"4909535331","tag":{"amenity":"waste_basket"}},"type":"Feature"},
	{"geometry":{"coordinates":[-99.185646,19.340411],"type":"Point"},"properties":{"osm_id":"5859601587","tag":{"amenity":"waste_basket"}},"type":"Feature"},
	{"geometry":{"coordinates":[-99.181772,19.327992],"type":"Point"},"properties":{"osm_id":"5865977885","tag":{"amenity":"waste_basket"}},"type":"Feature"},
	{"geometry":{"coordinates":[-99.181251,19.328247],"type":"Point"},"properties":{"osm_id":"5865992385","tag":{"amenity":"waste_basket"}},"type":"Feature"},
	{"geometry":{"coordinates":[-99.181016,19.328536],"type":"Point"},"properties":{"osm_id":"5865992386","tag":{"amenity":"waste_basket"}},"type":"Feature"},
	{"geometry":{"coordinates":[-99.181029,19.331395],"type":"Point"},"properties":{"osm_id":"5865992685","tag":{"amenity":"waste_basket"}},"type":"Feature"},
	{"geometry":{"coordinates":[-99.181567,19.328267],"type":"Point"},"properties":{"osm_id":"5875943486","tag":{"amenity":"waste_basket"}},"type":"Feature"},
	{"geometry":{"coordinates":[-99.18185,19.32774],"type":"Point"},"properties":{"osm_id":"5875943785","tag":{"amenity":"waste_basket"}},"type":"Feature"},
	{"geometry":{"coordinates":[-99.175817,19.386038],"type":"Point"},"properties":{"osm_id":"7626252695","tag":{"amenity":"recycling","opening_hours":"24/7","operator":"Im\u00e1genes y Muebles Urbanos","recycling:batteries":"yes","recycling_type":"container"}},"type":"Feature"}
]
}
