{
"type": "FeatureCollection",
"features": [
	{"geometry":{"coordinates":[-99.143266,19.305893],"type":"Point"},"properties":{"osm_id":"666095246","tag":{"amenity":"recycling"}},"type":"Feature"},
	{"geometry":{"coordinates":[-99.202158,19.289037],"type":"Point"},"properties":{"osm_id":"2484968173","tag":{"amenity":"waste_basket"}},"type":"Feature"},
	{"geometry":{"coordinates":[-99.193773,19.290741],"type":"Point"},"properties":{"osm_id":"2484968177","tag":{"amenity":"waste_basket"}},"type":"Feature"},
	{"geometry":{"coordinates":[-99.200221,19.291872],"type":"Point"},"properties":{"osm_id":"2484968196","tag":{"amenity":"waste_basket"}},"type":"Feature"},
	{"geometry":{"coordinates":[-99.194485,19.294056],"type":"Point"},"properties":{"osm_id":"2489215057","tag":{"amenity":"waste_basket"}},"type":"Feature"},
	{"geometry":{"coordinates":[-99.193472,19.292281],"type":"Point"},"properties":{"osm_id":"2503560261","tag":{"amenity":"waste_basket"}},"type":"Feature"},
	{"geometry":{"coordinates":[-99.193676,19.292459],"type":"Point"},"properties":{"osm_id":"2503560263","tag":{"amenity":"waste_basket"}},"type":"Feature"},
	{"geometry":{"coordinates":[-99.194608,19.292754],"type":"Point"},"properties":{"osm_id":"2503560265","tag":{"amenity":"waste_basket"}},"type":"Feature"},
	{"geometry":{"coordinates":[-99.194136,19.292846],"type":"Point"},"properties":{"osm_id":"2503560266","tag":{"amenity":"waste_basket"}},"type":"Feature"},
	{"geometry":{"coordinates":[-99.194411,19.293061],"type":"Point"},"properties":{"osm_id":"2503560267","tag":{"amenity":"waste_basket"}},"type":"Feature"},
	{"geometry":{"coordinates":[-99.177121,19.310803],"type":"Point"},"properties":{"name":"Planta de Composta de CU","osm_id":"3762242172","tag":{"amenity":"recycling","recycling:organic":"yes","recycling_type":"centre"}},"type":"Feature"},
	{"geometry":{"coordinates":[-99.173762,19.289849],"type":"Point"},"properties":{"osm_id":"3836795341","tag":{"amenity":"recycling","recycling:batteries":"yes","recycling_type":"container"}},"type":"Feature"},
	{"geometry":{"coordinates":[-99.174786,19.307192],"type":"Point"},"properties":{"name":"Papeler\u00c3\u00ada Leo","osm_id":"4394239090","tag":{"amenity":"waste_basket"}},"type":"Feature"}
]
}
