{
"type": "FeatureCollection",
"features": [
	{"geometry":{"coordinates":[60.609622,56.911303],"type":"Point"},"properties":{"osm_id":"914761613","tag":{"amenity":"waste_disposal"}},"type":"Feature"},
	{"geometry":{"coordinates":[60.600162,56.909302],"type":"Point"},"properties":{"osm_id":"915768199","tag":{"amenity":"waste_disposal"}},"type":"Feature"},
	{"geometry":{"coordinates":[60.611283,56.908512],"type":"Point"},"properties":{"osm_id":"965900577","tag":{"amenity":"waste_disposal"}},"type":"Feature"},
	{"geometry":{"coordinates":[60.61792,56.908369],"type":"Point"},"properties":{"osm_id":"998600054","tag":{"amenity":"waste_disposal"}},"type":"Feature"},
	{"geometry":{"coordinates":[60.614226,56.908177],"type":"Point"},"properties":{"osm_id":"1003932269","tag":{"amenity":"waste_disposal"}},"type":"Feature"},
	{"geometry":{"coordinates":[60.609636,56.904129],"type":"Point"},"properties":{"osm_id":"1003932713","tag":{"amenity":"waste_disposal"}},"type":"Feature"},
	{"geometry":{"coordinates":[60.616489,56.904429],"type":"Point"},"properties":{"osm_id":"1003933042","tag":{"amenity":"waste_disposal"}},"type":"Feature"},
	{"geometry":{"coordinates":[60.621244,56.904313],"type":"Point"},"properties":{"osm_id":"1003933125","tag":{"amenity":"waste_disposal"}},"type":"Feature"},
	{"geometry":{"coordinates":[60.621284,56.901906],"type":"Point"},"properties":{"osm_id":"1007466282","tag":{"amenity":"waste_disposal"}},"type":"Feature"},
	{"geometry":{"coordinates":[60.622761,56.902726],"type":"Point"},"properties":{"osm_id":"1007466773","tag":{"amenity":"waste_disposal"}},"type":"Feature"},
	{"geometry":{"coordinates":[60.611163,56.921865],"type":"Point"},"properties":{"osm_id":"1011657620","tag":{"amenity":"waste_disposal"}},"type":"Feature"},
	{"geometry":{"coordinates":[60.634586,56.904876],"type":"Point"},"properties":{"osm_id":"1025848604","tag":{"amenity":"recycling"}},"type":"Feature"},
	{"geometry":{"coordinates":[60.638246,56.902841],"type":"Point"},"properties":{"osm_id":"1025848613","tag":{"amenity":"recycling"}},"type":"Feature"},
	{"geometry":{"coordinates":[60.638491,56.904021],"type":"Point"},"properties":{"osm_id":"1025848614","tag":{"amenity":"recycling"}},"type":"Feature"},
	{"geometry":{"coordinates":[60.63597,56.903118],"type":"Point"},"properties":{"osm_id":"1025848615","tag":{"amenity":"recycling"}},"type":"Feature"},
	{"geometry":{"coordinates":[60.609472,56.913745],"type":"Point"},"properties":{"osm_id":"1028316464","tag":{"amenity":"waste_disposal"}},"type":"Feature"},
	{"geometry":{"coordinates":[60.598862,56.912301],"type":"Point"},"properties":{"osm_id":"1100636841","tag":{"amenity":"waste_disposal"}},"type":"Feature"},
	{"geometry":{"coordinates":[60.610521,56.910587],"type":"Point"},"properties":{"osm_id":"1193092549","tag":{"amenity":"waste_disposal"}},"type":"Feature"},
	{"geometry":{"coordinates":[60.615762,56.899796],"type":"Point"},"properties":{"osm_id":"1200782437","tag":{"amenity":"waste_disposal"}},"type":"Feature"},
	{"geometry":{"coordinates":[60.615598,56.902135],"type":"Point"},"properties":{"osm_id":"1200782546","tag":{"amenity":"waste_disposal"}},"type":"Feature"},
	{"geometry":{"coordinates":[60.624873,56.904434],"type":"Point"},"properties":{"osm_id":"1210748446","tag":{"amenity":"waste_disposal"}},"type":"Feature"},
	{"geometry":{"coordinates":[60.636697,56.897227],"type":"Point"},"properties":{"osm_id":"1227793809","tag":{"amenity":"waste_disposal"}},"type":"Feature"},
	{"geometry":{"coordinates":[60.640539,56.898547],"type":"Point"},"properties":{"osm_id":"1230367343","tag":{"amenity":"waste_disposal"}},"type":"Feature"},
	{"geometry":{"coordinates":[60.639701,56.89957],"type":"Point"},"properties":{"osm_id":"1230367344","tag":{"amenity":"waste_disposal"}},"type":"Feature"},
	{"geometry":{"coordinates":[60.628335,56.901402],"type":"Point"},"properties":{"osm_id":"1233883880","tag":{"amenity":"waste_disposal"}},"type":"Feature"},
	{"geometry":{"coordinates":[60.602512,56.908005],"type":"Point"},"properties":{"osm_id":"1272029088","tag":{"amenity":"waste_disposal"}},"type":"Feature"},
	{"geometry":{"coordinates":[60.605757,56.905922],"type":"Point"},"properties":{"osm_id":"1272233507","tag":{"amenity":"waste_disposal"}},"type":"Feature"},
	{"geometry":{"coordinates":[60.623053,56.905537],"type":"Point"},"properties":{"osm_id":"1288835823","tag":{"amenity":"waste_disposal"}},"type":"Feature"},
	{"geometry":{"coordinates":[60.604194,56.901461],"type":"Point"},"properties":{"osm_id":"1289260085","tag":{"amenity":"waste_disposal","waste":"trash"}},"type":"Feature"},
	{"geometry":{"coordinates":[60.598671,56.898046],"type":"Point"},"properties":{"osm_id":"1289260093","tag":{"amenity":"waste_disposal","waste":"trash"}},"type":"Feature"},
	{"geometry":{"coordinates":[60.618623,56.899548],"type":"Point"},"properties":{"osm_id":"1346179820","tag":{"amenity":"waste_disposal"}},"type":"Feature"},
	{"geometry":{"coordinates":[60.618482,56.899676],"type":"Point"},"properties":{"osm_id":"1346179903","tag":{"amenity":"waste_disposal"}},"type":"Feature"},
	{"geometry":{"coordinates":[60.629226,56.906846],"type":"Point"},"properties":{"osm_id":"1369448881","tag":{"amenity":"waste_disposal"}},"type":"Feature"},
	{"geometry":{"coordinates":[60.595116,56.910495],"type":"Point"},"properties":{"osm_id":"1387790376","tag":{"amenity":"waste_disposal"}},"type":"Feature"},
	{"geometry":{"coordinates":[60.594987,56.901806],"type":"Point"},"properties":{"osm_id":"1446816369","tag":{"amenity":"waste_disposal","waste":"trash"}},"type":"Feature"},
	{"geometry":{"coordinates":[60.633209,56.899935],"type":"Point"},"properties":{"osm_id":"1503617605","tag":{"amenity":"waste_disposal"}},"type":"Feature"},
	{"geometry":{"coordinates":[60.637018,56.899244],"type":"Point"},"properties":{"osm_id":"1503617606","tag":{"amenity":"waste_disposal"}},"type":"Feature"},
	{"geometry":{"coordinates":[60.644233,56.904754],"type":"Point"},"properties":{"osm_id":"1505976078","tag":{"amenity":"recycling"}},"type":"Feature"},
	{"geometry":{"coordinates":[60.63963,56.905214],"type":"Point"},"properties":{"osm_id":"1505976080","tag":{"amenity":"recycling"}},"type":"Feature"},
	{"geometry":{"coordinates":[60.602291,56.904881],"type":"Point"},"properties":{"osm_id":"1515825588","tag":{"amenity":"waste_disposal"}},"type":"Feature"},
	{"geometry":{"coordinates":[60.598742,56.905432],"type":"Point"},"properties":{"osm_id":"1515825692","tag":{"amenity":"waste_disposal"}},"type":"Feature"},
	{"geometry":{"coordinates":[60.597896,56.905571],"type":"Point"},"properties":{"osm_id":"1515825726","tag":{"amenity":"waste_disposal"}},"type":"Feature"},
	{"geometry":{"coordinates":[60.600243,56.907382],"type":"Point"},"properties":{"osm_id":"1515825993","tag":{"amenity":"waste_disposal"}},"type":"Feature"},
	{"geometry":{"coordinates":[60.596025,56.908848],"type":"Point"},"properties":{"osm_id":"1515826136","tag":{"amenity":"waste_disposal"}},"type":"Feature"},
	{"geometry":{"coordinates":[60.596072,56.908884],"type":"Point"},"properties":{"osm_id":"1515826141","tag":{"amenity":"waste_disposal"}},"type":"Feature"},
	{"geometry":{"coordinates":[60.608296,56.902614],"type":"Point"},"properties":{"osm_id":"1516751270","tag":{"amenity":"waste_disposal"}},"type":"Feature"},
	{"geometry":{"coordinates":[60.612453,56.904985],"type":"Point"},"properties":{"osm_id":"1516751945","tag":{"amenity":"waste_disposal"}},"type":"Feature"},
	{"geometry":{"coordinates":[60.601991,56.904038],"type":"Point"},"properties":{"osm_id":"1520063113","tag":{"amenity":"waste_disposal"}},"type":"Feature"},
	{"geometry":{"coordinates":[60.597818,56.906278],"type":"Point"},"properties":{"osm_id":"1520063345","tag":{"amenity":"waste_disposal"}},"type":"Feature"},
	{"geometry":{"coordinates":[60.596965,56.907511],"type":"Point"},"properties":{"osm_id":"1528638931","tag":{"amenity":"waste_disposal"}},"type":"Feature"},
	{"geometry":{"coordinates":[60.591647,56.912529],"type":"Point"},"properties":{"osm_id":"1558431669","tag":{"amenity":"waste_disposal"}},"type":"Feature"},
	{"geometry":{"coordinates":[60.595719,56.914669],"type":"Point"},"properties":{"osm_id":"1558431765","tag":{"amenity":"waste_disposal"}},"type":"Feature"},
	{"geometry":{"coordinates":[60.591225,56.904586],"type":"Point"},"properties":{"osm_id":"1599075708","tag":{"amenity":"waste_disposal"}},"type":"Feature"},
	{"geometry":{"coordinates":[60.588512,56.904256],"type":"Point"},"properties":{"osm_id":"1627878191","tag":{"amenity":"waste_disposal"}},"type":"Feature"},
	{"geometry":{"coordinates":[60.588019,56.910098],"type":"Point"},"properties":{"osm_id":"1650701332","tag":{"amenity":"waste_disposal"}},"type":"Feature"},
	{"geometry":{"coordinates":[60.587309,56.910516],"type":"Point"},"properties":{"osm_id":"1650701536","tag":{"amenity":"waste_disposal"}},"type":"Feature"},
	{"geometry":{"coordinates":[60.590613,56.910646],"type":"Point"},"properties":{"osm_id":"1650701561","tag":{"amenity":"waste_disposal"}},"type":"Feature"},
	{"geometry":{"coordinates":[60.586333,56.911203],"type":"Point"},"properties":{"osm_id":"1650701846","tag":{"amenity":"waste_disposal"}},"type":"Feature"},
	{"geometry":{"coordinates":[60.585992,56.911764],"type":"Point"},"properties":{"osm_id":"1650701998","tag":{"amenity":"waste_disposal"}},"type":"Feature"},
	{"geometry":{"coordinates":[60.616938,56.913429],"type":"Point"},"properties":{"osm_id":"1719484742","tag":{"amenity":"waste_disposal"}},"type":"Feature"},
	{"geometry":{"coordinates":[60.581562,56.897596],"type":"Point"},"properties":{"osm_id":"1778188204","tag":{"amenity":"waste_disposal"}},"type":"Feature"},
	{"geometry":{"coordinates":[60.581347,56.899571],"type":"Point"},"properties":{"osm_id":"1778188325","tag":{"amenity":"waste_disposal"}},"type":"Feature"},
	{"geometry":{"coordinates":[60.61143,56.897826],"type":"Point"},"properties":{"osm_id":"1793623104","tag":{"amenity":"waste_disposal"}},"type":"Feature"},
	{"geometry":{"coordinates":[60.60626,56.897052],"type":"Point"},"properties":{"osm_id":"1836837434","tag":{"amenity":"waste_disposal","waste":"trash"}},"type":"Feature"},
	{"geometry":{"coordinates":[60.608256,56.898896],"type":"Point"},"properties":{"osm_id":"1836837720","tag":{"amenity":"waste_disposal","waste":"trash"}},"type":"Feature"},
	{"geometry":{"coordinates":[60.604074,56.899],"type":"Point"},"properties":{"osm_id":"1836837736","tag":{"amenity":"waste_disposal","waste":"trash"}},"type":"Feature"},
	{"geometry":{"coordinates":[60.601377,56.899467],"type":"Point"},"properties":{"osm_id":"1836837877","tag":{"amenity":"waste_disposal","waste":"trash"}},"type":"Feature"},
	{"geometry":{"coordinates":[60.60441,56.900325],"type":"Point"},"properties":{"osm_id":"1836838113","tag":{"amenity":"waste_disposal","waste":"trash"}},"type":"Feature"},
	{"geometry":{"coordinates":[60.606633,56.900366],"type":"Point"},"properties":{"osm_id":"1836838118","tag":{"amenity":"waste_disposal","waste":"trash"}},"type":"Feature"},
	{"geometry":{"coordinates":[60.597467,56.900925],"type":"Point"},"properties":{"osm_id":"1836838331","tag":{"amenity":"waste_disposal","waste":"trash"}},"type":"Feature"},
	{"geometry":{"coordinates":[60.592832,56.902609],"type":"Point"},"properties":{"osm_id":"1836838883","tag":{"amenity":"waste_disposal","waste":"trash"}},"type":"Feature"},
	{"geometry":{"coordinates":[60.59889,56.902653],"type":"Point"},"properties":{"osm_id":"1836838888","tag":{"amenity":"waste_disposal","waste":"trash"}},"type":"Feature"},
	{"geometry":{"coordinates":[60.599004,56.902696],"type":"Point"},"properties":{"osm_id":"1836838891","tag":{"amenity":"waste_disposal","waste":"trash"}},"type":"Feature"},
	{"geometry":{"coordinates":[60.596441,56.90325],"type":"Point"},"properties":{"osm_id":"1836838924","tag":{"amenity":"waste_disposal","waste":"trash"}},"type":"Feature"},
	{"geometry":{"coordinates":[60.605234,56.903508],"type":"Point"},"properties":{"osm_id":"1836838934","tag":{"amenity":"waste_disposal","waste":"trash"}},"type":"Feature"},
	{"geometry":{"coordinates":[60.594939,56.903819],"type":"Point"},"properties":{"osm_id":"1836838940","tag":{"amenity":"waste_disposal","waste":"trash"}},"type":"Feature"},
	{"geometry":{"coordinates":[60.606484,56.91431],"type":"Point"},"properties":{"osm_id":"1916354667","tag":{"amenity":"waste_disposal"}},"type":"Feature"},
	{"geometry":{"coordinates":[60.625131,56.89806],"type":"Point"},"properties":{"osm_id":"1970369230","tag":{"amenity":"waste_disposal"}},"type":"Feature"},
	{"geometry":{"coordinates":[60.62361,56.900044],"type":"Point"},"properties":{"osm_id":"1970369233","tag":{"amenity":"waste_disposal"}},"type":"Feature"},
	{"geometry":{"coordinates":[60.624796,56.900953],"type":"Point"},"properties":{"osm_id":"1970369237","tag":{"amenity":"waste_disposal"}},"type":"Feature"},
	{"geometry":{"coordinates":[60.625908,56.900026],"type":"Point"},"properties":{"osm_id":"1970372520","tag":{"amenity":"waste_disposal"}},"type":"Feature"},
	{"geometry":{"coordinates":[60.626268,56.907147],"type":"Point"},"properties":{"osm_id":"2342901866","tag":{"amenity":"waste_disposal"}},"type":"Feature"},
	{"geometry":{"coordinates":[60.590145,56.906663],"type":"Point"},"properties":{"osm_id":"2618001742","tag":{"amenity":"waste_basket"}},"type":"Feature"},
	{"geometry":{"coordinates":[60.590172,56.906683],"type":"Point"},"properties":{"osm_id":"2618001743","tag":{"amenity":"waste_basket"}},"type":"Feature"},
	{"geometry":{"coordinates":[60.584482,56.89771],"type":"Point"},"properties":{"osm_id":"2834139845","tag":{"amenity":"waste_disposal"}},"type":"Feature"},
	{"geometry":{"coordinates":[60.560018,56.903366],"type":"Point"},"properties":{"osm_id":"2872768781","tag":{"amenity":"waste_basket"}},"type":"Feature"},
	{"geometry":{"coordinates":[60.58424,56.89804],"type":"Point"},"properties":{"osm_id":"2873850973","tag":{"entrance":"yes"}},"type":"Feature"},
	{"geometry":{"coordinates":[60.619135,56.910587],"type":"Point"},"properties":{"osm_id":"2963224616","tag":{"amenity":"waste_disposal"}},"type":"Feature"},
	{"geometry":{"coordinates":[60.622519,56.907277],"type":"Point"},"properties":{"osm_id":"2964287212","tag":{"amenity":"waste_disposal"}},"type":"Feature"},
	{"geometry":{"coordinates":[60.622673,56.907302],"type":"Point"},"properties":{"osm_id":"2964287216","tag":{"amenity":"waste_disposal"}},"type":"Feature"},
	{"geometry":{"coordinates":[60.616532,56.906653],"type":"Point"},"properties":{"osm_id":"2968464843","tag":{"amenity":"waste_disposal"}},"type":"Feature"},
	{"geometry":{"coordinates":[60.62715,56.898794],"type":"Point"},"properties":{"osm_id":"3182222553","tag":{"amenity":"waste_disposal"}},"type":"Feature"},
	{"geometry":{"coordinates":[60.58805,56.907098],"type":"Point"},"properties":{"osm_id":"3213230771","tag":{"amenity":"recycling","recycling:glass":"yes","recycling_type":"container"}},"type":"Feature"},
	{"geometry":{"coordinates":[60.587933,56.907155],"type":"Point"},"properties":{"osm_id":"3213230772","tag":{"amenity":"waste_disposal"}},"type":"Feature"},
	{"geometry":{"coordinates":[60.629733,56.900227],"type":"Point"},"properties":{"osm_id":"3241322816","tag":{"amenity":"waste_disposal"}},"type":"Feature"},
	{"geometry":{"coordinates":[60.612926,56.90076],"type":"Point"},"properties":{"osm_id":"3489694371","tag":{"amenity":"waste_basket"}},"type":"Feature"},
	{"geometry":{"coordinates":[60.562469,56.929434],"type":"Point"},"properties":{"osm_id":"4754322971","tag":{"amenity":"waste_basket"}},"type":"Feature"},
	{"geometry":{"coordinates":[60.563838,56.927093],"type":"Point"},"properties":{"osm_id":"4754322973","tag":{"amenity":"waste_basket"}},"type":"Feature"},
	{"geometry":{"coordinates":[60.561204,56.924202],"type":"Point"},"properties":{"osm_id":"4754322976","tag":{"amenity":"waste_basket"}},"type":"Feature"},
	{"geometry":{"coordinates":[60.563416,56.912427],"type":"Point"},"properties":{"osm_id":"4754322997","tag":{"amenity":"waste_basket"}},"type":"Feature"},
	{"geometry":{"coordinates":[60.563957,56.911573],"type":"Point"},"properties":{"osm_id":"4754323000","tag":{"amenity":"waste_basket"}},"type":"Feature"},
	{"geometry":{"coordinates":[60.564308,56.908174],"type":"Point"},"properties":{"osm_id":"4754323009","tag":{"amenity":"waste_basket"}},"type":"Feature"},
	{"geometry":{"coordinates":[60.564387,56.908008],"type":"Point"},"properties":{"osm_id":"4754323010","tag":{"amenity":"waste_basket"}},"type":"Feature"},
	{"geometry":{"coordinates":[60.565398,56.906642],"type":"Point"},"properties":{"osm_id":"4754323015","tag":{"amenity":"waste_basket"}},"type":"Feature"},
	{"geometry":{"coordinates":[60.566337,56.905041],"type":"Point"},"properties":{"osm_id":"4754323019","tag":{"amenity":"waste_basket"}},"type":"Feature"},
	{"geometry":{"coordinates":[60.566411,56.904848],"type":"Point"},"properties":{"osm_id":"4754323622","tag":{"amenity":"waste_basket"}},"type":"Feature"},
	{"geometry":{"coordinates":[60.567192,56.902437],"type":"Point"},"properties":{"osm_id":"4754323626","tag":{"amenity":"waste_disposal"}},"type":"Feature"},
	{"geometry":{"coordinates":[60.567193,56.902353],"type":"Point"},"properties":{"osm_id":"4754323627","tag":{"amenity":"waste_disposal"}},"type":"Feature"},
	{"geometry":{"coordinates":[60.601972,56.908976],"type":"Point"},"properties":{"osm_id":"4991825940","tag":{"amenity":"waste_disposal"}},"type":"Feature"},
	{"geometry":{"coordinates":[60.612602,56.905933],"type":"Point"},"properties":{"osm_id":"5260370017","tag":{"amenity":"waste_disposal"}},"type":"Feature"},
	{"geometry":{"coordinates":[60.61091,56.902236],"type":"Point"},"properties":{"osm_id":"5677605422","tag":{"amenity":"waste_disposal"}},"type":"Feature"},
	{"geometry":{"coordinates":[60.610857,56.902232],"type":"Point"},"properties":{"osm_id":"5677616222","tag":{"amenity":"waste_disposal"}},"type":"Feature"},
	{"geometry":{"coordinates":[60.610817,56.902232],"type":"Point"},"properties":{"osm_id":"5677616223","tag":{"amenity":"waste_disposal"}},"type":"Feature"},
	{"geometry":{"coordinates":[60.594968,56.901813],"type":"Point"},"properties":{"osm_id":"5887208496","tag":{"amenity":"recycling","recycling:cans":"yes","recycling:glass_bottles":"yes","recycling:plastic_bottles":"yes","recycling_type":"container"}},"type":"Feature"}
]
}
