{
"type": "FeatureCollection",
"features": [
	{"geometry":{"coordinates":[60.624213,56.862868],"type":"Point"},"properties":{"osm_id":"610750280","tag":{"amenity":"waste_disposal"}},"type":"Feature"},
	{"geometry":{"coordinates":[60.568894,56.855402],"type":"Point"},"properties":{"osm_id":"883045785","tag":{"amenity":"waste_disposal"}},"type":"Feature"},
	{"geometry":{"coordinates":[60.57481,56.885019],"type":"Point"},"properties":{"osm_id":"983604109","tag":{"amenity":"waste_disposal","waste":"trash"}},"type":"Feature"},
	{"geometry":{"coordinates":[60.639137,56.856142],"type":"Point"},"properties":{"osm_id":"988634632","tag":{"amenity":"recycling"}},"type":"Feature"},
	{"geometry":{"coordinates":[60.622288,56.861716],"type":"Point"},"properties":{"osm_id":"1059087917","tag":{"amenity":"waste_disposal"}},"type":"Feature"},
	{"geometry":{"coordinates":[60.588128,56.850169],"type":"Point"},"properties":{"osm_id":"1106573970","tag":{"amenity":"waste_disposal"}},"type":"Feature"},
	{"geometry":{"coordinates":[60.589536,56.891229],"type":"Point"},"properties":{"osm_id":"1131462227","tag":{"amenity":"waste_disposal"}},"type":"Feature"},
	{"geometry":{"coordinates":[60.584683,56.891413],"type":"Point"},"properties":{"osm_id":"1132772763","tag":{"amenity":"waste_disposal"}},"type":"Feature"},
	{"geometry":{"coordinates":[60.587899,56.893238],"type":"Point"},"properties":{"osm_id":"1132773001","tag":{"amenity":"waste_disposal"}},"type":"Feature"},
	{"geometry":{"coordinates":[60.584124,56.893657],"type":"Point"},"properties":{"osm_id":"1136356507","tag":{"amenity":"waste_disposal"}},"type":"Feature"},
	{"geometry":{"coordinates":[60.583385,56.890424],"type":"Point"},"properties":{"osm_id":"1136357042","tag":{"amenity":"waste_disposal"}},"type":"Feature"},
	{"geometry":{"coordinates":[60.5829,56.892481],"type":"Point"},"properties":{"osm_id":"1136357085","tag":{"amenity":"waste_disposal"}},"type":"Feature"},
	{"geometry":{"coordinates":[60.588767,56.890969],"type":"Point"},"properties":{"osm_id":"1167002618","tag":{"amenity":"waste_disposal"}},"type":"Feature"},
	{"geometry":{"coordinates":[60.587419,56.889219],"type":"Point"},"properties":{"osm_id":"1167002668","tag":{"amenity":"waste_disposal"}},"type":"Feature"},
	{"geometry":{"coordinates":[60.589236,56.888415],"type":"Point"},"properties":{"osm_id":"1167002678","tag":{"amenity":"waste_disposal"}},"type":"Feature"},
	{"geometry":{"coordinates":[60.580302,56.88882],"type":"Point"},"properties":{"osm_id":"1179437825","tag":{"amenity":"waste_disposal"}},"type":"Feature"},
	{"geometry":{"coordinates":[60.58502,56.886939],"type":"Point"},"properties":{"osm_id":"1179437850","tag":{"amenity":"waste_disposal"}},"type":"Feature"},
	{"geometry":{"coordinates":[60.581802,56.888279],"type":"Point"},"properties":{"osm_id":"1179438006","tag":{"amenity":"waste_disposal"}},"type":"Feature"},
	{"geometry":{"coordinates":[60.583063,56.888181],"type":"Point"},"properties":{"osm_id":"1179438073","tag":{"amenity":"waste_disposal"}},"type":"Feature"},
	{"geometry":{"coordinates":[60.583734,56.887488],"type":"Point"},"properties":{"osm_id":"1179438254","tag":{"amenity":"waste_disposal"}},"type":"Feature"},
	{"geometry":{"coordinates":[60.58177,56.887454],"type":"Point"},"properties":{"osm_id":"1179438470","tag":{"amenity":"waste_disposal"}},"type":"Feature"},
	{"geometry":{"coordinates":[60.594953,56.888848],"type":"Point"},"properties":{"osm_id":"1184688499","tag":{"amenity":"waste_disposal"}},"type":"Feature"},
	{"geometry":{"coordinates":[60.595911,56.886884],"type":"Point"},"properties":{"osm_id":"1184688716","tag":{"amenity":"waste_disposal"}},"type":"Feature"},
	{"geometry":{"coordinates":[60.594157,56.887702],"type":"Point"},"properties":{"osm_id":"1184688757","tag":{"amenity":"waste_disposal"}},"type":"Feature"},
	{"geometry":{"coordinates":[60.598179,56.888647],"type":"Point"},"properties":{"osm_id":"1184689010","tag":{"amenity":"waste_disposal"}},"type":"Feature"},
	{"geometry":{"coordinates":[60.595366,56.890726],"type":"Point"},"properties":{"osm_id":"1184689403","tag":{"amenity":"waste_disposal"}},"type":"Feature"},
	{"geometry":{"coordinates":[60.639625,56.896814],"type":"Point"},"properties":{"osm_id":"1231227927","tag":{"amenity":"waste_disposal"}},"type":"Feature"},
	{"geometry":{"coordinates":[60.636751,56.865755],"type":"Point"},"properties":{"osm_id":"1270242066","tag":{"amenity":"waste_disposal"}},"type":"Feature"},
	{"geometry":{"coordinates":[60.637493,56.865656],"type":"Point"},"properties":{"osm_id":"1270242067","tag":{"amenity":"waste_disposal"}},"type":"Feature"},
	{"geometry":{"coordinates":[60.641806,56.866034],"type":"Point"},"properties":{"osm_id":"1270242069","tag":{"amenity":"waste_disposal"}},"type":"Feature"},
	{"geometry":{"coordinates":[60.639045,56.86404],"type":"Point"},"properties":{"osm_id":"1270242077","tag":{"amenity":"waste_disposal"}},"type":"Feature"},
	{"geometry":{"coordinates":[60.634725,56.864109],"type":"Point"},"properties":{"osm_id":"1276856157","tag":{"amenity":"waste_disposal"}},"type":"Feature"},
	{"geometry":{"coordinates":[60.616035,56.883574],"type":"Point"},"properties":{"osm_id":"1394424613","tag":{"amenity":"recycling"}},"type":"Feature"},
	{"geometry":{"coordinates":[60.6102,56.88861],"type":"Point"},"properties":{"osm_id":"1394637234","tag":{"amenity":"waste_disposal","waste":"trash"}},"type":"Feature"},
	{"geometry":{"coordinates":[60.611293,56.889467],"type":"Point"},"properties":{"osm_id":"1394637235","tag":{"amenity":"waste_disposal","waste":"trash"}},"type":"Feature"},
	{"geometry":{"coordinates":[60.629753,56.857066],"type":"Point"},"properties":{"osm_id":"1411813702","tag":{"amenity":"waste_disposal"}},"type":"Feature"},
	{"geometry":{"coordinates":[60.591616,56.890726],"type":"Point"},"properties":{"osm_id":"1426228673","tag":{"amenity":"waste_disposal"}},"type":"Feature"},
	{"geometry":{"coordinates":[60.591928,56.891625],"type":"Point"},"properties":{"osm_id":"1426228865","tag":{"amenity":"waste_disposal"}},"type":"Feature"},
	{"geometry":{"coordinates":[60.615441,56.885988],"type":"Point"},"properties":{"osm_id":"1446809462","tag":{"amenity":"recycling"}},"type":"Feature"},
	{"geometry":{"coordinates":[60.622458,56.891282],"type":"Point"},"properties":{"osm_id":"1455760609","tag":{"amenity":"recycling"}},"type":"Feature"},
	{"geometry":{"coordinates":[60.627151,56.885831],"type":"Point"},"properties":{"osm_id":"1457456725","tag":{"amenity":"waste_disposal"}},"type":"Feature"},
	{"geometry":{"coordinates":[60.627018,56.855905],"type":"Point"},"properties":{"osm_id":"1496015155","tag":{"amenity":"waste_disposal"}},"type":"Feature"},
	{"geometry":{"coordinates":[60.57202,56.883267],"type":"Point"},"properties":{"osm_id":"1502554395","tag":{"amenity":"waste_disposal","waste":"trash"}},"type":"Feature"},
	{"geometry":{"coordinates":[60.576269,56.883792],"type":"Point"},"properties":{"osm_id":"1502554396","tag":{"amenity":"waste_disposal","waste":"trash"}},"type":"Feature"},
	{"geometry":{"coordinates":[60.636016,56.895893],"type":"Point"},"properties":{"osm_id":"1502707591","tag":{"amenity":"waste_disposal"}},"type":"Feature"},
	{"geometry":{"coordinates":[60.63696,56.864074],"type":"Point"},"properties":{"osm_id":"1545397390","tag":{"amenity":"waste_disposal"}},"type":"Feature"},
	{"geometry":{"coordinates":[60.556973,56.88399],"type":"Point"},"properties":{"osm_id":"1627497675","tag":{"amenity":"waste_disposal"}},"type":"Feature"},
	{"geometry":{"coordinates":[60.566513,56.891508],"type":"Point"},"properties":{"osm_id":"1627514196","tag":{"amenity":"waste_disposal"}},"type":"Feature"},
	{"geometry":{"coordinates":[60.583259,56.894895],"type":"Point"},"properties":{"osm_id":"1771673683","tag":{"amenity":"waste_disposal"}},"type":"Feature"},
	{"geometry":{"coordinates":[60.576867,56.895596],"type":"Point"},"properties":{"osm_id":"1771673911","tag":{"amenity":"waste_disposal"}},"type":"Feature"},
	{"geometry":{"coordinates":[60.58012,56.896412],"type":"Point"},"properties":{"osm_id":"1771674145","tag":{"amenity":"waste_disposal"}},"type":"Feature"},
	{"geometry":{"coordinates":[60.612399,56.895144],"type":"Point"},"properties":{"osm_id":"1793622507","tag":{"amenity":"waste_disposal"}},"type":"Feature"},
	{"geometry":{"coordinates":[60.610707,56.89551],"type":"Point"},"properties":{"osm_id":"1793622554","tag":{"amenity":"waste_disposal"}},"type":"Feature"},
	{"geometry":{"coordinates":[60.60835,56.896572],"type":"Point"},"properties":{"osm_id":"1793622811","tag":{"amenity":"waste_disposal"}},"type":"Feature"},
	{"geometry":{"coordinates":[60.631935,56.866691],"type":"Point"},"properties":{"osm_id":"1826919711","tag":{"amenity":"waste_basket"}},"type":"Feature"},
	{"geometry":{"coordinates":[60.58339,56.853627],"type":"Point"},"properties":{"osm_id":"1854236730","tag":{"amenity":"waste_disposal"}},"type":"Feature"},
	{"geometry":{"coordinates":[60.563375,56.869596],"type":"Point"},"properties":{"osm_id":"1856216832","tag":{"amenity":"waste_disposal"}},"type":"Feature"},
	{"geometry":{"coordinates":[60.600762,56.885817],"type":"Point"},"properties":{"osm_id":"1870581782","tag":{"amenity":"waste_disposal","waste":"trash"}},"type":"Feature"},
	{"geometry":{"coordinates":[60.639633,56.8654],"type":"Point"},"properties":{"osm_id":"1935588023","tag":{"amenity":"waste_disposal"}},"type":"Feature"},
	{"geometry":{"coordinates":[60.634094,56.852032],"type":"Point"},"properties":{"osm_id":"2006735505","tag":{"amenity":"waste_disposal"}},"type":"Feature"},
	{"geometry":{"coordinates":[60.591163,56.886935],"type":"Point"},"properties":{"osm_id":"2051366710","tag":{"amenity":"waste_disposal","waste":"trash"}},"type":"Feature"},
	{"geometry":{"coordinates":[60.594509,56.89039],"type":"Point"},"properties":{"osm_id":"2139291418","tag":{"amenity":"waste_disposal","waste":"trash"}},"type":"Feature"},
	{"geometry":{"coordinates":[60.62361,56.859818],"type":"Point"},"properties":{"osm_id":"2141524534","tag":{"amenity":"waste_disposal"}},"type":"Feature"},
	{"geometry":{"coordinates":[60.624608,56.856663],"type":"Point"},"properties":{"osm_id":"2142737352","tag":{"amenity":"waste_disposal"}},"type":"Feature"},
	{"geometry":{"coordinates":[60.630032,56.85013],"type":"Point"},"properties":{"osm_id":"2143420130","tag":{"amenity":"waste_disposal"}},"type":"Feature"},
	{"geometry":{"coordinates":[60.607639,56.894722],"type":"Point"},"properties":{"osm_id":"2244550050","tag":{"amenity":"waste_disposal"}},"type":"Feature"},
	{"geometry":{"coordinates":[60.574761,56.854227],"type":"Point"},"properties":{"osm_id":"2294432996","tag":{"amenity":"waste_basket"}},"type":"Feature"},
	{"geometry":{"coordinates":[60.576156,56.854245],"type":"Point"},"properties":{"osm_id":"2294432998","tag":{"amenity":"waste_basket"}},"type":"Feature"},
	{"geometry":{"coordinates":[60.578463,56.853902],"type":"Point"},"properties":{"osm_id":"2294433010","tag":{"amenity":"waste_basket"}},"type":"Feature"},
	{"geometry":{"coordinates":[60.576084,56.850927],"type":"Point"},"properties":{"osm_id":"2294442801","tag":{"amenity":"waste_basket"}},"type":"Feature"},
	{"geometry":{"coordinates":[60.605248,56.894438],"type":"Point"},"properties":{"osm_id":"2297980292","tag":{"amenity":"waste_disposal"}},"type":"Feature"},
	{"geometry":{"coordinates":[60.612459,56.854525],"type":"Point"},"properties":{"osm_id":"2473164093","tag":{"amenity":"waste_basket"}},"type":"Feature"},
	{"geometry":{"coordinates":[60.608245,56.889208],"type":"Point"},"properties":{"osm_id":"2509501739","tag":{"amenity":"waste_disposal"}},"type":"Feature"},
	{"geometry":{"coordinates":[60.56338,56.857748],"type":"Point"},"properties":{"osm_id":"2607973735","tag":{"access":"yes","entrance":"main"}},"type":"Feature"},
	{"geometry":{"coordinates":[60.60108,56.893445],"type":"Point"},"properties":{"osm_id":"2620216166","tag":{"amenity":"waste_disposal"}},"type":"Feature"},
	{"geometry":{"coordinates":[60.598771,56.893534],"type":"Point"},"properties":{"osm_id":"2620216182","tag":{"amenity":"waste_disposal"}},"type":"Feature"},
	{"geometry":{"coordinates":[60.5999,56.894578],"type":"Point"},"properties":{"osm_id":"2620216298","tag":{"amenity":"waste_disposal"}},"type":"Feature"},
	{"geometry":{"coordinates":[60.605621,56.89231],"type":"Point"},"properties":{"osm_id":"2635455984","tag":{"amenity":"waste_disposal"}},"type":"Feature"},
	{"geometry":{"coordinates":[60.603831,56.893006],"type":"Point"},"properties":{"osm_id":"2635456020","tag":{"amenity":"waste_disposal"}},"type":"Feature"},
	{"geometry":{"coordinates":[60.633869,56.863063],"type":"Point"},"properties":{"osm_id":"2636645500","tag":{"amenity":"waste_basket"}},"type":"Feature"},
	{"geometry":{"coordinates":[60.602354,56.857115],"type":"Point"},"properties":{"osm_id":"2851923865","tag":{"amenity":"waste_disposal"}},"type":"Feature"},
	{"geometry":{"coordinates":[60.60287,56.895266],"type":"Point"},"properties":{"osm_id":"2875397456","tag":{"amenity":"waste_disposal"}},"type":"Feature"},
	{"geometry":{"coordinates":[60.612474,56.852164],"type":"Point"},"properties":{"osm_id":"2921236702","tag":{"amenity":"waste_disposal"}},"type":"Feature"},
	{"geometry":{"coordinates":[60.64045,56.895862],"type":"Point"},"properties":{"osm_id":"3052421333","tag":{"amenity":"waste_basket"}},"type":"Feature"},
	{"geometry":{"coordinates":[60.623709,56.895922],"type":"Point"},"properties":{"osm_id":"3096801925","tag":{"amenity":"waste_disposal"}},"type":"Feature"},
	{"geometry":{"coordinates":[60.620641,56.893632],"type":"Point"},"properties":{"osm_id":"3114228831","tag":{"amenity":"waste_disposal"}},"type":"Feature"},
	{"geometry":{"coordinates":[60.634673,56.863831],"type":"Point"},"properties":{"osm_id":"3151963581","tag":{"amenity":"waste_basket"}},"type":"Feature"},
	{"geometry":{"coordinates":[60.62324,56.894582],"type":"Point"},"properties":{"osm_id":"3182376952","tag":{"amenity":"waste_disposal"}},"type":"Feature"},
	{"geometry":{"coordinates":[60.627413,56.896209],"type":"Point"},"properties":{"osm_id":"3182379073","tag":{"amenity":"waste_disposal"}},"type":"Feature"},
	{"geometry":{"coordinates":[60.617942,56.896831],"type":"Point"},"properties":{"osm_id":"3184113880","tag":{"amenity":"waste_disposal"}},"type":"Feature"},
	{"geometry":{"coordinates":[60.609933,56.893264],"type":"Point"},"properties":{"osm_id":"3263383931","tag":{"amenity":"waste_disposal"}},"type":"Feature"},
	{"geometry":{"coordinates":[60.612591,56.888368],"type":"Point"},"properties":{"osm_id":"3308500778","tag":{"amenity":"waste_basket"}},"type":"Feature"},
	{"geometry":{"coordinates":[60.600089,56.890205],"type":"Point"},"properties":{"osm_id":"3339339637","tag":{"amenity":"recycling"}},"type":"Feature"},
	{"geometry":{"coordinates":[60.600713,56.854729],"type":"Point"},"properties":{"osm_id":"3371887048","tag":{"amenity":"waste_disposal"}},"type":"Feature"},
	{"geometry":{"coordinates":[60.607871,56.893398],"type":"Point"},"properties":{"osm_id":"3478150310","tag":{"amenity":"waste_disposal","location":"overground"}},"type":"Feature"},
	{"geometry":{"coordinates":[60.634522,56.892818],"type":"Point"},"properties":{"osm_id":"3547640954","tag":{"amenity":"waste_disposal"}},"type":"Feature"},
	{"geometry":{"coordinates":[60.633971,56.891336],"type":"Point"},"properties":{"osm_id":"3558507795","tag":{"amenity":"waste_disposal"}},"type":"Feature"},
	{"geometry":{"coordinates":[60.638597,56.893432],"type":"Point"},"properties":{"osm_id":"3763581732","tag":{"amenity":"waste_disposal"}},"type":"Feature"},
	{"geometry":{"coordinates":[60.559681,56.871814],"type":"Point"},"properties":{"osm_id":"3772097740","tag":{"amenity":"waste_disposal"}},"type":"Feature"},
	{"geometry":{"coordinates":[60.557978,56.872227],"type":"Point"},"properties":{"osm_id":"3772097741","tag":{"amenity":"waste_disposal"}},"type":"Feature"},
	{"geometry":{"coordinates":[60.629819,56.896074],"type":"Point"},"properties":{"osm_id":"3832798018","tag":{"amenity":"waste_disposal"}},"type":"Feature"},
	{"geometry":{"coordinates":[60.627473,56.866032],"type":"Point"},"properties":{"osm_id":"3942856757","tag":{"amenity":"waste_basket"}},"type":"Feature"},
	{"geometry":{"coordinates":[60.605419,56.854597],"type":"Point"},"properties":{"osm_id":"4049638065","tag":{"amenity":"waste_disposal"}},"type":"Feature"},
	{"geometry":{"coordinates":[60.569143,56.849008],"type":"Point"},"properties":{"osm_id":"4169566088","tag":{"amenity":"waste_disposal","waste":"trash"}},"type":"Feature"},
	{"geometry":{"coordinates":[60.606969,56.891786],"type":"Point"},"properties":{"osm_id":"4245576371","tag":{"amenity":"waste_disposal","waste":"trash"}},"type":"Feature"},
	{"geometry":{"coordinates":[60.632208,56.886163],"type":"Point"},"properties":{"osm_id":"4369729711","tag":{"amenity":"waste_disposal"}},"type":"Feature"},
	{"geometry":{"coordinates":[60.634114,56.886154],"type":"Point"},"properties":{"osm_id":"4369771143","tag":{"amenity":"waste_disposal"}},"type":"Feature"},
	{"geometry":{"coordinates":[60.589604,56.88631],"type":"Point"},"properties":{"osm_id":"4451326913","tag":{"amenity":"waste_basket"}},"type":"Feature"},
	{"geometry":{"coordinates":[60.589524,56.886337],"type":"Point"},"properties":{"osm_id":"4451326915","tag":{"amenity":"waste_basket"}},"type":"Feature"},
	{"geometry":{"coordinates":[60.589703,56.886376],"type":"Point"},"properties":{"osm_id":"4451326916","tag":{"amenity":"waste_basket"}},"type":"Feature"},
	{"geometry":{"coordinates":[60.589404,56.886382],"type":"Point"},"properties":{"osm_id":"4451326917","tag":{"amenity":"waste_basket"}},"type":"Feature"},
	{"geometry":{"coordinates":[60.589623,56.886403],"type":"Point"},"properties":{"osm_id":"4451326920","tag":{"amenity":"waste_basket"}},"type":"Feature"},
	{"geometry":{"coordinates":[60.589324,56.886409],"type":"Point"},"properties":{"osm_id":"4451326921","tag":{"amenity":"waste_basket"}},"type":"Feature"},
	{"geometry":{"coordinates":[60.589765,56.886417],"type":"Point"},"properties":{"osm_id":"4451326922","tag":{"amenity":"waste_basket"}},"type":"Feature"},
	{"geometry":{"coordinates":[60.589685,56.886444],"type":"Point"},"properties":{"osm_id":"4451326924","tag":{"amenity":"waste_basket"}},"type":"Feature"},
	{"geometry":{"coordinates":[60.589502,56.886448],"type":"Point"},"properties":{"osm_id":"4451326925","tag":{"amenity":"waste_basket"}},"type":"Feature"},
	{"geometry":{"coordinates":[60.589209,56.886459],"type":"Point"},"properties":{"osm_id":"4451326926","tag":{"amenity":"waste_basket"}},"type":"Feature"},
	{"geometry":{"coordinates":[60.589422,56.886475],"type":"Point"},"properties":{"osm_id":"4451326929","tag":{"amenity":"waste_basket"}},"type":"Feature"},
	{"geometry":{"coordinates":[60.589129,56.886486],"type":"Point"},"properties":{"osm_id":"4451326930","tag":{"amenity":"waste_basket"}},"type":"Feature"},
	{"geometry":{"coordinates":[60.589564,56.886489],"type":"Point"},"properties":{"osm_id":"4451326931","tag":{"amenity":"waste_basket"}},"type":"Feature"},
	{"geometry":{"coordinates":[60.589484,56.886516],"type":"Point"},"properties":{"osm_id":"4451326933","tag":{"amenity":"waste_basket"}},"type":"Feature"},
	{"geometry":{"coordinates":[60.589307,56.886525],"type":"Point"},"properties":{"osm_id":"4451326934","tag":{"amenity":"waste_basket"}},"type":"Feature"},
	{"geometry":{"coordinates":[60.589011,56.886536],"type":"Point"},"properties":{"osm_id":"4451326935","tag":{"amenity":"waste_basket"}},"type":"Feature"},
	{"geometry":{"coordinates":[60.589227,56.886552],"type":"Point"},"properties":{"osm_id":"4451326938","tag":{"amenity":"waste_basket"}},"type":"Feature"},
	{"geometry":{"coordinates":[60.588931,56.886563],"type":"Point"},"properties":{"osm_id":"4451326939","tag":{"amenity":"waste_basket"}},"type":"Feature"},
	{"geometry":{"coordinates":[60.589369,56.886566],"type":"Point"},"properties":{"osm_id":"4451326940","tag":{"amenity":"waste_basket"}},"type":"Feature"},
	{"geometry":{"coordinates":[60.589289,56.886593],"type":"Point"},"properties":{"osm_id":"4451326942","tag":{"amenity":"waste_basket"}},"type":"Feature"},
	{"geometry":{"coordinates":[60.589109,56.886602],"type":"Point"},"properties":{"osm_id":"4451326943","tag":{"amenity":"waste_basket"}},"type":"Feature"},
	{"geometry":{"coordinates":[60.588804,56.886617],"type":"Point"},"properties":{"osm_id":"4451326945","tag":{"amenity":"waste_basket"}},"type":"Feature"},
	{"geometry":{"coordinates":[60.589029,56.886629],"type":"Point"},"properties":{"osm_id":"4451326946","tag":{"amenity":"waste_basket"}},"type":"Feature"},
	{"geometry":{"coordinates":[60.589171,56.886643],"type":"Point"},"properties":{"osm_id":"4451326948","tag":{"amenity":"waste_basket"}},"type":"Feature"},
	{"geometry":{"coordinates":[60.588724,56.886644],"type":"Point"},"properties":{"osm_id":"4451326949","tag":{"amenity":"waste_basket"}},"type":"Feature"},
	{"geometry":{"coordinates":[60.589091,56.88667],"type":"Point"},"properties":{"osm_id":"4451326951","tag":{"amenity":"waste_basket"}},"type":"Feature"},
	{"geometry":{"coordinates":[60.588902,56.886683],"type":"Point"},"properties":{"osm_id":"4451326952","tag":{"amenity":"waste_basket"}},"type":"Feature"},
	{"geometry":{"coordinates":[60.588594,56.886703],"type":"Point"},"properties":{"osm_id":"4451326954","tag":{"amenity":"waste_basket"}},"type":"Feature"},
	{"geometry":{"coordinates":[60.588822,56.88671],"type":"Point"},"properties":{"osm_id":"4451326955","tag":{"amenity":"waste_basket"}},"type":"Feature"},
	{"geometry":{"coordinates":[60.588964,56.886724],"type":"Point"},"properties":{"osm_id":"4451326957","tag":{"amenity":"waste_basket"}},"type":"Feature"},
	{"geometry":{"coordinates":[60.588514,56.88673],"type":"Point"},"properties":{"osm_id":"4451326958","tag":{"amenity":"waste_basket"}},"type":"Feature"},
	{"geometry":{"coordinates":[60.588884,56.886751],"type":"Point"},"properties":{"osm_id":"4451326960","tag":{"amenity":"waste_basket"}},"type":"Feature"},
	{"geometry":{"coordinates":[60.588692,56.886768],"type":"Point"},"properties":{"osm_id":"4451326961","tag":{"amenity":"waste_basket"}},"type":"Feature"},
	{"geometry":{"coordinates":[60.588395,56.886782],"type":"Point"},"properties":{"osm_id":"4451326963","tag":{"amenity":"waste_basket"}},"type":"Feature"},
	{"geometry":{"coordinates":[60.588612,56.886796],"type":"Point"},"properties":{"osm_id":"4451326964","tag":{"amenity":"waste_basket"}},"type":"Feature"},
	{"geometry":{"coordinates":[60.588315,56.886809],"type":"Point"},"properties":{"osm_id":"4451326966","tag":{"amenity":"waste_basket"}},"type":"Feature"},
	{"geometry":{"coordinates":[60.588754,56.88681],"type":"Point"},"properties":{"osm_id":"4451326967","tag":{"amenity":"waste_basket"}},"type":"Feature"},
	{"geometry":{"coordinates":[60.588674,56.886837],"type":"Point"},"properties":{"osm_id":"4451326969","tag":{"amenity":"waste_basket"}},"type":"Feature"},
	{"geometry":{"coordinates":[60.588493,56.886848],"type":"Point"},"properties":{"osm_id":"4451326970","tag":{"amenity":"waste_basket"}},"type":"Feature"},
	{"geometry":{"coordinates":[60.588194,56.886858],"type":"Point"},"properties":{"osm_id":"4451326971","tag":{"amenity":"waste_basket"}},"type":"Feature"},
	{"geometry":{"coordinates":[60.588413,56.886875],"type":"Point"},"properties":{"osm_id":"4451326974","tag":{"amenity":"waste_basket"}},"type":"Feature"},
	{"geometry":{"coordinates":[60.588114,56.886885],"type":"Point"},"properties":{"osm_id":"4451326975","tag":{"amenity":"waste_basket"}},"type":"Feature"},
	{"geometry":{"coordinates":[60.588555,56.886889],"type":"Point"},"properties":{"osm_id":"4451326976","tag":{"amenity":"waste_basket"}},"type":"Feature"},
	{"geometry":{"coordinates":[60.588475,56.886916],"type":"Point"},"properties":{"osm_id":"4451326978","tag":{"amenity":"waste_basket"}},"type":"Feature"},
	{"geometry":{"coordinates":[60.588293,56.886923],"type":"Point"},"properties":{"osm_id":"4451326979","tag":{"amenity":"waste_basket"}},"type":"Feature"},
	{"geometry":{"coordinates":[60.587994,56.886939],"type":"Point"},"properties":{"osm_id":"4451326981","tag":{"amenity":"waste_basket"}},"type":"Feature"},
	{"geometry":{"coordinates":[60.588212,56.88695],"type":"Point"},"properties":{"osm_id":"4451326982","tag":{"amenity":"waste_basket"}},"type":"Feature"},
	{"geometry":{"coordinates":[60.588355,56.886965],"type":"Point"},"properties":{"osm_id":"4451326984","tag":{"amenity":"waste_basket"}},"type":"Feature"},
	{"geometry":{"coordinates":[60.587913,56.886966],"type":"Point"},"properties":{"osm_id":"4451326985","tag":{"amenity":"waste_basket"}},"type":"Feature"},
	{"geometry":{"coordinates":[60.588274,56.886992],"type":"Point"},"properties":{"osm_id":"4451326987","tag":{"amenity":"waste_basket"}},"type":"Feature"},
	{"geometry":{"coordinates":[60.588092,56.887004],"type":"Point"},"properties":{"osm_id":"4451326988","tag":{"amenity":"waste_basket"}},"type":"Feature"},
	{"geometry":{"coordinates":[60.5878,56.887018],"type":"Point"},"properties":{"osm_id":"4451327090","tag":{"amenity":"waste_basket"}},"type":"Feature"},
	{"geometry":{"coordinates":[60.588012,56.887031],"type":"Point"},"properties":{"osm_id":"4451327091","tag":{"amenity":"waste_basket"}},"type":"Feature"},
	{"geometry":{"coordinates":[60.58772,56.887045],"type":"Point"},"properties":{"osm_id":"4451327093","tag":{"amenity":"waste_basket"}},"type":"Feature"},
	{"geometry":{"coordinates":[60.588154,56.887046],"type":"Point"},"properties":{"osm_id":"4451327094","tag":{"amenity":"waste_basket"}},"type":"Feature"},
	{"geometry":{"coordinates":[60.588074,56.887073],"type":"Point"},"properties":{"osm_id":"4451327096","tag":{"amenity":"waste_basket"}},"type":"Feature"},
	{"geometry":{"coordinates":[60.587898,56.887084],"type":"Point"},"properties":{"osm_id":"4451327097","tag":{"amenity":"waste_basket"}},"type":"Feature"},
	{"geometry":{"coordinates":[60.587818,56.887111],"type":"Point"},"properties":{"osm_id":"4451327099","tag":{"amenity":"waste_basket"}},"type":"Feature"},
	{"geometry":{"coordinates":[60.58796,56.887125],"type":"Point"},"properties":{"osm_id":"4451327100","tag":{"amenity":"waste_basket"}},"type":"Feature"},
	{"geometry":{"coordinates":[60.58788,56.887152],"type":"Point"},"properties":{"osm_id":"4451327102","tag":{"amenity":"waste_basket"}},"type":"Feature"},
	{"geometry":{"coordinates":[60.620845,56.879589],"type":"Point"},"properties":{"osm_id":"4692441794","tag":{"amenity":"waste_disposal"}},"type":"Feature"},
	{"geometry":{"coordinates":[60.639411,56.855421],"type":"Point"},"properties":{"osm_id":"4891172917","tag":{"amenity":"waste_disposal"}},"type":"Feature"},
	{"geometry":{"coordinates":[60.621247,56.852093],"type":"Point"},"properties":{"osm_id":"5382905820","tag":{"amenity":"waste_disposal"}},"type":"Feature"},
	{"geometry":{"coordinates":[60.641894,56.850373],"type":"Point"},"properties":{"osm_id":"5417963023","tag":{"amenity":"waste_basket"}},"type":"Feature"},
	{"geometry":{"coordinates":[60.641941,56.85035],"type":"Point"},"properties":{"osm_id":"5417963024","tag":{"amenity":"waste_basket"}},"type":"Feature"},
	{"geometry":{"coordinates":[60.642721,56.849546],"type":"Point"},"properties":{"osm_id":"5417963026","tag":{"amenity":"waste_basket"}},"type":"Feature"},
	{"geometry":{"coordinates":[60.610352,56.890945],"type":"Point"},"properties":{"osm_id":"5509221142","tag":{"amenity":"waste_disposal"}},"type":"Feature"},
	{"geometry":{"coordinates":[60.57921,56.889384],"type":"Point"},"properties":{"osm_id":"5554162465","tag":{"amenity":"waste_disposal"}},"type":"Feature"},
	{"geometry":{"coordinates":[60.563554,56.862341],"type":"Point"},"properties":{"osm_id":"5562513823","tag":{"amenity":"waste_disposal"}},"type":"Feature"},
	{"geometry":{"coordinates":[60.640009,56.850663],"type":"Point"},"properties":{"osm_id":"5586898444","tag":{"amenity":"waste_basket"}},"type":"Feature"},
	{"geometry":{"coordinates":[60.639052,56.850204],"type":"Point"},"properties":{"osm_id":"5586898445","tag":{"amenity":"waste_basket"}},"type":"Feature"},
	{"geometry":{"coordinates":[60.627857,56.849424],"type":"Point"},"properties":{"osm_id":"5599947738","tag":{"amenity":"waste_basket"}},"type":"Feature"},
	{"geometry":{"coordinates":[60.621897,56.857683],"type":"Point"},"properties":{"osm_id":"5614762260","tag":{"amenity":"waste_disposal"}},"type":"Feature"},
	{"geometry":{"coordinates":[60.627951,56.858325],"type":"Point"},"properties":{"osm_id":"6000890060","tag":{"amenity":"waste_disposal"}},"type":"Feature"},
	{"geometry":{"coordinates":[60.61176,56.854066],"type":"Point"},"properties":{"osm_id":"6036046967","tag":{"amenity":"waste_disposal"}},"type":"Feature"},
	{"geometry":{"coordinates":[60.568936,56.884575],"type":"Point"},"properties":{"osm_id":"6600449631","tag":{"amenity":"waste_disposal"}},"type":"Feature"},
	{"geometry":{"coordinates":[60.576132,56.887625],"type":"Point"},"properties":{"osm_id":"6600449734","tag":{"amenity":"waste_disposal"}},"type":"Feature"},
	{"geometry":{"coordinates":[60.580369,56.891264],"type":"Point"},"properties":{"osm_id":"6743690274","tag":{"amenity":"waste_disposal"}},"type":"Feature"},
	{"geometry":{"coordinates":[60.585638,56.850691],"type":"Point"},"properties":{"osm_id":"7575213131","tag":{"amenity":"waste_disposal"}},"type":"Feature"},
	{"geometry":{"coordinates":[60.615983,56.849589],"type":"Point"},"properties":{"osm_id":"7637808213","tag":{"amenity":"waste_disposal"}},"type":"Feature"},
	{"geometry":{"coordinates":[60.638035,56.869541],"type":"Point"},"properties":{"name":"\u00d0\u00ad\u00d0\u00ba\u00d0\u00be\u00d1\u0081\u00d0\u00b5\u00d1\u0080\u00d0\u00b2\u00d0\u00b8\u00d1\u0081","osm_id":"7832425119","tag":{"amenity":"waste_disposal","contact:email":"ekoservis2008@rambler.ru","contact:phone":"+7 343 3702028;+7 343 3781044;+7 982 6128508","contact:website":"https://www.ekoservis-ural.ru/","opening_hours":"Mo-Fr 08:00-20:00;Sa-Su 10:00-17:00","operator":"\u00d0\u00ad\u00d0\u00ba\u00d0\u00be\u00d1\u0081\u00d0\u00b5\u00d1\u0080\u00d0\u00b2\u00d0\u00b8\u00d1\u0081"}},"type":"Feature"}
]
}
