{
"type": "FeatureCollection",
"features": [
	{"geometry":{"coordinates":[60.589008,56.794241],"type":"Point"},"properties":{"osm_id":"535226401","tag":{"amenity":"waste_disposal"}},"type":"Feature"},
	{"geometry":{"coordinates":[60.634274,56.79888],"type":"Point"},"properties":{"osm_id":"853429842","tag":{"amenity":"waste_disposal"}},"type":"Feature"},
	{"geometry":{"coordinates":[60.623096,56.795167],"type":"Point"},"properties":{"osm_id":"853429847","tag":{"amenity":"waste_disposal"}},"type":"Feature"},
	{"geometry":{"coordinates":[60.629821,56.788359],"type":"Point"},"properties":{"osm_id":"892783947","tag":{"amenity":"waste_disposal"}},"type":"Feature"},
	{"geometry":{"coordinates":[60.630093,56.793135],"type":"Point"},"properties":{"osm_id":"892783948","tag":{"amenity":"waste_disposal"}},"type":"Feature"},
	{"geometry":{"coordinates":[60.62348,56.793209],"type":"Point"},"properties":{"osm_id":"899067046","tag":{"amenity":"waste_disposal"}},"type":"Feature"},
	{"geometry":{"coordinates":[60.625566,56.793002],"type":"Point"},"properties":{"osm_id":"899101662","tag":{"amenity":"waste_disposal"}},"type":"Feature"},
	{"geometry":{"coordinates":[60.637355,56.781481],"type":"Point"},"properties":{"osm_id":"921342756","tag":{"amenity":"waste_disposal","leisure":"playground"}},"type":"Feature"},
	{"geometry":{"coordinates":[60.639575,56.788522],"type":"Point"},"properties":{"osm_id":"972103825","tag":{"amenity":"waste_disposal"}},"type":"Feature"},
	{"geometry":{"coordinates":[60.584993,56.799792],"type":"Point"},"properties":{"osm_id":"1012035562","tag":{"amenity":"waste_basket"}},"type":"Feature"},
	{"geometry":{"coordinates":[60.578962,56.790304],"type":"Point"},"properties":{"osm_id":"1035969041","tag":{"amenity":"waste_disposal"}},"type":"Feature"},
	{"geometry":{"coordinates":[60.580264,56.790296],"type":"Point"},"properties":{"osm_id":"1035969125","tag":{"amenity":"waste_disposal"}},"type":"Feature"},
	{"geometry":{"coordinates":[60.584653,56.761419],"type":"Point"},"properties":{"osm_id":"1053602617","tag":{"amenity":"waste_disposal"}},"type":"Feature"},
	{"geometry":{"coordinates":[60.584667,56.761078],"type":"Point"},"properties":{"osm_id":"1058327481","tag":{"amenity":"waste_disposal"}},"type":"Feature"},
	{"geometry":{"coordinates":[60.629575,56.794716],"type":"Point"},"properties":{"osm_id":"1154804571","tag":{"amenity":"waste_disposal"}},"type":"Feature"},
	{"geometry":{"coordinates":[60.619896,56.75492],"type":"Point"},"properties":{"osm_id":"1160709189","tag":{"amenity":"waste_disposal"}},"type":"Feature"},
	{"geometry":{"coordinates":[60.576784,56.793241],"type":"Point"},"properties":{"osm_id":"1211917239","tag":{"amenity":"waste_disposal"}},"type":"Feature"},
	{"geometry":{"coordinates":[60.603074,56.763271],"type":"Point"},"properties":{"osm_id":"1300415120","tag":{"amenity":"waste_disposal"}},"type":"Feature"},
	{"geometry":{"coordinates":[60.609796,56.792681],"type":"Point"},"properties":{"osm_id":"1487547178","tag":{"amenity":"waste_disposal"}},"type":"Feature"},
	{"geometry":{"coordinates":[60.608629,56.793521],"type":"Point"},"properties":{"osm_id":"1487547254","tag":{"amenity":"waste_disposal"}},"type":"Feature"},
	{"geometry":{"coordinates":[60.615033,56.798677],"type":"Point"},"properties":{"osm_id":"1487547365","tag":{"amenity":"waste_disposal"}},"type":"Feature"},
	{"geometry":{"coordinates":[60.631249,56.798323],"type":"Point"},"properties":{"osm_id":"1827610429","tag":{"amenity":"waste_basket"}},"type":"Feature"},
	{"geometry":{"coordinates":[60.609683,56.794514],"type":"Point"},"properties":{"osm_id":"1914250572","tag":{"amenity":"recycling"}},"type":"Feature"},
	{"geometry":{"coordinates":[60.580967,56.794093],"type":"Point"},"properties":{"osm_id":"2273834618","tag":{"amenity":"waste_disposal"}},"type":"Feature"},
	{"geometry":{"coordinates":[60.580178,56.794994],"type":"Point"},"properties":{"osm_id":"2291423579","tag":{"amenity":"waste_disposal"}},"type":"Feature"},
	{"geometry":{"coordinates":[60.56171,56.787346],"type":"Point"},"properties":{"osm_id":"2347343496","tag":{"amenity":"waste_basket"}},"type":"Feature"},
	{"geometry":{"coordinates":[60.583234,56.796239],"type":"Point"},"properties":{"osm_id":"2411248892","tag":{"amenity":"waste_disposal"}},"type":"Feature"},
	{"geometry":{"coordinates":[60.578684,56.794649],"type":"Point"},"properties":{"osm_id":"2785928566","tag":{"amenity":"waste_disposal"}},"type":"Feature"},
	{"geometry":{"coordinates":[60.63227,56.794473],"type":"Point"},"properties":{"osm_id":"2845452953","tag":{"amenity":"waste_disposal"}},"type":"Feature"},
	{"geometry":{"coordinates":[60.587915,56.795971],"type":"Point"},"properties":{"osm_id":"2969610335","tag":{"amenity":"waste_disposal"}},"type":"Feature"},
	{"geometry":{"coordinates":[60.637396,56.7971],"type":"Point"},"properties":{"osm_id":"3181452168","tag":{"amenity":"waste_disposal"}},"type":"Feature"},
	{"geometry":{"coordinates":[60.62826,56.798386],"type":"Point"},"properties":{"osm_id":"3187991003","tag":{"amenity":"waste_basket"}},"type":"Feature"},
	{"geometry":{"coordinates":[60.605018,56.784431],"type":"Point"},"properties":{"osm_id":"3566544642","tag":{"amenity":"waste_disposal"}},"type":"Feature"},
	{"geometry":{"coordinates":[60.614866,56.799974],"type":"Point"},"properties":{"osm_id":"3587883595","tag":{"amenity":"waste_basket"}},"type":"Feature"},
	{"geometry":{"coordinates":[60.607467,56.783089],"type":"Point"},"properties":{"osm_id":"3644681394","tag":{"amenity":"waste_disposal"}},"type":"Feature"},
	{"geometry":{"coordinates":[60.56757,56.797285],"type":"Point"},"properties":{"osm_id":"3670165495","tag":{"amenity":"waste_disposal"}},"type":"Feature"},
	{"geometry":{"coordinates":[60.564852,56.79858],"type":"Point"},"properties":{"osm_id":"3670442756","tag":{"amenity":"waste_disposal"}},"type":"Feature"},
	{"geometry":{"coordinates":[60.567577,56.80084],"type":"Point"},"properties":{"osm_id":"3671314140","tag":{"amenity":"waste_disposal"}},"type":"Feature"},
	{"geometry":{"coordinates":[60.6086,56.780604],"type":"Point"},"properties":{"osm_id":"3732516505","tag":{"amenity":"waste_disposal"}},"type":"Feature"},
	{"geometry":{"coordinates":[60.596345,56.774077],"type":"Point"},"properties":{"osm_id":"5942316968","tag":{"amenity":"waste_disposal"}},"type":"Feature"},
	{"geometry":{"coordinates":[60.607698,56.792126],"type":"Point"},"properties":{"osm_id":"6024997964","tag":{"amenity":"waste_disposal"}},"type":"Feature"},
	{"geometry":{"coordinates":[60.581554,56.792714],"type":"Point"},"properties":{"osm_id":"6291514466","tag":{"amenity":"waste_disposal"}},"type":"Feature"},
	{"geometry":{"coordinates":[60.587479,56.789774],"type":"Point"},"properties":{"osm_id":"6291514467","tag":{"amenity":"waste_disposal"}},"type":"Feature"},
	{"geometry":{"coordinates":[60.584112,56.797682],"type":"Point"},"properties":{"osm_id":"6877392585","tag":{"amenity":"waste_disposal"}},"type":"Feature"},
	{"geometry":{"coordinates":[60.589929,56.798973],"type":"Point"},"properties":{"osm_id":"6877462985","tag":{"amenity":"waste_disposal"}},"type":"Feature"},
	{"geometry":{"coordinates":[60.594537,56.796844],"type":"Point"},"properties":{"osm_id":"6877483685","tag":{"amenity":"waste_disposal"}},"type":"Feature"},
	{"geometry":{"coordinates":[60.591283,56.797619],"type":"Point"},"properties":{"osm_id":"6877489685","tag":{"amenity":"waste_disposal"}},"type":"Feature"},
	{"geometry":{"coordinates":[60.560391,56.790762],"type":"Point"},"properties":{"osm_id":"7177532552","tag":{"amenity":"waste_basket","colour":"\u00d0\u00b7\u00d0\u00b5\u00d0\u00bb\u00d0\u00b5\u00d0\u00bd\u00d1\u008b\u00d0\u00b9","material":"concrete"}},"type":"Feature"},
	{"geometry":{"coordinates":[60.558974,56.795217],"type":"Point"},"properties":{"osm_id":"7177532555","tag":{"amenity":"waste_disposal"}},"type":"Feature"},
	{"geometry":{"coordinates":[60.628637,56.791146],"type":"Point"},"properties":{"osm_id":"7598393926","tag":{"amenity":"waste_disposal"}},"type":"Feature"},
	{"geometry":{"coordinates":[60.628192,56.790192],"type":"Point"},"properties":{"osm_id":"7599727349","tag":{"amenity":"waste_disposal"}},"type":"Feature"},
	{"geometry":{"coordinates":[60.570724,56.755582],"type":"Point"},"properties":{"name":"\u00d0\u009b\u00d0\u00b5\u00d0\u00b2","osm_id":"7832365460","tag":{"amenity":"waste_disposal","contact:email":"info@lev-ekb.ru","contact:phone":"+7 343 2196910;+7 902 2668576","contact:website":"https://lev-ekb.ru/","opening_hours":"Mo-Fr 08:00-18:00;Sa 09:00-16:00","operator":"\u00d0\u009e\u00d0\u009e\u00d0\u009e \u00d0\u009b\u00d0\u00b5\u00d0\u00b2"}},"type":"Feature"}
]
}
