{
"type": "FeatureCollection",
"features": [
	{"geometry":{"coordinates":[120.975591,24.794072],"type":"Point"},"properties":{"name":"\u00e5\u00bb\u00ba\u00e8\u008f\u00af\u00e9\u0087\u008c\u00e8\u00b3\u0087\u00e6\u00ba\u0090\u00e5\u009b\u009e\u00e6\u0094\u00b6\u00e5\u00a0\u00b4","osm_id":"1738055593","tag":{"amenity":"recycling","recycling_type":"centre"}},"type":"Feature"},
	{"geometry":{"coordinates":[120.989965,24.810876],"type":"Point"},"properties":{"osm_id":"2661456187","tag":{"amenity":"waste_basket"}},"type":"Feature"},
	{"geometry":{"coordinates":[120.989982,24.811202],"type":"Point"},"properties":{"osm_id":"2661456236","tag":{"amenity":"waste_basket"}},"type":"Feature"},
	{"geometry":{"coordinates":[120.968524,24.796955],"type":"Point"},"properties":{"osm_id":"3776443322","tag":{"amenity":"recycling","recycling_type":"container"}},"type":"Feature"},
	{"geometry":{"coordinates":[121.010722,24.776208],"type":"Point"},"properties":{"osm_id":"4308577524","tag":{"amenity":"waste_basket"}},"type":"Feature"},
	{"geometry":{"coordinates":[120.986908,24.791469],"type":"Point"},"properties":{"osm_id":"4511432825","tag":{"amenity":"waste_basket"}},"type":"Feature"},
	{"geometry":{"coordinates":[120.975169,24.810649],"type":"Point"},"properties":{"osm_id":"4605559296","tag":{"amenity":"waste_disposal"}},"type":"Feature"},
	{"geometry":{"coordinates":[120.992908,24.787909],"type":"Point"},"properties":{"osm_id":"5160627356","tag":{"amenity":"waste_basket"}},"type":"Feature"},
	{"geometry":{"coordinates":[120.967186,24.789338],"type":"Point"},"properties":{"osm_id":"5495346873","tag":{"amenity":"recycling","recycling:clothes":"yes","recycling_type":"container"}},"type":"Feature"},
	{"geometry":{"coordinates":[120.981736,24.785615],"type":"Point"},"properties":{"osm_id":"5841989505","tag":{"amenity":"waste_basket"}},"type":"Feature"},
	{"geometry":{"coordinates":[120.981763,24.786964],"type":"Point"},"properties":{"osm_id":"5841989563","tag":{"amenity":"waste_basket"}},"type":"Feature"},
	{"geometry":{"coordinates":[120.987104,24.792332],"type":"Point"},"properties":{"osm_id":"5842162189","tag":{"amenity":"waste_basket"}},"type":"Feature"}
]
}
