{
"type": "FeatureCollection",
"features": [
	{"geometry":{"coordinates":[120.978342,14.689687],"type":"Point"},"properties":{"name":"Valenzuela City 3S","osm_id":"3503064878","tag":{"amenity":"recycling","recycling_type":"centre"}},"type":"Feature"},
	{"geometry":{"coordinates":[120.965746,14.633856],"type":"Point"},"properties":{"name":"Joseph junkshop","osm_id":"4796397924","tag":{"amenity":"recycling","description":"junkshop","name:en":"Joseph Junkshop"}},"type":"Feature"},
	{"geometry":{"coordinates":[120.954251,14.659464],"type":"Point"},"properties":{"osm_id":"5285072581","tag":{"amenity":"recycling","recycling_type":"centre"}},"type":"Feature"},
	{"geometry":{"coordinates":[121.013602,14.623971],"type":"Point"},"properties":{"osm_id":"6957662999","tag":{"amenity":"waste_basket"}},"type":"Feature"},
	{"geometry":{"coordinates":[120.966314,14.653273],"type":"Point"},"properties":{"name":"A.F. Junkshop","osm_id":"7443837285","tag":{"amenity":"recycling","cuisine":"Max's","description":"junkshop"}},"type":"Feature"},
	{"geometry":{"coordinates":[120.99428,14.66411],"type":"Point"},"properties":{"name":"ABC Junkshop","osm_id":"7443839985","tag":{"amenity":"recycling","description":"junkshop"}},"type":"Feature"},
	{"geometry":{"coordinates":[120.970689,14.641288],"type":"Point"},"properties":{"name":"Allan Junkshop","osm_id":"7443842185","tag":{"amenity":"recycling","description":"junkshop"}},"type":"Feature"},
	{"geometry":{"coordinates":[120.981787,14.641467],"type":"Point"},"properties":{"name":"Badilla Junkshop","osm_id":"7443846485","tag":{"amenity":"recycling","description":"junkshop"}},"type":"Feature"},
	{"geometry":{"coordinates":[120.978738,14.649879],"type":"Point"},"properties":{"name":"Boyet Junkshop","osm_id":"7443850785","tag":{"amenity":"recycling","description":"junkshop"}},"type":"Feature"},
	{"geometry":{"coordinates":[120.97827,14.655858],"type":"Point"},"properties":{"name":"C Plumo Junkshop","osm_id":"7443852985","tag":{"amenity":"recycling","description":"junkshop"}},"type":"Feature"},
	{"geometry":{"coordinates":[120.977306,14.652676],"type":"Point"},"properties":{"name":"Camilao Junkshop","osm_id":"7499832485","tag":{"amenity":"recycling","description":"junkshop"}},"type":"Feature"},
	{"geometry":{"coordinates":[120.979131,14.647636],"type":"Point"},"properties":{"name":"Danilo Junkshop","osm_id":"7499833885","tag":{"amenity":"recycling","description":"junkshop"}},"type":"Feature"},
	{"geometry":{"coordinates":[120.977893,14.650646],"type":"Point"},"properties":{"name":"DKI Junkshop","osm_id":"7499843585","tag":{"amenity":"recycling","cuisine":"Max's"}},"type":"Feature"},
	{"geometry":{"coordinates":[120.996504,14.667162],"type":"Point"},"properties":{"name":"DMG Junkshop","osm_id":"7499844085","tag":{"amenity":"recycling","description":"junkshop"}},"type":"Feature"},
	{"geometry":{"coordinates":[120.970051,14.644392],"type":"Point"},"properties":{"name":"DRD Junkshop","osm_id":"7499845985","tag":{"amenity":"recycling","description":"junkshop"}},"type":"Feature"},
	{"geometry":{"coordinates":[120.987163,14.644469],"type":"Point"},"properties":{"name":"Gem Junkshop","osm_id":"7499845986","tag":{"amenity":"recycling","description":"junkshop"}},"type":"Feature"},
	{"geometry":{"coordinates":[120.975194,14.652849],"type":"Point"},"properties":{"name":"FSR Junkshop","osm_id":"7499846685","tag":{"amenity":"recycling","description":"junkshop"}},"type":"Feature"},
	{"geometry":{"coordinates":[120.977357,14.646934],"type":"Point"},"properties":{"name":"GNT Junkshop","osm_id":"7499852085","tag":{"amenity":"recycling","description":"junkshop"}},"type":"Feature"},
	{"geometry":{"coordinates":[120.995173,14.66768],"type":"Point"},"properties":{"name":"Goody Junkshop","osm_id":"7499852086","tag":{"amenity":"recycling","description":"junkshop"}},"type":"Feature"},
	{"geometry":{"coordinates":[120.983784,14.644425],"type":"Point"},"properties":{"name":"Josefina Junkshop","osm_id":"7499852087","tag":{"amenity":"recycling","description":"junkshop"}},"type":"Feature"},
	{"geometry":{"coordinates":[120.998909,14.66459],"type":"Point"},"properties":{"name":"IDR Junkshop","osm_id":"7499852486","tag":{"amenity":"recycling","description":"junkshop"}},"type":"Feature"},
	{"geometry":{"coordinates":[120.963564,14.649627],"type":"Point"},"properties":{"name":"Letty Junkshop","osm_id":"7499857385","tag":{"amenity":"recycling","description":"junkshop"}},"type":"Feature"},
	{"geometry":{"coordinates":[120.977938,14.646415],"type":"Point"},"properties":{"name":"Ronald Junkshop","osm_id":"7499857486","tag":{"amenity":"recycling","description":"junkshop"}},"type":"Feature"},
	{"geometry":{"coordinates":[120.990678,14.661816],"type":"Point"},"properties":{"name":"RNT Junkshop","osm_id":"7499857487","tag":{"amenity":"recycling","description":"junkshop"}},"type":"Feature"},
	{"geometry":{"coordinates":[120.99151,14.645589],"type":"Point"},"properties":{"name":"M.B. Enterprise","osm_id":"7499857885","tag":{"amenity":"recycling","description":"junkshop"}},"type":"Feature"},
	{"geometry":{"coordinates":[120.980269,14.641989],"type":"Point"},"properties":{"name":"Ogie Junkshop","osm_id":"7499858685","tag":{"amenity":"recycling","description":"junkshop"}},"type":"Feature"},
	{"geometry":{"coordinates":[120.978078,14.651841],"type":"Point"},"properties":{"name":"On Top Junkshop","osm_id":"7499860085","tag":{"amenity":"recycling","description":"junkshop"}},"type":"Feature"},
	{"geometry":{"coordinates":[120.977232,14.653137],"type":"Point"},"properties":{"name":"RL Junkshop","osm_id":"7499860185","tag":{"amenity":"recycling","cuisine":"Max's"}},"type":"Feature"},
	{"geometry":{"coordinates":[120.985194,14.653225],"type":"Point"},"properties":{"name":"Andrei Junkshop","osm_id":"7499860186","tag":{"amenity":"recycling","description":"junkshop"}},"type":"Feature"},
	{"geometry":{"coordinates":[120.981234,14.650085],"type":"Point"},"properties":{"name":"Nate Kyle Junkshop","osm_id":"7499860187","tag":{"amenity":"recycling","description":"junkshop"}},"type":"Feature"},
	{"geometry":{"coordinates":[120.998741,14.667054],"type":"Point"},"properties":{"name":"Ricolie Junkshop","osm_id":"7499862885","tag":{"amenity":"recycling","description":"junkshop"}},"type":"Feature"},
	{"geometry":{"coordinates":[120.979689,14.645918],"type":"Point"},"properties":{"name":"Rudy Go Junkshop","osm_id":"7499864285","tag":{"amenity":"recycling","description":"junkshop"}},"type":"Feature"},
	{"geometry":{"coordinates":[120.986028,14.644978],"type":"Point"},"properties":{"name":"Marick Junkshop","osm_id":"7499870085","tag":{"amenity":"recycling","description":"junkshop"}},"type":"Feature"},
	{"geometry":{"coordinates":[120.993567,14.659213],"type":"Point"},"properties":{"name":"JO Junkshop","osm_id":"7499870086","tag":{"amenity":"recycling","description":"junkshop"}},"type":"Feature"},
	{"geometry":{"coordinates":[120.977265,14.649084],"type":"Point"},"properties":{"name":"Mher Junkshop","osm_id":"7499870685","tag":{"amenity":"recycling","description":"junkshop"}},"type":"Feature"},
	{"geometry":{"coordinates":[120.971819,14.63832],"type":"Point"},"properties":{"name":"NJT Junkshop","osm_id":"7499871685","tag":{"amenity":"recycling","description":"junkshop"}},"type":"Feature"},
	{"geometry":{"coordinates":[120.988483,14.648764],"type":"Point"},"properties":{"name":"Tri M Bottle","osm_id":"7499874585","tag":{"amenity":"recycling","description":"junkshop"}},"type":"Feature"},
	{"geometry":{"coordinates":[120.966498,14.667715],"type":"Point"},"properties":{"name":"IBL Junkshop","osm_id":"7499875485","tag":{"amenity":"recycling","description":"junkshop"}},"type":"Feature"},
	{"geometry":{"coordinates":[120.958832,14.670451],"type":"Point"},"properties":{"name":"Charlie Junkshop","osm_id":"7502422086","tag":{"amenity":"recycling","cuisine":"Max's"}},"type":"Feature"},
	{"geometry":{"coordinates":[120.96369,14.668009],"type":"Point"},"properties":{"name":"Edwin Junkshop","osm_id":"7502422087","tag":{"amenity":"recycling","description":"junkshop"}},"type":"Feature"},
	{"geometry":{"coordinates":[120.957102,14.664642],"type":"Point"},"properties":{"name":"Sion Plastic Scrap JS","osm_id":"7502422088","tag":{"amenity":"recycling","description":"junkshop"}},"type":"Feature"},
	{"geometry":{"coordinates":[120.959913,14.670068],"type":"Point"},"properties":{"name":"Carlo Junkshop","osm_id":"7502441785","tag":{"amenity":"recycling","description":"junkshop"}},"type":"Feature"},
	{"geometry":{"coordinates":[120.941848,14.678173],"type":"Point"},"properties":{"name":"LVG Junkshop","osm_id":"7505119585","tag":{"amenity":"recycling","description":"junkshop"}},"type":"Feature"},
	{"geometry":{"coordinates":[120.940798,14.677772],"type":"Point"},"properties":{"name":"Erio Trading","osm_id":"7505121185","tag":{"amenity":"recycling","description":"junkshop"}},"type":"Feature"},
	{"geometry":{"coordinates":[120.949298,14.665117],"type":"Point"},"properties":{"name":"Diza Trading","osm_id":"7505122385","tag":{"amenity":"recycling","description":"junkshop"}},"type":"Feature"},
	{"geometry":{"coordinates":[120.963859,14.678498],"type":"Point"},"properties":{"name":"BDO Junkshop","osm_id":"7505125585","tag":{"amenity":"recycling","description":"junkshop"}},"type":"Feature"},
	{"geometry":{"coordinates":[120.95209,14.672758],"type":"Point"},"properties":{"name":"Jiongco Junkshop","osm_id":"7505125586","tag":{"amenity":"recycling","description":"junkshop"}},"type":"Feature"},
	{"geometry":{"coordinates":[120.958094,14.685532],"type":"Point"},"properties":{"name":"Danver Junkshop","osm_id":"7505131985","tag":{"amenity":"recycling","description":"junkshop"}},"type":"Feature"},
	{"geometry":{"coordinates":[120.959004,14.683384],"type":"Point"},"properties":{"name":"Sergio Junkshop","osm_id":"7505131986","tag":{"amenity":"recycling","description":"junkshop"}},"type":"Feature"},
	{"geometry":{"coordinates":[120.953871,14.689093],"type":"Point"},"properties":{"name":"TOSBAD Junkshop","osm_id":"7505133185","tag":{"amenity":"recycling","description":"junkshop"}},"type":"Feature"},
	{"geometry":{"coordinates":[121.00161,14.650899],"type":"Point"},"properties":{"name":"Reyan Junkshop","osm_id":"7505137685","tag":{"amenity":"recycling","description":"junkshop","recycling_type":"centre"}},"type":"Feature"},
	{"geometry":{"coordinates":[120.946019,14.660881],"type":"Point"},"properties":{"name":"Jerri Perlas Trading","osm_id":"7505138685","tag":{"amenity":"recycling","description":"junkshop"}},"type":"Feature"},
	{"geometry":{"coordinates":[120.97911,14.657144],"type":"Point"},"properties":{"name":"G. Cusay Junkshop","osm_id":"7505138686","tag":{"amenity":"recycling","description":"junkshop"}},"type":"Feature"},
	{"geometry":{"coordinates":[120.959109,14.663198],"type":"Point"},"properties":{"name":"Nery's Junkshop","osm_id":"7505142185","tag":{"amenity":"recycling","description":"junkshop"}},"type":"Feature"},
	{"geometry":{"coordinates":[120.965935,14.620469],"type":"Point"},"properties":{"name":"Spear Metal Trading","osm_id":"7505142187","tag":{"amenity":"recycling","description":"junkshop"}},"type":"Feature"},
	{"geometry":{"coordinates":[120.965588,14.627122],"type":"Point"},"properties":{"name":"Alfonso Junkshop","osm_id":"7505142289","tag":{"amenity":"recycling","description":"junkshop"}},"type":"Feature"},
	{"geometry":{"coordinates":[120.964007,14.617191],"type":"Point"},"properties":{"name":"Brenda Junkshop","osm_id":"7505146085","tag":{"amenity":"recycling","description":"junkshop"}},"type":"Feature"},
	{"geometry":{"coordinates":[120.96414,14.630135],"type":"Point"},"properties":{"name":"Kamagong Junkshop","osm_id":"7505153885","tag":{"amenity":"recycling","description":"junkshop"}},"type":"Feature"},
	{"geometry":{"coordinates":[120.962194,14.622228],"type":"Point"},"properties":{"name":"B-L Junkshop","osm_id":"7505161385","tag":{"amenity":"recycling","description":"mrf"}},"type":"Feature"},
	{"geometry":{"coordinates":[120.966076,14.616363],"type":"Point"},"properties":{"name":"Charlon Battery and Junkshop","osm_id":"7505161386","tag":{"amenity":"recycling","description":"junkshop"}},"type":"Feature"},
	{"geometry":{"coordinates":[120.96424,14.620182],"type":"Point"},"properties":{"name":"Lora's Junkshop","osm_id":"7505185085","tag":{"amenity":"recycling","description":"junkshop"}},"type":"Feature"},
	{"geometry":{"coordinates":[120.960277,14.620974],"type":"Point"},"properties":{"name":"WYJG Junkshop","osm_id":"7505188185","tag":{"amenity":"recycling","description":"junkshop"}},"type":"Feature"},
	{"geometry":{"coordinates":[120.956858,14.648135],"type":"Point"},"properties":{"name":"Lyn Junkshop","osm_id":"7505194685","tag":{"amenity":"recycling","description":"junkshop"}},"type":"Feature"},
	{"geometry":{"coordinates":[120.968415,14.607077],"type":"Point"},"properties":{"name":"Sinar Metal Trading","osm_id":"7505200485","tag":{"amenity":"recycling","description":"junkshop"}},"type":"Feature"},
	{"geometry":{"coordinates":[120.968567,14.609525],"type":"Point"},"properties":{"name":"Susan Junkshop","osm_id":"7505208885","tag":{"amenity":"recycling","description":"junkshop"}},"type":"Feature"},
	{"geometry":{"coordinates":[120.965013,14.613635],"type":"Point"},"properties":{"name":"RNS Junkshop","osm_id":"7505219685","tag":{"amenity":"recycling","description":"junkshop"}},"type":"Feature"},
	{"geometry":{"coordinates":[120.967921,14.610398],"type":"Point"},"properties":{"name":"XRM Junkshop","osm_id":"7505228485","tag":{"amenity":"recycling","description":"junkshop"}},"type":"Feature"},
	{"geometry":{"coordinates":[120.965935,14.618539],"type":"Point"},"properties":{"name":"Simbling Trading","osm_id":"7505237985","tag":{"amenity":"recycling","description":"junkshop"}},"type":"Feature"},
	{"geometry":{"coordinates":[120.973416,14.626026],"type":"Point"},"properties":{"name":"Melodina Altuban Junkshop","osm_id":"7505258585","tag":{"amenity":"recycling","description":"junkshop"}},"type":"Feature"},
	{"geometry":{"coordinates":[120.972428,14.62292],"type":"Point"},"properties":{"name":"EJS Junkshop","osm_id":"7505268185","tag":{"amenity":"recycling","description":"junkshop"}},"type":"Feature"},
	{"geometry":{"coordinates":[120.977175,14.61766],"type":"Point"},"properties":{"name":"Johann Junkshop","osm_id":"7505280785","tag":{"amenity":"recycling","description":"junkshop"}},"type":"Feature"},
	{"geometry":{"coordinates":[120.977532,14.632522],"type":"Point"},"properties":{"name":"Jinky's Trading","osm_id":"7505286685","tag":{"amenity":"recycling"}},"type":"Feature"},
	{"geometry":{"coordinates":[120.978011,14.616426],"type":"Point"},"properties":{"name":"Kenn Junkshop","osm_id":"7505301385","tag":{"amenity":"recycling","description":"junkshop"}},"type":"Feature"},
	{"geometry":{"coordinates":[120.979446,14.629758],"type":"Point"},"properties":{"name":"A V M Junkshop","osm_id":"7505304086","tag":{"amenity":"recycling","description":"junkshop"}},"type":"Feature"},
	{"geometry":{"coordinates":[120.978874,14.63079],"type":"Point"},"properties":{"name":"Dodong's Junkshop","osm_id":"7505311085","tag":{"amenity":"recycling","description":"junkshop"}},"type":"Feature"},
	{"geometry":{"coordinates":[120.975401,14.612749],"type":"Point"},"properties":{"name":"James Lim Junkshop","osm_id":"7505326086","tag":{"amenity":"recycling","description":"junkshop"}},"type":"Feature"},
	{"geometry":{"coordinates":[120.973186,14.622708],"type":"Point"},"properties":{"name":"Jolli Joven Junkshop","osm_id":"7505332285","tag":{"amenity":"recycling","description":"junkshop"}},"type":"Feature"},
	{"geometry":{"coordinates":[120.973746,14.608498],"type":"Point"},"properties":{"name":"Benito Tan Junkshop","osm_id":"7505343685","tag":{"amenity":"recycling","description":"junkshop"}},"type":"Feature"},
	{"geometry":{"coordinates":[120.977016,14.630422],"type":"Point"},"properties":{"name":"Prados Intl. Trading Corp.","osm_id":"7505350385","tag":{"amenity":"recycling"}},"type":"Feature"},
	{"geometry":{"coordinates":[120.988767,14.618821],"type":"Point"},"properties":{"name":"Alcast Junkshop Co.","osm_id":"7505359285","tag":{"amenity":"recycling","description":"junkshop"}},"type":"Feature"},
	{"geometry":{"coordinates":[120.988867,14.622083],"type":"Point"},"properties":{"name":"APJ Junkshop","osm_id":"7505446785","tag":{"amenity":"recycling","description":"junkshop"}},"type":"Feature"},
	{"geometry":{"coordinates":[120.982451,14.607577],"type":"Point"},"properties":{"name":"RRD Buy and Sell Scrap and Metal","osm_id":"7505446786","tag":{"amenity":"recycling","description":"junkshop"}},"type":"Feature"},
	{"geometry":{"coordinates":[120.982648,14.619017],"type":"Point"},"properties":{"name":"Elmor Junkshop","osm_id":"7505455185","tag":{"amenity":"recycling","description":"junkshop"}},"type":"Feature"},
	{"geometry":{"coordinates":[120.982814,14.629392],"type":"Point"},"properties":{"name":"Kyle Junkshop","osm_id":"7505455186","tag":{"amenity":"recycling","description":"junkshop"}},"type":"Feature"},
	{"geometry":{"coordinates":[120.983324,14.608332],"type":"Point"},"properties":{"name":"Roving Junkshop","osm_id":"7535753785","tag":{"amenity":"recycling","description":"junkshop"}},"type":"Feature"},
	{"geometry":{"coordinates":[120.985512,14.627092],"type":"Point"},"properties":{"name":"Ivy's Junkshop","osm_id":"7535756885","tag":{"amenity":"recycling","description":"junkshop"}},"type":"Feature"},
	{"geometry":{"coordinates":[120.985317,14.612069],"type":"Point"},"properties":{"name":"Seandrei Kennel Junksho","osm_id":"7535756886","tag":{"amenity":"recycling","description":"junkshop"}},"type":"Feature"},
	{"geometry":{"coordinates":[120.980037,14.607834],"type":"Point"},"properties":{"name":"Unity Junkshop","osm_id":"7535756887","tag":{"amenity":"recycling","description":"junkshop"}},"type":"Feature"},
	{"geometry":{"coordinates":[120.984518,14.61561],"type":"Point"},"properties":{"name":"ROV Junkshop","osm_id":"7535756888","tag":{"amenity":"recycling","description":"junkshop"}},"type":"Feature"},
	{"geometry":{"coordinates":[120.983753,14.615072],"type":"Point"},"properties":{"name":"RRDJ Junkshop","osm_id":"7535758285","tag":{"amenity":"recycling","description":"junkshop"}},"type":"Feature"},
	{"geometry":{"coordinates":[120.982681,14.620904],"type":"Point"},"properties":{"name":"New Ang Tok Junkshop","osm_id":"7535760785","tag":{"amenity":"recycling","description":"junkshop"}},"type":"Feature"},
	{"geometry":{"coordinates":[120.980837,14.610757],"type":"Point"},"properties":{"name":"Romeo Gacusan General Merchandise & 2nd Hand Deal","osm_id":"7535768585","tag":{"amenity":"recycling","description":"junkshop"}},"type":"Feature"},
	{"geometry":{"coordinates":[120.981991,14.607929],"type":"Point"},"properties":{"name":"Bigtym Junkshop","osm_id":"7535771285","tag":{"amenity":"recycling","description":"junkshop"}},"type":"Feature"},
	{"geometry":{"coordinates":[120.99206,14.610807],"type":"Point"},"properties":{"name":"Lito Junkshop","osm_id":"7535771286","tag":{"amenity":"recycling","description":"junkshop"}},"type":"Feature"},
	{"geometry":{"coordinates":[120.993519,14.616171],"type":"Point"},"properties":{"name":"ADP Junkshop","osm_id":"7535771287","tag":{"amenity":"recycling","description":"junkshop"}},"type":"Feature"},
	{"geometry":{"coordinates":[120.997774,14.609782],"type":"Point"},"properties":{"name":"Advance R Plus Recycling Co Inc","osm_id":"7535772985","tag":{"amenity":"recycling","description":"junkshop"}},"type":"Feature"},
	{"geometry":{"coordinates":[120.998129,14.609824],"type":"Point"},"properties":{"name":"Berne Junkshop - Branch","osm_id":"7535775786","tag":{"amenity":"recycling","description":"junkshop"}},"type":"Feature"},
	{"geometry":{"coordinates":[120.993458,14.616249],"type":"Point"},"properties":{"name":"Dapitan Junkshop","osm_id":"7535775787","tag":{"amenity":"recycling","description":"junkshop"}},"type":"Feature"},
	{"geometry":{"coordinates":[120.996977,14.613768],"type":"Point"},"properties":{"name":"Marti's Scrap Dealer","osm_id":"7535775788","tag":{"amenity":"recycling","description":"junkshop"}},"type":"Feature"},
	{"geometry":{"coordinates":[120.992065,14.616784],"type":"Point"},"properties":{"name":"QG Junkshop","osm_id":"7535781085","tag":{"amenity":"recycling","description":"junkshop"}},"type":"Feature"},
	{"geometry":{"coordinates":[120.996263,14.610888],"type":"Point"},"properties":{"name":"Berne Junkshop","osm_id":"7535781086","tag":{"amenity":"recycling","description":"junkshop"}},"type":"Feature"},
	{"geometry":{"coordinates":[120.963254,14.622391],"type":"Point"},"properties":{"name":"Duncan Scrap Dealer","osm_id":"7535805685","tag":{"amenity":"recycling","description":"junkshop"}},"type":"Feature"},
	{"geometry":{"coordinates":[120.992006,14.621138],"type":"Point"},"properties":{"name":"Jaymee Junkshop","osm_id":"7535815685","tag":{"amenity":"recycling","description":"junkshop"}},"type":"Feature"},
	{"geometry":{"coordinates":[121.020844,14.668571],"type":"Point"},"properties":{"name":"Idol Rfd.Jr. Junk Shop","osm_id":"7543040386","tag":{"amenity":"recycling","description":"junkshop","recycling_type":"centre"}},"type":"Feature"},
	{"geometry":{"coordinates":[121.021071,14.668398],"type":"Point"},"properties":{"name":"Roxanne Junkshop","osm_id":"7543044185","tag":{"amenity":"recycling","description":"junkshop","recycling_type":"centre"}},"type":"Feature"},
	{"geometry":{"coordinates":[121.024982,14.670314],"type":"Point"},"properties":{"name":"SMB-SHAMBLIN JUNKSHOP","osm_id":"7543058085","tag":{"amenity":"recycling","description":"junkshop","recycling_type":"centre"}},"type":"Feature"},
	{"geometry":{"coordinates":[121.019906,14.668121],"type":"Point"},"properties":{"name":"JC Trading","osm_id":"7543068985","tag":{"amenity":"recycling","description":"junkshop","recycling_type":"centre"}},"type":"Feature"},
	{"geometry":{"coordinates":[121.019091,14.671002],"type":"Point"},"properties":{"name":"RBK JUNKSHOP","osm_id":"7543069685","tag":{"amenity":"recycling","description":"junkshop","recycling_type":"centre"}},"type":"Feature"},
	{"geometry":{"coordinates":[120.995083,14.652745],"type":"Point"},"properties":{"name":"Destiny Junkshop","osm_id":"7543073085","tag":{"amenity":"recycling","description":"junkshop"}},"type":"Feature"},
	{"geometry":{"coordinates":[120.996188,14.650486],"type":"Point"},"properties":{"name":"Cayabyab Junk Shop","osm_id":"7543077885","tag":{"amenity":"recycling","description":"junkshop","recycling_type":"centre"}},"type":"Feature"},
	{"geometry":{"coordinates":[121.018305,14.653885],"type":"Point"},"properties":{"name":"MBGJ's Junk Shop","osm_id":"7543079185","tag":{"amenity":"recycling","description":"junkshop","recycling_type":"centre"}},"type":"Feature"},
	{"geometry":{"coordinates":[121.021726,14.652747],"type":"Point"},"properties":{"name":"G.R. GALORIO JUNKSHOP","osm_id":"7543081286","tag":{"amenity":"recycling","description":"junkshop","recycling_type":"centre"}},"type":"Feature"},
	{"geometry":{"coordinates":[121.020747,14.652232],"type":"Point"},"properties":{"name":"DRD Junk Shop","osm_id":"7543086385","tag":{"amenity":"recycling","description":"junkshop","recycling_type":"centre"}},"type":"Feature"},
	{"geometry":{"coordinates":[121.016337,14.643188],"type":"Point"},"properties":{"name":"VDR Junkshop","osm_id":"7543086386","tag":{"amenity":"recycling","description":"junkshop","recycling_type":"centre"}},"type":"Feature"},
	{"geometry":{"coordinates":[121.024017,14.645266],"type":"Point"},"properties":{"name":"Bolordo's Junkshop","osm_id":"7543086387","tag":{"amenity":"recycling","description":"junkshop","recycling_type":"centre"}},"type":"Feature"},
	{"geometry":{"coordinates":[120.994395,14.634979],"type":"Point"},"properties":{"name":"Uno 818 Junkshop","osm_id":"7543086389","tag":{"amenity":"recycling","description":"junkshop","recycling_type":"centre"}},"type":"Feature"},
	{"geometry":{"coordinates":[121.016808,14.644465],"type":"Point"},"properties":{"name":"MBGS Junk Shop","osm_id":"7543090285","tag":{"amenity":"recycling","description":"junkshop","recycling_type":"centre"}},"type":"Feature"},
	{"geometry":{"coordinates":[120.990881,14.629102],"type":"Point"},"properties":{"name":"Maryam Junk Shop","osm_id":"7543090287","tag":{"amenity":"recycling","description":"junkshop","recycling_type":"centre"}},"type":"Feature"},
	{"geometry":{"coordinates":[120.992201,14.639112],"type":"Point"},"properties":{"name":"Mikaela Junk Shop","osm_id":"7543090288","tag":{"amenity":"recycling","description":"junkshop","recycling_type":"centre"}},"type":"Feature"},
	{"geometry":{"coordinates":[120.998506,14.637207],"type":"Point"},"properties":{"name":"JJL Junk Shop","osm_id":"7543092685","tag":{"amenity":"recycling","description":"junkshop","recycling_type":"centre"}},"type":"Feature"},
	{"geometry":{"coordinates":[121.008844,14.642199],"type":"Point"},"properties":{"name":"Kiel & Ben Junkshop","osm_id":"7543095485","tag":{"amenity":"recycling","description":"junkshop","recycling_type":"centre"}},"type":"Feature"},
	{"geometry":{"coordinates":[120.991465,14.630686],"type":"Point"},"properties":{"name":"Gha Junk Shop","osm_id":"7543095486","tag":{"amenity":"recycling","description":"junkshop","recycling_type":"centre"}},"type":"Feature"},
	{"geometry":{"coordinates":[121.008953,14.64192],"type":"Point"},"properties":{"name":"INDAY QG JUNKSHOP","osm_id":"7543097985","tag":{"amenity":"recycling","description":"junkshop","recycling_type":"centre"}},"type":"Feature"},
	{"geometry":{"coordinates":[121.018457,14.636963],"type":"Point"},"properties":{"name":"MMA Junkshop","osm_id":"7543097987","tag":{"amenity":"recycling","description":"junkshop","recycling_type":"centre"}},"type":"Feature"},
	{"geometry":{"coordinates":[121.017925,14.654846],"type":"Point"},"properties":{"name":"Obias Raymundo Junkshop","osm_id":"7543103485","tag":{"amenity":"recycling","description":"junkshop","recycling_type":"centre"}},"type":"Feature"},
	{"geometry":{"coordinates":[121.020285,14.652642],"type":"Point"},"properties":{"name":"A & R Junk Shop","osm_id":"7543103486","tag":{"amenity":"recycling","description":"junkshop","recycling_type":"centre"}},"type":"Feature"},
	{"geometry":{"coordinates":[121.018569,14.653477],"type":"Point"},"properties":{"name":"GKK ENTERPRISE","osm_id":"7543103487","tag":{"amenity":"recycling","description":"junkshop","recycling_type":"centre"}},"type":"Feature"},
	{"geometry":{"coordinates":[121.014706,14.6536],"type":"Point"},"properties":{"name":"SJM Junkshop","osm_id":"7543107685","tag":{"amenity":"recycling","description":"junkshop","recycling_type":"centre"}},"type":"Feature"},
	{"geometry":{"coordinates":[120.992882,14.642639],"type":"Point"},"properties":{"name":"LDM Junk Shop","osm_id":"7543107686","tag":{"amenity":"recycling","description":"junkshop","recycling_type":"centre"}},"type":"Feature"},
	{"geometry":{"coordinates":[120.992355,14.641625],"type":"Point"},"properties":{"name":"6-J Junkshop","osm_id":"7543107687","tag":{"amenity":"recycling","description":"junkshop","recycling_type":"centre"}},"type":"Feature"},
	{"geometry":{"coordinates":[120.990933,14.641042],"type":"Point"},"properties":{"name":"Venus Junk Shop","osm_id":"7543107688","tag":{"amenity":"recycling","description":"junkshop"}},"type":"Feature"},
	{"geometry":{"coordinates":[120.992942,14.642793],"type":"Point"},"properties":{"name":"ENY ASIAN TRADING","osm_id":"7543108485","tag":{"amenity":"recycling","description":"junkshop","recycling_type":"centre"}},"type":"Feature"},
	{"geometry":{"coordinates":[121.015886,14.63304],"type":"Point"},"properties":{"name":"MMA JUNKSHOP","osm_id":"7543111685","tag":{"amenity":"recycling","description":"junkshop","recycling_type":"centre"}},"type":"Feature"},
	{"geometry":{"coordinates":[121.01375,14.627917],"type":"Point"},"properties":{"name":"Sun Flower Junk Shop","osm_id":"7543116186","tag":{"amenity":"recycling","description":"junkshop","recycling_type":"centre"}},"type":"Feature"},
	{"geometry":{"coordinates":[121.003248,14.633218],"type":"Point"},"properties":{"name":"NG JUNKSHOP","osm_id":"7543116187","tag":{"amenity":"recycling","description":"junkshop","recycling_type":"centre"}},"type":"Feature"},
	{"geometry":{"coordinates":[121.023396,14.685567],"type":"Point"},"properties":{"name":"Tab-U Junk Shop","osm_id":"7543116188","tag":{"amenity":"recycling","description":"junkshop","recycling_type":"centre"}},"type":"Feature"},
	{"geometry":{"coordinates":[121.019685,14.68035],"type":"Point"},"properties":{"name":"JDC Junkshop","osm_id":"7543116189","tag":{"amenity":"recycling","description":"junkshop","recycling_type":"centre"}},"type":"Feature"},
	{"geometry":{"coordinates":[120.998352,14.621473],"type":"Point"},"properties":{"name":"Btym junkshop","osm_id":"7543116285","tag":{"amenity":"recycling","description":"junkshop","recycling_type":"centre"}},"type":"Feature"},
	{"geometry":{"coordinates":[121.012112,14.629941],"type":"Point"},"properties":{"name":"MARISSA B. MALATE JUNKSHOP","osm_id":"7543122485","tag":{"amenity":"recycling","description":"junkshop","recycling_type":"centre"}},"type":"Feature"},
	{"geometry":{"coordinates":[121.013528,14.624732],"type":"Point"},"properties":{"name":"Scorpio Junkshop","osm_id":"7543122487","tag":{"amenity":"recycling","description":"junkshop","recycling_type":"centre"}},"type":"Feature"},
	{"geometry":{"coordinates":[121.01537,14.621406],"type":"Point"},"properties":{"name":"DAN-JEN JUNKSHOP","osm_id":"7543122488","tag":{"amenity":"recycling","description":"junkshop","recycling_type":"centre"}},"type":"Feature"},
	{"geometry":{"coordinates":[121.012934,14.622951],"type":"Point"},"properties":{"name":"Everlasting Junk Shop","osm_id":"7543126185","tag":{"amenity":"recycling","description":"junkshop","recycling_type":"centre"}},"type":"Feature"},
	{"geometry":{"coordinates":[121.02134,14.653062],"type":"Point"},"properties":{"name":"MDCJR JUNKSHOP","osm_id":"7543127885","tag":{"amenity":"recycling","description":"junkshop","recycling_type":"centre"}},"type":"Feature"},
	{"geometry":{"coordinates":[121.007579,14.6607],"type":"Point"},"properties":{"name":"M A Junkshop","osm_id":"7543132485","tag":{"amenity":"recycling","description":"junkshop","recycling_type":"centre"}},"type":"Feature"},
	{"geometry":{"coordinates":[121.010793,14.659166],"type":"Point"},"properties":{"name":"JT junkshop","osm_id":"7543132486","tag":{"amenity":"recycling","description":"junkshop","recycling_type":"centre"}},"type":"Feature"},
	{"geometry":{"coordinates":[121.009495,14.649449],"type":"Point"},"properties":{"name":"2Rr Junk Shop","osm_id":"7543132586","tag":{"amenity":"recycling","description":"junkshop","recycling_type":"centre"}},"type":"Feature"},
	{"geometry":{"coordinates":[121.010708,14.654494],"type":"Point"},"properties":{"name":"Ising Junkshop","osm_id":"7543134485","tag":{"amenity":"recycling","description":"junkshop","recycling_type":"centre"}},"type":"Feature"},
	{"geometry":{"coordinates":[121.007806,14.645591],"type":"Point"},"properties":{"name":"MCN Junk Shop","osm_id":"7543138985","tag":{"amenity":"recycling","description":"junkshop","recycling_type":"centre"}},"type":"Feature"},
	{"geometry":{"coordinates":[121.009977,14.670074],"type":"Point"},"properties":{"name":"Ricolie Junk Shop","osm_id":"7543138986","tag":{"amenity":"recycling","description":"junkshop","recycling_type":"centre"}},"type":"Feature"},
	{"geometry":{"coordinates":[121.010338,14.669788],"type":"Point"},"properties":{"name":"Milboy Junk Shop","osm_id":"7543138987","tag":{"amenity":"recycling","description":"junkshop","recycling_type":"centre"}},"type":"Feature"},
	{"geometry":{"coordinates":[121.010365,14.670561],"type":"Point"},"properties":{"name":"Tintin Junkshop","osm_id":"7543140685","tag":{"amenity":"recycling","description":"junkshop","recycling_type":"centre"}},"type":"Feature"},
	{"geometry":{"coordinates":[121.014606,14.675499],"type":"Point"},"properties":{"name":"Doy Junk Shop","osm_id":"7543143585","tag":{"amenity":"recycling","description":"junkshop","recycling_type":"centre"}},"type":"Feature"},
	{"geometry":{"coordinates":[121.016782,14.67773],"type":"Point"},"properties":{"name":"Cluoie's Junk Shop","osm_id":"7543143586","tag":{"amenity":"recycling","description":"junkshop","recycling_type":"centre"}},"type":"Feature"},
	{"geometry":{"coordinates":[121.016537,14.677827],"type":"Point"},"properties":{"name":"Joreli Junk Shop","osm_id":"7543144185","tag":{"amenity":"recycling","description":"junkshop","recycling_type":"centre"}},"type":"Feature"},
	{"geometry":{"coordinates":[120.998022,14.663896],"type":"Point"},"properties":{"name":"I.D.R. Junkshop","osm_id":"7543151387","tag":{"amenity":"recycling","description":"junkshop"}},"type":"Feature"},
	{"geometry":{"coordinates":[121.001961,14.663167],"type":"Point"},"properties":{"name":"Wen'z Junk Shop","osm_id":"7543153586","tag":{"amenity":"recycling","description":"junkshop","recycling_type":"centre"}},"type":"Feature"},
	{"geometry":{"coordinates":[121.016899,14.619333],"type":"Point"},"properties":{"name":"Jaypoy Junk Shop","osm_id":"7543689486","tag":{"amenity":"recycling","description":"junkshop","recycling_type":"centre"}},"type":"Feature"},
	{"geometry":{"coordinates":[121.020818,14.631875],"type":"Point"},"properties":{"name":"HERMING JUNKSHOP","osm_id":"7543718486","tag":{"amenity":"recycling","description":"junkshop","recycling_type":"centre"}},"type":"Feature"},
	{"geometry":{"coordinates":[121.0124,14.614563],"type":"Point"},"properties":{"name":"SAMANIEGO JUNKSHOP","osm_id":"7543726787","tag":{"amenity":"recycling","description":"junkshop","recycling_type":"centre"}},"type":"Feature"},
	{"geometry":{"coordinates":[121.013472,14.614716],"type":"Point"},"properties":{"name":"Romally Junkshop","osm_id":"7543748185","tag":{"amenity":"recycling","description":"junkshop","recycling_type":"centre"}},"type":"Feature"},
	{"geometry":{"coordinates":[121.012647,14.606535],"type":"Point"},"properties":{"name":"LRC Junk Shop","osm_id":"7543748186","tag":{"amenity":"recycling","description":"junkshop"}},"type":"Feature"},
	{"geometry":{"coordinates":[121.014179,14.615133],"type":"Point"},"properties":{"name":"JLC JUNKSHOP","osm_id":"7543752185","tag":{"amenity":"recycling","description":"junkshop","recycling_type":"centre"}},"type":"Feature"},
	{"geometry":{"coordinates":[121.017122,14.61259],"type":"Point"},"properties":{"name":"Bugoy's Junk Shop","osm_id":"7543756585","tag":{"amenity":"recycling","description":"junkshop","recycling_type":"centre"}},"type":"Feature"},
	{"geometry":{"coordinates":[121.019216,14.677821],"type":"Point"},"properties":{"name":"R-Jay Junk Shop","osm_id":"7543787485","tag":{"amenity":"recycling","description":"junkshop","recycling_type":"centre"}},"type":"Feature"},
	{"geometry":{"coordinates":[121.022645,14.610971],"type":"Point"},"properties":{"name":"I.T TAMBONG JUNKSHOP","osm_id":"7543794987","tag":{"amenity":"recycling","description":"junkshop"}},"type":"Feature"},
	{"geometry":{"coordinates":[121.024474,14.610311],"type":"Point"},"properties":{"name":"ZACATE Junkshop","osm_id":"7543822685","tag":{"amenity":"recycling","description":"junkshop"}},"type":"Feature"},
	{"geometry":{"coordinates":[120.937795,14.671446],"type":"Point"},"properties":{"name":"Gold Rock Junk Shop","osm_id":"7543837285","tag":{"amenity":"recycling","description":"junkshop"}},"type":"Feature"},
	{"geometry":{"coordinates":[120.939458,14.671827],"type":"Point"},"properties":{"name":"Thomas Junk Shop","osm_id":"7543840185","tag":{"amenity":"recycling","description":"junkshop"}},"type":"Feature"},
	{"geometry":{"coordinates":[120.939706,14.671325],"type":"Point"},"properties":{"name":"Blue Harvest Junk Shop","osm_id":"7543840186","tag":{"amenity":"recycling","description":"junkshop"}},"type":"Feature"},
	{"geometry":{"coordinates":[120.94297,14.666663],"type":"Point"},"properties":{"name":"Peping Junk Shop","osm_id":"7543843993","tag":{"amenity":"recycling","description":"junkshop"}},"type":"Feature"},
	{"geometry":{"coordinates":[120.948024,14.655144],"type":"Point"},"properties":{"name":"RSS Junk Shop","osm_id":"7543843994","tag":{"amenity":"recycling","description":"junkshop"}},"type":"Feature"},
	{"geometry":{"coordinates":[120.952553,14.645706],"type":"Point"},"properties":{"name":"Reneva Junk Shop","osm_id":"7543844025","tag":{"amenity":"recycling","description":"junkshop"}},"type":"Feature"},
	{"geometry":{"coordinates":[120.945733,14.662224],"type":"Point"},"properties":{"name":"Save-more Junk Shop & Hauling Services","osm_id":"7543844401","tag":{"amenity":"recycling","description":"junkshop"}},"type":"Feature"},
	{"geometry":{"coordinates":[120.946423,14.660632],"type":"Point"},"properties":{"name":"Prince Junkshop","osm_id":"7543844487","tag":{"amenity":"recycling","description":"junkshop"}},"type":"Feature"},
	{"geometry":{"coordinates":[120.958072,14.651667],"type":"Point"},"properties":{"name":"K5 Junkshop","osm_id":"7543844488","tag":{"amenity":"recycling","description":"junkshop"}},"type":"Feature"},
	{"geometry":{"coordinates":[120.942152,14.669929],"type":"Point"},"properties":{"name":"GB Lachenal Junk Shop Metal Marketing","osm_id":"7543846885","tag":{"amenity":"recycling","description":"junkshop"}},"type":"Feature"},
	{"geometry":{"coordinates":[120.942841,14.669375],"type":"Point"},"properties":{"name":"G.B. Lachenal Junk Shop","osm_id":"7543848985","tag":{"amenity":"recycling","description":"junkshop"}},"type":"Feature"},
	{"geometry":{"coordinates":[120.940361,14.668382],"type":"Point"},"properties":{"name":"Mang Rec Junk Shop","osm_id":"7543852185","tag":{"amenity":"recycling","description":"junkshop"}},"type":"Feature"},
	{"geometry":{"coordinates":[120.94171,14.667577],"type":"Point"},"properties":{"name":"Alma B. Dagatan - Junk Shop","osm_id":"7543853985","tag":{"amenity":"recycling","description":"junkshop"}},"type":"Feature"},
	{"geometry":{"coordinates":[120.954696,14.643504],"type":"Point"},"properties":{"name":"Fers Junk Shop","osm_id":"7543853989","tag":{"amenity":"recycling","description":"junkshop"}},"type":"Feature"},
	{"geometry":{"coordinates":[120.957727,14.64996],"type":"Point"},"properties":{"name":"Jochekris Junk Shop","osm_id":"7543871785","tag":{"amenity":"recycling","description":"junkshop"}},"type":"Feature"},
	{"geometry":{"coordinates":[120.954261,14.647296],"type":"Point"},"properties":{"name":"JCKS Trading Junkshop","osm_id":"7543873985","tag":{"amenity":"recycling","description":"junkshop"}},"type":"Feature"},
	{"geometry":{"coordinates":[120.975388,14.6088],"type":"Point"},"properties":{"name":"Barangay 238 MRF","osm_id":"7546628387","tag":{"amenity":"recycling","description":"mrf"}},"type":"Feature"},
	{"geometry":{"coordinates":[120.960199,14.630198],"type":"Point"},"properties":{"name":"Sambayanan SMP-NPClNC/Raisin Christ Parish Cooperative","osm_id":"7546628491","tag":{"amenity":"recycling","description":"mrf"}},"type":"Feature"},
	{"geometry":{"coordinates":[120.974229,14.610054],"type":"Point"},"properties":{"name":"Barangay 245 MRF","osm_id":"7546679485","tag":{"amenity":"recycling","description":"mrf"}},"type":"Feature"},
	{"geometry":{"coordinates":[120.973697,14.607447],"type":"Point"},"properties":{"name":"Barangay 247 MRF","osm_id":"7546682885","tag":{"amenity":"recycling","description":"mrf"}},"type":"Feature"},
	{"geometry":{"coordinates":[120.974232,14.610065],"type":"Point"},"properties":{"name":"Barangay 245 MRF","osm_id":"7546682886","tag":{"amenity":"recycling","description":"mrf"}},"type":"Feature"},
	{"geometry":{"coordinates":[121.000712,14.614303],"type":"Point"},"properties":{"name":"Barangay 529 MRF","osm_id":"7546691185","tag":{"amenity":"recycling","description":"mrf"}},"type":"Feature"},
	{"geometry":{"coordinates":[120.969002,14.608084],"type":"Point"},"properties":{"name":"Charmed Bliss Trading","osm_id":"7546716985","tag":{"amenity":"recycling","description":"mrf"}},"type":"Feature"},
	{"geometry":{"coordinates":[120.959513,14.632726],"type":"Point"},"properties":{"name":"MRF (located in Bldg 29, smokey Mountain Temporary Housing, R-10 Vitas, Tondo)","osm_id":"7546718817","tag":{"amenity":"recycling","description":"mrf"}},"type":"Feature"},
	{"geometry":{"coordinates":[120.95907,14.621241],"type":"Point"},"properties":{"name":"Barangay 105 MRF","osm_id":"7546729685","tag":{"amenity":"recycling","description":"mrf"}},"type":"Feature"},
	{"geometry":{"coordinates":[120.974821,14.643622],"type":"Point"},"properties":{"name":"Barangay 23, Zone 2, District I MRF","osm_id":"7546766285","tag":{"amenity":"recycling","description":"mrf"}},"type":"Feature"},
	{"geometry":{"coordinates":[120.960895,14.605682],"type":"Point"},"properties":{"name":"Barangay 39, Zone 3, District I MRF","osm_id":"7546772486","tag":{"amenity":"recycling","description":"mrf"}},"type":"Feature"},
	{"geometry":{"coordinates":[120.961814,14.608794],"type":"Point"},"properties":{"name":"Barangay 43, Zone 3, District I","osm_id":"7546781085","tag":{"amenity":"recycling","description":"mrf"}},"type":"Feature"},
	{"geometry":{"coordinates":[120.981998,14.615482],"type":"Point"},"properties":{"name":"Department of Health MRF","osm_id":"7546867085","tag":{"amenity":"recycling","description":"mrf"}},"type":"Feature"},
	{"geometry":{"coordinates":[120.9603,14.626688],"type":"Point"},"properties":{"name":"Vitas reclamation industrial area, Pier 18, Tondo","osm_id":"7546894585","tag":{"amenity":"recycling","description":"mrf"}},"type":"Feature"},
	{"geometry":{"coordinates":[120.951039,14.651937],"type":"Point"},"properties":{"name":"Bagumbayan North MRF","osm_id":"7547042086","tag":{"amenity":"recycling","description":"mrf"}},"type":"Feature"},
	{"geometry":{"coordinates":[120.951836,14.64914],"type":"Point"},"properties":{"name":"Bangculasi MRF","osm_id":"7547053585","tag":{"amenity":"recycling","description":"mrf"}},"type":"Feature"},
	{"geometry":{"coordinates":[120.949324,14.65161],"type":"Point"},"properties":{"name":"Bagumbayan South MRF","osm_id":"7547060285","tag":{"amenity":"recycling","description":"mrf"}},"type":"Feature"},
	{"geometry":{"coordinates":[120.938345,14.66704],"type":"Point"},"properties":{"name":"Daang Hari MRF","osm_id":"7547064785","tag":{"amenity":"recycling","description":"mrf"}},"type":"Feature"},
	{"geometry":{"coordinates":[120.947905,14.653532],"type":"Point"},"properties":{"name":"Navotas West","osm_id":"7547064786","tag":{"amenity":"recycling","description":"mrf"}},"type":"Feature"},
	{"geometry":{"coordinates":[120.949664,14.654155],"type":"Point"},"properties":{"name":"Navotas-East MRF","osm_id":"7547064787","tag":{"amenity":"recycling","description":"mrf"}},"type":"Feature"},
	{"geometry":{"coordinates":[120.952593,14.6417],"type":"Point"},"properties":{"name":"NBBN MRF","osm_id":"7547075785","tag":{"amenity":"recycling","description":"mrf"}},"type":"Feature"},
	{"geometry":{"coordinates":[120.957554,14.644371],"type":"Point"},"properties":{"name":"North Bay Boulevard South MRF","osm_id":"7547081885","tag":{"amenity":"recycling","description":"mrf"}},"type":"Feature"},
	{"geometry":{"coordinates":[120.944632,14.661816],"type":"Point"},"properties":{"name":"San Jose","osm_id":"7547121385","tag":{"amenity":"recycling","description":"mrf"}},"type":"Feature"},
	{"geometry":{"coordinates":[120.965582,14.636065],"type":"Point"},"properties":{"name":"San Rafael Village","osm_id":"7547126585","tag":{"amenity":"recycling","description":"mrf"}},"type":"Feature"},
	{"geometry":{"coordinates":[120.937978,14.669442],"type":"Point"},"properties":{"name":"San Roque MRF","osm_id":"7547129485","tag":{"amenity":"recycling","description":"mrf"}},"type":"Feature"},
	{"geometry":{"coordinates":[120.945428,14.656751],"type":"Point"},"properties":{"name":"Sipac Almacen","osm_id":"7547129486","tag":{"amenity":"recycling","description":"mrf"}},"type":"Feature"},
	{"geometry":{"coordinates":[120.965474,14.653115],"type":"Point"},"properties":{"name":"NBBS Dagat-Dagatan","osm_id":"7547143585","tag":{"amenity":"recycling","description":"mrf"}},"type":"Feature"},
	{"geometry":{"coordinates":[120.951241,14.65167],"type":"Point"},"properties":{"name":"Taganahan St., BBS","osm_id":"7547146485","tag":{"amenity":"recycling","description":"mrf"}},"type":"Feature"},
	{"geometry":{"coordinates":[121.005027,14.644904],"type":"Point"},"properties":{"name":"Manresa MRF","osm_id":"7547167387","tag":{"amenity":"recycling","description":"mrf","recycling_type":"centre"}},"type":"Feature"},
	{"geometry":{"coordinates":[121.011867,14.64036],"type":"Point"},"properties":{"name":"Masambong MRF","osm_id":"7547167686","tag":{"amenity":"recycling","description":"mrf","recycling_type":"centre"}},"type":"Feature"},
	{"geometry":{"coordinates":[121.001879,14.645535],"type":"Point"},"properties":{"name":"Damar MRF","osm_id":"7547168186","tag":{"amenity":"recycling","description":"mrf","recycling_type":"centre"}},"type":"Feature"},
	{"geometry":{"coordinates":[120.994221,14.632003],"type":"Point"},"properties":{"name":"N.S. Amoranto MRF","osm_id":"7547194485","tag":{"amenity":"recycling","description":"mrf","recycling_type":"centre"}},"type":"Feature"},
	{"geometry":{"coordinates":[121.020694,14.660307],"type":"Point"},"properties":{"name":"Ramon Magsaysay MRF","osm_id":"7547231285","tag":{"amenity":"recycling","description":"mrf","recycling_type":"centre"}},"type":"Feature"},
	{"geometry":{"coordinates":[121.019892,14.638112],"type":"Point"},"properties":{"name":"Sta. Cruz MRF","osm_id":"7547236285","tag":{"amenity":"recycling","description":"mrf","recycling_type":"centre"}},"type":"Feature"},
	{"geometry":{"coordinates":[121.007297,14.646057],"type":"Point"},"properties":{"name":"Sto. Domingo MRF","osm_id":"7547250685","tag":{"amenity":"recycling","description":"mrf","recycling_type":"centre"}},"type":"Feature"},
	{"geometry":{"coordinates":[121.011501,14.633286],"type":"Point"},"properties":{"name":"Talayan MRF","osm_id":"7547258385","tag":{"amenity":"recycling","description":"mrf","recycling_type":"centre"}},"type":"Feature"},
	{"geometry":{"coordinates":[121.023898,14.627492],"type":"Point"},"properties":{"name":"Escopa III MRF","osm_id":"7547486385","tag":{"amenity":"recycling","description":"mrf","recycling_type":"centre"}},"type":"Feature"},
	{"geometry":{"coordinates":[121.018372,14.615247],"type":"Point"},"properties":{"name":"Dona Imelda MRF","osm_id":"7547540885","tag":{"amenity":"recycling","description":"mrf","recycling_type":"centre"}},"type":"Feature"},
	{"geometry":{"coordinates":[121.021939,14.631598],"type":"Point"},"properties":{"name":"Paligsahan MRF","osm_id":"7548964085","tag":{"amenity":"recycling","description":"mrf","recycling_type":"centre"}},"type":"Feature"},
	{"geometry":{"coordinates":[121.014981,14.661471],"type":"Point"},"properties":{"name":"Baesa MRF","osm_id":"7549028385","tag":{"amenity":"recycling","description":"mrf","recycling_type":"centre"}},"type":"Feature"},
	{"geometry":{"coordinates":[121.003775,14.665023],"type":"Point"},"properties":{"name":"Balon Bato MRF","osm_id":"7549030785","tag":{"amenity":"recycling","description":"mrf","recycling_type":"centre"}},"type":"Feature"},
	{"geometry":{"coordinates":[121.023355,14.607877],"type":"Point"},"properties":{"name":"Balong Bato MRF","osm_id":"7549155285","tag":{"amenity":"recycling","description":"mrf"}},"type":"Feature"},
	{"geometry":{"coordinates":[121.020853,14.604948],"type":"Point"},"properties":{"name":"Barangay Rivera MRF","osm_id":"7549199686","tag":{"amenity":"recycling","description":"mrf"}},"type":"Feature"},
	{"geometry":{"coordinates":[121.024558,14.610181],"type":"Point"},"properties":{"name":"Salapan MRF","osm_id":"7549200386","tag":{"amenity":"recycling","description":"mrf"}},"type":"Feature"}
]
}
