{
"type": "FeatureCollection",
"features": [
	{"geometry":{"coordinates":[121.012107,14.546653],"type":"Point"},"properties":{"name":"VGM Junkshop","osm_id":"1381245369","tag":{"addr:street":"A. Apolinario","amenity":"recycling","recycling_type":"centre"}},"type":"Feature"},
	{"geometry":{"coordinates":[121.01879,14.585749],"type":"Point"},"properties":{"name":"Callo's Junkshop","osm_id":"3077651785","tag":{"amenity":"recycling","recycling_type":"centre"}},"type":"Feature"},
	{"geometry":{"coordinates":[121.018862,14.58582],"type":"Point"},"properties":{"name":"Nick Junkshop","osm_id":"3077658243","tag":{"amenity":"recycling","recycling_type":"centre"}},"type":"Feature"},
	{"geometry":{"coordinates":[120.986003,14.603524],"type":"Point"},"properties":{"osm_id":"3604376464","tag":{"amenity":"waste_basket"}},"type":"Feature"},
	{"geometry":{"coordinates":[120.987042,14.603837],"type":"Point"},"properties":{"osm_id":"3604376467","tag":{"amenity":"waste_basket"}},"type":"Feature"},
	{"geometry":{"coordinates":[120.986462,14.604176],"type":"Point"},"properties":{"osm_id":"3604376468","tag":{"amenity":"waste_basket"}},"type":"Feature"},
	{"geometry":{"coordinates":[120.996702,14.551168],"type":"Point"},"properties":{"osm_id":"4689763667","tag":{"amenity":"waste_basket"}},"type":"Feature"},
	{"geometry":{"coordinates":[120.982068,14.537643],"type":"Point"},"properties":{"osm_id":"5671967324","tag":{"amenity":"waste_basket"}},"type":"Feature"},
	{"geometry":{"coordinates":[121.006363,14.571422],"type":"Point"},"properties":{"osm_id":"6235303985","tag":{"amenity":"recycling"}},"type":"Feature"},
	{"geometry":{"coordinates":[121.011435,14.539959],"type":"Point"},"properties":{"name":"Cemta Junkshop","osm_id":"7499870687","tag":{"amenity":"recycling","description":"junkshop"}},"type":"Feature"},
	{"geometry":{"coordinates":[121.01214,14.55744],"type":"Point"},"properties":{"name":"J. Victor Scrap Shop","osm_id":"7499875486","tag":{"amenity":"recycling","description":"junkshop"}},"type":"Feature"},
	{"geometry":{"coordinates":[121.017675,14.568955],"type":"Point"},"properties":{"name":"Orodio Junkshop","osm_id":"7499878586","tag":{"amenity":"recycling","description":"junkshop"}},"type":"Feature"},
	{"geometry":{"coordinates":[121.012106,14.553944],"type":"Point"},"properties":{"name":"Em Jay Gen. Mdse.","osm_id":"7499882085","tag":{"amenity":"recycling","description":"junkshop"}},"type":"Feature"},
	{"geometry":{"coordinates":[121.012639,14.554704],"type":"Point"},"properties":{"name":"Altecin Trading","osm_id":"7499882785","tag":{"amenity":"recycling","description":"junkshop"}},"type":"Feature"},
	{"geometry":{"coordinates":[121.003697,14.552031],"type":"Point"},"properties":{"name":"Myrna's Junkshop","osm_id":"7499887585","tag":{"amenity":"recycling","description":"junkshop"}},"type":"Feature"},
	{"geometry":{"coordinates":[121.012602,14.554988],"type":"Point"},"properties":{"name":"Cabrigas Junkshop","osm_id":"7499887586","tag":{"amenity":"recycling","description":"junkshop"}},"type":"Feature"},
	{"geometry":{"coordinates":[121.010648,14.550456],"type":"Point"},"properties":{"name":"W. Chua Junkshop","osm_id":"7499935285","tag":{"amenity":"recycling","description":"junkshop"}},"type":"Feature"},
	{"geometry":{"coordinates":[121.012459,14.552385],"type":"Point"},"properties":{"name":"West California Sales Company","osm_id":"7499943885","tag":{"amenity":"recycling","description":"junkshop"}},"type":"Feature"},
	{"geometry":{"coordinates":[121.012312,14.569842],"type":"Point"},"properties":{"name":"S & R Junkshop","osm_id":"7499944185","tag":{"amenity":"recycling","description":"junkshop"}},"type":"Feature"},
	{"geometry":{"coordinates":[121.020802,14.569002],"type":"Point"},"properties":{"name":"Sintachi Junkshop","osm_id":"7499944785","tag":{"amenity":"recycling","description":"junkshop"}},"type":"Feature"},
	{"geometry":{"coordinates":[121.003396,14.55962],"type":"Point"},"properties":{"name":"Linda Junkshop","osm_id":"7499961185","tag":{"amenity":"recycling","description":"junkshop"}},"type":"Feature"},
	{"geometry":{"coordinates":[121.002655,14.560752],"type":"Point"},"properties":{"name":"Dellosa Junkshop","osm_id":"7499961186","tag":{"amenity":"recycling","description":"junkshop"}},"type":"Feature"},
	{"geometry":{"coordinates":[121.004046,14.560021],"type":"Point"},"properties":{"name":"Selinas Treasure Junkshop","osm_id":"7499961485","tag":{"amenity":"recycling","description":"junkshop"}},"type":"Feature"},
	{"geometry":{"coordinates":[121.008728,14.556737],"type":"Point"},"properties":{"name":"Recuerdo Scrap Dealer","osm_id":"7499961486","tag":{"amenity":"recycling","description":"junkshop"}},"type":"Feature"},
	{"geometry":{"coordinates":[120.966221,14.598002],"type":"Point"},"properties":{"name":"Exodus junkshop","osm_id":"7505142188","tag":{"amenity":"recycling","description":"junkshop"}},"type":"Feature"},
	{"geometry":{"coordinates":[120.989272,14.59543],"type":"Point"},"properties":{"name":"Albert Junkshop","osm_id":"7505368385","tag":{"amenity":"recycling","description":"junkshop"}},"type":"Feature"},
	{"geometry":{"coordinates":[120.985042,14.600751],"type":"Point"},"properties":{"name":"Romeo Angeles Junkshop","osm_id":"7505453785","tag":{"amenity":"recycling","description":"junkshop"}},"type":"Feature"},
	{"geometry":{"coordinates":[120.987405,14.596936],"type":"Point"},"properties":{"name":"Cocha Junkshop","osm_id":"7505460685","tag":{"amenity":"recycling","description":"junkshop"}},"type":"Feature"},
	{"geometry":{"coordinates":[120.96659,14.598814],"type":"Point"},"properties":{"name":"EB Junkshop","osm_id":"7535767485","tag":{"amenity":"recycling","description":"junkshop"}},"type":"Feature"},
	{"geometry":{"coordinates":[120.968123,14.601276],"type":"Point"},"properties":{"name":"Martina Ramos Junkshop","osm_id":"7535769885","tag":{"amenity":"recycling","description":"junkshop"}},"type":"Feature"},
	{"geometry":{"coordinates":[120.967954,14.599651],"type":"Point"},"properties":{"name":"Infinity Eight Trading and Marketing Corp.","osm_id":"7535769886","tag":{"amenity":"recycling","description":"junkshop"}},"type":"Feature"},
	{"geometry":{"coordinates":[120.968916,14.598202],"type":"Point"},"properties":{"name":"E Sosuan MDSG","osm_id":"7535771885","tag":{"amenity":"recycling","description":"junkshop"}},"type":"Feature"},
	{"geometry":{"coordinates":[121.0147,14.602343],"type":"Point"},"properties":{"name":"Nikki Joy Junkshop","osm_id":"7535775789","tag":{"amenity":"recycling","description":"junkshop"}},"type":"Feature"},
	{"geometry":{"coordinates":[121.005904,14.571119],"type":"Point"},"properties":{"name":"ITA Trading","osm_id":"7535815686","tag":{"amenity":"recycling","description":"junkshop"}},"type":"Feature"},
	{"geometry":{"coordinates":[121.001217,14.579003],"type":"Point"},"properties":{"name":"Lorraine Junkshop","osm_id":"7535815687","tag":{"amenity":"recycling","description":"junkshop"}},"type":"Feature"},
	{"geometry":{"coordinates":[121.006889,14.576923],"type":"Point"},"properties":{"name":"Nita's Junkshop","osm_id":"7535827685","tag":{"amenity":"recycling","description":"junkshop"}},"type":"Feature"},
	{"geometry":{"coordinates":[121.001884,14.56765],"type":"Point"},"properties":{"name":"Juno Junkshop","osm_id":"7535827686","tag":{"amenity":"recycling","description":"junkshop"}},"type":"Feature"},
	{"geometry":{"coordinates":[120.99735,14.581453],"type":"Point"},"properties":{"name":"Ellajhay Junkshop","osm_id":"7535837485","tag":{"amenity":"recycling","description":"junkshop"}},"type":"Feature"},
	{"geometry":{"coordinates":[120.997506,14.582663],"type":"Point"},"properties":{"name":"C-Kart Enterprises","osm_id":"7535839185","tag":{"amenity":"recycling","description":"junkshop"}},"type":"Feature"},
	{"geometry":{"coordinates":[121.007065,14.570982],"type":"Point"},"properties":{"name":"Irene Erick Trading","osm_id":"7535839186","tag":{"amenity":"recycling","description":"junkshop"}},"type":"Feature"},
	{"geometry":{"coordinates":[121.007454,14.570596],"type":"Point"},"properties":{"name":"Long Junkshop","osm_id":"7535839187","tag":{"amenity":"recycling","description":"junkshop"}},"type":"Feature"},
	{"geometry":{"coordinates":[120.99312,14.582078],"type":"Point"},"properties":{"name":"Paj Junkshop","osm_id":"7535845685","tag":{"amenity":"recycling","description":"junkshop"}},"type":"Feature"},
	{"geometry":{"coordinates":[121.006623,14.571443],"type":"Point"},"properties":{"name":"Esterlina Junkshop","osm_id":"7535845686","tag":{"amenity":"recycling","description":"junkshop"}},"type":"Feature"},
	{"geometry":{"coordinates":[121.003401,14.566845],"type":"Point"},"properties":{"name":"Lizzly Joy Junkshop","osm_id":"7535845688","tag":{"amenity":"recycling","description":"junkshop"}},"type":"Feature"},
	{"geometry":{"coordinates":[120.982683,14.579151],"type":"Point"},"properties":{"name":"AVR Junkshop","osm_id":"7535845689","tag":{"amenity":"recycling","description":"junkshop"}},"type":"Feature"},
	{"geometry":{"coordinates":[120.997875,14.580772],"type":"Point"},"properties":{"name":"New Yao-Pue Junkshop","osm_id":"7535849285","tag":{"amenity":"recycling","description":"junkshop"}},"type":"Feature"},
	{"geometry":{"coordinates":[120.999867,14.569008],"type":"Point"},"properties":{"name":"Lizzly Joy Junkshop","osm_id":"7535849286","tag":{"amenity":"recycling","description":"junkshop"}},"type":"Feature"},
	{"geometry":{"coordinates":[120.995138,14.578382],"type":"Point"},"properties":{"name":"JB Mond Junkshop","osm_id":"7535856085","tag":{"amenity":"recycling","description":"junkshop"}},"type":"Feature"},
	{"geometry":{"coordinates":[120.968435,14.58978],"type":"Point"},"properties":{"name":"JJN Junkshop","osm_id":"7535856086","tag":{"amenity":"recycling","description":"junkshop"}},"type":"Feature"},
	{"geometry":{"coordinates":[120.97014,14.5888],"type":"Point"},"properties":{"name":"Machado Junkshop","osm_id":"7535856087","tag":{"amenity":"recycling","description":"junkshop"}},"type":"Feature"},
	{"geometry":{"coordinates":[121.001996,14.566684],"type":"Point"},"properties":{"name":"Arts Junkshop","osm_id":"7535879185","tag":{"amenity":"recycling","description":"junkshop"}},"type":"Feature"},
	{"geometry":{"coordinates":[121.005166,14.572433],"type":"Point"},"properties":{"name":"Monzales Junkshop","osm_id":"7535879186","tag":{"amenity":"recycling","description":"junkshop"}},"type":"Feature"},
	{"geometry":{"coordinates":[121.001928,14.566818],"type":"Point"},"properties":{"name":"Medina Junkshop","osm_id":"7535880285","tag":{"amenity":"recycling","description":"junkshop"}},"type":"Feature"},
	{"geometry":{"coordinates":[120.995456,14.579553],"type":"Point"},"properties":{"name":"BM Junkshop","osm_id":"7535881585","tag":{"amenity":"recycling","description":"junkshop"}},"type":"Feature"},
	{"geometry":{"coordinates":[121.007379,14.57069],"type":"Point"},"properties":{"name":"Well-Yo-Mar junkshop","osm_id":"7535890285","tag":{"amenity":"recycling","description":"junkshop"}},"type":"Feature"},
	{"geometry":{"coordinates":[121.001355,14.575995],"type":"Point"},"properties":{"name":"R A Pizzaro junkshop","osm_id":"7535890286","tag":{"amenity":"recycling","description":"junkshop"}},"type":"Feature"},
	{"geometry":{"coordinates":[121.008537,14.578591],"type":"Point"},"properties":{"name":"Rosales General Merchandise","osm_id":"7535890287","tag":{"amenity":"recycling","description":"junkshop","recycling_type":"centre"}},"type":"Feature"},
	{"geometry":{"coordinates":[120.961089,14.591034],"type":"Point"},"properties":{"name":"Alexander Ucag junkshop","osm_id":"7535890288","tag":{"amenity":"recycling","description":"junkshop"}},"type":"Feature"},
	{"geometry":{"coordinates":[120.98995,14.577502],"type":"Point"},"properties":{"name":"Tonet Scrap Trading","osm_id":"7535917486","tag":{"amenity":"recycling","description":"junkshop"}},"type":"Feature"},
	{"geometry":{"coordinates":[121.003912,14.574015],"type":"Point"},"properties":{"name":"Quadro Alas Trading","osm_id":"7535922286","tag":{"amenity":"recycling","description":"junkshop"}},"type":"Feature"},
	{"geometry":{"coordinates":[120.994427,14.572859],"type":"Point"},"properties":{"name":"GTR - Gilbert T. Robles Trading","osm_id":"7535930785","tag":{"amenity":"recycling","description":"junkshop","recycling_type":"centre"}},"type":"Feature"},
	{"geometry":{"coordinates":[121.013973,14.58054],"type":"Point"},"properties":{"name":"JMR Scrap Buyer","osm_id":"7535930786","tag":{"amenity":"recycling","description":"junkshop"}},"type":"Feature"},
	{"geometry":{"coordinates":[121.007953,14.580136],"type":"Point"},"properties":{"osm_id":"7535937685","tag":{"amenity":"recycling","description":"junkshop","operator":"Alejandro Zabal","recycling_type":"centre"}},"type":"Feature"},
	{"geometry":{"coordinates":[121.018786,14.585747],"type":"Point"},"properties":{"name":"Callos Junkshop","osm_id":"7535939285","tag":{"amenity":"recycling","description":"junkshop"}},"type":"Feature"},
	{"geometry":{"coordinates":[121.015846,14.59694],"type":"Point"},"properties":{"name":"Adolfo Junkshop","osm_id":"7535949085","tag":{"amenity":"recycling","description":"junkshop"}},"type":"Feature"},
	{"geometry":{"coordinates":[121.017723,14.600532],"type":"Point"},"properties":{"name":"Ellajhay Junkshop","osm_id":"7535949086","tag":{"amenity":"recycling","description":"junkshop"}},"type":"Feature"},
	{"geometry":{"coordinates":[121.004315,14.592613],"type":"Point"},"properties":{"name":"Jeru Junkshop","osm_id":"7535950685","tag":{"amenity":"recycling","description":"junkshop"}},"type":"Feature"},
	{"geometry":{"coordinates":[121.018861,14.585816],"type":"Point"},"properties":{"name":"Alana Junkshop","osm_id":"7535952385","tag":{"amenity":"recycling","description":"junkshop"}},"type":"Feature"},
	{"geometry":{"coordinates":[121.02359,14.594817],"type":"Point"},"properties":{"name":"Art-Given Junkshop","osm_id":"7535953285","tag":{"amenity":"recycling","description":"junkshop"}},"type":"Feature"},
	{"geometry":{"coordinates":[121.000855,14.575567],"type":"Point"},"properties":{"name":"Diamante Enterprises","osm_id":"7535966185","tag":{"amenity":"recycling","description":"junkshop"}},"type":"Feature"},
	{"geometry":{"coordinates":[121.00356,14.58543],"type":"Point"},"properties":{"name":"Regina l. Morris Junkshop","osm_id":"7535966186","tag":{"amenity":"recycling","description":"junkshop"}},"type":"Feature"},
	{"geometry":{"coordinates":[121.008495,14.580227],"type":"Point"},"properties":{"name":"Alejandra Junkshop","osm_id":"7535966187","tag":{"amenity":"recycling","description":"junkshop"}},"type":"Feature"},
	{"geometry":{"coordinates":[121.002274,14.58304],"type":"Point"},"properties":{"name":"Nick Junkshop & New Panaderos","osm_id":"7535966188","tag":{"amenity":"recycling","description":"junkshop"}},"type":"Feature"},
	{"geometry":{"coordinates":[121.014683,14.598915],"type":"Point"},"properties":{"name":"F Sacor Scrap Buy and Sell","osm_id":"7535968185","tag":{"amenity":"recycling","description":"junkshop"}},"type":"Feature"},
	{"geometry":{"coordinates":[121.00475,14.599997],"type":"Point"},"properties":{"name":"Joven Junkshop","osm_id":"7535974885","tag":{"amenity":"recycling","description":"junkshop"}},"type":"Feature"},
	{"geometry":{"coordinates":[121.02498,14.604082],"type":"Point"},"properties":{"name":"Praxidio Junkshop","osm_id":"7543794985","tag":{"amenity":"recycling","description":"junkshop","recycling_type":"centre"}},"type":"Feature"},
	{"geometry":{"coordinates":[121.02159,14.604205],"type":"Point"},"properties":{"name":"Progreso Barangay Material Recovery Facility","osm_id":"7543799786","tag":{"addr:street":"Katubusan","amenity":"recycling","description":"junkshop"}},"type":"Feature"},
	{"geometry":{"coordinates":[121.020596,14.60197],"type":"Point"},"properties":{"name":"Tarnate Junkshop","osm_id":"7543814185","tag":{"amenity":"recycling","description":"junkshop"}},"type":"Feature"},
	{"geometry":{"coordinates":[121.024884,14.599022],"type":"Point"},"properties":{"name":"Jeare Cana Junkshop","osm_id":"7543817086","tag":{"amenity":"recycling","description":"junkshop","recycling_type":"centre"}},"type":"Feature"},
	{"geometry":{"coordinates":[120.994328,14.594086],"type":"Point"},"properties":{"name":"Malacanang Composting Facility","osm_id":"7546616195","tag":{"amenity":"recycling","recycling:organic":"yes"}},"type":"Feature"},
	{"geometry":{"coordinates":[120.972741,14.590634],"type":"Point"},"properties":{"name":"Earth Care Advocay Cooperative","osm_id":"7546628490","tag":{"amenity":"recycling","description":"MRF and coop associated with Archdiocese of Manila","recycling_type":"centre"}},"type":"Feature"},
	{"geometry":{"coordinates":[120.999832,14.576971],"type":"Point"},"properties":{"name":"Barangay 809 MRS","osm_id":"7546693091","tag":{"amenity":"recycling","description":"mrf"}},"type":"Feature"},
	{"geometry":{"coordinates":[120.958485,14.589919],"type":"Point"},"properties":{"name":"Baseco MRF","osm_id":"7546693092","tag":{"amenity":"recycling","description":"mrf"}},"type":"Feature"},
	{"geometry":{"coordinates":[121.011061,14.597902],"type":"Point"},"properties":{"name":"PUP MRF","osm_id":"7546693093","tag":{"amenity":"recycling","description":"mrf"}},"type":"Feature"},
	{"geometry":{"coordinates":[121.006527,14.577684],"type":"Point"},"properties":{"name":"Margarita R\u00c3\u00b3xas de Ayala Elementary School MRS","osm_id":"7546693190","tag":{"amenity":"recycling","description":"mrf"}},"type":"Feature"},
	{"geometry":{"coordinates":[121.012779,14.587945],"type":"Point"},"properties":{"name":"Barangay 898 MRF","osm_id":"7546693287","tag":{"amenity":"recycling","description":"mrf"}},"type":"Feature"},
	{"geometry":{"coordinates":[121.01443,14.596333],"type":"Point"},"properties":{"name":"Tzu Chi Foundation MRS","osm_id":"7546701887","tag":{"amenity":"recycling","description":"mrf"}},"type":"Feature"},
	{"geometry":{"coordinates":[120.993028,14.581342],"type":"Point"},"properties":{"name":"Justo Lukban Elementary School MRS","osm_id":"7546701888","tag":{"amenity":"recycling","description":"mrf"}},"type":"Feature"},
	{"geometry":{"coordinates":[120.996313,14.582474],"type":"Point"},"properties":{"name":"Dr. Celedonio A. Salvador Elementary School MRS","osm_id":"7546701889","tag":{"amenity":"recycling","description":"mrf"}},"type":"Feature"},
	{"geometry":{"coordinates":[120.968268,14.593748],"type":"Point"},"properties":{"name":"Port Area MRF","osm_id":"7546714385","tag":{"amenity":"recycling","description":"mrf"}},"type":"Feature"},
	{"geometry":{"coordinates":[120.978267,14.57968],"type":"Point"},"properties":{"name":"MRF (located in Victoria Building)","osm_id":"7546714386","tag":{"amenity":"recycling","description":"mrf"}},"type":"Feature"},
	{"geometry":{"coordinates":[120.986084,14.58634],"type":"Point"},"properties":{"name":"Adamson University MRF","osm_id":"7546719185","tag":{"amenity":"recycling","description":"mrf"}},"type":"Feature"},
	{"geometry":{"coordinates":[120.954231,14.598776],"type":"Point"},"properties":{"name":"Barangay 20, Zone 2, District I MRF","osm_id":"7546746585","tag":{"amenity":"recycling","description":"mrf"}},"type":"Feature"},
	{"geometry":{"coordinates":[120.959249,14.598062],"type":"Point"},"properties":{"name":"Barangay 275, Zone 25, District III MRF","osm_id":"7546770585","tag":{"amenity":"recycling","description":"mrf"}},"type":"Feature"},
	{"geometry":{"coordinates":[121.020422,14.600372],"type":"Point"},"properties":{"name":"Barangay 598 MRF (UNDP-MMDA Project)","osm_id":"7546788985","tag":{"amenity":"recycling","description":"mrf"}},"type":"Feature"},
	{"geometry":{"coordinates":[121.006552,14.599648],"type":"Point"},"properties":{"name":"Barangay 628 MRF","osm_id":"7546791785","tag":{"amenity":"recycling","description":"mrf"}},"type":"Feature"},
	{"geometry":{"coordinates":[121.010197,14.60009],"type":"Point"},"properties":{"name":"Barangay 630 MRF","osm_id":"7546791786","tag":{"amenity":"recycling","description":"mrf"}},"type":"Feature"},
	{"geometry":{"coordinates":[120.995921,14.596939],"type":"Point"},"properties":{"name":"Barangay 639 MRF","osm_id":"7546808185","tag":{"amenity":"recycling","description":"mrf"}},"type":"Feature"},
	{"geometry":{"coordinates":[120.996219,14.59003],"type":"Point"},"properties":{"name":"Barangay 829, Zone 90, District IV MRF","osm_id":"7546818285","tag":{"amenity":"recycling","description":"mrf"}},"type":"Feature"},
	{"geometry":{"coordinates":[121.000865,14.592045],"type":"Point"},"properties":{"name":"Barangay 832, Zone 90, District VI MRF","osm_id":"7546818286","tag":{"amenity":"recycling","description":"mrf"}},"type":"Feature"},
	{"geometry":{"coordinates":[120.997729,14.591898],"type":"Point"},"properties":{"name":"Barangay 830, Zone 90, District VI MRF","osm_id":"7546820685","tag":{"amenity":"recycling","description":"mrf"}},"type":"Feature"},
	{"geometry":{"coordinates":[120.999695,14.589385],"type":"Point"},"properties":{"name":"Barangay 831, Zone 90, District VI MRF","osm_id":"7546820686","tag":{"amenity":"recycling","description":"mrf"}},"type":"Feature"},
	{"geometry":{"coordinates":[121.004387,14.593522],"type":"Point"},"properties":{"name":"Barangay 834, Zone 91, District VI MRF","osm_id":"7546828185","tag":{"amenity":"recycling","description":"junkshop"}},"type":"Feature"},
	{"geometry":{"coordinates":[121.006818,14.590956],"type":"Point"},"properties":{"name":"Barangay 835, Zone 91, District VI MRF","osm_id":"7546831885","tag":{"amenity":"recycling","description":"mrf"}},"type":"Feature"},
	{"geometry":{"coordinates":[121.010251,14.592789],"type":"Point"},"properties":{"name":"Barangay 836 MRF","osm_id":"7546831886","tag":{"amenity":"recycling","description":"mrf"}},"type":"Feature"},
	{"geometry":{"coordinates":[121.008346,14.588402],"type":"Point"},"properties":{"name":"Barangay 865 MRF","osm_id":"7546840085","tag":{"amenity":"recycling","description":"mrf"}},"type":"Feature"},
	{"geometry":{"coordinates":[121.013744,14.582811],"type":"Point"},"properties":{"name":"Santa Ana MRF","osm_id":"7546840086","tag":{"amenity":"recycling","description":"mrf"}},"type":"Feature"},
	{"geometry":{"coordinates":[120.994684,14.597955],"type":"Point"},"properties":{"name":"College of the Holy Spirit Manila MRF","osm_id":"7546840087","tag":{"amenity":"recycling","description":"mrf"}},"type":"Feature"},
	{"geometry":{"coordinates":[120.989301,14.592342],"type":"Point"},"properties":{"name":"Department of Budget and Management MRF","osm_id":"7546840088","tag":{"amenity":"recycling","description":"mrf"}},"type":"Feature"},
	{"geometry":{"coordinates":[120.999757,14.586154],"type":"Point"},"properties":{"name":"Bagong Barangay MRF","osm_id":"7546849685","tag":{"amenity":"recycling","description":"mrf"}},"type":"Feature"},
	{"geometry":{"coordinates":[120.982502,14.582924],"type":"Point"},"properties":{"name":"Department of Tourism MRF","osm_id":"7546852486","tag":{"amenity":"recycling","description":"mrf"}},"type":"Feature"},
	{"geometry":{"coordinates":[120.983317,14.579811],"type":"Point"},"properties":{"name":"Department of Justice","osm_id":"7546867086","tag":{"amenity":"recycling","description":"mrf"}},"type":"Feature"},
	{"geometry":{"coordinates":[120.977827,14.587013],"type":"Point"},"properties":{"name":"Department of Labor and Employment MRF","osm_id":"7546867087","tag":{"amenity":"recycling","description":"mrf"}},"type":"Feature"},
	{"geometry":{"coordinates":[121.004142,14.594359],"type":"Point"},"properties":{"name":"Pandakan MRF, 833, Zone 10, District VI, Pandacan","osm_id":"7546876586","tag":{"amenity":"recycling","description":"mrf"}},"type":"Feature"},
	{"geometry":{"coordinates":[121.002562,14.57839],"type":"Point"},"properties":{"name":"F. Guerrero Elementary School MRF","osm_id":"7546877685","tag":{"amenity":"recycling","description":"mrf"}},"type":"Feature"},
	{"geometry":{"coordinates":[121.005895,14.587443],"type":"Point"},"properties":{"name":"MRF (located in Laura St., cor Carrion St. Nagtahan Link)","osm_id":"7546882385","tag":{"amenity":"recycling","description":"mrf"}},"type":"Feature"},
	{"geometry":{"coordinates":[121.012344,14.582157],"type":"Point"},"properties":{"name":"Barangay 879 MRF","osm_id":"7546921185","tag":{"amenity":"recycling","description":"mrf"}},"type":"Feature"},
	{"geometry":{"coordinates":[121.024435,14.599227],"type":"Point"},"properties":{"name":"Batis MRF","osm_id":"7549150885","tag":{"amenity":"recycling","description":"mrf"}},"type":"Feature"},
	{"geometry":{"coordinates":[121.02295,14.603968],"type":"Point"},"properties":{"name":"San Perfecto Material Recovery Facility","osm_id":"7549199687","tag":{"addr:street":"San Perfecto","amenity":"recycling","description":"mrf"}},"type":"Feature"}
]
}
