{
"type": "FeatureCollection",
"features": [
	{"geometry":{"coordinates":[121.001537,14.287292],"type":"Point"},"properties":{"osm_id":"1464727691","tag":{"amenity":"recycling","recycling_type":"centre"}},"type":"Feature"},
	{"geometry":{"coordinates":[120.954465,14.299757],"type":"Point"},"properties":{"osm_id":"5251246039","tag":{"amenity":"waste_basket","waste":"trash"}},"type":"Feature"},
	{"geometry":{"coordinates":[120.954163,14.300443],"type":"Point"},"properties":{"osm_id":"5251246043","tag":{"amenity":"waste_basket","waste":"trash"}},"type":"Feature"},
	{"geometry":{"coordinates":[120.957771,14.300117],"type":"Point"},"properties":{"name":"Trash to Cash - Recycling Center","osm_id":"5255264655","tag":{"addr:city":"Dasmari\u00f1as","addr:postcode":"4114","amenity":"recycling","recycling:cans":"yes","recycling:newspaper":"yes","recycling:paper":"yes","recycling:plastic_bottles":"yes","recycling_type":"centre","service_times":"Fr[1] 07:00-14:00","smoking":"no"}},"type":"Feature"},
	{"geometry":{"coordinates":[120.969374,14.277523],"type":"Point"},"properties":{"osm_id":"5395851840","tag":{"amenity":"waste_basket"}},"type":"Feature"},
	{"geometry":{"coordinates":[120.968045,14.278153],"type":"Point"},"properties":{"osm_id":"5517830024","tag":{"amenity":"waste_basket"}},"type":"Feature"},
	{"geometry":{"coordinates":[120.973307,14.278753],"type":"Point"},"properties":{"osm_id":"5517830025","tag":{"amenity":"waste_basket","collection_times":"Th 13:00-14:00"}},"type":"Feature"},
	{"geometry":{"coordinates":[120.97328,14.278631],"type":"Point"},"properties":{"osm_id":"6082505931","tag":{"amenity":"waste_basket","collection_times":"Fr 06:00-08:30"}},"type":"Feature"},
	{"geometry":{"coordinates":[120.956704,14.300868],"type":"Point"},"properties":{"osm_id":"6100901131","tag":{"amenity":"waste_basket","level":"0"}},"type":"Feature"},
	{"geometry":{"coordinates":[120.956478,14.301024],"type":"Point"},"properties":{"osm_id":"6100901132","tag":{"amenity":"waste_basket","level":"0"}},"type":"Feature"}
]
}
