{
"type": "FeatureCollection",
"features": [
	{"geometry":{"coordinates":[-9.378636,39.357799],"type":"Point"},"properties":{"osm_id":"452000153","tag":{"amenity":"recycling"}},"type":"Feature"},
	{"geometry":{"coordinates":[-9.378575,39.356264],"type":"Point"},"properties":{"osm_id":"691223932","tag":{"amenity":"recycling","recycling:cans":"yes","recycling:glass":"yes","recycling:paper":"yes"}},"type":"Feature"},
	{"geometry":{"coordinates":[-9.337088,39.3657],"type":"Point"},"properties":{"osm_id":"1520857184","tag":{"amenity":"recycling"}},"type":"Feature"},
	{"geometry":{"coordinates":[-9.358058,39.324465],"type":"Point"},"properties":{"osm_id":"1676802843","tag":{"amenity":"recycling","recycling_type":"container"}},"type":"Feature"},
	{"geometry":{"coordinates":[-9.403971,39.3593],"type":"Point"},"properties":{"name":"ETAR","osm_id":"2226215662","tag":{"amenity":"recycling"}},"type":"Feature"},
	{"geometry":{"coordinates":[-9.377309,39.367887],"type":"Point"},"properties":{"osm_id":"5329658498","tag":{"amenity":"recycling","recycling_type":"container"}},"type":"Feature"},
	{"geometry":{"coordinates":[-9.379433,39.353665],"type":"Point"},"properties":{"osm_id":"5439527421","tag":{"amenity":"waste_basket"}},"type":"Feature"},
	{"geometry":{"coordinates":[-9.391865,39.36546],"type":"Point"},"properties":{"osm_id":"7244747643","tag":{"amenity":"recycling","recycling:glass":"yes","recycling_type":"container"}},"type":"Feature"},
	{"geometry":{"coordinates":[-9.391879,39.365426],"type":"Point"},"properties":{"osm_id":"7244747644","tag":{"amenity":"recycling","recycling:paper":"yes","recycling_type":"container"}},"type":"Feature"},
	{"geometry":{"coordinates":[-9.391895,39.365386],"type":"Point"},"properties":{"osm_id":"7244747645","tag":{"amenity":"recycling","recycling:plastic":"yes","recycling_type":"container"}},"type":"Feature"},
	{"geometry":{"coordinates":[-9.391907,39.365357],"type":"Point"},"properties":{"osm_id":"7244747646","tag":{"amenity":"waste_disposal"}},"type":"Feature"},
	{"geometry":{"coordinates":[-9.385497,39.365673],"type":"Point"},"properties":{"osm_id":"7244773914","tag":{"amenity":"recycling","recycling:glass_bottles":"yes","recycling:paper":"yes","recycling:plastic":"yes","recycling_type":"container"}},"type":"Feature"},
	{"geometry":{"coordinates":[-9.385466,39.365649],"type":"Point"},"properties":{"osm_id":"7244773915","tag":{"amenity":"waste_disposal"}},"type":"Feature"}
]
}
