{
"type": "FeatureCollection",
"features": [
	{"geometry":{"coordinates":[-9.352494,38.685194],"type":"Point"},"properties":{"osm_id":"321592247","tag":{"amenity":"recycling","image":"https://storage8.openstreetcam.org/files/photo/2018/7/25/lth/1270773_6_15ea1_16.jpg","location":"underground","recycling_type":"container","survey:date":"2018-07-25"}},"type":"Feature"},
	{"geometry":{"coordinates":[-9.342792,38.684015],"type":"Point"},"properties":{"osm_id":"1583787230","tag":{"amenity":"recycling","mapillary":"VCmvuxlnrWshh3N9mb26Cw","recycling:cans":"yes","recycling:glass_bottles":"yes","recycling:paper":"yes","recycling:plastic":"yes","recycling_type":"container","survey:date":"2019-06-08"}},"type":"Feature"},
	{"geometry":{"coordinates":[-9.340732,38.682828],"type":"Point"},"properties":{"osm_id":"1587127477","tag":{"amenity":"recycling","location":"overground","recycling_type":"container"}},"type":"Feature"},
	{"geometry":{"coordinates":[-9.33874,38.683028],"type":"Point"},"properties":{"osm_id":"4095600339","tag":{"amenity":"waste_basket"}},"type":"Feature"},
	{"geometry":{"coordinates":[-9.338206,38.685316],"type":"Point"},"properties":{"osm_id":"4095600345","tag":{"amenity":"waste_basket"}},"type":"Feature"},
	{"geometry":{"coordinates":[-9.339218,38.681166],"type":"Point"},"properties":{"osm_id":"4150870089","tag":{"amenity":"waste_basket"}},"type":"Feature"},
	{"geometry":{"coordinates":[-9.339308,38.681182],"type":"Point"},"properties":{"osm_id":"4150870090","tag":{"amenity":"waste_basket"}},"type":"Feature"},
	{"geometry":{"coordinates":[-9.340758,38.681537],"type":"Point"},"properties":{"osm_id":"4150870091","tag":{"amenity":"waste_basket"}},"type":"Feature"},
	{"geometry":{"coordinates":[-9.341414,38.681792],"type":"Point"},"properties":{"osm_id":"4150870092","tag":{"amenity":"waste_basket"}},"type":"Feature"},
	{"geometry":{"coordinates":[-9.342428,38.681853],"type":"Point"},"properties":{"osm_id":"4150870093","tag":{"amenity":"waste_basket"}},"type":"Feature"},
	{"geometry":{"coordinates":[-9.327644,38.676625],"type":"Point"},"properties":{"osm_id":"6208253387","tag":{"amenity":"waste_basket"}},"type":"Feature"}
]
}
