{
"type": "FeatureCollection",
"features": [
	{"geometry":{"coordinates":[-9.397434,6.932027],"type":"Point"},"properties":{"osm_id":"5037157978","tag":{"addr:city":"Gbarnga","amenity":"waste_disposal","waste":"trash"}},"type":"Feature"},
	{"geometry":{"coordinates":[-9.372952,6.937664],"type":"Point"},"properties":{"osm_id":"5037157979","tag":{"addr:city":"Gbarnga","amenity":"waste_disposal","waste":"trash"}},"type":"Feature"},
	{"geometry":{"coordinates":[-9.37395,6.938122],"type":"Point"},"properties":{"osm_id":"5037157980","tag":{"addr:city":"Gbarnga","amenity":"waste_disposal","waste":"trash"}},"type":"Feature"},
	{"geometry":{"coordinates":[-9.371851,6.937841],"type":"Point"},"properties":{"osm_id":"5037157989","tag":{"addr:city":"Gbarnga","amenity":"waste_disposal","fee":"no","waste":"trash"}},"type":"Feature"},
	{"geometry":{"coordinates":[-9.351266,7.008796],"type":"Point"},"properties":{"osm_id":"5037243608","tag":{"addr:city":"Gbarnga","addr:street":"Palala - Ganta","amenity":"waste_disposal","fee":"no","waste":"Mixed"}},"type":"Feature"},
	{"geometry":{"coordinates":[-9.350684,7.009664],"type":"Point"},"properties":{"osm_id":"5037243822","tag":{"addr:city":"Gbarnga","addr:street":"Gbarnga - Palala","amenity":"waste_disposal"}},"type":"Feature"},
	{"geometry":{"coordinates":[-9.358034,7.009493],"type":"Point"},"properties":{"osm_id":"5037243827","tag":{"addr:city":"Gbarnga","addr:street":"Gbarnga - Palala","amenity":"waste_disposal"}},"type":"Feature"},
	{"geometry":{"coordinates":[-9.350813,7.009823],"type":"Point"},"properties":{"osm_id":"5037243850","tag":{"addr:city":"Gbarnga","amenity":"waste_disposal","fee":"no","waste":"Mixed"}},"type":"Feature"},
	{"geometry":{"coordinates":[-9.350845,7.010143],"type":"Point"},"properties":{"osm_id":"5037243852","tag":{"addr:city":"Gbarnga","amenity":"waste_disposal","fee":"no","waste":"Mixed"}},"type":"Feature"},
	{"geometry":{"coordinates":[-9.350438,7.009698],"type":"Point"},"properties":{"osm_id":"5037243854","tag":{"addr:city":"Gbarnga","amenity":"waste_disposal","fee":"no","waste":"Mixed"}},"type":"Feature"},
	{"geometry":{"coordinates":[-9.350208,7.009326],"type":"Point"},"properties":{"osm_id":"5037243856","tag":{"addr:city":"Gbarnga","amenity":"waste_disposal","fee":"no","waste":"Mixed"}},"type":"Feature"},
	{"geometry":{"coordinates":[-9.383269,6.972033],"type":"Point"},"properties":{"osm_id":"5037335130","tag":{"addr:city":"Gbarnga","amenity":"waste_disposal","fee":"no"}},"type":"Feature"},
	{"geometry":{"coordinates":[-9.396024,7.00517],"type":"Point"},"properties":{"osm_id":"5066457522","tag":{"addr:city":"Gbarnga","amenity":"waste_disposal","fee":"no","toilets:access":"permissive","toilets:disposal":"pitlatrine","toilets:handwashing":"no"}},"type":"Feature"}
]
}
