{
"type": "FeatureCollection",
"features": [
	{"geometry":{"coordinates":[-21.891235,64.149017],"type":"Point"},"properties":{"osm_id":"286899011","tag":{"amenity":"waste_disposal","waste":"trash"}},"type":"Feature"},
	{"geometry":{"coordinates":[-21.9088,64.147115],"type":"Point"},"properties":{"osm_id":"286899023","tag":{"amenity":"waste_disposal","waste":"trash"}},"type":"Feature"},
	{"geometry":{"coordinates":[-21.91212,64.146435],"type":"Point"},"properties":{"osm_id":"286899030","tag":{"amenity":"waste_disposal","waste":"trash"}},"type":"Feature"},
	{"geometry":{"coordinates":[-21.941357,64.141297],"type":"Point"},"properties":{"osm_id":"289935433","tag":{"amenity":"waste_disposal","waste":"trash"}},"type":"Feature"},
	{"geometry":{"coordinates":[-21.943573,64.141415],"type":"Point"},"properties":{"osm_id":"289935437","tag":{"amenity":"waste_disposal","waste":"trash"}},"type":"Feature"},
	{"geometry":{"coordinates":[-21.943661,64.142244],"type":"Point"},"properties":{"osm_id":"289935443","tag":{"amenity":"waste_disposal","waste":"trash"}},"type":"Feature"},
	{"geometry":{"coordinates":[-21.943689,64.142478],"type":"Point"},"properties":{"osm_id":"289935444","tag":{"amenity":"waste_disposal","waste":"trash"}},"type":"Feature"},
	{"geometry":{"coordinates":[-21.950599,64.140434],"type":"Point"},"properties":{"osm_id":"290138673","tag":{"amenity":"waste_disposal","waste":"trash"}},"type":"Feature"},
	{"geometry":{"coordinates":[-21.951105,64.139961],"type":"Point"},"properties":{"osm_id":"290138675","tag":{"amenity":"waste_disposal","waste":"trash"}},"type":"Feature"},
	{"geometry":{"coordinates":[-21.969757,64.150027],"type":"Point"},"properties":{"osm_id":"290171292","tag":{"amenity":"waste_disposal","waste":"trash"}},"type":"Feature"},
	{"geometry":{"coordinates":[-21.971724,64.149993],"type":"Point"},"properties":{"osm_id":"290172586","tag":{"amenity":"waste_disposal","waste":"trash"}},"type":"Feature"},
	{"geometry":{"coordinates":[-21.887546,64.131058],"type":"Point"},"properties":{"osm_id":"290782449","tag":{"amenity":"waste_disposal","waste":"trash"}},"type":"Feature"},
	{"geometry":{"coordinates":[-21.911264,64.135706],"type":"Point"},"properties":{"osm_id":"293303785","tag":{"amenity":"waste_basket","waste":"trash"}},"type":"Feature"},
	{"geometry":{"coordinates":[-21.910389,64.135568],"type":"Point"},"properties":{"osm_id":"293303832","tag":{"amenity":"waste_basket","lukr:_TEGUND_":"1","lukr:_d_TEGUND_":"Fest \u00c3\u00a1 lj\u00c3\u00b3sastaur","waste":"trash"}},"type":"Feature"},
	{"geometry":{"coordinates":[-21.953743,64.153508],"type":"Point"},"properties":{"name":"Sorpa","osm_id":"1203107282","tag":{"amenity":"recycling","operator":"Sorpa","recycling:cans":"yes","recycling:glass":"yes","recycling:paper":"yes","recycling_type":"centre","website":"https://www.sorpa.is/"}},"type":"Feature"},
	{"geometry":{"coordinates":[-21.932919,64.14363],"type":"Point"},"properties":{"osm_id":"1234101642","tag":{"amenity":"recycling","operator":"Sorpa","recycling_type":"container"}},"type":"Feature"},
	{"geometry":{"coordinates":[-21.915542,64.13858],"type":"Point"},"properties":{"osm_id":"1456065974","tag":{"addr:city":"Reykjav\u00c3\u00adk","addr:postcode":"105","addr:street":"Fl\u00c3\u00b3kagata","amenity":"recycling","operator":"Sorpa","recycling:clothes":"yes","recycling:glass":"yes","recycling:paper":"yes","recycling:plastic":"yes","recycling_type":"container","wheelchair":"yes"}},"type":"Feature"},
	{"geometry":{"coordinates":[-21.940486,64.147067],"type":"Point"},"properties":{"osm_id":"2018350567","tag":{"amenity":"waste_basket"}},"type":"Feature"},
	{"geometry":{"coordinates":[-21.901699,64.130574],"type":"Point"},"properties":{"osm_id":"2018383089","tag":{"amenity":"recycling","operator":"Sorpa","recycling_type":"container"}},"type":"Feature"},
	{"geometry":{"coordinates":[-21.953735,64.130724],"type":"Point"},"properties":{"osm_id":"2018383094","tag":{"amenity":"recycling","operator":"Sorpa","recycling_type":"container"}},"type":"Feature"},
	{"geometry":{"coordinates":[-21.898488,64.135657],"type":"Point"},"properties":{"osm_id":"2018383118","tag":{"amenity":"recycling","operator":"Sorpa","recycling_type":"container"}},"type":"Feature"},
	{"geometry":{"coordinates":[-21.919933,64.13589],"type":"Point"},"properties":{"osm_id":"2018383122","tag":{"amenity":"recycling","operator":"Sorpa","recycling_type":"container"}},"type":"Feature"},
	{"geometry":{"coordinates":[-21.952478,64.135962],"type":"Point"},"properties":{"osm_id":"2018383125","tag":{"amenity":"recycling","operator":"Sorpa","recycling_type":"container"}},"type":"Feature"},
	{"geometry":{"coordinates":[-21.928735,64.142105],"type":"Point"},"properties":{"osm_id":"2018383141","tag":{"amenity":"recycling","operator":"Sorpa","recycling:paper":"yes","recycling:plastic_packaging":"yes","recycling_type":"container"}},"type":"Feature"},
	{"geometry":{"coordinates":[-21.901754,64.14284],"type":"Point"},"properties":{"osm_id":"2018383148","tag":{"amenity":"recycling","operator":"Sorpa","recycling:clothes":"yes","recycling:glass":"yes","recycling:paper":"yes","recycling:plastic":"yes","recycling_type":"container"}},"type":"Feature"},
	{"geometry":{"coordinates":[-21.962712,64.145003],"type":"Point"},"properties":{"osm_id":"2018383154","tag":{"amenity":"recycling","operator":"Sorpa","recycling_type":"container"}},"type":"Feature"},
	{"geometry":{"coordinates":[-21.96145,64.150636],"type":"Point"},"properties":{"osm_id":"2018383158","tag":{"amenity":"recycling","operator":"Sorpa","recycling_type":"container"}},"type":"Feature"},
	{"geometry":{"coordinates":[-21.954149,64.129799],"type":"Point"},"properties":{"osm_id":"2018415379","tag":{"amenity":"waste_basket","lukr:_TEGUND_":"1","lukr:_d_TEGUND_":"Fest \u00c3\u00a1 lj\u00c3\u00b3sastaur","waste":"trash"}},"type":"Feature"},
	{"geometry":{"coordinates":[-21.885519,64.129895],"type":"Point"},"properties":{"osm_id":"2018415381","tag":{"amenity":"waste_basket","lukr:_TEGUND_":"3","lukr:_d_TEGUND_":"Fest \u00c3\u00a1 j\u00c3\u00a1rnr\u00c3\u00b6r","waste":"trash"}},"type":"Feature"},
	{"geometry":{"coordinates":[-21.885502,64.130031],"type":"Point"},"properties":{"osm_id":"2018415383","tag":{"amenity":"waste_basket","waste":"trash"}},"type":"Feature"},
	{"geometry":{"coordinates":[-21.900493,64.130083],"type":"Point"},"properties":{"osm_id":"2018415384","tag":{"amenity":"waste_basket","waste":"trash"}},"type":"Feature"},
	{"geometry":{"coordinates":[-21.900499,64.130089],"type":"Point"},"properties":{"osm_id":"2018415385","tag":{"amenity":"waste_basket","waste":"trash"}},"type":"Feature"},
	{"geometry":{"coordinates":[-21.900487,64.130092],"type":"Point"},"properties":{"osm_id":"2018415386","tag":{"amenity":"waste_basket","waste":"trash"}},"type":"Feature"},
	{"geometry":{"coordinates":[-21.914436,64.130151],"type":"Point"},"properties":{"osm_id":"2018415387","tag":{"amenity":"waste_basket","waste":"trash"}},"type":"Feature"},
	{"geometry":{"coordinates":[-21.913625,64.130249],"type":"Point"},"properties":{"osm_id":"2018415389","tag":{"amenity":"waste_basket","lukr:_TEGUND_":"1","lukr:_d_TEGUND_":"Fest \u00c3\u00a1 lj\u00c3\u00b3sastaur","waste":"trash"}},"type":"Feature"},
	{"geometry":{"coordinates":[-21.931825,64.130477],"type":"Point"},"properties":{"osm_id":"2018415394","tag":{"amenity":"waste_basket","lukr:_TEGUND_":"1","lukr:_d_TEGUND_":"Fest \u00c3\u00a1 lj\u00c3\u00b3sastaur","waste":"trash"}},"type":"Feature"},
	{"geometry":{"coordinates":[-21.932607,64.130477],"type":"Point"},"properties":{"osm_id":"2018415395","tag":{"amenity":"waste_basket","lukr:_TEGUND_":"1","lukr:_d_TEGUND_":"Fest \u00c3\u00a1 lj\u00c3\u00b3sastaur","waste":"trash"}},"type":"Feature"},
	{"geometry":{"coordinates":[-21.930916,64.130534],"type":"Point"},"properties":{"osm_id":"2018415402","tag":{"amenity":"waste_basket","lukr:_TEGUND_":"1","lukr:_d_TEGUND_":"Fest \u00c3\u00a1 lj\u00c3\u00b3sastaur","waste":"trash"}},"type":"Feature"},
	{"geometry":{"coordinates":[-21.932588,64.130571],"type":"Point"},"properties":{"osm_id":"2018415413","tag":{"amenity":"waste_basket","lukr:_TEGUND_":"1","lukr:_d_TEGUND_":"Fest \u00c3\u00a1 lj\u00c3\u00b3sastaur","waste":"trash"}},"type":"Feature"},
	{"geometry":{"coordinates":[-21.930845,64.130629],"type":"Point"},"properties":{"osm_id":"2018415422","tag":{"amenity":"waste_basket","lukr:_TEGUND_":"1","lukr:_d_TEGUND_":"Fest \u00c3\u00a1 lj\u00c3\u00b3sastaur","waste":"trash"}},"type":"Feature"},
	{"geometry":{"coordinates":[-21.900436,64.130634],"type":"Point"},"properties":{"osm_id":"2018415426","tag":{"amenity":"waste_basket","waste":"trash"}},"type":"Feature"},
	{"geometry":{"coordinates":[-21.901104,64.130705],"type":"Point"},"properties":{"osm_id":"2018415429","tag":{"amenity":"waste_basket","lukr:_TEGUND_":"1","lukr:_d_TEGUND_":"Fest \u00c3\u00a1 lj\u00c3\u00b3sastaur","waste":"trash"}},"type":"Feature"},
	{"geometry":{"coordinates":[-21.901884,64.13071],"type":"Point"},"properties":{"osm_id":"2018415432","tag":{"amenity":"waste_basket","lukr:_TEGUND_":"3","lukr:_d_TEGUND_":"Fest \u00c3\u00a1 j\u00c3\u00a1rnr\u00c3\u00b6r","waste":"trash"}},"type":"Feature"},
	{"geometry":{"coordinates":[-21.902064,64.130879],"type":"Point"},"properties":{"osm_id":"2018415445","tag":{"amenity":"waste_basket","lukr:_TEGUND_":"3","lukr:_d_TEGUND_":"Fest \u00c3\u00a1 j\u00c3\u00a1rnr\u00c3\u00b6r","waste":"trash"}},"type":"Feature"},
	{"geometry":{"coordinates":[-21.932667,64.13104],"type":"Point"},"properties":{"osm_id":"2018415454","tag":{"amenity":"waste_basket","lukr:_TEGUND_":"1","lukr:_d_TEGUND_":"Fest \u00c3\u00a1 lj\u00c3\u00b3sastaur","waste":"trash"}},"type":"Feature"},
	{"geometry":{"coordinates":[-21.887987,64.131113],"type":"Point"},"properties":{"osm_id":"2018415458","tag":{"amenity":"waste_basket","waste":"trash"}},"type":"Feature"},
	{"geometry":{"coordinates":[-21.906925,64.131194],"type":"Point"},"properties":{"osm_id":"2018415460","tag":{"amenity":"waste_basket","lukr:_TEGUND_":"4","lukr:_d_TEGUND_":"Svartur","waste":"trash"}},"type":"Feature"},
	{"geometry":{"coordinates":[-21.907192,64.131328],"type":"Point"},"properties":{"osm_id":"2018415475","tag":{"amenity":"waste_basket","lukr:_TEGUND_":"1","lukr:_d_TEGUND_":"Fest \u00c3\u00a1 lj\u00c3\u00b3sastaur","waste":"trash"}},"type":"Feature"},
	{"geometry":{"coordinates":[-21.959,64.131347],"type":"Point"},"properties":{"osm_id":"2018415479","tag":{"amenity":"waste_basket","lukr:_TEGUND_":"2","lukr:_d_TEGUND_":"Fest \u00c3\u00a1 j\u00c3\u00a1rnboga","waste":"trash"}},"type":"Feature"},
	{"geometry":{"coordinates":[-21.903908,64.131676],"type":"Point"},"properties":{"osm_id":"2018415520","tag":{"amenity":"waste_basket","waste":"trash"}},"type":"Feature"},
	{"geometry":{"coordinates":[-21.948367,64.132059],"type":"Point"},"properties":{"osm_id":"2018415533","tag":{"amenity":"waste_basket","lukr:_TEGUND_":"1","lukr:_d_TEGUND_":"Fest \u00c3\u00a1 lj\u00c3\u00b3sastaur","waste":"trash"}},"type":"Feature"},
	{"geometry":{"coordinates":[-21.893692,64.132205],"type":"Point"},"properties":{"osm_id":"2018415545","tag":{"amenity":"waste_basket","waste":"trash"}},"type":"Feature"},
	{"geometry":{"coordinates":[-21.893871,64.132259],"type":"Point"},"properties":{"osm_id":"2018415557","tag":{"amenity":"waste_basket","waste":"trash"}},"type":"Feature"},
	{"geometry":{"coordinates":[-21.952806,64.13287],"type":"Point"},"properties":{"osm_id":"2018415582","tag":{"amenity":"waste_basket","lukr:_TEGUND_":"1","lukr:_d_TEGUND_":"Fest \u00c3\u00a1 lj\u00c3\u00b3sastaur","waste":"trash"}},"type":"Feature"},
	{"geometry":{"coordinates":[-21.911981,64.133438],"type":"Point"},"properties":{"osm_id":"2018415609","tag":{"amenity":"waste_basket","waste":"trash"}},"type":"Feature"},
	{"geometry":{"coordinates":[-21.901929,64.133462],"type":"Point"},"properties":{"osm_id":"2018415622","tag":{"amenity":"waste_basket","lukr:_TEGUND_":"3","lukr:_d_TEGUND_":"Fest \u00c3\u00a1 j\u00c3\u00a1rnr\u00c3\u00b6r","waste":"trash"}},"type":"Feature"},
	{"geometry":{"coordinates":[-21.885232,64.133477],"type":"Point"},"properties":{"osm_id":"2018415628","tag":{"amenity":"waste_basket","waste":"trash"}},"type":"Feature"},
	{"geometry":{"coordinates":[-21.911401,64.133497],"type":"Point"},"properties":{"osm_id":"2018415633","tag":{"amenity":"waste_basket","lukr:_TEGUND_":"1","lukr:_d_TEGUND_":"Fest \u00c3\u00a1 lj\u00c3\u00b3sastaur","waste":"trash"}},"type":"Feature"},
	{"geometry":{"coordinates":[-21.901593,64.133806],"type":"Point"},"properties":{"osm_id":"2018415646","tag":{"amenity":"waste_basket","lukr:_TEGUND_":"3","lukr:_d_TEGUND_":"Fest \u00c3\u00a1 j\u00c3\u00a1rnr\u00c3\u00b6r","waste":"trash"}},"type":"Feature"},
	{"geometry":{"coordinates":[-21.903804,64.133813],"type":"Point"},"properties":{"osm_id":"2018415675","tag":{"amenity":"waste_basket","waste":"trash"}},"type":"Feature"},
	{"geometry":{"coordinates":[-21.903787,64.133819],"type":"Point"},"properties":{"osm_id":"2018415680","tag":{"amenity":"waste_basket","waste":"trash"}},"type":"Feature"},
	{"geometry":{"coordinates":[-21.903809,64.134135],"type":"Point"},"properties":{"osm_id":"2018415725","tag":{"amenity":"waste_basket","waste":"trash"}},"type":"Feature"},
	{"geometry":{"coordinates":[-21.886759,64.134558],"type":"Point"},"properties":{"osm_id":"2018415773","tag":{"amenity":"waste_basket","waste":"trash"}},"type":"Feature"},
	{"geometry":{"coordinates":[-21.890315,64.134763],"type":"Point"},"properties":{"osm_id":"2018415814","tag":{"amenity":"waste_basket","lukr:_TEGUND_":"1","lukr:_d_TEGUND_":"Fest \u00c3\u00a1 lj\u00c3\u00b3sastaur","waste":"trash"}},"type":"Feature"},
	{"geometry":{"coordinates":[-21.908902,64.134892],"type":"Point"},"properties":{"osm_id":"2018415833","tag":{"amenity":"waste_basket","lukr:_TEGUND_":"1","lukr:_d_TEGUND_":"Fest \u00c3\u00a1 lj\u00c3\u00b3sastaur","waste":"trash"}},"type":"Feature"},
	{"geometry":{"coordinates":[-21.961131,64.134897],"type":"Point"},"properties":{"osm_id":"2018415840","tag":{"amenity":"waste_basket","lukr:_TEGUND_":"2","lukr:_d_TEGUND_":"Fest \u00c3\u00a1 j\u00c3\u00a1rnboga","waste":"trash"}},"type":"Feature"},
	{"geometry":{"coordinates":[-21.911525,64.135065],"type":"Point"},"properties":{"osm_id":"2018415898","tag":{"amenity":"waste_basket","lukr:_TEGUND_":"1","lukr:_d_TEGUND_":"Fest \u00c3\u00a1 lj\u00c3\u00b3sastaur","waste":"trash"}},"type":"Feature"},
	{"geometry":{"coordinates":[-21.956171,64.135494],"type":"Point"},"properties":{"osm_id":"2018415926","tag":{"amenity":"waste_basket","lukr:_TEGUND_":"1","lukr:_d_TEGUND_":"Fest \u00c3\u00a1 lj\u00c3\u00b3sastaur","waste":"trash"}},"type":"Feature"},
	{"geometry":{"coordinates":[-21.916446,64.13581],"type":"Point"},"properties":{"osm_id":"2018415980","tag":{"amenity":"waste_basket","lukr:_TEGUND_":"1","lukr:_d_TEGUND_":"Fest \u00c3\u00a1 lj\u00c3\u00b3sastaur","waste":"trash"}},"type":"Feature"},
	{"geometry":{"coordinates":[-21.898532,64.136029],"type":"Point"},"properties":{"osm_id":"2018416009","tag":{"amenity":"waste_basket","lukr:_TEGUND_":"1","lukr:_d_TEGUND_":"Fest \u00c3\u00a1 lj\u00c3\u00b3sastaur","waste":"trash"}},"type":"Feature"},
	{"geometry":{"coordinates":[-21.962247,64.136252],"type":"Point"},"properties":{"osm_id":"2018416025","tag":{"amenity":"waste_basket","lukr:_TEGUND_":"2","lukr:_d_TEGUND_":"Fest \u00c3\u00a1 j\u00c3\u00a1rnboga","waste":"trash"}},"type":"Feature"},
	{"geometry":{"coordinates":[-21.914238,64.136535],"type":"Point"},"properties":{"osm_id":"2018416042","tag":{"amenity":"waste_basket","waste":"trash"}},"type":"Feature"},
	{"geometry":{"coordinates":[-21.914186,64.13656],"type":"Point"},"properties":{"osm_id":"2018416047","tag":{"amenity":"waste_basket","waste":"trash"}},"type":"Feature"},
	{"geometry":{"coordinates":[-21.913575,64.136604],"type":"Point"},"properties":{"osm_id":"2018416049","tag":{"amenity":"waste_basket","waste":"trash"}},"type":"Feature"},
	{"geometry":{"coordinates":[-21.961267,64.136639],"type":"Point"},"properties":{"osm_id":"2018416052","tag":{"amenity":"waste_basket","lukr:_TEGUND_":"1","lukr:_d_TEGUND_":"Fest \u00c3\u00a1 lj\u00c3\u00b3sastaur","waste":"trash"}},"type":"Feature"},
	{"geometry":{"coordinates":[-21.958331,64.136651],"type":"Point"},"properties":{"osm_id":"2018416053","tag":{"amenity":"waste_basket","lukr:_TEGUND_":"1","lukr:_d_TEGUND_":"Fest \u00c3\u00a1 lj\u00c3\u00b3sastaur","waste":"trash"}},"type":"Feature"},
	{"geometry":{"coordinates":[-21.914507,64.137035],"type":"Point"},"properties":{"osm_id":"2018416062","tag":{"amenity":"waste_basket","waste":"trash"}},"type":"Feature"},
	{"geometry":{"coordinates":[-21.898397,64.137214],"type":"Point"},"properties":{"osm_id":"2018416064","tag":{"amenity":"waste_basket","waste":"trash"}},"type":"Feature"},
	{"geometry":{"coordinates":[-21.908473,64.137285],"type":"Point"},"properties":{"osm_id":"2018416065","tag":{"amenity":"waste_basket","lukr:_TEGUND_":"1","lukr:_d_TEGUND_":"Fest \u00c3\u00a1 lj\u00c3\u00b3sastaur","waste":"trash"}},"type":"Feature"},
	{"geometry":{"coordinates":[-21.954132,64.137303],"type":"Point"},"properties":{"osm_id":"2018416067","tag":{"amenity":"waste_basket","lukr:_TEGUND_":"1","lukr:_d_TEGUND_":"Fest \u00c3\u00a1 lj\u00c3\u00b3sastaur","waste":"trash"}},"type":"Feature"},
	{"geometry":{"coordinates":[-21.911725,64.137304],"type":"Point"},"properties":{"osm_id":"2018416068","tag":{"amenity":"waste_basket","waste":"trash"}},"type":"Feature"},
	{"geometry":{"coordinates":[-21.898151,64.137321],"type":"Point"},"properties":{"osm_id":"2018416069","tag":{"amenity":"waste_basket","lukr:_TEGUND_":"1","lukr:_d_TEGUND_":"Fest \u00c3\u00a1 lj\u00c3\u00b3sastaur","waste":"trash"}},"type":"Feature"},
	{"geometry":{"coordinates":[-21.921061,64.137379],"type":"Point"},"properties":{"osm_id":"2018416072","tag":{"amenity":"waste_basket","lukr:_TEGUND_":"2","lukr:_d_TEGUND_":"Fest \u00c3\u00a1 j\u00c3\u00a1rnboga","waste":"trash"}},"type":"Feature"},
	{"geometry":{"coordinates":[-21.95459,64.137402],"type":"Point"},"properties":{"osm_id":"2018416074","tag":{"amenity":"waste_basket","lukr:_TEGUND_":"1","lukr:_d_TEGUND_":"Fest \u00c3\u00a1 lj\u00c3\u00b3sastaur","waste":"trash"}},"type":"Feature"},
	{"geometry":{"coordinates":[-21.908845,64.137406],"type":"Point"},"properties":{"osm_id":"2018416076","tag":{"amenity":"waste_basket","lukr:_TEGUND_":"1","lukr:_d_TEGUND_":"Fest \u00c3\u00a1 lj\u00c3\u00b3sastaur","waste":"trash"}},"type":"Feature"},
	{"geometry":{"coordinates":[-21.891646,64.137726],"type":"Point"},"properties":{"osm_id":"2018416083","tag":{"amenity":"waste_basket","lukr:_TEGUND_":"1","lukr:_d_TEGUND_":"Fest \u00c3\u00a1 lj\u00c3\u00b3sastaur","waste":"trash"}},"type":"Feature"},
	{"geometry":{"coordinates":[-21.890315,64.137776],"type":"Point"},"properties":{"osm_id":"2018416085","tag":{"amenity":"waste_basket","lukr:_TEGUND_":"1","lukr:_d_TEGUND_":"Fest \u00c3\u00a1 lj\u00c3\u00b3sastaur","waste":"trash"}},"type":"Feature"},
	{"geometry":{"coordinates":[-21.962694,64.137822],"type":"Point"},"properties":{"osm_id":"2018416090","tag":{"amenity":"waste_basket","waste":"trash"}},"type":"Feature"},
	{"geometry":{"coordinates":[-21.94957,64.137977],"type":"Point"},"properties":{"osm_id":"2018416093","tag":{"amenity":"waste_basket","waste":"trash"}},"type":"Feature"},
	{"geometry":{"coordinates":[-21.903971,64.138003],"type":"Point"},"properties":{"osm_id":"2018416098","tag":{"amenity":"waste_basket","lukr:_TEGUND_":"1","lukr:_d_TEGUND_":"Fest \u00c3\u00a1 lj\u00c3\u00b3sastaur","waste":"trash"}},"type":"Feature"},
	{"geometry":{"coordinates":[-21.916259,64.138035],"type":"Point"},"properties":{"osm_id":"2018416106","tag":{"amenity":"waste_basket","waste":"trash"}},"type":"Feature"},
	{"geometry":{"coordinates":[-21.904108,64.138143],"type":"Point"},"properties":{"osm_id":"2018416114","tag":{"amenity":"waste_basket","lukr:_TEGUND_":"1","lukr:_d_TEGUND_":"Fest \u00c3\u00a1 lj\u00c3\u00b3sastaur","waste":"trash"}},"type":"Feature"},
	{"geometry":{"coordinates":[-21.93294,64.138206],"type":"Point"},"properties":{"osm_id":"2018416118","tag":{"amenity":"waste_basket","lukr:_TEGUND_":"3","lukr:_d_TEGUND_":"Fest \u00c3\u00a1 j\u00c3\u00a1rnr\u00c3\u00b6r","waste":"trash"}},"type":"Feature"},
	{"geometry":{"coordinates":[-21.959297,64.138349],"type":"Point"},"properties":{"osm_id":"2018416125","tag":{"amenity":"waste_basket","lukr:_TEGUND_":"1","lukr:_d_TEGUND_":"Fest \u00c3\u00a1 lj\u00c3\u00b3sastaur","waste":"trash"}},"type":"Feature"},
	{"geometry":{"coordinates":[-21.934422,64.138592],"type":"Point"},"properties":{"osm_id":"2018416147","tag":{"amenity":"waste_basket","waste":"trash"}},"type":"Feature"},
	{"geometry":{"coordinates":[-21.908672,64.138607],"type":"Point"},"properties":{"osm_id":"2018416150","tag":{"amenity":"waste_basket","lukr:_TEGUND_":"3","lukr:_d_TEGUND_":"Fest \u00c3\u00a1 j\u00c3\u00a1rnr\u00c3\u00b6r","waste":"trash"}},"type":"Feature"},
	{"geometry":{"coordinates":[-21.933468,64.138624],"type":"Point"},"properties":{"osm_id":"2018416151","tag":{"amenity":"waste_basket","waste":"trash"}},"type":"Feature"},
	{"geometry":{"coordinates":[-21.963523,64.138673],"type":"Point"},"properties":{"osm_id":"2018416153","tag":{"amenity":"waste_basket","lukr:_TEGUND_":"2","lukr:_d_TEGUND_":"Fest \u00c3\u00a1 j\u00c3\u00a1rnboga","waste":"trash"}},"type":"Feature"},
	{"geometry":{"coordinates":[-21.957731,64.138709],"type":"Point"},"properties":{"osm_id":"2018416155","tag":{"amenity":"waste_basket","lukr:_TEGUND_":"1","lukr:_d_TEGUND_":"Fest \u00c3\u00a1 lj\u00c3\u00b3sastaur","waste":"trash"}},"type":"Feature"},
	{"geometry":{"coordinates":[-21.932197,64.138734],"type":"Point"},"properties":{"osm_id":"2018416159","tag":{"amenity":"waste_basket","waste":"trash"}},"type":"Feature"},
	{"geometry":{"coordinates":[-21.958971,64.138855],"type":"Point"},"properties":{"osm_id":"2018416160","tag":{"amenity":"waste_basket","lukr:_TEGUND_":"1","lukr:_d_TEGUND_":"Fest \u00c3\u00a1 lj\u00c3\u00b3sastaur","waste":"trash"}},"type":"Feature"},
	{"geometry":{"coordinates":[-21.90929,64.138859],"type":"Point"},"properties":{"osm_id":"2018416161","tag":{"amenity":"waste_basket","lukr:_TEGUND_":"1","lukr:_d_TEGUND_":"Fest \u00c3\u00a1 lj\u00c3\u00b3sastaur","waste":"trash"}},"type":"Feature"},
	{"geometry":{"coordinates":[-21.931056,64.138863],"type":"Point"},"properties":{"osm_id":"2018416162","tag":{"amenity":"waste_basket","lukr:_TEGUND_":"1","lukr:_d_TEGUND_":"Fest \u00c3\u00a1 lj\u00c3\u00b3sastaur","waste":"trash"}},"type":"Feature"},
	{"geometry":{"coordinates":[-21.960118,64.138948],"type":"Point"},"properties":{"osm_id":"2018416164","tag":{"amenity":"waste_basket","waste":"trash"}},"type":"Feature"},
	{"geometry":{"coordinates":[-21.932618,64.139009],"type":"Point"},"properties":{"osm_id":"2018416169","tag":{"amenity":"waste_basket","lukr:_TEGUND_":"1","lukr:_d_TEGUND_":"Fest \u00c3\u00a1 lj\u00c3\u00b3sastaur","waste":"trash"}},"type":"Feature"},
	{"geometry":{"coordinates":[-21.96317,64.139038],"type":"Point"},"properties":{"osm_id":"2018416171","tag":{"amenity":"waste_basket","waste":"trash"}},"type":"Feature"},
	{"geometry":{"coordinates":[-21.936448,64.139095],"type":"Point"},"properties":{"osm_id":"2018416178","tag":{"amenity":"waste_basket","lukr:_TEGUND_":"1","lukr:_d_TEGUND_":"Fest \u00c3\u00a1 lj\u00c3\u00b3sastaur","waste":"trash"}},"type":"Feature"},
	{"geometry":{"coordinates":[-21.916258,64.139112],"type":"Point"},"properties":{"osm_id":"2018416182","tag":{"amenity":"waste_basket","lukr:_TEGUND_":"1","lukr:_d_TEGUND_":"Fest \u00c3\u00a1 lj\u00c3\u00b3sastaur","waste":"trash"}},"type":"Feature"},
	{"geometry":{"coordinates":[-21.903362,64.13912],"type":"Point"},"properties":{"osm_id":"2018416185","tag":{"amenity":"waste_basket","lukr:_TEGUND_":"1","lukr:_d_TEGUND_":"Fest \u00c3\u00a1 lj\u00c3\u00b3sastaur","waste":"trash"}},"type":"Feature"},
	{"geometry":{"coordinates":[-21.964165,64.139235],"type":"Point"},"properties":{"osm_id":"2018416192","tag":{"amenity":"waste_basket","waste":"trash"}},"type":"Feature"},
	{"geometry":{"coordinates":[-21.887257,64.139528],"type":"Point"},"properties":{"osm_id":"2018416205","tag":{"amenity":"waste_basket","waste":"trash"}},"type":"Feature"},
	{"geometry":{"coordinates":[-21.951923,64.139763],"type":"Point"},"properties":{"osm_id":"2018416208","tag":{"amenity":"waste_basket","lukr:_TEGUND_":"1","lukr:_d_TEGUND_":"Fest \u00c3\u00a1 lj\u00c3\u00b3sastaur","waste":"trash"}},"type":"Feature"},
	{"geometry":{"coordinates":[-21.94682,64.139877],"type":"Point"},"properties":{"osm_id":"2018416213","tag":{"amenity":"waste_basket","lukr:_TEGUND_":"1","lukr:_d_TEGUND_":"Fest \u00c3\u00a1 lj\u00c3\u00b3sastaur","waste":"trash"}},"type":"Feature"},
	{"geometry":{"coordinates":[-21.951227,64.139887],"type":"Point"},"properties":{"osm_id":"2018416214","tag":{"amenity":"waste_basket","lukr:_TEGUND_":"1","lukr:_d_TEGUND_":"Fest \u00c3\u00a1 lj\u00c3\u00b3sastaur","waste":"trash"}},"type":"Feature"},
	{"geometry":{"coordinates":[-21.888095,64.140131],"type":"Point"},"properties":{"osm_id":"2018416217","tag":{"amenity":"waste_basket","lukr:_TEGUND_":"1","lukr:_d_TEGUND_":"Fest \u00c3\u00a1 lj\u00c3\u00b3sastaur","waste":"trash"}},"type":"Feature"},
	{"geometry":{"coordinates":[-21.926793,64.140185],"type":"Point"},"properties":{"osm_id":"2018416220","tag":{"amenity":"waste_basket","lukr:_TEGUND_":"1","lukr:_d_TEGUND_":"Fest \u00c3\u00a1 lj\u00c3\u00b3sastaur","waste":"trash"}},"type":"Feature"},
	{"geometry":{"coordinates":[-21.924589,64.140259],"type":"Point"},"properties":{"osm_id":"2018416223","tag":{"amenity":"waste_basket","lukr:_TEGUND_":"1","lukr:_d_TEGUND_":"Fest \u00c3\u00a1 lj\u00c3\u00b3sastaur","waste":"trash"}},"type":"Feature"},
	{"geometry":{"coordinates":[-21.915108,64.14026],"type":"Point"},"properties":{"osm_id":"2018416224","tag":{"amenity":"waste_basket","lukr:_TEGUND_":"3","lukr:_d_TEGUND_":"Fest \u00c3\u00a1 j\u00c3\u00a1rnr\u00c3\u00b6r","waste":"trash"}},"type":"Feature"},
	{"geometry":{"coordinates":[-21.889236,64.140351],"type":"Point"},"properties":{"osm_id":"2018416226","tag":{"amenity":"waste_basket","lukr:_TEGUND_":"1","lukr:_d_TEGUND_":"Fest \u00c3\u00a1 lj\u00c3\u00b3sastaur","waste":"trash"}},"type":"Feature"},
	{"geometry":{"coordinates":[-21.950661,64.140439],"type":"Point"},"properties":{"osm_id":"2018416227","tag":{"amenity":"waste_basket","lukr:_TEGUND_":"1","lukr:_d_TEGUND_":"Fest \u00c3\u00a1 lj\u00c3\u00b3sastaur","waste":"trash"}},"type":"Feature"},
	{"geometry":{"coordinates":[-21.919531,64.140504],"type":"Point"},"properties":{"osm_id":"2018416232","tag":{"amenity":"waste_basket","lukr:_TEGUND_":"1","lukr:_d_TEGUND_":"Fest \u00c3\u00a1 lj\u00c3\u00b3sastaur","waste":"trash"}},"type":"Feature"},
	{"geometry":{"coordinates":[-21.96488,64.14053],"type":"Point"},"properties":{"osm_id":"2018416233","tag":{"amenity":"waste_basket","lukr:_TEGUND_":"2","lukr:_d_TEGUND_":"Fest \u00c3\u00a1 j\u00c3\u00a1rnboga","waste":"trash"}},"type":"Feature"},
	{"geometry":{"coordinates":[-21.963077,64.14068],"type":"Point"},"properties":{"osm_id":"2018416239","tag":{"amenity":"waste_basket","lukr:_TEGUND_":"3","lukr:_d_TEGUND_":"Fest \u00c3\u00a1 j\u00c3\u00a1rnr\u00c3\u00b6r","waste":"trash"}},"type":"Feature"},
	{"geometry":{"coordinates":[-21.945764,64.140745],"type":"Point"},"properties":{"osm_id":"2018416241","tag":{"amenity":"waste_basket","lukr:_TEGUND_":"1","lukr:_d_TEGUND_":"Fest \u00c3\u00a1 lj\u00c3\u00b3sastaur","waste":"trash"}},"type":"Feature"},
	{"geometry":{"coordinates":[-21.925412,64.140851],"type":"Point"},"properties":{"osm_id":"2018416245","tag":{"amenity":"waste_basket","waste":"trash"}},"type":"Feature"},
	{"geometry":{"coordinates":[-21.925835,64.141165],"type":"Point"},"properties":{"osm_id":"2018416249","tag":{"amenity":"waste_basket","waste":"trash"}},"type":"Feature"},
	{"geometry":{"coordinates":[-21.922961,64.141201],"type":"Point"},"properties":{"osm_id":"2018416250","tag":{"amenity":"waste_basket","lukr:_TEGUND_":"1","lukr:_d_TEGUND_":"Fest \u00c3\u00a1 lj\u00c3\u00b3sastaur","waste":"trash"}},"type":"Feature"},
	{"geometry":{"coordinates":[-21.898178,64.141216],"type":"Point"},"properties":{"osm_id":"2018416252","tag":{"amenity":"waste_basket","lukr:_TEGUND_":"1","lukr:_d_TEGUND_":"Fest \u00c3\u00a1 lj\u00c3\u00b3sastaur","waste":"trash"}},"type":"Feature"},
	{"geometry":{"coordinates":[-21.954045,64.141219],"type":"Point"},"properties":{"osm_id":"2018416253","tag":{"amenity":"waste_basket","lukr:_TEGUND_":"1","lukr:_d_TEGUND_":"Fest \u00c3\u00a1 lj\u00c3\u00b3sastaur","waste":"trash"}},"type":"Feature"},
	{"geometry":{"coordinates":[-21.911068,64.141258],"type":"Point"},"properties":{"osm_id":"2018416254","tag":{"amenity":"waste_basket","waste":"trash"}},"type":"Feature"},
	{"geometry":{"coordinates":[-21.910213,64.141312],"type":"Point"},"properties":{"osm_id":"2018416256","tag":{"amenity":"waste_basket","waste":"trash"}},"type":"Feature"},
	{"geometry":{"coordinates":[-21.909055,64.141387],"type":"Point"},"properties":{"osm_id":"2018416257","tag":{"amenity":"waste_basket","waste":"trash"}},"type":"Feature"},
	{"geometry":{"coordinates":[-21.908414,64.141393],"type":"Point"},"properties":{"osm_id":"2018416258","tag":{"amenity":"waste_basket","waste":"trash"}},"type":"Feature"},
	{"geometry":{"coordinates":[-21.943587,64.141439],"type":"Point"},"properties":{"osm_id":"2018416262","tag":{"amenity":"waste_basket","waste":"trash"}},"type":"Feature"},
	{"geometry":{"coordinates":[-21.923233,64.141445],"type":"Point"},"properties":{"osm_id":"2018416267","tag":{"amenity":"waste_basket","lukr:_TEGUND_":"1","lukr:_d_TEGUND_":"Fest \u00c3\u00a1 lj\u00c3\u00b3sastaur","waste":"trash"}},"type":"Feature"},
	{"geometry":{"coordinates":[-21.904623,64.141482],"type":"Point"},"properties":{"osm_id":"2018416271","tag":{"amenity":"waste_basket","lukr:_TEGUND_":"1","lukr:_d_TEGUND_":"Fest \u00c3\u00a1 lj\u00c3\u00b3sastaur","waste":"trash"}},"type":"Feature"},
	{"geometry":{"coordinates":[-21.961735,64.141515],"type":"Point"},"properties":{"osm_id":"2018416276","tag":{"amenity":"waste_basket","lukr:_TEGUND_":"1","lukr:_d_TEGUND_":"Fest \u00c3\u00a1 lj\u00c3\u00b3sastaur","waste":"trash"}},"type":"Feature"},
	{"geometry":{"coordinates":[-21.933056,64.141636],"type":"Point"},"properties":{"osm_id":"2018416281","tag":{"amenity":"waste_basket","waste":"trash"}},"type":"Feature"},
	{"geometry":{"coordinates":[-21.94644,64.141707],"type":"Point"},"properties":{"osm_id":"2018416285","tag":{"amenity":"waste_basket","lukr:_TEGUND_":"1","lukr:_d_TEGUND_":"Fest \u00c3\u00a1 lj\u00c3\u00b3sastaur","waste":"trash"}},"type":"Feature"},
	{"geometry":{"coordinates":[-21.920805,64.141743],"type":"Point"},"properties":{"osm_id":"2018416286","tag":{"amenity":"waste_basket","lukr:_TEGUND_":"1","lukr:_d_TEGUND_":"Fest \u00c3\u00a1 lj\u00c3\u00b3sastaur","waste":"trash"}},"type":"Feature"},
	{"geometry":{"coordinates":[-21.927998,64.141769],"type":"Point"},"properties":{"osm_id":"2018416289","tag":{"amenity":"waste_basket","lukr:_TEGUND_":"1","lukr:_d_TEGUND_":"Fest \u00c3\u00a1 lj\u00c3\u00b3sastaur","waste":"trash"}},"type":"Feature"},
	{"geometry":{"coordinates":[-21.92639,64.141759],"type":"Point"},"properties":{"osm_id":"2018416290","tag":{"amenity":"waste_basket","lukr:_TEGUND_":"1","lukr:_d_TEGUND_":"Fest \u00c3\u00a1 lj\u00c3\u00b3sastaur","waste":"trash"}},"type":"Feature"},
	{"geometry":{"coordinates":[-21.957354,64.141781],"type":"Point"},"properties":{"osm_id":"2018416291","tag":{"amenity":"waste_basket","lukr:_TEGUND_":"1","lukr:_d_TEGUND_":"Fest \u00c3\u00a1 lj\u00c3\u00b3sastaur","waste":"trash"}},"type":"Feature"},
	{"geometry":{"coordinates":[-21.924994,64.141818],"type":"Point"},"properties":{"osm_id":"2018416293","tag":{"amenity":"waste_basket","waste":"trash"}},"type":"Feature"},
	{"geometry":{"coordinates":[-21.962798,64.141832],"type":"Point"},"properties":{"osm_id":"2018416294","tag":{"amenity":"waste_basket","lukr:_TEGUND_":"3","lukr:_d_TEGUND_":"Fest \u00c3\u00a1 j\u00c3\u00a1rnr\u00c3\u00b6r","waste":"trash"}},"type":"Feature"},
	{"geometry":{"coordinates":[-21.94676,64.14186],"type":"Point"},"properties":{"osm_id":"2018416295","tag":{"amenity":"waste_basket","lukr:_TEGUND_":"1","lukr:_d_TEGUND_":"Fest \u00c3\u00a1 lj\u00c3\u00b3sastaur","waste":"trash"}},"type":"Feature"},
	{"geometry":{"coordinates":[-21.930097,64.141885],"type":"Point"},"properties":{"osm_id":"2018416296","tag":{"amenity":"waste_basket","waste":"trash"}},"type":"Feature"},
	{"geometry":{"coordinates":[-21.885601,64.141902],"type":"Point"},"properties":{"osm_id":"2018416298","tag":{"amenity":"waste_basket","lukr:_TEGUND_":"1","lukr:_d_TEGUND_":"Fest \u00c3\u00a1 lj\u00c3\u00b3sastaur","waste":"trash"}},"type":"Feature"},
	{"geometry":{"coordinates":[-21.91752,64.141917],"type":"Point"},"properties":{"osm_id":"2018416299","tag":{"amenity":"waste_basket","waste":"trash"}},"type":"Feature"},
	{"geometry":{"coordinates":[-21.928624,64.14207],"type":"Point"},"properties":{"osm_id":"2018416301","tag":{"amenity":"waste_basket","lukr:_TEGUND_":"3","lukr:_d_TEGUND_":"Fest \u00c3\u00a1 j\u00c3\u00a1rnr\u00c3\u00b6r","waste":"trash"}},"type":"Feature"},
	{"geometry":{"coordinates":[-21.930419,64.142093],"type":"Point"},"properties":{"osm_id":"2018416303","tag":{"amenity":"waste_basket","lukr:_TEGUND_":"1","lukr:_d_TEGUND_":"Fest \u00c3\u00a1 lj\u00c3\u00b3sastaur","waste":"trash"}},"type":"Feature"},
	{"geometry":{"coordinates":[-21.915097,64.142104],"type":"Point"},"properties":{"osm_id":"2018416304","tag":{"amenity":"waste_basket","lukr:_TEGUND_":"1","lukr:_d_TEGUND_":"Fest \u00c3\u00a1 lj\u00c3\u00b3sastaur","waste":"trash"}},"type":"Feature"},
	{"geometry":{"coordinates":[-21.928612,64.142114],"type":"Point"},"properties":{"osm_id":"2018416305","tag":{"amenity":"waste_basket","lukr:_TEGUND_":"3","lukr:_d_TEGUND_":"Fest \u00c3\u00a1 j\u00c3\u00a1rnr\u00c3\u00b6r","waste":"trash"}},"type":"Feature"},
	{"geometry":{"coordinates":[-21.885862,64.142121],"type":"Point"},"properties":{"osm_id":"2018416307","tag":{"amenity":"waste_basket","lukr:_TEGUND_":"1","lukr:_d_TEGUND_":"Fest \u00c3\u00a1 lj\u00c3\u00b3sastaur","waste":"trash"}},"type":"Feature"},
	{"geometry":{"coordinates":[-21.928839,64.142134],"type":"Point"},"properties":{"osm_id":"2018416308","tag":{"amenity":"waste_basket","lukr:_TEGUND_":"3","lukr:_d_TEGUND_":"Fest \u00c3\u00a1 j\u00c3\u00a1rnr\u00c3\u00b6r","waste":"trash"}},"type":"Feature"},
	{"geometry":{"coordinates":[-21.966177,64.142154],"type":"Point"},"properties":{"osm_id":"2018416310","tag":{"amenity":"waste_basket","lukr:_TEGUND_":"2","lukr:_d_TEGUND_":"Fest \u00c3\u00a1 j\u00c3\u00a1rnboga","waste":"trash"}},"type":"Feature"},
	{"geometry":{"coordinates":[-21.953513,64.142217],"type":"Point"},"properties":{"osm_id":"2018416311","tag":{"amenity":"waste_basket","lukr:_TEGUND_":"1","lukr:_d_TEGUND_":"Fest \u00c3\u00a1 lj\u00c3\u00b3sastaur","waste":"trash"}},"type":"Feature"},
	{"geometry":{"coordinates":[-21.92912,64.142219],"type":"Point"},"properties":{"osm_id":"2018416312","tag":{"amenity":"waste_basket","waste":"trash"}},"type":"Feature"},
	{"geometry":{"coordinates":[-21.930798,64.142222],"type":"Point"},"properties":{"osm_id":"2018416314","tag":{"amenity":"waste_basket","waste":"trash"}},"type":"Feature"},
	{"geometry":{"coordinates":[-21.943667,64.142252],"type":"Point"},"properties":{"osm_id":"2018416315","tag":{"amenity":"waste_basket","waste":"trash"}},"type":"Feature"},
	{"geometry":{"coordinates":[-21.925594,64.142267],"type":"Point"},"properties":{"osm_id":"2018416316","tag":{"amenity":"waste_basket","waste":"trash"}},"type":"Feature"},
	{"geometry":{"coordinates":[-21.928856,64.142368],"type":"Point"},"properties":{"osm_id":"2018416319","tag":{"amenity":"waste_basket","lukr:_TEGUND_":"3","lukr:_d_TEGUND_":"Fest \u00c3\u00a1 j\u00c3\u00a1rnr\u00c3\u00b6r","waste":"trash"}},"type":"Feature"},
	{"geometry":{"coordinates":[-21.927328,64.142394],"type":"Point"},"properties":{"osm_id":"2018416320","tag":{"amenity":"waste_basket","lukr:_TEGUND_":"4","lukr:_d_TEGUND_":"Svartur","waste":"trash"}},"type":"Feature"},
	{"geometry":{"coordinates":[-21.928373,64.14243],"type":"Point"},"properties":{"osm_id":"2018416321","tag":{"amenity":"waste_basket","lukr:_TEGUND_":"3","lukr:_d_TEGUND_":"Fest \u00c3\u00a1 j\u00c3\u00a1rnr\u00c3\u00b6r","waste":"trash"}},"type":"Feature"},
	{"geometry":{"coordinates":[-21.928372,64.142433],"type":"Point"},"properties":{"osm_id":"2018416322","tag":{"amenity":"waste_basket","lukr:_TEGUND_":"4","lukr:_d_TEGUND_":"Svartur","waste":"trash"}},"type":"Feature"},
	{"geometry":{"coordinates":[-21.940375,64.142437],"type":"Point"},"properties":{"osm_id":"2018416324","tag":{"amenity":"waste_basket","lukr:_TEGUND_":"2","lukr:_d_TEGUND_":"Fest \u00c3\u00a1 j\u00c3\u00a1rnboga","waste":"trash"}},"type":"Feature"},
	{"geometry":{"coordinates":[-21.94372,64.142492],"type":"Point"},"properties":{"osm_id":"2018416327","tag":{"amenity":"waste_basket","waste":"trash"}},"type":"Feature"},
	{"geometry":{"coordinates":[-21.957082,64.142516],"type":"Point"},"properties":{"osm_id":"2018416329","tag":{"amenity":"waste_basket","lukr:_TEGUND_":"1","lukr:_d_TEGUND_":"Fest \u00c3\u00a1 lj\u00c3\u00b3sastaur","waste":"trash"}},"type":"Feature"},
	{"geometry":{"coordinates":[-21.927277,64.142577],"type":"Point"},"properties":{"osm_id":"2018416331","tag":{"amenity":"waste_basket","waste":"trash"}},"type":"Feature"},
	{"geometry":{"coordinates":[-21.939918,64.142615],"type":"Point"},"properties":{"osm_id":"2018416332","tag":{"amenity":"waste_basket","lukr:_TEGUND_":"1","lukr:_d_TEGUND_":"Fest \u00c3\u00a1 lj\u00c3\u00b3sastaur","waste":"trash"}},"type":"Feature"},
	{"geometry":{"coordinates":[-21.927997,64.14262],"type":"Point"},"properties":{"osm_id":"2018416333","tag":{"amenity":"waste_basket","waste":"trash"}},"type":"Feature"},
	{"geometry":{"coordinates":[-21.906458,64.142635],"type":"Point"},"properties":{"osm_id":"2018416335","tag":{"amenity":"waste_basket","lukr:_TEGUND_":"1","lukr:_d_TEGUND_":"Fest \u00c3\u00a1 lj\u00c3\u00b3sastaur","waste":"trash"}},"type":"Feature"},
	{"geometry":{"coordinates":[-21.965341,64.14265],"type":"Point"},"properties":{"osm_id":"2018416336","tag":{"amenity":"waste_basket","lukr:_TEGUND_":"1","lukr:_d_TEGUND_":"Fest \u00c3\u00a1 lj\u00c3\u00b3sastaur","waste":"trash"}},"type":"Feature"},
	{"geometry":{"coordinates":[-21.927236,64.142663],"type":"Point"},"properties":{"osm_id":"2018416337","tag":{"amenity":"waste_basket","lukr:_TEGUND_":"1","lukr:_d_TEGUND_":"Fest \u00c3\u00a1 lj\u00c3\u00b3sastaur","waste":"trash"}},"type":"Feature"},
	{"geometry":{"coordinates":[-21.927629,64.142673],"type":"Point"},"properties":{"osm_id":"2018416338","tag":{"amenity":"waste_basket","lukr:_TEGUND_":"4","lukr:_d_TEGUND_":"Svartur","waste":"trash"}},"type":"Feature"},
	{"geometry":{"coordinates":[-21.905361,64.142694],"type":"Point"},"properties":{"osm_id":"2018416340","tag":{"amenity":"waste_basket","lukr:_TEGUND_":"1","lukr:_d_TEGUND_":"Fest \u00c3\u00a1 lj\u00c3\u00b3sastaur","waste":"trash"}},"type":"Feature"},
	{"geometry":{"coordinates":[-21.926941,64.142696],"type":"Point"},"properties":{"osm_id":"2018416341","tag":{"amenity":"waste_basket","lukr:_TEGUND_":"1","lukr:_d_TEGUND_":"Fest \u00c3\u00a1 lj\u00c3\u00b3sastaur","waste":"trash"}},"type":"Feature"},
	{"geometry":{"coordinates":[-21.926964,64.142696],"type":"Point"},"properties":{"osm_id":"2018416342","tag":{"amenity":"waste_basket","lukr:_TEGUND_":"4","lukr:_d_TEGUND_":"Svartur","waste":"trash"}},"type":"Feature"},
	{"geometry":{"coordinates":[-21.930019,64.142708],"type":"Point"},"properties":{"osm_id":"2018416344","tag":{"amenity":"waste_basket","lukr:_TEGUND_":"1","lukr:_d_TEGUND_":"Fest \u00c3\u00a1 lj\u00c3\u00b3sastaur","waste":"trash"}},"type":"Feature"},
	{"geometry":{"coordinates":[-21.912825,64.142747],"type":"Point"},"properties":{"osm_id":"2018416345","tag":{"amenity":"waste_basket","lukr:_TEGUND_":"4","lukr:_d_TEGUND_":"Svartur","waste":"trash"}},"type":"Feature"},
	{"geometry":{"coordinates":[-21.913664,64.142813],"type":"Point"},"properties":{"osm_id":"2018416346","tag":{"amenity":"waste_basket","lukr:_TEGUND_":"4","lukr:_d_TEGUND_":"Svartur","waste":"trash"}},"type":"Feature"},
	{"geometry":{"coordinates":[-21.931685,64.14285],"type":"Point"},"properties":{"osm_id":"2018416347","tag":{"amenity":"waste_basket","lukr:_TEGUND_":"1","lukr:_d_TEGUND_":"Fest \u00c3\u00a1 lj\u00c3\u00b3sastaur","waste":"trash"}},"type":"Feature"},
	{"geometry":{"coordinates":[-21.941233,64.142854],"type":"Point"},"properties":{"osm_id":"2018416349","tag":{"amenity":"waste_basket","lukr:_TEGUND_":"1","lukr:_d_TEGUND_":"Fest \u00c3\u00a1 lj\u00c3\u00b3sastaur","waste":"trash"}},"type":"Feature"},
	{"geometry":{"coordinates":[-21.913635,64.142931],"type":"Point"},"properties":{"osm_id":"2018416350","tag":{"amenity":"waste_basket","lukr:_TEGUND_":"4","lukr:_d_TEGUND_":"Svartur","waste":"trash"}},"type":"Feature"},
	{"geometry":{"coordinates":[-21.912673,64.142944],"type":"Point"},"properties":{"osm_id":"2018416352","tag":{"amenity":"waste_basket","lukr:_TEGUND_":"4","lukr:_d_TEGUND_":"Svartur","waste":"trash"}},"type":"Feature"},
	{"geometry":{"coordinates":[-21.913943,64.142961],"type":"Point"},"properties":{"osm_id":"2018416354","tag":{"amenity":"waste_basket","lukr:_TEGUND_":"4","lukr:_d_TEGUND_":"Svartur","waste":"trash"}},"type":"Feature"},
	{"geometry":{"coordinates":[-21.907602,64.14298],"type":"Point"},"properties":{"osm_id":"2018416355","tag":{"amenity":"waste_basket","waste":"trash"}},"type":"Feature"},
	{"geometry":{"coordinates":[-21.937098,64.142991],"type":"Point"},"properties":{"osm_id":"2018416356","tag":{"amenity":"waste_basket","waste":"trash"}},"type":"Feature"},
	{"geometry":{"coordinates":[-21.928258,64.143027],"type":"Point"},"properties":{"osm_id":"2018416359","tag":{"amenity":"waste_basket","lukr:_TEGUND_":"1","lukr:_d_TEGUND_":"Fest \u00c3\u00a1 lj\u00c3\u00b3sastaur","waste":"trash"}},"type":"Feature"},
	{"geometry":{"coordinates":[-21.915,64.143057],"type":"Point"},"properties":{"osm_id":"2018416360","tag":{"amenity":"waste_basket","lukr:_TEGUND_":"4","lukr:_d_TEGUND_":"Svartur","waste":"trash"}},"type":"Feature"},
	{"geometry":{"coordinates":[-21.922247,64.143057],"type":"Point"},"properties":{"osm_id":"2018416361","tag":{"amenity":"waste_basket","lukr:_TEGUND_":"1","lukr:_d_TEGUND_":"Fest \u00c3\u00a1 lj\u00c3\u00b3sastaur","waste":"trash"}},"type":"Feature"},
	{"geometry":{"coordinates":[-21.944819,64.143076],"type":"Point"},"properties":{"osm_id":"2018416363","tag":{"amenity":"waste_basket","lukr:_TEGUND_":"1","lukr:_d_TEGUND_":"Fest \u00c3\u00a1 lj\u00c3\u00b3sastaur","waste":"trash"}},"type":"Feature"},
	{"geometry":{"coordinates":[-21.912472,64.143078],"type":"Point"},"properties":{"osm_id":"2018416364","tag":{"amenity":"waste_basket","lukr:_TEGUND_":"4","lukr:_d_TEGUND_":"Svartur","waste":"trash"}},"type":"Feature"},
	{"geometry":{"coordinates":[-21.91557,64.143082],"type":"Point"},"properties":{"osm_id":"2018416365","tag":{"amenity":"waste_basket","lukr:_TEGUND_":"1","lukr:_d_TEGUND_":"Fest \u00c3\u00a1 lj\u00c3\u00b3sastaur","waste":"trash"}},"type":"Feature"},
	{"geometry":{"coordinates":[-21.914235,64.143103],"type":"Point"},"properties":{"osm_id":"2018416366","tag":{"amenity":"waste_basket","lukr:_TEGUND_":"4","lukr:_d_TEGUND_":"Svartur","waste":"trash"}},"type":"Feature"},
	{"geometry":{"coordinates":[-21.916212,64.143118],"type":"Point"},"properties":{"osm_id":"2018416368","tag":{"amenity":"waste_basket","lukr:_TEGUND_":"4","lukr:_d_TEGUND_":"Svartur","waste":"trash"}},"type":"Feature"},
	{"geometry":{"coordinates":[-21.912968,64.143119],"type":"Point"},"properties":{"osm_id":"2018416369","tag":{"amenity":"waste_basket","lukr:_TEGUND_":"4","lukr:_d_TEGUND_":"Svartur","waste":"trash"}},"type":"Feature"},
	{"geometry":{"coordinates":[-21.914584,64.143129],"type":"Point"},"properties":{"osm_id":"2018416370","tag":{"amenity":"waste_basket","lukr:_TEGUND_":"4","lukr:_d_TEGUND_":"Svartur","waste":"trash"}},"type":"Feature"},
	{"geometry":{"coordinates":[-21.914867,64.143175],"type":"Point"},"properties":{"osm_id":"2018416373","tag":{"amenity":"waste_basket","lukr:_TEGUND_":"4","lukr:_d_TEGUND_":"Svartur","waste":"trash"}},"type":"Feature"},
	{"geometry":{"coordinates":[-21.913388,64.14322],"type":"Point"},"properties":{"osm_id":"2018416375","tag":{"amenity":"waste_basket","lukr:_TEGUND_":"4","lukr:_d_TEGUND_":"Svartur","waste":"trash"}},"type":"Feature"},
	{"geometry":{"coordinates":[-21.940368,64.14323],"type":"Point"},"properties":{"osm_id":"2018416387","tag":{"amenity":"waste_basket","lukr:_TEGUND_":"2","lukr:_d_TEGUND_":"Fest \u00c3\u00a1 j\u00c3\u00a1rnboga","waste":"trash"}},"type":"Feature"},
	{"geometry":{"coordinates":[-21.928618,64.143236],"type":"Point"},"properties":{"osm_id":"2018416391","tag":{"amenity":"waste_basket","lukr:_TEGUND_":"4","lukr:_d_TEGUND_":"Svartur","waste":"trash"}},"type":"Feature"},
	{"geometry":{"coordinates":[-21.913817,64.143239],"type":"Point"},"properties":{"osm_id":"2018416396","tag":{"amenity":"waste_basket","lukr:_TEGUND_":"4","lukr:_d_TEGUND_":"Svartur","waste":"trash"}},"type":"Feature"},
	{"geometry":{"coordinates":[-21.913941,64.143253],"type":"Point"},"properties":{"osm_id":"2018416400","tag":{"amenity":"waste_basket","lukr:_TEGUND_":"4","lukr:_d_TEGUND_":"Svartur","waste":"trash"}},"type":"Feature"},
	{"geometry":{"coordinates":[-21.914489,64.143274],"type":"Point"},"properties":{"osm_id":"2018416404","tag":{"amenity":"waste_basket","lukr:_TEGUND_":"4","lukr:_d_TEGUND_":"Svartur","waste":"trash"}},"type":"Feature"},
	{"geometry":{"coordinates":[-21.9166,64.143278],"type":"Point"},"properties":{"osm_id":"2018416407","tag":{"amenity":"waste_basket","lukr:_TEGUND_":"4","lukr:_d_TEGUND_":"Svartur","waste":"trash"}},"type":"Feature"},
	{"geometry":{"coordinates":[-21.914097,64.143303],"type":"Point"},"properties":{"osm_id":"2018416412","tag":{"amenity":"waste_basket","lukr:_TEGUND_":"4","lukr:_d_TEGUND_":"Svartur","waste":"trash"}},"type":"Feature"},
	{"geometry":{"coordinates":[-21.913973,64.143378],"type":"Point"},"properties":{"osm_id":"2018416416","tag":{"amenity":"waste_basket","lukr:_TEGUND_":"4","lukr:_d_TEGUND_":"Svartur","waste":"trash"}},"type":"Feature"},
	{"geometry":{"coordinates":[-21.961211,64.143413],"type":"Point"},"properties":{"osm_id":"2018416420","tag":{"amenity":"waste_basket","waste":"trash"}},"type":"Feature"},
	{"geometry":{"coordinates":[-21.951132,64.143492],"type":"Point"},"properties":{"osm_id":"2018416422","tag":{"amenity":"waste_basket","lukr:_TEGUND_":"3","lukr:_d_TEGUND_":"Fest \u00c3\u00a1 j\u00c3\u00a1rnr\u00c3\u00b6r","waste":"trash"}},"type":"Feature"},
	{"geometry":{"coordinates":[-21.914257,64.143505],"type":"Point"},"properties":{"osm_id":"2018416428","tag":{"amenity":"waste_basket","lukr:_TEGUND_":"4","lukr:_d_TEGUND_":"Svartur","waste":"trash"}},"type":"Feature"},
	{"geometry":{"coordinates":[-21.930936,64.143507],"type":"Point"},"properties":{"osm_id":"2018416434","tag":{"amenity":"waste_basket","waste":"trash"}},"type":"Feature"},
	{"geometry":{"coordinates":[-21.940221,64.143532],"type":"Point"},"properties":{"osm_id":"2018416438","tag":{"amenity":"waste_basket","lukr:_TEGUND_":"1","lukr:_d_TEGUND_":"Fest \u00c3\u00a1 lj\u00c3\u00b3sastaur","waste":"trash"}},"type":"Feature"},
	{"geometry":{"coordinates":[-21.951397,64.143504],"type":"Point"},"properties":{"osm_id":"2018416444","tag":{"amenity":"waste_basket","lukr:_TEGUND_":"3","lukr:_d_TEGUND_":"Fest \u00c3\u00a1 j\u00c3\u00a1rnr\u00c3\u00b6r","waste":"trash"}},"type":"Feature"},
	{"geometry":{"coordinates":[-21.914508,64.143581],"type":"Point"},"properties":{"osm_id":"2018416452","tag":{"amenity":"waste_basket","lukr:_TEGUND_":"4","lukr:_d_TEGUND_":"Svartur","waste":"trash"}},"type":"Feature"},
	{"geometry":{"coordinates":[-21.929372,64.143638],"type":"Point"},"properties":{"osm_id":"2018416458","tag":{"amenity":"waste_basket","lukr:_TEGUND_":"4","lukr:_d_TEGUND_":"Svartur","waste":"trash"}},"type":"Feature"},
	{"geometry":{"coordinates":[-21.91903,64.143645],"type":"Point"},"properties":{"osm_id":"2018416486","tag":{"amenity":"waste_basket","lukr:_TEGUND_":"4","lukr:_d_TEGUND_":"Svartur","waste":"trash"}},"type":"Feature"},
	{"geometry":{"coordinates":[-21.94895,64.143646],"type":"Point"},"properties":{"osm_id":"2018416490","tag":{"amenity":"waste_basket","lukr:_TEGUND_":"1","lukr:_d_TEGUND_":"Fest \u00c3\u00a1 lj\u00c3\u00b3sastaur","waste":"trash"}},"type":"Feature"},
	{"geometry":{"coordinates":[-21.915145,64.143732],"type":"Point"},"properties":{"osm_id":"2018416496","tag":{"amenity":"waste_basket","lukr:_TEGUND_":"1","lukr:_d_TEGUND_":"Fest \u00c3\u00a1 lj\u00c3\u00b3sastaur","waste":"trash"}},"type":"Feature"},
	{"geometry":{"coordinates":[-21.919193,64.143757],"type":"Point"},"properties":{"osm_id":"2018416500","tag":{"amenity":"waste_basket","lukr:_TEGUND_":"4","lukr:_d_TEGUND_":"Svartur","waste":"trash"}},"type":"Feature"},
	{"geometry":{"coordinates":[-21.950653,64.143765],"type":"Point"},"properties":{"osm_id":"2018416503","tag":{"amenity":"waste_basket","lukr:_TEGUND_":"1","lukr:_d_TEGUND_":"Fest \u00c3\u00a1 lj\u00c3\u00b3sastaur","waste":"trash"}},"type":"Feature"},
	{"geometry":{"coordinates":[-21.926252,64.143793],"type":"Point"},"properties":{"osm_id":"2018416504","tag":{"amenity":"waste_basket","lukr:_TEGUND_":"1","lukr:_d_TEGUND_":"Fest \u00c3\u00a1 lj\u00c3\u00b3sastaur","waste":"trash"}},"type":"Feature"},
	{"geometry":{"coordinates":[-21.940099,64.143804],"type":"Point"},"properties":{"osm_id":"2018416507","tag":{"amenity":"waste_basket","lukr:_TEGUND_":"2","lukr:_d_TEGUND_":"Fest \u00c3\u00a1 j\u00c3\u00a1rnboga","waste":"trash"}},"type":"Feature"},
	{"geometry":{"coordinates":[-21.950825,64.1439],"type":"Point"},"properties":{"osm_id":"2018416510","tag":{"amenity":"waste_basket","lukr:_TEGUND_":"3","lukr:_d_TEGUND_":"Fest \u00c3\u00a1 j\u00c3\u00a1rnr\u00c3\u00b6r","waste":"trash"}},"type":"Feature"},
	{"geometry":{"coordinates":[-21.935625,64.144101],"type":"Point"},"properties":{"osm_id":"2018416526","tag":{"amenity":"waste_basket","lukr:_TEGUND_":"1","lukr:_d_TEGUND_":"Fest \u00c3\u00a1 lj\u00c3\u00b3sastaur","waste":"trash"}},"type":"Feature"},
	{"geometry":{"coordinates":[-21.902039,64.144102],"type":"Point"},"properties":{"osm_id":"2018416530","tag":{"amenity":"waste_basket","lukr:_TEGUND_":"1","lukr:_d_TEGUND_":"Fest \u00c3\u00a1 lj\u00c3\u00b3sastaur","waste":"trash"}},"type":"Feature"},
	{"geometry":{"coordinates":[-21.93962,64.144158],"type":"Point"},"properties":{"osm_id":"2018416540","tag":{"amenity":"waste_basket","lukr:_TEGUND_":"1","lukr:_d_TEGUND_":"Fest \u00c3\u00a1 lj\u00c3\u00b3sastaur","waste":"trash"}},"type":"Feature"},
	{"geometry":{"coordinates":[-21.931274,64.144183],"type":"Point"},"properties":{"osm_id":"2018416544","tag":{"amenity":"waste_basket","lukr:_TEGUND_":"1","lukr:_d_TEGUND_":"Fest \u00c3\u00a1 lj\u00c3\u00b3sastaur","waste":"trash"}},"type":"Feature"},
	{"geometry":{"coordinates":[-21.912444,64.144193],"type":"Point"},"properties":{"osm_id":"2018416547","tag":{"amenity":"waste_basket","lukr:_TEGUND_":"1","lukr:_d_TEGUND_":"Fest \u00c3\u00a1 lj\u00c3\u00b3sastaur","waste":"trash"}},"type":"Feature"},
	{"geometry":{"coordinates":[-21.921905,64.144203],"type":"Point"},"properties":{"osm_id":"2018416548","tag":{"amenity":"waste_basket","lukr:_TEGUND_":"4","lukr:_d_TEGUND_":"Svartur","waste":"trash"}},"type":"Feature"},
	{"geometry":{"coordinates":[-21.930243,64.144261],"type":"Point"},"properties":{"osm_id":"2018416550","tag":{"amenity":"waste_basket","lukr:_TEGUND_":"3","lukr:_d_TEGUND_":"Fest \u00c3\u00a1 j\u00c3\u00a1rnr\u00c3\u00b6r","waste":"trash"}},"type":"Feature"},
	{"geometry":{"coordinates":[-21.921669,64.144274],"type":"Point"},"properties":{"osm_id":"2018416551","tag":{"amenity":"waste_basket","lukr:_TEGUND_":"4","lukr:_d_TEGUND_":"Svartur","waste":"trash"}},"type":"Feature"},
	{"geometry":{"coordinates":[-21.921894,64.144288],"type":"Point"},"properties":{"osm_id":"2018416552","tag":{"amenity":"waste_basket","lukr:_TEGUND_":"1","lukr:_d_TEGUND_":"Fest \u00c3\u00a1 lj\u00c3\u00b3sastaur","waste":"trash"}},"type":"Feature"},
	{"geometry":{"coordinates":[-21.951631,64.144401],"type":"Point"},"properties":{"osm_id":"2018416557","tag":{"amenity":"waste_basket","lukr:_TEGUND_":"3","lukr:_d_TEGUND_":"Fest \u00c3\u00a1 j\u00c3\u00a1rnr\u00c3\u00b6r","waste":"trash"}},"type":"Feature"},
	{"geometry":{"coordinates":[-21.930281,64.14444],"type":"Point"},"properties":{"osm_id":"2018416560","tag":{"amenity":"waste_basket","lukr:_TEGUND_":"4","lukr:_d_TEGUND_":"Svartur","waste":"trash"}},"type":"Feature"},
	{"geometry":{"coordinates":[-21.939812,64.144475],"type":"Point"},"properties":{"osm_id":"2018416561","tag":{"amenity":"waste_basket","lukr:_TEGUND_":"1","lukr:_d_TEGUND_":"Fest \u00c3\u00a1 lj\u00c3\u00b3sastaur","waste":"trash"}},"type":"Feature"},
	{"geometry":{"coordinates":[-21.930567,64.144484],"type":"Point"},"properties":{"osm_id":"2018416562","tag":{"amenity":"waste_basket","lukr:_TEGUND_":"4","lukr:_d_TEGUND_":"Svartur","waste":"trash"}},"type":"Feature"},
	{"geometry":{"coordinates":[-21.918971,64.144509],"type":"Point"},"properties":{"osm_id":"2018416564","tag":{"amenity":"waste_basket","lukr:_TEGUND_":"3","lukr:_d_TEGUND_":"Fest \u00c3\u00a1 j\u00c3\u00a1rnr\u00c3\u00b6r","waste":"trash"}},"type":"Feature"},
	{"geometry":{"coordinates":[-21.922971,64.144521],"type":"Point"},"properties":{"osm_id":"2018416565","tag":{"amenity":"waste_basket","lukr:_TEGUND_":"4","lukr:_d_TEGUND_":"Svartur","waste":"trash"}},"type":"Feature"},
	{"geometry":{"coordinates":[-21.961901,64.144592],"type":"Point"},"properties":{"osm_id":"2018416568","tag":{"amenity":"waste_basket","lukr:_TEGUND_":"1","lukr:_d_TEGUND_":"Fest \u00c3\u00a1 lj\u00c3\u00b3sastaur","waste":"trash"}},"type":"Feature"},
	{"geometry":{"coordinates":[-21.93075,64.144615],"type":"Point"},"properties":{"osm_id":"2018416571","tag":{"amenity":"waste_basket","lukr:_TEGUND_":"1","lukr:_d_TEGUND_":"Fest \u00c3\u00a1 lj\u00c3\u00b3sastaur","waste":"trash"}},"type":"Feature"},
	{"geometry":{"coordinates":[-21.923934,64.144677],"type":"Point"},"properties":{"osm_id":"2018416573","tag":{"amenity":"waste_basket","lukr:_TEGUND_":"4","lukr:_d_TEGUND_":"Svartur","waste":"trash"}},"type":"Feature"},
	{"geometry":{"coordinates":[-21.923924,64.144678],"type":"Point"},"properties":{"osm_id":"2018416575","tag":{"amenity":"waste_basket","lukr:_TEGUND_":"1","lukr:_d_TEGUND_":"Fest \u00c3\u00a1 lj\u00c3\u00b3sastaur","waste":"trash"}},"type":"Feature"},
	{"geometry":{"coordinates":[-21.962283,64.144678],"type":"Point"},"properties":{"osm_id":"2018416576","tag":{"amenity":"waste_basket","lukr:_TEGUND_":"3","lukr:_d_TEGUND_":"Fest \u00c3\u00a1 j\u00c3\u00a1rnr\u00c3\u00b6r","waste":"trash"}},"type":"Feature"},
	{"geometry":{"coordinates":[-21.97113,64.144692],"type":"Point"},"properties":{"osm_id":"2018416577","tag":{"amenity":"waste_basket","lukr:_TEGUND_":"3","lukr:_d_TEGUND_":"Fest \u00c3\u00a1 j\u00c3\u00a1rnr\u00c3\u00b6r","waste":"trash"}},"type":"Feature"},
	{"geometry":{"coordinates":[-21.960198,64.144692],"type":"Point"},"properties":{"osm_id":"2018416579","tag":{"amenity":"waste_basket","lukr:_TEGUND_":"3","lukr:_d_TEGUND_":"Fest \u00c3\u00a1 j\u00c3\u00a1rnr\u00c3\u00b6r","waste":"trash"}},"type":"Feature"},
	{"geometry":{"coordinates":[-21.944605,64.144783],"type":"Point"},"properties":{"osm_id":"2018416582","tag":{"amenity":"waste_basket","lukr:_TEGUND_":"3","lukr:_d_TEGUND_":"Fest \u00c3\u00a1 j\u00c3\u00a1rnr\u00c3\u00b6r","waste":"trash"}},"type":"Feature"},
	{"geometry":{"coordinates":[-21.962288,64.144814],"type":"Point"},"properties":{"osm_id":"2018416584","tag":{"amenity":"waste_basket","lukr:_TEGUND_":"1","lukr:_d_TEGUND_":"Fest \u00c3\u00a1 lj\u00c3\u00b3sastaur","waste":"trash"}},"type":"Feature"},
	{"geometry":{"coordinates":[-21.925006,64.14482],"type":"Point"},"properties":{"osm_id":"2018416586","tag":{"amenity":"waste_basket","lukr:_TEGUND_":"4","lukr:_d_TEGUND_":"Svartur","waste":"trash"}},"type":"Feature"},
	{"geometry":{"coordinates":[-21.93964,64.144848],"type":"Point"},"properties":{"osm_id":"2018416587","tag":{"amenity":"waste_basket","lukr:_TEGUND_":"2","lukr:_d_TEGUND_":"Fest \u00c3\u00a1 j\u00c3\u00a1rnboga","waste":"trash"}},"type":"Feature"},
	{"geometry":{"coordinates":[-21.925078,64.144912],"type":"Point"},"properties":{"osm_id":"2018416589","tag":{"amenity":"waste_basket","lukr:_TEGUND_":"4","lukr:_d_TEGUND_":"Svartur","waste":"trash"}},"type":"Feature"},
	{"geometry":{"coordinates":[-21.931159,64.144914],"type":"Point"},"properties":{"osm_id":"2018416590","tag":{"amenity":"waste_basket","lukr:_TEGUND_":"1","lukr:_d_TEGUND_":"Fest \u00c3\u00a1 lj\u00c3\u00b3sastaur","waste":"trash"}},"type":"Feature"},
	{"geometry":{"coordinates":[-21.930945,64.144943],"type":"Point"},"properties":{"osm_id":"2018416591","tag":{"amenity":"waste_basket","lukr:_TEGUND_":"1","lukr:_d_TEGUND_":"Fest \u00c3\u00a1 lj\u00c3\u00b3sastaur","waste":"trash"}},"type":"Feature"},
	{"geometry":{"coordinates":[-21.971638,64.144953],"type":"Point"},"properties":{"osm_id":"2018416594","tag":{"amenity":"waste_basket","lukr:_TEGUND_":"3","lukr:_d_TEGUND_":"Fest \u00c3\u00a1 j\u00c3\u00a1rnr\u00c3\u00b6r","waste":"trash"}},"type":"Feature"},
	{"geometry":{"coordinates":[-21.931283,64.144974],"type":"Point"},"properties":{"osm_id":"2018416595","tag":{"amenity":"waste_basket","lukr:_TEGUND_":"4","lukr:_d_TEGUND_":"Svartur","waste":"trash"}},"type":"Feature"},
	{"geometry":{"coordinates":[-21.970193,64.145036],"type":"Point"},"properties":{"osm_id":"2018416599","tag":{"amenity":"waste_basket","lukr:_TEGUND_":"3","lukr:_d_TEGUND_":"Fest \u00c3\u00a1 j\u00c3\u00a1rnr\u00c3\u00b6r","waste":"trash"}},"type":"Feature"},
	{"geometry":{"coordinates":[-21.925764,64.145042],"type":"Point"},"properties":{"osm_id":"2018416600","tag":{"amenity":"waste_basket","lukr:_TEGUND_":"4","lukr:_d_TEGUND_":"Svartur","waste":"trash"}},"type":"Feature"},
	{"geometry":{"coordinates":[-21.939557,64.145059],"type":"Point"},"properties":{"osm_id":"2018416602","tag":{"amenity":"waste_basket","lukr:_TEGUND_":"2","lukr:_d_TEGUND_":"Fest \u00c3\u00a1 j\u00c3\u00a1rnboga","waste":"trash"}},"type":"Feature"},
	{"geometry":{"coordinates":[-21.922445,64.145156],"type":"Point"},"properties":{"osm_id":"2018416603","tag":{"amenity":"waste_basket","lukr:_TEGUND_":"1","lukr:_d_TEGUND_":"Fest \u00c3\u00a1 lj\u00c3\u00b3sastaur","waste":"trash"}},"type":"Feature"},
	{"geometry":{"coordinates":[-21.910474,64.145122],"type":"Point"},"properties":{"osm_id":"2018416604","tag":{"amenity":"waste_basket","waste":"trash"}},"type":"Feature"},
	{"geometry":{"coordinates":[-21.944226,64.145134],"type":"Point"},"properties":{"osm_id":"2018416605","tag":{"amenity":"waste_basket","lukr:_TEGUND_":"1","lukr:_d_TEGUND_":"Fest \u00c3\u00a1 lj\u00c3\u00b3sastaur","waste":"trash"}},"type":"Feature"},
	{"geometry":{"coordinates":[-21.931316,64.145218],"type":"Point"},"properties":{"osm_id":"2018416610","tag":{"amenity":"waste_basket","lukr:_TEGUND_":"4","lukr:_d_TEGUND_":"Svartur","waste":"trash"}},"type":"Feature"},
	{"geometry":{"coordinates":[-21.927011,64.145242],"type":"Point"},"properties":{"osm_id":"2018416612","tag":{"amenity":"waste_basket","lukr:_TEGUND_":"4","lukr:_d_TEGUND_":"Svartur","waste":"trash"}},"type":"Feature"},
	{"geometry":{"coordinates":[-21.921412,64.14526],"type":"Point"},"properties":{"osm_id":"2018416617","tag":{"amenity":"waste_basket","lukr:_TEGUND_":"1","lukr:_d_TEGUND_":"Fest \u00c3\u00a1 lj\u00c3\u00b3sastaur","waste":"trash"}},"type":"Feature"},
	{"geometry":{"coordinates":[-21.939395,64.145275],"type":"Point"},"properties":{"osm_id":"2018416623","tag":{"amenity":"waste_basket","lukr:_TEGUND_":"9","lukr:_d_TEGUND_":"Auka stampar um helgar","waste":"trash"}},"type":"Feature"},
	{"geometry":{"coordinates":[-21.923652,64.145298],"type":"Point"},"properties":{"osm_id":"2018416627","tag":{"amenity":"waste_basket","lukr:_TEGUND_":"1","lukr:_d_TEGUND_":"Fest \u00c3\u00a1 lj\u00c3\u00b3sastaur","waste":"trash"}},"type":"Feature"},
	{"geometry":{"coordinates":[-21.939392,64.145363],"type":"Point"},"properties":{"osm_id":"2018416631","tag":{"amenity":"waste_basket","lukr:_TEGUND_":"1","lukr:_d_TEGUND_":"Fest \u00c3\u00a1 lj\u00c3\u00b3sastaur","waste":"trash"}},"type":"Feature"},
	{"geometry":{"coordinates":[-21.927349,64.14537],"type":"Point"},"properties":{"osm_id":"2018416634","tag":{"amenity":"waste_basket","lukr:_TEGUND_":"4","lukr:_d_TEGUND_":"Svartur","waste":"trash"}},"type":"Feature"},
	{"geometry":{"coordinates":[-21.931569,64.145378],"type":"Point"},"properties":{"osm_id":"2018416637","tag":{"amenity":"waste_basket","lukr:_TEGUND_":"4","lukr:_d_TEGUND_":"Svartur","waste":"trash"}},"type":"Feature"},
	{"geometry":{"coordinates":[-21.939412,64.145378],"type":"Point"},"properties":{"osm_id":"2018416640","tag":{"amenity":"waste_basket","lukr:_TEGUND_":"4","lukr:_d_TEGUND_":"Svartur","waste":"trash"}},"type":"Feature"},
	{"geometry":{"coordinates":[-21.927517,64.145403],"type":"Point"},"properties":{"osm_id":"2018416643","tag":{"amenity":"waste_basket","lukr:_TEGUND_":"1","lukr:_d_TEGUND_":"Fest \u00c3\u00a1 lj\u00c3\u00b3sastaur","waste":"trash"}},"type":"Feature"},
	{"geometry":{"coordinates":[-21.920924,64.145408],"type":"Point"},"properties":{"osm_id":"2018416648","tag":{"amenity":"waste_basket","lukr:_TEGUND_":"1","lukr:_d_TEGUND_":"Fest \u00c3\u00a1 lj\u00c3\u00b3sastaur","waste":"trash"}},"type":"Feature"},
	{"geometry":{"coordinates":[-21.958046,64.145445],"type":"Point"},"properties":{"osm_id":"2018416651","tag":{"amenity":"waste_basket","lukr:_TEGUND_":"3","lukr:_d_TEGUND_":"Fest \u00c3\u00a1 j\u00c3\u00a1rnr\u00c3\u00b6r","waste":"trash"}},"type":"Feature"},
	{"geometry":{"coordinates":[-21.939572,64.14547],"type":"Point"},"properties":{"osm_id":"2018416655","tag":{"amenity":"waste_basket","lukr:_TEGUND_":"2","lukr:_d_TEGUND_":"Fest \u00c3\u00a1 j\u00c3\u00a1rnboga","waste":"trash"}},"type":"Feature"},
	{"geometry":{"coordinates":[-21.936235,64.145498],"type":"Point"},"properties":{"osm_id":"2018416659","tag":{"amenity":"waste_basket","lukr:_TEGUND_":"4","lukr:_d_TEGUND_":"Svartur","waste":"trash"}},"type":"Feature"},
	{"geometry":{"coordinates":[-21.931977,64.145542],"type":"Point"},"properties":{"osm_id":"2018416662","tag":{"amenity":"waste_basket","lukr:_TEGUND_":"4","lukr:_d_TEGUND_":"Svartur","waste":"trash"}},"type":"Feature"},
	{"geometry":{"coordinates":[-21.943767,64.145543],"type":"Point"},"properties":{"osm_id":"2018416665","tag":{"amenity":"waste_basket","lukr:_TEGUND_":"2","lukr:_d_TEGUND_":"Fest \u00c3\u00a1 j\u00c3\u00a1rnboga","waste":"trash"}},"type":"Feature"},
	{"geometry":{"coordinates":[-21.931976,64.145547],"type":"Point"},"properties":{"osm_id":"2018416669","tag":{"amenity":"waste_basket","lukr:_TEGUND_":"1","lukr:_d_TEGUND_":"Fest \u00c3\u00a1 lj\u00c3\u00b3sastaur","waste":"trash"}},"type":"Feature"},
	{"geometry":{"coordinates":[-21.92108,64.145559],"type":"Point"},"properties":{"osm_id":"2018416676","tag":{"amenity":"waste_basket","lukr:_TEGUND_":"1","lukr:_d_TEGUND_":"Fest \u00c3\u00a1 lj\u00c3\u00b3sastaur","waste":"trash"}},"type":"Feature"},
	{"geometry":{"coordinates":[-21.938718,64.145564],"type":"Point"},"properties":{"osm_id":"2018416678","tag":{"amenity":"waste_basket","lukr:_TEGUND_":"4","lukr:_d_TEGUND_":"Svartur","waste":"trash"}},"type":"Feature"},
	{"geometry":{"coordinates":[-21.921726,64.145569],"type":"Point"},"properties":{"osm_id":"2018416680","tag":{"amenity":"waste_basket","lukr:_TEGUND_":"1","lukr:_d_TEGUND_":"Fest \u00c3\u00a1 lj\u00c3\u00b3sastaur","waste":"trash"}},"type":"Feature"},
	{"geometry":{"coordinates":[-21.938277,64.14558],"type":"Point"},"properties":{"osm_id":"2018416682","tag":{"amenity":"waste_basket","lukr:_TEGUND_":"4","lukr:_d_TEGUND_":"Svartur","waste":"trash"}},"type":"Feature"},
	{"geometry":{"coordinates":[-21.939877,64.145581],"type":"Point"},"properties":{"osm_id":"2018416683","tag":{"amenity":"waste_basket","lukr:_TEGUND_":"2","lukr:_d_TEGUND_":"Fest \u00c3\u00a1 j\u00c3\u00a1rnboga","waste":"trash"}},"type":"Feature"},
	{"geometry":{"coordinates":[-21.939653,64.145586],"type":"Point"},"properties":{"osm_id":"2018416685","tag":{"amenity":"waste_basket","lukr:_TEGUND_":"4","lukr:_d_TEGUND_":"Svartur","waste":"trash"}},"type":"Feature"},
	{"geometry":{"coordinates":[-21.939647,64.145588],"type":"Point"},"properties":{"osm_id":"2018416686","tag":{"amenity":"waste_basket","lukr:_TEGUND_":"2","lukr:_d_TEGUND_":"Fest \u00c3\u00a1 j\u00c3\u00a1rnboga","waste":"trash"}},"type":"Feature"},
	{"geometry":{"coordinates":[-21.930788,64.14563],"type":"Point"},"properties":{"osm_id":"2018416687","tag":{"amenity":"waste_basket","lukr:_TEGUND_":"4","lukr:_d_TEGUND_":"Svartur","waste":"trash"}},"type":"Feature"},
	{"geometry":{"coordinates":[-21.96233,64.145643],"type":"Point"},"properties":{"osm_id":"2018416688","tag":{"amenity":"waste_basket","lukr:_TEGUND_":"1","lukr:_d_TEGUND_":"Fest \u00c3\u00a1 lj\u00c3\u00b3sastaur","waste":"trash"}},"type":"Feature"},
	{"geometry":{"coordinates":[-21.939124,64.145646],"type":"Point"},"properties":{"osm_id":"2018416690","tag":{"amenity":"waste_basket","lukr:_TEGUND_":"1","lukr:_d_TEGUND_":"Fest \u00c3\u00a1 lj\u00c3\u00b3sastaur","waste":"trash"}},"type":"Feature"},
	{"geometry":{"coordinates":[-21.939148,64.14565],"type":"Point"},"properties":{"osm_id":"2018416691","tag":{"amenity":"waste_basket","lukr:_TEGUND_":"4","lukr:_d_TEGUND_":"Svartur","waste":"trash"}},"type":"Feature"},
	{"geometry":{"coordinates":[-21.940056,64.145675],"type":"Point"},"properties":{"osm_id":"2018416693","tag":{"amenity":"waste_basket","lukr:_TEGUND_":"4","lukr:_d_TEGUND_":"Svartur","waste":"trash"}},"type":"Feature"},
	{"geometry":{"coordinates":[-21.940166,64.145676],"type":"Point"},"properties":{"osm_id":"2018416695","tag":{"amenity":"waste_basket","lukr:_TEGUND_":"9","lukr:_d_TEGUND_":"Auka stampar um helgar","waste":"trash"}},"type":"Feature"},
	{"geometry":{"coordinates":[-21.943616,64.145682],"type":"Point"},"properties":{"osm_id":"2018416696","tag":{"amenity":"waste_basket","lukr:_TEGUND_":"2","lukr:_d_TEGUND_":"Fest \u00c3\u00a1 j\u00c3\u00a1rnboga","waste":"trash"}},"type":"Feature"},
	{"geometry":{"coordinates":[-21.920976,64.145692],"type":"Point"},"properties":{"osm_id":"2018416709","tag":{"amenity":"waste_basket","lukr:_TEGUND_":"1","lukr:_d_TEGUND_":"Fest \u00c3\u00a1 lj\u00c3\u00b3sastaur","waste":"trash"}},"type":"Feature"},
	{"geometry":{"coordinates":[-21.93201,64.145696],"type":"Point"},"properties":{"osm_id":"2018416714","tag":{"amenity":"waste_basket","lukr:_TEGUND_":"4","lukr:_d_TEGUND_":"Svartur","waste":"trash"}},"type":"Feature"},
	{"geometry":{"coordinates":[-21.929335,64.145701],"type":"Point"},"properties":{"osm_id":"2018416717","tag":{"amenity":"waste_basket","lukr:_TEGUND_":"4","lukr:_d_TEGUND_":"Svartur","waste":"trash"}},"type":"Feature"},
	{"geometry":{"coordinates":[-21.940409,64.145701],"type":"Point"},"properties":{"osm_id":"2018416721","tag":{"amenity":"waste_basket","lukr:_TEGUND_":"2","lukr:_d_TEGUND_":"Fest \u00c3\u00a1 j\u00c3\u00a1rnboga","waste":"trash"}},"type":"Feature"},
	{"geometry":{"coordinates":[-21.925712,64.145712],"type":"Point"},"properties":{"osm_id":"2018416725","tag":{"amenity":"waste_basket","lukr:_TEGUND_":"1","lukr:_d_TEGUND_":"Fest \u00c3\u00a1 lj\u00c3\u00b3sastaur","waste":"trash"}},"type":"Feature"},
	{"geometry":{"coordinates":[-21.929106,64.145724],"type":"Point"},"properties":{"osm_id":"2018416730","tag":{"amenity":"waste_basket","lukr:_TEGUND_":"1","lukr:_d_TEGUND_":"Fest \u00c3\u00a1 lj\u00c3\u00b3sastaur","waste":"trash"}},"type":"Feature"},
	{"geometry":{"coordinates":[-21.929115,64.145726],"type":"Point"},"properties":{"osm_id":"2018416734","tag":{"amenity":"waste_basket","lukr:_TEGUND_":"4","lukr:_d_TEGUND_":"Svartur","waste":"trash"}},"type":"Feature"},
	{"geometry":{"coordinates":[-21.93208,64.145735],"type":"Point"},"properties":{"osm_id":"2018416738","tag":{"amenity":"waste_basket","lukr:_TEGUND_":"1","lukr:_d_TEGUND_":"Fest \u00c3\u00a1 lj\u00c3\u00b3sastaur","waste":"trash"}},"type":"Feature"},
	{"geometry":{"coordinates":[-21.921265,64.145764],"type":"Point"},"properties":{"osm_id":"2018416740","tag":{"amenity":"waste_basket","lukr:_TEGUND_":"1","lukr:_d_TEGUND_":"Fest \u00c3\u00a1 lj\u00c3\u00b3sastaur","waste":"trash"}},"type":"Feature"},
	{"geometry":{"coordinates":[-21.905599,64.145806],"type":"Point"},"properties":{"osm_id":"2018416743","tag":{"amenity":"waste_basket","lukr:_TEGUND_":"1","lukr:_d_TEGUND_":"Fest \u00c3\u00a1 lj\u00c3\u00b3sastaur","waste":"trash"}},"type":"Feature"},
	{"geometry":{"coordinates":[-21.938304,64.145813],"type":"Point"},"properties":{"osm_id":"2018416744","tag":{"amenity":"waste_basket","lukr:_TEGUND_":"4","lukr:_d_TEGUND_":"Svartur","waste":"trash"}},"type":"Feature"},
	{"geometry":{"coordinates":[-21.940377,64.145817],"type":"Point"},"properties":{"osm_id":"2018416745","tag":{"amenity":"waste_basket","lukr:_TEGUND_":"2","lukr:_d_TEGUND_":"Fest \u00c3\u00a1 j\u00c3\u00a1rnboga","waste":"trash"}},"type":"Feature"},
	{"geometry":{"coordinates":[-21.943429,64.145846],"type":"Point"},"properties":{"osm_id":"2018416747","tag":{"amenity":"waste_basket","lukr:_TEGUND_":"4","lukr:_d_TEGUND_":"Svartur","waste":"trash"}},"type":"Feature"},
	{"geometry":{"coordinates":[-21.91986,64.145847],"type":"Point"},"properties":{"osm_id":"2018416748","tag":{"amenity":"waste_basket","waste":"trash"}},"type":"Feature"},
	{"geometry":{"coordinates":[-21.940333,64.14586],"type":"Point"},"properties":{"osm_id":"2018416749","tag":{"amenity":"waste_basket","lukr:_TEGUND_":"4","lukr:_d_TEGUND_":"Svartur","waste":"trash"}},"type":"Feature"},
	{"geometry":{"coordinates":[-21.94035,64.145864],"type":"Point"},"properties":{"osm_id":"2018416750","tag":{"amenity":"waste_basket","lukr:_TEGUND_":"2","lukr:_d_TEGUND_":"Fest \u00c3\u00a1 j\u00c3\u00a1rnboga","waste":"trash"}},"type":"Feature"},
	{"geometry":{"coordinates":[-21.943401,64.145868],"type":"Point"},"properties":{"osm_id":"2018416753","tag":{"amenity":"waste_basket","lukr:_TEGUND_":"2","lukr:_d_TEGUND_":"Fest \u00c3\u00a1 j\u00c3\u00a1rnboga","waste":"trash"}},"type":"Feature"},
	{"geometry":{"coordinates":[-21.929616,64.14587],"type":"Point"},"properties":{"osm_id":"2018416754","tag":{"amenity":"waste_basket","lukr:_TEGUND_":"4","lukr:_d_TEGUND_":"Svartur","waste":"trash"}},"type":"Feature"},
	{"geometry":{"coordinates":[-21.930274,64.145881],"type":"Point"},"properties":{"osm_id":"2018416755","tag":{"amenity":"waste_basket","lukr:_TEGUND_":"4","lukr:_d_TEGUND_":"Svartur","waste":"trash"}},"type":"Feature"},
	{"geometry":{"coordinates":[-21.932493,64.145893],"type":"Point"},"properties":{"osm_id":"2018416757","tag":{"amenity":"waste_basket","lukr:_TEGUND_":"1","lukr:_d_TEGUND_":"Fest \u00c3\u00a1 lj\u00c3\u00b3sastaur","waste":"trash"}},"type":"Feature"},
	{"geometry":{"coordinates":[-21.930359,64.145965],"type":"Point"},"properties":{"osm_id":"2018416759","tag":{"amenity":"waste_basket","lukr:_TEGUND_":"1","lukr:_d_TEGUND_":"Fest \u00c3\u00a1 lj\u00c3\u00b3sastaur","waste":"trash"}},"type":"Feature"},
	{"geometry":{"coordinates":[-21.94051,64.145996],"type":"Point"},"properties":{"osm_id":"2018416763","tag":{"amenity":"waste_basket","lukr:_TEGUND_":"1","lukr:_d_TEGUND_":"Fest \u00c3\u00a1 lj\u00c3\u00b3sastaur","waste":"trash"}},"type":"Feature"},
	{"geometry":{"coordinates":[-21.943212,64.146008],"type":"Point"},"properties":{"osm_id":"2018416766","tag":{"amenity":"waste_basket","lukr:_TEGUND_":"2","lukr:_d_TEGUND_":"Fest \u00c3\u00a1 j\u00c3\u00a1rnboga","waste":"trash"}},"type":"Feature"},
	{"geometry":{"coordinates":[-21.948095,64.146012],"type":"Point"},"properties":{"osm_id":"2018416770","tag":{"amenity":"waste_basket","waste":"trash"}},"type":"Feature"},
	{"geometry":{"coordinates":[-21.943218,64.146017],"type":"Point"},"properties":{"osm_id":"2018416773","tag":{"amenity":"waste_basket","lukr:_TEGUND_":"4","lukr:_d_TEGUND_":"Svartur","waste":"trash"}},"type":"Feature"},
	{"geometry":{"coordinates":[-21.940691,64.146024],"type":"Point"},"properties":{"osm_id":"2018416775","tag":{"amenity":"waste_basket","lukr:_TEGUND_":"1","lukr:_d_TEGUND_":"Fest \u00c3\u00a1 lj\u00c3\u00b3sastaur","waste":"trash"}},"type":"Feature"},
	{"geometry":{"coordinates":[-21.964696,64.146051],"type":"Point"},"properties":{"osm_id":"2018416777","tag":{"amenity":"waste_basket","lukr:_TEGUND_":"1","lukr:_d_TEGUND_":"Fest \u00c3\u00a1 lj\u00c3\u00b3sastaur","waste":"trash"}},"type":"Feature"},
	{"geometry":{"coordinates":[-21.951094,64.146052],"type":"Point"},"properties":{"osm_id":"2018416778","tag":{"amenity":"waste_basket","lukr:_TEGUND_":"1","lukr:_d_TEGUND_":"Fest \u00c3\u00a1 lj\u00c3\u00b3sastaur","waste":"trash"}},"type":"Feature"},
	{"geometry":{"coordinates":[-21.937924,64.146056],"type":"Point"},"properties":{"osm_id":"2018416780","tag":{"amenity":"waste_basket","lukr:_TEGUND_":"4","lukr:_d_TEGUND_":"Svartur","waste":"trash"}},"type":"Feature"},
	{"geometry":{"coordinates":[-21.937921,64.146058],"type":"Point"},"properties":{"osm_id":"2018416783","tag":{"amenity":"waste_basket","lukr:_TEGUND_":"9","lukr:_d_TEGUND_":"Auka stampar um helgar","waste":"trash"}},"type":"Feature"},
	{"geometry":{"coordinates":[-21.895803,64.14606],"type":"Point"},"properties":{"osm_id":"2018416787","tag":{"amenity":"waste_basket","lukr:_TEGUND_":"1","lukr:_d_TEGUND_":"Fest \u00c3\u00a1 lj\u00c3\u00b3sastaur","waste":"trash"}},"type":"Feature"},
	{"geometry":{"coordinates":[-21.965181,64.146083],"type":"Point"},"properties":{"osm_id":"2018416792","tag":{"amenity":"waste_basket","lukr:_TEGUND_":"3","lukr:_d_TEGUND_":"Fest \u00c3\u00a1 j\u00c3\u00a1rnr\u00c3\u00b6r","waste":"trash"}},"type":"Feature"},
	{"geometry":{"coordinates":[-21.931157,64.146085],"type":"Point"},"properties":{"osm_id":"2018416794","tag":{"amenity":"waste_basket","lukr:_TEGUND_":"4","lukr:_d_TEGUND_":"Svartur","waste":"trash"}},"type":"Feature"},
	{"geometry":{"coordinates":[-21.934864,64.146093],"type":"Point"},"properties":{"osm_id":"2018416795","tag":{"amenity":"waste_basket","waste":"trash"}},"type":"Feature"},
	{"geometry":{"coordinates":[-21.938485,64.146113],"type":"Point"},"properties":{"osm_id":"2018416796","tag":{"amenity":"waste_basket","lukr:_TEGUND_":"4","lukr:_d_TEGUND_":"Svartur","waste":"trash"}},"type":"Feature"},
	{"geometry":{"coordinates":[-21.922068,64.146127],"type":"Point"},"properties":{"osm_id":"2018416800","tag":{"amenity":"waste_basket","lukr:_TEGUND_":"1","lukr:_d_TEGUND_":"Fest \u00c3\u00a1 lj\u00c3\u00b3sastaur","waste":"trash"}},"type":"Feature"},
	{"geometry":{"coordinates":[-21.941263,64.146141],"type":"Point"},"properties":{"osm_id":"2018416803","tag":{"amenity":"waste_basket","lukr:_TEGUND_":"1","lukr:_d_TEGUND_":"Fest \u00c3\u00a1 lj\u00c3\u00b3sastaur","waste":"trash"}},"type":"Feature"},
	{"geometry":{"coordinates":[-21.94126,64.146151],"type":"Point"},"properties":{"osm_id":"2018416807","tag":{"amenity":"waste_basket","lukr:_TEGUND_":"1","lukr:_d_TEGUND_":"Fest \u00c3\u00a1 lj\u00c3\u00b3sastaur","waste":"trash"}},"type":"Feature"},
	{"geometry":{"coordinates":[-21.896554,64.146165],"type":"Point"},"properties":{"osm_id":"2018416810","tag":{"amenity":"waste_basket","lukr:_TEGUND_":"1","lukr:_d_TEGUND_":"Fest \u00c3\u00a1 lj\u00c3\u00b3sastaur","waste":"trash"}},"type":"Feature"},
	{"geometry":{"coordinates":[-21.931305,64.146172],"type":"Point"},"properties":{"osm_id":"2018416816","tag":{"amenity":"waste_basket","lukr:_TEGUND_":"4","lukr:_d_TEGUND_":"Svartur","waste":"trash"}},"type":"Feature"},
	{"geometry":{"coordinates":[-21.932931,64.146195],"type":"Point"},"properties":{"osm_id":"2018416819","tag":{"amenity":"waste_basket","lukr:_TEGUND_":"1","lukr:_d_TEGUND_":"Fest \u00c3\u00a1 lj\u00c3\u00b3sastaur","waste":"trash"}},"type":"Feature"},
	{"geometry":{"coordinates":[-21.931712,64.146246],"type":"Point"},"properties":{"osm_id":"2018416823","tag":{"amenity":"waste_basket","lukr:_TEGUND_":"1","lukr:_d_TEGUND_":"Fest \u00c3\u00a1 lj\u00c3\u00b3sastaur","waste":"trash"}},"type":"Feature"},
	{"geometry":{"coordinates":[-21.931704,64.146247],"type":"Point"},"properties":{"osm_id":"2018416827","tag":{"amenity":"waste_basket","lukr:_TEGUND_":"4","lukr:_d_TEGUND_":"Svartur","waste":"trash"}},"type":"Feature"},
	{"geometry":{"coordinates":[-21.90582,64.146296],"type":"Point"},"properties":{"osm_id":"2018416828","tag":{"amenity":"waste_basket","lukr:_TEGUND_":"1","lukr:_d_TEGUND_":"Fest \u00c3\u00a1 lj\u00c3\u00b3sastaur","waste":"trash"}},"type":"Feature"},
	{"geometry":{"coordinates":[-21.921461,64.146362],"type":"Point"},"properties":{"osm_id":"2018416839","tag":{"amenity":"waste_basket","waste":"trash"}},"type":"Feature"},
	{"geometry":{"coordinates":[-21.912178,64.14639],"type":"Point"},"properties":{"osm_id":"2018416840","tag":{"amenity":"waste_basket","lukr:_TEGUND_":"3","lukr:_d_TEGUND_":"Fest \u00c3\u00a1 j\u00c3\u00a1rnr\u00c3\u00b6r","waste":"trash"}},"type":"Feature"},
	{"geometry":{"coordinates":[-21.937977,64.146393],"type":"Point"},"properties":{"osm_id":"2018416844","tag":{"amenity":"waste_basket","lukr:_TEGUND_":"4","lukr:_d_TEGUND_":"Svartur","waste":"trash"}},"type":"Feature"},
	{"geometry":{"coordinates":[-21.937287,64.146419],"type":"Point"},"properties":{"osm_id":"2018416856","tag":{"amenity":"waste_basket","lukr:_TEGUND_":"4","lukr:_d_TEGUND_":"Svartur","waste":"trash"}},"type":"Feature"},
	{"geometry":{"coordinates":[-21.94007,64.146428],"type":"Point"},"properties":{"osm_id":"2018416860","tag":{"amenity":"waste_basket","lukr:_TEGUND_":"4","lukr:_d_TEGUND_":"Svartur","waste":"trash"}},"type":"Feature"},
	{"geometry":{"coordinates":[-21.932584,64.146438],"type":"Point"},"properties":{"osm_id":"2018416864","tag":{"amenity":"waste_basket","lukr:_TEGUND_":"4","lukr:_d_TEGUND_":"Svartur","waste":"trash"}},"type":"Feature"},
	{"geometry":{"coordinates":[-21.932591,64.146442],"type":"Point"},"properties":{"osm_id":"2018416868","tag":{"amenity":"waste_basket","lukr:_TEGUND_":"9","lukr:_d_TEGUND_":"Auka stampar um helgar","waste":"trash"}},"type":"Feature"},
	{"geometry":{"coordinates":[-21.942596,64.14649],"type":"Point"},"properties":{"osm_id":"2018416873","tag":{"amenity":"waste_basket","lukr:_TEGUND_":"4","lukr:_d_TEGUND_":"Svartur","waste":"trash"}},"type":"Feature"},
	{"geometry":{"coordinates":[-21.942118,64.146548],"type":"Point"},"properties":{"osm_id":"2018416884","tag":{"amenity":"waste_basket","lukr:_TEGUND_":"4","lukr:_d_TEGUND_":"Svartur","waste":"trash"}},"type":"Feature"},
	{"geometry":{"coordinates":[-21.942111,64.146548],"type":"Point"},"properties":{"osm_id":"2018416887","tag":{"amenity":"waste_basket","lukr:_TEGUND_":"2","lukr:_d_TEGUND_":"Fest \u00c3\u00a1 j\u00c3\u00a1rnboga","waste":"trash"}},"type":"Feature"},
	{"geometry":{"coordinates":[-21.942283,64.146555],"type":"Point"},"properties":{"osm_id":"2018416891","tag":{"amenity":"waste_basket","lukr:_TEGUND_":"3","lukr:_d_TEGUND_":"Fest \u00c3\u00a1 j\u00c3\u00a1rnr\u00c3\u00b6r","waste":"trash"}},"type":"Feature"},
	{"geometry":{"coordinates":[-21.919729,64.146598],"type":"Point"},"properties":{"osm_id":"2018416906","tag":{"amenity":"waste_basket","lukr:_TEGUND_":"3","lukr:_d_TEGUND_":"Fest \u00c3\u00a1 j\u00c3\u00a1rnr\u00c3\u00b6r","waste":"trash"}},"type":"Feature"},
	{"geometry":{"coordinates":[-21.933488,64.146653],"type":"Point"},"properties":{"osm_id":"2018416913","tag":{"amenity":"waste_basket","lukr:_TEGUND_":"4","lukr:_d_TEGUND_":"Svartur","waste":"trash"}},"type":"Feature"},
	{"geometry":{"coordinates":[-21.886994,64.146682],"type":"Point"},"properties":{"osm_id":"2018416918","tag":{"amenity":"waste_basket","lukr:_TEGUND_":"1","lukr:_d_TEGUND_":"Fest \u00c3\u00a1 lj\u00c3\u00b3sastaur","waste":"trash"}},"type":"Feature"},
	{"geometry":{"coordinates":[-21.954481,64.146686],"type":"Point"},"properties":{"osm_id":"2018416922","tag":{"amenity":"waste_basket","lukr:_TEGUND_":"3","lukr:_d_TEGUND_":"Fest \u00c3\u00a1 j\u00c3\u00a1rnr\u00c3\u00b6r","waste":"trash"}},"type":"Feature"},
	{"geometry":{"coordinates":[-21.933687,64.146714],"type":"Point"},"properties":{"osm_id":"2018416925","tag":{"amenity":"waste_basket","lukr:_TEGUND_":"4","lukr:_d_TEGUND_":"Svartur","waste":"trash"}},"type":"Feature"},
	{"geometry":{"coordinates":[-21.93668,64.146756],"type":"Point"},"properties":{"osm_id":"2018416933","tag":{"amenity":"waste_basket","lukr:_TEGUND_":"4","lukr:_d_TEGUND_":"Svartur","waste":"trash"}},"type":"Feature"},
	{"geometry":{"coordinates":[-21.931274,64.146791],"type":"Point"},"properties":{"osm_id":"2018416940","tag":{"amenity":"waste_basket","waste":"trash"}},"type":"Feature"},
	{"geometry":{"coordinates":[-21.937887,64.146809],"type":"Point"},"properties":{"osm_id":"2018416943","tag":{"amenity":"waste_basket","lukr:_TEGUND_":"4","lukr:_d_TEGUND_":"Svartur","waste":"trash"}},"type":"Feature"},
	{"geometry":{"coordinates":[-21.938966,64.146822],"type":"Point"},"properties":{"osm_id":"2018416947","tag":{"amenity":"waste_basket","lukr:_TEGUND_":"4","lukr:_d_TEGUND_":"Svartur","waste":"trash"}},"type":"Feature"},
	{"geometry":{"coordinates":[-21.947776,64.146845],"type":"Point"},"properties":{"osm_id":"2018416954","tag":{"amenity":"waste_basket","lukr:_TEGUND_":"1","lukr:_d_TEGUND_":"Fest \u00c3\u00a1 lj\u00c3\u00b3sastaur","waste":"trash"}},"type":"Feature"},
	{"geometry":{"coordinates":[-21.93031,64.146874],"type":"Point"},"properties":{"osm_id":"2018416958","tag":{"amenity":"waste_basket","lukr:_TEGUND_":"4","lukr:_d_TEGUND_":"Svartur","waste":"trash"}},"type":"Feature"},
	{"geometry":{"coordinates":[-21.93108,64.146879],"type":"Point"},"properties":{"osm_id":"2018416960","tag":{"amenity":"waste_basket","lukr:_TEGUND_":"1","lukr:_d_TEGUND_":"Fest \u00c3\u00a1 lj\u00c3\u00b3sastaur","waste":"trash"}},"type":"Feature"},
	{"geometry":{"coordinates":[-21.935647,64.146884],"type":"Point"},"properties":{"osm_id":"2018416983","tag":{"amenity":"waste_basket","lukr:_TEGUND_":"4","lukr:_d_TEGUND_":"Svartur","waste":"trash"}},"type":"Feature"},
	{"geometry":{"coordinates":[-21.935651,64.14689],"type":"Point"},"properties":{"osm_id":"2018416989","tag":{"amenity":"waste_basket","lukr:_TEGUND_":"2","lukr:_d_TEGUND_":"Fest \u00c3\u00a1 j\u00c3\u00a1rnboga","waste":"trash"}},"type":"Feature"},
	{"geometry":{"coordinates":[-21.936494,64.146898],"type":"Point"},"properties":{"osm_id":"2018416996","tag":{"amenity":"waste_basket","lukr:_TEGUND_":"4","lukr:_d_TEGUND_":"Svartur","waste":"trash"}},"type":"Feature"},
	{"geometry":{"coordinates":[-21.888688,64.146993],"type":"Point"},"properties":{"osm_id":"2018417004","tag":{"amenity":"waste_basket","lukr:_TEGUND_":"1","lukr:_d_TEGUND_":"Fest \u00c3\u00a1 lj\u00c3\u00b3sastaur","waste":"trash"}},"type":"Feature"},
	{"geometry":{"coordinates":[-21.937069,64.14695],"type":"Point"},"properties":{"osm_id":"2018417011","tag":{"amenity":"waste_basket","lukr:_TEGUND_":"4","lukr:_d_TEGUND_":"Svartur","waste":"trash"}},"type":"Feature"},
	{"geometry":{"coordinates":[-21.888435,64.146963],"type":"Point"},"properties":{"osm_id":"2018417018","tag":{"amenity":"waste_basket","lukr:_TEGUND_":"1","lukr:_d_TEGUND_":"Fest \u00c3\u00a1 lj\u00c3\u00b3sastaur","waste":"trash"}},"type":"Feature"},
	{"geometry":{"coordinates":[-21.93223,64.146985],"type":"Point"},"properties":{"osm_id":"2018417032","tag":{"amenity":"waste_basket","lukr:_TEGUND_":"1","lukr:_d_TEGUND_":"Fest \u00c3\u00a1 lj\u00c3\u00b3sastaur","waste":"trash"}},"type":"Feature"},
	{"geometry":{"coordinates":[-21.930651,64.146965],"type":"Point"},"properties":{"osm_id":"2018417039","tag":{"amenity":"waste_basket","lukr:_TEGUND_":"4","lukr:_d_TEGUND_":"Svartur","waste":"trash"}},"type":"Feature"},
	{"geometry":{"coordinates":[-21.935122,64.147003],"type":"Point"},"properties":{"osm_id":"2018417045","tag":{"amenity":"waste_basket","lukr:_TEGUND_":"4","lukr:_d_TEGUND_":"Svartur","waste":"trash"}},"type":"Feature"},
	{"geometry":{"coordinates":[-21.93177,64.147031],"type":"Point"},"properties":{"osm_id":"2018417050","tag":{"amenity":"waste_basket","lukr:_TEGUND_":"4","lukr:_d_TEGUND_":"Svartur","waste":"trash"}},"type":"Feature"},
	{"geometry":{"coordinates":[-21.935875,64.147043],"type":"Point"},"properties":{"osm_id":"2018417054","tag":{"amenity":"waste_basket","lukr:_TEGUND_":"4","lukr:_d_TEGUND_":"Svartur","waste":"trash"}},"type":"Feature"},
	{"geometry":{"coordinates":[-21.941246,64.147122],"type":"Point"},"properties":{"osm_id":"2018417066","tag":{"amenity":"waste_basket","lukr:_TEGUND_":"1","lukr:_d_TEGUND_":"Fest \u00c3\u00a1 lj\u00c3\u00b3sastaur","waste":"trash"}},"type":"Feature"},
	{"geometry":{"coordinates":[-21.953232,64.147123],"type":"Point"},"properties":{"osm_id":"2018417070","tag":{"amenity":"waste_basket","lukr:_TEGUND_":"4","lukr:_d_TEGUND_":"Svartur","waste":"trash"}},"type":"Feature"},
	{"geometry":{"coordinates":[-21.935707,64.147138],"type":"Point"},"properties":{"osm_id":"2018417074","tag":{"amenity":"waste_basket","lukr:_TEGUND_":"4","lukr:_d_TEGUND_":"Svartur","waste":"trash"}},"type":"Feature"},
	{"geometry":{"coordinates":[-21.935706,64.147141],"type":"Point"},"properties":{"osm_id":"2018417092","tag":{"amenity":"waste_basket","lukr:_TEGUND_":"9","lukr:_d_TEGUND_":"Auka stampar um helgar","waste":"trash"}},"type":"Feature"},
	{"geometry":{"coordinates":[-21.963952,64.147144],"type":"Point"},"properties":{"osm_id":"2018417096","tag":{"amenity":"waste_basket","lukr:_TEGUND_":"1","lukr:_d_TEGUND_":"Fest \u00c3\u00a1 lj\u00c3\u00b3sastaur","waste":"trash"}},"type":"Feature"},
	{"geometry":{"coordinates":[-21.939913,64.147166],"type":"Point"},"properties":{"osm_id":"2018417101","tag":{"amenity":"waste_basket","lukr:_TEGUND_":"4","lukr:_d_TEGUND_":"Svartur","waste":"trash"}},"type":"Feature"},
	{"geometry":{"coordinates":[-21.936637,64.147173],"type":"Point"},"properties":{"osm_id":"2018417105","tag":{"amenity":"waste_basket","lukr:_TEGUND_":"1","lukr:_d_TEGUND_":"Fest \u00c3\u00a1 lj\u00c3\u00b3sastaur","waste":"trash"}},"type":"Feature"},
	{"geometry":{"coordinates":[-21.936646,64.147174],"type":"Point"},"properties":{"osm_id":"2018417109","tag":{"amenity":"waste_basket","lukr:_TEGUND_":"4","lukr:_d_TEGUND_":"Svartur","waste":"trash"}},"type":"Feature"},
	{"geometry":{"coordinates":[-21.933269,64.147187],"type":"Point"},"properties":{"osm_id":"2018417112","tag":{"amenity":"waste_basket","lukr:_TEGUND_":"4","lukr:_d_TEGUND_":"Svartur","waste":"trash"}},"type":"Feature"},
	{"geometry":{"coordinates":[-21.921747,64.147189],"type":"Point"},"properties":{"osm_id":"2018417113","tag":{"amenity":"waste_basket","lukr:_TEGUND_":"2","lukr:_d_TEGUND_":"Fest \u00c3\u00a1 j\u00c3\u00a1rnboga","waste":"trash"}},"type":"Feature"},
	{"geometry":{"coordinates":[-21.939875,64.147212],"type":"Point"},"properties":{"osm_id":"2018417116","tag":{"amenity":"waste_basket","lukr:_TEGUND_":"4","lukr:_d_TEGUND_":"Svartur","waste":"trash"}},"type":"Feature"},
	{"geometry":{"coordinates":[-21.93277,64.147215],"type":"Point"},"properties":{"osm_id":"2018417120","tag":{"amenity":"waste_basket","lukr:_TEGUND_":"4","lukr:_d_TEGUND_":"Svartur","waste":"trash"}},"type":"Feature"},
	{"geometry":{"coordinates":[-21.939599,64.147236],"type":"Point"},"properties":{"osm_id":"2018417124","tag":{"amenity":"waste_basket","lukr:_TEGUND_":"4","lukr:_d_TEGUND_":"Svartur","waste":"trash"}},"type":"Feature"},
	{"geometry":{"coordinates":[-21.939291,64.147247],"type":"Point"},"properties":{"osm_id":"2018417128","tag":{"amenity":"waste_basket","lukr:_TEGUND_":"4","lukr:_d_TEGUND_":"Svartur","waste":"trash"}},"type":"Feature"},
	{"geometry":{"coordinates":[-21.939702,64.14725],"type":"Point"},"properties":{"osm_id":"2018417132","tag":{"amenity":"waste_basket","lukr:_TEGUND_":"4","lukr:_d_TEGUND_":"Svartur","waste":"trash"}},"type":"Feature"},
	{"geometry":{"coordinates":[-21.938716,64.147269],"type":"Point"},"properties":{"osm_id":"2018417137","tag":{"amenity":"waste_basket","lukr:_TEGUND_":"1","lukr:_d_TEGUND_":"Fest \u00c3\u00a1 lj\u00c3\u00b3sastaur","waste":"trash"}},"type":"Feature"},
	{"geometry":{"coordinates":[-21.939798,64.14727],"type":"Point"},"properties":{"osm_id":"2018417141","tag":{"amenity":"waste_basket","lukr:_TEGUND_":"4","lukr:_d_TEGUND_":"Svartur","waste":"trash"}},"type":"Feature"},
	{"geometry":{"coordinates":[-21.942489,64.147293],"type":"Point"},"properties":{"osm_id":"2018417145","tag":{"amenity":"waste_basket","lukr:_TEGUND_":"4","lukr:_d_TEGUND_":"Svartur","waste":"trash"}},"type":"Feature"},
	{"geometry":{"coordinates":[-21.936863,64.147303],"type":"Point"},"properties":{"osm_id":"2018417160","tag":{"amenity":"waste_basket","lukr:_TEGUND_":"9","lukr:_d_TEGUND_":"Auka stampar um helgar","waste":"trash"}},"type":"Feature"},
	{"geometry":{"coordinates":[-21.936879,64.147304],"type":"Point"},"properties":{"osm_id":"2018417161","tag":{"amenity":"waste_basket","lukr:_TEGUND_":"4","lukr:_d_TEGUND_":"Svartur","waste":"trash"}},"type":"Feature"},
	{"geometry":{"coordinates":[-21.941635,64.147313],"type":"Point"},"properties":{"osm_id":"2018417162","tag":{"amenity":"waste_basket","lukr:_TEGUND_":"4","lukr:_d_TEGUND_":"Svartur","waste":"trash"}},"type":"Feature"},
	{"geometry":{"coordinates":[-21.922149,64.147321],"type":"Point"},"properties":{"osm_id":"2018417164","tag":{"amenity":"waste_basket","lukr:_TEGUND_":"2","lukr:_d_TEGUND_":"Fest \u00c3\u00a1 j\u00c3\u00a1rnboga","waste":"trash"}},"type":"Feature"},
	{"geometry":{"coordinates":[-21.947376,64.147323],"type":"Point"},"properties":{"osm_id":"2018417166","tag":{"amenity":"waste_basket","lukr:_TEGUND_":"1","lukr:_d_TEGUND_":"Fest \u00c3\u00a1 lj\u00c3\u00b3sastaur","waste":"trash"}},"type":"Feature"},
	{"geometry":{"coordinates":[-21.935671,64.14735],"type":"Point"},"properties":{"osm_id":"2018417167","tag":{"amenity":"waste_basket","lukr:_TEGUND_":"4","lukr:_d_TEGUND_":"Svartur","waste":"trash"}},"type":"Feature"},
	{"geometry":{"coordinates":[-21.937256,64.147352],"type":"Point"},"properties":{"osm_id":"2018417168","tag":{"amenity":"waste_basket","lukr:_TEGUND_":"4","lukr:_d_TEGUND_":"Svartur","waste":"trash"}},"type":"Feature"},
	{"geometry":{"coordinates":[-21.938952,64.147355],"type":"Point"},"properties":{"osm_id":"2018417169","tag":{"amenity":"waste_basket","lukr:_TEGUND_":"4","lukr:_d_TEGUND_":"Svartur","waste":"trash"}},"type":"Feature"},
	{"geometry":{"coordinates":[-21.936433,64.147385],"type":"Point"},"properties":{"osm_id":"2018417171","tag":{"access":"yes","amenity":"waste_basket","colour":"black","waste":"trash"}},"type":"Feature"},
	{"geometry":{"coordinates":[-21.939176,64.147379],"type":"Point"},"properties":{"osm_id":"2018417172","tag":{"amenity":"waste_basket","lukr:_TEGUND_":"4","lukr:_d_TEGUND_":"Svartur","waste":"trash"}},"type":"Feature"},
	{"geometry":{"coordinates":[-21.936923,64.147396],"type":"Point"},"properties":{"osm_id":"2018417173","tag":{"amenity":"waste_basket","lukr:_TEGUND_":"4","lukr:_d_TEGUND_":"Svartur","waste":"trash"}},"type":"Feature"},
	{"geometry":{"coordinates":[-21.938795,64.1474],"type":"Point"},"properties":{"osm_id":"2018417175","tag":{"amenity":"waste_basket","lukr:_TEGUND_":"4","lukr:_d_TEGUND_":"Svartur","waste":"trash"}},"type":"Feature"},
	{"geometry":{"coordinates":[-21.939066,64.147406],"type":"Point"},"properties":{"osm_id":"2018417176","tag":{"amenity":"waste_basket","lukr:_TEGUND_":"4","lukr:_d_TEGUND_":"Svartur","waste":"trash"}},"type":"Feature"},
	{"geometry":{"coordinates":[-21.939302,64.1474],"type":"Point"},"properties":{"osm_id":"2018417177","tag":{"amenity":"waste_basket","lukr:_TEGUND_":"4","lukr:_d_TEGUND_":"Svartur","waste":"trash"}},"type":"Feature"},
	{"geometry":{"coordinates":[-21.939446,64.147423],"type":"Point"},"properties":{"osm_id":"2018417178","tag":{"amenity":"waste_basket","lukr:_TEGUND_":"4","lukr:_d_TEGUND_":"Svartur","waste":"trash"}},"type":"Feature"},
	{"geometry":{"coordinates":[-21.936306,64.147448],"type":"Point"},"properties":{"osm_id":"2018417181","tag":{"amenity":"waste_basket","lukr:_TEGUND_":"4","lukr:_d_TEGUND_":"Svartur","waste":"trash"}},"type":"Feature"},
	{"geometry":{"coordinates":[-21.936301,64.147453],"type":"Point"},"properties":{"osm_id":"2018417182","tag":{"amenity":"waste_basket","lukr:_TEGUND_":"1","lukr:_d_TEGUND_":"Fest \u00c3\u00a1 lj\u00c3\u00b3sastaur","waste":"trash"}},"type":"Feature"},
	{"geometry":{"coordinates":[-21.939589,64.147446],"type":"Point"},"properties":{"osm_id":"2018417183","tag":{"amenity":"waste_basket","lukr:_TEGUND_":"4","lukr:_d_TEGUND_":"Svartur","waste":"trash"}},"type":"Feature"},
	{"geometry":{"coordinates":[-21.941887,64.147475],"type":"Point"},"properties":{"osm_id":"2018417185","tag":{"amenity":"waste_basket","lukr:_TEGUND_":"4","lukr:_d_TEGUND_":"Svartur","waste":"trash"}},"type":"Feature"},
	{"geometry":{"coordinates":[-21.941598,64.147477],"type":"Point"},"properties":{"osm_id":"2018417186","tag":{"amenity":"waste_basket","lukr:_TEGUND_":"1","lukr:_d_TEGUND_":"Fest \u00c3\u00a1 lj\u00c3\u00b3sastaur","waste":"trash"}},"type":"Feature"},
	{"geometry":{"coordinates":[-21.94029,64.147484],"type":"Point"},"properties":{"osm_id":"2018417187","tag":{"amenity":"waste_basket","lukr:_TEGUND_":"1","lukr:_d_TEGUND_":"Fest \u00c3\u00a1 lj\u00c3\u00b3sastaur","waste":"trash"}},"type":"Feature"},
	{"geometry":{"coordinates":[-21.934779,64.147496],"type":"Point"},"properties":{"osm_id":"2018417190","tag":{"amenity":"waste_basket","lukr:_TEGUND_":"4","lukr:_d_TEGUND_":"Svartur","waste":"trash"}},"type":"Feature"},
	{"geometry":{"coordinates":[-21.934766,64.147496],"type":"Point"},"properties":{"osm_id":"2018417192","tag":{"amenity":"waste_basket","lukr:_TEGUND_":"1","lukr:_d_TEGUND_":"Fest \u00c3\u00a1 lj\u00c3\u00b3sastaur","waste":"trash"}},"type":"Feature"},
	{"geometry":{"coordinates":[-21.936356,64.147497],"type":"Point"},"properties":{"osm_id":"2018417195","tag":{"amenity":"waste_basket","waste":"trash"}},"type":"Feature"},
	{"geometry":{"coordinates":[-21.939849,64.147489],"type":"Point"},"properties":{"osm_id":"2018417196","tag":{"amenity":"waste_basket","lukr:_TEGUND_":"4","lukr:_d_TEGUND_":"Svartur","waste":"trash"}},"type":"Feature"},
	{"geometry":{"coordinates":[-21.940005,64.147542],"type":"Point"},"properties":{"osm_id":"2018417202","tag":{"amenity":"waste_basket","lukr:_TEGUND_":"4","lukr:_d_TEGUND_":"Svartur","waste":"trash"}},"type":"Feature"},
	{"geometry":{"coordinates":[-21.93801,64.147557],"type":"Point"},"properties":{"osm_id":"2018417205","tag":{"amenity":"waste_basket","lukr:_TEGUND_":"1","lukr:_d_TEGUND_":"Fest \u00c3\u00a1 lj\u00c3\u00b3sastaur","waste":"trash"}},"type":"Feature"},
	{"geometry":{"coordinates":[-21.92293,64.147579],"type":"Point"},"properties":{"osm_id":"2018417208","tag":{"amenity":"waste_basket","lukr:_TEGUND_":"2","lukr:_d_TEGUND_":"Fest \u00c3\u00a1 j\u00c3\u00a1rnboga","waste":"trash"}},"type":"Feature"},
	{"geometry":{"coordinates":[-21.936242,64.147596],"type":"Point"},"properties":{"osm_id":"2018417214","tag":{"amenity":"waste_basket","waste":"trash"}},"type":"Feature"},
	{"geometry":{"coordinates":[-21.936043,64.1476],"type":"Point"},"properties":{"osm_id":"2018417217","tag":{"amenity":"waste_basket","lukr:_TEGUND_":"1","lukr:_d_TEGUND_":"Fest \u00c3\u00a1 lj\u00c3\u00b3sastaur","waste":"trash"}},"type":"Feature"},
	{"geometry":{"coordinates":[-21.930452,64.147601],"type":"Point"},"properties":{"osm_id":"2018417234","tag":{"amenity":"waste_basket","lukr:_TEGUND_":"1","lukr:_d_TEGUND_":"Fest \u00c3\u00a1 lj\u00c3\u00b3sastaur","waste":"trash"}},"type":"Feature"},
	{"geometry":{"coordinates":[-21.93604,64.147603],"type":"Point"},"properties":{"osm_id":"2018417235","tag":{"amenity":"waste_basket","lukr:_TEGUND_":"4","lukr:_d_TEGUND_":"Svartur","waste":"trash"}},"type":"Feature"},
	{"geometry":{"coordinates":[-21.936817,64.14761],"type":"Point"},"properties":{"osm_id":"2018417236","tag":{"amenity":"waste_basket","lukr:_TEGUND_":"4","lukr:_d_TEGUND_":"Svartur","waste":"trash"}},"type":"Feature"},
	{"geometry":{"coordinates":[-21.938351,64.147616],"type":"Point"},"properties":{"osm_id":"2018417237","tag":{"amenity":"waste_basket","lukr:_TEGUND_":"4","lukr:_d_TEGUND_":"Svartur","waste":"trash"}},"type":"Feature"},
	{"geometry":{"coordinates":[-21.938793,64.147616],"type":"Point"},"properties":{"osm_id":"2018417239","tag":{"amenity":"waste_basket","lukr:_TEGUND_":"1","lukr:_d_TEGUND_":"Fest \u00c3\u00a1 lj\u00c3\u00b3sastaur","waste":"trash"}},"type":"Feature"},
	{"geometry":{"coordinates":[-21.940986,64.147713],"type":"Point"},"properties":{"osm_id":"2018417243","tag":{"amenity":"waste_basket","lukr:_TEGUND_":"4","lukr:_d_TEGUND_":"Svartur","waste":"trash"}},"type":"Feature"},
	{"geometry":{"coordinates":[-21.923345,64.147726],"type":"Point"},"properties":{"osm_id":"2018417244","tag":{"amenity":"waste_basket","lukr:_TEGUND_":"2","lukr:_d_TEGUND_":"Fest \u00c3\u00a1 j\u00c3\u00a1rnboga","waste":"trash"}},"type":"Feature"},
	{"geometry":{"coordinates":[-21.939614,64.147734],"type":"Point"},"properties":{"osm_id":"2018417245","tag":{"amenity":"waste_basket","lukr:_TEGUND_":"1","lukr:_d_TEGUND_":"Fest \u00c3\u00a1 lj\u00c3\u00b3sastaur","waste":"trash"}},"type":"Feature"},
	{"geometry":{"coordinates":[-21.932543,64.14778],"type":"Point"},"properties":{"osm_id":"2018417247","tag":{"amenity":"waste_basket","lukr:_TEGUND_":"1","lukr:_d_TEGUND_":"Fest \u00c3\u00a1 lj\u00c3\u00b3sastaur","waste":"trash"}},"type":"Feature"},
	{"geometry":{"coordinates":[-21.933126,64.147815],"type":"Point"},"properties":{"osm_id":"2018417248","tag":{"amenity":"waste_basket","waste":"trash"}},"type":"Feature"},
	{"geometry":{"coordinates":[-21.939721,64.147826],"type":"Point"},"properties":{"osm_id":"2018417249","tag":{"amenity":"waste_basket","lukr:_TEGUND_":"9","lukr:_d_TEGUND_":"Auka stampar um helgar","waste":"trash"}},"type":"Feature"},
	{"geometry":{"coordinates":[-21.962569,64.147827],"type":"Point"},"properties":{"osm_id":"2018417250","tag":{"amenity":"waste_basket","lukr:_TEGUND_":"3","lukr:_d_TEGUND_":"Fest \u00c3\u00a1 j\u00c3\u00a1rnr\u00c3\u00b6r","waste":"trash"}},"type":"Feature"},
	{"geometry":{"coordinates":[-21.93303,64.147824],"type":"Point"},"properties":{"osm_id":"2018417252","tag":{"amenity":"waste_basket","lukr:_TEGUND_":"4","lukr:_d_TEGUND_":"Svartur","waste":"trash"}},"type":"Feature"},
	{"geometry":{"coordinates":[-21.943248,64.147884],"type":"Point"},"properties":{"osm_id":"2018417254","tag":{"amenity":"waste_basket","lukr:_TEGUND_":"1","lukr:_d_TEGUND_":"Fest \u00c3\u00a1 lj\u00c3\u00b3sastaur","waste":"trash"}},"type":"Feature"},
	{"geometry":{"coordinates":[-21.937217,64.147891],"type":"Point"},"properties":{"osm_id":"2018417255","tag":{"amenity":"waste_basket","lukr:_TEGUND_":"9","lukr:_d_TEGUND_":"Auka stampar um helgar","waste":"trash"}},"type":"Feature"},
	{"geometry":{"coordinates":[-21.955677,64.147899],"type":"Point"},"properties":{"osm_id":"2018417257","tag":{"amenity":"waste_basket","lukr:_TEGUND_":"1","lukr:_d_TEGUND_":"Fest \u00c3\u00a1 lj\u00c3\u00b3sastaur","waste":"trash"}},"type":"Feature"},
	{"geometry":{"coordinates":[-21.926635,64.147903],"type":"Point"},"properties":{"osm_id":"2018417258","tag":{"amenity":"waste_basket","lukr:_TEGUND_":"1","lukr:_d_TEGUND_":"Fest \u00c3\u00a1 lj\u00c3\u00b3sastaur","waste":"trash"}},"type":"Feature"},
	{"geometry":{"coordinates":[-21.94117,64.147912],"type":"Point"},"properties":{"osm_id":"2018417259","tag":{"amenity":"waste_basket","lukr:_TEGUND_":"4","lukr:_d_TEGUND_":"Svartur","waste":"trash"}},"type":"Feature"},
	{"geometry":{"coordinates":[-21.940388,64.147935],"type":"Point"},"properties":{"osm_id":"2018417260","tag":{"amenity":"waste_basket","lukr:_TEGUND_":"4","lukr:_d_TEGUND_":"Svartur","waste":"trash"}},"type":"Feature"},
	{"geometry":{"coordinates":[-21.941159,64.147936],"type":"Point"},"properties":{"osm_id":"2018417262","tag":{"amenity":"waste_basket","lukr:_TEGUND_":"4","lukr:_d_TEGUND_":"Svartur","waste":"trash"}},"type":"Feature"},
	{"geometry":{"coordinates":[-21.94047,64.147953],"type":"Point"},"properties":{"osm_id":"2018417263","tag":{"amenity":"waste_basket","lukr:_TEGUND_":"4","lukr:_d_TEGUND_":"Svartur","waste":"trash"}},"type":"Feature"},
	{"geometry":{"coordinates":[-21.938481,64.147966],"type":"Point"},"properties":{"osm_id":"2018417264","tag":{"amenity":"waste_basket","lukr:_TEGUND_":"4","lukr:_d_TEGUND_":"Svartur","waste":"trash"}},"type":"Feature"},
	{"geometry":{"coordinates":[-21.941123,64.147969],"type":"Point"},"properties":{"osm_id":"2018417266","tag":{"amenity":"waste_basket","lukr:_TEGUND_":"4","lukr:_d_TEGUND_":"Svartur","waste":"trash"}},"type":"Feature"},
	{"geometry":{"coordinates":[-21.941101,64.147992],"type":"Point"},"properties":{"osm_id":"2018417270","tag":{"amenity":"waste_basket","lukr:_TEGUND_":"4","lukr:_d_TEGUND_":"Svartur","waste":"trash"}},"type":"Feature"},
	{"geometry":{"coordinates":[-21.940742,64.148004],"type":"Point"},"properties":{"osm_id":"2018417271","tag":{"amenity":"waste_basket","lukr:_TEGUND_":"4","lukr:_d_TEGUND_":"Svartur","waste":"trash"}},"type":"Feature"},
	{"geometry":{"coordinates":[-21.941598,64.148017],"type":"Point"},"properties":{"osm_id":"2018417273","tag":{"amenity":"waste_basket","lukr:_TEGUND_":"4","lukr:_d_TEGUND_":"Svartur","waste":"trash"}},"type":"Feature"},
	{"geometry":{"coordinates":[-21.940914,64.148037],"type":"Point"},"properties":{"osm_id":"2018417277","tag":{"amenity":"waste_basket","lukr:_TEGUND_":"4","lukr:_d_TEGUND_":"Svartur","waste":"trash"}},"type":"Feature"},
	{"geometry":{"coordinates":[-21.940919,64.148044],"type":"Point"},"properties":{"osm_id":"2018417278","tag":{"amenity":"waste_basket","lukr:_TEGUND_":"1","lukr:_d_TEGUND_":"Fest \u00c3\u00a1 lj\u00c3\u00b3sastaur","waste":"trash"}},"type":"Feature"},
	{"geometry":{"coordinates":[-21.94154,64.148082],"type":"Point"},"properties":{"osm_id":"2018417279","tag":{"amenity":"waste_basket","lukr:_TEGUND_":"4","lukr:_d_TEGUND_":"Svartur","waste":"trash"}},"type":"Feature"},
	{"geometry":{"coordinates":[-21.941011,64.148096],"type":"Point"},"properties":{"osm_id":"2018417281","tag":{"amenity":"waste_basket","lukr:_TEGUND_":"4","lukr:_d_TEGUND_":"Svartur","waste":"trash"}},"type":"Feature"},
	{"geometry":{"coordinates":[-21.927428,64.148115],"type":"Point"},"properties":{"osm_id":"2018417282","tag":{"amenity":"waste_basket","lukr:_TEGUND_":"1","lukr:_d_TEGUND_":"Fest \u00c3\u00a1 lj\u00c3\u00b3sastaur","waste":"trash"}},"type":"Feature"},
	{"geometry":{"coordinates":[-21.940966,64.148151],"type":"Point"},"properties":{"osm_id":"2018417283","tag":{"amenity":"waste_basket","lukr:_TEGUND_":"4","lukr:_d_TEGUND_":"Svartur","waste":"trash"}},"type":"Feature"},
	{"geometry":{"coordinates":[-21.941457,64.148169],"type":"Point"},"properties":{"osm_id":"2018417285","tag":{"amenity":"waste_basket","lukr:_TEGUND_":"4","lukr:_d_TEGUND_":"Svartur","waste":"trash"}},"type":"Feature"},
	{"geometry":{"coordinates":[-21.940214,64.148218],"type":"Point"},"properties":{"osm_id":"2018417286","tag":{"amenity":"waste_basket","lukr:_TEGUND_":"1","lukr:_d_TEGUND_":"Fest \u00c3\u00a1 lj\u00c3\u00b3sastaur","waste":"trash"}},"type":"Feature"},
	{"geometry":{"coordinates":[-21.940217,64.148218],"type":"Point"},"properties":{"osm_id":"2018417287","tag":{"amenity":"waste_basket","lukr:_TEGUND_":"4","lukr:_d_TEGUND_":"Svartur","waste":"trash"}},"type":"Feature"},
	{"geometry":{"coordinates":[-21.941451,64.148223],"type":"Point"},"properties":{"osm_id":"2018417288","tag":{"amenity":"waste_basket","lukr:_TEGUND_":"4","lukr:_d_TEGUND_":"Svartur","waste":"trash"}},"type":"Feature"},
	{"geometry":{"coordinates":[-21.940928,64.148341],"type":"Point"},"properties":{"osm_id":"2018417301","tag":{"amenity":"waste_basket","lukr:_TEGUND_":"4","lukr:_d_TEGUND_":"Svartur","waste":"trash"}},"type":"Feature"},
	{"geometry":{"coordinates":[-21.941044,64.148359],"type":"Point"},"properties":{"osm_id":"2018417302","tag":{"amenity":"waste_basket","lukr:_TEGUND_":"4","lukr:_d_TEGUND_":"Svartur","waste":"trash"}},"type":"Feature"},
	{"geometry":{"coordinates":[-21.941903,64.148453],"type":"Point"},"properties":{"osm_id":"2018417304","tag":{"amenity":"waste_basket","lukr:_TEGUND_":"1","lukr:_d_TEGUND_":"Fest \u00c3\u00a1 lj\u00c3\u00b3sastaur","waste":"trash"}},"type":"Feature"},
	{"geometry":{"coordinates":[-21.941454,64.14852],"type":"Point"},"properties":{"osm_id":"2018417306","tag":{"amenity":"waste_basket","lukr:_TEGUND_":"4","lukr:_d_TEGUND_":"Svartur","waste":"trash"}},"type":"Feature"},
	{"geometry":{"coordinates":[-21.96304,64.148542],"type":"Point"},"properties":{"osm_id":"2018417310","tag":{"amenity":"waste_basket","lukr:_TEGUND_":"2","lukr:_d_TEGUND_":"Fest \u00c3\u00a1 j\u00c3\u00a1rnboga","waste":"trash"}},"type":"Feature"},
	{"geometry":{"coordinates":[-21.925866,64.148572],"type":"Point"},"properties":{"osm_id":"2018417311","tag":{"amenity":"waste_basket","waste":"trash"}},"type":"Feature"},
	{"geometry":{"coordinates":[-21.941916,64.148645],"type":"Point"},"properties":{"osm_id":"2018417314","tag":{"amenity":"waste_basket","lukr:_TEGUND_":"4","lukr:_d_TEGUND_":"Svartur","waste":"trash"}},"type":"Feature"},
	{"geometry":{"coordinates":[-21.9431,64.148696],"type":"Point"},"properties":{"osm_id":"2018417316","tag":{"amenity":"waste_basket","lukr:_TEGUND_":"1","lukr:_d_TEGUND_":"Fest \u00c3\u00a1 lj\u00c3\u00b3sastaur","waste":"trash"}},"type":"Feature"},
	{"geometry":{"coordinates":[-21.941756,64.148696],"type":"Point"},"properties":{"osm_id":"2018417318","tag":{"amenity":"waste_basket","lukr:_TEGUND_":"4","lukr:_d_TEGUND_":"Svartur","waste":"trash"}},"type":"Feature"},
	{"geometry":{"coordinates":[-21.941448,64.148702],"type":"Point"},"properties":{"osm_id":"2018417320","tag":{"amenity":"waste_basket","lukr:_TEGUND_":"1","lukr:_d_TEGUND_":"Fest \u00c3\u00a1 lj\u00c3\u00b3sastaur","waste":"trash"}},"type":"Feature"},
	{"geometry":{"coordinates":[-21.944132,64.148742],"type":"Point"},"properties":{"osm_id":"2018417321","tag":{"amenity":"waste_basket","lukr:_TEGUND_":"1","lukr:_d_TEGUND_":"Fest \u00c3\u00a1 lj\u00c3\u00b3sastaur","waste":"trash"}},"type":"Feature"},
	{"geometry":{"coordinates":[-21.942527,64.148761],"type":"Point"},"properties":{"osm_id":"2018417323","tag":{"amenity":"waste_basket","lukr:_TEGUND_":"1","lukr:_d_TEGUND_":"Fest \u00c3\u00a1 lj\u00c3\u00b3sastaur","waste":"trash"}},"type":"Feature"},
	{"geometry":{"coordinates":[-21.953533,64.14888],"type":"Point"},"properties":{"osm_id":"2018417326","tag":{"amenity":"waste_basket","lukr:_TEGUND_":"2","lukr:_d_TEGUND_":"Fest \u00c3\u00a1 j\u00c3\u00a1rnboga","waste":"trash"}},"type":"Feature"},
	{"geometry":{"coordinates":[-21.942051,64.148886],"type":"Point"},"properties":{"osm_id":"2018417328","tag":{"amenity":"waste_basket","waste":"trash"}},"type":"Feature"},
	{"geometry":{"coordinates":[-21.941684,64.148901],"type":"Point"},"properties":{"osm_id":"2018417329","tag":{"amenity":"waste_basket","lukr:_TEGUND_":"4","lukr:_d_TEGUND_":"Svartur","waste":"trash"}},"type":"Feature"},
	{"geometry":{"coordinates":[-21.937647,64.148932],"type":"Point"},"properties":{"osm_id":"2018417330","tag":{"amenity":"waste_basket","lukr:_TEGUND_":"1","lukr:_d_TEGUND_":"Fest \u00c3\u00a1 lj\u00c3\u00b3sastaur","waste":"trash"}},"type":"Feature"},
	{"geometry":{"coordinates":[-21.942203,64.148948],"type":"Point"},"properties":{"osm_id":"2018417331","tag":{"amenity":"waste_basket","lukr:_TEGUND_":"4","lukr:_d_TEGUND_":"Svartur","waste":"trash"}},"type":"Feature"},
	{"geometry":{"coordinates":[-21.89125,64.148974],"type":"Point"},"properties":{"osm_id":"2018417334","tag":{"amenity":"waste_basket","lukr:_TEGUND_":"3","lukr:_d_TEGUND_":"Fest \u00c3\u00a1 j\u00c3\u00a1rnr\u00c3\u00b6r","waste":"trash"}},"type":"Feature"},
	{"geometry":{"coordinates":[-21.941798,64.149039],"type":"Point"},"properties":{"osm_id":"2018417336","tag":{"amenity":"waste_basket","lukr:_TEGUND_":"1","lukr:_d_TEGUND_":"Fest \u00c3\u00a1 lj\u00c3\u00b3sastaur","waste":"trash"}},"type":"Feature"},
	{"geometry":{"coordinates":[-21.885152,64.149128],"type":"Point"},"properties":{"osm_id":"2018417338","tag":{"amenity":"waste_basket","lukr:_TEGUND_":"1","lukr:_d_TEGUND_":"Fest \u00c3\u00a1 lj\u00c3\u00b3sastaur","waste":"trash"}},"type":"Feature"},
	{"geometry":{"coordinates":[-21.941606,64.149144],"type":"Point"},"properties":{"osm_id":"2018417339","tag":{"amenity":"waste_basket","lukr:_TEGUND_":"1","lukr:_d_TEGUND_":"Fest \u00c3\u00a1 lj\u00c3\u00b3sastaur","waste":"trash"}},"type":"Feature"},
	{"geometry":{"coordinates":[-21.937666,64.149214],"type":"Point"},"properties":{"osm_id":"2018417348","tag":{"amenity":"waste_basket","lukr:_TEGUND_":"1","lukr:_d_TEGUND_":"Fest \u00c3\u00a1 lj\u00c3\u00b3sastaur","waste":"trash"}},"type":"Feature"},
	{"geometry":{"coordinates":[-21.943811,64.149231],"type":"Point"},"properties":{"osm_id":"2018417353","tag":{"amenity":"waste_basket","waste":"trash"}},"type":"Feature"},
	{"geometry":{"coordinates":[-21.939437,64.149346],"type":"Point"},"properties":{"osm_id":"2018417360","tag":{"amenity":"waste_basket","lukr:_TEGUND_":"1","lukr:_d_TEGUND_":"Fest \u00c3\u00a1 lj\u00c3\u00b3sastaur","waste":"trash"}},"type":"Feature"},
	{"geometry":{"coordinates":[-21.938749,64.149443],"type":"Point"},"properties":{"osm_id":"2018417365","tag":{"amenity":"waste_basket","lukr:_TEGUND_":"2","lukr:_d_TEGUND_":"Fest \u00c3\u00a1 j\u00c3\u00a1rnboga","waste":"trash"}},"type":"Feature"},
	{"geometry":{"coordinates":[-21.971807,64.149551],"type":"Point"},"properties":{"osm_id":"2018417367","tag":{"amenity":"waste_basket","lukr:_TEGUND_":"3","lukr:_d_TEGUND_":"Fest \u00c3\u00a1 j\u00c3\u00a1rnr\u00c3\u00b6r","waste":"trash"}},"type":"Feature"},
	{"geometry":{"coordinates":[-21.946536,64.149576],"type":"Point"},"properties":{"osm_id":"2018417369","tag":{"amenity":"waste_basket","lukr:_TEGUND_":"1","lukr:_d_TEGUND_":"Fest \u00c3\u00a1 lj\u00c3\u00b3sastaur","waste":"trash"}},"type":"Feature"},
	{"geometry":{"coordinates":[-21.943598,64.149628],"type":"Point"},"properties":{"osm_id":"2018417370","tag":{"amenity":"waste_basket","lukr:_TEGUND_":"1","lukr:_d_TEGUND_":"Fest \u00c3\u00a1 lj\u00c3\u00b3sastaur","waste":"trash"}},"type":"Feature"},
	{"geometry":{"coordinates":[-21.957237,64.149645],"type":"Point"},"properties":{"osm_id":"2018417371","tag":{"amenity":"waste_basket","lukr:_TEGUND_":"1","lukr:_d_TEGUND_":"Fest \u00c3\u00a1 lj\u00c3\u00b3sastaur","waste":"trash"}},"type":"Feature"},
	{"geometry":{"coordinates":[-21.953686,64.149726],"type":"Point"},"properties":{"osm_id":"2018417372","tag":{"amenity":"waste_basket","lukr:_TEGUND_":"1","lukr:_d_TEGUND_":"Fest \u00c3\u00a1 lj\u00c3\u00b3sastaur","waste":"trash"}},"type":"Feature"},
	{"geometry":{"coordinates":[-21.957464,64.149796],"type":"Point"},"properties":{"osm_id":"2018417375","tag":{"amenity":"waste_basket","lukr:_TEGUND_":"1","lukr:_d_TEGUND_":"Fest \u00c3\u00a1 lj\u00c3\u00b3sastaur","waste":"trash"}},"type":"Feature"},
	{"geometry":{"coordinates":[-21.959156,64.149843],"type":"Point"},"properties":{"osm_id":"2018417378","tag":{"amenity":"waste_basket","lukr:_TEGUND_":"1","lukr:_d_TEGUND_":"Fest \u00c3\u00a1 lj\u00c3\u00b3sastaur","waste":"trash"}},"type":"Feature"},
	{"geometry":{"coordinates":[-21.967487,64.149871],"type":"Point"},"properties":{"osm_id":"2018417380","tag":{"amenity":"waste_basket","lukr:_TEGUND_":"3","lukr:_d_TEGUND_":"Fest \u00c3\u00a1 j\u00c3\u00a1rnr\u00c3\u00b6r","waste":"trash"}},"type":"Feature"},
	{"geometry":{"coordinates":[-21.959783,64.14991],"type":"Point"},"properties":{"osm_id":"2018417382","tag":{"amenity":"waste_basket","lukr:_TEGUND_":"1","lukr:_d_TEGUND_":"Fest \u00c3\u00a1 lj\u00c3\u00b3sastaur","waste":"trash"}},"type":"Feature"},
	{"geometry":{"coordinates":[-21.971651,64.149969],"type":"Point"},"properties":{"osm_id":"2018417383","tag":{"amenity":"waste_basket","lukr:_TEGUND_":"3","lukr:_d_TEGUND_":"Fest \u00c3\u00a1 j\u00c3\u00a1rnr\u00c3\u00b6r","waste":"trash"}},"type":"Feature"},
	{"geometry":{"coordinates":[-21.959942,64.150101],"type":"Point"},"properties":{"osm_id":"2018417386","tag":{"amenity":"waste_basket","lukr:_TEGUND_":"1","lukr:_d_TEGUND_":"Fest \u00c3\u00a1 lj\u00c3\u00b3sastaur","waste":"trash"}},"type":"Feature"},
	{"geometry":{"coordinates":[-21.968821,64.150138],"type":"Point"},"properties":{"osm_id":"2018417388","tag":{"amenity":"waste_basket","lukr:_TEGUND_":"3","lukr:_d_TEGUND_":"Fest \u00c3\u00a1 j\u00c3\u00a1rnr\u00c3\u00b6r","waste":"trash"}},"type":"Feature"},
	{"geometry":{"coordinates":[-21.957545,64.150396],"type":"Point"},"properties":{"osm_id":"2018417400","tag":{"amenity":"waste_basket","waste":"trash"}},"type":"Feature"},
	{"geometry":{"coordinates":[-21.950971,64.151106],"type":"Point"},"properties":{"osm_id":"2018417431","tag":{"amenity":"waste_basket","lukr:_TEGUND_":"3","lukr:_d_TEGUND_":"Fest \u00c3\u00a1 j\u00c3\u00a1rnr\u00c3\u00b6r","waste":"trash"}},"type":"Feature"},
	{"geometry":{"coordinates":[-21.955657,64.15335],"type":"Point"},"properties":{"osm_id":"2018417451","tag":{"amenity":"waste_basket","lukr:_TEGUND_":"3","lukr:_d_TEGUND_":"Fest \u00c3\u00a1 j\u00c3\u00a1rnr\u00c3\u00b6r","waste":"trash"}},"type":"Feature"},
	{"geometry":{"coordinates":[-21.938386,64.158249],"type":"Point"},"properties":{"osm_id":"2018417480","tag":{"amenity":"waste_basket","lukr:_TEGUND_":"3","lukr:_d_TEGUND_":"Fest \u00c3\u00a1 j\u00c3\u00a1rnr\u00c3\u00b6r","waste":"trash"}},"type":"Feature"},
	{"geometry":{"coordinates":[-21.938234,64.159752],"type":"Point"},"properties":{"osm_id":"2018417484","tag":{"amenity":"waste_basket","lukr:_TEGUND_":"3","lukr:_d_TEGUND_":"Fest \u00c3\u00a1 j\u00c3\u00a1rnr\u00c3\u00b6r","waste":"trash"}},"type":"Feature"},
	{"geometry":{"coordinates":[-21.929914,64.146539],"type":"Point"},"properties":{"osm_id":"2395648876","tag":{"amenity":"waste_basket","lukr:_TEGUND_":"1","lukr:_d_TEGUND_":"Fest \u00c3\u00a1 lj\u00c3\u00b3sastaur","waste":"trash"}},"type":"Feature"},
	{"geometry":{"coordinates":[-21.943964,64.1514],"type":"Point"},"properties":{"osm_id":"3622020374","tag":{"amenity":"waste_basket"}},"type":"Feature"},
	{"geometry":{"coordinates":[-21.947812,64.143279],"type":"Point"},"properties":{"osm_id":"3694136818","tag":{"amenity":"waste_basket"}},"type":"Feature"},
	{"geometry":{"coordinates":[-21.948912,64.140306],"type":"Point"},"properties":{"osm_id":"3757868331","tag":{"amenity":"waste_basket"}},"type":"Feature"},
	{"geometry":{"coordinates":[-21.93038,64.146989],"type":"Point"},"properties":{"osm_id":"3924012155","tag":{"amenity":"waste_basket","lukr:_TEGUND_":"4","lukr:_d_TEGUND_":"Svartur","waste":"trash"}},"type":"Feature"},
	{"geometry":{"coordinates":[-21.932994,64.147788],"type":"Point"},"properties":{"osm_id":"3924286700","tag":{"amenity":"waste_basket","lukr:_TEGUND_":"4","lukr:_d_TEGUND_":"Svartur","waste":"trash"}},"type":"Feature"},
	{"geometry":{"coordinates":[-21.921559,64.145054],"type":"Point"},"properties":{"osm_id":"4148057379","tag":{"amenity":"waste_basket","lukr:_TEGUND_":"1","lukr:_d_TEGUND_":"Fest \u00c3\u00a1 lj\u00c3\u00b3sastaur","waste":"trash"}},"type":"Feature"},
	{"geometry":{"coordinates":[-21.925033,64.146284],"type":"Point"},"properties":{"osm_id":"4254295274","tag":{"amenity":"recycling","recycling:cardboard":"yes","recycling:glass":"yes","recycling:glass_bottles":"yes","recycling:paper":"yes","recycling:plastic":"yes","recycling:plastic_bottles":"yes","recycling:plastic_packaging":"yes","recycling:waste":"yes","recycling_type":"container"}},"type":"Feature"},
	{"geometry":{"coordinates":[-21.916245,64.146043],"type":"Point"},"properties":{"osm_id":"4740804293","tag":{"amenity":"waste_basket"}},"type":"Feature"},
	{"geometry":{"coordinates":[-21.944438,64.148266],"type":"Point"},"properties":{"osm_id":"5054679985","tag":{"amenity":"waste_basket","waste":"trash"}},"type":"Feature"},
	{"geometry":{"coordinates":[-21.8897,64.150314],"type":"Point"},"properties":{"osm_id":"6532375992","tag":{"amenity":"waste_basket"}},"type":"Feature"},
	{"geometry":{"coordinates":[-21.933021,64.146447],"type":"Point"},"properties":{"osm_id":"6603464985","tag":{"amenity":"waste_basket"}},"type":"Feature"},
	{"geometry":{"coordinates":[-21.928304,64.147179],"type":"Point"},"properties":{"osm_id":"6604569185","tag":{"amenity":"waste_basket"}},"type":"Feature"},
	{"geometry":{"coordinates":[-21.927943,64.147724],"type":"Point"},"properties":{"osm_id":"6604569186","tag":{"amenity":"waste_basket"}},"type":"Feature"},
	{"geometry":{"coordinates":[-21.927664,64.148205],"type":"Point"},"properties":{"osm_id":"6604569187","tag":{"amenity":"waste_basket"}},"type":"Feature"},
	{"geometry":{"coordinates":[-21.929809,64.145799],"type":"Point"},"properties":{"osm_id":"6609263086","tag":{"amenity":"waste_basket"}},"type":"Feature"},
	{"geometry":{"coordinates":[-21.940741,64.142727],"type":"Point"},"properties":{"osm_id":"6691755555","tag":{"amenity":"waste_basket"}},"type":"Feature"},
	{"geometry":{"coordinates":[-21.944232,64.147636],"type":"Point"},"properties":{"osm_id":"6691771935","tag":{"amenity":"waste_basket"}},"type":"Feature"},
	{"geometry":{"coordinates":[-21.91827,64.144424],"type":"Point"},"properties":{"osm_id":"6734031722","tag":{"amenity":"waste_basket"}},"type":"Feature"},
	{"geometry":{"coordinates":[-21.956133,64.135422],"type":"Point"},"properties":{"osm_id":"6789134951","tag":{"access":"private","amenity":"waste_disposal"}},"type":"Feature"},
	{"geometry":{"coordinates":[-21.956057,64.135489],"type":"Point"},"properties":{"osm_id":"6789134952","tag":{"access":"private","amenity":"recycling","recycling:scrap_metal":"yes","recycling_type":"container"}},"type":"Feature"},
	{"geometry":{"coordinates":[-21.956116,64.135436],"type":"Point"},"properties":{"osm_id":"6789134954","tag":{"access":"private","amenity":"recycling","recycling:cardboard":"yes","recycling:paper":"yes","recycling_type":"container"}},"type":"Feature"},
	{"geometry":{"coordinates":[-21.956098,64.135453],"type":"Point"},"properties":{"osm_id":"6789134955","tag":{"access":"private","amenity":"recycling","recycling:plastic":"yes","recycling_type":"container"}},"type":"Feature"},
	{"geometry":{"coordinates":[-21.956079,64.13547],"type":"Point"},"properties":{"osm_id":"6789134956","tag":{"access":"private","amenity":"recycling","recycling:glass":"yes","recycling_type":"container"}},"type":"Feature"},
	{"geometry":{"coordinates":[-21.95483,64.136271],"type":"Point"},"properties":{"osm_id":"6789188292","tag":{"access":"private","amenity":"waste_disposal"}},"type":"Feature"},
	{"geometry":{"coordinates":[-21.954731,64.136363],"type":"Point"},"properties":{"osm_id":"6789188293","tag":{"access":"private","amenity":"recycling","recycling:plastic":"yes","recycling_type":"container"}},"type":"Feature"},
	{"geometry":{"coordinates":[-21.954752,64.136344],"type":"Point"},"properties":{"osm_id":"6789188294","tag":{"access":"private","amenity":"recycling","recycling:scrap_metal":"yes","recycling_type":"container"}},"type":"Feature"},
	{"geometry":{"coordinates":[-21.954769,64.136327],"type":"Point"},"properties":{"osm_id":"6789188295","tag":{"access":"private","amenity":"recycling","recycling:cardboard":"yes","recycling:paper":"yes","recycling_type":"container"}},"type":"Feature"},
	{"geometry":{"coordinates":[-21.95479,64.136308],"type":"Point"},"properties":{"osm_id":"6789188296","tag":{"access":"private","amenity":"recycling","recycling:cardboard":"yes","recycling:paper":"yes","recycling_type":"container"}},"type":"Feature"},
	{"geometry":{"coordinates":[-21.954809,64.136291],"type":"Point"},"properties":{"osm_id":"6789188297","tag":{"access":"private","amenity":"waste_disposal"}},"type":"Feature"},
	{"geometry":{"coordinates":[-21.95431,64.135859],"type":"Point"},"properties":{"osm_id":"6789188393","tag":{"access":"private","amenity":"recycling","recycling:glass":"yes","recycling_type":"container"}},"type":"Feature"},
	{"geometry":{"coordinates":[-21.954293,64.135874],"type":"Point"},"properties":{"osm_id":"6789188394","tag":{"access":"private","amenity":"recycling","recycling:plastic":"yes","recycling_type":"container"}},"type":"Feature"},
	{"geometry":{"coordinates":[-21.954277,64.13589],"type":"Point"},"properties":{"osm_id":"6789188395","tag":{"access":"private","amenity":"recycling","recycling:cardboard":"yes","recycling:paper":"yes","recycling_type":"container"}},"type":"Feature"},
	{"geometry":{"coordinates":[-21.954261,64.135905],"type":"Point"},"properties":{"osm_id":"6789188396","tag":{"access":"private","amenity":"recycling","recycling:cardboard":"yes","recycling:paper":"yes","recycling_type":"container"}},"type":"Feature"},
	{"geometry":{"coordinates":[-21.954244,64.13592],"type":"Point"},"properties":{"osm_id":"6789188397","tag":{"access":"private","amenity":"waste_disposal"}},"type":"Feature"},
	{"geometry":{"coordinates":[-21.954227,64.135937],"type":"Point"},"properties":{"osm_id":"6789188398","tag":{"access":"private","amenity":"waste_disposal"}},"type":"Feature"},
	{"geometry":{"coordinates":[-21.954211,64.135952],"type":"Point"},"properties":{"osm_id":"6789188399","tag":{"access":"private","amenity":"recycling","recycling:scrap_metal":"yes","recycling_type":"container"}},"type":"Feature"},
	{"geometry":{"coordinates":[-21.937452,64.148675],"type":"Point"},"properties":{"osm_id":"6813296222","tag":{"access":"private","amenity":"waste_disposal"}},"type":"Feature"},
	{"geometry":{"coordinates":[-21.937377,64.148657],"type":"Point"},"properties":{"osm_id":"6813296223","tag":{"access":"private","amenity":"waste_disposal"}},"type":"Feature"},
	{"geometry":{"coordinates":[-21.937306,64.14864],"type":"Point"},"properties":{"osm_id":"6813296224","tag":{"access":"private","amenity":"recycling","recycling:paper":"yes","recycling_type":"container"}},"type":"Feature"},
	{"geometry":{"coordinates":[-21.937177,64.148606],"type":"Point"},"properties":{"osm_id":"6813296225","tag":{"access":"private","amenity":"recycling","recycling:plastic":"yes","recycling_type":"container"}},"type":"Feature"},
	{"geometry":{"coordinates":[-21.937108,64.148592],"type":"Point"},"properties":{"osm_id":"6813296226","tag":{"access":"private","amenity":"recycling","recycling_type":"container"}},"type":"Feature"},
	{"geometry":{"coordinates":[-21.936446,64.147388],"type":"Point"},"properties":{"osm_id":"6816867306","tag":{"access":"yes","amenity":"recycling","recycling:plastic":"yes","recycling_type":"bin"}},"type":"Feature"},
	{"geometry":{"coordinates":[-21.936418,64.14738],"type":"Point"},"properties":{"osm_id":"6816867307","tag":{"access":"yes","amenity":"recycling","recycling:cardboard":"yes","recycling:paper":"yes","recycling_type":"bin"}},"type":"Feature"},
	{"geometry":{"coordinates":[-21.935383,64.140426],"type":"Point"},"properties":{"osm_id":"7120153985","tag":{"amenity":"waste_basket"}},"type":"Feature"},
	{"geometry":{"coordinates":[-21.932892,64.143655],"type":"Point"},"properties":{"osm_id":"7472520709","tag":{"amenity":"waste_disposal"}},"type":"Feature"},
	{"geometry":{"coordinates":[-21.925743,64.133611],"type":"Point"},"properties":{"osm_id":"7812903443","tag":{"access":"private","amenity":"recycling"}},"type":"Feature"},
	{"geometry":{"coordinates":[-21.925778,64.133619],"type":"Point"},"properties":{"osm_id":"7812903444","tag":{"access":"private","amenity":"recycling"}},"type":"Feature"},
	{"geometry":{"coordinates":[-21.925812,64.133626],"type":"Point"},"properties":{"osm_id":"7812903445","tag":{"access":"private","amenity":"recycling"}},"type":"Feature"},
	{"geometry":{"coordinates":[-21.925851,64.133635],"type":"Point"},"properties":{"osm_id":"7812903446","tag":{"access":"private","amenity":"recycling"}},"type":"Feature"},
	{"geometry":{"coordinates":[-21.925886,64.133643],"type":"Point"},"properties":{"osm_id":"7812903447","tag":{"access":"private","amenity":"recycling"}},"type":"Feature"},
	{"geometry":{"coordinates":[-21.928239,64.138763],"type":"Point"},"properties":{"osm_id":"7812922075","tag":{"amenity":"waste_basket"}},"type":"Feature"},
	{"geometry":{"coordinates":[-21.911631,64.135752],"type":"Point"},"properties":{"osm_id":"7812995505","tag":{"amenity":"waste_basket"}},"type":"Feature"},
	{"geometry":{"coordinates":[-21.916645,64.144059],"type":"Point"},"properties":{"osm_id":"7820036414","tag":{"amenity":"waste_basket"}},"type":"Feature"},
	{"geometry":{"coordinates":[-21.930621,64.146566],"type":"Point"},"properties":{"osm_id":"7853754262","tag":{"amenity":"waste_basket"}},"type":"Feature"}
]
}
