{
"type": "FeatureCollection",
"features": [
	{"geometry":{"coordinates":[139.334853,35.655485],"type":"Point"},"properties":{"name":"R\u00e3\u0082\u00b7\u00e3\u0083\u00a7\u00e3\u0083\u0083\u00e3\u0083\u0097\u00e5\u0085\u00ab\u00e7\u008e\u008b\u00e5\u00ad\u0090","osm_id":"2138554518","tag":{"amenity":"recycling"}},"type":"Feature"},
	{"geometry":{"coordinates":[139.338477,35.656869],"type":"Point"},"properties":{"osm_id":"2139785134","tag":{"amenity":"waste_basket","smoking":"yes"}},"type":"Feature"},
	{"geometry":{"coordinates":[139.342641,35.624952],"type":"Point"},"properties":{"osm_id":"4854776954","tag":{"amenity":"waste_basket"}},"type":"Feature"},
	{"geometry":{"coordinates":[139.34229,35.624673],"type":"Point"},"properties":{"osm_id":"4854776955","tag":{"amenity":"waste_basket"}},"type":"Feature"},
	{"geometry":{"coordinates":[139.342112,35.624841],"type":"Point"},"properties":{"osm_id":"4854776956","tag":{"amenity":"waste_basket"}},"type":"Feature"},
	{"geometry":{"coordinates":[139.341819,35.625096],"type":"Point"},"properties":{"osm_id":"4854776957","tag":{"amenity":"waste_basket"}},"type":"Feature"},
	{"geometry":{"coordinates":[139.341881,35.624988],"type":"Point"},"properties":{"osm_id":"4854776958","tag":{"amenity":"waste_basket"}},"type":"Feature"},
	{"geometry":{"coordinates":[139.34237,35.625263],"type":"Point"},"properties":{"osm_id":"4854776959","tag":{"amenity":"waste_basket"}},"type":"Feature"},
	{"geometry":{"coordinates":[139.342208,35.625372],"type":"Point"},"properties":{"osm_id":"4854776960","tag":{"amenity":"waste_basket"}},"type":"Feature"},
	{"geometry":{"coordinates":[139.342433,35.62497],"type":"Point"},"properties":{"osm_id":"4854776961","tag":{"amenity":"waste_basket"}},"type":"Feature"},
	{"geometry":{"coordinates":[139.343059,35.625284],"type":"Point"},"properties":{"osm_id":"4854776962","tag":{"amenity":"waste_basket"}},"type":"Feature"},
	{"geometry":{"coordinates":[139.343249,35.625262],"type":"Point"},"properties":{"osm_id":"4854776963","tag":{"amenity":"waste_basket"}},"type":"Feature"},
	{"geometry":{"coordinates":[139.341629,35.624442],"type":"Point"},"properties":{"osm_id":"4854776964","tag":{"amenity":"waste_basket"}},"type":"Feature"},
	{"geometry":{"coordinates":[139.341466,35.624388],"type":"Point"},"properties":{"osm_id":"4854776965","tag":{"amenity":"waste_basket"}},"type":"Feature"},
	{"geometry":{"coordinates":[139.340516,35.624322],"type":"Point"},"properties":{"osm_id":"4854776966","tag":{"amenity":"waste_basket"}},"type":"Feature"},
	{"geometry":{"coordinates":[139.340235,35.624113],"type":"Point"},"properties":{"osm_id":"4854776967","tag":{"amenity":"waste_basket"}},"type":"Feature"},
	{"geometry":{"coordinates":[139.340514,35.624718],"type":"Point"},"properties":{"osm_id":"4854776968","tag":{"amenity":"waste_basket"}},"type":"Feature"},
	{"geometry":{"coordinates":[139.3405,35.624812],"type":"Point"},"properties":{"osm_id":"4854776969","tag":{"amenity":"waste_basket"}},"type":"Feature"},
	{"geometry":{"coordinates":[139.341361,35.624882],"type":"Point"},"properties":{"osm_id":"4854776970","tag":{"amenity":"waste_basket"}},"type":"Feature"},
	{"geometry":{"coordinates":[139.341122,35.624788],"type":"Point"},"properties":{"osm_id":"4854776971","tag":{"amenity":"waste_basket"}},"type":"Feature"},
	{"geometry":{"coordinates":[139.340811,35.624633],"type":"Point"},"properties":{"osm_id":"4854776972","tag":{"amenity":"waste_basket"}},"type":"Feature"},
	{"geometry":{"coordinates":[139.342914,35.625828],"type":"Point"},"properties":{"osm_id":"4854776973","tag":{"amenity":"waste_basket"}},"type":"Feature"},
	{"geometry":{"coordinates":[139.343739,35.624882],"type":"Point"},"properties":{"osm_id":"4858736736","tag":{"amenity":"waste_basket","fee":"no","female":"yes","level":"3","male":"yes","wheelchair":"no"}},"type":"Feature"},
	{"geometry":{"coordinates":[139.345051,35.625768],"type":"Point"},"properties":{"osm_id":"4858736737","tag":{"amenity":"waste_basket","fee":"no","female":"yes","level":"3","male":"yes","wheelchair":"no"}},"type":"Feature"},
	{"geometry":{"coordinates":[139.343449,35.625859],"type":"Point"},"properties":{"osm_id":"4858736738","tag":{"amenity":"waste_basket","fee":"no","female":"yes","level":"3","male":"yes","wheelchair":"no"}},"type":"Feature"},
	{"geometry":{"coordinates":[139.342841,35.6257],"type":"Point"},"properties":{"osm_id":"4858736739","tag":{"amenity":"waste_basket","fee":"no","female":"yes","level":"3","male":"yes","wheelchair":"no"}},"type":"Feature"},
	{"geometry":{"coordinates":[139.342991,35.625787],"type":"Point"},"properties":{"osm_id":"4858736740","tag":{"amenity":"waste_basket","fee":"no","female":"yes","level":"3","male":"yes","wheelchair":"no"}},"type":"Feature"},
	{"geometry":{"coordinates":[139.343551,35.625733],"type":"Point"},"properties":{"osm_id":"4858736741","tag":{"amenity":"waste_basket","fee":"no","female":"yes","level":"3","male":"yes","wheelchair":"no"}},"type":"Feature"},
	{"geometry":{"coordinates":[139.342615,35.625299],"type":"Point"},"properties":{"osm_id":"4858736742","tag":{"amenity":"waste_basket","fee":"no","female":"yes","level":"3","male":"yes","wheelchair":"no"}},"type":"Feature"},
	{"geometry":{"coordinates":[139.343101,35.625354],"type":"Point"},"properties":{"osm_id":"4858736743","tag":{"amenity":"waste_basket","fee":"no","female":"yes","level":"3","male":"yes","wheelchair":"no"}},"type":"Feature"},
	{"geometry":{"coordinates":[139.344549,35.626182],"type":"Point"},"properties":{"osm_id":"4858736744","tag":{"amenity":"waste_basket","fee":"no","female":"yes","level":"3","male":"yes","wheelchair":"no"}},"type":"Feature"},
	{"geometry":{"coordinates":[139.337984,35.62844],"type":"Point"},"properties":{"osm_id":"4860291074","tag":{"amenity":"waste_basket"}},"type":"Feature"},
	{"geometry":{"coordinates":[139.33805,35.627606],"type":"Point"},"properties":{"osm_id":"4860291075","tag":{"amenity":"waste_basket"}},"type":"Feature"},
	{"geometry":{"coordinates":[139.338915,35.625986],"type":"Point"},"properties":{"osm_id":"4860291076","tag":{"amenity":"waste_basket"}},"type":"Feature"},
	{"geometry":{"coordinates":[139.33912,35.626396],"type":"Point"},"properties":{"osm_id":"4860291077","tag":{"amenity":"waste_basket"}},"type":"Feature"},
	{"geometry":{"coordinates":[139.339441,35.626545],"type":"Point"},"properties":{"osm_id":"4860291078","tag":{"amenity":"waste_basket"}},"type":"Feature"},
	{"geometry":{"coordinates":[139.339497,35.626385],"type":"Point"},"properties":{"osm_id":"4860291079","tag":{"amenity":"waste_basket"}},"type":"Feature"},
	{"geometry":{"coordinates":[139.339183,35.626282],"type":"Point"},"properties":{"osm_id":"4860291080","tag":{"amenity":"waste_basket"}},"type":"Feature"},
	{"geometry":{"coordinates":[139.339647,35.627142],"type":"Point"},"properties":{"osm_id":"4860291083","tag":{"amenity":"waste_basket"}},"type":"Feature"},
	{"geometry":{"coordinates":[139.339617,35.627127],"type":"Point"},"properties":{"osm_id":"4860291084","tag":{"amenity":"waste_basket"}},"type":"Feature"},
	{"geometry":{"coordinates":[139.339608,35.627549],"type":"Point"},"properties":{"osm_id":"4860291086","tag":{"amenity":"waste_basket"}},"type":"Feature"},
	{"geometry":{"coordinates":[139.340173,35.627756],"type":"Point"},"properties":{"osm_id":"4860291087","tag":{"amenity":"waste_basket"}},"type":"Feature"},
	{"geometry":{"coordinates":[139.34062,35.627664],"type":"Point"},"properties":{"osm_id":"4860291088","tag":{"amenity":"waste_basket"}},"type":"Feature"},
	{"geometry":{"coordinates":[139.34134,35.627354],"type":"Point"},"properties":{"osm_id":"4860291091","tag":{"amenity":"waste_basket"}},"type":"Feature"},
	{"geometry":{"coordinates":[139.341669,35.62727],"type":"Point"},"properties":{"osm_id":"4860291092","tag":{"amenity":"waste_basket"}},"type":"Feature"},
	{"geometry":{"coordinates":[139.341735,35.62721],"type":"Point"},"properties":{"osm_id":"4860291094","tag":{"amenity":"waste_basket"}},"type":"Feature"},
	{"geometry":{"coordinates":[139.341576,35.626992],"type":"Point"},"properties":{"osm_id":"4860291095","tag":{"amenity":"waste_basket"}},"type":"Feature"},
	{"geometry":{"coordinates":[139.341425,35.627007],"type":"Point"},"properties":{"osm_id":"4860291096","tag":{"amenity":"waste_basket"}},"type":"Feature"},
	{"geometry":{"coordinates":[139.341358,35.627054],"type":"Point"},"properties":{"osm_id":"4860291097","tag":{"amenity":"waste_basket"}},"type":"Feature"},
	{"geometry":{"coordinates":[139.341184,35.627064],"type":"Point"},"properties":{"osm_id":"4860291098","tag":{"amenity":"waste_basket"}},"type":"Feature"},
	{"geometry":{"coordinates":[139.341116,35.627165],"type":"Point"},"properties":{"osm_id":"4860291099","tag":{"amenity":"waste_basket"}},"type":"Feature"},
	{"geometry":{"coordinates":[139.342218,35.626915],"type":"Point"},"properties":{"osm_id":"4860291100","tag":{"amenity":"waste_basket"}},"type":"Feature"},
	{"geometry":{"coordinates":[139.342156,35.626831],"type":"Point"},"properties":{"osm_id":"4860291101","tag":{"amenity":"waste_basket"}},"type":"Feature"},
	{"geometry":{"coordinates":[139.341881,35.626685],"type":"Point"},"properties":{"osm_id":"4860291102","tag":{"amenity":"waste_basket"}},"type":"Feature"},
	{"geometry":{"coordinates":[139.341759,35.626624],"type":"Point"},"properties":{"osm_id":"4860291103","tag":{"amenity":"waste_basket"}},"type":"Feature"},
	{"geometry":{"coordinates":[139.342033,35.626742],"type":"Point"},"properties":{"osm_id":"4860291104","tag":{"amenity":"waste_basket"}},"type":"Feature"},
	{"geometry":{"coordinates":[139.341908,35.62653],"type":"Point"},"properties":{"osm_id":"4860291105","tag":{"amenity":"waste_basket"}},"type":"Feature"},
	{"geometry":{"coordinates":[139.342179,35.626608],"type":"Point"},"properties":{"osm_id":"4860291106","tag":{"amenity":"waste_basket"}},"type":"Feature"},
	{"geometry":{"coordinates":[139.342447,35.626303],"type":"Point"},"properties":{"name":"\u00e3\u0083\u009a\u00e3\u0083\u0083\u00e3\u0083\u0088\u00e3\u0083\u009c\u00e3\u0083\u0088\u00e3\u0083\u00ab","osm_id":"4860291108","tag":{"amenity":"waste_basket"}},"type":"Feature"},
	{"geometry":{"coordinates":[139.342031,35.626338],"type":"Point"},"properties":{"osm_id":"4860291109","tag":{"amenity":"waste_basket"}},"type":"Feature"},
	{"geometry":{"coordinates":[139.341948,35.626131],"type":"Point"},"properties":{"osm_id":"4860291110","tag":{"amenity":"waste_basket"}},"type":"Feature"},
	{"geometry":{"coordinates":[139.342029,35.626033],"type":"Point"},"properties":{"name":"\u00e3\u0083\u009a\u00e3\u0083\u0083\u00e3\u0083\u0088\u00e3\u0083\u009c\u00e3\u0083\u0088\u00e3\u0083\u00ab","osm_id":"4860291111","tag":{"amenity":"waste_basket"}},"type":"Feature"},
	{"geometry":{"coordinates":[139.342084,35.626353],"type":"Point"},"properties":{"osm_id":"4860291112","tag":{"amenity":"waste_basket"}},"type":"Feature"},
	{"geometry":{"coordinates":[139.34222,35.625992],"type":"Point"},"properties":{"osm_id":"4860291113","tag":{"amenity":"waste_basket"}},"type":"Feature"},
	{"geometry":{"coordinates":[139.342118,35.625932],"type":"Point"},"properties":{"osm_id":"4860291114","tag":{"amenity":"waste_basket"}},"type":"Feature"},
	{"geometry":{"coordinates":[139.341124,35.625638],"type":"Point"},"properties":{"osm_id":"4860291115","tag":{"amenity":"waste_basket"}},"type":"Feature"},
	{"geometry":{"coordinates":[139.341167,35.625334],"type":"Point"},"properties":{"osm_id":"4860291116","tag":{"amenity":"waste_basket"}},"type":"Feature"},
	{"geometry":{"coordinates":[139.34119,35.625535],"type":"Point"},"properties":{"name":"\u00e3\u0083\u009a\u00e3\u0083\u0083\u00e3\u0083\u0088\u00e3\u0083\u009c\u00e3\u0083\u0088\u00e3\u0083\u00ab","osm_id":"4860291118","tag":{"amenity":"waste_basket"}},"type":"Feature"},
	{"geometry":{"coordinates":[139.333546,35.616835],"type":"Point"},"properties":{"osm_id":"5652724946","tag":{"amenity":"waste_basket"}},"type":"Feature"},
	{"geometry":{"coordinates":[139.333653,35.615873],"type":"Point"},"properties":{"osm_id":"5652734649","tag":{"amenity":"waste_basket"}},"type":"Feature"},
	{"geometry":{"coordinates":[139.334123,35.615811],"type":"Point"},"properties":{"osm_id":"5670881267","tag":{"amenity":"waste_basket","level":"2"}},"type":"Feature"},
	{"geometry":{"coordinates":[139.333765,35.615779],"type":"Point"},"properties":{"osm_id":"5670951496","tag":{"amenity":"waste_basket"}},"type":"Feature"},
	{"geometry":{"coordinates":[139.333645,35.615774],"type":"Point"},"properties":{"osm_id":"5670951497","tag":{"amenity":"waste_basket"}},"type":"Feature"},
	{"geometry":{"coordinates":[139.334035,35.615275],"type":"Point"},"properties":{"osm_id":"5670952369","tag":{"amenity":"waste_basket"}},"type":"Feature"},
	{"geometry":{"coordinates":[139.334372,35.61494],"type":"Point"},"properties":{"osm_id":"5670960748","tag":{"amenity":"waste_basket"}},"type":"Feature"},
	{"geometry":{"coordinates":[139.334071,35.615287],"type":"Point"},"properties":{"osm_id":"5670961537","tag":{"amenity":"waste_basket"}},"type":"Feature"},
	{"geometry":{"coordinates":[139.333988,35.615195],"type":"Point"},"properties":{"osm_id":"5670962543","tag":{"amenity":"waste_basket","level":"2"}},"type":"Feature"},
	{"geometry":{"coordinates":[139.334249,35.615585],"type":"Point"},"properties":{"osm_id":"5670973155","tag":{"amenity":"waste_basket","level":"1"}},"type":"Feature"},
	{"geometry":{"coordinates":[139.3345,35.615419],"type":"Point"},"properties":{"osm_id":"5670980662","tag":{"amenity":"waste_basket","level":"1"}},"type":"Feature"},
	{"geometry":{"coordinates":[139.33473,35.614948],"type":"Point"},"properties":{"osm_id":"5670982913","tag":{"amenity":"waste_basket","level":"1"}},"type":"Feature"},
	{"geometry":{"coordinates":[139.334324,35.614938],"type":"Point"},"properties":{"osm_id":"5670984280","tag":{"amenity":"waste_basket"}},"type":"Feature"},
	{"geometry":{"coordinates":[139.334357,35.614836],"type":"Point"},"properties":{"osm_id":"5670989360","tag":{"amenity":"waste_basket","level":"2"}},"type":"Feature"},
	{"geometry":{"coordinates":[139.334152,35.614985],"type":"Point"},"properties":{"osm_id":"5670989389","tag":{"amenity":"waste_basket"}},"type":"Feature"},
	{"geometry":{"coordinates":[139.334901,35.614951],"type":"Point"},"properties":{"osm_id":"5670990027","tag":{"amenity":"waste_basket","level":"1"}},"type":"Feature"},
	{"geometry":{"coordinates":[139.338532,35.640807],"type":"Point"},"properties":{"osm_id":"6477173551","tag":{"amenity":"waste_basket"}},"type":"Feature"},
	{"geometry":{"coordinates":[139.379425,35.617884],"type":"Point"},"properties":{"osm_id":"6484637403","tag":{"amenity":"waste_basket"}},"type":"Feature"},
	{"geometry":{"coordinates":[139.37924,35.618127],"type":"Point"},"properties":{"osm_id":"6484637406","tag":{"amenity":"waste_basket"}},"type":"Feature"},
	{"geometry":{"coordinates":[139.379205,35.618109],"type":"Point"},"properties":{"osm_id":"6484641151","tag":{"amenity":"waste_basket"}},"type":"Feature"},
	{"geometry":{"coordinates":[139.379431,35.617888],"type":"Point"},"properties":{"osm_id":"6484641156","tag":{"amenity":"waste_basket"}},"type":"Feature"},
	{"geometry":{"coordinates":[139.379171,35.617802],"type":"Point"},"properties":{"osm_id":"6484641273","tag":{"amenity":"waste_basket"}},"type":"Feature"}
]
}
