{
"type": "FeatureCollection",
"features": [
	{"geometry":{"coordinates":[-78.695846,35.665482],"type":"Point"},"properties":{"osm_id":"6540836568","tag":{"amenity":"waste_basket","waste":"dog_excrement"}},"type":"Feature"},
	{"geometry":{"coordinates":[-78.694785,35.66591],"type":"Point"},"properties":{"osm_id":"6540836611","tag":{"amenity":"waste_basket","waste":"dog_excrement"}},"type":"Feature"},
	{"geometry":{"coordinates":[-78.694978,35.665441],"type":"Point"},"properties":{"osm_id":"6540836676","tag":{"amenity":"waste_basket"}},"type":"Feature"},
	{"geometry":{"coordinates":[-78.696701,35.663119],"type":"Point"},"properties":{"osm_id":"6563830355","tag":{"amenity":"waste_basket","waste":"dog_excrement"}},"type":"Feature"},
	{"geometry":{"coordinates":[-78.677047,35.626412],"type":"Point"},"properties":{"osm_id":"7181706961","tag":{"addr:city":"Raleigh","addr:housenumber":"10505","addr:state":"NC","addr:street":"Old Stage Road","amenity":"recycling","building":"yes","recycling_type":"centre","website":"http://www.wakegov.com/recycling/division/facilities/Pages/cc.aspx"}},"type":"Feature"}
]
}
