{
"type": "FeatureCollection",
"features": [
	{"geometry":{"coordinates":[76.873206,43.210841],"type":"Point"},"properties":{"osm_id":"660966973","tag":{"amenity":"recycling"}},"type":"Feature"},
	{"geometry":{"coordinates":[76.872133,43.211658],"type":"Point"},"properties":{"osm_id":"660966974","tag":{"amenity":"recycling"}},"type":"Feature"},
	{"geometry":{"coordinates":[76.871236,43.210125],"type":"Point"},"properties":{"osm_id":"660966975","tag":{"amenity":"recycling"}},"type":"Feature"},
	{"geometry":{"coordinates":[76.867211,43.235332],"type":"Point"},"properties":{"osm_id":"1190437460","tag":{"amenity":"recycling"}},"type":"Feature"},
	{"geometry":{"coordinates":[76.886053,43.232571],"type":"Point"},"properties":{"osm_id":"1614317206","tag":{"amenity":"waste_disposal"}},"type":"Feature"},
	{"geometry":{"coordinates":[76.870064,43.25159],"type":"Point"},"properties":{"osm_id":"1924764523","tag":{"amenity":"recycling"}},"type":"Feature"},
	{"geometry":{"coordinates":[76.868453,43.249548],"type":"Point"},"properties":{"osm_id":"1924770631","tag":{"amenity":"recycling"}},"type":"Feature"},
	{"geometry":{"coordinates":[76.825921,43.23957],"type":"Point"},"properties":{"osm_id":"2458501697","tag":{"amenity":"waste_disposal"}},"type":"Feature"},
	{"geometry":{"coordinates":[76.825002,43.240933],"type":"Point"},"properties":{"osm_id":"2458501698","tag":{"amenity":"waste_disposal"}},"type":"Feature"},
	{"geometry":{"coordinates":[76.889362,43.235067],"type":"Point"},"properties":{"osm_id":"2582004446","tag":{"amenity":"waste_disposal"}},"type":"Feature"},
	{"geometry":{"coordinates":[76.897058,43.234449],"type":"Point"},"properties":{"osm_id":"3341096042","tag":{"amenity":"waste_basket"}},"type":"Feature"},
	{"geometry":{"coordinates":[76.832469,43.235461],"type":"Point"},"properties":{"osm_id":"4133703978","tag":{"amenity":"waste_disposal"}},"type":"Feature"},
	{"geometry":{"coordinates":[76.899953,43.202872],"type":"Point"},"properties":{"osm_id":"4281628299","tag":{"amenity":"waste_disposal"}},"type":"Feature"},
	{"geometry":{"coordinates":[76.894317,43.217342],"type":"Point"},"properties":{"osm_id":"4594262229","tag":{"amenity":"waste_basket"}},"type":"Feature"},
	{"geometry":{"coordinates":[76.83978,43.221844],"type":"Point"},"properties":{"osm_id":"4819691457","tag":{"amenity":"waste_disposal"}},"type":"Feature"},
	{"geometry":{"coordinates":[76.839208,43.222338],"type":"Point"},"properties":{"osm_id":"4819691459","tag":{"amenity":"waste_disposal"}},"type":"Feature"},
	{"geometry":{"coordinates":[76.838036,43.220534],"type":"Point"},"properties":{"osm_id":"4819948847","tag":{"amenity":"waste_disposal"}},"type":"Feature"},
	{"geometry":{"coordinates":[76.836081,43.224963],"type":"Point"},"properties":{"osm_id":"4820066047","tag":{"amenity":"waste_disposal"}},"type":"Feature"},
	{"geometry":{"coordinates":[76.836633,43.219622],"type":"Point"},"properties":{"osm_id":"4820066160","tag":{"amenity":"waste_disposal"}},"type":"Feature"},
	{"geometry":{"coordinates":[76.83659,43.219613],"type":"Point"},"properties":{"osm_id":"4820066165","tag":{"amenity":"waste_disposal"}},"type":"Feature"},
	{"geometry":{"coordinates":[76.840412,43.218293],"type":"Point"},"properties":{"osm_id":"4830001404","tag":{"amenity":"waste_disposal"}},"type":"Feature"},
	{"geometry":{"coordinates":[76.840272,43.219048],"type":"Point"},"properties":{"osm_id":"4830001405","tag":{"amenity":"waste_disposal"}},"type":"Feature"},
	{"geometry":{"coordinates":[76.885977,43.203637],"type":"Point"},"properties":{"osm_id":"5031928158","tag":{"amenity":"recycling","recycling:glass":"yes","recycling:paper":"yes","recycling:plastic":"yes","recycling_type":"container"}},"type":"Feature"},
	{"geometry":{"coordinates":[76.886288,43.200283],"type":"Point"},"properties":{"osm_id":"5037105029","tag":{"amenity":"recycling","recycling:fluorescent_tubes":"yes","recycling_type":"container"}},"type":"Feature"},
	{"geometry":{"coordinates":[76.870633,43.252396],"type":"Point"},"properties":{"osm_id":"5229753122","tag":{"amenity":"waste_disposal"}},"type":"Feature"},
	{"geometry":{"coordinates":[76.89352,43.230029],"type":"Point"},"properties":{"osm_id":"5240518748","tag":{"amenity":"waste_basket"}},"type":"Feature"}
]
}
