{
"type": "FeatureCollection",
"lastupdate": "2020-08-05T00:00:00Z",
"features": [
	{"geometry":{"coordinates":[13.538602,59.400367],"type":"Point"},"properties":{"osm_id":"1105949506","tag":{"amenity":"recycling","recycling_type":"container"}},"type":"Feature"},
	{"geometry":{"coordinates":[13.546416,59.411804],"type":"Point"},"properties":{"osm_id":"1327179306","tag":{"amenity":"recycling","recycling_type":"container"}},"type":"Feature"},
	{"geometry":{"coordinates":[13.572749,59.411999],"type":"Point"},"properties":{"osm_id":"2636494056","tag":{"amenity":"recycling","recycling:batteries":"yes","recycling:cans":"yes","recycling:glass_bottles":"yes","recycling:green_waste":"yes","recycling:paper":"yes","recycling:plastic":"yes","recycling:small_electrical_appliances":"yes","recycling_type":"container"}},"type":"Feature"},
	{"geometry":{"coordinates":[13.568124,59.401515],"type":"Point"},"properties":{"osm_id":"3357989517","tag":{"amenity":"recycling","recycling_type":"container"}},"type":"Feature"},
	{"geometry":{"coordinates":[13.567688,59.400781],"type":"Point"},"properties":{"osm_id":"3357989521","tag":{"amenity":"recycling","recycling_type":"container"}},"type":"Feature"},
	{"geometry":{"coordinates":[13.568905,59.410116],"type":"Point"},"properties":{"osm_id":"3777864660","tag":{"access":"destination","amenity":"recycling","recycling:paper":"yes","recycling:plastic":"yes","recycling_type":"container"}},"type":"Feature"},
	{"geometry":{"coordinates":[13.57112,59.408391],"type":"Point"},"properties":{"osm_id":"3777892957","tag":{"amenity":"recycling","recycling:glass":"yes","recycling_type":"container"}},"type":"Feature"},
	{"geometry":{"coordinates":[13.569358,59.405681],"type":"Point"},"properties":{"osm_id":"3779447263","tag":{"amenity":"recycling","recycling_type":"container"}},"type":"Feature"},
	{"geometry":{"coordinates":[13.56806,59.403513],"type":"Point"},"properties":{"osm_id":"3792799893","tag":{"amenity":"recycling","recycling_type":"container"}},"type":"Feature"},
	{"geometry":{"coordinates":[13.568432,59.404151],"type":"Point"},"properties":{"osm_id":"3792799939","tag":{"amenity":"recycling","recycling_type":"container"}},"type":"Feature"},
	{"geometry":{"coordinates":[13.568823,59.404786],"type":"Point"},"properties":{"osm_id":"3792800035","tag":{"amenity":"recycling","recycling_type":"container"}},"type":"Feature"},
	{"geometry":{"coordinates":[13.56778,59.407374],"type":"Point"},"properties":{"osm_id":"3824717704","tag":{"amenity":"recycling","recycling:paper":"yes","recycling_type":"container"}},"type":"Feature"},
	{"geometry":{"coordinates":[13.566624,59.408385],"type":"Point"},"properties":{"osm_id":"3824717713","tag":{"amenity":"recycling","recycling_type":"container"}},"type":"Feature"},
	{"geometry":{"coordinates":[13.564358,59.400514],"type":"Point"},"properties":{"osm_id":"3889613130","tag":{"amenity":"recycling","recycling_type":"container"}},"type":"Feature"},
	{"geometry":{"coordinates":[13.563031,59.401389],"type":"Point"},"properties":{"osm_id":"3889613358","tag":{"amenity":"recycling","recycling_type":"container"}},"type":"Feature"},
	{"geometry":{"coordinates":[13.563673,59.402605],"type":"Point"},"properties":{"osm_id":"3889613471","tag":{"amenity":"recycling","recycling_type":"container"}},"type":"Feature"},
	{"geometry":{"coordinates":[13.563949,59.405017],"type":"Point"},"properties":{"osm_id":"3889613533","tag":{"amenity":"recycling","recycling_type":"container"}},"type":"Feature"},
	{"geometry":{"coordinates":[13.564609,59.405679],"type":"Point"},"properties":{"osm_id":"3889613547","tag":{"amenity":"recycling","recycling_type":"container"}},"type":"Feature"},
	{"geometry":{"coordinates":[13.566538,59.406085],"type":"Point"},"properties":{"osm_id":"3889613555","tag":{"amenity":"recycling","recycling_type":"container"}},"type":"Feature"},
	{"geometry":{"coordinates":[13.569357,59.407103],"type":"Point"},"properties":{"osm_id":"3889613558","tag":{"access":"destination","amenity":"recycling","recycling_type":"container"}},"type":"Feature"},
	{"geometry":{"coordinates":[13.568912,59.400752],"type":"Point"},"properties":{"osm_id":"4078094996","tag":{"amenity":"recycling","recycling_type":"container"}},"type":"Feature"},
	{"geometry":{"coordinates":[13.572809,59.400804],"type":"Point"},"properties":{"osm_id":"4078094999","tag":{"amenity":"recycling","recycling_type":"container"}},"type":"Feature"},
	{"geometry":{"coordinates":[13.569279,59.401371],"type":"Point"},"properties":{"osm_id":"4078095045","tag":{"amenity":"recycling","recycling_type":"container"}},"type":"Feature"},
	{"geometry":{"coordinates":[13.591148,59.400432],"type":"Point"},"properties":{"osm_id":"6109972647","tag":{"addr:street":"Gustaf Fr\u00f6dings gata","amenity":"recycling","recycling:cans":"yes","recycling:glass":"yes","recycling:paper":"yes","recycling:paper_packaging":"yes","recycling:plastic_packaging":"yes","recycling_type":"container"}},"type":"Feature"},
	{"geometry":{"coordinates":[13.57283,59.403516],"type":"Point"},"properties":{"name":"Kbab Milj\u00c3\u00b6station","osm_id":"6440478828","tag":{"amenity":"recycling"}},"type":"Feature"},
	{"geometry":{"coordinates":[13.610989,59.400627],"type":"Point"},"properties":{"osm_id":"7671660797","tag":{"amenity":"recycling","recycling_type":"container"}},"type":"Feature"},
	{"geometry":{"coordinates":[13.573161,59.404108],"type":"Point"},"properties":{"osm_id":"7671734073","tag":{"amenity":"recycling","recycling_type":"container"}},"type":"Feature"}
]
}
