{
"type": "FeatureCollection",
"features": [
	{"geometry":{"coordinates":[13.546301,52.544124],"type":"Point"},"properties":{"osm_id":"259518419","tag":{"entrance":"yes"}},"type":"Feature"},
	{"geometry":{"coordinates":[13.575157,52.554846],"type":"Point"},"properties":{"osm_id":"280746713","tag":{"amenity":"recycling","recycling:glass_bottles":"yes"}},"type":"Feature"},
	{"geometry":{"coordinates":[13.576384,52.553359],"type":"Point"},"properties":{"osm_id":"280752631","tag":{"amenity":"recycling","recycling:glass_bottles":"yes"}},"type":"Feature"},
	{"geometry":{"coordinates":[13.598879,52.549584],"type":"Point"},"properties":{"osm_id":"313941518","tag":{"amenity":"recycling"}},"type":"Feature"},
	{"geometry":{"coordinates":[13.545511,52.546325],"type":"Point"},"properties":{"osm_id":"492062434","tag":{"amenity":"recycling","recycling:glass_bottles":"yes"}},"type":"Feature"},
	{"geometry":{"coordinates":[13.575418,52.57068],"type":"Point"},"properties":{"osm_id":"538247124","tag":{"amenity":"recycling","recycling:glass_bottles":"yes","recycling_type":"container"}},"type":"Feature"},
	{"geometry":{"coordinates":[13.574974,52.57057],"type":"Point"},"properties":{"osm_id":"538247126","tag":{"amenity":"recycling","recycling:glass_bottles":"yes","recycling_type":"container"}},"type":"Feature"},
	{"geometry":{"coordinates":[13.551228,52.559768],"type":"Point"},"properties":{"osm_id":"610932850","tag":{"access":"private","amenity":"waste_disposal"}},"type":"Feature"},
	{"geometry":{"coordinates":[13.551826,52.559579],"type":"Point"},"properties":{"osm_id":"621802036","tag":{"access":"private","amenity":"waste_disposal"}},"type":"Feature"},
	{"geometry":{"coordinates":[13.552459,52.55938],"type":"Point"},"properties":{"osm_id":"621802042","tag":{"access":"private","amenity":"waste_disposal"}},"type":"Feature"},
	{"geometry":{"coordinates":[13.553683,52.558993],"type":"Point"},"properties":{"osm_id":"621802050","tag":{"access":"private","amenity":"waste_disposal"}},"type":"Feature"},
	{"geometry":{"coordinates":[13.55311,52.559174],"type":"Point"},"properties":{"osm_id":"621802051","tag":{"access":"private","amenity":"waste_disposal"}},"type":"Feature"},
	{"geometry":{"coordinates":[13.553388,52.559365],"type":"Point"},"properties":{"osm_id":"621815117","tag":{"amenity":"waste_disposal"}},"type":"Feature"},
	{"geometry":{"coordinates":[13.553793,52.559826],"type":"Point"},"properties":{"osm_id":"621815124","tag":{"access":"private","amenity":"waste_disposal"}},"type":"Feature"},
	{"geometry":{"coordinates":[13.547214,52.548297],"type":"Point"},"properties":{"osm_id":"944604661","tag":{"amenity":"recycling","recycling:glass_bottles":"yes","recycling_type":"container"}},"type":"Feature"},
	{"geometry":{"coordinates":[13.578819,52.563673],"type":"Point"},"properties":{"osm_id":"1005959577","tag":{"amenity":"recycling","recycling:glass_bottles":"yes"}},"type":"Feature"},
	{"geometry":{"coordinates":[13.57603,52.563073],"type":"Point"},"properties":{"osm_id":"1005959581","tag":{"amenity":"recycling","recycling:glass_bottles":"yes"}},"type":"Feature"},
	{"geometry":{"coordinates":[13.567833,52.563804],"type":"Point"},"properties":{"osm_id":"1005959589","tag":{"amenity":"recycling","recycling:glass_bottles":"yes"}},"type":"Feature"},
	{"geometry":{"coordinates":[13.579729,52.569643],"type":"Point"},"properties":{"osm_id":"1005959644","tag":{"amenity":"recycling","recycling:glass_bottles":"yes","recycling_type":"container"}},"type":"Feature"},
	{"geometry":{"coordinates":[13.571003,52.56741],"type":"Point"},"properties":{"osm_id":"1005966025","tag":{"amenity":"recycling","recycling:glass_bottles":"yes"}},"type":"Feature"},
	{"geometry":{"coordinates":[13.569545,52.566895],"type":"Point"},"properties":{"osm_id":"1362032370","tag":{"amenity":"recycling"}},"type":"Feature"},
	{"geometry":{"coordinates":[13.548097,52.562553],"type":"Point"},"properties":{"osm_id":"1362083778","tag":{"addr:city":"Berlin","addr:housenumber":"5","addr:postcode":"12681","addr:street":"Nordring","addr:suburb":"Marzahn"}},"type":"Feature"},
	{"geometry":{"coordinates":[13.557437,52.557962],"type":"Point"},"properties":{"osm_id":"1687722476","tag":{"amenity":"recycling","image":"http://i.imgur.com/rGhiHl.jpg","location":"overground","recycling_type":"container","wheelchair":"limited"}},"type":"Feature"},
	{"geometry":{"coordinates":[13.561484,52.559947],"type":"Point"},"properties":{"osm_id":"1689023137","tag":{"amenity":"recycling","image":"http://i.imgur.com/8W5pOl.jpg"}},"type":"Feature"},
	{"geometry":{"coordinates":[13.570001,52.563185],"type":"Point"},"properties":{"osm_id":"1689034104","tag":{"amenity":"recycling","image":"http://i.imgur.com/yOsEal.jpg"}},"type":"Feature"},
	{"geometry":{"coordinates":[13.569694,52.570886],"type":"Point"},"properties":{"osm_id":"1737228542","tag":{"amenity":"recycling","image":"http://i.imgur.com/A5nuel.jpg","location":"overground","recycling_type":"container"}},"type":"Feature"},
	{"geometry":{"coordinates":[13.541419,52.570583],"type":"Point"},"properties":{"osm_id":"1745579035","tag":{"amenity":"waste_basket","image":"http://i.imgur.com/flgpKl.jpg"}},"type":"Feature"},
	{"geometry":{"coordinates":[13.581558,52.564994],"type":"Point"},"properties":{"osm_id":"2856612769","tag":{"amenity":"waste_basket","waste":"trash"}},"type":"Feature"},
	{"geometry":{"coordinates":[13.577412,52.56665],"type":"Point"},"properties":{"osm_id":"2856612770","tag":{"amenity":"recycling","recycling:glass_bottles":"yes","recycling_type":"container"}},"type":"Feature"},
	{"geometry":{"coordinates":[13.575042,52.567425],"type":"Point"},"properties":{"osm_id":"2856612771","tag":{"amenity":"recycling","recycling:glass_bottles":"yes","recycling_type":"container"}},"type":"Feature"},
	{"geometry":{"coordinates":[13.550579,52.544011],"type":"Point"},"properties":{"osm_id":"2978980268","tag":{"amenity":"recycling","location":"overground","recycling:glass_bottles":"yes","recycling_type":"container"}},"type":"Feature"},
	{"geometry":{"coordinates":[13.55326,52.548751],"type":"Point"},"properties":{"osm_id":"3011419207","tag":{"amenity":"recycling","recycling:glass_bottles":"yes","recycling_type":"container"}},"type":"Feature"},
	{"geometry":{"coordinates":[13.554245,52.549758],"type":"Point"},"properties":{"osm_id":"3011419208","tag":{"amenity":"recycling","location":"overground","recycling:clothes":"yes","recycling_type":"container"}},"type":"Feature"},
	{"geometry":{"coordinates":[13.55232,52.549838],"type":"Point"},"properties":{"osm_id":"3011419209","tag":{"amenity":"recycling","location":"overground","recycling:glass_bottles":"yes","recycling_type":"container"}},"type":"Feature"},
	{"geometry":{"coordinates":[13.545993,52.540329],"type":"Point"},"properties":{"osm_id":"3011419210","tag":{"amenity":"recycling","recycling:glass_bottles":"yes","recycling_type":"container"}},"type":"Feature"},
	{"geometry":{"coordinates":[13.564137,52.556708],"type":"Point"},"properties":{"osm_id":"3017519653","tag":{"amenity":"recycling","recycling:glass_bottles":"yes","recycling_type":"container"}},"type":"Feature"},
	{"geometry":{"coordinates":[13.56156,52.549801],"type":"Point"},"properties":{"osm_id":"3017758856","tag":{"amenity":"recycling","recycling:clothes":"yes"}},"type":"Feature"},
	{"geometry":{"coordinates":[13.562503,52.547366],"type":"Point"},"properties":{"osm_id":"3017758857","tag":{"amenity":"recycling","recycling:clothes":"yes","recycling_type":"container"}},"type":"Feature"},
	{"geometry":{"coordinates":[13.559639,52.54747],"type":"Point"},"properties":{"osm_id":"3017758858","tag":{"amenity":"recycling","recycling:glass_bottles":"yes","recycling_type":"container"}},"type":"Feature"},
	{"geometry":{"coordinates":[13.560427,52.55326],"type":"Point"},"properties":{"osm_id":"3018653655","tag":{"amenity":"recycling","recycling:glass_bottles":"yes","recycling_type":"container"}},"type":"Feature"},
	{"geometry":{"coordinates":[13.575262,52.564251],"type":"Point"},"properties":{"osm_id":"3153767345","tag":{"amenity":"recycling","recycling:glass_bottles":"yes","recycling_type":"container"}},"type":"Feature"},
	{"geometry":{"coordinates":[13.551696,52.549196],"type":"Point"},"properties":{"osm_id":"3289783570","tag":{"amenity":"recycling","recycling:glass_bottles":"yes","recycling_type":"container"}},"type":"Feature"},
	{"geometry":{"coordinates":[13.551496,52.549387],"type":"Point"},"properties":{"osm_id":"3289783575","tag":{"amenity":"recycling","location":"overground","recycling:clothes":"yes","recycling_type":"container"}},"type":"Feature"},
	{"geometry":{"coordinates":[13.573133,52.55236],"type":"Point"},"properties":{"osm_id":"3587852062","tag":{"amenity":"recycling","recycling:glass_bottles":"yes","recycling_type":"container"}},"type":"Feature"},
	{"geometry":{"coordinates":[13.559206,52.547165],"type":"Point"},"properties":{"osm_id":"3825491486","tag":{"amenity":"recycling","owner":"Deutsches Rotes Kreuz","recycling:clothes":"yes","recycling_type":"container"}},"type":"Feature"},
	{"geometry":{"coordinates":[13.553192,52.556021],"type":"Point"},"properties":{"osm_id":"3833688869","tag":{"amenity":"recycling","recycling:clothes":"yes","recycling:glass":"no","recycling:glass_bottles":"yes","recycling_type":"container"}},"type":"Feature"},
	{"geometry":{"coordinates":[13.552421,52.54455],"type":"Point"},"properties":{"osm_id":"3842659797","tag":{"amenity":"recycling","recycling:clothes":"yes"}},"type":"Feature"},
	{"geometry":{"coordinates":[13.566461,52.579598],"type":"Point"},"properties":{"osm_id":"4418509693","tag":{"amenity":"recycling","recycling:clothes":"yes","recycling:shoes":"yes","recycling_type":"container"}},"type":"Feature"},
	{"geometry":{"coordinates":[13.559885,52.558751],"type":"Point"},"properties":{"osm_id":"4489294193","tag":{"addr:city":"Berlin","addr:postcode":"12687","addr:street":"Liebensteiner Stra\u00c3\u009fe","amenity":"recycling","image":"http://i.imgur.com/rGhiHl.jpg","wheelchair":"limited"}},"type":"Feature"},
	{"geometry":{"coordinates":[13.557945,52.558841],"type":"Point"},"properties":{"osm_id":"4489294194","tag":{"addr:city":"Berlin","addr:postcode":"12687","addr:street":"Liebensteiner Stra\u00c3\u009fe","amenity":"recycling","image":"http://i.imgur.com/rGhiHl.jpg","wheelchair":"limited"}},"type":"Feature"},
	{"geometry":{"coordinates":[13.557576,52.55965],"type":"Point"},"properties":{"osm_id":"4489294195","tag":{"addr:city":"Berlin","addr:postcode":"12687","addr:street":"Liebensteiner Stra\u00c3\u009fe","amenity":"recycling","image":"http://i.imgur.com/rGhiHl.jpg","wheelchair":"limited"}},"type":"Feature"},
	{"geometry":{"coordinates":[13.57298,52.54272],"type":"Point"},"properties":{"osm_id":"4913490528","tag":{"amenity":"waste_basket"}},"type":"Feature"},
	{"geometry":{"coordinates":[13.586964,52.542149],"type":"Point"},"properties":{"osm_id":"4916085590","tag":{"amenity":"waste_basket"}},"type":"Feature"},
	{"geometry":{"coordinates":[13.580362,52.544678],"type":"Point"},"properties":{"osm_id":"4916123719","tag":{"amenity":"waste_basket"}},"type":"Feature"},
	{"geometry":{"coordinates":[13.605659,52.536383],"type":"Point"},"properties":{"osm_id":"5060345421","tag":{"amenity":"waste_basket"}},"type":"Feature"},
	{"geometry":{"coordinates":[13.577346,52.542107],"type":"Point"},"properties":{"osm_id":"5418784718","tag":{"amenity":"waste_basket"}},"type":"Feature"},
	{"geometry":{"coordinates":[13.577091,52.542047],"type":"Point"},"properties":{"osm_id":"5418784720","tag":{"amenity":"waste_basket"}},"type":"Feature"},
	{"geometry":{"coordinates":[13.577183,52.542127],"type":"Point"},"properties":{"osm_id":"5418784723","tag":{"amenity":"waste_basket"}},"type":"Feature"},
	{"geometry":{"coordinates":[13.577436,52.542849],"type":"Point"},"properties":{"osm_id":"5418784725","tag":{"amenity":"waste_basket"}},"type":"Feature"},
	{"geometry":{"coordinates":[13.577075,52.541154],"type":"Point"},"properties":{"osm_id":"5418784728","tag":{"amenity":"waste_basket"}},"type":"Feature"},
	{"geometry":{"coordinates":[13.577101,52.541279],"type":"Point"},"properties":{"osm_id":"5418784729","tag":{"amenity":"waste_basket"}},"type":"Feature"},
	{"geometry":{"coordinates":[13.576981,52.541288],"type":"Point"},"properties":{"osm_id":"5418784730","tag":{"amenity":"waste_basket"}},"type":"Feature"},
	{"geometry":{"coordinates":[13.606296,52.541189],"type":"Point"},"properties":{"osm_id":"5528653633","tag":{"amenity":"waste_basket"}},"type":"Feature"},
	{"geometry":{"coordinates":[13.564049,52.53906],"type":"Point"},"properties":{"osm_id":"5536279939","tag":{"amenity":"waste_basket"}},"type":"Feature"},
	{"geometry":{"coordinates":[13.576918,52.553697],"type":"Point"},"properties":{"osm_id":"5795418553","tag":{"amenity":"recycling"}},"type":"Feature"},
	{"geometry":{"coordinates":[13.586417,52.556162],"type":"Point"},"properties":{"osm_id":"6135129464","tag":{"amenity":"waste_basket","waste":"trash"}},"type":"Feature"},
	{"geometry":{"coordinates":[13.583661,52.558598],"type":"Point"},"properties":{"osm_id":"6135132324","tag":{"amenity":"waste_basket","waste":"trash"}},"type":"Feature"},
	{"geometry":{"coordinates":[13.582291,52.559041],"type":"Point"},"properties":{"osm_id":"6135132325","tag":{"amenity":"waste_basket","waste":"trash"}},"type":"Feature"},
	{"geometry":{"coordinates":[13.585813,52.557319],"type":"Point"},"properties":{"osm_id":"6135132326","tag":{"amenity":"waste_basket","waste":"trash"}},"type":"Feature"},
	{"geometry":{"coordinates":[13.587194,52.55448],"type":"Point"},"properties":{"osm_id":"6135134457","tag":{"amenity":"waste_basket","waste":"trash"}},"type":"Feature"},
	{"geometry":{"coordinates":[13.586426,52.552187],"type":"Point"},"properties":{"osm_id":"6135140215","tag":{"amenity":"waste_basket","waste":"trash"}},"type":"Feature"},
	{"geometry":{"coordinates":[13.585944,52.550592],"type":"Point"},"properties":{"osm_id":"6135144503","tag":{"amenity":"waste_basket","waste":"trash"}},"type":"Feature"},
	{"geometry":{"coordinates":[13.581628,52.54085],"type":"Point"},"properties":{"osm_id":"6135166704","tag":{"amenity":"waste_basket","waste":"trash"}},"type":"Feature"},
	{"geometry":{"coordinates":[13.545889,52.567576],"type":"Point"},"properties":{"osm_id":"6370630194","tag":{"amenity":"waste_basket"}},"type":"Feature"},
	{"geometry":{"coordinates":[13.551622,52.566124],"type":"Point"},"properties":{"osm_id":"6370630195","tag":{"amenity":"waste_basket"}},"type":"Feature"},
	{"geometry":{"coordinates":[13.55039,52.566218],"type":"Point"},"properties":{"osm_id":"6370630196","tag":{"amenity":"waste_basket"}},"type":"Feature"},
	{"geometry":{"coordinates":[13.550156,52.566856],"type":"Point"},"properties":{"osm_id":"6370630198","tag":{"amenity":"waste_basket"}},"type":"Feature"},
	{"geometry":{"coordinates":[13.548413,52.566176],"type":"Point"},"properties":{"osm_id":"6370630199","tag":{"amenity":"waste_basket"}},"type":"Feature"},
	{"geometry":{"coordinates":[13.551442,52.565848],"type":"Point"},"properties":{"osm_id":"6370630200","tag":{"amenity":"waste_basket"}},"type":"Feature"},
	{"geometry":{"coordinates":[13.580736,52.53892],"type":"Point"},"properties":{"osm_id":"6486091615","tag":{"amenity":"waste_basket","waste":"trash"}},"type":"Feature"},
	{"geometry":{"coordinates":[13.581774,52.567417],"type":"Point"},"properties":{"osm_id":"6687522789","tag":{"amenity":"waste_basket","waste":"trash"}},"type":"Feature"},
	{"geometry":{"coordinates":[13.582127,52.569181],"type":"Point"},"properties":{"osm_id":"6687522790","tag":{"amenity":"waste_basket","waste":"trash"}},"type":"Feature"},
	{"geometry":{"coordinates":[13.582039,52.563907],"type":"Point"},"properties":{"osm_id":"6687556601","tag":{"amenity":"waste_basket","waste":"trash"}},"type":"Feature"},
	{"geometry":{"coordinates":[13.581345,52.562788],"type":"Point"},"properties":{"osm_id":"6687556603","tag":{"amenity":"waste_basket","waste":"trash"}},"type":"Feature"},
	{"geometry":{"coordinates":[13.581245,52.562289],"type":"Point"},"properties":{"osm_id":"6687556606","tag":{"amenity":"waste_basket","waste":"trash"}},"type":"Feature"},
	{"geometry":{"coordinates":[13.581396,52.56472],"type":"Point"},"properties":{"osm_id":"6687556607","tag":{"amenity":"waste_basket","waste":"trash"}},"type":"Feature"},
	{"geometry":{"coordinates":[13.582118,52.563623],"type":"Point"},"properties":{"osm_id":"6687556608","tag":{"amenity":"waste_basket","waste":"trash"}},"type":"Feature"},
	{"geometry":{"coordinates":[13.581946,52.564042],"type":"Point"},"properties":{"osm_id":"6687556609","tag":{"amenity":"waste_basket","waste":"trash"}},"type":"Feature"},
	{"geometry":{"coordinates":[13.581983,52.563961],"type":"Point"},"properties":{"osm_id":"6687556610","tag":{"amenity":"waste_basket","waste":"trash"}},"type":"Feature"},
	{"geometry":{"coordinates":[13.581383,52.562747],"type":"Point"},"properties":{"osm_id":"6687556611","tag":{"amenity":"waste_basket","waste":"trash"}},"type":"Feature"},
	{"geometry":{"coordinates":[13.581858,52.564975],"type":"Point"},"properties":{"osm_id":"6687556612","tag":{"amenity":"waste_basket","waste":"trash"}},"type":"Feature"},
	{"geometry":{"coordinates":[13.581883,52.564552],"type":"Point"},"properties":{"osm_id":"6687556613","tag":{"amenity":"waste_basket","waste":"trash"}},"type":"Feature"},
	{"geometry":{"coordinates":[13.58143,52.561461],"type":"Point"},"properties":{"osm_id":"6687571089","tag":{"amenity":"waste_basket","waste":"trash"}},"type":"Feature"},
	{"geometry":{"coordinates":[13.581537,52.560426],"type":"Point"},"properties":{"osm_id":"6687571090","tag":{"amenity":"waste_basket","waste":"trash"}},"type":"Feature"},
	{"geometry":{"coordinates":[13.580189,52.54023],"type":"Point"},"properties":{"osm_id":"6687687517","tag":{"amenity":"waste_basket","waste":"trash"}},"type":"Feature"},
	{"geometry":{"coordinates":[13.582189,52.537076],"type":"Point"},"properties":{"osm_id":"6687708521","tag":{"amenity":"waste_basket","waste":"trash"}},"type":"Feature"},
	{"geometry":{"coordinates":[13.552301,52.549802],"type":"Point"},"properties":{"osm_id":"6829879338","tag":{"amenity":"recycling","recycling:clothes":"yes","recycling_type":"container"}},"type":"Feature"},
	{"geometry":{"coordinates":[13.560463,52.553248],"type":"Point"},"properties":{"osm_id":"6829879342","tag":{"amenity":"recycling","recycling:clothes":"yes","recycling_type":"container"}},"type":"Feature"},
	{"geometry":{"coordinates":[13.560154,52.556037],"type":"Point"},"properties":{"osm_id":"6833068711","tag":{"amenity":"recycling","location":"overground","recycling:glass_bottles":"yes","recycling_type":"container"}},"type":"Feature"},
	{"geometry":{"coordinates":[13.563621,52.556254],"type":"Point"},"properties":{"osm_id":"6833068712","tag":{"amenity":"recycling","location":"overground","recycling:glass_bottles":"yes","recycling_type":"container"}},"type":"Feature"},
	{"geometry":{"coordinates":[13.570533,52.561751],"type":"Point"},"properties":{"osm_id":"6882151490","tag":{"amenity":"waste_basket"}},"type":"Feature"},
	{"geometry":{"coordinates":[13.620151,52.543796],"type":"Point"},"properties":{"osm_id":"7043631151","tag":{"amenity":"waste_basket","waste":"trash"}},"type":"Feature"},
	{"geometry":{"coordinates":[13.619832,52.543802],"type":"Point"},"properties":{"osm_id":"7043631152","tag":{"amenity":"waste_basket","waste":"trash"}},"type":"Feature"},
	{"geometry":{"coordinates":[13.617845,52.543706],"type":"Point"},"properties":{"osm_id":"7043636065","tag":{"amenity":"waste_basket","waste":"trash"}},"type":"Feature"},
	{"geometry":{"coordinates":[13.611857,52.543425],"type":"Point"},"properties":{"osm_id":"7043645462","tag":{"amenity":"waste_basket","waste":"trash"}},"type":"Feature"},
	{"geometry":{"coordinates":[13.613972,52.544721],"type":"Point"},"properties":{"osm_id":"7043651723","tag":{"amenity":"waste_basket","waste":"trash"}},"type":"Feature"},
	{"geometry":{"coordinates":[13.614893,52.543214],"type":"Point"},"properties":{"osm_id":"7043679206","tag":{"amenity":"waste_basket","waste":"trash"}},"type":"Feature"},
	{"geometry":{"coordinates":[13.611847,52.543135],"type":"Point"},"properties":{"osm_id":"7043687314","tag":{"amenity":"waste_basket","waste":"trash"}},"type":"Feature"},
	{"geometry":{"coordinates":[13.611102,52.542875],"type":"Point"},"properties":{"osm_id":"7043720460","tag":{"amenity":"waste_basket","waste":"trash"}},"type":"Feature"},
	{"geometry":{"coordinates":[13.611451,52.542321],"type":"Point"},"properties":{"osm_id":"7043720461","tag":{"amenity":"waste_basket","waste":"trash"}},"type":"Feature"},
	{"geometry":{"coordinates":[13.611261,52.542783],"type":"Point"},"properties":{"osm_id":"7043720465","tag":{"amenity":"waste_basket","waste":"trash"}},"type":"Feature"},
	{"geometry":{"coordinates":[13.61144,52.542576],"type":"Point"},"properties":{"osm_id":"7043720466","tag":{"amenity":"waste_basket","waste":"trash"}},"type":"Feature"},
	{"geometry":{"coordinates":[13.610893,52.542894],"type":"Point"},"properties":{"osm_id":"7043720468","tag":{"amenity":"waste_basket","waste":"trash"}},"type":"Feature"},
	{"geometry":{"coordinates":[13.609552,52.544796],"type":"Point"},"properties":{"osm_id":"7043728084","tag":{"amenity":"waste_basket","waste":"trash"}},"type":"Feature"},
	{"geometry":{"coordinates":[13.608973,52.543581],"type":"Point"},"properties":{"osm_id":"7043770585","tag":{"amenity":"waste_basket","waste":"trash"}},"type":"Feature"},
	{"geometry":{"coordinates":[13.611445,52.543806],"type":"Point"},"properties":{"osm_id":"7043770587","tag":{"amenity":"waste_basket","waste":"trash"}},"type":"Feature"},
	{"geometry":{"coordinates":[13.607481,52.545472],"type":"Point"},"properties":{"osm_id":"7043783631","tag":{"amenity":"waste_basket","waste":"trash"}},"type":"Feature"},
	{"geometry":{"coordinates":[13.608952,52.544644],"type":"Point"},"properties":{"osm_id":"7043783805","tag":{"amenity":"waste_basket","waste":"trash"}},"type":"Feature"},
	{"geometry":{"coordinates":[13.605885,52.546075],"type":"Point"},"properties":{"osm_id":"7043800982","tag":{"amenity":"waste_basket","waste":"trash"}},"type":"Feature"},
	{"geometry":{"coordinates":[13.572742,52.536819],"type":"Point"},"properties":{"osm_id":"7859293212","tag":{"amenity":"waste_basket"}},"type":"Feature"},
	{"geometry":{"coordinates":[13.579122,52.538478],"type":"Point"},"properties":{"osm_id":"7859293220","tag":{"amenity":"waste_basket"}},"type":"Feature"},
	{"geometry":{"coordinates":[13.578886,52.539066],"type":"Point"},"properties":{"osm_id":"7859293233","tag":{"amenity":"waste_basket"}},"type":"Feature"},
	{"geometry":{"coordinates":[13.579858,52.538704],"type":"Point"},"properties":{"osm_id":"7859293250","tag":{"amenity":"waste_basket"}},"type":"Feature"},
	{"geometry":{"coordinates":[13.579043,52.539218],"type":"Point"},"properties":{"osm_id":"7859293255","tag":{"amenity":"waste_basket"}},"type":"Feature"},
	{"geometry":{"coordinates":[13.578094,52.53737],"type":"Point"},"properties":{"osm_id":"7859293259","tag":{"amenity":"waste_basket"}},"type":"Feature"},
	{"geometry":{"coordinates":[13.57318,52.536684],"type":"Point"},"properties":{"osm_id":"7859293267","tag":{"amenity":"waste_basket"}},"type":"Feature"},
	{"geometry":{"coordinates":[13.574964,52.53879],"type":"Point"},"properties":{"osm_id":"7859293268","tag":{"amenity":"waste_basket"}},"type":"Feature"},
	{"geometry":{"coordinates":[13.572651,52.536643],"type":"Point"},"properties":{"osm_id":"7859293270","tag":{"amenity":"waste_basket"}},"type":"Feature"},
	{"geometry":{"coordinates":[13.572784,52.537005],"type":"Point"},"properties":{"osm_id":"7859293271","tag":{"amenity":"waste_basket"}},"type":"Feature"},
	{"geometry":{"coordinates":[13.572144,52.54007],"type":"Point"},"properties":{"osm_id":"7859293275","tag":{"amenity":"waste_basket"}},"type":"Feature"},
	{"geometry":{"coordinates":[13.579195,52.5385],"type":"Point"},"properties":{"osm_id":"7859293280","tag":{"amenity":"waste_basket"}},"type":"Feature"},
	{"geometry":{"coordinates":[13.58045,52.53726],"type":"Point"},"properties":{"osm_id":"7859299592","tag":{"amenity":"waste_basket"}},"type":"Feature"},
	{"geometry":{"coordinates":[13.576095,52.538743],"type":"Point"},"properties":{"osm_id":"7859299616","tag":{"amenity":"waste_basket"}},"type":"Feature"},
	{"geometry":{"coordinates":[13.57949,52.538284],"type":"Point"},"properties":{"osm_id":"7859299626","tag":{"amenity":"waste_basket"}},"type":"Feature"},
	{"geometry":{"coordinates":[13.57323,52.536811],"type":"Point"},"properties":{"osm_id":"7859299627","tag":{"amenity":"waste_basket"}},"type":"Feature"}
]
}
