{
"type": "FeatureCollection",
"lastupdate": "2020-08-01T00:00:00Z",
"features": [
	{"geometry":{"coordinates":[13.540821,52.336368],"type":"Point"},"properties":{"osm_id":"942862489","tag":{"amenity":"recycling","opening_hours":"Mo-Fr 07:00-20:00; Sa 07:00-12:00","recycling:glass":"yes"}},"type":"Feature"},
	{"geometry":{"coordinates":[13.588379,52.35634],"type":"Point"},"properties":{"osm_id":"1234120378","tag":{"amenity":"recycling","recycling:glass":"yes"}},"type":"Feature"},
	{"geometry":{"coordinates":[13.610909,52.329738],"type":"Point"},"properties":{"osm_id":"1242394201","tag":{"amenity":"recycling","recycling:clothes":"yes","recycling:glass":"yes"}},"type":"Feature"},
	{"geometry":{"coordinates":[13.618941,52.324623],"type":"Point"},"properties":{"osm_id":"1383533649","tag":{"amenity":"recycling","location":"overground","recycling:clothes":"yes","recycling:glass":"yes","recycling_type":"container"}},"type":"Feature"},
	{"geometry":{"coordinates":[13.617006,52.370223],"type":"Point"},"properties":{"osm_id":"1383533666","tag":{"amenity":"waste_basket"}},"type":"Feature"},
	{"geometry":{"coordinates":[13.617042,52.370271],"type":"Point"},"properties":{"osm_id":"1383533669","tag":{"amenity":"waste_basket"}},"type":"Feature"},
	{"geometry":{"coordinates":[13.618871,52.366851],"type":"Point"},"properties":{"osm_id":"2476940013","tag":{"amenity":"recycling","recycling:clothes":"yes"}},"type":"Feature"},
	{"geometry":{"coordinates":[13.555521,52.360812],"type":"Point"},"properties":{"osm_id":"2609840049","tag":{"amenity":"recycling","recycling:clothes":"yes","recycling:shoes":"yes","recycling_type":"container"}},"type":"Feature"},
	{"geometry":{"coordinates":[13.555381,52.360842],"type":"Point"},"properties":{"osm_id":"2609840051","tag":{"amenity":"recycling","recycling:glass_bottles":"yes","recycling_type":"container"}},"type":"Feature"},
	{"geometry":{"coordinates":[13.557012,52.367188],"type":"Point"},"properties":{"osm_id":"5529035361","tag":{"amenity":"waste_basket"}},"type":"Feature"},
	{"geometry":{"coordinates":[13.620407,52.350642],"type":"Point"},"properties":{"osm_id":"5918682297","tag":{"amenity":"recycling","recycling:clothes":"yes","recycling_type":"container"}},"type":"Feature"},
	{"geometry":{"coordinates":[13.620315,52.350653],"type":"Point"},"properties":{"osm_id":"5918682298","tag":{"amenity":"recycling","recycling:glass_bottles":"yes","recycling_type":"container"}},"type":"Feature"},
	{"geometry":{"coordinates":[13.600733,52.363329],"type":"Point"},"properties":{"osm_id":"5948071599","tag":{"amenity":"recycling","recycling:glass_bottles":"yes","recycling_type":"container"}},"type":"Feature"},
	{"geometry":{"coordinates":[13.600838,52.363326],"type":"Point"},"properties":{"osm_id":"5948071600","tag":{"amenity":"recycling","recycling:clothes":"yes","recycling_type":"container"}},"type":"Feature"},
	{"geometry":{"coordinates":[13.616695,52.372881],"type":"Point"},"properties":{"osm_id":"6357863130","tag":{"amenity":"waste_basket","waste":"trash"}},"type":"Feature"},
	{"geometry":{"coordinates":[13.622254,52.371624],"type":"Point"},"properties":{"osm_id":"6856852939","tag":{"amenity":"waste_basket"}},"type":"Feature"}
]
}
