{
"type": "FeatureCollection",
"features": [
	{"geometry":{"coordinates":[13.594064,52.279181],"type":"Point"},"properties":{"osm_id":"2184432258","tag":{"amenity":"waste_basket"}},"type":"Feature"},
	{"geometry":{"coordinates":[13.59407,52.279474],"type":"Point"},"properties":{"osm_id":"2184432274","tag":{"amenity":"recycling","recycling:batteries":"no","recycling:cans":"no","recycling:clothes":"yes","recycling:glass":"no","recycling:paper":"no","recycling:scrap_metal":"no","recycling_type":"container"}},"type":"Feature"},
	{"geometry":{"coordinates":[13.615493,52.286856],"type":"Point"},"properties":{"osm_id":"2184432310","tag":{"amenity":"waste_basket"}},"type":"Feature"},
	{"geometry":{"coordinates":[13.61592,52.28748],"type":"Point"},"properties":{"osm_id":"2184432312","tag":{"amenity":"waste_basket"}},"type":"Feature"},
	{"geometry":{"coordinates":[13.618076,52.290572],"type":"Point"},"properties":{"osm_id":"2184432385","tag":{"amenity":"waste_basket"}},"type":"Feature"},
	{"geometry":{"coordinates":[13.618942,52.291522],"type":"Point"},"properties":{"osm_id":"2184432388","tag":{"amenity":"waste_basket"}},"type":"Feature"},
	{"geometry":{"coordinates":[13.620896,52.293107],"type":"Point"},"properties":{"osm_id":"2184432404","tag":{"amenity":"waste_basket"}},"type":"Feature"},
	{"geometry":{"coordinates":[13.621814,52.297753],"type":"Point"},"properties":{"osm_id":"2739777034","tag":{"amenity":"recycling","recycling:glass":"yes","recycling_type":"container"}},"type":"Feature"},
	{"geometry":{"coordinates":[13.617645,52.286023],"type":"Point"},"properties":{"osm_id":"3088779950","tag":{"amenity":"recycling","recycling:glass_bottles":"yes","recycling_type":"container"}},"type":"Feature"},
	{"geometry":{"coordinates":[13.61856,52.287513],"type":"Point"},"properties":{"osm_id":"3089601465","tag":{"amenity":"recycling","recycling:clothes":"yes","recycling:glass":"yes","recycling_type":"container"}},"type":"Feature"},
	{"geometry":{"coordinates":[13.615668,52.285787],"type":"Point"},"properties":{"osm_id":"3152775664","tag":{"amenity":"recycling","recycling:glass_bottles":"yes","recycling_type":"container"}},"type":"Feature"},
	{"geometry":{"coordinates":[13.604826,52.294923],"type":"Point"},"properties":{"osm_id":"3525153548","tag":{"amenity":"recycling","recycling:glass_bottles":"yes","recycling:shoes":"yes","recycling_type":"container"}},"type":"Feature"},
	{"geometry":{"coordinates":[13.621264,52.28762],"type":"Point"},"properties":{"osm_id":"3814228782","tag":{"amenity":"recycling","recycling:glass":"no","recycling:glass_bottles":"yes","recycling_type":"container"}},"type":"Feature"},
	{"geometry":{"coordinates":[13.612367,52.285752],"type":"Point"},"properties":{"osm_id":"3843198564","tag":{"amenity":"recycling","opening_hours":"24/7","recycling:glass_bottles":"yes","recycling_type":"container","wheelchair":"yes"}},"type":"Feature"},
	{"geometry":{"coordinates":[13.604031,52.313773],"type":"Point"},"properties":{"osm_id":"3878709199","tag":{"amenity":"recycling","opening_hours":"24/7","recycling:glass_bottles":"yes","recycling_type":"container","wheelchair":"yes"}},"type":"Feature"},
	{"geometry":{"coordinates":[13.618358,52.298432],"type":"Point"},"properties":{"osm_id":"4002744883","tag":{"amenity":"recycling","recycling:glass_bottles":"yes","recycling_type":"container","wheelchair":"yes"}},"type":"Feature"},
	{"geometry":{"coordinates":[13.608507,52.287014],"type":"Point"},"properties":{"osm_id":"4005865048","tag":{"amenity":"recycling","recycling:glass_bottles":"yes","recycling_type":"container"}},"type":"Feature"},
	{"geometry":{"coordinates":[13.608869,52.289059],"type":"Point"},"properties":{"osm_id":"4007438109","tag":{"amenity":"recycling","recycling:glass_bottles":"yes","recycling_type":"container"}},"type":"Feature"},
	{"geometry":{"coordinates":[13.603425,52.302012],"type":"Point"},"properties":{"osm_id":"4272792345","tag":{"amenity":"recycling","recycling:glass_bottles":"yes","recycling_type":"container"}},"type":"Feature"},
	{"geometry":{"coordinates":[13.614095,52.321251],"type":"Point"},"properties":{"osm_id":"5720640563","tag":{"amenity":"waste_basket","waste":"trash"}},"type":"Feature"},
	{"geometry":{"coordinates":[13.617858,52.298319],"type":"Point"},"properties":{"osm_id":"5759352222","tag":{"amenity":"waste_basket"}},"type":"Feature"},
	{"geometry":{"coordinates":[13.5468,52.284654],"type":"Point"},"properties":{"osm_id":"6796833640","tag":{"amenity":"waste_basket","waste":"trash"}},"type":"Feature"},
	{"geometry":{"coordinates":[13.545699,52.286117],"type":"Point"},"properties":{"osm_id":"6796857112","tag":{"amenity":"waste_basket","waste":"trash"}},"type":"Feature"},
	{"geometry":{"coordinates":[13.545232,52.286022],"type":"Point"},"properties":{"osm_id":"6796857115","tag":{"amenity":"waste_basket","waste":"trash"}},"type":"Feature"},
	{"geometry":{"coordinates":[13.545591,52.286361],"type":"Point"},"properties":{"osm_id":"6796857122","tag":{"amenity":"waste_basket","waste":"trash"}},"type":"Feature"},
	{"geometry":{"coordinates":[13.621755,52.287797],"type":"Point"},"properties":{"osm_id":"6989434456","tag":{"amenity":"waste_basket"}},"type":"Feature"},
	{"geometry":{"coordinates":[13.621878,52.287729],"type":"Point"},"properties":{"osm_id":"6989434457","tag":{"amenity":"waste_basket"}},"type":"Feature"},
	{"geometry":{"coordinates":[13.53706,52.26958],"type":"Point"},"properties":{"osm_id":"7043196678","tag":{"amenity":"recycling","recycling:clothes":"yes","recycling_type":"container"}},"type":"Feature"},
	{"geometry":{"coordinates":[13.537087,52.269577],"type":"Point"},"properties":{"osm_id":"7043196679","tag":{"amenity":"recycling","recycling:glass_bottles":"yes","recycling_type":"container"}},"type":"Feature"},
	{"geometry":{"coordinates":[13.62267,52.312225],"type":"Point"},"properties":{"osm_id":"7208578494","tag":{"amenity":"waste_basket","waste":"trash"}},"type":"Feature"},
	{"geometry":{"coordinates":[13.605205,52.289663],"type":"Point"},"properties":{"osm_id":"7373267508","tag":{"amenity":"waste_basket","waste":"trash"}},"type":"Feature"},
	{"geometry":{"coordinates":[13.605525,52.289331],"type":"Point"},"properties":{"osm_id":"7373267510","tag":{"amenity":"waste_basket","waste":"trash"}},"type":"Feature"},
	{"geometry":{"coordinates":[13.60666,52.288307],"type":"Point"},"properties":{"osm_id":"7373267512","tag":{"amenity":"waste_basket","waste":"trash"}},"type":"Feature"},
	{"geometry":{"coordinates":[13.546652,52.28734],"type":"Point"},"properties":{"osm_id":"7384675553","tag":{"amenity":"waste_basket","waste":"trash"}},"type":"Feature"},
	{"geometry":{"coordinates":[13.546765,52.287428],"type":"Point"},"properties":{"osm_id":"7384675554","tag":{"amenity":"waste_basket","waste":"trash"}},"type":"Feature"},
	{"geometry":{"coordinates":[13.546341,52.287089],"type":"Point"},"properties":{"osm_id":"7384675562","tag":{"amenity":"waste_basket","waste":"trash"}},"type":"Feature"},
	{"geometry":{"coordinates":[13.608426,52.296191],"type":"Point"},"properties":{"osm_id":"7386392906","tag":{"amenity":"waste_basket","waste":"trash"}},"type":"Feature"},
	{"geometry":{"coordinates":[13.605299,52.295639],"type":"Point"},"properties":{"osm_id":"7386392908","tag":{"amenity":"waste_basket","waste":"trash"}},"type":"Feature"},
	{"geometry":{"coordinates":[13.622521,52.296138],"type":"Point"},"properties":{"osm_id":"7388661016","tag":{"amenity":"waste_basket","waste":"trash"}},"type":"Feature"},
	{"geometry":{"coordinates":[13.622159,52.296054],"type":"Point"},"properties":{"osm_id":"7388661019","tag":{"amenity":"waste_basket","waste":"trash"}},"type":"Feature"},
	{"geometry":{"coordinates":[13.62293,52.296551],"type":"Point"},"properties":{"osm_id":"7388661020","tag":{"amenity":"waste_basket","waste":"trash"}},"type":"Feature"},
	{"geometry":{"coordinates":[13.61133,52.284605],"type":"Point"},"properties":{"osm_id":"7403373161","tag":{"amenity":"waste_basket","waste":"trash"}},"type":"Feature"},
	{"geometry":{"coordinates":[13.613555,52.283371],"type":"Point"},"properties":{"osm_id":"7403373166","tag":{"amenity":"waste_basket","waste":"trash"}},"type":"Feature"},
	{"geometry":{"coordinates":[13.605717,52.292364],"type":"Point"},"properties":{"osm_id":"7404808006","tag":{"amenity":"waste_basket","waste":"dog_excrement"}},"type":"Feature"}
]
}
