{
"type": "FeatureCollection",
"features": [
	{"geometry":{"coordinates":[13.603911,51.472291],"type":"Point"},"properties":{"osm_id":"1332255585","tag":{"amenity":"recycling","mapillary":"B3Fzz7utMEi6ThiLtzxIBg","recycling_type":"container","survey:date":"2019-02-22"}},"type":"Feature"},
	{"geometry":{"coordinates":[13.58985,51.480917],"type":"Point"},"properties":{"osm_id":"1332255634","tag":{"amenity":"recycling","mapillary":"jE-ipTenjIfyF8jZBm29wA","recycling_type":"container","survey:date":"2018-12-01"}},"type":"Feature"},
	{"geometry":{"coordinates":[13.617387,51.465238],"type":"Point"},"properties":{"osm_id":"5645755335","tag":{"amenity":"recycling","recycling_type":"container"}},"type":"Feature"},
	{"geometry":{"coordinates":[13.555904,51.497119],"type":"Point"},"properties":{"osm_id":"8958093597","tag":{"amenity":"waste_basket"}},"type":"Feature"},
	{"geometry":{"coordinates":[13.555654,51.497137],"type":"Point"},"properties":{"osm_id":"8958126425","tag":{"amenity":"waste_basket"}},"type":"Feature"},
	{"geometry":{"coordinates":[13.555627,51.497187],"type":"Point"},"properties":{"osm_id":"8958126427","tag":{"amenity":"waste_basket"}},"type":"Feature"}
]
}
