{
"type": "FeatureCollection",
"features": [
	{"geometry":{"coordinates":[13.61893,51.130593],"type":"Point"},"properties":{"osm_id":"378130114","tag":{"amenity":"recycling","recycling:clothes":"yes","recycling:glass":"yes","recycling_type":"container"}},"type":"Feature"},
	{"geometry":{"coordinates":[13.550712,51.144003],"type":"Point"},"properties":{"osm_id":"557153504","tag":{"amenity":"recycling","recycling:clothes":"yes","recycling:glass":"yes"}},"type":"Feature"},
	{"geometry":{"coordinates":[13.545777,51.146619],"type":"Point"},"properties":{"osm_id":"568456759","tag":{"amenity":"recycling","recycling:clothes":"yes","recycling:glass":"yes","recycling:paper":"yes"}},"type":"Feature"},
	{"geometry":{"coordinates":[13.538901,51.150551],"type":"Point"},"properties":{"osm_id":"568456760","tag":{"amenity":"recycling","recycling:clothes":"yes","recycling:glass_bottles":"yes","recycling_type":"container"}},"type":"Feature"},
	{"geometry":{"coordinates":[13.574856,51.161503],"type":"Point"},"properties":{"osm_id":"755835102","tag":{"amenity":"recycling","recycling:glass_bottles":"yes"}},"type":"Feature"},
	{"geometry":{"coordinates":[13.583821,51.124747],"type":"Point"},"properties":{"osm_id":"1187603812","tag":{"amenity":"recycling","recycling:clothes":"yes","recycling:glass":"yes","recycling_type":"container"}},"type":"Feature"},
	{"geometry":{"coordinates":[13.575827,51.12656],"type":"Point"},"properties":{"osm_id":"1230042018","tag":{"amenity":"recycling","recycling:clothes":"yes","recycling:glass":"yes","recycling_type":"container"}},"type":"Feature"},
	{"geometry":{"coordinates":[13.544196,51.13026],"type":"Point"},"properties":{"osm_id":"1230042103","tag":{"amenity":"recycling","recycling:clothes":"yes","recycling:glass_bottles":"yes","recycling_type":"container"}},"type":"Feature"},
	{"geometry":{"coordinates":[13.579404,51.12594],"type":"Point"},"properties":{"osm_id":"1230042144","tag":{"amenity":"waste_basket"}},"type":"Feature"},
	{"geometry":{"coordinates":[13.542748,51.130919],"type":"Point"},"properties":{"osm_id":"1230042391","tag":{"amenity":"recycling","recycling:clothes":"yes"}},"type":"Feature"},
	{"geometry":{"coordinates":[13.540952,51.131966],"type":"Point"},"properties":{"osm_id":"1230042469","tag":{"amenity":"recycling","recycling:glass_bottles":"yes","recycling_type":"container"}},"type":"Feature"},
	{"geometry":{"coordinates":[13.53913,51.125641],"type":"Point"},"properties":{"osm_id":"1494327444","tag":{"amenity":"waste_basket"}},"type":"Feature"},
	{"geometry":{"coordinates":[13.553719,51.146078],"type":"Point"},"properties":{"osm_id":"1964991671","tag":{"amenity":"recycling","recycling:glass":"yes","recycling:paper":"yes","recycling_type":"container"}},"type":"Feature"},
	{"geometry":{"coordinates":[13.545602,51.175724],"type":"Point"},"properties":{"osm_id":"1984340741","tag":{"amenity":"recycling","recycling:paper":"yes","recycling_type":"container"}},"type":"Feature"},
	{"geometry":{"coordinates":[13.546349,51.176564],"type":"Point"},"properties":{"osm_id":"1984340829","tag":{"amenity":"recycling","recycling:clothes":"yes","recycling:glass":"yes","recycling_type":"container"}},"type":"Feature"},
	{"geometry":{"coordinates":[13.593992,51.139272],"type":"Point"},"properties":{"osm_id":"2103948294","tag":{"amenity":"recycling","recycling:batteries":"no","recycling:cans":"no","recycling:clothes":"no","recycling:electrical_appliances":"no","recycling:glass":"no","recycling:glass_bottles":"no","recycling:green_waste":"no","recycling:newspaper":"yes","recycling:paper":"yes","recycling:paper_packaging":"yes","recycling_type":"container"}},"type":"Feature"},
	{"geometry":{"coordinates":[13.581517,51.130241],"type":"Point"},"properties":{"osm_id":"2210547791","tag":{"amenity":"recycling","recycling_type":"container"}},"type":"Feature"},
	{"geometry":{"coordinates":[13.56195,51.158512],"type":"Point"},"properties":{"osm_id":"2611140337","tag":{"amenity":"waste_basket"}},"type":"Feature"},
	{"geometry":{"coordinates":[13.562248,51.158536],"type":"Point"},"properties":{"osm_id":"2611140340","tag":{"amenity":"waste_basket"}},"type":"Feature"},
	{"geometry":{"coordinates":[13.562384,51.15855],"type":"Point"},"properties":{"osm_id":"2611140342","tag":{"amenity":"waste_basket"}},"type":"Feature"},
	{"geometry":{"coordinates":[13.562362,51.158594],"type":"Point"},"properties":{"osm_id":"2611140346","tag":{"amenity":"waste_basket"}},"type":"Feature"},
	{"geometry":{"coordinates":[13.562248,51.158595],"type":"Point"},"properties":{"osm_id":"2611140347","tag":{"amenity":"waste_basket"}},"type":"Feature"},
	{"geometry":{"coordinates":[13.567037,51.161966],"type":"Point"},"properties":{"osm_id":"2611258126","tag":{"amenity":"waste_basket"}},"type":"Feature"},
	{"geometry":{"coordinates":[13.564937,51.160437],"type":"Point"},"properties":{"osm_id":"2611398028","tag":{"amenity":"waste_basket"}},"type":"Feature"},
	{"geometry":{"coordinates":[13.564503,51.16153],"type":"Point"},"properties":{"osm_id":"2611398059","tag":{"amenity":"waste_basket"}},"type":"Feature"},
	{"geometry":{"coordinates":[13.56666,51.166057],"type":"Point"},"properties":{"osm_id":"2611398222","tag":{"amenity":"recycling","recycling:clothes":"yes","recycling:glass":"yes"}},"type":"Feature"},
	{"geometry":{"coordinates":[13.568317,51.16912],"type":"Point"},"properties":{"osm_id":"2611398242","tag":{"amenity":"recycling","recycling:glass":"yes"}},"type":"Feature"},
	{"geometry":{"coordinates":[13.566748,51.172312],"type":"Point"},"properties":{"osm_id":"2611398250","tag":{"amenity":"recycling","recycling:clothes":"yes","recycling:glass_bottles":"yes","recycling_type":"container"}},"type":"Feature"},
	{"geometry":{"coordinates":[13.578163,51.136498],"type":"Point"},"properties":{"osm_id":"2612540776","tag":{"amenity":"recycling","recycling:clothes":"yes","recycling_type":"container"}},"type":"Feature"},
	{"geometry":{"coordinates":[13.58878,51.125667],"type":"Point"},"properties":{"osm_id":"2612749292","tag":{"amenity":"waste_basket"}},"type":"Feature"},
	{"geometry":{"coordinates":[13.588711,51.125688],"type":"Point"},"properties":{"osm_id":"2612749295","tag":{"amenity":"waste_basket"}},"type":"Feature"},
	{"geometry":{"coordinates":[13.562002,51.160108],"type":"Point"},"properties":{"osm_id":"2870764667","tag":{"amenity":"recycling","recycling:glass_bottles":"yes","recycling_type":"container"}},"type":"Feature"},
	{"geometry":{"coordinates":[13.578174,51.168191],"type":"Point"},"properties":{"osm_id":"2870792358","tag":{"amenity":"recycling","recycling:clothes":"yes","recycling:glass_bottles":"yes","recycling_type":"container"}},"type":"Feature"},
	{"geometry":{"coordinates":[13.588689,51.163937],"type":"Point"},"properties":{"osm_id":"2870794910","tag":{"amenity":"recycling","recycling:glass_bottles":"yes","recycling_type":"container"}},"type":"Feature"},
	{"geometry":{"coordinates":[13.569672,51.137327],"type":"Point"},"properties":{"osm_id":"3075638546","tag":{"amenity":"recycling","recycling:cans":"no","recycling:clothes":"no","recycling:glass":"yes","recycling:paper":"no","recycling_type":"container"}},"type":"Feature"},
	{"geometry":{"coordinates":[13.58295,51.171686],"type":"Point"},"properties":{"osm_id":"3229851980","tag":{"amenity":"waste_basket"}},"type":"Feature"},
	{"geometry":{"coordinates":[13.581308,51.127904],"type":"Point"},"properties":{"osm_id":"3267140108","tag":{"amenity":"waste_basket"}},"type":"Feature"},
	{"geometry":{"coordinates":[13.560715,51.176865],"type":"Point"},"properties":{"osm_id":"3297345561","tag":{"amenity":"recycling","recycling:cans":"no","recycling:clothes":"yes","recycling:glass":"no","recycling:paper":"no"}},"type":"Feature"},
	{"geometry":{"coordinates":[13.564921,51.161564],"type":"Point"},"properties":{"osm_id":"3353859033","tag":{"amenity":"waste_basket"}},"type":"Feature"},
	{"geometry":{"coordinates":[13.563351,51.153317],"type":"Point"},"properties":{"osm_id":"3353954125","tag":{"amenity":"waste_basket"}},"type":"Feature"},
	{"geometry":{"coordinates":[13.588745,51.125784],"type":"Point"},"properties":{"osm_id":"3364515757","tag":{"amenity":"waste_basket"}},"type":"Feature"},
	{"geometry":{"coordinates":[13.580369,51.12799],"type":"Point"},"properties":{"osm_id":"3397599996","tag":{"amenity":"waste_basket"}},"type":"Feature"},
	{"geometry":{"coordinates":[13.580413,51.129863],"type":"Point"},"properties":{"osm_id":"3408991183","tag":{"amenity":"waste_basket"}},"type":"Feature"},
	{"geometry":{"coordinates":[13.570004,51.143634],"type":"Point"},"properties":{"osm_id":"3409566431","tag":{"amenity":"recycling","recycling_type":"container"}},"type":"Feature"},
	{"geometry":{"coordinates":[13.58585,51.1282],"type":"Point"},"properties":{"osm_id":"3505822805","tag":{"amenity":"waste_basket"}},"type":"Feature"},
	{"geometry":{"coordinates":[13.577721,51.126514],"type":"Point"},"properties":{"osm_id":"3530760068","tag":{"amenity":"waste_basket"}},"type":"Feature"},
	{"geometry":{"coordinates":[13.573079,51.150881],"type":"Point"},"properties":{"osm_id":"3611185447","tag":{"amenity":"recycling","fee":"no","recycling:clothes":"yes","recycling:glass":"yes","recycling_type":"container"}},"type":"Feature"},
	{"geometry":{"coordinates":[13.579879,51.154095],"type":"Point"},"properties":{"osm_id":"3611185448","tag":{"amenity":"recycling","fee":"no","recycling:clothes":"yes","recycling:glass":"yes","recycling_type":"container"}},"type":"Feature"},
	{"geometry":{"coordinates":[13.59328,51.160986],"type":"Point"},"properties":{"osm_id":"3611185449","tag":{"amenity":"recycling","fee":"no","recycling:clothes":"yes","recycling:glass":"yes","recycling_type":"container"}},"type":"Feature"},
	{"geometry":{"coordinates":[13.583093,51.127618],"type":"Point"},"properties":{"osm_id":"3654756199","tag":{"amenity":"recycling","recycling:glass":"yes","recycling:glass_bottles":"yes","recycling_type":"container"}},"type":"Feature"},
	{"geometry":{"coordinates":[13.578926,51.125987],"type":"Point"},"properties":{"osm_id":"3667233943","tag":{"amenity":"waste_basket"}},"type":"Feature"},
	{"geometry":{"coordinates":[13.575275,51.161579],"type":"Point"},"properties":{"osm_id":"3792479367","tag":{"amenity":"waste_basket"}},"type":"Feature"},
	{"geometry":{"coordinates":[13.572131,51.161801],"type":"Point"},"properties":{"osm_id":"3792479369","tag":{"amenity":"waste_basket"}},"type":"Feature"},
	{"geometry":{"coordinates":[13.569581,51.165477],"type":"Point"},"properties":{"osm_id":"3812557382","tag":{"amenity":"waste_basket"}},"type":"Feature"},
	{"geometry":{"coordinates":[13.574286,51.163741],"type":"Point"},"properties":{"osm_id":"3829670500","tag":{"amenity":"waste_basket"}},"type":"Feature"},
	{"geometry":{"coordinates":[13.58613,51.132154],"type":"Point"},"properties":{"osm_id":"3834870780","tag":{"amenity":"recycling","recycling:clothes":"yes","recycling:glass_bottles":"yes","recycling_type":"container"}},"type":"Feature"},
	{"geometry":{"coordinates":[13.561897,51.158904],"type":"Point"},"properties":{"osm_id":"3859265000","tag":{"amenity":"waste_basket"}},"type":"Feature"},
	{"geometry":{"coordinates":[13.567705,51.162055],"type":"Point"},"properties":{"osm_id":"3869205607","tag":{"amenity":"waste_basket"}},"type":"Feature"},
	{"geometry":{"coordinates":[13.567704,51.162023],"type":"Point"},"properties":{"osm_id":"3869205608","tag":{"amenity":"waste_basket"}},"type":"Feature"},
	{"geometry":{"coordinates":[13.572749,51.163573],"type":"Point"},"properties":{"osm_id":"3869226512","tag":{"amenity":"waste_basket"}},"type":"Feature"},
	{"geometry":{"coordinates":[13.569066,51.16002],"type":"Point"},"properties":{"osm_id":"3877890656","tag":{"amenity":"recycling","recycling":"green_waste","recycling_type":"container"}},"type":"Feature"},
	{"geometry":{"coordinates":[13.568625,51.159732],"type":"Point"},"properties":{"osm_id":"3877892962","tag":{"amenity":"recycling","recycling":"green_waste","recycling_type":"container"}},"type":"Feature"},
	{"geometry":{"coordinates":[13.573638,51.163997],"type":"Point"},"properties":{"osm_id":"3881771462","tag":{"amenity":"waste_basket"}},"type":"Feature"},
	{"geometry":{"coordinates":[13.573772,51.164034],"type":"Point"},"properties":{"osm_id":"3881771463","tag":{"amenity":"waste_basket"}},"type":"Feature"},
	{"geometry":{"coordinates":[13.567934,51.138729],"type":"Point"},"properties":{"osm_id":"3918742122","tag":{"amenity":"recycling","recycling:clothes":"yes","recycling:glass_bottles":"yes","recycling_type":"container"}},"type":"Feature"},
	{"geometry":{"coordinates":[13.620338,51.175589],"type":"Point"},"properties":{"osm_id":"3946379678","tag":{"amenity":"recycling","recycling:clothes":"yes","recycling:glass_bottles":"yes","recycling_type":"container"}},"type":"Feature"},
	{"geometry":{"coordinates":[13.570063,51.165226],"type":"Point"},"properties":{"osm_id":"3948394637","tag":{"amenity":"waste_basket"}},"type":"Feature"},
	{"geometry":{"coordinates":[13.569856,51.165116],"type":"Point"},"properties":{"osm_id":"3948394642","tag":{"amenity":"waste_basket"}},"type":"Feature"},
	{"geometry":{"coordinates":[13.570087,51.16543],"type":"Point"},"properties":{"osm_id":"3948394650","tag":{"amenity":"waste_basket"}},"type":"Feature"},
	{"geometry":{"coordinates":[13.569954,51.165178],"type":"Point"},"properties":{"osm_id":"3948394651","tag":{"amenity":"waste_basket"}},"type":"Feature"},
	{"geometry":{"coordinates":[13.570008,51.165204],"type":"Point"},"properties":{"osm_id":"3948394652","tag":{"amenity":"waste_basket"}},"type":"Feature"},
	{"geometry":{"coordinates":[13.570462,51.165087],"type":"Point"},"properties":{"osm_id":"3948417578","tag":{"amenity":"waste_basket"}},"type":"Feature"},
	{"geometry":{"coordinates":[13.562213,51.162512],"type":"Point"},"properties":{"osm_id":"3976469015","tag":{"amenity":"waste_basket"}},"type":"Feature"},
	{"geometry":{"coordinates":[13.562182,51.162318],"type":"Point"},"properties":{"osm_id":"3976469019","tag":{"amenity":"waste_basket"}},"type":"Feature"},
	{"geometry":{"coordinates":[13.570093,51.165037],"type":"Point"},"properties":{"osm_id":"3997908094","tag":{"amenity":"waste_basket"}},"type":"Feature"},
	{"geometry":{"coordinates":[13.563285,51.178101],"type":"Point"},"properties":{"osm_id":"4006453236","tag":{"amenity":"recycling","recycling:gas_bottles":"yes","recycling_type":"container"}},"type":"Feature"},
	{"geometry":{"coordinates":[13.565273,51.162052],"type":"Point"},"properties":{"osm_id":"4279988719","tag":{"amenity":"waste_basket"}},"type":"Feature"},
	{"geometry":{"coordinates":[13.564089,51.16161],"type":"Point"},"properties":{"osm_id":"4279988721","tag":{"amenity":"waste_basket"}},"type":"Feature"},
	{"geometry":{"coordinates":[13.563916,51.161413],"type":"Point"},"properties":{"osm_id":"4282115605","tag":{"amenity":"waste_basket"}},"type":"Feature"},
	{"geometry":{"coordinates":[13.563979,51.161584],"type":"Point"},"properties":{"osm_id":"4282115608","tag":{"amenity":"waste_basket"}},"type":"Feature"},
	{"geometry":{"coordinates":[13.563862,51.161367],"type":"Point"},"properties":{"osm_id":"4282115610","tag":{"amenity":"waste_basket"}},"type":"Feature"},
	{"geometry":{"coordinates":[13.567517,51.162042],"type":"Point"},"properties":{"osm_id":"4282120322","tag":{"amenity":"waste_basket"}},"type":"Feature"},
	{"geometry":{"coordinates":[13.564448,51.161629],"type":"Point"},"properties":{"osm_id":"4286198762","tag":{"amenity":"waste_basket"}},"type":"Feature"},
	{"geometry":{"coordinates":[13.564079,51.161462],"type":"Point"},"properties":{"osm_id":"4286198763","tag":{"amenity":"waste_basket"}},"type":"Feature"},
	{"geometry":{"coordinates":[13.56448,51.161696],"type":"Point"},"properties":{"osm_id":"4286198764","tag":{"amenity":"waste_basket"}},"type":"Feature"},
	{"geometry":{"coordinates":[13.564634,51.16191],"type":"Point"},"properties":{"osm_id":"4286198766","tag":{"amenity":"waste_basket"}},"type":"Feature"},
	{"geometry":{"coordinates":[13.564743,51.161753],"type":"Point"},"properties":{"osm_id":"4286198768","tag":{"amenity":"waste_basket"}},"type":"Feature"},
	{"geometry":{"coordinates":[13.56537,51.162019],"type":"Point"},"properties":{"osm_id":"4288649512","tag":{"amenity":"waste_basket"}},"type":"Feature"},
	{"geometry":{"coordinates":[13.569706,51.162741],"type":"Point"},"properties":{"osm_id":"4315874205","tag":{"amenity":"waste_basket"}},"type":"Feature"},
	{"geometry":{"coordinates":[13.569546,51.162576],"type":"Point"},"properties":{"osm_id":"4315874206","tag":{"amenity":"waste_basket"}},"type":"Feature"},
	{"geometry":{"coordinates":[13.584959,51.143139],"type":"Point"},"properties":{"osm_id":"4332734215","tag":{"amenity":"recycling","recycling:glass_bottles":"yes","recycling_type":"container"}},"type":"Feature"},
	{"geometry":{"coordinates":[13.586053,51.166798],"type":"Point"},"properties":{"osm_id":"4385684680","tag":{"amenity":"waste_basket"}},"type":"Feature"},
	{"geometry":{"coordinates":[13.593875,51.140802],"type":"Point"},"properties":{"osm_id":"4404835760","tag":{"amenity":"recycling","recycling:glass_bottles":"yes","recycling_type":"container"}},"type":"Feature"},
	{"geometry":{"coordinates":[13.572553,51.165137],"type":"Point"},"properties":{"osm_id":"4415070755","tag":{"amenity":"waste_basket"}},"type":"Feature"},
	{"geometry":{"coordinates":[13.621994,51.156897],"type":"Point"},"properties":{"osm_id":"4438282754","tag":{"amenity":"waste_basket"}},"type":"Feature"},
	{"geometry":{"coordinates":[13.596297,51.14088],"type":"Point"},"properties":{"osm_id":"4460191747","tag":{"amenity":"waste_disposal"}},"type":"Feature"},
	{"geometry":{"coordinates":[13.597515,51.141467],"type":"Point"},"properties":{"osm_id":"4460191769","tag":{"amenity":"waste_disposal"}},"type":"Feature"},
	{"geometry":{"coordinates":[13.571864,51.165822],"type":"Point"},"properties":{"osm_id":"4577670940","tag":{"amenity":"waste_basket"}},"type":"Feature"},
	{"geometry":{"coordinates":[13.56968,51.164861],"type":"Point"},"properties":{"osm_id":"4581107911","tag":{"amenity":"waste_basket"}},"type":"Feature"},
	{"geometry":{"coordinates":[13.570438,51.165176],"type":"Point"},"properties":{"osm_id":"4581107912","tag":{"amenity":"waste_basket"}},"type":"Feature"},
	{"geometry":{"coordinates":[13.567145,51.161532],"type":"Point"},"properties":{"osm_id":"4599953531","tag":{"amenity":"waste_basket"}},"type":"Feature"},
	{"geometry":{"coordinates":[13.569272,51.157012],"type":"Point"},"properties":{"osm_id":"4672942277","tag":{"amenity":"waste_basket"}},"type":"Feature"},
	{"geometry":{"coordinates":[13.574483,51.152047],"type":"Point"},"properties":{"osm_id":"4674939918","tag":{"amenity":"waste_basket"}},"type":"Feature"},
	{"geometry":{"coordinates":[13.582121,51.134393],"type":"Point"},"properties":{"osm_id":"4732466434","tag":{"amenity":"waste_basket"}},"type":"Feature"},
	{"geometry":{"coordinates":[13.582627,51.134357],"type":"Point"},"properties":{"osm_id":"4740380278","tag":{"amenity":"waste_basket"}},"type":"Feature"},
	{"geometry":{"coordinates":[13.577131,51.163467],"type":"Point"},"properties":{"osm_id":"4745269458","tag":{"amenity":"waste_basket"}},"type":"Feature"},
	{"geometry":{"coordinates":[13.574953,51.140227],"type":"Point"},"properties":{"osm_id":"4749123058","tag":{"amenity":"waste_basket"}},"type":"Feature"},
	{"geometry":{"coordinates":[13.575067,51.140268],"type":"Point"},"properties":{"osm_id":"4749123059","tag":{"amenity":"waste_basket"}},"type":"Feature"},
	{"geometry":{"coordinates":[13.566495,51.159621],"type":"Point"},"properties":{"osm_id":"4749127016","tag":{"amenity":"waste_basket"}},"type":"Feature"},
	{"geometry":{"coordinates":[13.578297,51.136145],"type":"Point"},"properties":{"osm_id":"4753503275","tag":{"amenity":"waste_basket"}},"type":"Feature"},
	{"geometry":{"coordinates":[13.588396,51.125328],"type":"Point"},"properties":{"osm_id":"4781478082","tag":{"amenity":"recycling","recycling:glass_bottles":"yes"}},"type":"Feature"},
	{"geometry":{"coordinates":[13.567529,51.161925],"type":"Point"},"properties":{"osm_id":"4860101014","tag":{"amenity":"waste_basket"}},"type":"Feature"},
	{"geometry":{"coordinates":[13.56876,51.162358],"type":"Point"},"properties":{"osm_id":"4966275248","tag":{"amenity":"waste_basket"}},"type":"Feature"},
	{"geometry":{"coordinates":[13.566034,51.160137],"type":"Point"},"properties":{"osm_id":"4995151875","tag":{"amenity":"waste_basket"}},"type":"Feature"},
	{"geometry":{"coordinates":[13.568402,51.16189],"type":"Point"},"properties":{"osm_id":"5882124885","tag":{"amenity":"waste_basket"}},"type":"Feature"},
	{"geometry":{"coordinates":[13.58714,51.164365],"type":"Point"},"properties":{"osm_id":"5908125377","tag":{"amenity":"waste_basket"}},"type":"Feature"},
	{"geometry":{"coordinates":[13.601404,51.142693],"type":"Point"},"properties":{"osm_id":"6036966662","tag":{"amenity":"waste_basket","waste":"trash"}},"type":"Feature"},
	{"geometry":{"coordinates":[13.552162,51.147241],"type":"Point"},"properties":{"osm_id":"6152227226","tag":{"amenity":"recycling","recycling:clothes":"yes","recycling_type":"container"}},"type":"Feature"},
	{"geometry":{"coordinates":[13.552028,51.147294],"type":"Point"},"properties":{"osm_id":"6152227227","tag":{"amenity":"recycling","recycling:glass_bottles":"yes","recycling_type":"container"}},"type":"Feature"},
	{"geometry":{"coordinates":[13.588544,51.16407],"type":"Point"},"properties":{"osm_id":"6533495975","tag":{"amenity":"recycling","recycling:clothes":"yes","recycling_type":"container"}},"type":"Feature"},
	{"geometry":{"coordinates":[13.56208,51.160126],"type":"Point"},"properties":{"osm_id":"6533504537","tag":{"amenity":"recycling","recycling:clothes":"yes","recycling_type":"container"}},"type":"Feature"},
	{"geometry":{"coordinates":[13.539363,51.173566],"type":"Point"},"properties":{"osm_id":"7572479731","tag":{"amenity":"waste_basket"}},"type":"Feature"},
	{"geometry":{"coordinates":[13.566512,51.159313],"type":"Point"},"properties":{"osm_id":"7656549773","tag":{"amenity":"waste_basket"}},"type":"Feature"}
]
}
