{
"type": "FeatureCollection",
"features": [
	{"geometry":{"coordinates":[13.622305,51.11617],"type":"Point"},"properties":{"osm_id":"291619524","tag":{"amenity":"recycling","recycling:glass":"yes"}},"type":"Feature"},
	{"geometry":{"coordinates":[13.622451,51.108087],"type":"Point"},"properties":{"osm_id":"304131428","tag":{"amenity":"recycling","location":"overground","recycling:glass_bottles":"yes","recycling_type":"container"}},"type":"Feature"},
	{"geometry":{"coordinates":[13.613355,51.116396],"type":"Point"},"properties":{"osm_id":"312400276","tag":{"amenity":"recycling","recycling:clothes":"yes","recycling:glass":"yes"}},"type":"Feature"},
	{"geometry":{"coordinates":[13.607481,51.114495],"type":"Point"},"properties":{"osm_id":"331890980","tag":{"amenity":"recycling","recycling:clothes":"yes","recycling:glass":"yes","recycling_type":"container"}},"type":"Feature"},
	{"geometry":{"coordinates":[13.603104,51.080632],"type":"Point"},"properties":{"osm_id":"534315099","tag":{"amenity":"recycling"}},"type":"Feature"},
	{"geometry":{"coordinates":[13.605235,51.106495],"type":"Point"},"properties":{"osm_id":"982340959","tag":{"amenity":"recycling","recycling:clothes":"yes","recycling:glass":"yes","recycling_type":"container"}},"type":"Feature"},
	{"geometry":{"coordinates":[13.580704,51.117337],"type":"Point"},"properties":{"osm_id":"1229568366","tag":{"amenity":"recycling","recycling:glass":"yes"}},"type":"Feature"},
	{"geometry":{"coordinates":[13.596126,51.103108],"type":"Point"},"properties":{"osm_id":"1229568399","tag":{"amenity":"waste_basket"}},"type":"Feature"},
	{"geometry":{"coordinates":[13.571979,51.115905],"type":"Point"},"properties":{"osm_id":"1230042445","tag":{"amenity":"recycling","recycling:clothes":"yes","recycling:glass":"yes"}},"type":"Feature"},
	{"geometry":{"coordinates":[13.607861,51.076764],"type":"Point"},"properties":{"osm_id":"1260065149","tag":{"amenity":"recycling","collection_times":"Sa[2,4] 8:00-11:00","recycling:green_waste":"yes","recycling_type":"centre"}},"type":"Feature"},
	{"geometry":{"coordinates":[13.616507,51.11001],"type":"Point"},"properties":{"osm_id":"1270378828","tag":{"amenity":"recycling","location":"overground","recycling:glass_bottles":"yes","recycling_type":"container"}},"type":"Feature"},
	{"geometry":{"coordinates":[13.56699,51.117297],"type":"Point"},"properties":{"osm_id":"1494327439","tag":{"amenity":"waste_basket"}},"type":"Feature"},
	{"geometry":{"coordinates":[13.552935,51.122288],"type":"Point"},"properties":{"osm_id":"1494327441","tag":{"amenity":"waste_basket"}},"type":"Feature"},
	{"geometry":{"coordinates":[13.588085,51.112379],"type":"Point"},"properties":{"osm_id":"1842700488","tag":{"amenity":"recycling","mapillary":"TdYMDsdyA50FPIMikCBzyg","recycling:clothes":"yes","recycling:glass":"yes","recycling_type":"container","survey:date":"2017-04-19"}},"type":"Feature"},
	{"geometry":{"coordinates":[13.58862,51.117802],"type":"Point"},"properties":{"osm_id":"1842700773","tag":{"amenity":"recycling","recycling:clothes":"yes","recycling:shoes":"yes"}},"type":"Feature"},
	{"geometry":{"coordinates":[13.5568,51.114387],"type":"Point"},"properties":{"osm_id":"2020394092","tag":{"amenity":"recycling","recycling:clothes":"yes","recycling:glass":"yes"}},"type":"Feature"},
	{"geometry":{"coordinates":[13.588158,51.100014],"type":"Point"},"properties":{"osm_id":"2265947050","tag":{"amenity":"waste_basket"}},"type":"Feature"},
	{"geometry":{"coordinates":[13.621847,51.113989],"type":"Point"},"properties":{"osm_id":"2338061197","tag":{"amenity":"recycling","opening_hours":"Mo-Sa 07:00-20:00","recycling:clothes":"yes","recycling:glass":"yes","recycling_type":"container"}},"type":"Feature"},
	{"geometry":{"coordinates":[13.606192,51.111238],"type":"Point"},"properties":{"osm_id":"2377448400","tag":{"amenity":"waste_basket"}},"type":"Feature"},
	{"geometry":{"coordinates":[13.563329,51.105633],"type":"Point"},"properties":{"osm_id":"2454992291","tag":{"amenity":"recycling","recycling:clothes":"yes","recycling:glass":"yes","recycling_type":"container"}},"type":"Feature"},
	{"geometry":{"coordinates":[13.605194,51.099487],"type":"Point"},"properties":{"osm_id":"2541929586","tag":{"amenity":"waste_basket"}},"type":"Feature"},
	{"geometry":{"coordinates":[13.611454,51.114513],"type":"Point"},"properties":{"osm_id":"2612748803","tag":{"amenity":"waste_basket"}},"type":"Feature"},
	{"geometry":{"coordinates":[13.577439,51.12115],"type":"Point"},"properties":{"osm_id":"2940582580","tag":{"amenity":"recycling","recycling:clothes":"yes","recycling:glass":"yes"}},"type":"Feature"},
	{"geometry":{"coordinates":[13.609958,51.078331],"type":"Point"},"properties":{"osm_id":"2970510846","tag":{"amenity":"recycling","recycling:clothes":"yes"}},"type":"Feature"},
	{"geometry":{"coordinates":[13.580675,51.084249],"type":"Point"},"properties":{"osm_id":"3461470046","tag":{"amenity":"recycling","mapillary":"EKlZQNlMVXhrk5StqzSx2Q","recycling:cans":"no","recycling:clothes":"yes","recycling:glass":"yes","recycling_type":"container","survey:date":"2018-10-04"}},"type":"Feature"},
	{"geometry":{"coordinates":[13.572538,51.122656],"type":"Point"},"properties":{"osm_id":"3795901809","tag":{"amenity":"recycling","recycling:glass":"yes","recycling_type":"container"}},"type":"Feature"},
	{"geometry":{"coordinates":[13.58016,51.122795],"type":"Point"},"properties":{"osm_id":"4379420028","tag":{"amenity":"waste_basket"}},"type":"Feature"},
	{"geometry":{"coordinates":[13.602983,51.119874],"type":"Point"},"properties":{"osm_id":"4530636874","tag":{"amenity":"waste_basket"}},"type":"Feature"},
	{"geometry":{"coordinates":[13.588468,51.123592],"type":"Point"},"properties":{"osm_id":"4864850744","tag":{"amenity":"recycling","recycling:clothes":"yes","recycling:glass_bottles":"yes"}},"type":"Feature"},
	{"geometry":{"coordinates":[13.612858,51.113019],"type":"Point"},"properties":{"osm_id":"5263818666","tag":{"amenity":"recycling","recycling:clothes":"yes","recycling:glass":"yes","recycling_type":"container"}},"type":"Feature"},
	{"geometry":{"coordinates":[13.613265,51.115099],"type":"Point"},"properties":{"osm_id":"6600565437","tag":{"amenity":"recycling","recycling:clothes":"yes","recycling_type":"container"}},"type":"Feature"},
	{"geometry":{"coordinates":[13.613239,51.115074],"type":"Point"},"properties":{"osm_id":"6600565438","tag":{"amenity":"recycling","recycling:glass_bottles":"yes","recycling_type":"container"}},"type":"Feature"},
	{"geometry":{"coordinates":[13.607222,51.114347],"type":"Point"},"properties":{"osm_id":"7703470608","tag":{"amenity":"waste_basket","covered":"no"}},"type":"Feature"}
]
}
