{
"type": "FeatureCollection",
"features": [
	{"geometry":{"coordinates":[13.593644,49.734564],"type":"Point"},"properties":{"osm_id":"2444957854","tag":{"amenity":"recycling","recycling_type":"container"}},"type":"Feature"},
	{"geometry":{"coordinates":[13.595359,49.738745],"type":"Point"},"properties":{"osm_id":"4558875300","tag":{"amenity":"recycling","opening_hours":"24/7","recycling:batteries":"yes","recycling:glass":"yes","recycling:paper":"yes","recycling:plastic":"yes","recycling:small_appliances":"yes","recycling_type":"container"}},"type":"Feature"},
	{"geometry":{"coordinates":[13.595093,49.736084],"type":"Point"},"properties":{"osm_id":"4558875301","tag":{"amenity":"recycling","opening_hours":"24/7","recycling:glass":"yes","recycling:paper":"yes","recycling:plastic":"yes","recycling_type":"container"}},"type":"Feature"},
	{"geometry":{"coordinates":[13.595997,49.737162],"type":"Point"},"properties":{"osm_id":"4558875302","tag":{"amenity":"recycling","opening_hours":"24/7","recycling:clothes":"yes","recycling:glass":"yes","recycling:paper":"yes","recycling:plastic":"yes","recycling_type":"container"}},"type":"Feature"},
	{"geometry":{"coordinates":[13.596377,49.735855],"type":"Point"},"properties":{"osm_id":"4558875303","tag":{"amenity":"recycling","opening_hours":"24/7","recycling:glass":"yes","recycling:paper":"yes","recycling:plastic":"yes","recycling_type":"container"}},"type":"Feature"},
	{"geometry":{"coordinates":[13.598437,49.742564],"type":"Point"},"properties":{"osm_id":"4618890883","tag":{"amenity":"recycling","opening_hours":"24/7","recycling:batteries":"yes","recycling:glass":"yes","recycling:paper":"yes","recycling:plastic":"yes","recycling:small_appliances":"yes","recycling_type":"container"}},"type":"Feature"},
	{"geometry":{"coordinates":[13.59293,49.744492],"type":"Point"},"properties":{"osm_id":"4618891622","tag":{"amenity":"recycling","recycling:glass":"yes","recycling:paper":"yes","recycling:plastic":"yes","recycling_type":"container"}},"type":"Feature"},
	{"geometry":{"coordinates":[13.590911,49.777777],"type":"Point"},"properties":{"osm_id":"6734740740","tag":{"amenity":"recycling","recycling:clothes":"yes","recycling:glass":"yes","recycling:paper":"yes","recycling:plastic":"yes","recycling_type":"container"}},"type":"Feature"}
]
}
