{
"type": "FeatureCollection",
"features": [
	{"geometry":{"coordinates":[13.554809,49.143591],"type":"Point"},"properties":{"osm_id":"3980544579","tag":{"amenity":"recycling","opening_hours":"24/7","recycling:aluminium":"yes","recycling:batteries":"yes","recycling:glass":"yes","recycling:paper":"yes","recycling:plastic":"yes","recycling:scrap_metal":"yes","recycling:small_appliances":"yes","recycling_type":"container","wheelchair":"yes"}},"type":"Feature"},
	{"geometry":{"coordinates":[13.559887,49.14425],"type":"Point"},"properties":{"osm_id":"3980689502","tag":{"amenity":"recycling","recycling_type":"container"}},"type":"Feature"},
	{"geometry":{"coordinates":[13.559868,49.144264],"type":"Point"},"properties":{"osm_id":"3980689503","tag":{"amenity":"recycling","recycling_type":"container"}},"type":"Feature"},
	{"geometry":{"coordinates":[13.559854,49.144277],"type":"Point"},"properties":{"osm_id":"3980689504","tag":{"amenity":"recycling","recycling_type":"container"}},"type":"Feature"},
	{"geometry":{"coordinates":[13.561055,49.145258],"type":"Point"},"properties":{"osm_id":"4678055978","tag":{"amenity":"waste_basket"}},"type":"Feature"},
	{"geometry":{"coordinates":[13.561105,49.141083],"type":"Point"},"properties":{"osm_id":"4678056250","tag":{"amenity":"recycling","recycling:glass":"yes","recycling:paper":"yes","recycling:plastic":"yes","recycling_type":"container"}},"type":"Feature"},
	{"geometry":{"coordinates":[13.554652,49.142937],"type":"Point"},"properties":{"osm_id":"4678056254","tag":{"amenity":"waste_basket"}},"type":"Feature"},
	{"geometry":{"coordinates":[13.556341,49.144828],"type":"Point"},"properties":{"osm_id":"4678056263","tag":{"amenity":"waste_basket"}},"type":"Feature"},
	{"geometry":{"coordinates":[13.557282,49.145938],"type":"Point"},"properties":{"osm_id":"4678056265","tag":{"amenity":"waste_basket"}},"type":"Feature"},
	{"geometry":{"coordinates":[13.55733,49.146503],"type":"Point"},"properties":{"osm_id":"4678056266","tag":{"amenity":"waste_basket"}},"type":"Feature"},
	{"geometry":{"coordinates":[13.555434,49.142761],"type":"Point"},"properties":{"osm_id":"4678056276","tag":{"amenity":"waste_basket"}},"type":"Feature"},
	{"geometry":{"coordinates":[13.539209,49.146565],"type":"Point"},"properties":{"osm_id":"4678056296","tag":{"amenity":"waste_basket"}},"type":"Feature"},
	{"geometry":{"coordinates":[13.54173,49.146028],"type":"Point"},"properties":{"osm_id":"4678056299","tag":{"amenity":"waste_basket"}},"type":"Feature"},
	{"geometry":{"coordinates":[13.548677,49.142397],"type":"Point"},"properties":{"osm_id":"4678056330","tag":{"amenity":"waste_basket"}},"type":"Feature"},
	{"geometry":{"coordinates":[13.550924,49.145094],"type":"Point"},"properties":{"osm_id":"4678056378","tag":{"amenity":"recycling","recycling:glass":"yes","recycling:paper":"yes","recycling:plastic":"yes","recycling_type":"container"}},"type":"Feature"},
	{"geometry":{"coordinates":[13.619893,49.124649],"type":"Point"},"properties":{"osm_id":"7011603794","tag":{"amenity":"recycling","recycling:glass":"yes","recycling:paper":"yes","recycling_type":"container"}},"type":"Feature"},
	{"geometry":{"coordinates":[13.612534,49.132537],"type":"Point"},"properties":{"osm_id":"7011674778","tag":{"amenity":"recycling","recycling:glass":"yes","recycling:paper":"yes","recycling:plastic":"yes","recycling_type":"container"}},"type":"Feature"}
]
}
