{
"type": "FeatureCollection",
"lastupdate": "2020-08-03T00:00:00Z",
"features": [
	{"geometry":{"coordinates":[13.550099,48.48422],"type":"Point"},"properties":{"name":"Altstoffsammelzentrum M\u00c3\u00bcnzkirchen","osm_id":"512453280","tag":{"addr:city":"M\u00fcnzkirchen","addr:country":"AT","addr:housenumber":"4","addr:postcode":"4792","addr:street":"Wilhelminger Stra\u00dfe","amenity":"recycling","at_bev:addr_date":"2018-04-02","recycling_type":"centre"}},"type":"Feature"},
	{"geometry":{"coordinates":[13.564829,48.484763],"type":"Point"},"properties":{"osm_id":"1445259897","tag":{"amenity":"waste_basket","designation":"M\u00fclleimer"}},"type":"Feature"},
	{"geometry":{"coordinates":[13.568741,48.485383],"type":"Point"},"properties":{"osm_id":"1445260430","tag":{"amenity":"recycling","recycling:batteries":"no","recycling:cans":"yes","recycling:cardboard":"yes","recycling:cartons":"no","recycling:clothes":"yes","recycling:glass_bottles":"yes","recycling:magazines":"yes","recycling:newspaper":"yes","recycling:paper":"yes","recycling_type":"container"}},"type":"Feature"}
]
}
