{
"type": "FeatureCollection",
"features": [
	{"geometry":{"coordinates":[13.568884,48.153934],"type":"Point"},"properties":{"osm_id":"6175996018","tag":{"amenity":"recycling","recycling:glass":"yes","recycling_type":"container"}},"type":"Feature"},
	{"geometry":{"coordinates":[13.566263,48.154266],"type":"Point"},"properties":{"osm_id":"6176461792","tag":{"amenity":"recycling","recycling:glass":"yes","recycling_type":"container"}},"type":"Feature"},
	{"geometry":{"coordinates":[13.562273,48.154619],"type":"Point"},"properties":{"osm_id":"6179195788","tag":{"amenity":"waste_basket"}},"type":"Feature"},
	{"geometry":{"coordinates":[13.560291,48.153193],"type":"Point"},"properties":{"osm_id":"6239115393","tag":{"amenity":"waste_basket"}},"type":"Feature"},
	{"geometry":{"coordinates":[13.55935,48.152927],"type":"Point"},"properties":{"osm_id":"6239115399","tag":{"amenity":"waste_basket"}},"type":"Feature"},
	{"geometry":{"coordinates":[13.559348,48.157312],"type":"Point"},"properties":{"name":"ASZ Eberschwang","osm_id":"6893554132","tag":{"addr:city":"Eberschwang","addr:housenumber":"86","addr:postcode":"4906","addr:street":"Eberschwang","amenity":"recycling","recycling_type":"centre"}},"type":"Feature"}
]
}
