{
"type": "FeatureCollection",
"features": [
	{"geometry":{"coordinates":[13.535377,45.808017],"type":"Point"},"properties":{"osm_id":"525882959","tag":{"amenity":"recycling","recycling:glass":"yes"}},"type":"Feature"},
	{"geometry":{"coordinates":[13.579748,45.820153],"type":"Point"},"properties":{"osm_id":"528000996","tag":{"amenity":"recycling","recycling:drugs":"yes"}},"type":"Feature"},
	{"geometry":{"coordinates":[13.591842,45.788588],"type":"Point"},"properties":{"osm_id":"528578473","tag":{"amenity":"recycling","recycling:glass":"yes","recycling:paper":"yes","recycling:plastic":"yes"}},"type":"Feature"},
	{"geometry":{"coordinates":[13.579188,45.822237],"type":"Point"},"properties":{"osm_id":"548670890","tag":{"amenity":"recycling","recycling:glass":"yes"}},"type":"Feature"},
	{"geometry":{"coordinates":[13.617335,45.821306],"type":"Point"},"properties":{"osm_id":"5783213662","tag":{"amenity":"waste_basket"}},"type":"Feature"},
	{"geometry":{"coordinates":[13.567139,45.791992],"type":"Point"},"properties":{"osm_id":"7731104999","tag":{"amenity":"waste_basket","waste":"trash"}},"type":"Feature"},
	{"geometry":{"coordinates":[13.566562,45.792052],"type":"Point"},"properties":{"osm_id":"7731105001","tag":{"amenity":"waste_basket","waste":"trash"}},"type":"Feature"},
	{"geometry":{"coordinates":[13.566533,45.792],"type":"Point"},"properties":{"osm_id":"7731105002","tag":{"amenity":"waste_basket"}},"type":"Feature"}
]
}
