{
"type": "FeatureCollection",
"features": [
	{"geometry":{"coordinates":[13.561379,41.217924],"type":"Point"},"properties":{"osm_id":"5601997762","tag":{"amenity":"recycling","recycling:animal_waste":"yes","recycling:cooking_oil":"yes","recycling_type":"container","url":"http://www.gruppolem.com"}},"type":"Feature"},
	{"geometry":{"coordinates":[13.570418,41.219365],"type":"Point"},"properties":{"osm_id":"5634893900","tag":{"addr:city":"Gaeta","addr:housenumber":"558","addr:postcode":"04024","addr:street":"Lungomare Giovanni Caboto","amenity":"recycling","recycling:drugs":"yes","recycling_type":"dump"}},"type":"Feature"},
	{"geometry":{"coordinates":[13.564655,41.22515],"type":"Point"},"properties":{"osm_id":"5639951179","tag":{"amenity":"recycling","colour":"blue","operator":"EcoCar","recycling:cooking_oil":"yes","recycling_type":"container"}},"type":"Feature"},
	{"geometry":{"coordinates":[13.564647,41.225148],"type":"Point"},"properties":{"osm_id":"5639951180","tag":{"amenity":"recycling","colour":"darkgreen","recycling:canine_dejections":"yes","recycling_type":"container"}},"type":"Feature"},
	{"geometry":{"coordinates":[13.570288,41.216014],"type":"Point"},"properties":{"osm_id":"6598185553","tag":{"amenity":"waste_basket","colour":"dark","material":"plastic,_metal,_undifferentiated"}},"type":"Feature"},
	{"geometry":{"coordinates":[13.571438,41.214394],"type":"Point"},"properties":{"osm_id":"6598185554","tag":{"amenity":"waste_basket","colour":"dark","material":"plastic,_metal,_undifferentiated"}},"type":"Feature"},
	{"geometry":{"coordinates":[13.570138,41.220415],"type":"Point"},"properties":{"osm_id":"6930509548","tag":{"amenity":"recycling","operator":"LEM","phone":"800858436","recycling:cooking_oil":"yes","recycling_type":"container","serial":"48","url":"http://www.gruppolem.com"}},"type":"Feature"},
	{"geometry":{"coordinates":[13.567746,41.224648],"type":"Point"},"properties":{"osm_id":"7008514161","tag":{"amenity":"recycling","recycling:animal_waste":"yes","recycling_type":"container"}},"type":"Feature"},
	{"geometry":{"coordinates":[13.586977,41.208527],"type":"Point"},"properties":{"osm_id":"7342461908","tag":{"amenity":"recycling","recycling:animal_waste":"yes","recycling_type":"container"}},"type":"Feature"}
]
}
