{
"type": "FeatureCollection",
"features": [
	{"geometry":{"coordinates":[13.559132,7.442348],"type":"Point"},"properties":{"osm_id":"5915956490","tag":{"amenity":"waste_disposal","waste":"trash"}},"type":"Feature"},
	{"geometry":{"coordinates":[13.555887,7.432424],"type":"Point"},"properties":{"osm_id":"5915956492","tag":{"amenity":"waste_disposal","waste":"trash"}},"type":"Feature"},
	{"geometry":{"coordinates":[13.555429,7.441277],"type":"Point"},"properties":{"osm_id":"5915956493","tag":{"amenity":"waste_disposal","waste":"trash"}},"type":"Feature"},
	{"geometry":{"coordinates":[13.556167,7.43006],"type":"Point"},"properties":{"osm_id":"6309142466","tag":{"Source":"ACAGER-CUN","amenity":"waste_disposal"}},"type":"Feature"},
	{"geometry":{"coordinates":[13.555887,7.432424],"type":"Point"},"properties":{"osm_id":"6309142467","tag":{"Source":"ACAGER-CUN","amenity":"waste_disposal"}},"type":"Feature"},
	{"geometry":{"coordinates":[13.559132,7.442348],"type":"Point"},"properties":{"osm_id":"6309142468","tag":{"Source":"ACAGER-CUN","amenity":"waste_disposal"}},"type":"Feature"},
	{"geometry":{"coordinates":[13.555504,7.441165],"type":"Point"},"properties":{"osm_id":"6309142469","tag":{"Source":"ACAGER-CUN","amenity":"waste_disposal"}},"type":"Feature"}
]
}
