{
"type": "FeatureCollection",
"features": [
	{"geometry":{"coordinates":[25.478728,62.844541],"type":"Point"},"properties":{"name":"Uusi iso puu","osm_id":"2524667324","tag":{"circumference":"2.2","denotation":"natural_monument","height":"24.5","leaf_cycle":"evergreen","leaf_type":"needleleaved","name:en":"Giant Tree","name:fi":"Iso puu","name:sv":"Det nya  stortr\u00c3\u00a4det","natural":"tree","protected":"yes","tourism":"attraction"}},"type":"Feature"},
	{"geometry":{"coordinates":[25.477412,62.842285],"type":"Point"},"properties":{"name":"Vanha iso puu","osm_id":"2524667325","tag":{"circumference":"2.88","denotation":"natural_monument","height":"26","leaf_cycle":"evergreen","leaf_type":"needleleaved","name:en":"Old Giant Tree","name:fi":"Vanha iso puu","name:sv":"Det gamla stortr\u00c3\u00a4det","natural":"tree","protected":"yes","tourism":"attraction"}},"type":"Feature"},
	{"geometry":{"coordinates":[25.449154,62.870618],"type":"Point"},"properties":{"osm_id":"7575212718","tag":{"denotation":"natural_monument","natural":"tree"}},"type":"Feature"}
]
}
