{
"type": "FeatureCollection",
"features": [
	{"geometry":{"coordinates":[-73.54608,45.561047],"type":"Point"},"properties":{"osm_id":"1577064337","tag":{"amenity":"recycling","recycling_type":"container"}},"type":"Feature"},
	{"geometry":{"coordinates":[-73.549453,45.522064],"type":"Point"},"properties":{"osm_id":"2430530462","tag":{"amenity":"waste_basket"}},"type":"Feature"},
	{"geometry":{"coordinates":[-73.552218,45.522638],"type":"Point"},"properties":{"osm_id":"2430561280","tag":{"amenity":"waste_basket"}},"type":"Feature"},
	{"geometry":{"coordinates":[-73.544347,45.561923],"type":"Point"},"properties":{"osm_id":"2506055648","tag":{"amenity":"recycling"}},"type":"Feature"},
	{"geometry":{"coordinates":[-73.553111,45.521815],"type":"Point"},"properties":{"osm_id":"2867545959","tag":{"amenity":"waste_basket"}},"type":"Feature"},
	{"geometry":{"coordinates":[-73.552805,45.522062],"type":"Point"},"properties":{"osm_id":"2867555834","tag":{"amenity":"waste_basket"}},"type":"Feature"},
	{"geometry":{"coordinates":[-73.552453,45.522513],"type":"Point"},"properties":{"osm_id":"2867570956","tag":{"amenity":"waste_basket"}},"type":"Feature"},
	{"geometry":{"coordinates":[-73.551909,45.523214],"type":"Point"},"properties":{"osm_id":"2867576364","tag":{"amenity":"waste_basket"}},"type":"Feature"},
	{"geometry":{"coordinates":[-73.551614,45.523307],"type":"Point"},"properties":{"osm_id":"2867580120","tag":{"amenity":"waste_basket"}},"type":"Feature"},
	{"geometry":{"coordinates":[-73.551303,45.523671],"type":"Point"},"properties":{"osm_id":"2867591887","tag":{"amenity":"waste_basket"}},"type":"Feature"},
	{"geometry":{"coordinates":[-73.550795,45.524355],"type":"Point"},"properties":{"osm_id":"2867591890","tag":{"amenity":"waste_basket"}},"type":"Feature"},
	{"geometry":{"coordinates":[-73.551372,45.52358],"type":"Point"},"properties":{"osm_id":"2867591891","tag":{"amenity":"waste_basket"}},"type":"Feature"},
	{"geometry":{"coordinates":[-73.550749,45.524331],"type":"Point"},"properties":{"osm_id":"2867591893","tag":{"amenity":"waste_basket"}},"type":"Feature"},
	{"geometry":{"coordinates":[-73.550798,45.524277],"type":"Point"},"properties":{"osm_id":"2867602428","tag":{"amenity":"waste_basket"}},"type":"Feature"},
	{"geometry":{"coordinates":[-73.550849,45.524314],"type":"Point"},"properties":{"osm_id":"2867602429","tag":{"amenity":"waste_basket"}},"type":"Feature"},
	{"geometry":{"coordinates":[-73.551071,45.522032],"type":"Point"},"properties":{"osm_id":"2867621815","tag":{"amenity":"waste_basket"}},"type":"Feature"},
	{"geometry":{"coordinates":[-73.555645,45.524466],"type":"Point"},"properties":{"osm_id":"2936238796","tag":{"amenity":"waste_basket"}},"type":"Feature"},
	{"geometry":{"coordinates":[-73.535616,45.548321],"type":"Point"},"properties":{"osm_id":"2949551813","tag":{"amenity":"waste_basket"}},"type":"Feature"},
	{"geometry":{"coordinates":[-73.534948,45.54945],"type":"Point"},"properties":{"osm_id":"2949551814","tag":{"amenity":"waste_basket"}},"type":"Feature"},
	{"geometry":{"coordinates":[-73.534129,45.550851],"type":"Point"},"properties":{"osm_id":"2949551820","tag":{"amenity":"waste_basket"}},"type":"Feature"},
	{"geometry":{"coordinates":[-73.532958,45.552551],"type":"Point"},"properties":{"osm_id":"2949551821","tag":{"amenity":"waste_basket"}},"type":"Feature"},
	{"geometry":{"coordinates":[-73.532429,45.553729],"type":"Point"},"properties":{"name":"Site de compostage collectif","osm_id":"2949551824","tag":{"amenity":"recycling","recycling:organic":"yes","recycling_type":"container"}},"type":"Feature"},
	{"geometry":{"coordinates":[-73.53194,45.554011],"type":"Point"},"properties":{"osm_id":"2949551825","tag":{"amenity":"waste_basket"}},"type":"Feature"},
	{"geometry":{"coordinates":[-73.531542,45.55463],"type":"Point"},"properties":{"osm_id":"2949551827","tag":{"amenity":"waste_basket"}},"type":"Feature"},
	{"geometry":{"coordinates":[-73.531107,45.555327],"type":"Point"},"properties":{"osm_id":"2949551828","tag":{"amenity":"waste_basket"}},"type":"Feature"},
	{"geometry":{"coordinates":[-73.530763,45.555811],"type":"Point"},"properties":{"osm_id":"2949551831","tag":{"amenity":"waste_basket"}},"type":"Feature"},
	{"geometry":{"coordinates":[-73.530221,45.556736],"type":"Point"},"properties":{"osm_id":"2949552033","tag":{"amenity":"waste_basket"}},"type":"Feature"},
	{"geometry":{"coordinates":[-73.532724,45.560057],"type":"Point"},"properties":{"osm_id":"2949552036","tag":{"amenity":"waste_basket"}},"type":"Feature"},
	{"geometry":{"coordinates":[-73.533118,45.559838],"type":"Point"},"properties":{"osm_id":"2949552037","tag":{"amenity":"waste_basket"}},"type":"Feature"},
	{"geometry":{"coordinates":[-73.534316,45.560979],"type":"Point"},"properties":{"osm_id":"2949552038","tag":{"amenity":"waste_basket"}},"type":"Feature"},
	{"geometry":{"coordinates":[-73.534411,45.560634],"type":"Point"},"properties":{"osm_id":"2949552042","tag":{"amenity":"waste_basket"}},"type":"Feature"},
	{"geometry":{"coordinates":[-73.534994,45.559947],"type":"Point"},"properties":{"osm_id":"2949552043","tag":{"amenity":"waste_basket"}},"type":"Feature"},
	{"geometry":{"coordinates":[-73.534754,45.559807],"type":"Point"},"properties":{"name":"Site de compostage collectif","osm_id":"2949552044","tag":{"amenity":"recycling","recycling:organic":"yes","recycling_type":"container"}},"type":"Feature"},
	{"geometry":{"coordinates":[-73.536895,45.557147],"type":"Point"},"properties":{"osm_id":"2949552046","tag":{"amenity":"waste_basket"}},"type":"Feature"},
	{"geometry":{"coordinates":[-73.538194,45.555097],"type":"Point"},"properties":{"osm_id":"2949552047","tag":{"amenity":"waste_basket"}},"type":"Feature"},
	{"geometry":{"coordinates":[-73.538369,45.554812],"type":"Point"},"properties":{"osm_id":"2949552048","tag":{"amenity":"waste_basket"}},"type":"Feature"},
	{"geometry":{"coordinates":[-73.538684,45.554322],"type":"Point"},"properties":{"osm_id":"2949552050","tag":{"amenity":"waste_basket"}},"type":"Feature"},
	{"geometry":{"coordinates":[-73.536262,45.552551],"type":"Point"},"properties":{"osm_id":"2949552057","tag":{"amenity":"waste_basket"}},"type":"Feature"},
	{"geometry":{"coordinates":[-73.550637,45.524551],"type":"Point"},"properties":{"osm_id":"2976433546","tag":{"amenity":"waste_basket"}},"type":"Feature"},
	{"geometry":{"coordinates":[-73.550561,45.524526],"type":"Point"},"properties":{"osm_id":"2976433547","tag":{"amenity":"waste_basket"}},"type":"Feature"},
	{"geometry":{"coordinates":[-73.540148,45.545416],"type":"Point"},"properties":{"osm_id":"3152480443","tag":{"amenity":"waste_basket"}},"type":"Feature"},
	{"geometry":{"coordinates":[-73.553739,45.577909],"type":"Point"},"properties":{"osm_id":"4307700696","tag":{"amenity":"waste_basket"}},"type":"Feature"},
	{"geometry":{"coordinates":[-73.553663,45.577467],"type":"Point"},"properties":{"osm_id":"4307703392","tag":{"amenity":"waste_basket"}},"type":"Feature"},
	{"geometry":{"coordinates":[-73.553729,45.577492],"type":"Point"},"properties":{"osm_id":"4307710995","tag":{"amenity":"waste_basket"}},"type":"Feature"},
	{"geometry":{"coordinates":[-73.553684,45.5775],"type":"Point"},"properties":{"osm_id":"4307757189","tag":{"amenity":"waste_basket"}},"type":"Feature"},
	{"geometry":{"coordinates":[-73.554362,45.57683],"type":"Point"},"properties":{"osm_id":"4307757190","tag":{"amenity":"waste_basket"}},"type":"Feature"},
	{"geometry":{"coordinates":[-73.553824,45.578348],"type":"Point"},"properties":{"osm_id":"4307757901","tag":{"amenity":"waste_basket"}},"type":"Feature"},
	{"geometry":{"coordinates":[-73.553538,45.577444],"type":"Point"},"properties":{"osm_id":"4307760089","tag":{"amenity":"waste_basket"}},"type":"Feature"},
	{"geometry":{"coordinates":[-73.553918,45.577957],"type":"Point"},"properties":{"osm_id":"4307764589","tag":{"amenity":"waste_basket"}},"type":"Feature"},
	{"geometry":{"coordinates":[-73.556259,45.577603],"type":"Point"},"properties":{"osm_id":"4307773890","tag":{"amenity":"waste_basket"}},"type":"Feature"},
	{"geometry":{"coordinates":[-73.555415,45.57885],"type":"Point"},"properties":{"osm_id":"4307785297","tag":{"amenity":"waste_basket"}},"type":"Feature"},
	{"geometry":{"coordinates":[-73.556149,45.577856],"type":"Point"},"properties":{"osm_id":"4307827189","tag":{"amenity":"waste_basket"}},"type":"Feature"},
	{"geometry":{"coordinates":[-73.552972,45.577141],"type":"Point"},"properties":{"osm_id":"4308107089","tag":{"amenity":"waste_basket"}},"type":"Feature"},
	{"geometry":{"coordinates":[-73.552915,45.577375],"type":"Point"},"properties":{"osm_id":"4308107094","tag":{"amenity":"waste_basket"}},"type":"Feature"},
	{"geometry":{"coordinates":[-73.551517,45.546908],"type":"Point"},"properties":{"osm_id":"4467277316","tag":{"amenity":"waste_basket"}},"type":"Feature"},
	{"geometry":{"coordinates":[-73.54936,45.550798],"type":"Point"},"properties":{"osm_id":"4467277321","tag":{"amenity":"waste_basket"}},"type":"Feature"},
	{"geometry":{"coordinates":[-73.563762,45.524061],"type":"Point"},"properties":{"osm_id":"4852208188","tag":{"amenity":"waste_basket"}},"type":"Feature"},
	{"geometry":{"coordinates":[-73.5409,45.539304],"type":"Point"},"properties":{"osm_id":"6249523921","tag":{"amenity":"waste_basket"}},"type":"Feature"},
	{"geometry":{"coordinates":[-73.540578,45.539738],"type":"Point"},"properties":{"osm_id":"6249523925","tag":{"amenity":"waste_basket"}},"type":"Feature"},
	{"geometry":{"coordinates":[-73.533562,45.551218],"type":"Point"},"properties":{"osm_id":"6262797168","tag":{"amenity":"waste_basket"}},"type":"Feature"},
	{"geometry":{"coordinates":[-73.532973,45.551255],"type":"Point"},"properties":{"osm_id":"6262797169","tag":{"amenity":"waste_basket"}},"type":"Feature"},
	{"geometry":{"coordinates":[-73.532823,45.55148],"type":"Point"},"properties":{"osm_id":"6262797170","tag":{"amenity":"waste_basket"}},"type":"Feature"},
	{"geometry":{"coordinates":[-73.531879,45.551511],"type":"Point"},"properties":{"osm_id":"6262797171","tag":{"amenity":"waste_basket"}},"type":"Feature"},
	{"geometry":{"coordinates":[-73.532475,45.550854],"type":"Point"},"properties":{"osm_id":"6262797172","tag":{"amenity":"waste_basket"}},"type":"Feature"},
	{"geometry":{"coordinates":[-73.532566,45.551015],"type":"Point"},"properties":{"osm_id":"6262797173","tag":{"amenity":"waste_basket"}},"type":"Feature"},
	{"geometry":{"coordinates":[-73.532279,45.55139],"type":"Point"},"properties":{"osm_id":"6262797174","tag":{"amenity":"waste_basket"}},"type":"Feature"},
	{"geometry":{"coordinates":[-73.532548,45.551452],"type":"Point"},"properties":{"osm_id":"6262797175","tag":{"amenity":"waste_basket"}},"type":"Feature"},
	{"geometry":{"coordinates":[-73.532762,45.551123],"type":"Point"},"properties":{"osm_id":"6262797176","tag":{"amenity":"waste_basket"}},"type":"Feature"},
	{"geometry":{"coordinates":[-73.533137,45.551623],"type":"Point"},"properties":{"osm_id":"6262797177","tag":{"amenity":"waste_basket"}},"type":"Feature"},
	{"geometry":{"coordinates":[-73.532983,45.551502],"type":"Point"},"properties":{"osm_id":"6262797178","tag":{"amenity":"waste_basket"}},"type":"Feature"},
	{"geometry":{"coordinates":[-73.533099,45.551331],"type":"Point"},"properties":{"osm_id":"6262797179","tag":{"amenity":"waste_basket"}},"type":"Feature"},
	{"geometry":{"coordinates":[-73.533332,45.551368],"type":"Point"},"properties":{"osm_id":"6262797180","tag":{"amenity":"waste_basket"}},"type":"Feature"},
	{"geometry":{"coordinates":[-73.531939,45.551006],"type":"Point"},"properties":{"osm_id":"6262797181","tag":{"amenity":"waste_basket"}},"type":"Feature"},
	{"geometry":{"coordinates":[-73.551716,45.523426],"type":"Point"},"properties":{"osm_id":"6306877286","tag":{"amenity":"waste_basket"}},"type":"Feature"}
]
}
