{
"type": "FeatureCollection",
"features": [
	{"geometry":{"coordinates":[-73.552605,45.521484],"type":"Point"},"properties":{"osm_id":"2424590543","tag":{"amenity":"waste_basket"}},"type":"Feature"},
	{"geometry":{"coordinates":[-73.553544,45.519427],"type":"Point"},"properties":{"osm_id":"2424590555","tag":{"amenity":"waste_basket"}},"type":"Feature"},
	{"geometry":{"coordinates":[-73.552862,45.520985],"type":"Point"},"properties":{"osm_id":"2424590562","tag":{"amenity":"waste_basket"}},"type":"Feature"},
	{"geometry":{"coordinates":[-73.554325,45.518675],"type":"Point"},"properties":{"osm_id":"2424590565","tag":{"amenity":"waste_basket"}},"type":"Feature"},
	{"geometry":{"coordinates":[-73.552328,45.520693],"type":"Point"},"properties":{"osm_id":"2424590570","tag":{"amenity":"waste_basket"}},"type":"Feature"},
	{"geometry":{"coordinates":[-73.552744,45.520976],"type":"Point"},"properties":{"osm_id":"2424590572","tag":{"amenity":"waste_basket"}},"type":"Feature"},
	{"geometry":{"coordinates":[-73.55314,45.519859],"type":"Point"},"properties":{"osm_id":"2424590601","tag":{"amenity":"waste_basket"}},"type":"Feature"},
	{"geometry":{"coordinates":[-73.552213,45.521089],"type":"Point"},"properties":{"osm_id":"2424590603","tag":{"amenity":"waste_basket"}},"type":"Feature"},
	{"geometry":{"coordinates":[-73.552783,45.520895],"type":"Point"},"properties":{"osm_id":"2424590611","tag":{"amenity":"waste_basket"}},"type":"Feature"},
	{"geometry":{"coordinates":[-73.552398,45.521034],"type":"Point"},"properties":{"osm_id":"2424590614","tag":{"amenity":"waste_basket"}},"type":"Feature"},
	{"geometry":{"coordinates":[-73.552513,45.521176],"type":"Point"},"properties":{"osm_id":"2424590621","tag":{"amenity":"waste_basket"}},"type":"Feature"},
	{"geometry":{"coordinates":[-73.550007,45.521581],"type":"Point"},"properties":{"osm_id":"2430530422","tag":{"amenity":"waste_basket"}},"type":"Feature"},
	{"geometry":{"coordinates":[-73.549858,45.521622],"type":"Point"},"properties":{"osm_id":"2430530450","tag":{"amenity":"waste_basket"}},"type":"Feature"},
	{"geometry":{"coordinates":[-73.55058,45.520851],"type":"Point"},"properties":{"osm_id":"2430530459","tag":{"amenity":"waste_basket"}},"type":"Feature"},
	{"geometry":{"coordinates":[-73.55015,45.521472],"type":"Point"},"properties":{"osm_id":"2430530509","tag":{"amenity":"waste_basket"}},"type":"Feature"},
	{"geometry":{"coordinates":[-73.555059,45.516642],"type":"Point"},"properties":{"osm_id":"2430632596","tag":{"amenity":"waste_basket"}},"type":"Feature"},
	{"geometry":{"coordinates":[-73.551985,45.518786],"type":"Point"},"properties":{"osm_id":"2430632599","tag":{"amenity":"waste_basket"}},"type":"Feature"},
	{"geometry":{"coordinates":[-73.554129,45.517473],"type":"Point"},"properties":{"osm_id":"2430632611","tag":{"amenity":"waste_basket"}},"type":"Feature"},
	{"geometry":{"coordinates":[-73.554723,45.516234],"type":"Point"},"properties":{"osm_id":"2430632612","tag":{"amenity":"waste_basket"}},"type":"Feature"},
	{"geometry":{"coordinates":[-73.553843,45.517818],"type":"Point"},"properties":{"osm_id":"2430632615","tag":{"amenity":"waste_basket"}},"type":"Feature"},
	{"geometry":{"coordinates":[-73.555174,45.516833],"type":"Point"},"properties":{"osm_id":"2430632617","tag":{"amenity":"waste_basket"}},"type":"Feature"},
	{"geometry":{"coordinates":[-73.553804,45.517545],"type":"Point"},"properties":{"osm_id":"2430632618","tag":{"amenity":"waste_basket"}},"type":"Feature"},
	{"geometry":{"coordinates":[-73.552996,45.51825],"type":"Point"},"properties":{"osm_id":"2430632624","tag":{"amenity":"waste_basket"}},"type":"Feature"},
	{"geometry":{"coordinates":[-73.556922,45.517545],"type":"Point"},"properties":{"osm_id":"2431138582","tag":{"amenity":"waste_basket"}},"type":"Feature"},
	{"geometry":{"coordinates":[-73.55488,45.519819],"type":"Point"},"properties":{"osm_id":"2443412532","tag":{"amenity":"waste_basket"}},"type":"Feature"},
	{"geometry":{"coordinates":[-73.554684,45.519975],"type":"Point"},"properties":{"osm_id":"2443412561","tag":{"amenity":"waste_basket"}},"type":"Feature"},
	{"geometry":{"coordinates":[-73.554627,45.520324],"type":"Point"},"properties":{"osm_id":"2443572104","tag":{"amenity":"waste_basket"}},"type":"Feature"},
	{"geometry":{"coordinates":[-73.564222,45.509299],"type":"Point"},"properties":{"osm_id":"2494110865","tag":{"amenity":"waste_basket"}},"type":"Feature"},
	{"geometry":{"coordinates":[-73.564387,45.509134],"type":"Point"},"properties":{"osm_id":"2501576578","tag":{"amenity":"waste_basket"}},"type":"Feature"},
	{"geometry":{"coordinates":[-73.564143,45.509377],"type":"Point"},"properties":{"osm_id":"2501579916","tag":{"amenity":"waste_basket"}},"type":"Feature"},
	{"geometry":{"coordinates":[-73.5517,45.504822],"type":"Point"},"properties":{"osm_id":"2693806076","tag":{"amenity":"waste_basket"}},"type":"Feature"},
	{"geometry":{"coordinates":[-73.552097,45.504803],"type":"Point"},"properties":{"osm_id":"2693806077","tag":{"amenity":"waste_basket"}},"type":"Feature"},
	{"geometry":{"coordinates":[-73.547527,45.504816],"type":"Point"},"properties":{"osm_id":"2693806079","tag":{"amenity":"waste_basket"}},"type":"Feature"},
	{"geometry":{"coordinates":[-73.551343,45.504844],"type":"Point"},"properties":{"osm_id":"2693806080","tag":{"amenity":"waste_basket"}},"type":"Feature"},
	{"geometry":{"coordinates":[-73.550485,45.504895],"type":"Point"},"properties":{"osm_id":"2693806086","tag":{"amenity":"waste_basket"}},"type":"Feature"},
	{"geometry":{"coordinates":[-73.550126,45.504914],"type":"Point"},"properties":{"osm_id":"2693806087","tag":{"amenity":"waste_basket"}},"type":"Feature"},
	{"geometry":{"coordinates":[-73.549737,45.50494],"type":"Point"},"properties":{"osm_id":"2693806089","tag":{"amenity":"waste_basket"}},"type":"Feature"},
	{"geometry":{"coordinates":[-73.549603,45.504948],"type":"Point"},"properties":{"osm_id":"2693806090","tag":{"amenity":"waste_basket"}},"type":"Feature"},
	{"geometry":{"coordinates":[-73.551576,45.504968],"type":"Point"},"properties":{"osm_id":"2693806091","tag":{"amenity":"waste_basket"}},"type":"Feature"},
	{"geometry":{"coordinates":[-73.551421,45.504981],"type":"Point"},"properties":{"osm_id":"2693806093","tag":{"amenity":"waste_basket"}},"type":"Feature"},
	{"geometry":{"coordinates":[-73.55074,45.505021],"type":"Point"},"properties":{"osm_id":"2693806102","tag":{"amenity":"waste_basket"}},"type":"Feature"},
	{"geometry":{"coordinates":[-73.547443,45.505036],"type":"Point"},"properties":{"osm_id":"2693806107","tag":{"amenity":"waste_basket"}},"type":"Feature"},
	{"geometry":{"coordinates":[-73.549745,45.505083],"type":"Point"},"properties":{"osm_id":"2693806108","tag":{"amenity":"waste_basket"}},"type":"Feature"},
	{"geometry":{"coordinates":[-73.550263,45.505053],"type":"Point"},"properties":{"osm_id":"2693806111","tag":{"amenity":"waste_basket"}},"type":"Feature"},
	{"geometry":{"coordinates":[-73.549415,45.505107],"type":"Point"},"properties":{"osm_id":"2693806114","tag":{"amenity":"waste_basket"}},"type":"Feature"},
	{"geometry":{"coordinates":[-73.547334,45.505432],"type":"Point"},"properties":{"osm_id":"2693806123","tag":{"amenity":"waste_basket"}},"type":"Feature"},
	{"geometry":{"coordinates":[-73.546589,45.509404],"type":"Point"},"properties":{"osm_id":"2694749574","tag":{"amenity":"waste_basket"}},"type":"Feature"},
	{"geometry":{"coordinates":[-73.546344,45.510121],"type":"Point"},"properties":{"osm_id":"2694749619","tag":{"amenity":"waste_basket"}},"type":"Feature"},
	{"geometry":{"coordinates":[-73.546244,45.510487],"type":"Point"},"properties":{"osm_id":"2694749630","tag":{"amenity":"waste_basket"}},"type":"Feature"},
	{"geometry":{"coordinates":[-73.546181,45.510844],"type":"Point"},"properties":{"osm_id":"2694749642","tag":{"amenity":"waste_basket"}},"type":"Feature"},
	{"geometry":{"coordinates":[-73.54608,45.511213],"type":"Point"},"properties":{"osm_id":"2694749651","tag":{"amenity":"waste_basket"}},"type":"Feature"},
	{"geometry":{"coordinates":[-73.545972,45.511582],"type":"Point"},"properties":{"osm_id":"2694749659","tag":{"amenity":"waste_basket"}},"type":"Feature"},
	{"geometry":{"coordinates":[-73.545871,45.511953],"type":"Point"},"properties":{"osm_id":"2694749665","tag":{"amenity":"waste_basket"}},"type":"Feature"},
	{"geometry":{"coordinates":[-73.547425,45.508179],"type":"Point"},"properties":{"osm_id":"2694763471","tag":{"amenity":"waste_basket"}},"type":"Feature"},
	{"geometry":{"coordinates":[-73.547129,45.508312],"type":"Point"},"properties":{"osm_id":"2694763474","tag":{"amenity":"waste_basket"}},"type":"Feature"},
	{"geometry":{"coordinates":[-73.54693,45.508576],"type":"Point"},"properties":{"osm_id":"2694763476","tag":{"amenity":"waste_basket"}},"type":"Feature"},
	{"geometry":{"coordinates":[-73.54706,45.508723],"type":"Point"},"properties":{"osm_id":"2694763478","tag":{"amenity":"waste_basket"}},"type":"Feature"},
	{"geometry":{"coordinates":[-73.547246,45.508861],"type":"Point"},"properties":{"osm_id":"2694763483","tag":{"amenity":"waste_basket"}},"type":"Feature"},
	{"geometry":{"coordinates":[-73.553796,45.505485],"type":"Point"},"properties":{"osm_id":"2695200230","tag":{"amenity":"waste_basket"}},"type":"Feature"},
	{"geometry":{"coordinates":[-73.55332,45.505454],"type":"Point"},"properties":{"osm_id":"2695203549","tag":{"amenity":"waste_basket"}},"type":"Feature"},
	{"geometry":{"coordinates":[-73.553354,45.505312],"type":"Point"},"properties":{"osm_id":"2695203553","tag":{"amenity":"waste_basket"}},"type":"Feature"},
	{"geometry":{"coordinates":[-73.553729,45.505582],"type":"Point"},"properties":{"osm_id":"2695203556","tag":{"amenity":"waste_basket"}},"type":"Feature"},
	{"geometry":{"coordinates":[-73.553779,45.505511],"type":"Point"},"properties":{"osm_id":"2695203558","tag":{"amenity":"waste_basket"}},"type":"Feature"},
	{"geometry":{"coordinates":[-73.554086,45.505353],"type":"Point"},"properties":{"osm_id":"2695203562","tag":{"amenity":"waste_basket"}},"type":"Feature"},
	{"geometry":{"coordinates":[-73.553948,45.505542],"type":"Point"},"properties":{"osm_id":"2695203565","tag":{"amenity":"waste_basket"}},"type":"Feature"},
	{"geometry":{"coordinates":[-73.554817,45.505194],"type":"Point"},"properties":{"osm_id":"2695209828","tag":{"amenity":"waste_basket"}},"type":"Feature"},
	{"geometry":{"coordinates":[-73.554755,45.505175],"type":"Point"},"properties":{"osm_id":"2695209829","tag":{"amenity":"waste_basket"}},"type":"Feature"},
	{"geometry":{"coordinates":[-73.555178,45.504621],"type":"Point"},"properties":{"osm_id":"2695209830","tag":{"amenity":"waste_basket"}},"type":"Feature"},
	{"geometry":{"coordinates":[-73.555075,45.504599],"type":"Point"},"properties":{"osm_id":"2695209831","tag":{"amenity":"waste_basket"}},"type":"Feature"},
	{"geometry":{"coordinates":[-73.554911,45.505051],"type":"Point"},"properties":{"osm_id":"2695209832","tag":{"amenity":"waste_basket"}},"type":"Feature"},
	{"geometry":{"coordinates":[-73.554836,45.505031],"type":"Point"},"properties":{"osm_id":"2695209833","tag":{"amenity":"waste_basket"}},"type":"Feature"},
	{"geometry":{"coordinates":[-73.555583,45.504564],"type":"Point"},"properties":{"osm_id":"2695211136","tag":{"amenity":"waste_basket"}},"type":"Feature"},
	{"geometry":{"coordinates":[-73.555778,45.506142],"type":"Point"},"properties":{"osm_id":"2695242106","tag":{"amenity":"waste_basket"}},"type":"Feature"},
	{"geometry":{"coordinates":[-73.555812,45.506203],"type":"Point"},"properties":{"osm_id":"2695242111","tag":{"amenity":"waste_basket"}},"type":"Feature"},
	{"geometry":{"coordinates":[-73.56238,45.46467],"type":"Point"},"properties":{"osm_id":"2834757474","tag":{"amenity":"waste_basket"}},"type":"Feature"},
	{"geometry":{"coordinates":[-73.561859,45.465046],"type":"Point"},"properties":{"osm_id":"2834757480","tag":{"amenity":"waste_basket"}},"type":"Feature"},
	{"geometry":{"coordinates":[-73.561892,45.46544],"type":"Point"},"properties":{"osm_id":"2834757487","tag":{"amenity":"waste_basket"}},"type":"Feature"},
	{"geometry":{"coordinates":[-73.562022,45.465666],"type":"Point"},"properties":{"osm_id":"2834757496","tag":{"amenity":"waste_basket"}},"type":"Feature"},
	{"geometry":{"coordinates":[-73.561712,45.465921],"type":"Point"},"properties":{"osm_id":"2834761412","tag":{"amenity":"waste_basket"}},"type":"Feature"},
	{"geometry":{"coordinates":[-73.561916,45.466175],"type":"Point"},"properties":{"osm_id":"2834761418","tag":{"amenity":"waste_basket"}},"type":"Feature"},
	{"geometry":{"coordinates":[-73.561605,45.466684],"type":"Point"},"properties":{"osm_id":"2834761426","tag":{"amenity":"waste_basket"}},"type":"Feature"},
	{"geometry":{"coordinates":[-73.561808,45.467077],"type":"Point"},"properties":{"osm_id":"2834761430","tag":{"amenity":"waste_basket"}},"type":"Feature"},
	{"geometry":{"coordinates":[-73.562166,45.468058],"type":"Point"},"properties":{"osm_id":"2834761450","tag":{"amenity":"waste_basket"}},"type":"Feature"},
	{"geometry":{"coordinates":[-73.562499,45.468214],"type":"Point"},"properties":{"osm_id":"2834761452","tag":{"amenity":"waste_basket"}},"type":"Feature"},
	{"geometry":{"coordinates":[-73.562417,45.469362],"type":"Point"},"properties":{"osm_id":"2834761468","tag":{"amenity":"waste_basket"}},"type":"Feature"},
	{"geometry":{"coordinates":[-73.560393,45.47065],"type":"Point"},"properties":{"osm_id":"2834761482","tag":{"amenity":"waste_basket"}},"type":"Feature"},
	{"geometry":{"coordinates":[-73.553988,45.520785],"type":"Point"},"properties":{"osm_id":"2867540380","tag":{"amenity":"waste_basket"}},"type":"Feature"},
	{"geometry":{"coordinates":[-73.553626,45.52107],"type":"Point"},"properties":{"osm_id":"2867540381","tag":{"amenity":"waste_basket"}},"type":"Feature"},
	{"geometry":{"coordinates":[-73.553912,45.52096],"type":"Point"},"properties":{"osm_id":"2867540386","tag":{"addr:city":"Montr\u00c3\u00a9al","addr:housenumber":"1481","addr:street":"Rue Sainte-Catherine Est","amenity":"waste_basket"}},"type":"Feature"},
	{"geometry":{"coordinates":[-73.555842,45.518852],"type":"Point"},"properties":{"osm_id":"2869106215","tag":{"amenity":"waste_basket"}},"type":"Feature"},
	{"geometry":{"coordinates":[-73.555712,45.518984],"type":"Point"},"properties":{"osm_id":"2869106216","tag":{"amenity":"waste_basket"}},"type":"Feature"},
	{"geometry":{"coordinates":[-73.555509,45.519199],"type":"Point"},"properties":{"osm_id":"2869127436","tag":{"amenity":"waste_basket"}},"type":"Feature"},
	{"geometry":{"coordinates":[-73.55585,45.518754],"type":"Point"},"properties":{"osm_id":"2869144580","tag":{"amenity":"waste_basket"}},"type":"Feature"},
	{"geometry":{"coordinates":[-73.556271,45.518275],"type":"Point"},"properties":{"osm_id":"2869144584","tag":{"amenity":"waste_basket"}},"type":"Feature"},
	{"geometry":{"coordinates":[-73.556304,45.518313],"type":"Point"},"properties":{"osm_id":"2869144585","tag":{"amenity":"waste_basket"}},"type":"Feature"},
	{"geometry":{"coordinates":[-73.555923,45.518777],"type":"Point"},"properties":{"osm_id":"2869144588","tag":{"amenity":"waste_basket"}},"type":"Feature"},
	{"geometry":{"coordinates":[-73.556632,45.517952],"type":"Point"},"properties":{"osm_id":"2869146390","tag":{"amenity":"waste_basket"}},"type":"Feature"},
	{"geometry":{"coordinates":[-73.556715,45.517867],"type":"Point"},"properties":{"osm_id":"2869146392","tag":{"amenity":"waste_basket"}},"type":"Feature"},
	{"geometry":{"coordinates":[-73.558038,45.516313],"type":"Point"},"properties":{"osm_id":"2869161886","tag":{"amenity":"waste_basket"}},"type":"Feature"},
	{"geometry":{"coordinates":[-73.558064,45.516426],"type":"Point"},"properties":{"osm_id":"2869170504","tag":{"amenity":"waste_basket"}},"type":"Feature"},
	{"geometry":{"coordinates":[-73.55753,45.516922],"type":"Point"},"properties":{"osm_id":"2869180789","tag":{"amenity":"waste_basket"}},"type":"Feature"},
	{"geometry":{"coordinates":[-73.557592,45.51695],"type":"Point"},"properties":{"osm_id":"2869180790","tag":{"amenity":"waste_basket"}},"type":"Feature"},
	{"geometry":{"coordinates":[-73.55737,45.517595],"type":"Point"},"properties":{"osm_id":"2869210190","tag":{"amenity":"waste_basket"}},"type":"Feature"},
	{"geometry":{"coordinates":[-73.562,45.469467],"type":"Point"},"properties":{"osm_id":"2876874201","tag":{"amenity":"waste_basket"}},"type":"Feature"},
	{"geometry":{"coordinates":[-73.560254,45.467939],"type":"Point"},"properties":{"osm_id":"2876948509","tag":{"amenity":"waste_basket"}},"type":"Feature"},
	{"geometry":{"coordinates":[-73.560381,45.461752],"type":"Point"},"properties":{"osm_id":"2876948530","tag":{"amenity":"waste_basket"}},"type":"Feature"},
	{"geometry":{"coordinates":[-73.561524,45.464516],"type":"Point"},"properties":{"osm_id":"2876948608","tag":{"amenity":"waste_basket"}},"type":"Feature"},
	{"geometry":{"coordinates":[-73.557728,45.5178],"type":"Point"},"properties":{"osm_id":"2940670908","tag":{"amenity":"waste_basket"}},"type":"Feature"},
	{"geometry":{"coordinates":[-73.562074,45.517823],"type":"Point"},"properties":{"osm_id":"2968132688","tag":{"amenity":"waste_basket"}},"type":"Feature"},
	{"geometry":{"coordinates":[-73.562247,45.517634],"type":"Point"},"properties":{"osm_id":"2968136022","tag":{"amenity":"waste_basket"}},"type":"Feature"},
	{"geometry":{"coordinates":[-73.561824,45.518054],"type":"Point"},"properties":{"osm_id":"2968136024","tag":{"amenity":"waste_basket"}},"type":"Feature"},
	{"geometry":{"coordinates":[-73.552512,45.510242],"type":"Point"},"properties":{"osm_id":"3994332697","tag":{"amenity":"waste_basket","waste":"trash"}},"type":"Feature"},
	{"geometry":{"coordinates":[-73.553389,45.509199],"type":"Point"},"properties":{"osm_id":"3994782758","tag":{"amenity":"waste_basket","waste":"trash"}},"type":"Feature"},
	{"geometry":{"coordinates":[-73.551457,45.509975],"type":"Point"},"properties":{"osm_id":"3998352492","tag":{"amenity":"waste_basket","waste":"trash"}},"type":"Feature"},
	{"geometry":{"coordinates":[-73.552742,45.511587],"type":"Point"},"properties":{"osm_id":"4024152796","tag":{"amenity":"waste_basket","waste":"trash"}},"type":"Feature"},
	{"geometry":{"coordinates":[-73.552858,45.511371],"type":"Point"},"properties":{"osm_id":"4024152799","tag":{"amenity":"waste_basket","waste":"trash"}},"type":"Feature"},
	{"geometry":{"coordinates":[-73.550546,45.510403],"type":"Point"},"properties":{"osm_id":"4062550353","tag":{"amenity":"waste_basket","waste":"trash"}},"type":"Feature"},
	{"geometry":{"coordinates":[-73.550648,45.510409],"type":"Point"},"properties":{"osm_id":"4062550357","tag":{"amenity":"waste_basket","waste":"trash"}},"type":"Feature"},
	{"geometry":{"coordinates":[-73.55032,45.510836],"type":"Point"},"properties":{"osm_id":"4062550359","tag":{"amenity":"waste_basket","waste":"trash"}},"type":"Feature"},
	{"geometry":{"coordinates":[-73.553809,45.510621],"type":"Point"},"properties":{"osm_id":"4074288392","tag":{"amenity":"waste_basket","waste":"trash"}},"type":"Feature"},
	{"geometry":{"coordinates":[-73.554005,45.510694],"type":"Point"},"properties":{"osm_id":"4074288395","tag":{"amenity":"waste_basket","waste":"trash"}},"type":"Feature"},
	{"geometry":{"coordinates":[-73.55349,45.510487],"type":"Point"},"properties":{"osm_id":"4074288396","tag":{"amenity":"waste_basket","waste":"trash"}},"type":"Feature"},
	{"geometry":{"coordinates":[-73.553923,45.510811],"type":"Point"},"properties":{"osm_id":"4074288399","tag":{"amenity":"waste_basket","waste":"trash"}},"type":"Feature"},
	{"geometry":{"coordinates":[-73.553933,45.510976],"type":"Point"},"properties":{"osm_id":"4096101121","tag":{"amenity":"waste_basket","waste":"trash"}},"type":"Feature"},
	{"geometry":{"coordinates":[-73.559694,45.476106],"type":"Point"},"properties":{"osm_id":"4312055390","tag":{"amenity":"waste_basket"}},"type":"Feature"},
	{"geometry":{"coordinates":[-73.559959,45.475723],"type":"Point"},"properties":{"osm_id":"4312073190","tag":{"amenity":"waste_basket"}},"type":"Feature"},
	{"geometry":{"coordinates":[-73.560111,45.475452],"type":"Point"},"properties":{"osm_id":"4312086689","tag":{"amenity":"waste_basket"}},"type":"Feature"},
	{"geometry":{"coordinates":[-73.560433,45.474993],"type":"Point"},"properties":{"osm_id":"4320029400","tag":{"amenity":"waste_basket"}},"type":"Feature"},
	{"geometry":{"coordinates":[-73.556667,45.475261],"type":"Point"},"properties":{"osm_id":"4350238897","tag":{"amenity":"waste_basket"}},"type":"Feature"},
	{"geometry":{"coordinates":[-73.559215,45.515061],"type":"Point"},"properties":{"osm_id":"4356722599","tag":{"amenity":"waste_basket"}},"type":"Feature"},
	{"geometry":{"coordinates":[-73.549441,45.509653],"type":"Point"},"properties":{"osm_id":"4357616492","tag":{"amenity":"recycling","recycling_type":"container"}},"type":"Feature"},
	{"geometry":{"coordinates":[-73.543628,45.505611],"type":"Point"},"properties":{"osm_id":"4385530603","tag":{"amenity":"waste_basket"}},"type":"Feature"},
	{"geometry":{"coordinates":[-73.543534,45.505812],"type":"Point"},"properties":{"osm_id":"4385547794","tag":{"amenity":"waste_basket"}},"type":"Feature"},
	{"geometry":{"coordinates":[-73.54325,45.505995],"type":"Point"},"properties":{"osm_id":"4385549194","tag":{"amenity":"waste_basket"}},"type":"Feature"},
	{"geometry":{"coordinates":[-73.543083,45.505337],"type":"Point"},"properties":{"osm_id":"4385698793","tag":{"amenity":"waste_basket"}},"type":"Feature"},
	{"geometry":{"coordinates":[-73.543219,45.505951],"type":"Point"},"properties":{"osm_id":"4385729290","tag":{"amenity":"waste_basket"}},"type":"Feature"},
	{"geometry":{"coordinates":[-73.543515,45.505584],"type":"Point"},"properties":{"osm_id":"4385729489","tag":{"amenity":"waste_basket"}},"type":"Feature"},
	{"geometry":{"coordinates":[-73.543389,45.505523],"type":"Point"},"properties":{"osm_id":"4385729889","tag":{"amenity":"waste_basket"}},"type":"Feature"},
	{"geometry":{"coordinates":[-73.543204,45.505418],"type":"Point"},"properties":{"osm_id":"4385729890","tag":{"amenity":"waste_basket"}},"type":"Feature"},
	{"geometry":{"coordinates":[-73.543192,45.507756],"type":"Point"},"properties":{"osm_id":"4385962994","tag":{"amenity":"waste_basket"}},"type":"Feature"},
	{"geometry":{"coordinates":[-73.543031,45.506164],"type":"Point"},"properties":{"osm_id":"4385988091","tag":{"amenity":"waste_basket"}},"type":"Feature"},
	{"geometry":{"coordinates":[-73.543087,45.506532],"type":"Point"},"properties":{"osm_id":"4385989190","tag":{"amenity":"waste_basket"}},"type":"Feature"},
	{"geometry":{"coordinates":[-73.543392,45.507524],"type":"Point"},"properties":{"osm_id":"4385989392","tag":{"amenity":"waste_basket"}},"type":"Feature"},
	{"geometry":{"coordinates":[-73.543658,45.506081],"type":"Point"},"properties":{"osm_id":"4385996799","tag":{"amenity":"waste_basket"}},"type":"Feature"},
	{"geometry":{"coordinates":[-73.543462,45.506862],"type":"Point"},"properties":{"osm_id":"4386006291","tag":{"amenity":"waste_basket"}},"type":"Feature"},
	{"geometry":{"coordinates":[-73.543096,45.506317],"type":"Point"},"properties":{"osm_id":"4386006389","tag":{"amenity":"waste_basket"}},"type":"Feature"},
	{"geometry":{"coordinates":[-73.543496,45.507111],"type":"Point"},"properties":{"osm_id":"4386006392","tag":{"amenity":"waste_basket"}},"type":"Feature"},
	{"geometry":{"coordinates":[-73.54351,45.506645],"type":"Point"},"properties":{"osm_id":"4386006791","tag":{"amenity":"waste_basket"}},"type":"Feature"},
	{"geometry":{"coordinates":[-73.543465,45.506674],"type":"Point"},"properties":{"osm_id":"4386007091","tag":{"amenity":"waste_basket"}},"type":"Feature"},
	{"geometry":{"coordinates":[-73.555275,45.512398],"type":"Point"},"properties":{"osm_id":"4418005279","tag":{"amenity":"waste_disposal"}},"type":"Feature"},
	{"geometry":{"coordinates":[-73.557093,45.513686],"type":"Point"},"properties":{"osm_id":"4418037481","tag":{"amenity":"waste_basket"}},"type":"Feature"},
	{"geometry":{"coordinates":[-73.556994,45.51385],"type":"Point"},"properties":{"osm_id":"4418040929","tag":{"amenity":"waste_basket"}},"type":"Feature"},
	{"geometry":{"coordinates":[-73.55665,45.514187],"type":"Point"},"properties":{"osm_id":"4418048602","tag":{"amenity":"waste_basket"}},"type":"Feature"},
	{"geometry":{"coordinates":[-73.555539,45.515389],"type":"Point"},"properties":{"osm_id":"4418056298","tag":{"amenity":"waste_basket"}},"type":"Feature"},
	{"geometry":{"coordinates":[-73.554739,45.510755],"type":"Point"},"properties":{"osm_id":"4418110740","tag":{"amenity":"waste_basket"}},"type":"Feature"},
	{"geometry":{"coordinates":[-73.555882,45.511309],"type":"Point"},"properties":{"osm_id":"4418110742","tag":{"amenity":"waste_basket"}},"type":"Feature"},
	{"geometry":{"coordinates":[-73.555062,45.511128],"type":"Point"},"properties":{"osm_id":"4418113395","tag":{"amenity":"waste_basket"}},"type":"Feature"},
	{"geometry":{"coordinates":[-73.556009,45.514129],"type":"Point"},"properties":{"osm_id":"4418124301","tag":{"amenity":"recycling"}},"type":"Feature"},
	{"geometry":{"coordinates":[-73.55579,45.511568],"type":"Point"},"properties":{"osm_id":"4418126693","tag":{"amenity":"waste_basket"}},"type":"Feature"},
	{"geometry":{"coordinates":[-73.55435,45.510865],"type":"Point"},"properties":{"osm_id":"4418139671","tag":{"amenity":"waste_basket"}},"type":"Feature"},
	{"geometry":{"coordinates":[-73.554323,45.51086],"type":"Point"},"properties":{"osm_id":"4419793483","tag":{"amenity":"waste_basket"}},"type":"Feature"},
	{"geometry":{"coordinates":[-73.556314,45.515053],"type":"Point"},"properties":{"osm_id":"4421361242","tag":{"amenity":"waste_basket"}},"type":"Feature"},
	{"geometry":{"coordinates":[-73.562948,45.521322],"type":"Point"},"properties":{"name":"Garbage Can","osm_id":"4851872513","tag":{"amenity":"waste_basket"}},"type":"Feature"},
	{"geometry":{"coordinates":[-73.562396,45.521224],"type":"Point"},"properties":{"highway":"street_lamp","osm_id":"4851891336","tag":{"amenity":"waste_basket"}},"type":"Feature"},
	{"geometry":{"coordinates":[-73.562301,45.521156],"type":"Point"},"properties":{"highway":"street_lamp","osm_id":"4851891338","tag":{"amenity":"waste_basket"}},"type":"Feature"},
	{"geometry":{"coordinates":[-73.562064,45.521196],"type":"Point"},"properties":{"osm_id":"4851891339","tag":{"amenity":"waste_basket"}},"type":"Feature"},
	{"geometry":{"coordinates":[-73.562024,45.521186],"type":"Point"},"properties":{"osm_id":"4851891341","tag":{"amenity":"waste_basket"}},"type":"Feature"},
	{"geometry":{"coordinates":[-73.561327,45.520464],"type":"Point"},"properties":{"osm_id":"4851911924","tag":{"amenity":"waste_basket"}},"type":"Feature"},
	{"geometry":{"coordinates":[-73.561431,45.520231],"type":"Point"},"properties":{"osm_id":"4851914828","tag":{"amenity":"waste_basket"}},"type":"Feature"},
	{"geometry":{"coordinates":[-73.561228,45.520291],"type":"Point"},"properties":{"osm_id":"4851914829","tag":{"amenity":"waste_basket"}},"type":"Feature"},
	{"geometry":{"coordinates":[-73.561291,45.52029],"type":"Point"},"properties":{"osm_id":"4851914830","tag":{"amenity":"waste_basket"}},"type":"Feature"},
	{"geometry":{"coordinates":[-73.559741,45.520474],"type":"Point"},"properties":{"osm_id":"4851961409","tag":{"amenity":"waste_basket"}},"type":"Feature"},
	{"geometry":{"coordinates":[-73.560002,45.520665],"type":"Point"},"properties":{"osm_id":"4851966391","tag":{"amenity":"waste_basket"}},"type":"Feature"},
	{"geometry":{"coordinates":[-73.560105,45.520685],"type":"Point"},"properties":{"osm_id":"4851966392","tag":{"amenity":"waste_basket"}},"type":"Feature"},
	{"geometry":{"coordinates":[-73.559965,45.520849],"type":"Point"},"properties":{"osm_id":"4851982516","tag":{"amenity":"waste_basket"}},"type":"Feature"},
	{"geometry":{"coordinates":[-73.55896,45.521394],"type":"Point"},"properties":{"osm_id":"4852122958","tag":{"amenity":"waste_basket"}},"type":"Feature"},
	{"geometry":{"coordinates":[-73.558647,45.521581],"type":"Point"},"properties":{"osm_id":"4852124373","tag":{"amenity":"waste_basket"}},"type":"Feature"},
	{"geometry":{"coordinates":[-73.558841,45.521331],"type":"Point"},"properties":{"osm_id":"4852125202","tag":{"amenity":"waste_basket"}},"type":"Feature"},
	{"geometry":{"coordinates":[-73.558641,45.521599],"type":"Point"},"properties":{"osm_id":"4852141385","tag":{"amenity":"waste_basket"}},"type":"Feature"},
	{"geometry":{"coordinates":[-73.558638,45.521458],"type":"Point"},"properties":{"osm_id":"4852144058","tag":{"amenity":"waste_disposal","description":"compost"}},"type":"Feature"},
	{"geometry":{"coordinates":[-73.558271,45.52038],"type":"Point"},"properties":{"osm_id":"4852260722","tag":{"amenity":"waste_basket"}},"type":"Feature"},
	{"geometry":{"coordinates":[-73.558834,45.521368],"type":"Point"},"properties":{"osm_id":"4852260723","tag":{"amenity":"waste_basket"}},"type":"Feature"},
	{"geometry":{"coordinates":[-73.477205,45.478233],"type":"Point"},"properties":{"osm_id":"5172039051","tag":{"amenity":"recycling","recycling:clothes":"yes","recycling_type":"container"}},"type":"Feature"},
	{"geometry":{"coordinates":[-73.563118,45.510163],"type":"Point"},"properties":{"osm_id":"6252129086","tag":{"amenity":"recycling"}},"type":"Feature"},
	{"geometry":{"coordinates":[-73.560026,45.49006],"type":"Point"},"properties":{"osm_id":"6605204635","tag":{"amenity":"waste_basket"}},"type":"Feature"},
	{"geometry":{"coordinates":[-73.56014,45.490418],"type":"Point"},"properties":{"name":"Site de d\u00c3\u00a9p\u00c3\u00b4t - Mati\u00c3\u00a8res Organiques","osm_id":"6611838740","tag":{"amenity":"waste_basket","material":"wood","operator":"Arrondissement du Sud-Ouest"}},"type":"Feature"},
	{"geometry":{"coordinates":[-73.560031,45.490063],"type":"Point"},"properties":{"osm_id":"6611838741","tag":{"amenity":"waste_basket"}},"type":"Feature"},
	{"geometry":{"coordinates":[-73.560218,45.49038],"type":"Point"},"properties":{"osm_id":"6612291394","tag":{"amenity":"waste_basket"}},"type":"Feature"},
	{"geometry":{"coordinates":[-73.560222,45.490383],"type":"Point"},"properties":{"osm_id":"6612291395","tag":{"amenity":"waste_basket"}},"type":"Feature"}
]
}
