{
"type": "FeatureCollection",
"lastupdate": "2020-08-04T00:00:00Z",
"features": [
	{"geometry":{"coordinates":[-73.563427,45.455252],"type":"Point"},"properties":{"osm_id":"4318565591","tag":{"amenity":"waste_basket"}},"type":"Feature"},
	{"geometry":{"coordinates":[-73.560985,45.458618],"type":"Point"},"properties":{"osm_id":"4318565600","tag":{"amenity":"waste_basket"}},"type":"Feature"},
	{"geometry":{"coordinates":[-73.56345,45.455208],"type":"Point"},"properties":{"osm_id":"4318579089","tag":{"amenity":"waste_basket"}},"type":"Feature"},
	{"geometry":{"coordinates":[-73.56324,45.455484],"type":"Point"},"properties":{"osm_id":"4318585093","tag":{"amenity":"waste_basket"}},"type":"Feature"},
	{"geometry":{"coordinates":[-73.56215,45.4571],"type":"Point"},"properties":{"osm_id":"4318617895","tag":{"amenity":"waste_basket"}},"type":"Feature"},
	{"geometry":{"coordinates":[-73.562142,45.457104],"type":"Point"},"properties":{"osm_id":"4318638593","tag":{"amenity":"waste_basket"}},"type":"Feature"},
	{"geometry":{"coordinates":[-73.563631,45.455613],"type":"Point"},"properties":{"osm_id":"4318702194","tag":{"amenity":"waste_basket"}},"type":"Feature"},
	{"geometry":{"coordinates":[-73.562149,45.457099],"type":"Point"},"properties":{"osm_id":"4318707297","tag":{"amenity":"waste_basket"}},"type":"Feature"},
	{"geometry":{"coordinates":[-73.56256,45.457084],"type":"Point"},"properties":{"osm_id":"4318711492","tag":{"amenity":"waste_basket"}},"type":"Feature"},
	{"geometry":{"coordinates":[-73.563052,45.457294],"type":"Point"},"properties":{"osm_id":"4318711590","tag":{"amenity":"waste_basket"}},"type":"Feature"},
	{"geometry":{"coordinates":[-73.563057,45.456492],"type":"Point"},"properties":{"osm_id":"4318711593","tag":{"amenity":"waste_basket"}},"type":"Feature"},
	{"geometry":{"coordinates":[-73.562998,45.455864],"type":"Point"},"properties":{"osm_id":"4318712589","tag":{"amenity":"waste_basket"}},"type":"Feature"},
	{"geometry":{"coordinates":[-73.562216,45.458703],"type":"Point"},"properties":{"osm_id":"4423782990","tag":{"amenity":"waste_basket"}},"type":"Feature"},
	{"geometry":{"coordinates":[-73.497358,45.399719],"type":"Point"},"properties":{"name":"ECycle Solutions","osm_id":"7523275004","tag":{"amenity":"recycling","recycling_type":"centre"}},"type":"Feature"},
	{"geometry":{"coordinates":[-73.495556,45.400171],"type":"Point"},"properties":{"osm_id":"7523897246","tag":{"amenity":"recycling","recycling:carton":"yes","recycling:paper":"yes","recycling_type":"container"}},"type":"Feature"},
	{"geometry":{"coordinates":[-73.50244,45.399983],"type":"Point"},"properties":{"name":"Regen Recycling","osm_id":"7524084394","tag":{"amenity":"recycling","recycling_type":"centre"}},"type":"Feature"}
]
}
