{
"type": "FeatureCollection",
"features": [
	{"geometry":{"coordinates":[12.310473,55.93435],"type":"Point"},"properties":{"osm_id":"1609289794","tag":{"amenity":"waste_basket"}},"type":"Feature"},
	{"geometry":{"coordinates":[12.310478,55.934275],"type":"Point"},"properties":{"osm_id":"1609290241","tag":{"amenity":"waste_basket"}},"type":"Feature"},
	{"geometry":{"coordinates":[12.304741,55.927949],"type":"Point"},"properties":{"osm_id":"1620785220","tag":{"amenity":"waste_basket"}},"type":"Feature"},
	{"geometry":{"coordinates":[12.318341,55.929389],"type":"Point"},"properties":{"osm_id":"1622602097","tag":{"amenity":"waste_basket"}},"type":"Feature"},
	{"geometry":{"coordinates":[12.316399,55.928331],"type":"Point"},"properties":{"osm_id":"1622602114","tag":{"amenity":"waste_basket"}},"type":"Feature"},
	{"geometry":{"coordinates":[12.319972,55.929117],"type":"Point"},"properties":{"osm_id":"1622602216","tag":{"amenity":"waste_basket"}},"type":"Feature"},
	{"geometry":{"coordinates":[12.310238,55.92983],"type":"Point"},"properties":{"osm_id":"1625958087","tag":{"amenity":"waste_basket"}},"type":"Feature"},
	{"geometry":{"coordinates":[12.311662,55.93166],"type":"Point"},"properties":{"osm_id":"1625958092","tag":{"amenity":"waste_basket"}},"type":"Feature"},
	{"geometry":{"coordinates":[12.314331,55.932507],"type":"Point"},"properties":{"osm_id":"1625958104","tag":{"amenity":"waste_basket"}},"type":"Feature"},
	{"geometry":{"coordinates":[12.307502,55.935615],"type":"Point"},"properties":{"osm_id":"1644889302","tag":{"amenity":"waste_basket"}},"type":"Feature"},
	{"geometry":{"coordinates":[12.341256,55.945567],"type":"Point"},"properties":{"osm_id":"1716441625","tag":{"amenity":"recycling","recycling_type":"container"}},"type":"Feature"},
	{"geometry":{"coordinates":[12.346764,55.960472],"type":"Point"},"properties":{"osm_id":"1787805211","tag":{"amenity":"waste_basket"}},"type":"Feature"},
	{"geometry":{"coordinates":[12.344586,55.960039],"type":"Point"},"properties":{"osm_id":"1787805214","tag":{"amenity":"waste_basket"}},"type":"Feature"},
	{"geometry":{"coordinates":[12.357577,55.933774],"type":"Point"},"properties":{"osm_id":"1839118623","tag":{"amenity":"waste_basket"}},"type":"Feature"},
	{"geometry":{"coordinates":[12.318313,55.950004],"type":"Point"},"properties":{"osm_id":"1888832767","tag":{"amenity":"waste_basket"}},"type":"Feature"},
	{"geometry":{"coordinates":[12.343493,55.945391],"type":"Point"},"properties":{"osm_id":"2430875424","tag":{"amenity":"recycling","recycling_type":"container"}},"type":"Feature"},
	{"geometry":{"coordinates":[12.324135,55.932687],"type":"Point"},"properties":{"osm_id":"3227839780","tag":{"amenity":"waste_basket"}},"type":"Feature"}
]
}
