{
"type": "FeatureCollection",
"features": [
	{"geometry":{"coordinates":[12.348217,54.304438],"type":"Point"},"properties":{"osm_id":"467184694","tag":{"amenity":"recycling","location":"overground","recycling_type":"container"}},"type":"Feature"},
	{"geometry":{"coordinates":[12.335204,54.290713],"type":"Point"},"properties":{"osm_id":"531603334","tag":{"amenity":"recycling","recycling:clothes":"yes","recycling:glass":"yes"}},"type":"Feature"},
	{"geometry":{"coordinates":[12.336732,54.294318],"type":"Point"},"properties":{"osm_id":"534303089","tag":{"amenity":"waste_basket","backrest":"yes","colour":"white","material":"wood","seats":"3","waste":"trash"}},"type":"Feature"},
	{"geometry":{"coordinates":[12.343968,54.29136],"type":"Point"},"properties":{"osm_id":"3016664638","tag":{"amenity":"recycling","recycling:paper":"yes","recycling_type":"container"}},"type":"Feature"},
	{"geometry":{"coordinates":[12.344043,54.291378],"type":"Point"},"properties":{"osm_id":"3016664935","tag":{"amenity":"recycling","recycling:glass":"yes","recycling_type":"container"}},"type":"Feature"},
	{"geometry":{"coordinates":[12.314124,54.268647],"type":"Point"},"properties":{"osm_id":"6329070790","tag":{"amenity":"waste_basket","waste":"trash"}},"type":"Feature"},
	{"geometry":{"coordinates":[12.330837,54.293459],"type":"Point"},"properties":{"osm_id":"7256332791","tag":{"amenity":"waste_basket","waste":"trash"}},"type":"Feature"},
	{"geometry":{"coordinates":[12.31255,54.282015],"type":"Point"},"properties":{"osm_id":"8443198087","tag":{"amenity":"waste_basket","waste":"trash"}},"type":"Feature"},
	{"geometry":{"coordinates":[12.312918,54.282481],"type":"Point"},"properties":{"osm_id":"8443198095","tag":{"amenity":"waste_basket","waste":"trash"}},"type":"Feature"},
	{"geometry":{"coordinates":[12.314157,54.282636],"type":"Point"},"properties":{"osm_id":"8443198104","tag":{"amenity":"waste_basket","waste":"trash"}},"type":"Feature"},
	{"geometry":{"coordinates":[12.309118,54.282538],"type":"Point"},"properties":{"osm_id":"8443432869","tag":{"amenity":"waste_basket","waste":"trash"}},"type":"Feature"},
	{"geometry":{"coordinates":[12.352838,54.308864],"type":"Point"},"properties":{"osm_id":"8443482182","tag":{"amenity":"waste_basket","waste":"trash"}},"type":"Feature"},
	{"geometry":{"coordinates":[12.340308,54.297207],"type":"Point"},"properties":{"osm_id":"8443635280","tag":{"amenity":"waste_basket","colour":"#cdeeb7","waste":"trash"}},"type":"Feature"},
	{"geometry":{"coordinates":[12.341346,54.298511],"type":"Point"},"properties":{"osm_id":"8443635282","tag":{"amenity":"waste_basket","colour":"#2e78f5","waste":"trash"}},"type":"Feature"},
	{"geometry":{"coordinates":[12.332068,54.291968],"type":"Point"},"properties":{"osm_id":"8443705823","tag":{"amenity":"waste_basket","colour":"#3787ff","waste":"trash"}},"type":"Feature"},
	{"geometry":{"coordinates":[12.334178,54.292594],"type":"Point"},"properties":{"osm_id":"8443705827","tag":{"amenity":"waste_basket","colour":"#c85637","waste":"trash"}},"type":"Feature"},
	{"geometry":{"coordinates":[12.335335,54.293299],"type":"Point"},"properties":{"osm_id":"8443705828","tag":{"amenity":"waste_basket","colour":"#10319a","waste":"trash"}},"type":"Feature"},
	{"geometry":{"coordinates":[12.336701,54.294302],"type":"Point"},"properties":{"osm_id":"8443705829","tag":{"amenity":"waste_basket","colour":"#fc9747","waste":"trash"}},"type":"Feature"},
	{"geometry":{"coordinates":[12.338394,54.295429],"type":"Point"},"properties":{"osm_id":"8443705830","tag":{"amenity":"waste_basket","colour":"#fc9747","waste":"trash"}},"type":"Feature"}
]
}
