{
"type": "FeatureCollection",
"features": [
	{"geometry":{"coordinates":[12.359005,52.610196],"type":"Point"},"properties":{"osm_id":"28389876","tag":{"amenity":"recycling","opening_hours":"Mo-Sa 07:00-13:00; Mo-Sa 15:00-20:00; PH closed; Su closed","recycling:clothes":"yes","recycling:glass":"yes","recycling_type":"container"}},"type":"Feature"},
	{"geometry":{"coordinates":[12.361773,52.615011],"type":"Point"},"properties":{"osm_id":"28802315","tag":{"amenity":"recycling","opening_hours":"Mo-Sa 07:00-13:00; Mo-Sa 15:00-20:00; PH closed; Su closed","recycling:clothes":"yes","recycling:glass":"yes","recycling_type":"container"}},"type":"Feature"},
	{"geometry":{"coordinates":[12.337442,52.600129],"type":"Point"},"properties":{"osm_id":"28832189","tag":{"amenity":"recycling","opening_hours":"Mo-Sa 07:00-13:00; Mo-Sa 15:00-20:00; PH closed; Su closed","recycling_type":"container"}},"type":"Feature"},
	{"geometry":{"coordinates":[12.357261,52.604246],"type":"Point"},"properties":{"osm_id":"29172587","tag":{"amenity":"recycling","opening_hours":"Mo-Sa 07:00-13:00; Mo-Sa 15:00-20:00; PH closed; Su closed","recycling:clothes":"yes","recycling:glass":"yes","recycling:shoes":"yes","recycling_type":"container","wheelchair":"yes"}},"type":"Feature"},
	{"geometry":{"coordinates":[12.349099,52.616039],"type":"Point"},"properties":{"osm_id":"281494442","tag":{"amenity":"recycling","opening_hours":"Mo-Sa 07:00-13:00; Mo-Sa 15:00-20:00; PH closed; Su closed","recycling_type":"container"}},"type":"Feature"},
	{"geometry":{"coordinates":[12.373673,52.602394],"type":"Point"},"properties":{"osm_id":"287167113","tag":{"amenity":"recycling","recycling:glass":"yes","recycling_type":"container"}},"type":"Feature"},
	{"geometry":{"coordinates":[12.36082,52.604416],"type":"Point"},"properties":{"osm_id":"297971349","tag":{"amenity":"recycling","opening_hours":"Mo-Sa 07:00-13:00; Mo-Sa 15:00-20:00; PH closed; Su closed","recycling:glass":"yes","recycling_type":"container"}},"type":"Feature"},
	{"geometry":{"coordinates":[12.339299,52.600648],"type":"Point"},"properties":{"osm_id":"305523295","tag":{"amenity":"recycling","opening_hours":"Mo-Sa 07:00-13:00; Mo-Sa 15:00-20:00; PH closed; Su closed","recycling:clothes":"yes","recycling:glass":"yes","recycling:shoes":"yes","recycling_type":"container","wheelchair":"limited"}},"type":"Feature"},
	{"geometry":{"coordinates":[12.339094,52.601839],"type":"Point"},"properties":{"osm_id":"305523309","tag":{"amenity":"recycling","opening_hours":"Mo-Sa 07:00-13:00; Mo-Sa 15:00-20:00; PH closed; Su closed","recycling:clothes":"yes","recycling_type":"container"}},"type":"Feature"},
	{"geometry":{"coordinates":[12.339001,52.600395],"type":"Point"},"properties":{"osm_id":"305523313","tag":{"amenity":"recycling","opening_hours":"Mo-Sa 07:00-13:00; Mo-Sa 15:00-20:00; PH closed; Su closed","recycling:clothes":"yes","recycling_type":"container"}},"type":"Feature"},
	{"geometry":{"coordinates":[12.347538,52.605745],"type":"Point"},"properties":{"osm_id":"305523342","tag":{"amenity":"recycling","opening_hours":"Mo-Sa 07:00-13:00; Mo-Sa 15:00-20:00; PH closed; Su closed","recycling:glass":"yes","recycling_type":"container","wheelchair":"yes"}},"type":"Feature"},
	{"geometry":{"coordinates":[12.360732,52.604415],"type":"Point"},"properties":{"osm_id":"313076356","tag":{"amenity":"recycling","opening_hours":"Mo-Sa 07:00-13:00; Mo-Sa 15:00-20:00; PH closed; Su closed","recycling:clothes":"yes","recycling_type":"container"}},"type":"Feature"},
	{"geometry":{"coordinates":[12.305696,52.628979],"type":"Point"},"properties":{"osm_id":"313622450","tag":{"amenity":"recycling","recycling_type":"container"}},"type":"Feature"},
	{"geometry":{"coordinates":[12.360049,52.606063],"type":"Point"},"properties":{"osm_id":"316154629","tag":{"amenity":"recycling","opening_hours":"Mo-Sa 07:00-13:00; Mo-Sa 15:00-20:00; PH closed; Su closed","recycling:clothes":"yes","recycling_type":"container"}},"type":"Feature"},
	{"geometry":{"coordinates":[12.360814,52.605798],"type":"Point"},"properties":{"osm_id":"316154630","tag":{"amenity":"recycling","opening_hours":"Mo-Sa 07:00-13:00; Mo-Sa 15:00-20:00; PH closed; Su closed","recycling:glass":"yes","recycling_type":"container"}},"type":"Feature"},
	{"geometry":{"coordinates":[12.348323,52.608981],"type":"Point"},"properties":{"osm_id":"317312671","tag":{"amenity":"recycling","opening_hours":"Mo-Sa 07:00-13:00; Mo-Sa 15:00-20:00; PH closed; Su closed","recycling:clothes":"yes","recycling:glass":"yes","recycling:shoes":"yes","recycling_type":"container"}},"type":"Feature"},
	{"geometry":{"coordinates":[12.355348,52.607312],"type":"Point"},"properties":{"osm_id":"317312814","tag":{"amenity":"recycling","opening_hours":"Mo-Sa 07:00-13:00; Mo-Sa 15:00-20:00; PH closed; Su closed","recycling:clothes":"yes","recycling:glass":"yes","recycling_type":"container"}},"type":"Feature"},
	{"geometry":{"coordinates":[12.350441,52.612481],"type":"Point"},"properties":{"osm_id":"318371495","tag":{"amenity":"recycling","opening_hours":"Mo-Sa 07:00-13:00; Mo-Sa 15:00-20:00; PH closed; Su closed","recycling:clothes":"yes","recycling:glass":"yes","recycling:shoes":"yes","recycling_type":"container","wheelchair":"limited"}},"type":"Feature"},
	{"geometry":{"coordinates":[12.353517,52.606938],"type":"Point"},"properties":{"osm_id":"319713194","tag":{"amenity":"recycling","opening_hours":"Mo-Sa 07:00-13:00; Mo-Sa 15:00-20:00; PH closed; Su closed","recycling:clothes":"yes","recycling:glass":"yes","recycling:shoes":"yes","recycling_type":"container"}},"type":"Feature"},
	{"geometry":{"coordinates":[12.35922,52.603486],"type":"Point"},"properties":{"osm_id":"320781797","tag":{"amenity":"recycling","natural":"tree","opening_hours":"Mo-Sa 07:00-13:00; Mo-Sa 15:00-20:00; PH closed; Su closed","recycling:glass":"yes","recycling_type":"container"}},"type":"Feature"},
	{"geometry":{"coordinates":[12.356843,52.606025],"type":"Point"},"properties":{"osm_id":"321489488","tag":{"amenity":"recycling","opening_hours":"Mo-Sa 07:00-13:00; Mo-Sa 15:00-20:00; PH closed; Su closed","recycling:clothes":"yes","recycling_type":"container"}},"type":"Feature"},
	{"geometry":{"coordinates":[12.354847,52.607562],"type":"Point"},"properties":{"osm_id":"321489501","tag":{"amenity":"recycling","opening_hours":"Mo-Sa 07:00-13:00; Mo-Sa 15:00-20:00; PH closed; Su closed","recycling:clothes":"yes","recycling:glass":"yes","recycling:shoes":"yes","recycling_type":"container","wheelchair":"no"}},"type":"Feature"},
	{"geometry":{"coordinates":[12.342908,52.600473],"type":"Point"},"properties":{"osm_id":"693831835","tag":{"amenity":"recycling","opening_hours":"Mo-Sa 07:00-13:00; Mo-Sa 15:00-20:00; PH closed; Su closed","recycling:glass":"yes","recycling_type":"container"}},"type":"Feature"},
	{"geometry":{"coordinates":[12.311108,52.6116],"type":"Point"},"properties":{"osm_id":"924251120","tag":{"amenity":"recycling","opening_hours":"Mo-Sa 07:00-13:00; Mo-Sa 15:00-20:00; PH closed; Su closed","recycling:clothes":"yes","recycling:glass":"yes","recycling_type":"container"}},"type":"Feature"},
	{"geometry":{"coordinates":[12.335551,52.613032],"type":"Point"},"properties":{"osm_id":"944229774","tag":{"amenity":"recycling","opening_hours":"Mo-Sa 07:00-13:00; Mo-Sa 15:00-20:00; PH closed; Su closed","recycling:clothes":"yes","recycling_type":"container"}},"type":"Feature"},
	{"geometry":{"coordinates":[12.312393,52.60428],"type":"Point"},"properties":{"osm_id":"1359651694","tag":{"amenity":"recycling","opening_hours":"Mo-Sa 07:00-13:00; Mo-Sa 15:00-20:00; PH closed; Su closed","recycling_type":"container"}},"type":"Feature"},
	{"geometry":{"coordinates":[12.337615,52.590391],"type":"Point"},"properties":{"osm_id":"3842225273","tag":{"amenity":"waste_basket"}},"type":"Feature"},
	{"geometry":{"coordinates":[12.353811,52.599912],"type":"Point"},"properties":{"osm_id":"5245589116","tag":{"amenity":"waste_basket"}},"type":"Feature"},
	{"geometry":{"coordinates":[12.33926,52.606256],"type":"Point"},"properties":{"osm_id":"5743596221","tag":{"amenity":"waste_basket"}},"type":"Feature"},
	{"geometry":{"coordinates":[12.340243,52.610727],"type":"Point"},"properties":{"osm_id":"6348495107","tag":{"amenity":"recycling","opening_hours":"Mo-Sa 07:00-13:00; Mo-Sa 15:00-20:00; PH closed; Su closed","recycling:clothes":"yes","recycling:glass":"yes","recycling:glass_bottles":"yes","recycling:green_waste":"yes","recycling:shoes":"yes","recycling_type":"container","wheelchair":"limited"}},"type":"Feature"},
	{"geometry":{"coordinates":[12.336081,52.609959],"type":"Point"},"properties":{"osm_id":"6953838052","tag":{"amenity":"waste_basket","waste":"trash"}},"type":"Feature"},
	{"geometry":{"coordinates":[12.33644,52.609235],"type":"Point"},"properties":{"osm_id":"6953838053","tag":{"amenity":"waste_basket","waste":"trash"}},"type":"Feature"},
	{"geometry":{"coordinates":[12.335471,52.610348],"type":"Point"},"properties":{"osm_id":"6953838054","tag":{"amenity":"waste_basket","waste":"trash"}},"type":"Feature"},
	{"geometry":{"coordinates":[12.333797,52.610954],"type":"Point"},"properties":{"osm_id":"6953892121","tag":{"amenity":"waste_basket","waste":"dog_excrement"}},"type":"Feature"},
	{"geometry":{"coordinates":[12.336659,52.60758],"type":"Point"},"properties":{"osm_id":"6953926458","tag":{"amenity":"waste_basket","waste":"trash"}},"type":"Feature"},
	{"geometry":{"coordinates":[12.336199,52.607188],"type":"Point"},"properties":{"osm_id":"6953926461","tag":{"amenity":"waste_basket","waste":"trash"}},"type":"Feature"},
	{"geometry":{"coordinates":[12.336852,52.612437],"type":"Point"},"properties":{"osm_id":"6954022323","tag":{"amenity":"recycling","opening_hours":"Mo-Sa 07:00-13:00; Mo-Sa 15:00-20:00; PH closed; Su closed","recycling:glass":"yes","recycling:glass_bottles":"yes","recycling_type":"container","wheelchair":"limited"}},"type":"Feature"},
	{"geometry":{"coordinates":[12.340671,52.610505],"type":"Point"},"properties":{"osm_id":"6954022324","tag":{"amenity":"waste_basket","waste":"trash"}},"type":"Feature"},
	{"geometry":{"coordinates":[12.337672,52.612175],"type":"Point"},"properties":{"osm_id":"6954022327","tag":{"amenity":"waste_basket","waste":"trash"}},"type":"Feature"},
	{"geometry":{"coordinates":[12.338494,52.606772],"type":"Point"},"properties":{"osm_id":"6954022331","tag":{"amenity":"waste_basket","waste":"trash"}},"type":"Feature"},
	{"geometry":{"coordinates":[12.336837,52.612712],"type":"Point"},"properties":{"osm_id":"6954022342","tag":{"amenity":"waste_basket","waste":"dog_excrement"}},"type":"Feature"},
	{"geometry":{"coordinates":[12.340459,52.606029],"type":"Point"},"properties":{"osm_id":"6955591025","tag":{"amenity":"waste_basket","waste":"trash"}},"type":"Feature"},
	{"geometry":{"coordinates":[12.340274,52.606121],"type":"Point"},"properties":{"osm_id":"6955591026","tag":{"amenity":"waste_basket","waste":"trash"}},"type":"Feature"},
	{"geometry":{"coordinates":[12.335601,52.606553],"type":"Point"},"properties":{"osm_id":"6960025916","tag":{"amenity":"waste_basket","waste":"trash"}},"type":"Feature"},
	{"geometry":{"coordinates":[12.336149,52.606119],"type":"Point"},"properties":{"osm_id":"6960025917","tag":{"amenity":"waste_basket","waste":"trash"}},"type":"Feature"},
	{"geometry":{"coordinates":[12.335093,52.606395],"type":"Point"},"properties":{"osm_id":"6960025918","tag":{"amenity":"waste_basket","waste":"trash"}},"type":"Feature"},
	{"geometry":{"coordinates":[12.332994,52.60697],"type":"Point"},"properties":{"osm_id":"6960383153","tag":{"amenity":"waste_basket","waste":"trash"}},"type":"Feature"},
	{"geometry":{"coordinates":[12.346253,52.6127],"type":"Point"},"properties":{"osm_id":"6961518728","tag":{"amenity":"waste_basket","waste":"trash"}},"type":"Feature"},
	{"geometry":{"coordinates":[12.346966,52.615121],"type":"Point"},"properties":{"osm_id":"6961518751","tag":{"amenity":"recycling","opening_hours":"Mo-Sa 07:00-13:00; Mo-Sa 15:00-20:00; PH closed; Su closed","recycling:clothes":"yes","recycling:glass":"yes","recycling:shoes":"yes","recycling_type":"container","wheelchair":"yes"}},"type":"Feature"},
	{"geometry":{"coordinates":[12.344052,52.613004],"type":"Point"},"properties":{"osm_id":"6961518752","tag":{"amenity":"waste_basket","waste":"trash"}},"type":"Feature"},
	{"geometry":{"coordinates":[12.347926,52.612409],"type":"Point"},"properties":{"osm_id":"6963275293","tag":{"amenity":"waste_basket","waste":"trash"}},"type":"Feature"},
	{"geometry":{"coordinates":[12.35344,52.602091],"type":"Point"},"properties":{"osm_id":"6966829899","tag":{"amenity":"waste_basket","waste":"trash"}},"type":"Feature"},
	{"geometry":{"coordinates":[12.345096,52.612844],"type":"Point"},"properties":{"osm_id":"6979811030","tag":{"amenity":"waste_basket","waste":"trash"}},"type":"Feature"},
	{"geometry":{"coordinates":[12.347622,52.612577],"type":"Point"},"properties":{"osm_id":"6979877214","tag":{"amenity":"waste_basket","waste":"trash"}},"type":"Feature"},
	{"geometry":{"coordinates":[12.354765,52.614435],"type":"Point"},"properties":{"osm_id":"6979957887","tag":{"amenity":"recycling","opening_hours":"Mo-Sa 07:00-13:00; Mo-Sa 15:00-20:00; PH closed; Su closed","recycling:clothes":"yes","recycling:glass":"yes","recycling:glass_bottles":"yes","recycling:shoes":"yes","recycling_type":"container","wheelchair":"limited"}},"type":"Feature"},
	{"geometry":{"coordinates":[12.345074,52.616054],"type":"Point"},"properties":{"osm_id":"6994718042","tag":{"amenity":"waste_basket","waste":"trash"}},"type":"Feature"},
	{"geometry":{"coordinates":[12.345307,52.616053],"type":"Point"},"properties":{"osm_id":"6994718063","tag":{"amenity":"waste_basket","waste":"trash"}},"type":"Feature"},
	{"geometry":{"coordinates":[12.343463,52.610743],"type":"Point"},"properties":{"osm_id":"6995614866","tag":{"amenity":"waste_basket","waste":"dog_excrement"}},"type":"Feature"},
	{"geometry":{"coordinates":[12.334428,52.608278],"type":"Point"},"properties":{"osm_id":"7001088919","tag":{"amenity":"recycling","opening_hours":"Mo-Sa 07:00-13:00; Mo-Sa 15:00-20:00; PH closed; Su closed","recycling:clothes":"yes","recycling:shoes":"yes","recycling_type":"container","wheelchair":"limited"}},"type":"Feature"},
	{"geometry":{"coordinates":[12.333312,52.607699],"type":"Point"},"properties":{"osm_id":"7001127010","tag":{"amenity":"waste_basket","waste":"dog_excrement"}},"type":"Feature"},
	{"geometry":{"coordinates":[12.333277,52.607801],"type":"Point"},"properties":{"osm_id":"7001127015","tag":{"amenity":"waste_basket","waste":"trash"}},"type":"Feature"},
	{"geometry":{"coordinates":[12.333231,52.607814],"type":"Point"},"properties":{"osm_id":"7001127022","tag":{"amenity":"waste_basket","waste":"trash"}},"type":"Feature"},
	{"geometry":{"coordinates":[12.330449,52.60725],"type":"Point"},"properties":{"osm_id":"7021293762","tag":{"amenity":"waste_basket","waste":"trash"}},"type":"Feature"},
	{"geometry":{"coordinates":[12.330934,52.606951],"type":"Point"},"properties":{"osm_id":"7021293763","tag":{"amenity":"waste_basket","waste":"trash"}},"type":"Feature"},
	{"geometry":{"coordinates":[12.332189,52.606644],"type":"Point"},"properties":{"osm_id":"7021293768","tag":{"amenity":"waste_basket","waste":"trash"}},"type":"Feature"},
	{"geometry":{"coordinates":[12.336759,52.60661],"type":"Point"},"properties":{"osm_id":"7021417387","tag":{"amenity":"waste_basket","waste":"trash"}},"type":"Feature"},
	{"geometry":{"coordinates":[12.339245,52.608208],"type":"Point"},"properties":{"osm_id":"7021436261","tag":{"amenity":"recycling","opening_hours":"Mo-Sa 07:00-13:00; Mo-Sa 15:00-20:00; PH closed; Su closed","recycling:clothes":"yes","recycling:glass":"yes","recycling:shoes":"yes","recycling_type":"container","wheelchair":"yes"}},"type":"Feature"},
	{"geometry":{"coordinates":[12.337398,52.607554],"type":"Point"},"properties":{"osm_id":"7021438266","tag":{"amenity":"waste_basket","waste":"trash"}},"type":"Feature"},
	{"geometry":{"coordinates":[12.336354,52.603403],"type":"Point"},"properties":{"osm_id":"7021685132","tag":{"amenity":"waste_basket","waste":"trash"}},"type":"Feature"},
	{"geometry":{"coordinates":[12.335947,52.597494],"type":"Point"},"properties":{"osm_id":"7021700926","tag":{"amenity":"recycling","opening_hours":"Mo-Sa 07:00-13:00; Mo-Sa 15:00-20:00; PH closed; Su closed","recycling:glass":"yes","recycling_type":"container","wheelchair":"yes"}},"type":"Feature"},
	{"geometry":{"coordinates":[12.335985,52.597543],"type":"Point"},"properties":{"osm_id":"7021700928","tag":{"amenity":"recycling","opening_hours":"Mo-Sa 07:00-13:00; Mo-Sa 15:00-20:00; PH closed; Su closed","recycling:clothes":"yes","recycling:shoes":"yes","recycling_type":"container","wheelchair":"yes"}},"type":"Feature"},
	{"geometry":{"coordinates":[12.337572,52.599792],"type":"Point"},"properties":{"osm_id":"7021700929","tag":{"amenity":"waste_basket","waste":"trash"}},"type":"Feature"},
	{"geometry":{"coordinates":[12.337463,52.599574],"type":"Point"},"properties":{"osm_id":"7021700930","tag":{"amenity":"waste_basket","waste":"trash"}},"type":"Feature"},
	{"geometry":{"coordinates":[12.325475,52.607735],"type":"Point"},"properties":{"osm_id":"7021712450","tag":{"amenity":"recycling","opening_hours":"Mo-Sa 07:00-13:00; Mo-Sa 15:00-20:00; PH closed; Su closed","recycling:clothes":"yes","recycling:glass":"yes","recycling:shoes":"yes","recycling_type":"container","wheelchair":"yes"}},"type":"Feature"},
	{"geometry":{"coordinates":[12.338215,52.604291],"type":"Point"},"properties":{"osm_id":"7022222542","tag":{"amenity":"recycling","opening_hours":"Mo-Sa 07:00-13:00; Mo-Sa 15:00-20:00; PH closed; Su closed","recycling:clothes":"yes","recycling:glass":"yes","recycling:shoes":"yes","recycling_type":"container","wheelchair":"yes"}},"type":"Feature"},
	{"geometry":{"coordinates":[12.341144,52.611767],"type":"Point"},"properties":{"osm_id":"7023216661","tag":{"amenity":"recycling","opening_hours":"Mo-Sa 07:00-13:00; Mo-Sa 15:00-20:00; PH closed; Su closed","recycling:glass":"yes","recycling_type":"container","wheelchair":"yes"}},"type":"Feature"},
	{"geometry":{"coordinates":[12.343859,52.609499],"type":"Point"},"properties":{"osm_id":"7023231709","tag":{"amenity":"recycling","opening_hours":"Mo-Sa 07:00-13:00; Mo-Sa 15:00-20:00; PH closed; Su closed","recycling:clothes":"yes","recycling:glass":"yes","recycling:shoes":"yes","recycling_type":"container","wheelchair":"limited"}},"type":"Feature"},
	{"geometry":{"coordinates":[12.342352,52.60928],"type":"Point"},"properties":{"osm_id":"7023231722","tag":{"amenity":"waste_basket","waste":"trash"}},"type":"Feature"},
	{"geometry":{"coordinates":[12.34456,52.608311],"type":"Point"},"properties":{"osm_id":"7023334350","tag":{"amenity":"waste_basket","waste":"trash"}},"type":"Feature"},
	{"geometry":{"coordinates":[12.345593,52.609422],"type":"Point"},"properties":{"osm_id":"7023334355","tag":{"amenity":"waste_basket","waste":"trash"}},"type":"Feature"},
	{"geometry":{"coordinates":[12.347946,52.608811],"type":"Point"},"properties":{"osm_id":"7035585876","tag":{"amenity":"waste_basket","waste":"trash"}},"type":"Feature"},
	{"geometry":{"coordinates":[12.347724,52.608436],"type":"Point"},"properties":{"osm_id":"7035605587","tag":{"amenity":"waste_basket","waste":"trash"}},"type":"Feature"},
	{"geometry":{"coordinates":[12.346918,52.608381],"type":"Point"},"properties":{"osm_id":"7035605590","tag":{"amenity":"waste_basket","waste":"trash"}},"type":"Feature"},
	{"geometry":{"coordinates":[12.343816,52.611935],"type":"Point"},"properties":{"osm_id":"7040180652","tag":{"amenity":"recycling","opening_hours":"Mo-Sa 07:00-13:00; Mo-Sa 15:00-20:00; PH closed; Su closed","recycling:glass":"yes","recycling_type":"container","wheelchair":"limited"}},"type":"Feature"},
	{"geometry":{"coordinates":[12.344724,52.621241],"type":"Point"},"properties":{"osm_id":"7046359268","tag":{"amenity":"recycling","opening_hours":"Mo-Sa 07:00-13:00; Mo-Sa 15:00-20:00; PH closed; Su closed","recycling:clothes":"yes","recycling:glass":"yes","recycling:shoes":"yes","recycling_type":"container","wheelchair":"yes"}},"type":"Feature"},
	{"geometry":{"coordinates":[12.337861,52.608329],"type":"Point"},"properties":{"osm_id":"7066443320","tag":{"amenity":"waste_basket","waste":"trash"}},"type":"Feature"},
	{"geometry":{"coordinates":[12.337503,52.60862],"type":"Point"},"properties":{"osm_id":"7066443321","tag":{"amenity":"waste_basket","waste":"trash"}},"type":"Feature"},
	{"geometry":{"coordinates":[12.337772,52.607923],"type":"Point"},"properties":{"osm_id":"7072315414","tag":{"amenity":"waste_basket"}},"type":"Feature"},
	{"geometry":{"coordinates":[12.336809,52.608962],"type":"Point"},"properties":{"osm_id":"7074333410","tag":{"amenity":"waste_basket"}},"type":"Feature"},
	{"geometry":{"coordinates":[12.351389,52.610963],"type":"Point"},"properties":{"osm_id":"7075325686","tag":{"amenity":"waste_basket","waste":"trash"}},"type":"Feature"},
	{"geometry":{"coordinates":[12.353809,52.610709],"type":"Point"},"properties":{"osm_id":"7075325689","tag":{"amenity":"waste_basket","waste":"trash"}},"type":"Feature"},
	{"geometry":{"coordinates":[12.344334,52.602045],"type":"Point"},"properties":{"osm_id":"7077780005","tag":{"amenity":"recycling","opening_hours":"Mo-Sa 07:00-13:00; Mo-Sa 15:00-20:00; PH closed; Su closed","recycling:glass":"yes","recycling_type":"container","wheelchair":"yes"}},"type":"Feature"},
	{"geometry":{"coordinates":[12.313618,52.607519],"type":"Point"},"properties":{"osm_id":"7090683313","tag":{"amenity":"waste_basket","waste":"trash"}},"type":"Feature"},
	{"geometry":{"coordinates":[12.317004,52.607301],"type":"Point"},"properties":{"osm_id":"7090683320","tag":{"amenity":"waste_basket","waste":"trash"}},"type":"Feature"},
	{"geometry":{"coordinates":[12.306732,52.604901],"type":"Point"},"properties":{"osm_id":"7090683322","tag":{"amenity":"waste_basket","waste":"trash"}},"type":"Feature"},
	{"geometry":{"coordinates":[12.333345,52.613236],"type":"Point"},"properties":{"osm_id":"7125719721","tag":{"amenity":"recycling","recycling:clothes":"yes","recycling:shoes":"yes","recycling_type":"container","wheelchair":"yes"}},"type":"Feature"},
	{"geometry":{"coordinates":[12.341186,52.600926],"type":"Point"},"properties":{"osm_id":"7140814741","tag":{"amenity":"waste_basket","waste":"dog_excrement"}},"type":"Feature"},
	{"geometry":{"coordinates":[12.342138,52.601334],"type":"Point"},"properties":{"osm_id":"7140814769","tag":{"amenity":"waste_basket","waste":"dog_excrement"}},"type":"Feature"},
	{"geometry":{"coordinates":[12.341619,52.605225],"type":"Point"},"properties":{"osm_id":"7140814770","tag":{"amenity":"waste_basket","waste":"trash"}},"type":"Feature"},
	{"geometry":{"coordinates":[12.340951,52.600804],"type":"Point"},"properties":{"osm_id":"7140814772","tag":{"amenity":"waste_basket","waste":"trash"}},"type":"Feature"},
	{"geometry":{"coordinates":[12.341533,52.605075],"type":"Point"},"properties":{"osm_id":"7140814776","tag":{"amenity":"waste_basket","waste":"trash"}},"type":"Feature"},
	{"geometry":{"coordinates":[12.341218,52.604954],"type":"Point"},"properties":{"osm_id":"7140814779","tag":{"amenity":"waste_basket","waste":"trash"}},"type":"Feature"},
	{"geometry":{"coordinates":[12.35912,52.615002],"type":"Point"},"properties":{"osm_id":"7213749603","tag":{"amenity":"recycling","recycling:clothes":"yes","recycling:shoes":"yes","recycling_type":"container","wheelchair":"yes"}},"type":"Feature"},
	{"geometry":{"coordinates":[12.335254,52.596738],"type":"Point"},"properties":{"osm_id":"7368478172","tag":{"amenity":"recycling","recycling:clothes":"yes","recycling:glass_bottles":"yes","recycling_type":"container","wheelchair":"limited"}},"type":"Feature"},
	{"geometry":{"coordinates":[12.342008,52.605836],"type":"Point"},"properties":{"osm_id":"7933664527","tag":{"amenity":"waste_basket","waste":"trash"}},"type":"Feature"},
	{"geometry":{"coordinates":[12.342168,52.605796],"type":"Point"},"properties":{"osm_id":"7933664528","tag":{"amenity":"waste_basket","waste":"trash"}},"type":"Feature"}
]
}
