{
"type": "FeatureCollection",
"features": [
	{"geometry":{"coordinates":[12.330022,52.53626],"type":"Point"},"properties":{"name":"Wei\u00c3\u009fes Glas","osm_id":"337793466","tag":{"amenity":"recycling","recycling:glass":"white","recycling_type":"container"}},"type":"Feature"},
	{"geometry":{"coordinates":[12.341835,52.528953],"type":"Point"},"properties":{"osm_id":"337830364","tag":{"amenity":"recycling","recycling:paper":"yes","recycling_type":"container"}},"type":"Feature"},
	{"geometry":{"coordinates":[12.34395,52.526684],"type":"Point"},"properties":{"osm_id":"338926219","tag":{"amenity":"recycling"}},"type":"Feature"},
	{"geometry":{"coordinates":[12.343441,52.528],"type":"Point"},"properties":{"osm_id":"338926226","tag":{"amenity":"recycling","recycling:glass":"yes","recycling_type":"container"}},"type":"Feature"},
	{"geometry":{"coordinates":[12.365967,52.522925],"type":"Point"},"properties":{"osm_id":"611927580","tag":{"amenity":"recycling","recycling:clothes":"yes","recycling_type":"container"}},"type":"Feature"},
	{"geometry":{"coordinates":[12.390159,52.51884],"type":"Point"},"properties":{"osm_id":"611941506","tag":{"amenity":"recycling","recycling:glass":"yes","recycling_type":"container"}},"type":"Feature"},
	{"geometry":{"coordinates":[12.383215,52.524646],"type":"Point"},"properties":{"osm_id":"612416078","tag":{"amenity":"recycling","recycling:glass":"yes","recycling_type":"container"}},"type":"Feature"},
	{"geometry":{"coordinates":[12.342944,52.488013],"type":"Point"},"properties":{"osm_id":"633686910","tag":{"amenity":"recycling","recycling:clothes":"yes","recycling:glass":"yes"}},"type":"Feature"},
	{"geometry":{"coordinates":[12.311,52.512909],"type":"Point"},"properties":{"osm_id":"633686986","tag":{"amenity":"recycling","recycling:clothes":"yes","recycling:glass":"yes","recycling_type":"container"}},"type":"Feature"},
	{"geometry":{"coordinates":[12.329883,52.501563],"type":"Point"},"properties":{"osm_id":"633687022","tag":{"amenity":"recycling","recycling:clothes":"no","recycling:glass":"yes"}},"type":"Feature"},
	{"geometry":{"coordinates":[12.335167,52.535516],"type":"Point"},"properties":{"osm_id":"3129247756","tag":{"amenity":"recycling","recycling_type":"container"}},"type":"Feature"},
	{"geometry":{"coordinates":[12.339079,52.529516],"type":"Point"},"properties":{"osm_id":"3134659151","tag":{"amenity":"waste_basket"}},"type":"Feature"},
	{"geometry":{"coordinates":[12.33841,52.528689],"type":"Point"},"properties":{"osm_id":"3134691156","tag":{"amenity":"waste_basket"}},"type":"Feature"},
	{"geometry":{"coordinates":[12.338241,52.528524],"type":"Point"},"properties":{"osm_id":"3134691348","tag":{"amenity":"waste_basket"}},"type":"Feature"},
	{"geometry":{"coordinates":[12.3335,52.535926],"type":"Point"},"properties":{"osm_id":"3134692685","tag":{"amenity":"waste_basket","min_height":"1 m"}},"type":"Feature"},
	{"geometry":{"coordinates":[12.333447,52.533138],"type":"Point"},"properties":{"osm_id":"3140556356","tag":{"amenity":"recycling","recycling_type":"container","waste":"trash","waste_1":"paper","waste_2":"plastic"}},"type":"Feature"},
	{"geometry":{"coordinates":[12.333886,52.53261],"type":"Point"},"properties":{"osm_id":"3140556357","tag":{"amenity":"recycling","recycling_type":"container","waste":"trash","waste_1":"plastic","waste_2":"paper"}},"type":"Feature"},
	{"geometry":{"coordinates":[12.334234,52.532961],"type":"Point"},"properties":{"osm_id":"3140556526","tag":{"amenity":"recycling","recycling_type":"container","waste":"trash","waste_1":"paper","waste_2":"plastic"}},"type":"Feature"},
	{"geometry":{"coordinates":[12.332807,52.533754],"type":"Point"},"properties":{"osm_id":"3140560169","tag":{"amenity":"recycling","recycling_type":"container","waste":"trash","waste_1":"paper","waste_2":"plastic"}},"type":"Feature"},
	{"geometry":{"coordinates":[12.333488,52.534293],"type":"Point"},"properties":{"osm_id":"3140560170","tag":{"amenity":"recycling","recycling_type":"container","waste":"trash","waste_1":"paper","waste_2":"plastic"}},"type":"Feature"},
	{"geometry":{"coordinates":[12.334447,52.533997],"type":"Point"},"properties":{"osm_id":"3140577176","tag":{"amenity":"recycling","recycling_type":"container","waste":"trash","waste_1":"paper","waste_2":"plastic"}},"type":"Feature"},
	{"geometry":{"coordinates":[12.336119,52.532144],"type":"Point"},"properties":{"osm_id":"3140577179","tag":{"amenity":"recycling","recycling_type":"container","waste":"trash","waste_1":"paper","waste_2":"plastic"}},"type":"Feature"},
	{"geometry":{"coordinates":[12.334652,52.531844],"type":"Point"},"properties":{"osm_id":"3140577180","tag":{"amenity":"recycling","recycling_type":"container","waste":"trash","waste_1":"paper","waste_2":"plastic"}},"type":"Feature"},
	{"geometry":{"coordinates":[12.332841,52.532194],"type":"Point"},"properties":{"osm_id":"3140577181","tag":{"amenity":"recycling","recycling_type":"container","waste":"trash","waste_1":"paper","waste_2":"plastic"}},"type":"Feature"},
	{"geometry":{"coordinates":[12.350672,52.525774],"type":"Point"},"properties":{"osm_id":"3140633494","tag":{"amenity":"recycling","waste":"trash","waste_1":"paper","waste_2":"plastic"}},"type":"Feature"},
	{"geometry":{"coordinates":[12.350921,52.526377],"type":"Point"},"properties":{"osm_id":"3140633495","tag":{"amenity":"recycling","waste":"trash","waste_1":"paper","waste_2":"plastic"}},"type":"Feature"},
	{"geometry":{"coordinates":[12.339928,52.529418],"type":"Point"},"properties":{"osm_id":"3141489395","tag":{"amenity":"waste_basket"}},"type":"Feature"},
	{"geometry":{"coordinates":[12.340133,52.52942],"type":"Point"},"properties":{"osm_id":"3141492581","tag":{"amenity":"waste_basket"}},"type":"Feature"},
	{"geometry":{"coordinates":[12.341723,52.529345],"type":"Point"},"properties":{"osm_id":"3412415745","tag":{"amenity":"waste_basket"}},"type":"Feature"},
	{"geometry":{"coordinates":[12.340596,52.529848],"type":"Point"},"properties":{"osm_id":"3412415746","tag":{"amenity":"waste_basket"}},"type":"Feature"},
	{"geometry":{"coordinates":[12.342545,52.528957],"type":"Point"},"properties":{"osm_id":"3412415747","tag":{"amenity":"waste_basket"}},"type":"Feature"},
	{"geometry":{"coordinates":[12.339129,52.528041],"type":"Point"},"properties":{"osm_id":"3412419610","tag":{"amenity":"waste_basket"}},"type":"Feature"},
	{"geometry":{"coordinates":[12.339571,52.527771],"type":"Point"},"properties":{"osm_id":"3412419611","tag":{"amenity":"waste_basket"}},"type":"Feature"},
	{"geometry":{"coordinates":[12.338788,52.528101],"type":"Point"},"properties":{"osm_id":"3412447323","tag":{"amenity":"waste_basket"}},"type":"Feature"},
	{"geometry":{"coordinates":[12.339353,52.529093],"type":"Point"},"properties":{"osm_id":"3412447324","tag":{"amenity":"waste_basket"}},"type":"Feature"},
	{"geometry":{"coordinates":[12.339517,52.529046],"type":"Point"},"properties":{"osm_id":"3412447327","tag":{"amenity":"waste_basket"}},"type":"Feature"},
	{"geometry":{"coordinates":[12.340093,52.529332],"type":"Point"},"properties":{"osm_id":"3412447328","tag":{"amenity":"waste_basket"}},"type":"Feature"},
	{"geometry":{"coordinates":[12.339837,52.529487],"type":"Point"},"properties":{"osm_id":"3412447336","tag":{"amenity":"waste_basket"}},"type":"Feature"},
	{"geometry":{"coordinates":[12.339185,52.529199],"type":"Point"},"properties":{"osm_id":"3412447337","tag":{"amenity":"waste_basket"}},"type":"Feature"},
	{"geometry":{"coordinates":[12.339323,52.529437],"type":"Point"},"properties":{"osm_id":"3412447350","tag":{"amenity":"waste_basket"}},"type":"Feature"},
	{"geometry":{"coordinates":[12.339359,52.52946],"type":"Point"},"properties":{"osm_id":"3412447351","tag":{"amenity":"waste_basket"}},"type":"Feature"},
	{"geometry":{"coordinates":[12.339301,52.529511],"type":"Point"},"properties":{"osm_id":"3412447352","tag":{"amenity":"waste_basket"}},"type":"Feature"},
	{"geometry":{"coordinates":[12.339347,52.529541],"type":"Point"},"properties":{"osm_id":"3412447353","tag":{"amenity":"waste_basket"}},"type":"Feature"},
	{"geometry":{"coordinates":[12.339401,52.529515],"type":"Point"},"properties":{"osm_id":"3412447354","tag":{"amenity":"waste_basket"}},"type":"Feature"},
	{"geometry":{"coordinates":[12.339163,52.529356],"type":"Point"},"properties":{"osm_id":"3412447355","tag":{"amenity":"waste_basket"}},"type":"Feature"},
	{"geometry":{"coordinates":[12.340493,52.53213],"type":"Point"},"properties":{"osm_id":"3412457371","tag":{"amenity":"waste_basket"}},"type":"Feature"},
	{"geometry":{"coordinates":[12.339844,52.532789],"type":"Point"},"properties":{"osm_id":"3412459103","tag":{"amenity":"waste_basket"}},"type":"Feature"},
	{"geometry":{"coordinates":[12.340424,52.532818],"type":"Point"},"properties":{"osm_id":"3412464336","tag":{"amenity":"waste_basket"}},"type":"Feature"},
	{"geometry":{"coordinates":[12.338592,52.536271],"type":"Point"},"properties":{"osm_id":"3412470385","tag":{"amenity":"waste_basket"}},"type":"Feature"},
	{"geometry":{"coordinates":[12.338647,52.53619],"type":"Point"},"properties":{"osm_id":"3412470386","tag":{"amenity":"waste_basket"}},"type":"Feature"},
	{"geometry":{"coordinates":[12.333959,52.535503],"type":"Point"},"properties":{"osm_id":"4028181582","tag":{"amenity":"waste_basket"}},"type":"Feature"},
	{"geometry":{"coordinates":[12.328746,52.535338],"type":"Point"},"properties":{"osm_id":"4028181583","tag":{"amenity":"waste_basket"}},"type":"Feature"},
	{"geometry":{"coordinates":[12.330409,52.533858],"type":"Point"},"properties":{"osm_id":"4028181584","tag":{"amenity":"waste_basket"}},"type":"Feature"},
	{"geometry":{"coordinates":[12.333427,52.535808],"type":"Point"},"properties":{"osm_id":"4028181585","tag":{"amenity":"waste_basket"}},"type":"Feature"},
	{"geometry":{"coordinates":[12.330538,52.533777],"type":"Point"},"properties":{"osm_id":"4028181586","tag":{"amenity":"waste_basket"}},"type":"Feature"},
	{"geometry":{"coordinates":[12.327942,52.535962],"type":"Point"},"properties":{"osm_id":"4028181587","tag":{"amenity":"waste_basket"}},"type":"Feature"},
	{"geometry":{"coordinates":[12.329799,52.532932],"type":"Point"},"properties":{"osm_id":"4028181798","tag":{"amenity":"waste_basket"}},"type":"Feature"},
	{"geometry":{"coordinates":[12.330008,52.536271],"type":"Point"},"properties":{"osm_id":"6295080686","tag":{"amenity":"recycling","recycling:glass_bottles":"green","recycling_type":"container"}},"type":"Feature"},
	{"geometry":{"coordinates":[12.363407,52.53181],"type":"Point"},"properties":{"osm_id":"6304342018","tag":{"amenity":"waste_basket"}},"type":"Feature"},
	{"geometry":{"coordinates":[12.364072,52.53141],"type":"Point"},"properties":{"osm_id":"6304342019","tag":{"amenity":"waste_basket"}},"type":"Feature"},
	{"geometry":{"coordinates":[12.364699,52.531028],"type":"Point"},"properties":{"osm_id":"6304342020","tag":{"amenity":"waste_basket"}},"type":"Feature"},
	{"geometry":{"coordinates":[12.311345,52.522652],"type":"Point"},"properties":{"osm_id":"6465723761","tag":{"amenity":"recycling","recycling:clothes":"yes","recycling:glass_bottles":"yes","recycling_type":"container"}},"type":"Feature"}
]
}
