{
"type": "FeatureCollection",
"features": [
	{"geometry":{"coordinates":[12.345927,51.368475],"type":"Point"},"properties":{"osm_id":"321574871","tag":{"amenity":"recycling","location":"overground","recycling:clothes":"yes","recycling:glass":"no","recycling:glass_bottles":"yes","recycling:shoes":"yes","recycling_type":"container"}},"type":"Feature"},
	{"geometry":{"coordinates":[12.322161,51.381261],"type":"Point"},"properties":{"osm_id":"321688724","tag":{"amenity":"recycling","recycling:glass_bottles":"yes","recycling_type":"container"}},"type":"Feature"},
	{"geometry":{"coordinates":[12.331602,51.373096],"type":"Point"},"properties":{"osm_id":"321688887","tag":{"amenity":"recycling","recycling:clothes":"yes","recycling:glass_bottles":"yes","recycling_type":"container"}},"type":"Feature"},
	{"geometry":{"coordinates":[12.320721,51.375215],"type":"Point"},"properties":{"osm_id":"333124755","tag":{"amenity":"recycling"}},"type":"Feature"},
	{"geometry":{"coordinates":[12.369987,51.365546],"type":"Point"},"properties":{"osm_id":"334185350","tag":{"amenity":"recycling","location":"overground","recycling:glass":"no","recycling:glass_bottles":"yes","recycling_type":"container"}},"type":"Feature"},
	{"geometry":{"coordinates":[12.367312,51.367147],"type":"Point"},"properties":{"osm_id":"342567891","tag":{"amenity":"recycling","location":"overground","recycling:glass":"no","recycling:glass_bottles":"yes","recycling_type":"container"}},"type":"Feature"},
	{"geometry":{"coordinates":[12.375953,51.350622],"type":"Point"},"properties":{"osm_id":"358352018","tag":{"amenity":"recycling","recycling:clothes":"yes","recycling:glass_bottles":"yes","recycling_type":"container"}},"type":"Feature"},
	{"geometry":{"coordinates":[12.370729,51.36924],"type":"Point"},"properties":{"osm_id":"373386918","tag":{"amenity":"recycling","recycling:glass":"yes","recycling_type":"container"}},"type":"Feature"},
	{"geometry":{"coordinates":[12.376291,51.371089],"type":"Point"},"properties":{"osm_id":"373387324","tag":{"amenity":"recycling","mapillary":"etKHSUT8bxRgzeEk1nynaQ","recycling:clothes":"yes","recycling:glass_bottles":"yes","recycling:shoes":"yes","recycling_type":"container","survey:date":"2017-05-25"}},"type":"Feature"},
	{"geometry":{"coordinates":[12.343505,51.37502],"type":"Point"},"properties":{"osm_id":"387455083","tag":{"amenity":"recycling","mapillary":"vMuPQN_dSHYxGMYCC5BE7A","recycling:glass":"yes","recycling_type":"container","survey:date":"2017-08-27"}},"type":"Feature"},
	{"geometry":{"coordinates":[12.366939,51.358615],"type":"Point"},"properties":{"osm_id":"599935391","tag":{"amenity":"recycling","location":"overground","recycling:glass":"yes","recycling_type":"container"}},"type":"Feature"},
	{"geometry":{"coordinates":[12.372061,51.353409],"type":"Point"},"properties":{"osm_id":"599935413","tag":{"amenity":"recycling","location":"overground","opening_hours":"Mo-Fr 07:00-13:00,15:00-20:00","recycling:glass_bottles":"yes","recycling_type":"container"}},"type":"Feature"},
	{"geometry":{"coordinates":[12.363208,51.351875],"type":"Point"},"properties":{"osm_id":"602560693","tag":{"amenity":"waste_basket"}},"type":"Feature"},
	{"geometry":{"coordinates":[12.36197,51.353681],"type":"Point"},"properties":{"osm_id":"602560701","tag":{"amenity":"waste_basket"}},"type":"Feature"},
	{"geometry":{"coordinates":[12.36196,51.353939],"type":"Point"},"properties":{"osm_id":"602560705","tag":{"amenity":"waste_basket"}},"type":"Feature"},
	{"geometry":{"coordinates":[12.362044,51.353985],"type":"Point"},"properties":{"osm_id":"602560714","tag":{"amenity":"waste_basket"}},"type":"Feature"},
	{"geometry":{"coordinates":[12.365768,51.350007],"type":"Point"},"properties":{"osm_id":"603128602","tag":{"amenity":"waste_basket"}},"type":"Feature"},
	{"geometry":{"coordinates":[12.366719,51.349377],"type":"Point"},"properties":{"osm_id":"603128606","tag":{"amenity":"waste_basket"}},"type":"Feature"},
	{"geometry":{"coordinates":[12.366854,51.349288],"type":"Point"},"properties":{"osm_id":"603128607","tag":{"amenity":"waste_basket"}},"type":"Feature"},
	{"geometry":{"coordinates":[12.364687,51.350972],"type":"Point"},"properties":{"osm_id":"603128621","tag":{"amenity":"waste_basket"}},"type":"Feature"},
	{"geometry":{"coordinates":[12.365519,51.350761],"type":"Point"},"properties":{"osm_id":"603128622","tag":{"amenity":"waste_basket"}},"type":"Feature"},
	{"geometry":{"coordinates":[12.365695,51.350633],"type":"Point"},"properties":{"osm_id":"603128623","tag":{"amenity":"waste_basket"}},"type":"Feature"},
	{"geometry":{"coordinates":[12.352915,51.34534],"type":"Point"},"properties":{"osm_id":"615793772","tag":{"amenity":"recycling","location":"overground","recycling:glass":"no","recycling:glass_bottles":"yes","recycling_type":"container"}},"type":"Feature"},
	{"geometry":{"coordinates":[12.327157,51.37947],"type":"Point"},"properties":{"osm_id":"671494561","tag":{"amenity":"recycling","location":"overground","recycling:bio":"yes","recycling:waste":"yes","recycling_type":"container"}},"type":"Feature"},
	{"geometry":{"coordinates":[12.327468,51.379407],"type":"Point"},"properties":{"osm_id":"671494580","tag":{"amenity":"waste_basket"}},"type":"Feature"},
	{"geometry":{"coordinates":[12.327999,51.379343],"type":"Point"},"properties":{"osm_id":"671494590","tag":{"amenity":"waste_basket"}},"type":"Feature"},
	{"geometry":{"coordinates":[12.327844,51.37941],"type":"Point"},"properties":{"osm_id":"671494592","tag":{"amenity":"waste_basket"}},"type":"Feature"},
	{"geometry":{"coordinates":[12.32775,51.379581],"type":"Point"},"properties":{"osm_id":"671494593","tag":{"amenity":"waste_basket"}},"type":"Feature"},
	{"geometry":{"coordinates":[12.327752,51.37969],"type":"Point"},"properties":{"osm_id":"671494617","tag":{"amenity":"waste_basket"}},"type":"Feature"},
	{"geometry":{"coordinates":[12.328509,51.379276],"type":"Point"},"properties":{"osm_id":"671494653","tag":{"amenity":"recycling","location":"overground","recycling:bio":"yes","recycling:waste":"yes","recycling_type":"container"}},"type":"Feature"},
	{"geometry":{"coordinates":[12.328157,51.379517],"type":"Point"},"properties":{"osm_id":"671494668","tag":{"amenity":"waste_basket"}},"type":"Feature"},
	{"geometry":{"coordinates":[12.328205,51.37957],"type":"Point"},"properties":{"osm_id":"671494675","tag":{"amenity":"recycling","location":"overground","recycling:bio":"yes","recycling:waste":"yes","recycling_type":"container"}},"type":"Feature"},
	{"geometry":{"coordinates":[12.329251,51.379144],"type":"Point"},"properties":{"osm_id":"671494683","tag":{"amenity":"recycling","location":"overground","recycling:paper":"yes","recycling_type":"container"}},"type":"Feature"},
	{"geometry":{"coordinates":[12.328048,51.379831],"type":"Point"},"properties":{"osm_id":"671494709","tag":{"amenity":"recycling","location":"overground","recycling:bio":"yes","recycling:waste":"yes","recycling_type":"container"}},"type":"Feature"},
	{"geometry":{"coordinates":[12.328068,51.37998],"type":"Point"},"properties":{"osm_id":"671494713","tag":{"amenity":"recycling","location":"overground","recycling:bio":"yes","recycling:waste":"yes","recycling_type":"container"}},"type":"Feature"},
	{"geometry":{"coordinates":[12.328388,51.379981],"type":"Point"},"properties":{"osm_id":"671494716","tag":{"amenity":"recycling","location":"overground","recycling:bio":"yes","recycling:waste":"yes","recycling_type":"container"}},"type":"Feature"},
	{"geometry":{"coordinates":[12.328085,51.380081],"type":"Point"},"properties":{"osm_id":"671494727","tag":{"amenity":"recycling","location":"overground","recycling:bio":"yes","recycling:waste":"yes","recycling_type":"container"}},"type":"Feature"},
	{"geometry":{"coordinates":[12.328403,51.380271],"type":"Point"},"properties":{"osm_id":"671494757","tag":{"amenity":"recycling","location":"overground","recycling:bio":"yes","recycling:waste":"yes","recycling_type":"container"}},"type":"Feature"},
	{"geometry":{"coordinates":[12.327256,51.380617],"type":"Point"},"properties":{"osm_id":"671494784","tag":{"amenity":"recycling","location":"overground","recycling:bio":"yes","recycling:waste":"yes","recycling_type":"container"}},"type":"Feature"},
	{"geometry":{"coordinates":[12.327328,51.381668],"type":"Point"},"properties":{"osm_id":"671494842","tag":{"amenity":"recycling","location":"overground","recycling:bio":"yes","recycling:waste":"yes","recycling_type":"container"}},"type":"Feature"},
	{"geometry":{"coordinates":[12.328487,51.380557],"type":"Point"},"properties":{"osm_id":"671494885","tag":{"amenity":"recycling","location":"overground","recycling:bio":"yes","recycling:waste":"yes","recycling_type":"container"}},"type":"Feature"},
	{"geometry":{"coordinates":[12.328482,51.381017],"type":"Point"},"properties":{"osm_id":"671494900","tag":{"amenity":"recycling","location":"overground","recycling:bio":"yes","recycling:waste":"yes","recycling_type":"container"}},"type":"Feature"},
	{"geometry":{"coordinates":[12.328502,51.381288],"type":"Point"},"properties":{"osm_id":"671494940","tag":{"amenity":"recycling","location":"overground","recycling:bio":"yes","recycling:waste":"yes","recycling_type":"container"}},"type":"Feature"},
	{"geometry":{"coordinates":[12.329074,51.381097],"type":"Point"},"properties":{"osm_id":"671494964","tag":{"amenity":"recycling","location":"overground","recycling:bio":"yes","recycling:waste":"yes","recycling_type":"container"}},"type":"Feature"},
	{"geometry":{"coordinates":[12.328788,51.381506],"type":"Point"},"properties":{"osm_id":"671494995","tag":{"amenity":"recycling","location":"overground","recycling:bio":"yes","recycling:waste":"yes","recycling_type":"container"}},"type":"Feature"},
	{"geometry":{"coordinates":[12.352963,51.358821],"type":"Point"},"properties":{"osm_id":"701843726","tag":{"amenity":"recycling","recycling:glass_bottles":"yes","recycling_type":"container"}},"type":"Feature"},
	{"geometry":{"coordinates":[12.356178,51.355693],"type":"Point"},"properties":{"osm_id":"702494846","tag":{"amenity":"recycling","mapillary":"NHQCbw2n5d1PSEio98BZug","recycling:glass":"yes","recycling_type":"container","survey:date":"2018-04-09"}},"type":"Feature"},
	{"geometry":{"coordinates":[12.329338,51.354421],"type":"Point"},"properties":{"osm_id":"713298893","tag":{"amenity":"waste_basket"}},"type":"Feature"},
	{"geometry":{"coordinates":[12.309971,51.350218],"type":"Point"},"properties":{"osm_id":"721190699","tag":{"amenity":"recycling"}},"type":"Feature"},
	{"geometry":{"coordinates":[12.313889,51.351352],"type":"Point"},"properties":{"osm_id":"721191192","tag":{"amenity":"recycling","location":"overground","recycling_type":"container"}},"type":"Feature"},
	{"geometry":{"coordinates":[12.307076,51.353422],"type":"Point"},"properties":{"osm_id":"721192165","tag":{"amenity":"recycling","mapillary":"24PGWCmQNZIAhtTD1MRO1Q","recycling_type":"container","survey:date":"2016-09-02"}},"type":"Feature"},
	{"geometry":{"coordinates":[12.308373,51.347231],"type":"Point"},"properties":{"osm_id":"845711816","tag":{"amenity":"recycling","recycling:glass":"yes","recycling:glass_bottles":"yes","recycling_type":"container"}},"type":"Feature"},
	{"geometry":{"coordinates":[12.362127,51.348286],"type":"Point"},"properties":{"osm_id":"847651475","tag":{"amenity":"waste_basket"}},"type":"Feature"},
	{"geometry":{"coordinates":[12.320944,51.354083],"type":"Point"},"properties":{"osm_id":"861244952","tag":{"amenity":"recycling","mapillary":"-fsaP3MEiPud3gLDYfWolA","recycling:paper":"yes","recycling:plastic":"yes","recycling_type":"container","survey:date":"2016-09-02"}},"type":"Feature"},
	{"geometry":{"coordinates":[12.366422,51.354759],"type":"Point"},"properties":{"osm_id":"865123857","tag":{"amenity":"recycling","mapillary":"kPbUVj2JyaYffbIJPTQUHg","recycling:glass":"yes","recycling_type":"container","survey:date":"2017-04-12"}},"type":"Feature"},
	{"geometry":{"coordinates":[12.367196,51.354557],"type":"Point"},"properties":{"osm_id":"865123892","tag":{"amenity":"recycling","mapillary":"3L0XNs7lBx-rGSmxUFzTrQ","recycling:clothes":"yes","recycling_type":"container","survey:date":"2017-04-12"}},"type":"Feature"},
	{"geometry":{"coordinates":[12.372249,51.349301],"type":"Point"},"properties":{"osm_id":"873665384","tag":{"amenity":"recycling","location":"overground","recycling:glass_bottles":"yes","recycling_type":"container"}},"type":"Feature"},
	{"geometry":{"coordinates":[12.313437,51.344484],"type":"Point"},"properties":{"osm_id":"907075770","tag":{"amenity":"recycling","mapillary":"7E8iZorneKm2cMa8ma2r9A","recycling:clothes":"yes","recycling_type":"container","survey:date":"2016-09-01"}},"type":"Feature"},
	{"geometry":{"coordinates":[12.317228,51.344339],"type":"Point"},"properties":{"osm_id":"907075887","tag":{"amenity":"recycling","recycling:shoes":"yes"}},"type":"Feature"},
	{"geometry":{"coordinates":[12.352601,51.369002],"type":"Point"},"properties":{"osm_id":"918345710","tag":{"amenity":"waste_basket"}},"type":"Feature"},
	{"geometry":{"coordinates":[12.316311,51.379797],"type":"Point"},"properties":{"osm_id":"918345724","tag":{"amenity":"waste_basket"}},"type":"Feature"},
	{"geometry":{"coordinates":[12.352139,51.369021],"type":"Point"},"properties":{"osm_id":"918345800","tag":{"amenity":"waste_basket"}},"type":"Feature"},
	{"geometry":{"coordinates":[12.316455,51.375177],"type":"Point"},"properties":{"osm_id":"918345964","tag":{"amenity":"waste_basket","dogshit":"yes"}},"type":"Feature"},
	{"geometry":{"coordinates":[12.316531,51.374921],"type":"Point"},"properties":{"osm_id":"918346294","tag":{"amenity":"recycling","mapillary":"aGVgKCiYE6vcKPEzNesSfg","operator":"Malteser","recycling:clothes":"yes","recycling_type":"container","survey:date":"2018-04-08"}},"type":"Feature"},
	{"geometry":{"coordinates":[12.316709,51.379698],"type":"Point"},"properties":{"osm_id":"918346301","tag":{"amenity":"waste_basket"}},"type":"Feature"},
	{"geometry":{"coordinates":[12.338336,51.371799],"type":"Point"},"properties":{"osm_id":"918346330","tag":{"amenity":"recycling","recycling:shoes":"yes","recycling_type":"container"}},"type":"Feature"},
	{"geometry":{"coordinates":[12.316784,51.379963],"type":"Point"},"properties":{"osm_id":"918346616","tag":{"amenity":"waste_basket"}},"type":"Feature"},
	{"geometry":{"coordinates":[12.339188,51.371612],"type":"Point"},"properties":{"osm_id":"918346673","tag":{"amenity":"recycling","location":"overground","recycling:glass":"no","recycling:glass_bottles":"yes","recycling_type":"container"}},"type":"Feature"},
	{"geometry":{"coordinates":[12.353323,51.368686],"type":"Point"},"properties":{"osm_id":"918346696","tag":{"amenity":"waste_basket"}},"type":"Feature"},
	{"geometry":{"coordinates":[12.353357,51.367977],"type":"Point"},"properties":{"osm_id":"918346709","tag":{"amenity":"waste_basket"}},"type":"Feature"},
	{"geometry":{"coordinates":[12.343804,51.359756],"type":"Point"},"properties":{"osm_id":"929254032","tag":{"amenity":"waste_basket"}},"type":"Feature"},
	{"geometry":{"coordinates":[12.343707,51.359729],"type":"Point"},"properties":{"osm_id":"929254065","tag":{"amenity":"waste_basket"}},"type":"Feature"},
	{"geometry":{"coordinates":[12.343914,51.359706],"type":"Point"},"properties":{"osm_id":"929254090","tag":{"amenity":"waste_basket"}},"type":"Feature"},
	{"geometry":{"coordinates":[12.330547,51.367585],"type":"Point"},"properties":{"osm_id":"936823153","tag":{"amenity":"recycling","recycling:green_waste":"yes"}},"type":"Feature"},
	{"geometry":{"coordinates":[12.362575,51.367335],"type":"Point"},"properties":{"osm_id":"937904247","tag":{"amenity":"recycling","location":"overground","recycling:clothes":"yes","recycling:glass":"no","recycling:glass_bottles":"yes","recycling_type":"container"}},"type":"Feature"},
	{"geometry":{"coordinates":[12.323438,51.359446],"type":"Point"},"properties":{"osm_id":"944256020","tag":{"amenity":"waste_basket"}},"type":"Feature"},
	{"geometry":{"coordinates":[12.337545,51.390466],"type":"Point"},"properties":{"osm_id":"954729760","tag":{"amenity":"waste_basket"}},"type":"Feature"},
	{"geometry":{"coordinates":[12.339242,51.390956],"type":"Point"},"properties":{"osm_id":"954729789","tag":{"amenity":"recycling","recycling:shoes":"yes"}},"type":"Feature"},
	{"geometry":{"coordinates":[12.339627,51.392838],"type":"Point"},"properties":{"osm_id":"954729829","tag":{"amenity":"recycling","mapillary":"7zCfnh6elBP2SA28Bf3ROw","recycling:glass":"yes","recycling_type":"container","survey:date":"2018-04-18"}},"type":"Feature"},
	{"geometry":{"coordinates":[12.361828,51.351903],"type":"Point"},"properties":{"osm_id":"964670250","tag":{"amenity":"waste_basket"}},"type":"Feature"},
	{"geometry":{"coordinates":[12.361674,51.351657],"type":"Point"},"properties":{"osm_id":"964670252","tag":{"amenity":"waste_basket"}},"type":"Feature"},
	{"geometry":{"coordinates":[12.361462,51.351554],"type":"Point"},"properties":{"osm_id":"964670259","tag":{"amenity":"waste_basket"}},"type":"Feature"},
	{"geometry":{"coordinates":[12.361565,51.352169],"type":"Point"},"properties":{"osm_id":"964670269","tag":{"amenity":"waste_basket"}},"type":"Feature"},
	{"geometry":{"coordinates":[12.361408,51.367854],"type":"Point"},"properties":{"osm_id":"984444928","tag":{"amenity":"waste_basket","dogshit":"yes"}},"type":"Feature"},
	{"geometry":{"coordinates":[12.348556,51.371086],"type":"Point"},"properties":{"osm_id":"984445550","tag":{"amenity":"recycling","mapillary":"AGfdVDDK4Lsvs7tHoPCFgw","recycling:shoes":"yes","recycling_type":"container","survey:date":"2017-08-27"}},"type":"Feature"},
	{"geometry":{"coordinates":[12.385621,51.356684],"type":"Point"},"properties":{"osm_id":"992557858","tag":{"amenity":"recycling","recycling:shoes":"yes","recycling_type":"centre"}},"type":"Feature"},
	{"geometry":{"coordinates":[12.323101,51.368298],"type":"Point"},"properties":{"osm_id":"1013433568","tag":{"amenity":"waste_basket"}},"type":"Feature"},
	{"geometry":{"coordinates":[12.323148,51.368719],"type":"Point"},"properties":{"osm_id":"1013433577","tag":{"amenity":"waste_basket"}},"type":"Feature"},
	{"geometry":{"coordinates":[12.31845,51.370355],"type":"Point"},"properties":{"osm_id":"1013433585","tag":{"amenity":"waste_basket"}},"type":"Feature"},
	{"geometry":{"coordinates":[12.366302,51.350037],"type":"Point"},"properties":{"osm_id":"1041156762","tag":{"amenity":"waste_basket"}},"type":"Feature"},
	{"geometry":{"coordinates":[12.353433,51.349992],"type":"Point"},"properties":{"osm_id":"1064121511","tag":{"amenity":"waste_basket"}},"type":"Feature"},
	{"geometry":{"coordinates":[12.353472,51.349988],"type":"Point"},"properties":{"osm_id":"1064121683","tag":{"amenity":"waste_basket"}},"type":"Feature"},
	{"geometry":{"coordinates":[12.358373,51.380037],"type":"Point"},"properties":{"osm_id":"1123967064","tag":{"amenity":"recycling","recycling:cans":"yes","recycling:glass":"yes","recycling:paper":"yes"}},"type":"Feature"},
	{"geometry":{"coordinates":[12.368774,51.352415],"type":"Point"},"properties":{"osm_id":"1124773150","tag":{"amenity":"waste_basket"}},"type":"Feature"},
	{"geometry":{"coordinates":[12.365207,51.356009],"type":"Point"},"properties":{"osm_id":"1124773174","tag":{"amenity":"waste_basket"}},"type":"Feature"},
	{"geometry":{"coordinates":[12.354644,51.358842],"type":"Point"},"properties":{"osm_id":"1126271428","tag":{"amenity":"recycling","mapillary":"_hi9P7styQRhyZMhOGgZYw","recycling:paper":"yes","recycling_type":"container","survey:date":"2017-04-30"}},"type":"Feature"},
	{"geometry":{"coordinates":[12.319945,51.344673],"type":"Point"},"properties":{"osm_id":"1356125357","tag":{"amenity":"recycling"}},"type":"Feature"},
	{"geometry":{"coordinates":[12.305258,51.357375],"type":"Point"},"properties":{"osm_id":"1444721178","tag":{"amenity":"waste_basket"}},"type":"Feature"},
	{"geometry":{"coordinates":[12.305317,51.357324],"type":"Point"},"properties":{"osm_id":"1445523748","tag":{"amenity":"recycling","mapillary":"mVhMiKSIFjO0A_riL5jBJw","recycling_type":"container","survey:date":"2016-09-03"}},"type":"Feature"},
	{"geometry":{"coordinates":[12.373557,51.346456],"type":"Point"},"properties":{"osm_id":"1531257476","tag":{"amenity":"waste_basket"}},"type":"Feature"},
	{"geometry":{"coordinates":[12.373714,51.346468],"type":"Point"},"properties":{"osm_id":"1531257487","tag":{"amenity":"waste_basket"}},"type":"Feature"},
	{"geometry":{"coordinates":[12.373858,51.346476],"type":"Point"},"properties":{"osm_id":"1531257494","tag":{"amenity":"waste_basket"}},"type":"Feature"},
	{"geometry":{"coordinates":[12.373652,51.346492],"type":"Point"},"properties":{"osm_id":"1531257507","tag":{"amenity":"waste_basket"}},"type":"Feature"},
	{"geometry":{"coordinates":[12.373821,51.34651],"type":"Point"},"properties":{"osm_id":"1531257519","tag":{"amenity":"waste_basket"}},"type":"Feature"},
	{"geometry":{"coordinates":[12.365027,51.375906],"type":"Point"},"properties":{"osm_id":"1630558474","tag":{"amenity":"recycling","recycling:glass":"yes"}},"type":"Feature"},
	{"geometry":{"coordinates":[12.364397,51.376952],"type":"Point"},"properties":{"osm_id":"1630558475","tag":{"amenity":"recycling","mapillary":"E-ClQE-jBgGCakikv9yVOQ","recycling_type":"container","survey:date":"2017-10-15"}},"type":"Feature"},
	{"geometry":{"coordinates":[12.353706,51.346232],"type":"Point"},"properties":{"osm_id":"1635038955","tag":{"amenity":"recycling","recycling:cans":"no","recycling:cardboard":"no","recycling:clothes":"yes","recycling:glass":"no","recycling:glass_bottles":"no","recycling:paper":"no","recycling:plastic":"no","recycling:plastic_bottles":"no","recycling:plastic_packaging":"no","recycling:waste":"no","recycling_type":"container"}},"type":"Feature"},
	{"geometry":{"coordinates":[12.323288,51.37691],"type":"Point"},"properties":{"osm_id":"1640894965","tag":{"amenity":"recycling","recycling:glass":"yes","recycling:glass_bottles":"yes","recycling_type":"container"}},"type":"Feature"},
	{"geometry":{"coordinates":[12.374869,51.368642],"type":"Point"},"properties":{"name":"Glascontainer","osm_id":"1643037077","tag":{"amenity":"recycling","recycling:glass_bottles":"yes","recycling_type":"container"}},"type":"Feature"},
	{"geometry":{"coordinates":[12.326717,51.386853],"type":"Point"},"properties":{"osm_id":"1654430175","tag":{"amenity":"recycling","location":"overground","recycling_type":"container"}},"type":"Feature"},
	{"geometry":{"coordinates":[12.365444,51.375431],"type":"Point"},"properties":{"osm_id":"1708369441","tag":{"amenity":"recycling","recycling:shoes":"yes"}},"type":"Feature"},
	{"geometry":{"coordinates":[12.354181,51.345378],"type":"Point"},"properties":{"osm_id":"1713466479","tag":{"amenity":"waste_basket"}},"type":"Feature"},
	{"geometry":{"coordinates":[12.356288,51.345827],"type":"Point"},"properties":{"osm_id":"1714948211","tag":{"amenity":"recycling","recycling:cans":"no","recycling:cardboard":"no","recycling:clothes":"yes","recycling:glass":"no","recycling:glass_bottles":"no","recycling:paper":"no","recycling:plastic":"no","recycling:plastic_bottles":"no","recycling:plastic_packaging":"no","recycling:waste":"no","recycling_type":"container"}},"type":"Feature"},
	{"geometry":{"coordinates":[12.388749,51.345436],"type":"Point"},"properties":{"osm_id":"1890743055","tag":{"amenity":"recycling","recycling:clothes":"yes","recycling_type":"container"}},"type":"Feature"},
	{"geometry":{"coordinates":[12.377889,51.344739],"type":"Point"},"properties":{"osm_id":"1900054760","tag":{"amenity":"waste_basket"}},"type":"Feature"},
	{"geometry":{"coordinates":[12.377299,51.344702],"type":"Point"},"properties":{"osm_id":"1900054767","tag":{"amenity":"waste_basket"}},"type":"Feature"},
	{"geometry":{"coordinates":[12.37418,51.357081],"type":"Point"},"properties":{"osm_id":"1955687174","tag":{"amenity":"recycling","recycling:cans":"no","recycling:clothes":"no","recycling:glass":"yes","recycling:glass_bottles":"yes","recycling:paper":"no","recycling:plastic":"no","recycling_type":"container"}},"type":"Feature"},
	{"geometry":{"coordinates":[12.37727,51.361051],"type":"Point"},"properties":{"osm_id":"1955687177","tag":{"amenity":"recycling","recycling:clothes":"yes","recycling:glass":"yes","recycling_type":"container"}},"type":"Feature"},
	{"geometry":{"coordinates":[12.386649,51.358284],"type":"Point"},"properties":{"osm_id":"2412048595","tag":{"amenity":"recycling","recycling:clothes":"yes","recycling_type":"container"}},"type":"Feature"},
	{"geometry":{"coordinates":[12.362356,51.347803],"type":"Point"},"properties":{"osm_id":"2463626465","tag":{"amenity":"waste_basket"}},"type":"Feature"},
	{"geometry":{"coordinates":[12.362547,51.363276],"type":"Point"},"properties":{"osm_id":"2473319281","tag":{"amenity":"recycling","recycling:glass":"yes","recycling:glass_bottles":"yes","recycling_type":"container"}},"type":"Feature"},
	{"geometry":{"coordinates":[12.359069,51.365959],"type":"Point"},"properties":{"osm_id":"2477702478","tag":{"amenity":"recycling","recycling:clothes":"yes","recycling_type":"container"}},"type":"Feature"},
	{"geometry":{"coordinates":[12.350758,51.365757],"type":"Point"},"properties":{"osm_id":"2525281461","tag":{"amenity":"recycling","recycling:glass":"yes","recycling:glass_bottles":"yes","recycling_type":"container"}},"type":"Feature"},
	{"geometry":{"coordinates":[12.308612,51.353014],"type":"Point"},"properties":{"osm_id":"2548526305","tag":{"amenity":"recycling"}},"type":"Feature"},
	{"geometry":{"coordinates":[12.348332,51.373838],"type":"Point"},"properties":{"osm_id":"2580865665","tag":{"amenity":"recycling","recycling:glass":"yes","recycling:glass_bottles":"yes","recycling_type":"container"}},"type":"Feature"},
	{"geometry":{"coordinates":[12.366825,51.354902],"type":"Point"},"properties":{"osm_id":"2589313743","tag":{"amenity":"waste_basket"}},"type":"Feature"},
	{"geometry":{"coordinates":[12.337235,51.369163],"type":"Point"},"properties":{"name":"Rohstoffhof Schkeuditz, Au\u00c3\u009fenstelle M\u00c3\u00b6ckern","osm_id":"2665692882","tag":{"amenity":"recycling","opening_hours":"Mo,Fr 09:00-14:00; Tu,Th 9:00-18:00","recycling:paper":"yes","recycling_type":"centre"}},"type":"Feature"},
	{"geometry":{"coordinates":[12.376065,51.394435],"type":"Point"},"properties":{"osm_id":"2683221968","tag":{"amenity":"recycling","recycling:glass_bottles":"yes","recycling_type":"container"}},"type":"Feature"},
	{"geometry":{"coordinates":[12.375845,51.353126],"type":"Point"},"properties":{"osm_id":"2704692980","tag":{"amenity":"recycling","recycling:glass_bottles":"yes","recycling_type":"container"}},"type":"Feature"},
	{"geometry":{"coordinates":[12.315536,51.356716],"type":"Point"},"properties":{"osm_id":"3063934998","tag":{"amenity":"recycling","location":"overground","recycling:clothes":"yes","recycling:glass_bottles":"yes","recycling:shoes":"yes","recycling_type":"container"}},"type":"Feature"},
	{"geometry":{"coordinates":[12.388987,51.396425],"type":"Point"},"properties":{"osm_id":"3089181276","tag":{"amenity":"waste_basket","level":"1"}},"type":"Feature"},
	{"geometry":{"coordinates":[12.389241,51.395821],"type":"Point"},"properties":{"osm_id":"3089367684","tag":{"amenity":"waste_basket","level":"1"}},"type":"Feature"},
	{"geometry":{"coordinates":[12.391293,51.396475],"type":"Point"},"properties":{"osm_id":"3368446971","tag":{"amenity":"waste_basket"}},"type":"Feature"},
	{"geometry":{"coordinates":[12.317488,51.34899],"type":"Point"},"properties":{"osm_id":"4043660740","tag":{"amenity":"waste_basket"}},"type":"Feature"},
	{"geometry":{"coordinates":[12.344304,51.375627],"type":"Point"},"properties":{"osm_id":"4060368069","tag":{"amenity":"waste_basket"}},"type":"Feature"},
	{"geometry":{"coordinates":[12.384158,51.38019],"type":"Point"},"properties":{"osm_id":"4064906374","tag":{"amenity":"waste_basket"}},"type":"Feature"},
	{"geometry":{"coordinates":[12.384275,51.380203],"type":"Point"},"properties":{"osm_id":"4064906375","tag":{"amenity":"waste_basket"}},"type":"Feature"},
	{"geometry":{"coordinates":[12.314447,51.348505],"type":"Point"},"properties":{"osm_id":"4177824080","tag":{"amenity":"waste_basket"}},"type":"Feature"},
	{"geometry":{"coordinates":[12.36191,51.375171],"type":"Point"},"properties":{"osm_id":"4321843382","tag":{"amenity":"waste_basket"}},"type":"Feature"},
	{"geometry":{"coordinates":[12.374439,51.388795],"type":"Point"},"properties":{"osm_id":"4339922290","tag":{"amenity":"waste_basket"}},"type":"Feature"},
	{"geometry":{"coordinates":[12.386052,51.346202],"type":"Point"},"properties":{"osm_id":"4598072690","tag":{"amenity":"waste_basket"}},"type":"Feature"},
	{"geometry":{"coordinates":[12.354799,51.381885],"type":"Point"},"properties":{"osm_id":"4710983089","tag":{"amenity":"waste_basket"}},"type":"Feature"},
	{"geometry":{"coordinates":[12.354869,51.381978],"type":"Point"},"properties":{"osm_id":"4710983090","tag":{"amenity":"waste_basket"}},"type":"Feature"},
	{"geometry":{"coordinates":[12.355005,51.382045],"type":"Point"},"properties":{"osm_id":"4710983091","tag":{"amenity":"waste_basket"}},"type":"Feature"},
	{"geometry":{"coordinates":[12.374778,51.386888],"type":"Point"},"properties":{"osm_id":"4847302299","tag":{"amenity":"waste_basket"}},"type":"Feature"},
	{"geometry":{"coordinates":[12.381485,51.368536],"type":"Point"},"properties":{"osm_id":"4988799322","tag":{"amenity":"waste_basket"}},"type":"Feature"},
	{"geometry":{"coordinates":[12.38544,51.344535],"type":"Point"},"properties":{"osm_id":"5087091581","tag":{"amenity":"waste_basket"}},"type":"Feature"},
	{"geometry":{"coordinates":[12.385009,51.36854],"type":"Point"},"properties":{"osm_id":"5098266342","tag":{"amenity":"waste_basket"}},"type":"Feature"},
	{"geometry":{"coordinates":[12.385274,51.368329],"type":"Point"},"properties":{"osm_id":"5098266344","tag":{"amenity":"waste_basket"}},"type":"Feature"},
	{"geometry":{"coordinates":[12.385463,51.368223],"type":"Point"},"properties":{"osm_id":"5098266359","tag":{"amenity":"waste_basket"}},"type":"Feature"},
	{"geometry":{"coordinates":[12.385867,51.368373],"type":"Point"},"properties":{"osm_id":"5098266366","tag":{"amenity":"waste_basket"}},"type":"Feature"},
	{"geometry":{"coordinates":[12.385852,51.368275],"type":"Point"},"properties":{"osm_id":"5098266371","tag":{"amenity":"waste_basket"}},"type":"Feature"},
	{"geometry":{"coordinates":[12.385876,51.368689],"type":"Point"},"properties":{"osm_id":"5098266373","tag":{"amenity":"waste_basket"}},"type":"Feature"},
	{"geometry":{"coordinates":[12.381515,51.368821],"type":"Point"},"properties":{"osm_id":"5099040549","tag":{"amenity":"waste_basket"}},"type":"Feature"},
	{"geometry":{"coordinates":[12.382072,51.369081],"type":"Point"},"properties":{"osm_id":"5099040553","tag":{"amenity":"waste_basket"}},"type":"Feature"},
	{"geometry":{"coordinates":[12.382282,51.368622],"type":"Point"},"properties":{"osm_id":"5099040563","tag":{"amenity":"waste_basket"}},"type":"Feature"},
	{"geometry":{"coordinates":[12.381833,51.374644],"type":"Point"},"properties":{"osm_id":"5099040584","tag":{"amenity":"waste_basket"}},"type":"Feature"},
	{"geometry":{"coordinates":[12.38108,51.373721],"type":"Point"},"properties":{"osm_id":"5099040585","tag":{"amenity":"waste_basket"}},"type":"Feature"},
	{"geometry":{"coordinates":[12.381063,51.372326],"type":"Point"},"properties":{"osm_id":"5099040614","tag":{"amenity":"waste_basket"}},"type":"Feature"},
	{"geometry":{"coordinates":[12.38135,51.369145],"type":"Point"},"properties":{"osm_id":"5099062609","tag":{"amenity":"waste_basket"}},"type":"Feature"},
	{"geometry":{"coordinates":[12.38161,51.370203],"type":"Point"},"properties":{"osm_id":"5099062629","tag":{"amenity":"waste_basket"}},"type":"Feature"},
	{"geometry":{"coordinates":[12.381815,51.367948],"type":"Point"},"properties":{"osm_id":"5099062674","tag":{"amenity":"waste_basket"}},"type":"Feature"},
	{"geometry":{"coordinates":[12.382362,51.367808],"type":"Point"},"properties":{"osm_id":"5099062675","tag":{"amenity":"waste_basket"}},"type":"Feature"},
	{"geometry":{"coordinates":[12.38143,51.368011],"type":"Point"},"properties":{"osm_id":"5099062927","tag":{"amenity":"waste_basket"}},"type":"Feature"},
	{"geometry":{"coordinates":[12.381893,51.368398],"type":"Point"},"properties":{"osm_id":"5108525822","tag":{"amenity":"recycling","recycling:glass_bottles":"yes","recycling_type":"container"}},"type":"Feature"},
	{"geometry":{"coordinates":[12.381804,51.368401],"type":"Point"},"properties":{"osm_id":"5274841022","tag":{"amenity":"recycling","recycling:clothes":"yes","recycling_type":"container"}},"type":"Feature"},
	{"geometry":{"coordinates":[12.374901,51.368641],"type":"Point"},"properties":{"name":"Kleidersammlung","osm_id":"5286449921","tag":{"amenity":"recycling","location":"overground","recycling:clothes":"yes","recycling:glass_bottles":"yes","recycling_type":"container"}},"type":"Feature"},
	{"geometry":{"coordinates":[12.368834,51.349432],"type":"Point"},"properties":{"osm_id":"5389705088","tag":{"amenity":"waste_basket","waste":"trash"}},"type":"Feature"},
	{"geometry":{"coordinates":[12.371054,51.348478],"type":"Point"},"properties":{"osm_id":"5438338159","tag":{"amenity":"waste_basket","waste":"trash"}},"type":"Feature"},
	{"geometry":{"coordinates":[12.376761,51.376852],"type":"Point"},"properties":{"name":"Wertstoffhof","osm_id":"6009384191","tag":{"amenity":"recycling","opening_hours":"Mo-We 10:00-18:00; Th 10:00-19:00; Fr 10:00-18:00; Sa 08:30-14:00","recycling:batteries":"yes","recycling:cans":"yes","recycling:clothes":"yes","recycling:electrical_appliances":"yes","recycling:glass":"yes","recycling:green_waste":"yes","recycling:paper":"yes","recycling:plastic":"yes","recycling:scrap_metal":"yes","recycling_type":"centre","website":"http://www.stadtreinigung-leipzig.de/assets/files/PDF/service_tipps/Wertstoffh%C3%B6fe.pdf?datum=2016-09-08"}},"type":"Feature"},
	{"geometry":{"coordinates":[12.391516,51.360615],"type":"Point"},"properties":{"osm_id":"6038821894","tag":{"amenity":"recycling","recycling:clothes":"yes","recycling:glass_bottles":"no","recycling:shoes":"yes","recycling_type":"container"}},"type":"Feature"},
	{"geometry":{"coordinates":[12.367329,51.351851],"type":"Point"},"properties":{"osm_id":"6052781702","tag":{"amenity":"waste_basket"}},"type":"Feature"},
	{"geometry":{"coordinates":[12.367416,51.351918],"type":"Point"},"properties":{"osm_id":"6052781703","tag":{"amenity":"waste_basket"}},"type":"Feature"},
	{"geometry":{"coordinates":[12.367065,51.352033],"type":"Point"},"properties":{"osm_id":"6052781712","tag":{"amenity":"waste_basket"}},"type":"Feature"},
	{"geometry":{"coordinates":[12.35559,51.370133],"type":"Point"},"properties":{"osm_id":"6055665011","tag":{"amenity":"waste_disposal"}},"type":"Feature"},
	{"geometry":{"coordinates":[12.35563,51.369874],"type":"Point"},"properties":{"osm_id":"6055665012","tag":{"amenity":"waste_disposal"}},"type":"Feature"},
	{"geometry":{"coordinates":[12.370045,51.360619],"type":"Point"},"properties":{"osm_id":"6107595685","tag":{"amenity":"recycling","recycling:glass":"yes","recycling_type":"container"}},"type":"Feature"},
	{"geometry":{"coordinates":[12.310106,51.34921],"type":"Point"},"properties":{"osm_id":"6140939915","tag":{"amenity":"waste_basket"}},"type":"Feature"},
	{"geometry":{"coordinates":[12.310168,51.349188],"type":"Point"},"properties":{"osm_id":"6140939918","tag":{"amenity":"waste_basket"}},"type":"Feature"},
	{"geometry":{"coordinates":[12.306103,51.351622],"type":"Point"},"properties":{"osm_id":"6153787434","tag":{"amenity":"waste_basket"}},"type":"Feature"},
	{"geometry":{"coordinates":[12.306107,51.351695],"type":"Point"},"properties":{"osm_id":"6158571032","tag":{"amenity":"waste_basket"}},"type":"Feature"},
	{"geometry":{"coordinates":[12.305911,51.35154],"type":"Point"},"properties":{"osm_id":"6158571033","tag":{"amenity":"waste_basket"}},"type":"Feature"},
	{"geometry":{"coordinates":[12.370281,51.348305],"type":"Point"},"properties":{"osm_id":"6200496612","tag":{"amenity":"waste_basket","waste":"trash"}},"type":"Feature"},
	{"geometry":{"coordinates":[12.310994,51.349173],"type":"Point"},"properties":{"osm_id":"6203269903","tag":{"amenity":"waste_basket"}},"type":"Feature"},
	{"geometry":{"coordinates":[12.314824,51.348063],"type":"Point"},"properties":{"osm_id":"6203448722","tag":{"amenity":"waste_basket"}},"type":"Feature"},
	{"geometry":{"coordinates":[12.314918,51.347879],"type":"Point"},"properties":{"osm_id":"6203448723","tag":{"amenity":"waste_basket"}},"type":"Feature"},
	{"geometry":{"coordinates":[12.375752,51.373021],"type":"Point"},"properties":{"osm_id":"6216400332","tag":{"amenity":"recycling","recycling_type":"container"}},"type":"Feature"},
	{"geometry":{"coordinates":[12.374682,51.373726],"type":"Point"},"properties":{"osm_id":"6216400333","tag":{"amenity":"recycling","recycling_type":"container"}},"type":"Feature"},
	{"geometry":{"coordinates":[12.374846,51.37514],"type":"Point"},"properties":{"osm_id":"6216400338","tag":{"amenity":"recycling","recycling_type":"container"}},"type":"Feature"},
	{"geometry":{"coordinates":[12.374236,51.375153],"type":"Point"},"properties":{"osm_id":"6216400339","tag":{"amenity":"recycling","recycling_type":"container"}},"type":"Feature"},
	{"geometry":{"coordinates":[12.3736,51.375172],"type":"Point"},"properties":{"osm_id":"6216400340","tag":{"amenity":"recycling","recycling_type":"container"}},"type":"Feature"},
	{"geometry":{"coordinates":[12.372975,51.37519],"type":"Point"},"properties":{"osm_id":"6216400341","tag":{"amenity":"recycling","recycling_type":"container"}},"type":"Feature"},
	{"geometry":{"coordinates":[12.361808,51.380247],"type":"Point"},"properties":{"osm_id":"6216400342","tag":{"amenity":"waste_disposal"}},"type":"Feature"},
	{"geometry":{"coordinates":[12.361473,51.38018],"type":"Point"},"properties":{"osm_id":"6216400343","tag":{"amenity":"waste_disposal"}},"type":"Feature"},
	{"geometry":{"coordinates":[12.36015,51.379995],"type":"Point"},"properties":{"osm_id":"6216400344","tag":{"amenity":"waste_disposal"}},"type":"Feature"},
	{"geometry":{"coordinates":[12.360464,51.380023],"type":"Point"},"properties":{"osm_id":"6216400345","tag":{"amenity":"waste_disposal"}},"type":"Feature"},
	{"geometry":{"coordinates":[12.359095,51.379941],"type":"Point"},"properties":{"osm_id":"6216400346","tag":{"amenity":"recycling","recycling_type":"container"}},"type":"Feature"},
	{"geometry":{"coordinates":[12.359952,51.380805],"type":"Point"},"properties":{"osm_id":"6216400347","tag":{"amenity":"waste_disposal"}},"type":"Feature"},
	{"geometry":{"coordinates":[12.361226,51.381104],"type":"Point"},"properties":{"osm_id":"6216400348","tag":{"amenity":"waste_disposal"}},"type":"Feature"},
	{"geometry":{"coordinates":[12.362482,51.381356],"type":"Point"},"properties":{"osm_id":"6216400352","tag":{"amenity":"waste_disposal"}},"type":"Feature"},
	{"geometry":{"coordinates":[12.363995,51.380548],"type":"Point"},"properties":{"osm_id":"6216400357","tag":{"amenity":"waste_disposal"}},"type":"Feature"},
	{"geometry":{"coordinates":[12.363501,51.380424],"type":"Point"},"properties":{"osm_id":"6216400364","tag":{"amenity":"waste_disposal"}},"type":"Feature"},
	{"geometry":{"coordinates":[12.36302,51.373547],"type":"Point"},"properties":{"osm_id":"6217214696","tag":{"amenity":"recycling","recycling_type":"container"}},"type":"Feature"},
	{"geometry":{"coordinates":[12.364231,51.373671],"type":"Point"},"properties":{"osm_id":"6217222008","tag":{"amenity":"recycling","recycling_type":"container"}},"type":"Feature"},
	{"geometry":{"coordinates":[12.367232,51.375446],"type":"Point"},"properties":{"osm_id":"6217222024","tag":{"amenity":"recycling","recycling_type":"container"}},"type":"Feature"},
	{"geometry":{"coordinates":[12.3685,51.375354],"type":"Point"},"properties":{"osm_id":"6217301877","tag":{"amenity":"recycling","recycling_type":"container"}},"type":"Feature"},
	{"geometry":{"coordinates":[12.360254,51.380919],"type":"Point"},"properties":{"osm_id":"6221419203","tag":{"amenity":"waste_disposal"}},"type":"Feature"},
	{"geometry":{"coordinates":[12.36348,51.379871],"type":"Point"},"properties":{"osm_id":"6221419207","tag":{"amenity":"waste_disposal"}},"type":"Feature"},
	{"geometry":{"coordinates":[12.376006,51.375094],"type":"Point"},"properties":{"osm_id":"6221454523","tag":{"amenity":"recycling","recycling_type":"container"}},"type":"Feature"},
	{"geometry":{"coordinates":[12.376366,51.374952],"type":"Point"},"properties":{"osm_id":"6221454524","tag":{"amenity":"recycling","recycling_type":"container"}},"type":"Feature"},
	{"geometry":{"coordinates":[12.377863,51.375586],"type":"Point"},"properties":{"osm_id":"6221454528","tag":{"amenity":"recycling","recycling:paper":"yes","recycling_type":"container"}},"type":"Feature"},
	{"geometry":{"coordinates":[12.364717,51.381537],"type":"Point"},"properties":{"osm_id":"6223497776","tag":{"amenity":"waste_disposal"}},"type":"Feature"},
	{"geometry":{"coordinates":[12.365077,51.380512],"type":"Point"},"properties":{"osm_id":"6223497777","tag":{"amenity":"waste_disposal"}},"type":"Feature"},
	{"geometry":{"coordinates":[12.36946,51.389017],"type":"Point"},"properties":{"osm_id":"6331398941","tag":{"amenity":"waste_disposal","waste":"glass"}},"type":"Feature"},
	{"geometry":{"coordinates":[12.391005,51.347985],"type":"Point"},"properties":{"osm_id":"6349057402","tag":{"amenity":"waste_basket"}},"type":"Feature"},
	{"geometry":{"coordinates":[12.354018,51.345356],"type":"Point"},"properties":{"osm_id":"6390896310","tag":{"amenity":"waste_basket"}},"type":"Feature"},
	{"geometry":{"coordinates":[12.386323,51.368017],"type":"Point"},"properties":{"osm_id":"6518234092","tag":{"amenity":"waste_basket"}},"type":"Feature"},
	{"geometry":{"coordinates":[12.371653,51.369019],"type":"Point"},"properties":{"osm_id":"6534429230","tag":{"amenity":"waste_basket"}},"type":"Feature"},
	{"geometry":{"coordinates":[12.361994,51.375386],"type":"Point"},"properties":{"osm_id":"6673442118","tag":{"amenity":"waste_basket"}},"type":"Feature"},
	{"geometry":{"coordinates":[12.353667,51.369897],"type":"Point"},"properties":{"osm_id":"6694074969","tag":{"amenity":"waste_basket"}},"type":"Feature"},
	{"geometry":{"coordinates":[12.353222,51.370043],"type":"Point"},"properties":{"osm_id":"6694078420","tag":{"amenity":"waste_basket"}},"type":"Feature"},
	{"geometry":{"coordinates":[12.354191,51.36972],"type":"Point"},"properties":{"osm_id":"6694361107","tag":{"amenity":"waste_basket"}},"type":"Feature"},
	{"geometry":{"coordinates":[12.353745,51.36973],"type":"Point"},"properties":{"osm_id":"6709308141","tag":{"amenity":"waste_basket"}},"type":"Feature"},
	{"geometry":{"coordinates":[12.367812,51.367148],"type":"Point"},"properties":{"osm_id":"6718198981","tag":{"amenity":"waste_basket"}},"type":"Feature"},
	{"geometry":{"coordinates":[12.367881,51.36725],"type":"Point"},"properties":{"osm_id":"6718209915","tag":{"amenity":"waste_basket"}},"type":"Feature"},
	{"geometry":{"coordinates":[12.385756,51.365115],"type":"Point"},"properties":{"osm_id":"6718216012","tag":{"amenity":"waste_basket"}},"type":"Feature"},
	{"geometry":{"coordinates":[12.363661,51.372103],"type":"Point"},"properties":{"osm_id":"6720801948","tag":{"amenity":"recycling","location":"overground","recycling:clothes":"yes","recycling:glass_brown":"yes","recycling:glass_green":"yes","recycling:glass_white":"yes","recycling_type":"container"}},"type":"Feature"},
	{"geometry":{"coordinates":[12.361368,51.374572],"type":"Point"},"properties":{"osm_id":"6720825814","tag":{"amenity":"recycling","location":"overground","recycling:clothes":"yes","recycling:glass_bottles":"yes","recycling:shoes":"yes","recycling_type":"container"}},"type":"Feature"},
	{"geometry":{"coordinates":[12.355946,51.377753],"type":"Point"},"properties":{"osm_id":"6767746646","tag":{"amenity":"recycling","recycling_type":"container"}},"type":"Feature"},
	{"geometry":{"coordinates":[12.354136,51.369627],"type":"Point"},"properties":{"osm_id":"6776162115","tag":{"amenity":"waste_basket"}},"type":"Feature"},
	{"geometry":{"coordinates":[12.365498,51.363149],"type":"Point"},"properties":{"osm_id":"6789713946","tag":{"amenity":"waste_basket"}},"type":"Feature"},
	{"geometry":{"coordinates":[12.384962,51.344969],"type":"Point"},"properties":{"osm_id":"6957570292","tag":{"amenity":"waste_basket"}},"type":"Feature"},
	{"geometry":{"coordinates":[12.385256,51.345121],"type":"Point"},"properties":{"osm_id":"6957575100","tag":{"amenity":"waste_basket"}},"type":"Feature"},
	{"geometry":{"coordinates":[12.319623,51.373253],"type":"Point"},"properties":{"osm_id":"7041622131","tag":{"amenity":"waste_basket"}},"type":"Feature"},
	{"geometry":{"coordinates":[12.315114,51.349028],"type":"Point"},"properties":{"osm_id":"7056661593","tag":{"amenity":"waste_basket"}},"type":"Feature"},
	{"geometry":{"coordinates":[12.316276,51.349319],"type":"Point"},"properties":{"osm_id":"7056661597","tag":{"amenity":"waste_basket"}},"type":"Feature"},
	{"geometry":{"coordinates":[12.379824,51.344581],"type":"Point"},"properties":{"osm_id":"7086482817","tag":{"amenity":"waste_basket","waste":"trash"}},"type":"Feature"},
	{"geometry":{"coordinates":[12.379807,51.344587],"type":"Point"},"properties":{"osm_id":"7086482818","tag":{"amenity":"waste_basket","waste":"trash"}},"type":"Feature"},
	{"geometry":{"coordinates":[12.38864,51.370815],"type":"Point"},"properties":{"osm_id":"7088027264","tag":{"amenity":"waste_basket","waste":"trash"}},"type":"Feature"},
	{"geometry":{"coordinates":[12.38832,51.371257],"type":"Point"},"properties":{"osm_id":"7088027277","tag":{"amenity":"waste_disposal"}},"type":"Feature"},
	{"geometry":{"coordinates":[12.388733,51.3709],"type":"Point"},"properties":{"osm_id":"7088046887","tag":{"amenity":"waste_basket","waste":"trash"}},"type":"Feature"},
	{"geometry":{"coordinates":[12.38839,51.371143],"type":"Point"},"properties":{"osm_id":"7088046888","tag":{"amenity":"waste_basket","waste":"trash"}},"type":"Feature"},
	{"geometry":{"coordinates":[12.382915,51.344702],"type":"Point"},"properties":{"osm_id":"7098775804","tag":{"amenity":"waste_basket","waste":"trash"}},"type":"Feature"},
	{"geometry":{"coordinates":[12.368313,51.347619],"type":"Point"},"properties":{"osm_id":"7101273672","tag":{"amenity":"waste_basket","waste":"trash"}},"type":"Feature"},
	{"geometry":{"coordinates":[12.36789,51.34843],"type":"Point"},"properties":{"osm_id":"7101273673","tag":{"amenity":"waste_basket","waste":"trash"}},"type":"Feature"},
	{"geometry":{"coordinates":[12.367939,51.348356],"type":"Point"},"properties":{"osm_id":"7101273675","tag":{"amenity":"waste_basket","waste":"trash"}},"type":"Feature"},
	{"geometry":{"coordinates":[12.367863,51.347932],"type":"Point"},"properties":{"osm_id":"7101273678","tag":{"amenity":"waste_basket","waste":"trash"}},"type":"Feature"},
	{"geometry":{"coordinates":[12.318567,51.344685],"type":"Point"},"properties":{"osm_id":"7142862345","tag":{"amenity":"waste_basket"}},"type":"Feature"},
	{"geometry":{"coordinates":[12.369169,51.348288],"type":"Point"},"properties":{"osm_id":"7195108589","tag":{"amenity":"waste_basket"}},"type":"Feature"},
	{"geometry":{"coordinates":[12.369426,51.34943],"type":"Point"},"properties":{"osm_id":"7213727885","tag":{"amenity":"waste_basket"}},"type":"Feature"},
	{"geometry":{"coordinates":[12.360892,51.367908],"type":"Point"},"properties":{"osm_id":"7486584363","tag":{"amenity":"waste_basket"}},"type":"Feature"},
	{"geometry":{"coordinates":[12.36036,51.367958],"type":"Point"},"properties":{"osm_id":"7486586010","tag":{"amenity":"waste_basket"}},"type":"Feature"},
	{"geometry":{"coordinates":[12.35142,51.366163],"type":"Point"},"properties":{"osm_id":"7511905844","tag":{"amenity":"waste_basket"}},"type":"Feature"},
	{"geometry":{"coordinates":[12.351748,51.366088],"type":"Point"},"properties":{"osm_id":"7511906065","tag":{"amenity":"waste_basket"}},"type":"Feature"},
	{"geometry":{"coordinates":[12.350904,51.366298],"type":"Point"},"properties":{"osm_id":"7511906903","tag":{"amenity":"waste_basket"}},"type":"Feature"},
	{"geometry":{"coordinates":[12.352347,51.366197],"type":"Point"},"properties":{"osm_id":"7511918452","tag":{"amenity":"waste_basket"}},"type":"Feature"},
	{"geometry":{"coordinates":[12.351139,51.366238],"type":"Point"},"properties":{"osm_id":"7511928303","tag":{"amenity":"waste_basket"}},"type":"Feature"},
	{"geometry":{"coordinates":[12.351895,51.366122],"type":"Point"},"properties":{"osm_id":"7511940894","tag":{"amenity":"waste_basket"}},"type":"Feature"},
	{"geometry":{"coordinates":[12.351545,51.366152],"type":"Point"},"properties":{"osm_id":"7511947312","tag":{"amenity":"waste_basket"}},"type":"Feature"},
	{"geometry":{"coordinates":[12.350884,51.366192],"type":"Point"},"properties":{"osm_id":"7511949386","tag":{"amenity":"waste_basket"}},"type":"Feature"},
	{"geometry":{"coordinates":[12.370204,51.365727],"type":"Point"},"properties":{"osm_id":"7541867017","tag":{"amenity":"waste_basket"}},"type":"Feature"},
	{"geometry":{"coordinates":[12.370385,51.365842],"type":"Point"},"properties":{"osm_id":"7541870698","tag":{"amenity":"waste_basket"}},"type":"Feature"},
	{"geometry":{"coordinates":[12.374523,51.383763],"type":"Point"},"properties":{"osm_id":"7588405610","tag":{"amenity":"waste_basket","waste":"trash"}},"type":"Feature"},
	{"geometry":{"coordinates":[12.375668,51.383353],"type":"Point"},"properties":{"osm_id":"7588453711","tag":{"amenity":"waste_basket","waste":"trash"}},"type":"Feature"},
	{"geometry":{"coordinates":[12.376551,51.383697],"type":"Point"},"properties":{"osm_id":"7588453713","tag":{"amenity":"waste_basket","waste":"trash"}},"type":"Feature"},
	{"geometry":{"coordinates":[12.323199,51.369642],"type":"Point"},"properties":{"osm_id":"7590086905","tag":{"amenity":"waste_basket"}},"type":"Feature"},
	{"geometry":{"coordinates":[12.323549,51.36974],"type":"Point"},"properties":{"osm_id":"7590086906","tag":{"amenity":"waste_basket"}},"type":"Feature"},
	{"geometry":{"coordinates":[12.375272,51.385506],"type":"Point"},"properties":{"osm_id":"7634629185","tag":{"amenity":"waste_basket","waste":"trash"}},"type":"Feature"},
	{"geometry":{"coordinates":[12.377778,51.3749],"type":"Point"},"properties":{"osm_id":"7638114391","tag":{"amenity":"recycling","location":"overground","recycling_type":"container"}},"type":"Feature"},
	{"geometry":{"coordinates":[12.348997,51.368542],"type":"Point"},"properties":{"osm_id":"7638524420","tag":{"amenity":"waste_basket"}},"type":"Feature"},
	{"geometry":{"coordinates":[12.34886,51.368554],"type":"Point"},"properties":{"osm_id":"7638529358","tag":{"amenity":"waste_basket"}},"type":"Feature"},
	{"geometry":{"coordinates":[12.348924,51.368303],"type":"Point"},"properties":{"osm_id":"7638545403","tag":{"amenity":"waste_basket"}},"type":"Feature"},
	{"geometry":{"coordinates":[12.348808,51.368314],"type":"Point"},"properties":{"osm_id":"7638553251","tag":{"amenity":"waste_basket"}},"type":"Feature"},
	{"geometry":{"coordinates":[12.375138,51.383126],"type":"Point"},"properties":{"osm_id":"7659212554","tag":{"amenity":"waste_basket","waste":"trash"}},"type":"Feature"},
	{"geometry":{"coordinates":[12.379485,51.382623],"type":"Point"},"properties":{"osm_id":"7663383639","tag":{"amenity":"waste_basket","waste":"dog_excrement"}},"type":"Feature"},
	{"geometry":{"coordinates":[12.377661,51.382743],"type":"Point"},"properties":{"osm_id":"7663383641","tag":{"amenity":"waste_basket","waste":"trash"}},"type":"Feature"},
	{"geometry":{"coordinates":[12.391193,51.345343],"type":"Point"},"properties":{"osm_id":"7664491131","tag":{"amenity":"waste_basket"}},"type":"Feature"},
	{"geometry":{"coordinates":[12.391334,51.345352],"type":"Point"},"properties":{"osm_id":"7664491132","tag":{"amenity":"waste_basket"}},"type":"Feature"},
	{"geometry":{"coordinates":[12.391118,51.345608],"type":"Point"},"properties":{"osm_id":"7664491133","tag":{"amenity":"waste_basket"}},"type":"Feature"},
	{"geometry":{"coordinates":[12.390954,51.345599],"type":"Point"},"properties":{"osm_id":"7664491134","tag":{"amenity":"waste_basket"}},"type":"Feature"},
	{"geometry":{"coordinates":[12.390898,51.345871],"type":"Point"},"properties":{"osm_id":"7664491135","tag":{"amenity":"waste_basket"}},"type":"Feature"},
	{"geometry":{"coordinates":[12.390727,51.345854],"type":"Point"},"properties":{"osm_id":"7664491136","tag":{"amenity":"waste_basket"}},"type":"Feature"},
	{"geometry":{"coordinates":[12.379665,51.382431],"type":"Point"},"properties":{"osm_id":"7700450076","tag":{"amenity":"waste_basket","waste":"trash"}},"type":"Feature"},
	{"geometry":{"coordinates":[12.350125,51.348773],"type":"Point"},"properties":{"osm_id":"7780146657","tag":{"amenity":"recycling","recycling:clothes":"yes","recycling:glass_bottles":"yes","recycling:shoes":"yes","recycling_type":"container"}},"type":"Feature"},
	{"geometry":{"coordinates":[12.350342,51.349675],"type":"Point"},"properties":{"osm_id":"7786724675","tag":{"amenity":"waste_basket","waste":"trash"}},"type":"Feature"},
	{"geometry":{"coordinates":[12.375067,51.392961],"type":"Point"},"properties":{"osm_id":"7952712384","tag":{"amenity":"waste_basket"}},"type":"Feature"}
]
}
