{
"type": "FeatureCollection",
"features": [
	{"geometry":{"coordinates":[12.379175,51.267129],"type":"Point"},"properties":{"barrier":"gate","osm_id":"259893930","tag":{"access":"customers","foot":"yes","motorcar":"yes","motorcycle":"yes"}},"type":"Feature"},
	{"geometry":{"coordinates":[12.380575,51.278495],"type":"Point"},"properties":{"osm_id":"391669294","tag":{"amenity":"recycling","recycling:clothes":"yes","recycling:glass":"yes","recycling_type":"container"}},"type":"Feature"},
	{"geometry":{"coordinates":[12.36275,51.287381],"type":"Point"},"properties":{"osm_id":"671733562","tag":{"amenity":"recycling","location":"overground","recycling_type":"container"}},"type":"Feature"},
	{"geometry":{"coordinates":[12.351782,51.268088],"type":"Point"},"properties":{"osm_id":"687018571","tag":{"amenity":"recycling"}},"type":"Feature"},
	{"geometry":{"coordinates":[12.370243,51.279223],"type":"Point"},"properties":{"osm_id":"700895513","tag":{"amenity":"recycling","location":"overground","recycling:glass":"yes","recycling_type":"container"}},"type":"Feature"},
	{"geometry":{"coordinates":[12.33679,51.285194],"type":"Point"},"properties":{"osm_id":"1104744732","tag":{"amenity":"waste_basket","dogshit":"yes"}},"type":"Feature"},
	{"geometry":{"coordinates":[12.351453,51.282713],"type":"Point"},"properties":{"osm_id":"1142258309","tag":{"amenity":"waste_basket"}},"type":"Feature"},
	{"geometry":{"coordinates":[12.35112,51.282665],"type":"Point"},"properties":{"osm_id":"1142258874","tag":{"amenity":"waste_basket"}},"type":"Feature"},
	{"geometry":{"coordinates":[12.348351,51.271409],"type":"Point"},"properties":{"osm_id":"1258166833","tag":{"amenity":"waste_basket"}},"type":"Feature"},
	{"geometry":{"coordinates":[12.369855,51.265402],"type":"Point"},"properties":{"osm_id":"1314247057","tag":{"access":"private","amenity":"waste_disposal"}},"type":"Feature"},
	{"geometry":{"coordinates":[12.370301,51.26517],"type":"Point"},"properties":{"osm_id":"1314247058","tag":{"access":"private","amenity":"waste_disposal"}},"type":"Feature"},
	{"geometry":{"coordinates":[12.370224,51.26521],"type":"Point"},"properties":{"osm_id":"1314247059","tag":{"access":"private","amenity":"waste_disposal"}},"type":"Feature"},
	{"geometry":{"coordinates":[12.37132,51.265247],"type":"Point"},"properties":{"osm_id":"1314247063","tag":{"access":"private","amenity":"waste_disposal"}},"type":"Feature"},
	{"geometry":{"coordinates":[12.371051,51.265054],"type":"Point"},"properties":{"osm_id":"1314247064","tag":{"access":"private","amenity":"waste_disposal"}},"type":"Feature"},
	{"geometry":{"coordinates":[12.371211,51.265118],"type":"Point"},"properties":{"osm_id":"1314247065","tag":{"access":"private","amenity":"waste_disposal"}},"type":"Feature"},
	{"geometry":{"coordinates":[12.369537,51.265561],"type":"Point"},"properties":{"osm_id":"1314247130","tag":{"access":"private","amenity":"waste_disposal"}},"type":"Feature"},
	{"geometry":{"coordinates":[12.369977,51.266164],"type":"Point"},"properties":{"osm_id":"1314247151","tag":{"access":"private","amenity":"waste_disposal"}},"type":"Feature"},
	{"geometry":{"coordinates":[12.370376,51.266122],"type":"Point"},"properties":{"osm_id":"1314247152","tag":{"access":"private","amenity":"waste_disposal"}},"type":"Feature"},
	{"geometry":{"coordinates":[12.370605,51.266098],"type":"Point"},"properties":{"osm_id":"1314247153","tag":{"access":"private","amenity":"waste_disposal"}},"type":"Feature"},
	{"geometry":{"coordinates":[12.371056,51.266054],"type":"Point"},"properties":{"osm_id":"1314247154","tag":{"access":"private","amenity":"waste_disposal"}},"type":"Feature"},
	{"geometry":{"coordinates":[12.371487,51.266017],"type":"Point"},"properties":{"osm_id":"1314247162","tag":{"access":"private","amenity":"waste_disposal"}},"type":"Feature"},
	{"geometry":{"coordinates":[12.371579,51.265618],"type":"Point"},"properties":{"osm_id":"1314247163","tag":{"access":"private","amenity":"waste_disposal"}},"type":"Feature"},
	{"geometry":{"coordinates":[12.371528,51.265533],"type":"Point"},"properties":{"osm_id":"1314247164","tag":{"access":"private","amenity":"waste_disposal"}},"type":"Feature"},
	{"geometry":{"coordinates":[12.373833,51.265205],"type":"Point"},"properties":{"osm_id":"1314247481","tag":{"access":"private","amenity":"waste_disposal"}},"type":"Feature"},
	{"geometry":{"coordinates":[12.373875,51.265045],"type":"Point"},"properties":{"osm_id":"1314247482","tag":{"access":"private","amenity":"waste_disposal"}},"type":"Feature"},
	{"geometry":{"coordinates":[12.372642,51.266143],"type":"Point"},"properties":{"osm_id":"1314247581","tag":{"access":"private","amenity":"waste_disposal"}},"type":"Feature"},
	{"geometry":{"coordinates":[12.373042,51.266838],"type":"Point"},"properties":{"osm_id":"1314247582","tag":{"access":"private","amenity":"waste_disposal"}},"type":"Feature"},
	{"geometry":{"coordinates":[12.372599,51.266807],"type":"Point"},"properties":{"osm_id":"1314247583","tag":{"access":"private","amenity":"waste_disposal"}},"type":"Feature"},
	{"geometry":{"coordinates":[12.371975,51.266764],"type":"Point"},"properties":{"osm_id":"1315100927","tag":{"access":"private","amenity":"waste_disposal"}},"type":"Feature"},
	{"geometry":{"coordinates":[12.371572,51.266747],"type":"Point"},"properties":{"osm_id":"1315100929","tag":{"access":"private","amenity":"waste_disposal"}},"type":"Feature"},
	{"geometry":{"coordinates":[12.371193,51.266724],"type":"Point"},"properties":{"osm_id":"1315100938","tag":{"access":"private","amenity":"waste_disposal"}},"type":"Feature"},
	{"geometry":{"coordinates":[12.370885,51.266675],"type":"Point"},"properties":{"osm_id":"1315100941","tag":{"access":"private","amenity":"waste_disposal"}},"type":"Feature"},
	{"geometry":{"coordinates":[12.37031,51.266638],"type":"Point"},"properties":{"osm_id":"1315100943","tag":{"access":"private","amenity":"waste_disposal"}},"type":"Feature"},
	{"geometry":{"coordinates":[12.371026,51.267243],"type":"Point"},"properties":{"osm_id":"1315101419","tag":{"access":"private","amenity":"waste_disposal"}},"type":"Feature"},
	{"geometry":{"coordinates":[12.371624,51.267295],"type":"Point"},"properties":{"osm_id":"1315101421","tag":{"access":"private","amenity":"waste_disposal"}},"type":"Feature"},
	{"geometry":{"coordinates":[12.376769,51.250696],"type":"Point"},"properties":{"osm_id":"1489548092","tag":{"amenity":"recycling","recycling:clothes":"yes","recycling_type":"container"}},"type":"Feature"},
	{"geometry":{"coordinates":[12.361854,51.288959],"type":"Point"},"properties":{"barrier":"entrance","osm_id":"1783414248"},"type":"Feature"},
	{"geometry":{"coordinates":[12.362488,51.288135],"type":"Point"},"properties":{"barrier":"entrance","osm_id":"1783414254"},"type":"Feature"},
	{"geometry":{"coordinates":[12.362988,51.289267],"type":"Point"},"properties":{"barrier":"entrance","osm_id":"1783414259"},"type":"Feature"},
	{"geometry":{"coordinates":[12.36182,51.289211],"type":"Point"},"properties":{"barrier":"entrance","osm_id":"1783414332"},"type":"Feature"},
	{"geometry":{"coordinates":[12.364278,51.271108],"type":"Point"},"properties":{"osm_id":"1800789634","tag":{"access":"unknown","amenity":"recycling"}},"type":"Feature"},
	{"geometry":{"coordinates":[12.363738,51.289115],"type":"Point"},"properties":{"osm_id":"1815417620","tag":{"access":"private","amenity":"recycling"}},"type":"Feature"},
	{"geometry":{"coordinates":[12.370255,51.264164],"type":"Point"},"properties":{"osm_id":"1871066620","tag":{"amenity":"recycling","recycling:glass":"yes","recycling_type":"container"}},"type":"Feature"},
	{"geometry":{"coordinates":[12.313661,51.285132],"type":"Point"},"properties":{"osm_id":"2073488227","tag":{"amenity":"recycling","location":"overground","recycling:glass":"yes","recycling_type":"container"}},"type":"Feature"},
	{"geometry":{"coordinates":[12.378058,51.281082],"type":"Point"},"properties":{"osm_id":"2402881407","tag":{"amenity":"waste_basket"}},"type":"Feature"},
	{"geometry":{"coordinates":[12.377655,51.281158],"type":"Point"},"properties":{"osm_id":"2402881414","tag":{"amenity":"waste_basket"}},"type":"Feature"},
	{"geometry":{"coordinates":[12.384928,51.283628],"type":"Point"},"properties":{"osm_id":"2402881426","tag":{"amenity":"waste_basket"}},"type":"Feature"},
	{"geometry":{"coordinates":[12.309552,51.28051],"type":"Point"},"properties":{"osm_id":"2774994591","tag":{"amenity":"recycling","recycling:glass":"yes"}},"type":"Feature"},
	{"geometry":{"coordinates":[12.376072,51.279603],"type":"Point"},"properties":{"osm_id":"2786920370","tag":{"access":"private","amenity":"waste_disposal"}},"type":"Feature"},
	{"geometry":{"coordinates":[12.364185,51.28144],"type":"Point"},"properties":{"osm_id":"2793869918","tag":{"amenity":"waste_basket"}},"type":"Feature"},
	{"geometry":{"coordinates":[12.37189,51.274611],"type":"Point"},"properties":{"osm_id":"2852079143","tag":{"access":"private","amenity":"recycling","recycling:glass":"yes","recycling:paper":"yes","recycling_type":"container"}},"type":"Feature"},
	{"geometry":{"coordinates":[12.370868,51.275034],"type":"Point"},"properties":{"osm_id":"2852079144","tag":{"access":"private","amenity":"recycling","recycling:glass":"yes","recycling:paper":"yes","recycling_type":"container"}},"type":"Feature"},
	{"geometry":{"coordinates":[12.370779,51.275513],"type":"Point"},"properties":{"osm_id":"2852079151","tag":{"access":"private","amenity":"recycling","recycling:glass":"yes","recycling:paper":"yes","recycling_type":"container"}},"type":"Feature"},
	{"geometry":{"coordinates":[12.371871,51.275812],"type":"Point"},"properties":{"osm_id":"2852079160","tag":{"access":"private","amenity":"recycling","recycling:glass":"yes","recycling:paper":"yes","recycling_type":"container"}},"type":"Feature"},
	{"geometry":{"coordinates":[12.372194,51.275992],"type":"Point"},"properties":{"osm_id":"2852079175","tag":{"access":"private","amenity":"recycling","recycling:glass":"yes","recycling:paper":"yes","recycling_type":"container"}},"type":"Feature"},
	{"geometry":{"coordinates":[12.372178,51.275994],"type":"Point"},"properties":{"osm_id":"2852079176","tag":{"access":"private","amenity":"recycling","recycling:glass":"yes","recycling:paper":"yes","recycling_type":"container"}},"type":"Feature"},
	{"geometry":{"coordinates":[12.371149,51.276132],"type":"Point"},"properties":{"osm_id":"2852079191","tag":{"access":"private","amenity":"recycling","recycling:glass":"yes","recycling:paper":"yes","recycling_type":"container"}},"type":"Feature"},
	{"geometry":{"coordinates":[12.371079,51.276262],"type":"Point"},"properties":{"osm_id":"2852079197","tag":{"access":"private","amenity":"recycling","recycling:glass":"yes","recycling:paper":"yes","recycling_type":"container"}},"type":"Feature"},
	{"geometry":{"coordinates":[12.370119,51.276282],"type":"Point"},"properties":{"osm_id":"2852079198","tag":{"access":"private","amenity":"recycling","recycling:glass":"yes","recycling:paper":"yes","recycling_type":"container"}},"type":"Feature"},
	{"geometry":{"coordinates":[12.356058,51.267105],"type":"Point"},"properties":{"osm_id":"2865796424","tag":{"access":"private","amenity":"recycling","recycling:glass":"yes","recycling:paper":"yes"}},"type":"Feature"},
	{"geometry":{"coordinates":[12.308117,51.272813],"type":"Point"},"properties":{"osm_id":"2921720720","tag":{"amenity":"recycling","location":"overground","recycling:glass":"yes","recycling_type":"container"}},"type":"Feature"},
	{"geometry":{"coordinates":[12.372793,51.265045],"type":"Point"},"properties":{"osm_id":"3277702129","tag":{"access":"private","amenity":"waste_disposal"}},"type":"Feature"},
	{"geometry":{"coordinates":[12.37182,51.265281],"type":"Point"},"properties":{"osm_id":"3277702155","tag":{"access":"private","amenity":"waste_disposal"}},"type":"Feature"},
	{"geometry":{"coordinates":[12.372194,51.265311],"type":"Point"},"properties":{"osm_id":"3277702165","tag":{"access":"private","amenity":"waste_disposal"}},"type":"Feature"},
	{"geometry":{"coordinates":[12.372908,51.265369],"type":"Point"},"properties":{"osm_id":"3277702168","tag":{"access":"private","amenity":"waste_disposal"}},"type":"Feature"},
	{"geometry":{"coordinates":[12.371916,51.265616],"type":"Point"},"properties":{"osm_id":"3277702169","tag":{"access":"private","amenity":"waste_disposal"}},"type":"Feature"},
	{"geometry":{"coordinates":[12.370674,51.264853],"type":"Point"},"properties":{"osm_id":"3277732478","tag":{"access":"private","amenity":"waste_disposal"}},"type":"Feature"},
	{"geometry":{"coordinates":[12.377442,51.264209],"type":"Point"},"properties":{"osm_id":"3279444487","tag":{"access":"private","amenity":"waste_disposal"}},"type":"Feature"},
	{"geometry":{"coordinates":[12.377418,51.264327],"type":"Point"},"properties":{"osm_id":"3279444505","tag":{"access":"private","amenity":"waste_disposal"}},"type":"Feature"},
	{"geometry":{"coordinates":[12.378128,51.267818],"type":"Point"},"properties":{"osm_id":"3279896653","tag":{"access":"private","amenity":"waste_disposal"}},"type":"Feature"},
	{"geometry":{"coordinates":[12.379147,51.268087],"type":"Point"},"properties":{"barrier":"gate","osm_id":"3279896961","tag":{"access":"customers","foot":"yes","motorcar":"yes","motorcycle":"yes"}},"type":"Feature"},
	{"geometry":{"coordinates":[12.362023,51.270399],"type":"Point"},"properties":{"osm_id":"3286023735","tag":{"amenity":"recycling"}},"type":"Feature"},
	{"geometry":{"coordinates":[12.361432,51.270835],"type":"Point"},"properties":{"osm_id":"3290615609","tag":{"access":"private","amenity":"waste_disposal"}},"type":"Feature"},
	{"geometry":{"coordinates":[12.361024,51.27089],"type":"Point"},"properties":{"osm_id":"3290615622","tag":{"access":"private","amenity":"waste_disposal"}},"type":"Feature"},
	{"geometry":{"coordinates":[12.360622,51.270899],"type":"Point"},"properties":{"osm_id":"3290615626","tag":{"access":"private","amenity":"waste_disposal"}},"type":"Feature"},
	{"geometry":{"coordinates":[12.360396,51.270901],"type":"Point"},"properties":{"osm_id":"3290615628","tag":{"access":"private","amenity":"waste_disposal"}},"type":"Feature"},
	{"geometry":{"coordinates":[12.35999,51.270908],"type":"Point"},"properties":{"osm_id":"3290615632","tag":{"access":"private","amenity":"waste_disposal"}},"type":"Feature"},
	{"geometry":{"coordinates":[12.359747,51.270911],"type":"Point"},"properties":{"osm_id":"3290615634","tag":{"access":"private","amenity":"waste_disposal"}},"type":"Feature"},
	{"geometry":{"coordinates":[12.354985,51.27143],"type":"Point"},"properties":{"osm_id":"3292693758","tag":{"access":"private","amenity":"waste_disposal"}},"type":"Feature"},
	{"geometry":{"coordinates":[12.35621,51.272222],"type":"Point"},"properties":{"osm_id":"3292693894","tag":{"access":"private","amenity":"waste_disposal"}},"type":"Feature"},
	{"geometry":{"coordinates":[12.35731,51.270059],"type":"Point"},"properties":{"osm_id":"3294409746","tag":{"amenity":"recycling","recycling:glass":"yes","recycling:paper":"yes","recycling_type":"container"}},"type":"Feature"},
	{"geometry":{"coordinates":[12.36064,51.275742],"type":"Point"},"properties":{"osm_id":"3324145585","tag":{"access":"private","amenity":"waste_disposal"}},"type":"Feature"},
	{"geometry":{"coordinates":[12.35076,51.267171],"type":"Point"},"properties":{"osm_id":"3325311378","tag":{"amenity":"recycling","recycling:glass":"yes","recycling:paper":"yes","recycling_type":"container"}},"type":"Feature"},
	{"geometry":{"coordinates":[12.346504,51.265713],"type":"Point"},"properties":{"osm_id":"3325376480","tag":{"access":"private","amenity":"waste_disposal"}},"type":"Feature"},
	{"geometry":{"coordinates":[12.346734,51.265895],"type":"Point"},"properties":{"osm_id":"3325376484","tag":{"access":"private","amenity":"waste_disposal"}},"type":"Feature"},
	{"geometry":{"coordinates":[12.347052,51.26596],"type":"Point"},"properties":{"osm_id":"3325376487","tag":{"access":"private","amenity":"waste_disposal"}},"type":"Feature"},
	{"geometry":{"coordinates":[12.347044,51.266134],"type":"Point"},"properties":{"osm_id":"3325376493","tag":{"access":"private","amenity":"waste_disposal"}},"type":"Feature"},
	{"geometry":{"coordinates":[12.347402,51.266228],"type":"Point"},"properties":{"osm_id":"3325376495","tag":{"access":"private","amenity":"waste_disposal"}},"type":"Feature"},
	{"geometry":{"coordinates":[12.347345,51.266356],"type":"Point"},"properties":{"osm_id":"3325376500","tag":{"access":"private","amenity":"waste_disposal"}},"type":"Feature"},
	{"geometry":{"coordinates":[12.347621,51.26656],"type":"Point"},"properties":{"osm_id":"3325376504","tag":{"access":"private","amenity":"waste_disposal"}},"type":"Feature"},
	{"geometry":{"coordinates":[12.348034,51.266855],"type":"Point"},"properties":{"osm_id":"3325376508","tag":{"access":"private","amenity":"waste_disposal"}},"type":"Feature"},
	{"geometry":{"coordinates":[12.348045,51.266961],"type":"Point"},"properties":{"osm_id":"3325376510","tag":{"access":"private","amenity":"waste_disposal"}},"type":"Feature"},
	{"geometry":{"coordinates":[12.368547,51.265769],"type":"Point"},"properties":{"osm_id":"3327682624","tag":{"access":"private","amenity":"waste_disposal"}},"type":"Feature"},
	{"geometry":{"coordinates":[12.36926,51.266235],"type":"Point"},"properties":{"osm_id":"3327682640","tag":{"access":"private","amenity":"waste_disposal"}},"type":"Feature"},
	{"geometry":{"coordinates":[12.367974,51.263694],"type":"Point"},"properties":{"osm_id":"3328865713","tag":{"access":"private","amenity":"waste_disposal"}},"type":"Feature"},
	{"geometry":{"coordinates":[12.367974,51.263732],"type":"Point"},"properties":{"osm_id":"3328865716","tag":{"access":"private","amenity":"waste_disposal"}},"type":"Feature"},
	{"geometry":{"coordinates":[12.372929,51.266821],"type":"Point"},"properties":{"osm_id":"3338762928","tag":{"access":"private","amenity":"waste_disposal"}},"type":"Feature"},
	{"geometry":{"coordinates":[12.372921,51.281026],"type":"Point"},"properties":{"osm_id":"3363148170","tag":{"access":"private","amenity":"waste_disposal"}},"type":"Feature"},
	{"geometry":{"coordinates":[12.370568,51.285592],"type":"Point"},"properties":{"osm_id":"3383659626","tag":{"access":"private","amenity":"waste_disposal"}},"type":"Feature"},
	{"geometry":{"coordinates":[12.367206,51.284986],"type":"Point"},"properties":{"osm_id":"3385133755","tag":{"access":"private","amenity":"waste_disposal"}},"type":"Feature"},
	{"geometry":{"coordinates":[12.368574,51.285083],"type":"Point"},"properties":{"osm_id":"3385133761","tag":{"access":"private","amenity":"waste_disposal"}},"type":"Feature"},
	{"geometry":{"coordinates":[12.368688,51.285496],"type":"Point"},"properties":{"osm_id":"3385135297","tag":{"access":"private","amenity":"waste_disposal"}},"type":"Feature"},
	{"geometry":{"coordinates":[12.367855,51.285808],"type":"Point"},"properties":{"osm_id":"3385135347","tag":{"access":"private","amenity":"waste_disposal"}},"type":"Feature"},
	{"geometry":{"coordinates":[12.366564,51.27393],"type":"Point"},"properties":{"osm_id":"3391706745","tag":{"access":"private","amenity":"waste_disposal"}},"type":"Feature"},
	{"geometry":{"coordinates":[12.369155,51.274394],"type":"Point"},"properties":{"osm_id":"3391706776","tag":{"access":"private","amenity":"waste_disposal"}},"type":"Feature"},
	{"geometry":{"coordinates":[12.363724,51.275124],"type":"Point"},"properties":{"osm_id":"3391707763","tag":{"access":"private","amenity":"waste_disposal"}},"type":"Feature"},
	{"geometry":{"coordinates":[12.379858,51.250052],"type":"Point"},"properties":{"osm_id":"3415503593","tag":{"amenity":"recycling","recycling:clothes":"yes","recycling_type":"container"}},"type":"Feature"},
	{"geometry":{"coordinates":[12.368319,51.279618],"type":"Point"},"properties":{"osm_id":"3472844296","tag":{"access":"private","amenity":"waste_disposal"}},"type":"Feature"},
	{"geometry":{"coordinates":[12.367653,51.280275],"type":"Point"},"properties":{"osm_id":"3472844307","tag":{"access":"private","amenity":"waste_disposal"}},"type":"Feature"},
	{"geometry":{"coordinates":[12.367471,51.280433],"type":"Point"},"properties":{"osm_id":"3472844313","tag":{"access":"private","amenity":"waste_disposal"}},"type":"Feature"},
	{"geometry":{"coordinates":[12.365097,51.282777],"type":"Point"},"properties":{"osm_id":"3472844354","tag":{"access":"private","amenity":"waste_disposal"}},"type":"Feature"},
	{"geometry":{"coordinates":[12.364923,51.282847],"type":"Point"},"properties":{"osm_id":"3472844365","tag":{"access":"private","amenity":"waste_disposal"}},"type":"Feature"},
	{"geometry":{"coordinates":[12.36553,51.282894],"type":"Point"},"properties":{"osm_id":"3472844378","tag":{"access":"private","amenity":"waste_disposal"}},"type":"Feature"},
	{"geometry":{"coordinates":[12.366545,51.279464],"type":"Point"},"properties":{"osm_id":"3501997473","tag":{"access":"private","amenity":"waste_disposal"}},"type":"Feature"},
	{"geometry":{"coordinates":[12.366755,51.280557],"type":"Point"},"properties":{"osm_id":"3501999501","tag":{"access":"private","amenity":"waste_disposal"}},"type":"Feature"},
	{"geometry":{"coordinates":[12.366031,51.281937],"type":"Point"},"properties":{"osm_id":"3501999525","tag":{"access":"private","amenity":"waste_disposal"}},"type":"Feature"},
	{"geometry":{"coordinates":[12.360705,51.279546],"type":"Point"},"properties":{"osm_id":"3502015236","tag":{"access":"private","amenity":"waste_disposal"}},"type":"Feature"},
	{"geometry":{"coordinates":[12.339294,51.249319],"type":"Point"},"properties":{"osm_id":"3604017449","tag":{"amenity":"waste_basket"}},"type":"Feature"},
	{"geometry":{"coordinates":[12.324081,51.255106],"type":"Point"},"properties":{"osm_id":"3604017465","tag":{"amenity":"waste_basket"}},"type":"Feature"},
	{"geometry":{"coordinates":[12.324093,51.25507],"type":"Point"},"properties":{"osm_id":"3614581548","tag":{"amenity":"waste_basket"}},"type":"Feature"},
	{"geometry":{"coordinates":[12.380516,51.278599],"type":"Point"},"properties":{"osm_id":"4202784059","tag":{"amenity":"waste_basket"}},"type":"Feature"},
	{"geometry":{"coordinates":[12.335564,51.284392],"type":"Point"},"properties":{"osm_id":"4213586697","tag":{"amenity":"waste_disposal"}},"type":"Feature"},
	{"geometry":{"coordinates":[12.379416,51.279478],"type":"Point"},"properties":{"osm_id":"4244893221","tag":{"amenity":"recycling","recycling:glass_bottles":"yes","recycling:paper":"yes","recycling_type":"container"}},"type":"Feature"},
	{"geometry":{"coordinates":[12.381183,51.282395],"type":"Point"},"properties":{"osm_id":"4334420868","tag":{"amenity":"waste_basket"}},"type":"Feature"},
	{"geometry":{"coordinates":[12.345698,51.266967],"type":"Point"},"properties":{"osm_id":"4663840354","tag":{"amenity":"waste_basket"}},"type":"Feature"},
	{"geometry":{"coordinates":[12.345634,51.266884],"type":"Point"},"properties":{"osm_id":"4663840355","tag":{"amenity":"waste_basket"}},"type":"Feature"},
	{"geometry":{"coordinates":[12.346421,51.267602],"type":"Point"},"properties":{"osm_id":"4663840361","tag":{"amenity":"waste_basket"}},"type":"Feature"},
	{"geometry":{"coordinates":[12.347103,51.268607],"type":"Point"},"properties":{"osm_id":"4663840362","tag":{"amenity":"waste_basket"}},"type":"Feature"},
	{"geometry":{"coordinates":[12.348978,51.272157],"type":"Point"},"properties":{"osm_id":"4663840366","tag":{"amenity":"waste_basket"}},"type":"Feature"},
	{"geometry":{"coordinates":[12.349147,51.274458],"type":"Point"},"properties":{"osm_id":"4663840367","tag":{"amenity":"waste_basket"}},"type":"Feature"},
	{"geometry":{"coordinates":[12.349168,51.274472],"type":"Point"},"properties":{"osm_id":"4663840368","tag":{"amenity":"waste_basket"}},"type":"Feature"},
	{"geometry":{"coordinates":[12.348349,51.274837],"type":"Point"},"properties":{"osm_id":"4663840369","tag":{"amenity":"waste_basket"}},"type":"Feature"},
	{"geometry":{"coordinates":[12.348768,51.274659],"type":"Point"},"properties":{"osm_id":"4663840370","tag":{"amenity":"waste_basket"}},"type":"Feature"},
	{"geometry":{"coordinates":[12.349008,51.275802],"type":"Point"},"properties":{"osm_id":"4663840373","tag":{"amenity":"waste_basket"}},"type":"Feature"},
	{"geometry":{"coordinates":[12.35041,51.278359],"type":"Point"},"properties":{"osm_id":"4663840374","tag":{"amenity":"waste_basket"}},"type":"Feature"},
	{"geometry":{"coordinates":[12.350438,51.278414],"type":"Point"},"properties":{"osm_id":"4663840375","tag":{"amenity":"waste_basket"}},"type":"Feature"},
	{"geometry":{"coordinates":[12.327742,51.276454],"type":"Point"},"properties":{"osm_id":"4663840382","tag":{"amenity":"waste_basket"}},"type":"Feature"},
	{"geometry":{"coordinates":[12.325587,51.27377],"type":"Point"},"properties":{"osm_id":"4663840383","tag":{"amenity":"waste_basket"}},"type":"Feature"},
	{"geometry":{"coordinates":[12.345148,51.26637],"type":"Point"},"properties":{"osm_id":"4664225219","tag":{"amenity":"waste_basket"}},"type":"Feature"},
	{"geometry":{"coordinates":[12.337524,51.259368],"type":"Point"},"properties":{"osm_id":"4664238925","tag":{"amenity":"waste_basket"}},"type":"Feature"},
	{"geometry":{"coordinates":[12.339606,51.260021],"type":"Point"},"properties":{"osm_id":"4664238926","tag":{"amenity":"waste_basket"}},"type":"Feature"},
	{"geometry":{"coordinates":[12.341352,51.260586],"type":"Point"},"properties":{"osm_id":"4664238928","tag":{"amenity":"waste_basket"}},"type":"Feature"},
	{"geometry":{"coordinates":[12.344773,51.265626],"type":"Point"},"properties":{"osm_id":"4664238931","tag":{"amenity":"waste_basket"}},"type":"Feature"},
	{"geometry":{"coordinates":[12.344905,51.265759],"type":"Point"},"properties":{"osm_id":"4664238933","tag":{"amenity":"waste_basket"}},"type":"Feature"},
	{"geometry":{"coordinates":[12.339355,51.251375],"type":"Point"},"properties":{"osm_id":"4664248202","tag":{"amenity":"waste_basket"}},"type":"Feature"},
	{"geometry":{"coordinates":[12.339548,51.253029],"type":"Point"},"properties":{"osm_id":"4664248203","tag":{"amenity":"waste_basket"}},"type":"Feature"},
	{"geometry":{"coordinates":[12.33821,51.25551],"type":"Point"},"properties":{"osm_id":"4664248204","tag":{"amenity":"waste_basket"}},"type":"Feature"},
	{"geometry":{"coordinates":[12.338059,51.257109],"type":"Point"},"properties":{"osm_id":"4664248205","tag":{"amenity":"waste_basket"}},"type":"Feature"},
	{"geometry":{"coordinates":[12.379207,51.282916],"type":"Point"},"properties":{"osm_id":"4794818333","tag":{"amenity":"waste_basket"}},"type":"Feature"},
	{"geometry":{"coordinates":[12.378439,51.285667],"type":"Point"},"properties":{"osm_id":"4794831324","tag":{"amenity":"waste_basket"}},"type":"Feature"},
	{"geometry":{"coordinates":[12.37817,51.282418],"type":"Point"},"properties":{"osm_id":"4794831428","tag":{"amenity":"waste_basket"}},"type":"Feature"},
	{"geometry":{"coordinates":[12.37873,51.285492],"type":"Point"},"properties":{"osm_id":"4794831626","tag":{"amenity":"waste_basket"}},"type":"Feature"},
	{"geometry":{"coordinates":[12.376724,51.283376],"type":"Point"},"properties":{"osm_id":"4794831633","tag":{"amenity":"waste_basket"}},"type":"Feature"},
	{"geometry":{"coordinates":[12.378341,51.283853],"type":"Point"},"properties":{"osm_id":"4794831725","tag":{"amenity":"waste_basket"}},"type":"Feature"},
	{"geometry":{"coordinates":[12.379165,51.284958],"type":"Point"},"properties":{"osm_id":"4794832023","tag":{"amenity":"waste_basket"}},"type":"Feature"},
	{"geometry":{"coordinates":[12.375666,51.28474],"type":"Point"},"properties":{"osm_id":"4794834221","tag":{"amenity":"waste_basket"}},"type":"Feature"},
	{"geometry":{"coordinates":[12.375805,51.284739],"type":"Point"},"properties":{"osm_id":"4794834321","tag":{"amenity":"waste_basket"}},"type":"Feature"},
	{"geometry":{"coordinates":[12.376386,51.285194],"type":"Point"},"properties":{"osm_id":"4794834521","tag":{"amenity":"waste_basket"}},"type":"Feature"},
	{"geometry":{"coordinates":[12.378042,51.285545],"type":"Point"},"properties":{"osm_id":"4794964495","tag":{"amenity":"waste_basket"}},"type":"Feature"},
	{"geometry":{"coordinates":[12.379641,51.284428],"type":"Point"},"properties":{"osm_id":"4794964921","tag":{"amenity":"waste_basket"}},"type":"Feature"},
	{"geometry":{"coordinates":[12.354563,51.255774],"type":"Point"},"properties":{"osm_id":"5173741244","tag":{"amenity":"waste_basket"}},"type":"Feature"},
	{"geometry":{"coordinates":[12.33131,51.234585],"type":"Point"},"properties":{"osm_id":"5615468852","tag":{"amenity":"waste_basket"}},"type":"Feature"},
	{"geometry":{"coordinates":[12.389853,51.27674],"type":"Point"},"properties":{"osm_id":"5688907035","tag":{"amenity":"waste_basket"}},"type":"Feature"},
	{"geometry":{"coordinates":[12.368033,51.272317],"type":"Point"},"properties":{"osm_id":"6499544412","tag":{"amenity":"recycling","recycling:glass":"yes","recycling_type":"container"}},"type":"Feature"},
	{"geometry":{"coordinates":[12.316933,51.25221],"type":"Point"},"properties":{"osm_id":"6501125876","tag":{"amenity":"waste_basket"}},"type":"Feature"},
	{"geometry":{"coordinates":[12.316197,51.254454],"type":"Point"},"properties":{"osm_id":"6901906411","tag":{"amenity":"waste_basket","waste":"trash"}},"type":"Feature"},
	{"geometry":{"coordinates":[12.376475,51.283421],"type":"Point"},"properties":{"osm_id":"7551430086","tag":{"amenity":"waste_basket"}},"type":"Feature"},
	{"geometry":{"coordinates":[12.387119,51.238982],"type":"Point"},"properties":{"osm_id":"7557049737","tag":{"amenity":"waste_basket"}},"type":"Feature"},
	{"geometry":{"coordinates":[12.386893,51.238928],"type":"Point"},"properties":{"osm_id":"7557049738","tag":{"amenity":"recycling","recycling:clothes":"yes","recycling:glass":"yes","recycling_type":"container"}},"type":"Feature"},
	{"geometry":{"coordinates":[12.364427,51.274607],"type":"Point"},"properties":{"osm_id":"7671793951","tag":{"amenity":"waste_disposal"}},"type":"Feature"},
	{"geometry":{"coordinates":[12.379057,51.259053],"type":"Point"},"properties":{"osm_id":"7791706418","tag":{"amenity":"recycling","recycling:clothes":"yes","recycling_type":"container"}},"type":"Feature"},
	{"geometry":{"coordinates":[12.344979,51.26216],"type":"Point"},"properties":{"osm_id":"7926154442","tag":{"amenity":"waste_basket"}},"type":"Feature"}
]
}
