{
"type": "FeatureCollection",
"features": [
	{"geometry":{"coordinates":[12.332053,51.217338],"type":"Point"},"properties":{"osm_id":"301490015","tag":{"amenity":"recycling","recycling:glass":"yes"}},"type":"Feature"},
	{"geometry":{"coordinates":[12.326018,51.225909],"type":"Point"},"properties":{"osm_id":"387526922","tag":{"amenity":"recycling","recycling:clothes":"yes","recycling:paper":"yes","recycling:plastic":"yes"}},"type":"Feature"},
	{"geometry":{"coordinates":[12.328194,51.210257],"type":"Point"},"properties":{"osm_id":"391676391","tag":{"amenity":"recycling","recycling:clothes":"yes"}},"type":"Feature"},
	{"geometry":{"coordinates":[12.30525,51.188916],"type":"Point"},"properties":{"osm_id":"518280406","tag":{"amenity":"recycling","recycling:glass":"yes","todo":"FIXME - Added by Gosmore"}},"type":"Feature"},
	{"geometry":{"coordinates":[12.329799,51.222123],"type":"Point"},"properties":{"osm_id":"603048442","tag":{"amenity":"recycling","operator":"Deutsches Rotes Kreuz","recycling:clothes":"yes","recycling_type":"container"}},"type":"Feature"},
	{"geometry":{"coordinates":[12.38348,51.201681],"type":"Point"},"properties":{"osm_id":"695875830","tag":{"amenity":"recycling","recycling:glass":"yes"}},"type":"Feature"},
	{"geometry":{"coordinates":[12.33542,51.227217],"type":"Point"},"properties":{"osm_id":"711602207","tag":{"amenity":"recycling","recycling:glass":"yes","recycling_type":"container"}},"type":"Feature"},
	{"geometry":{"coordinates":[12.324568,51.209633],"type":"Point"},"properties":{"osm_id":"916269026","tag":{"amenity":"recycling","recycling:glass_bottles":"yes","recycling_type":"container"}},"type":"Feature"},
	{"geometry":{"coordinates":[12.326258,51.229499],"type":"Point"},"properties":{"osm_id":"1068791881","tag":{"amenity":"recycling","recycling:glass":"yes","recycling_type":"container"}},"type":"Feature"},
	{"geometry":{"coordinates":[12.332015,51.220433],"type":"Point"},"properties":{"osm_id":"1196245627","tag":{"amenity":"recycling","recycling:glass":"yes","recycling_type":"container"}},"type":"Feature"},
	{"geometry":{"coordinates":[12.336182,51.233255],"type":"Point"},"properties":{"osm_id":"2039586448","tag":{"amenity":"recycling","recycling:glass":"yes","recycling_type":"container"}},"type":"Feature"},
	{"geometry":{"coordinates":[12.332568,51.23149],"type":"Point"},"properties":{"osm_id":"2144917707","tag":{"amenity":"recycling","operator":"Deutsches Rotes Kreuz","recycling:clothes":"yes","recycling_type":"container"}},"type":"Feature"},
	{"geometry":{"coordinates":[12.338062,51.230009],"type":"Point"},"properties":{"osm_id":"3045806429","tag":{"amenity":"waste_disposal"}},"type":"Feature"},
	{"geometry":{"coordinates":[12.332712,51.231687],"type":"Point"},"properties":{"osm_id":"3437586301","tag":{"amenity":"recycling","recycling:clothes":"yes"}},"type":"Feature"},
	{"geometry":{"coordinates":[12.327439,51.232625],"type":"Point"},"properties":{"osm_id":"3437646734","tag":{"amenity":"waste_basket"}},"type":"Feature"},
	{"geometry":{"coordinates":[12.386757,51.231532],"type":"Point"},"properties":{"osm_id":"3610346586","tag":{"amenity":"recycling","recycling:glass_bottles":"yes","recycling_type":"container"}},"type":"Feature"},
	{"geometry":{"coordinates":[12.335838,51.233559],"type":"Point"},"properties":{"osm_id":"5644375887","tag":{"amenity":"waste_basket"}},"type":"Feature"},
	{"geometry":{"coordinates":[12.33657,51.233071],"type":"Point"},"properties":{"osm_id":"5644375888","tag":{"amenity":"waste_basket"}},"type":"Feature"}
]
}
