{
"type": "FeatureCollection",
"features": [
	{"geometry":{"coordinates":[12.339779,50.145943],"type":"Point"},"properties":{"osm_id":"262637831","tag":{"amenity":"recycling","location":"overground","recycling_type":"container"}},"type":"Feature"},
	{"geometry":{"coordinates":[12.352219,50.127064],"type":"Point"},"properties":{"osm_id":"5325534843","tag":{"amenity":"recycling","recycling:glass_bottles":"yes","recycling:paper":"yes","recycling:plastic_bottles":"yes","recycling_type":"container"}},"type":"Feature"},
	{"geometry":{"coordinates":[12.350996,50.122248],"type":"Point"},"properties":{"osm_id":"6781110987","tag":{"amenity":"waste_basket"}},"type":"Feature"},
	{"geometry":{"coordinates":[12.342979,50.122301],"type":"Point"},"properties":{"osm_id":"7235402046","tag":{"amenity":"waste_basket","waste":"dog_excrement"}},"type":"Feature"},
	{"geometry":{"coordinates":[12.342702,50.121829],"type":"Point"},"properties":{"osm_id":"7235402047","tag":{"amenity":"waste_basket","material":"plastic"}},"type":"Feature"},
	{"geometry":{"coordinates":[12.343324,50.121753],"type":"Point"},"properties":{"osm_id":"7235402049","tag":{"amenity":"waste_basket"}},"type":"Feature"},
	{"geometry":{"coordinates":[12.343845,50.121602],"type":"Point"},"properties":{"osm_id":"7235402051","tag":{"amenity":"waste_basket"}},"type":"Feature"},
	{"geometry":{"coordinates":[12.346526,50.12325],"type":"Point"},"properties":{"osm_id":"7235402065","tag":{"amenity":"waste_basket"}},"type":"Feature"},
	{"geometry":{"coordinates":[12.347713,50.12344],"type":"Point"},"properties":{"osm_id":"7235402080","tag":{"amenity":"waste_basket"}},"type":"Feature"},
	{"geometry":{"coordinates":[12.348463,50.122446],"type":"Point"},"properties":{"osm_id":"7235402081","tag":{"amenity":"waste_basket"}},"type":"Feature"},
	{"geometry":{"coordinates":[12.348168,50.12248],"type":"Point"},"properties":{"osm_id":"7235402082","tag":{"amenity":"waste_basket"}},"type":"Feature"},
	{"geometry":{"coordinates":[12.348552,50.122203],"type":"Point"},"properties":{"osm_id":"7235402083","tag":{"amenity":"waste_basket"}},"type":"Feature"},
	{"geometry":{"coordinates":[12.348928,50.121842],"type":"Point"},"properties":{"osm_id":"7235402084","tag":{"amenity":"waste_basket","waste":"dog_excrement"}},"type":"Feature"},
	{"geometry":{"coordinates":[12.349343,50.121437],"type":"Point"},"properties":{"osm_id":"7235412886","tag":{"amenity":"waste_basket"}},"type":"Feature"},
	{"geometry":{"coordinates":[12.349879,50.12095],"type":"Point"},"properties":{"osm_id":"7235412888","tag":{"amenity":"waste_basket"}},"type":"Feature"},
	{"geometry":{"coordinates":[12.350505,50.120984],"type":"Point"},"properties":{"osm_id":"7235413004","tag":{"amenity":"waste_basket"}},"type":"Feature"},
	{"geometry":{"coordinates":[12.350648,50.120986],"type":"Point"},"properties":{"osm_id":"7235413005","tag":{"amenity":"waste_basket"}},"type":"Feature"},
	{"geometry":{"coordinates":[12.351156,50.121017],"type":"Point"},"properties":{"osm_id":"7235413007","tag":{"amenity":"waste_basket"}},"type":"Feature"},
	{"geometry":{"coordinates":[12.352082,50.120824],"type":"Point"},"properties":{"osm_id":"7235413009","tag":{"amenity":"waste_basket"}},"type":"Feature"},
	{"geometry":{"coordinates":[12.352061,50.121215],"type":"Point"},"properties":{"osm_id":"7235413022","tag":{"amenity":"waste_basket"}},"type":"Feature"},
	{"geometry":{"coordinates":[12.352584,50.121246],"type":"Point"},"properties":{"osm_id":"7235413027","tag":{"amenity":"waste_basket"}},"type":"Feature"},
	{"geometry":{"coordinates":[12.34425,50.126049],"type":"Point"},"properties":{"osm_id":"7237050461","tag":{"amenity":"recycling","recycling:glass":"yes","recycling:glass_bottles":"yes","recycling_type":"container"}},"type":"Feature"},
	{"geometry":{"coordinates":[12.344238,50.126042],"type":"Point"},"properties":{"osm_id":"7237050462","tag":{"amenity":"recycling","recycling:plastic":"yes","recycling_type":"container"}},"type":"Feature"},
	{"geometry":{"coordinates":[12.344228,50.126036],"type":"Point"},"properties":{"osm_id":"7237050463","tag":{"amenity":"recycling","recycling:plastic":"yes","recycling_type":"container"}},"type":"Feature"},
	{"geometry":{"coordinates":[12.344216,50.12603],"type":"Point"},"properties":{"osm_id":"7237050464","tag":{"amenity":"recycling","recycling:paper":"yes","recycling_type":"container"}},"type":"Feature"},
	{"geometry":{"coordinates":[12.346383,50.126164],"type":"Point"},"properties":{"osm_id":"7237050470","tag":{"amenity":"waste_basket","colour":"dark green","material":"plastic","waste":"trash"}},"type":"Feature"},
	{"geometry":{"coordinates":[12.346644,50.125637],"type":"Point"},"properties":{"osm_id":"7237064508","tag":{"amenity":"waste_basket","colour":"dark green","material":"plastic","waste":"trash"}},"type":"Feature"},
	{"geometry":{"coordinates":[12.347212,50.12493],"type":"Point"},"properties":{"osm_id":"7237064599","tag":{"amenity":"waste_basket","colour":"dark green","material":"plastic","waste":"trash"}},"type":"Feature"},
	{"geometry":{"coordinates":[12.349,50.122448],"type":"Point"},"properties":{"osm_id":"7237064640","tag":{"amenity":"waste_basket","waste":"trash"}},"type":"Feature"},
	{"geometry":{"coordinates":[12.349796,50.122566],"type":"Point"},"properties":{"osm_id":"7237064643","tag":{"amenity":"waste_basket","waste":"trash"}},"type":"Feature"},
	{"geometry":{"coordinates":[12.350418,50.122258],"type":"Point"},"properties":{"osm_id":"7237064677","tag":{"amenity":"waste_basket","waste":"trash"}},"type":"Feature"},
	{"geometry":{"coordinates":[12.345295,50.124745],"type":"Point"},"properties":{"osm_id":"7242407749","tag":{"amenity":"waste_basket","colour":"green","material":"plastic","waste":"glass;recycling"}},"type":"Feature"},
	{"geometry":{"coordinates":[12.345263,50.124745],"type":"Point"},"properties":{"osm_id":"7242407750","tag":{"amenity":"waste_basket","colour":"yellow","material":"plastic","waste":"plastic;recycling"}},"type":"Feature"},
	{"geometry":{"coordinates":[12.34523,50.124745],"type":"Point"},"properties":{"osm_id":"7242407751","tag":{"amenity":"waste_basket","colour":"blue","material":"plastic","waste":"paper;recycling"}},"type":"Feature"},
	{"geometry":{"coordinates":[12.352582,50.120796],"type":"Point"},"properties":{"osm_id":"7242407818","tag":{"amenity":"waste_basket","waste":"trash"}},"type":"Feature"},
	{"geometry":{"coordinates":[12.344583,50.120594],"type":"Point"},"properties":{"osm_id":"7329048541","tag":{"amenity":"waste_basket"}},"type":"Feature"},
	{"geometry":{"coordinates":[12.351441,50.123624],"type":"Point"},"properties":{"osm_id":"7329050025","tag":{"amenity":"waste_basket"}},"type":"Feature"},
	{"geometry":{"coordinates":[12.351404,50.123624],"type":"Point"},"properties":{"osm_id":"7329050028","tag":{"amenity":"waste_basket"}},"type":"Feature"}
]
}
