{
"type": "FeatureCollection",
"features": [
	{"geometry":{"coordinates":[12.367141,47.849344],"type":"Point"},"properties":{"osm_id":"448822401","tag":{"amenity":"recycling","recycling:clothes":"yes","recycling:glass":"yes","recycling:glass_bottles":"yes","recycling:paper":"yes","recycling_type":"container"}},"type":"Feature"},
	{"geometry":{"coordinates":[12.36699,47.854133],"type":"Point"},"properties":{"osm_id":"672944124","tag":{"amenity":"recycling","recycling:glass":"yes","recycling_type":"container"}},"type":"Feature"},
	{"geometry":{"coordinates":[12.347937,47.852512],"type":"Point"},"properties":{"osm_id":"703839453","tag":{"amenity":"recycling","recycling:cans":"yes","recycling:clothes":"yes","recycling:glass":"yes","recycling_type":"container"}},"type":"Feature"},
	{"geometry":{"coordinates":[12.349971,47.858455],"type":"Point"},"properties":{"osm_id":"995361666","tag":{"amenity":"recycling","recycling:cans":"yes","recycling:clothes":"yes","recycling:glass":"yes","recycling:paper":"yes","recycling:scrap_metal":"yes","recycling_type":"container"}},"type":"Feature"},
	{"geometry":{"coordinates":[12.349718,47.860947],"type":"Point"},"properties":{"osm_id":"996376411","tag":{"amenity":"recycling","recycling:paper":"yes","recycling_type":"container"}},"type":"Feature"},
	{"geometry":{"coordinates":[12.344674,47.84291],"type":"Point"},"properties":{"osm_id":"1341211260","tag":{"amenity":"recycling","recycling:clothes":"yes","recycling:glass":"yes"}},"type":"Feature"},
	{"geometry":{"coordinates":[12.387015,47.813489],"type":"Point"},"properties":{"osm_id":"1687335375","tag":{"amenity":"recycling","recycling:cans":"yes","recycling:cardboard":"yes","recycling:clothes":"yes","recycling:glass":"yes","recycling:glass_bottles":"yes","recycling:paper":"yes","recycling:shoes":"yes","recycling_type":"container","wheelchair":"yes"}},"type":"Feature"},
	{"geometry":{"coordinates":[12.357998,47.862226],"type":"Point"},"properties":{"osm_id":"1771336723","tag":{"amenity":"recycling","recycling:clothes":"yes","recycling_type":"container"}},"type":"Feature"},
	{"geometry":{"coordinates":[12.318486,47.87058],"type":"Point"},"properties":{"osm_id":"1779502902","tag":{"amenity":"recycling"}},"type":"Feature"},
	{"geometry":{"coordinates":[12.358385,47.86225],"type":"Point"},"properties":{"osm_id":"1799262998","tag":{"amenity":"recycling","recycling:paper":"yes","recycling_type":"container"}},"type":"Feature"},
	{"geometry":{"coordinates":[12.313395,47.846296],"type":"Point"},"properties":{"osm_id":"2395358324","tag":{"amenity":"recycling","recycling:glass_bottles":"yes","recycling_type":"container"}},"type":"Feature"},
	{"geometry":{"coordinates":[12.317661,47.846132],"type":"Point"},"properties":{"osm_id":"3220255062","tag":{"amenity":"recycling","recycling:clothes":"yes","recycling:shoes":"yes"}},"type":"Feature"},
	{"geometry":{"coordinates":[12.346487,47.853691],"type":"Point"},"properties":{"osm_id":"3389276494","tag":{"amenity":"waste_basket"}},"type":"Feature"},
	{"geometry":{"coordinates":[12.367681,47.862674],"type":"Point"},"properties":{"osm_id":"4006047805","tag":{"amenity":"waste_basket"}},"type":"Feature"},
	{"geometry":{"coordinates":[12.368623,47.863089],"type":"Point"},"properties":{"osm_id":"4006247753","tag":{"amenity":"waste_basket"}},"type":"Feature"},
	{"geometry":{"coordinates":[12.368834,47.862977],"type":"Point"},"properties":{"osm_id":"4006247754","tag":{"amenity":"waste_basket"}},"type":"Feature"},
	{"geometry":{"coordinates":[12.368562,47.862783],"type":"Point"},"properties":{"osm_id":"4006247758","tag":{"amenity":"waste_basket"}},"type":"Feature"},
	{"geometry":{"coordinates":[12.366413,47.86177],"type":"Point"},"properties":{"osm_id":"4006247773","tag":{"amenity":"waste_basket"}},"type":"Feature"},
	{"geometry":{"coordinates":[12.386177,47.831746],"type":"Point"},"properties":{"osm_id":"4284586304","tag":{"amenity":"recycling","mapillary":"WJ09pAU6mEGJtVW7-USf0w","recycling:glass":"no","recycling:glass_bottles":"yes","recycling_type":"container","survey:date":"2018-07-28"}},"type":"Feature"},
	{"geometry":{"coordinates":[12.379341,47.816894],"type":"Point"},"properties":{"osm_id":"4292863747","tag":{"amenity":"recycling","opening_hours":"24/7","recycling:cans":"yes","recycling:clothes":"yes","recycling:glass":"yes","recycling:glass_bottles":"yes","recycling:shoes":"yes","recycling_type":"container","wheelchair":"yes"}},"type":"Feature"},
	{"geometry":{"coordinates":[12.361413,47.828505],"type":"Point"},"properties":{"osm_id":"4311513001","tag":{"amenity":"waste_basket"}},"type":"Feature"},
	{"geometry":{"coordinates":[12.340534,47.853069],"type":"Point"},"properties":{"osm_id":"4402305614","tag":{"amenity":"waste_basket"}},"type":"Feature"},
	{"geometry":{"coordinates":[12.33593,47.852678],"type":"Point"},"properties":{"osm_id":"4402331683","tag":{"amenity":"waste_basket"}},"type":"Feature"},
	{"geometry":{"coordinates":[12.332584,47.853484],"type":"Point"},"properties":{"osm_id":"4402337304","tag":{"amenity":"waste_basket"}},"type":"Feature"},
	{"geometry":{"coordinates":[12.335839,47.85423],"type":"Point"},"properties":{"osm_id":"4402367649","tag":{"amenity":"waste_basket"}},"type":"Feature"},
	{"geometry":{"coordinates":[12.365779,47.852071],"type":"Point"},"properties":{"osm_id":"4403994370","tag":{"amenity":"waste_basket"}},"type":"Feature"},
	{"geometry":{"coordinates":[12.359792,47.858631],"type":"Point"},"properties":{"osm_id":"4403994376","tag":{"amenity":"waste_basket"}},"type":"Feature"},
	{"geometry":{"coordinates":[12.343303,47.846085],"type":"Point"},"properties":{"barrier":"gate","osm_id":"4436709746"},"type":"Feature"},
	{"geometry":{"coordinates":[12.355816,47.83847],"type":"Point"},"properties":{"osm_id":"5348861956","tag":{"amenity":"waste_basket"}},"type":"Feature"},
	{"geometry":{"coordinates":[12.377058,47.826835],"type":"Point"},"properties":{"osm_id":"5359141175","tag":{"amenity":"waste_basket"}},"type":"Feature"},
	{"geometry":{"coordinates":[12.36998,47.828268],"type":"Point"},"properties":{"osm_id":"5359141176","tag":{"amenity":"waste_basket"}},"type":"Feature"},
	{"geometry":{"coordinates":[12.371153,47.835207],"type":"Point"},"properties":{"osm_id":"5359141180","tag":{"amenity":"waste_basket"}},"type":"Feature"},
	{"geometry":{"coordinates":[12.371913,47.840744],"type":"Point"},"properties":{"osm_id":"5359141182","tag":{"amenity":"waste_basket"}},"type":"Feature"},
	{"geometry":{"coordinates":[12.36851,47.842044],"type":"Point"},"properties":{"osm_id":"5359141185","tag":{"amenity":"waste_basket"}},"type":"Feature"},
	{"geometry":{"coordinates":[12.365763,47.841949],"type":"Point"},"properties":{"osm_id":"5359141187","tag":{"amenity":"waste_basket"}},"type":"Feature"},
	{"geometry":{"coordinates":[12.362939,47.842966],"type":"Point"},"properties":{"osm_id":"5359141189","tag":{"amenity":"waste_basket"}},"type":"Feature"},
	{"geometry":{"coordinates":[12.360874,47.847419],"type":"Point"},"properties":{"osm_id":"5359141191","tag":{"amenity":"waste_basket"}},"type":"Feature"},
	{"geometry":{"coordinates":[12.365235,47.850737],"type":"Point"},"properties":{"osm_id":"5359141195","tag":{"amenity":"waste_basket"}},"type":"Feature"},
	{"geometry":{"coordinates":[12.376077,47.813518],"type":"Point"},"properties":{"osm_id":"5535302979","tag":{"amenity":"waste_basket"}},"type":"Feature"},
	{"geometry":{"coordinates":[12.387752,47.854422],"type":"Point"},"properties":{"osm_id":"5938734290","tag":{"amenity":"waste_basket"}},"type":"Feature"},
	{"geometry":{"coordinates":[12.381948,47.821882],"type":"Point"},"properties":{"osm_id":"6345968823","tag":{"amenity":"waste_basket"}},"type":"Feature"},
	{"geometry":{"coordinates":[12.382907,47.820565],"type":"Point"},"properties":{"osm_id":"6345968824","tag":{"amenity":"waste_basket"}},"type":"Feature"},
	{"geometry":{"coordinates":[12.348432,47.847252],"type":"Point"},"properties":{"osm_id":"7274010354","tag":{"amenity":"recycling","recycling:clothes":"yes","recycling:shoes":"yes","recycling_type":"container"}},"type":"Feature"},
	{"geometry":{"coordinates":[12.347818,47.847148],"type":"Point"},"properties":{"osm_id":"7274013145","tag":{"amenity":"recycling","recycling:clothes":"yes","recycling:shoes":"yes","recycling_type":"container"}},"type":"Feature"},
	{"geometry":{"coordinates":[12.347242,47.852623],"type":"Point"},"properties":{"osm_id":"7276489470","tag":{"amenity":"recycling","recycling:cartons":"yes","recycling:paper":"yes","recycling_type":"container"}},"type":"Feature"},
	{"geometry":{"coordinates":[12.350272,47.859408],"type":"Point"},"properties":{"osm_id":"7291478832","tag":{"amenity":"recycling","recycling:clothes":"yes","recycling:paper":"yes","recycling_type":"container"}},"type":"Feature"},
	{"geometry":{"coordinates":[12.348778,47.852109],"type":"Point"},"properties":{"osm_id":"7311944111","tag":{"amenity":"recycling","recycling:paper":"yes","recycling_type":"container"}},"type":"Feature"},
	{"geometry":{"coordinates":[12.347692,47.870733],"type":"Point"},"properties":{"osm_id":"7354465583","tag":{"amenity":"waste_basket","waste":"trash"}},"type":"Feature"},
	{"geometry":{"coordinates":[12.345799,47.858889],"type":"Point"},"properties":{"osm_id":"7354479734","tag":{"amenity":"waste_basket","waste":"trash"}},"type":"Feature"},
	{"geometry":{"coordinates":[12.366869,47.86213],"type":"Point"},"properties":{"osm_id":"7419111329","tag":{"amenity":"waste_basket","material":"metal","waste":"trash"}},"type":"Feature"},
	{"geometry":{"coordinates":[12.350319,47.859435],"type":"Point"},"properties":{"osm_id":"7419140830","tag":{"amenity":"waste_basket","material":"steel","waste":"trash"}},"type":"Feature"},
	{"geometry":{"coordinates":[12.354573,47.859784],"type":"Point"},"properties":{"osm_id":"7419173705","tag":{"amenity":"waste_basket","material":"steel","waste":"trash"}},"type":"Feature"},
	{"geometry":{"coordinates":[12.356583,47.860327],"type":"Point"},"properties":{"osm_id":"7419181114","tag":{"amenity":"waste_basket","material":"steel","waste":"trash"}},"type":"Feature"},
	{"geometry":{"coordinates":[12.35718,47.859783],"type":"Point"},"properties":{"osm_id":"7475594565","tag":{"amenity":"waste_basket"}},"type":"Feature"},
	{"geometry":{"coordinates":[12.358609,47.859837],"type":"Point"},"properties":{"osm_id":"7475597556","tag":{"amenity":"waste_basket"}},"type":"Feature"},
	{"geometry":{"coordinates":[12.360171,47.86004],"type":"Point"},"properties":{"osm_id":"7475600613","tag":{"amenity":"waste_basket"}},"type":"Feature"},
	{"geometry":{"coordinates":[12.362587,47.860188],"type":"Point"},"properties":{"osm_id":"7475613250","tag":{"amenity":"waste_basket"}},"type":"Feature"},
	{"geometry":{"coordinates":[12.363072,47.860435],"type":"Point"},"properties":{"osm_id":"7475636090","tag":{"amenity":"waste_basket"}},"type":"Feature"},
	{"geometry":{"coordinates":[12.365545,47.860616],"type":"Point"},"properties":{"osm_id":"7475665115","tag":{"amenity":"waste_basket"}},"type":"Feature"},
	{"geometry":{"coordinates":[12.366282,47.860687],"type":"Point"},"properties":{"osm_id":"7475677058","tag":{"amenity":"waste_basket"}},"type":"Feature"},
	{"geometry":{"coordinates":[12.364978,47.86123],"type":"Point"},"properties":{"osm_id":"7475692352","tag":{"amenity":"waste_basket"}},"type":"Feature"},
	{"geometry":{"coordinates":[12.348792,47.847427],"type":"Point"},"properties":{"osm_id":"7511128473","tag":{"amenity":"recycling","recycling:clothes":"yes","recycling_type":"container"}},"type":"Feature"},
	{"geometry":{"coordinates":[12.34585,47.850161],"type":"Point"},"properties":{"osm_id":"7511134555","tag":{"amenity":"recycling","recycling:paper":"yes","recycling_type":"container"}},"type":"Feature"},
	{"geometry":{"coordinates":[12.347692,47.845827],"type":"Point"},"properties":{"osm_id":"7562738377","tag":{"amenity":"waste_basket"}},"type":"Feature"},
	{"geometry":{"coordinates":[12.367647,47.849305],"type":"Point"},"properties":{"osm_id":"7596226346","tag":{"amenity":"waste_basket","ashtray":"yes"}},"type":"Feature"},
	{"geometry":{"coordinates":[12.35497,47.852968],"type":"Point"},"properties":{"osm_id":"7771051857","tag":{"amenity":"waste_basket","waste":"trash"}},"type":"Feature"},
	{"geometry":{"coordinates":[12.354234,47.853038],"type":"Point"},"properties":{"osm_id":"7771051858","tag":{"amenity":"waste_basket","waste":"trash"}},"type":"Feature"}
]
}
