{
"type": "FeatureCollection",
"features": [
	{"geometry":{"coordinates":[12.378799,47.531173],"type":"Point"},"properties":{"osm_id":"1976671966","tag":{"amenity":"recycling","recycling_type":"container"}},"type":"Feature"},
	{"geometry":{"coordinates":[12.305446,47.521436],"type":"Point"},"properties":{"osm_id":"2440771273","tag":{"amenity":"waste_basket"}},"type":"Feature"},
	{"geometry":{"coordinates":[12.340632,47.519465],"type":"Point"},"properties":{"osm_id":"3051978318","tag":{"amenity":"waste_basket"}},"type":"Feature"},
	{"geometry":{"coordinates":[12.388064,47.538311],"type":"Point"},"properties":{"osm_id":"3051978347","tag":{"amenity":"waste_basket"}},"type":"Feature"},
	{"geometry":{"coordinates":[12.385196,47.568754],"type":"Point"},"properties":{"osm_id":"3051978624","tag":{"amenity":"waste_basket"}},"type":"Feature"},
	{"geometry":{"coordinates":[12.390321,47.529346],"type":"Point"},"properties":{"name":"Dog-Station","osm_id":"3715141430","tag":{"amenity":"waste_basket","description":"Support service calls +4353526900300","name:de":"Hundekot","operator":"Marktgemeinde St. Johann in Tirol","waste":"dog_excrement"}},"type":"Feature"},
	{"geometry":{"coordinates":[12.38577,47.527281],"type":"Point"},"properties":{"name":"Dog-Station","osm_id":"3715184517","tag":{"amenity":"waste_basket","description":"Support service calls +4353526900300","name:de":"Hundekot","operator":"Marktgemeinde St. Johann in Tirol","waste":"dog_excrement"}},"type":"Feature"},
	{"geometry":{"coordinates":[12.391337,47.536188],"type":"Point"},"properties":{"name":"Dog-Station","osm_id":"4321992154","tag":{"amenity":"waste_basket","description":"Support service calls +4353526900300","name:de":"Hundekot","operator":"Marktgemeinde St. Johann in Tirol","waste":"dog_excrement"}},"type":"Feature"},
	{"geometry":{"coordinates":[12.378552,47.52987],"type":"Point"},"properties":{"name":"Dog-Station","osm_id":"7261863754","tag":{"amenity":"waste_basket","description":"Support service calls +4353526900300","name:de":"Hundekot","operator":"Marktgemeinde St. Johann in Tirol","waste":"dog_excrement"}},"type":"Feature"}
]
}
