{
"type": "FeatureCollection",
"features": [
	{"geometry":{"coordinates":[12.386193,47.464823],"type":"Point"},"properties":{"name":"Gruberm\u00c3\u00bchle-Recyclinghof","osm_id":"621227307","tag":{"addr:city":"Kitzb\u00c3\u00bchel","addr:country":"AT","addr:housenumber":"97","addr:postcode":"6370","addr:street":"St.Johanner Stra\u00c3\u009fe","amenity":"recycling","collection_times":"Mo-Th 07:30-11:00,14:00-16:00; We 07:30-11:00,14:00-18:30; Fr 07:30-11:00; Sa 08:00-11:00","operator":"Stadtgemeinde Kitzb\u00c3\u00bchel","phone":"+435356 62744","recycling_type":"centre","website":"https://www.kitzbuehel.at/system/web/gemeindebetrieb.aspx?menuonr=218979809&detailonr=135183"}},"type":"Feature"},
	{"geometry":{"coordinates":[12.328883,47.513918],"type":"Point"},"properties":{"osm_id":"2197616463","tag":{"amenity":"waste_basket"}},"type":"Feature"},
	{"geometry":{"coordinates":[12.37729,47.503959],"type":"Point"},"properties":{"osm_id":"2293609562","tag":{"amenity":"waste_basket","waste":"dog_excrement"}},"type":"Feature"},
	{"geometry":{"coordinates":[12.382618,47.505708],"type":"Point"},"properties":{"osm_id":"2293674942","tag":{"amenity":"waste_basket","waste":"dog_excrement"}},"type":"Feature"},
	{"geometry":{"coordinates":[12.382738,47.505795],"type":"Point"},"properties":{"osm_id":"2293674946","tag":{"amenity":"waste_basket"}},"type":"Feature"},
	{"geometry":{"coordinates":[12.38183,47.504152],"type":"Point"},"properties":{"osm_id":"2293684256","tag":{"amenity":"waste_basket"}},"type":"Feature"},
	{"geometry":{"coordinates":[12.379942,47.481953],"type":"Point"},"properties":{"osm_id":"2293729605","tag":{"amenity":"recycling","recycling:glass":"yes","recycling_type":"container"}},"type":"Feature"},
	{"geometry":{"coordinates":[12.307238,47.514693],"type":"Point"},"properties":{"osm_id":"3051148147","tag":{"amenity":"recycling","recycling:clothes":"yes","recycling_type":"container"}},"type":"Feature"},
	{"geometry":{"coordinates":[12.345726,47.483431],"type":"Point"},"properties":{"name":"Recyclinghof Reith bei Kitzb\u00c3\u00bchel","osm_id":"3328848876","tag":{"amenity":"recycling","recycling:batteries":"yes","recycling:cans":"yes","recycling:clothes":"yes","recycling:glass":"yes","recycling:paper":"yes","recycling:scrap_metal":"yes","recycling_type":"centre"}},"type":"Feature"},
	{"geometry":{"coordinates":[12.336534,47.514115],"type":"Point"},"properties":{"name":"Recyclinghof Going","osm_id":"3561810598","tag":{"addr:city":"Going am Wilden Kaiser","addr:country":"AT","addr:housename":"Recyclinghof","addr:housenumber":"56","addr:postcode":"6353","addr:street":"Dorfstra\u00c3\u009fe","amenity":"recycling","collection_times":"Tu 13:00-17:00; Sa 08:00-12:00","contact:website":"http://www.going.tirol.gv.at/system/web/kalender.aspx?bezirkonr=0&menuonr=219460045&typid=220886032&detailonr=220886032","operator":"Gemeinde Going","recycling_type":"centre"}},"type":"Feature"},
	{"geometry":{"coordinates":[12.391205,47.497481],"type":"Point"},"properties":{"name":"Recyclinghof Oberndorf in Tirol","osm_id":"3561824266","tag":{"addr:city":"Oberndorf in Tirol","addr:country":"AT","addr:housename":"Recyclinghof","addr:housenumber":"18a","addr:postcode":"6372","addr:street":"Bahnhofstra\u00c3\u009fe","amenity":"recycling","collection_times":"Fr 14:00-17:00; Sa 09:00-12:00","operator":"Gemeinde Oberndorf in Tirol","recycling_type":"centre"}},"type":"Feature"},
	{"geometry":{"coordinates":[12.3059,47.513642],"type":"Point"},"properties":{"osm_id":"5760597299","tag":{"amenity":"waste_basket"}},"type":"Feature"},
	{"geometry":{"coordinates":[12.383604,47.468143],"type":"Point"},"properties":{"osm_id":"6813814390","tag":{"amenity":"waste_basket","waste":"dog_excrement"}},"type":"Feature"},
	{"geometry":{"coordinates":[12.360638,47.472834],"type":"Point"},"properties":{"osm_id":"6813814391","tag":{"amenity":"waste_basket"}},"type":"Feature"},
	{"geometry":{"coordinates":[12.376267,47.482011],"type":"Point"},"properties":{"osm_id":"6813814397","tag":{"amenity":"waste_basket"}},"type":"Feature"},
	{"geometry":{"coordinates":[12.377029,47.484468],"type":"Point"},"properties":{"osm_id":"6813814402","tag":{"amenity":"waste_basket"}},"type":"Feature"},
	{"geometry":{"coordinates":[12.39226,47.505952],"type":"Point"},"properties":{"osm_id":"7261041153","tag":{"amenity":"waste_basket"}},"type":"Feature"},
	{"geometry":{"coordinates":[12.365733,47.459742],"type":"Point"},"properties":{"osm_id":"9032116210","tag":{"amenity":"waste_basket"}},"type":"Feature"},
	{"geometry":{"coordinates":[12.366339,47.459019],"type":"Point"},"properties":{"osm_id":"9032131629","tag":{"amenity":"waste_basket"}},"type":"Feature"},
	{"geometry":{"coordinates":[12.373105,47.458252],"type":"Point"},"properties":{"osm_id":"9032176653","tag":{"amenity":"waste_disposal"}},"type":"Feature"},
	{"geometry":{"coordinates":[12.367107,47.460575],"type":"Point"},"properties":{"osm_id":"9041214912","tag":{"amenity":"waste_basket"}},"type":"Feature"}
]
}
