{
"type": "FeatureCollection",
"features": [
	{"geometry":{"coordinates":[12.328019,47.44896],"type":"Point"},"properties":{"name":"Recyclinghof der Gemeinde Kirchberg in Tirol","osm_id":"3578451801","tag":{"addr:city":"Kirchberg in Tirol","addr:country":"AT","addr:housenumber":"120","addr:postcode":"6365","addr:street":"Kitzb\u00c3\u00bcheler Stra\u00c3\u009fe","amenity":"recycling","collection_times":"Mo 08:00-12:00; Fr 13:00-18:00; Sa 09:00-12:00; Dec-Apr: We 13:00-16:00","operator":"Gemeinde Kirchberg in Tirol","recycling_type":"centre"}},"type":"Feature"},
	{"geometry":{"coordinates":[12.386515,47.448972],"type":"Point"},"properties":{"osm_id":"5869017946","tag":{"amenity":"waste_basket"}},"type":"Feature"},
	{"geometry":{"coordinates":[12.391668,47.44579],"type":"Point"},"properties":{"osm_id":"5869019877","tag":{"amenity":"waste_basket"}},"type":"Feature"},
	{"geometry":{"coordinates":[12.387823,47.449779],"type":"Point"},"properties":{"osm_id":"5869021367","tag":{"amenity":"waste_basket"}},"type":"Feature"},
	{"geometry":{"coordinates":[12.308984,47.416962],"type":"Point"},"properties":{"osm_id":"8794486931","tag":{"amenity":"waste_basket"}},"type":"Feature"},
	{"geometry":{"coordinates":[12.329841,47.427938],"type":"Point"},"properties":{"osm_id":"9039759076","tag":{"amenity":"waste_basket"}},"type":"Feature"},
	{"geometry":{"coordinates":[12.372523,47.455567],"type":"Point"},"properties":{"osm_id":"9041198325","tag":{"amenity":"waste_basket"}},"type":"Feature"}
]
}
