{
"type": "FeatureCollection",
"features": [
	{"geometry":{"coordinates":[12.351975,46.699375],"type":"Point"},"properties":{"osm_id":"684255942","tag":{"amenity":"recycling"}},"type":"Feature"},
	{"geometry":{"coordinates":[12.348008,46.703235],"type":"Point"},"properties":{"osm_id":"842258262","tag":{"amenity":"recycling","recycling:glass":"yes","recycling:paper":"yes"}},"type":"Feature"},
	{"geometry":{"coordinates":[12.326307,46.731285],"type":"Point"},"properties":{"osm_id":"5405795444","tag":{"addr:city":"Vierschach - Versciaco","addr:postcode":"39038","addr:street":"Helmweg","amenity":"recycling","recycling:cans":"yes","recycling:glass_bottles":"yes","recycling:paper":"yes","recycling_type":"container"}},"type":"Feature"},
	{"geometry":{"coordinates":[12.337654,46.733644],"type":"Point"},"properties":{"osm_id":"5405795445","tag":{"amenity":"recycling","recycling:cans":"yes","recycling:glass_bottles":"yes","recycling:paper":"yes","recycling_type":"container"}},"type":"Feature"},
	{"geometry":{"coordinates":[12.361889,46.717251],"type":"Point"},"properties":{"osm_id":"7236795927","tag":{"amenity":"waste_basket"}},"type":"Feature"}
]
}
