{
"type": "FeatureCollection",
"features": [
	{"geometry":{"coordinates":[12.35904,45.426673],"type":"Point"},"properties":{"osm_id":"944188422","tag":{"amenity":"waste_basket"}},"type":"Feature"},
	{"geometry":{"coordinates":[12.361923,45.425129],"type":"Point"},"properties":{"osm_id":"944188713","tag":{"amenity":"waste_basket"}},"type":"Feature"},
	{"geometry":{"coordinates":[12.363082,45.425429],"type":"Point"},"properties":{"osm_id":"944188716","tag":{"amenity":"waste_basket"}},"type":"Feature"},
	{"geometry":{"coordinates":[12.360324,45.425845],"type":"Point"},"properties":{"osm_id":"944188734","tag":{"amenity":"waste_basket"}},"type":"Feature"},
	{"geometry":{"coordinates":[12.359626,45.426274],"type":"Point"},"properties":{"osm_id":"944188754","tag":{"amenity":"waste_basket"}},"type":"Feature"},
	{"geometry":{"coordinates":[12.36017,45.426728],"type":"Point"},"properties":{"osm_id":"944188784","tag":{"amenity":"waste_basket"}},"type":"Feature"},
	{"geometry":{"coordinates":[12.323864,45.443312],"type":"Point"},"properties":{"osm_id":"1077050461","tag":{"amenity":"waste_basket"}},"type":"Feature"},
	{"geometry":{"coordinates":[12.324077,45.443448],"type":"Point"},"properties":{"osm_id":"1077050490","tag":{"amenity":"waste_basket"}},"type":"Feature"},
	{"geometry":{"coordinates":[12.324036,45.443424],"type":"Point"},"properties":{"osm_id":"1077050491","tag":{"amenity":"waste_basket"}},"type":"Feature"},
	{"geometry":{"coordinates":[12.323846,45.443793],"type":"Point"},"properties":{"osm_id":"1077050493","tag":{"amenity":"waste_basket"}},"type":"Feature"},
	{"geometry":{"coordinates":[12.32299,45.443165],"type":"Point"},"properties":{"osm_id":"1077050512","tag":{"amenity":"waste_basket"}},"type":"Feature"},
	{"geometry":{"coordinates":[12.323882,45.443401],"type":"Point"},"properties":{"osm_id":"1077050514","tag":{"amenity":"waste_basket"}},"type":"Feature"},
	{"geometry":{"coordinates":[12.324263,45.443757],"type":"Point"},"properties":{"osm_id":"1077050523","tag":{"amenity":"waste_basket"}},"type":"Feature"},
	{"geometry":{"coordinates":[12.323712,45.443333],"type":"Point"},"properties":{"osm_id":"1077050585","tag":{"amenity":"waste_basket"}},"type":"Feature"},
	{"geometry":{"coordinates":[12.32381,45.443133],"type":"Point"},"properties":{"osm_id":"1077050602","tag":{"amenity":"waste_basket"}},"type":"Feature"},
	{"geometry":{"coordinates":[12.324403,45.443409],"type":"Point"},"properties":{"osm_id":"1077050630","tag":{"amenity":"waste_basket"}},"type":"Feature"},
	{"geometry":{"coordinates":[12.324543,45.443537],"type":"Point"},"properties":{"osm_id":"1077050633","tag":{"amenity":"waste_basket"}},"type":"Feature"},
	{"geometry":{"coordinates":[12.323882,45.443772],"type":"Point"},"properties":{"osm_id":"1077050681","tag":{"amenity":"waste_basket"}},"type":"Feature"},
	{"geometry":{"coordinates":[12.323953,45.443282],"type":"Point"},"properties":{"osm_id":"1077050692","tag":{"amenity":"waste_basket"}},"type":"Feature"},
	{"geometry":{"coordinates":[12.323136,45.443152],"type":"Point"},"properties":{"osm_id":"1077050707","tag":{"amenity":"waste_basket"}},"type":"Feature"},
	{"geometry":{"coordinates":[12.324021,45.443654],"type":"Point"},"properties":{"osm_id":"1077050719","tag":{"amenity":"waste_basket"}},"type":"Feature"},
	{"geometry":{"coordinates":[12.324675,45.443464],"type":"Point"},"properties":{"osm_id":"1077050747","tag":{"amenity":"waste_basket"}},"type":"Feature"},
	{"geometry":{"coordinates":[12.323504,45.443154],"type":"Point"},"properties":{"osm_id":"1077050874","tag":{"amenity":"waste_basket"}},"type":"Feature"},
	{"geometry":{"coordinates":[12.324091,45.443387],"type":"Point"},"properties":{"osm_id":"1077050901","tag":{"amenity":"waste_basket"}},"type":"Feature"},
	{"geometry":{"coordinates":[12.322739,45.443],"type":"Point"},"properties":{"osm_id":"1077050917","tag":{"amenity":"waste_basket"}},"type":"Feature"},
	{"geometry":{"coordinates":[12.323717,45.443205],"type":"Point"},"properties":{"osm_id":"1077050952","tag":{"amenity":"waste_basket"}},"type":"Feature"},
	{"geometry":{"coordinates":[12.323984,45.443517],"type":"Point"},"properties":{"osm_id":"1077051018","tag":{"amenity":"waste_basket"}},"type":"Feature"},
	{"geometry":{"coordinates":[12.332028,45.425481],"type":"Point"},"properties":{"osm_id":"1358270400","tag":{"amenity":"waste_basket"}},"type":"Feature"},
	{"geometry":{"coordinates":[12.324068,45.435242],"type":"Point"},"properties":{"osm_id":"2165121248","tag":{"amenity":"waste_basket"}},"type":"Feature"},
	{"geometry":{"coordinates":[12.324203,45.446178],"type":"Point"},"properties":{"osm_id":"2482252824","tag":{"amenity":"waste_disposal"}},"type":"Feature"},
	{"geometry":{"coordinates":[12.324214,45.446192],"type":"Point"},"properties":{"osm_id":"2482252825","tag":{"amenity":"waste_disposal"}},"type":"Feature"},
	{"geometry":{"coordinates":[12.324224,45.446207],"type":"Point"},"properties":{"osm_id":"2482252826","tag":{"amenity":"waste_disposal"}},"type":"Feature"},
	{"geometry":{"coordinates":[12.325595,45.447498],"type":"Point"},"properties":{"osm_id":"2486015271","tag":{"amenity":"waste_disposal"}},"type":"Feature"},
	{"geometry":{"coordinates":[12.325603,45.44751],"type":"Point"},"properties":{"osm_id":"2486015274","tag":{"amenity":"waste_disposal"}},"type":"Feature"},
	{"geometry":{"coordinates":[12.327658,45.447797],"type":"Point"},"properties":{"osm_id":"2486015333","tag":{"amenity":"waste_basket"}},"type":"Feature"},
	{"geometry":{"coordinates":[12.327606,45.447974],"type":"Point"},"properties":{"osm_id":"2486015389","tag":{"amenity":"waste_basket"}},"type":"Feature"},
	{"geometry":{"coordinates":[12.327865,45.448042],"type":"Point"},"properties":{"osm_id":"2486015416","tag":{"amenity":"waste_basket"}},"type":"Feature"},
	{"geometry":{"coordinates":[12.328081,45.448097],"type":"Point"},"properties":{"osm_id":"2486015448","tag":{"amenity":"recycling","location":"overground","recycling:cooking_oil":"yes","recycling_type":"container"}},"type":"Feature"},
	{"geometry":{"coordinates":[12.328064,45.448103],"type":"Point"},"properties":{"osm_id":"2486015452","tag":{"amenity":"waste_basket"}},"type":"Feature"},
	{"geometry":{"coordinates":[12.328081,45.448187],"type":"Point"},"properties":{"osm_id":"2486015483","tag":{"amenity":"waste_basket"}},"type":"Feature"},
	{"geometry":{"coordinates":[12.328305,45.448213],"type":"Point"},"properties":{"osm_id":"2486015492","tag":{"amenity":"recycling"}},"type":"Feature"},
	{"geometry":{"coordinates":[12.328317,45.448231],"type":"Point"},"properties":{"osm_id":"2486015499","tag":{"amenity":"recycling"}},"type":"Feature"},
	{"geometry":{"coordinates":[12.332768,45.442135],"type":"Point"},"properties":{"osm_id":"2486203338","tag":{"amenity":"waste_basket","waste":"trash, cigarettes"}},"type":"Feature"},
	{"geometry":{"coordinates":[12.32036,45.446233],"type":"Point"},"properties":{"osm_id":"2488163281","tag":{"amenity":"waste_disposal"}},"type":"Feature"},
	{"geometry":{"coordinates":[12.320371,45.446245],"type":"Point"},"properties":{"osm_id":"2488163282","tag":{"amenity":"waste_disposal"}},"type":"Feature"},
	{"geometry":{"coordinates":[12.321209,45.446676],"type":"Point"},"properties":{"osm_id":"2488163291","tag":{"amenity":"waste_disposal"}},"type":"Feature"},
	{"geometry":{"coordinates":[12.321192,45.44668],"type":"Point"},"properties":{"osm_id":"2488163292","tag":{"amenity":"waste_disposal"}},"type":"Feature"},
	{"geometry":{"coordinates":[12.321172,45.446683],"type":"Point"},"properties":{"osm_id":"2488163293","tag":{"amenity":"waste_disposal"}},"type":"Feature"},
	{"geometry":{"coordinates":[12.324413,45.444057],"type":"Point"},"properties":{"osm_id":"4240308917","tag":{"amenity":"waste_basket"}},"type":"Feature"},
	{"geometry":{"coordinates":[12.339965,45.433344],"type":"Point"},"properties":{"osm_id":"4347719409","tag":{"amenity":"waste_basket"}},"type":"Feature"},
	{"geometry":{"coordinates":[12.334293,45.435287],"type":"Point"},"properties":{"osm_id":"4347719436","tag":{"amenity":"waste_basket"}},"type":"Feature"},
	{"geometry":{"coordinates":[12.339706,45.433285],"type":"Point"},"properties":{"osm_id":"4347719681","tag":{"amenity":"waste_basket"}},"type":"Feature"},
	{"geometry":{"coordinates":[12.330434,45.433448],"type":"Point"},"properties":{"osm_id":"4347719684","tag":{"amenity":"waste_basket"}},"type":"Feature"},
	{"geometry":{"coordinates":[12.338428,45.43277],"type":"Point"},"properties":{"osm_id":"4347719811","tag":{"amenity":"waste_basket"}},"type":"Feature"},
	{"geometry":{"coordinates":[12.325823,45.436669],"type":"Point"},"properties":{"osm_id":"4359036314","tag":{"amenity":"waste_basket"}},"type":"Feature"},
	{"geometry":{"coordinates":[12.325142,45.436914],"type":"Point"},"properties":{"osm_id":"4359036614","tag":{"amenity":"waste_basket"}},"type":"Feature"},
	{"geometry":{"coordinates":[12.335848,45.437146],"type":"Point"},"properties":{"osm_id":"4370729273","tag":{"amenity":"waste_basket"}},"type":"Feature"},
	{"geometry":{"coordinates":[12.335515,45.437285],"type":"Point"},"properties":{"osm_id":"4370729274","tag":{"amenity":"waste_basket"}},"type":"Feature"},
	{"geometry":{"coordinates":[12.326176,45.430636],"type":"Point"},"properties":{"osm_id":"4370761857","tag":{"amenity":"waste_basket"}},"type":"Feature"},
	{"geometry":{"coordinates":[12.317835,45.437783],"type":"Point"},"properties":{"osm_id":"4404140139","tag":{"amenity":"waste_disposal"}},"type":"Feature"},
	{"geometry":{"coordinates":[12.317828,45.437769],"type":"Point"},"properties":{"osm_id":"4404140140","tag":{"amenity":"waste_disposal"}},"type":"Feature"},
	{"geometry":{"coordinates":[12.317824,45.437754],"type":"Point"},"properties":{"osm_id":"4404140141","tag":{"amenity":"waste_disposal"}},"type":"Feature"},
	{"geometry":{"coordinates":[12.317822,45.437736],"type":"Point"},"properties":{"osm_id":"4404140142","tag":{"amenity":"waste_disposal"}},"type":"Feature"},
	{"geometry":{"coordinates":[12.31784,45.437724],"type":"Point"},"properties":{"osm_id":"4404140143","tag":{"amenity":"waste_disposal"}},"type":"Feature"},
	{"geometry":{"coordinates":[12.317843,45.437709],"type":"Point"},"properties":{"osm_id":"4404140144","tag":{"amenity":"waste_disposal"}},"type":"Feature"},
	{"geometry":{"coordinates":[12.317844,45.437696],"type":"Point"},"properties":{"osm_id":"4404140145","tag":{"amenity":"waste_disposal"}},"type":"Feature"},
	{"geometry":{"coordinates":[12.357773,45.456811],"type":"Point"},"properties":{"name":"K\u00c3\u00bcchen\u00c3\u00b6l","osm_id":"4958932041","tag":{"amenity":"recycling","recycling_type":"container"}},"type":"Feature"},
	{"geometry":{"coordinates":[12.33207,45.443235],"type":"Point"},"properties":{"osm_id":"5481898357","tag":{"amenity":"waste_basket"}},"type":"Feature"},
	{"geometry":{"coordinates":[12.332843,45.441981],"type":"Point"},"properties":{"osm_id":"5481904407","tag":{"amenity":"waste_basket"}},"type":"Feature"},
	{"geometry":{"coordinates":[12.33352,45.441474],"type":"Point"},"properties":{"osm_id":"5481907065","tag":{"amenity":"waste_basket"}},"type":"Feature"},
	{"geometry":{"coordinates":[12.333561,45.441519],"type":"Point"},"properties":{"osm_id":"5481907066","tag":{"amenity":"waste_basket"}},"type":"Feature"},
	{"geometry":{"coordinates":[12.332755,45.442212],"type":"Point"},"properties":{"osm_id":"5481907069","tag":{"amenity":"waste_basket"}},"type":"Feature"},
	{"geometry":{"coordinates":[12.335882,45.440403],"type":"Point"},"properties":{"osm_id":"5481907258","tag":{"amenity":"waste_basket"}},"type":"Feature"},
	{"geometry":{"coordinates":[12.336167,45.440277],"type":"Point"},"properties":{"osm_id":"5481907768","tag":{"amenity":"waste_basket"}},"type":"Feature"},
	{"geometry":{"coordinates":[12.338264,45.440288],"type":"Point"},"properties":{"osm_id":"5481908000","tag":{"amenity":"waste_basket"}},"type":"Feature"},
	{"geometry":{"coordinates":[12.34014,45.439831],"type":"Point"},"properties":{"osm_id":"5481910417","tag":{"amenity":"waste_basket"}},"type":"Feature"},
	{"geometry":{"coordinates":[12.340454,45.439754],"type":"Point"},"properties":{"osm_id":"5481912015","tag":{"amenity":"waste_basket"}},"type":"Feature"},
	{"geometry":{"coordinates":[12.341241,45.439604],"type":"Point"},"properties":{"osm_id":"5481914794","tag":{"amenity":"waste_basket"}},"type":"Feature"},
	{"geometry":{"coordinates":[12.354495,45.438066],"type":"Point"},"properties":{"osm_id":"5481926109","tag":{"amenity":"waste_disposal"}},"type":"Feature"},
	{"geometry":{"coordinates":[12.342162,45.438897],"type":"Point"},"properties":{"osm_id":"5481979937","tag":{"amenity":"waste_basket"}},"type":"Feature"},
	{"geometry":{"coordinates":[12.342215,45.438886],"type":"Point"},"properties":{"osm_id":"5481979938","tag":{"amenity":"waste_basket"}},"type":"Feature"},
	{"geometry":{"coordinates":[12.339657,45.439894],"type":"Point"},"properties":{"osm_id":"5482816921","tag":{"amenity":"waste_basket"}},"type":"Feature"},
	{"geometry":{"coordinates":[12.325805,45.44366],"type":"Point"},"properties":{"osm_id":"5482832963","tag":{"amenity":"waste_basket"}},"type":"Feature"},
	{"geometry":{"coordinates":[12.321602,45.441149],"type":"Point"},"properties":{"osm_id":"5492732762","tag":{"amenity":"waste_basket"}},"type":"Feature"},
	{"geometry":{"coordinates":[12.3219,45.441157],"type":"Point"},"properties":{"osm_id":"5492734592","tag":{"amenity":"waste_basket"}},"type":"Feature"},
	{"geometry":{"coordinates":[12.321914,45.44117],"type":"Point"},"properties":{"osm_id":"5492735786","tag":{"amenity":"waste_basket"}},"type":"Feature"},
	{"geometry":{"coordinates":[12.325437,45.44357],"type":"Point"},"properties":{"osm_id":"5492737498","tag":{"amenity":"waste_basket"}},"type":"Feature"},
	{"geometry":{"coordinates":[12.332186,45.44284],"type":"Point"},"properties":{"osm_id":"5492743703","tag":{"amenity":"waste_basket"}},"type":"Feature"},
	{"geometry":{"coordinates":[12.332024,45.442948],"type":"Point"},"properties":{"osm_id":"5492745778","tag":{"amenity":"waste_basket"}},"type":"Feature"},
	{"geometry":{"coordinates":[12.333387,45.441603],"type":"Point"},"properties":{"osm_id":"5492749589","tag":{"amenity":"waste_basket"}},"type":"Feature"},
	{"geometry":{"coordinates":[12.333788,45.441437],"type":"Point"},"properties":{"osm_id":"5492753655","tag":{"amenity":"waste_basket"}},"type":"Feature"},
	{"geometry":{"coordinates":[12.336483,45.440386],"type":"Point"},"properties":{"osm_id":"5494224211","tag":{"amenity":"waste_basket"}},"type":"Feature"},
	{"geometry":{"coordinates":[12.325728,45.44371],"type":"Point"},"properties":{"osm_id":"5508293493","tag":{"amenity":"waste_basket","waste":"cigarettes"}},"type":"Feature"},
	{"geometry":{"coordinates":[12.319268,45.441209],"type":"Point"},"properties":{"osm_id":"5508316067","tag":{"amenity":"waste_basket","waste":"cigarettes"}},"type":"Feature"},
	{"geometry":{"coordinates":[12.31904,45.441341],"type":"Point"},"properties":{"osm_id":"5508316490","tag":{"amenity":"waste_basket","waste":"cigarettes"}},"type":"Feature"},
	{"geometry":{"coordinates":[12.323893,45.442434],"type":"Point"},"properties":{"osm_id":"5508353232","tag":{"amenity":"waste_basket"}},"type":"Feature"},
	{"geometry":{"coordinates":[12.323895,45.442445],"type":"Point"},"properties":{"osm_id":"5508353233","tag":{"amenity":"waste_basket"}},"type":"Feature"},
	{"geometry":{"coordinates":[12.323897,45.442441],"type":"Point"},"properties":{"osm_id":"5508353234","tag":{"amenity":"waste_basket","waste":"cigarettes"}},"type":"Feature"},
	{"geometry":{"coordinates":[12.336402,45.440226],"type":"Point"},"properties":{"osm_id":"5542282909","tag":{"amenity":"waste_basket"}},"type":"Feature"},
	{"geometry":{"coordinates":[12.336647,45.440261],"type":"Point"},"properties":{"osm_id":"5542304861","tag":{"amenity":"waste_basket"}},"type":"Feature"},
	{"geometry":{"coordinates":[12.33912,45.439821],"type":"Point"},"properties":{"osm_id":"5547254585","tag":{"amenity":"waste_basket"}},"type":"Feature"},
	{"geometry":{"coordinates":[12.339013,45.439875],"type":"Point"},"properties":{"osm_id":"5547254586","tag":{"amenity":"waste_basket"}},"type":"Feature"},
	{"geometry":{"coordinates":[12.325354,45.443655],"type":"Point"},"properties":{"osm_id":"5555681842","tag":{"amenity":"waste_basket"}},"type":"Feature"},
	{"geometry":{"coordinates":[12.32113,45.440874],"type":"Point"},"properties":{"osm_id":"5565827452","tag":{"amenity":"waste_basket"}},"type":"Feature"},
	{"geometry":{"coordinates":[12.334764,45.440589],"type":"Point"},"properties":{"osm_id":"5575401717","tag":{"amenity":"waste_basket"}},"type":"Feature"},
	{"geometry":{"coordinates":[12.334805,45.440718],"type":"Point"},"properties":{"osm_id":"5575403038","tag":{"amenity":"waste_basket"}},"type":"Feature"},
	{"geometry":{"coordinates":[12.32301,45.438061],"type":"Point"},"properties":{"osm_id":"5736052285","tag":{"amenity":"waste_basket"}},"type":"Feature"},
	{"geometry":{"coordinates":[12.323519,45.437895],"type":"Point"},"properties":{"osm_id":"5736052286","tag":{"amenity":"waste_basket"}},"type":"Feature"},
	{"geometry":{"coordinates":[12.324296,45.437254],"type":"Point"},"properties":{"osm_id":"5736052287","tag":{"amenity":"waste_basket"}},"type":"Feature"},
	{"geometry":{"coordinates":[12.324464,45.437101],"type":"Point"},"properties":{"osm_id":"5736052288","tag":{"amenity":"waste_basket"}},"type":"Feature"},
	{"geometry":{"coordinates":[12.324823,45.437041],"type":"Point"},"properties":{"osm_id":"5736052289","tag":{"amenity":"waste_basket"}},"type":"Feature"},
	{"geometry":{"coordinates":[12.325645,45.436795],"type":"Point"},"properties":{"osm_id":"5736052290","tag":{"amenity":"waste_basket"}},"type":"Feature"},
	{"geometry":{"coordinates":[12.325831,45.436663],"type":"Point"},"properties":{"osm_id":"5736052291","tag":{"amenity":"waste_basket"}},"type":"Feature"},
	{"geometry":{"coordinates":[12.326023,45.436545],"type":"Point"},"properties":{"osm_id":"5736052292","tag":{"amenity":"waste_basket"}},"type":"Feature"},
	{"geometry":{"coordinates":[12.326345,45.436463],"type":"Point"},"properties":{"osm_id":"5736052293","tag":{"amenity":"waste_basket"}},"type":"Feature"},
	{"geometry":{"coordinates":[12.326379,45.436482],"type":"Point"},"properties":{"osm_id":"5736052294","tag":{"amenity":"waste_basket"}},"type":"Feature"},
	{"geometry":{"coordinates":[12.327144,45.436904],"type":"Point"},"properties":{"osm_id":"5736052295","tag":{"amenity":"waste_basket"}},"type":"Feature"},
	{"geometry":{"coordinates":[12.327155,45.437178],"type":"Point"},"properties":{"osm_id":"5736052296","tag":{"amenity":"waste_basket"}},"type":"Feature"},
	{"geometry":{"coordinates":[12.326881,45.437986],"type":"Point"},"properties":{"osm_id":"5736052297","tag":{"amenity":"waste_basket"}},"type":"Feature"},
	{"geometry":{"coordinates":[12.322286,45.440504],"type":"Point"},"properties":{"osm_id":"5736091399","tag":{"amenity":"waste_basket"}},"type":"Feature"},
	{"geometry":{"coordinates":[12.322292,45.4405],"type":"Point"},"properties":{"osm_id":"5736091400","tag":{"amenity":"waste_basket"}},"type":"Feature"},
	{"geometry":{"coordinates":[12.322752,45.44077],"type":"Point"},"properties":{"osm_id":"5736091401","tag":{"amenity":"waste_basket"}},"type":"Feature"},
	{"geometry":{"coordinates":[12.322163,45.440429],"type":"Point"},"properties":{"osm_id":"5736091402","tag":{"amenity":"waste_basket"}},"type":"Feature"},
	{"geometry":{"coordinates":[12.322168,45.440424],"type":"Point"},"properties":{"osm_id":"5736091403","tag":{"amenity":"waste_basket"}},"type":"Feature"},
	{"geometry":{"coordinates":[12.321611,45.437993],"type":"Point"},"properties":{"osm_id":"5736091404","tag":{"amenity":"waste_basket"}},"type":"Feature"},
	{"geometry":{"coordinates":[12.321605,45.437985],"type":"Point"},"properties":{"osm_id":"5736091405","tag":{"amenity":"waste_basket"}},"type":"Feature"},
	{"geometry":{"coordinates":[12.321194,45.437226],"type":"Point"},"properties":{"osm_id":"5736091406","tag":{"amenity":"waste_basket"}},"type":"Feature"},
	{"geometry":{"coordinates":[12.334063,45.438447],"type":"Point"},"properties":{"osm_id":"5736636432","tag":{"amenity":"waste_basket"}},"type":"Feature"},
	{"geometry":{"coordinates":[12.332459,45.437803],"type":"Point"},"properties":{"osm_id":"5736636433","tag":{"amenity":"waste_basket"}},"type":"Feature"},
	{"geometry":{"coordinates":[12.332451,45.437811],"type":"Point"},"properties":{"osm_id":"5736636434","tag":{"amenity":"waste_basket"}},"type":"Feature"},
	{"geometry":{"coordinates":[12.330796,45.437206],"type":"Point"},"properties":{"osm_id":"5736636435","tag":{"amenity":"waste_basket"}},"type":"Feature"},
	{"geometry":{"coordinates":[12.322825,45.440119],"type":"Point"},"properties":{"osm_id":"5736743844","tag":{"amenity":"waste_basket"}},"type":"Feature"},
	{"geometry":{"coordinates":[12.322818,45.440127],"type":"Point"},"properties":{"osm_id":"5736743845","tag":{"amenity":"waste_basket"}},"type":"Feature"},
	{"geometry":{"coordinates":[12.327516,45.436078],"type":"Point"},"properties":{"osm_id":"5736743846","tag":{"amenity":"waste_basket"}},"type":"Feature"},
	{"geometry":{"coordinates":[12.324314,45.435464],"type":"Point"},"properties":{"osm_id":"5801724166","tag":{"amenity":"waste_basket"}},"type":"Feature"},
	{"geometry":{"coordinates":[12.334504,45.431039],"type":"Point"},"properties":{"osm_id":"5834228385","tag":{"amenity":"waste_basket"}},"type":"Feature"},
	{"geometry":{"coordinates":[12.334395,45.43105],"type":"Point"},"properties":{"osm_id":"5834228485","tag":{"amenity":"waste_basket"}},"type":"Feature"},
	{"geometry":{"coordinates":[12.342336,45.429389],"type":"Point"},"properties":{"osm_id":"5834379986","tag":{"amenity":"waste_basket"}},"type":"Feature"},
	{"geometry":{"coordinates":[12.34459,45.437126],"type":"Point"},"properties":{"osm_id":"5923753091","tag":{"amenity":"waste_basket"}},"type":"Feature"},
	{"geometry":{"coordinates":[12.336924,45.433697],"type":"Point"},"properties":{"osm_id":"5923753102","tag":{"amenity":"waste_basket"}},"type":"Feature"},
	{"geometry":{"coordinates":[12.336323,45.433253],"type":"Point"},"properties":{"osm_id":"5923753120","tag":{"amenity":"waste_basket"}},"type":"Feature"},
	{"geometry":{"coordinates":[12.337588,45.436054],"type":"Point"},"properties":{"name":"M\u00c3\u00bclleimer","osm_id":"5940495527","tag":{"amenity":"waste_basket"}},"type":"Feature"},
	{"geometry":{"coordinates":[12.358406,45.456964],"type":"Point"},"properties":{"osm_id":"5959789438","tag":{"amenity":"waste_basket"}},"type":"Feature"},
	{"geometry":{"coordinates":[12.350448,45.452306],"type":"Point"},"properties":{"osm_id":"5959789439","tag":{"amenity":"waste_basket"}},"type":"Feature"},
	{"geometry":{"coordinates":[12.334169,45.433974],"type":"Point"},"properties":{"osm_id":"5959789680","tag":{"amenity":"waste_basket"}},"type":"Feature"},
	{"geometry":{"coordinates":[12.358358,45.456791],"type":"Point"},"properties":{"osm_id":"5959790524","tag":{"amenity":"waste_basket"}},"type":"Feature"},
	{"geometry":{"coordinates":[12.351753,45.453547],"type":"Point"},"properties":{"osm_id":"5959791026","tag":{"amenity":"waste_basket"}},"type":"Feature"},
	{"geometry":{"coordinates":[12.32762,45.436057],"type":"Point"},"properties":{"osm_id":"5964917296","tag":{"amenity":"waste_basket"}},"type":"Feature"},
	{"geometry":{"coordinates":[12.388838,45.454529],"type":"Point"},"properties":{"osm_id":"6542990981","tag":{"amenity":"waste_basket"}},"type":"Feature"},
	{"geometry":{"coordinates":[12.388886,45.454412],"type":"Point"},"properties":{"osm_id":"6542992099","tag":{"amenity":"waste_basket"}},"type":"Feature"},
	{"geometry":{"coordinates":[12.388869,45.454268],"type":"Point"},"properties":{"osm_id":"6542995388","tag":{"amenity":"waste_basket"}},"type":"Feature"},
	{"geometry":{"coordinates":[12.388925,45.454137],"type":"Point"},"properties":{"osm_id":"6542995585","tag":{"amenity":"waste_basket"}},"type":"Feature"},
	{"geometry":{"coordinates":[12.392205,45.446181],"type":"Point"},"properties":{"osm_id":"6544408275","tag":{"amenity":"waste_basket"}},"type":"Feature"},
	{"geometry":{"coordinates":[12.391222,45.448043],"type":"Point"},"properties":{"osm_id":"6544417138","tag":{"amenity":"waste_basket"}},"type":"Feature"},
	{"geometry":{"coordinates":[12.355243,45.456215],"type":"Point"},"properties":{"osm_id":"6550891213","tag":{"amenity":"waste_basket","waste":"trash, cigarettes"}},"type":"Feature"},
	{"geometry":{"coordinates":[12.355486,45.456168],"type":"Point"},"properties":{"osm_id":"6550891214","tag":{"amenity":"waste_basket","waste":"trash, cigarettes"}},"type":"Feature"},
	{"geometry":{"coordinates":[12.331228,45.423287],"type":"Point"},"properties":{"osm_id":"7794740313","tag":{"amenity":"waste_basket"}},"type":"Feature"},
	{"geometry":{"coordinates":[12.331064,45.423204],"type":"Point"},"properties":{"osm_id":"7794740322","tag":{"amenity":"waste_basket"}},"type":"Feature"},
	{"geometry":{"coordinates":[12.331437,45.423257],"type":"Point"},"properties":{"osm_id":"7794740323","tag":{"amenity":"waste_basket"}},"type":"Feature"},
	{"geometry":{"coordinates":[12.331059,45.423283],"type":"Point"},"properties":{"osm_id":"7794740324","tag":{"amenity":"waste_basket"}},"type":"Feature"}
]
}
