{
"type": "FeatureCollection",
"features": [
	{"geometry":{"coordinates":[174.879918,-37.054069],"type":"Point"},"properties":{"osm_id":"7502300097","tag":{"amenity":"waste_basket","description":"In the middle of the reserve near `the playground by a picnic table on the esplanade front","material":"steel","operator":"Auckland Council","waste":"trash"}},"type":"Feature"},
	{"geometry":{"coordinates":[174.879076,-37.053581],"type":"Point"},"properties":{"osm_id":"7502300098","tag":{"amenity":"waste_basket","description":"RBIN-Just down from the Dalhamoy Pl ent","material":"steel","operator":"Auckland Council","waste":"trash"}},"type":"Feature"},
	{"geometry":{"coordinates":[174.887181,-37.058435],"type":"Point"},"properties":{"osm_id":"8105834071","tag":{"amenity":"waste_basket","waste":"dog_excrement"}},"type":"Feature"},
	{"geometry":{"coordinates":[174.887175,-37.058437],"type":"Point"},"properties":{"osm_id":"8105834072","tag":{"amenity":"waste_basket"}},"type":"Feature"},
	{"geometry":{"coordinates":[174.882555,-37.048641],"type":"Point"},"properties":{"osm_id":"8370595925","tag":{"amenity":"waste_basket"}},"type":"Feature"},
	{"geometry":{"coordinates":[174.8813,-37.049356],"type":"Point"},"properties":{"osm_id":"8370595928","tag":{"amenity":"waste_basket"}},"type":"Feature"},
	{"geometry":{"coordinates":[174.891254,-37.050691],"type":"Point"},"properties":{"osm_id":"8398723421","tag":{"amenity":"waste_basket"}},"type":"Feature"},
	{"geometry":{"coordinates":[174.891123,-37.050488],"type":"Point"},"properties":{"osm_id":"8398723422","tag":{"amenity":"waste_basket"}},"type":"Feature"},
	{"geometry":{"coordinates":[174.892936,-37.042013],"type":"Point"},"properties":{"osm_id":"8588569114","tag":{"amenity":"waste_basket"}},"type":"Feature"},
	{"geometry":{"coordinates":[174.89355,-37.041806],"type":"Point"},"properties":{"osm_id":"8588569115","tag":{"amenity":"waste_basket"}},"type":"Feature"},
	{"geometry":{"coordinates":[174.892926,-37.040711],"type":"Point"},"properties":{"osm_id":"8588569741","tag":{"amenity":"waste_basket"}},"type":"Feature"},
	{"geometry":{"coordinates":[174.892764,-37.04053],"type":"Point"},"properties":{"osm_id":"8588569742","tag":{"amenity":"waste_basket"}},"type":"Feature"},
	{"geometry":{"coordinates":[174.891626,-37.04079],"type":"Point"},"properties":{"osm_id":"8588569745","tag":{"amenity":"waste_basket"}},"type":"Feature"},
	{"geometry":{"coordinates":[174.890888,-37.042882],"type":"Point"},"properties":{"osm_id":"8588569746","tag":{"amenity":"waste_basket"}},"type":"Feature"},
	{"geometry":{"coordinates":[174.893318,-37.041337],"type":"Point"},"properties":{"osm_id":"8588569747","tag":{"amenity":"waste_basket"}},"type":"Feature"}
]
}
