{
"type": "FeatureCollection",
"features": [
	{"geometry":{"coordinates":[174.884132,-41.037437],"type":"Point"},"properties":{"name":"Clothing Bins","osm_id":"6579882604","tag":{"amenity":"recycling","material":"steel","operator":"Child Cancer Foundation","recycling:clothes":"yes","recycling:shoes":"yes","recycling_type":"container"}},"type":"Feature"},
	{"geometry":{"coordinates":[174.881206,-41.039401],"type":"Point"},"properties":{"osm_id":"6579897128","tag":{"amenity":"waste_basket","colour":"green","material":"plastic","operator":"Porirua City Council"}},"type":"Feature"},
	{"geometry":{"coordinates":[174.885218,-41.037158],"type":"Point"},"properties":{"osm_id":"6601867057","tag":{"amenity":"waste_basket"}},"type":"Feature"},
	{"geometry":{"coordinates":[174.885197,-41.037296],"type":"Point"},"properties":{"osm_id":"6601867058","tag":{"amenity":"waste_basket"}},"type":"Feature"},
	{"geometry":{"coordinates":[174.886862,-41.042189],"type":"Point"},"properties":{"osm_id":"8963038571","tag":{"amenity":"waste_basket"}},"type":"Feature"}
]
}
