{
"type": "FeatureCollection",
"features": [
	{"geometry":{"coordinates":[174.88854,-41.110543],"type":"Point"},"properties":{"osm_id":"488961092","tag":{"amenity":"waste_basket"}},"type":"Feature"},
	{"geometry":{"coordinates":[174.889253,-41.110142],"type":"Point"},"properties":{"osm_id":"488961095","tag":{"amenity":"waste_basket"}},"type":"Feature"},
	{"geometry":{"coordinates":[174.898765,-41.092023],"type":"Point"},"properties":{"osm_id":"2305588954","tag":{"amenity":"waste_basket"}},"type":"Feature"},
	{"geometry":{"coordinates":[174.898382,-41.092321],"type":"Point"},"properties":{"osm_id":"2305588962","tag":{"amenity":"waste_basket"}},"type":"Feature"},
	{"geometry":{"coordinates":[174.898115,-41.09256],"type":"Point"},"properties":{"osm_id":"2305588970","tag":{"amenity":"waste_basket"}},"type":"Feature"},
	{"geometry":{"coordinates":[174.901563,-41.094257],"type":"Point"},"properties":{"osm_id":"2305588999","tag":{"amenity":"waste_basket"}},"type":"Feature"},
	{"geometry":{"coordinates":[174.870583,-41.097481],"type":"Point"},"properties":{"osm_id":"2315305599","tag":{"amenity":"waste_basket"}},"type":"Feature"},
	{"geometry":{"coordinates":[174.865576,-41.096607],"type":"Point"},"properties":{"osm_id":"4565604496","tag":{"amenity":"waste_basket"}},"type":"Feature"},
	{"geometry":{"coordinates":[174.865769,-41.096029],"type":"Point"},"properties":{"osm_id":"4565604497","tag":{"amenity":"waste_basket"}},"type":"Feature"},
	{"geometry":{"coordinates":[174.866138,-41.097876],"type":"Point"},"properties":{"osm_id":"6278126785","tag":{"amenity":"waste_basket"}},"type":"Feature"},
	{"geometry":{"coordinates":[174.867362,-41.097479],"type":"Point"},"properties":{"osm_id":"6278126885","tag":{"amenity":"waste_basket"}},"type":"Feature"},
	{"geometry":{"coordinates":[174.881191,-41.1071],"type":"Point"},"properties":{"osm_id":"6584193075","tag":{"amenity":"waste_basket","colour":"blue"}},"type":"Feature"},
	{"geometry":{"coordinates":[174.890103,-41.106234],"type":"Point"},"properties":{"osm_id":"6584244463","tag":{"amenity":"waste_basket","colour":"blue"}},"type":"Feature"},
	{"geometry":{"coordinates":[174.898686,-41.092133],"type":"Point"},"properties":{"osm_id":"6598553458","tag":{"amenity":"waste_basket"}},"type":"Feature"},
	{"geometry":{"coordinates":[174.888746,-41.110908],"type":"Point"},"properties":{"name":"Clothing bin","osm_id":"6612427147","tag":{"amenity":"recycling","location":"overground","recycling_type":"container"}},"type":"Feature"},
	{"geometry":{"coordinates":[174.889207,-41.109721],"type":"Point"},"properties":{"name":"Clothing bin","osm_id":"6612432907","tag":{"amenity":"recycling","location":"overground","recycling_type":"container"}},"type":"Feature"}
]
}
