{
"type": "FeatureCollection",
"features": [
	{"geometry":{"coordinates":[22.659204,44.63375],"type":"Point"},"properties":{"osm_id":"3155061454","tag":{"amenity":"waste_disposal"}},"type":"Feature"},
	{"geometry":{"coordinates":[22.669495,44.636009],"type":"Point"},"properties":{"osm_id":"3155061561","tag":{"amenity":"waste_disposal"}},"type":"Feature"},
	{"geometry":{"coordinates":[22.669896,44.641738],"type":"Point"},"properties":{"name":"Bratner","osm_id":"4587008789","tag":{"amenity":"recycling","name:ro":"Bratner"}},"type":"Feature"},
	{"geometry":{"coordinates":[22.616414,44.624933],"type":"Point"},"properties":{"osm_id":"5434200929","tag":{"amenity":"waste_disposal"}},"type":"Feature"},
	{"geometry":{"coordinates":[22.616833,44.625003],"type":"Point"},"properties":{"osm_id":"5434200930","tag":{"amenity":"waste_disposal"}},"type":"Feature"},
	{"geometry":{"coordinates":[22.615828,44.624641],"type":"Point"},"properties":{"osm_id":"5434201124","tag":{"amenity":"waste_disposal"}},"type":"Feature"},
	{"geometry":{"coordinates":[22.616197,44.625409],"type":"Point"},"properties":{"osm_id":"5434201125","tag":{"amenity":"waste_disposal"}},"type":"Feature"}
]
}
