{
"type": "FeatureCollection",
"features": [
	{"geometry":{"coordinates":[-73.067102,40.94955],"type":"Point"},"properties":{"osm_id":"4583448255","tag":{"amenity":"waste_basket"}},"type":"Feature"},
	{"geometry":{"coordinates":[-73.121382,40.918076],"type":"Point"},"properties":{"osm_id":"7782496412","tag":{"amenity":"waste_disposal"}},"type":"Feature"},
	{"geometry":{"coordinates":[-73.121066,40.919863],"type":"Point"},"properties":{"osm_id":"7786944773","tag":{"amenity":"waste_disposal"}},"type":"Feature"},
	{"geometry":{"coordinates":[-73.122895,40.914166],"type":"Point"},"properties":{"osm_id":"7790428581","tag":{"amenity":"waste_disposal"}},"type":"Feature"},
	{"geometry":{"coordinates":[-73.120512,40.916617],"type":"Point"},"properties":{"osm_id":"7811658477","tag":{"amenity":"waste_disposal"}},"type":"Feature"},
	{"geometry":{"coordinates":[-73.120587,40.913671],"type":"Point"},"properties":{"osm_id":"7824779002","tag":{"amenity":"waste_disposal"}},"type":"Feature"},
	{"geometry":{"coordinates":[-73.121187,40.919079],"type":"Point"},"properties":{"osm_id":"7850883978","tag":{"amenity":"waste_basket","colour":"green","covered":"no","indoor":"no","material":"metal","waste":"trash"}},"type":"Feature"},
	{"geometry":{"coordinates":[-73.121186,40.919083],"type":"Point"},"properties":{"osm_id":"7850883980","tag":{"amenity":"waste_basket","colour":"blue","covered":"no","indoor":"no","material":"metal","waste":"recycling"}},"type":"Feature"}
]
}
