{
"type": "FeatureCollection",
"features": [
	{"geometry":{"coordinates":[-73.123873,40.910536],"type":"Point"},"properties":{"osm_id":"7786946710","tag":{"amenity":"waste_disposal"}},"type":"Feature"},
	{"geometry":{"coordinates":[-73.124148,40.910375],"type":"Point"},"properties":{"osm_id":"7821685767","tag":{"amenity":"waste_basket"}},"type":"Feature"},
	{"geometry":{"coordinates":[-73.124161,40.91038],"type":"Point"},"properties":{"osm_id":"7821685768","tag":{"amenity":"waste_basket"}},"type":"Feature"},
	{"geometry":{"coordinates":[-73.110266,40.907905],"type":"Point"},"properties":{"osm_id":"7824930574","tag":{"amenity":"waste_disposal"}},"type":"Feature"},
	{"geometry":{"coordinates":[-73.109508,40.906817],"type":"Point"},"properties":{"osm_id":"7824930927","tag":{"amenity":"waste_disposal"}},"type":"Feature"},
	{"geometry":{"coordinates":[-73.110513,40.906864],"type":"Point"},"properties":{"osm_id":"7824930958","tag":{"amenity":"waste_disposal"}},"type":"Feature"},
	{"geometry":{"coordinates":[-73.124251,40.910765],"type":"Point"},"properties":{"osm_id":"7847438161","tag":{"amenity":"waste_basket","covered":"no"}},"type":"Feature"},
	{"geometry":{"coordinates":[-73.110364,40.907526],"type":"Point"},"properties":{"osm_id":"7899080876","tag":{"amenity":"waste_basket"}},"type":"Feature"}
]
}
