{
"type": "FeatureCollection",
"features": [
	{"geometry":{"coordinates":[-73.102216,-36.784664],"type":"Point"},"properties":{"osm_id":"310587688","tag":{"amenity":"waste_disposal"}},"type":"Feature"},
	{"geometry":{"coordinates":[-73.084041,-36.750156],"type":"Point"},"properties":{"name":"San Marcos 2000","osm_id":"4317668618","tag":{"amenity":"recycling"}},"type":"Feature"},
	{"geometry":{"coordinates":[-73.104578,-36.793157],"type":"Point"},"properties":{"name":"Centro Reciclaje Vidrio","osm_id":"4664530886","tag":{"addr:street":"Avenida Alemania","amenity":"recycling","recycling:glass":"yes","recycling:glass_bottles":"yes","recycling_type":"container"}},"type":"Feature"},
	{"geometry":{"coordinates":[-73.101547,-36.796033],"type":"Point"},"properties":{"name":"Contenedor reciclaje vidrio","osm_id":"4664561320","tag":{"addr:street":"Postdam","amenity":"recycling","recycling:glass":"yes","recycling:glass_bottles":"yes","recycling_type":"container"}},"type":"Feature"},
	{"geometry":{"coordinates":[-73.111563,-36.798877],"type":"Point"},"properties":{"name":"Contendor reciclaje","osm_id":"4666527486","tag":{"amenity":"recycling","recycling:glass":"yes","recycling:glass_bottles":"yes","recycling_type":"container"}},"type":"Feature"},
	{"geometry":{"coordinates":[-73.107986,-36.797885],"type":"Point"},"properties":{"name":"Contenedor botellas pl\u00c3\u00a1sticas","osm_id":"4670311719","tag":{"addr:street":"Avenida 2","amenity":"recycling","recycling:plastic_bottles":"yes","recycling_type":"container"}},"type":"Feature"},
	{"geometry":{"coordinates":[-73.11162,-36.795624],"type":"Point"},"properties":{"name":"Punto limpio: Deposito de pl\u00c3\u00a1sticos","osm_id":"4670365738","tag":{"amenity":"recycling","recycling:plastic":"yes","recycling:plastic_bottles":"yes","recycling_type":"centre"}},"type":"Feature"},
	{"geometry":{"coordinates":[-73.095624,-36.786752],"type":"Point"},"properties":{"osm_id":"4673591562","tag":{"amenity":"waste_disposal"}},"type":"Feature"},
	{"geometry":{"coordinates":[-73.09612,-36.786737],"type":"Point"},"properties":{"osm_id":"4673877443","tag":{"amenity":"waste_disposal"}},"type":"Feature"},
	{"geometry":{"coordinates":[-73.097955,-36.786779],"type":"Point"},"properties":{"osm_id":"4674541036","tag":{"amenity":"waste_disposal"}},"type":"Feature"},
	{"geometry":{"coordinates":[-73.098113,-36.786764],"type":"Point"},"properties":{"osm_id":"4674541037","tag":{"amenity":"waste_disposal"}},"type":"Feature"},
	{"geometry":{"coordinates":[-73.097338,-36.786801],"type":"Point"},"properties":{"osm_id":"4674541152","tag":{"amenity":"waste_disposal"}},"type":"Feature"},
	{"geometry":{"coordinates":[-73.098661,-36.786755],"type":"Point"},"properties":{"osm_id":"4674550489","tag":{"amenity":"waste_disposal"}},"type":"Feature"},
	{"geometry":{"coordinates":[-73.099003,-36.781696],"type":"Point"},"properties":{"osm_id":"4674616160","tag":{"amenity":"recycling","recycling:glass":"yes","recycling_type":"container"}},"type":"Feature"},
	{"geometry":{"coordinates":[-73.099787,-36.786763],"type":"Point"},"properties":{"osm_id":"4674714872","tag":{"amenity":"waste_disposal"}},"type":"Feature"},
	{"geometry":{"coordinates":[-73.100133,-36.78675],"type":"Point"},"properties":{"osm_id":"4674714873","tag":{"amenity":"waste_disposal"}},"type":"Feature"},
	{"geometry":{"coordinates":[-73.101694,-36.787189],"type":"Point"},"properties":{"osm_id":"4674894751","tag":{"amenity":"waste_disposal"}},"type":"Feature"},
	{"geometry":{"coordinates":[-73.101779,-36.786603],"type":"Point"},"properties":{"osm_id":"4674894752","tag":{"amenity":"waste_disposal"}},"type":"Feature"},
	{"geometry":{"coordinates":[-73.101507,-36.785688],"type":"Point"},"properties":{"osm_id":"4674895285","tag":{"amenity":"waste_disposal"}},"type":"Feature"},
	{"geometry":{"coordinates":[-73.101835,-36.784765],"type":"Point"},"properties":{"osm_id":"4674905544","tag":{"amenity":"waste_disposal"}},"type":"Feature"},
	{"geometry":{"coordinates":[-73.102996,-36.782624],"type":"Point"},"properties":{"osm_id":"4674917121","tag":{"amenity":"recycling","recycling_type":"container"}},"type":"Feature"},
	{"geometry":{"coordinates":[-73.103575,-36.780684],"type":"Point"},"properties":{"osm_id":"4674923820","tag":{"amenity":"recycling","recycling_type":"container"}},"type":"Feature"},
	{"geometry":{"coordinates":[-73.103228,-36.780835],"type":"Point"},"properties":{"osm_id":"4674948711","tag":{"amenity":"recycling","recycling:plastic":"yes","recycling_type":"container"}},"type":"Feature"},
	{"geometry":{"coordinates":[-73.105597,-36.782154],"type":"Point"},"properties":{"osm_id":"4675021286","tag":{"amenity":"recycling","recycling_type":"container"}},"type":"Feature"},
	{"geometry":{"coordinates":[-73.105803,-36.782199],"type":"Point"},"properties":{"name":"Centro de reciclaje","osm_id":"4675021690","tag":{"addr:street":"Belgica","amenity":"recycling","recycling_type":"centre"}},"type":"Feature"},
	{"geometry":{"coordinates":[-73.102986,-36.785447],"type":"Point"},"properties":{"osm_id":"4675027440","tag":{"amenity":"waste_disposal"}},"type":"Feature"},
	{"geometry":{"coordinates":[-73.103522,-36.784631],"type":"Point"},"properties":{"osm_id":"4675049753","tag":{"amenity":"waste_disposal"}},"type":"Feature"},
	{"geometry":{"coordinates":[-73.102903,-36.784628],"type":"Point"},"properties":{"osm_id":"4675055009","tag":{"amenity":"waste_disposal"}},"type":"Feature"},
	{"geometry":{"coordinates":[-73.10236,-36.78546],"type":"Point"},"properties":{"osm_id":"4675062915","tag":{"amenity":"waste_disposal"}},"type":"Feature"},
	{"geometry":{"coordinates":[-73.10359,-36.785478],"type":"Point"},"properties":{"osm_id":"4675065324","tag":{"amenity":"waste_disposal"}},"type":"Feature"},
	{"geometry":{"coordinates":[-73.103982,-36.785451],"type":"Point"},"properties":{"osm_id":"4675066094","tag":{"amenity":"waste_disposal"}},"type":"Feature"},
	{"geometry":{"coordinates":[-73.103412,-36.786407],"type":"Point"},"properties":{"osm_id":"4675268122","tag":{"amenity":"waste_disposal"}},"type":"Feature"},
	{"geometry":{"coordinates":[-73.102971,-36.786607],"type":"Point"},"properties":{"osm_id":"4675268262","tag":{"amenity":"waste_disposal"}},"type":"Feature"},
	{"geometry":{"coordinates":[-73.102238,-36.786486],"type":"Point"},"properties":{"osm_id":"4675271392","tag":{"amenity":"waste_disposal"}},"type":"Feature"},
	{"geometry":{"coordinates":[-73.074265,-36.809131],"type":"Point"},"properties":{"name":"Campanas de vidrio","osm_id":"5667894821","tag":{"amenity":"recycling","recycling_type":"centre"}},"type":"Feature"},
	{"geometry":{"coordinates":[-73.107725,-36.778307],"type":"Point"},"properties":{"osm_id":"6040805491","tag":{"amenity":"waste_basket"}},"type":"Feature"},
	{"geometry":{"coordinates":[-73.110416,-36.778138],"type":"Point"},"properties":{"osm_id":"6047722386","tag":{"amenity":"waste_disposal"}},"type":"Feature"},
	{"geometry":{"coordinates":[-73.110666,-36.778024],"type":"Point"},"properties":{"osm_id":"6047722392","tag":{"amenity":"waste_disposal"}},"type":"Feature"},
	{"geometry":{"coordinates":[-73.110402,-36.777961],"type":"Point"},"properties":{"osm_id":"6047722393","tag":{"amenity":"waste_disposal"}},"type":"Feature"},
	{"geometry":{"coordinates":[-73.110797,-36.778038],"type":"Point"},"properties":{"osm_id":"6047727934","tag":{"amenity":"waste_disposal"}},"type":"Feature"},
	{"geometry":{"coordinates":[-73.110654,-36.778247],"type":"Point"},"properties":{"osm_id":"6047727935","tag":{"amenity":"waste_disposal"}},"type":"Feature"},
	{"geometry":{"coordinates":[-73.110741,-36.777887],"type":"Point"},"properties":{"osm_id":"6047736299","tag":{"amenity":"waste_disposal"}},"type":"Feature"},
	{"geometry":{"coordinates":[-73.110973,-36.778247],"type":"Point"},"properties":{"osm_id":"6047739328","tag":{"amenity":"waste_disposal"}},"type":"Feature"},
	{"geometry":{"coordinates":[-73.111088,-36.778328],"type":"Point"},"properties":{"osm_id":"6047739329","tag":{"amenity":"waste_disposal"}},"type":"Feature"},
	{"geometry":{"coordinates":[-73.110772,-36.778231],"type":"Point"},"properties":{"osm_id":"6047739333","tag":{"amenity":"waste_disposal"}},"type":"Feature"},
	{"geometry":{"coordinates":[-73.112261,-36.778345],"type":"Point"},"properties":{"osm_id":"6047824288","tag":{"addr:city":"Hualp\u00c3\u00a9n","addr:street":"Manchester","amenity":"waste_basket"}},"type":"Feature"},
	{"geometry":{"coordinates":[-73.11248,-36.778396],"type":"Point"},"properties":{"osm_id":"6047824289","tag":{"addr:city":"Hualp\u00c3\u00a9n","addr:street":"Manchester","amenity":"waste_basket"}},"type":"Feature"},
	{"geometry":{"coordinates":[-73.11221,-36.778277],"type":"Point"},"properties":{"osm_id":"6047824290","tag":{"addr:city":"Hualp\u00c3\u00a9n","addr:street":"Manchester","amenity":"waste_basket"}},"type":"Feature"},
	{"geometry":{"coordinates":[-73.112205,-36.778211],"type":"Point"},"properties":{"osm_id":"6047824291","tag":{"addr:city":"Hualp\u00c3\u00a9n","addr:street":"Manchester","amenity":"waste_basket"}},"type":"Feature"},
	{"geometry":{"coordinates":[-73.1125,-36.77814],"type":"Point"},"properties":{"osm_id":"6047824297","tag":{"addr:city":"Hualp\u00c3\u00a9n","addr:street":"Manchester","amenity":"waste_basket"}},"type":"Feature"},
	{"geometry":{"coordinates":[-73.112422,-36.778159],"type":"Point"},"properties":{"osm_id":"6047824298","tag":{"addr:city":"Hualp\u00c3\u00a9n","addr:street":"Manchester","amenity":"waste_basket"}},"type":"Feature"},
	{"geometry":{"coordinates":[-73.112093,-36.779363],"type":"Point"},"properties":{"osm_id":"6047878907","tag":{"amenity":"waste_basket"}},"type":"Feature"},
	{"geometry":{"coordinates":[-73.111709,-36.779146],"type":"Point"},"properties":{"osm_id":"6047878920","tag":{"amenity":"waste_basket"}},"type":"Feature"},
	{"geometry":{"coordinates":[-73.111176,-36.779055],"type":"Point"},"properties":{"osm_id":"6047923420","tag":{"addr:city":"Hualp\u00c3\u00a9n","addr:street":"Dinamarca","amenity":"waste_basket"}},"type":"Feature"},
	{"geometry":{"coordinates":[-73.111178,-36.77917],"type":"Point"},"properties":{"osm_id":"6047923421","tag":{"addr:city":"Hualp\u00c3\u00a9n","addr:street":"Dinamarca","amenity":"waste_basket"}},"type":"Feature"},
	{"geometry":{"coordinates":[-73.109867,-36.77893],"type":"Point"},"properties":{"osm_id":"6047925777","tag":{"addr:city":"Hualp\u00c3\u00a9n","addr:street":"Dinamarca","amenity":"waste_basket"}},"type":"Feature"},
	{"geometry":{"coordinates":[-73.110862,-36.778984],"type":"Point"},"properties":{"osm_id":"6047926430","tag":{"addr:city":"Hualp\u00c3\u00a9n","addr:street":"Dinamarca","amenity":"waste_basket"}},"type":"Feature"},
	{"geometry":{"coordinates":[-73.110249,-36.779005],"type":"Point"},"properties":{"osm_id":"6047926435","tag":{"addr:city":"Hualp\u00c3\u00a9n","addr:street":"Dinamarca","amenity":"waste_basket"}},"type":"Feature"},
	{"geometry":{"coordinates":[-73.109717,-36.778758],"type":"Point"},"properties":{"osm_id":"6047947726","tag":{"amenity":"waste_basket"}},"type":"Feature"},
	{"geometry":{"coordinates":[-73.109322,-36.778819],"type":"Point"},"properties":{"osm_id":"6047947741","tag":{"addr:city":"Hualp\u00c3\u00a9n","addr:street":"Dinamarca","amenity":"waste_basket"}},"type":"Feature"},
	{"geometry":{"coordinates":[-73.109101,-36.778647],"type":"Point"},"properties":{"osm_id":"6047959404","tag":{"addr:city":"Hualp\u00c3\u00a9n","addr:street":"Dinamarca","amenity":"waste_basket"}},"type":"Feature"},
	{"geometry":{"coordinates":[-73.109085,-36.778776],"type":"Point"},"properties":{"osm_id":"6047959405","tag":{"addr:city":"Hualp\u00c3\u00a9n","addr:street":"Dinamarca","amenity":"waste_basket"}},"type":"Feature"},
	{"geometry":{"coordinates":[-73.108583,-36.778533],"type":"Point"},"properties":{"osm_id":"6048005201","tag":{"addr:city":"Hualp\u00c3\u00a9n","addr:street":"Dinamarca","amenity":"waste_basket"}},"type":"Feature"},
	{"geometry":{"coordinates":[-73.108245,-36.77861],"type":"Point"},"properties":{"osm_id":"6048005233","tag":{"addr:city":"Hualp\u00c3\u00a9n","addr:street":"Dinamarca","amenity":"waste_basket"}},"type":"Feature"},
	{"geometry":{"coordinates":[-73.108166,-36.778455],"type":"Point"},"properties":{"osm_id":"6048021972","tag":{"addr:city":"Hualp\u00c3\u00a9n","addr:street":"Dinamarca","amenity":"waste_basket"}},"type":"Feature"},
	{"geometry":{"coordinates":[-73.106835,-36.779288],"type":"Point"},"properties":{"osm_id":"6050450903","tag":{"amenity":"waste_basket"}},"type":"Feature"},
	{"geometry":{"coordinates":[-73.111047,-36.78042],"type":"Point"},"properties":{"osm_id":"6051544811","tag":{"amenity":"waste_basket"}},"type":"Feature"},
	{"geometry":{"coordinates":[-73.110713,-36.780317],"type":"Point"},"properties":{"osm_id":"6051544812","tag":{"amenity":"waste_basket"}},"type":"Feature"},
	{"geometry":{"coordinates":[-73.109942,-36.778804],"type":"Point"},"properties":{"osm_id":"6051947695","tag":{"amenity":"waste_basket"}},"type":"Feature"},
	{"geometry":{"coordinates":[-73.110144,-36.778136],"type":"Point"},"properties":{"osm_id":"6051947704","tag":{"addr:city":"Hualp\u00c3\u00a9n","addr:street":"Manchester","amenity":"waste_basket"}},"type":"Feature"},
	{"geometry":{"coordinates":[-73.106397,-36.780116],"type":"Point"},"properties":{"osm_id":"6052177718","tag":{"amenity":"waste_basket"}},"type":"Feature"},
	{"geometry":{"coordinates":[-73.107704,-36.779587],"type":"Point"},"properties":{"osm_id":"6052195135","tag":{"amenity":"waste_basket"}},"type":"Feature"},
	{"geometry":{"coordinates":[-73.105715,-36.780007],"type":"Point"},"properties":{"osm_id":"6052984656","tag":{"amenity":"waste_basket"}},"type":"Feature"},
	{"geometry":{"coordinates":[-73.10534,-36.780113],"type":"Point"},"properties":{"osm_id":"6052984667","tag":{"amenity":"waste_basket"}},"type":"Feature"},
	{"geometry":{"coordinates":[-73.10492,-36.780198],"type":"Point"},"properties":{"osm_id":"6053015192","tag":{"amenity":"waste_basket"}},"type":"Feature"},
	{"geometry":{"coordinates":[-73.103721,-36.780745],"type":"Point"},"properties":{"osm_id":"6053015197","tag":{"amenity":"waste_basket"}},"type":"Feature"},
	{"geometry":{"coordinates":[-73.103693,-36.780655],"type":"Point"},"properties":{"osm_id":"6053015198","tag":{"amenity":"waste_basket"}},"type":"Feature"},
	{"geometry":{"coordinates":[-73.103514,-36.78092],"type":"Point"},"properties":{"osm_id":"6053020547","tag":{"amenity":"waste_basket"}},"type":"Feature"}
]
}
