{
"type": "FeatureCollection",
"features": [
	{"geometry":{"coordinates":[-73.076872,-36.843219],"type":"Point"},"properties":{"highway":"traffic_signals","osm_id":"4199036232"},"type":"Feature"},
	{"geometry":{"coordinates":[-73.043781,-36.863358],"type":"Point"},"properties":{"osm_id":"4611161920","tag":{"addr:street":"Ram\u00c3\u00b3n Harriett","amenity":"recycling","recycling:glass":"yes","recycling_type":"container"}},"type":"Feature"},
	{"geometry":{"coordinates":[-73.042345,-36.865041],"type":"Point"},"properties":{"osm_id":"4611175362","tag":{"addr:street":"Rafael Sotomayor","amenity":"recycling","recycling:glass":"yes","recycling:plastic":"yes","recycling_type":"container"}},"type":"Feature"},
	{"geometry":{"coordinates":[-73.03966,-36.867381],"type":"Point"},"properties":{"osm_id":"4611191636","tag":{"amenity":"recycling","recycling:glass":"yes","recycling_type":"container"}},"type":"Feature"},
	{"geometry":{"coordinates":[-73.03932,-36.867325],"type":"Point"},"properties":{"osm_id":"4611193245","tag":{"amenity":"recycling","recycling:plastic":"yes","recycling_type":"container"}},"type":"Feature"},
	{"geometry":{"coordinates":[-73.037302,-36.865424],"type":"Point"},"properties":{"osm_id":"4611203276","tag":{"addr:street":"Rafael Sotomayor","amenity":"recycling","recycling:glass":"yes","recycling_type":"container"}},"type":"Feature"},
	{"geometry":{"coordinates":[-73.11338,-36.844159],"type":"Point"},"properties":{"name":"Cristoro","osm_id":"4633864384","tag":{"amenity":"recycling","recycling:glass_bottles":"yes","recycling_type":"container"}},"type":"Feature"},
	{"geometry":{"coordinates":[-73.110477,-36.840885],"type":"Point"},"properties":{"osm_id":"4636422218","tag":{"addr:street":"Los Escolapios","amenity":"recycling","description":"Papel, Metales, Vidrios","recycling:glass":"yes","recycling:paper":"yes","recycling:plastic":"yes","recycling_type":"container"}},"type":"Feature"},
	{"geometry":{"coordinates":[-73.058438,-36.829513],"type":"Point"},"properties":{"osm_id":"4664983794","tag":{"amenity":"recycling","recycling:glass":"yes","recycling_type":"container"}},"type":"Feature"},
	{"geometry":{"coordinates":[-73.047066,-36.818248],"type":"Point"},"properties":{"osm_id":"5303306024","tag":{"amenity":"recycling","recycling:cans":"yes","recycling:clothes":"no","recycling:glass":"no","recycling:glass_bottles":"no","recycling:paper":"no","recycling:plastic":"yes","recycling_type":"container"}},"type":"Feature"},
	{"geometry":{"coordinates":[-73.044082,-36.832729],"type":"Point"},"properties":{"osm_id":"5303475821","tag":{"amenity":"waste_basket"}},"type":"Feature"},
	{"geometry":{"coordinates":[-73.048468,-36.818048],"type":"Point"},"properties":{"osm_id":"6191189497","tag":{"amenity":"recycling","collection_times":"24/7","recycling:glass":"yes","recycling:glass_bottles":"yes","recycling:paper":"yes","recycling:plastic":"yes","recycling:plastic_bottles":"yes","recycling:plastic_packaging":"yes","recycling_type":"container"}},"type":"Feature"},
	{"geometry":{"coordinates":[-73.051403,-36.82698],"type":"Point"},"properties":{"osm_id":"6984955735","tag":{"amenity":"waste_basket"}},"type":"Feature"},
	{"geometry":{"coordinates":[-73.051077,-36.827301],"type":"Point"},"properties":{"osm_id":"6984955736","tag":{"amenity":"waste_basket"}},"type":"Feature"},
	{"geometry":{"coordinates":[-73.050849,-36.82765],"type":"Point"},"properties":{"osm_id":"6984955741","tag":{"amenity":"waste_basket"}},"type":"Feature"},
	{"geometry":{"coordinates":[-73.050739,-36.827806],"type":"Point"},"properties":{"osm_id":"6984955742","tag":{"amenity":"waste_basket"}},"type":"Feature"},
	{"geometry":{"coordinates":[-73.053503,-36.827873],"type":"Point"},"properties":{"osm_id":"6986096807","tag":{"amenity":"waste_basket"}},"type":"Feature"},
	{"geometry":{"coordinates":[-73.053147,-36.827683],"type":"Point"},"properties":{"osm_id":"6986096808","tag":{"amenity":"waste_basket"}},"type":"Feature"},
	{"geometry":{"coordinates":[-73.052744,-36.827539],"type":"Point"},"properties":{"osm_id":"6986096809","tag":{"amenity":"waste_basket"}},"type":"Feature"},
	{"geometry":{"coordinates":[-73.04971,-36.827627],"type":"Point"},"properties":{"osm_id":"6991209042","tag":{"amenity":"waste_basket"}},"type":"Feature"},
	{"geometry":{"coordinates":[-73.050043,-36.827761],"type":"Point"},"properties":{"osm_id":"6991209043","tag":{"amenity":"waste_basket"}},"type":"Feature"},
	{"geometry":{"coordinates":[-73.050389,-36.827907],"type":"Point"},"properties":{"osm_id":"6991209044","tag":{"amenity":"waste_basket"}},"type":"Feature"},
	{"geometry":{"coordinates":[-73.049331,-36.827469],"type":"Point"},"properties":{"osm_id":"6991209045","tag":{"amenity":"waste_basket"}},"type":"Feature"},
	{"geometry":{"coordinates":[-73.045919,-36.826054],"type":"Point"},"properties":{"osm_id":"6992732215","tag":{"amenity":"waste_basket"}},"type":"Feature"},
	{"geometry":{"coordinates":[-73.049157,-36.827648],"type":"Point"},"properties":{"osm_id":"7004235142","tag":{"amenity":"waste_basket"}},"type":"Feature"},
	{"geometry":{"coordinates":[-73.049818,-36.826814],"type":"Point"},"properties":{"osm_id":"7023963569","tag":{"amenity":"waste_basket"}},"type":"Feature"},
	{"geometry":{"coordinates":[-73.049729,-36.826951],"type":"Point"},"properties":{"osm_id":"7023963570","tag":{"amenity":"waste_basket"}},"type":"Feature"},
	{"geometry":{"coordinates":[-73.050189,-36.826892],"type":"Point"},"properties":{"osm_id":"7023970122","tag":{"amenity":"waste_basket"}},"type":"Feature"},
	{"geometry":{"coordinates":[-73.05037,-36.826921],"type":"Point"},"properties":{"osm_id":"7023970123","tag":{"amenity":"waste_basket"}},"type":"Feature"},
	{"geometry":{"coordinates":[-73.050475,-36.827039],"type":"Point"},"properties":{"osm_id":"7023970124","tag":{"amenity":"waste_basket"}},"type":"Feature"},
	{"geometry":{"coordinates":[-73.050439,-36.827183],"type":"Point"},"properties":{"osm_id":"7023970125","tag":{"amenity":"waste_basket"}},"type":"Feature"},
	{"geometry":{"coordinates":[-73.05031,-36.827271],"type":"Point"},"properties":{"osm_id":"7023970126","tag":{"amenity":"waste_basket"}},"type":"Feature"},
	{"geometry":{"coordinates":[-73.049985,-36.827349],"type":"Point"},"properties":{"osm_id":"7023970152","tag":{"amenity":"waste_basket"}},"type":"Feature"},
	{"geometry":{"coordinates":[-73.050555,-36.827755],"type":"Point"},"properties":{"osm_id":"7024043499","tag":{"amenity":"waste_basket"}},"type":"Feature"},
	{"geometry":{"coordinates":[-73.050643,-36.827528],"type":"Point"},"properties":{"osm_id":"7024686940","tag":{"amenity":"waste_basket"}},"type":"Feature"},
	{"geometry":{"coordinates":[-73.05002,-36.827143],"type":"Point"},"properties":{"osm_id":"7024715093","tag":{"amenity":"waste_basket"}},"type":"Feature"},
	{"geometry":{"coordinates":[-73.050044,-36.82698],"type":"Point"},"properties":{"osm_id":"7024715094","tag":{"amenity":"waste_basket"}},"type":"Feature"},
	{"geometry":{"coordinates":[-73.050586,-36.827989],"type":"Point"},"properties":{"osm_id":"7026135198","tag":{"amenity":"waste_basket"}},"type":"Feature"},
	{"geometry":{"coordinates":[-73.051244,-36.828098],"type":"Point"},"properties":{"osm_id":"7028817487","tag":{"amenity":"waste_basket"}},"type":"Feature"},
	{"geometry":{"coordinates":[-73.049967,-36.828932],"type":"Point"},"properties":{"osm_id":"7028817507","tag":{"amenity":"waste_basket"}},"type":"Feature"},
	{"geometry":{"coordinates":[-73.047431,-36.825354],"type":"Point"},"properties":{"osm_id":"7049637548","tag":{"amenity":"waste_basket"}},"type":"Feature"},
	{"geometry":{"coordinates":[-73.048054,-36.825494],"type":"Point"},"properties":{"osm_id":"7049637550","tag":{"amenity":"waste_basket"}},"type":"Feature"},
	{"geometry":{"coordinates":[-73.048958,-36.825893],"type":"Point"},"properties":{"osm_id":"7049637552","tag":{"amenity":"waste_basket"}},"type":"Feature"},
	{"geometry":{"coordinates":[-73.049837,-36.826394],"type":"Point"},"properties":{"osm_id":"7049637559","tag":{"amenity":"waste_basket"}},"type":"Feature"},
	{"geometry":{"coordinates":[-73.04681,-36.824991],"type":"Point"},"properties":{"osm_id":"7055679681","tag":{"amenity":"waste_basket"}},"type":"Feature"},
	{"geometry":{"coordinates":[-73.053019,-36.826404],"type":"Point"},"properties":{"osm_id":"7058802367","tag":{"amenity":"waste_basket"}},"type":"Feature"},
	{"geometry":{"coordinates":[-73.051862,-36.828196],"type":"Point"},"properties":{"osm_id":"7058832079","tag":{"amenity":"waste_basket"}},"type":"Feature"},
	{"geometry":{"coordinates":[-73.052119,-36.827796],"type":"Point"},"properties":{"osm_id":"7058832084","tag":{"amenity":"waste_basket"}},"type":"Feature"},
	{"geometry":{"coordinates":[-73.052363,-36.827287],"type":"Point"},"properties":{"osm_id":"7058837587","tag":{"amenity":"waste_basket"}},"type":"Feature"},
	{"geometry":{"coordinates":[-73.052087,-36.827239],"type":"Point"},"properties":{"osm_id":"7058837590","tag":{"amenity":"waste_basket"}},"type":"Feature"},
	{"geometry":{"coordinates":[-73.051234,-36.827008],"type":"Point"},"properties":{"osm_id":"7058837596","tag":{"amenity":"waste_basket"}},"type":"Feature"},
	{"geometry":{"coordinates":[-73.053486,-36.827819],"type":"Point"},"properties":{"osm_id":"7058891798","tag":{"amenity":"waste_basket"}},"type":"Feature"},
	{"geometry":{"coordinates":[-73.053448,-36.827739],"type":"Point"},"properties":{"osm_id":"7058891802","tag":{"amenity":"waste_basket"}},"type":"Feature"},
	{"geometry":{"coordinates":[-73.053071,-36.827579],"type":"Point"},"properties":{"osm_id":"7058891807","tag":{"amenity":"waste_basket"}},"type":"Feature"},
	{"geometry":{"coordinates":[-73.052595,-36.827384],"type":"Point"},"properties":{"osm_id":"7058891810","tag":{"amenity":"waste_basket"}},"type":"Feature"},
	{"geometry":{"coordinates":[-73.05155,-36.826456],"type":"Point"},"properties":{"osm_id":"7060173653","tag":{"amenity":"waste_basket"}},"type":"Feature"},
	{"geometry":{"coordinates":[-73.05138,-36.826687],"type":"Point"},"properties":{"osm_id":"7060173662","tag":{"amenity":"waste_basket"}},"type":"Feature"},
	{"geometry":{"coordinates":[-73.05158,-36.825763],"type":"Point"},"properties":{"osm_id":"7570861653","tag":{"amenity":"waste_basket"}},"type":"Feature"},
	{"geometry":{"coordinates":[-73.051109,-36.82557],"type":"Point"},"properties":{"osm_id":"7570861654","tag":{"amenity":"waste_basket"}},"type":"Feature"},
	{"geometry":{"coordinates":[-73.050515,-36.825393],"type":"Point"},"properties":{"osm_id":"7570861655","tag":{"amenity":"waste_basket"}},"type":"Feature"}
]
}
