{
"type": "FeatureCollection",
"features": [
	{"geometry":{"coordinates":[-73.081448,-40.294916],"type":"Point"},"properties":{"osm_id":"3858036462","tag":{"amenity":"waste_basket"}},"type":"Feature"},
	{"geometry":{"coordinates":[-73.082858,-40.295505],"type":"Point"},"properties":{"osm_id":"3859913759","tag":{"amenity":"waste_basket"}},"type":"Feature"},
	{"geometry":{"coordinates":[-73.077965,-40.294838],"type":"Point"},"properties":{"osm_id":"4316270219","tag":{"amenity":"waste_basket"}},"type":"Feature"},
	{"geometry":{"coordinates":[-73.084005,-40.294187],"type":"Point"},"properties":{"osm_id":"4317697338","tag":{"amenity":"waste_disposal"}},"type":"Feature"},
	{"geometry":{"coordinates":[-73.083227,-40.295525],"type":"Point"},"properties":{"osm_id":"4317703537","tag":{"addr:city":"La Uni\u00c3\u00b3n","addr:street":"Cayetano Letelier","amenity":"waste_basket"}},"type":"Feature"},
	{"geometry":{"coordinates":[-73.083256,-40.295581],"type":"Point"},"properties":{"osm_id":"4317704400","tag":{"addr:city":"La Uni\u00c3\u00b3n","addr:street":"Cayetano Letelier","amenity":"waste_basket"}},"type":"Feature"},
	{"geometry":{"coordinates":[-73.078717,-40.290605],"type":"Point"},"properties":{"osm_id":"4317769617","tag":{"amenity":"waste_disposal"}},"type":"Feature"},
	{"geometry":{"coordinates":[-73.080999,-40.294706],"type":"Point"},"properties":{"osm_id":"4318887179","tag":{"amenity":"waste_disposal"}},"type":"Feature"},
	{"geometry":{"coordinates":[-73.081332,-40.295307],"type":"Point"},"properties":{"osm_id":"4318895013","tag":{"amenity":"waste_basket"}},"type":"Feature"},
	{"geometry":{"coordinates":[-73.081778,-40.295776],"type":"Point"},"properties":{"osm_id":"4318898831","tag":{"amenity":"waste_basket"}},"type":"Feature"},
	{"geometry":{"coordinates":[-73.081585,-40.295823],"type":"Point"},"properties":{"osm_id":"4318901514","tag":{"amenity":"waste_basket"}},"type":"Feature"},
	{"geometry":{"coordinates":[-73.081571,-40.29594],"type":"Point"},"properties":{"osm_id":"4318910602","tag":{"amenity":"waste_basket"}},"type":"Feature"},
	{"geometry":{"coordinates":[-73.081292,-40.294687],"type":"Point"},"properties":{"osm_id":"4318913199","tag":{"amenity":"waste_basket"}},"type":"Feature"},
	{"geometry":{"coordinates":[-73.08256,-40.29469],"type":"Point"},"properties":{"osm_id":"4318938030","tag":{"amenity":"waste_basket"}},"type":"Feature"},
	{"geometry":{"coordinates":[-73.081133,-40.305253],"type":"Point"},"properties":{"osm_id":"4326293594","tag":{"amenity":"waste_basket"}},"type":"Feature"},
	{"geometry":{"coordinates":[-73.080991,-40.305523],"type":"Point"},"properties":{"osm_id":"4326305108","tag":{"amenity":"waste_basket"}},"type":"Feature"},
	{"geometry":{"coordinates":[-73.076899,-40.302862],"type":"Point"},"properties":{"osm_id":"4326326706","tag":{"amenity":"waste_basket"}},"type":"Feature"},
	{"geometry":{"coordinates":[-73.081982,-40.295462],"type":"Point"},"properties":{"osm_id":"4385555127","tag":{"amenity":"waste_basket"}},"type":"Feature"},
	{"geometry":{"coordinates":[-73.081801,-40.295245],"type":"Point"},"properties":{"osm_id":"4385559396","tag":{"amenity":"waste_basket"}},"type":"Feature"},
	{"geometry":{"coordinates":[-73.082507,-40.295362],"type":"Point"},"properties":{"osm_id":"4385560050","tag":{"amenity":"waste_basket"}},"type":"Feature"},
	{"geometry":{"coordinates":[-73.081557,-40.295293],"type":"Point"},"properties":{"osm_id":"4385560238","tag":{"amenity":"waste_basket"}},"type":"Feature"},
	{"geometry":{"coordinates":[-73.08281,-40.295137],"type":"Point"},"properties":{"osm_id":"4385563201","tag":{"amenity":"waste_basket"}},"type":"Feature"},
	{"geometry":{"coordinates":[-73.082496,-40.295108],"type":"Point"},"properties":{"osm_id":"4385564026","tag":{"amenity":"waste_basket"}},"type":"Feature"},
	{"geometry":{"coordinates":[-73.08209,-40.294954],"type":"Point"},"properties":{"osm_id":"4385565242","tag":{"amenity":"waste_basket"}},"type":"Feature"},
	{"geometry":{"coordinates":[-73.082385,-40.294973],"type":"Point"},"properties":{"osm_id":"4385565376","tag":{"amenity":"waste_basket"}},"type":"Feature"},
	{"geometry":{"coordinates":[-73.081867,-40.295043],"type":"Point"},"properties":{"osm_id":"4385565598","tag":{"amenity":"waste_basket"}},"type":"Feature"},
	{"geometry":{"coordinates":[-73.083193,-40.294469],"type":"Point"},"properties":{"osm_id":"4385576237","tag":{"addr:city":"La Uni\u00c3\u00b3n","addr:street":"Manuel Montt","amenity":"recycling"}},"type":"Feature"},
	{"geometry":{"coordinates":[-73.080234,-40.290272],"type":"Point"},"properties":{"osm_id":"4409553573","tag":{"amenity":"waste_basket"}},"type":"Feature"},
	{"geometry":{"coordinates":[-73.080083,-40.290319],"type":"Point"},"properties":{"osm_id":"4409553843","tag":{"amenity":"waste_basket"}},"type":"Feature"},
	{"geometry":{"coordinates":[-73.079714,-40.290412],"type":"Point"},"properties":{"osm_id":"4409554127","tag":{"amenity":"waste_basket"}},"type":"Feature"},
	{"geometry":{"coordinates":[-73.079331,-40.290497],"type":"Point"},"properties":{"osm_id":"4409556429","tag":{"amenity":"waste_basket"}},"type":"Feature"}
]
}
