{
"type": "FeatureCollection",
"features": [
	{"geometry":{"coordinates":[0.536797,51.890405],"type":"Point"},"properties":{"name":"Braintree Recycling Centre","osm_id":"929340625","tag":{"addr:city":"Braintree","addr:country":"GB","addr:postcode":"CM7 2YN","addr:street":"Springwood Drive","amenity":"recycling","opening_hours":"Mo-Su 09:00-16:00","operator":"Veolia Environmental Services","phone":"+44 845 603 7625","recycling:batteries":"yes","recycling:books":"yes","recycling:cans":"yes","recycling:cardboard":"yes","recycling:cartons":"yes","recycling:clothes":"yes","recycling:electrical_appliances":"yes","recycling:glass":"yes","recycling:green_waste":"yes","recycling:magazines":"yes","recycling:newspaper":"yes","recycling:paper":"yes","recycling:paper_packaging":"yes","recycling:plastic":"no","recycling:plastic_bottles":"yes","recycling:scrap_metal":"yes","recycling:small_appliances":"yes","recycling:wood":"yes","recycling_type":"centre","website":"https://www.essex.gov.uk/Environment%20Planning/Recycling-Waste/Recycling-Centres/Pages/Braintree-Springwood-Drive.aspx"}},"type":"Feature"},
	{"geometry":{"coordinates":[0.589696,51.93612],"type":"Point"},"properties":{"osm_id":"2434512311","tag":{"amenity":"recycling","recycling:glass":"yes","recycling:paper":"yes"}},"type":"Feature"},
	{"geometry":{"coordinates":[0.58535,51.935314],"type":"Point"},"properties":{"osm_id":"2434585858","tag":{"amenity":"waste_basket"}},"type":"Feature"}
]
}
