{
"type": "FeatureCollection",
"features": [
	{"geometry":{"coordinates":[0.582013,51.880139],"type":"Point"},"properties":{"name":"Tesco car park","osm_id":"1924371985","tag":{"amenity":"recycling"}},"type":"Feature"},
	{"geometry":{"coordinates":[0.564945,51.867516],"type":"Point"},"properties":{"osm_id":"5029223218","tag":{"amenity":"waste_basket","waste":"dog_excrement"}},"type":"Feature"},
	{"geometry":{"coordinates":[0.580183,51.8836],"type":"Point"},"properties":{"osm_id":"7556135099","tag":{"amenity":"waste_basket","waste":"dog_excrement"}},"type":"Feature"},
	{"geometry":{"coordinates":[0.577473,51.886848],"type":"Point"},"properties":{"osm_id":"7656808447","tag":{"amenity":"waste_basket","waste":"dog_excrement"}},"type":"Feature"},
	{"geometry":{"coordinates":[0.570244,51.873583],"type":"Point"},"properties":{"osm_id":"7692754046","tag":{"amenity":"waste_basket","waste":"dog_excrement"}},"type":"Feature"},
	{"geometry":{"coordinates":[0.580363,51.886316],"type":"Point"},"properties":{"osm_id":"7706743738","tag":{"amenity":"waste_basket","waste":"dog_excrement"}},"type":"Feature"},
	{"geometry":{"coordinates":[0.580192,51.883585],"type":"Point"},"properties":{"osm_id":"7706743739","tag":{"amenity":"waste_basket"}},"type":"Feature"},
	{"geometry":{"coordinates":[0.581303,51.888586],"type":"Point"},"properties":{"osm_id":"7706749894","tag":{"amenity":"waste_basket","waste":"dog_excrement"}},"type":"Feature"}
]
}
