{
"type": "FeatureCollection",
"lastupdate": "2020-07-31T00:00:00Z",
"features": [
	{"geometry":{"coordinates":[0.558185,51.27637],"type":"Point"},"properties":{"osm_id":"676308984","tag":{"amenity":"recycling"}},"type":"Feature"},
	{"geometry":{"coordinates":[0.560144,51.250032],"type":"Point"},"properties":{"osm_id":"677580149","tag":{"amenity":"recycling","recycling:cardboard":"yes","recycling:clothes":"yes","recycling:paper":"yes","recycling:shoes":"yes"}},"type":"Feature"},
	{"geometry":{"coordinates":[0.540164,51.288413],"type":"Point"},"properties":{"osm_id":"760733402","tag":{"amenity":"waste_basket"}},"type":"Feature"},
	{"geometry":{"coordinates":[0.540193,51.288543],"type":"Point"},"properties":{"osm_id":"760733403","tag":{"amenity":"waste_basket"}},"type":"Feature"},
	{"geometry":{"coordinates":[0.540384,51.288116],"type":"Point"},"properties":{"osm_id":"760733428","tag":{"amenity":"waste_basket"}},"type":"Feature"},
	{"geometry":{"coordinates":[0.550802,51.253437],"type":"Point"},"properties":{"osm_id":"1357580738","tag":{"amenity":"waste_basket"}},"type":"Feature"},
	{"geometry":{"coordinates":[0.551069,51.253399],"type":"Point"},"properties":{"osm_id":"1357580765","tag":{"amenity":"waste_basket"}},"type":"Feature"},
	{"geometry":{"coordinates":[0.539829,51.289062],"type":"Point"},"properties":{"osm_id":"2308051035","tag":{"amenity":"recycling"}},"type":"Feature"},
	{"geometry":{"coordinates":[0.614415,51.267015],"type":"Point"},"properties":{"osm_id":"6205421800","tag":{"amenity":"waste_basket"}},"type":"Feature"},
	{"geometry":{"coordinates":[0.614371,51.266942],"type":"Point"},"properties":{"osm_id":"6205421801","tag":{"amenity":"waste_basket"}},"type":"Feature"}
]
}
