{
"type": "FeatureCollection",
"lastupdate": "2020-08-06T00:00:00Z",
"features": [
	{"geometry":{"coordinates":[0.58158,47.499714],"type":"Point"},"properties":{"osm_id":"6422565229","tag":{"amenity":"waste_basket"}},"type":"Feature"},
	{"geometry":{"coordinates":[0.599026,47.466614],"type":"Point"},"properties":{"osm_id":"7093364693","tag":{"amenity":"recycling","operator":"CCGCPR","recycling:glass":"yes","recycling_type":"container"}},"type":"Feature"},
	{"geometry":{"coordinates":[0.599048,47.466617],"type":"Point"},"properties":{"osm_id":"7093364694","tag":{"amenity":"recycling","operator":"Le Relais","recycling:clothes":"yes","recycling_type":"container"}},"type":"Feature"},
	{"geometry":{"coordinates":[0.59967,47.467005],"type":"Point"},"properties":{"osm_id":"7093364698","tag":{"amenity":"waste_basket","material":"wood","operator":"Mairie de Charentilly","waste":"trash"}},"type":"Feature"},
	{"geometry":{"coordinates":[0.600324,47.467073],"type":"Point"},"properties":{"osm_id":"7093364699","tag":{"amenity":"waste_basket","material":"wood","operator":"Mairie de Charentilly","waste":"trash"}},"type":"Feature"},
	{"geometry":{"coordinates":[0.610299,47.470571],"type":"Point"},"properties":{"osm_id":"7093441506","tag":{"amenity":"recycling","recycling:glass":"yes","recycling_type":"container"}},"type":"Feature"},
	{"geometry":{"coordinates":[0.610291,47.470778],"type":"Point"},"properties":{"osm_id":"7093441521","tag":{"amenity":"waste_basket","material":"wood","operator":"Mairie de Charentilly","waste":"trash"}},"type":"Feature"},
	{"geometry":{"coordinates":[0.610014,47.470641],"type":"Point"},"properties":{"osm_id":"7093441523","tag":{"amenity":"waste_basket","material":"metal","operator":"Mairie de Charentilly","waste":"cigarettes"}},"type":"Feature"}
]
}
