{
"type": "FeatureCollection",
"features": [
	{"geometry":{"coordinates":[0.59986,47.404891],"type":"Point"},"properties":{"osm_id":"5027022481","tag":{"amenity":"waste_basket"}},"type":"Feature"},
	{"geometry":{"coordinates":[0.599972,47.402116],"type":"Point"},"properties":{"osm_id":"5027077329","tag":{"amenity":"waste_basket"}},"type":"Feature"},
	{"geometry":{"coordinates":[0.60063,47.401509],"type":"Point"},"properties":{"osm_id":"5027082314","tag":{"amenity":"recycling","recycling:clothes":"yes","recycling:shoes":"yes","recycling_type":"container"}},"type":"Feature"},
	{"geometry":{"coordinates":[0.599536,47.402669],"type":"Point"},"properties":{"osm_id":"5027087492","tag":{"amenity":"recycling","location":"underground","recycling:glass_bottles":"yes","recycling_type":"container"}},"type":"Feature"},
	{"geometry":{"coordinates":[0.592286,47.405207],"type":"Point"},"properties":{"osm_id":"8423164830","tag":{"amenity":"recycling","opening_hours":"24/7","operator":"Tours M\u00c3\u00a9tropole","recycling:glass":"yes","recycling:glass_bottles":"yes","recycling_type":"container"}},"type":"Feature"},
	{"geometry":{"coordinates":[0.594649,47.403665],"type":"Point"},"properties":{"osm_id":"8423164855","tag":{"amenity":"waste_basket"}},"type":"Feature"},
	{"geometry":{"coordinates":[0.595847,47.402787],"type":"Point"},"properties":{"osm_id":"8423164856","tag":{"amenity":"waste_basket","material":"metal"}},"type":"Feature"},
	{"geometry":{"coordinates":[0.596327,47.402266],"type":"Point"},"properties":{"osm_id":"8423164857","tag":{"amenity":"waste_basket"}},"type":"Feature"},
	{"geometry":{"coordinates":[0.600365,47.404565],"type":"Point"},"properties":{"osm_id":"8665038084","tag":{"amenity":"waste_basket"}},"type":"Feature"},
	{"geometry":{"coordinates":[0.599898,47.404694],"type":"Point"},"properties":{"osm_id":"8665038085","tag":{"amenity":"waste_basket"}},"type":"Feature"},
	{"geometry":{"coordinates":[0.600105,47.404043],"type":"Point"},"properties":{"osm_id":"8665038086","tag":{"amenity":"waste_basket"}},"type":"Feature"},
	{"geometry":{"coordinates":[0.597285,47.403825],"type":"Point"},"properties":{"osm_id":"8665038089","tag":{"amenity":"waste_basket"}},"type":"Feature"},
	{"geometry":{"coordinates":[0.596615,47.403579],"type":"Point"},"properties":{"osm_id":"8665038104","tag":{"amenity":"waste_basket"}},"type":"Feature"},
	{"geometry":{"coordinates":[0.596656,47.403407],"type":"Point"},"properties":{"osm_id":"8665038105","tag":{"amenity":"waste_basket"}},"type":"Feature"},
	{"geometry":{"coordinates":[0.59622,47.403357],"type":"Point"},"properties":{"osm_id":"8665038107","tag":{"amenity":"waste_basket"}},"type":"Feature"},
	{"geometry":{"coordinates":[0.596317,47.403195],"type":"Point"},"properties":{"osm_id":"8665038108","tag":{"amenity":"waste_basket"}},"type":"Feature"},
	{"geometry":{"coordinates":[0.595279,47.402993],"type":"Point"},"properties":{"osm_id":"8665038109","tag":{"amenity":"waste_basket"}},"type":"Feature"},
	{"geometry":{"coordinates":[0.59499,47.403258],"type":"Point"},"properties":{"osm_id":"8665038110","tag":{"amenity":"waste_basket"}},"type":"Feature"},
	{"geometry":{"coordinates":[0.594154,47.403216],"type":"Point"},"properties":{"osm_id":"8665038111","tag":{"amenity":"waste_basket"}},"type":"Feature"},
	{"geometry":{"coordinates":[0.594072,47.404265],"type":"Point"},"properties":{"osm_id":"8665038112","tag":{"amenity":"waste_basket"}},"type":"Feature"},
	{"geometry":{"coordinates":[0.593667,47.404124],"type":"Point"},"properties":{"osm_id":"8665038113","tag":{"amenity":"waste_basket"}},"type":"Feature"},
	{"geometry":{"coordinates":[0.593491,47.404999],"type":"Point"},"properties":{"osm_id":"8665038114","tag":{"amenity":"waste_basket"}},"type":"Feature"},
	{"geometry":{"coordinates":[0.60128,47.40473],"type":"Point"},"properties":{"osm_id":"8665038115","tag":{"amenity":"waste_basket"}},"type":"Feature"}
]
}
