{
"type": "FeatureCollection",
"features": [
	{"geometry":{"coordinates":[0.545907,46.817247],"type":"Point"},"properties":{"osm_id":"2258092798","tag":{"amenity":"waste_basket"}},"type":"Feature"},
	{"geometry":{"coordinates":[0.545868,46.817003],"type":"Point"},"properties":{"osm_id":"2258092799","tag":{"amenity":"waste_basket"}},"type":"Feature"},
	{"geometry":{"coordinates":[0.545258,46.818802],"type":"Point"},"properties":{"osm_id":"2258133361","tag":{"amenity":"waste_basket"}},"type":"Feature"},
	{"geometry":{"coordinates":[0.54495,46.815602],"type":"Point"},"properties":{"osm_id":"2258163788","tag":{"amenity":"waste_basket"}},"type":"Feature"},
	{"geometry":{"coordinates":[0.5444,46.820688],"type":"Point"},"properties":{"osm_id":"2258263563","tag":{"amenity":"waste_basket"}},"type":"Feature"},
	{"geometry":{"coordinates":[0.534408,46.815837],"type":"Point"},"properties":{"osm_id":"2260252126","tag":{"amenity":"waste_basket"}},"type":"Feature"},
	{"geometry":{"coordinates":[0.54267,46.810998],"type":"Point"},"properties":{"osm_id":"2262414481","tag":{"amenity":"waste_basket"}},"type":"Feature"},
	{"geometry":{"coordinates":[0.545419,46.81568],"type":"Point"},"properties":{"osm_id":"2262549995","tag":{"amenity":"waste_basket"}},"type":"Feature"},
	{"geometry":{"coordinates":[0.545773,46.816358],"type":"Point"},"properties":{"osm_id":"2262552323","tag":{"amenity":"waste_basket"}},"type":"Feature"},
	{"geometry":{"coordinates":[0.545663,46.816809],"type":"Point"},"properties":{"osm_id":"2262552324","tag":{"amenity":"waste_basket"}},"type":"Feature"},
	{"geometry":{"coordinates":[0.545582,46.817259],"type":"Point"},"properties":{"osm_id":"2262557657","tag":{"amenity":"waste_basket"}},"type":"Feature"},
	{"geometry":{"coordinates":[0.545046,46.816251],"type":"Point"},"properties":{"osm_id":"2262572283","tag":{"amenity":"waste_basket"}},"type":"Feature"},
	{"geometry":{"coordinates":[0.545102,46.817476],"type":"Point"},"properties":{"osm_id":"2262572284","tag":{"amenity":"waste_basket"}},"type":"Feature"},
	{"geometry":{"coordinates":[0.545132,46.816835],"type":"Point"},"properties":{"osm_id":"2262572285","tag":{"amenity":"waste_basket"}},"type":"Feature"},
	{"geometry":{"coordinates":[0.544912,46.816264],"type":"Point"},"properties":{"osm_id":"2262572286","tag":{"amenity":"waste_basket"}},"type":"Feature"},
	{"geometry":{"coordinates":[0.544976,46.816662],"type":"Point"},"properties":{"osm_id":"2262572289","tag":{"amenity":"waste_basket"}},"type":"Feature"},
	{"geometry":{"coordinates":[0.545596,46.817883],"type":"Point"},"properties":{"osm_id":"2262572291","tag":{"amenity":"waste_basket"}},"type":"Feature"},
	{"geometry":{"coordinates":[0.542788,46.81826],"type":"Point"},"properties":{"osm_id":"2264264403","tag":{"amenity":"waste_basket"}},"type":"Feature"},
	{"geometry":{"coordinates":[0.542929,46.817765],"type":"Point"},"properties":{"osm_id":"2264289856","tag":{"amenity":"waste_basket"}},"type":"Feature"},
	{"geometry":{"coordinates":[0.543091,46.817875],"type":"Point"},"properties":{"osm_id":"2264289857","tag":{"amenity":"waste_basket"}},"type":"Feature"},
	{"geometry":{"coordinates":[0.542621,46.818123],"type":"Point"},"properties":{"osm_id":"2264293537","tag":{"amenity":"waste_basket"}},"type":"Feature"},
	{"geometry":{"coordinates":[0.543273,46.817929],"type":"Point"},"properties":{"osm_id":"2264293539","tag":{"amenity":"waste_basket"}},"type":"Feature"},
	{"geometry":{"coordinates":[0.536252,46.816375],"type":"Point"},"properties":{"osm_id":"2264718527","tag":{"amenity":"waste_basket"}},"type":"Feature"},
	{"geometry":{"coordinates":[0.536534,46.816336],"type":"Point"},"properties":{"osm_id":"2264719016","tag":{"amenity":"waste_basket"}},"type":"Feature"},
	{"geometry":{"coordinates":[0.542552,46.805811],"type":"Point"},"properties":{"osm_id":"2266758815","tag":{"amenity":"waste_basket"}},"type":"Feature"},
	{"geometry":{"coordinates":[0.545543,46.818186],"type":"Point"},"properties":{"osm_id":"2266776687","tag":{"amenity":"waste_basket"}},"type":"Feature"},
	{"geometry":{"coordinates":[0.54532,46.818153],"type":"Point"},"properties":{"osm_id":"2266776688","tag":{"amenity":"waste_basket"}},"type":"Feature"},
	{"geometry":{"coordinates":[0.54528,46.817905],"type":"Point"},"properties":{"osm_id":"2266776689","tag":{"amenity":"waste_basket"}},"type":"Feature"},
	{"geometry":{"coordinates":[0.54441,46.81728],"type":"Point"},"properties":{"osm_id":"2271604819","tag":{"amenity":"waste_basket"}},"type":"Feature"},
	{"geometry":{"coordinates":[0.543876,46.816463],"type":"Point"},"properties":{"osm_id":"2281930688","tag":{"amenity":"waste_basket"}},"type":"Feature"},
	{"geometry":{"coordinates":[0.543722,46.815574],"type":"Point"},"properties":{"osm_id":"2281930689","tag":{"amenity":"waste_basket"}},"type":"Feature"},
	{"geometry":{"coordinates":[0.536183,46.816582],"type":"Point"},"properties":{"osm_id":"2282533587","tag":{"amenity":"waste_basket"}},"type":"Feature"},
	{"geometry":{"coordinates":[0.536514,46.816672],"type":"Point"},"properties":{"osm_id":"2282533600","tag":{"amenity":"waste_basket"}},"type":"Feature"},
	{"geometry":{"coordinates":[0.54171,46.80571],"type":"Point"},"properties":{"osm_id":"2306415141","tag":{"amenity":"waste_basket"}},"type":"Feature"},
	{"geometry":{"coordinates":[0.54175,46.805854],"type":"Point"},"properties":{"osm_id":"2306415142","tag":{"amenity":"recycling"}},"type":"Feature"},
	{"geometry":{"coordinates":[0.542571,46.805373],"type":"Point"},"properties":{"osm_id":"2306415145","tag":{"amenity":"waste_basket"}},"type":"Feature"},
	{"geometry":{"coordinates":[0.542807,46.80554],"type":"Point"},"properties":{"osm_id":"2306416203","tag":{"amenity":"waste_basket"}},"type":"Feature"},
	{"geometry":{"coordinates":[0.541654,46.805402],"type":"Point"},"properties":{"osm_id":"2306427031","tag":{"amenity":"waste_basket"}},"type":"Feature"},
	{"geometry":{"coordinates":[0.544274,46.81285],"type":"Point"},"properties":{"osm_id":"2318005817","tag":{"amenity":"waste_basket"}},"type":"Feature"},
	{"geometry":{"coordinates":[0.538573,46.813514],"type":"Point"},"properties":{"osm_id":"2318107331","tag":{"amenity":"recycling"}},"type":"Feature"},
	{"geometry":{"coordinates":[0.538639,46.813691],"type":"Point"},"properties":{"osm_id":"2318107355","tag":{"amenity":"waste_basket"}},"type":"Feature"},
	{"geometry":{"coordinates":[0.542962,46.807752],"type":"Point"},"properties":{"osm_id":"2318270897","tag":{"amenity":"waste_basket"}},"type":"Feature"},
	{"geometry":{"coordinates":[0.543247,46.80337],"type":"Point"},"properties":{"osm_id":"2318309931","tag":{"amenity":"recycling"}},"type":"Feature"},
	{"geometry":{"coordinates":[0.543387,46.803295],"type":"Point"},"properties":{"osm_id":"2318309951","tag":{"amenity":"waste_basket"}},"type":"Feature"},
	{"geometry":{"coordinates":[0.541428,46.804684],"type":"Point"},"properties":{"osm_id":"2318313147","tag":{"amenity":"waste_basket"}},"type":"Feature"},
	{"geometry":{"coordinates":[0.540033,46.801122],"type":"Point"},"properties":{"osm_id":"2318389744","tag":{"amenity":"waste_basket"}},"type":"Feature"},
	{"geometry":{"coordinates":[0.538921,46.801764],"type":"Point"},"properties":{"osm_id":"2318942077","tag":{"amenity":"recycling","recycling_type":"container"}},"type":"Feature"},
	{"geometry":{"coordinates":[0.540999,46.802439],"type":"Point"},"properties":{"osm_id":"2323198105","tag":{"amenity":"waste_basket"}},"type":"Feature"},
	{"geometry":{"coordinates":[0.530417,46.812727],"type":"Point"},"properties":{"osm_id":"2452325730","tag":{"amenity":"waste_basket"}},"type":"Feature"},
	{"geometry":{"coordinates":[0.544609,46.814448],"type":"Point"},"properties":{"osm_id":"2452834661","tag":{"amenity":"waste_basket"}},"type":"Feature"},
	{"geometry":{"coordinates":[0.544215,46.814178],"type":"Point"},"properties":{"osm_id":"2452834669","tag":{"amenity":"waste_basket"}},"type":"Feature"},
	{"geometry":{"coordinates":[0.544777,46.814001],"type":"Point"},"properties":{"osm_id":"2452844649","tag":{"amenity":"waste_basket"}},"type":"Feature"},
	{"geometry":{"coordinates":[0.545227,46.814206],"type":"Point"},"properties":{"osm_id":"2452844655","tag":{"amenity":"waste_basket"}},"type":"Feature"},
	{"geometry":{"coordinates":[0.544619,46.813591],"type":"Point"},"properties":{"osm_id":"2452844660","tag":{"amenity":"waste_basket"}},"type":"Feature"},
	{"geometry":{"coordinates":[0.545203,46.81352],"type":"Point"},"properties":{"osm_id":"2452844662","tag":{"amenity":"waste_basket"}},"type":"Feature"},
	{"geometry":{"coordinates":[0.53927,46.813096],"type":"Point"},"properties":{"osm_id":"2453753510","tag":{"amenity":"waste_basket"}},"type":"Feature"},
	{"geometry":{"coordinates":[0.541904,46.818579],"type":"Point"},"properties":{"osm_id":"2453760867","tag":{"amenity":"recycling"}},"type":"Feature"},
	{"geometry":{"coordinates":[0.542627,46.817922],"type":"Point"},"properties":{"osm_id":"2453768374","tag":{"amenity":"waste_basket"}},"type":"Feature"},
	{"geometry":{"coordinates":[0.552252,46.800201],"type":"Point"},"properties":{"osm_id":"2477606171","tag":{"amenity":"recycling","recycling_type":"container"}},"type":"Feature"},
	{"geometry":{"coordinates":[0.552478,46.80012],"type":"Point"},"properties":{"osm_id":"2477618251","tag":{"amenity":"recycling","recycling_type":"container"}},"type":"Feature"},
	{"geometry":{"coordinates":[0.552879,46.800402],"type":"Point"},"properties":{"osm_id":"2478974155","tag":{"amenity":"recycling","recycling_type":"container"}},"type":"Feature"},
	{"geometry":{"coordinates":[0.552788,46.80053],"type":"Point"},"properties":{"osm_id":"2478974160","tag":{"amenity":"recycling","recycling_type":"container"}},"type":"Feature"},
	{"geometry":{"coordinates":[0.533674,46.815275],"type":"Point"},"properties":{"osm_id":"2479997703","tag":{"amenity":"waste_basket"}},"type":"Feature"},
	{"geometry":{"coordinates":[0.532697,46.815295],"type":"Point"},"properties":{"osm_id":"2479997706","tag":{"amenity":"recycling","recycling_type":"container"}},"type":"Feature"},
	{"geometry":{"coordinates":[0.533762,46.815065],"type":"Point"},"properties":{"osm_id":"2480045452","tag":{"amenity":"waste_basket"}},"type":"Feature"},
	{"geometry":{"coordinates":[0.551644,46.803079],"type":"Point"},"properties":{"osm_id":"2489170578","tag":{"amenity":"recycling","recycling_type":"container"}},"type":"Feature"},
	{"geometry":{"coordinates":[0.545899,46.801839],"type":"Point"},"properties":{"osm_id":"2492309031","tag":{"amenity":"waste_basket"}},"type":"Feature"},
	{"geometry":{"coordinates":[0.54131,46.802502],"type":"Point"},"properties":{"osm_id":"2492444623","tag":{"amenity":"waste_basket"}},"type":"Feature"},
	{"geometry":{"coordinates":[0.541224,46.802568],"type":"Point"},"properties":{"osm_id":"2492444627","tag":{"amenity":"waste_basket"}},"type":"Feature"},
	{"geometry":{"coordinates":[0.541213,46.801866],"type":"Point"},"properties":{"osm_id":"2492461566","tag":{"amenity":"waste_basket"}},"type":"Feature"},
	{"geometry":{"coordinates":[0.541232,46.802166],"type":"Point"},"properties":{"osm_id":"2492461571","tag":{"amenity":"waste_basket"}},"type":"Feature"},
	{"geometry":{"coordinates":[0.529204,46.812522],"type":"Point"},"properties":{"osm_id":"2499412170","tag":{"amenity":"recycling","recycling_type":"container"}},"type":"Feature"},
	{"geometry":{"coordinates":[0.548672,46.803212],"type":"Point"},"properties":{"osm_id":"2500614436","tag":{"amenity":"recycling"}},"type":"Feature"},
	{"geometry":{"coordinates":[0.5634,46.819865],"type":"Point"},"properties":{"osm_id":"2512748544","tag":{"amenity":"recycling","recycling_type":"container"}},"type":"Feature"},
	{"geometry":{"coordinates":[0.563454,46.820151],"type":"Point"},"properties":{"osm_id":"2512748578","tag":{"amenity":"waste_basket"}},"type":"Feature"},
	{"geometry":{"coordinates":[0.563194,46.819861],"type":"Point"},"properties":{"osm_id":"2512748580","tag":{"amenity":"recycling","recycling_type":"container"}},"type":"Feature"},
	{"geometry":{"coordinates":[0.561806,46.821458],"type":"Point"},"properties":{"osm_id":"2514841001","tag":{"amenity":"waste_basket"}},"type":"Feature"},
	{"geometry":{"coordinates":[0.557001,46.82069],"type":"Point"},"properties":{"osm_id":"2514853361","tag":{"amenity":"waste_basket"}},"type":"Feature"},
	{"geometry":{"coordinates":[0.54118,46.817194],"type":"Point"},"properties":{"osm_id":"2515631678","tag":{"amenity":"recycling","bicycle_parking":"anchors","covered":"no","recycling:paper":"yes","recycling_type":"container"}},"type":"Feature"},
	{"geometry":{"coordinates":[0.544713,46.821433],"type":"Point"},"properties":{"osm_id":"2515648151","tag":{"amenity":"recycling"}},"type":"Feature"},
	{"geometry":{"coordinates":[0.53336,46.817426],"type":"Point"},"properties":{"osm_id":"2527767969","tag":{"amenity":"recycling","recycling_type":"container"}},"type":"Feature"},
	{"geometry":{"coordinates":[0.531134,46.801759],"type":"Point"},"properties":{"osm_id":"2528988357","tag":{"amenity":"recycling","recycling_type":"container"}},"type":"Feature"},
	{"geometry":{"coordinates":[0.5309,46.802948],"type":"Point"},"properties":{"osm_id":"2529228956","tag":{"amenity":"waste_basket"}},"type":"Feature"},
	{"geometry":{"coordinates":[0.530396,46.810934],"type":"Point"},"properties":{"osm_id":"2529339657","tag":{"amenity":"waste_basket"}},"type":"Feature"},
	{"geometry":{"coordinates":[0.530294,46.810025],"type":"Point"},"properties":{"osm_id":"2529500518","tag":{"amenity":"waste_basket"}},"type":"Feature"},
	{"geometry":{"coordinates":[0.529332,46.806853],"type":"Point"},"properties":{"osm_id":"2530811847","tag":{"amenity":"waste_basket"}},"type":"Feature"},
	{"geometry":{"coordinates":[0.547748,46.821214],"type":"Point"},"properties":{"osm_id":"2533275495","tag":{"amenity":"waste_basket"}},"type":"Feature"},
	{"geometry":{"coordinates":[0.528817,46.807009],"type":"Point"},"properties":{"osm_id":"2533579702","tag":{"amenity":"recycling","recycling_type":"container"}},"type":"Feature"},
	{"geometry":{"coordinates":[0.527469,46.807012],"type":"Point"},"properties":{"osm_id":"2533613298","tag":{"amenity":"waste_basket"}},"type":"Feature"},
	{"geometry":{"coordinates":[0.54271,46.816002],"type":"Point"},"properties":{"osm_id":"2541374575","tag":{"amenity":"waste_basket"}},"type":"Feature"},
	{"geometry":{"coordinates":[0.544721,46.818836],"type":"Point"},"properties":{"osm_id":"2545252791","tag":{"amenity":"waste_basket"}},"type":"Feature"},
	{"geometry":{"coordinates":[0.544658,46.818544],"type":"Point"},"properties":{"osm_id":"2545257901","tag":{"amenity":"waste_basket"}},"type":"Feature"},
	{"geometry":{"coordinates":[0.557808,46.807769],"type":"Point"},"properties":{"osm_id":"2550712069","tag":{"amenity":"waste_basket"}},"type":"Feature"},
	{"geometry":{"coordinates":[0.557301,46.809766],"type":"Point"},"properties":{"osm_id":"2550725524","tag":{"amenity":"waste_basket"}},"type":"Feature"},
	{"geometry":{"coordinates":[0.543847,46.808265],"type":"Point"},"properties":{"osm_id":"2562961427","tag":{"amenity":"recycling","recycling_type":"container"}},"type":"Feature"},
	{"geometry":{"coordinates":[0.544195,46.805523],"type":"Point"},"properties":{"osm_id":"2564253098","tag":{"amenity":"waste_basket"}},"type":"Feature"},
	{"geometry":{"coordinates":[0.542762,46.81156],"type":"Point"},"properties":{"osm_id":"2566571254","tag":{"amenity":"waste_basket"}},"type":"Feature"},
	{"geometry":{"coordinates":[0.542227,46.80958],"type":"Point"},"properties":{"osm_id":"2566602716","tag":{"amenity":"waste_basket"}},"type":"Feature"},
	{"geometry":{"coordinates":[0.541867,46.809553],"type":"Point"},"properties":{"osm_id":"2566602719","tag":{"amenity":"recycling","recycling_type":"container"}},"type":"Feature"},
	{"geometry":{"coordinates":[0.53978,46.814227],"type":"Point"},"properties":{"osm_id":"2575444537","tag":{"amenity":"waste_basket"}},"type":"Feature"},
	{"geometry":{"coordinates":[0.539655,46.813811],"type":"Point"},"properties":{"osm_id":"2575446597","tag":{"amenity":"waste_basket"}},"type":"Feature"},
	{"geometry":{"coordinates":[0.538865,46.810792],"type":"Point"},"properties":{"osm_id":"2575471626","tag":{"amenity":"waste_basket"}},"type":"Feature"},
	{"geometry":{"coordinates":[0.538309,46.80232],"type":"Point"},"properties":{"osm_id":"2575687509","tag":{"amenity":"waste_basket"}},"type":"Feature"},
	{"geometry":{"coordinates":[0.546566,46.818287],"type":"Point"},"properties":{"osm_id":"2581825232","tag":{"amenity":"waste_basket"}},"type":"Feature"},
	{"geometry":{"coordinates":[0.546696,46.818315],"type":"Point"},"properties":{"osm_id":"2581825238","tag":{"amenity":"waste_basket"}},"type":"Feature"},
	{"geometry":{"coordinates":[0.548614,46.818599],"type":"Point"},"properties":{"osm_id":"2586446438","tag":{"amenity":"waste_basket"}},"type":"Feature"},
	{"geometry":{"coordinates":[0.54689,46.817758],"type":"Point"},"properties":{"osm_id":"2586470877","tag":{"amenity":"waste_basket"}},"type":"Feature"},
	{"geometry":{"coordinates":[0.548205,46.816072],"type":"Point"},"properties":{"osm_id":"2587122513","tag":{"amenity":"waste_basket"}},"type":"Feature"},
	{"geometry":{"coordinates":[0.547316,46.821836],"type":"Point"},"properties":{"osm_id":"2588103736","tag":{"amenity":"waste_basket"}},"type":"Feature"},
	{"geometry":{"coordinates":[0.546723,46.822527],"type":"Point"},"properties":{"osm_id":"2588103738","tag":{"amenity":"waste_basket"}},"type":"Feature"},
	{"geometry":{"coordinates":[0.54631,46.823122],"type":"Point"},"properties":{"osm_id":"2588111796","tag":{"amenity":"waste_basket"}},"type":"Feature"},
	{"geometry":{"coordinates":[0.546058,46.824627],"type":"Point"},"properties":{"osm_id":"2588123683","tag":{"amenity":"waste_basket"}},"type":"Feature"},
	{"geometry":{"coordinates":[0.545618,46.824154],"type":"Point"},"properties":{"osm_id":"2588123693","tag":{"amenity":"waste_basket"}},"type":"Feature"},
	{"geometry":{"coordinates":[0.546256,46.824058],"type":"Point"},"properties":{"osm_id":"2588123706","tag":{"amenity":"waste_basket"}},"type":"Feature"},
	{"geometry":{"coordinates":[0.546157,46.824344],"type":"Point"},"properties":{"osm_id":"2588123725","tag":{"amenity":"waste_basket"}},"type":"Feature"},
	{"geometry":{"coordinates":[0.545908,46.823702],"type":"Point"},"properties":{"osm_id":"2588123742","tag":{"amenity":"waste_basket"}},"type":"Feature"},
	{"geometry":{"coordinates":[0.546699,46.823234],"type":"Point"},"properties":{"osm_id":"2588137489","tag":{"amenity":"recycling"}},"type":"Feature"},
	{"geometry":{"coordinates":[0.547509,46.812869],"type":"Point"},"properties":{"osm_id":"2591517665","tag":{"amenity":"recycling","location":"overground","recycling_type":"container"}},"type":"Feature"},
	{"geometry":{"coordinates":[0.5474,46.812757],"type":"Point"},"properties":{"osm_id":"2591517689","tag":{"amenity":"waste_basket"}},"type":"Feature"},
	{"geometry":{"coordinates":[0.547244,46.812761],"type":"Point"},"properties":{"osm_id":"2591517692","tag":{"amenity":"waste_basket"}},"type":"Feature"},
	{"geometry":{"coordinates":[0.547255,46.813159],"type":"Point"},"properties":{"osm_id":"2591517695","tag":{"amenity":"waste_basket"}},"type":"Feature"},
	{"geometry":{"coordinates":[0.551455,46.81768],"type":"Point"},"properties":{"osm_id":"2600979990","tag":{"amenity":"waste_basket"}},"type":"Feature"},
	{"geometry":{"coordinates":[0.554324,46.819512],"type":"Point"},"properties":{"osm_id":"2601385884","tag":{"amenity":"waste_basket"}},"type":"Feature"},
	{"geometry":{"coordinates":[0.557387,46.822419],"type":"Point"},"properties":{"osm_id":"2602996774","tag":{"amenity":"waste_basket"}},"type":"Feature"},
	{"geometry":{"coordinates":[0.543133,46.814453],"type":"Point"},"properties":{"osm_id":"2615998056","tag":{"amenity":"waste_basket"}},"type":"Feature"},
	{"geometry":{"coordinates":[0.542333,46.81454],"type":"Point"},"properties":{"osm_id":"2615999964","tag":{"amenity":"waste_basket"}},"type":"Feature"},
	{"geometry":{"coordinates":[0.540141,46.814803],"type":"Point"},"properties":{"osm_id":"2616005604","tag":{"amenity":"waste_basket"}},"type":"Feature"},
	{"geometry":{"coordinates":[0.540598,46.814857],"type":"Point"},"properties":{"osm_id":"2616015435","tag":{"amenity":"waste_basket"}},"type":"Feature"},
	{"geometry":{"coordinates":[0.540481,46.814869],"type":"Point"},"properties":{"osm_id":"2616015438","tag":{"amenity":"waste_basket"}},"type":"Feature"},
	{"geometry":{"coordinates":[0.5407,46.814731],"type":"Point"},"properties":{"osm_id":"2616015440","tag":{"amenity":"waste_basket"}},"type":"Feature"},
	{"geometry":{"coordinates":[0.540519,46.814749],"type":"Point"},"properties":{"osm_id":"2616015441","tag":{"amenity":"waste_basket"}},"type":"Feature"},
	{"geometry":{"coordinates":[0.54092,46.814593],"type":"Point"},"properties":{"osm_id":"2616018100","tag":{"amenity":"waste_basket"}},"type":"Feature"},
	{"geometry":{"coordinates":[0.542702,46.814404],"type":"Point"},"properties":{"osm_id":"2616028502","tag":{"amenity":"waste_basket"}},"type":"Feature"},
	{"geometry":{"coordinates":[0.560831,46.822747],"type":"Point"},"properties":{"osm_id":"2621143084","tag":{"amenity":"waste_basket"}},"type":"Feature"},
	{"geometry":{"coordinates":[0.562901,46.822204],"type":"Point"},"properties":{"osm_id":"2621241471","tag":{"amenity":"waste_basket"}},"type":"Feature"},
	{"geometry":{"coordinates":[0.55924,46.821708],"type":"Point"},"properties":{"osm_id":"2621990649","tag":{"amenity":"waste_basket"}},"type":"Feature"},
	{"geometry":{"coordinates":[0.551322,46.828116],"type":"Point"},"properties":{"osm_id":"2622323420","tag":{"amenity":"waste_basket"}},"type":"Feature"},
	{"geometry":{"coordinates":[0.543628,46.824898],"type":"Point"},"properties":{"osm_id":"2625951038","tag":{"amenity":"waste_basket"}},"type":"Feature"},
	{"geometry":{"coordinates":[0.551287,46.819942],"type":"Point"},"properties":{"osm_id":"2629536683","tag":{"amenity":"waste_basket"}},"type":"Feature"},
	{"geometry":{"coordinates":[0.552953,46.820282],"type":"Point"},"properties":{"osm_id":"2629540461","tag":{"amenity":"recycling","recycling_type":"container"}},"type":"Feature"},
	{"geometry":{"coordinates":[0.533998,46.815294],"type":"Point"},"properties":{"osm_id":"2632106949","tag":{"amenity":"waste_basket"}},"type":"Feature"},
	{"geometry":{"coordinates":[0.53547,46.815413],"type":"Point"},"properties":{"osm_id":"2633479352","tag":{"amenity":"recycling","recycling_type":"container"}},"type":"Feature"},
	{"geometry":{"coordinates":[0.539713,46.826581],"type":"Point"},"properties":{"osm_id":"2640921643","tag":{"amenity":"recycling","recycling_type":"container"}},"type":"Feature"},
	{"geometry":{"coordinates":[0.536597,46.815059],"type":"Point"},"properties":{"osm_id":"2643732425","tag":{"amenity":"waste_basket"}},"type":"Feature"},
	{"geometry":{"coordinates":[0.536433,46.814822],"type":"Point"},"properties":{"osm_id":"2643732426","tag":{"amenity":"waste_basket"}},"type":"Feature"},
	{"geometry":{"coordinates":[0.541457,46.836511],"type":"Point"},"properties":{"osm_id":"2655708864","tag":{"amenity":"recycling","recycling_type":"container"}},"type":"Feature"},
	{"geometry":{"coordinates":[0.544699,46.81631],"type":"Point"},"properties":{"osm_id":"2657617168","tag":{"amenity":"waste_basket"}},"type":"Feature"},
	{"geometry":{"coordinates":[0.532586,46.823246],"type":"Point"},"properties":{"osm_id":"2665233928","tag":{"amenity":"waste_basket"}},"type":"Feature"},
	{"geometry":{"coordinates":[0.532862,46.823026],"type":"Point"},"properties":{"osm_id":"2665233931","tag":{"amenity":"waste_basket"}},"type":"Feature"},
	{"geometry":{"coordinates":[0.533369,46.822628],"type":"Point"},"properties":{"osm_id":"2665250203","tag":{"amenity":"waste_basket"}},"type":"Feature"},
	{"geometry":{"coordinates":[0.545956,46.822451],"type":"Point"},"properties":{"osm_id":"2896731054","tag":{"amenity":"waste_basket"}},"type":"Feature"},
	{"geometry":{"coordinates":[0.540398,46.808612],"type":"Point"},"properties":{"osm_id":"2989170920","tag":{"amenity":"waste_basket"}},"type":"Feature"},
	{"geometry":{"coordinates":[0.528299,46.800325],"type":"Point"},"properties":{"osm_id":"3483666577","tag":{"amenity":"waste_basket"}},"type":"Feature"},
	{"geometry":{"coordinates":[0.550573,46.827135],"type":"Point"},"properties":{"osm_id":"3839381769","tag":{"amenity":"recycling"}},"type":"Feature"},
	{"geometry":{"coordinates":[0.532182,46.818285],"type":"Point"},"properties":{"osm_id":"3885827675","tag":{"amenity":"waste_basket"}},"type":"Feature"},
	{"geometry":{"coordinates":[0.53406,46.834538],"type":"Point"},"properties":{"osm_id":"4815238656","tag":{"amenity":"recycling"}},"type":"Feature"},
	{"geometry":{"coordinates":[0.549948,46.826147],"type":"Point"},"properties":{"osm_id":"5228266444","tag":{"amenity":"waste_basket"}},"type":"Feature"},
	{"geometry":{"coordinates":[0.5429,46.815816],"type":"Point"},"properties":{"osm_id":"6060514439","tag":{"amenity":"waste_basket"}},"type":"Feature"},
	{"geometry":{"coordinates":[0.530027,46.820387],"type":"Point"},"properties":{"osm_id":"6106250027","tag":{"amenity":"recycling","recycling_type":"container"}},"type":"Feature"},
	{"geometry":{"coordinates":[0.530015,46.820371],"type":"Point"},"properties":{"osm_id":"6106250028","tag":{"amenity":"recycling","recycling_type":"container"}},"type":"Feature"},
	{"geometry":{"coordinates":[0.551903,46.801068],"type":"Point"},"properties":{"osm_id":"6132511539","tag":{"amenity":"waste_basket"}},"type":"Feature"},
	{"geometry":{"coordinates":[0.552354,46.817952],"type":"Point"},"properties":{"osm_id":"6178532063","tag":{"amenity":"waste_basket"}},"type":"Feature"},
	{"geometry":{"coordinates":[0.570833,46.832165],"type":"Point"},"properties":{"osm_id":"6178996280","tag":{"amenity":"waste_basket"}},"type":"Feature"},
	{"geometry":{"coordinates":[0.570816,46.832253],"type":"Point"},"properties":{"osm_id":"6178996599","tag":{"amenity":"waste_basket"}},"type":"Feature"},
	{"geometry":{"coordinates":[0.539523,46.801446],"type":"Point"},"properties":{"osm_id":"6185091460","tag":{"amenity":"recycling","recycling_type":"container"}},"type":"Feature"},
	{"geometry":{"coordinates":[0.548646,46.818749],"type":"Point"},"properties":{"osm_id":"6395962762","tag":{"amenity":"recycling","recycling_type":"container"}},"type":"Feature"},
	{"geometry":{"coordinates":[0.548625,46.818789],"type":"Point"},"properties":{"osm_id":"6395962763","tag":{"amenity":"recycling","recycling_type":"container"}},"type":"Feature"},
	{"geometry":{"coordinates":[0.548632,46.818777],"type":"Point"},"properties":{"osm_id":"6395962764","tag":{"amenity":"recycling","recycling_type":"container"}},"type":"Feature"},
	{"geometry":{"coordinates":[0.54864,46.818763],"type":"Point"},"properties":{"osm_id":"6395962765","tag":{"amenity":"recycling","recycling_type":"container"}},"type":"Feature"},
	{"geometry":{"coordinates":[0.543985,46.838584],"type":"Point"},"properties":{"osm_id":"6465112094","tag":{"amenity":"waste_basket"}},"type":"Feature"},
	{"geometry":{"coordinates":[0.540925,46.814285],"type":"Point"},"properties":{"osm_id":"6555216495","tag":{"amenity":"waste_basket"}},"type":"Feature"},
	{"geometry":{"coordinates":[0.544067,46.817189],"type":"Point"},"properties":{"osm_id":"6979854780","tag":{"amenity":"waste_basket"}},"type":"Feature"},
	{"geometry":{"coordinates":[0.542719,46.818941],"type":"Point"},"properties":{"osm_id":"6984627572","tag":{"amenity":"waste_basket"}},"type":"Feature"},
	{"geometry":{"coordinates":[0.543013,46.819348],"type":"Point"},"properties":{"osm_id":"6984635216","tag":{"amenity":"recycling","recycling:glass":"yes","recycling_type":"container"}},"type":"Feature"},
	{"geometry":{"coordinates":[0.543017,46.819379],"type":"Point"},"properties":{"osm_id":"6984635217","tag":{"amenity":"recycling","recycling:paper":"yes","recycling_type":"container"}},"type":"Feature"},
	{"geometry":{"coordinates":[0.542141,46.815661],"type":"Point"},"properties":{"osm_id":"6987579445","tag":{"amenity":"waste_basket"}},"type":"Feature"},
	{"geometry":{"coordinates":[0.540868,46.816161],"type":"Point"},"properties":{"osm_id":"6987769457","tag":{"amenity":"waste_basket"}},"type":"Feature"},
	{"geometry":{"coordinates":[0.540772,46.814838],"type":"Point"},"properties":{"osm_id":"6989686379","tag":{"amenity":"waste_basket"}},"type":"Feature"},
	{"geometry":{"coordinates":[0.541188,46.817221],"type":"Point"},"properties":{"osm_id":"6992667587","tag":{"amenity":"recycling","recycling:glass":"yes","recycling_type":"container"}},"type":"Feature"},
	{"geometry":{"coordinates":[0.53645,46.813841],"type":"Point"},"properties":{"osm_id":"6996647598","tag":{"amenity":"waste_basket"}},"type":"Feature"}
]
}
