{
"type": "FeatureCollection",
"features": [
	{"geometry":{"coordinates":[0.54353,46.770792],"type":"Point"},"properties":{"osm_id":"2218536451","tag":{"amenity":"recycling","location":"overground","recycling_type":"container"}},"type":"Feature"},
	{"geometry":{"coordinates":[0.53624,46.773169],"type":"Point"},"properties":{"osm_id":"2338975732","tag":{"amenity":"recycling"}},"type":"Feature"},
	{"geometry":{"coordinates":[0.536951,46.771679],"type":"Point"},"properties":{"osm_id":"2338978669","tag":{"amenity":"waste_basket"}},"type":"Feature"},
	{"geometry":{"coordinates":[0.529973,46.797655],"type":"Point"},"properties":{"osm_id":"2451740578","tag":{"amenity":"waste_basket"}},"type":"Feature"},
	{"geometry":{"coordinates":[0.528724,46.797788],"type":"Point"},"properties":{"osm_id":"2451743176","tag":{"amenity":"waste_basket"}},"type":"Feature"},
	{"geometry":{"coordinates":[0.551953,46.799216],"type":"Point"},"properties":{"osm_id":"2477573384","tag":{"amenity":"recycling","recycling_type":"container"}},"type":"Feature"},
	{"geometry":{"coordinates":[0.552739,46.799242],"type":"Point"},"properties":{"osm_id":"2477578777","tag":{"amenity":"recycling","recycling_type":"container"}},"type":"Feature"},
	{"geometry":{"coordinates":[0.551885,46.799723],"type":"Point"},"properties":{"osm_id":"2477618258","tag":{"amenity":"recycling","recycling_type":"container"}},"type":"Feature"},
	{"geometry":{"coordinates":[0.551158,46.796983],"type":"Point"},"properties":{"osm_id":"2477781998","tag":{"amenity":"recycling"}},"type":"Feature"},
	{"geometry":{"coordinates":[0.549704,46.798751],"type":"Point"},"properties":{"osm_id":"2488061622","tag":{"amenity":"waste_basket"}},"type":"Feature"},
	{"geometry":{"coordinates":[0.535041,46.7961],"type":"Point"},"properties":{"osm_id":"2519610374","tag":{"amenity":"waste_basket"}},"type":"Feature"},
	{"geometry":{"coordinates":[0.529068,46.793851],"type":"Point"},"properties":{"osm_id":"2519622347","tag":{"amenity":"recycling","recycling_type":"container"}},"type":"Feature"},
	{"geometry":{"coordinates":[0.530957,46.794595],"type":"Point"},"properties":{"osm_id":"2519622352","tag":{"amenity":"waste_basket"}},"type":"Feature"},
	{"geometry":{"coordinates":[0.528797,46.79381],"type":"Point"},"properties":{"osm_id":"2519698935","tag":{"amenity":"waste_basket"}},"type":"Feature"},
	{"geometry":{"coordinates":[0.533399,46.795368],"type":"Point"},"properties":{"osm_id":"2521078486","tag":{"amenity":"recycling"}},"type":"Feature"},
	{"geometry":{"coordinates":[0.534022,46.799002],"type":"Point"},"properties":{"osm_id":"2522256677","tag":{"amenity":"waste_basket"}},"type":"Feature"},
	{"geometry":{"coordinates":[0.579079,46.756358],"type":"Point"},"properties":{"osm_id":"4975354982","tag":{"amenity":"waste_basket"}},"type":"Feature"},
	{"geometry":{"coordinates":[0.587381,46.785694],"type":"Point"},"properties":{"osm_id":"5492041679","tag":{"amenity":"waste_basket"}},"type":"Feature"},
	{"geometry":{"coordinates":[0.587398,46.785685],"type":"Point"},"properties":{"osm_id":"5492041680","tag":{"amenity":"recycling","recycling:glass_bottles":"yes","recycling_type":"container"}},"type":"Feature"},
	{"geometry":{"coordinates":[0.587383,46.785668],"type":"Point"},"properties":{"osm_id":"5492041681","tag":{"amenity":"recycling","recycling:magazines":"yes","recycling:newspaper":"yes","recycling:paper":"yes","recycling_type":"container"}},"type":"Feature"},
	{"geometry":{"coordinates":[0.531241,46.799075],"type":"Point"},"properties":{"osm_id":"6165999548","tag":{"amenity":"waste_basket"}},"type":"Feature"},
	{"geometry":{"coordinates":[0.529803,46.797675],"type":"Point"},"properties":{"osm_id":"6959977584","tag":{"amenity":"waste_basket"}},"type":"Feature"},
	{"geometry":{"coordinates":[0.528896,46.797771],"type":"Point"},"properties":{"osm_id":"6959991185","tag":{"amenity":"waste_basket"}},"type":"Feature"}
]
}
