{
"type": "FeatureCollection",
"features": [
	{"geometry":{"coordinates":[0.592552,44.854056],"type":"Point"},"properties":{"osm_id":"5244058922","tag":{"amenity":"waste_basket"}},"type":"Feature"},
	{"geometry":{"coordinates":[0.572669,44.860671],"type":"Point"},"properties":{"osm_id":"5873948060","tag":{"addr:street":"Route de Troche","amenity":"recycling","opening_hours":"24/7","recycling:glass_bottles":"yes","recycling_type":"container"}},"type":"Feature"},
	{"geometry":{"coordinates":[0.590582,44.893021],"type":"Point"},"properties":{"osm_id":"6578598731","tag":{"amenity":"waste_basket"}},"type":"Feature"},
	{"geometry":{"coordinates":[0.531987,44.85047],"type":"Point"},"properties":{"osm_id":"6888006221","tag":{"amenity":"recycling","recycling:plastic_bottles":"yes","recycling_type":"container"}},"type":"Feature"},
	{"geometry":{"coordinates":[0.587019,44.868385],"type":"Point"},"properties":{"osm_id":"9043897608","tag":{"amenity":"waste_basket"}},"type":"Feature"},
	{"geometry":{"coordinates":[0.587283,44.868401],"type":"Point"},"properties":{"osm_id":"9043933619","tag":{"amenity":"waste_basket"}},"type":"Feature"}
]
}
