{
"type": "FeatureCollection",
"features": [
	{"geometry":{"coordinates":[0.595569,43.65565],"type":"Point"},"properties":{"osm_id":"597385970","tag":{"amenity":"recycling","recycling:glass":"yes"}},"type":"Feature"},
	{"geometry":{"coordinates":[0.589891,43.64737],"type":"Point"},"properties":{"osm_id":"597388647","tag":{"amenity":"recycling","recycling:clothes":"yes","recycling:glass_bottles":"yes","recycling:shoes":"yes"}},"type":"Feature"},
	{"geometry":{"coordinates":[0.58712,43.648314],"type":"Point"},"properties":{"osm_id":"633365179","tag":{"amenity":"recycling","recycling:glass":"yes"}},"type":"Feature"},
	{"geometry":{"coordinates":[0.531077,43.651699],"type":"Point"},"properties":{"osm_id":"1290617664","tag":{"amenity":"recycling","recycling:glass":"yes"}},"type":"Feature"},
	{"geometry":{"coordinates":[0.578643,43.649811],"type":"Point"},"properties":{"osm_id":"1428422583","tag":{"amenity":"waste_basket"}},"type":"Feature"},
	{"geometry":{"coordinates":[0.584831,43.646654],"type":"Point"},"properties":{"osm_id":"2837632421","tag":{"amenity":"recycling","recycling:cans":"yes","recycling:clothes":"no","recycling:glass_bottles":"yes","recycling:paper":"yes","recycling_type":"container"}},"type":"Feature"},
	{"geometry":{"coordinates":[0.577531,43.646766],"type":"Point"},"properties":{"osm_id":"5424767688","tag":{"amenity":"waste_basket"}},"type":"Feature"},
	{"geometry":{"coordinates":[0.57763,43.64664],"type":"Point"},"properties":{"osm_id":"5424786605","tag":{"amenity":"waste_basket"}},"type":"Feature"},
	{"geometry":{"coordinates":[0.577538,43.646767],"type":"Point"},"properties":{"osm_id":"7062879150","tag":{"amenity":"waste_basket","colour":"yellow","waste":"recycling"}},"type":"Feature"},
	{"geometry":{"coordinates":[0.587105,43.648219],"type":"Point"},"properties":{"osm_id":"7873520297","tag":{"amenity":"recycling","opening_hours":"24/7","opening_hours:covid19":"same","recycling:cans":"yes","recycling:glass_bottles":"yes","recycling:plastic_bottles":"yes","recycling:waste":"yes","recycling_type":"container"}},"type":"Feature"}
]
}
