{
"type": "FeatureCollection",
"features": [
	{"geometry":{"coordinates":[0.584342,43.033342],"type":"Point"},"properties":{"osm_id":"3808029128","tag":{"addr:city":"Valcabr\u00c3\u00a8re","addr:postcode":"31510","amenity":"recycling","recycling_type":"container"}},"type":"Feature"},
	{"geometry":{"coordinates":[0.571078,43.027184],"type":"Point"},"properties":{"osm_id":"4979658348","tag":{"amenity":"waste_basket"}},"type":"Feature"},
	{"geometry":{"coordinates":[0.571081,43.027146],"type":"Point"},"properties":{"osm_id":"4979658847","tag":{"amenity":"waste_basket"}},"type":"Feature"},
	{"geometry":{"coordinates":[0.570844,43.027113],"type":"Point"},"properties":{"osm_id":"4979658848","tag":{"amenity":"waste_basket"}},"type":"Feature"},
	{"geometry":{"coordinates":[0.584638,43.029061],"type":"Point"},"properties":{"osm_id":"4980440977","tag":{"amenity":"waste_basket"}},"type":"Feature"},
	{"geometry":{"coordinates":[0.573832,43.025823],"type":"Point"},"properties":{"osm_id":"4980469124","tag":{"amenity":"waste_basket"}},"type":"Feature"},
	{"geometry":{"coordinates":[0.572334,43.026753],"type":"Point"},"properties":{"osm_id":"4980778044","tag":{"amenity":"waste_basket"}},"type":"Feature"}
]
}
