{
"type": "FeatureCollection",
"features": [
	{"geometry":{"coordinates":[30.554751,50.391987],"type":"Point"},"properties":{"name":"2 \u00d0\u00b4\u00d0\u00b5\u00d1\u0080\u00d0\u00b5\u00d0\u00b2\u00d0\u00b0","osm_id":"1635794320","tag":{"denotation":"landmark","height":"8","leaf_cycle":"deciduous","leaf_type":"broadleaved","name:uk":"2 \u00d0\u00b4\u00d0\u00b5\u00d1\u0080\u00d0\u00b5\u00d0\u00b2\u00d0\u00b0","natural":"tree"}},"type":"Feature"},
	{"geometry":{"coordinates":[30.517675,50.387708],"type":"Point"},"properties":{"name":"\u00d0\u0094\u00d1\u0083\u00d0\u00b1 \u00d0\u0092\u00d1\u0094\u00d1\u0082\u00d1\u0080\u00d0\u00be\u00d0\u00b2\u00d0\u00b0","osm_id":"1895207476","tag":{"denotation":"natural_monument","genus":"Quercus","genus:en":"Oak","height":"20","leaf_cycle":"deciduous","leaf_type":"broadleaved","name:en":"Vetrov's Oak","name:ru":"\u00d0\u0094\u00d1\u0083\u00d0\u00b1 \u00d0\u0092\u00d0\u00b5\u00d1\u0082\u00d1\u0080\u00d0\u00be\u00d0\u00b2\u00d0\u00b0","name:uk":"\u00d0\u0094\u00d1\u0083\u00d0\u00b1 \u00d0\u0092\u00d1\u0094\u00d1\u0082\u00d1\u0080\u00d0\u00be\u00d0\u00b2\u00d0\u00b0","natural":"tree"}},"type":"Feature"},
	{"geometry":{"coordinates":[30.571258,50.351823],"type":"Point"},"properties":{"osm_id":"1941164338","tag":{"natural":"tree"}},"type":"Feature"},
	{"geometry":{"coordinates":[30.570551,50.351234],"type":"Point"},"properties":{"osm_id":"1941164346","tag":{"natural":"tree"}},"type":"Feature"},
	{"geometry":{"coordinates":[30.568469,50.346599],"type":"Point"},"properties":{"osm_id":"1941164347","tag":{"natural":"tree"}},"type":"Feature"},
	{"geometry":{"coordinates":[30.568631,50.352792],"type":"Point"},"properties":{"osm_id":"2026125443","tag":{"natural":"tree"}},"type":"Feature"},
	{"geometry":{"coordinates":[30.568014,50.353001],"type":"Point"},"properties":{"osm_id":"2026125722","tag":{"natural":"tree"}},"type":"Feature"},
	{"geometry":{"coordinates":[30.568449,50.352837],"type":"Point"},"properties":{"osm_id":"2026125746","tag":{"natural":"tree"}},"type":"Feature"},
	{"geometry":{"coordinates":[30.556567,50.396097],"type":"Point"},"properties":{"osm_id":"2328444508","tag":{"denotation":"landmark","natural":"tree"}},"type":"Feature"},
	{"geometry":{"coordinates":[30.517525,50.382319],"type":"Point"},"properties":{"name":"\u00d0\u0094\u00d1\u0083\u00d0\u00b1 \u00d0\u00a0\u00d0\u00b8\u00d0\u00bb\u00d1\u008c\u00d1\u0081\u00d1\u008c\u00d0\u00ba\u00d0\u00be\u00d0\u00b3\u00d0\u00be","osm_id":"3386552532","tag":{"denotation":"natural_monument","genus":"Quercus","genus:en":"Oak","leaf_cycle":"deciduous","leaf_type":"broadleaved","name:ru":"\u00d0\u0094\u00d1\u0083\u00d0\u00b1 \u00d0\u00a0\u00d1\u008b\u00d0\u00bb\u00d1\u008c\u00d1\u0081\u00d0\u00ba\u00d0\u00be\u00d0\u00b3\u00d0\u00be","name:uk":"\u00d0\u0094\u00d1\u0083\u00d0\u00b1 \u00d0\u00a0\u00d0\u00b8\u00d0\u00bb\u00d1\u008c\u00d1\u0081\u00d1\u008c\u00d0\u00ba\u00d0\u00be\u00d0\u00b3\u00d0\u00be","natural":"tree"}},"type":"Feature"},
	{"geometry":{"coordinates":[30.505254,50.382957],"type":"Point"},"properties":{"name":"\u00d0\u0094\u00d1\u0083\u00d0\u00b1 \u00d0\u0095\u00d0\u00ba\u00d0\u00b7\u00d1\u008e\u00d0\u00bf\u00d0\u00b5\u00d1\u0080\u00d1\u0096","osm_id":"3969645458","tag":{"denotation":"natural_monument","leaf_cycle":"deciduous","leaf_type":"broadleaved","name:uk":"\u00d0\u0094\u00d1\u0083\u00d0\u00b1 \u00d0\u0095\u00d0\u00ba\u00d0\u00b7\u00d1\u008e\u00d0\u00bf\u00d0\u00b5\u00d1\u0080\u00d1\u0096","natural":"tree"}},"type":"Feature"},
	{"geometry":{"coordinates":[30.512741,50.386613],"type":"Point"},"properties":{"name":"\u00d0\u0094\u00d1\u0083\u00d0\u00b1 \u00d0\u00af\u00d0\u00ba\u00d1\u0083\u00d0\u00bd\u00d1\u0096\u00d0\u00bd\u00d0\u00b0","osm_id":"4406447889","tag":{"denotation":"natural_monument","genus":"Quercus","genus:en":"Oak","height":"25","leaf_cycle":"deciduous","leaf_type":"broadleaved","name:en":"Yakunina Oak","name:ru":"\u00d0\u0094\u00d1\u0083\u00d0\u00b1 \u00d0\u00af\u00d0\u00ba\u00d1\u0083\u00d0\u00bd\u00d0\u00b8\u00d0\u00bd\u00d0\u00b0","name:uk":"\u00d0\u0094\u00d1\u0083\u00d0\u00b1 \u00d0\u00af\u00d0\u00ba\u00d1\u0083\u00d0\u00bd\u00d1\u0096\u00d0\u00bd\u00d0\u00b0","natural":"tree"}},"type":"Feature"},
	{"geometry":{"coordinates":[30.553303,50.39221],"type":"Point"},"properties":{"name":"\u00d0\u009e\u00d0\u00bf\u00d0\u00be\u00d0\u00bb\u00d1\u0087\u00d0\u00b5\u00d0\u00bd\u00d1\u0081\u00d1\u008c\u00d0\u00ba\u00d0\u00b8\u00d0\u00b9 \u00d0\u0094\u00d1\u0083\u00d0\u00b1","osm_id":"4483818991","tag":{"name:uk":"\u00d0\u009e\u00d0\u00bf\u00d0\u00be\u00d0\u00bb\u00d1\u0087\u00d0\u00b5\u00d0\u00bd\u00d1\u0081\u00d1\u008c\u00d0\u00ba\u00d0\u00b8\u00d0\u00b9 \u00d0\u0094\u00d1\u0083\u00d0\u00b1","natural":"tree"}},"type":"Feature"},
	{"geometry":{"coordinates":[30.570802,50.396575],"type":"Point"},"properties":{"osm_id":"4558585046","tag":{"natural":"tree"}},"type":"Feature"},
	{"geometry":{"coordinates":[30.580009,50.394459],"type":"Point"},"properties":{"osm_id":"4558585048","tag":{"natural":"tree"}},"type":"Feature"},
	{"geometry":{"coordinates":[30.579822,50.393608],"type":"Point"},"properties":{"osm_id":"4558585049","tag":{"natural":"tree"}},"type":"Feature"},
	{"geometry":{"coordinates":[30.552459,50.390135],"type":"Point"},"properties":{"name":"\u00d0\u00b4\u00d1\u0083\u00d0\u00b1-\u00d0\u0092\u00d1\u0096\u00d0\u00b4\u00d1\u0083\u00d0\u00bd","osm_id":"6580229914","tag":{"denotation":"natural_monument","genus":"Quercus","genus:en":"Oak","genus:uk":"\u00d0\u0094\u00d1\u0083\u00d0\u00b1","leaf_type":"broadleaved","natural":"tree"}},"type":"Feature"},
	{"geometry":{"coordinates":[30.545691,50.392683],"type":"Point"},"properties":{"name":"\u00d0\u0094\u00d1\u0083\u00d0\u00b1 \u00d0\u00a2\u00d0\u00be\u00d1\u0082\u00d0\u00bb\u00d0\u00b5\u00d0\u00b1\u00d0\u00b5\u00d0\u00bd\u00d0\u00b0","osm_id":"6580241132","tag":{"denotation":"natural_monument","genus":"Quercus","genus:en":"Oak","genus:uk":"\u00d0\u0094\u00d1\u0083\u00d0\u00b1","leaf_type":"broadleaved","natural":"tree"}},"type":"Feature"},
	{"geometry":{"coordinates":[30.553323,50.396104],"type":"Point"},"properties":{"osm_id":"6582391900","tag":{"denotation":"natural_monument","genus":"Quercus","genus:en":"Oak","genus:uk":"\u00d0\u0094\u00d1\u0083\u00d0\u00b1","natural":"tree"}},"type":"Feature"},
	{"geometry":{"coordinates":[30.507922,50.370755],"type":"Point"},"properties":{"name":"\u00d0\u0094\u00d1\u0083\u00d0\u00b1 \u00d0\u009c. \u00d0\u00ae. \u00d0\u009c\u00d0\u00b8\u00d1\u0085\u00d0\u00b0\u00d0\u00bb\u00d0\u00ba\u00d0\u00b0","osm_id":"8656584871","tag":{"genus":"Quercus","leaf_type":"broadleaved","name:uk":"\u00d0\u0094\u00d1\u0083\u00d0\u00b1 \u00d0\u009c. \u00d0\u00ae. \u00d0\u009c\u00d0\u00b8\u00d1\u0085\u00d0\u00b0\u00d0\u00bb\u00d0\u00ba\u00d0\u00b0","natural":"tree"}},"type":"Feature"},
	{"geometry":{"coordinates":[30.519814,50.382544],"type":"Point"},"properties":{"name":"\u00d0\u0094\u00d1\u0083\u00d0\u00b1 \u00d0\u009f\u00d0\u00b5\u00d1\u0082\u00d1\u0080\u00d0\u00b0 \u00d0\u009c\u00d0\u00be\u00d0\u00b3\u00d0\u00b8\u00d0\u00bb\u00d0\u00b8","osm_id":"8768397650","tag":{"check_date":"2021-05-23","genus":"Quercus","leaf_type":"broadleaved","natural":"tree"}},"type":"Feature"},
	{"geometry":{"coordinates":[30.566781,50.354555],"type":"Point"},"properties":{"osm_id":"8882808511","tag":{"natural":"tree"}},"type":"Feature"},
	{"geometry":{"coordinates":[30.56647,50.354599],"type":"Point"},"properties":{"osm_id":"8882808512","tag":{"natural":"tree"}},"type":"Feature"},
	{"geometry":{"coordinates":[30.566834,50.354829],"type":"Point"},"properties":{"osm_id":"8882808513","tag":{"natural":"tree"}},"type":"Feature"},
	{"geometry":{"coordinates":[30.566974,50.35436],"type":"Point"},"properties":{"osm_id":"8882808514","tag":{"natural":"tree"}},"type":"Feature"},
	{"geometry":{"coordinates":[30.566545,50.354189],"type":"Point"},"properties":{"osm_id":"8882808515","tag":{"natural":"tree"}},"type":"Feature"},
	{"geometry":{"coordinates":[30.56603,50.354699],"type":"Point"},"properties":{"osm_id":"8882808516","tag":{"natural":"tree"}},"type":"Feature"},
	{"geometry":{"coordinates":[30.566341,50.355058],"type":"Point"},"properties":{"osm_id":"8882820817","tag":{"natural":"tree"}},"type":"Feature"},
	{"geometry":{"coordinates":[30.566936,50.355304],"type":"Point"},"properties":{"osm_id":"8882820818","tag":{"natural":"tree"}},"type":"Feature"},
	{"geometry":{"coordinates":[30.565708,50.3559],"type":"Point"},"properties":{"osm_id":"8882820819","tag":{"natural":"tree"}},"type":"Feature"},
	{"geometry":{"coordinates":[30.565912,50.355435],"type":"Point"},"properties":{"osm_id":"8882820820","tag":{"natural":"tree"}},"type":"Feature"},
	{"geometry":{"coordinates":[30.567108,50.355972],"type":"Point"},"properties":{"osm_id":"8882820821","tag":{"natural":"tree"}},"type":"Feature"},
	{"geometry":{"coordinates":[30.567017,50.356342],"type":"Point"},"properties":{"osm_id":"8882820822","tag":{"natural":"tree"}},"type":"Feature"},
	{"geometry":{"coordinates":[30.566523,50.356122],"type":"Point"},"properties":{"osm_id":"8882820823","tag":{"natural":"tree"}},"type":"Feature"},
	{"geometry":{"coordinates":[30.566196,50.355739],"type":"Point"},"properties":{"osm_id":"8882820824","tag":{"natural":"tree"}},"type":"Feature"},
	{"geometry":{"coordinates":[30.565842,50.356208],"type":"Point"},"properties":{"osm_id":"8882820825","tag":{"natural":"tree"}},"type":"Feature"},
	{"geometry":{"coordinates":[30.566137,50.356407],"type":"Point"},"properties":{"osm_id":"8882820826","tag":{"natural":"tree"}},"type":"Feature"},
	{"geometry":{"coordinates":[30.566518,50.356437],"type":"Point"},"properties":{"osm_id":"8882820827","tag":{"natural":"tree"}},"type":"Feature"},
	{"geometry":{"coordinates":[30.566561,50.350112],"type":"Point"},"properties":{"osm_id":"8883131480","tag":{"natural":"tree"}},"type":"Feature"},
	{"geometry":{"coordinates":[30.566043,50.350304],"type":"Point"},"properties":{"osm_id":"8883131481","tag":{"natural":"tree"}},"type":"Feature"},
	{"geometry":{"coordinates":[30.566306,50.350533],"type":"Point"},"properties":{"osm_id":"8883131482","tag":{"natural":"tree"}},"type":"Feature"},
	{"geometry":{"coordinates":[30.566526,50.35087],"type":"Point"},"properties":{"osm_id":"8883131483","tag":{"natural":"tree"}},"type":"Feature"},
	{"geometry":{"coordinates":[30.566757,50.350792],"type":"Point"},"properties":{"osm_id":"8883131484","tag":{"natural":"tree"}},"type":"Feature"},
	{"geometry":{"coordinates":[30.566598,50.351005],"type":"Point"},"properties":{"osm_id":"8883131485","tag":{"natural":"tree"}},"type":"Feature"},
	{"geometry":{"coordinates":[30.566529,50.35182],"type":"Point"},"properties":{"osm_id":"8883131486","tag":{"natural":"tree"}},"type":"Feature"},
	{"geometry":{"coordinates":[30.507861,50.391652],"type":"Point"},"properties":{"osm_id":"8895099560","tag":{"natural":"tree"}},"type":"Feature"},
	{"geometry":{"coordinates":[30.558884,50.346131],"type":"Point"},"properties":{"osm_id":"8897498108","tag":{"natural":"tree"}},"type":"Feature"},
	{"geometry":{"coordinates":[30.558986,50.347161],"type":"Point"},"properties":{"osm_id":"8897498111","tag":{"natural":"tree"}},"type":"Feature"},
	{"geometry":{"coordinates":[30.558316,50.345765],"type":"Point"},"properties":{"osm_id":"8897498112","tag":{"natural":"tree"}},"type":"Feature"},
	{"geometry":{"coordinates":[30.559828,50.347107],"type":"Point"},"properties":{"osm_id":"8897498113","tag":{"natural":"tree"}},"type":"Feature"},
	{"geometry":{"coordinates":[30.561835,50.345737],"type":"Point"},"properties":{"osm_id":"8897498115","tag":{"natural":"tree"}},"type":"Feature"},
	{"geometry":{"coordinates":[30.562822,50.345566],"type":"Point"},"properties":{"osm_id":"8897500618","tag":{"natural":"tree"}},"type":"Feature"},
	{"geometry":{"coordinates":[30.55838,50.346641],"type":"Point"},"properties":{"osm_id":"8897500623","tag":{"natural":"tree"}},"type":"Feature"},
	{"geometry":{"coordinates":[30.558037,50.346254],"type":"Point"},"properties":{"osm_id":"8897500624","tag":{"natural":"tree"}},"type":"Feature"},
	{"geometry":{"coordinates":[30.563331,50.348181],"type":"Point"},"properties":{"osm_id":"8897500625","tag":{"natural":"tree"}},"type":"Feature"},
	{"geometry":{"coordinates":[30.561626,50.347877],"type":"Point"},"properties":{"osm_id":"8897500626","tag":{"natural":"tree"}},"type":"Feature"},
	{"geometry":{"coordinates":[30.56265,50.347271],"type":"Point"},"properties":{"osm_id":"8897500627","tag":{"natural":"tree"}},"type":"Feature"},
	{"geometry":{"coordinates":[30.561583,50.346891],"type":"Point"},"properties":{"osm_id":"8897500628","tag":{"natural":"tree"}},"type":"Feature"},
	{"geometry":{"coordinates":[30.562484,50.347654],"type":"Point"},"properties":{"osm_id":"8897500629","tag":{"natural":"tree"}},"type":"Feature"},
	{"geometry":{"coordinates":[30.561974,50.347418],"type":"Point"},"properties":{"osm_id":"8897500630","tag":{"natural":"tree"}},"type":"Feature"},
	{"geometry":{"coordinates":[30.562114,50.346733],"type":"Point"},"properties":{"osm_id":"8897500631","tag":{"natural":"tree"}},"type":"Feature"},
	{"geometry":{"coordinates":[30.563991,50.348048],"type":"Point"},"properties":{"osm_id":"8897500632","tag":{"natural":"tree"}},"type":"Feature"},
	{"geometry":{"coordinates":[30.564152,50.347007],"type":"Point"},"properties":{"osm_id":"8897500633","tag":{"natural":"tree"}},"type":"Feature"},
	{"geometry":{"coordinates":[30.564238,50.346696],"type":"Point"},"properties":{"osm_id":"8897500634","tag":{"natural":"tree"}},"type":"Feature"},
	{"geometry":{"coordinates":[30.565091,50.346193],"type":"Point"},"properties":{"osm_id":"8897500635","tag":{"natural":"tree"}},"type":"Feature"},
	{"geometry":{"coordinates":[30.565348,50.346843],"type":"Point"},"properties":{"osm_id":"8897500636","tag":{"natural":"tree"}},"type":"Feature"},
	{"geometry":{"coordinates":[30.571496,50.347312],"type":"Point"},"properties":{"osm_id":"8900323395","tag":{"natural":"tree"}},"type":"Feature"},
	{"geometry":{"coordinates":[30.571383,50.348202],"type":"Point"},"properties":{"osm_id":"8900323396","tag":{"natural":"tree"}},"type":"Feature"},
	{"geometry":{"coordinates":[30.571029,50.347613],"type":"Point"},"properties":{"osm_id":"8900323397","tag":{"natural":"tree"}},"type":"Feature"},
	{"geometry":{"coordinates":[30.571281,50.348537],"type":"Point"},"properties":{"osm_id":"8900323398","tag":{"natural":"tree"}},"type":"Feature"},
	{"geometry":{"coordinates":[30.570734,50.348212],"type":"Point"},"properties":{"osm_id":"8900323399","tag":{"natural":"tree"}},"type":"Feature"},
	{"geometry":{"coordinates":[30.570606,50.348941],"type":"Point"},"properties":{"osm_id":"8900323400","tag":{"natural":"tree"}},"type":"Feature"},
	{"geometry":{"coordinates":[30.570488,50.348459],"type":"Point"},"properties":{"osm_id":"8900323401","tag":{"natural":"tree"}},"type":"Feature"},
	{"geometry":{"coordinates":[30.529965,50.387646],"type":"Point"},"properties":{"osm_id":"9181342216","tag":{"leaf_type":"broadleaved","natural":"tree"}},"type":"Feature"}
]
}
