{
"type": "FeatureCollection",
"features": [
	{"geometry":{"coordinates":[-2.381612,47.293015],"type":"Point"},"properties":{"barrier":"gate","osm_id":"275021775"},"type":"Feature"},
	{"geometry":{"coordinates":[-2.457583,47.32598],"type":"Point"},"properties":{"osm_id":"1485811329","tag":{"amenity":"recycling"}},"type":"Feature"},
	{"geometry":{"coordinates":[-2.439797,47.326226],"type":"Point"},"properties":{"osm_id":"1578147752","tag":{"amenity":"recycling","recycling_type":"container"}},"type":"Feature"},
	{"geometry":{"coordinates":[-2.434056,47.33384],"type":"Point"},"properties":{"osm_id":"1578147774","tag":{"amenity":"recycling","recycling_type":"container"}},"type":"Feature"},
	{"geometry":{"coordinates":[-2.427699,47.326344],"type":"Point"},"properties":{"osm_id":"1578261204","tag":{"amenity":"recycling","recycling:cartons":"yes","recycling:glass_bottles":"yes","recycling_type":"container"}},"type":"Feature"},
	{"geometry":{"coordinates":[-2.43259,47.3286],"type":"Point"},"properties":{"osm_id":"1578284908","tag":{"amenity":"recycling","recycling_type":"container"}},"type":"Feature"},
	{"geometry":{"coordinates":[-2.426803,47.330773],"type":"Point"},"properties":{"osm_id":"1578284932","tag":{"amenity":"recycling","recycling_type":"container"}},"type":"Feature"},
	{"geometry":{"coordinates":[-2.452093,47.315802],"type":"Point"},"properties":{"osm_id":"2303791999","tag":{"amenity":"recycling","recycling:glass_bottles":"yes","recycling:waste":"yes","recycling_type":"container","wheelchair":"yes"}},"type":"Feature"},
	{"geometry":{"coordinates":[-2.424894,47.327639],"type":"Point"},"properties":{"osm_id":"4320739972","tag":{"amenity":"recycling","recycling:glass":"yes","recycling_type":"container"}},"type":"Feature"},
	{"geometry":{"coordinates":[-2.432488,47.334552],"type":"Point"},"properties":{"osm_id":"4706850015","tag":{"amenity":"waste_basket"}},"type":"Feature"},
	{"geometry":{"coordinates":[-2.428212,47.319846],"type":"Point"},"properties":{"osm_id":"4798665649","tag":{"amenity":"recycling","recycling:glass":"yes","recycling:paper":"yes","recycling_type":"container"}},"type":"Feature"},
	{"geometry":{"coordinates":[-2.381144,47.280385],"type":"Point"},"properties":{"osm_id":"5036824636","tag":{"amenity":"waste_basket"}},"type":"Feature"},
	{"geometry":{"coordinates":[-2.393686,47.28576],"type":"Point"},"properties":{"osm_id":"5036927308","tag":{"amenity":"recycling","recycling_type":"container"}},"type":"Feature"},
	{"geometry":{"coordinates":[-2.393686,47.285813],"type":"Point"},"properties":{"osm_id":"5036927309","tag":{"amenity":"recycling","recycling_type":"container"}},"type":"Feature"},
	{"geometry":{"coordinates":[-2.393686,47.285794],"type":"Point"},"properties":{"osm_id":"5036927310","tag":{"amenity":"recycling","recycling_type":"container"}},"type":"Feature"},
	{"geometry":{"coordinates":[-2.393688,47.285778],"type":"Point"},"properties":{"osm_id":"5036927311","tag":{"amenity":"recycling","recycling_type":"container"}},"type":"Feature"},
	{"geometry":{"coordinates":[-2.376957,47.280806],"type":"Point"},"properties":{"osm_id":"5109080092","tag":{"amenity":"recycling","recycling_type":"container"}},"type":"Feature"},
	{"geometry":{"coordinates":[-2.376977,47.280784],"type":"Point"},"properties":{"osm_id":"5109080093","tag":{"amenity":"recycling","recycling_type":"container"}},"type":"Feature"},
	{"geometry":{"coordinates":[-2.377,47.280762],"type":"Point"},"properties":{"osm_id":"5109080094","tag":{"amenity":"recycling","recycling_type":"container"}},"type":"Feature"},
	{"geometry":{"coordinates":[-2.390095,47.333532],"type":"Point"},"properties":{"osm_id":"5606536069","tag":{"access":"customers","amenity":"recycling","recycling:waste":"yes","recycling_type":"container"}},"type":"Feature"},
	{"geometry":{"coordinates":[-2.390147,47.333528],"type":"Point"},"properties":{"osm_id":"5606536070","tag":{"access":"customers","amenity":"recycling","recycling:cans":"yes","recycling:cardboard":"yes","recycling:glass_bottles":"yes","recycling:paper":"yes","recycling:plastic_bottles":"yes","recycling_type":"container"}},"type":"Feature"},
	{"geometry":{"coordinates":[-2.393968,47.329455],"type":"Point"},"properties":{"osm_id":"5608026940","tag":{"amenity":"waste_basket","waste":"trash"}},"type":"Feature"},
	{"geometry":{"coordinates":[-2.390471,47.333115],"type":"Point"},"properties":{"osm_id":"5611951754","tag":{"amenity":"waste_basket"}},"type":"Feature"},
	{"geometry":{"coordinates":[-2.390224,47.333571],"type":"Point"},"properties":{"osm_id":"5611951755","tag":{"amenity":"recycling","recycling:cans":"yes","recycling:cardboard":"yes","recycling:glass_bottles":"yes","recycling:paper":"yes","recycling:plastic_bottles":"yes","recycling_type":"container"}},"type":"Feature"},
	{"geometry":{"coordinates":[-2.390172,47.333575],"type":"Point"},"properties":{"osm_id":"5611951756","tag":{"amenity":"recycling","recycling:waste":"yes","recycling_type":"container"}},"type":"Feature"},
	{"geometry":{"coordinates":[-2.393485,47.331978],"type":"Point"},"properties":{"osm_id":"5612021904","tag":{"amenity":"waste_basket"}},"type":"Feature"},
	{"geometry":{"coordinates":[-2.392927,47.332153],"type":"Point"},"properties":{"osm_id":"5612021905","tag":{"amenity":"waste_basket"}},"type":"Feature"},
	{"geometry":{"coordinates":[-2.393227,47.33186],"type":"Point"},"properties":{"osm_id":"5612021918","tag":{"amenity":"waste_basket"}},"type":"Feature"},
	{"geometry":{"coordinates":[-2.392747,47.33186],"type":"Point"},"properties":{"osm_id":"5612021919","tag":{"amenity":"waste_basket"}},"type":"Feature"},
	{"geometry":{"coordinates":[-2.392506,47.332074],"type":"Point"},"properties":{"osm_id":"5612021929","tag":{"amenity":"waste_basket"}},"type":"Feature"},
	{"geometry":{"coordinates":[-2.430002,47.32799],"type":"Point"},"properties":{"osm_id":"6415539063","tag":{"amenity":"waste_basket","waste":"trash"}},"type":"Feature"},
	{"geometry":{"coordinates":[-2.430727,47.32753],"type":"Point"},"properties":{"osm_id":"6415539073","tag":{"amenity":"waste_basket","waste":"trash"}},"type":"Feature"},
	{"geometry":{"coordinates":[-2.430092,47.327596],"type":"Point"},"properties":{"osm_id":"6415539074","tag":{"amenity":"waste_basket","waste":"trash"}},"type":"Feature"},
	{"geometry":{"coordinates":[-2.406091,47.325036],"type":"Point"},"properties":{"name":"La Recyclane","osm_id":"6680880885","tag":{"amenity":"recycling","charity":"yes","collection_times":"Tu, Th 14:00-17:00","contact:city":"Gu\u00c3\u00a9rande","contact:housenumber":"11","contact:phone":"+33 6 76 81 51 87","contact:postcode":"44350","contact:street":"rue de la Pr\u00c3\u00a9 Neuve","contact:website":"https://m.facebook.com/recyclerieguerande/","description":"premi\u00c3\u00a8re recyclerie associative de la Presqu\u00e2\u0080\u0099\u00c3\u00aele gu\u00c3\u00a9randaise. Vaisselle, v\u00c3\u00aatements, linge de maison, meubles, outils, v\u00c3\u00a9los : toutes sortes d\u00e2\u0080\u0099objets h\u00c3\u00a9t\u00c3\u00a9roclites occupent d\u00c3\u00a9j\u00c3\u00a0 la presque totalit\u00c3\u00a9 des 150 m\u00c2\u00b2 du local.","image":"https://static.actu.fr/uploads/2019/01/25249-190111171920862-0.jpg","opening_hours":"We 09:00-12:00,14:00-17:00; Fr 14:00-17:00; Sa 10:00-12:00","operator":"Association La Recyclane","recycling:bicycles":"yes","recycling:books":"yes","recycling:clothes":"yes","recycling:computers":"yes","recycling:dishes":"yes","recycling:furniture":"yes","recycling:interior_decoration":"yes","recycling:shoes":"yes","recycling:small_electrical_appliances":"yes","recycling:toys":"yes","recycling_type":"centre","second_hand":"only","shop":"general"}},"type":"Feature"},
	{"geometry":{"coordinates":[-2.390897,47.288501],"type":"Point"},"properties":{"osm_id":"7766418153","tag":{"amenity":"waste_basket"}},"type":"Feature"},
	{"geometry":{"coordinates":[-2.411829,47.326286],"type":"Point"},"properties":{"osm_id":"8004770531","tag":{"amenity":"waste_basket"}},"type":"Feature"},
	{"geometry":{"coordinates":[-2.411952,47.32665],"type":"Point"},"properties":{"osm_id":"8004770533","tag":{"amenity":"waste_basket"}},"type":"Feature"},
	{"geometry":{"coordinates":[-2.396249,47.283156],"type":"Point"},"properties":{"osm_id":"8022929258","tag":{"amenity":"recycling","recycling_type":"container"}},"type":"Feature"},
	{"geometry":{"coordinates":[-2.391761,47.285124],"type":"Point"},"properties":{"osm_id":"8936079276","tag":{"amenity":"waste_basket"}},"type":"Feature"},
	{"geometry":{"coordinates":[-2.37569,47.288688],"type":"Point"},"properties":{"osm_id":"9035429692","tag":{"amenity":"recycling","recycling_type":"container"}},"type":"Feature"},
	{"geometry":{"coordinates":[-2.408129,47.280139],"type":"Point"},"properties":{"osm_id":"9041598658","tag":{"amenity":"waste_basket"}},"type":"Feature"},
	{"geometry":{"coordinates":[-2.452515,47.31579],"type":"Point"},"properties":{"osm_id":"9042622727","tag":{"amenity":"waste_basket"}},"type":"Feature"},
	{"geometry":{"coordinates":[-2.452413,47.315772],"type":"Point"},"properties":{"osm_id":"9042622731","tag":{"amenity":"waste_basket"}},"type":"Feature"},
	{"geometry":{"coordinates":[-2.427481,47.32738],"type":"Point"},"properties":{"osm_id":"9043191529","tag":{"amenity":"waste_basket"}},"type":"Feature"},
	{"geometry":{"coordinates":[-2.432237,47.328729],"type":"Point"},"properties":{"osm_id":"9043511379","tag":{"amenity":"waste_basket"}},"type":"Feature"},
	{"geometry":{"coordinates":[-2.432342,47.328345],"type":"Point"},"properties":{"osm_id":"9043511381","tag":{"amenity":"waste_basket"}},"type":"Feature"},
	{"geometry":{"coordinates":[-2.429465,47.327974],"type":"Point"},"properties":{"osm_id":"9043659465","tag":{"amenity":"waste_basket"}},"type":"Feature"}
]
}
