{
"type": "FeatureCollection",
"lastupdate": "2020-08-04T00:00:00Z",
"features": [
	{"geometry":{"coordinates":[-2.456756,42.465824],"type":"Point"},"properties":{"name":"Vidrio, cart\u00c3\u00b3n y pl\u00c3\u00a1stico","osm_id":"526009800","tag":{"amenity":"recycling","mapillary":"p2Fy1m-dLEoqmMZa5S9ZDg","recycling:glass_bottles":"yes","recycling:paper":"yes","recycling:plastic":"yes","recycling_type":"container","survey:date":"2020-05-21"}},"type":"Feature"},
	{"geometry":{"coordinates":[-2.432299,42.463223],"type":"Point"},"properties":{"osm_id":"3095816880","tag":{"amenity":"recycling","mapillary":"C8R2BPR4iUOG9YcxbhqRcQ","recycling:organic":"yes","recycling:plastic":"yes","recycling_type":"container","survey:date":"2020-02-23"}},"type":"Feature"},
	{"geometry":{"coordinates":[-2.440214,42.472491],"type":"Point"},"properties":{"osm_id":"4834689624","tag":{"amenity":"waste_basket"}},"type":"Feature"},
	{"geometry":{"coordinates":[-2.431152,42.470167],"type":"Point"},"properties":{"osm_id":"5053036976","tag":{"amenity":"recycling","recycling:glass_bottles":"yes","recycling:paper":"yes","recycling:plastic_packaging":"yes","recycling_type":"container"}},"type":"Feature"},
	{"geometry":{"coordinates":[-2.437627,42.456604],"type":"Point"},"properties":{"osm_id":"5264249349","tag":{"amenity":"recycling","mapillary":"eQ2YhX8PMKHtkQRzFQogLw","recycling_type":"container","survey:date":"2020-03-14"}},"type":"Feature"},
	{"geometry":{"coordinates":[-2.433203,42.457195],"type":"Point"},"properties":{"osm_id":"5264249352","tag":{"amenity":"recycling","mapillary":"CXFGekhBVw3odWmVNFFw_Q","recycling_type":"container","survey:date":"2020-03-14"}},"type":"Feature"},
	{"geometry":{"coordinates":[-2.429955,42.457071],"type":"Point"},"properties":{"osm_id":"5264249353","tag":{"amenity":"recycling"}},"type":"Feature"},
	{"geometry":{"coordinates":[-2.437865,42.455733],"type":"Point"},"properties":{"osm_id":"5264249779","tag":{"amenity":"recycling","mapillary":"0H5I6J05iZywBpjqDGb5lg","recycling_type":"container","survey:date":"2020-03-14"}},"type":"Feature"},
	{"geometry":{"coordinates":[-2.43519,42.456833],"type":"Point"},"properties":{"osm_id":"5264249780","tag":{"amenity":"recycling"}},"type":"Feature"},
	{"geometry":{"coordinates":[-2.431884,42.464572],"type":"Point"},"properties":{"name":"Recogida aceite usado","osm_id":"5273504670","tag":{"amenity":"recycling","recycling:cooking_oil":"yes","recycling_type":"container"}},"type":"Feature"},
	{"geometry":{"coordinates":[-2.460561,42.456473],"type":"Point"},"properties":{"osm_id":"5273537856","tag":{"amenity":"recycling"}},"type":"Feature"},
	{"geometry":{"coordinates":[-2.448214,42.468061],"type":"Point"},"properties":{"osm_id":"5273539831","tag":{"amenity":"recycling","mapillary":"7nRUJOiD2cQevcRFa6cNNQ","recycling_type":"container","survey:date":"2020-05-16"}},"type":"Feature"},
	{"geometry":{"coordinates":[-2.428496,42.467919],"type":"Point"},"properties":{"name":"Recogida ropa usada","osm_id":"5275062319","tag":{"amenity":"recycling","recycling:clothes":"yes","recycling_type":"container"}},"type":"Feature"},
	{"geometry":{"coordinates":[-2.435786,42.455903],"type":"Point"},"properties":{"osm_id":"5301287187","tag":{"amenity":"recycling"}},"type":"Feature"},
	{"geometry":{"coordinates":[-2.435475,42.455635],"type":"Point"},"properties":{"osm_id":"5301287231","tag":{"amenity":"recycling","recycling_type":"container"}},"type":"Feature"},
	{"geometry":{"coordinates":[-2.44296,42.471393],"type":"Point"},"properties":{"osm_id":"5301287535","tag":{"amenity":"recycling","mapillary":"xS3UdY03dnxteXXal9Ystw","recycling_type":"container","survey:date":"2020-05-16"}},"type":"Feature"},
	{"geometry":{"coordinates":[-2.431332,42.457023],"type":"Point"},"properties":{"osm_id":"5494540153","tag":{"amenity":"recycling"}},"type":"Feature"},
	{"geometry":{"coordinates":[-2.447392,42.456597],"type":"Point"},"properties":{"osm_id":"5661420521","tag":{"amenity":"recycling","recycling_type":"container"}},"type":"Feature"},
	{"geometry":{"coordinates":[-2.444054,42.455555],"type":"Point"},"properties":{"osm_id":"5661528027","tag":{"amenity":"recycling","recycling_type":"container"}},"type":"Feature"},
	{"geometry":{"coordinates":[-2.442059,42.455777],"type":"Point"},"properties":{"osm_id":"5661528028","tag":{"amenity":"recycling","recycling_type":"container"}},"type":"Feature"},
	{"geometry":{"coordinates":[-2.446983,42.455607],"type":"Point"},"properties":{"osm_id":"5661528029","tag":{"amenity":"recycling","recycling_type":"container"}},"type":"Feature"},
	{"geometry":{"coordinates":[-2.449538,42.456079],"type":"Point"},"properties":{"osm_id":"5661528030","tag":{"amenity":"recycling","recycling_type":"container"}},"type":"Feature"},
	{"geometry":{"coordinates":[-2.450959,42.456774],"type":"Point"},"properties":{"osm_id":"5661528031","tag":{"amenity":"recycling","recycling_type":"container"}},"type":"Feature"},
	{"geometry":{"coordinates":[-2.446255,42.454663],"type":"Point"},"properties":{"osm_id":"5667893516","tag":{"amenity":"recycling","recycling_type":"container"}},"type":"Feature"},
	{"geometry":{"coordinates":[-2.443589,42.454384],"type":"Point"},"properties":{"osm_id":"5667893517","tag":{"amenity":"recycling","recycling_type":"container"}},"type":"Feature"},
	{"geometry":{"coordinates":[-2.441183,42.454968],"type":"Point"},"properties":{"osm_id":"5667893518","tag":{"amenity":"recycling","recycling_type":"container"}},"type":"Feature"},
	{"geometry":{"coordinates":[-2.439719,42.45414],"type":"Point"},"properties":{"osm_id":"5667893519","tag":{"amenity":"recycling","recycling_type":"container"}},"type":"Feature"},
	{"geometry":{"coordinates":[-2.437342,42.454327],"type":"Point"},"properties":{"osm_id":"5667893520","tag":{"amenity":"recycling","recycling_type":"container"}},"type":"Feature"},
	{"geometry":{"coordinates":[-2.44552,42.456351],"type":"Point"},"properties":{"osm_id":"5667893621","tag":{"amenity":"recycling","recycling_type":"container"}},"type":"Feature"},
	{"geometry":{"coordinates":[-2.448045,42.455126],"type":"Point"},"properties":{"osm_id":"5667893622","tag":{"amenity":"recycling","recycling_type":"container"}},"type":"Feature"},
	{"geometry":{"coordinates":[-2.45521,42.457095],"type":"Point"},"properties":{"osm_id":"5667893623","tag":{"amenity":"recycling","recycling_type":"container"}},"type":"Feature"},
	{"geometry":{"coordinates":[-2.454669,42.457006],"type":"Point"},"properties":{"osm_id":"5667893624","tag":{"amenity":"recycling","recycling_type":"container"}},"type":"Feature"},
	{"geometry":{"coordinates":[-2.455259,42.456127],"type":"Point"},"properties":{"osm_id":"5667893625","tag":{"amenity":"recycling","recycling_type":"container"}},"type":"Feature"},
	{"geometry":{"coordinates":[-2.451161,42.455856],"type":"Point"},"properties":{"osm_id":"5669807278","tag":{"amenity":"recycling","recycling_type":"container"}},"type":"Feature"},
	{"geometry":{"coordinates":[-2.451243,42.455632],"type":"Point"},"properties":{"osm_id":"6168718677","tag":{"amenity":"recycling"}},"type":"Feature"},
	{"geometry":{"coordinates":[-2.444853,42.455641],"type":"Point"},"properties":{"osm_id":"6168719298","tag":{"amenity":"recycling"}},"type":"Feature"},
	{"geometry":{"coordinates":[-2.4444,42.455526],"type":"Point"},"properties":{"osm_id":"6168719299","tag":{"amenity":"recycling"}},"type":"Feature"},
	{"geometry":{"coordinates":[-2.427257,42.453819],"type":"Point"},"properties":{"osm_id":"6387956166","tag":{"amenity":"recycling"}},"type":"Feature"},
	{"geometry":{"coordinates":[-2.427095,42.454013],"type":"Point"},"properties":{"osm_id":"6387958007","tag":{"amenity":"recycling","mapillary":"3eBbGUPlKHQE1wQwWvV5eg","recycling_type":"container","survey:date":"2020-05-17"}},"type":"Feature"},
	{"geometry":{"coordinates":[-2.457798,42.457513],"type":"Point"},"properties":{"osm_id":"6396864810","tag":{"amenity":"recycling"}},"type":"Feature"},
	{"geometry":{"coordinates":[-2.4582,42.457452],"type":"Point"},"properties":{"osm_id":"6456638078","tag":{"amenity":"recycling"}},"type":"Feature"},
	{"geometry":{"coordinates":[-2.456848,42.435284],"type":"Point"},"properties":{"osm_id":"6779326796","tag":{"amenity":"recycling"}},"type":"Feature"},
	{"geometry":{"coordinates":[-2.435313,42.455929],"type":"Point"},"properties":{"osm_id":"6795233151","tag":{"amenity":"recycling","recycling_type":"container"}},"type":"Feature"},
	{"geometry":{"coordinates":[-2.4356,42.455633],"type":"Point"},"properties":{"osm_id":"6795343180","tag":{"amenity":"recycling","recycling_type":"container"}},"type":"Feature"},
	{"geometry":{"coordinates":[-2.436998,42.455804],"type":"Point"},"properties":{"osm_id":"6795360618","tag":{"amenity":"recycling","operator":"Ayuntamiento de Logro\u00f1o","recycling:organic":"yes","recycling_type":"container"}},"type":"Feature"},
	{"geometry":{"coordinates":[-2.439778,42.455491],"type":"Point"},"properties":{"osm_id":"6795536616","tag":{"amenity":"recycling","operator":"Ayuntamiento de Logro\u00f1o","recycling_type":"container"}},"type":"Feature"},
	{"geometry":{"coordinates":[-2.437569,42.457142],"type":"Point"},"properties":{"osm_id":"6796504522","tag":{"amenity":"recycling","mapillary":"iB752j649YuqRDtFbwsPbA","recycling_type":"container","survey:date":"2020-03-14"}},"type":"Feature"},
	{"geometry":{"coordinates":[-2.452819,42.462426],"type":"Point"},"properties":{"osm_id":"7508816167","tag":{"amenity":"recycling","recycling_type":"container"}},"type":"Feature"}
]
}
