{
"type": "FeatureCollection",
"features": [
	{"geometry":{"coordinates":[-80.418599,37.226658],"type":"Point"},"properties":{"osm_id":"633653447","tag":{"amenity":"recycling","operator":"Virginia Tech","recycling:cardboard":"yes"}},"type":"Feature"},
	{"geometry":{"coordinates":[-80.418486,37.225421],"type":"Point"},"properties":{"osm_id":"633655177","tag":{"amenity":"recycling","recycling:commingled_containers":"yes","recycling:newspaper":"yes","recycling:waste":"yes"}},"type":"Feature"},
	{"geometry":{"coordinates":[-80.418998,37.224142],"type":"Point"},"properties":{"osm_id":"633656745","tag":{"amenity":"recycling","recycling:commingled_containers":"yes","recycling:newspaper":"yes","recycling:waste":"yes"}},"type":"Feature"},
	{"geometry":{"coordinates":[-80.419071,37.224012],"type":"Point"},"properties":{"osm_id":"633657653","tag":{"amenity":"recycling","recycling:commingled_containers":"yes","recycling:newspaper":"yes","recycling:waste":"yes"}},"type":"Feature"},
	{"geometry":{"coordinates":[-80.419258,37.224183],"type":"Point"},"properties":{"osm_id":"633658663","tag":{"amenity":"recycling","recycling:cardboard":"yes"}},"type":"Feature"},
	{"geometry":{"coordinates":[-80.418157,37.22659],"type":"Point"},"properties":{"osm_id":"648618539","tag":{"amenity":"recycling","operator":"Virginia Tech","recycling:commingled_containers":"yes"}},"type":"Feature"},
	{"geometry":{"coordinates":[-80.418203,37.22662],"type":"Point"},"properties":{"osm_id":"648620438","tag":{"amenity":"recycling","operator":"Virginia Tech","recycling:waste":"yes"}},"type":"Feature"},
	{"geometry":{"coordinates":[-80.418656,37.228618],"type":"Point"},"properties":{"osm_id":"658550227","tag":{"amenity":"recycling","recycling:commingled_containers":"yes"}},"type":"Feature"},
	{"geometry":{"coordinates":[-80.418878,37.22952],"type":"Point"},"properties":{"osm_id":"691644224","tag":{"amenity":"recycling","location":"overground","recycling:cans":"yes","recycling:glass":"yes","recycling:paper":"no","recycling_type":"container"}},"type":"Feature"},
	{"geometry":{"coordinates":[-80.419903,37.227878],"type":"Point"},"properties":{"osm_id":"692180155","tag":{"amenity":"recycling","recycling:waste":"yes"}},"type":"Feature"},
	{"geometry":{"coordinates":[-80.41744,37.225086],"type":"Point"},"properties":{"osm_id":"1257000894","tag":{"amenity":"recycling","recycling:waste":"yes"}},"type":"Feature"},
	{"geometry":{"coordinates":[-80.414252,37.223641],"type":"Point"},"properties":{"osm_id":"1637372254","tag":{"amenity":"recycling","recycling:waste":"yes"}},"type":"Feature"},
	{"geometry":{"coordinates":[-80.402448,37.215143],"type":"Point"},"properties":{"osm_id":"2841851367","tag":{"amenity":"recycling","recycling:cans":"no","recycling:clothes":"no","recycling:glass":"no","recycling:paper":"yes"}},"type":"Feature"}
]
}
