{
"type": "FeatureCollection",
"features": [
	{"geometry":{"coordinates":[2.231856,49.841003],"type":"Point"},"properties":{"osm_id":"466519257","tag":{"amenity":"recycling","recycling:glass":"yes","recycling:glass_bottles":"yes"}},"type":"Feature"},
	{"geometry":{"coordinates":[2.230656,49.843068],"type":"Point"},"properties":{"osm_id":"1770390244","tag":{"amenity":"recycling","recycling:glass_bottles":"yes","recycling_type":"container"}},"type":"Feature"},
	{"geometry":{"coordinates":[2.251967,49.868502],"type":"Point"},"properties":{"osm_id":"2269666372","tag":{"amenity":"recycling","recycling:glass_bottles":"yes","recycling_type":"container"}},"type":"Feature"},
	{"geometry":{"coordinates":[2.284202,49.893771],"type":"Point"},"properties":{"osm_id":"2536389378","tag":{"amenity":"recycling","recycling:clothes":"yes","recycling_type":"container"}},"type":"Feature"},
	{"geometry":{"coordinates":[2.283911,49.893607],"type":"Point"},"properties":{"osm_id":"2536389433","tag":{"amenity":"waste_basket"}},"type":"Feature"},
	{"geometry":{"coordinates":[2.24554,49.877101],"type":"Point"},"properties":{"osm_id":"2541909980","tag":{"amenity":"recycling","recycling_type":"container"}},"type":"Feature"},
	{"geometry":{"coordinates":[2.279306,49.889382],"type":"Point"},"properties":{"osm_id":"3334396356","tag":{"amenity":"recycling","recycling_type":"container"}},"type":"Feature"},
	{"geometry":{"coordinates":[2.282455,49.892867],"type":"Point"},"properties":{"osm_id":"3337819917","tag":{"amenity":"recycling","recycling_type":"container"}},"type":"Feature"},
	{"geometry":{"coordinates":[2.284682,49.877413],"type":"Point"},"properties":{"osm_id":"3340246488","tag":{"amenity":"recycling","recycling_type":"container"}},"type":"Feature"},
	{"geometry":{"coordinates":[2.239743,49.860779],"type":"Point"},"properties":{"osm_id":"3383311127","tag":{"amenity":"waste_basket"}},"type":"Feature"},
	{"geometry":{"coordinates":[2.247579,49.873451],"type":"Point"},"properties":{"osm_id":"3384060099","tag":{"amenity":"waste_basket"}},"type":"Feature"},
	{"geometry":{"coordinates":[2.24767,49.873561],"type":"Point"},"properties":{"osm_id":"3384060109","tag":{"amenity":"recycling","recycling_type":"container"}},"type":"Feature"},
	{"geometry":{"coordinates":[2.240611,49.866589],"type":"Point"},"properties":{"osm_id":"3384060125","tag":{"amenity":"waste_basket"}},"type":"Feature"},
	{"geometry":{"coordinates":[2.241351,49.869049],"type":"Point"},"properties":{"osm_id":"3384060126","tag":{"amenity":"waste_basket"}},"type":"Feature"},
	{"geometry":{"coordinates":[2.24534,49.872004],"type":"Point"},"properties":{"osm_id":"3384060167","tag":{"amenity":"recycling","recycling_type":"container"}},"type":"Feature"},
	{"geometry":{"coordinates":[2.247244,49.873404],"type":"Point"},"properties":{"osm_id":"3384060204","tag":{"amenity":"waste_basket"}},"type":"Feature"},
	{"geometry":{"coordinates":[2.268056,49.886821],"type":"Point"},"properties":{"osm_id":"3780744895","tag":{"amenity":"recycling","recycling_type":"container"}},"type":"Feature"},
	{"geometry":{"coordinates":[2.255943,49.882298],"type":"Point"},"properties":{"osm_id":"3782324876","tag":{"amenity":"recycling","recycling_type":"container"}},"type":"Feature"},
	{"geometry":{"coordinates":[2.24949,49.883442],"type":"Point"},"properties":{"osm_id":"3782324883","tag":{"amenity":"recycling","recycling_type":"container"}},"type":"Feature"},
	{"geometry":{"coordinates":[2.230675,49.843064],"type":"Point"},"properties":{"osm_id":"4263448339","tag":{"amenity":"recycling","recycling:paper":"yes"}},"type":"Feature"},
	{"geometry":{"coordinates":[2.225554,49.844824],"type":"Point"},"properties":{"osm_id":"4263448340","tag":{"amenity":"recycling","recycling:vegetal":"yes","recycling_type":"container"}},"type":"Feature"},
	{"geometry":{"coordinates":[2.28221,49.883996],"type":"Point"},"properties":{"osm_id":"4409226997","tag":{"amenity":"recycling","recycling:glass_bottles":"yes","recycling:paper":"yes","recycling:waste":"yes","recycling_type":"container"}},"type":"Feature"},
	{"geometry":{"coordinates":[2.278972,49.886888],"type":"Point"},"properties":{"osm_id":"4824462631","tag":{"amenity":"recycling","recycling:paper":"yes","recycling_type":"container"}},"type":"Feature"},
	{"geometry":{"coordinates":[2.271033,49.877741],"type":"Point"},"properties":{"osm_id":"4824462632","tag":{"amenity":"recycling","recycling:clothes":"yes","recycling:glass_bottles":"yes","recycling:paper":"yes","recycling_type":"underfloor-container"}},"type":"Feature"},
	{"geometry":{"coordinates":[2.25813,49.893966],"type":"Point"},"properties":{"osm_id":"6021489733","tag":{"amenity":"recycling","recycling:glass_bottles":"yes","recycling:paper":"yes","recycling_type":"container"}},"type":"Feature"},
	{"geometry":{"coordinates":[2.266112,49.885086],"type":"Point"},"properties":{"osm_id":"6208269290","tag":{"amenity":"recycling","recycling:paper":"yes","recycling:paper_packaging":"yes","recycling_type":"container"}},"type":"Feature"},
	{"geometry":{"coordinates":[2.275954,49.890313],"type":"Point"},"properties":{"osm_id":"6258198713","tag":{"amenity":"waste_basket"}},"type":"Feature"},
	{"geometry":{"coordinates":[2.275838,49.882531],"type":"Point"},"properties":{"osm_id":"6805890203","tag":{"amenity":"waste_basket","colour":"grey","material":"steel"}},"type":"Feature"},
	{"geometry":{"coordinates":[2.271012,49.877731],"type":"Point"},"properties":{"osm_id":"7625569052","tag":{"amenity":"recycling","recycling_type":"underfloor-container"}},"type":"Feature"},
	{"geometry":{"coordinates":[2.271281,49.877873],"type":"Point"},"properties":{"osm_id":"7625569053","tag":{"amenity":"recycling","recycling_type":"underfloor-container"}},"type":"Feature"},
	{"geometry":{"coordinates":[2.271301,49.877885],"type":"Point"},"properties":{"osm_id":"7625569054","tag":{"amenity":"recycling","recycling_type":"underfloor-container"}},"type":"Feature"},
	{"geometry":{"coordinates":[2.272227,49.878412],"type":"Point"},"properties":{"osm_id":"7625589121","tag":{"amenity":"waste_basket","material":"steel"}},"type":"Feature"},
	{"geometry":{"coordinates":[2.271691,49.875043],"type":"Point"},"properties":{"osm_id":"7625670177","tag":{"amenity":"waste_basket","material":"steel"}},"type":"Feature"},
	{"geometry":{"coordinates":[2.284957,49.87758],"type":"Point"},"properties":{"osm_id":"7798679817","tag":{"amenity":"recycling","opening_hours":"24/7","recycling:glass_bottles":"yes","recycling:paper":"yes","recycling_type":"container"}},"type":"Feature"}
]
}
