{
"type": "FeatureCollection",
"features": [
	{"geometry":{"coordinates":[2.197639,49.085746],"type":"Point"},"properties":{"osm_id":"2388412531","tag":{"amenity":"waste_basket"}},"type":"Feature"},
	{"geometry":{"coordinates":[2.201708,49.047336],"type":"Point"},"properties":{"osm_id":"2392160183","tag":{"amenity":"waste_basket"}},"type":"Feature"},
	{"geometry":{"coordinates":[2.201663,49.090195],"type":"Point"},"properties":{"osm_id":"2711331838","tag":{"amenity":"waste_basket"}},"type":"Feature"},
	{"geometry":{"coordinates":[2.20163,49.090464],"type":"Point"},"properties":{"osm_id":"2711331848","tag":{"amenity":"waste_basket"}},"type":"Feature"},
	{"geometry":{"coordinates":[2.201783,49.090738],"type":"Point"},"properties":{"osm_id":"2711331871","tag":{"amenity":"waste_basket"}},"type":"Feature"},
	{"geometry":{"coordinates":[2.201744,49.09108],"type":"Point"},"properties":{"osm_id":"2711331898","tag":{"amenity":"waste_basket"}},"type":"Feature"},
	{"geometry":{"coordinates":[2.202161,49.091144],"type":"Point"},"properties":{"osm_id":"2711331918","tag":{"amenity":"waste_basket"}},"type":"Feature"},
	{"geometry":{"coordinates":[2.201997,49.091217],"type":"Point"},"properties":{"osm_id":"2711331926","tag":{"amenity":"waste_basket"}},"type":"Feature"},
	{"geometry":{"coordinates":[2.202317,49.091519],"type":"Point"},"properties":{"osm_id":"2711385739","tag":{"amenity":"waste_basket"}},"type":"Feature"},
	{"geometry":{"coordinates":[2.202046,49.091663],"type":"Point"},"properties":{"osm_id":"2711446265","tag":{"amenity":"waste_basket","shelter":"yes"}},"type":"Feature"},
	{"geometry":{"coordinates":[2.202201,49.091676],"type":"Point"},"properties":{"osm_id":"2711446293","tag":{"amenity":"waste_basket"}},"type":"Feature"},
	{"geometry":{"coordinates":[2.202159,49.09194],"type":"Point"},"properties":{"osm_id":"2711446445","tag":{"amenity":"waste_basket"}},"type":"Feature"},
	{"geometry":{"coordinates":[2.205076,49.077102],"type":"Point"},"properties":{"osm_id":"2759054547","tag":{"amenity":"waste_basket"}},"type":"Feature"},
	{"geometry":{"coordinates":[2.205255,49.077313],"type":"Point"},"properties":{"osm_id":"2759054583","tag":{"amenity":"waste_basket"}},"type":"Feature"},
	{"geometry":{"coordinates":[2.20509,49.07736],"type":"Point"},"properties":{"osm_id":"2759054612","tag":{"amenity":"waste_basket"}},"type":"Feature"},
	{"geometry":{"coordinates":[2.205132,49.077514],"type":"Point"},"properties":{"osm_id":"2759054626","tag":{"amenity":"waste_basket"}},"type":"Feature"},
	{"geometry":{"coordinates":[2.205404,49.077526],"type":"Point"},"properties":{"osm_id":"2759054630","tag":{"amenity":"waste_basket"}},"type":"Feature"},
	{"geometry":{"coordinates":[2.20514,49.07757],"type":"Point"},"properties":{"osm_id":"2759054656","tag":{"amenity":"waste_basket"}},"type":"Feature"},
	{"geometry":{"coordinates":[2.205297,49.077657],"type":"Point"},"properties":{"osm_id":"2759054690","tag":{"amenity":"waste_basket"}},"type":"Feature"},
	{"geometry":{"coordinates":[2.205478,49.07786],"type":"Point"},"properties":{"osm_id":"2759054729","tag":{"amenity":"waste_basket"}},"type":"Feature"},
	{"geometry":{"coordinates":[2.205231,49.077924],"type":"Point"},"properties":{"osm_id":"2759054754","tag":{"amenity":"waste_basket"}},"type":"Feature"},
	{"geometry":{"coordinates":[2.205419,49.07795],"type":"Point"},"properties":{"osm_id":"2759054765","tag":{"amenity":"waste_basket"}},"type":"Feature"},
	{"geometry":{"coordinates":[2.205801,49.078252],"type":"Point"},"properties":{"osm_id":"2759054809","tag":{"amenity":"waste_basket"}},"type":"Feature"},
	{"geometry":{"coordinates":[2.20597,49.07826],"type":"Point"},"properties":{"osm_id":"2759054814","tag":{"amenity":"waste_basket"}},"type":"Feature"},
	{"geometry":{"coordinates":[2.206078,49.078408],"type":"Point"},"properties":{"osm_id":"2759054854","tag":{"amenity":"waste_basket"}},"type":"Feature"},
	{"geometry":{"coordinates":[2.205956,49.078459],"type":"Point"},"properties":{"osm_id":"2759054862","tag":{"amenity":"waste_basket"}},"type":"Feature"},
	{"geometry":{"coordinates":[2.206214,49.078586],"type":"Point"},"properties":{"osm_id":"2759054873","tag":{"amenity":"waste_basket"}},"type":"Feature"},
	{"geometry":{"coordinates":[2.206083,49.078616],"type":"Point"},"properties":{"osm_id":"2759054882","tag":{"amenity":"waste_basket"}},"type":"Feature"},
	{"geometry":{"coordinates":[2.19738,49.044267],"type":"Point"},"properties":{"osm_id":"2781694716","tag":{"amenity":"waste_basket"}},"type":"Feature"},
	{"geometry":{"coordinates":[2.197296,49.044524],"type":"Point"},"properties":{"osm_id":"2781694726","tag":{"amenity":"waste_basket"}},"type":"Feature"},
	{"geometry":{"coordinates":[2.205108,49.077356],"type":"Point"},"properties":{"osm_id":"2860893022","tag":{"amenity":"waste_basket"}},"type":"Feature"},
	{"geometry":{"coordinates":[2.205334,49.077643],"type":"Point"},"properties":{"osm_id":"2860893045","tag":{"amenity":"waste_basket"}},"type":"Feature"},
	{"geometry":{"coordinates":[2.2055,49.077853],"type":"Point"},"properties":{"osm_id":"2860893057","tag":{"amenity":"waste_basket"}},"type":"Feature"},
	{"geometry":{"coordinates":[2.205549,49.077718],"type":"Point"},"properties":{"osm_id":"2985887704","tag":{"amenity":"waste_basket"}},"type":"Feature"},
	{"geometry":{"coordinates":[2.206053,49.07862],"type":"Point"},"properties":{"osm_id":"2985887713","tag":{"amenity":"waste_basket"}},"type":"Feature"},
	{"geometry":{"coordinates":[2.266976,49.054204],"type":"Point"},"properties":{"osm_id":"6113898850","tag":{"amenity":"recycling","recycling:glass":"yes","recycling_type":"container"}},"type":"Feature"},
	{"geometry":{"coordinates":[2.266972,49.054189],"type":"Point"},"properties":{"osm_id":"6113898851","tag":{"amenity":"recycling","recycling:clothes":"yes","recycling_type":"container"}},"type":"Feature"}
]
}
