{
"type": "FeatureCollection",
"features": [
	{"geometry":{"coordinates":[2.2115,48.939281],"type":"Point"},"properties":{"osm_id":"89404669","tag":{"amenity":"recycling","recycling:glass_bottles":"yes","recycling_type":"container"}},"type":"Feature"},
	{"geometry":{"coordinates":[2.205713,48.958955],"type":"Point"},"properties":{"osm_id":"549910559","tag":{"amenity":"waste_disposal"}},"type":"Feature"},
	{"geometry":{"coordinates":[2.254963,48.944713],"type":"Point"},"properties":{"osm_id":"1426905473","tag":{"amenity":"recycling","recycling:glass":"yes"}},"type":"Feature"},
	{"geometry":{"coordinates":[2.253931,48.954177],"type":"Point"},"properties":{"osm_id":"1517024804","tag":{"amenity":"recycling","recycling:glass":"yes","recycling_type":"container"}},"type":"Feature"},
	{"geometry":{"coordinates":[2.216349,48.922922],"type":"Point"},"properties":{"osm_id":"1827826561","tag":{"amenity":"recycling","recycling:glass":"yes","recycling:glass_bottles":"yes","recycling_type":"container"}},"type":"Feature"},
	{"geometry":{"coordinates":[2.207557,48.923271],"type":"Point"},"properties":{"osm_id":"1827828614","tag":{"amenity":"recycling","recycling:glass":"yes","recycling:glass_bottles":"yes","recycling_type":"container"}},"type":"Feature"},
	{"geometry":{"coordinates":[2.207154,48.923669],"type":"Point"},"properties":{"osm_id":"1827829548","tag":{"amenity":"recycling","recycling:glass_bottles":"yes","recycling_type":"container"}},"type":"Feature"},
	{"geometry":{"coordinates":[2.209175,48.924104],"type":"Point"},"properties":{"name":"Conteneur","osm_id":"1831043406","tag":{"amenity":"recycling","recycling:glass":"yes","recycling:glass_bottles":"yes","recycling_type":"container"}},"type":"Feature"},
	{"geometry":{"coordinates":[2.227424,48.953377],"type":"Point"},"properties":{"osm_id":"1988389100","tag":{"amenity":"recycling","recycling:glass":"yes","recycling:paper":"yes","recycling:waste":"yes","recycling_type":"container"}},"type":"Feature"},
	{"geometry":{"coordinates":[2.227085,48.953631],"type":"Point"},"properties":{"osm_id":"1988441371","tag":{"amenity":"recycling","recycling:paper":"yes","recycling:waste":"yes"}},"type":"Feature"},
	{"geometry":{"coordinates":[2.226901,48.954467],"type":"Point"},"properties":{"osm_id":"1988441409","tag":{"amenity":"recycling","recycling:glass_bottles":"yes","recycling:paper":"yes","recycling:waste":"yes"}},"type":"Feature"},
	{"geometry":{"coordinates":[2.231864,48.955563],"type":"Point"},"properties":{"osm_id":"1988513523","tag":{"amenity":"recycling","recycling:glass_bottles":"yes"}},"type":"Feature"},
	{"geometry":{"coordinates":[2.228343,48.95164],"type":"Point"},"properties":{"osm_id":"1989562378","tag":{"amenity":"recycling","recycling:paper":"yes","recycling:waste":"yes"}},"type":"Feature"},
	{"geometry":{"coordinates":[2.228275,48.952965],"type":"Point"},"properties":{"osm_id":"1989562546","tag":{"amenity":"recycling","recycling:paper":"yes","recycling:waste":"yes"}},"type":"Feature"},
	{"geometry":{"coordinates":[2.230021,48.953453],"type":"Point"},"properties":{"osm_id":"1989562567","tag":{"amenity":"recycling","recycling:glass_bottles":"yes","recycling:paper":"yes","recycling:waste":"yes"}},"type":"Feature"},
	{"geometry":{"coordinates":[2.228387,48.954608],"type":"Point"},"properties":{"osm_id":"1989562680","tag":{"amenity":"recycling","recycling:paper":"yes","recycling:waste":"yes"}},"type":"Feature"},
	{"geometry":{"coordinates":[2.230833,48.954666],"type":"Point"},"properties":{"osm_id":"1989562702","tag":{"amenity":"recycling","location":"underground","recycling:glass_bottles":"yes","recycling:paper":"yes","recycling:waste":"yes","recycling_type":"container"}},"type":"Feature"},
	{"geometry":{"coordinates":[2.229522,48.954697],"type":"Point"},"properties":{"osm_id":"1989562717","tag":{"amenity":"recycling","recycling:glass_bottles":"yes","recycling:paper":"yes","recycling:waste":"yes"}},"type":"Feature"},
	{"geometry":{"coordinates":[2.231763,48.954825],"type":"Point"},"properties":{"osm_id":"1989562767","tag":{"amenity":"recycling","recycling:paper":"yes","recycling:waste":"yes"}},"type":"Feature"},
	{"geometry":{"coordinates":[2.230165,48.954883],"type":"Point"},"properties":{"osm_id":"1989562786","tag":{"amenity":"recycling","recycling:waste":"yes"}},"type":"Feature"},
	{"geometry":{"coordinates":[2.232109,48.954894],"type":"Point"},"properties":{"osm_id":"1989562789","tag":{"amenity":"recycling","recycling:paper":"yes","recycling:waste":"yes"}},"type":"Feature"},
	{"geometry":{"coordinates":[2.232564,48.954894],"type":"Point"},"properties":{"osm_id":"1989562791","tag":{"amenity":"recycling","recycling:paper":"yes","recycling:waste":"yes"}},"type":"Feature"},
	{"geometry":{"coordinates":[2.222197,48.95408],"type":"Point"},"properties":{"osm_id":"2001878730","tag":{"amenity":"recycling","recycling_type":"container"}},"type":"Feature"},
	{"geometry":{"coordinates":[2.221929,48.954296],"type":"Point"},"properties":{"osm_id":"2001878740","tag":{"amenity":"recycling","recycling_type":"container"}},"type":"Feature"},
	{"geometry":{"coordinates":[2.249115,48.978318],"type":"Point"},"properties":{"osm_id":"2106021500","tag":{"amenity":"waste_basket"}},"type":"Feature"},
	{"geometry":{"coordinates":[2.249336,48.978163],"type":"Point"},"properties":{"osm_id":"2106021505","tag":{"amenity":"waste_basket"}},"type":"Feature"},
	{"geometry":{"coordinates":[2.244966,48.940424],"type":"Point"},"properties":{"osm_id":"2382250900","tag":{"amenity":"waste_basket"}},"type":"Feature"},
	{"geometry":{"coordinates":[2.260735,48.9311],"type":"Point"},"properties":{"osm_id":"2798583549","tag":{"amenity":"waste_basket"}},"type":"Feature"},
	{"geometry":{"coordinates":[2.26054,48.931132],"type":"Point"},"properties":{"osm_id":"2798583551","tag":{"amenity":"waste_basket"}},"type":"Feature"},
	{"geometry":{"coordinates":[2.260634,48.931344],"type":"Point"},"properties":{"osm_id":"2798583562","tag":{"amenity":"waste_basket"}},"type":"Feature"},
	{"geometry":{"coordinates":[2.260953,48.93161],"type":"Point"},"properties":{"osm_id":"2798583572","tag":{"amenity":"waste_basket"}},"type":"Feature"},
	{"geometry":{"coordinates":[2.260795,48.931751],"type":"Point"},"properties":{"osm_id":"2798583580","tag":{"amenity":"waste_basket"}},"type":"Feature"},
	{"geometry":{"coordinates":[2.261149,48.932116],"type":"Point"},"properties":{"osm_id":"2798583593","tag":{"amenity":"waste_basket"}},"type":"Feature"},
	{"geometry":{"coordinates":[2.260978,48.932153],"type":"Point"},"properties":{"osm_id":"2798583594","tag":{"amenity":"waste_basket"}},"type":"Feature"},
	{"geometry":{"coordinates":[2.261234,48.932284],"type":"Point"},"properties":{"osm_id":"2798583598","tag":{"amenity":"waste_basket"}},"type":"Feature"},
	{"geometry":{"coordinates":[2.261085,48.932386],"type":"Point"},"properties":{"osm_id":"2798586901","tag":{"amenity":"waste_basket"}},"type":"Feature"},
	{"geometry":{"coordinates":[2.25948,48.923686],"type":"Point"},"properties":{"osm_id":"2809089276","tag":{"amenity":"waste_basket","level":"1"}},"type":"Feature"},
	{"geometry":{"coordinates":[2.264134,48.970109],"type":"Point"},"properties":{"osm_id":"2870683504","tag":{"amenity":"waste_basket"}},"type":"Feature"},
	{"geometry":{"coordinates":[2.263808,48.970116],"type":"Point"},"properties":{"osm_id":"2870683505","tag":{"amenity":"waste_basket"}},"type":"Feature"},
	{"geometry":{"coordinates":[2.263805,48.970123],"type":"Point"},"properties":{"osm_id":"2870683506","tag":{"amenity":"waste_basket"}},"type":"Feature"},
	{"geometry":{"coordinates":[2.26392,48.970127],"type":"Point"},"properties":{"osm_id":"2870683507","tag":{"amenity":"waste_basket"}},"type":"Feature"},
	{"geometry":{"coordinates":[2.264148,48.970141],"type":"Point"},"properties":{"osm_id":"2870683510","tag":{"amenity":"waste_basket"}},"type":"Feature"},
	{"geometry":{"coordinates":[2.263917,48.970145],"type":"Point"},"properties":{"osm_id":"2870683512","tag":{"amenity":"waste_basket"}},"type":"Feature"},
	{"geometry":{"coordinates":[2.26406,48.970303],"type":"Point"},"properties":{"osm_id":"2870683550","tag":{"amenity":"waste_basket"}},"type":"Feature"},
	{"geometry":{"coordinates":[2.264079,48.970304],"type":"Point"},"properties":{"osm_id":"2870683551","tag":{"amenity":"waste_basket"}},"type":"Feature"},
	{"geometry":{"coordinates":[2.263875,48.970371],"type":"Point"},"properties":{"osm_id":"2870683566","tag":{"amenity":"waste_basket"}},"type":"Feature"},
	{"geometry":{"coordinates":[2.263876,48.970382],"type":"Point"},"properties":{"osm_id":"2870683567","tag":{"amenity":"waste_basket"}},"type":"Feature"},
	{"geometry":{"coordinates":[2.263973,48.970762],"type":"Point"},"properties":{"osm_id":"2870683589","tag":{"amenity":"waste_basket"}},"type":"Feature"},
	{"geometry":{"coordinates":[2.263967,48.970794],"type":"Point"},"properties":{"osm_id":"2870683593","tag":{"amenity":"waste_basket"}},"type":"Feature"},
	{"geometry":{"coordinates":[2.263759,48.970824],"type":"Point"},"properties":{"osm_id":"2870683596","tag":{"amenity":"waste_basket"}},"type":"Feature"},
	{"geometry":{"coordinates":[2.263751,48.970864],"type":"Point"},"properties":{"osm_id":"2870683598","tag":{"amenity":"waste_basket"}},"type":"Feature"},
	{"geometry":{"coordinates":[2.263723,48.970995],"type":"Point"},"properties":{"osm_id":"2870683908","tag":{"amenity":"waste_basket"}},"type":"Feature"},
	{"geometry":{"coordinates":[2.263718,48.971028],"type":"Point"},"properties":{"osm_id":"2870683912","tag":{"amenity":"waste_basket"}},"type":"Feature"},
	{"geometry":{"coordinates":[2.2639,48.971119],"type":"Point"},"properties":{"osm_id":"2870683920","tag":{"amenity":"waste_basket"}},"type":"Feature"},
	{"geometry":{"coordinates":[2.263897,48.971134],"type":"Point"},"properties":{"osm_id":"2870683921","tag":{"amenity":"waste_basket"}},"type":"Feature"},
	{"geometry":{"coordinates":[2.263656,48.971332],"type":"Point"},"properties":{"osm_id":"2870683934","tag":{"amenity":"waste_basket"}},"type":"Feature"},
	{"geometry":{"coordinates":[2.263653,48.97134],"type":"Point"},"properties":{"osm_id":"2870683935","tag":{"amenity":"waste_basket"}},"type":"Feature"},
	{"geometry":{"coordinates":[2.263832,48.971459],"type":"Point"},"properties":{"osm_id":"2870683942","tag":{"amenity":"waste_basket"}},"type":"Feature"},
	{"geometry":{"coordinates":[2.263829,48.971467],"type":"Point"},"properties":{"osm_id":"2870683944","tag":{"amenity":"waste_basket"}},"type":"Feature"},
	{"geometry":{"coordinates":[2.263587,48.971633],"type":"Point"},"properties":{"osm_id":"2870683974","tag":{"amenity":"waste_basket"}},"type":"Feature"},
	{"geometry":{"coordinates":[2.230979,48.950347],"type":"Point"},"properties":{"osm_id":"2873173361","tag":{"amenity":"waste_basket","level":"1"}},"type":"Feature"},
	{"geometry":{"coordinates":[2.231725,48.950362],"type":"Point"},"properties":{"osm_id":"2873173363","tag":{"amenity":"waste_basket","level":"0"}},"type":"Feature"},
	{"geometry":{"coordinates":[2.232004,48.950438],"type":"Point"},"properties":{"osm_id":"2873173380","tag":{"amenity":"waste_basket","level":"0"}},"type":"Feature"},
	{"geometry":{"coordinates":[2.23093,48.950452],"type":"Point"},"properties":{"osm_id":"2873173385","tag":{"amenity":"waste_basket","level":"1"}},"type":"Feature"},
	{"geometry":{"coordinates":[2.232109,48.9506],"type":"Point"},"properties":{"osm_id":"2873174014","tag":{"amenity":"waste_basket","level":"0"}},"type":"Feature"},
	{"geometry":{"coordinates":[2.23174,48.950604],"type":"Point"},"properties":{"osm_id":"2873174016","tag":{"amenity":"waste_basket","level":"0"}},"type":"Feature"},
	{"geometry":{"coordinates":[2.231954,48.950662],"type":"Point"},"properties":{"osm_id":"2873174028","tag":{"amenity":"waste_basket","level":"0"}},"type":"Feature"},
	{"geometry":{"coordinates":[2.232082,48.950735],"type":"Point"},"properties":{"osm_id":"2873174046","tag":{"amenity":"waste_basket","level":"0"}},"type":"Feature"},
	{"geometry":{"coordinates":[2.232513,48.950759],"type":"Point"},"properties":{"osm_id":"2873174054","tag":{"amenity":"waste_basket","level":"0"}},"type":"Feature"},
	{"geometry":{"coordinates":[2.233326,48.950806],"type":"Point"},"properties":{"osm_id":"2873174063","tag":{"amenity":"waste_basket","level":"0"}},"type":"Feature"},
	{"geometry":{"coordinates":[2.233304,48.950956],"type":"Point"},"properties":{"osm_id":"2873174076","tag":{"amenity":"waste_basket","level":"0"}},"type":"Feature"},
	{"geometry":{"coordinates":[2.258959,48.946107],"type":"Point"},"properties":{"osm_id":"2874286260","tag":{"amenity":"waste_basket"}},"type":"Feature"},
	{"geometry":{"coordinates":[2.258722,48.94615],"type":"Point"},"properties":{"osm_id":"2874286262","tag":{"amenity":"waste_basket"}},"type":"Feature"},
	{"geometry":{"coordinates":[2.25851,48.946454],"type":"Point"},"properties":{"osm_id":"2874286287","tag":{"amenity":"waste_basket"}},"type":"Feature"},
	{"geometry":{"coordinates":[2.257616,48.946601],"type":"Point"},"properties":{"osm_id":"2874286623","tag":{"amenity":"waste_basket","level":"0"}},"type":"Feature"},
	{"geometry":{"coordinates":[2.258369,48.946636],"type":"Point"},"properties":{"osm_id":"2874286634","tag":{"amenity":"waste_basket"}},"type":"Feature"},
	{"geometry":{"coordinates":[2.257617,48.946691],"type":"Point"},"properties":{"osm_id":"2874286643","tag":{"amenity":"waste_basket"}},"type":"Feature"},
	{"geometry":{"coordinates":[2.25784,48.946757],"type":"Point"},"properties":{"osm_id":"2874286662","tag":{"amenity":"waste_basket"}},"type":"Feature"},
	{"geometry":{"coordinates":[2.258041,48.946767],"type":"Point"},"properties":{"osm_id":"2874286664","tag":{"amenity":"waste_basket"}},"type":"Feature"},
	{"geometry":{"coordinates":[2.257555,48.946771],"type":"Point"},"properties":{"osm_id":"2874286665","tag":{"amenity":"waste_basket"}},"type":"Feature"},
	{"geometry":{"coordinates":[2.258414,48.946795],"type":"Point"},"properties":{"osm_id":"2874286667","tag":{"amenity":"waste_basket"}},"type":"Feature"},
	{"geometry":{"coordinates":[2.258341,48.946907],"type":"Point"},"properties":{"osm_id":"2874286698","tag":{"amenity":"waste_basket"}},"type":"Feature"},
	{"geometry":{"coordinates":[2.257913,48.946931],"type":"Point"},"properties":{"osm_id":"2874287009","tag":{"amenity":"waste_basket"}},"type":"Feature"},
	{"geometry":{"coordinates":[2.258159,48.946945],"type":"Point"},"properties":{"osm_id":"2874287013","tag":{"amenity":"waste_basket"}},"type":"Feature"},
	{"geometry":{"coordinates":[2.257677,48.947041],"type":"Point"},"properties":{"osm_id":"2874287041","tag":{"amenity":"waste_basket"}},"type":"Feature"},
	{"geometry":{"coordinates":[2.258211,48.947069],"type":"Point"},"properties":{"osm_id":"2874287050","tag":{"amenity":"waste_basket"}},"type":"Feature"},
	{"geometry":{"coordinates":[2.257984,48.947087],"type":"Point"},"properties":{"osm_id":"2874287053","tag":{"amenity":"waste_basket"}},"type":"Feature"},
	{"geometry":{"coordinates":[2.257339,48.947094],"type":"Point"},"properties":{"osm_id":"2874287057","tag":{"amenity":"waste_basket","layer":"0","level":"0"}},"type":"Feature"},
	{"geometry":{"coordinates":[2.257753,48.947149],"type":"Point"},"properties":{"osm_id":"2874287068","tag":{"amenity":"waste_basket"}},"type":"Feature"},
	{"geometry":{"coordinates":[2.258122,48.947164],"type":"Point"},"properties":{"osm_id":"2874287074","tag":{"amenity":"waste_basket"}},"type":"Feature"},
	{"geometry":{"coordinates":[2.257494,48.947166],"type":"Point"},"properties":{"osm_id":"2874287076","tag":{"amenity":"waste_basket"}},"type":"Feature"},
	{"geometry":{"coordinates":[2.257944,48.947183],"type":"Point"},"properties":{"osm_id":"2874287082","tag":{"amenity":"waste_basket"}},"type":"Feature"},
	{"geometry":{"coordinates":[2.258183,48.947186],"type":"Point"},"properties":{"osm_id":"2874287083","tag":{"amenity":"waste_basket"}},"type":"Feature"},
	{"geometry":{"coordinates":[2.257702,48.947205],"type":"Point"},"properties":{"osm_id":"2874287089","tag":{"amenity":"waste_basket"}},"type":"Feature"},
	{"geometry":{"coordinates":[2.257956,48.947343],"type":"Point"},"properties":{"osm_id":"2874287331","tag":{"amenity":"waste_basket"}},"type":"Feature"},
	{"geometry":{"coordinates":[2.257741,48.947426],"type":"Point"},"properties":{"osm_id":"2874287337","tag":{"amenity":"waste_basket"}},"type":"Feature"},
	{"geometry":{"coordinates":[2.257288,48.947449],"type":"Point"},"properties":{"osm_id":"2874287340","tag":{"amenity":"waste_basket"}},"type":"Feature"},
	{"geometry":{"coordinates":[2.257665,48.947511],"type":"Point"},"properties":{"osm_id":"2874287347","tag":{"amenity":"waste_basket"}},"type":"Feature"},
	{"geometry":{"coordinates":[2.257593,48.947592],"type":"Point"},"properties":{"osm_id":"2874287353","tag":{"amenity":"waste_basket"}},"type":"Feature"},
	{"geometry":{"coordinates":[2.256826,48.947739],"type":"Point"},"properties":{"osm_id":"2874287363","tag":{"amenity":"waste_basket","level":"0"}},"type":"Feature"},
	{"geometry":{"coordinates":[2.243468,48.977038],"type":"Point"},"properties":{"osm_id":"3251157081","tag":{"amenity":"waste_basket"}},"type":"Feature"},
	{"geometry":{"coordinates":[2.244758,48.949274],"type":"Point"},"properties":{"osm_id":"3251661669","tag":{"amenity":"waste_basket"}},"type":"Feature"},
	{"geometry":{"coordinates":[2.215548,48.925684],"type":"Point"},"properties":{"osm_id":"3254629110","tag":{"amenity":"waste_basket"}},"type":"Feature"},
	{"geometry":{"coordinates":[2.209492,48.928807],"type":"Point"},"properties":{"osm_id":"3254629121","tag":{"amenity":"waste_basket"}},"type":"Feature"},
	{"geometry":{"coordinates":[2.227908,48.930529],"type":"Point"},"properties":{"osm_id":"3254629142","tag":{"amenity":"waste_basket"}},"type":"Feature"},
	{"geometry":{"coordinates":[2.227662,48.93062],"type":"Point"},"properties":{"osm_id":"3254629146","tag":{"amenity":"recycling","recycling:glass":"yes","recycling_type":"container"}},"type":"Feature"},
	{"geometry":{"coordinates":[2.205386,48.932748],"type":"Point"},"properties":{"osm_id":"3254629154","tag":{"amenity":"waste_basket"}},"type":"Feature"},
	{"geometry":{"coordinates":[2.219887,48.924143],"type":"Point"},"properties":{"osm_id":"3255231624","tag":{"amenity":"waste_basket"}},"type":"Feature"},
	{"geometry":{"coordinates":[2.219462,48.92439],"type":"Point"},"properties":{"osm_id":"3255231626","tag":{"amenity":"waste_basket"}},"type":"Feature"},
	{"geometry":{"coordinates":[2.257291,48.946061],"type":"Point"},"properties":{"osm_id":"3374361142","tag":{"amenity":"waste_basket"}},"type":"Feature"},
	{"geometry":{"coordinates":[2.257144,48.952854],"type":"Point"},"properties":{"osm_id":"3374361146","tag":{"amenity":"waste_basket"}},"type":"Feature"},
	{"geometry":{"coordinates":[2.284536,48.956959],"type":"Point"},"properties":{"osm_id":"3423097585","tag":{"amenity":"recycling","recycling:glass":"yes","recycling_type":"container"}},"type":"Feature"},
	{"geometry":{"coordinates":[2.209841,48.930647],"type":"Point"},"properties":{"osm_id":"3423155658","tag":{"amenity":"recycling","location":"overground","recycling:clothes":"yes","recycling_type":"container"}},"type":"Feature"},
	{"geometry":{"coordinates":[2.209731,48.930733],"type":"Point"},"properties":{"osm_id":"3423155662","tag":{"amenity":"recycling","location":"overground","recycling:glass":"no","recycling:glass_bottles":"yes","recycling_type":"container"}},"type":"Feature"},
	{"geometry":{"coordinates":[2.259903,48.945424],"type":"Point"},"properties":{"osm_id":"3462833727","tag":{"amenity":"waste_basket"}},"type":"Feature"},
	{"geometry":{"coordinates":[2.276625,48.922826],"type":"Point"},"properties":{"osm_id":"3509215675","tag":{"amenity":"waste_basket"}},"type":"Feature"},
	{"geometry":{"coordinates":[2.277477,48.937695],"type":"Point"},"properties":{"osm_id":"3522966891","tag":{"amenity":"waste_basket"}},"type":"Feature"},
	{"geometry":{"coordinates":[2.244365,48.959401],"type":"Point"},"properties":{"osm_id":"3622891900","tag":{"amenity":"waste_basket"}},"type":"Feature"},
	{"geometry":{"coordinates":[2.245291,48.952856],"type":"Point"},"properties":{"osm_id":"3624365811","tag":{"amenity":"waste_basket"}},"type":"Feature"},
	{"geometry":{"coordinates":[2.249776,48.953154],"type":"Point"},"properties":{"osm_id":"3624365815","tag":{"amenity":"waste_basket"}},"type":"Feature"},
	{"geometry":{"coordinates":[2.209728,48.943627],"type":"Point"},"properties":{"osm_id":"3625918397","tag":{"amenity":"waste_basket"}},"type":"Feature"},
	{"geometry":{"coordinates":[2.216615,48.946239],"type":"Point"},"properties":{"osm_id":"3625918404","tag":{"amenity":"recycling","recycling:glass":"yes"}},"type":"Feature"},
	{"geometry":{"coordinates":[2.208174,48.941448],"type":"Point"},"properties":{"osm_id":"3630539693","tag":{"amenity":"waste_basket"}},"type":"Feature"},
	{"geometry":{"coordinates":[2.207981,48.923311],"type":"Point"},"properties":{"osm_id":"3638023918","tag":{"amenity":"waste_basket"}},"type":"Feature"},
	{"geometry":{"coordinates":[2.244451,48.923992],"type":"Point"},"properties":{"osm_id":"3665610140","tag":{"amenity":"recycling","recycling:paper":"yes","recycling_type":"container"}},"type":"Feature"},
	{"geometry":{"coordinates":[2.244447,48.924001],"type":"Point"},"properties":{"osm_id":"3665610141","tag":{"amenity":"recycling","recycling:glass":"yes","recycling_type":"container"}},"type":"Feature"},
	{"geometry":{"coordinates":[2.260338,48.930955],"type":"Point"},"properties":{"osm_id":"3706206254","tag":{"amenity":"waste_basket"}},"type":"Feature"},
	{"geometry":{"coordinates":[2.259891,48.923086],"type":"Point"},"properties":{"osm_id":"3706206382","tag":{"amenity":"waste_basket","level":"1"}},"type":"Feature"},
	{"geometry":{"coordinates":[2.213246,48.952194],"type":"Point"},"properties":{"osm_id":"3732253590","tag":{"amenity":"waste_basket"}},"type":"Feature"},
	{"geometry":{"coordinates":[2.207992,48.950415],"type":"Point"},"properties":{"osm_id":"3732462269","tag":{"amenity":"recycling","recycling:glass":"yes","recycling_type":"container"}},"type":"Feature"},
	{"geometry":{"coordinates":[2.208399,48.950577],"type":"Point"},"properties":{"osm_id":"3732462271","tag":{"amenity":"waste_basket"}},"type":"Feature"},
	{"geometry":{"coordinates":[2.248785,48.94319],"type":"Point"},"properties":{"osm_id":"3832749164","tag":{"amenity":"waste_basket"}},"type":"Feature"},
	{"geometry":{"coordinates":[2.248826,48.943424],"type":"Point"},"properties":{"osm_id":"3832749177","tag":{"amenity":"waste_basket"}},"type":"Feature"},
	{"geometry":{"coordinates":[2.25693,48.949003],"type":"Point"},"properties":{"osm_id":"4567970899","tag":{"amenity":"waste_basket"}},"type":"Feature"},
	{"geometry":{"coordinates":[2.231986,48.949929],"type":"Point"},"properties":{"osm_id":"4572312265","tag":{"amenity":"waste_basket"}},"type":"Feature"},
	{"geometry":{"coordinates":[2.20046,48.961244],"type":"Point"},"properties":{"osm_id":"5271590478","tag":{"amenity":"recycling","recycling:glass":"yes","recycling_type":"container"}},"type":"Feature"},
	{"geometry":{"coordinates":[2.220089,48.932954],"type":"Point"},"properties":{"osm_id":"5337993229","tag":{"amenity":"recycling","recycling:glass_bottles":"yes","recycling_type":"container"}},"type":"Feature"},
	{"geometry":{"coordinates":[2.20305,48.973501],"type":"Point"},"properties":{"osm_id":"5574187527","tag":{"amenity":"recycling","operator":"AZUR","recycling:glass":"yes","recycling_type":"container"}},"type":"Feature"},
	{"geometry":{"coordinates":[2.205417,48.974055],"type":"Point"},"properties":{"osm_id":"5574187528","tag":{"amenity":"recycling","recycling:glass":"yes","recycling_type":"container"}},"type":"Feature"},
	{"geometry":{"coordinates":[2.204108,48.975819],"type":"Point"},"properties":{"osm_id":"5578137656","tag":{"amenity":"recycling","operator":"AZUR","recycling:glass":"yes","recycling_type":"container"}},"type":"Feature"},
	{"geometry":{"coordinates":[2.213799,48.925816],"type":"Point"},"properties":{"osm_id":"5611618875","tag":{"amenity":"recycling","recycling:clothes":"yes","recycling:glass":"no","recycling:glass_bottles":"yes","recycling_type":"container"}},"type":"Feature"},
	{"geometry":{"coordinates":[2.206625,48.973833],"type":"Point"},"properties":{"osm_id":"5794460255","tag":{"amenity":"recycling","operator":"AZUR","recycling:glass":"yes","recycling_type":"container"}},"type":"Feature"},
	{"geometry":{"coordinates":[2.253107,48.941788],"type":"Point"},"properties":{"osm_id":"5834072785","tag":{"amenity":"waste_basket"}},"type":"Feature"},
	{"geometry":{"coordinates":[2.260906,48.964446],"type":"Point"},"properties":{"osm_id":"5834072786","tag":{"amenity":"waste_basket"}},"type":"Feature"},
	{"geometry":{"coordinates":[2.207694,48.93147],"type":"Point"},"properties":{"osm_id":"5873522741","tag":{"amenity":"recycling","recycling:glass":"yes","recycling_type":"container"}},"type":"Feature"},
	{"geometry":{"coordinates":[2.218159,48.92449],"type":"Point"},"properties":{"osm_id":"5873544583","tag":{"amenity":"recycling","recycling:glass":"yes","recycling_type":"container"}},"type":"Feature"},
	{"geometry":{"coordinates":[2.207709,48.931454],"type":"Point"},"properties":{"osm_id":"5879604945","tag":{"amenity":"recycling","recycling:glass_bottles":"yes","recycling_type":"container"}},"type":"Feature"},
	{"geometry":{"coordinates":[2.207761,48.93141],"type":"Point"},"properties":{"name":"Le Relais","osm_id":"5879604946","tag":{"amenity":"recycling","recycling:clothes":"yes","recycling_type":"container"}},"type":"Feature"},
	{"geometry":{"coordinates":[2.199303,48.976995],"type":"Point"},"properties":{"osm_id":"5899208841","tag":{"amenity":"recycling","recycling:glass":"yes","recycling_type":"container"}},"type":"Feature"},
	{"geometry":{"coordinates":[2.208794,48.936978],"type":"Point"},"properties":{"osm_id":"5901696158","tag":{"amenity":"recycling","recycling:glass":"yes","recycling_type":"container"}},"type":"Feature"},
	{"geometry":{"coordinates":[2.239826,48.978386],"type":"Point"},"properties":{"osm_id":"5981283887","tag":{"amenity":"waste_basket"}},"type":"Feature"},
	{"geometry":{"coordinates":[2.241894,48.977821],"type":"Point"},"properties":{"osm_id":"5981286288","tag":{"amenity":"waste_basket"}},"type":"Feature"},
	{"geometry":{"coordinates":[2.243813,48.979799],"type":"Point"},"properties":{"osm_id":"6102783688","tag":{"amenity":"recycling","recycling:paper":"yes","recycling_type":"container"}},"type":"Feature"},
	{"geometry":{"coordinates":[2.243011,48.980011],"type":"Point"},"properties":{"osm_id":"6102783698","tag":{"amenity":"waste_basket"}},"type":"Feature"},
	{"geometry":{"coordinates":[2.20539,48.974321],"type":"Point"},"properties":{"osm_id":"6102797985","tag":{"amenity":"recycling","recycling:clothes":"yes","recycling_type":"container"}},"type":"Feature"},
	{"geometry":{"coordinates":[2.280441,48.97748],"type":"Point"},"properties":{"osm_id":"6111677596","tag":{"amenity":"waste_basket"}},"type":"Feature"},
	{"geometry":{"coordinates":[2.258103,48.969561],"type":"Point"},"properties":{"osm_id":"6126523459","tag":{"amenity":"waste_basket"}},"type":"Feature"},
	{"geometry":{"coordinates":[2.256241,48.968969],"type":"Point"},"properties":{"osm_id":"6126524842","tag":{"amenity":"waste_basket"}},"type":"Feature"},
	{"geometry":{"coordinates":[2.259013,48.969754],"type":"Point"},"properties":{"osm_id":"6126524987","tag":{"amenity":"waste_basket"}},"type":"Feature"},
	{"geometry":{"coordinates":[2.257154,48.969818],"type":"Point"},"properties":{"osm_id":"6126562777","tag":{"amenity":"recycling","recycling_type":"container"}},"type":"Feature"},
	{"geometry":{"coordinates":[2.257156,48.969758],"type":"Point"},"properties":{"osm_id":"6126562778","tag":{"amenity":"recycling","recycling_type":"container"}},"type":"Feature"},
	{"geometry":{"coordinates":[2.257154,48.969776],"type":"Point"},"properties":{"osm_id":"6126562779","tag":{"amenity":"recycling","recycling_type":"container"}},"type":"Feature"},
	{"geometry":{"coordinates":[2.257154,48.969798],"type":"Point"},"properties":{"osm_id":"6126562780","tag":{"amenity":"recycling","recycling_type":"container"}},"type":"Feature"},
	{"geometry":{"coordinates":[2.257125,48.970094],"type":"Point"},"properties":{"osm_id":"6126562781","tag":{"amenity":"recycling","recycling_type":"container"}},"type":"Feature"},
	{"geometry":{"coordinates":[2.257124,48.970113],"type":"Point"},"properties":{"osm_id":"6126562782","tag":{"amenity":"recycling","recycling_type":"container"}},"type":"Feature"},
	{"geometry":{"coordinates":[2.257124,48.970135],"type":"Point"},"properties":{"osm_id":"6126562783","tag":{"amenity":"recycling","recycling_type":"container"}},"type":"Feature"},
	{"geometry":{"coordinates":[2.257124,48.970154],"type":"Point"},"properties":{"osm_id":"6126562784","tag":{"amenity":"recycling","recycling_type":"container"}},"type":"Feature"},
	{"geometry":{"coordinates":[2.255261,48.968842],"type":"Point"},"properties":{"osm_id":"6126563695","tag":{"amenity":"recycling","recycling:clothes":"yes","recycling_type":"container"}},"type":"Feature"},
	{"geometry":{"coordinates":[2.258599,48.972711],"type":"Point"},"properties":{"osm_id":"6209862373","tag":{"amenity":"recycling","recycling:waste":"yes","recycling_type":"container"}},"type":"Feature"},
	{"geometry":{"coordinates":[2.258613,48.972731],"type":"Point"},"properties":{"osm_id":"6209862374","tag":{"amenity":"recycling","recycling:waste":"yes","recycling_type":"container"}},"type":"Feature"},
	{"geometry":{"coordinates":[2.258622,48.972747],"type":"Point"},"properties":{"osm_id":"6209862375","tag":{"amenity":"recycling","recycling:cardboard":"yes","recycling:paper":"yes","recycling:plastic_bottles":"yes","recycling:plastic_packaging":"yes","recycling_type":"container"}},"type":"Feature"},
	{"geometry":{"coordinates":[2.25863,48.972764],"type":"Point"},"properties":{"osm_id":"6209862376","tag":{"amenity":"recycling","recycling:glass_bottles":"yes","recycling_type":"container"}},"type":"Feature"},
	{"geometry":{"coordinates":[2.251205,48.97325],"type":"Point"},"properties":{"osm_id":"6255406788","tag":{"amenity":"waste_basket"}},"type":"Feature"},
	{"geometry":{"coordinates":[2.251127,48.97339],"type":"Point"},"properties":{"osm_id":"6255432188","tag":{"amenity":"waste_basket"}},"type":"Feature"},
	{"geometry":{"coordinates":[2.204388,48.950522],"type":"Point"},"properties":{"osm_id":"6271696434","tag":{"amenity":"waste_basket"}},"type":"Feature"},
	{"geometry":{"coordinates":[2.203806,48.950678],"type":"Point"},"properties":{"osm_id":"6271696438","tag":{"amenity":"waste_basket"}},"type":"Feature"},
	{"geometry":{"coordinates":[2.204102,48.950616],"type":"Point"},"properties":{"osm_id":"6271696439","tag":{"amenity":"waste_basket"}},"type":"Feature"},
	{"geometry":{"coordinates":[2.261102,48.970402],"type":"Point"},"properties":{"osm_id":"6287217844","tag":{"amenity":"waste_basket"}},"type":"Feature"},
	{"geometry":{"coordinates":[2.261686,48.971844],"type":"Point"},"properties":{"osm_id":"6287217926","tag":{"amenity":"waste_basket"}},"type":"Feature"},
	{"geometry":{"coordinates":[2.261545,48.970408],"type":"Point"},"properties":{"osm_id":"6287217927","tag":{"amenity":"waste_basket"}},"type":"Feature"},
	{"geometry":{"coordinates":[2.232811,48.969694],"type":"Point"},"properties":{"osm_id":"6391226533","tag":{"amenity":"recycling","recycling_type":"container"}},"type":"Feature"},
	{"geometry":{"coordinates":[2.232863,48.969694],"type":"Point"},"properties":{"osm_id":"6391226534","tag":{"amenity":"recycling","recycling_type":"container"}},"type":"Feature"},
	{"geometry":{"coordinates":[2.232913,48.969733],"type":"Point"},"properties":{"osm_id":"6391226535","tag":{"amenity":"recycling","recycling_type":"container"}},"type":"Feature"},
	{"geometry":{"coordinates":[2.232813,48.969658],"type":"Point"},"properties":{"osm_id":"6391226536","tag":{"amenity":"recycling","recycling_type":"container"}},"type":"Feature"},
	{"geometry":{"coordinates":[2.232863,48.96966],"type":"Point"},"properties":{"osm_id":"6391226537","tag":{"amenity":"recycling","recycling_type":"container"}},"type":"Feature"},
	{"geometry":{"coordinates":[2.256974,48.971373],"type":"Point"},"properties":{"osm_id":"6571034453","tag":{"amenity":"recycling","recycling:glass_bottles":"yes","recycling_type":"container"}},"type":"Feature"},
	{"geometry":{"coordinates":[2.256997,48.971409],"type":"Point"},"properties":{"osm_id":"6571034454","tag":{"amenity":"recycling","recycling:clothes":"yes","recycling:shoes":"yes","recycling_type":"container"}},"type":"Feature"},
	{"geometry":{"coordinates":[2.242316,48.968593],"type":"Point"},"properties":{"osm_id":"7113918849","tag":{"amenity":"waste_basket"}},"type":"Feature"},
	{"geometry":{"coordinates":[2.241972,48.968587],"type":"Point"},"properties":{"osm_id":"7113960029","tag":{"amenity":"waste_basket"}},"type":"Feature"},
	{"geometry":{"coordinates":[2.236727,48.9239],"type":"Point"},"properties":{"osm_id":"7167371787","tag":{"amenity":"waste_basket","waste":"trash"}},"type":"Feature"},
	{"geometry":{"coordinates":[2.236932,48.923987],"type":"Point"},"properties":{"osm_id":"7167708895","tag":{"amenity":"waste_basket","waste":"trash"}},"type":"Feature"},
	{"geometry":{"coordinates":[2.237183,48.924222],"type":"Point"},"properties":{"osm_id":"7167708897","tag":{"amenity":"waste_basket","waste":"trash"}},"type":"Feature"},
	{"geometry":{"coordinates":[2.236429,48.924266],"type":"Point"},"properties":{"osm_id":"7167736879","tag":{"amenity":"waste_basket","waste":"trash"}},"type":"Feature"},
	{"geometry":{"coordinates":[2.238316,48.924902],"type":"Point"},"properties":{"osm_id":"7182040586","tag":{"amenity":"waste_basket"}},"type":"Feature"},
	{"geometry":{"coordinates":[2.2367,48.924256],"type":"Point"},"properties":{"osm_id":"7182050185","tag":{"amenity":"waste_basket"}},"type":"Feature"},
	{"geometry":{"coordinates":[2.238071,48.924652],"type":"Point"},"properties":{"osm_id":"7182050286","tag":{"amenity":"waste_basket"}},"type":"Feature"},
	{"geometry":{"coordinates":[2.237659,48.925768],"type":"Point"},"properties":{"osm_id":"7182050287","tag":{"amenity":"waste_basket"}},"type":"Feature"},
	{"geometry":{"coordinates":[2.237822,48.924523],"type":"Point"},"properties":{"osm_id":"7182050385","tag":{"amenity":"waste_basket"}},"type":"Feature"},
	{"geometry":{"coordinates":[2.237368,48.92564],"type":"Point"},"properties":{"osm_id":"7182050387","tag":{"amenity":"waste_basket"}},"type":"Feature"},
	{"geometry":{"coordinates":[2.237445,48.926],"type":"Point"},"properties":{"osm_id":"7182050388","tag":{"amenity":"waste_basket"}},"type":"Feature"},
	{"geometry":{"coordinates":[2.235498,48.925849],"type":"Point"},"properties":{"osm_id":"7182084385","tag":{"amenity":"waste_basket"}},"type":"Feature"},
	{"geometry":{"coordinates":[2.236342,48.923794],"type":"Point"},"properties":{"osm_id":"7188141386","tag":{"amenity":"waste_basket"}},"type":"Feature"},
	{"geometry":{"coordinates":[2.236019,48.925454],"type":"Point"},"properties":{"osm_id":"7188141388","tag":{"amenity":"waste_basket"}},"type":"Feature"},
	{"geometry":{"coordinates":[2.235261,48.923966],"type":"Point"},"properties":{"osm_id":"7188141389","tag":{"amenity":"waste_basket"}},"type":"Feature"},
	{"geometry":{"coordinates":[2.234809,48.924135],"type":"Point"},"properties":{"osm_id":"7188141391","tag":{"amenity":"waste_basket"}},"type":"Feature"},
	{"geometry":{"coordinates":[2.235663,48.925089],"type":"Point"},"properties":{"osm_id":"7188141685","tag":{"amenity":"waste_basket"}},"type":"Feature"},
	{"geometry":{"coordinates":[2.235531,48.924764],"type":"Point"},"properties":{"osm_id":"7188141686","tag":{"amenity":"waste_basket"}},"type":"Feature"},
	{"geometry":{"coordinates":[2.237826,48.92504],"type":"Point"},"properties":{"osm_id":"7188609885","tag":{"amenity":"waste_basket"}},"type":"Feature"},
	{"geometry":{"coordinates":[2.236914,48.926635],"type":"Point"},"properties":{"osm_id":"7188609886","tag":{"amenity":"waste_basket"}},"type":"Feature"},
	{"geometry":{"coordinates":[2.236129,48.92614],"type":"Point"},"properties":{"osm_id":"7188609887","tag":{"amenity":"waste_basket"}},"type":"Feature"},
	{"geometry":{"coordinates":[2.236611,48.926046],"type":"Point"},"properties":{"osm_id":"7195276187","tag":{"amenity":"waste_basket"}},"type":"Feature"},
	{"geometry":{"coordinates":[2.236617,48.926185],"type":"Point"},"properties":{"osm_id":"7195276287","tag":{"amenity":"waste_basket"}},"type":"Feature"},
	{"geometry":{"coordinates":[2.236721,48.923677],"type":"Point"},"properties":{"osm_id":"7201090386","tag":{"amenity":"waste_basket"}},"type":"Feature"},
	{"geometry":{"coordinates":[2.236078,48.923912],"type":"Point"},"properties":{"osm_id":"7201110985","tag":{"amenity":"waste_basket"}},"type":"Feature"},
	{"geometry":{"coordinates":[2.236386,48.924298],"type":"Point"},"properties":{"osm_id":"7208876585","tag":{"amenity":"waste_basket"}},"type":"Feature"},
	{"geometry":{"coordinates":[2.235436,48.924064],"type":"Point"},"properties":{"osm_id":"7213697887","tag":{"amenity":"waste_basket"}},"type":"Feature"},
	{"geometry":{"coordinates":[2.260446,48.931764],"type":"Point"},"properties":{"osm_id":"7416934367","tag":{"amenity":"waste_basket"}},"type":"Feature"},
	{"geometry":{"coordinates":[2.260411,48.931765],"type":"Point"},"properties":{"osm_id":"7416934368","tag":{"amenity":"recycling","recycling:glass":"yes","recycling_type":"container"}},"type":"Feature"},
	{"geometry":{"coordinates":[2.256615,48.972891],"type":"Point"},"properties":{"osm_id":"7479017692","tag":{"amenity":"waste_basket"}},"type":"Feature"},
	{"geometry":{"coordinates":[2.25627,48.972381],"type":"Point"},"properties":{"osm_id":"7479019775","tag":{"amenity":"waste_basket"}},"type":"Feature"},
	{"geometry":{"coordinates":[2.259904,48.970864],"type":"Point"},"properties":{"osm_id":"7479020450","tag":{"amenity":"waste_basket"}},"type":"Feature"},
	{"geometry":{"coordinates":[2.258969,48.972804],"type":"Point"},"properties":{"osm_id":"7479020972","tag":{"amenity":"waste_basket"}},"type":"Feature"},
	{"geometry":{"coordinates":[2.256346,48.972658],"type":"Point"},"properties":{"osm_id":"7479022011","tag":{"amenity":"waste_basket"}},"type":"Feature"},
	{"geometry":{"coordinates":[2.239053,48.978861],"type":"Point"},"properties":{"osm_id":"7483123785","tag":{"amenity":"recycling"}},"type":"Feature"},
	{"geometry":{"coordinates":[2.25573,48.971387],"type":"Point"},"properties":{"osm_id":"7559353804","tag":{"amenity":"waste_basket"}},"type":"Feature"},
	{"geometry":{"coordinates":[2.255788,48.970828],"type":"Point"},"properties":{"osm_id":"7559357657","tag":{"amenity":"recycling","location":"underground","recycling:newspaper":"yes","recycling:paper":"yes","recycling_type":"container"}},"type":"Feature"},
	{"geometry":{"coordinates":[2.25578,48.970813],"type":"Point"},"properties":{"osm_id":"7559361336","tag":{"amenity":"recycling","location":"underground","recycling:newspaper":"yes","recycling:paper":"yes","recycling_type":"container"}},"type":"Feature"},
	{"geometry":{"coordinates":[2.25788,48.949628],"type":"Point"},"properties":{"osm_id":"7663005443","tag":{"amenity":"recycling","opening_hours":"24/7","recycling:glass":"yes","recycling_type":"container"}},"type":"Feature"},
	{"geometry":{"coordinates":[2.255535,48.970475],"type":"Point"},"properties":{"osm_id":"7920522843","tag":{"amenity":"waste_disposal"}},"type":"Feature"},
	{"geometry":{"coordinates":[2.255546,48.970493],"type":"Point"},"properties":{"osm_id":"7920547986","tag":{"amenity":"waste_disposal"}},"type":"Feature"},
	{"geometry":{"coordinates":[2.255513,48.970449],"type":"Point"},"properties":{"osm_id":"7920558235","tag":{"amenity":"waste_disposal"}},"type":"Feature"},
	{"geometry":{"coordinates":[2.280596,48.978239],"type":"Point"},"properties":{"osm_id":"8064661053","tag":{"amenity":"waste_basket"}},"type":"Feature"},
	{"geometry":{"coordinates":[2.209729,48.943459],"type":"Point"},"properties":{"osm_id":"8118310759","tag":{"amenity":"recycling","opening_hours":"24/7","recycling_type":"container"}},"type":"Feature"},
	{"geometry":{"coordinates":[2.209697,48.94346],"type":"Point"},"properties":{"osm_id":"8118310760","tag":{"amenity":"recycling","opening_hours":"24/7","recycling_type":"container"}},"type":"Feature"},
	{"geometry":{"coordinates":[2.20967,48.943461],"type":"Point"},"properties":{"osm_id":"8118310761","tag":{"amenity":"recycling","opening_hours":"24/7","recycling_type":"container"}},"type":"Feature"},
	{"geometry":{"coordinates":[2.209638,48.943462],"type":"Point"},"properties":{"osm_id":"8118310762","tag":{"amenity":"recycling","opening_hours":"24/7","recycling_type":"container"}},"type":"Feature"},
	{"geometry":{"coordinates":[2.236268,48.961038],"type":"Point"},"properties":{"osm_id":"8345047247","tag":{"amenity":"recycling","recycling_type":"container"}},"type":"Feature"},
	{"geometry":{"coordinates":[2.244713,48.975517],"type":"Point"},"properties":{"osm_id":"8922709445","tag":{"amenity":"recycling"}},"type":"Feature"},
	{"geometry":{"coordinates":[2.244688,48.975516],"type":"Point"},"properties":{"osm_id":"8922709446","tag":{"amenity":"recycling"}},"type":"Feature"},
	{"geometry":{"coordinates":[2.244661,48.975514],"type":"Point"},"properties":{"osm_id":"8922709447","tag":{"amenity":"recycling"}},"type":"Feature"},
	{"geometry":{"coordinates":[2.244848,48.975238],"type":"Point"},"properties":{"osm_id":"8922709454","tag":{"amenity":"recycling"}},"type":"Feature"},
	{"geometry":{"coordinates":[2.244845,48.97521],"type":"Point"},"properties":{"osm_id":"8922709455","tag":{"amenity":"recycling"}},"type":"Feature"},
	{"geometry":{"coordinates":[2.24485,48.975181],"type":"Point"},"properties":{"osm_id":"8922709456","tag":{"amenity":"recycling"}},"type":"Feature"},
	{"geometry":{"coordinates":[2.256434,48.97311],"type":"Point"},"properties":{"osm_id":"8922758358","tag":{"amenity":"recycling"}},"type":"Feature"},
	{"geometry":{"coordinates":[2.259633,48.973897],"type":"Point"},"properties":{"osm_id":"8922764159","tag":{"amenity":"recycling"}},"type":"Feature"},
	{"geometry":{"coordinates":[2.259634,48.97388],"type":"Point"},"properties":{"osm_id":"8922764160","tag":{"amenity":"recycling"}},"type":"Feature"},
	{"geometry":{"coordinates":[2.256972,48.971466],"type":"Point"},"properties":{"osm_id":"8922765129","tag":{"amenity":"recycling","recycling:glass_bottles":"yes","recycling_type":"container"}},"type":"Feature"},
	{"geometry":{"coordinates":[2.255114,48.970109],"type":"Point"},"properties":{"osm_id":"8922765131","tag":{"amenity":"recycling","recycling:glass":"yes"}},"type":"Feature"},
	{"geometry":{"coordinates":[2.263538,48.970424],"type":"Point"},"properties":{"osm_id":"8922800857","tag":{"amenity":"recycling","recycling:glass_bottles":"yes","recycling_type":"container"}},"type":"Feature"},
	{"geometry":{"coordinates":[2.263574,48.970413],"type":"Point"},"properties":{"osm_id":"8922800858","tag":{"amenity":"recycling","recycling:clothes":"yes","recycling_type":"container"}},"type":"Feature"},
	{"geometry":{"coordinates":[2.270257,48.977116],"type":"Point"},"properties":{"osm_id":"9173658468","tag":{"amenity":"waste_basket"}},"type":"Feature"},
	{"geometry":{"coordinates":[2.228478,48.943545],"type":"Point"},"properties":{"osm_id":"9197142402","tag":{"amenity":"recycling","recycling:glass":"yes","recycling_type":"container"}},"type":"Feature"}
]
}
