{
"type": "FeatureCollection",
"features": [
	{"geometry":{"coordinates":[2.226404,48.893701],"type":"Point"},"properties":{"osm_id":"163779317","tag":{"amenity":"recycling","location":"underground","recycling:glass_bottles":"yes","recycling_type":"container"}},"type":"Feature"},
	{"geometry":{"coordinates":[2.215649,48.89103],"type":"Point"},"properties":{"osm_id":"181877190","tag":{"amenity":"recycling","location":"overground","recycling_type":"container"}},"type":"Feature"},
	{"geometry":{"coordinates":[2.216417,48.890052],"type":"Point"},"properties":{"osm_id":"266039151","tag":{"amenity":"recycling","recycling:glass_bottles":"yes","recycling_type":"container"}},"type":"Feature"},
	{"geometry":{"coordinates":[2.209809,48.886258],"type":"Point"},"properties":{"osm_id":"415437326","tag":{"amenity":"recycling","location":"overground","recycling:glass_bottles":"yes","recycling_type":"container"}},"type":"Feature"},
	{"geometry":{"coordinates":[2.278916,48.867024],"type":"Point"},"properties":{"osm_id":"496808300","tag":{"amenity":"recycling"}},"type":"Feature"},
	{"geometry":{"coordinates":[2.260038,48.883459],"type":"Point"},"properties":{"osm_id":"630600207","tag":{"amenity":"recycling"}},"type":"Feature"},
	{"geometry":{"coordinates":[2.209704,48.894543],"type":"Point"},"properties":{"osm_id":"634244600","tag":{"amenity":"recycling","recycling:glass_bottles":"yes"}},"type":"Feature"},
	{"geometry":{"coordinates":[2.207958,48.895945],"type":"Point"},"properties":{"osm_id":"634255575","tag":{"amenity":"recycling","recycling:clothes":"yes"}},"type":"Feature"},
	{"geometry":{"coordinates":[2.207587,48.896567],"type":"Point"},"properties":{"osm_id":"634437719","tag":{"amenity":"recycling","recycling:glass_bottles":"yes"}},"type":"Feature"},
	{"geometry":{"coordinates":[2.204657,48.896517],"type":"Point"},"properties":{"osm_id":"639266513","tag":{"amenity":"recycling","recycling:glass_bottles":"yes","recycling_type":"container"}},"type":"Feature"},
	{"geometry":{"coordinates":[2.204731,48.896401],"type":"Point"},"properties":{"osm_id":"639266515","tag":{"amenity":"recycling","recycling:paper":"yes","recycling_type":"container"}},"type":"Feature"},
	{"geometry":{"coordinates":[2.197912,48.889415],"type":"Point"},"properties":{"osm_id":"640635606","tag":{"amenity":"recycling","recycling:glass_bottles":"yes","recycling_type":"container"}},"type":"Feature"},
	{"geometry":{"coordinates":[2.204371,48.882855],"type":"Point"},"properties":{"osm_id":"645812226","tag":{"amenity":"recycling","location":"overground","recycling:clothes":"yes","recycling_type":"container"}},"type":"Feature"},
	{"geometry":{"coordinates":[2.201958,48.888182],"type":"Point"},"properties":{"osm_id":"648258506","tag":{"amenity":"recycling","recycling:glass_bottles":"yes","recycling_type":"container"}},"type":"Feature"},
	{"geometry":{"coordinates":[2.204641,48.892945],"type":"Point"},"properties":{"osm_id":"648617181","tag":{"amenity":"recycling","recycling:glass_bottles":"yes","recycling_type":"container"}},"type":"Feature"},
	{"geometry":{"coordinates":[2.210211,48.892509],"type":"Point"},"properties":{"osm_id":"648654278","tag":{"amenity":"recycling","check_date:recycling":"2021-07-07","location":"overground","recycling:clothes":"yes","recycling_type":"container"}},"type":"Feature"},
	{"geometry":{"coordinates":[2.229885,48.903494],"type":"Point"},"properties":{"osm_id":"648693410","tag":{"amenity":"recycling","recycling:glass_bottles":"yes","recycling_type":"container"}},"type":"Feature"},
	{"geometry":{"coordinates":[2.224703,48.902939],"type":"Point"},"properties":{"osm_id":"648710709","tag":{"amenity":"recycling","recycling:glass_bottles":"yes","recycling_type":"container"}},"type":"Feature"},
	{"geometry":{"coordinates":[2.21824,48.907023],"type":"Point"},"properties":{"osm_id":"649136014","tag":{"amenity":"recycling","recycling:glass_bottles":"yes","recycling_type":"container"}},"type":"Feature"},
	{"geometry":{"coordinates":[2.21585,48.907382],"type":"Point"},"properties":{"osm_id":"649147727","tag":{"amenity":"recycling","recycling:glass_bottles":"yes","recycling_type":"container"}},"type":"Feature"},
	{"geometry":{"coordinates":[2.216251,48.909485],"type":"Point"},"properties":{"osm_id":"649200931","tag":{"amenity":"recycling","recycling:glass_bottles":"yes","recycling_type":"container"}},"type":"Feature"},
	{"geometry":{"coordinates":[2.20931,48.901628],"type":"Point"},"properties":{"osm_id":"652718410","tag":{"amenity":"recycling","recycling:clothes":"yes","recycling:glass_bottles":"yes","recycling_type":"container"}},"type":"Feature"},
	{"geometry":{"coordinates":[2.197898,48.891121],"type":"Point"},"properties":{"osm_id":"658959595","tag":{"amenity":"recycling","recycling:glass_bottles":"yes"}},"type":"Feature"},
	{"geometry":{"coordinates":[2.21011,48.9015],"type":"Point"},"properties":{"osm_id":"712638924","tag":{"amenity":"recycling","recycling:clothes":"yes","recycling_type":"container"}},"type":"Feature"},
	{"geometry":{"coordinates":[2.200572,48.894307],"type":"Point"},"properties":{"osm_id":"727527245","tag":{"amenity":"waste_basket"}},"type":"Feature"},
	{"geometry":{"coordinates":[2.214825,48.888916],"type":"Point"},"properties":{"osm_id":"823960380","tag":{"amenity":"waste_basket","check_date":"2021-07-23"}},"type":"Feature"},
	{"geometry":{"coordinates":[2.214393,48.888641],"type":"Point"},"properties":{"osm_id":"823961621","tag":{"amenity":"waste_basket","check_date":"2021-07-23"}},"type":"Feature"},
	{"geometry":{"coordinates":[2.213961,48.888361],"type":"Point"},"properties":{"osm_id":"823961916","tag":{"amenity":"waste_basket","check_date":"2021-07-23"}},"type":"Feature"},
	{"geometry":{"coordinates":[2.21464,48.888799],"type":"Point"},"properties":{"osm_id":"823962297","tag":{"amenity":"waste_basket","check_date":"2021-07-23"}},"type":"Feature"},
	{"geometry":{"coordinates":[2.213804,48.888258],"type":"Point"},"properties":{"osm_id":"823962587","tag":{"amenity":"waste_basket","check_date":"2021-07-23"}},"type":"Feature"},
	{"geometry":{"coordinates":[2.226209,48.885266],"type":"Point"},"properties":{"osm_id":"887163740","tag":{"amenity":"waste_basket","check_date":"2021-01-04"}},"type":"Feature"},
	{"geometry":{"coordinates":[2.21414,48.884327],"type":"Point"},"properties":{"osm_id":"887164090","tag":{"amenity":"waste_basket"}},"type":"Feature"},
	{"geometry":{"coordinates":[2.21906,48.879933],"type":"Point"},"properties":{"osm_id":"887164476","tag":{"amenity":"recycling","recycling:glass_bottles":"yes","recycling_type":"container"}},"type":"Feature"},
	{"geometry":{"coordinates":[2.221322,48.885684],"type":"Point"},"properties":{"osm_id":"887164521","tag":{"amenity":"waste_basket","check_date":"2021-05-13"}},"type":"Feature"},
	{"geometry":{"coordinates":[2.226382,48.884911],"type":"Point"},"properties":{"osm_id":"887164560","tag":{"amenity":"waste_basket","check_date":"2021-01-04"}},"type":"Feature"},
	{"geometry":{"coordinates":[2.216741,48.885713],"type":"Point"},"properties":{"osm_id":"887164862","tag":{"amenity":"waste_basket","check_date":"2021-07-08"}},"type":"Feature"},
	{"geometry":{"coordinates":[2.218859,48.88583],"type":"Point"},"properties":{"osm_id":"887164900","tag":{"amenity":"waste_basket","check_date":"2021-07-14"}},"type":"Feature"},
	{"geometry":{"coordinates":[2.21515,48.883848],"type":"Point"},"properties":{"osm_id":"887165608","tag":{"amenity":"recycling","location":"overground","recycling:glass_bottles":"yes","recycling_type":"container"}},"type":"Feature"},
	{"geometry":{"coordinates":[2.226063,48.885272],"type":"Point"},"properties":{"osm_id":"887166431","tag":{"amenity":"recycling","location":"overground","recycling:glass_bottles":"yes","recycling_type":"container"}},"type":"Feature"},
	{"geometry":{"coordinates":[2.198958,48.890278],"type":"Point"},"properties":{"osm_id":"887166501","tag":{"amenity":"waste_basket"}},"type":"Feature"},
	{"geometry":{"coordinates":[2.218833,48.880064],"type":"Point"},"properties":{"osm_id":"887167041","tag":{"amenity":"waste_basket"}},"type":"Feature"},
	{"geometry":{"coordinates":[2.221235,48.885324],"type":"Point"},"properties":{"osm_id":"887167353","tag":{"amenity":"waste_basket","check_date":"2021-06-04"}},"type":"Feature"},
	{"geometry":{"coordinates":[2.221309,48.881348],"type":"Point"},"properties":{"osm_id":"887167591","tag":{"amenity":"waste_basket","check_date":"2021-05-16"}},"type":"Feature"},
	{"geometry":{"coordinates":[2.214136,48.899765],"type":"Point"},"properties":{"osm_id":"893211788","tag":{"amenity":"waste_basket"}},"type":"Feature"},
	{"geometry":{"coordinates":[2.200775,48.891247],"type":"Point"},"properties":{"osm_id":"933569978","tag":{"amenity":"waste_basket"}},"type":"Feature"},
	{"geometry":{"coordinates":[2.206063,48.880993],"type":"Point"},"properties":{"osm_id":"950137295","tag":{"amenity":"recycling","location":"overground","recycling:glass_bottles":"yes","recycling_type":"container"}},"type":"Feature"},
	{"geometry":{"coordinates":[2.205951,48.881091],"type":"Point"},"properties":{"osm_id":"950137318","tag":{"amenity":"waste_basket"}},"type":"Feature"},
	{"geometry":{"coordinates":[2.205414,48.881363],"type":"Point"},"properties":{"osm_id":"950137384","tag":{"amenity":"waste_basket"}},"type":"Feature"},
	{"geometry":{"coordinates":[2.268585,48.905768],"type":"Point"},"properties":{"osm_id":"952353626","tag":{"amenity":"waste_basket","level":"-1"}},"type":"Feature"},
	{"geometry":{"coordinates":[2.205228,48.892698],"type":"Point"},"properties":{"osm_id":"975863301","tag":{"amenity":"waste_basket"}},"type":"Feature"},
	{"geometry":{"coordinates":[2.205743,48.892241],"type":"Point"},"properties":{"osm_id":"975863307","tag":{"amenity":"waste_basket"}},"type":"Feature"},
	{"geometry":{"coordinates":[2.205346,48.892306],"type":"Point"},"properties":{"osm_id":"975863312","tag":{"amenity":"waste_basket"}},"type":"Feature"},
	{"geometry":{"coordinates":[2.202693,48.893724],"type":"Point"},"properties":{"osm_id":"975863343","tag":{"amenity":"waste_basket"}},"type":"Feature"},
	{"geometry":{"coordinates":[2.206085,48.892445],"type":"Point"},"properties":{"osm_id":"975863345","tag":{"amenity":"waste_basket"}},"type":"Feature"},
	{"geometry":{"coordinates":[2.200942,48.896783],"type":"Point"},"properties":{"osm_id":"1122799032","tag":{"amenity":"waste_basket"}},"type":"Feature"},
	{"geometry":{"coordinates":[2.210266,48.889446],"type":"Point"},"properties":{"osm_id":"1155390153","tag":{"amenity":"recycling","recycling:glass_bottles":"yes","recycling_type":"container"}},"type":"Feature"},
	{"geometry":{"coordinates":[2.210383,48.889536],"type":"Point"},"properties":{"osm_id":"1155390380","tag":{"amenity":"recycling","recycling:clothes":"yes","recycling_type":"container"}},"type":"Feature"},
	{"geometry":{"coordinates":[2.209997,48.878935],"type":"Point"},"properties":{"osm_id":"1156502865","tag":{"amenity":"waste_basket"}},"type":"Feature"},
	{"geometry":{"coordinates":[2.21111,48.878535],"type":"Point"},"properties":{"osm_id":"1156502954","tag":{"amenity":"recycling","location":"overground","recycling:glass_bottles":"yes","recycling_type":"container"}},"type":"Feature"},
	{"geometry":{"coordinates":[2.230612,48.886793],"type":"Point"},"properties":{"osm_id":"1191784784","tag":{"amenity":"recycling","recycling:glass_bottles":"yes","recycling_type":"container"}},"type":"Feature"},
	{"geometry":{"coordinates":[2.209859,48.886269],"type":"Point"},"properties":{"osm_id":"1191784965","tag":{"amenity":"waste_basket"}},"type":"Feature"},
	{"geometry":{"coordinates":[2.216023,48.877952],"type":"Point"},"properties":{"osm_id":"1191786508","tag":{"amenity":"waste_basket","check_date":"2021-05-15"}},"type":"Feature"},
	{"geometry":{"coordinates":[2.20576,48.886595],"type":"Point"},"properties":{"osm_id":"1191786588","tag":{"amenity":"waste_basket"}},"type":"Feature"},
	{"geometry":{"coordinates":[2.217398,48.86994],"type":"Point"},"properties":{"osm_id":"1191786651","tag":{"amenity":"recycling","location":"underground","recycling:glass_bottles":"yes","recycling_type":"container"}},"type":"Feature"},
	{"geometry":{"coordinates":[2.20433,48.886977],"type":"Point"},"properties":{"osm_id":"1192732435","tag":{"amenity":"waste_basket"}},"type":"Feature"},
	{"geometry":{"coordinates":[2.212869,48.886273],"type":"Point"},"properties":{"osm_id":"1192732463","tag":{"amenity":"waste_basket"}},"type":"Feature"},
	{"geometry":{"coordinates":[2.224032,48.885477],"type":"Point"},"properties":{"osm_id":"1192732559","tag":{"amenity":"waste_basket","check_date":"2021-05-14"}},"type":"Feature"},
	{"geometry":{"coordinates":[2.233765,48.88764],"type":"Point"},"properties":{"osm_id":"1192732961","tag":{"amenity":"recycling","location":"overground","recycling:cans":"no","recycling:clothes":"no","recycling:glass_bottles":"yes","recycling:paper":"no","recycling_type":"container"}},"type":"Feature"},
	{"geometry":{"coordinates":[2.21435,48.885937],"type":"Point"},"properties":{"osm_id":"1192733549","tag":{"amenity":"waste_basket","check_date":"2021-05-13"}},"type":"Feature"},
	{"geometry":{"coordinates":[2.20156,48.887233],"type":"Point"},"properties":{"osm_id":"1192734239","tag":{"amenity":"waste_basket"}},"type":"Feature"},
	{"geometry":{"coordinates":[2.200161,48.891571],"type":"Point"},"properties":{"osm_id":"1202446307","tag":{"amenity":"waste_basket"}},"type":"Feature"},
	{"geometry":{"coordinates":[2.200777,48.89137],"type":"Point"},"properties":{"osm_id":"1202454741","tag":{"amenity":"recycling","location":"overground","recycling:glass_bottles":"yes","recycling_type":"container"}},"type":"Feature"},
	{"geometry":{"coordinates":[2.283634,48.876788],"type":"Point"},"properties":{"osm_id":"1299494304","ref":"C418","tag":{"amenity":"recycling","recycling:glass":"yes","recycling_type":"container"}},"type":"Feature"},
	{"geometry":{"coordinates":[2.201307,48.887796],"type":"Point"},"properties":{"osm_id":"1411500163","tag":{"amenity":"waste_basket"}},"type":"Feature"},
	{"geometry":{"coordinates":[2.197603,48.89079],"type":"Point"},"properties":{"osm_id":"1411500726","tag":{"amenity":"waste_basket"}},"type":"Feature"},
	{"geometry":{"coordinates":[2.197538,48.890825],"type":"Point"},"properties":{"osm_id":"1411500741","tag":{"amenity":"waste_basket"}},"type":"Feature"},
	{"geometry":{"coordinates":[2.197531,48.890876],"type":"Point"},"properties":{"osm_id":"1411500831","tag":{"amenity":"waste_basket"}},"type":"Feature"},
	{"geometry":{"coordinates":[2.197644,48.890918],"type":"Point"},"properties":{"osm_id":"1411500866","tag":{"amenity":"waste_basket"}},"type":"Feature"},
	{"geometry":{"coordinates":[2.197672,48.890937],"type":"Point"},"properties":{"osm_id":"1411500872","tag":{"amenity":"waste_basket"}},"type":"Feature"},
	{"geometry":{"coordinates":[2.200961,48.891442],"type":"Point"},"properties":{"osm_id":"1411501007","tag":{"amenity":"waste_basket"}},"type":"Feature"},
	{"geometry":{"coordinates":[2.206636,48.892438],"type":"Point"},"properties":{"osm_id":"1411501345","tag":{"amenity":"waste_basket"}},"type":"Feature"},
	{"geometry":{"coordinates":[2.207017,48.892852],"type":"Point"},"properties":{"osm_id":"1411501525","tag":{"amenity":"recycling","recycling:glass_bottles":"yes","recycling_type":"container"}},"type":"Feature"},
	{"geometry":{"coordinates":[2.19809,48.893077],"type":"Point"},"properties":{"osm_id":"1411501571","tag":{"amenity":"recycling","recycling:glass_bottles":"yes"}},"type":"Feature"},
	{"geometry":{"coordinates":[2.207886,48.893101],"type":"Point"},"properties":{"osm_id":"1411501591","tag":{"amenity":"waste_basket"}},"type":"Feature"},
	{"geometry":{"coordinates":[2.217712,48.90707],"type":"Point"},"properties":{"osm_id":"1411505073","tag":{"amenity":"waste_basket"}},"type":"Feature"},
	{"geometry":{"coordinates":[2.21343,48.908521],"type":"Point"},"properties":{"osm_id":"1411505388","tag":{"amenity":"waste_basket"}},"type":"Feature"},
	{"geometry":{"coordinates":[2.213379,48.908664],"type":"Point"},"properties":{"osm_id":"1411505455","tag":{"amenity":"waste_basket"}},"type":"Feature"},
	{"geometry":{"coordinates":[2.216528,48.909293],"type":"Point"},"properties":{"osm_id":"1411506218","tag":{"amenity":"waste_basket"}},"type":"Feature"},
	{"geometry":{"coordinates":[2.22483,48.909326],"type":"Point"},"properties":{"osm_id":"1411506262","tag":{"amenity":"waste_basket"}},"type":"Feature"},
	{"geometry":{"coordinates":[2.216326,48.909395],"type":"Point"},"properties":{"osm_id":"1411506352","tag":{"amenity":"waste_basket"}},"type":"Feature"},
	{"geometry":{"coordinates":[2.224274,48.909859],"type":"Point"},"properties":{"osm_id":"1411506725","tag":{"amenity":"waste_basket"}},"type":"Feature"},
	{"geometry":{"coordinates":[2.214951,48.910224],"type":"Point"},"properties":{"osm_id":"1411506869","tag":{"amenity":"waste_basket"}},"type":"Feature"},
	{"geometry":{"coordinates":[2.222049,48.911485],"type":"Point"},"properties":{"osm_id":"1411508210","tag":{"amenity":"waste_basket"}},"type":"Feature"},
	{"geometry":{"coordinates":[2.223144,48.911944],"type":"Point"},"properties":{"osm_id":"1411508455","tag":{"amenity":"waste_basket"}},"type":"Feature"},
	{"geometry":{"coordinates":[2.22458,48.912553],"type":"Point"},"properties":{"osm_id":"1411508543","tag":{"amenity":"waste_basket"}},"type":"Feature"},
	{"geometry":{"coordinates":[2.224826,48.912572],"type":"Point"},"properties":{"osm_id":"1411508545","tag":{"amenity":"waste_basket"}},"type":"Feature"},
	{"geometry":{"coordinates":[2.212812,48.907821],"type":"Point"},"properties":{"osm_id":"1501384645","tag":{"amenity":"waste_basket"}},"type":"Feature"},
	{"geometry":{"coordinates":[2.233784,48.893038],"type":"Point"},"properties":{"osm_id":"1506814102","tag":{"amenity":"waste_basket"}},"type":"Feature"},
	{"geometry":{"coordinates":[2.246716,48.902024],"type":"Point"},"properties":{"osm_id":"1520296698","tag":{"amenity":"waste_basket"}},"type":"Feature"},
	{"geometry":{"coordinates":[2.280441,48.899755],"type":"Point"},"properties":{"osm_id":"1557210449","tag":{"amenity":"recycling"}},"type":"Feature"},
	{"geometry":{"coordinates":[2.232382,48.87555],"type":"Point"},"properties":{"name":"Conteneur \u00c3\u00a0 vetements WWF","osm_id":"1633786690","tag":{"amenity":"recycling","recycling:clothes":"yes","recycling:shoes":"yes","recycling_type":"container"}},"type":"Feature"},
	{"geometry":{"coordinates":[2.207459,48.892506],"type":"Point"},"properties":{"osm_id":"1698212663","tag":{"amenity":"waste_basket"}},"type":"Feature"},
	{"geometry":{"coordinates":[2.230621,48.894006],"type":"Point"},"properties":{"osm_id":"1768798758","tag":{"amenity":"waste_basket","check_date":"2021-06-05"}},"type":"Feature"},
	{"geometry":{"coordinates":[2.21478,48.896261],"type":"Point"},"properties":{"osm_id":"1768798798","tag":{"amenity":"waste_basket"}},"type":"Feature"},
	{"geometry":{"coordinates":[2.217984,48.896385],"type":"Point"},"properties":{"osm_id":"1768798803","tag":{"amenity":"recycling","recycling:clothes":"yes","recycling_type":"container"}},"type":"Feature"},
	{"geometry":{"coordinates":[2.218969,48.896688],"type":"Point"},"properties":{"osm_id":"1768798809","tag":{"amenity":"waste_basket"}},"type":"Feature"},
	{"geometry":{"coordinates":[2.206796,48.898978],"type":"Point"},"properties":{"osm_id":"1768798839","tag":{"amenity":"recycling","recycling:glass_bottles":"yes"}},"type":"Feature"},
	{"geometry":{"coordinates":[2.221448,48.864993],"type":"Point"},"properties":{"osm_id":"1768962966","tag":{"amenity":"recycling","recycling:clothes":"yes","recycling:glass":"yes","recycling_type":"container"}},"type":"Feature"},
	{"geometry":{"coordinates":[2.24292,48.88232],"type":"Point"},"properties":{"osm_id":"1786080491","tag":{"amenity":"recycling","location":"underground","recycling:glass":"yes","recycling:glass_bottles":"yes","recycling_type":"container"}},"type":"Feature"},
	{"geometry":{"coordinates":[2.236691,48.884216],"type":"Point"},"properties":{"osm_id":"1786110692","tag":{"amenity":"recycling","check_date:recycling":"2021-01-19","location":"underground","recycling:glass_bottles":"yes","recycling_type":"container"}},"type":"Feature"},
	{"geometry":{"coordinates":[2.20557,48.90255],"type":"Point"},"properties":{"osm_id":"1795817925","tag":{"amenity":"waste_basket","check_date":"2021-06-26"}},"type":"Feature"},
	{"geometry":{"coordinates":[2.206228,48.902861],"type":"Point"},"properties":{"osm_id":"1795817931","tag":{"amenity":"waste_basket"}},"type":"Feature"},
	{"geometry":{"coordinates":[2.206485,48.903165],"type":"Point"},"properties":{"osm_id":"1795817943","tag":{"amenity":"waste_basket"}},"type":"Feature"},
	{"geometry":{"coordinates":[2.210202,48.905559],"type":"Point"},"properties":{"osm_id":"1795817997","tag":{"amenity":"waste_basket"}},"type":"Feature"},
	{"geometry":{"coordinates":[2.212572,48.907102],"type":"Point"},"properties":{"osm_id":"1795818196","tag":{"amenity":"waste_basket"}},"type":"Feature"},
	{"geometry":{"coordinates":[2.213971,48.908058],"type":"Point"},"properties":{"osm_id":"1795818307","tag":{"amenity":"waste_basket"}},"type":"Feature"},
	{"geometry":{"coordinates":[2.214775,48.908231],"type":"Point"},"properties":{"osm_id":"1795818313","tag":{"amenity":"waste_basket"}},"type":"Feature"},
	{"geometry":{"coordinates":[2.25482,48.898919],"type":"Point"},"properties":{"osm_id":"1870004381","tag":{"amenity":"waste_basket"}},"type":"Feature"},
	{"geometry":{"coordinates":[2.260845,48.885179],"type":"Point"},"properties":{"osm_id":"2010636764","tag":{"amenity":"waste_basket"}},"type":"Feature"},
	{"geometry":{"coordinates":[2.231241,48.879765],"type":"Point"},"properties":{"osm_id":"2153351991","tag":{"amenity":"recycling","check_date:recycling":"2021-05-23","recycling:glass_bottles":"yes","recycling_type":"container"}},"type":"Feature"},
	{"geometry":{"coordinates":[2.207966,48.891625],"type":"Point"},"properties":{"osm_id":"2183578482","tag":{"amenity":"waste_basket"}},"type":"Feature"},
	{"geometry":{"coordinates":[2.208123,48.891699],"type":"Point"},"properties":{"osm_id":"2183578497","tag":{"amenity":"waste_basket"}},"type":"Feature"},
	{"geometry":{"coordinates":[2.204772,48.891745],"type":"Point"},"properties":{"osm_id":"2183578504","tag":{"amenity":"waste_basket"}},"type":"Feature"},
	{"geometry":{"coordinates":[2.198473,48.88999],"type":"Point"},"properties":{"osm_id":"2304089564","tag":{"amenity":"waste_basket"}},"type":"Feature"},
	{"geometry":{"coordinates":[2.199728,48.890745],"type":"Point"},"properties":{"osm_id":"2304089847","tag":{"amenity":"waste_basket"}},"type":"Feature"},
	{"geometry":{"coordinates":[2.200008,48.891381],"type":"Point"},"properties":{"osm_id":"2304089927","tag":{"amenity":"waste_basket","check_date":"2021-06-05"}},"type":"Feature"},
	{"geometry":{"coordinates":[2.200371,48.891452],"type":"Point"},"properties":{"osm_id":"2304090164","tag":{"amenity":"waste_basket"}},"type":"Feature"},
	{"geometry":{"coordinates":[2.199574,48.892102],"type":"Point"},"properties":{"osm_id":"2304090189","tag":{"amenity":"waste_basket"}},"type":"Feature"},
	{"geometry":{"coordinates":[2.213443,48.892833],"type":"Point"},"properties":{"osm_id":"2304090245","tag":{"amenity":"waste_basket","check_date":"2021-07-14"}},"type":"Feature"},
	{"geometry":{"coordinates":[2.216781,48.893054],"type":"Point"},"properties":{"osm_id":"2304090252","tag":{"amenity":"waste_basket","check_date":"2021-06-23"}},"type":"Feature"},
	{"geometry":{"coordinates":[2.212902,48.893245],"type":"Point"},"properties":{"osm_id":"2304090260","tag":{"amenity":"waste_basket"}},"type":"Feature"},
	{"geometry":{"coordinates":[2.216899,48.893349],"type":"Point"},"properties":{"osm_id":"2304090267","tag":{"amenity":"waste_basket"}},"type":"Feature"},
	{"geometry":{"coordinates":[2.217203,48.893699],"type":"Point"},"properties":{"osm_id":"2304090283","tag":{"amenity":"waste_basket","check_date":"2021-05-27"}},"type":"Feature"},
	{"geometry":{"coordinates":[2.217304,48.893776],"type":"Point"},"properties":{"osm_id":"2304090299","tag":{"amenity":"waste_basket"}},"type":"Feature"},
	{"geometry":{"coordinates":[2.226053,48.893822],"type":"Point"},"properties":{"osm_id":"2304090305","tag":{"amenity":"waste_basket","check_date":"2021-05-25"}},"type":"Feature"},
	{"geometry":{"coordinates":[2.225468,48.894012],"type":"Point"},"properties":{"osm_id":"2304090353","tag":{"amenity":"waste_basket"}},"type":"Feature"},
	{"geometry":{"coordinates":[2.222949,48.894018],"type":"Point"},"properties":{"osm_id":"2304090356","tag":{"amenity":"waste_basket"}},"type":"Feature"},
	{"geometry":{"coordinates":[2.223125,48.894213],"type":"Point"},"properties":{"osm_id":"2304090617","tag":{"amenity":"waste_basket"}},"type":"Feature"},
	{"geometry":{"coordinates":[2.225178,48.894277],"type":"Point"},"properties":{"osm_id":"2304090636","tag":{"amenity":"waste_basket","check_date":"2021-05-25"}},"type":"Feature"},
	{"geometry":{"coordinates":[2.22451,48.8943],"type":"Point"},"properties":{"osm_id":"2304090638","tag":{"amenity":"waste_basket"}},"type":"Feature"},
	{"geometry":{"coordinates":[2.224117,48.894436],"type":"Point"},"properties":{"osm_id":"2304090648","tag":{"amenity":"waste_basket"}},"type":"Feature"},
	{"geometry":{"coordinates":[2.197617,48.894576],"type":"Point"},"properties":{"osm_id":"2304090663","tag":{"amenity":"waste_basket"}},"type":"Feature"},
	{"geometry":{"coordinates":[2.197604,48.894609],"type":"Point"},"properties":{"osm_id":"2304090671","tag":{"amenity":"recycling","recycling:glass_bottles":"yes","recycling_type":"container"}},"type":"Feature"},
	{"geometry":{"coordinates":[2.210508,48.894764],"type":"Point"},"properties":{"osm_id":"2304090677","tag":{"amenity":"waste_basket"}},"type":"Feature"},
	{"geometry":{"coordinates":[2.222434,48.89535],"type":"Point"},"properties":{"osm_id":"2304090774","tag":{"amenity":"waste_basket"}},"type":"Feature"},
	{"geometry":{"coordinates":[2.222284,48.895523],"type":"Point"},"properties":{"osm_id":"2304090816","tag":{"amenity":"waste_basket"}},"type":"Feature"},
	{"geometry":{"coordinates":[2.217957,48.896387],"type":"Point"},"properties":{"osm_id":"2304090906","tag":{"amenity":"recycling","recycling:glass_bottles":"yes","recycling_type":"container"}},"type":"Feature"},
	{"geometry":{"coordinates":[2.199713,48.870157],"type":"Point"},"properties":{"osm_id":"2366970592","tag":{"amenity":"waste_basket","waste":"trash"}},"type":"Feature"},
	{"geometry":{"coordinates":[2.244411,48.876516],"type":"Point"},"properties":{"osm_id":"2368960656","tag":{"amenity":"recycling","recycling:glass_bottles":"yes","recycling_type":"container"}},"type":"Feature"},
	{"geometry":{"coordinates":[2.217618,48.869799],"type":"Point"},"properties":{"osm_id":"2370675026","tag":{"amenity":"waste_basket"}},"type":"Feature"},
	{"geometry":{"coordinates":[2.206553,48.919199],"type":"Point"},"properties":{"osm_id":"2379515903","tag":{"amenity":"waste_basket"}},"type":"Feature"},
	{"geometry":{"coordinates":[2.205134,48.919583],"type":"Point"},"properties":{"osm_id":"2383481859","tag":{"amenity":"waste_basket"}},"type":"Feature"},
	{"geometry":{"coordinates":[2.20451,48.91901],"type":"Point"},"properties":{"osm_id":"2383509587","tag":{"amenity":"waste_basket"}},"type":"Feature"},
	{"geometry":{"coordinates":[2.20573,48.864972],"type":"Point"},"properties":{"osm_id":"2391775236","tag":{"amenity":"waste_basket"}},"type":"Feature"},
	{"geometry":{"coordinates":[2.203691,48.919578],"type":"Point"},"properties":{"osm_id":"2412160575","tag":{"amenity":"recycling","recycling:glass":"yes","recycling:glass_bottles":"yes","recycling_type":"container"}},"type":"Feature"},
	{"geometry":{"coordinates":[2.20855,48.886897],"type":"Point"},"properties":{"osm_id":"2435210298","tag":{"amenity":"waste_basket"}},"type":"Feature"},
	{"geometry":{"coordinates":[2.2085,48.887023],"type":"Point"},"properties":{"osm_id":"2435210300","tag":{"amenity":"waste_basket"}},"type":"Feature"},
	{"geometry":{"coordinates":[2.208423,48.887064],"type":"Point"},"properties":{"osm_id":"2435210304","tag":{"amenity":"waste_basket"}},"type":"Feature"},
	{"geometry":{"coordinates":[2.207935,48.887266],"type":"Point"},"properties":{"osm_id":"2435210305","tag":{"amenity":"waste_basket"}},"type":"Feature"},
	{"geometry":{"coordinates":[2.207397,48.88744],"type":"Point"},"properties":{"osm_id":"2435210306","tag":{"amenity":"waste_basket","check_date":"2021-07-07"}},"type":"Feature"},
	{"geometry":{"coordinates":[2.206749,48.887563],"type":"Point"},"properties":{"osm_id":"2435210307","tag":{"amenity":"waste_basket","check_date":"2021-07-07"}},"type":"Feature"},
	{"geometry":{"coordinates":[2.205549,48.888488],"type":"Point"},"properties":{"osm_id":"2435210311","tag":{"amenity":"waste_basket"}},"type":"Feature"},
	{"geometry":{"coordinates":[2.225244,48.869914],"type":"Point"},"properties":{"osm_id":"2452543390","tag":{"amenity":"recycling","opening_hours":"closed","recycling:glass_bottles":"yes","recycling_type":"container"}},"type":"Feature"},
	{"geometry":{"coordinates":[2.225347,48.869875],"type":"Point"},"properties":{"osm_id":"2452543391","tag":{"amenity":"waste_basket"}},"type":"Feature"},
	{"geometry":{"coordinates":[2.281679,48.906056],"type":"Point"},"properties":{"osm_id":"2464304166","tag":{"amenity":"recycling","recycling:clothes":"yes","recycling_type":"container"}},"type":"Feature"},
	{"geometry":{"coordinates":[2.212436,48.895733],"type":"Point"},"properties":{"osm_id":"2470434169","tag":{"amenity":"waste_basket"}},"type":"Feature"},
	{"geometry":{"coordinates":[2.199692,48.893183],"type":"Point"},"properties":{"osm_id":"2495968807","tag":{"amenity":"waste_basket"}},"type":"Feature"},
	{"geometry":{"coordinates":[2.20341,48.870861],"type":"Point"},"properties":{"osm_id":"2503097664","tag":{"amenity":"waste_basket"}},"type":"Feature"},
	{"geometry":{"coordinates":[2.232381,48.875726],"type":"Point"},"properties":{"osm_id":"2503249512","tag":{"amenity":"recycling","recycling:paper":"yes"}},"type":"Feature"},
	{"geometry":{"coordinates":[2.275996,48.871133],"type":"Point"},"properties":{"osm_id":"2531866648","tag":{"amenity":"recycling","recycling:glass_bottles":"yes","recycling_type":"container"}},"type":"Feature"},
	{"geometry":{"coordinates":[2.197268,48.890135],"type":"Point"},"properties":{"osm_id":"2599104481","tag":{"amenity":"waste_basket"}},"type":"Feature"},
	{"geometry":{"coordinates":[2.197378,48.890244],"type":"Point"},"properties":{"osm_id":"2599104482","tag":{"amenity":"waste_basket"}},"type":"Feature"},
	{"geometry":{"coordinates":[2.197393,48.890412],"type":"Point"},"properties":{"osm_id":"2599104488","tag":{"amenity":"waste_basket"}},"type":"Feature"},
	{"geometry":{"coordinates":[2.197763,48.890908],"type":"Point"},"properties":{"osm_id":"2599104495","tag":{"amenity":"waste_basket"}},"type":"Feature"},
	{"geometry":{"coordinates":[2.197559,48.890577],"type":"Point"},"properties":{"osm_id":"2642075141","tag":{"amenity":"waste_basket"}},"type":"Feature"},
	{"geometry":{"coordinates":[2.19793,48.889625],"type":"Point"},"properties":{"osm_id":"2681332982","tag":{"amenity":"waste_basket"}},"type":"Feature"},
	{"geometry":{"coordinates":[2.198112,48.889708],"type":"Point"},"properties":{"osm_id":"2681332993","tag":{"amenity":"waste_basket"}},"type":"Feature"},
	{"geometry":{"coordinates":[2.208559,48.879274],"type":"Point"},"properties":{"osm_id":"2689331959","tag":{"amenity":"waste_basket"}},"type":"Feature"},
	{"geometry":{"coordinates":[2.204356,48.882793],"type":"Point"},"properties":{"osm_id":"2689332038","tag":{"amenity":"recycling","recycling:glass_bottles":"yes","recycling_type":"container"}},"type":"Feature"},
	{"geometry":{"coordinates":[2.203547,48.883557],"type":"Point"},"properties":{"osm_id":"2689332040","tag":{"amenity":"waste_basket"}},"type":"Feature"},
	{"geometry":{"coordinates":[2.203191,48.883887],"type":"Point"},"properties":{"osm_id":"2689332042","tag":{"amenity":"waste_basket"}},"type":"Feature"},
	{"geometry":{"coordinates":[2.203234,48.883973],"type":"Point"},"properties":{"osm_id":"2689332045","tag":{"amenity":"recycling","recycling:glass_bottles":"yes","recycling_type":"container"}},"type":"Feature"},
	{"geometry":{"coordinates":[2.202088,48.88574],"type":"Point"},"properties":{"osm_id":"2689332060","tag":{"amenity":"waste_basket"}},"type":"Feature"},
	{"geometry":{"coordinates":[2.201988,48.885913],"type":"Point"},"properties":{"osm_id":"2689332061","tag":{"amenity":"waste_basket"}},"type":"Feature"},
	{"geometry":{"coordinates":[2.19974,48.887897],"type":"Point"},"properties":{"osm_id":"2689332065","tag":{"amenity":"waste_basket"}},"type":"Feature"},
	{"geometry":{"coordinates":[2.198728,48.888703],"type":"Point"},"properties":{"osm_id":"2689332073","tag":{"amenity":"waste_basket"}},"type":"Feature"},
	{"geometry":{"coordinates":[2.198357,48.889257],"type":"Point"},"properties":{"osm_id":"2689332076","tag":{"amenity":"waste_basket"}},"type":"Feature"},
	{"geometry":{"coordinates":[2.197964,48.889505],"type":"Point"},"properties":{"osm_id":"2689332077","tag":{"amenity":"waste_basket"}},"type":"Feature"},
	{"geometry":{"coordinates":[2.197509,48.889906],"type":"Point"},"properties":{"osm_id":"2689332086","tag":{"amenity":"waste_basket"}},"type":"Feature"},
	{"geometry":{"coordinates":[2.200137,48.896519],"type":"Point"},"properties":{"osm_id":"2689332090","tag":{"amenity":"waste_basket"}},"type":"Feature"},
	{"geometry":{"coordinates":[2.237403,48.88755],"type":"Point"},"properties":{"osm_id":"2696478062","tag":{"amenity":"recycling","recycling:glass_bottles":"yes","recycling_type":"container"}},"type":"Feature"},
	{"geometry":{"coordinates":[2.239033,48.877145],"type":"Point"},"properties":{"osm_id":"2696711617","tag":{"amenity":"recycling","recycling:glass_bottles":"yes","recycling_type":"container"}},"type":"Feature"},
	{"geometry":{"coordinates":[2.239106,48.877197],"type":"Point"},"properties":{"osm_id":"2696711618","tag":{"amenity":"recycling","recycling:paper":"yes","recycling_type":"container"}},"type":"Feature"},
	{"geometry":{"coordinates":[2.239832,48.884891],"type":"Point"},"properties":{"osm_id":"2697263414","tag":{"amenity":"recycling","recycling:glass_bottles":"yes"}},"type":"Feature"},
	{"geometry":{"coordinates":[2.233259,48.882775],"type":"Point"},"properties":{"osm_id":"2698629069","tag":{"amenity":"waste_basket"}},"type":"Feature"},
	{"geometry":{"coordinates":[2.233682,48.883048],"type":"Point"},"properties":{"osm_id":"2698629092","tag":{"amenity":"waste_basket","check_date":"2021-06-15"}},"type":"Feature"},
	{"geometry":{"coordinates":[2.233309,48.883091],"type":"Point"},"properties":{"osm_id":"2698629095","tag":{"amenity":"waste_basket"}},"type":"Feature"},
	{"geometry":{"coordinates":[2.233732,48.88312],"type":"Point"},"properties":{"osm_id":"2698629097","tag":{"amenity":"waste_basket","check_date":"2021-06-15"}},"type":"Feature"},
	{"geometry":{"coordinates":[2.233838,48.883231],"type":"Point"},"properties":{"osm_id":"2698629112","tag":{"amenity":"waste_basket","check_date":"2021-06-15"}},"type":"Feature"},
	{"geometry":{"coordinates":[2.233735,48.88329],"type":"Point"},"properties":{"osm_id":"2698629116","tag":{"amenity":"waste_basket","check_date":"2021-06-15"}},"type":"Feature"},
	{"geometry":{"coordinates":[2.233559,48.883356],"type":"Point"},"properties":{"osm_id":"2698629123","tag":{"amenity":"waste_basket"}},"type":"Feature"},
	{"geometry":{"coordinates":[2.233959,48.883371],"type":"Point"},"properties":{"osm_id":"2698629125","tag":{"amenity":"waste_basket","check_date":"2021-06-15"}},"type":"Feature"},
	{"geometry":{"coordinates":[2.233684,48.883506],"type":"Point"},"properties":{"osm_id":"2698629139","tag":{"amenity":"waste_basket"}},"type":"Feature"},
	{"geometry":{"coordinates":[2.233949,48.883538],"type":"Point"},"properties":{"osm_id":"2698629144","tag":{"amenity":"waste_basket"}},"type":"Feature"},
	{"geometry":{"coordinates":[2.234107,48.883539],"type":"Point"},"properties":{"osm_id":"2698629145","tag":{"amenity":"waste_basket","check_date":"2021-06-15"}},"type":"Feature"},
	{"geometry":{"coordinates":[2.234153,48.883594],"type":"Point"},"properties":{"osm_id":"2698629153","tag":{"amenity":"waste_basket"}},"type":"Feature"},
	{"geometry":{"coordinates":[2.234121,48.883772],"type":"Point"},"properties":{"osm_id":"2698629168","tag":{"amenity":"waste_basket"}},"type":"Feature"},
	{"geometry":{"coordinates":[2.234002,48.8839],"type":"Point"},"properties":{"osm_id":"2698629174","tag":{"amenity":"waste_basket"}},"type":"Feature"},
	{"geometry":{"coordinates":[2.234374,48.882525],"type":"Point"},"properties":{"osm_id":"2700574942","tag":{"amenity":"waste_basket"}},"type":"Feature"},
	{"geometry":{"coordinates":[2.233738,48.882655],"type":"Point"},"properties":{"osm_id":"2700574950","tag":{"amenity":"waste_basket","check_date":"2021-06-15"}},"type":"Feature"},
	{"geometry":{"coordinates":[2.233392,48.882897],"type":"Point"},"properties":{"osm_id":"2700574953","tag":{"amenity":"waste_basket","layer":"-1"}},"type":"Feature"},
	{"geometry":{"coordinates":[2.233531,48.88291],"type":"Point"},"properties":{"osm_id":"2700574955","tag":{"amenity":"waste_basket"}},"type":"Feature"},
	{"geometry":{"coordinates":[2.233498,48.883348],"type":"Point"},"properties":{"osm_id":"2700574983","tag":{"amenity":"waste_basket"}},"type":"Feature"},
	{"geometry":{"coordinates":[2.233368,48.883355],"type":"Point"},"properties":{"osm_id":"2700574985","tag":{"amenity":"waste_basket"}},"type":"Feature"},
	{"geometry":{"coordinates":[2.233256,48.883459],"type":"Point"},"properties":{"osm_id":"2700575016","tag":{"amenity":"waste_basket","survey:date":"2018-09-21"}},"type":"Feature"},
	{"geometry":{"coordinates":[2.23355,48.883554],"type":"Point"},"properties":{"osm_id":"2700575057","tag":{"amenity":"waste_basket","survey:date":"2018-09-21"}},"type":"Feature"},
	{"geometry":{"coordinates":[2.248349,48.898212],"type":"Point"},"properties":{"osm_id":"2701791891","tag":{"amenity":"waste_basket","check_date":"2021-04-30","level":"1"}},"type":"Feature"},
	{"geometry":{"coordinates":[2.248503,48.898213],"type":"Point"},"properties":{"osm_id":"2701791893","tag":{"amenity":"waste_basket","level":"1"}},"type":"Feature"},
	{"geometry":{"coordinates":[2.248157,48.898307],"type":"Point"},"properties":{"osm_id":"2701791940","tag":{"amenity":"waste_basket"}},"type":"Feature"},
	{"geometry":{"coordinates":[2.248079,48.8983],"type":"Point"},"properties":{"osm_id":"2701791944","tag":{"amenity":"waste_basket"}},"type":"Feature"},
	{"geometry":{"coordinates":[2.248291,48.898319],"type":"Point"},"properties":{"osm_id":"2701791950","tag":{"amenity":"waste_basket","check_date":"2021-04-30","level":"1"}},"type":"Feature"},
	{"geometry":{"coordinates":[2.248138,48.89832],"type":"Point"},"properties":{"osm_id":"2701791954","tag":{"amenity":"waste_basket"}},"type":"Feature"},
	{"geometry":{"coordinates":[2.24853,48.898416],"type":"Point"},"properties":{"osm_id":"2701791980","tag":{"amenity":"waste_basket","check_date":"2021-04-30","level":"1"}},"type":"Feature"},
	{"geometry":{"coordinates":[2.24887,48.89843],"type":"Point"},"properties":{"osm_id":"2701791981","tag":{"amenity":"waste_basket","check_date":"2021-04-30","level":"1"}},"type":"Feature"},
	{"geometry":{"coordinates":[2.248936,48.898454],"type":"Point"},"properties":{"osm_id":"2701791990","tag":{"amenity":"waste_basket","check_date":"2021-04-30","level":"1"}},"type":"Feature"},
	{"geometry":{"coordinates":[2.248717,48.898499],"type":"Point"},"properties":{"osm_id":"2701792004","tag":{"amenity":"waste_basket","check_date":"2021-04-30","level":"1"}},"type":"Feature"},
	{"geometry":{"coordinates":[2.250133,48.898944],"type":"Point"},"properties":{"osm_id":"2701792049","tag":{"amenity":"waste_basket","check_date":"2021-04-30","level":"1"}},"type":"Feature"},
	{"geometry":{"coordinates":[2.250046,48.899029],"type":"Point"},"properties":{"osm_id":"2701792071","tag":{"amenity":"waste_basket","check_date":"2021-04-30","level":"1"}},"type":"Feature"},
	{"geometry":{"coordinates":[2.250332,48.899154],"type":"Point"},"properties":{"osm_id":"2701792087","tag":{"amenity":"waste_basket","check_date":"2021-04-30","level":"1"}},"type":"Feature"},
	{"geometry":{"coordinates":[2.250632,48.899263],"type":"Point"},"properties":{"osm_id":"2701792117","tag":{"amenity":"waste_basket","check_date":"2021-04-30","level":"1"}},"type":"Feature"},
	{"geometry":{"coordinates":[2.220626,48.871125],"type":"Point"},"properties":{"osm_id":"2701869454","tag":{"amenity":"waste_basket"}},"type":"Feature"},
	{"geometry":{"coordinates":[2.220822,48.871186],"type":"Point"},"properties":{"osm_id":"2701869455","tag":{"amenity":"waste_basket"}},"type":"Feature"},
	{"geometry":{"coordinates":[2.220699,48.871276],"type":"Point"},"properties":{"osm_id":"2701869468","tag":{"amenity":"waste_basket"}},"type":"Feature"},
	{"geometry":{"coordinates":[2.220908,48.871337],"type":"Point"},"properties":{"osm_id":"2701869471","tag":{"amenity":"waste_basket"}},"type":"Feature"},
	{"geometry":{"coordinates":[2.220737,48.871373],"type":"Point"},"properties":{"osm_id":"2701869472","tag":{"amenity":"waste_basket"}},"type":"Feature"},
	{"geometry":{"coordinates":[2.220778,48.871463],"type":"Point"},"properties":{"osm_id":"2701869478","tag":{"amenity":"waste_basket"}},"type":"Feature"},
	{"geometry":{"coordinates":[2.220987,48.871467],"type":"Point"},"properties":{"osm_id":"2701869480","tag":{"amenity":"waste_basket"}},"type":"Feature"},
	{"geometry":{"coordinates":[2.220816,48.871516],"type":"Point"},"properties":{"osm_id":"2701869486","tag":{"amenity":"waste_basket"}},"type":"Feature"},
	{"geometry":{"coordinates":[2.220856,48.871581],"type":"Point"},"properties":{"osm_id":"2701869491","tag":{"amenity":"waste_basket"}},"type":"Feature"},
	{"geometry":{"coordinates":[2.221187,48.871796],"type":"Point"},"properties":{"osm_id":"2701869543","tag":{"amenity":"waste_basket"}},"type":"Feature"},
	{"geometry":{"coordinates":[2.221017,48.871847],"type":"Point"},"properties":{"osm_id":"2701869558","tag":{"amenity":"waste_basket"}},"type":"Feature"},
	{"geometry":{"coordinates":[2.221326,48.871999],"type":"Point"},"properties":{"osm_id":"2701869612","tag":{"amenity":"waste_basket"}},"type":"Feature"},
	{"geometry":{"coordinates":[2.221134,48.872007],"type":"Point"},"properties":{"osm_id":"2701869615","tag":{"amenity":"waste_basket","layer":"1"}},"type":"Feature"},
	{"geometry":{"coordinates":[2.221181,48.872079],"type":"Point"},"properties":{"osm_id":"2701869626","tag":{"amenity":"waste_basket","layer":"1"}},"type":"Feature"},
	{"geometry":{"coordinates":[2.221393,48.87211],"type":"Point"},"properties":{"osm_id":"2701869631","tag":{"amenity":"waste_basket"}},"type":"Feature"},
	{"geometry":{"coordinates":[2.221258,48.872184],"type":"Point"},"properties":{"osm_id":"2701869643","tag":{"amenity":"waste_basket"}},"type":"Feature"},
	{"geometry":{"coordinates":[2.248227,48.898151],"type":"Point"},"properties":{"osm_id":"2701950025","tag":{"amenity":"waste_basket","layer":"-1","level":"0"}},"type":"Feature"},
	{"geometry":{"coordinates":[2.247916,48.898183],"type":"Point"},"properties":{"osm_id":"2701950027","tag":{"amenity":"waste_basket","level":"0"}},"type":"Feature"},
	{"geometry":{"coordinates":[2.24815,48.898204],"type":"Point"},"properties":{"osm_id":"2701950028","tag":{"amenity":"waste_basket","layer":"-1","level":"0"}},"type":"Feature"},
	{"geometry":{"coordinates":[2.248139,48.898224],"type":"Point"},"properties":{"osm_id":"2701950034","tag":{"amenity":"waste_basket","layer":"-1","level":"0"}},"type":"Feature"},
	{"geometry":{"coordinates":[2.247883,48.898253],"type":"Point"},"properties":{"osm_id":"2701950056","tag":{"amenity":"waste_basket","check_date":"2021-04-30","level":"0"}},"type":"Feature"},
	{"geometry":{"coordinates":[2.248088,48.898258],"type":"Point"},"properties":{"osm_id":"2701950063","tag":{"amenity":"waste_basket","layer":"-1","level":"0"}},"type":"Feature"},
	{"geometry":{"coordinates":[2.24807,48.898263],"type":"Point"},"properties":{"osm_id":"2701950067","tag":{"amenity":"waste_basket","check_date":"2021-04-30","level":"0"}},"type":"Feature"},
	{"geometry":{"coordinates":[2.24813,48.898265],"type":"Point"},"properties":{"osm_id":"2701950070","tag":{"amenity":"waste_basket"}},"type":"Feature"},
	{"geometry":{"coordinates":[2.221265,48.87149],"type":"Point"},"properties":{"osm_id":"2707932344","tag":{"amenity":"waste_basket"}},"type":"Feature"},
	{"geometry":{"coordinates":[2.221297,48.871532],"type":"Point"},"properties":{"osm_id":"2707932353","tag":{"amenity":"waste_basket"}},"type":"Feature"},
	{"geometry":{"coordinates":[2.221207,48.871536],"type":"Point"},"properties":{"osm_id":"2707932356","tag":{"amenity":"waste_basket"}},"type":"Feature"},
	{"geometry":{"coordinates":[2.221318,48.871536],"type":"Point"},"properties":{"osm_id":"2707932357","tag":{"amenity":"waste_basket"}},"type":"Feature"},
	{"geometry":{"coordinates":[2.221287,48.871564],"type":"Point"},"properties":{"osm_id":"2707932368","tag":{"amenity":"waste_basket"}},"type":"Feature"},
	{"geometry":{"coordinates":[2.221033,48.871574],"type":"Point"},"properties":{"osm_id":"2707932377","tag":{"amenity":"waste_basket","layer":"-1"}},"type":"Feature"},
	{"geometry":{"coordinates":[2.220835,48.871587],"type":"Point"},"properties":{"osm_id":"2707932381","tag":{"amenity":"waste_basket","layer":"-1"}},"type":"Feature"},
	{"geometry":{"coordinates":[2.220945,48.871798],"type":"Point"},"properties":{"osm_id":"2707932387","tag":{"amenity":"waste_basket"}},"type":"Feature"},
	{"geometry":{"coordinates":[2.220935,48.871857],"type":"Point"},"properties":{"osm_id":"2707932388","tag":{"amenity":"waste_basket"}},"type":"Feature"},
	{"geometry":{"coordinates":[2.229922,48.881785],"type":"Point"},"properties":{"osm_id":"2709204149","tag":{"amenity":"recycling","check_date:recycling":"2021-02-16","location":"underground","recycling:glass_bottles":"yes","recycling_type":"container"}},"type":"Feature"},
	{"geometry":{"coordinates":[2.227626,48.883566],"type":"Point"},"properties":{"osm_id":"2709228950","tag":{"amenity":"recycling","location":"underground","opening_hours":"24/7","recycling:cans":"no","recycling:clothes":"no","recycling:glass_bottles":"yes","recycling:paper":"no","recycling_type":"container"}},"type":"Feature"},
	{"geometry":{"coordinates":[2.240172,48.909635],"type":"Point"},"properties":{"osm_id":"2721755836","tag":{"amenity":"waste_basket"}},"type":"Feature"},
	{"geometry":{"coordinates":[2.240182,48.909637],"type":"Point"},"properties":{"osm_id":"2721755837","tag":{"amenity":"waste_basket"}},"type":"Feature"},
	{"geometry":{"coordinates":[2.240297,48.909671],"type":"Point"},"properties":{"osm_id":"2721755839","tag":{"amenity":"waste_basket"}},"type":"Feature"},
	{"geometry":{"coordinates":[2.240293,48.909677],"type":"Point"},"properties":{"osm_id":"2721755840","tag":{"amenity":"waste_basket"}},"type":"Feature"},
	{"geometry":{"coordinates":[2.239943,48.909368],"type":"Point"},"properties":{"osm_id":"2721787938","tag":{"amenity":"waste_basket"}},"type":"Feature"},
	{"geometry":{"coordinates":[2.240122,48.909504],"type":"Point"},"properties":{"osm_id":"2721787942","tag":{"amenity":"waste_basket"}},"type":"Feature"},
	{"geometry":{"coordinates":[2.239459,48.909294],"type":"Point"},"properties":{"osm_id":"2721833429","tag":{"amenity":"waste_basket"}},"type":"Feature"},
	{"geometry":{"coordinates":[2.239531,48.909425],"type":"Point"},"properties":{"osm_id":"2721876181","tag":{"amenity":"waste_basket","check_date":"2021-03-01"}},"type":"Feature"},
	{"geometry":{"coordinates":[2.239546,48.90943],"type":"Point"},"properties":{"osm_id":"2721876184","tag":{"amenity":"waste_basket","check_date":"2021-03-01"}},"type":"Feature"},
	{"geometry":{"coordinates":[2.23978,48.909512],"type":"Point"},"properties":{"osm_id":"2721876192","tag":{"amenity":"waste_basket"}},"type":"Feature"},
	{"geometry":{"coordinates":[2.239512,48.909446],"type":"Point"},"properties":{"osm_id":"2721906527","tag":{"amenity":"waste_basket","check_date":"2021-03-01"}},"type":"Feature"},
	{"geometry":{"coordinates":[2.239298,48.909397],"type":"Point"},"properties":{"osm_id":"2721938842","tag":{"amenity":"waste_basket","check_date":"2021-03-01","layer":"1","level":"1"}},"type":"Feature"},
	{"geometry":{"coordinates":[2.239421,48.909548],"type":"Point"},"properties":{"osm_id":"2721938843","tag":{"amenity":"waste_basket","check_date":"2021-03-01"}},"type":"Feature"},
	{"geometry":{"coordinates":[2.240849,48.909997],"type":"Point"},"properties":{"osm_id":"2722021456","tag":{"amenity":"waste_basket"}},"type":"Feature"},
	{"geometry":{"coordinates":[2.239919,48.909704],"type":"Point"},"properties":{"osm_id":"2722038383","tag":{"amenity":"waste_basket","check_date":"2021-03-01"}},"type":"Feature"},
	{"geometry":{"coordinates":[2.240231,48.909805],"type":"Point"},"properties":{"osm_id":"2722038389","tag":{"amenity":"waste_basket","survey:date":"2018-09-13"}},"type":"Feature"},
	{"geometry":{"coordinates":[2.239652,48.909609],"type":"Point"},"properties":{"osm_id":"2722054449","tag":{"amenity":"waste_basket","check_date":"2021-03-01"}},"type":"Feature"},
	{"geometry":{"coordinates":[2.239459,48.909694],"type":"Point"},"properties":{"osm_id":"2722224417","tag":{"amenity":"waste_basket"}},"type":"Feature"},
	{"geometry":{"coordinates":[2.239442,48.909696],"type":"Point"},"properties":{"osm_id":"2722224419","tag":{"amenity":"waste_basket"}},"type":"Feature"},
	{"geometry":{"coordinates":[2.268602,48.905648],"type":"Point"},"properties":{"osm_id":"2780559843","tag":{"amenity":"waste_basket","level":"0"}},"type":"Feature"},
	{"geometry":{"coordinates":[2.269096,48.905683],"type":"Point"},"properties":{"osm_id":"2780559903","tag":{"amenity":"waste_basket","level":"0"}},"type":"Feature"},
	{"geometry":{"coordinates":[2.268499,48.905734],"type":"Point"},"properties":{"osm_id":"2780559952","tag":{"amenity":"waste_basket","level":"0"}},"type":"Feature"},
	{"geometry":{"coordinates":[2.268829,48.905747],"type":"Point"},"properties":{"osm_id":"2780559969","tag":{"amenity":"waste_basket","level":"0"}},"type":"Feature"},
	{"geometry":{"coordinates":[2.269719,48.90577],"type":"Point"},"properties":{"osm_id":"2780559987","tag":{"amenity":"waste_basket","level":"0"}},"type":"Feature"},
	{"geometry":{"coordinates":[2.269166,48.905774],"type":"Point"},"properties":{"osm_id":"2780559988","tag":{"amenity":"waste_basket","level":"0"}},"type":"Feature"},
	{"geometry":{"coordinates":[2.269683,48.905847],"type":"Point"},"properties":{"osm_id":"2780560012","tag":{"amenity":"waste_basket","level":"0"}},"type":"Feature"},
	{"geometry":{"coordinates":[2.270104,48.905849],"type":"Point"},"properties":{"osm_id":"2780560013","tag":{"amenity":"waste_basket","level":"0"}},"type":"Feature"},
	{"geometry":{"coordinates":[2.270163,48.905933],"type":"Point"},"properties":{"osm_id":"2780560023","tag":{"amenity":"waste_basket","level":"0"}},"type":"Feature"},
	{"geometry":{"coordinates":[2.26858,48.90566],"type":"Point"},"properties":{"osm_id":"2780593835","tag":{"amenity":"waste_basket","level":"-1"}},"type":"Feature"},
	{"geometry":{"coordinates":[2.268513,48.905767],"type":"Point"},"properties":{"osm_id":"2780593838","tag":{"amenity":"waste_basket","level":"-1"}},"type":"Feature"},
	{"geometry":{"coordinates":[2.268586,48.905898],"type":"Point"},"properties":{"osm_id":"2780593858","tag":{"amenity":"waste_basket","level":"0"}},"type":"Feature"},
	{"geometry":{"coordinates":[2.267489,48.904871],"type":"Point"},"properties":{"osm_id":"2792312769","tag":{"amenity":"waste_basket","level":"0"}},"type":"Feature"},
	{"geometry":{"coordinates":[2.267765,48.905055],"type":"Point"},"properties":{"osm_id":"2792312771","tag":{"amenity":"waste_basket","level":"0"}},"type":"Feature"},
	{"geometry":{"coordinates":[2.26804,48.905089],"type":"Point"},"properties":{"osm_id":"2792312777","tag":{"amenity":"waste_basket","level":"0"}},"type":"Feature"},
	{"geometry":{"coordinates":[2.26795,48.905132],"type":"Point"},"properties":{"osm_id":"2792312780","tag":{"amenity":"waste_basket","level":"0"}},"type":"Feature"},
	{"geometry":{"coordinates":[2.268398,48.905181],"type":"Point"},"properties":{"osm_id":"2792312785","tag":{"amenity":"waste_basket","level":"0"}},"type":"Feature"},
	{"geometry":{"coordinates":[2.268641,48.905263],"type":"Point"},"properties":{"osm_id":"2792312792","tag":{"amenity":"waste_basket","level":"0"}},"type":"Feature"},
	{"geometry":{"coordinates":[2.26914,48.905412],"type":"Point"},"properties":{"osm_id":"2792312807","tag":{"amenity":"waste_basket","level":"0"}},"type":"Feature"},
	{"geometry":{"coordinates":[2.268819,48.905415],"type":"Point"},"properties":{"osm_id":"2792312808","tag":{"amenity":"waste_basket","level":"0"}},"type":"Feature"},
	{"geometry":{"coordinates":[2.269124,48.905495],"type":"Point"},"properties":{"osm_id":"2792312814","tag":{"amenity":"waste_basket","level":"0"}},"type":"Feature"},
	{"geometry":{"coordinates":[2.258045,48.913668],"type":"Point"},"properties":{"osm_id":"2793498796","tag":{"amenity":"waste_basket"}},"type":"Feature"},
	{"geometry":{"coordinates":[2.258122,48.913596],"type":"Point"},"properties":{"osm_id":"2793505527","tag":{"amenity":"waste_basket"}},"type":"Feature"},
	{"geometry":{"coordinates":[2.257387,48.913581],"type":"Point"},"properties":{"osm_id":"2793505541","tag":{"amenity":"waste_basket"}},"type":"Feature"},
	{"geometry":{"coordinates":[2.258079,48.913634],"type":"Point"},"properties":{"osm_id":"2793527279","tag":{"amenity":"waste_basket"}},"type":"Feature"},
	{"geometry":{"coordinates":[2.257318,48.913692],"type":"Point"},"properties":{"osm_id":"2793527327","tag":{"amenity":"waste_basket"}},"type":"Feature"},
	{"geometry":{"coordinates":[2.236746,48.892063],"type":"Point"},"properties":{"osm_id":"2813296236","tag":{"amenity":"waste_basket","level":"-1"}},"type":"Feature"},
	{"geometry":{"coordinates":[2.236708,48.892074],"type":"Point"},"properties":{"osm_id":"2813296238","tag":{"amenity":"waste_basket","level":"-1"}},"type":"Feature"},
	{"geometry":{"coordinates":[2.236595,48.892115],"type":"Point"},"properties":{"osm_id":"2813296242","tag":{"amenity":"waste_basket","capacity":"3","level":"-1"}},"type":"Feature"},
	{"geometry":{"coordinates":[2.236847,48.892233],"type":"Point"},"properties":{"osm_id":"2813296251","tag":{"amenity":"waste_basket","level":"-1"}},"type":"Feature"},
	{"geometry":{"coordinates":[2.236923,48.89232],"type":"Point"},"properties":{"osm_id":"2813296256","tag":{"amenity":"waste_basket","level":"-1"}},"type":"Feature"},
	{"geometry":{"coordinates":[2.236908,48.892325],"type":"Point"},"properties":{"osm_id":"2813296257","tag":{"amenity":"waste_basket","level":"-1"}},"type":"Feature"},
	{"geometry":{"coordinates":[2.236876,48.892417],"type":"Point"},"properties":{"osm_id":"2813296266","tag":{"amenity":"waste_basket","level":"-1"}},"type":"Feature"},
	{"geometry":{"coordinates":[2.236843,48.892432],"type":"Point"},"properties":{"osm_id":"2813296270","tag":{"amenity":"waste_basket","level":"-1"}},"type":"Feature"},
	{"geometry":{"coordinates":[2.237043,48.892492],"type":"Point"},"properties":{"osm_id":"2813296275","tag":{"amenity":"waste_basket","level":"-1"}},"type":"Feature"},
	{"geometry":{"coordinates":[2.236949,48.892512],"type":"Point"},"properties":{"osm_id":"2813296278","tag":{"amenity":"waste_basket","level":"-1"}},"type":"Feature"},
	{"geometry":{"coordinates":[2.236916,48.892524],"type":"Point"},"properties":{"osm_id":"2813296279","tag":{"amenity":"waste_basket","level":"-1"}},"type":"Feature"},
	{"geometry":{"coordinates":[2.237023,48.89255],"type":"Point"},"properties":{"osm_id":"2813296281","tag":{"amenity":"waste_basket","capacity":"4","level":"-1"}},"type":"Feature"},
	{"geometry":{"coordinates":[2.237138,48.892595],"type":"Point"},"properties":{"osm_id":"2813296288","tag":{"amenity":"waste_basket","level":"-1"}},"type":"Feature"},
	{"geometry":{"coordinates":[2.237118,48.892603],"type":"Point"},"properties":{"osm_id":"2813296292","tag":{"amenity":"waste_basket","level":"-1"}},"type":"Feature"},
	{"geometry":{"coordinates":[2.237028,48.892612],"type":"Point"},"properties":{"osm_id":"2813296293","tag":{"amenity":"waste_basket","level":"-1"}},"type":"Feature"},
	{"geometry":{"coordinates":[2.236995,48.892625],"type":"Point"},"properties":{"osm_id":"2813296297","tag":{"amenity":"waste_basket","level":"-1"}},"type":"Feature"},
	{"geometry":{"coordinates":[2.237286,48.89274],"type":"Point"},"properties":{"osm_id":"2813297708","tag":{"amenity":"waste_basket","level":"-1"}},"type":"Feature"},
	{"geometry":{"coordinates":[2.237137,48.892751],"type":"Point"},"properties":{"osm_id":"2813297709","tag":{"amenity":"waste_basket","level":"-1"}},"type":"Feature"},
	{"geometry":{"coordinates":[2.237319,48.892783],"type":"Point"},"properties":{"osm_id":"2813297715","tag":{"amenity":"waste_basket","level":"-1"}},"type":"Feature"},
	{"geometry":{"coordinates":[2.237224,48.892821],"type":"Point"},"properties":{"osm_id":"2813297722","tag":{"amenity":"waste_basket","level":"-1"}},"type":"Feature"},
	{"geometry":{"coordinates":[2.237452,48.892882],"type":"Point"},"properties":{"osm_id":"2813297736","tag":{"amenity":"waste_basket","level":"-1"}},"type":"Feature"},
	{"geometry":{"coordinates":[2.237383,48.892951],"type":"Point"},"properties":{"osm_id":"2813297743","tag":{"amenity":"waste_basket","level":"-1"}},"type":"Feature"},
	{"geometry":{"coordinates":[2.237655,48.89303],"type":"Point"},"properties":{"osm_id":"2813297747","tag":{"amenity":"waste_basket","level":"-1"}},"type":"Feature"},
	{"geometry":{"coordinates":[2.237628,48.89305],"type":"Point"},"properties":{"osm_id":"2813297752","tag":{"amenity":"waste_basket","level":"-1"}},"type":"Feature"},
	{"geometry":{"coordinates":[2.237564,48.893067],"type":"Point"},"properties":{"osm_id":"2813297757","tag":{"amenity":"waste_basket","level":"-1"}},"type":"Feature"},
	{"geometry":{"coordinates":[2.23754,48.893084],"type":"Point"},"properties":{"osm_id":"2813297763","tag":{"amenity":"waste_basket","level":"-1"}},"type":"Feature"},
	{"geometry":{"coordinates":[2.237887,48.893228],"type":"Point"},"properties":{"osm_id":"2813297771","tag":{"amenity":"waste_basket","level":"-1"}},"type":"Feature"},
	{"geometry":{"coordinates":[2.237857,48.893245],"type":"Point"},"properties":{"osm_id":"2813297772","tag":{"amenity":"waste_basket","level":"-1"}},"type":"Feature"},
	{"geometry":{"coordinates":[2.237821,48.893316],"type":"Point"},"properties":{"osm_id":"2813297776","tag":{"amenity":"waste_basket","level":"-1"}},"type":"Feature"},
	{"geometry":{"coordinates":[2.238113,48.893432],"type":"Point"},"properties":{"osm_id":"2813297785","tag":{"amenity":"waste_basket","level":"-1"}},"type":"Feature"},
	{"geometry":{"coordinates":[2.238098,48.893443],"type":"Point"},"properties":{"osm_id":"2813297787","tag":{"amenity":"waste_basket","level":"-1"}},"type":"Feature"},
	{"geometry":{"coordinates":[2.238123,48.893539],"type":"Point"},"properties":{"osm_id":"2813297799","tag":{"amenity":"waste_basket","level":"-1"}},"type":"Feature"},
	{"geometry":{"coordinates":[2.2381,48.893553],"type":"Point"},"properties":{"osm_id":"2813297800","tag":{"amenity":"waste_basket","level":"-1"}},"type":"Feature"},
	{"geometry":{"coordinates":[2.238307,48.893609],"type":"Point"},"properties":{"osm_id":"2813297910","tag":{"amenity":"waste_basket","level":"-1"}},"type":"Feature"},
	{"geometry":{"coordinates":[2.238219,48.893651],"type":"Point"},"properties":{"osm_id":"2813297919","tag":{"amenity":"waste_basket","level":"-1"}},"type":"Feature"},
	{"geometry":{"coordinates":[2.283117,48.905564],"type":"Point"},"properties":{"osm_id":"2813379928","tag":{"amenity":"waste_basket","level":"1"}},"type":"Feature"},
	{"geometry":{"coordinates":[2.283001,48.905591],"type":"Point"},"properties":{"osm_id":"2813379937","tag":{"amenity":"waste_basket","level":"1"}},"type":"Feature"},
	{"geometry":{"coordinates":[2.282893,48.905632],"type":"Point"},"properties":{"osm_id":"2813379939","tag":{"amenity":"waste_basket","level":"1"}},"type":"Feature"},
	{"geometry":{"coordinates":[2.282795,48.905689],"type":"Point"},"properties":{"osm_id":"2813379948","tag":{"amenity":"waste_basket","level":"1"}},"type":"Feature"},
	{"geometry":{"coordinates":[2.283175,48.905689],"type":"Point"},"properties":{"osm_id":"2813379949","tag":{"amenity":"waste_basket","level":"1"}},"type":"Feature"},
	{"geometry":{"coordinates":[2.283116,48.905701],"type":"Point"},"properties":{"osm_id":"2813379953","tag":{"amenity":"waste_basket"}},"type":"Feature"},
	{"geometry":{"coordinates":[2.283774,48.905712],"type":"Point"},"properties":{"osm_id":"2813379957","tag":{"amenity":"waste_basket","level":"1"}},"type":"Feature"},
	{"geometry":{"coordinates":[2.282992,48.905744],"type":"Point"},"properties":{"osm_id":"2813379972","tag":{"amenity":"waste_basket","level":"1"}},"type":"Feature"},
	{"geometry":{"coordinates":[2.283349,48.905744],"type":"Point"},"properties":{"osm_id":"2813379973","tag":{"amenity":"waste_basket","level":"1"}},"type":"Feature"},
	{"geometry":{"coordinates":[2.283209,48.905777],"type":"Point"},"properties":{"osm_id":"2813379982","tag":{"amenity":"waste_basket"}},"type":"Feature"},
	{"geometry":{"coordinates":[2.283652,48.905782],"type":"Point"},"properties":{"osm_id":"2813379983","tag":{"amenity":"waste_basket","level":"1"}},"type":"Feature"},
	{"geometry":{"coordinates":[2.282547,48.905787],"type":"Point"},"properties":{"osm_id":"2813379984","tag":{"amenity":"waste_basket","level":"1"}},"type":"Feature"},
	{"geometry":{"coordinates":[2.283242,48.905838],"type":"Point"},"properties":{"osm_id":"2813379996","tag":{"amenity":"waste_basket"}},"type":"Feature"},
	{"geometry":{"coordinates":[2.282716,48.905839],"type":"Point"},"properties":{"osm_id":"2813379997","tag":{"amenity":"waste_basket","level":"1"}},"type":"Feature"},
	{"geometry":{"coordinates":[2.28298,48.905931],"type":"Point"},"properties":{"osm_id":"2813390418","tag":{"amenity":"waste_basket","level":"1"}},"type":"Feature"},
	{"geometry":{"coordinates":[2.283735,48.905933],"type":"Point"},"properties":{"osm_id":"2813390419","tag":{"amenity":"waste_basket","level":"1"}},"type":"Feature"},
	{"geometry":{"coordinates":[2.283435,48.905934],"type":"Point"},"properties":{"osm_id":"2813390420","tag":{"amenity":"waste_basket"}},"type":"Feature"},
	{"geometry":{"coordinates":[2.282704,48.905974],"type":"Point"},"properties":{"osm_id":"2813390430","tag":{"amenity":"waste_basket","level":"1"}},"type":"Feature"},
	{"geometry":{"coordinates":[2.283644,48.905994],"type":"Point"},"properties":{"osm_id":"2813390432","tag":{"amenity":"waste_basket","level":"1"}},"type":"Feature"},
	{"geometry":{"coordinates":[2.282226,48.906016],"type":"Point"},"properties":{"osm_id":"2813390439","tag":{"amenity":"waste_basket","level":"1"}},"type":"Feature"},
	{"geometry":{"coordinates":[2.283586,48.906041],"type":"Point"},"properties":{"osm_id":"2813390444","tag":{"amenity":"waste_basket"}},"type":"Feature"},
	{"geometry":{"coordinates":[2.282088,48.906067],"type":"Point"},"properties":{"osm_id":"2813390451","tag":{"amenity":"waste_basket","level":"1"}},"type":"Feature"},
	{"geometry":{"coordinates":[2.283173,48.906074],"type":"Point"},"properties":{"osm_id":"2813390452","tag":{"amenity":"waste_basket","level":"1"}},"type":"Feature"},
	{"geometry":{"coordinates":[2.283748,48.906137],"type":"Point"},"properties":{"osm_id":"2813390472","tag":{"amenity":"waste_basket"}},"type":"Feature"},
	{"geometry":{"coordinates":[2.2838,48.906142],"type":"Point"},"properties":{"osm_id":"2813390473","tag":{"amenity":"waste_basket"}},"type":"Feature"},
	{"geometry":{"coordinates":[2.283294,48.906204],"type":"Point"},"properties":{"osm_id":"2813390481","tag":{"amenity":"waste_basket","level":"1"}},"type":"Feature"},
	{"geometry":{"coordinates":[2.283034,48.906359],"type":"Point"},"properties":{"osm_id":"2813390499","tag":{"amenity":"waste_basket","level":"1"}},"type":"Feature"},
	{"geometry":{"coordinates":[2.283031,48.90636],"type":"Point"},"properties":{"osm_id":"2813390500","tag":{"amenity":"waste_basket","level":"1"}},"type":"Feature"},
	{"geometry":{"coordinates":[2.272471,48.913518],"type":"Point"},"properties":{"osm_id":"2813733092","tag":{"amenity":"waste_basket","level":"0"}},"type":"Feature"},
	{"geometry":{"coordinates":[2.272272,48.913642],"type":"Point"},"properties":{"osm_id":"2813733610","tag":{"amenity":"waste_basket","level":"-1"}},"type":"Feature"},
	{"geometry":{"coordinates":[2.272401,48.913698],"type":"Point"},"properties":{"osm_id":"2813733612","tag":{"amenity":"waste_basket","level":"-1"}},"type":"Feature"},
	{"geometry":{"coordinates":[2.272095,48.913793],"type":"Point"},"properties":{"osm_id":"2813733620","tag":{"amenity":"waste_basket","level":"-1"}},"type":"Feature"},
	{"geometry":{"coordinates":[2.272255,48.913799],"type":"Point"},"properties":{"osm_id":"2813733621","tag":{"amenity":"waste_basket","level":"-1"}},"type":"Feature"},
	{"geometry":{"coordinates":[2.272044,48.913837],"type":"Point"},"properties":{"osm_id":"2813733630","tag":{"amenity":"waste_basket","level":"-1"}},"type":"Feature"},
	{"geometry":{"coordinates":[2.272156,48.91388],"type":"Point"},"properties":{"osm_id":"2813733641","tag":{"amenity":"waste_basket","level":"-1"}},"type":"Feature"},
	{"geometry":{"coordinates":[2.272101,48.913919],"type":"Point"},"properties":{"osm_id":"2813733646","tag":{"amenity":"waste_basket","level":"-1"}},"type":"Feature"},
	{"geometry":{"coordinates":[2.271902,48.913947],"type":"Point"},"properties":{"osm_id":"2813733649","tag":{"amenity":"waste_basket","check_date":"2021-05-29","level":"-1"}},"type":"Feature"},
	{"geometry":{"coordinates":[2.271997,48.914002],"type":"Point"},"properties":{"osm_id":"2813733653","tag":{"amenity":"waste_basket","level":"-1"}},"type":"Feature"},
	{"geometry":{"coordinates":[2.271903,48.914082],"type":"Point"},"properties":{"osm_id":"2813733661","tag":{"amenity":"waste_basket","level":"-1"}},"type":"Feature"},
	{"geometry":{"coordinates":[2.271675,48.914114],"type":"Point"},"properties":{"osm_id":"2813733666","tag":{"amenity":"waste_basket","check_date":"2021-05-29","level":"-1"}},"type":"Feature"},
	{"geometry":{"coordinates":[2.271785,48.914178],"type":"Point"},"properties":{"osm_id":"2813733671","tag":{"amenity":"waste_basket","check_date":"2021-05-29","level":"-1"}},"type":"Feature"},
	{"geometry":{"coordinates":[2.271499,48.914245],"type":"Point"},"properties":{"osm_id":"2813733677","tag":{"amenity":"waste_basket","check_date":"2021-05-29","level":"-1"}},"type":"Feature"},
	{"geometry":{"coordinates":[2.271422,48.914295],"type":"Point"},"properties":{"osm_id":"2813733678","tag":{"amenity":"waste_basket","check_date":"2021-05-29","level":"-1"}},"type":"Feature"},
	{"geometry":{"coordinates":[2.271013,48.914592],"type":"Point"},"properties":{"osm_id":"2813733694","tag":{"amenity":"waste_basket","check_date":"2021-05-29","level":"-1"}},"type":"Feature"},
	{"geometry":{"coordinates":[2.271106,48.914656],"type":"Point"},"properties":{"osm_id":"2813733699","tag":{"amenity":"waste_basket","check_date":"2021-05-29","level":"-1"}},"type":"Feature"},
	{"geometry":{"coordinates":[2.270651,48.914917],"type":"Point"},"properties":{"osm_id":"2813733719","tag":{"amenity":"waste_basket","check_date":"2021-04-29","level":"+1"}},"type":"Feature"},
	{"geometry":{"coordinates":[2.23395,48.881704],"type":"Point"},"properties":{"osm_id":"2818180636","tag":{"amenity":"recycling","recycling:cans":"no","recycling:clothes":"no","recycling:glass_bottles":"yes","recycling:paper":"no","recycling_type":"container"}},"type":"Feature"},
	{"geometry":{"coordinates":[2.232758,48.884184],"type":"Point"},"properties":{"osm_id":"2835823460","tag":{"amenity":"recycling","recycling:cans":"no","recycling:clothes":"no","recycling:glass_bottles":"yes","recycling:paper":"no","recycling_type":"container"}},"type":"Feature"},
	{"geometry":{"coordinates":[2.257938,48.913399],"type":"Point"},"properties":{"osm_id":"2835885373","tag":{"amenity":"waste_basket"}},"type":"Feature"},
	{"geometry":{"coordinates":[2.257848,48.913414],"type":"Point"},"properties":{"osm_id":"2835885375","tag":{"amenity":"waste_basket"}},"type":"Feature"},
	{"geometry":{"coordinates":[2.258186,48.913441],"type":"Point"},"properties":{"osm_id":"2835885379","tag":{"amenity":"waste_basket"}},"type":"Feature"},
	{"geometry":{"coordinates":[2.25784,48.913487],"type":"Point"},"properties":{"osm_id":"2835885382","tag":{"amenity":"waste_basket"}},"type":"Feature"},
	{"geometry":{"coordinates":[2.257593,48.913566],"type":"Point"},"properties":{"osm_id":"2835885388","tag":{"amenity":"waste_basket"}},"type":"Feature"},
	{"geometry":{"coordinates":[2.256446,48.91363],"type":"Point"},"properties":{"osm_id":"2835885392","tag":{"amenity":"waste_basket"}},"type":"Feature"},
	{"geometry":{"coordinates":[2.257711,48.913702],"type":"Point"},"properties":{"osm_id":"2835885394","tag":{"amenity":"waste_basket"}},"type":"Feature"},
	{"geometry":{"coordinates":[2.239321,48.909701],"type":"Point"},"properties":{"osm_id":"2849462223","tag":{"amenity":"waste_basket","check_date":"2021-03-01"}},"type":"Feature"},
	{"geometry":{"coordinates":[2.238284,48.909369],"type":"Point"},"properties":{"osm_id":"2849462313","tag":{"amenity":"waste_basket"}},"type":"Feature"},
	{"geometry":{"coordinates":[2.21223,48.900978],"type":"Point"},"properties":{"osm_id":"2874967318","tag":{"amenity":"waste_basket","layer":"-1","level":"-1","survey:date":"2017-07-26"}},"type":"Feature"},
	{"geometry":{"coordinates":[2.214076,48.901323],"type":"Point"},"properties":{"osm_id":"2874967365","tag":{"amenity":"waste_basket","layer":"-1","level":"-1"}},"type":"Feature"},
	{"geometry":{"coordinates":[2.214065,48.901422],"type":"Point"},"properties":{"osm_id":"2874967378","tag":{"amenity":"waste_basket","layer":"-1","level":"-1"}},"type":"Feature"},
	{"geometry":{"coordinates":[2.21448,48.901444],"type":"Point"},"properties":{"osm_id":"2874967388","tag":{"amenity":"waste_basket","layer":"-1","level":"-1"}},"type":"Feature"},
	{"geometry":{"coordinates":[2.214313,48.901489],"type":"Point"},"properties":{"osm_id":"2874967406","tag":{"amenity":"waste_basket","layer":"-1","level":"-1"}},"type":"Feature"},
	{"geometry":{"coordinates":[2.21465,48.901494],"type":"Point"},"properties":{"osm_id":"2874967408","tag":{"amenity":"waste_basket","layer":"-1","level":"-1"}},"type":"Feature"},
	{"geometry":{"coordinates":[2.214453,48.90153],"type":"Point"},"properties":{"osm_id":"2874967424","tag":{"amenity":"waste_basket","layer":"-1","level":"-1"}},"type":"Feature"},
	{"geometry":{"coordinates":[2.214768,48.90153],"type":"Point"},"properties":{"osm_id":"2874967425","tag":{"amenity":"waste_basket","layer":"-1","level":"-1"}},"type":"Feature"},
	{"geometry":{"coordinates":[2.214714,48.901598],"type":"Point"},"properties":{"osm_id":"2874967443","tag":{"amenity":"waste_basket","layer":"-1","level":"-1"}},"type":"Feature"},
	{"geometry":{"coordinates":[2.208518,48.886617],"type":"Point"},"properties":{"osm_id":"2920360546","tag":{"amenity":"waste_basket"}},"type":"Feature"},
	{"geometry":{"coordinates":[2.197606,48.894643],"type":"Point"},"properties":{"osm_id":"2930263716","tag":{"amenity":"waste_basket"}},"type":"Feature"},
	{"geometry":{"coordinates":[2.197715,48.896792],"type":"Point"},"properties":{"osm_id":"2930263717","tag":{"amenity":"waste_basket","check_date":"2021-06-20"}},"type":"Feature"},
	{"geometry":{"coordinates":[2.206746,48.886523],"type":"Point"},"properties":{"osm_id":"2957176079","tag":{"amenity":"waste_basket"}},"type":"Feature"},
	{"geometry":{"coordinates":[2.206552,48.886551],"type":"Point"},"properties":{"osm_id":"2957176080","tag":{"amenity":"waste_basket"}},"type":"Feature"},
	{"geometry":{"coordinates":[2.206319,48.886553],"type":"Point"},"properties":{"osm_id":"2957176081","tag":{"amenity":"recycling","recycling:glass_bottles":"yes","recycling_type":"container"}},"type":"Feature"},
	{"geometry":{"coordinates":[2.203599,48.886703],"type":"Point"},"properties":{"osm_id":"2957176085","tag":{"amenity":"waste_basket"}},"type":"Feature"},
	{"geometry":{"coordinates":[2.203745,48.88711],"type":"Point"},"properties":{"osm_id":"2957178883","tag":{"amenity":"waste_basket"}},"type":"Feature"},
	{"geometry":{"coordinates":[2.204557,48.889613],"type":"Point"},"properties":{"osm_id":"2958477531","tag":{"amenity":"recycling","recycling:glass_bottles":"yes","recycling_type":"container"}},"type":"Feature"},
	{"geometry":{"coordinates":[2.225592,48.890717],"type":"Point"},"properties":{"osm_id":"2958485680","tag":{"amenity":"waste_basket"}},"type":"Feature"},
	{"geometry":{"coordinates":[2.222577,48.890862],"type":"Point"},"properties":{"osm_id":"2958485693","tag":{"amenity":"waste_basket"}},"type":"Feature"},
	{"geometry":{"coordinates":[2.20716,48.89115],"type":"Point"},"properties":{"osm_id":"2958485712","tag":{"amenity":"waste_basket"}},"type":"Feature"},
	{"geometry":{"coordinates":[2.222638,48.891553],"type":"Point"},"properties":{"osm_id":"2958485724","tag":{"amenity":"waste_basket"}},"type":"Feature"},
	{"geometry":{"coordinates":[2.220839,48.891661],"type":"Point"},"properties":{"osm_id":"2958485729","tag":{"amenity":"waste_basket","check_date":"2021-06-23"}},"type":"Feature"},
	{"geometry":{"coordinates":[2.213568,48.886197],"type":"Point"},"properties":{"osm_id":"2958486185","tag":{"amenity":"waste_basket"}},"type":"Feature"},
	{"geometry":{"coordinates":[2.209769,48.88626],"type":"Point"},"properties":{"osm_id":"2958486190","tag":{"amenity":"recycling","recycling:clothes":"yes","recycling_type":"container"}},"type":"Feature"},
	{"geometry":{"coordinates":[2.206791,48.886729],"type":"Point"},"properties":{"osm_id":"2958486467","tag":{"amenity":"waste_basket"}},"type":"Feature"},
	{"geometry":{"coordinates":[2.221589,48.892027],"type":"Point"},"properties":{"osm_id":"2958486512","tag":{"amenity":"waste_basket","check_date":"2021-08-09"}},"type":"Feature"},
	{"geometry":{"coordinates":[2.228791,48.890074],"type":"Point"},"properties":{"osm_id":"2958486855","tag":{"amenity":"waste_basket"}},"type":"Feature"},
	{"geometry":{"coordinates":[2.228964,48.890202],"type":"Point"},"properties":{"osm_id":"2958486863","tag":{"amenity":"waste_basket"}},"type":"Feature"},
	{"geometry":{"coordinates":[2.227881,48.89049],"type":"Point"},"properties":{"osm_id":"2958486890","tag":{"amenity":"waste_basket"}},"type":"Feature"},
	{"geometry":{"coordinates":[2.227943,48.890552],"type":"Point"},"properties":{"osm_id":"2958486896","tag":{"amenity":"waste_basket"}},"type":"Feature"},
	{"geometry":{"coordinates":[2.222321,48.891775],"type":"Point"},"properties":{"osm_id":"2958487248","tag":{"amenity":"waste_basket","check_date":"2021-08-09"}},"type":"Feature"},
	{"geometry":{"coordinates":[2.221109,48.89183],"type":"Point"},"properties":{"osm_id":"2958487261","tag":{"amenity":"waste_basket"}},"type":"Feature"},
	{"geometry":{"coordinates":[2.22127,48.891879],"type":"Point"},"properties":{"osm_id":"2958487270","tag":{"amenity":"waste_basket"}},"type":"Feature"},
	{"geometry":{"coordinates":[2.219623,48.892815],"type":"Point"},"properties":{"osm_id":"2958487282","tag":{"amenity":"waste_basket"}},"type":"Feature"},
	{"geometry":{"coordinates":[2.221685,48.892318],"type":"Point"},"properties":{"osm_id":"2958487652","tag":{"amenity":"waste_basket","check_date":"2021-06-23"}},"type":"Feature"},
	{"geometry":{"coordinates":[2.221548,48.89272],"type":"Point"},"properties":{"osm_id":"2958487696","tag":{"amenity":"waste_basket","check_date":"2021-08-09"}},"type":"Feature"},
	{"geometry":{"coordinates":[2.220878,48.893038],"type":"Point"},"properties":{"osm_id":"2958488219","tag":{"amenity":"waste_basket","check_date":"2021-06-23"}},"type":"Feature"},
	{"geometry":{"coordinates":[2.218388,48.893423],"type":"Point"},"properties":{"osm_id":"2958488570","tag":{"amenity":"waste_basket","check_date":"2021-08-09"}},"type":"Feature"},
	{"geometry":{"coordinates":[2.218932,48.893502],"type":"Point"},"properties":{"osm_id":"2958488577","tag":{"amenity":"waste_basket"}},"type":"Feature"},
	{"geometry":{"coordinates":[2.215634,48.895543],"type":"Point"},"properties":{"osm_id":"2958488742","tag":{"amenity":"waste_basket"}},"type":"Feature"},
	{"geometry":{"coordinates":[2.208834,48.904339],"type":"Point"},"properties":{"osm_id":"2964499241","tag":{"amenity":"recycling","recycling:glass_bottles":"yes","recycling_type":"container"}},"type":"Feature"},
	{"geometry":{"coordinates":[2.221387,48.868016],"type":"Point"},"properties":{"osm_id":"2967190613","tag":{"amenity":"waste_basket"}},"type":"Feature"},
	{"geometry":{"coordinates":[2.221353,48.867797],"type":"Point"},"properties":{"osm_id":"2967190614","tag":{"amenity":"waste_basket","check_date":"2021-06-13"}},"type":"Feature"},
	{"geometry":{"coordinates":[2.198013,48.887693],"type":"Point"},"properties":{"osm_id":"2970725493","tag":{"amenity":"waste_basket"}},"type":"Feature"},
	{"geometry":{"coordinates":[2.223403,48.865198],"type":"Point"},"properties":{"osm_id":"2984948792","tag":{"amenity":"waste_basket"}},"type":"Feature"},
	{"geometry":{"coordinates":[2.223442,48.865234],"type":"Point"},"properties":{"osm_id":"2984948793","tag":{"amenity":"waste_basket"}},"type":"Feature"},
	{"geometry":{"coordinates":[2.224106,48.86576],"type":"Point"},"properties":{"osm_id":"2984948797","tag":{"amenity":"waste_basket","check_date":"2021-04-26"}},"type":"Feature"},
	{"geometry":{"coordinates":[2.223957,48.86583],"type":"Point"},"properties":{"osm_id":"2984948800","tag":{"amenity":"waste_basket","check_date":"2021-04-26"}},"type":"Feature"},
	{"geometry":{"coordinates":[2.225701,48.867704],"type":"Point"},"properties":{"osm_id":"2984948802","tag":{"amenity":"waste_basket"}},"type":"Feature"},
	{"geometry":{"coordinates":[2.224236,48.868542],"type":"Point"},"properties":{"osm_id":"2984948812","tag":{"amenity":"recycling","location":"underground","recycling:glass_bottles":"yes","recycling_type":"container"}},"type":"Feature"},
	{"geometry":{"coordinates":[2.224179,48.869111],"type":"Point"},"properties":{"osm_id":"2984948813","tag":{"amenity":"waste_basket","check_date":"2021-06-13"}},"type":"Feature"},
	{"geometry":{"coordinates":[2.217336,48.869802],"type":"Point"},"properties":{"osm_id":"2992071457","tag":{"amenity":"waste_basket"}},"type":"Feature"},
	{"geometry":{"coordinates":[2.231266,48.8902],"type":"Point"},"properties":{"osm_id":"3020202363","tag":{"amenity":"waste_basket"}},"type":"Feature"},
	{"geometry":{"coordinates":[2.214629,48.898572],"type":"Point"},"properties":{"osm_id":"3020208092","tag":{"amenity":"recycling","recycling:glass_bottles":"yes","recycling_type":"container"}},"type":"Feature"},
	{"geometry":{"coordinates":[2.214091,48.898774],"type":"Point"},"properties":{"osm_id":"3020208100","tag":{"amenity":"waste_basket"}},"type":"Feature"},
	{"geometry":{"coordinates":[2.213442,48.898881],"type":"Point"},"properties":{"osm_id":"3020208102","tag":{"amenity":"waste_basket"}},"type":"Feature"},
	{"geometry":{"coordinates":[2.213535,48.898972],"type":"Point"},"properties":{"osm_id":"3020208104","tag":{"amenity":"waste_basket"}},"type":"Feature"},
	{"geometry":{"coordinates":[2.210228,48.899181],"type":"Point"},"properties":{"osm_id":"3020208110","tag":{"amenity":"waste_basket"}},"type":"Feature"},
	{"geometry":{"coordinates":[2.21017,48.899278],"type":"Point"},"properties":{"osm_id":"3020208115","tag":{"amenity":"waste_basket"}},"type":"Feature"},
	{"geometry":{"coordinates":[2.20859,48.899327],"type":"Point"},"properties":{"osm_id":"3020208118","tag":{"amenity":"waste_basket"}},"type":"Feature"},
	{"geometry":{"coordinates":[2.209407,48.899376],"type":"Point"},"properties":{"osm_id":"3020208121","tag":{"amenity":"waste_basket"}},"type":"Feature"},
	{"geometry":{"coordinates":[2.208858,48.899431],"type":"Point"},"properties":{"osm_id":"3020208125","tag":{"amenity":"recycling","recycling:clothes":"yes","recycling_type":"container"}},"type":"Feature"},
	{"geometry":{"coordinates":[2.210861,48.89952],"type":"Point"},"properties":{"osm_id":"3020208127","tag":{"amenity":"waste_basket"}},"type":"Feature"},
	{"geometry":{"coordinates":[2.208315,48.90193],"type":"Point"},"properties":{"osm_id":"3020221833","tag":{"amenity":"waste_basket"}},"type":"Feature"},
	{"geometry":{"coordinates":[2.225434,48.895335],"type":"Point"},"properties":{"osm_id":"3024650213","tag":{"amenity":"waste_basket","check_date":"2021-06-23"}},"type":"Feature"},
	{"geometry":{"coordinates":[2.225505,48.89544],"type":"Point"},"properties":{"osm_id":"3024650217","tag":{"amenity":"waste_basket","check_date":"2021-06-23"}},"type":"Feature"},
	{"geometry":{"coordinates":[2.226636,48.895577],"type":"Point"},"properties":{"osm_id":"3024650221","tag":{"amenity":"waste_basket"}},"type":"Feature"},
	{"geometry":{"coordinates":[2.221379,48.867896],"type":"Point"},"properties":{"osm_id":"3037674335","tag":{"amenity":"recycling","check_date:recycling":"2021-09-18","location":"overground","recycling:clothes":"yes","recycling_type":"container"}},"type":"Feature"},
	{"geometry":{"coordinates":[2.22351,48.869729],"type":"Point"},"properties":{"osm_id":"3037687383","tag":{"amenity":"recycling","location":"underground","recycling:glass_bottles":"yes","recycling_type":"container"}},"type":"Feature"},
	{"geometry":{"coordinates":[2.219926,48.898128],"type":"Point"},"properties":{"osm_id":"3046539883","tag":{"amenity":"waste_basket"}},"type":"Feature"},
	{"geometry":{"coordinates":[2.219238,48.898409],"type":"Point"},"properties":{"osm_id":"3046539892","tag":{"amenity":"waste_basket"}},"type":"Feature"},
	{"geometry":{"coordinates":[2.219055,48.89868],"type":"Point"},"properties":{"osm_id":"3046539915","tag":{"amenity":"waste_basket"}},"type":"Feature"},
	{"geometry":{"coordinates":[2.215606,48.901135],"type":"Point"},"properties":{"osm_id":"3046540455","tag":{"amenity":"waste_basket"}},"type":"Feature"},
	{"geometry":{"coordinates":[2.222391,48.896292],"type":"Point"},"properties":{"osm_id":"3046564828","tag":{"amenity":"waste_basket"}},"type":"Feature"},
	{"geometry":{"coordinates":[2.222469,48.896403],"type":"Point"},"properties":{"osm_id":"3046564830","tag":{"amenity":"waste_basket"}},"type":"Feature"},
	{"geometry":{"coordinates":[2.213716,48.864723],"type":"Point"},"properties":{"osm_id":"3052569938","tag":{"amenity":"recycling","location":"overground","operator":"\u00c3\u00a9co textile","recycling:clothes":"yes","recycling:shoes":"yes","recycling_type":"container"}},"type":"Feature"},
	{"geometry":{"coordinates":[2.215675,48.866108],"type":"Point"},"properties":{"osm_id":"3052569942","tag":{"amenity":"waste_basket","check_date":"2021-06-13"}},"type":"Feature"},
	{"geometry":{"coordinates":[2.217158,48.867532],"type":"Point"},"properties":{"osm_id":"3052569949","tag":{"amenity":"recycling","recycling:clothes":"yes","recycling_type":"container"}},"type":"Feature"},
	{"geometry":{"coordinates":[2.217613,48.868287],"type":"Point"},"properties":{"osm_id":"3052569950","tag":{"amenity":"recycling","check_date:recycling":"2021-05-15","recycling:glass_bottles":"yes","recycling_type":"container"}},"type":"Feature"},
	{"geometry":{"coordinates":[2.211152,48.87067],"type":"Point"},"properties":{"osm_id":"3052569957","tag":{"amenity":"waste_basket","check_date":"2020-12-26"}},"type":"Feature"},
	{"geometry":{"coordinates":[2.198325,48.886462],"type":"Point"},"properties":{"osm_id":"3073227247","tag":{"amenity":"waste_basket"}},"type":"Feature"},
	{"geometry":{"coordinates":[2.205257,48.893159],"type":"Point"},"properties":{"osm_id":"3129416589","tag":{"amenity":"waste_basket"}},"type":"Feature"},
	{"geometry":{"coordinates":[2.206122,48.89354],"type":"Point"},"properties":{"osm_id":"3129416594","tag":{"amenity":"waste_basket"}},"type":"Feature"},
	{"geometry":{"coordinates":[2.206942,48.89381],"type":"Point"},"properties":{"osm_id":"3129416597","tag":{"amenity":"waste_basket"}},"type":"Feature"},
	{"geometry":{"coordinates":[2.20949,48.894594],"type":"Point"},"properties":{"osm_id":"3129416614","tag":{"amenity":"waste_basket"}},"type":"Feature"},
	{"geometry":{"coordinates":[2.202543,48.89473],"type":"Point"},"properties":{"osm_id":"3129416616","tag":{"amenity":"waste_basket"}},"type":"Feature"},
	{"geometry":{"coordinates":[2.203228,48.895373],"type":"Point"},"properties":{"osm_id":"3129416624","tag":{"amenity":"waste_basket"}},"type":"Feature"},
	{"geometry":{"coordinates":[2.203862,48.895886],"type":"Point"},"properties":{"osm_id":"3129417332","tag":{"amenity":"waste_basket"}},"type":"Feature"},
	{"geometry":{"coordinates":[2.207977,48.895927],"type":"Point"},"properties":{"osm_id":"3129417334","tag":{"amenity":"waste_basket"}},"type":"Feature"},
	{"geometry":{"coordinates":[2.204145,48.896119],"type":"Point"},"properties":{"osm_id":"3129417339","tag":{"amenity":"recycling","recycling:clothes":"yes","recycling_type":"container"}},"type":"Feature"},
	{"geometry":{"coordinates":[2.208331,48.896309],"type":"Point"},"properties":{"osm_id":"3129417340","tag":{"amenity":"waste_basket"}},"type":"Feature"},
	{"geometry":{"coordinates":[2.207301,48.896677],"type":"Point"},"properties":{"osm_id":"3129417345","tag":{"amenity":"waste_basket"}},"type":"Feature"},
	{"geometry":{"coordinates":[2.208094,48.897087],"type":"Point"},"properties":{"osm_id":"3129417356","tag":{"amenity":"waste_basket"}},"type":"Feature"},
	{"geometry":{"coordinates":[2.206297,48.897522],"type":"Point"},"properties":{"osm_id":"3129417369","tag":{"amenity":"waste_basket"}},"type":"Feature"},
	{"geometry":{"coordinates":[2.209551,48.894492],"type":"Point"},"properties":{"osm_id":"3140384298","tag":{"amenity":"waste_basket"}},"type":"Feature"},
	{"geometry":{"coordinates":[2.209626,48.894556],"type":"Point"},"properties":{"osm_id":"3140384302","tag":{"amenity":"waste_basket"}},"type":"Feature"},
	{"geometry":{"coordinates":[2.199438,48.885219],"type":"Point"},"properties":{"osm_id":"3145972328","tag":{"amenity":"recycling","recycling:glass_bottles":"yes","recycling_type":"container"}},"type":"Feature"},
	{"geometry":{"coordinates":[2.200991,48.887073],"type":"Point"},"properties":{"osm_id":"3145978941","tag":{"amenity":"waste_basket"}},"type":"Feature"},
	{"geometry":{"coordinates":[2.201545,48.887917],"type":"Point"},"properties":{"osm_id":"3145978945","tag":{"amenity":"waste_basket"}},"type":"Feature"},
	{"geometry":{"coordinates":[2.20163,48.887978],"type":"Point"},"properties":{"osm_id":"3145978946","tag":{"amenity":"waste_basket"}},"type":"Feature"},
	{"geometry":{"coordinates":[2.201644,48.887989],"type":"Point"},"properties":{"osm_id":"3145978947","tag":{"amenity":"waste_basket"}},"type":"Feature"},
	{"geometry":{"coordinates":[2.201731,48.888032],"type":"Point"},"properties":{"osm_id":"3145978948","tag":{"amenity":"waste_basket"}},"type":"Feature"},
	{"geometry":{"coordinates":[2.201743,48.888039],"type":"Point"},"properties":{"osm_id":"3145978949","tag":{"amenity":"waste_basket"}},"type":"Feature"},
	{"geometry":{"coordinates":[2.201803,48.888079],"type":"Point"},"properties":{"osm_id":"3145978950","tag":{"amenity":"waste_basket"}},"type":"Feature"},
	{"geometry":{"coordinates":[2.201867,48.88821],"type":"Point"},"properties":{"osm_id":"3145978951","tag":{"amenity":"waste_basket"}},"type":"Feature"},
	{"geometry":{"coordinates":[2.20156,48.888452],"type":"Point"},"properties":{"osm_id":"3145978955","tag":{"amenity":"waste_basket"}},"type":"Feature"},
	{"geometry":{"coordinates":[2.200662,48.889077],"type":"Point"},"properties":{"osm_id":"3145978958","tag":{"amenity":"waste_basket"}},"type":"Feature"},
	{"geometry":{"coordinates":[2.19955,48.88957],"type":"Point"},"properties":{"osm_id":"3145978959","tag":{"amenity":"waste_basket"}},"type":"Feature"},
	{"geometry":{"coordinates":[2.201921,48.89063],"type":"Point"},"properties":{"osm_id":"3159885788","tag":{"amenity":"waste_disposal"}},"type":"Feature"},
	{"geometry":{"coordinates":[2.204264,48.891421],"type":"Point"},"properties":{"osm_id":"3159885823","tag":{"amenity":"waste_basket"}},"type":"Feature"},
	{"geometry":{"coordinates":[2.198372,48.892752],"type":"Point"},"properties":{"osm_id":"3159885852","tag":{"amenity":"waste_disposal"}},"type":"Feature"},
	{"geometry":{"coordinates":[2.198479,48.892824],"type":"Point"},"properties":{"osm_id":"3159885854","tag":{"amenity":"waste_basket"}},"type":"Feature"},
	{"geometry":{"coordinates":[2.207661,48.893883],"type":"Point"},"properties":{"osm_id":"3159886062","tag":{"amenity":"waste_disposal"}},"type":"Feature"},
	{"geometry":{"coordinates":[2.216416,48.895826],"type":"Point"},"properties":{"osm_id":"3159886079","tag":{"amenity":"waste_disposal"}},"type":"Feature"},
	{"geometry":{"coordinates":[2.216457,48.895929],"type":"Point"},"properties":{"osm_id":"3159886084","tag":{"amenity":"waste_disposal"}},"type":"Feature"},
	{"geometry":{"coordinates":[2.218878,48.89662],"type":"Point"},"properties":{"osm_id":"3159886098","tag":{"amenity":"waste_basket"}},"type":"Feature"},
	{"geometry":{"coordinates":[2.212858,48.902404],"type":"Point"},"properties":{"osm_id":"3285572651","tag":{"amenity":"waste_basket"}},"type":"Feature"},
	{"geometry":{"coordinates":[2.21401,48.902693],"type":"Point"},"properties":{"osm_id":"3285572652","tag":{"amenity":"waste_basket"}},"type":"Feature"},
	{"geometry":{"coordinates":[2.212894,48.902742],"type":"Point"},"properties":{"osm_id":"3285572653","tag":{"amenity":"waste_basket"}},"type":"Feature"},
	{"geometry":{"coordinates":[2.213779,48.90282],"type":"Point"},"properties":{"osm_id":"3285572654","tag":{"amenity":"waste_basket"}},"type":"Feature"},
	{"geometry":{"coordinates":[2.214377,48.902882],"type":"Point"},"properties":{"osm_id":"3285572655","tag":{"amenity":"waste_basket"}},"type":"Feature"},
	{"geometry":{"coordinates":[2.213689,48.902987],"type":"Point"},"properties":{"osm_id":"3285572656","tag":{"amenity":"waste_basket"}},"type":"Feature"},
	{"geometry":{"coordinates":[2.21349,48.90299],"type":"Point"},"properties":{"osm_id":"3285572657","tag":{"amenity":"waste_basket"}},"type":"Feature"},
	{"geometry":{"coordinates":[2.21462,48.90301],"type":"Point"},"properties":{"osm_id":"3285572658","tag":{"amenity":"waste_basket"}},"type":"Feature"},
	{"geometry":{"coordinates":[2.21326,48.903317],"type":"Point"},"properties":{"osm_id":"3285572659","tag":{"amenity":"waste_basket"}},"type":"Feature"},
	{"geometry":{"coordinates":[2.211976,48.903472],"type":"Point"},"properties":{"osm_id":"3285572660","tag":{"amenity":"waste_basket"}},"type":"Feature"},
	{"geometry":{"coordinates":[2.212472,48.902046],"type":"Point"},"properties":{"osm_id":"3285573750","tag":{"amenity":"waste_basket"}},"type":"Feature"},
	{"geometry":{"coordinates":[2.212761,48.902349],"type":"Point"},"properties":{"osm_id":"3285573754","tag":{"amenity":"waste_basket"}},"type":"Feature"},
	{"geometry":{"coordinates":[2.212918,48.902368],"type":"Point"},"properties":{"osm_id":"3285573755","tag":{"amenity":"waste_basket"}},"type":"Feature"},
	{"geometry":{"coordinates":[2.212532,48.903802],"type":"Point"},"properties":{"osm_id":"3285576162","tag":{"amenity":"waste_basket"}},"type":"Feature"},
	{"geometry":{"coordinates":[2.213803,48.902785],"type":"Point"},"properties":{"osm_id":"3285577464","tag":{"amenity":"waste_basket"}},"type":"Feature"},
	{"geometry":{"coordinates":[2.23349,48.872277],"type":"Point"},"properties":{"osm_id":"3375726522","tag":{"amenity":"waste_basket"}},"type":"Feature"},
	{"geometry":{"coordinates":[2.217519,48.882253],"type":"Point"},"properties":{"osm_id":"3377128511","tag":{"amenity":"waste_basket"}},"type":"Feature"},
	{"geometry":{"coordinates":[2.211316,48.885423],"type":"Point"},"properties":{"osm_id":"3377128577","tag":{"amenity":"waste_basket"}},"type":"Feature"},
	{"geometry":{"coordinates":[2.197497,48.891211],"type":"Point"},"properties":{"osm_id":"3443373155","tag":{"amenity":"waste_basket"}},"type":"Feature"},
	{"geometry":{"coordinates":[2.197481,48.891532],"type":"Point"},"properties":{"osm_id":"3443373160","tag":{"amenity":"waste_basket"}},"type":"Feature"},
	{"geometry":{"coordinates":[2.197649,48.891706],"type":"Point"},"properties":{"osm_id":"3443373173","tag":{"amenity":"waste_basket"}},"type":"Feature"},
	{"geometry":{"coordinates":[2.197484,48.891841],"type":"Point"},"properties":{"osm_id":"3443373179","tag":{"amenity":"waste_basket"}},"type":"Feature"},
	{"geometry":{"coordinates":[2.210448,48.894401],"type":"Point"},"properties":{"osm_id":"3443373183","tag":{"amenity":"waste_basket"}},"type":"Feature"},
	{"geometry":{"coordinates":[2.222474,48.895426],"type":"Point"},"properties":{"osm_id":"3443373595","tag":{"amenity":"waste_basket"}},"type":"Feature"},
	{"geometry":{"coordinates":[2.219671,48.89598],"type":"Point"},"properties":{"osm_id":"3443373605","tag":{"amenity":"waste_basket"}},"type":"Feature"},
	{"geometry":{"coordinates":[2.218281,48.896424],"type":"Point"},"properties":{"osm_id":"3443373610","tag":{"amenity":"waste_basket"}},"type":"Feature"},
	{"geometry":{"coordinates":[2.200856,48.867657],"type":"Point"},"properties":{"osm_id":"3493098096","tag":{"amenity":"waste_basket"}},"type":"Feature"},
	{"geometry":{"coordinates":[2.201363,48.867814],"type":"Point"},"properties":{"osm_id":"3493098097","tag":{"amenity":"waste_basket"}},"type":"Feature"},
	{"geometry":{"coordinates":[2.203216,48.870794],"type":"Point"},"properties":{"osm_id":"3493098098","tag":{"amenity":"waste_basket","check_date":"2021-09-18"}},"type":"Feature"},
	{"geometry":{"coordinates":[2.203416,48.870548],"type":"Point"},"properties":{"osm_id":"3493098100","tag":{"amenity":"waste_basket"}},"type":"Feature"},
	{"geometry":{"coordinates":[2.237186,48.87568],"type":"Point"},"properties":{"osm_id":"3505927873","tag":{"amenity":"recycling","recycling:glass_bottles":"yes","recycling_type":"container"}},"type":"Feature"},
	{"geometry":{"coordinates":[2.23785,48.89696],"type":"Point"},"properties":{"osm_id":"3508363285","tag":{"amenity":"recycling","recycling:blade":"designed","recycling:syringe":"designed","recycling_type":"container"}},"type":"Feature"},
	{"geometry":{"coordinates":[2.279576,48.89447],"type":"Point"},"properties":{"osm_id":"3509531957","tag":{"amenity":"waste_basket","check_date":"2021-01-05"}},"type":"Feature"},
	{"geometry":{"coordinates":[2.280807,48.894978],"type":"Point"},"properties":{"osm_id":"3509531960","tag":{"amenity":"waste_basket","check_date":"2021-01-05"}},"type":"Feature"},
	{"geometry":{"coordinates":[2.284935,48.887655],"type":"Point"},"properties":{"osm_id":"3516726810","tag":{"amenity":"waste_basket"}},"type":"Feature"},
	{"geometry":{"coordinates":[2.278585,48.887612],"type":"Point"},"properties":{"osm_id":"3532312723","tag":{"amenity":"waste_basket","check_date":"2021-05-27"}},"type":"Feature"},
	{"geometry":{"coordinates":[2.276186,48.88944],"type":"Point"},"properties":{"osm_id":"3597702640","tag":{"amenity":"waste_basket","check_date":"2021-01-28"}},"type":"Feature"},
	{"geometry":{"coordinates":[2.200893,48.891353],"type":"Point"},"properties":{"osm_id":"3612667909","tag":{"amenity":"recycling","recycling:clothes":"yes","recycling_type":"container"}},"type":"Feature"},
	{"geometry":{"coordinates":[2.198536,48.907052],"type":"Point"},"properties":{"osm_id":"3612668418","tag":{"amenity":"waste_basket","check_date":"2021-03-25"}},"type":"Feature"},
	{"geometry":{"coordinates":[2.200044,48.90772],"type":"Point"},"properties":{"osm_id":"3612668426","tag":{"amenity":"waste_basket","check_date":"2021-06-26"}},"type":"Feature"},
	{"geometry":{"coordinates":[2.20078,48.908066],"type":"Point"},"properties":{"osm_id":"3612668429","tag":{"amenity":"waste_basket"}},"type":"Feature"},
	{"geometry":{"coordinates":[2.20203,48.908384],"type":"Point"},"properties":{"osm_id":"3612668432","tag":{"amenity":"waste_basket"}},"type":"Feature"},
	{"geometry":{"coordinates":[2.202435,48.908412],"type":"Point"},"properties":{"osm_id":"3612668433","tag":{"amenity":"waste_basket"}},"type":"Feature"},
	{"geometry":{"coordinates":[2.198911,48.899143],"type":"Point"},"properties":{"osm_id":"3623700168","tag":{"amenity":"waste_basket"}},"type":"Feature"},
	{"geometry":{"coordinates":[2.198814,48.899219],"type":"Point"},"properties":{"osm_id":"3623700169","tag":{"amenity":"waste_basket"}},"type":"Feature"},
	{"geometry":{"coordinates":[2.198915,48.899332],"type":"Point"},"properties":{"osm_id":"3623700173","tag":{"amenity":"waste_basket"}},"type":"Feature"},
	{"geometry":{"coordinates":[2.199449,48.899766],"type":"Point"},"properties":{"osm_id":"3623700177","tag":{"amenity":"waste_basket"}},"type":"Feature"},
	{"geometry":{"coordinates":[2.199741,48.899812],"type":"Point"},"properties":{"osm_id":"3623700178","tag":{"amenity":"waste_basket"}},"type":"Feature"},
	{"geometry":{"coordinates":[2.199728,48.899969],"type":"Point"},"properties":{"osm_id":"3623700181","tag":{"amenity":"waste_basket"}},"type":"Feature"},
	{"geometry":{"coordinates":[2.199473,48.900012],"type":"Point"},"properties":{"osm_id":"3623700186","tag":{"amenity":"waste_basket"}},"type":"Feature"},
	{"geometry":{"coordinates":[2.198365,48.900333],"type":"Point"},"properties":{"osm_id":"3623760607","tag":{"amenity":"waste_basket"}},"type":"Feature"},
	{"geometry":{"coordinates":[2.198535,48.900543],"type":"Point"},"properties":{"osm_id":"3623760613","tag":{"amenity":"waste_basket"}},"type":"Feature"},
	{"geometry":{"coordinates":[2.197818,48.900731],"type":"Point"},"properties":{"osm_id":"3623760615","tag":{"amenity":"waste_basket"}},"type":"Feature"},
	{"geometry":{"coordinates":[2.199069,48.900805],"type":"Point"},"properties":{"osm_id":"3623760619","tag":{"amenity":"recycling","location":"underground","recycling:glass_bottles":"yes","recycling_type":"container"}},"type":"Feature"},
	{"geometry":{"coordinates":[2.199087,48.900818],"type":"Point"},"properties":{"osm_id":"3623760621","tag":{"amenity":"waste_basket","check_date":"2021-07-19"}},"type":"Feature"},
	{"geometry":{"coordinates":[2.232964,48.886758],"type":"Point"},"properties":{"osm_id":"3643120025","tag":{"amenity":"recycling","recycling:cans":"no","recycling:clothes":"no","recycling:glass":"no","recycling:paper":"yes","recycling_type":"container"}},"type":"Feature"},
	{"geometry":{"coordinates":[2.224008,48.895755],"type":"Point"},"properties":{"osm_id":"3647581831","tag":{"amenity":"waste_basket"}},"type":"Feature"},
	{"geometry":{"coordinates":[2.22368,48.895848],"type":"Point"},"properties":{"osm_id":"3647581837","tag":{"amenity":"waste_basket"}},"type":"Feature"},
	{"geometry":{"coordinates":[2.223235,48.896024],"type":"Point"},"properties":{"osm_id":"3647581841","tag":{"amenity":"waste_basket"}},"type":"Feature"},
	{"geometry":{"coordinates":[2.223116,48.89603],"type":"Point"},"properties":{"osm_id":"3647581842","tag":{"amenity":"waste_basket"}},"type":"Feature"},
	{"geometry":{"coordinates":[2.222737,48.896147],"type":"Point"},"properties":{"osm_id":"3647581849","tag":{"amenity":"waste_basket"}},"type":"Feature"},
	{"geometry":{"coordinates":[2.223456,48.896245],"type":"Point"},"properties":{"osm_id":"3647581850","tag":{"amenity":"waste_basket"}},"type":"Feature"},
	{"geometry":{"coordinates":[2.220434,48.896962],"type":"Point"},"properties":{"osm_id":"3647581865","tag":{"amenity":"waste_basket"}},"type":"Feature"},
	{"geometry":{"coordinates":[2.25303,48.905706],"type":"Point"},"properties":{"osm_id":"3647795163","tag":{"amenity":"waste_basket"}},"type":"Feature"},
	{"geometry":{"coordinates":[2.223553,48.867965],"type":"Point"},"properties":{"osm_id":"3650347289","tag":{"amenity":"waste_basket"}},"type":"Feature"},
	{"geometry":{"coordinates":[2.223598,48.867962],"type":"Point"},"properties":{"osm_id":"3650363786","tag":{"amenity":"recycling","recycling:glass_bottles":"yes","recycling_type":"container"}},"type":"Feature"},
	{"geometry":{"coordinates":[2.240105,48.880045],"type":"Point"},"properties":{"osm_id":"3658463842","tag":{"amenity":"waste_basket"}},"type":"Feature"},
	{"geometry":{"coordinates":[2.269672,48.900385],"type":"Point"},"properties":{"osm_id":"3663032078","tag":{"amenity":"waste_basket","check_date":"2021-01-10"}},"type":"Feature"},
	{"geometry":{"coordinates":[2.27026,48.899858],"type":"Point"},"properties":{"osm_id":"3665816240","tag":{"amenity":"waste_basket","check_date":"2021-01-11"}},"type":"Feature"},
	{"geometry":{"coordinates":[2.269411,48.90536],"type":"Point"},"properties":{"osm_id":"3689889349","tag":{"amenity":"recycling","recycling:clothes":"yes"}},"type":"Feature"},
	{"geometry":{"coordinates":[2.213759,48.889421],"type":"Point"},"properties":{"osm_id":"3697420775","tag":{"amenity":"waste_basket"}},"type":"Feature"},
	{"geometry":{"coordinates":[2.214075,48.889764],"type":"Point"},"properties":{"osm_id":"3697420778","tag":{"amenity":"waste_basket"}},"type":"Feature"},
	{"geometry":{"coordinates":[2.202626,48.898539],"type":"Point"},"properties":{"osm_id":"3703619408","tag":{"amenity":"waste_basket"}},"type":"Feature"},
	{"geometry":{"coordinates":[2.201427,48.898694],"type":"Point"},"properties":{"osm_id":"3703619417","tag":{"amenity":"recycling","check_date:recycling":"2021-07-19","recycling:clothes":"yes","recycling_type":"container"}},"type":"Feature"},
	{"geometry":{"coordinates":[2.203085,48.898757],"type":"Point"},"properties":{"osm_id":"3703619422","tag":{"amenity":"waste_basket"}},"type":"Feature"},
	{"geometry":{"coordinates":[2.201292,48.898757],"type":"Point"},"properties":{"osm_id":"3703619423","tag":{"amenity":"waste_basket"}},"type":"Feature"},
	{"geometry":{"coordinates":[2.201844,48.899055],"type":"Point"},"properties":{"osm_id":"3703619642","tag":{"amenity":"waste_basket"}},"type":"Feature"},
	{"geometry":{"coordinates":[2.201685,48.899173],"type":"Point"},"properties":{"osm_id":"3703619660","tag":{"amenity":"waste_basket"}},"type":"Feature"},
	{"geometry":{"coordinates":[2.201884,48.899192],"type":"Point"},"properties":{"osm_id":"3703619663","tag":{"amenity":"recycling","recycling:glass_bottles":"yes","recycling_type":"container"}},"type":"Feature"},
	{"geometry":{"coordinates":[2.199845,48.900477],"type":"Point"},"properties":{"osm_id":"3703619748","tag":{"amenity":"waste_basket"}},"type":"Feature"},
	{"geometry":{"coordinates":[2.242588,48.9083],"type":"Point"},"properties":{"osm_id":"3721256039","tag":{"amenity":"waste_basket"}},"type":"Feature"},
	{"geometry":{"coordinates":[2.202735,48.886853],"type":"Point"},"properties":{"osm_id":"3742777470","tag":{"amenity":"waste_basket"}},"type":"Feature"},
	{"geometry":{"coordinates":[2.201873,48.886896],"type":"Point"},"properties":{"osm_id":"3742777471","tag":{"amenity":"waste_basket"}},"type":"Feature"},
	{"geometry":{"coordinates":[2.199727,48.886971],"type":"Point"},"properties":{"osm_id":"3742777475","tag":{"amenity":"waste_basket"}},"type":"Feature"},
	{"geometry":{"coordinates":[2.199709,48.887077],"type":"Point"},"properties":{"osm_id":"3742777482","tag":{"amenity":"waste_basket"}},"type":"Feature"},
	{"geometry":{"coordinates":[2.218792,48.869126],"type":"Point"},"properties":{"osm_id":"3780572734","tag":{"amenity":"waste_basket"}},"type":"Feature"},
	{"geometry":{"coordinates":[2.215585,48.905262],"type":"Point"},"properties":{"osm_id":"3799173398","tag":{"amenity":"waste_basket"}},"type":"Feature"},
	{"geometry":{"coordinates":[2.215558,48.905301],"type":"Point"},"properties":{"osm_id":"3799173400","tag":{"amenity":"waste_basket"}},"type":"Feature"},
	{"geometry":{"coordinates":[2.214959,48.905365],"type":"Point"},"properties":{"osm_id":"3799173404","tag":{"amenity":"waste_basket"}},"type":"Feature"},
	{"geometry":{"coordinates":[2.230991,48.87735],"type":"Point"},"properties":{"osm_id":"3880104861","tag":{"amenity":"recycling","recycling:glass_bottles":"yes","recycling_type":"container"}},"type":"Feature"},
	{"geometry":{"coordinates":[2.22981,48.878076],"type":"Point"},"properties":{"osm_id":"3885267442","tag":{"amenity":"waste_basket"}},"type":"Feature"},
	{"geometry":{"coordinates":[2.231266,48.879721],"type":"Point"},"properties":{"osm_id":"3885269168","tag":{"amenity":"waste_basket","check_date":"2021-06-05"}},"type":"Feature"},
	{"geometry":{"coordinates":[2.231075,48.879983],"type":"Point"},"properties":{"osm_id":"3885269170","tag":{"amenity":"waste_basket","check_date":"2021-05-23"}},"type":"Feature"},
	{"geometry":{"coordinates":[2.234828,48.877996],"type":"Point"},"properties":{"osm_id":"3897232590","tag":{"amenity":"waste_basket"}},"type":"Feature"},
	{"geometry":{"coordinates":[2.234926,48.878069],"type":"Point"},"properties":{"osm_id":"3897232604","tag":{"amenity":"waste_basket"}},"type":"Feature"},
	{"geometry":{"coordinates":[2.235872,48.873859],"type":"Point"},"properties":{"osm_id":"3897297022","tag":{"amenity":"waste_basket"}},"type":"Feature"},
	{"geometry":{"coordinates":[2.234955,48.874548],"type":"Point"},"properties":{"osm_id":"3897297027","tag":{"amenity":"waste_basket","check_date":"2021-04-25"}},"type":"Feature"},
	{"geometry":{"coordinates":[2.234468,48.874787],"type":"Point"},"properties":{"osm_id":"3897297032","tag":{"amenity":"waste_basket","check_date":"2021-04-25"}},"type":"Feature"},
	{"geometry":{"coordinates":[2.21929,48.898295],"type":"Point"},"properties":{"osm_id":"3900711849","tag":{"amenity":"waste_basket","check_date":"2021-02-01"}},"type":"Feature"},
	{"geometry":{"coordinates":[2.219667,48.885559],"type":"Point"},"properties":{"osm_id":"3900714895","tag":{"amenity":"recycling","check_date:recycling":"2021-05-13","recycling:glass_bottles":"yes","recycling_type":"container"}},"type":"Feature"},
	{"geometry":{"coordinates":[2.202503,48.888463],"type":"Point"},"properties":{"osm_id":"3900714915","tag":{"amenity":"waste_basket"}},"type":"Feature"},
	{"geometry":{"coordinates":[2.21112,48.900917],"type":"Point"},"properties":{"osm_id":"3900715126","tag":{"amenity":"waste_basket"}},"type":"Feature"},
	{"geometry":{"coordinates":[2.211361,48.900921],"type":"Point"},"properties":{"osm_id":"3900715128","tag":{"amenity":"waste_basket"}},"type":"Feature"},
	{"geometry":{"coordinates":[2.211117,48.900937],"type":"Point"},"properties":{"osm_id":"3900715131","tag":{"amenity":"waste_basket"}},"type":"Feature"},
	{"geometry":{"coordinates":[2.217564,48.901249],"type":"Point"},"properties":{"osm_id":"3900715147","tag":{"amenity":"waste_basket"}},"type":"Feature"},
	{"geometry":{"coordinates":[2.213245,48.901072],"type":"Point"},"properties":{"osm_id":"3922313102","tag":{"amenity":"waste_basket","level":"0"}},"type":"Feature"},
	{"geometry":{"coordinates":[2.213733,48.901084],"type":"Point"},"properties":{"osm_id":"3922313117","tag":{"amenity":"waste_basket","level":"0"}},"type":"Feature"},
	{"geometry":{"coordinates":[2.213655,48.901172],"type":"Point"},"properties":{"osm_id":"3922313152","tag":{"amenity":"waste_basket","level":"0"}},"type":"Feature"},
	{"geometry":{"coordinates":[2.213164,48.901179],"type":"Point"},"properties":{"osm_id":"3922313158","tag":{"amenity":"waste_basket","layer":"0","level":"0"}},"type":"Feature"},
	{"geometry":{"coordinates":[2.213579,48.901273],"type":"Point"},"properties":{"osm_id":"3922313192","tag":{"amenity":"waste_basket","level":"0"}},"type":"Feature"},
	{"geometry":{"coordinates":[2.227909,48.874788],"type":"Point"},"properties":{"osm_id":"3934696320","tag":{"amenity":"waste_basket"}},"type":"Feature"},
	{"geometry":{"coordinates":[2.22802,48.87492],"type":"Point"},"properties":{"osm_id":"3934696321","tag":{"amenity":"waste_basket"}},"type":"Feature"},
	{"geometry":{"coordinates":[2.228245,48.875183],"type":"Point"},"properties":{"osm_id":"3942076108","tag":{"amenity":"waste_basket"}},"type":"Feature"},
	{"geometry":{"coordinates":[2.228513,48.875451],"type":"Point"},"properties":{"osm_id":"3942076110","tag":{"amenity":"waste_basket"}},"type":"Feature"},
	{"geometry":{"coordinates":[2.228671,48.875613],"type":"Point"},"properties":{"osm_id":"3942076113","tag":{"amenity":"waste_basket"}},"type":"Feature"},
	{"geometry":{"coordinates":[2.229709,48.876907],"type":"Point"},"properties":{"osm_id":"3942076130","tag":{"amenity":"recycling","check_date:recycling":"2021-06-05","recycling:glass_bottles":"yes","recycling_type":"container"}},"type":"Feature"},
	{"geometry":{"coordinates":[2.22521,48.894559],"type":"Point"},"properties":{"osm_id":"4062669072","tag":{"amenity":"waste_basket","check_date":"2021-06-23"}},"type":"Feature"},
	{"geometry":{"coordinates":[2.22397,48.895108],"type":"Point"},"properties":{"osm_id":"4062669085","tag":{"amenity":"waste_basket","check_date":"2021-06-23"}},"type":"Feature"},
	{"geometry":{"coordinates":[2.22204,48.895114],"type":"Point"},"properties":{"osm_id":"4062669086","tag":{"amenity":"waste_basket"}},"type":"Feature"},
	{"geometry":{"coordinates":[2.223457,48.89512],"type":"Point"},"properties":{"osm_id":"4062669087","tag":{"amenity":"waste_basket"}},"type":"Feature"},
	{"geometry":{"coordinates":[2.209201,48.899366],"type":"Point"},"properties":{"osm_id":"4062669551","tag":{"amenity":"waste_basket"}},"type":"Feature"},
	{"geometry":{"coordinates":[2.221554,48.895263],"type":"Point"},"properties":{"osm_id":"4062669692","tag":{"amenity":"recycling","recycling:glass_bottles":"yes","recycling_type":"container"}},"type":"Feature"},
	{"geometry":{"coordinates":[2.220898,48.895466],"type":"Point"},"properties":{"osm_id":"4062669697","tag":{"amenity":"waste_basket"}},"type":"Feature"},
	{"geometry":{"coordinates":[2.207215,48.902394],"type":"Point"},"properties":{"osm_id":"4062669813","tag":{"amenity":"waste_basket"}},"type":"Feature"},
	{"geometry":{"coordinates":[2.207199,48.902407],"type":"Point"},"properties":{"osm_id":"4062669814","tag":{"amenity":"recycling","recycling_type":"container"}},"type":"Feature"},
	{"geometry":{"coordinates":[2.207187,48.902414],"type":"Point"},"properties":{"osm_id":"4062669815","tag":{"amenity":"recycling","recycling_type":"container"}},"type":"Feature"},
	{"geometry":{"coordinates":[2.207034,48.902513],"type":"Point"},"properties":{"osm_id":"4062669817","tag":{"amenity":"recycling","recycling:glass_bottles":"yes","recycling_type":"container"}},"type":"Feature"},
	{"geometry":{"coordinates":[2.197484,48.869857],"type":"Point"},"properties":{"osm_id":"4072369094","tag":{"amenity":"waste_basket"}},"type":"Feature"},
	{"geometry":{"coordinates":[2.233057,48.87177],"type":"Point"},"properties":{"osm_id":"4108488633","tag":{"amenity":"waste_basket"}},"type":"Feature"},
	{"geometry":{"coordinates":[2.222718,48.87219],"type":"Point"},"properties":{"osm_id":"4147607079","tag":{"amenity":"recycling","check_date":"2021-06-05","recycling:glass":"no","recycling:glass_bottles":"yes","recycling_type":"container"}},"type":"Feature"},
	{"geometry":{"coordinates":[2.222743,48.872199],"type":"Point"},"properties":{"osm_id":"4147607081","tag":{"amenity":"waste_basket","check_date":"2021-06-05"}},"type":"Feature"},
	{"geometry":{"coordinates":[2.251002,48.888278],"type":"Point"},"properties":{"osm_id":"4149719997","tag":{"amenity":"waste_basket","layer":"3"}},"type":"Feature"},
	{"geometry":{"coordinates":[2.251589,48.888201],"type":"Point"},"properties":{"osm_id":"4149734895","tag":{"amenity":"waste_basket","layer":"3","level":"-1"}},"type":"Feature"},
	{"geometry":{"coordinates":[2.230775,48.869664],"type":"Point"},"properties":{"osm_id":"4159390438","tag":{"amenity":"waste_basket"}},"type":"Feature"},
	{"geometry":{"coordinates":[2.231132,48.869976],"type":"Point"},"properties":{"osm_id":"4159390442","tag":{"amenity":"waste_basket"}},"type":"Feature"},
	{"geometry":{"coordinates":[2.230138,48.870239],"type":"Point"},"properties":{"osm_id":"4159390452","tag":{"amenity":"recycling","check_date:recycling":"2021-03-14","recycling:glass_bottles":"yes","recycling_type":"container"}},"type":"Feature"},
	{"geometry":{"coordinates":[2.219736,48.889545],"type":"Point"},"properties":{"osm_id":"4167932602","tag":{"amenity":"waste_basket"}},"type":"Feature"},
	{"geometry":{"coordinates":[2.21985,48.889746],"type":"Point"},"properties":{"osm_id":"4167932609","tag":{"amenity":"waste_basket"}},"type":"Feature"},
	{"geometry":{"coordinates":[2.217013,48.890265],"type":"Point"},"properties":{"osm_id":"4167932612","tag":{"amenity":"waste_basket"}},"type":"Feature"},
	{"geometry":{"coordinates":[2.218426,48.890314],"type":"Point"},"properties":{"osm_id":"4167932616","tag":{"amenity":"recycling","recycling:glass_bottles":"yes","recycling_type":"container"}},"type":"Feature"},
	{"geometry":{"coordinates":[2.217635,48.890396],"type":"Point"},"properties":{"osm_id":"4167932620","tag":{"amenity":"waste_basket"}},"type":"Feature"},
	{"geometry":{"coordinates":[2.215889,48.890614],"type":"Point"},"properties":{"osm_id":"4167932628","tag":{"amenity":"waste_basket"}},"type":"Feature"},
	{"geometry":{"coordinates":[2.215559,48.890804],"type":"Point"},"properties":{"osm_id":"4167932637","tag":{"amenity":"waste_basket"}},"type":"Feature"},
	{"geometry":{"coordinates":[2.216027,48.890819],"type":"Point"},"properties":{"osm_id":"4167932638","tag":{"amenity":"waste_basket"}},"type":"Feature"},
	{"geometry":{"coordinates":[2.215869,48.890971],"type":"Point"},"properties":{"osm_id":"4167932640","tag":{"amenity":"recycling","operator":"Le Relais","recycling:clothes":"yes","recycling_type":"container"}},"type":"Feature"},
	{"geometry":{"coordinates":[2.199028,48.890321],"type":"Point"},"properties":{"osm_id":"4192354551","tag":{"amenity":"waste_basket"}},"type":"Feature"},
	{"geometry":{"coordinates":[2.210381,48.889514],"type":"Point"},"properties":{"osm_id":"4230197368","tag":{"amenity":"waste_basket"}},"type":"Feature"},
	{"geometry":{"coordinates":[2.219002,48.885827],"type":"Point"},"properties":{"osm_id":"4230207367","tag":{"amenity":"waste_basket"}},"type":"Feature"},
	{"geometry":{"coordinates":[2.209693,48.886783],"type":"Point"},"properties":{"osm_id":"4230208476","tag":{"amenity":"recycling","location":"underground","recycling:batteries":"no","recycling:cans":"no","recycling:clothes":"no","recycling:glass_bottles":"yes","recycling:paper":"no","recycling:scrap_metal":"no","recycling_type":"container"}},"type":"Feature"},
	{"geometry":{"coordinates":[2.210408,48.8874],"type":"Point"},"properties":{"osm_id":"4230210631","tag":{"amenity":"waste_basket"}},"type":"Feature"},
	{"geometry":{"coordinates":[2.227377,48.887524],"type":"Point"},"properties":{"osm_id":"4230210661","tag":{"amenity":"waste_basket"}},"type":"Feature"},
	{"geometry":{"coordinates":[2.221677,48.885427],"type":"Point"},"properties":{"osm_id":"4230211025","tag":{"amenity":"recycling","check_date:recycling":"2021-05-13","recycling:batteries":"no","recycling:cans":"no","recycling:clothes":"no","recycling:glass_bottles":"yes","recycling:paper":"no","recycling:scrap_metal":"no","recycling_type":"container","survey:date":"2017-09-22"}},"type":"Feature"},
	{"geometry":{"coordinates":[2.219882,48.885549],"type":"Point"},"properties":{"osm_id":"4230211043","tag":{"amenity":"waste_basket"}},"type":"Feature"},
	{"geometry":{"coordinates":[2.225433,48.886206],"type":"Point"},"properties":{"osm_id":"4230211211","tag":{"amenity":"waste_basket"}},"type":"Feature"},
	{"geometry":{"coordinates":[2.215037,48.886292],"type":"Point"},"properties":{"osm_id":"4230211224","tag":{"amenity":"waste_basket"}},"type":"Feature"},
	{"geometry":{"coordinates":[2.225305,48.886126],"type":"Point"},"properties":{"osm_id":"4230211345","tag":{"amenity":"waste_basket"}},"type":"Feature"},
	{"geometry":{"coordinates":[2.209675,48.88677],"type":"Point"},"properties":{"osm_id":"4230211404","tag":{"amenity":"waste_basket"}},"type":"Feature"},
	{"geometry":{"coordinates":[2.214576,48.886774],"type":"Point"},"properties":{"osm_id":"4230211407","tag":{"amenity":"waste_basket"}},"type":"Feature"},
	{"geometry":{"coordinates":[2.214367,48.886941],"type":"Point"},"properties":{"osm_id":"4230211510","tag":{"amenity":"waste_basket"}},"type":"Feature"},
	{"geometry":{"coordinates":[2.210063,48.886985],"type":"Point"},"properties":{"osm_id":"4230211521","tag":{"amenity":"waste_basket","start_date":"2016"}},"type":"Feature"},
	{"geometry":{"coordinates":[2.214119,48.887183],"type":"Point"},"properties":{"osm_id":"4230211558","tag":{"amenity":"waste_basket"}},"type":"Feature"},
	{"geometry":{"coordinates":[2.211102,48.887763],"type":"Point"},"properties":{"osm_id":"4230211594","tag":{"amenity":"waste_basket"}},"type":"Feature"},
	{"geometry":{"coordinates":[2.227394,48.887779],"type":"Point"},"properties":{"osm_id":"4230211600","tag":{"amenity":"waste_basket"}},"type":"Feature"},
	{"geometry":{"coordinates":[2.229775,48.889825],"type":"Point"},"properties":{"osm_id":"4230211653","tag":{"amenity":"recycling","recycling:glass_bottles":"yes","recycling_type":"container"}},"type":"Feature"},
	{"geometry":{"coordinates":[2.229796,48.88986],"type":"Point"},"properties":{"osm_id":"4230211657","tag":{"amenity":"recycling","recycling:clothes":"yes","recycling_type":"container"}},"type":"Feature"},
	{"geometry":{"coordinates":[2.203354,48.88988],"type":"Point"},"properties":{"osm_id":"4230211658","tag":{"amenity":"waste_basket"}},"type":"Feature"},
	{"geometry":{"coordinates":[2.203109,48.88992],"type":"Point"},"properties":{"osm_id":"4230211663","tag":{"amenity":"waste_basket"}},"type":"Feature"},
	{"geometry":{"coordinates":[2.203183,48.890012],"type":"Point"},"properties":{"osm_id":"4230211667","tag":{"amenity":"waste_basket"}},"type":"Feature"},
	{"geometry":{"coordinates":[2.229906,48.890041],"type":"Point"},"properties":{"osm_id":"4230211670","tag":{"amenity":"waste_basket"}},"type":"Feature"},
	{"geometry":{"coordinates":[2.213335,48.887894],"type":"Point"},"properties":{"osm_id":"4230211689","tag":{"amenity":"waste_basket"}},"type":"Feature"},
	{"geometry":{"coordinates":[2.211225,48.887983],"type":"Point"},"properties":{"osm_id":"4230211703","tag":{"amenity":"waste_basket"}},"type":"Feature"},
	{"geometry":{"coordinates":[2.211127,48.888046],"type":"Point"},"properties":{"osm_id":"4230211721","tag":{"amenity":"recycling","operator":"Le Relais","recycling:batteries":"no","recycling:cans":"no","recycling:clothes":"yes","recycling:glass":"no","recycling:paper":"no","recycling:scrap_metal":"no","recycling_type":"container"}},"type":"Feature"},
	{"geometry":{"coordinates":[2.228601,48.891222],"type":"Point"},"properties":{"osm_id":"4230212375","tag":{"amenity":"recycling","recycling:glass_bottles":"yes","recycling_type":"container"}},"type":"Feature"},
	{"geometry":{"coordinates":[2.227114,48.89421],"type":"Point"},"properties":{"osm_id":"4230212444","tag":{"amenity":"waste_basket","check_date":"2021-03-28"}},"type":"Feature"},
	{"geometry":{"coordinates":[2.204711,48.891456],"type":"Point"},"properties":{"osm_id":"4230212508","tag":{"amenity":"waste_basket"}},"type":"Feature"},
	{"geometry":{"coordinates":[2.204326,48.89152],"type":"Point"},"properties":{"osm_id":"4230212517","tag":{"amenity":"waste_basket"}},"type":"Feature"},
	{"geometry":{"coordinates":[2.204524,48.891525],"type":"Point"},"properties":{"osm_id":"4230212518","tag":{"amenity":"waste_basket"}},"type":"Feature"},
	{"geometry":{"coordinates":[2.228951,48.891725],"type":"Point"},"properties":{"osm_id":"4230212553","tag":{"amenity":"waste_basket","level":"-2"}},"type":"Feature"},
	{"geometry":{"coordinates":[2.205432,48.892342],"type":"Point"},"properties":{"osm_id":"4230212704","tag":{"amenity":"waste_basket"}},"type":"Feature"},
	{"geometry":{"coordinates":[2.205368,48.89236],"type":"Point"},"properties":{"osm_id":"4230212710","tag":{"amenity":"waste_basket"}},"type":"Feature"},
	{"geometry":{"coordinates":[2.227519,48.894868],"type":"Point"},"properties":{"osm_id":"4230213214","tag":{"amenity":"recycling","recycling:glass_bottles":"yes","recycling_type":"container"}},"type":"Feature"},
	{"geometry":{"coordinates":[2.231029,48.874486],"type":"Point"},"properties":{"osm_id":"4246163090","tag":{"amenity":"waste_basket"}},"type":"Feature"},
	{"geometry":{"coordinates":[2.220818,48.874374],"type":"Point"},"properties":{"osm_id":"4317298214","tag":{"amenity":"waste_basket"}},"type":"Feature"},
	{"geometry":{"coordinates":[2.220507,48.87433],"type":"Point"},"properties":{"osm_id":"4317298219","tag":{"amenity":"waste_basket","check_date":"2021-06-05"}},"type":"Feature"},
	{"geometry":{"coordinates":[2.220975,48.872121],"type":"Point"},"properties":{"osm_id":"4317582079","tag":{"amenity":"waste_basket"}},"type":"Feature"},
	{"geometry":{"coordinates":[2.220769,48.872317],"type":"Point"},"properties":{"osm_id":"4317582080","tag":{"amenity":"waste_basket","check_date":"2021-05-16"}},"type":"Feature"},
	{"geometry":{"coordinates":[2.233181,48.867055],"type":"Point"},"properties":{"osm_id":"4317955745","tag":{"amenity":"waste_basket"}},"type":"Feature"},
	{"geometry":{"coordinates":[2.197328,48.89541],"type":"Point"},"properties":{"osm_id":"4331130879","tag":{"amenity":"waste_basket"}},"type":"Feature"},
	{"geometry":{"coordinates":[2.197511,48.895429],"type":"Point"},"properties":{"osm_id":"4331130882","tag":{"amenity":"waste_basket"}},"type":"Feature"},
	{"geometry":{"coordinates":[2.220655,48.898008],"type":"Point"},"properties":{"osm_id":"4344785066","tag":{"amenity":"recycling","recycling:glass_bottles":"yes","recycling_type":"container"}},"type":"Feature"},
	{"geometry":{"coordinates":[2.224751,48.902942],"type":"Point"},"properties":{"osm_id":"4344786052","tag":{"amenity":"waste_basket"}},"type":"Feature"},
	{"geometry":{"coordinates":[2.22568,48.898849],"type":"Point"},"properties":{"osm_id":"4344786317","tag":{"amenity":"waste_basket"}},"type":"Feature"},
	{"geometry":{"coordinates":[2.222027,48.902729],"type":"Point"},"properties":{"osm_id":"4344786519","tag":{"amenity":"waste_basket"}},"type":"Feature"},
	{"geometry":{"coordinates":[2.226134,48.875909],"type":"Point"},"properties":{"osm_id":"4358550523","tag":{"amenity":"waste_basket"}},"type":"Feature"},
	{"geometry":{"coordinates":[2.230585,48.874476],"type":"Point"},"properties":{"osm_id":"4358554810","tag":{"amenity":"waste_basket","check_date":"2021-04-25"}},"type":"Feature"},
	{"geometry":{"coordinates":[2.225576,48.87576],"type":"Point"},"properties":{"osm_id":"4359076702","tag":{"amenity":"waste_basket"}},"type":"Feature"},
	{"geometry":{"coordinates":[2.225717,48.875707],"type":"Point"},"properties":{"osm_id":"4359087099","tag":{"amenity":"waste_basket"}},"type":"Feature"},
	{"geometry":{"coordinates":[2.236233,48.875955],"type":"Point"},"properties":{"osm_id":"4364754532","tag":{"amenity":"recycling","check_date":"2021-06-05","location":"underground","opening_hours":"24/7","recycling:glass_bottles":"yes","recycling_type":"container","wheelchair":"yes"}},"type":"Feature"},
	{"geometry":{"coordinates":[2.211534,48.904071],"type":"Point"},"properties":{"osm_id":"4379282202","tag":{"amenity":"waste_basket"}},"type":"Feature"},
	{"geometry":{"coordinates":[2.224378,48.869847],"type":"Point"},"properties":{"osm_id":"4401653950","tag":{"amenity":"waste_basket"}},"type":"Feature"},
	{"geometry":{"coordinates":[2.223956,48.910311],"type":"Point"},"properties":{"osm_id":"4406990144","tag":{"amenity":"recycling","recycling:glass_bottles":"yes","recycling_type":"container"}},"type":"Feature"},
	{"geometry":{"coordinates":[2.221856,48.910389],"type":"Point"},"properties":{"osm_id":"4406990149","tag":{"amenity":"recycling","operator":"Le Relais","recycling:clothes":"yes","recycling_type":"container"}},"type":"Feature"},
	{"geometry":{"coordinates":[2.211597,48.885171],"type":"Point"},"properties":{"osm_id":"4406990318","tag":{"amenity":"waste_basket"}},"type":"Feature"},
	{"geometry":{"coordinates":[2.211608,48.885261],"type":"Point"},"properties":{"osm_id":"4406990326","tag":{"amenity":"waste_basket"}},"type":"Feature"},
	{"geometry":{"coordinates":[2.211533,48.884997],"type":"Point"},"properties":{"osm_id":"4406991121","tag":{"amenity":"waste_basket"}},"type":"Feature"},
	{"geometry":{"coordinates":[2.205492,48.891368],"type":"Point"},"properties":{"osm_id":"4406991238","tag":{"amenity":"recycling","recycling:glass_bottles":"yes","recycling_type":"container"}},"type":"Feature"},
	{"geometry":{"coordinates":[2.218966,48.906897],"type":"Point"},"properties":{"osm_id":"4406991876","tag":{"amenity":"waste_basket"}},"type":"Feature"},
	{"geometry":{"coordinates":[2.217903,48.90792],"type":"Point"},"properties":{"osm_id":"4406991892","tag":{"amenity":"waste_basket"}},"type":"Feature"},
	{"geometry":{"coordinates":[2.21797,48.908224],"type":"Point"},"properties":{"osm_id":"4406991952","tag":{"amenity":"waste_basket"}},"type":"Feature"},
	{"geometry":{"coordinates":[2.22273,48.911609],"type":"Point"},"properties":{"osm_id":"4406992287","tag":{"amenity":"waste_basket"}},"type":"Feature"},
	{"geometry":{"coordinates":[2.224355,48.912213],"type":"Point"},"properties":{"osm_id":"4406992363","tag":{"amenity":"waste_basket"}},"type":"Feature"},
	{"geometry":{"coordinates":[2.223814,48.912226],"type":"Point"},"properties":{"osm_id":"4406992366","tag":{"amenity":"waste_basket"}},"type":"Feature"},
	{"geometry":{"coordinates":[2.224967,48.912371],"type":"Point"},"properties":{"osm_id":"4406992380","tag":{"amenity":"recycling","location":"underground","recycling:glass_bottles":"yes","recycling_type":"container"}},"type":"Feature"},
	{"geometry":{"coordinates":[2.224606,48.912397],"type":"Point"},"properties":{"osm_id":"4406992386","tag":{"amenity":"waste_basket"}},"type":"Feature"},
	{"geometry":{"coordinates":[2.221973,48.909873],"type":"Point"},"properties":{"osm_id":"4406992501","tag":{"amenity":"waste_basket"}},"type":"Feature"},
	{"geometry":{"coordinates":[2.221971,48.909911],"type":"Point"},"properties":{"osm_id":"4406992504","tag":{"amenity":"waste_basket"}},"type":"Feature"},
	{"geometry":{"coordinates":[2.227977,48.909938],"type":"Point"},"properties":{"osm_id":"4406992507","tag":{"amenity":"recycling","recycling:glass_bottles":"yes","recycling_type":"container"}},"type":"Feature"},
	{"geometry":{"coordinates":[2.220366,48.910769],"type":"Point"},"properties":{"osm_id":"4406992597","tag":{"amenity":"waste_basket"}},"type":"Feature"},
	{"geometry":{"coordinates":[2.222184,48.910864],"type":"Point"},"properties":{"osm_id":"4406992612","tag":{"amenity":"recycling","location":"underground","recycling:glass_bottles":"yes","recycling_type":"container"}},"type":"Feature"},
	{"geometry":{"coordinates":[2.220584,48.910865],"type":"Point"},"properties":{"osm_id":"4406992613","tag":{"amenity":"waste_basket"}},"type":"Feature"},
	{"geometry":{"coordinates":[2.221909,48.910898],"type":"Point"},"properties":{"osm_id":"4406992619","tag":{"amenity":"waste_basket"}},"type":"Feature"},
	{"geometry":{"coordinates":[2.223222,48.911251],"type":"Point"},"properties":{"osm_id":"4406992654","tag":{"amenity":"waste_basket"}},"type":"Feature"},
	{"geometry":{"coordinates":[2.221396,48.911296],"type":"Point"},"properties":{"osm_id":"4406992661","tag":{"amenity":"waste_basket"}},"type":"Feature"},
	{"geometry":{"coordinates":[2.222015,48.911311],"type":"Point"},"properties":{"osm_id":"4406992663","tag":{"amenity":"waste_basket"}},"type":"Feature"},
	{"geometry":{"coordinates":[2.223552,48.911319],"type":"Point"},"properties":{"osm_id":"4406992665","tag":{"amenity":"waste_basket"}},"type":"Feature"},
	{"geometry":{"coordinates":[2.222359,48.911455],"type":"Point"},"properties":{"osm_id":"4406992690","tag":{"amenity":"waste_basket"}},"type":"Feature"},
	{"geometry":{"coordinates":[2.223181,48.9118],"type":"Point"},"properties":{"osm_id":"4406992829","tag":{"amenity":"waste_basket"}},"type":"Feature"},
	{"geometry":{"coordinates":[2.222676,48.911868],"type":"Point"},"properties":{"osm_id":"4406992843","tag":{"amenity":"waste_basket"}},"type":"Feature"},
	{"geometry":{"coordinates":[2.223499,48.911931],"type":"Point"},"properties":{"osm_id":"4406992855","tag":{"amenity":"waste_basket"}},"type":"Feature"},
	{"geometry":{"coordinates":[2.223905,48.912026],"type":"Point"},"properties":{"osm_id":"4406992891","tag":{"amenity":"waste_basket"}},"type":"Feature"},
	{"geometry":{"coordinates":[2.223872,48.912087],"type":"Point"},"properties":{"osm_id":"4406992907","tag":{"amenity":"waste_basket"}},"type":"Feature"},
	{"geometry":{"coordinates":[2.224871,48.91264],"type":"Point"},"properties":{"osm_id":"4406993009","tag":{"amenity":"waste_basket"}},"type":"Feature"},
	{"geometry":{"coordinates":[2.230871,48.880117],"type":"Point"},"properties":{"osm_id":"4428578600","tag":{"amenity":"recycling","recycling:glass_bottles":"yes","recycling_type":"container"}},"type":"Feature"},
	{"geometry":{"coordinates":[2.231626,48.876138],"type":"Point"},"properties":{"osm_id":"4431716894","tag":{"amenity":"waste_basket","check_date":"2021-04-25"}},"type":"Feature"},
	{"geometry":{"coordinates":[2.221813,48.873698],"type":"Point"},"properties":{"osm_id":"4436957024","tag":{"amenity":"recycling","recycling:clothes":"yes","recycling:glass_bottles":"yes","recycling_type":"container"}},"type":"Feature"},
	{"geometry":{"coordinates":[2.232197,48.881417],"type":"Point"},"properties":{"osm_id":"4450070452","tag":{"amenity":"waste_basket","check_date":"2021-02-14"}},"type":"Feature"},
	{"geometry":{"coordinates":[2.234271,48.882211],"type":"Point"},"properties":{"osm_id":"4456757716","tag":{"amenity":"waste_basket"}},"type":"Feature"},
	{"geometry":{"coordinates":[2.236919,48.881295],"type":"Point"},"properties":{"osm_id":"4460914423","tag":{"amenity":"waste_basket"}},"type":"Feature"},
	{"geometry":{"coordinates":[2.235627,48.879957],"type":"Point"},"properties":{"osm_id":"4466916285","tag":{"amenity":"waste_basket","check_date":"2021-05-23"}},"type":"Feature"},
	{"geometry":{"coordinates":[2.237891,48.880749],"type":"Point"},"properties":{"osm_id":"4466916297","tag":{"amenity":"waste_basket","check_date":"2021-06-06"}},"type":"Feature"},
	{"geometry":{"coordinates":[2.237947,48.880801],"type":"Point"},"properties":{"osm_id":"4466916309","tag":{"amenity":"waste_basket","check_date":"2021-06-06"}},"type":"Feature"},
	{"geometry":{"coordinates":[2.237696,48.880847],"type":"Point"},"properties":{"osm_id":"4466916310","tag":{"amenity":"waste_basket","check_date":"2021-06-06"}},"type":"Feature"},
	{"geometry":{"coordinates":[2.237812,48.880881],"type":"Point"},"properties":{"osm_id":"4466916315","tag":{"amenity":"waste_basket","check_date":"2021-06-06"}},"type":"Feature"},
	{"geometry":{"coordinates":[2.238193,48.881185],"type":"Point"},"properties":{"osm_id":"4472648970","tag":{"amenity":"waste_basket"}},"type":"Feature"},
	{"geometry":{"coordinates":[2.238458,48.881273],"type":"Point"},"properties":{"osm_id":"4472648971","tag":{"amenity":"waste_basket","check_date":"2021-06-24"}},"type":"Feature"},
	{"geometry":{"coordinates":[2.238708,48.881615],"type":"Point"},"properties":{"osm_id":"4472648975","tag":{"amenity":"waste_basket"}},"type":"Feature"},
	{"geometry":{"coordinates":[2.238909,48.881784],"type":"Point"},"properties":{"osm_id":"4472648984","tag":{"amenity":"waste_basket","check_date":"2021-06-24"}},"type":"Feature"},
	{"geometry":{"coordinates":[2.240288,48.879316],"type":"Point"},"properties":{"osm_id":"4473942845","tag":{"amenity":"waste_basket"}},"type":"Feature"},
	{"geometry":{"coordinates":[2.24033,48.87959],"type":"Point"},"properties":{"osm_id":"4473942868","tag":{"amenity":"waste_basket","check_date":"2021-05-23"}},"type":"Feature"},
	{"geometry":{"coordinates":[2.239306,48.880177],"type":"Point"},"properties":{"osm_id":"4473942873","tag":{"amenity":"waste_basket","check_date":"2021-06-06"}},"type":"Feature"},
	{"geometry":{"coordinates":[2.238435,48.880461],"type":"Point"},"properties":{"osm_id":"4473942874","tag":{"amenity":"waste_basket","check_date":"2021-06-06"}},"type":"Feature"},
	{"geometry":{"coordinates":[2.238573,48.880515],"type":"Point"},"properties":{"osm_id":"4473942875","tag":{"amenity":"waste_basket","check_date":"2021-06-06"}},"type":"Feature"},
	{"geometry":{"coordinates":[2.238203,48.8807],"type":"Point"},"properties":{"osm_id":"4473942876","tag":{"amenity":"waste_basket","check_date":"2021-09-19"}},"type":"Feature"},
	{"geometry":{"coordinates":[2.248683,48.884554],"type":"Point"},"properties":{"osm_id":"4482928390","tag":{"amenity":"waste_basket","survey:date":"2018-06-13"}},"type":"Feature"},
	{"geometry":{"coordinates":[2.238279,48.884471],"type":"Point"},"properties":{"osm_id":"4484412102","tag":{"amenity":"waste_basket","check_date":"2021-01-04"}},"type":"Feature"},
	{"geometry":{"coordinates":[2.242782,48.885756],"type":"Point"},"properties":{"osm_id":"4484412113","tag":{"amenity":"waste_basket"}},"type":"Feature"},
	{"geometry":{"coordinates":[2.270373,48.887048],"type":"Point"},"properties":{"osm_id":"4610647190","tag":{"amenity":"recycling","recycling:glass_bottles":"yes","recycling_type":"container"}},"type":"Feature"},
	{"geometry":{"coordinates":[2.238932,48.879475],"type":"Point"},"properties":{"osm_id":"4702133608","tag":{"amenity":"waste_basket","check_date":"2021-05-23"}},"type":"Feature"},
	{"geometry":{"coordinates":[2.223284,48.871396],"type":"Point"},"properties":{"osm_id":"4744659722","tag":{"amenity":"waste_basket"}},"type":"Feature"},
	{"geometry":{"coordinates":[2.268501,48.905659],"type":"Point"},"properties":{"osm_id":"4836432877","tag":{"amenity":"waste_basket","level":"-1"}},"type":"Feature"},
	{"geometry":{"coordinates":[2.268668,48.905445],"type":"Point"},"properties":{"osm_id":"4836432878","tag":{"amenity":"waste_basket","level":"-1"}},"type":"Feature"},
	{"geometry":{"coordinates":[2.268761,48.905317],"type":"Point"},"properties":{"osm_id":"4836432882","tag":{"amenity":"waste_basket","level":"-1"}},"type":"Feature"},
	{"geometry":{"coordinates":[2.26874,48.905208],"type":"Point"},"properties":{"osm_id":"4836432886","tag":{"amenity":"waste_basket","level":"-1"}},"type":"Feature"},
	{"geometry":{"coordinates":[2.260248,48.901142],"type":"Point"},"properties":{"osm_id":"4915649091","tag":{"amenity":"recycling","recycling:clothes":"yes","recycling_type":"container"}},"type":"Feature"},
	{"geometry":{"coordinates":[2.244967,48.90063],"type":"Point"},"properties":{"osm_id":"4915649092","tag":{"amenity":"recycling","recycling:clothes":"yes","recycling_type":"container"}},"type":"Feature"},
	{"geometry":{"coordinates":[2.218598,48.886755],"type":"Point"},"properties":{"osm_id":"4962525443","tag":{"amenity":"recycling","check_date:recycling":"2021-05-15","operator":"Le Relais","recycling:clothes":"yes","recycling_type":"container"}},"type":"Feature"},
	{"geometry":{"coordinates":[2.222949,48.888754],"type":"Point"},"properties":{"osm_id":"5038269933","tag":{"amenity":"recycling","operator":"Le Relais","recycling:clothes":"yes","recycling_type":"container"}},"type":"Feature"},
	{"geometry":{"coordinates":[2.214395,48.88593],"type":"Point"},"properties":{"osm_id":"5144894002","tag":{"amenity":"recycling","check_date:recycling":"2021-05-13","operator":"Le Relais","recycling:clothes":"yes","recycling_type":"container"}},"type":"Feature"},
	{"geometry":{"coordinates":[2.219474,48.889426],"type":"Point"},"properties":{"osm_id":"5144894003","tag":{"amenity":"recycling","recycling:clothes":"yes","recycling_type":"container"}},"type":"Feature"},
	{"geometry":{"coordinates":[2.216441,48.890016],"type":"Point"},"properties":{"osm_id":"5144894004","tag":{"amenity":"recycling","operator":"Le Relais","recycling:clothes":"yes","recycling_type":"container"}},"type":"Feature"},
	{"geometry":{"coordinates":[2.226319,48.876098],"type":"Point"},"properties":{"osm_id":"5161068721","tag":{"amenity":"waste_disposal"}},"type":"Feature"},
	{"geometry":{"coordinates":[2.226331,48.876099],"type":"Point"},"properties":{"osm_id":"5161089121","tag":{"amenity":"recycling","recycling":"container","recycling:clothes":"yes","recycling_type":"container"}},"type":"Feature"},
	{"geometry":{"coordinates":[2.285147,48.906098],"type":"Point"},"properties":{"osm_id":"5231443150","tag":{"amenity":"waste_basket","level":"0"}},"type":"Feature"},
	{"geometry":{"coordinates":[2.224079,48.896722],"type":"Point"},"properties":{"osm_id":"5231527177","tag":{"amenity":"recycling","check_date:recycling":"2021-05-13","recycling:glass_bottles":"yes","recycling_type":"container"}},"type":"Feature"},
	{"geometry":{"coordinates":[2.223437,48.896285],"type":"Point"},"properties":{"osm_id":"5231527178","tag":{"amenity":"recycling","check_date:recycling":"2021-05-13","recycling:glass_bottles":"yes","recycling_type":"container"}},"type":"Feature"},
	{"geometry":{"coordinates":[2.283603,48.906274],"type":"Point"},"properties":{"osm_id":"5232404380","tag":{"amenity":"waste_basket","level":"0"}},"type":"Feature"},
	{"geometry":{"coordinates":[2.284166,48.906335],"type":"Point"},"properties":{"osm_id":"5232404382","tag":{"amenity":"waste_basket","level":"0"}},"type":"Feature"},
	{"geometry":{"coordinates":[2.282237,48.90694],"type":"Point"},"properties":{"osm_id":"5235474128","tag":{"amenity":"waste_basket","level":"0"}},"type":"Feature"},
	{"geometry":{"coordinates":[2.283523,48.907616],"type":"Point"},"properties":{"osm_id":"5235474190","tag":{"amenity":"waste_basket","level":"0"}},"type":"Feature"},
	{"geometry":{"coordinates":[2.281677,48.906077],"type":"Point"},"properties":{"osm_id":"5245525136","tag":{"amenity":"waste_basket","level":"0"}},"type":"Feature"},
	{"geometry":{"coordinates":[2.275966,48.906523],"type":"Point"},"properties":{"osm_id":"5245692081","tag":{"amenity":"waste_basket","level":"0"}},"type":"Feature"},
	{"geometry":{"coordinates":[2.275844,48.906681],"type":"Point"},"properties":{"osm_id":"5245692082","tag":{"amenity":"waste_basket","level":"0"}},"type":"Feature"},
	{"geometry":{"coordinates":[2.280964,48.905988],"type":"Point"},"properties":{"osm_id":"5245707945","tag":{"amenity":"waste_basket","level":"0"}},"type":"Feature"},
	{"geometry":{"coordinates":[2.279086,48.904559],"type":"Point"},"properties":{"osm_id":"5245707948","tag":{"amenity":"waste_basket","level":"0"}},"type":"Feature"},
	{"geometry":{"coordinates":[2.278854,48.90456],"type":"Point"},"properties":{"osm_id":"5245707949","tag":{"amenity":"waste_basket","level":"0"}},"type":"Feature"},
	{"geometry":{"coordinates":[2.281466,48.90618],"type":"Point"},"properties":{"osm_id":"5249020396","tag":{"amenity":"waste_basket","level":"0"}},"type":"Feature"},
	{"geometry":{"coordinates":[2.226529,48.870767],"type":"Point"},"properties":{"osm_id":"5254354190","tag":{"amenity":"recycling","recycling:clothes":"yes","recycling:paper":"yes","recycling:plastic":"yes","recycling:shoes":"yes","recycling_type":"container"}},"type":"Feature"},
	{"geometry":{"coordinates":[2.226477,48.871145],"type":"Point"},"properties":{"osm_id":"5254354195","tag":{"amenity":"waste_basket"}},"type":"Feature"},
	{"geometry":{"coordinates":[2.226319,48.870807],"type":"Point"},"properties":{"osm_id":"5254354198","tag":{"amenity":"waste_basket"}},"type":"Feature"},
	{"geometry":{"coordinates":[2.226866,48.871463],"type":"Point"},"properties":{"osm_id":"5254355150","tag":{"amenity":"waste_basket"}},"type":"Feature"},
	{"geometry":{"coordinates":[2.224185,48.894535],"type":"Point"},"properties":{"osm_id":"5268212071","tag":{"amenity":"recycling","check_date:recycling":"2021-03-28","operator":"Le Relais","recycling:clothes":"yes","recycling_type":"container"}},"type":"Feature"},
	{"geometry":{"coordinates":[2.224994,48.894308],"type":"Point"},"properties":{"osm_id":"5268212072","tag":{"amenity":"recycling","recycling:glass_bottles":"yes","recycling_type":"container"}},"type":"Feature"},
	{"geometry":{"coordinates":[2.227264,48.888222],"type":"Point"},"properties":{"osm_id":"5268212083","tag":{"amenity":"recycling","recycling:glass_bottles":"yes","recycling_type":"container"}},"type":"Feature"},
	{"geometry":{"coordinates":[2.224988,48.887624],"type":"Point"},"properties":{"osm_id":"5268212097","tag":{"amenity":"recycling","recycling:glass_bottles":"yes","recycling_type":"container"}},"type":"Feature"},
	{"geometry":{"coordinates":[2.284186,48.908184],"type":"Point"},"properties":{"osm_id":"5283741389","tag":{"amenity":"waste_basket","level":"0"}},"type":"Feature"},
	{"geometry":{"coordinates":[2.280392,48.908046],"type":"Point"},"properties":{"osm_id":"5283955702","tag":{"amenity":"waste_basket","level":"0"}},"type":"Feature"},
	{"geometry":{"coordinates":[2.280177,48.908635],"type":"Point"},"properties":{"osm_id":"5283974839","tag":{"amenity":"waste_basket","level":"0"}},"type":"Feature"},
	{"geometry":{"coordinates":[2.282492,48.906903],"type":"Point"},"properties":{"osm_id":"5285529680","tag":{"amenity":"waste_basket","level":"0"}},"type":"Feature"},
	{"geometry":{"coordinates":[2.282409,48.906847],"type":"Point"},"properties":{"osm_id":"5285529681","tag":{"amenity":"waste_basket","level":"0"}},"type":"Feature"},
	{"geometry":{"coordinates":[2.276274,48.906988],"type":"Point"},"properties":{"osm_id":"5285684820","tag":{"amenity":"waste_basket","level":"0"}},"type":"Feature"},
	{"geometry":{"coordinates":[2.271895,48.908431],"type":"Point"},"properties":{"osm_id":"5286043408","tag":{"amenity":"waste_basket","level":"0"}},"type":"Feature"},
	{"geometry":{"coordinates":[2.272644,48.907705],"type":"Point"},"properties":{"osm_id":"5286044151","tag":{"amenity":"waste_basket","level":"0"}},"type":"Feature"},
	{"geometry":{"coordinates":[2.26859,48.905917],"type":"Point"},"properties":{"osm_id":"5286129888","tag":{"amenity":"waste_basket","level":"0"}},"type":"Feature"},
	{"geometry":{"coordinates":[2.226782,48.895969],"type":"Point"},"properties":{"osm_id":"5308666454","tag":{"amenity":"waste_basket","waste":"trash"}},"type":"Feature"},
	{"geometry":{"coordinates":[2.218469,48.891615],"type":"Point"},"properties":{"osm_id":"5332893679","tag":{"amenity":"waste_basket","check_date":"2021-06-23","waste":"trash"}},"type":"Feature"},
	{"geometry":{"coordinates":[2.234391,48.916578],"type":"Point"},"properties":{"osm_id":"5333702125","tag":{"amenity":"recycling","operator":"Le Relais","recycling:clothes":"yes","recycling_type":"container"}},"type":"Feature"},
	{"geometry":{"coordinates":[2.218155,48.907005],"type":"Point"},"properties":{"osm_id":"5351775731","tag":{"amenity":"recycling","operator":"Le Relais","recycling:clothes":"yes","recycling_type":"container"}},"type":"Feature"},
	{"geometry":{"coordinates":[2.215869,48.907375],"type":"Point"},"properties":{"osm_id":"5351775734","tag":{"amenity":"recycling","operator":"Le Relais","recycling:clothes":"yes","recycling_type":"container"}},"type":"Feature"},
	{"geometry":{"coordinates":[2.216283,48.909462],"type":"Point"},"properties":{"osm_id":"5351775735","tag":{"amenity":"recycling","operator":"Le Relais","recycling:clothes":"yes","recycling_type":"container"}},"type":"Feature"},
	{"geometry":{"coordinates":[2.221852,48.910371],"type":"Point"},"properties":{"osm_id":"5351775742","tag":{"amenity":"recycling","recycling:glass_bottles":"yes","recycling_type":"container"}},"type":"Feature"},
	{"geometry":{"coordinates":[2.197572,48.890808],"type":"Point"},"properties":{"osm_id":"5385355917","tag":{"amenity":"recycling","operator":"Le Relais","recycling:clothes":"yes","recycling_type":"container"}},"type":"Feature"},
	{"geometry":{"coordinates":[2.197583,48.890804],"type":"Point"},"properties":{"osm_id":"5385355918","tag":{"amenity":"recycling","recycling:glass_bottles":"yes","recycling_type":"container"}},"type":"Feature"},
	{"geometry":{"coordinates":[2.199986,48.89729],"type":"Point"},"properties":{"osm_id":"5577176899","tag":{"amenity":"recycling","recycling:glass_bottles":"yes","recycling_type":"container"}},"type":"Feature"},
	{"geometry":{"coordinates":[2.266644,48.894165],"type":"Point"},"properties":{"osm_id":"5647984132","tag":{"amenity":"waste_basket"}},"type":"Feature"},
	{"geometry":{"coordinates":[2.266955,48.89444],"type":"Point"},"properties":{"osm_id":"5647984621","tag":{"amenity":"waste_basket"}},"type":"Feature"},
	{"geometry":{"coordinates":[2.21411,48.898033],"type":"Point"},"properties":{"osm_id":"5723986915","tag":{"amenity":"waste_basket"}},"type":"Feature"},
	{"geometry":{"coordinates":[2.213958,48.898654],"type":"Point"},"properties":{"osm_id":"5723986918","tag":{"amenity":"waste_basket"}},"type":"Feature"},
	{"geometry":{"coordinates":[2.213951,48.898735],"type":"Point"},"properties":{"osm_id":"5723986919","tag":{"amenity":"waste_basket"}},"type":"Feature"},
	{"geometry":{"coordinates":[2.215918,48.898359],"type":"Point"},"properties":{"osm_id":"5723987238","tag":{"amenity":"recycling","location":"underground","recycling:glass_bottles":"yes","recycling_type":"container"}},"type":"Feature"},
	{"geometry":{"coordinates":[2.218292,48.897837],"type":"Point"},"properties":{"osm_id":"5723987279","tag":{"amenity":"waste_basket","waste":"trash"}},"type":"Feature"},
	{"geometry":{"coordinates":[2.218518,48.897685],"type":"Point"},"properties":{"osm_id":"5723987280","tag":{"amenity":"waste_basket","waste":"trash"}},"type":"Feature"},
	{"geometry":{"coordinates":[2.218996,48.89753],"type":"Point"},"properties":{"osm_id":"5723987282","tag":{"amenity":"waste_basket","waste":"trash"}},"type":"Feature"},
	{"geometry":{"coordinates":[2.219493,48.897321],"type":"Point"},"properties":{"osm_id":"5723987283","tag":{"amenity":"waste_basket","waste":"trash"}},"type":"Feature"},
	{"geometry":{"coordinates":[2.22656,48.87085],"type":"Point"},"properties":{"osm_id":"5805248241","tag":{"amenity":"recycling","recycling:clothes":"yes","recycling_type":"container"}},"type":"Feature"},
	{"geometry":{"coordinates":[2.226516,48.870752],"type":"Point"},"properties":{"osm_id":"5806236724","tag":{"amenity":"recycling","recycling:clothes":"yes","recycling:paper":"yes","recycling:plastic":"yes","recycling:shoes":"yes","recycling_type":"container"}},"type":"Feature"},
	{"geometry":{"coordinates":[2.22654,48.870781],"type":"Point"},"properties":{"osm_id":"5806236725","tag":{"amenity":"recycling","recycling:clothes":"yes","recycling:paper":"yes","recycling:plastic":"yes","recycling:shoes":"yes","recycling_type":"container"}},"type":"Feature"},
	{"geometry":{"coordinates":[2.225266,48.869908],"type":"Point"},"properties":{"osm_id":"5806236726","tag":{"amenity":"recycling","opening_hours":"closed","recycling:glass_bottles":"yes","recycling_type":"container"}},"type":"Feature"},
	{"geometry":{"coordinates":[2.252409,48.881419],"type":"Point"},"properties":{"osm_id":"5847272686","tag":{"amenity":"waste_basket"}},"type":"Feature"},
	{"geometry":{"coordinates":[2.252277,48.881532],"type":"Point"},"properties":{"osm_id":"5854200290","tag":{"amenity":"waste_basket"}},"type":"Feature"},
	{"geometry":{"coordinates":[2.251083,48.87698],"type":"Point"},"properties":{"osm_id":"5888421791","tag":{"amenity":"waste_basket"}},"type":"Feature"},
	{"geometry":{"coordinates":[2.256319,48.905264],"type":"Point"},"properties":{"osm_id":"5899810486","tag":{"amenity":"waste_basket"}},"type":"Feature"},
	{"geometry":{"coordinates":[2.238986,48.892336],"type":"Point"},"properties":{"osm_id":"5934175867","tag":{"amenity":"waste_basket","level":"0","waste":"trash"}},"type":"Feature"},
	{"geometry":{"coordinates":[2.239225,48.892563],"type":"Point"},"properties":{"osm_id":"5934175868","tag":{"amenity":"waste_basket","level":"0","waste":"trash"}},"type":"Feature"},
	{"geometry":{"coordinates":[2.239405,48.89251],"type":"Point"},"properties":{"osm_id":"5934175869","tag":{"amenity":"waste_basket","level":"0","waste":"trash"}},"type":"Feature"},
	{"geometry":{"coordinates":[2.239525,48.89264],"type":"Point"},"properties":{"osm_id":"5934175870","tag":{"amenity":"waste_basket","level":"0","waste":"trash"}},"type":"Feature"},
	{"geometry":{"coordinates":[2.239633,48.892772],"type":"Point"},"properties":{"osm_id":"5934175871","tag":{"amenity":"waste_basket","level":"0","waste":"trash"}},"type":"Feature"},
	{"geometry":{"coordinates":[2.239617,48.892867],"type":"Point"},"properties":{"osm_id":"5934175872","tag":{"amenity":"waste_basket","level":"0","waste":"trash"}},"type":"Feature"},
	{"geometry":{"coordinates":[2.239576,48.892936],"type":"Point"},"properties":{"osm_id":"5934175873","tag":{"amenity":"waste_basket","level":"0","waste":"trash"}},"type":"Feature"},
	{"geometry":{"coordinates":[2.239501,48.892872],"type":"Point"},"properties":{"osm_id":"5934175874","tag":{"amenity":"waste_basket","level":"0","waste":"trash"}},"type":"Feature"},
	{"geometry":{"coordinates":[2.239376,48.8928],"type":"Point"},"properties":{"osm_id":"5934175875","tag":{"amenity":"waste_basket","level":"0","waste":"trash"}},"type":"Feature"},
	{"geometry":{"coordinates":[2.239312,48.89216],"type":"Point"},"properties":{"osm_id":"5934176802","tag":{"amenity":"waste_basket","level":"0","waste":"trash"}},"type":"Feature"},
	{"geometry":{"coordinates":[2.239179,48.892201],"type":"Point"},"properties":{"osm_id":"5934176803","tag":{"amenity":"waste_basket","level":"0","waste":"trash"}},"type":"Feature"},
	{"geometry":{"coordinates":[2.23901,48.892255],"type":"Point"},"properties":{"osm_id":"5934176804","tag":{"amenity":"waste_basket","level":"0","waste":"trash"}},"type":"Feature"},
	{"geometry":{"coordinates":[2.238885,48.892294],"type":"Point"},"properties":{"osm_id":"5934176805","tag":{"amenity":"waste_basket","level":"0","waste":"trash"}},"type":"Feature"},
	{"geometry":{"coordinates":[2.239125,48.892401],"type":"Point"},"properties":{"osm_id":"5934532023","tag":{"amenity":"waste_basket","level":"0","waste":"trash"}},"type":"Feature"},
	{"geometry":{"coordinates":[2.238298,48.890973],"type":"Point"},"properties":{"osm_id":"5936552216","tag":{"amenity":"waste_basket","level":"-1","waste":"trash"}},"type":"Feature"},
	{"geometry":{"coordinates":[2.238159,48.891018],"type":"Point"},"properties":{"osm_id":"5936552217","tag":{"amenity":"waste_basket","level":"-1","waste":"trash"}},"type":"Feature"},
	{"geometry":{"coordinates":[2.237156,48.892336],"type":"Point"},"properties":{"osm_id":"5994212203","tag":{"amenity":"waste_basket","level":"-2","waste":"trash"}},"type":"Feature"},
	{"geometry":{"coordinates":[2.239642,48.89172],"type":"Point"},"properties":{"osm_id":"5996489043","tag":{"amenity":"waste_basket","level":"-1"}},"type":"Feature"},
	{"geometry":{"coordinates":[2.240254,48.888418],"type":"Point"},"properties":{"osm_id":"5998658666","tag":{"amenity":"waste_basket","waste":"trash"}},"type":"Feature"},
	{"geometry":{"coordinates":[2.242688,48.888633],"type":"Point"},"properties":{"osm_id":"5998971660","tag":{"amenity":"waste_basket","level":"0","waste":"trash"}},"type":"Feature"},
	{"geometry":{"coordinates":[2.242739,48.888703],"type":"Point"},"properties":{"osm_id":"5998971661","tag":{"amenity":"waste_basket","level":"0","waste":"trash"}},"type":"Feature"},
	{"geometry":{"coordinates":[2.242638,48.888564],"type":"Point"},"properties":{"osm_id":"5998971662","tag":{"amenity":"waste_basket","level":"0","waste":"trash"}},"type":"Feature"},
	{"geometry":{"coordinates":[2.236669,48.889241],"type":"Point"},"properties":{"osm_id":"6007128694","tag":{"amenity":"waste_basket","waste":"trash"}},"type":"Feature"},
	{"geometry":{"coordinates":[2.237892,48.889944],"type":"Point"},"properties":{"osm_id":"6007129730","tag":{"amenity":"waste_basket","waste":"trash"}},"type":"Feature"},
	{"geometry":{"coordinates":[2.236601,48.88869],"type":"Point"},"properties":{"osm_id":"6007156148","tag":{"amenity":"waste_basket","waste":"trash"}},"type":"Feature"},
	{"geometry":{"coordinates":[2.229816,48.892078],"type":"Point"},"properties":{"osm_id":"6009570768","tag":{"amenity":"recycling","recycling:clothes":"yes","recycling_type":"container"}},"type":"Feature"},
	{"geometry":{"coordinates":[2.229835,48.892085],"type":"Point"},"properties":{"osm_id":"6009570769","tag":{"amenity":"recycling","recycling:clothes":"yes","recycling_type":"container"}},"type":"Feature"},
	{"geometry":{"coordinates":[2.23128,48.89346],"type":"Point"},"properties":{"osm_id":"6009644597","tag":{"amenity":"waste_basket","level":"-2","waste":"trash"}},"type":"Feature"},
	{"geometry":{"coordinates":[2.231531,48.893593],"type":"Point"},"properties":{"osm_id":"6009644598","tag":{"amenity":"waste_basket","level":"-2","waste":"trash"}},"type":"Feature"},
	{"geometry":{"coordinates":[2.23155,48.893587],"type":"Point"},"properties":{"osm_id":"6009644599","tag":{"amenity":"waste_basket","level":"-2","waste":"trash"}},"type":"Feature"},
	{"geometry":{"coordinates":[2.230862,48.893804],"type":"Point"},"properties":{"osm_id":"6009644600","tag":{"amenity":"waste_basket","waste":"trash"}},"type":"Feature"},
	{"geometry":{"coordinates":[2.230518,48.893028],"type":"Point"},"properties":{"osm_id":"6010133782","tag":{"amenity":"waste_basket","level":"-2","waste":"trash"}},"type":"Feature"},
	{"geometry":{"coordinates":[2.239338,48.888229],"type":"Point"},"properties":{"osm_id":"6021649967","tag":{"amenity":"waste_basket","level":"0","waste":"dog_excrement"}},"type":"Feature"},
	{"geometry":{"coordinates":[2.23933,48.888217],"type":"Point"},"properties":{"osm_id":"6021649968","tag":{"amenity":"waste_basket","level":"0","waste":"trash"}},"type":"Feature"},
	{"geometry":{"coordinates":[2.238839,48.888406],"type":"Point"},"properties":{"osm_id":"6021649969","tag":{"amenity":"waste_basket","level":"0","waste":"trash"}},"type":"Feature"},
	{"geometry":{"coordinates":[2.238815,48.888441],"type":"Point"},"properties":{"osm_id":"6021649970","tag":{"amenity":"waste_basket","level":"0","waste":"trash"}},"type":"Feature"},
	{"geometry":{"coordinates":[2.23826,48.888],"type":"Point"},"properties":{"osm_id":"6021850842","tag":{"amenity":"waste_basket","level":"0","waste":"trash"}},"type":"Feature"},
	{"geometry":{"coordinates":[2.238457,48.888024],"type":"Point"},"properties":{"osm_id":"6021850843","tag":{"amenity":"waste_basket","level":"0","waste":"trash"}},"type":"Feature"},
	{"geometry":{"coordinates":[2.238682,48.887821],"type":"Point"},"properties":{"osm_id":"6022967503","tag":{"amenity":"waste_basket","level":"0","waste":"trash"}},"type":"Feature"},
	{"geometry":{"coordinates":[2.236137,48.888314],"type":"Point"},"properties":{"osm_id":"6023046735","tag":{"amenity":"waste_basket","level":"0","waste":"trash"}},"type":"Feature"},
	{"geometry":{"coordinates":[2.239491,48.888202],"type":"Point"},"properties":{"osm_id":"6023047522","tag":{"amenity":"waste_basket","level":"0","waste":"trash"}},"type":"Feature"},
	{"geometry":{"coordinates":[2.243251,48.887957],"type":"Point"},"properties":{"osm_id":"6025117950","tag":{"amenity":"waste_basket","waste":"trash"}},"type":"Feature"},
	{"geometry":{"coordinates":[2.243046,48.887981],"type":"Point"},"properties":{"osm_id":"6025117953","tag":{"amenity":"waste_basket","waste":"trash"}},"type":"Feature"},
	{"geometry":{"coordinates":[2.243393,48.887534],"type":"Point"},"properties":{"osm_id":"6025133271","tag":{"amenity":"recycling","recycling:glass":"yes","recycling:glass_bottles":"yes","recycling_type":"container"}},"type":"Feature"},
	{"geometry":{"coordinates":[2.24355,48.887996],"type":"Point"},"properties":{"osm_id":"6025133272","tag":{"amenity":"waste_basket","waste":"trash"}},"type":"Feature"},
	{"geometry":{"coordinates":[2.252715,48.887673],"type":"Point"},"properties":{"osm_id":"6057064798","tag":{"amenity":"waste_basket","level":"-3","waste":"trash"}},"type":"Feature"},
	{"geometry":{"coordinates":[2.250786,48.887755],"type":"Point"},"properties":{"osm_id":"6057722971","tag":{"amenity":"waste_basket","level":"-2","waste":"trash"}},"type":"Feature"},
	{"geometry":{"coordinates":[2.250891,48.887894],"type":"Point"},"properties":{"osm_id":"6057722972","tag":{"amenity":"waste_basket","level":"-2","waste":"trash"}},"type":"Feature"},
	{"geometry":{"coordinates":[2.249067,48.886653],"type":"Point"},"properties":{"osm_id":"6063270338","tag":{"amenity":"waste_basket","level":"-4","waste":"trash"}},"type":"Feature"},
	{"geometry":{"coordinates":[2.249263,48.886776],"type":"Point"},"properties":{"osm_id":"6063270357","tag":{"amenity":"waste_basket","level":"-4","waste":"trash"}},"type":"Feature"},
	{"geometry":{"coordinates":[2.275478,48.870857],"type":"Point"},"properties":{"osm_id":"6080259978","tag":{"amenity":"waste_basket","level":"0"}},"type":"Feature"},
	{"geometry":{"coordinates":[2.275599,48.870894],"type":"Point"},"properties":{"osm_id":"6080259979","tag":{"amenity":"waste_basket","level":"0"}},"type":"Feature"},
	{"geometry":{"coordinates":[2.272607,48.86657],"type":"Point"},"properties":{"osm_id":"6080830993","tag":{"amenity":"waste_basket","level":"0"}},"type":"Feature"},
	{"geometry":{"coordinates":[2.249803,48.890095],"type":"Point"},"properties":{"osm_id":"6084767477","tag":{"amenity":"waste_basket","waste":"trash"}},"type":"Feature"},
	{"geometry":{"coordinates":[2.241316,48.892888],"type":"Point"},"properties":{"osm_id":"6093201246","tag":{"amenity":"waste_basket","level":"-2","waste":"trash"}},"type":"Feature"},
	{"geometry":{"coordinates":[2.251032,48.88809],"type":"Point"},"properties":{"osm_id":"6105626426","tag":{"amenity":"waste_basket","level":"-2","waste":"trash"}},"type":"Feature"},
	{"geometry":{"coordinates":[2.282658,48.870185],"type":"Point"},"properties":{"osm_id":"6246243685","tag":{"amenity":"waste_basket"}},"type":"Feature"},
	{"geometry":{"coordinates":[2.281801,48.870395],"type":"Point"},"properties":{"osm_id":"6246243785","tag":{"amenity":"waste_basket"}},"type":"Feature"},
	{"geometry":{"coordinates":[2.281718,48.870499],"type":"Point"},"properties":{"osm_id":"6246243885","tag":{"amenity":"waste_basket"}},"type":"Feature"},
	{"geometry":{"coordinates":[2.281143,48.870672],"type":"Point"},"properties":{"osm_id":"6246243886","tag":{"amenity":"waste_basket"}},"type":"Feature"},
	{"geometry":{"coordinates":[2.2187,48.866836],"type":"Point"},"properties":{"osm_id":"6252224360","tag":{"amenity":"recycling","check_date:recycling":"2021-06-13","recycling:glass_bottles":"yes","recycling_type":"container"}},"type":"Feature"},
	{"geometry":{"coordinates":[2.226679,48.867699],"type":"Point"},"properties":{"osm_id":"6311668035","tag":{"amenity":"recycling","check_date:recycling":"2021-05-08","recycling:glass_bottles":"yes","recycling_type":"container"}},"type":"Feature"},
	{"geometry":{"coordinates":[2.277563,48.899725],"type":"Point"},"properties":{"osm_id":"6314143107","tag":{"amenity":"waste_basket"}},"type":"Feature"},
	{"geometry":{"coordinates":[2.277577,48.899673],"type":"Point"},"properties":{"osm_id":"6314143108","tag":{"amenity":"waste_basket"}},"type":"Feature"},
	{"geometry":{"coordinates":[2.272875,48.89831],"type":"Point"},"properties":{"osm_id":"6314143118","tag":{"amenity":"waste_basket"}},"type":"Feature"},
	{"geometry":{"coordinates":[2.274508,48.898903],"type":"Point"},"properties":{"osm_id":"6314143119","tag":{"amenity":"waste_basket"}},"type":"Feature"},
	{"geometry":{"coordinates":[2.271534,48.897963],"type":"Point"},"properties":{"osm_id":"6314143124","tag":{"amenity":"waste_basket"}},"type":"Feature"},
	{"geometry":{"coordinates":[2.26334,48.868289],"type":"Point"},"properties":{"osm_id":"6402085293","tag":{"amenity":"waste_basket"}},"type":"Feature"},
	{"geometry":{"coordinates":[2.264055,48.870123],"type":"Point"},"properties":{"osm_id":"6402086247","tag":{"amenity":"waste_basket"}},"type":"Feature"},
	{"geometry":{"coordinates":[2.263095,48.865098],"type":"Point"},"properties":{"osm_id":"6402120717","tag":{"amenity":"waste_basket"}},"type":"Feature"},
	{"geometry":{"coordinates":[2.273042,48.869133],"type":"Point"},"properties":{"osm_id":"6402138107","tag":{"amenity":"recycling","recycling_type":"container"}},"type":"Feature"},
	{"geometry":{"coordinates":[2.272316,48.899835],"type":"Point"},"properties":{"osm_id":"6498619426","tag":{"amenity":"recycling","recycling:clothes":"yes","recycling_type":"container"}},"type":"Feature"},
	{"geometry":{"coordinates":[2.213769,48.870563],"type":"Point"},"properties":{"osm_id":"6499916910","tag":{"amenity":"waste_basket"}},"type":"Feature"},
	{"geometry":{"coordinates":[2.229128,48.891569],"type":"Point"},"properties":{"osm_id":"6696769281","tag":{"amenity":"waste_basket","level":"-2"}},"type":"Feature"},
	{"geometry":{"coordinates":[2.222268,48.886125],"type":"Point"},"properties":{"osm_id":"6750833152","tag":{"amenity":"waste_basket"}},"type":"Feature"},
	{"geometry":{"coordinates":[2.240609,48.895178],"type":"Point"},"properties":{"osm_id":"6776938403","tag":{"amenity":"waste_basket","level":"-2","waste":"trash"}},"type":"Feature"},
	{"geometry":{"coordinates":[2.230513,48.871545],"type":"Point"},"properties":{"osm_id":"6781559409","tag":{"amenity":"recycling","recycling:glass_bottles":"yes","recycling_type":"container"}},"type":"Feature"},
	{"geometry":{"coordinates":[2.225829,48.866652],"type":"Point"},"properties":{"osm_id":"6781559412","tag":{"amenity":"recycling","check_date:recycling":"2021-05-08","recycling:glass_bottles":"yes","recycling_type":"container"}},"type":"Feature"},
	{"geometry":{"coordinates":[2.227932,48.876597],"type":"Point"},"properties":{"osm_id":"6781559413","tag":{"amenity":"recycling","check_date:recycling":"2021-06-05","recycling:glass_bottles":"yes","recycling_type":"container"}},"type":"Feature"},
	{"geometry":{"coordinates":[2.218398,48.874475],"type":"Point"},"properties":{"osm_id":"6781559416","tag":{"amenity":"recycling","recycling:glass_bottles":"yes","recycling_type":"container"}},"type":"Feature"},
	{"geometry":{"coordinates":[2.223305,48.878036],"type":"Point"},"properties":{"osm_id":"6781559419","tag":{"amenity":"recycling","recycling:glass_bottles":"yes","recycling_type":"container"}},"type":"Feature"},
	{"geometry":{"coordinates":[2.229155,48.879898],"type":"Point"},"properties":{"osm_id":"6781559423","tag":{"amenity":"recycling","recycling:glass_bottles":"yes","recycling_type":"container"}},"type":"Feature"},
	{"geometry":{"coordinates":[2.20186,48.865577],"type":"Point"},"properties":{"osm_id":"6781559424","tag":{"amenity":"recycling","recycling:glass_bottles":"yes","recycling_type":"container"}},"type":"Feature"},
	{"geometry":{"coordinates":[2.234236,48.874507],"type":"Point"},"properties":{"osm_id":"6781559428","tag":{"amenity":"recycling","recycling:glass_bottles":"yes","recycling_type":"container"}},"type":"Feature"},
	{"geometry":{"coordinates":[2.227586,48.870417],"type":"Point"},"properties":{"osm_id":"6781559431","tag":{"amenity":"recycling","recycling:glass_bottles":"yes","recycling_type":"container"}},"type":"Feature"},
	{"geometry":{"coordinates":[2.243568,48.894365],"type":"Point"},"properties":{"osm_id":"6782689215","tag":{"amenity":"waste_basket","level":"-2","waste":"trash"}},"type":"Feature"},
	{"geometry":{"coordinates":[2.24436,48.892229],"type":"Point"},"properties":{"osm_id":"6785537828","tag":{"amenity":"waste_basket","level":"-2","waste":"trash"}},"type":"Feature"},
	{"geometry":{"coordinates":[2.244385,48.892339],"type":"Point"},"properties":{"osm_id":"6785537829","tag":{"amenity":"waste_basket","level":"-2","waste":"trash"}},"type":"Feature"},
	{"geometry":{"coordinates":[2.242419,48.891976],"type":"Point"},"properties":{"osm_id":"6786287547","tag":{"amenity":"waste_basket","level":"-1","waste":"trash"}},"type":"Feature"},
	{"geometry":{"coordinates":[2.242337,48.892002],"type":"Point"},"properties":{"osm_id":"6786287548","tag":{"amenity":"waste_basket","level":"-1","waste":"trash"}},"type":"Feature"},
	{"geometry":{"coordinates":[2.246607,48.889973],"type":"Point"},"properties":{"osm_id":"6808297448","tag":{"amenity":"waste_basket","level":"-1","waste":"trash"}},"type":"Feature"},
	{"geometry":{"coordinates":[2.246759,48.890227],"type":"Point"},"properties":{"osm_id":"6808297462","tag":{"amenity":"waste_basket","level":"-1","waste":"trash"}},"type":"Feature"},
	{"geometry":{"coordinates":[2.246763,48.890234],"type":"Point"},"properties":{"osm_id":"6808297463","tag":{"amenity":"waste_basket","level":"-1","waste":"trash"}},"type":"Feature"},
	{"geometry":{"coordinates":[2.21831,48.867607],"type":"Point"},"properties":{"osm_id":"6815567021","tag":{"amenity":"waste_basket","location":"underground","waste":"trash"}},"type":"Feature"},
	{"geometry":{"coordinates":[2.218338,48.867599],"type":"Point"},"properties":{"osm_id":"6815567022","tag":{"amenity":"recycling","location":"underground","recycling:cans":"yes","recycling:cardboard":"yes","recycling:electrical_appliances":"yes","recycling:paper":"yes","recycling:plastic":"yes","recycling_type":"container"}},"type":"Feature"},
	{"geometry":{"coordinates":[2.218202,48.867896],"type":"Point"},"properties":{"osm_id":"6815567023","tag":{"amenity":"recycling","location":"underground","recycling:glass_bottles":"yes","recycling_type":"container"}},"type":"Feature"},
	{"geometry":{"coordinates":[2.218207,48.867917],"type":"Point"},"properties":{"osm_id":"6815567024","tag":{"amenity":"recycling","location":"underground","recycling:cans":"yes","recycling:cardboard":"yes","recycling:electrical_appliances":"yes","recycling:paper":"yes","recycling:plastic":"yes","recycling_type":"container"}},"type":"Feature"},
	{"geometry":{"coordinates":[2.218209,48.867934],"type":"Point"},"properties":{"osm_id":"6815567025","tag":{"amenity":"waste_basket","location":"underground","waste":"trash"}},"type":"Feature"},
	{"geometry":{"coordinates":[2.224609,48.86475],"type":"Point"},"properties":{"osm_id":"6935989946","tag":{"amenity":"recycling","recycling:clothes":"yes","recycling_type":"container"}},"type":"Feature"},
	{"geometry":{"coordinates":[2.239398,48.884878],"type":"Point"},"properties":{"osm_id":"6968171574","tag":{"amenity":"recycling","location":"underground","recycling:cardboard":"yes","recycling:paper":"yes","recycling_type":"container"}},"type":"Feature"},
	{"geometry":{"coordinates":[2.203444,48.870745],"type":"Point"},"properties":{"osm_id":"7056997236","tag":{"amenity":"recycling","operator":"Le Relais","recycling:clothes":"yes","recycling_type":"container"}},"type":"Feature"},
	{"geometry":{"coordinates":[2.223712,48.880112],"type":"Point"},"properties":{"osm_id":"7126235343","tag":{"amenity":"recycling","recycling:glass_bottles":"yes","recycling_type":"container"}},"type":"Feature"},
	{"geometry":{"coordinates":[2.237668,48.894664],"type":"Point"},"properties":{"osm_id":"7178203285","tag":{"amenity":"waste_basket"}},"type":"Feature"},
	{"geometry":{"coordinates":[2.237814,48.894839],"type":"Point"},"properties":{"osm_id":"7178203286","tag":{"amenity":"waste_basket"}},"type":"Feature"},
	{"geometry":{"coordinates":[2.237183,48.895977],"type":"Point"},"properties":{"osm_id":"7178203287","tag":{"amenity":"waste_basket"}},"type":"Feature"},
	{"geometry":{"coordinates":[2.236759,48.896601],"type":"Point"},"properties":{"osm_id":"7178203288","tag":{"amenity":"waste_basket"}},"type":"Feature"},
	{"geometry":{"coordinates":[2.237557,48.896867],"type":"Point"},"properties":{"osm_id":"7178203289","tag":{"amenity":"waste_basket"}},"type":"Feature"},
	{"geometry":{"coordinates":[2.238318,48.896966],"type":"Point"},"properties":{"osm_id":"7178203290","tag":{"amenity":"waste_basket"}},"type":"Feature"},
	{"geometry":{"coordinates":[2.238346,48.897144],"type":"Point"},"properties":{"osm_id":"7178203293","tag":{"amenity":"waste_basket"}},"type":"Feature"},
	{"geometry":{"coordinates":[2.237541,48.896916],"type":"Point"},"properties":{"osm_id":"7178204685","tag":{"amenity":"waste_basket"}},"type":"Feature"},
	{"geometry":{"coordinates":[2.238448,48.897041],"type":"Point"},"properties":{"osm_id":"7178204687","tag":{"amenity":"waste_basket"}},"type":"Feature"},
	{"geometry":{"coordinates":[2.250721,48.899425],"type":"Point"},"properties":{"osm_id":"7178291486","tag":{"amenity":"waste_basket"}},"type":"Feature"},
	{"geometry":{"coordinates":[2.250809,48.899413],"type":"Point"},"properties":{"osm_id":"7178291487","tag":{"amenity":"waste_basket"}},"type":"Feature"},
	{"geometry":{"coordinates":[2.252405,48.898708],"type":"Point"},"properties":{"osm_id":"7178291488","tag":{"amenity":"waste_basket"}},"type":"Feature"},
	{"geometry":{"coordinates":[2.238985,48.897164],"type":"Point"},"properties":{"osm_id":"7178292985","tag":{"amenity":"waste_basket"}},"type":"Feature"},
	{"geometry":{"coordinates":[2.249745,48.899008],"type":"Point"},"properties":{"osm_id":"7178292987","tag":{"amenity":"waste_basket"}},"type":"Feature"},
	{"geometry":{"coordinates":[2.25349,48.897959],"type":"Point"},"properties":{"osm_id":"7178292988","tag":{"amenity":"waste_basket"}},"type":"Feature"},
	{"geometry":{"coordinates":[2.240329,48.897073],"type":"Point"},"properties":{"osm_id":"7178293085","tag":{"amenity":"waste_basket"}},"type":"Feature"},
	{"geometry":{"coordinates":[2.250875,48.89944],"type":"Point"},"properties":{"osm_id":"7178293087","tag":{"amenity":"waste_basket"}},"type":"Feature"},
	{"geometry":{"coordinates":[2.241698,48.896966],"type":"Point"},"properties":{"osm_id":"7178293186","tag":{"amenity":"waste_basket"}},"type":"Feature"},
	{"geometry":{"coordinates":[2.245206,48.897556],"type":"Point"},"properties":{"osm_id":"7178293285","tag":{"amenity":"waste_basket"}},"type":"Feature"},
	{"geometry":{"coordinates":[2.225832,48.893897],"type":"Point"},"properties":{"osm_id":"7198347741","tag":{"amenity":"recycling","recycling:glass_bottles":"yes","recycling_type":"container"}},"type":"Feature"},
	{"geometry":{"coordinates":[2.222793,48.865464],"type":"Point"},"properties":{"osm_id":"7200523397","tag":{"amenity":"waste_basket"}},"type":"Feature"},
	{"geometry":{"coordinates":[2.226363,48.893163],"type":"Point"},"properties":{"osm_id":"7214161853","tag":{"amenity":"waste_basket"}},"type":"Feature"},
	{"geometry":{"coordinates":[2.226509,48.892904],"type":"Point"},"properties":{"osm_id":"7214161857","tag":{"amenity":"waste_basket"}},"type":"Feature"},
	{"geometry":{"coordinates":[2.226864,48.892514],"type":"Point"},"properties":{"osm_id":"7214191735","tag":{"amenity":"waste_basket"}},"type":"Feature"},
	{"geometry":{"coordinates":[2.228725,48.891606],"type":"Point"},"properties":{"osm_id":"7215966939","tag":{"amenity":"waste_basket"}},"type":"Feature"},
	{"geometry":{"coordinates":[2.225356,48.868243],"type":"Point"},"properties":{"osm_id":"7223281445","tag":{"amenity":"waste_basket","waste":"trash"}},"type":"Feature"},
	{"geometry":{"coordinates":[2.21843,48.898564],"type":"Point"},"properties":{"osm_id":"7297112262","tag":{"amenity":"waste_basket"}},"type":"Feature"},
	{"geometry":{"coordinates":[2.218427,48.898676],"type":"Point"},"properties":{"osm_id":"7297112263","tag":{"amenity":"waste_basket"}},"type":"Feature"},
	{"geometry":{"coordinates":[2.21843,48.898774],"type":"Point"},"properties":{"osm_id":"7297112264","tag":{"amenity":"waste_basket"}},"type":"Feature"},
	{"geometry":{"coordinates":[2.21843,48.898865],"type":"Point"},"properties":{"osm_id":"7297112265","tag":{"amenity":"waste_basket"}},"type":"Feature"},
	{"geometry":{"coordinates":[2.245909,48.883652],"type":"Point"},"properties":{"osm_id":"7396186357","tag":{"amenity":"waste_basket"}},"type":"Feature"},
	{"geometry":{"coordinates":[2.246857,48.883019],"type":"Point"},"properties":{"osm_id":"7396186358","tag":{"amenity":"recycling","recycling:glass_bottles":"yes","recycling_type":"container"}},"type":"Feature"},
	{"geometry":{"coordinates":[2.244705,48.883808],"type":"Point"},"properties":{"osm_id":"7396186359","tag":{"amenity":"recycling","recycling:glass_bottles":"yes","recycling_type":"container"}},"type":"Feature"},
	{"geometry":{"coordinates":[2.244735,48.883817],"type":"Point"},"properties":{"osm_id":"7396186360","tag":{"amenity":"recycling","recycling:glass_bottles":"yes","recycling_type":"container"}},"type":"Feature"},
	{"geometry":{"coordinates":[2.240283,48.879945],"type":"Point"},"properties":{"osm_id":"7725096851","tag":{"amenity":"recycling","recycling:glass":"yes","recycling:glass_bottles":"yes","recycling_type":"container"}},"type":"Feature"},
	{"geometry":{"coordinates":[2.24026,48.879974],"type":"Point"},"properties":{"osm_id":"7725096852","tag":{"amenity":"waste_basket"}},"type":"Feature"},
	{"geometry":{"coordinates":[2.241714,48.881555],"type":"Point"},"properties":{"osm_id":"7725096853","tag":{"amenity":"waste_basket"}},"type":"Feature"},
	{"geometry":{"coordinates":[2.241678,48.881509],"type":"Point"},"properties":{"osm_id":"7725096854","tag":{"amenity":"waste_basket"}},"type":"Feature"},
	{"geometry":{"coordinates":[2.24234,48.881799],"type":"Point"},"properties":{"osm_id":"7725096855","tag":{"amenity":"waste_basket"}},"type":"Feature"},
	{"geometry":{"coordinates":[2.24301,48.882276],"type":"Point"},"properties":{"osm_id":"7725096862","tag":{"amenity":"waste_basket"}},"type":"Feature"},
	{"geometry":{"coordinates":[2.243064,48.882321],"type":"Point"},"properties":{"osm_id":"7725096863","tag":{"amenity":"waste_basket"}},"type":"Feature"},
	{"geometry":{"coordinates":[2.244061,48.883274],"type":"Point"},"properties":{"osm_id":"7725096864","tag":{"amenity":"waste_basket"}},"type":"Feature"},
	{"geometry":{"coordinates":[2.239042,48.877304],"type":"Point"},"properties":{"osm_id":"7771147038","tag":{"amenity":"recycling","opening_hours":"24/7","recycling:glass_bottles":"yes","recycling_type":"container","wheelchair":"yes"}},"type":"Feature"},
	{"geometry":{"coordinates":[2.238214,48.877729],"type":"Point"},"properties":{"osm_id":"7771147039","tag":{"amenity":"recycling","opening_hours":"24/7","recycling:waste":"yes","recycling_type":"container","wheelchair":"yes"}},"type":"Feature"},
	{"geometry":{"coordinates":[2.238612,48.87699],"type":"Point"},"properties":{"osm_id":"7771147040","tag":{"amenity":"waste_basket","waste":"trash"}},"type":"Feature"},
	{"geometry":{"coordinates":[2.238716,48.877056],"type":"Point"},"properties":{"osm_id":"7771147041","tag":{"amenity":"recycling","opening_hours":"24/7","recycling:waste":"yes","recycling_type":"container","wheelchair":"yes"}},"type":"Feature"},
	{"geometry":{"coordinates":[2.237908,48.877427],"type":"Point"},"properties":{"osm_id":"7771147042","tag":{"amenity":"recycling","opening_hours":"24/7","recycling:PET":"yes","recycling:aluminium":"yes","recycling:cans":"yes","recycling:cardboard":"yes","recycling:paper":"yes","recycling:plastic":"yes","recycling:plastic_bottles":"yes","recycling:plastic_packaging":"yes","recycling_type":"container","wheelchair":"yes"}},"type":"Feature"},
	{"geometry":{"coordinates":[2.238759,48.877089],"type":"Point"},"properties":{"osm_id":"7771147044","tag":{"amenity":"recycling","opening_hours":"24/7","recycling:waste":"yes","recycling_type":"container","wheelchair":"yes"}},"type":"Feature"},
	{"geometry":{"coordinates":[2.23794,48.877463],"type":"Point"},"properties":{"osm_id":"7771147045","tag":{"amenity":"recycling","opening_hours":"24/7","recycling:waste":"yes","recycling_type":"container","wheelchair":"yes"}},"type":"Feature"},
	{"geometry":{"coordinates":[2.239083,48.877355],"type":"Point"},"properties":{"osm_id":"7771147048","tag":{"amenity":"waste_basket","waste":"trash"}},"type":"Feature"},
	{"geometry":{"coordinates":[2.23818,48.877697],"type":"Point"},"properties":{"osm_id":"7771147049","tag":{"amenity":"recycling","opening_hours":"24/7","recycling:waste":"yes","recycling_type":"container","wheelchair":"yes"}},"type":"Feature"},
	{"geometry":{"coordinates":[2.239,48.877271],"type":"Point"},"properties":{"osm_id":"7771147050","tag":{"amenity":"recycling","opening_hours":"24/7","recycling:PET":"yes","recycling:aluminium":"yes","recycling:cans":"yes","recycling:cardboard":"yes","recycling:paper":"yes","recycling:plastic":"yes","recycling:plastic_bottles":"yes","recycling_type":"container","wheelchair":"yes"}},"type":"Feature"},
	{"geometry":{"coordinates":[2.237839,48.877372],"type":"Point"},"properties":{"osm_id":"7795018172","tag":{"amenity":"waste_basket","waste":"trash"}},"type":"Feature"},
	{"geometry":{"coordinates":[2.238433,48.877757],"type":"Point"},"properties":{"osm_id":"7795018173","tag":{"amenity":"recycling","opening_hours":"24/7","recycling:glass":"yes","recycling:glass_bottles":"yes","recycling_type":"container","wheelchair":"yes"}},"type":"Feature"},
	{"geometry":{"coordinates":[2.268992,48.900199],"type":"Point"},"properties":{"osm_id":"7858764786","tag":{"amenity":"waste_basket","waste":"trash"}},"type":"Feature"},
	{"geometry":{"coordinates":[2.268727,48.900917],"type":"Point"},"properties":{"osm_id":"7858851214","tag":{"amenity":"waste_basket","vending":"excrement_bags","waste":"dog_excrement"}},"type":"Feature"},
	{"geometry":{"coordinates":[2.208757,48.876725],"type":"Point"},"properties":{"osm_id":"7863939248","tag":{"amenity":"waste_basket"}},"type":"Feature"},
	{"geometry":{"coordinates":[2.20878,48.87664],"type":"Point"},"properties":{"osm_id":"7863939249","tag":{"amenity":"waste_basket","material":"plastic"}},"type":"Feature"},
	{"geometry":{"coordinates":[2.209191,48.876763],"type":"Point"},"properties":{"osm_id":"7863939250","tag":{"amenity":"waste_basket","material":"plastic"}},"type":"Feature"},
	{"geometry":{"coordinates":[2.212177,48.877479],"type":"Point"},"properties":{"osm_id":"7863939251","tag":{"amenity":"waste_basket","material":"plastic"}},"type":"Feature"},
	{"geometry":{"coordinates":[2.2144,48.877473],"type":"Point"},"properties":{"osm_id":"7863939252","tag":{"amenity":"waste_basket","material":"plastic"}},"type":"Feature"},
	{"geometry":{"coordinates":[2.217485,48.878852],"type":"Point"},"properties":{"osm_id":"7863939253","tag":{"amenity":"waste_basket","material":"plastic"}},"type":"Feature"},
	{"geometry":{"coordinates":[2.218402,48.879435],"type":"Point"},"properties":{"osm_id":"7863939262","tag":{"amenity":"waste_basket","material":"plastic"}},"type":"Feature"},
	{"geometry":{"coordinates":[2.218605,48.879597],"type":"Point"},"properties":{"osm_id":"7863939263","tag":{"amenity":"waste_basket","material":"plastic"}},"type":"Feature"},
	{"geometry":{"coordinates":[2.220148,48.880461],"type":"Point"},"properties":{"osm_id":"7863939264","tag":{"amenity":"waste_basket","material":"steel"}},"type":"Feature"},
	{"geometry":{"coordinates":[2.218979,48.884271],"type":"Point"},"properties":{"osm_id":"7863939273","tag":{"amenity":"waste_basket"}},"type":"Feature"},
	{"geometry":{"coordinates":[2.224943,48.884216],"type":"Point"},"properties":{"osm_id":"7863939276","tag":{"amenity":"waste_basket","material":"steel"}},"type":"Feature"},
	{"geometry":{"coordinates":[2.225185,48.884214],"type":"Point"},"properties":{"osm_id":"7863939277","tag":{"amenity":"waste_basket","material":"steel"}},"type":"Feature"},
	{"geometry":{"coordinates":[2.225696,48.885123],"type":"Point"},"properties":{"osm_id":"7863939278","tag":{"amenity":"waste_basket","material":"steel"}},"type":"Feature"},
	{"geometry":{"coordinates":[2.221724,48.885435],"type":"Point"},"properties":{"osm_id":"7863939281","tag":{"amenity":"waste_basket","material":"plastic"}},"type":"Feature"},
	{"geometry":{"coordinates":[2.253114,48.890654],"type":"Point"},"properties":{"osm_id":"7930864227","tag":{"amenity":"waste_basket","level":"-4","waste":"trash"}},"type":"Feature"},
	{"geometry":{"coordinates":[2.253105,48.89067],"type":"Point"},"properties":{"osm_id":"7930864228","tag":{"amenity":"waste_disposal","level":"-4","waste":"trash"}},"type":"Feature"},
	{"geometry":{"coordinates":[2.253091,48.890675],"type":"Point"},"properties":{"osm_id":"7930864229","tag":{"amenity":"waste_disposal","level":"-4","waste":"trash"}},"type":"Feature"},
	{"geometry":{"coordinates":[2.245362,48.892373],"type":"Point"},"properties":{"osm_id":"7941698576","tag":{"amenity":"waste_basket","level":"-2","waste":"trash"}},"type":"Feature"},
	{"geometry":{"coordinates":[2.246799,48.892975],"type":"Point"},"properties":{"osm_id":"7942318435","tag":{"amenity":"waste_basket","level":"-2","waste":"trash"}},"type":"Feature"},
	{"geometry":{"coordinates":[2.252495,48.88999],"type":"Point"},"properties":{"osm_id":"7950487384","tag":{"amenity":"waste_basket","level":"-1","waste":"trash"}},"type":"Feature"},
	{"geometry":{"coordinates":[2.252926,48.889987],"type":"Point"},"properties":{"osm_id":"7950816597","tag":{"amenity":"waste_basket","level":"-1","waste":"trash"}},"type":"Feature"},
	{"geometry":{"coordinates":[2.252952,48.889236],"type":"Point"},"properties":{"osm_id":"7951232929","tag":{"amenity":"waste_basket","level":"-1","waste":"trash"}},"type":"Feature"},
	{"geometry":{"coordinates":[2.253549,48.889095],"type":"Point"},"properties":{"osm_id":"7951439214","tag":{"amenity":"waste_basket","level":"-1","waste":"trash"}},"type":"Feature"},
	{"geometry":{"coordinates":[2.253105,48.888395],"type":"Point"},"properties":{"osm_id":"7951439227","tag":{"amenity":"waste_basket","level":"-1","waste":"trash"}},"type":"Feature"},
	{"geometry":{"coordinates":[2.251533,48.888484],"type":"Point"},"properties":{"osm_id":"7953683962","tag":{"amenity":"waste_basket","level":"-1","waste":"trash"}},"type":"Feature"},
	{"geometry":{"coordinates":[2.252173,48.889661],"type":"Point"},"properties":{"osm_id":"7954026490","tag":{"amenity":"waste_basket","level":"-1","waste":"trash"}},"type":"Feature"},
	{"geometry":{"coordinates":[2.252134,48.888973],"type":"Point"},"properties":{"osm_id":"7954258658","tag":{"amenity":"waste_basket","level":"-1","waste":"trash"}},"type":"Feature"},
	{"geometry":{"coordinates":[2.252149,48.888831],"type":"Point"},"properties":{"osm_id":"7954258659","tag":{"amenity":"waste_basket","level":"-1","waste":"trash"}},"type":"Feature"},
	{"geometry":{"coordinates":[2.252052,48.888605],"type":"Point"},"properties":{"osm_id":"7954258660","tag":{"amenity":"waste_basket","level":"-1","waste":"trash"}},"type":"Feature"},
	{"geometry":{"coordinates":[2.253014,48.889297],"type":"Point"},"properties":{"osm_id":"7954260272","tag":{"amenity":"waste_basket","level":"-1","waste":"trash"}},"type":"Feature"},
	{"geometry":{"coordinates":[2.250343,48.889792],"type":"Point"},"properties":{"osm_id":"7960055865","tag":{"amenity":"waste_basket","level":"-3","waste":"trash"}},"type":"Feature"},
	{"geometry":{"coordinates":[2.25294,48.888198],"type":"Point"},"properties":{"osm_id":"7963683141","tag":{"amenity":"waste_basket","level":"-4","waste":"trash"}},"type":"Feature"},
	{"geometry":{"coordinates":[2.235487,48.898639],"type":"Point"},"properties":{"osm_id":"7987680107","tag":{"amenity":"waste_basket"}},"type":"Feature"},
	{"geometry":{"coordinates":[2.212334,48.8994],"type":"Point"},"properties":{"osm_id":"8224676535","tag":{"amenity":"waste_basket"}},"type":"Feature"},
	{"geometry":{"coordinates":[2.197482,48.887172],"type":"Point"},"properties":{"osm_id":"8228759637","tag":{"amenity":"waste_basket"}},"type":"Feature"},
	{"geometry":{"coordinates":[2.197527,48.887125],"type":"Point"},"properties":{"osm_id":"8228759638","tag":{"amenity":"recycling","location":"underground","recycling:glass":"yes","recycling:glass_bottles":"yes","recycling_type":"container"}},"type":"Feature"},
	{"geometry":{"coordinates":[2.213746,48.870595],"type":"Point"},"properties":{"osm_id":"8278671432","tag":{"amenity":"waste_basket","waste":"trash"}},"type":"Feature"},
	{"geometry":{"coordinates":[2.213663,48.870699],"type":"Point"},"properties":{"osm_id":"8278671433","tag":{"amenity":"waste_basket","waste":"trash"}},"type":"Feature"},
	{"geometry":{"coordinates":[2.234514,48.892178],"type":"Point"},"properties":{"osm_id":"8383788635","tag":{"amenity":"waste_basket","level":"0","waste":"trash"}},"type":"Feature"},
	{"geometry":{"coordinates":[2.234567,48.892059],"type":"Point"},"properties":{"osm_id":"8383788636","tag":{"amenity":"waste_basket","level":"0","waste":"trash"}},"type":"Feature"},
	{"geometry":{"coordinates":[2.246104,48.886212],"type":"Point"},"properties":{"osm_id":"8387586106","tag":{"amenity":"waste_basket","level":"-4","waste":"trash"}},"type":"Feature"},
	{"geometry":{"coordinates":[2.241543,48.882946],"type":"Point"},"properties":{"osm_id":"8542643605","tag":{"amenity":"waste_basket"}},"type":"Feature"},
	{"geometry":{"coordinates":[2.240024,48.882513],"type":"Point"},"properties":{"osm_id":"8542699419","tag":{"amenity":"waste_basket"}},"type":"Feature"},
	{"geometry":{"coordinates":[2.239907,48.882458],"type":"Point"},"properties":{"osm_id":"8542699420","tag":{"amenity":"waste_basket"}},"type":"Feature"},
	{"geometry":{"coordinates":[2.256771,48.89645],"type":"Point"},"properties":{"osm_id":"8697125054","tag":{"amenity":"waste_basket","material":"metal","operator":"Municipalit\u00c3\u00a9","waste":"trash;mixed"}},"type":"Feature"},
	{"geometry":{"coordinates":[2.257173,48.896465],"type":"Point"},"properties":{"osm_id":"8697132633","tag":{"amenity":"waste_basket","material":"metal","operator":"Municipalit\u00c3\u00a9","waste":"mixed;trash"}},"type":"Feature"},
	{"geometry":{"coordinates":[2.256532,48.897062],"type":"Point"},"properties":{"osm_id":"8697132664","tag":{"amenity":"waste_basket","material":"metal","operator":"Municipalit\u00c3\u00a9","waste":"trash;mixed"}},"type":"Feature"},
	{"geometry":{"coordinates":[2.253425,48.897984],"type":"Point"},"properties":{"osm_id":"8697159767","tag":{"amenity":"waste_basket","material":"metal","operator":"Municipalit\u00c3\u00a9","waste":"trash;mixed;cigarettes"}},"type":"Feature"},
	{"geometry":{"coordinates":[2.248518,48.885038],"type":"Point"},"properties":{"osm_id":"8715649609","tag":{"amenity":"waste_basket"}},"type":"Feature"},
	{"geometry":{"coordinates":[2.230518,48.885744],"type":"Point"},"properties":{"osm_id":"8736196831","tag":{"amenity":"waste_basket","material":"steel","waste":"trash"}},"type":"Feature"},
	{"geometry":{"coordinates":[2.230592,48.885859],"type":"Point"},"properties":{"osm_id":"8736196863","tag":{"amenity":"waste_basket","material":"steel"}},"type":"Feature"},
	{"geometry":{"coordinates":[2.229667,48.8848],"type":"Point"},"properties":{"osm_id":"8736231638","tag":{"amenity":"waste_basket"}},"type":"Feature"},
	{"geometry":{"coordinates":[2.229787,48.884708],"type":"Point"},"properties":{"osm_id":"8736231646","tag":{"amenity":"waste_basket"}},"type":"Feature"},
	{"geometry":{"coordinates":[2.261373,48.87569],"type":"Point"},"properties":{"osm_id":"8787242413","tag":{"amenity":"waste_basket"}},"type":"Feature"},
	{"geometry":{"coordinates":[2.256402,48.875416],"type":"Point"},"properties":{"osm_id":"8787253751","tag":{"amenity":"waste_basket"}},"type":"Feature"},
	{"geometry":{"coordinates":[2.28012,48.878869],"type":"Point"},"properties":{"osm_id":"8897860727","tag":{"amenity":"waste_basket","level":"0","waste":"trash"}},"type":"Feature"},
	{"geometry":{"coordinates":[2.276314,48.880061],"type":"Point"},"properties":{"osm_id":"8898011932","tag":{"amenity":"waste_basket","level":"0","waste":"trash"}},"type":"Feature"},
	{"geometry":{"coordinates":[2.276292,48.88015],"type":"Point"},"properties":{"osm_id":"8898011933","tag":{"amenity":"waste_basket","level":"0","waste":"dog_excrement"}},"type":"Feature"},
	{"geometry":{"coordinates":[2.276374,48.880167],"type":"Point"},"properties":{"osm_id":"8898011934","tag":{"amenity":"waste_basket","level":"0","waste":"trash"}},"type":"Feature"},
	{"geometry":{"coordinates":[2.275944,48.880704],"type":"Point"},"properties":{"osm_id":"8898011935","tag":{"amenity":"waste_basket","level":"0","waste":"trash"}},"type":"Feature"},
	{"geometry":{"coordinates":[2.276018,48.880633],"type":"Point"},"properties":{"osm_id":"8898011936","tag":{"amenity":"waste_basket","level":"0","waste":"trash"}},"type":"Feature"},
	{"geometry":{"coordinates":[2.275388,48.880667],"type":"Point"},"properties":{"osm_id":"8898011937","tag":{"amenity":"waste_basket","level":"0","waste":"trash"}},"type":"Feature"},
	{"geometry":{"coordinates":[2.27534,48.880633],"type":"Point"},"properties":{"osm_id":"8898011938","tag":{"amenity":"waste_basket","level":"0","waste":"trash"}},"type":"Feature"},
	{"geometry":{"coordinates":[2.275639,48.880598],"type":"Point"},"properties":{"osm_id":"8898011941","tag":{"amenity":"waste_basket","level":"0","waste":"trash"}},"type":"Feature"},
	{"geometry":{"coordinates":[2.276058,48.880461],"type":"Point"},"properties":{"osm_id":"8898011942","tag":{"amenity":"waste_basket","level":"0","waste":"dog_excrement"}},"type":"Feature"},
	{"geometry":{"coordinates":[2.276055,48.880458],"type":"Point"},"properties":{"osm_id":"8898011943","tag":{"amenity":"waste_basket","level":"0","waste":"trash"}},"type":"Feature"},
	{"geometry":{"coordinates":[2.268544,48.903408],"type":"Point"},"properties":{"osm_id":"9037754878","tag":{"amenity":"recycling","recycling:clothes":"yes","recycling_type":"container"}},"type":"Feature"},
	{"geometry":{"coordinates":[2.268514,48.903412],"type":"Point"},"properties":{"osm_id":"9037754879","tag":{"amenity":"recycling","recycling:clothes":"yes","recycling_type":"container"}},"type":"Feature"}
]
}
