{
"type": "FeatureCollection",
"features": [
	{"geometry":{"coordinates":[2.282309,48.814745],"type":"Point"},"properties":{"osm_id":"446147565","tag":{"amenity":"recycling","recycling:glass":"yes","recycling_type":"container"}},"type":"Feature"},
	{"geometry":{"coordinates":[2.238798,48.842114],"type":"Point"},"properties":{"osm_id":"470348285","tag":{"amenity":"recycling","recycling:glass":"yes","recycling_type":"container"}},"type":"Feature"},
	{"geometry":{"coordinates":[2.247645,48.840764],"type":"Point"},"properties":{"osm_id":"470353815","tag":{"amenity":"recycling","location":"overground","recycling:clothes":"yes","recycling_type":"container"}},"type":"Feature"},
	{"geometry":{"coordinates":[2.250083,48.844138],"type":"Point"},"properties":{"osm_id":"471033000","tag":{"amenity":"recycling","recycling:glass":"yes","recycling_type":"container"}},"type":"Feature"},
	{"geometry":{"coordinates":[2.248163,48.844641],"type":"Point"},"properties":{"osm_id":"471033881","tag":{"amenity":"recycling","recycling:glass_bottles":"yes","recycling_type":"container"}},"type":"Feature"},
	{"geometry":{"coordinates":[2.244718,48.845655],"type":"Point"},"properties":{"osm_id":"471034900","tag":{"amenity":"recycling","recycling:glass":"yes","recycling_type":"container"}},"type":"Feature"},
	{"geometry":{"coordinates":[2.282227,48.823155],"type":"Point"},"properties":{"osm_id":"605739177","tag":{"amenity":"recycling","recycling:glass":"yes","recycling_type":"container"}},"type":"Feature"},
	{"geometry":{"coordinates":[2.246731,48.817334],"type":"Point"},"properties":{"osm_id":"621248561","tag":{"amenity":"recycling","recycling:glass_bottles":"yes","recycling_type":"container"}},"type":"Feature"},
	{"geometry":{"coordinates":[2.24138,48.815096],"type":"Point"},"properties":{"osm_id":"621284667","tag":{"amenity":"recycling","recycling:glass":"yes","recycling_type":"container"}},"type":"Feature"},
	{"geometry":{"coordinates":[2.277177,48.815459],"type":"Point"},"properties":{"osm_id":"622429254","tag":{"amenity":"recycling","recycling:glass":"yes","recycling_type":"container"}},"type":"Feature"},
	{"geometry":{"coordinates":[2.284474,48.818299],"type":"Point"},"properties":{"osm_id":"622461150","tag":{"amenity":"recycling","recycling:cans":"no","recycling:clothes":"no","recycling:glass":"yes","recycling:paper":"no","recycling_type":"container"}},"type":"Feature"},
	{"geometry":{"coordinates":[2.271577,48.856319],"type":"Point"},"properties":{"osm_id":"663155288","tag":{"amenity":"recycling","location":"overground","recycling:glass":"yes","recycling_type":"container"}},"type":"Feature"},
	{"geometry":{"coordinates":[2.266527,48.849331],"type":"Point"},"properties":{"osm_id":"663167693","tag":{"amenity":"recycling"}},"type":"Feature"},
	{"geometry":{"coordinates":[2.264375,48.847913],"type":"Point"},"properties":{"osm_id":"663168623","tag":{"amenity":"recycling"}},"type":"Feature"},
	{"geometry":{"coordinates":[2.276931,48.857549],"type":"Point"},"properties":{"osm_id":"672710033","ref":"D438","tag":{"amenity":"recycling","recycling:glass_bottles":"yes","recycling_type":"container"}},"type":"Feature"},
	{"geometry":{"coordinates":[2.219511,48.825722],"type":"Point"},"properties":{"osm_id":"706164679","tag":{"amenity":"recycling","recycling:glass":"yes","recycling_type":"container"}},"type":"Feature"},
	{"geometry":{"coordinates":[2.238222,48.827043],"type":"Point"},"properties":{"osm_id":"877113810","tag":{"amenity":"recycling","location":"underground","recycling:glass":"yes","recycling_type":"container"}},"type":"Feature"},
	{"geometry":{"coordinates":[2.241339,48.831266],"type":"Point"},"properties":{"osm_id":"878714977","tag":{"amenity":"recycling","recycling:glass":"yes","recycling_type":"container"}},"type":"Feature"},
	{"geometry":{"coordinates":[2.243998,48.834505],"type":"Point"},"properties":{"osm_id":"892853452","tag":{"amenity":"recycling","recycling:glass":"yes","recycling_type":"container"}},"type":"Feature"},
	{"geometry":{"coordinates":[2.232976,48.847322],"type":"Point"},"properties":{"osm_id":"913773257","tag":{"amenity":"recycling","recycling:glass":"yes"}},"type":"Feature"},
	{"geometry":{"coordinates":[2.242655,48.839375],"type":"Point"},"properties":{"osm_id":"940119636","tag":{"amenity":"recycling","recycling:glass":"yes","recycling_type":"container"}},"type":"Feature"},
	{"geometry":{"coordinates":[2.243629,48.837239],"type":"Point"},"properties":{"osm_id":"940119709","tag":{"amenity":"recycling","recycling:glass":"yes","recycling_type":"container"}},"type":"Feature"},
	{"geometry":{"coordinates":[2.233277,48.833465],"type":"Point"},"properties":{"osm_id":"959751637","tag":{"amenity":"recycling","recycling:clothes":"yes"}},"type":"Feature"},
	{"geometry":{"coordinates":[2.232307,48.835704],"type":"Point"},"properties":{"osm_id":"959751642","tag":{"amenity":"recycling","recycling:glass":"yes","recycling_type":"container"}},"type":"Feature"},
	{"geometry":{"coordinates":[2.233281,48.83349],"type":"Point"},"properties":{"osm_id":"959751697","tag":{"amenity":"recycling","recycling:glass":"yes","recycling_type":"container"}},"type":"Feature"},
	{"geometry":{"coordinates":[2.231891,48.832004],"type":"Point"},"properties":{"osm_id":"959751700","tag":{"amenity":"recycling","recycling:glass_bottles":"yes","recycling_type":"container"}},"type":"Feature"},
	{"geometry":{"coordinates":[2.234684,48.827923],"type":"Point"},"properties":{"osm_id":"974136953","tag":{"amenity":"recycling","location":"underground","recycling:glass":"yes","recycling_type":"container"}},"type":"Feature"},
	{"geometry":{"coordinates":[2.274903,48.857163],"type":"Point"},"properties":{"osm_id":"975207757","ref":"D461","tag":{"amenity":"recycling","recycling:glass_bottles":"yes","recycling_type":"container"}},"type":"Feature"},
	{"geometry":{"coordinates":[2.283327,48.854417],"type":"Point"},"properties":{"osm_id":"976165453","tag":{"amenity":"recycling","recycling_type":"container"}},"type":"Feature"},
	{"geometry":{"coordinates":[2.276043,48.851227],"type":"Point"},"properties":{"osm_id":"976874537","ref":"D760","tag":{"amenity":"recycling","recycling:glass_bottles":"yes","recycling_type":"container"}},"type":"Feature"},
	{"geometry":{"coordinates":[2.231968,48.829802],"type":"Point"},"properties":{"osm_id":"981370506","tag":{"amenity":"recycling","recycling:cans":"no","recycling:clothes":"yes","recycling:glass_bottles":"yes","recycling:paper":"no","recycling_type":"container"}},"type":"Feature"},
	{"geometry":{"coordinates":[2.236707,48.831289],"type":"Point"},"properties":{"osm_id":"981370597","tag":{"amenity":"recycling","recycling:glass":"yes","recycling_type":"container"}},"type":"Feature"},
	{"geometry":{"coordinates":[2.230656,48.835544],"type":"Point"},"properties":{"osm_id":"986014257","tag":{"amenity":"recycling","recycling:glass":"yes","recycling_type":"container"}},"type":"Feature"},
	{"geometry":{"coordinates":[2.237493,48.833739],"type":"Point"},"properties":{"osm_id":"987919336","tag":{"amenity":"recycling","recycling:glass":"yes","recycling_type":"container"}},"type":"Feature"},
	{"geometry":{"coordinates":[2.265146,48.853393],"type":"Point"},"properties":{"osm_id":"988268059","tag":{"amenity":"recycling","recycling_type":"container"}},"type":"Feature"},
	{"geometry":{"coordinates":[2.24657,48.838845],"type":"Point"},"properties":{"osm_id":"991196418","tag":{"amenity":"recycling","recycling:glass_bottles":"yes","recycling_type":"container"}},"type":"Feature"},
	{"geometry":{"coordinates":[2.244812,48.840765],"type":"Point"},"properties":{"osm_id":"991196451","tag":{"amenity":"recycling","recycling:glass":"yes","recycling_type":"container"}},"type":"Feature"},
	{"geometry":{"coordinates":[2.268769,48.847318],"type":"Point"},"properties":{"osm_id":"993132082","ref":"D417","tag":{"amenity":"recycling","recycling:glass_bottles":"yes","recycling_type":"container"}},"type":"Feature"},
	{"geometry":{"coordinates":[2.250516,48.838859],"type":"Point"},"properties":{"osm_id":"993642092","tag":{"amenity":"recycling","recycling:glass":"yes","recycling_type":"container"}},"type":"Feature"},
	{"geometry":{"coordinates":[2.260293,48.848347],"type":"Point"},"properties":{"osm_id":"993882166","tag":{"amenity":"recycling"}},"type":"Feature"},
	{"geometry":{"coordinates":[2.247431,48.825406],"type":"Point"},"properties":{"osm_id":"995502783","tag":{"amenity":"recycling","recycling:glass":"yes","recycling_type":"container"}},"type":"Feature"},
	{"geometry":{"coordinates":[2.243004,48.826845],"type":"Point"},"properties":{"osm_id":"995502805","tag":{"amenity":"recycling","recycling:glass":"yes","recycling_type":"container"}},"type":"Feature"},
	{"geometry":{"coordinates":[2.246195,48.828743],"type":"Point"},"properties":{"osm_id":"997119662","tag":{"amenity":"recycling","operator":"WWF","recycling:clothes":"yes","recycling_type":"container"}},"type":"Feature"},
	{"geometry":{"coordinates":[2.246096,48.828897],"type":"Point"},"properties":{"osm_id":"997119711","tag":{"amenity":"recycling","recycling:glass":"yes","recycling_type":"container"}},"type":"Feature"},
	{"geometry":{"coordinates":[2.246244,48.83295],"type":"Point"},"properties":{"osm_id":"998797562","tag":{"amenity":"recycling","recycling:glass":"yes","recycling_type":"container"}},"type":"Feature"},
	{"geometry":{"coordinates":[2.264325,48.84524],"type":"Point"},"properties":{"osm_id":"1003097357","tag":{"amenity":"recycling"}},"type":"Feature"},
	{"geometry":{"coordinates":[2.229992,48.840083],"type":"Point"},"properties":{"osm_id":"1004498969","tag":{"amenity":"recycling","operator":"WWF","recycling:clothes":"yes","recycling_type":"container"}},"type":"Feature"},
	{"geometry":{"coordinates":[2.242302,48.835234],"type":"Point"},"properties":{"osm_id":"1004499053","tag":{"amenity":"recycling","recycling:glass":"yes","recycling_type":"container"}},"type":"Feature"},
	{"geometry":{"coordinates":[2.249268,48.835655],"type":"Point"},"properties":{"osm_id":"1005362299","tag":{"amenity":"recycling","recycling:glass":"yes","recycling_type":"container"}},"type":"Feature"},
	{"geometry":{"coordinates":[2.230344,48.83134],"type":"Point"},"properties":{"osm_id":"1011083888","tag":{"amenity":"recycling","location":"overground","recycling:clothes":"yes","recycling_type":"container"}},"type":"Feature"},
	{"geometry":{"coordinates":[2.268222,48.840811],"type":"Point"},"properties":{"osm_id":"1016399754","tag":{"amenity":"recycling"}},"type":"Feature"},
	{"geometry":{"coordinates":[2.256189,48.842287],"type":"Point"},"properties":{"osm_id":"1022484792","tag":{"amenity":"recycling"}},"type":"Feature"},
	{"geometry":{"coordinates":[2.258192,48.838094],"type":"Point"},"properties":{"osm_id":"1025365432","tag":{"amenity":"recycling","recycling_type":"container"}},"type":"Feature"},
	{"geometry":{"coordinates":[2.261608,48.839323],"type":"Point"},"properties":{"osm_id":"1025400908","tag":{"amenity":"recycling","recycling_type":"container"}},"type":"Feature"},
	{"geometry":{"coordinates":[2.263227,48.839689],"type":"Point"},"properties":{"osm_id":"1025500492","tag":{"amenity":"recycling","recycling_type":"container"}},"type":"Feature"},
	{"geometry":{"coordinates":[2.262958,48.836618],"type":"Point"},"properties":{"osm_id":"1027145793","tag":{"amenity":"recycling"}},"type":"Feature"},
	{"geometry":{"coordinates":[2.269113,48.843007],"type":"Point"},"properties":{"osm_id":"1029842555","tag":{"amenity":"recycling","recycling_type":"container"}},"type":"Feature"},
	{"geometry":{"coordinates":[2.237071,48.831749],"type":"Point"},"properties":{"osm_id":"1036592689","tag":{"amenity":"recycling","recycling:glass":"yes","recycling_type":"container"}},"type":"Feature"},
	{"geometry":{"coordinates":[2.237354,48.844863],"type":"Point"},"properties":{"osm_id":"1037173784","tag":{"amenity":"recycling","recycling:glass":"yes","recycling_type":"container"}},"type":"Feature"},
	{"geometry":{"coordinates":[2.239866,48.83981],"type":"Point"},"properties":{"osm_id":"1042766773","tag":{"amenity":"recycling","recycling:glass":"yes","recycling_type":"container"}},"type":"Feature"},
	{"geometry":{"coordinates":[2.251269,48.832386],"type":"Point"},"properties":{"osm_id":"1051453435","tag":{"amenity":"recycling","location":"overground","recycling:clothes":"yes","recycling_type":"container"}},"type":"Feature"},
	{"geometry":{"coordinates":[2.249842,48.832633],"type":"Point"},"properties":{"osm_id":"1051453506","tag":{"amenity":"recycling","recycling:glass":"yes","recycling_type":"container"}},"type":"Feature"},
	{"geometry":{"coordinates":[2.253541,48.832152],"type":"Point"},"properties":{"osm_id":"1054432185","tag":{"amenity":"recycling","recycling:glass":"yes","recycling_type":"container"}},"type":"Feature"},
	{"geometry":{"coordinates":[2.251903,48.830209],"type":"Point"},"properties":{"osm_id":"1080477685","tag":{"amenity":"recycling","recycling:glass":"yes","recycling_type":"container"}},"type":"Feature"},
	{"geometry":{"coordinates":[2.250406,48.828543],"type":"Point"},"properties":{"osm_id":"1085585214","tag":{"amenity":"recycling","recycling:glass":"yes","recycling_type":"container"}},"type":"Feature"},
	{"geometry":{"coordinates":[2.254698,48.834561],"type":"Point"},"properties":{"osm_id":"1099779813","tag":{"amenity":"recycling","recycling:glass":"yes","recycling_type":"container"}},"type":"Feature"},
	{"geometry":{"coordinates":[2.254361,48.83599],"type":"Point"},"properties":{"osm_id":"1111591400","tag":{"amenity":"recycling","operator":"WWF","recycling:clothes":"yes","recycling_type":"container"}},"type":"Feature"},
	{"geometry":{"coordinates":[2.251584,48.834933],"type":"Point"},"properties":{"osm_id":"1111591432","tag":{"amenity":"recycling","recycling:glass":"yes","recycling_type":"container"}},"type":"Feature"},
	{"geometry":{"coordinates":[2.246547,48.842522],"type":"Point"},"properties":{"osm_id":"1119853534","tag":{"amenity":"recycling","recycling:glass":"yes","recycling_type":"container"}},"type":"Feature"},
	{"geometry":{"coordinates":[2.273829,48.828781],"type":"Point"},"properties":{"osm_id":"1119984221","tag":{"amenity":"recycling","location":"overground","recycling_type":"container"}},"type":"Feature"},
	{"geometry":{"coordinates":[2.255918,48.84566],"type":"Point"},"properties":{"osm_id":"1152726823","tag":{"amenity":"recycling","recycling:glass":"yes"}},"type":"Feature"},
	{"geometry":{"coordinates":[2.275829,48.852596],"type":"Point"},"properties":{"osm_id":"1188949117","ref":"D457","tag":{"amenity":"recycling","recycling:glass_bottles":"yes","recycling_type":"container"}},"type":"Feature"},
	{"geometry":{"coordinates":[2.212817,48.863967],"type":"Point"},"properties":{"osm_id":"1191785228","tag":{"amenity":"recycling","location":"overground","recycling:glass":"yes","recycling_type":"container"}},"type":"Feature"},
	{"geometry":{"coordinates":[2.212494,48.863175],"type":"Point"},"properties":{"osm_id":"1191786564","tag":{"amenity":"recycling","recycling:glass_bottles":"yes","recycling_type":"container"}},"type":"Feature"},
	{"geometry":{"coordinates":[2.247387,48.837444],"type":"Point"},"properties":{"osm_id":"1192592414","tag":{"amenity":"recycling","recycling:medical_items":"yes","recycling_type":"container"}},"type":"Feature"},
	{"geometry":{"coordinates":[2.248015,48.837643],"type":"Point"},"properties":{"osm_id":"1192592455","tag":{"amenity":"recycling","recycling:glass":"yes","recycling_type":"container"}},"type":"Feature"},
	{"geometry":{"coordinates":[2.249134,48.842725],"type":"Point"},"properties":{"osm_id":"1194067721","tag":{"amenity":"recycling","recycling:glass":"yes","recycling_type":"container"}},"type":"Feature"},
	{"geometry":{"coordinates":[2.244131,48.843888],"type":"Point"},"properties":{"osm_id":"1194067799","tag":{"amenity":"recycling","recycling:glass":"yes","recycling_type":"container"}},"type":"Feature"},
	{"geometry":{"coordinates":[2.235753,48.839964],"type":"Point"},"properties":{"osm_id":"1215879034","tag":{"amenity":"recycling","recycling:glass":"yes","recycling_type":"container"}},"type":"Feature"},
	{"geometry":{"coordinates":[2.237574,48.837332],"type":"Point"},"properties":{"osm_id":"1217472066","tag":{"amenity":"recycling","recycling:glass":"yes","recycling_type":"container"}},"type":"Feature"},
	{"geometry":{"coordinates":[2.251005,48.83864],"type":"Point"},"properties":{"osm_id":"1224158102","tag":{"amenity":"recycling","recycling:glass":"yes","recycling_type":"container"}},"type":"Feature"},
	{"geometry":{"coordinates":[2.261555,48.844943],"type":"Point"},"properties":{"osm_id":"1225227303","tag":{"amenity":"recycling","recycling:glass":"yes"}},"type":"Feature"},
	{"geometry":{"coordinates":[2.246612,48.846499],"type":"Point"},"properties":{"osm_id":"1226636473","tag":{"amenity":"recycling","recycling:glass":"yes","recycling_type":"container"}},"type":"Feature"},
	{"geometry":{"coordinates":[2.258554,48.845568],"type":"Point"},"properties":{"osm_id":"1226636479","tag":{"amenity":"recycling","recycling:glass":"yes"}},"type":"Feature"},
	{"geometry":{"coordinates":[2.242884,48.847456],"type":"Point"},"properties":{"osm_id":"1227856202","tag":{"amenity":"recycling","recycling:glass":"yes","recycling_type":"container"}},"type":"Feature"},
	{"geometry":{"coordinates":[2.243488,48.840084],"type":"Point"},"properties":{"osm_id":"1255346257","tag":{"amenity":"recycling","location":"underground","recycling:glass":"yes","recycling_type":"container"}},"type":"Feature"},
	{"geometry":{"coordinates":[2.245297,48.839302],"type":"Point"},"properties":{"osm_id":"1270203022","tag":{"amenity":"recycling","recycling:glass":"yes","recycling_type":"container"}},"type":"Feature"},
	{"geometry":{"coordinates":[2.198111,48.82587],"type":"Point"},"properties":{"osm_id":"1270591672","tag":{"amenity":"recycling","recycling:glass":"yes","recycling_type":"container"}},"type":"Feature"},
	{"geometry":{"coordinates":[2.199964,48.826008],"type":"Point"},"properties":{"osm_id":"1271290183","tag":{"amenity":"recycling","recycling:glass":"yes","recycling_type":"container"}},"type":"Feature"},
	{"geometry":{"coordinates":[2.247213,48.839582],"type":"Point"},"properties":{"osm_id":"1298347304","tag":{"amenity":"recycling","recycling:glass":"yes","recycling_type":"container"}},"type":"Feature"},
	{"geometry":{"coordinates":[2.235317,48.841696],"type":"Point"},"properties":{"osm_id":"1316079342","tag":{"amenity":"recycling","recycling:glass":"yes","recycling_type":"container"}},"type":"Feature"},
	{"geometry":{"coordinates":[2.23441,48.846867],"type":"Point"},"properties":{"osm_id":"1324794763","tag":{"amenity":"recycling","recycling:glass":"yes"}},"type":"Feature"},
	{"geometry":{"coordinates":[2.233802,48.841614],"type":"Point"},"properties":{"osm_id":"1333553872","tag":{"amenity":"recycling","recycling:glass":"yes"}},"type":"Feature"},
	{"geometry":{"coordinates":[2.230877,48.842115],"type":"Point"},"properties":{"osm_id":"1333553927","tag":{"amenity":"recycling","recycling:glass":"yes","recycling_type":"container"}},"type":"Feature"},
	{"geometry":{"coordinates":[2.232016,48.843466],"type":"Point"},"properties":{"osm_id":"1359287764","tag":{"amenity":"recycling","recycling:glass":"yes","recycling_type":"container"}},"type":"Feature"},
	{"geometry":{"coordinates":[2.231832,48.824766],"type":"Point"},"properties":{"osm_id":"1402151860","tag":{"amenity":"waste_basket"}},"type":"Feature"},
	{"geometry":{"coordinates":[2.231725,48.825007],"type":"Point"},"properties":{"osm_id":"1402151864","tag":{"amenity":"waste_basket"}},"type":"Feature"},
	{"geometry":{"coordinates":[2.226758,48.845087],"type":"Point"},"properties":{"osm_id":"1420879416","tag":{"amenity":"recycling","recycling:glass_bottles":"yes","recycling_type":"container"}},"type":"Feature"},
	{"geometry":{"coordinates":[2.281297,48.835616],"type":"Point"},"properties":{"osm_id":"1429604996","tag":{"amenity":"recycling","location":"overground","recycling:glass":"yes","recycling_type":"container"}},"type":"Feature"},
	{"geometry":{"coordinates":[2.2372,48.825829],"type":"Point"},"properties":{"osm_id":"1440253684","tag":{"amenity":"waste_basket"}},"type":"Feature"},
	{"geometry":{"coordinates":[2.236454,48.825862],"type":"Point"},"properties":{"osm_id":"1440253696","tag":{"amenity":"waste_basket"}},"type":"Feature"},
	{"geometry":{"coordinates":[2.236718,48.825956],"type":"Point"},"properties":{"osm_id":"1440253714","tag":{"amenity":"waste_basket"}},"type":"Feature"},
	{"geometry":{"coordinates":[2.2356,48.826232],"type":"Point"},"properties":{"osm_id":"1440253726","tag":{"amenity":"waste_basket"}},"type":"Feature"},
	{"geometry":{"coordinates":[2.235254,48.826298],"type":"Point"},"properties":{"osm_id":"1440253730","tag":{"amenity":"waste_basket"}},"type":"Feature"},
	{"geometry":{"coordinates":[2.235947,48.826606],"type":"Point"},"properties":{"osm_id":"1440253760","tag":{"amenity":"waste_basket"}},"type":"Feature"},
	{"geometry":{"coordinates":[2.235981,48.826735],"type":"Point"},"properties":{"osm_id":"1440253768","tag":{"amenity":"waste_basket"}},"type":"Feature"},
	{"geometry":{"coordinates":[2.236041,48.826803],"type":"Point"},"properties":{"osm_id":"1440253775","tag":{"amenity":"waste_basket"}},"type":"Feature"},
	{"geometry":{"coordinates":[2.227673,48.832531],"type":"Point"},"properties":{"osm_id":"1479121744","tag":{"amenity":"waste_basket"}},"type":"Feature"},
	{"geometry":{"coordinates":[2.244134,48.824771],"type":"Point"},"properties":{"osm_id":"1526272279","tag":{"amenity":"waste_basket"}},"type":"Feature"},
	{"geometry":{"coordinates":[2.24861,48.817456],"type":"Point"},"properties":{"osm_id":"1547149726","tag":{"amenity":"recycling","recycling:glass":"yes","recycling_type":"container"}},"type":"Feature"},
	{"geometry":{"coordinates":[2.246095,48.812905],"type":"Point"},"properties":{"osm_id":"1548662506","tag":{"amenity":"waste_basket"}},"type":"Feature"},
	{"geometry":{"coordinates":[2.245936,48.813187],"type":"Point"},"properties":{"osm_id":"1548662514","tag":{"amenity":"recycling","recycling:glass":"yes","recycling_type":"container"}},"type":"Feature"},
	{"geometry":{"coordinates":[2.242327,48.809551],"type":"Point"},"properties":{"osm_id":"1554325377","tag":{"amenity":"recycling","recycling:glass":"yes","recycling_type":"container"}},"type":"Feature"},
	{"geometry":{"coordinates":[2.242773,48.809755],"type":"Point"},"properties":{"osm_id":"1554325405","tag":{"amenity":"waste_basket"}},"type":"Feature"},
	{"geometry":{"coordinates":[2.240577,48.8079],"type":"Point"},"properties":{"osm_id":"1557117666","tag":{"amenity":"waste_basket"}},"type":"Feature"},
	{"geometry":{"coordinates":[2.235945,48.807561],"type":"Point"},"properties":{"osm_id":"1559465914","tag":{"amenity":"recycling","recycling:glass":"yes","recycling_type":"container"}},"type":"Feature"},
	{"geometry":{"coordinates":[2.235878,48.80763],"type":"Point"},"properties":{"osm_id":"1559465921","tag":{"amenity":"waste_basket"}},"type":"Feature"},
	{"geometry":{"coordinates":[2.236811,48.811344],"type":"Point"},"properties":{"osm_id":"1578099064","tag":{"amenity":"recycling","recycling:glass":"yes","recycling_type":"container"}},"type":"Feature"},
	{"geometry":{"coordinates":[2.236922,48.811554],"type":"Point"},"properties":{"osm_id":"1578099078","tag":{"amenity":"waste_basket"}},"type":"Feature"},
	{"geometry":{"coordinates":[2.234672,48.8147],"type":"Point"},"properties":{"osm_id":"1586950612","tag":{"amenity":"recycling","recycling:glass":"yes","recycling_type":"container"}},"type":"Feature"},
	{"geometry":{"coordinates":[2.234726,48.814567],"type":"Point"},"properties":{"osm_id":"1594647302","tag":{"amenity":"waste_basket"}},"type":"Feature"},
	{"geometry":{"coordinates":[2.232328,48.816334],"type":"Point"},"properties":{"osm_id":"1594647343","tag":{"amenity":"waste_basket"}},"type":"Feature"},
	{"geometry":{"coordinates":[2.231794,48.816651],"type":"Point"},"properties":{"osm_id":"1594647347","tag":{"amenity":"waste_basket"}},"type":"Feature"},
	{"geometry":{"coordinates":[2.23937,48.818875],"type":"Point"},"properties":{"osm_id":"1597620193","tag":{"amenity":"recycling","recycling:glass":"yes","recycling_type":"container"}},"type":"Feature"},
	{"geometry":{"coordinates":[2.245846,48.817845],"type":"Point"},"properties":{"osm_id":"1614244883","tag":{"amenity":"waste_basket"}},"type":"Feature"},
	{"geometry":{"coordinates":[2.247646,48.826233],"type":"Point"},"properties":{"osm_id":"1615612296","tag":{"amenity":"waste_basket"}},"type":"Feature"},
	{"geometry":{"coordinates":[2.247211,48.826941],"type":"Point"},"properties":{"osm_id":"1615612305","tag":{"amenity":"waste_basket"}},"type":"Feature"},
	{"geometry":{"coordinates":[2.236678,48.831301],"type":"Point"},"properties":{"osm_id":"1621600656","tag":{"amenity":"waste_basket"}},"type":"Feature"},
	{"geometry":{"coordinates":[2.238062,48.831794],"type":"Point"},"properties":{"osm_id":"1621600667","tag":{"amenity":"recycling","recycling:glass":"yes","recycling_type":"container"}},"type":"Feature"},
	{"geometry":{"coordinates":[2.23745,48.829896],"type":"Point"},"properties":{"osm_id":"1631283642","tag":{"amenity":"recycling","recycling:glass":"yes","recycling_type":"container"}},"type":"Feature"},
	{"geometry":{"coordinates":[2.238805,48.830171],"type":"Point"},"properties":{"osm_id":"1631283653","tag":{"amenity":"recycling","recycling:glass":"yes","recycling_type":"container"}},"type":"Feature"},
	{"geometry":{"coordinates":[2.23436,48.836367],"type":"Point"},"properties":{"osm_id":"1674539449","tag":{"amenity":"waste_basket"}},"type":"Feature"},
	{"geometry":{"coordinates":[2.234511,48.840283],"type":"Point"},"properties":{"osm_id":"1674539479","tag":{"amenity":"waste_basket"}},"type":"Feature"},
	{"geometry":{"coordinates":[2.233835,48.840335],"type":"Point"},"properties":{"osm_id":"1674539481","tag":{"amenity":"waste_basket"}},"type":"Feature"},
	{"geometry":{"coordinates":[2.233794,48.828487],"type":"Point"},"properties":{"osm_id":"1675825652","tag":{"amenity":"waste_basket"}},"type":"Feature"},
	{"geometry":{"coordinates":[2.233388,48.829435],"type":"Point"},"properties":{"osm_id":"1675825656","tag":{"amenity":"waste_basket"}},"type":"Feature"},
	{"geometry":{"coordinates":[2.232665,48.830007],"type":"Point"},"properties":{"osm_id":"1675825659","tag":{"amenity":"waste_basket"}},"type":"Feature"},
	{"geometry":{"coordinates":[2.231191,48.830134],"type":"Point"},"properties":{"osm_id":"1675825668","tag":{"amenity":"waste_basket"}},"type":"Feature"},
	{"geometry":{"coordinates":[2.230877,48.830747],"type":"Point"},"properties":{"osm_id":"1675825669","tag":{"amenity":"recycling","recycling:glass_bottles":"yes","recycling_type":"container"}},"type":"Feature"},
	{"geometry":{"coordinates":[2.23032,48.831389],"type":"Point"},"properties":{"osm_id":"1675825671","tag":{"amenity":"waste_basket"}},"type":"Feature"},
	{"geometry":{"coordinates":[2.229102,48.832769],"type":"Point"},"properties":{"osm_id":"1675825672","tag":{"amenity":"waste_basket"}},"type":"Feature"},
	{"geometry":{"coordinates":[2.22788,48.837138],"type":"Point"},"properties":{"osm_id":"1675825713","tag":{"amenity":"waste_basket"}},"type":"Feature"},
	{"geometry":{"coordinates":[2.228093,48.837583],"type":"Point"},"properties":{"osm_id":"1675825714","tag":{"amenity":"waste_basket"}},"type":"Feature"},
	{"geometry":{"coordinates":[2.23445,48.837809],"type":"Point"},"properties":{"osm_id":"1675825720","tag":{"amenity":"waste_basket"}},"type":"Feature"},
	{"geometry":{"coordinates":[2.233915,48.838204],"type":"Point"},"properties":{"osm_id":"1675825739","tag":{"amenity":"waste_basket"}},"type":"Feature"},
	{"geometry":{"coordinates":[2.233815,48.838266],"type":"Point"},"properties":{"osm_id":"1675825740","tag":{"amenity":"recycling","recycling:glass":"yes","recycling_type":"container"}},"type":"Feature"},
	{"geometry":{"coordinates":[2.228222,48.838401],"type":"Point"},"properties":{"osm_id":"1675825749","tag":{"amenity":"recycling","recycling:glass":"yes","recycling_type":"container"}},"type":"Feature"},
	{"geometry":{"coordinates":[2.235717,48.839217],"type":"Point"},"properties":{"osm_id":"1675825771","tag":{"amenity":"waste_basket"}},"type":"Feature"},
	{"geometry":{"coordinates":[2.228411,48.839799],"type":"Point"},"properties":{"osm_id":"1675825836","tag":{"amenity":"waste_basket"}},"type":"Feature"},
	{"geometry":{"coordinates":[2.228599,48.840028],"type":"Point"},"properties":{"osm_id":"1675825856","tag":{"amenity":"waste_basket"}},"type":"Feature"},
	{"geometry":{"coordinates":[2.229103,48.840292],"type":"Point"},"properties":{"osm_id":"1675825861","tag":{"amenity":"waste_basket"}},"type":"Feature"},
	{"geometry":{"coordinates":[2.228625,48.840292],"type":"Point"},"properties":{"osm_id":"1675825869","tag":{"amenity":"waste_basket"}},"type":"Feature"},
	{"geometry":{"coordinates":[2.232261,48.838209],"type":"Point"},"properties":{"osm_id":"1677008821","tag":{"amenity":"waste_basket"}},"type":"Feature"},
	{"geometry":{"coordinates":[2.231706,48.839322],"type":"Point"},"properties":{"osm_id":"1677008858","tag":{"amenity":"recycling","recycling:glass":"yes","recycling_type":"container"}},"type":"Feature"},
	{"geometry":{"coordinates":[2.2317,48.839324],"type":"Point"},"properties":{"osm_id":"1677008861","tag":{"amenity":"waste_basket"}},"type":"Feature"},
	{"geometry":{"coordinates":[2.235506,48.839724],"type":"Point"},"properties":{"osm_id":"1677008961","tag":{"amenity":"waste_basket"}},"type":"Feature"},
	{"geometry":{"coordinates":[2.234053,48.840078],"type":"Point"},"properties":{"osm_id":"1677009066","tag":{"amenity":"waste_basket"}},"type":"Feature"},
	{"geometry":{"coordinates":[2.234074,48.840133],"type":"Point"},"properties":{"osm_id":"1677009072","tag":{"amenity":"waste_basket"}},"type":"Feature"},
	{"geometry":{"coordinates":[2.232069,48.840314],"type":"Point"},"properties":{"osm_id":"1677009081","tag":{"amenity":"recycling","recycling:glass":"yes","recycling_type":"container"}},"type":"Feature"},
	{"geometry":{"coordinates":[2.230095,48.835369],"type":"Point"},"properties":{"osm_id":"1681560405","tag":{"amenity":"waste_basket"}},"type":"Feature"},
	{"geometry":{"coordinates":[2.226089,48.834768],"type":"Point"},"properties":{"osm_id":"1684652174","tag":{"amenity":"recycling","recycling:glass":"yes","recycling_type":"container"}},"type":"Feature"},
	{"geometry":{"coordinates":[2.234452,48.830929],"type":"Point"},"properties":{"osm_id":"1687160640","tag":{"amenity":"recycling","location":"overground","recycling:clothes":"yes","recycling_type":"container"}},"type":"Feature"},
	{"geometry":{"coordinates":[2.234515,48.830994],"type":"Point"},"properties":{"osm_id":"1687160647","tag":{"amenity":"recycling","recycling:glass":"yes","recycling_type":"container"}},"type":"Feature"},
	{"geometry":{"coordinates":[2.234485,48.831069],"type":"Point"},"properties":{"osm_id":"1687160652","tag":{"amenity":"waste_basket"}},"type":"Feature"},
	{"geometry":{"coordinates":[2.23364,48.833042],"type":"Point"},"properties":{"osm_id":"1687160669","tag":{"amenity":"waste_basket"}},"type":"Feature"},
	{"geometry":{"coordinates":[2.224263,48.838828],"type":"Point"},"properties":{"osm_id":"1687160686","tag":{"amenity":"recycling","recycling:glass_bottles":"yes","recycling_type":"container"}},"type":"Feature"},
	{"geometry":{"coordinates":[2.224989,48.84053],"type":"Point"},"properties":{"osm_id":"1687160721","tag":{"amenity":"waste_basket"}},"type":"Feature"},
	{"geometry":{"coordinates":[2.268214,48.83476],"type":"Point"},"properties":{"osm_id":"1756694588","tag":{"entrance":"yes"}},"type":"Feature"},
	{"geometry":{"coordinates":[2.241723,48.827583],"type":"Point"},"properties":{"osm_id":"1798101267","tag":{"amenity":"recycling","location":"underground","recycling:glass":"yes","recycling_type":"container"}},"type":"Feature"},
	{"geometry":{"coordinates":[2.198318,48.818775],"type":"Point"},"properties":{"osm_id":"1798131961","tag":{"amenity":"recycling","recycling:glass_bottles":"yes","recycling_type":"container"}},"type":"Feature"},
	{"geometry":{"coordinates":[2.277931,48.850873],"type":"Point"},"properties":{"osm_id":"1827365955","tag":{"amenity":"recycling","recycling_type":"container"}},"type":"Feature"},
	{"geometry":{"coordinates":[2.275659,48.854082],"type":"Point"},"properties":{"osm_id":"1986819817","ref":"D700","tag":{"amenity":"recycling","recycling:glass_bottles":"yes","recycling_type":"container"}},"type":"Feature"},
	{"geometry":{"coordinates":[2.277152,48.859258],"type":"Point"},"properties":{"osm_id":"1986819888","ref":"D397","tag":{"amenity":"recycling","recycling:glass_bottles":"yes","recycling_type":"container"}},"type":"Feature"},
	{"geometry":{"coordinates":[2.282448,48.86078],"type":"Point"},"properties":{"osm_id":"1987166868","tag":{"amenity":"recycling","recycling:glass_bottles":"yes","recycling_type":"container"}},"type":"Feature"},
	{"geometry":{"coordinates":[2.206464,48.811025],"type":"Point"},"properties":{"name":"WWF","osm_id":"1990965504","tag":{"amenity":"recycling","recycling:clothes":"yes","recycling_type":"container"}},"type":"Feature"},
	{"geometry":{"coordinates":[2.229359,48.818846],"type":"Point"},"properties":{"osm_id":"1990988116","tag":{"amenity":"recycling","recycling:glass_bottles":"yes","recycling_type":"container"}},"type":"Feature"},
	{"geometry":{"coordinates":[2.280488,48.852757],"type":"Point"},"properties":{"osm_id":"2152678125","tag":{"amenity":"waste_basket"}},"type":"Feature"},
	{"geometry":{"coordinates":[2.221074,48.842414],"type":"Point"},"properties":{"osm_id":"2154724581","tag":{"amenity":"waste_basket"}},"type":"Feature"},
	{"geometry":{"coordinates":[2.232419,48.83629],"type":"Point"},"properties":{"osm_id":"2225442800","tag":{"amenity":"waste_basket"}},"type":"Feature"},
	{"geometry":{"coordinates":[2.232244,48.835744],"type":"Point"},"properties":{"osm_id":"2228451076","tag":{"amenity":"waste_basket"}},"type":"Feature"},
	{"geometry":{"coordinates":[2.234568,48.835962],"type":"Point"},"properties":{"osm_id":"2231330555","tag":{"amenity":"waste_basket"}},"type":"Feature"},
	{"geometry":{"coordinates":[2.241442,48.815153],"type":"Point"},"properties":{"osm_id":"2290380157","tag":{"amenity":"recycling","recycling:glass":"yes","recycling_type":"container"}},"type":"Feature"},
	{"geometry":{"coordinates":[2.275962,48.832558],"type":"Point"},"properties":{"osm_id":"2303943778","tag":{"amenity":"waste_basket"}},"type":"Feature"},
	{"geometry":{"coordinates":[2.270308,48.831842],"type":"Point"},"properties":{"osm_id":"2303943787","tag":{"amenity":"waste_basket"}},"type":"Feature"},
	{"geometry":{"coordinates":[2.269385,48.832596],"type":"Point"},"properties":{"osm_id":"2303943790","tag":{"amenity":"waste_basket"}},"type":"Feature"},
	{"geometry":{"coordinates":[2.272931,48.832075],"type":"Point"},"properties":{"osm_id":"2303943792","tag":{"amenity":"waste_basket"}},"type":"Feature"},
	{"geometry":{"coordinates":[2.273856,48.832038],"type":"Point"},"properties":{"osm_id":"2303943795","tag":{"amenity":"waste_basket"}},"type":"Feature"},
	{"geometry":{"coordinates":[2.240526,48.807998],"type":"Point"},"properties":{"osm_id":"2304899717","tag":{"amenity":"recycling","recycling:glass":"yes","recycling:glass_bottles":"yes","recycling_type":"container"}},"type":"Feature"},
	{"geometry":{"coordinates":[2.229518,48.820109],"type":"Point"},"properties":{"osm_id":"2307380401","tag":{"amenity":"recycling","recycling:glass":"yes","recycling_type":"container"}},"type":"Feature"},
	{"geometry":{"coordinates":[2.228016,48.836331],"type":"Point"},"properties":{"osm_id":"2351248755","tag":{"amenity":"waste_basket"}},"type":"Feature"},
	{"geometry":{"coordinates":[2.229342,48.832566],"type":"Point"},"properties":{"osm_id":"2366203438","tag":{"amenity":"waste_basket"}},"type":"Feature"},
	{"geometry":{"coordinates":[2.229378,48.832692],"type":"Point"},"properties":{"osm_id":"2366203439","tag":{"amenity":"waste_basket"}},"type":"Feature"},
	{"geometry":{"coordinates":[2.228698,48.833543],"type":"Point"},"properties":{"osm_id":"2366203443","tag":{"amenity":"waste_basket"}},"type":"Feature"},
	{"geometry":{"coordinates":[2.228555,48.83419],"type":"Point"},"properties":{"osm_id":"2366203444","tag":{"amenity":"waste_basket"}},"type":"Feature"},
	{"geometry":{"coordinates":[2.227936,48.834996],"type":"Point"},"properties":{"osm_id":"2366203448","tag":{"amenity":"waste_basket"}},"type":"Feature"},
	{"geometry":{"coordinates":[2.230728,48.835841],"type":"Point"},"properties":{"osm_id":"2366203451","tag":{"amenity":"waste_basket"}},"type":"Feature"},
	{"geometry":{"coordinates":[2.228227,48.838242],"type":"Point"},"properties":{"osm_id":"2366203467","tag":{"amenity":"waste_basket"}},"type":"Feature"},
	{"geometry":{"coordinates":[2.232221,48.831787],"type":"Point"},"properties":{"osm_id":"2367368365","tag":{"amenity":"waste_basket"}},"type":"Feature"},
	{"geometry":{"coordinates":[2.231512,48.832922],"type":"Point"},"properties":{"osm_id":"2367368471","tag":{"amenity":"waste_basket"}},"type":"Feature"},
	{"geometry":{"coordinates":[2.231683,48.832945],"type":"Point"},"properties":{"osm_id":"2367368478","tag":{"amenity":"waste_basket"}},"type":"Feature"},
	{"geometry":{"coordinates":[2.229598,48.830094],"type":"Point"},"properties":{"osm_id":"2367808377","tag":{"amenity":"waste_basket"}},"type":"Feature"},
	{"geometry":{"coordinates":[2.23009,48.830168],"type":"Point"},"properties":{"osm_id":"2367808397","tag":{"amenity":"waste_basket"}},"type":"Feature"},
	{"geometry":{"coordinates":[2.230017,48.83028],"type":"Point"},"properties":{"osm_id":"2367808410","tag":{"amenity":"waste_basket"}},"type":"Feature"},
	{"geometry":{"coordinates":[2.229763,48.83031],"type":"Point"},"properties":{"osm_id":"2367808415","tag":{"amenity":"waste_basket"}},"type":"Feature"},
	{"geometry":{"coordinates":[2.22964,48.830533],"type":"Point"},"properties":{"osm_id":"2367808430","tag":{"amenity":"waste_basket"}},"type":"Feature"},
	{"geometry":{"coordinates":[2.226468,48.834249],"type":"Point"},"properties":{"osm_id":"2368693576","tag":{"amenity":"waste_basket"}},"type":"Feature"},
	{"geometry":{"coordinates":[2.238225,48.827133],"type":"Point"},"properties":{"osm_id":"2371284132","tag":{"amenity":"waste_basket"}},"type":"Feature"},
	{"geometry":{"coordinates":[2.237931,48.828887],"type":"Point"},"properties":{"osm_id":"2373723442","tag":{"amenity":"recycling","location":"underground","recycling:glass":"yes","recycling_type":"container"}},"type":"Feature"},
	{"geometry":{"coordinates":[2.280381,48.853022],"type":"Point"},"properties":{"osm_id":"2394065597","tag":{"amenity":"waste_basket"}},"type":"Feature"},
	{"geometry":{"coordinates":[2.280498,48.853095],"type":"Point"},"properties":{"osm_id":"2394065631","tag":{"amenity":"waste_basket"}},"type":"Feature"},
	{"geometry":{"coordinates":[2.236696,48.83668],"type":"Point"},"properties":{"osm_id":"2403979037","tag":{"amenity":"waste_basket"}},"type":"Feature"},
	{"geometry":{"coordinates":[2.239413,48.8366],"type":"Point"},"properties":{"osm_id":"2405146645","tag":{"amenity":"waste_basket"}},"type":"Feature"},
	{"geometry":{"coordinates":[2.212541,48.86187],"type":"Point"},"properties":{"osm_id":"2405467375","tag":{"amenity":"waste_basket"}},"type":"Feature"},
	{"geometry":{"coordinates":[2.212564,48.861869],"type":"Point"},"properties":{"osm_id":"2405467409","tag":{"amenity":"waste_basket"}},"type":"Feature"},
	{"geometry":{"coordinates":[2.227166,48.821384],"type":"Point"},"properties":{"osm_id":"2415727686","tag":{"amenity":"recycling","recycling:glass_bottles":"yes","recycling_type":"container"}},"type":"Feature"},
	{"geometry":{"coordinates":[2.232529,48.828149],"type":"Point"},"properties":{"osm_id":"2437417686","tag":{"amenity":"waste_basket"}},"type":"Feature"},
	{"geometry":{"coordinates":[2.237203,48.825454],"type":"Point"},"properties":{"osm_id":"2444848765","tag":{"amenity":"waste_basket"}},"type":"Feature"},
	{"geometry":{"coordinates":[2.234457,48.826316],"type":"Point"},"properties":{"osm_id":"2444848854","tag":{"amenity":"waste_basket"}},"type":"Feature"},
	{"geometry":{"coordinates":[2.276858,48.838637],"type":"Point"},"properties":{"osm_id":"2449611137","tag":{"amenity":"recycling","recycling:glass_bottles":"no","recycling:paper":"yes","recycling:plastic":"yes","recycling_type":"container"}},"type":"Feature"},
	{"geometry":{"coordinates":[2.234356,48.820477],"type":"Point"},"properties":{"osm_id":"2452736289","tag":{"amenity":"waste_basket"}},"type":"Feature"},
	{"geometry":{"coordinates":[2.234656,48.820412],"type":"Point"},"properties":{"osm_id":"2452736292","tag":{"amenity":"recycling","recycling:glass_bottles":"yes","recycling_type":"container"}},"type":"Feature"},
	{"geometry":{"coordinates":[2.231646,48.822002],"type":"Point"},"properties":{"osm_id":"2452738628","tag":{"amenity":"waste_basket"}},"type":"Feature"},
	{"geometry":{"coordinates":[2.217351,48.844945],"type":"Point"},"properties":{"osm_id":"2504455999","tag":{"amenity":"waste_basket"}},"type":"Feature"},
	{"geometry":{"coordinates":[2.271543,48.811953],"type":"Point"},"properties":{"osm_id":"2628936708","tag":{"amenity":"recycling","recycling:clothes":"yes","recycling:shoes":"yes","recycling_type":"container"}},"type":"Feature"},
	{"geometry":{"coordinates":[2.233456,48.830268],"type":"Point"},"properties":{"osm_id":"2647997071","tag":{"amenity":"recycling","recycling:cans":"no","recycling:clothes":"yes","recycling:glass_bottles":"yes","recycling:paper":"no","recycling_type":"container"}},"type":"Feature"},
	{"geometry":{"coordinates":[2.277967,48.846205],"type":"Point"},"properties":{"osm_id":"2689489609","tag":{"amenity":"recycling","recycling:glass":"yes","recycling_type":"container"}},"type":"Feature"},
	{"geometry":{"coordinates":[2.216976,48.845305],"type":"Point"},"properties":{"osm_id":"2697560194","tag":{"amenity":"waste_basket","level":"1"}},"type":"Feature"},
	{"geometry":{"coordinates":[2.217434,48.84541],"type":"Point"},"properties":{"osm_id":"2697560203","tag":{"amenity":"waste_basket","level":"0"}},"type":"Feature"},
	{"geometry":{"coordinates":[2.217133,48.845422],"type":"Point"},"properties":{"osm_id":"2697560204","tag":{"amenity":"waste_basket","layer":"1","level":"1"}},"type":"Feature"},
	{"geometry":{"coordinates":[2.217008,48.845425],"type":"Point"},"properties":{"osm_id":"2697560205","tag":{"amenity":"waste_basket","layer":"1","level":"1"}},"type":"Feature"},
	{"geometry":{"coordinates":[2.217274,48.845436],"type":"Point"},"properties":{"osm_id":"2697560207","tag":{"amenity":"waste_basket","level":"0"}},"type":"Feature"},
	{"geometry":{"coordinates":[2.217072,48.845611],"type":"Point"},"properties":{"osm_id":"2697560226","tag":{"amenity":"waste_basket","layer":"1","level":"1"}},"type":"Feature"},
	{"geometry":{"coordinates":[2.216415,48.845712],"type":"Point"},"properties":{"osm_id":"2697560268","tag":{"amenity":"waste_basket"}},"type":"Feature"},
	{"geometry":{"coordinates":[2.217643,48.845942],"type":"Point"},"properties":{"osm_id":"2697560307","tag":{"amenity":"waste_basket","level":"0"}},"type":"Feature"},
	{"geometry":{"coordinates":[2.217446,48.845957],"type":"Point"},"properties":{"osm_id":"2697560311","tag":{"amenity":"waste_basket","level":"0"}},"type":"Feature"},
	{"geometry":{"coordinates":[2.217689,48.846064],"type":"Point"},"properties":{"osm_id":"2697560333","tag":{"amenity":"waste_basket","level":"0"}},"type":"Feature"},
	{"geometry":{"coordinates":[2.217493,48.846094],"type":"Point"},"properties":{"osm_id":"2697560345","tag":{"amenity":"waste_basket","level":"0"}},"type":"Feature"},
	{"geometry":{"coordinates":[2.217748,48.846193],"type":"Point"},"properties":{"osm_id":"2697560380","tag":{"amenity":"waste_basket"}},"type":"Feature"},
	{"geometry":{"coordinates":[2.217553,48.846225],"type":"Point"},"properties":{"osm_id":"2697560391","tag":{"amenity":"waste_basket"}},"type":"Feature"},
	{"geometry":{"coordinates":[2.217802,48.846502],"type":"Point"},"properties":{"osm_id":"2697560435","tag":{"amenity":"waste_basket","level":"0"}},"type":"Feature"},
	{"geometry":{"coordinates":[2.217607,48.846518],"type":"Point"},"properties":{"osm_id":"2697560443","tag":{"amenity":"waste_basket","level":"0"}},"type":"Feature"},
	{"geometry":{"coordinates":[2.217833,48.846589],"type":"Point"},"properties":{"osm_id":"2697560453","tag":{"amenity":"waste_basket"}},"type":"Feature"},
	{"geometry":{"coordinates":[2.217665,48.84669],"type":"Point"},"properties":{"osm_id":"2697560467","tag":{"amenity":"waste_basket"}},"type":"Feature"},
	{"geometry":{"coordinates":[2.216722,48.855666],"type":"Point"},"properties":{"osm_id":"2698032621","tag":{"amenity":"waste_basket"}},"type":"Feature"},
	{"geometry":{"coordinates":[2.216704,48.855859],"type":"Point"},"properties":{"osm_id":"2698032624","tag":{"amenity":"waste_basket"}},"type":"Feature"},
	{"geometry":{"coordinates":[2.216522,48.855904],"type":"Point"},"properties":{"osm_id":"2698032627","tag":{"amenity":"waste_basket"}},"type":"Feature"},
	{"geometry":{"coordinates":[2.216499,48.856056],"type":"Point"},"properties":{"osm_id":"2698032634","tag":{"amenity":"waste_basket"}},"type":"Feature"},
	{"geometry":{"coordinates":[2.216483,48.856209],"type":"Point"},"properties":{"osm_id":"2698032642","tag":{"amenity":"waste_basket"}},"type":"Feature"},
	{"geometry":{"coordinates":[2.216483,48.856293],"type":"Point"},"properties":{"osm_id":"2698032647","tag":{"amenity":"waste_basket"}},"type":"Feature"},
	{"geometry":{"coordinates":[2.216476,48.856359],"type":"Point"},"properties":{"osm_id":"2698032654","tag":{"amenity":"waste_basket"}},"type":"Feature"},
	{"geometry":{"coordinates":[2.216075,48.856427],"type":"Point"},"properties":{"osm_id":"2698032662","tag":{"amenity":"waste_basket"}},"type":"Feature"},
	{"geometry":{"coordinates":[2.216451,48.856776],"type":"Point"},"properties":{"osm_id":"2698032777","tag":{"amenity":"waste_basket"}},"type":"Feature"},
	{"geometry":{"coordinates":[2.216446,48.856941],"type":"Point"},"properties":{"osm_id":"2698032846","tag":{"amenity":"waste_basket"}},"type":"Feature"},
	{"geometry":{"coordinates":[2.231786,48.822073],"type":"Point"},"properties":{"osm_id":"2724301521","tag":{"amenity":"waste_basket"}},"type":"Feature"},
	{"geometry":{"coordinates":[2.237686,48.815618],"type":"Point"},"properties":{"osm_id":"2795382282","tag":{"amenity":"waste_basket"}},"type":"Feature"},
	{"geometry":{"coordinates":[2.235179,48.816702],"type":"Point"},"properties":{"osm_id":"2795382305","tag":{"amenity":"waste_basket"}},"type":"Feature"},
	{"geometry":{"coordinates":[2.234662,48.817023],"type":"Point"},"properties":{"osm_id":"2795382308","tag":{"amenity":"waste_basket"}},"type":"Feature"},
	{"geometry":{"coordinates":[2.240143,48.838735],"type":"Point"},"properties":{"osm_id":"2850121770","tag":{"amenity":"waste_basket"}},"type":"Feature"},
	{"geometry":{"coordinates":[2.242099,48.834676],"type":"Point"},"properties":{"osm_id":"2850240180","tag":{"amenity":"waste_basket"}},"type":"Feature"},
	{"geometry":{"coordinates":[2.273009,48.813715],"type":"Point"},"properties":{"osm_id":"2868784799","tag":{"amenity":"waste_basket","level":"0"}},"type":"Feature"},
	{"geometry":{"coordinates":[2.273097,48.813807],"type":"Point"},"properties":{"osm_id":"2868835312","tag":{"amenity":"waste_basket","level":"0"}},"type":"Feature"},
	{"geometry":{"coordinates":[2.274784,48.814248],"type":"Point"},"properties":{"osm_id":"2868835370","tag":{"amenity":"waste_basket","capacity":"2","level":"0"}},"type":"Feature"},
	{"geometry":{"coordinates":[2.242795,48.814286],"type":"Point"},"properties":{"osm_id":"2870191303","tag":{"amenity":"waste_basket","layer":"-1"}},"type":"Feature"},
	{"geometry":{"coordinates":[2.242688,48.814419],"type":"Point"},"properties":{"osm_id":"2870191319","tag":{"amenity":"waste_basket","layer":"-1"}},"type":"Feature"},
	{"geometry":{"coordinates":[2.242746,48.814512],"type":"Point"},"properties":{"osm_id":"2870191327","tag":{"amenity":"waste_basket","layer":"-1"}},"type":"Feature"},
	{"geometry":{"coordinates":[2.242024,48.814578],"type":"Point"},"properties":{"osm_id":"2870191331","tag":{"amenity":"waste_basket","layer":"-1"}},"type":"Feature"},
	{"geometry":{"coordinates":[2.241633,48.814685],"type":"Point"},"properties":{"osm_id":"2870191333","tag":{"amenity":"waste_basket","layer":"-1"}},"type":"Feature"},
	{"geometry":{"coordinates":[2.240801,48.814772],"type":"Point"},"properties":{"osm_id":"2870191338","tag":{"amenity":"waste_basket"}},"type":"Feature"},
	{"geometry":{"coordinates":[2.241335,48.814777],"type":"Point"},"properties":{"osm_id":"2870191339","tag":{"amenity":"waste_basket","layer":"-1"}},"type":"Feature"},
	{"geometry":{"coordinates":[2.240976,48.814794],"type":"Point"},"properties":{"osm_id":"2870191341","tag":{"amenity":"waste_basket"}},"type":"Feature"},
	{"geometry":{"coordinates":[2.241225,48.814806],"type":"Point"},"properties":{"osm_id":"2870191342","tag":{"amenity":"waste_basket","layer":"-1"}},"type":"Feature"},
	{"geometry":{"coordinates":[2.240935,48.814837],"type":"Point"},"properties":{"osm_id":"2870191345","tag":{"amenity":"waste_basket"}},"type":"Feature"},
	{"geometry":{"coordinates":[2.240992,48.814869],"type":"Point"},"properties":{"osm_id":"2870191349","tag":{"amenity":"waste_basket","layer":"-1"}},"type":"Feature"},
	{"geometry":{"coordinates":[2.241002,48.814898],"type":"Point"},"properties":{"osm_id":"2870191353","tag":{"amenity":"waste_basket"}},"type":"Feature"},
	{"geometry":{"coordinates":[2.24083,48.814917],"type":"Point"},"properties":{"osm_id":"2870191357","tag":{"amenity":"waste_basket","layer":"-1"}},"type":"Feature"},
	{"geometry":{"coordinates":[2.24063,48.81498],"type":"Point"},"properties":{"osm_id":"2870191361","tag":{"amenity":"waste_basket","layer":"-1"}},"type":"Feature"},
	{"geometry":{"coordinates":[2.24043,48.815036],"type":"Point"},"properties":{"osm_id":"2870191363","tag":{"amenity":"waste_basket","layer":"-1"}},"type":"Feature"},
	{"geometry":{"coordinates":[2.20046,48.82634],"type":"Point"},"properties":{"osm_id":"2872764487","tag":{"amenity":"waste_basket"}},"type":"Feature"},
	{"geometry":{"coordinates":[2.200501,48.826557],"type":"Point"},"properties":{"osm_id":"2872764491","tag":{"amenity":"waste_basket"}},"type":"Feature"},
	{"geometry":{"coordinates":[2.200552,48.826775],"type":"Point"},"properties":{"osm_id":"2872764495","tag":{"amenity":"waste_basket"}},"type":"Feature"},
	{"geometry":{"coordinates":[2.200755,48.82702],"type":"Point"},"properties":{"osm_id":"2872764708","tag":{"amenity":"waste_basket"}},"type":"Feature"},
	{"geometry":{"coordinates":[2.200612,48.827087],"type":"Point"},"properties":{"osm_id":"2872764710","tag":{"amenity":"waste_basket"}},"type":"Feature"},
	{"geometry":{"coordinates":[2.200773,48.827118],"type":"Point"},"properties":{"osm_id":"2872764711","tag":{"amenity":"waste_basket"}},"type":"Feature"},
	{"geometry":{"coordinates":[2.200816,48.827321],"type":"Point"},"properties":{"osm_id":"2872764728","tag":{"amenity":"waste_basket"}},"type":"Feature"},
	{"geometry":{"coordinates":[2.200659,48.827347],"type":"Point"},"properties":{"osm_id":"2872764732","tag":{"amenity":"waste_basket"}},"type":"Feature"},
	{"geometry":{"coordinates":[2.200829,48.827363],"type":"Point"},"properties":{"osm_id":"2872764733","tag":{"amenity":"waste_basket"}},"type":"Feature"},
	{"geometry":{"coordinates":[2.200636,48.827393],"type":"Point"},"properties":{"osm_id":"2872764742","tag":{"amenity":"waste_basket"}},"type":"Feature"},
	{"geometry":{"coordinates":[2.200651,48.827459],"type":"Point"},"properties":{"osm_id":"2872764749","tag":{"amenity":"waste_basket"}},"type":"Feature"},
	{"geometry":{"coordinates":[2.200561,48.827497],"type":"Point"},"properties":{"osm_id":"2872764759","tag":{"amenity":"waste_basket"}},"type":"Feature"},
	{"geometry":{"coordinates":[2.200698,48.82755],"type":"Point"},"properties":{"osm_id":"2872764762","tag":{"amenity":"waste_basket"}},"type":"Feature"},
	{"geometry":{"coordinates":[2.200725,48.82769],"type":"Point"},"properties":{"osm_id":"2872764774","tag":{"amenity":"waste_basket"}},"type":"Feature"},
	{"geometry":{"coordinates":[2.230384,48.818703],"type":"Point"},"properties":{"osm_id":"2874693410","tag":{"amenity":"waste_basket"}},"type":"Feature"},
	{"geometry":{"coordinates":[2.230319,48.818739],"type":"Point"},"properties":{"osm_id":"2874693413","tag":{"amenity":"waste_basket"}},"type":"Feature"},
	{"geometry":{"coordinates":[2.229998,48.818852],"type":"Point"},"properties":{"osm_id":"2874693436","tag":{"amenity":"waste_basket"}},"type":"Feature"},
	{"geometry":{"coordinates":[2.230708,48.818585],"type":"Point"},"properties":{"osm_id":"2874699457","tag":{"amenity":"waste_basket"}},"type":"Feature"},
	{"geometry":{"coordinates":[2.230599,48.818623],"type":"Point"},"properties":{"osm_id":"2874699465","tag":{"amenity":"waste_basket"}},"type":"Feature"},
	{"geometry":{"coordinates":[2.221878,48.861517],"type":"Point"},"properties":{"osm_id":"2984948764","tag":{"amenity":"recycling","recycling:clothes":"yes","recycling:glass_bottles":"yes","recycling_type":"container"}},"type":"Feature"},
	{"geometry":{"coordinates":[2.222064,48.861663],"type":"Point"},"properties":{"osm_id":"2984948765","tag":{"amenity":"waste_basket"}},"type":"Feature"},
	{"geometry":{"coordinates":[2.222789,48.864543],"type":"Point"},"properties":{"osm_id":"2984948788","tag":{"amenity":"waste_basket"}},"type":"Feature"},
	{"geometry":{"coordinates":[2.216318,48.856601],"type":"Point"},"properties":{"osm_id":"2986083933","tag":{"amenity":"waste_basket"}},"type":"Feature"},
	{"geometry":{"coordinates":[2.218417,48.86092],"type":"Point"},"properties":{"osm_id":"3037563235","tag":{"amenity":"recycling","recycling:cans":"no","recycling:clothes":"yes"}},"type":"Feature"},
	{"geometry":{"coordinates":[2.22207,48.852985],"type":"Point"},"properties":{"osm_id":"3052270772","tag":{"amenity":"waste_basket"}},"type":"Feature"},
	{"geometry":{"coordinates":[2.219964,48.852719],"type":"Point"},"properties":{"osm_id":"3052270773","tag":{"amenity":"waste_basket"}},"type":"Feature"},
	{"geometry":{"coordinates":[2.217355,48.844794],"type":"Point"},"properties":{"osm_id":"3219536330","tag":{"amenity":"waste_basket"}},"type":"Feature"},
	{"geometry":{"coordinates":[2.232925,48.829714],"type":"Point"},"properties":{"osm_id":"3314248481","tag":{"amenity":"waste_basket","layer":"1"}},"type":"Feature"},
	{"geometry":{"coordinates":[2.23492,48.825282],"type":"Point"},"properties":{"osm_id":"3340172094","tag":{"amenity":"recycling","location":"underground","recycling:glass":"yes","recycling_type":"container"}},"type":"Feature"},
	{"geometry":{"coordinates":[2.235948,48.80758],"type":"Point"},"properties":{"osm_id":"3350036729","tag":{"amenity":"recycling","recycling:glass":"yes","recycling_type":"container"}},"type":"Feature"},
	{"geometry":{"coordinates":[2.24838,48.807582],"type":"Point"},"properties":{"osm_id":"3350036730","tag":{"amenity":"recycling","recycling:glass":"yes","recycling_type":"container"}},"type":"Feature"},
	{"geometry":{"coordinates":[2.241742,48.80767],"type":"Point"},"properties":{"osm_id":"3350036733","tag":{"amenity":"recycling","recycling:glass":"yes","recycling_type":"container"}},"type":"Feature"},
	{"geometry":{"coordinates":[2.233645,48.808169],"type":"Point"},"properties":{"osm_id":"3350036734","tag":{"amenity":"recycling","recycling:glass":"yes","recycling_type":"container"}},"type":"Feature"},
	{"geometry":{"coordinates":[2.241003,48.808371],"type":"Point"},"properties":{"osm_id":"3350036735","tag":{"amenity":"recycling","recycling:glass":"yes","recycling_type":"container"}},"type":"Feature"},
	{"geometry":{"coordinates":[2.247761,48.808449],"type":"Point"},"properties":{"osm_id":"3350036736","tag":{"amenity":"recycling","recycling:glass":"yes","recycling_type":"container"}},"type":"Feature"},
	{"geometry":{"coordinates":[2.237956,48.809515],"type":"Point"},"properties":{"osm_id":"3350036739","tag":{"amenity":"recycling","location":"underground","recycling:glass":"yes","recycling_type":"container"}},"type":"Feature"},
	{"geometry":{"coordinates":[2.206293,48.811042],"type":"Point"},"properties":{"osm_id":"3350036743","tag":{"amenity":"recycling","recycling:glass":"yes","recycling_type":"container"}},"type":"Feature"},
	{"geometry":{"coordinates":[2.248782,48.811253],"type":"Point"},"properties":{"osm_id":"3350036744","tag":{"amenity":"recycling","recycling:glass":"yes","recycling_type":"container"}},"type":"Feature"},
	{"geometry":{"coordinates":[2.213101,48.812051],"type":"Point"},"properties":{"osm_id":"3350036746","tag":{"amenity":"recycling","recycling:glass":"yes","recycling_type":"container"}},"type":"Feature"},
	{"geometry":{"coordinates":[2.248681,48.812993],"type":"Point"},"properties":{"osm_id":"3350036748","tag":{"amenity":"recycling","recycling:glass":"yes","recycling_type":"container"}},"type":"Feature"},
	{"geometry":{"coordinates":[2.252282,48.813717],"type":"Point"},"properties":{"osm_id":"3350036749","tag":{"amenity":"recycling","recycling:glass":"yes","recycling_type":"container"}},"type":"Feature"},
	{"geometry":{"coordinates":[2.234638,48.81471],"type":"Point"},"properties":{"osm_id":"3350036750","tag":{"amenity":"recycling","recycling:glass":"yes","recycling_type":"container"}},"type":"Feature"},
	{"geometry":{"coordinates":[2.215097,48.814881],"type":"Point"},"properties":{"osm_id":"3350036753","tag":{"amenity":"recycling","location":"underground","recycling:glass":"yes","recycling_type":"container"}},"type":"Feature"},
	{"geometry":{"coordinates":[2.281227,48.814982],"type":"Point"},"properties":{"osm_id":"3350036754","tag":{"amenity":"recycling","recycling:glass":"yes","recycling_type":"container"}},"type":"Feature"},
	{"geometry":{"coordinates":[2.21112,48.815193],"type":"Point"},"properties":{"osm_id":"3350036755","tag":{"amenity":"recycling","recycling:glass":"yes","recycling_type":"container"}},"type":"Feature"},
	{"geometry":{"coordinates":[2.22472,48.81582],"type":"Point"},"properties":{"osm_id":"3350036758","tag":{"amenity":"recycling","recycling:glass":"yes","recycling_type":"container"}},"type":"Feature"},
	{"geometry":{"coordinates":[2.243537,48.816344],"type":"Point"},"properties":{"osm_id":"3350036762","tag":{"amenity":"recycling","recycling:glass":"yes","recycling_type":"container"}},"type":"Feature"},
	{"geometry":{"coordinates":[2.28015,48.816533],"type":"Point"},"properties":{"osm_id":"3350036765","tag":{"amenity":"recycling","recycling:glass_bottles":"yes","recycling_type":"container"}},"type":"Feature"},
	{"geometry":{"coordinates":[2.283199,48.816672],"type":"Point"},"properties":{"osm_id":"3350036766","tag":{"amenity":"recycling","recycling:glass":"yes","recycling_type":"container"}},"type":"Feature"},
	{"geometry":{"coordinates":[2.220211,48.816915],"type":"Point"},"properties":{"osm_id":"3350036767","tag":{"amenity":"recycling","recycling:glass":"yes","recycling_type":"container"}},"type":"Feature"},
	{"geometry":{"coordinates":[2.282612,48.817269],"type":"Point"},"properties":{"osm_id":"3350036770","tag":{"amenity":"recycling","recycling:glass":"yes","recycling_type":"container"}},"type":"Feature"},
	{"geometry":{"coordinates":[2.201615,48.818614],"type":"Point"},"properties":{"osm_id":"3350036775","tag":{"amenity":"recycling","recycling:glass":"yes","recycling_type":"container"}},"type":"Feature"},
	{"geometry":{"coordinates":[2.21811,48.819429],"type":"Point"},"properties":{"osm_id":"3350036782","tag":{"amenity":"recycling","recycling:glass":"yes","recycling_type":"container"}},"type":"Feature"},
	{"geometry":{"coordinates":[2.211223,48.819471],"type":"Point"},"properties":{"osm_id":"3350036783","tag":{"amenity":"recycling","recycling:glass":"yes","recycling_type":"container"}},"type":"Feature"},
	{"geometry":{"coordinates":[2.206645,48.819622],"type":"Point"},"properties":{"osm_id":"3350036785","tag":{"amenity":"recycling","recycling:glass":"yes","recycling_type":"container"}},"type":"Feature"},
	{"geometry":{"coordinates":[2.226493,48.819883],"type":"Point"},"properties":{"osm_id":"3350036786","tag":{"amenity":"recycling","recycling:glass":"yes","recycling_type":"container"}},"type":"Feature"},
	{"geometry":{"coordinates":[2.284106,48.82],"type":"Point"},"properties":{"osm_id":"3350036789","tag":{"amenity":"recycling","recycling:glass":"yes","recycling_type":"container"}},"type":"Feature"},
	{"geometry":{"coordinates":[2.284092,48.820029],"type":"Point"},"properties":{"osm_id":"3350036790","tag":{"amenity":"recycling","recycling:glass":"yes","recycling_type":"container"}},"type":"Feature"},
	{"geometry":{"coordinates":[2.227366,48.820058],"type":"Point"},"properties":{"osm_id":"3350036791","tag":{"amenity":"recycling","location":"underground","recycling:glass":"yes","recycling_type":"container"}},"type":"Feature"},
	{"geometry":{"coordinates":[2.200883,48.82028],"type":"Point"},"properties":{"osm_id":"3350037196","tag":{"amenity":"recycling","recycling:glass":"yes","recycling_type":"container"}},"type":"Feature"},
	{"geometry":{"coordinates":[2.238955,48.820193],"type":"Point"},"properties":{"osm_id":"3350037197","tag":{"amenity":"recycling","recycling:glass":"yes","recycling_type":"container"}},"type":"Feature"},
	{"geometry":{"coordinates":[2.28458,48.820632],"type":"Point"},"properties":{"osm_id":"3350037199","tag":{"amenity":"recycling","location":"underground","recycling:glass":"yes","recycling_type":"container"}},"type":"Feature"},
	{"geometry":{"coordinates":[2.226116,48.820921],"type":"Point"},"properties":{"osm_id":"3350037200","tag":{"amenity":"recycling","recycling:glass":"yes","recycling_type":"container"}},"type":"Feature"},
	{"geometry":{"coordinates":[2.226129,48.820929],"type":"Point"},"properties":{"osm_id":"3350037201","tag":{"amenity":"recycling","recycling:glass":"yes","recycling_type":"container"}},"type":"Feature"},
	{"geometry":{"coordinates":[2.216177,48.821136],"type":"Point"},"properties":{"osm_id":"3350037207","tag":{"amenity":"recycling","recycling:glass":"yes","recycling_type":"container"}},"type":"Feature"},
	{"geometry":{"coordinates":[2.214188,48.821309],"type":"Point"},"properties":{"osm_id":"3350037211","tag":{"amenity":"recycling","recycling:glass":"yes","recycling_type":"container"}},"type":"Feature"},
	{"geometry":{"coordinates":[2.204014,48.821555],"type":"Point"},"properties":{"osm_id":"3350037213","tag":{"amenity":"recycling","recycling:glass":"yes","recycling_type":"container"}},"type":"Feature"},
	{"geometry":{"coordinates":[2.220894,48.822121],"type":"Point"},"properties":{"osm_id":"3350037219","tag":{"amenity":"recycling","recycling:glass":"yes","recycling_type":"container"}},"type":"Feature"},
	{"geometry":{"coordinates":[2.199213,48.822301],"type":"Point"},"properties":{"osm_id":"3350037221","tag":{"amenity":"recycling","recycling:glass":"yes","recycling_type":"container"}},"type":"Feature"},
	{"geometry":{"coordinates":[2.212082,48.822314],"type":"Point"},"properties":{"osm_id":"3350037223","tag":{"amenity":"recycling","location":"underground","recycling:glass":"yes","recycling_type":"container"}},"type":"Feature"},
	{"geometry":{"coordinates":[2.202598,48.822782],"type":"Point"},"properties":{"osm_id":"3350037230","tag":{"amenity":"recycling","recycling:glass":"yes","recycling_type":"container"}},"type":"Feature"},
	{"geometry":{"coordinates":[2.208833,48.822851],"type":"Point"},"properties":{"osm_id":"3350037231","tag":{"amenity":"recycling","recycling:glass":"yes","recycling_type":"container"}},"type":"Feature"},
	{"geometry":{"coordinates":[2.220783,48.823422],"type":"Point"},"properties":{"osm_id":"3350037234","tag":{"amenity":"recycling","recycling:glass":"yes","recycling_type":"container"}},"type":"Feature"},
	{"geometry":{"coordinates":[2.208705,48.823681],"type":"Point"},"properties":{"osm_id":"3350037235","tag":{"amenity":"recycling","recycling:glass":"yes","recycling_type":"container"}},"type":"Feature"},
	{"geometry":{"coordinates":[2.24492,48.8241],"type":"Point"},"properties":{"osm_id":"3350037238","tag":{"amenity":"recycling","recycling:glass_bottles":"yes","recycling_type":"container"}},"type":"Feature"},
	{"geometry":{"coordinates":[2.282349,48.824308],"type":"Point"},"properties":{"osm_id":"3350037242","tag":{"amenity":"recycling","recycling:glass":"yes","recycling_type":"container"}},"type":"Feature"},
	{"geometry":{"coordinates":[2.241903,48.824348],"type":"Point"},"properties":{"osm_id":"3350037243","tag":{"amenity":"recycling","recycling:glass":"yes","recycling_type":"container"}},"type":"Feature"},
	{"geometry":{"coordinates":[2.213399,48.824378],"type":"Point"},"properties":{"osm_id":"3350037244","tag":{"amenity":"recycling","location":"underground","recycling:glass":"yes","recycling_type":"container"}},"type":"Feature"},
	{"geometry":{"coordinates":[2.23718,48.824382],"type":"Point"},"properties":{"osm_id":"3350037245","tag":{"amenity":"recycling","location":"underground","recycling:glass":"yes","recycling_type":"container"}},"type":"Feature"},
	{"geometry":{"coordinates":[2.243914,48.824827],"type":"Point"},"properties":{"osm_id":"3350037250","tag":{"amenity":"recycling","location":"underground","recycling:glass":"yes","recycling_type":"container"}},"type":"Feature"},
	{"geometry":{"coordinates":[2.241999,48.825559],"type":"Point"},"properties":{"osm_id":"3350037257","tag":{"amenity":"recycling","location":"underground","recycling:glass":"yes","recycling_type":"container"}},"type":"Feature"},
	{"geometry":{"coordinates":[2.208433,48.825623],"type":"Point"},"properties":{"osm_id":"3350037259","tag":{"amenity":"recycling","recycling:glass":"yes","recycling_type":"container"}},"type":"Feature"},
	{"geometry":{"coordinates":[2.227154,48.825746],"type":"Point"},"properties":{"osm_id":"3350037260","tag":{"amenity":"recycling","recycling:glass_bottles":"yes","recycling_type":"container"}},"type":"Feature"},
	{"geometry":{"coordinates":[2.207108,48.825778],"type":"Point"},"properties":{"osm_id":"3350037261","tag":{"amenity":"recycling","recycling:glass":"yes","recycling_type":"container"}},"type":"Feature"},
	{"geometry":{"coordinates":[2.203363,48.825793],"type":"Point"},"properties":{"osm_id":"3350037262","tag":{"amenity":"recycling","recycling:glass":"yes","recycling_type":"container"}},"type":"Feature"},
	{"geometry":{"coordinates":[2.2384,48.82599],"type":"Point"},"properties":{"osm_id":"3350037268","tag":{"amenity":"recycling","location":"underground","recycling:glass":"yes","recycling_type":"container"}},"type":"Feature"},
	{"geometry":{"coordinates":[2.214984,48.826384],"type":"Point"},"properties":{"osm_id":"3350037272","tag":{"amenity":"recycling","recycling:glass":"yes","recycling_type":"container"}},"type":"Feature"},
	{"geometry":{"coordinates":[2.249025,48.826399],"type":"Point"},"properties":{"osm_id":"3350037273","tag":{"amenity":"recycling","location":"underground","recycling:glass":"yes","recycling_type":"container"}},"type":"Feature"},
	{"geometry":{"coordinates":[2.23618,48.82677],"type":"Point"},"properties":{"osm_id":"3350037275","tag":{"amenity":"recycling","location":"underground","recycling:glass":"yes","recycling_type":"container"}},"type":"Feature"},
	{"geometry":{"coordinates":[2.251632,48.826987],"type":"Point"},"properties":{"osm_id":"3350037276","tag":{"amenity":"recycling","recycling:glass":"yes","recycling_type":"container"}},"type":"Feature"},
	{"geometry":{"coordinates":[2.24146,48.827281],"type":"Point"},"properties":{"osm_id":"3350037277","tag":{"amenity":"recycling","location":"underground","recycling:glass":"yes","recycling_type":"container"}},"type":"Feature"},
	{"geometry":{"coordinates":[2.236999,48.827639],"type":"Point"},"properties":{"osm_id":"3350037282","tag":{"amenity":"recycling","location":"underground","recycling:glass":"yes","recycling_type":"container"}},"type":"Feature"},
	{"geometry":{"coordinates":[2.24018,48.827846],"type":"Point"},"properties":{"osm_id":"3350037284","tag":{"amenity":"recycling","location":"underground","recycling:glass":"yes","recycling_type":"container"}},"type":"Feature"},
	{"geometry":{"coordinates":[2.20527,48.827909],"type":"Point"},"properties":{"osm_id":"3350037285","tag":{"amenity":"recycling","recycling:glass":"yes","recycling_type":"container"}},"type":"Feature"},
	{"geometry":{"coordinates":[2.253694,48.828074],"type":"Point"},"properties":{"osm_id":"3350037286","tag":{"amenity":"recycling","recycling:glass":"yes","recycling_type":"container"}},"type":"Feature"},
	{"geometry":{"coordinates":[2.235777,48.828374],"type":"Point"},"properties":{"osm_id":"3350037288","tag":{"amenity":"recycling","location":"underground","recycling:glass":"yes","recycling_type":"container"}},"type":"Feature"},
	{"geometry":{"coordinates":[2.238882,48.828501],"type":"Point"},"properties":{"osm_id":"3350037290","tag":{"amenity":"recycling","recycling:glass":"yes","recycling_type":"container"}},"type":"Feature"},
	{"geometry":{"coordinates":[2.252928,48.828908],"type":"Point"},"properties":{"osm_id":"3350037292","tag":{"amenity":"recycling","recycling:glass":"yes","recycling_type":"container"}},"type":"Feature"},
	{"geometry":{"coordinates":[2.247371,48.829013],"type":"Point"},"properties":{"osm_id":"3350037394","tag":{"amenity":"recycling","recycling:glass":"yes","recycling_type":"container"}},"type":"Feature"},
	{"geometry":{"coordinates":[2.247402,48.829019],"type":"Point"},"properties":{"osm_id":"3350037395","tag":{"amenity":"recycling","recycling:glass":"yes","recycling_type":"container"}},"type":"Feature"},
	{"geometry":{"coordinates":[2.244185,48.831773],"type":"Point"},"properties":{"osm_id":"3350037397","tag":{"amenity":"recycling","location":"underground","recycling:glass":"yes","recycling_type":"container"}},"type":"Feature"},
	{"geometry":{"coordinates":[2.267303,48.831541],"type":"Point"},"properties":{"osm_id":"3350037398","tag":{"amenity":"recycling","location":"underground","recycling:glass":"yes","recycling_type":"container"}},"type":"Feature"},
	{"geometry":{"coordinates":[2.253758,48.831979],"type":"Point"},"properties":{"osm_id":"3350037400","tag":{"amenity":"recycling","recycling:glass":"yes","recycling_type":"container"}},"type":"Feature"},
	{"geometry":{"coordinates":[2.249226,48.832551],"type":"Point"},"properties":{"osm_id":"3350037401","tag":{"amenity":"recycling","recycling:glass":"yes","recycling_type":"container"}},"type":"Feature"},
	{"geometry":{"coordinates":[2.24053,48.832783],"type":"Point"},"properties":{"osm_id":"3350037402","tag":{"amenity":"recycling","recycling:glass":"yes","recycling_type":"container"}},"type":"Feature"},
	{"geometry":{"coordinates":[2.25612,48.832941],"type":"Point"},"properties":{"osm_id":"3350037403","tag":{"amenity":"recycling","recycling:glass":"yes","recycling_type":"container"}},"type":"Feature"},
	{"geometry":{"coordinates":[2.253687,48.833109],"type":"Point"},"properties":{"osm_id":"3350037404","tag":{"amenity":"recycling","recycling:glass":"yes","recycling_type":"container"}},"type":"Feature"},
	{"geometry":{"coordinates":[2.228991,48.833218],"type":"Point"},"properties":{"osm_id":"3350037405","tag":{"amenity":"recycling","recycling:glass":"yes","recycling_type":"container"}},"type":"Feature"},
	{"geometry":{"coordinates":[2.226833,48.833413],"type":"Point"},"properties":{"osm_id":"3350037406","tag":{"amenity":"recycling","recycling:glass":"yes","recycling_type":"container"}},"type":"Feature"},
	{"geometry":{"coordinates":[2.233286,48.833476],"type":"Point"},"properties":{"osm_id":"3350037407","tag":{"amenity":"recycling","recycling:glass":"yes","recycling_type":"container"}},"type":"Feature"},
	{"geometry":{"coordinates":[2.255891,48.834163],"type":"Point"},"properties":{"osm_id":"3350037408","tag":{"amenity":"recycling","recycling:glass":"yes","recycling_type":"container"}},"type":"Feature"},
	{"geometry":{"coordinates":[2.24597,48.834306],"type":"Point"},"properties":{"osm_id":"3350037409","tag":{"amenity":"recycling","recycling:glass":"yes","recycling_type":"container"}},"type":"Feature"},
	{"geometry":{"coordinates":[2.241049,48.834983],"type":"Point"},"properties":{"osm_id":"3350037410","tag":{"amenity":"recycling","recycling:glass":"yes","recycling_type":"container"}},"type":"Feature"},
	{"geometry":{"coordinates":[2.251911,48.836154],"type":"Point"},"properties":{"osm_id":"3350037412","tag":{"amenity":"recycling","recycling:glass_bottles":"yes","recycling_type":"container"}},"type":"Feature"},
	{"geometry":{"coordinates":[2.237534,48.836434],"type":"Point"},"properties":{"osm_id":"3350037413","tag":{"amenity":"recycling","recycling:glass":"yes","recycling_type":"container"}},"type":"Feature"},
	{"geometry":{"coordinates":[2.253277,48.836466],"type":"Point"},"properties":{"osm_id":"3350037414","tag":{"amenity":"recycling","recycling:glass":"yes","recycling_type":"container"}},"type":"Feature"},
	{"geometry":{"coordinates":[2.252557,48.836517],"type":"Point"},"properties":{"osm_id":"3350037415","tag":{"amenity":"recycling","recycling:glass":"yes","recycling_type":"container"}},"type":"Feature"},
	{"geometry":{"coordinates":[2.245677,48.836948],"type":"Point"},"properties":{"osm_id":"3350037416","tag":{"amenity":"recycling","recycling:glass_bottles":"yes","recycling_type":"container"}},"type":"Feature"},
	{"geometry":{"coordinates":[2.243767,48.839452],"type":"Point"},"properties":{"osm_id":"3350037417","tag":{"amenity":"recycling","recycling:glass":"yes","recycling_type":"container"}},"type":"Feature"},
	{"geometry":{"coordinates":[2.230353,48.839658],"type":"Point"},"properties":{"osm_id":"3350037418","tag":{"amenity":"recycling","recycling:glass":"yes","recycling_type":"container"}},"type":"Feature"},
	{"geometry":{"coordinates":[2.228615,48.839934],"type":"Point"},"properties":{"osm_id":"3350037419","tag":{"amenity":"recycling","recycling:glass":"yes","recycling_type":"container"}},"type":"Feature"},
	{"geometry":{"coordinates":[2.237573,48.839999],"type":"Point"},"properties":{"osm_id":"3350037420","tag":{"amenity":"recycling","recycling:glass":"yes","recycling_type":"container"}},"type":"Feature"},
	{"geometry":{"coordinates":[2.247876,48.840465],"type":"Point"},"properties":{"osm_id":"3350037421","tag":{"amenity":"recycling","recycling:glass":"yes","recycling_type":"container"}},"type":"Feature"},
	{"geometry":{"coordinates":[2.229209,48.841408],"type":"Point"},"properties":{"osm_id":"3350037422","tag":{"amenity":"recycling","location":"underground","recycling:glass":"yes","recycling_type":"container"}},"type":"Feature"},
	{"geometry":{"coordinates":[2.233238,48.841569],"type":"Point"},"properties":{"osm_id":"3350037423","tag":{"amenity":"recycling","recycling:glass":"yes","recycling_type":"container"}},"type":"Feature"},
	{"geometry":{"coordinates":[2.239394,48.843874],"type":"Point"},"properties":{"osm_id":"3350037424","tag":{"amenity":"recycling","recycling:glass":"yes","recycling_type":"container"}},"type":"Feature"},
	{"geometry":{"coordinates":[2.239386,48.843904],"type":"Point"},"properties":{"osm_id":"3350037425","tag":{"amenity":"recycling","recycling:glass":"yes","recycling_type":"container"}},"type":"Feature"},
	{"geometry":{"coordinates":[2.237362,48.844843],"type":"Point"},"properties":{"osm_id":"3350037426","tag":{"amenity":"recycling","recycling:glass":"yes","recycling_type":"container"}},"type":"Feature"},
	{"geometry":{"coordinates":[2.242264,48.845978],"type":"Point"},"properties":{"osm_id":"3350037427","tag":{"amenity":"recycling","recycling:glass":"yes","recycling_type":"container"}},"type":"Feature"},
	{"geometry":{"coordinates":[2.239156,48.846733],"type":"Point"},"properties":{"osm_id":"3350037428","tag":{"amenity":"recycling","recycling:glass":"yes","recycling_type":"container"}},"type":"Feature"},
	{"geometry":{"coordinates":[2.234822,48.847643],"type":"Point"},"properties":{"osm_id":"3350037429","tag":{"amenity":"recycling","recycling:glass":"yes","recycling_type":"container"}},"type":"Feature"},
	{"geometry":{"coordinates":[2.237117,48.848212],"type":"Point"},"properties":{"osm_id":"3350037430","tag":{"amenity":"recycling","recycling:glass_bottles":"yes","recycling_type":"container"}},"type":"Feature"},
	{"geometry":{"coordinates":[2.23748,48.849561],"type":"Point"},"properties":{"osm_id":"3350037431","tag":{"amenity":"recycling","recycling:glass":"yes","recycling_type":"container"}},"type":"Feature"},
	{"geometry":{"coordinates":[2.23365,48.838093],"type":"Point"},"properties":{"osm_id":"3387232794","tag":{"amenity":"waste_basket"}},"type":"Feature"},
	{"geometry":{"coordinates":[2.241256,48.834909],"type":"Point"},"properties":{"osm_id":"3392109893","tag":{"amenity":"waste_basket"}},"type":"Feature"},
	{"geometry":{"coordinates":[2.249286,48.83561],"type":"Point"},"properties":{"osm_id":"3394868239","tag":{"amenity":"waste_basket"}},"type":"Feature"},
	{"geometry":{"coordinates":[2.24026,48.839589],"type":"Point"},"properties":{"osm_id":"3394868255","tag":{"amenity":"waste_basket"}},"type":"Feature"},
	{"geometry":{"coordinates":[2.282582,48.815236],"type":"Point"},"properties":{"osm_id":"3424995969","tag":{"amenity":"recycling","recycling:clothes":"yes","recycling_type":"container"}},"type":"Feature"},
	{"geometry":{"coordinates":[2.232349,48.828532],"type":"Point"},"properties":{"osm_id":"3603484608","tag":{"amenity":"waste_basket"}},"type":"Feature"},
	{"geometry":{"coordinates":[2.235289,48.82807],"type":"Point"},"properties":{"osm_id":"3603563319","tag":{"amenity":"waste_basket"}},"type":"Feature"},
	{"geometry":{"coordinates":[2.231963,48.828982],"type":"Point"},"properties":{"osm_id":"3603583634","tag":{"amenity":"waste_basket"}},"type":"Feature"},
	{"geometry":{"coordinates":[2.233615,48.82733],"type":"Point"},"properties":{"osm_id":"3604594599","tag":{"amenity":"waste_basket"}},"type":"Feature"},
	{"geometry":{"coordinates":[2.232678,48.828457],"type":"Point"},"properties":{"osm_id":"3604602190","tag":{"amenity":"waste_basket"}},"type":"Feature"},
	{"geometry":{"coordinates":[2.232435,48.841363],"type":"Point"},"properties":{"osm_id":"3608604595","tag":{"amenity":"recycling"}},"type":"Feature"},
	{"geometry":{"coordinates":[2.271014,48.83943],"type":"Point"},"properties":{"osm_id":"3655665299","tag":{"amenity":"waste_basket","layer":"-2","level":"0"}},"type":"Feature"},
	{"geometry":{"coordinates":[2.238271,48.827025],"type":"Point"},"properties":{"osm_id":"3700051867","tag":{"amenity":"waste_basket"}},"type":"Feature"},
	{"geometry":{"coordinates":[2.260125,48.825766],"type":"Point"},"properties":{"osm_id":"3702493746","tag":{"amenity":"waste_disposal"}},"type":"Feature"},
	{"geometry":{"coordinates":[2.277372,48.823488],"type":"Point"},"properties":{"osm_id":"3799154482","tag":{"amenity":"waste_basket"}},"type":"Feature"},
	{"geometry":{"coordinates":[2.280507,48.846318],"type":"Point"},"properties":{"osm_id":"3905019671","tag":{"amenity":"recycling","recycling:clothes":"yes","recycling_type":"container"}},"type":"Feature"},
	{"geometry":{"coordinates":[2.281766,48.814224],"type":"Point"},"properties":{"osm_id":"3992329258","tag":{"amenity":"recycling","recycling:glass":"yes","recycling_type":"container"}},"type":"Feature"},
	{"geometry":{"coordinates":[2.270053,48.858321],"type":"Point"},"properties":{"osm_id":"4059891199","tag":{"amenity":"recycling","recycling:clothes":"yes","recycling_type":"container"}},"type":"Feature"},
	{"geometry":{"coordinates":[2.262959,48.847947],"type":"Point"},"properties":{"osm_id":"4093164689","ref":"D289","tag":{"amenity":"recycling","recycling:glass_bottles":"yes","recycling_type":"container"}},"type":"Feature"},
	{"geometry":{"coordinates":[2.237512,48.829116],"type":"Point"},"properties":{"osm_id":"4194702090","tag":{"amenity":"waste_basket"}},"type":"Feature"},
	{"geometry":{"coordinates":[2.284007,48.847633],"type":"Point"},"properties":{"osm_id":"4245128172","tag":{"amenity":"recycling","recycling:glass":"yes","recycling_type":"container"}},"type":"Feature"},
	{"geometry":{"coordinates":[2.284196,48.847831],"type":"Point"},"properties":{"osm_id":"4245128175","tag":{"amenity":"waste_basket"}},"type":"Feature"},
	{"geometry":{"coordinates":[2.272663,48.814866],"type":"Point"},"properties":{"osm_id":"4270647252","tag":{"amenity":"recycling","location":"underground","recycling:glass":"yes","recycling_type":"container"}},"type":"Feature"},
	{"geometry":{"coordinates":[2.265142,48.81568],"type":"Point"},"properties":{"osm_id":"4270647253","tag":{"amenity":"recycling","location":"underground","recycling:glass":"yes","recycling_type":"container"}},"type":"Feature"},
	{"geometry":{"coordinates":[2.259678,48.816333],"type":"Point"},"properties":{"osm_id":"4270647254","tag":{"amenity":"recycling","recycling:glass":"yes","recycling_type":"container"}},"type":"Feature"},
	{"geometry":{"coordinates":[2.267283,48.81638],"type":"Point"},"properties":{"osm_id":"4270647255","tag":{"amenity":"recycling","location":"underground","recycling:glass":"yes","recycling_type":"container"}},"type":"Feature"},
	{"geometry":{"coordinates":[2.267315,48.816385],"type":"Point"},"properties":{"osm_id":"4270647256","tag":{"amenity":"recycling","location":"underground","recycling:glass":"yes","recycling_type":"container"}},"type":"Feature"},
	{"geometry":{"coordinates":[2.260721,48.817056],"type":"Point"},"properties":{"osm_id":"4270647257","tag":{"amenity":"recycling","recycling:glass":"yes","recycling_type":"container"}},"type":"Feature"},
	{"geometry":{"coordinates":[2.260745,48.817069],"type":"Point"},"properties":{"osm_id":"4270647258","tag":{"amenity":"recycling","recycling:glass":"yes","recycling_type":"container"}},"type":"Feature"},
	{"geometry":{"coordinates":[2.269971,48.817494],"type":"Point"},"properties":{"osm_id":"4270647259","tag":{"amenity":"recycling","location":"underground","recycling:glass":"yes","recycling_type":"container"}},"type":"Feature"},
	{"geometry":{"coordinates":[2.269979,48.817512],"type":"Point"},"properties":{"osm_id":"4270647260","tag":{"amenity":"recycling","location":"underground","recycling:glass":"yes","recycling_type":"container"}},"type":"Feature"},
	{"geometry":{"coordinates":[2.273613,48.817534],"type":"Point"},"properties":{"osm_id":"4270647261","tag":{"amenity":"recycling","recycling:glass":"yes","recycling_type":"container"}},"type":"Feature"},
	{"geometry":{"coordinates":[2.251864,48.818234],"type":"Point"},"properties":{"osm_id":"4270647262","tag":{"amenity":"recycling","recycling:glass":"yes","recycling_type":"container"}},"type":"Feature"},
	{"geometry":{"coordinates":[2.257714,48.818538],"type":"Point"},"properties":{"osm_id":"4270647263","tag":{"amenity":"recycling","recycling:glass_bottles":"yes","recycling_type":"container"}},"type":"Feature"},
	{"geometry":{"coordinates":[2.246113,48.818547],"type":"Point"},"properties":{"osm_id":"4270647264","tag":{"amenity":"recycling","recycling:glass":"yes","recycling_type":"container"}},"type":"Feature"},
	{"geometry":{"coordinates":[2.260088,48.81872],"type":"Point"},"properties":{"osm_id":"4270647265","tag":{"amenity":"recycling","recycling:glass":"yes","recycling_type":"container"}},"type":"Feature"},
	{"geometry":{"coordinates":[2.249407,48.819127],"type":"Point"},"properties":{"osm_id":"4270647266","tag":{"amenity":"recycling","recycling:glass":"yes","recycling_type":"container"}},"type":"Feature"},
	{"geometry":{"coordinates":[2.255118,48.819208],"type":"Point"},"properties":{"osm_id":"4270647267","tag":{"amenity":"recycling","recycling:glass":"yes","recycling_type":"container"}},"type":"Feature"},
	{"geometry":{"coordinates":[2.269458,48.819427],"type":"Point"},"properties":{"osm_id":"4270647268","tag":{"amenity":"recycling","location":"underground","recycling:glass":"yes","recycling_type":"container"}},"type":"Feature"},
	{"geometry":{"coordinates":[2.278828,48.819583],"type":"Point"},"properties":{"osm_id":"4270647269","tag":{"amenity":"recycling","recycling:glass":"yes","recycling_type":"container"}},"type":"Feature"},
	{"geometry":{"coordinates":[2.24733,48.819995],"type":"Point"},"properties":{"osm_id":"4270647270","tag":{"amenity":"recycling","recycling:glass":"yes","recycling_type":"container"}},"type":"Feature"},
	{"geometry":{"coordinates":[2.250887,48.820261],"type":"Point"},"properties":{"osm_id":"4270647271","tag":{"amenity":"recycling","recycling:glass":"yes","recycling_type":"container"}},"type":"Feature"},
	{"geometry":{"coordinates":[2.250877,48.82028],"type":"Point"},"properties":{"osm_id":"4270647272","tag":{"amenity":"recycling","recycling:glass":"yes","recycling_type":"container"}},"type":"Feature"},
	{"geometry":{"coordinates":[2.278286,48.820616],"type":"Point"},"properties":{"osm_id":"4270647273","tag":{"amenity":"recycling","location":"underground","recycling:glass":"yes","recycling_type":"container"}},"type":"Feature"},
	{"geometry":{"coordinates":[2.263898,48.820831],"type":"Point"},"properties":{"osm_id":"4270647274","tag":{"amenity":"recycling","recycling:glass":"yes","recycling_type":"container"}},"type":"Feature"},
	{"geometry":{"coordinates":[2.277925,48.821139],"type":"Point"},"properties":{"osm_id":"4270647276","tag":{"amenity":"recycling","location":"underground","recycling:glass":"yes","recycling_type":"container"}},"type":"Feature"},
	{"geometry":{"coordinates":[2.254655,48.821227],"type":"Point"},"properties":{"osm_id":"4270647277","tag":{"amenity":"recycling","location":"underground","recycling:glass":"yes","recycling_type":"container"}},"type":"Feature"},
	{"geometry":{"coordinates":[2.252935,48.821263],"type":"Point"},"properties":{"osm_id":"4270647278","tag":{"amenity":"recycling","location":"underground","recycling:glass":"yes","recycling_type":"container"}},"type":"Feature"},
	{"geometry":{"coordinates":[2.273932,48.821373],"type":"Point"},"properties":{"osm_id":"4270647279","tag":{"amenity":"recycling","recycling:glass":"yes","recycling_type":"container"}},"type":"Feature"},
	{"geometry":{"coordinates":[2.24219,48.821523],"type":"Point"},"properties":{"osm_id":"4270647280","tag":{"amenity":"recycling","recycling:glass_bottles":"yes","recycling_type":"container"}},"type":"Feature"},
	{"geometry":{"coordinates":[2.270175,48.82166],"type":"Point"},"properties":{"osm_id":"4270647281","tag":{"amenity":"recycling","recycling:glass":"yes","recycling_type":"container"}},"type":"Feature"},
	{"geometry":{"coordinates":[2.244206,48.821985],"type":"Point"},"properties":{"osm_id":"4270647282","tag":{"amenity":"recycling","recycling:glass":"yes","recycling_type":"container"}},"type":"Feature"},
	{"geometry":{"coordinates":[2.252845,48.822001],"type":"Point"},"properties":{"osm_id":"4270647283","tag":{"amenity":"recycling","location":"underground","recycling:glass":"yes","recycling_type":"container"}},"type":"Feature"},
	{"geometry":{"coordinates":[2.276604,48.822141],"type":"Point"},"properties":{"osm_id":"4270647284","tag":{"amenity":"recycling","location":"underground","recycling:glass":"yes","recycling_type":"container"}},"type":"Feature"},
	{"geometry":{"coordinates":[2.27972,48.822407],"type":"Point"},"properties":{"osm_id":"4270647285","tag":{"amenity":"recycling","location":"underground","recycling:glass":"yes","recycling_type":"container"}},"type":"Feature"},
	{"geometry":{"coordinates":[2.257023,48.822565],"type":"Point"},"properties":{"osm_id":"4270647286","tag":{"amenity":"recycling","recycling:glass":"yes","recycling_type":"container"}},"type":"Feature"},
	{"geometry":{"coordinates":[2.262531,48.822778],"type":"Point"},"properties":{"osm_id":"4270647287","tag":{"amenity":"recycling","location":"underground","recycling:glass":"yes","recycling_type":"container"}},"type":"Feature"},
	{"geometry":{"coordinates":[2.268079,48.823046],"type":"Point"},"properties":{"osm_id":"4270647288","tag":{"amenity":"recycling","location":"underground","recycling:glass":"yes","recycling_type":"container"}},"type":"Feature"},
	{"geometry":{"coordinates":[2.273641,48.823073],"type":"Point"},"properties":{"osm_id":"4270647789","tag":{"amenity":"recycling","location":"underground","recycling:glass":"yes","recycling_type":"container"}},"type":"Feature"},
	{"geometry":{"coordinates":[2.249891,48.823219],"type":"Point"},"properties":{"osm_id":"4270647790","tag":{"amenity":"recycling","location":"underground","recycling:glass":"yes","recycling_type":"container"}},"type":"Feature"},
	{"geometry":{"coordinates":[2.262049,48.823867],"type":"Point"},"properties":{"osm_id":"4270647791","tag":{"amenity":"recycling","location":"underground","recycling:glass":"yes","recycling_type":"container"}},"type":"Feature"},
	{"geometry":{"coordinates":[2.263307,48.824101],"type":"Point"},"properties":{"osm_id":"4270647792","tag":{"amenity":"recycling","recycling:glass":"yes","recycling_type":"container"}},"type":"Feature"},
	{"geometry":{"coordinates":[2.267945,48.824112],"type":"Point"},"properties":{"osm_id":"4270647793","tag":{"amenity":"recycling","recycling:glass":"yes","recycling_type":"container"}},"type":"Feature"},
	{"geometry":{"coordinates":[2.261386,48.824469],"type":"Point"},"properties":{"osm_id":"4270647794","tag":{"amenity":"recycling","recycling:glass":"yes","recycling_type":"container"}},"type":"Feature"},
	{"geometry":{"coordinates":[2.258398,48.824562],"type":"Point"},"properties":{"osm_id":"4270647795","tag":{"amenity":"recycling","location":"underground","recycling:glass":"yes","recycling_type":"container"}},"type":"Feature"},
	{"geometry":{"coordinates":[2.265031,48.824664],"type":"Point"},"properties":{"osm_id":"4270647796","tag":{"amenity":"recycling","location":"underground","recycling:glass":"yes","recycling_type":"container"}},"type":"Feature"},
	{"geometry":{"coordinates":[2.275235,48.824767],"type":"Point"},"properties":{"osm_id":"4270647797","tag":{"amenity":"recycling","recycling:glass":"yes","recycling_type":"container"}},"type":"Feature"},
	{"geometry":{"coordinates":[2.275262,48.824778],"type":"Point"},"properties":{"osm_id":"4270647798","tag":{"amenity":"recycling","recycling:glass":"yes","recycling_type":"container"}},"type":"Feature"},
	{"geometry":{"coordinates":[2.257777,48.824825],"type":"Point"},"properties":{"osm_id":"4270647799","tag":{"amenity":"recycling","recycling:glass":"yes","recycling_type":"container"}},"type":"Feature"},
	{"geometry":{"coordinates":[2.259373,48.82522],"type":"Point"},"properties":{"osm_id":"4270647800","tag":{"amenity":"recycling","location":"underground","recycling:glass":"yes","recycling_type":"container"}},"type":"Feature"},
	{"geometry":{"coordinates":[2.279391,48.825533],"type":"Point"},"properties":{"osm_id":"4270647801","tag":{"amenity":"recycling","location":"underground","recycling:glass":"yes","recycling_type":"container"}},"type":"Feature"},
	{"geometry":{"coordinates":[2.260135,48.825811],"type":"Point"},"properties":{"osm_id":"4270647802","tag":{"amenity":"recycling","location":"underground","recycling:glass":"yes","recycling_type":"container"}},"type":"Feature"},
	{"geometry":{"coordinates":[2.273441,48.825837],"type":"Point"},"properties":{"osm_id":"4270647803","tag":{"amenity":"recycling","recycling:glass":"yes","recycling_type":"container"}},"type":"Feature"},
	{"geometry":{"coordinates":[2.277862,48.82592],"type":"Point"},"properties":{"osm_id":"4270647804","tag":{"amenity":"recycling","location":"underground","recycling:glass":"yes","recycling_type":"container"}},"type":"Feature"},
	{"geometry":{"coordinates":[2.270036,48.826054],"type":"Point"},"properties":{"osm_id":"4270647805","tag":{"amenity":"recycling","location":"underground","recycling:glass":"yes","recycling_type":"container"}},"type":"Feature"},
	{"geometry":{"coordinates":[2.264767,48.826873],"type":"Point"},"properties":{"osm_id":"4270647806","tag":{"amenity":"recycling","location":"underground","recycling:glass":"yes","recycling_type":"container"}},"type":"Feature"},
	{"geometry":{"coordinates":[2.272971,48.827344],"type":"Point"},"properties":{"osm_id":"4270647807","tag":{"amenity":"recycling","location":"underground","recycling:glass":"yes","recycling_type":"container"}},"type":"Feature"},
	{"geometry":{"coordinates":[2.278294,48.827396],"type":"Point"},"properties":{"osm_id":"4270647808","tag":{"amenity":"recycling","location":"underground","recycling:glass":"yes","recycling_type":"container"}},"type":"Feature"},
	{"geometry":{"coordinates":[2.271323,48.827471],"type":"Point"},"properties":{"osm_id":"4270647809","tag":{"amenity":"recycling","recycling:glass":"yes","recycling_type":"container"}},"type":"Feature"},
	{"geometry":{"coordinates":[2.267364,48.827686],"type":"Point"},"properties":{"osm_id":"4270647810","tag":{"amenity":"recycling","recycling:glass":"yes","recycling_type":"container"}},"type":"Feature"},
	{"geometry":{"coordinates":[2.284082,48.827787],"type":"Point"},"properties":{"osm_id":"4270647811","tag":{"amenity":"recycling","recycling:glass":"yes","recycling_type":"container"}},"type":"Feature"},
	{"geometry":{"coordinates":[2.274558,48.828113],"type":"Point"},"properties":{"osm_id":"4270647812","tag":{"amenity":"recycling","recycling:glass":"yes","recycling_type":"container"}},"type":"Feature"},
	{"geometry":{"coordinates":[2.265421,48.828381],"type":"Point"},"properties":{"osm_id":"4270647813","tag":{"amenity":"recycling","recycling:glass":"yes","recycling_type":"container"}},"type":"Feature"},
	{"geometry":{"coordinates":[2.280482,48.828963],"type":"Point"},"properties":{"osm_id":"4270647814","tag":{"amenity":"recycling","location":"underground","recycling:glass":"yes","recycling_type":"container"}},"type":"Feature"},
	{"geometry":{"coordinates":[2.264057,48.829168],"type":"Point"},"properties":{"osm_id":"4270647815","tag":{"amenity":"recycling","recycling:glass_bottles":"yes","recycling_type":"container"}},"type":"Feature"},
	{"geometry":{"coordinates":[2.261081,48.829384],"type":"Point"},"properties":{"osm_id":"4270647816","tag":{"amenity":"recycling","recycling:glass":"yes","recycling_type":"container"}},"type":"Feature"},
	{"geometry":{"coordinates":[2.268542,48.83257],"type":"Point"},"properties":{"osm_id":"4270647818","tag":{"amenity":"recycling","location":"underground","recycling:glass":"yes","recycling_type":"container"}},"type":"Feature"},
	{"geometry":{"coordinates":[2.251899,48.82159],"type":"Point"},"properties":{"osm_id":"4326923638","tag":{"amenity":"waste_basket"}},"type":"Feature"},
	{"geometry":{"coordinates":[2.229268,48.840546],"type":"Point"},"properties":{"osm_id":"4415006669","tag":{"amenity":"recycling","recycling:clothes":"yes","recycling_type":"container"}},"type":"Feature"},
	{"geometry":{"coordinates":[2.265077,48.817912],"type":"Point"},"properties":{"osm_id":"4473158233","tag":{"amenity":"waste_basket"}},"type":"Feature"},
	{"geometry":{"coordinates":[2.223994,48.846723],"type":"Point"},"properties":{"osm_id":"4474688246","tag":{"amenity":"waste_basket"}},"type":"Feature"},
	{"geometry":{"coordinates":[2.273768,48.851842],"type":"Point"},"properties":{"osm_id":"4781201629","ref":"D416","tag":{"amenity":"recycling","recycling:glass_bottles":"yes","recycling_type":"container"}},"type":"Feature"},
	{"geometry":{"coordinates":[2.268162,48.852644],"type":"Point"},"properties":{"osm_id":"4781201630","ref":"D648","tag":{"amenity":"recycling","recycling:glass_bottles":"yes","recycling_type":"container"}},"type":"Feature"},
	{"geometry":{"coordinates":[2.212052,48.81131],"type":"Point"},"properties":{"name":"D\u00c3\u00a9chetterie de Meudon","osm_id":"5081999642","tag":{"amenity":"recycling","recycling_type":"centre"}},"type":"Feature"},
	{"geometry":{"coordinates":[2.198529,48.818979],"type":"Point"},"properties":{"name":"Sani-chien","osm_id":"5085552724","tag":{"amenity":"waste_basket","waste":"dog_excrement"}},"type":"Feature"},
	{"geometry":{"coordinates":[2.282881,48.828777],"type":"Point"},"properties":{"osm_id":"5201559226","tag":{"amenity":"recycling","location":"overground","recycling_type":"container"}},"type":"Feature"},
	{"geometry":{"coordinates":[2.279978,48.844621],"type":"Point"},"properties":{"osm_id":"5220107910","tag":{"amenity":"waste_basket"}},"type":"Feature"},
	{"geometry":{"coordinates":[2.28119,48.846028],"type":"Point"},"properties":{"osm_id":"5220107911","tag":{"amenity":"waste_basket"}},"type":"Feature"},
	{"geometry":{"coordinates":[2.281534,48.846262],"type":"Point"},"properties":{"osm_id":"5220107912","tag":{"amenity":"waste_basket"}},"type":"Feature"},
	{"geometry":{"coordinates":[2.282955,48.848636],"type":"Point"},"properties":{"osm_id":"5220107914","tag":{"amenity":"waste_basket"}},"type":"Feature"},
	{"geometry":{"coordinates":[2.279728,48.844684],"type":"Point"},"properties":{"osm_id":"5220109316","tag":{"amenity":"waste_basket"}},"type":"Feature"},
	{"geometry":{"coordinates":[2.281653,48.846403],"type":"Point"},"properties":{"osm_id":"5220109422","tag":{"amenity":"waste_basket"}},"type":"Feature"},
	{"geometry":{"coordinates":[2.282903,48.848418],"type":"Point"},"properties":{"osm_id":"5220109424","tag":{"amenity":"waste_basket"}},"type":"Feature"},
	{"geometry":{"coordinates":[2.280669,48.845676],"type":"Point"},"properties":{"osm_id":"5220109645","tag":{"amenity":"waste_basket"}},"type":"Feature"},
	{"geometry":{"coordinates":[2.281123,48.846246],"type":"Point"},"properties":{"osm_id":"5220109646","tag":{"amenity":"recycling","recycling:glass_bottles":"yes","recycling_type":"container"}},"type":"Feature"},
	{"geometry":{"coordinates":[2.279848,48.844813],"type":"Point"},"properties":{"osm_id":"5220109752","tag":{"amenity":"waste_basket"}},"type":"Feature"},
	{"geometry":{"coordinates":[2.28334,48.817624],"type":"Point"},"properties":{"osm_id":"5238314573","tag":{"amenity":"recycling","recycling:glass_bottles":"yes","recycling_type":"container"}},"type":"Feature"},
	{"geometry":{"coordinates":[2.206867,48.822198],"type":"Point"},"properties":{"osm_id":"5415368413","tag":{"amenity":"recycling","recycling:glass":"yes","recycling_type":"container"}},"type":"Feature"},
	{"geometry":{"coordinates":[2.26846,48.844697],"type":"Point"},"properties":{"osm_id":"5447767720","tag":{"amenity":"waste_basket"}},"type":"Feature"},
	{"geometry":{"coordinates":[2.269086,48.844326],"type":"Point"},"properties":{"osm_id":"5447768026","tag":{"amenity":"waste_basket"}},"type":"Feature"},
	{"geometry":{"coordinates":[2.275772,48.843641],"type":"Point"},"properties":{"osm_id":"5447911187","tag":{"amenity":"waste_basket"}},"type":"Feature"},
	{"geometry":{"coordinates":[2.275233,48.855512],"type":"Point"},"properties":{"osm_id":"5613903361","tag":{"amenity":"recycling","recycling:clothes":"yes","recycling_type":"container"}},"type":"Feature"},
	{"geometry":{"coordinates":[2.279222,48.857686],"type":"Point"},"properties":{"osm_id":"5613903362","ref":"D052","tag":{"amenity":"recycling","recycling:glass_bottles":"yes","recycling_type":"container"}},"type":"Feature"},
	{"geometry":{"coordinates":[2.277192,48.859268],"type":"Point"},"properties":{"osm_id":"5613903364","tag":{"amenity":"recycling","recycling:clothes":"yes","recycling_type":"container"}},"type":"Feature"},
	{"geometry":{"coordinates":[2.284858,48.858884],"type":"Point"},"properties":{"osm_id":"5613903367","ref":"D453","tag":{"amenity":"recycling","recycling:glass_bottles":"yes","recycling_type":"container"}},"type":"Feature"},
	{"geometry":{"coordinates":[2.250987,48.823729],"type":"Point"},"properties":{"osm_id":"5637080123","tag":{"amenity":"waste_basket"}},"type":"Feature"},
	{"geometry":{"coordinates":[2.236832,48.811358],"type":"Point"},"properties":{"osm_id":"5710511217","tag":{"amenity":"waste_basket"}},"type":"Feature"},
	{"geometry":{"coordinates":[2.241824,48.829543],"type":"Point"},"properties":{"osm_id":"5806764955","tag":{"amenity":"waste_basket"}},"type":"Feature"},
	{"geometry":{"coordinates":[2.240874,48.829158],"type":"Point"},"properties":{"osm_id":"5806768656","tag":{"amenity":"waste_basket"}},"type":"Feature"},
	{"geometry":{"coordinates":[2.241343,48.829217],"type":"Point"},"properties":{"osm_id":"5806786755","tag":{"amenity":"waste_basket"}},"type":"Feature"},
	{"geometry":{"coordinates":[2.241324,48.82967],"type":"Point"},"properties":{"osm_id":"5806794753","tag":{"amenity":"waste_basket"}},"type":"Feature"},
	{"geometry":{"coordinates":[2.241246,48.829353],"type":"Point"},"properties":{"osm_id":"5806799654","tag":{"amenity":"waste_basket"}},"type":"Feature"},
	{"geometry":{"coordinates":[2.240377,48.829474],"type":"Point"},"properties":{"osm_id":"5806825553","tag":{"amenity":"waste_basket"}},"type":"Feature"},
	{"geometry":{"coordinates":[2.238925,48.829134],"type":"Point"},"properties":{"osm_id":"5806825653","tag":{"amenity":"waste_basket"}},"type":"Feature"},
	{"geometry":{"coordinates":[2.279651,48.83999],"type":"Point"},"properties":{"osm_id":"5836177991","tag":{"amenity":"recycling","recycling:clothes":"yes","recycling_type":"container"}},"type":"Feature"},
	{"geometry":{"coordinates":[2.257948,48.838025],"type":"Point"},"properties":{"osm_id":"5868885985","tag":{"amenity":"waste_basket"}},"type":"Feature"},
	{"geometry":{"coordinates":[2.25582,48.839985],"type":"Point"},"properties":{"osm_id":"5868909802","tag":{"amenity":"waste_basket"}},"type":"Feature"},
	{"geometry":{"coordinates":[2.255828,48.839983],"type":"Point"},"properties":{"osm_id":"5868909803","tag":{"amenity":"waste_basket"}},"type":"Feature"},
	{"geometry":{"coordinates":[2.255571,48.838537],"type":"Point"},"properties":{"osm_id":"5868912892","tag":{"amenity":"waste_basket"}},"type":"Feature"},
	{"geometry":{"coordinates":[2.255547,48.838684],"type":"Point"},"properties":{"osm_id":"5868922086","tag":{"amenity":"waste_basket"}},"type":"Feature"},
	{"geometry":{"coordinates":[2.256614,48.838518],"type":"Point"},"properties":{"osm_id":"5868971286","tag":{"amenity":"waste_basket"}},"type":"Feature"},
	{"geometry":{"coordinates":[2.25682,48.838599],"type":"Point"},"properties":{"osm_id":"5868971287","tag":{"amenity":"waste_basket"}},"type":"Feature"},
	{"geometry":{"coordinates":[2.256324,48.838388],"type":"Point"},"properties":{"osm_id":"5868971291","tag":{"amenity":"waste_basket"}},"type":"Feature"},
	{"geometry":{"coordinates":[2.256045,48.838165],"type":"Point"},"properties":{"osm_id":"5868971292","tag":{"amenity":"waste_basket"}},"type":"Feature"},
	{"geometry":{"coordinates":[2.256156,48.837977],"type":"Point"},"properties":{"osm_id":"5868971294","tag":{"amenity":"waste_basket"}},"type":"Feature"},
	{"geometry":{"coordinates":[2.25659,48.839024],"type":"Point"},"properties":{"osm_id":"5868971386","tag":{"amenity":"waste_basket"}},"type":"Feature"},
	{"geometry":{"coordinates":[2.256696,48.839408],"type":"Point"},"properties":{"osm_id":"5868971387","tag":{"amenity":"waste_basket"}},"type":"Feature"},
	{"geometry":{"coordinates":[2.255859,48.837942],"type":"Point"},"properties":{"osm_id":"5868971391","tag":{"amenity":"waste_basket"}},"type":"Feature"},
	{"geometry":{"coordinates":[2.256499,48.838769],"type":"Point"},"properties":{"osm_id":"5868971585","tag":{"amenity":"waste_basket"}},"type":"Feature"},
	{"geometry":{"coordinates":[2.256337,48.839575],"type":"Point"},"properties":{"osm_id":"5868971586","tag":{"amenity":"waste_basket"}},"type":"Feature"},
	{"geometry":{"coordinates":[2.256468,48.839355],"type":"Point"},"properties":{"osm_id":"5868971587","tag":{"amenity":"waste_basket"}},"type":"Feature"},
	{"geometry":{"coordinates":[2.256306,48.837639],"type":"Point"},"properties":{"osm_id":"5868999185","tag":{"amenity":"waste_basket"}},"type":"Feature"},
	{"geometry":{"coordinates":[2.256734,48.838762],"type":"Point"},"properties":{"osm_id":"5873044886","tag":{"amenity":"waste_basket"}},"type":"Feature"},
	{"geometry":{"coordinates":[2.257294,48.838487],"type":"Point"},"properties":{"osm_id":"5873044887","tag":{"amenity":"waste_basket"}},"type":"Feature"},
	{"geometry":{"coordinates":[2.257451,48.838414],"type":"Point"},"properties":{"osm_id":"5873048585","tag":{"amenity":"waste_basket"}},"type":"Feature"},
	{"geometry":{"coordinates":[2.257429,48.838837],"type":"Point"},"properties":{"osm_id":"5873048586","tag":{"amenity":"waste_basket"}},"type":"Feature"},
	{"geometry":{"coordinates":[2.236955,48.827543],"type":"Point"},"properties":{"osm_id":"5884806586","tag":{"amenity":"waste_basket"}},"type":"Feature"},
	{"geometry":{"coordinates":[2.237043,48.827638],"type":"Point"},"properties":{"osm_id":"5884806587","tag":{"amenity":"waste_basket"}},"type":"Feature"},
	{"geometry":{"coordinates":[2.224767,48.829843],"type":"Point"},"properties":{"osm_id":"5908074620","tag":{"amenity":"recycling","recycling_type":"container"}},"type":"Feature"},
	{"geometry":{"coordinates":[2.253749,48.825108],"type":"Point"},"properties":{"osm_id":"5911431187","tag":{"amenity":"waste_basket"}},"type":"Feature"},
	{"geometry":{"coordinates":[2.254177,48.82504],"type":"Point"},"properties":{"osm_id":"5911436385","tag":{"amenity":"waste_basket"}},"type":"Feature"},
	{"geometry":{"coordinates":[2.236354,48.831208],"type":"Point"},"properties":{"osm_id":"6054608791","tag":{"amenity":"waste_basket"}},"type":"Feature"},
	{"geometry":{"coordinates":[2.280338,48.853192],"type":"Point"},"properties":{"osm_id":"6079176484","tag":{"amenity":"waste_basket","level":"0"}},"type":"Feature"},
	{"geometry":{"coordinates":[2.280481,48.853087],"type":"Point"},"properties":{"osm_id":"6079179292","tag":{"amenity":"waste_basket","level":"0"}},"type":"Feature"},
	{"geometry":{"coordinates":[2.280414,48.853033],"type":"Point"},"properties":{"osm_id":"6079179293","tag":{"amenity":"waste_basket","level":"0"}},"type":"Feature"},
	{"geometry":{"coordinates":[2.280448,48.853144],"type":"Point"},"properties":{"osm_id":"6079179294","tag":{"amenity":"waste_basket","level":"0"}},"type":"Feature"},
	{"geometry":{"coordinates":[2.280332,48.853047],"type":"Point"},"properties":{"osm_id":"6079179295","tag":{"amenity":"waste_basket","level":"0"}},"type":"Feature"},
	{"geometry":{"coordinates":[2.280212,48.853126],"type":"Point"},"properties":{"osm_id":"6079179296","tag":{"amenity":"waste_basket","level":"0"}},"type":"Feature"},
	{"geometry":{"coordinates":[2.28054,48.853072],"type":"Point"},"properties":{"osm_id":"6079179297","tag":{"amenity":"waste_basket"}},"type":"Feature"},
	{"geometry":{"coordinates":[2.280459,48.85299],"type":"Point"},"properties":{"osm_id":"6079179298","tag":{"amenity":"waste_basket"}},"type":"Feature"},
	{"geometry":{"coordinates":[2.272269,48.864425],"type":"Point"},"properties":{"osm_id":"6080827964","tag":{"amenity":"waste_basket"}},"type":"Feature"},
	{"geometry":{"coordinates":[2.27199,48.864429],"type":"Point"},"properties":{"osm_id":"6080831049","tag":{"amenity":"waste_basket"}},"type":"Feature"},
	{"geometry":{"coordinates":[2.272186,48.864388],"type":"Point"},"properties":{"osm_id":"6080831051","tag":{"amenity":"waste_basket","level":"0"}},"type":"Feature"},
	{"geometry":{"coordinates":[2.272114,48.864387],"type":"Point"},"properties":{"osm_id":"6080831052","tag":{"amenity":"waste_basket","level":"0"}},"type":"Feature"},
	{"geometry":{"coordinates":[2.27202,48.864387],"type":"Point"},"properties":{"osm_id":"6080831053","tag":{"amenity":"waste_basket","level":"0"}},"type":"Feature"},
	{"geometry":{"coordinates":[2.272019,48.864415],"type":"Point"},"properties":{"osm_id":"6080831054","tag":{"amenity":"waste_basket","level":"0"}},"type":"Feature"},
	{"geometry":{"coordinates":[2.275257,48.856355],"type":"Point"},"properties":{"osm_id":"6082430255","tag":{"amenity":"waste_basket","level":"-2"}},"type":"Feature"},
	{"geometry":{"coordinates":[2.27543,48.856413],"type":"Point"},"properties":{"osm_id":"6082430256","tag":{"amenity":"waste_basket","level":"-2"}},"type":"Feature"},
	{"geometry":{"coordinates":[2.274669,48.857566],"type":"Point"},"properties":{"osm_id":"6082430260","tag":{"amenity":"waste_basket","level":"-2"}},"type":"Feature"},
	{"geometry":{"coordinates":[2.274769,48.856627],"type":"Point"},"properties":{"osm_id":"6082724616","tag":{"amenity":"waste_basket"}},"type":"Feature"},
	{"geometry":{"coordinates":[2.274901,48.856679],"type":"Point"},"properties":{"osm_id":"6082724617","tag":{"amenity":"waste_basket"}},"type":"Feature"},
	{"geometry":{"coordinates":[2.271987,48.837246],"type":"Point"},"properties":{"osm_id":"6115227850","tag":{"amenity":"waste_basket"}},"type":"Feature"},
	{"geometry":{"coordinates":[2.27219,48.836183],"type":"Point"},"properties":{"osm_id":"6128373533","tag":{"amenity":"waste_basket"}},"type":"Feature"},
	{"geometry":{"coordinates":[2.27229,48.836382],"type":"Point"},"properties":{"osm_id":"6128373545","tag":{"amenity":"waste_basket"}},"type":"Feature"},
	{"geometry":{"coordinates":[2.272106,48.836517],"type":"Point"},"properties":{"osm_id":"6128373546","tag":{"amenity":"waste_basket"}},"type":"Feature"},
	{"geometry":{"coordinates":[2.272203,48.836617],"type":"Point"},"properties":{"osm_id":"6128373549","tag":{"amenity":"waste_basket"}},"type":"Feature"},
	{"geometry":{"coordinates":[2.271712,48.836798],"type":"Point"},"properties":{"osm_id":"6128373555","tag":{"amenity":"waste_basket"}},"type":"Feature"},
	{"geometry":{"coordinates":[2.271774,48.83685],"type":"Point"},"properties":{"osm_id":"6128373558","tag":{"amenity":"waste_basket"}},"type":"Feature"},
	{"geometry":{"coordinates":[2.271908,48.836661],"type":"Point"},"properties":{"osm_id":"6128373568","tag":{"amenity":"waste_basket"}},"type":"Feature"},
	{"geometry":{"coordinates":[2.272007,48.836795],"type":"Point"},"properties":{"osm_id":"6128373577","tag":{"amenity":"waste_basket"}},"type":"Feature"},
	{"geometry":{"coordinates":[2.25458,48.832884],"type":"Point"},"properties":{"osm_id":"6130560692","tag":{"amenity":"waste_basket"}},"type":"Feature"},
	{"geometry":{"coordinates":[2.217237,48.845575],"type":"Point"},"properties":{"osm_id":"6139400500","tag":{"amenity":"waste_basket","level":"1","waste":"trash"}},"type":"Feature"},
	{"geometry":{"coordinates":[2.276108,48.837962],"type":"Point"},"properties":{"osm_id":"6295339229","tag":{"amenity":"waste_basket"}},"type":"Feature"},
	{"geometry":{"coordinates":[2.276256,48.838201],"type":"Point"},"properties":{"osm_id":"6295339230","tag":{"amenity":"waste_basket"}},"type":"Feature"},
	{"geometry":{"coordinates":[2.276477,48.83845],"type":"Point"},"properties":{"osm_id":"6295339231","tag":{"amenity":"waste_basket"}},"type":"Feature"},
	{"geometry":{"coordinates":[2.276642,48.83861],"type":"Point"},"properties":{"osm_id":"6295339232","tag":{"amenity":"waste_basket"}},"type":"Feature"},
	{"geometry":{"coordinates":[2.276397,48.838615],"type":"Point"},"properties":{"osm_id":"6295834694","tag":{"amenity":"waste_basket"}},"type":"Feature"},
	{"geometry":{"coordinates":[2.275963,48.838115],"type":"Point"},"properties":{"osm_id":"6295834695","tag":{"amenity":"waste_basket"}},"type":"Feature"},
	{"geometry":{"coordinates":[2.276583,48.837855],"type":"Point"},"properties":{"osm_id":"6295835033","tag":{"amenity":"waste_basket"}},"type":"Feature"},
	{"geometry":{"coordinates":[2.276578,48.838399],"type":"Point"},"properties":{"osm_id":"6295835034","tag":{"amenity":"waste_basket"}},"type":"Feature"},
	{"geometry":{"coordinates":[2.276563,48.838382],"type":"Point"},"properties":{"osm_id":"6295835035","tag":{"amenity":"waste_basket"}},"type":"Feature"},
	{"geometry":{"coordinates":[2.276467,48.838272],"type":"Point"},"properties":{"osm_id":"6295835036","tag":{"amenity":"waste_basket"}},"type":"Feature"},
	{"geometry":{"coordinates":[2.277472,48.838035],"type":"Point"},"properties":{"osm_id":"6295835037","tag":{"amenity":"waste_basket"}},"type":"Feature"},
	{"geometry":{"coordinates":[2.276343,48.837591],"type":"Point"},"properties":{"osm_id":"6301148758","tag":{"amenity":"waste_basket"}},"type":"Feature"},
	{"geometry":{"coordinates":[2.27787,48.838054],"type":"Point"},"properties":{"osm_id":"6301148835","tag":{"amenity":"waste_basket"}},"type":"Feature"},
	{"geometry":{"coordinates":[2.277295,48.838679],"type":"Point"},"properties":{"osm_id":"6301148838","tag":{"amenity":"waste_basket"}},"type":"Feature"},
	{"geometry":{"coordinates":[2.277672,48.838537],"type":"Point"},"properties":{"osm_id":"6301148839","tag":{"amenity":"waste_basket"}},"type":"Feature"},
	{"geometry":{"coordinates":[2.277662,48.838355],"type":"Point"},"properties":{"osm_id":"6301148881","tag":{"amenity":"waste_basket"}},"type":"Feature"},
	{"geometry":{"coordinates":[2.277293,48.838551],"type":"Point"},"properties":{"osm_id":"6301148882","tag":{"amenity":"waste_basket"}},"type":"Feature"},
	{"geometry":{"coordinates":[2.22037,48.864274],"type":"Point"},"properties":{"osm_id":"6320190624","tag":{"amenity":"recycling","recycling:glass_bottles":"yes","recycling_type":"container"}},"type":"Feature"},
	{"geometry":{"coordinates":[2.229234,48.841407],"type":"Point"},"properties":{"osm_id":"6388334207","tag":{"amenity":"waste_basket"}},"type":"Feature"},
	{"geometry":{"coordinates":[2.229225,48.841229],"type":"Point"},"properties":{"osm_id":"6388334208","tag":{"amenity":"waste_basket"}},"type":"Feature"},
	{"geometry":{"coordinates":[2.228542,48.84111],"type":"Point"},"properties":{"osm_id":"6388334209","tag":{"amenity":"waste_basket"}},"type":"Feature"},
	{"geometry":{"coordinates":[2.232733,48.813025],"type":"Point"},"properties":{"osm_id":"6413925486","tag":{"amenity":"waste_basket"}},"type":"Feature"},
	{"geometry":{"coordinates":[2.232006,48.843479],"type":"Point"},"properties":{"osm_id":"6478646755","tag":{"amenity":"waste_basket"}},"type":"Feature"},
	{"geometry":{"coordinates":[2.232065,48.843237],"type":"Point"},"properties":{"osm_id":"6478646756","tag":{"amenity":"waste_basket"}},"type":"Feature"},
	{"geometry":{"coordinates":[2.231112,48.842803],"type":"Point"},"properties":{"osm_id":"6478646757","tag":{"amenity":"waste_basket"}},"type":"Feature"},
	{"geometry":{"coordinates":[2.231088,48.842505],"type":"Point"},"properties":{"osm_id":"6478661912","tag":{"amenity":"waste_basket"}},"type":"Feature"},
	{"geometry":{"coordinates":[2.230568,48.842393],"type":"Point"},"properties":{"osm_id":"6478670919","tag":{"amenity":"waste_basket"}},"type":"Feature"},
	{"geometry":{"coordinates":[2.234126,48.84451],"type":"Point"},"properties":{"osm_id":"6478690693","tag":{"amenity":"recycling","recycling:glass":"yes","recycling_type":"container"}},"type":"Feature"},
	{"geometry":{"coordinates":[2.244457,48.833779],"type":"Point"},"properties":{"osm_id":"6580219136","tag":{"amenity":"waste_basket"}},"type":"Feature"},
	{"geometry":{"coordinates":[2.258985,48.823797],"type":"Point"},"properties":{"osm_id":"6710950677","tag":{"amenity":"recycling","material":"wood","operator":"Terriens d'Issy","recycling:organic":"yes","recycling_type":"container"}},"type":"Feature"},
	{"geometry":{"coordinates":[2.269071,48.822735],"type":"Point"},"properties":{"osm_id":"6710950678","tag":{"amenity":"recycling","material":"wood","operator":"Issy en Transition","recycling:organic":"yes","recycling_type":"container"}},"type":"Feature"},
	{"geometry":{"coordinates":[2.266119,48.829395],"type":"Point"},"properties":{"osm_id":"6710950679","tag":{"amenity":"recycling","material":"wood","operator":"Issy en herbe","recycling:organic":"yes","recycling_type":"container"}},"type":"Feature"},
	{"geometry":{"coordinates":[2.282253,48.829811],"type":"Point"},"properties":{"osm_id":"6710950680","tag":{"amenity":"recycling","material":"wood","operator":"Issy en Transition","recycling:organic":"yes","recycling_type":"container"}},"type":"Feature"},
	{"geometry":{"coordinates":[2.217621,48.850586],"type":"Point"},"properties":{"osm_id":"6739932897","tag":{"amenity":"waste_basket"}},"type":"Feature"},
	{"geometry":{"coordinates":[2.283446,48.858271],"type":"Point"},"properties":{"osm_id":"6778167687","ref":"D393","tag":{"amenity":"recycling","recycling:glass_bottles":"yes","recycling_type":"container"}},"type":"Feature"},
	{"geometry":{"coordinates":[2.212198,48.861619],"type":"Point"},"properties":{"osm_id":"6781559408","tag":{"amenity":"recycling","recycling:glass_bottles":"yes","recycling_type":"container"}},"type":"Feature"},
	{"geometry":{"coordinates":[2.213026,48.864089],"type":"Point"},"properties":{"osm_id":"6781559410","tag":{"amenity":"recycling","recycling:glass_bottles":"yes","recycling_type":"container"}},"type":"Feature"},
	{"geometry":{"coordinates":[2.214242,48.862316],"type":"Point"},"properties":{"osm_id":"6781559411","tag":{"amenity":"recycling","recycling:glass_bottles":"yes","recycling_type":"container"}},"type":"Feature"},
	{"geometry":{"coordinates":[2.204334,48.862907],"type":"Point"},"properties":{"osm_id":"6781559414","tag":{"amenity":"recycling","recycling:glass_bottles":"yes","recycling_type":"container"}},"type":"Feature"},
	{"geometry":{"coordinates":[2.200007,48.861711],"type":"Point"},"properties":{"osm_id":"6781559415","tag":{"amenity":"recycling","recycling:glass_bottles":"yes","recycling_type":"container"}},"type":"Feature"},
	{"geometry":{"coordinates":[2.212981,48.862407],"type":"Point"},"properties":{"osm_id":"6781559417","tag":{"amenity":"recycling","recycling:cans":"yes","recycling:glass_bottles":"yes","recycling:paper":"yes","recycling:plastic_bottles":"yes","recycling:plastic_packaging":"yes","recycling_type":"container"}},"type":"Feature"},
	{"geometry":{"coordinates":[2.200931,48.862306],"type":"Point"},"properties":{"osm_id":"6781559418","tag":{"amenity":"recycling","recycling:glass_bottles":"yes","recycling_type":"container"}},"type":"Feature"},
	{"geometry":{"coordinates":[2.204042,48.86187],"type":"Point"},"properties":{"osm_id":"6781559420","tag":{"amenity":"recycling","recycling:glass_bottles":"yes","recycling_type":"container"}},"type":"Feature"},
	{"geometry":{"coordinates":[2.224653,48.860124],"type":"Point"},"properties":{"osm_id":"6781559421","tag":{"amenity":"recycling","recycling:glass_bottles":"yes","recycling_type":"container"}},"type":"Feature"},
	{"geometry":{"coordinates":[2.22303,48.861492],"type":"Point"},"properties":{"osm_id":"6781559422","tag":{"amenity":"recycling","recycling:glass_bottles":"yes","recycling_type":"container"}},"type":"Feature"},
	{"geometry":{"coordinates":[2.205919,48.864393],"type":"Point"},"properties":{"osm_id":"6781559425","tag":{"amenity":"recycling","recycling:glass_bottles":"yes","recycling_type":"container"}},"type":"Feature"},
	{"geometry":{"coordinates":[2.224586,48.864698],"type":"Point"},"properties":{"osm_id":"6781559426","tag":{"amenity":"recycling","recycling:glass_bottles":"yes","recycling_type":"container"}},"type":"Feature"},
	{"geometry":{"coordinates":[2.207562,48.863729],"type":"Point"},"properties":{"osm_id":"6781559427","tag":{"amenity":"recycling","recycling:glass_bottles":"yes","recycling_type":"container"}},"type":"Feature"},
	{"geometry":{"coordinates":[2.209135,48.862847],"type":"Point"},"properties":{"osm_id":"6781559429","tag":{"amenity":"recycling","recycling:glass_bottles":"yes","recycling_type":"container"}},"type":"Feature"},
	{"geometry":{"coordinates":[2.2179,48.864159],"type":"Point"},"properties":{"osm_id":"6781559430","tag":{"amenity":"recycling","recycling:glass_bottles":"yes","recycling_type":"container"}},"type":"Feature"},
	{"geometry":{"coordinates":[2.210212,48.864618],"type":"Point"},"properties":{"osm_id":"6795645913","tag":{"amenity":"recycling","recycling:clothes":"yes","recycling:shoes":"yes","recycling_type":"container"}},"type":"Feature"},
	{"geometry":{"coordinates":[2.210203,48.8646],"type":"Point"},"properties":{"osm_id":"6795645914","tag":{"amenity":"recycling","recycling:glass_bottles":"yes","recycling_type":"container"}},"type":"Feature"},
	{"geometry":{"coordinates":[2.204933,48.863537],"type":"Point"},"properties":{"osm_id":"6795645919","tag":{"amenity":"recycling","recycling:clothes":"yes","recycling:shoes":"yes","recycling_type":"container"}},"type":"Feature"},
	{"geometry":{"coordinates":[2.280372,48.856026],"type":"Point"},"properties":{"osm_id":"6859706064","tag":{"amenity":"recycling","operator":"Le Relais","recycling:clothes":"yes","recycling_type":"container"}},"type":"Feature"},
	{"geometry":{"coordinates":[2.276845,48.838644],"type":"Point"},"properties":{"osm_id":"7088279886","tag":{"amenity":"waste_basket"}},"type":"Feature"},
	{"geometry":{"coordinates":[2.276518,48.841151],"type":"Point"},"properties":{"osm_id":"7088279985","tag":{"amenity":"waste_basket"}},"type":"Feature"},
	{"geometry":{"coordinates":[2.276509,48.841141],"type":"Point"},"properties":{"osm_id":"7088279986","tag":{"amenity":"recycling","recycling:paper":"yes","recycling:plastic":"yes","recycling_type":"container"}},"type":"Feature"},
	{"geometry":{"coordinates":[2.212641,48.863259],"type":"Point"},"properties":{"osm_id":"7149725560","tag":{"amenity":"recycling","recycling:cans":"yes","recycling:cardboard":"yes","recycling:paper":"yes","recycling:plastic":"yes","recycling:plastic_bottles":"yes","recycling:plastic_packaging":"yes","recycling:waste":"yes","recycling_type":"container"}},"type":"Feature"},
	{"geometry":{"coordinates":[2.213666,48.86307],"type":"Point"},"properties":{"osm_id":"7149725562","tag":{"amenity":"recycling","recycling:cans":"yes","recycling:cardboard":"yes","recycling:paper":"yes","recycling:plastic":"yes","recycling:plastic_bottles":"yes","recycling:plastic_packaging":"yes","recycling:waste":"yes","recycling_type":"container"}},"type":"Feature"},
	{"geometry":{"coordinates":[2.214216,48.863273],"type":"Point"},"properties":{"osm_id":"7149725574","tag":{"amenity":"recycling","location":"underground","recycling:cans":"yes","recycling:cardboard":"yes","recycling:paper":"yes","recycling:plastic":"yes","recycling:plastic_bottles":"yes","recycling_type":"container"}},"type":"Feature"},
	{"geometry":{"coordinates":[2.214964,48.863611],"type":"Point"},"properties":{"osm_id":"7149725578","tag":{"amenity":"recycling","location":"underground","recycling:glass_bottles":"no","recycling:waste":"yes","recycling_type":"container"}},"type":"Feature"},
	{"geometry":{"coordinates":[2.218574,48.861885],"type":"Point"},"properties":{"osm_id":"7189866154","tag":{"amenity":"waste_basket"}},"type":"Feature"},
	{"geometry":{"coordinates":[2.214455,48.862637],"type":"Point"},"properties":{"osm_id":"7233806747","tag":{"amenity":"recycling","location":"underground","recycling:cardboard":"yes","recycling:electrical_appliances":"yes","recycling:paper":"yes","recycling:plastic_packaging":"yes","recycling:waste":"yes","recycling_type":"container"}},"type":"Feature"},
	{"geometry":{"coordinates":[2.215367,48.863391],"type":"Point"},"properties":{"osm_id":"7233806758","tag":{"amenity":"recycling","location":"underground","recycling:cardboard":"yes","recycling:electrical_appliances":"yes","recycling:paper":"yes","recycling:plastic_packaging":"yes","recycling:waste":"yes","recycling_type":"container"}},"type":"Feature"},
	{"geometry":{"coordinates":[2.259996,48.848062],"type":"Point"},"properties":{"osm_id":"7251801285","tag":{"amenity":"recycling","recycling:clothes":"yes","recycling_type":"container"}},"type":"Feature"},
	{"geometry":{"coordinates":[2.261949,48.852873],"type":"Point"},"properties":{"osm_id":"7251801294","ref":"D751","tag":{"amenity":"recycling","recycling:glass_bottles":"yes","recycling_type":"container"}},"type":"Feature"},
	{"geometry":{"coordinates":[2.284885,48.858487],"type":"Point"},"properties":{"osm_id":"7251801304","ref":"453","tag":{"amenity":"recycling","recycling:glass_bottles":"yes","recycling_type":"container"}},"type":"Feature"},
	{"geometry":{"coordinates":[2.247349,48.820982],"type":"Point"},"properties":{"osm_id":"7259062738","tag":{"amenity":"recycling","material":"wood","operator":"Issy en transition","recycling:organic":"yes","recycling_type":"container"}},"type":"Feature"},
	{"geometry":{"coordinates":[2.279439,48.847662],"type":"Point"},"properties":{"osm_id":"7447221219","tag":{"amenity":"waste_basket"}},"type":"Feature"},
	{"geometry":{"coordinates":[2.280188,48.848012],"type":"Point"},"properties":{"osm_id":"7447221222","tag":{"amenity":"waste_basket"}},"type":"Feature"},
	{"geometry":{"coordinates":[2.280804,48.848622],"type":"Point"},"properties":{"osm_id":"7447221231","tag":{"amenity":"waste_basket"}},"type":"Feature"},
	{"geometry":{"coordinates":[2.28034,48.848308],"type":"Point"},"properties":{"osm_id":"7447221234","tag":{"amenity":"waste_basket"}},"type":"Feature"},
	{"geometry":{"coordinates":[2.280698,48.848396],"type":"Point"},"properties":{"osm_id":"7447221237","tag":{"amenity":"waste_basket"}},"type":"Feature"},
	{"geometry":{"coordinates":[2.229526,48.840314],"type":"Point"},"properties":{"osm_id":"7454784971","tag":{"amenity":"waste_basket","material":"plastic_and_metal","operator":"GPSO"}},"type":"Feature"},
	{"geometry":{"coordinates":[2.220281,48.85691],"type":"Point"},"properties":{"osm_id":"7553580920","tag":{"amenity":"waste_basket"}},"type":"Feature"}
]
}
