{
"type": "FeatureCollection",
"features": [
	{"geometry":{"coordinates":[2.237978,48.806272],"type":"Point"},"properties":{"osm_id":"1559465879","tag":{"amenity":"waste_basket"}},"type":"Feature"},
	{"geometry":{"coordinates":[2.235717,48.806376],"type":"Point"},"properties":{"osm_id":"1559465881","tag":{"amenity":"recycling","recycling:glass":"yes","recycling_type":"container"}},"type":"Feature"},
	{"geometry":{"coordinates":[2.235882,48.80645],"type":"Point"},"properties":{"osm_id":"1559465884","tag":{"amenity":"waste_basket"}},"type":"Feature"},
	{"geometry":{"coordinates":[2.235952,48.806705],"type":"Point"},"properties":{"osm_id":"1559465893","tag":{"amenity":"waste_basket"}},"type":"Feature"},
	{"geometry":{"coordinates":[2.241731,48.75396],"type":"Point"},"properties":{"osm_id":"2441916194","tag":{"amenity":"waste_basket"}},"type":"Feature"},
	{"geometry":{"coordinates":[2.231668,48.758779],"type":"Point"},"properties":{"osm_id":"2441941520","tag":{"amenity":"waste_basket"}},"type":"Feature"},
	{"geometry":{"coordinates":[2.281978,48.784138],"type":"Point"},"properties":{"osm_id":"2463787970","tag":{"amenity":"recycling","recycling:glass":"yes","recycling_type":"container"}},"type":"Feature"},
	{"geometry":{"coordinates":[2.281883,48.784095],"type":"Point"},"properties":{"osm_id":"2477870667","tag":{"amenity":"waste_basket"}},"type":"Feature"},
	{"geometry":{"coordinates":[2.21971,48.780758],"type":"Point"},"properties":{"osm_id":"2479357005","tag":{"amenity":"waste_basket"}},"type":"Feature"},
	{"geometry":{"coordinates":[2.219777,48.780861],"type":"Point"},"properties":{"osm_id":"2479357008","tag":{"amenity":"waste_basket"}},"type":"Feature"},
	{"geometry":{"coordinates":[2.248412,48.765361],"type":"Point"},"properties":{"osm_id":"2580601170","tag":{"amenity":"waste_basket"}},"type":"Feature"},
	{"geometry":{"coordinates":[2.274645,48.801836],"type":"Point"},"properties":{"osm_id":"3033182558","tag":{"amenity":"recycling","recycling:glass":"yes"}},"type":"Feature"},
	{"geometry":{"coordinates":[2.274693,48.801836],"type":"Point"},"properties":{"osm_id":"3033182560","tag":{"amenity":"waste_basket"}},"type":"Feature"},
	{"geometry":{"coordinates":[2.285132,48.772376],"type":"Point"},"properties":{"osm_id":"3052669285","tag":{"amenity":"waste_basket"}},"type":"Feature"},
	{"geometry":{"coordinates":[2.285138,48.772394],"type":"Point"},"properties":{"osm_id":"3052669287","tag":{"amenity":"waste_basket"}},"type":"Feature"},
	{"geometry":{"coordinates":[2.271651,48.763459],"type":"Point"},"properties":{"osm_id":"3235215675","tag":{"amenity":"waste_basket"}},"type":"Feature"},
	{"geometry":{"coordinates":[2.229184,48.784032],"type":"Point"},"properties":{"osm_id":"3350036695","tag":{"amenity":"recycling","recycling:glass":"yes","recycling_type":"container"}},"type":"Feature"},
	{"geometry":{"coordinates":[2.224974,48.785068],"type":"Point"},"properties":{"osm_id":"3350036696","tag":{"amenity":"recycling","recycling:glass":"yes","recycling_type":"container"}},"type":"Feature"},
	{"geometry":{"coordinates":[2.227695,48.785139],"type":"Point"},"properties":{"osm_id":"3350036697","tag":{"amenity":"recycling","recycling:glass":"yes","recycling_type":"container"}},"type":"Feature"},
	{"geometry":{"coordinates":[2.232537,48.785753],"type":"Point"},"properties":{"osm_id":"3350036698","tag":{"amenity":"recycling","recycling:glass":"yes","recycling_type":"container"}},"type":"Feature"},
	{"geometry":{"coordinates":[2.229327,48.786947],"type":"Point"},"properties":{"osm_id":"3350036699","tag":{"amenity":"recycling","recycling:glass":"yes","recycling_type":"container"}},"type":"Feature"},
	{"geometry":{"coordinates":[2.22932,48.786959],"type":"Point"},"properties":{"osm_id":"3350036700","tag":{"amenity":"recycling","recycling:glass":"yes","recycling_type":"container"}},"type":"Feature"},
	{"geometry":{"coordinates":[2.225701,48.787027],"type":"Point"},"properties":{"osm_id":"3350036701","tag":{"amenity":"recycling","recycling:glass":"yes","recycling_type":"container"}},"type":"Feature"},
	{"geometry":{"coordinates":[2.22569,48.787039],"type":"Point"},"properties":{"osm_id":"3350036702","tag":{"amenity":"recycling","recycling:glass":"yes","recycling_type":"container"}},"type":"Feature"},
	{"geometry":{"coordinates":[2.234085,48.787498],"type":"Point"},"properties":{"osm_id":"3350036703","tag":{"amenity":"recycling","recycling:glass":"yes","recycling_type":"container"}},"type":"Feature"},
	{"geometry":{"coordinates":[2.235588,48.787603],"type":"Point"},"properties":{"osm_id":"3350036704","tag":{"amenity":"recycling","recycling:glass":"yes","recycling_type":"container"}},"type":"Feature"},
	{"geometry":{"coordinates":[2.230019,48.788298],"type":"Point"},"properties":{"osm_id":"3350036705","tag":{"amenity":"recycling","recycling:glass":"yes","recycling_type":"container"}},"type":"Feature"},
	{"geometry":{"coordinates":[2.227264,48.788511],"type":"Point"},"properties":{"osm_id":"3350036706","tag":{"amenity":"recycling","recycling:glass":"yes","recycling_type":"container"}},"type":"Feature"},
	{"geometry":{"coordinates":[2.227244,48.788542],"type":"Point"},"properties":{"osm_id":"3350036707","tag":{"amenity":"recycling","recycling:glass":"yes","recycling_type":"container"}},"type":"Feature"},
	{"geometry":{"coordinates":[2.234138,48.789048],"type":"Point"},"properties":{"osm_id":"3350036708","tag":{"amenity":"recycling","recycling:glass":"yes","recycling_type":"container"}},"type":"Feature"},
	{"geometry":{"coordinates":[2.223567,48.789837],"type":"Point"},"properties":{"osm_id":"3350036709","tag":{"amenity":"recycling","recycling:glass":"yes","recycling_type":"container"}},"type":"Feature"},
	{"geometry":{"coordinates":[2.223598,48.789852],"type":"Point"},"properties":{"osm_id":"3350036710","tag":{"amenity":"recycling","recycling:glass":"yes","recycling_type":"container"}},"type":"Feature"},
	{"geometry":{"coordinates":[2.230545,48.789918],"type":"Point"},"properties":{"osm_id":"3350036711","tag":{"amenity":"recycling","recycling:glass":"yes","recycling_type":"container"}},"type":"Feature"},
	{"geometry":{"coordinates":[2.220358,48.794091],"type":"Point"},"properties":{"osm_id":"3350036712","tag":{"amenity":"recycling","recycling:glass":"yes","recycling_type":"container"}},"type":"Feature"},
	{"geometry":{"coordinates":[2.218354,48.795774],"type":"Point"},"properties":{"osm_id":"3350036713","tag":{"amenity":"recycling","recycling:glass":"yes","recycling_type":"container"}},"type":"Feature"},
	{"geometry":{"coordinates":[2.23366,48.799043],"type":"Point"},"properties":{"osm_id":"3350036716","tag":{"amenity":"recycling","recycling:glass":"yes","recycling_type":"container"}},"type":"Feature"},
	{"geometry":{"coordinates":[2.209233,48.799777],"type":"Point"},"properties":{"osm_id":"3350036717","tag":{"amenity":"recycling","recycling:glass":"yes","recycling_type":"container"}},"type":"Feature"},
	{"geometry":{"coordinates":[2.240961,48.801812],"type":"Point"},"properties":{"osm_id":"3350036719","tag":{"amenity":"recycling","recycling:glass":"yes","recycling_type":"container"}},"type":"Feature"},
	{"geometry":{"coordinates":[2.239381,48.803873],"type":"Point"},"properties":{"osm_id":"3350036723","tag":{"amenity":"recycling","recycling:glass":"yes","recycling_type":"container"}},"type":"Feature"},
	{"geometry":{"coordinates":[2.235572,48.805454],"type":"Point"},"properties":{"osm_id":"3350036724","tag":{"amenity":"recycling","recycling:glass":"yes","recycling_type":"container"}},"type":"Feature"},
	{"geometry":{"coordinates":[2.245214,48.805908],"type":"Point"},"properties":{"osm_id":"3350036726","tag":{"amenity":"recycling","recycling:glass":"yes","recycling_type":"container"}},"type":"Feature"},
	{"geometry":{"coordinates":[2.279656,48.7533],"type":"Point"},"properties":{"osm_id":"3519581164","tag":{"amenity":"waste_basket"}},"type":"Feature"},
	{"geometry":{"coordinates":[2.281468,48.752068],"type":"Point"},"properties":{"osm_id":"3608930326","tag":{"amenity":"waste_basket"}},"type":"Feature"},
	{"geometry":{"coordinates":[2.279876,48.753325],"type":"Point"},"properties":{"osm_id":"3608942576","tag":{"amenity":"waste_basket"}},"type":"Feature"},
	{"geometry":{"coordinates":[2.245814,48.786623],"type":"Point"},"properties":{"osm_id":"3645966093","tag":{"amenity":"recycling","opening_hours":"24/7","recycling_type":"container","wheelchair":"yes"}},"type":"Feature"},
	{"geometry":{"coordinates":[2.245832,48.786627],"type":"Point"},"properties":{"osm_id":"3645966094","tag":{"amenity":"recycling","opening_hours":"24/7","recycling_type":"container","wheelchair":"yes"}},"type":"Feature"},
	{"geometry":{"coordinates":[2.24585,48.786632],"type":"Point"},"properties":{"osm_id":"3645966095","tag":{"amenity":"recycling","opening_hours":"24/7","recycling_type":"container","wheelchair":"yes"}},"type":"Feature"},
	{"geometry":{"coordinates":[2.283333,48.749529],"type":"Point"},"properties":{"osm_id":"3765760383","tag":{"amenity":"waste_basket"}},"type":"Feature"},
	{"geometry":{"coordinates":[2.265981,48.775527],"type":"Point"},"properties":{"osm_id":"3835096105","tag":{"amenity":"waste_basket"}},"type":"Feature"},
	{"geometry":{"coordinates":[2.267306,48.7821],"type":"Point"},"properties":{"osm_id":"3835547118","tag":{"amenity":"waste_basket"}},"type":"Feature"},
	{"geometry":{"coordinates":[2.2643,48.768748],"type":"Point"},"properties":{"osm_id":"3881947047","tag":{"amenity":"waste_basket"}},"type":"Feature"},
	{"geometry":{"coordinates":[2.246589,48.785424],"type":"Point"},"properties":{"osm_id":"4392383434","tag":{"amenity":"recycling","recycling:magazines":"yes","recycling:newspaper":"yes","recycling_type":"underfloor-container"}},"type":"Feature"},
	{"geometry":{"coordinates":[2.246567,48.785417],"type":"Point"},"properties":{"osm_id":"4392383435","tag":{"amenity":"recycling","recycling:glass":"yes","recycling_type":"underfloor-container"}},"type":"Feature"},
	{"geometry":{"coordinates":[2.246608,48.785433],"type":"Point"},"properties":{"osm_id":"4392383436","tag":{"amenity":"recycling","recycling:waste":"yes","recycling_type":"underfloor-container"}},"type":"Feature"},
	{"geometry":{"coordinates":[2.255049,48.774906],"type":"Point"},"properties":{"osm_id":"4392772725","tag":{"amenity":"recycling","location":"underground","recycling_type":"container"}},"type":"Feature"},
	{"geometry":{"coordinates":[2.232823,48.779744],"type":"Point"},"properties":{"osm_id":"4405996970","tag":{"amenity":"waste_basket"}},"type":"Feature"},
	{"geometry":{"coordinates":[2.253971,48.78436],"type":"Point"},"properties":{"osm_id":"4452880568","tag":{"amenity":"recycling","recycling:cardboard":"yes","recycling:paper":"yes","recycling:waste":"yes","recycling_type":"container"}},"type":"Feature"},
	{"geometry":{"coordinates":[2.253919,48.78235],"type":"Point"},"properties":{"osm_id":"4452880569","tag":{"amenity":"recycling","recycling:cardboard":"yes","recycling:paper":"yes","recycling:plastic":"no","recycling:plastic_packaging":"yes","recycling:waste":"yes","recycling_type":"container"}},"type":"Feature"},
	{"geometry":{"coordinates":[2.254325,48.782319],"type":"Point"},"properties":{"osm_id":"4452880570","tag":{"amenity":"recycling","recycling:glass":"yes","recycling_type":"container"}},"type":"Feature"},
	{"geometry":{"coordinates":[2.255223,48.784946],"type":"Point"},"properties":{"osm_id":"4452880571","tag":{"amenity":"recycling","recycling:cardboard":"yes","recycling:paper":"yes","recycling:waste":"yes","recycling_type":"container"}},"type":"Feature"},
	{"geometry":{"coordinates":[2.255132,48.7885],"type":"Point"},"properties":{"osm_id":"4452880572","tag":{"amenity":"recycling","recycling:glass":"yes","recycling_type":"container"}},"type":"Feature"},
	{"geometry":{"coordinates":[2.254754,48.78355],"type":"Point"},"properties":{"osm_id":"4452880573","tag":{"amenity":"recycling","recycling:cardboard":"yes","recycling:paper":"yes","recycling:waste":"yes","recycling_type":"container"}},"type":"Feature"},
	{"geometry":{"coordinates":[2.263401,48.800198],"type":"Point"},"properties":{"osm_id":"4519502441","tag":{"amenity":"waste_basket"}},"type":"Feature"},
	{"geometry":{"coordinates":[2.258723,48.802378],"type":"Point"},"properties":{"osm_id":"4526102154","tag":{"amenity":"waste_basket"}},"type":"Feature"},
	{"geometry":{"coordinates":[2.258989,48.802179],"type":"Point"},"properties":{"osm_id":"4526102155","tag":{"amenity":"waste_basket"}},"type":"Feature"},
	{"geometry":{"coordinates":[2.265378,48.799218],"type":"Point"},"properties":{"osm_id":"4569322139","tag":{"amenity":"waste_basket"}},"type":"Feature"},
	{"geometry":{"coordinates":[2.262499,48.799039],"type":"Point"},"properties":{"osm_id":"4622119877","tag":{"amenity":"waste_basket"}},"type":"Feature"},
	{"geometry":{"coordinates":[2.259966,48.761244],"type":"Point"},"properties":{"osm_id":"4682071660","tag":{"amenity":"recycling","recycling_type":"container"}},"type":"Feature"},
	{"geometry":{"coordinates":[2.257786,48.78228],"type":"Point"},"properties":{"osm_id":"4787707182","tag":{"amenity":"recycling","recycling:glass":"yes","recycling:glass_bottles":"yes","recycling:glass_jars":"yes","recycling_type":"container"}},"type":"Feature"},
	{"geometry":{"coordinates":[2.207174,48.780799],"type":"Point"},"properties":{"osm_id":"5040789722","tag":{"amenity":"waste_basket"}},"type":"Feature"},
	{"geometry":{"coordinates":[2.278556,48.753662],"type":"Point"},"properties":{"osm_id":"5051848752","tag":{"amenity":"waste_basket"}},"type":"Feature"},
	{"geometry":{"coordinates":[2.209215,48.753786],"type":"Point"},"properties":{"osm_id":"5111180243","tag":{"amenity":"waste_basket"}},"type":"Feature"},
	{"geometry":{"coordinates":[2.263056,48.800035],"type":"Point"},"properties":{"osm_id":"5321907261","tag":{"amenity":"waste_basket"}},"type":"Feature"},
	{"geometry":{"coordinates":[2.262875,48.79956],"type":"Point"},"properties":{"osm_id":"5321907270","tag":{"amenity":"waste_basket"}},"type":"Feature"},
	{"geometry":{"coordinates":[2.262988,48.799578],"type":"Point"},"properties":{"osm_id":"5321907293","tag":{"amenity":"waste_basket"}},"type":"Feature"},
	{"geometry":{"coordinates":[2.262905,48.800036],"type":"Point"},"properties":{"osm_id":"5321907294","tag":{"amenity":"waste_basket"}},"type":"Feature"},
	{"geometry":{"coordinates":[2.21506,48.754454],"type":"Point"},"properties":{"osm_id":"5337124252","tag":{"amenity":"waste_basket"}},"type":"Feature"},
	{"geometry":{"coordinates":[2.269003,48.768016],"type":"Point"},"properties":{"osm_id":"5516735936","tag":{"amenity":"waste_disposal"}},"type":"Feature"},
	{"geometry":{"coordinates":[2.257194,48.762967],"type":"Point"},"properties":{"osm_id":"5647629287","tag":{"amenity":"recycling"}},"type":"Feature"},
	{"geometry":{"coordinates":[2.257911,48.763842],"type":"Point"},"properties":{"osm_id":"5647629288","tag":{"amenity":"recycling"}},"type":"Feature"},
	{"geometry":{"coordinates":[2.256148,48.764748],"type":"Point"},"properties":{"osm_id":"5647629289","tag":{"amenity":"recycling"}},"type":"Feature"},
	{"geometry":{"coordinates":[2.256923,48.763816],"type":"Point"},"properties":{"osm_id":"5647629290","tag":{"amenity":"recycling"}},"type":"Feature"},
	{"geometry":{"coordinates":[2.272441,48.75175],"type":"Point"},"properties":{"osm_id":"5838651788","tag":{"amenity":"waste_basket"}},"type":"Feature"},
	{"geometry":{"coordinates":[2.266983,48.777209],"type":"Point"},"properties":{"osm_id":"5908365968","tag":{"amenity":"recycling","recycling:glass":"yes","recycling_type":"container"}},"type":"Feature"},
	{"geometry":{"coordinates":[2.263239,48.776339],"type":"Point"},"properties":{"osm_id":"5910466691","tag":{"amenity":"recycling","recycling:glass":"yes","recycling_type":"container"}},"type":"Feature"},
	{"geometry":{"coordinates":[2.215027,48.754653],"type":"Point"},"properties":{"osm_id":"5914245287","tag":{"amenity":"recycling","recycling:PET":"yes","recycling:cans":"yes","recycling:glass_bottles":"yes","recycling:paper":"yes","recycling:plastic":"yes","recycling:plastic_bottles":"yes","recycling:plastic_packaging":"yes","recycling:waste":"yes","recycling_type":"container"}},"type":"Feature"},
	{"geometry":{"coordinates":[2.217706,48.750827],"type":"Point"},"properties":{"osm_id":"5914245289","tag":{"amenity":"recycling","recycling:cans":"yes","recycling:paper":"yes","recycling:plastic":"yes","recycling:plastic_bottles":"yes","recycling:plastic_packaging":"yes","recycling:waste":"yes","recycling_type":"container"}},"type":"Feature"},
	{"geometry":{"coordinates":[2.21613,48.751339],"type":"Point"},"properties":{"osm_id":"5914245295","tag":{"amenity":"recycling","recycling:glass":"yes","recycling_type":"container"}},"type":"Feature"},
	{"geometry":{"coordinates":[2.215339,48.75394],"type":"Point"},"properties":{"osm_id":"5914245298","tag":{"amenity":"recycling","recycling:glass_bottles":"yes","recycling_type":"container"}},"type":"Feature"},
	{"geometry":{"coordinates":[2.214817,48.751427],"type":"Point"},"properties":{"osm_id":"6004903231","tag":{"amenity":"waste_basket"}},"type":"Feature"},
	{"geometry":{"coordinates":[2.215305,48.751165],"type":"Point"},"properties":{"osm_id":"6004903234","tag":{"amenity":"waste_basket"}},"type":"Feature"},
	{"geometry":{"coordinates":[2.215427,48.751324],"type":"Point"},"properties":{"osm_id":"6005233858","tag":{"amenity":"waste_basket"}},"type":"Feature"},
	{"geometry":{"coordinates":[2.215636,48.751274],"type":"Point"},"properties":{"osm_id":"6005233863","tag":{"amenity":"waste_basket"}},"type":"Feature"},
	{"geometry":{"coordinates":[2.21568,48.751301],"type":"Point"},"properties":{"osm_id":"6005233864","tag":{"amenity":"waste_basket"}},"type":"Feature"},
	{"geometry":{"coordinates":[2.216197,48.751449],"type":"Point"},"properties":{"osm_id":"6005234585","tag":{"amenity":"waste_basket"}},"type":"Feature"},
	{"geometry":{"coordinates":[2.215809,48.751118],"type":"Point"},"properties":{"osm_id":"6005234591","tag":{"amenity":"waste_basket"}},"type":"Feature"},
	{"geometry":{"coordinates":[2.216305,48.750891],"type":"Point"},"properties":{"osm_id":"6005234597","tag":{"amenity":"waste_basket"}},"type":"Feature"},
	{"geometry":{"coordinates":[2.215705,48.751861],"type":"Point"},"properties":{"osm_id":"6005234604","tag":{"amenity":"waste_basket"}},"type":"Feature"},
	{"geometry":{"coordinates":[2.271249,48.752159],"type":"Point"},"properties":{"osm_id":"6156915269","tag":{"amenity":"waste_basket"}},"type":"Feature"},
	{"geometry":{"coordinates":[2.285041,48.768899],"type":"Point"},"properties":{"osm_id":"6434591760","tag":{"amenity":"waste_basket"}},"type":"Feature"},
	{"geometry":{"coordinates":[2.269464,48.775436],"type":"Point"},"properties":{"osm_id":"6668413106","tag":{"amenity":"waste_basket"}},"type":"Feature"},
	{"geometry":{"coordinates":[2.269342,48.775225],"type":"Point"},"properties":{"osm_id":"6668413107","tag":{"amenity":"waste_basket"}},"type":"Feature"},
	{"geometry":{"coordinates":[2.269143,48.775182],"type":"Point"},"properties":{"osm_id":"6668413114","tag":{"amenity":"recycling","location":"underground","recycling:glass_bottles":"yes","recycling_type":"container"}},"type":"Feature"},
	{"geometry":{"coordinates":[2.269424,48.770816],"type":"Point"},"properties":{"osm_id":"6668413116","tag":{"amenity":"waste_basket"}},"type":"Feature"},
	{"geometry":{"coordinates":[2.26898,48.771913],"type":"Point"},"properties":{"osm_id":"6668413127","tag":{"amenity":"waste_basket"}},"type":"Feature"},
	{"geometry":{"coordinates":[2.219673,48.754184],"type":"Point"},"properties":{"osm_id":"6990886398","tag":{"amenity":"waste_basket"}},"type":"Feature"},
	{"geometry":{"coordinates":[2.219747,48.754657],"type":"Point"},"properties":{"osm_id":"6990886469","tag":{"amenity":"waste_disposal"}},"type":"Feature"},
	{"geometry":{"coordinates":[2.201326,48.753496],"type":"Point"},"properties":{"name":"Eco-point de Bi\u00c3\u00a8vres","osm_id":"7101056487","tag":{"amenity":"recycling","recycling_type":"centre"}},"type":"Feature"},
	{"geometry":{"coordinates":[2.25773,48.780422],"type":"Point"},"properties":{"osm_id":"7709606091","tag":{"amenity":"recycling","opening_hours":"24/7","recycling:glass":"yes","recycling:glass_bottles":"yes","recycling_type":"container"}},"type":"Feature"},
	{"geometry":{"coordinates":[2.262987,48.793201],"type":"Point"},"properties":{"osm_id":"7713981729","tag":{"amenity":"waste_basket","waste":"trash"}},"type":"Feature"},
	{"geometry":{"coordinates":[2.284738,48.774399],"type":"Point"},"properties":{"name":"Centre Technique Municipal de Sceaux","osm_id":"7795179398","tag":{"amenity":"recycling","recycling_type":"centre"}},"type":"Feature"},
	{"geometry":{"coordinates":[2.258525,48.751724],"type":"Point"},"properties":{"osm_id":"7850860251","tag":{"amenity":"waste_basket"}},"type":"Feature"}
]
}
