{
"type": "FeatureCollection",
"features": [
	{"geometry":{"coordinates":[2.256423,48.581493],"type":"Point"},"properties":{"name":"Verre","osm_id":"1578817308","tag":{"amenity":"recycling"}},"type":"Feature"},
	{"geometry":{"coordinates":[2.234908,48.586493],"type":"Point"},"properties":{"osm_id":"1704574697","tag":{"amenity":"recycling","recycling:glass_bottles":"yes","recycling_type":"container"}},"type":"Feature"},
	{"geometry":{"coordinates":[2.249796,48.587272],"type":"Point"},"properties":{"osm_id":"1704589781","tag":{"amenity":"recycling","recycling:glass_bottles":"yes","recycling_type":"container"}},"type":"Feature"},
	{"geometry":{"coordinates":[2.266234,48.631415],"type":"Point"},"properties":{"name":"Linas","osm_id":"1806383831","tag":{"addr:postcode":"91310","amenity":"waste_basket","operator":"La Poste","phone":"3631","ref:FR:LaPoste":"16960A","wheelchair":"no"}},"type":"Feature"},
	{"geometry":{"coordinates":[2.260318,48.59663],"type":"Point"},"properties":{"osm_id":"2441988071","tag":{"amenity":"recycling","recycling:glass_bottles":"yes","recycling:paper":"yes","recycling_type":"container"}},"type":"Feature"},
	{"geometry":{"coordinates":[2.258672,48.585789],"type":"Point"},"properties":{"osm_id":"2515696684","tag":{"amenity":"waste_basket"}},"type":"Feature"},
	{"geometry":{"coordinates":[2.264878,48.582807],"type":"Point"},"properties":{"osm_id":"2515748367","tag":{"amenity":"recycling"}},"type":"Feature"},
	{"geometry":{"coordinates":[2.264233,48.584562],"type":"Point"},"properties":{"osm_id":"2515748462","tag":{"amenity":"recycling"}},"type":"Feature"},
	{"geometry":{"coordinates":[2.239655,48.584799],"type":"Point"},"properties":{"osm_id":"2611251370","tag":{"amenity":"recycling","recycling:glass":"yes"}},"type":"Feature"},
	{"geometry":{"coordinates":[2.267813,48.591677],"type":"Point"},"properties":{"osm_id":"2986421286","tag":{"amenity":"waste_basket"}},"type":"Feature"},
	{"geometry":{"coordinates":[2.267407,48.591783],"type":"Point"},"properties":{"osm_id":"2986680680","tag":{"amenity":"waste_basket"}},"type":"Feature"},
	{"geometry":{"coordinates":[2.24143,48.586312],"type":"Point"},"properties":{"osm_id":"2988437005","ref":"463","tag":{"amenity":"recycling","recycling:glass_bottles":"yes","recycling_type":"container"}},"type":"Feature"},
	{"geometry":{"coordinates":[2.249471,48.591476],"type":"Point"},"properties":{"osm_id":"4718433060","tag":{"amenity":"recycling","recycling:cans":"no","recycling:cardboard":"yes","recycling:glass":"yes","recycling:glass_bottles":"yes","recycling:paper":"yes","recycling:plastic":"no","recycling_type":"container","wheelchair":"yes"}},"type":"Feature"},
	{"geometry":{"coordinates":[2.274676,48.611435],"type":"Point"},"properties":{"osm_id":"5032189324","tag":{"amenity":"waste_basket"}},"type":"Feature"},
	{"geometry":{"coordinates":[2.263174,48.607035],"type":"Point"},"properties":{"osm_id":"5034179929","tag":{"amenity":"recycling","recycling:glass":"yes","recycling_type":"container"}},"type":"Feature"},
	{"geometry":{"coordinates":[2.222004,48.582089],"type":"Point"},"properties":{"osm_id":"5316084154","tag":{"amenity":"waste_basket"}},"type":"Feature"},
	{"geometry":{"coordinates":[2.24143,48.586299],"type":"Point"},"properties":{"osm_id":"6010506809","ref":"462","tag":{"amenity":"recycling","recycling:paper":"yes","recycling_type":"container"}},"type":"Feature"},
	{"geometry":{"coordinates":[2.241928,48.585667],"type":"Point"},"properties":{"osm_id":"6010506810","tag":{"amenity":"recycling","recycling:paper":"yes","recycling_type":"container"}},"type":"Feature"},
	{"geometry":{"coordinates":[2.2419,48.585659],"type":"Point"},"properties":{"osm_id":"6010506811","ref":"453","tag":{"amenity":"recycling","recycling:glass_bottles":"yes","recycling_type":"container"}},"type":"Feature"},
	{"geometry":{"coordinates":[2.241669,48.585425],"type":"Point"},"properties":{"osm_id":"6010506812","tag":{"amenity":"recycling","operator":"Le Relais","recycling:clothes":"yes","recycling_type":"container"}},"type":"Feature"},
	{"geometry":{"coordinates":[2.241656,48.585423],"type":"Point"},"properties":{"osm_id":"6010506813","tag":{"amenity":"recycling","operator":"Le Relais","recycling:clothes":"yes","recycling_type":"container"}},"type":"Feature"},
	{"geometry":{"coordinates":[2.240791,48.586183],"type":"Point"},"properties":{"osm_id":"6010506824","tag":{"amenity":"waste_basket"}},"type":"Feature"},
	{"geometry":{"coordinates":[2.241085,48.586428],"type":"Point"},"properties":{"osm_id":"6010506825","tag":{"amenity":"waste_basket"}},"type":"Feature"},
	{"geometry":{"coordinates":[2.241808,48.585462],"type":"Point"},"properties":{"osm_id":"7617812288","tag":{"amenity":"waste_basket"}},"type":"Feature"}
]
}
