{
"type": "FeatureCollection",
"lastupdate": "2020-08-06T00:00:00Z",
"features": [
	{"geometry":{"coordinates":[2.277995,48.550766],"type":"Point"},"properties":{"osm_id":"1770763730","tag":{"amenity":"recycling","recycling:clothes":"yes","recycling:glass":"yes","recycling_type":"container"}},"type":"Feature"},
	{"geometry":{"coordinates":[2.272532,48.546344],"type":"Point"},"properties":{"osm_id":"1770848825","tag":{"amenity":"waste_basket"}},"type":"Feature"},
	{"geometry":{"coordinates":[2.263458,48.525866],"type":"Point"},"properties":{"osm_id":"1798513282","tag":{"amenity":"waste_basket"}},"type":"Feature"},
	{"geometry":{"coordinates":[2.270748,48.528639],"type":"Point"},"properties":{"osm_id":"1798513310","tag":{"amenity":"waste_basket"}},"type":"Feature"},
	{"geometry":{"coordinates":[2.26575,48.52238],"type":"Point"},"properties":{"osm_id":"2309539894","tag":{"amenity":"waste_basket"}},"type":"Feature"},
	{"geometry":{"coordinates":[2.266093,48.522194],"type":"Point"},"properties":{"osm_id":"2309539895","tag":{"amenity":"waste_basket"}},"type":"Feature"},
	{"geometry":{"coordinates":[2.216244,48.547217],"type":"Point"},"properties":{"osm_id":"2349098847","tag":{"amenity":"recycling","recycling:glass":"yes","recycling_type":"container"}},"type":"Feature"},
	{"geometry":{"coordinates":[2.255803,48.520514],"type":"Point"},"properties":{"osm_id":"7355044355","tag":{"amenity":"waste_basket","waste":"trash"}},"type":"Feature"},
	{"geometry":{"coordinates":[2.253337,48.519713],"type":"Point"},"properties":{"osm_id":"7646536227","tag":{"amenity":"recycling","covered":"no","opening_hours:covid19":"same","recycling:glass":"yes","recycling_type":"container"}},"type":"Feature"}
]
}
