{
"type": "FeatureCollection",
"features": [
	{"geometry":{"coordinates":[2.207219,48.507234],"type":"Point"},"properties":{"osm_id":"2349010007","tag":{"amenity":"recycling","recycling:glass":"yes","recycling:paper":"yes","recycling_type":"container"}},"type":"Feature"},
	{"geometry":{"coordinates":[2.213377,48.509747],"type":"Point"},"properties":{"osm_id":"2349098678","tag":{"amenity":"waste_basket"}},"type":"Feature"},
	{"geometry":{"coordinates":[2.216669,48.512151],"type":"Point"},"properties":{"osm_id":"2349098687","tag":{"amenity":"waste_basket"}},"type":"Feature"},
	{"geometry":{"coordinates":[2.2156,48.514434],"type":"Point"},"properties":{"osm_id":"4461993694","tag":{"amenity":"waste_basket"}},"type":"Feature"},
	{"geometry":{"coordinates":[2.215833,48.514341],"type":"Point"},"properties":{"osm_id":"4461998675","tag":{"amenity":"waste_basket"}},"type":"Feature"},
	{"geometry":{"coordinates":[2.216,48.514418],"type":"Point"},"properties":{"osm_id":"4461998679","tag":{"amenity":"waste_basket","level":"-1"}},"type":"Feature"},
	{"geometry":{"coordinates":[2.217026,48.506219],"type":"Point"},"properties":{"osm_id":"5940861993","tag":{"amenity":"waste_basket"}},"type":"Feature"},
	{"geometry":{"coordinates":[2.199721,48.495054],"type":"Point"},"properties":{"osm_id":"6750825349","tag":{"amenity":"recycling"}},"type":"Feature"}
]
}
