{
"type": "FeatureCollection",
"lastupdate": "2020-08-01T00:00:00Z",
"features": [
	{"geometry":{"coordinates":[2.255533,44.651387],"type":"Point"},"properties":{"osm_id":"3883436225","tag":{"amenity":"waste_basket","material":"wood"}},"type":"Feature"},
	{"geometry":{"coordinates":[2.256651,44.651398],"type":"Point"},"properties":{"osm_id":"3883436227","tag":{"amenity":"waste_basket","material":"wood"}},"type":"Feature"},
	{"geometry":{"coordinates":[2.254818,44.651361],"type":"Point"},"properties":{"osm_id":"3884528879","tag":{"amenity":"recycling","recycling:paper":"yes","recycling_type":"container"}},"type":"Feature"},
	{"geometry":{"coordinates":[2.254838,44.651366],"type":"Point"},"properties":{"osm_id":"3884528880","tag":{"amenity":"recycling","recycling:glass_bottles":"yes","recycling_type":"container"}},"type":"Feature"},
	{"geometry":{"coordinates":[2.255492,44.652069],"type":"Point"},"properties":{"osm_id":"3884825862","tag":{"amenity":"waste_basket"}},"type":"Feature"},
	{"geometry":{"coordinates":[2.216634,44.650896],"type":"Point"},"properties":{"osm_id":"3893812400","tag":{"amenity":"waste_basket"}},"type":"Feature"},
	{"geometry":{"coordinates":[2.231465,44.591329],"type":"Point"},"properties":{"osm_id":"5000010365","tag":{"amenity":"waste_basket"}},"type":"Feature"},
	{"geometry":{"coordinates":[2.230335,44.591373],"type":"Point"},"properties":{"osm_id":"5241392953","tag":{"amenity":"recycling","recycling_type":"container"}},"type":"Feature"},
	{"geometry":{"coordinates":[2.254881,44.651926],"type":"Point"},"properties":{"osm_id":"5405808282","tag":{"amenity":"waste_basket"}},"type":"Feature"},
	{"geometry":{"coordinates":[2.249604,44.606048],"type":"Point"},"properties":{"osm_id":"5469457976","tag":{"amenity":"recycling","recycling_type":"container"}},"type":"Feature"},
	{"geometry":{"coordinates":[2.266579,44.608021],"type":"Point"},"properties":{"osm_id":"5469597089","tag":{"amenity":"recycling","recycling_type":"container"}},"type":"Feature"},
	{"geometry":{"coordinates":[2.242446,44.60333],"type":"Point"},"properties":{"osm_id":"5832528239","tag":{"amenity":"recycling","colour":"white","recycling:clothes":"yes","recycling_type":"container"}},"type":"Feature"},
	{"geometry":{"coordinates":[2.242414,44.603318],"type":"Point"},"properties":{"osm_id":"5832528240","tag":{"amenity":"recycling","colour":"white","recycling:clothes":"yes","recycling_type":"container"}},"type":"Feature"},
	{"geometry":{"coordinates":[2.242216,44.603248],"type":"Point"},"properties":{"osm_id":"5832528241","tag":{"amenity":"recycling","mapillary":"https://www.mapillary.com/map/im/ymu9OlMqw1c-hsm2WaFobg","recycling:paper":"yes","recycling_type":"container"}},"type":"Feature"},
	{"geometry":{"coordinates":[2.242188,44.603234],"type":"Point"},"properties":{"osm_id":"5832528242","tag":{"amenity":"recycling","mapillary":"https://www.mapillary.com/map/im/ymu9OlMqw1c-hsm2WaFobg","recycling:paper":"yes","recycling_type":"container"}},"type":"Feature"},
	{"geometry":{"coordinates":[2.235302,44.608599],"type":"Point"},"properties":{"osm_id":"5832528265","tag":{"amenity":"recycling","recycling:glass_bottles":"yes","recycling_type":"container"}},"type":"Feature"},
	{"geometry":{"coordinates":[2.241824,44.604732],"type":"Point"},"properties":{"osm_id":"5836053990","tag":{"amenity":"waste_basket","colour":"brown","material":"wood"}},"type":"Feature"},
	{"geometry":{"coordinates":[2.248602,44.604588],"type":"Point"},"properties":{"osm_id":"5836547911","tag":{"amenity":"waste_basket","material":"wood"}},"type":"Feature"},
	{"geometry":{"coordinates":[2.206724,44.634927],"type":"Point"},"properties":{"osm_id":"5908516622","tag":{"amenity":"recycling","recycling_type":"container"}},"type":"Feature"},
	{"geometry":{"coordinates":[2.218819,44.6487],"type":"Point"},"properties":{"osm_id":"6208393851","tag":{"amenity":"recycling","recycling_type":"container"}},"type":"Feature"}
]
}
