{
"type": "FeatureCollection",
"lastupdate": "2020-08-04T00:00:00Z",
"features": [
	{"geometry":{"coordinates":[2.245994,43.684408],"type":"Point"},"properties":{"osm_id":"1335002476","tag":{"amenity":"recycling","recycling:cans":"yes"}},"type":"Feature"},
	{"geometry":{"coordinates":[2.24426,43.690194],"type":"Point"},"properties":{"osm_id":"1335002657","tag":{"amenity":"recycling","recycling:cans":"yes"}},"type":"Feature"},
	{"geometry":{"coordinates":[2.204508,43.677605],"type":"Point"},"properties":{"osm_id":"1843268145","tag":{"amenity":"recycling","recycling:glass":"yes"}},"type":"Feature"},
	{"geometry":{"coordinates":[2.204306,43.677113],"type":"Point"},"properties":{"osm_id":"1844659200","tag":{"amenity":"waste_basket"}},"type":"Feature"},
	{"geometry":{"coordinates":[2.204242,43.677356],"type":"Point"},"properties":{"osm_id":"1844659226","tag":{"amenity":"waste_basket"}},"type":"Feature"},
	{"geometry":{"coordinates":[2.202758,43.702831],"type":"Point"},"properties":{"osm_id":"1867856554","tag":{"amenity":"recycling","recycling:glass":"yes"}},"type":"Feature"},
	{"geometry":{"coordinates":[2.242712,43.697214],"type":"Point"},"properties":{"osm_id":"1916186392","tag":{"amenity":"recycling","recycling:glass":"yes"}},"type":"Feature"},
	{"geometry":{"coordinates":[2.209121,43.670316],"type":"Point"},"properties":{"osm_id":"1919306768","tag":{"amenity":"recycling","recycling:glass":"yes"}},"type":"Feature"},
	{"geometry":{"coordinates":[2.226888,43.67528],"type":"Point"},"properties":{"osm_id":"1919306915","tag":{"amenity":"recycling","recycling:glass":"yes"}},"type":"Feature"},
	{"geometry":{"coordinates":[2.282839,43.663898],"type":"Point"},"properties":{"osm_id":"1920879793","tag":{"amenity":"recycling","recycling:glass":"yes"}},"type":"Feature"},
	{"geometry":{"coordinates":[2.199256,43.647634],"type":"Point"},"properties":{"osm_id":"1951670056","tag":{"amenity":"recycling","mapillary":"PYqGP1CDy3BqGz5RkLnQZg","recycling:glass":"no","recycling:glass_bottles":"yes","recycling_type":"container","survey:date":"2017-08-25"}},"type":"Feature"},
	{"geometry":{"coordinates":[2.237136,43.655294],"type":"Point"},"properties":{"osm_id":"2009760788","tag":{"amenity":"recycling","recycling:glass":"yes","recycling:paper":"yes"}},"type":"Feature"},
	{"geometry":{"coordinates":[2.203509,43.662646],"type":"Point"},"properties":{"osm_id":"2446439276","tag":{"amenity":"recycling","recycling:glass":"yes"}},"type":"Feature"},
	{"geometry":{"coordinates":[2.273438,43.649439],"type":"Point"},"properties":{"osm_id":"4210803430","tag":{"amenity":"recycling"}},"type":"Feature"},
	{"geometry":{"coordinates":[2.273452,43.655684],"type":"Point"},"properties":{"osm_id":"4210828442","tag":{"amenity":"recycling"}},"type":"Feature"}
]
}
