{
"type": "FeatureCollection",
"features": [
	{"geometry":{"coordinates":[2.259701,43.601935],"type":"Point"},"properties":{"osm_id":"1014669549","tag":{"amenity":"recycling","location":"overground","recycling:cans":"yes","recycling:clothes":"yes","recycling:glass_bottles":"yes","recycling:paper":"yes","recycling:plastic":"yes","recycling:shoes":"yes","recycling_type":"container"}},"type":"Feature"},
	{"geometry":{"coordinates":[2.208658,43.589165],"type":"Point"},"properties":{"osm_id":"1014811475","tag":{"amenity":"recycling"}},"type":"Feature"},
	{"geometry":{"coordinates":[2.268159,43.621194],"type":"Point"},"properties":{"osm_id":"1029493960","tag":{"amenity":"recycling","location":"overground","recycling:cans":"yes","recycling:glass_bottles":"yes","recycling:paper":"yes","recycling:plastic":"yes","recycling_type":"container"}},"type":"Feature"},
	{"geometry":{"coordinates":[2.259293,43.62391],"type":"Point"},"properties":{"osm_id":"1068399275","tag":{"amenity":"recycling","mapillary":"AM4dR_CWKflf4Tz1SStjpQ","recycling:cans":"yes","recycling:clothes":"yes","recycling:glass_bottles":"yes","recycling:paper":"yes","recycling:plastic":"yes","recycling:shoes":"yes","recycling_type":"container","survey:date":"2017-08-25"}},"type":"Feature"},
	{"geometry":{"coordinates":[2.260236,43.622206],"type":"Point"},"properties":{"osm_id":"1068399414","tag":{"amenity":"recycling","location":"overground","recycling:cans":"yes","recycling:glass_bottles":"yes","recycling:paper":"yes","recycling:plastic":"yes","recycling_type":"container"}},"type":"Feature"},
	{"geometry":{"coordinates":[2.224395,43.600969],"type":"Point"},"properties":{"osm_id":"1353911399","tag":{"amenity":"recycling","location":"overground","recycling:glass_bottles":"yes","recycling_type":"container"}},"type":"Feature"},
	{"geometry":{"coordinates":[2.231057,43.605996],"type":"Point"},"properties":{"osm_id":"1353911412","tag":{"amenity":"recycling","recycling:glass":"yes"}},"type":"Feature"},
	{"geometry":{"coordinates":[2.228843,43.609582],"type":"Point"},"properties":{"osm_id":"1376306027","tag":{"amenity":"recycling","mapillary":"SIgEHnj6oKnqOj_43j1DKw","recycling:glass":"no","recycling:glass_bottles":"yes","recycling_type":"container","survey:date":"2017-08-25"}},"type":"Feature"},
	{"geometry":{"coordinates":[2.278284,43.631932],"type":"Point"},"properties":{"osm_id":"2009760568","tag":{"amenity":"recycling","recycling:glass":"yes"}},"type":"Feature"},
	{"geometry":{"coordinates":[2.24064,43.60212],"type":"Point"},"properties":{"osm_id":"2401585634","tag":{"amenity":"waste_basket"}},"type":"Feature"},
	{"geometry":{"coordinates":[2.237697,43.603592],"type":"Point"},"properties":{"osm_id":"2401585673","tag":{"amenity":"waste_basket"}},"type":"Feature"},
	{"geometry":{"coordinates":[2.237003,43.603955],"type":"Point"},"properties":{"osm_id":"2401585679","tag":{"amenity":"waste_basket"}},"type":"Feature"},
	{"geometry":{"coordinates":[2.236892,43.603959],"type":"Point"},"properties":{"osm_id":"2401585680","tag":{"amenity":"waste_basket"}},"type":"Feature"},
	{"geometry":{"coordinates":[2.237173,43.604479],"type":"Point"},"properties":{"osm_id":"2401585690","tag":{"amenity":"waste_basket"}},"type":"Feature"},
	{"geometry":{"coordinates":[2.243426,43.603102],"type":"Point"},"properties":{"osm_id":"2403847824","tag":{"amenity":"waste_basket"}},"type":"Feature"},
	{"geometry":{"coordinates":[2.244764,43.604451],"type":"Point"},"properties":{"osm_id":"2403847853","tag":{"amenity":"waste_basket"}},"type":"Feature"},
	{"geometry":{"coordinates":[2.237545,43.608518],"type":"Point"},"properties":{"osm_id":"2407792152","tag":{"amenity":"waste_basket"}},"type":"Feature"},
	{"geometry":{"coordinates":[2.2377,43.608537],"type":"Point"},"properties":{"osm_id":"2407792153","tag":{"amenity":"waste_basket"}},"type":"Feature"},
	{"geometry":{"coordinates":[2.241458,43.603824],"type":"Point"},"properties":{"osm_id":"2408293421","tag":{"amenity":"waste_basket"}},"type":"Feature"},
	{"geometry":{"coordinates":[2.242368,43.605251],"type":"Point"},"properties":{"osm_id":"2408956524","tag":{"amenity":"waste_basket"}},"type":"Feature"},
	{"geometry":{"coordinates":[2.229532,43.616695],"type":"Point"},"properties":{"osm_id":"2410038076","tag":{"amenity":"recycling","recycling:glass":"yes"}},"type":"Feature"},
	{"geometry":{"coordinates":[2.23996,43.607374],"type":"Point"},"properties":{"osm_id":"2412000225","tag":{"amenity":"waste_basket"}},"type":"Feature"},
	{"geometry":{"coordinates":[2.240102,43.605776],"type":"Point"},"properties":{"osm_id":"2417003228","tag":{"amenity":"waste_basket"}},"type":"Feature"},
	{"geometry":{"coordinates":[2.24078,43.604664],"type":"Point"},"properties":{"osm_id":"2419392086","tag":{"amenity":"waste_basket"}},"type":"Feature"},
	{"geometry":{"coordinates":[2.241613,43.605004],"type":"Point"},"properties":{"osm_id":"2419392096","tag":{"amenity":"waste_basket"}},"type":"Feature"},
	{"geometry":{"coordinates":[2.240954,43.605129],"type":"Point"},"properties":{"osm_id":"2419392098","tag":{"amenity":"waste_basket"}},"type":"Feature"},
	{"geometry":{"coordinates":[2.240988,43.6052],"type":"Point"},"properties":{"osm_id":"2419392100","tag":{"amenity":"waste_basket"}},"type":"Feature"},
	{"geometry":{"coordinates":[2.241012,43.605664],"type":"Point"},"properties":{"osm_id":"2419392114","tag":{"amenity":"waste_basket"}},"type":"Feature"},
	{"geometry":{"coordinates":[2.242489,43.606511],"type":"Point"},"properties":{"osm_id":"2422268483","tag":{"amenity":"waste_basket"}},"type":"Feature"},
	{"geometry":{"coordinates":[2.240495,43.605945],"type":"Point"},"properties":{"osm_id":"2423477382","tag":{"amenity":"waste_basket"}},"type":"Feature"},
	{"geometry":{"coordinates":[2.240391,43.60692],"type":"Point"},"properties":{"osm_id":"2427198388","tag":{"amenity":"waste_basket"}},"type":"Feature"},
	{"geometry":{"coordinates":[2.243216,43.605331],"type":"Point"},"properties":{"osm_id":"2428607969","tag":{"amenity":"waste_basket"}},"type":"Feature"},
	{"geometry":{"coordinates":[2.239177,43.607598],"type":"Point"},"properties":{"osm_id":"2428607983","tag":{"amenity":"waste_basket"}},"type":"Feature"},
	{"geometry":{"coordinates":[2.274565,43.632456],"type":"Point"},"properties":{"osm_id":"2433714111","tag":{"amenity":"recycling","recycling:glass":"yes","recycling:paper":"yes"}},"type":"Feature"},
	{"geometry":{"coordinates":[2.269825,43.618164],"type":"Point"},"properties":{"osm_id":"2436256095","tag":{"amenity":"waste_basket"}},"type":"Feature"},
	{"geometry":{"coordinates":[2.267859,43.614346],"type":"Point"},"properties":{"osm_id":"2437952885","tag":{"amenity":"waste_basket"}},"type":"Feature"},
	{"geometry":{"coordinates":[2.268285,43.615269],"type":"Point"},"properties":{"osm_id":"2437952892","tag":{"amenity":"recycling","location":"overground","recycling:glass":"no","recycling:glass_bottles":"yes","recycling:paper":"yes","recycling_type":"container"}},"type":"Feature"},
	{"geometry":{"coordinates":[2.260209,43.609457],"type":"Point"},"properties":{"osm_id":"2439829321","tag":{"amenity":"waste_basket"}},"type":"Feature"},
	{"geometry":{"coordinates":[2.238903,43.609079],"type":"Point"},"properties":{"osm_id":"2440858575","tag":{"amenity":"waste_basket"}},"type":"Feature"},
	{"geometry":{"coordinates":[2.244322,43.606891],"type":"Point"},"properties":{"osm_id":"2451054575","tag":{"amenity":"waste_basket"}},"type":"Feature"},
	{"geometry":{"coordinates":[2.242995,43.607065],"type":"Point"},"properties":{"osm_id":"2451054578","tag":{"amenity":"waste_basket"}},"type":"Feature"},
	{"geometry":{"coordinates":[2.233716,43.620131],"type":"Point"},"properties":{"osm_id":"2451054625","tag":{"amenity":"waste_basket"}},"type":"Feature"},
	{"geometry":{"coordinates":[2.235119,43.600796],"type":"Point"},"properties":{"osm_id":"2453497868","tag":{"amenity":"waste_basket"}},"type":"Feature"},
	{"geometry":{"coordinates":[2.223824,43.595091],"type":"Point"},"properties":{"osm_id":"2454993865","tag":{"amenity":"waste_basket"}},"type":"Feature"},
	{"geometry":{"coordinates":[2.228834,43.597164],"type":"Point"},"properties":{"osm_id":"2454993891","tag":{"amenity":"recycling","recycling:paper":"yes"}},"type":"Feature"},
	{"geometry":{"coordinates":[2.217004,43.593208],"type":"Point"},"properties":{"osm_id":"2463348476","tag":{"amenity":"waste_basket"}},"type":"Feature"},
	{"geometry":{"coordinates":[2.236487,43.599449],"type":"Point"},"properties":{"osm_id":"3209558863","tag":{"amenity":"waste_basket"}},"type":"Feature"},
	{"geometry":{"coordinates":[2.241429,43.607698],"type":"Point"},"properties":{"osm_id":"5095175221","tag":{"amenity":"waste_basket"}},"type":"Feature"},
	{"geometry":{"coordinates":[2.241032,43.606968],"type":"Point"},"properties":{"osm_id":"5095175321","tag":{"amenity":"waste_basket"}},"type":"Feature"},
	{"geometry":{"coordinates":[2.232903,43.605906],"type":"Point"},"properties":{"osm_id":"7501852704","tag":{"amenity":"recycling"}},"type":"Feature"}
]
}
