{
"type": "FeatureCollection",
"features": [
	{"geometry":{"coordinates":[2.2813,41.838135],"type":"Point"},"properties":{"osm_id":"4111215057","tag":{"amenity":"recycling","recycling:glass_bottles":"yes","recycling_type":"container"}},"type":"Feature"},
	{"geometry":{"coordinates":[2.279899,41.837829],"type":"Point"},"properties":{"osm_id":"5436371653","tag":{"amenity":"recycling","recycling:glass_bottles":"yes","recycling_type":"container"}},"type":"Feature"},
	{"geometry":{"coordinates":[2.280826,41.839004],"type":"Point"},"properties":{"osm_id":"5436371654","tag":{"amenity":"recycling","recycling:cans":"yes","recycling:organic":"yes","recycling:paper":"yes","recycling:plastic":"yes","recycling:waste":"yes","recycling_type":"container"}},"type":"Feature"},
	{"geometry":{"coordinates":[2.229401,41.850314],"type":"Point"},"properties":{"osm_id":"7656744682","tag":{"amenity":"recycling","opening_hours":"24/7","recycling:batteries":"yes","recycling:light_bulbs":"yes","recycling_type":"container"}},"type":"Feature"},
	{"geometry":{"coordinates":[2.224018,41.850824],"type":"Point"},"properties":{"osm_id":"7726634884","tag":{"amenity":"recycling","opening_hours":"24/7","recycling:glass_bottles":"yes","recycling_type":"container"}},"type":"Feature"},
	{"geometry":{"coordinates":[2.219892,41.847285],"type":"Point"},"properties":{"osm_id":"7726645285","tag":{"amenity":"recycling","opening_hours":"24/7","recycling:glass_bottles":"yes","recycling_type":"container"}},"type":"Feature"},
	{"geometry":{"coordinates":[2.227391,41.849298],"type":"Point"},"properties":{"osm_id":"7726645286","tag":{"amenity":"recycling","opening_hours":"24/7","recycling:glass_bottles":"yes","recycling_type":"container"}},"type":"Feature"},
	{"geometry":{"coordinates":[2.225985,41.848486],"type":"Point"},"properties":{"osm_id":"7726645287","tag":{"amenity":"recycling","opening_hours":"24/7","recycling:glass_bottles":"yes","recycling_type":"container"}},"type":"Feature"},
	{"geometry":{"coordinates":[2.221251,41.849793],"type":"Point"},"properties":{"osm_id":"7744247214","tag":{"amenity":"recycling","opening_hours":"24/7","recycling:glass_bottles":"yes","recycling_type":"container"}},"type":"Feature"},
	{"geometry":{"coordinates":[2.226143,41.850672],"type":"Point"},"properties":{"osm_id":"7780561204","tag":{"amenity":"recycling","opening_hours":"24/7","recycling:glass_bottles":"yes","recycling_type":"container"}},"type":"Feature"},
	{"geometry":{"coordinates":[2.229392,41.850084],"type":"Point"},"properties":{"osm_id":"7780561205","tag":{"amenity":"recycling","opening_hours":"24/7","recycling:glass_bottles":"yes","recycling_type":"container"}},"type":"Feature"},
	{"geometry":{"coordinates":[2.230199,41.850678],"type":"Point"},"properties":{"osm_id":"7780561206","tag":{"amenity":"recycling","opening_hours":"24/7","recycling:glass_bottles":"yes","recycling_type":"container"}},"type":"Feature"}
]
}
