{
"type": "FeatureCollection",
"features": [
	{"geometry":{"coordinates":[2.283054,41.625277],"type":"Point"},"properties":{"name":"Deixalleria Canovelles","osm_id":"1667400290","tag":{"amenity":"recycling","recycling_type":"centre"}},"type":"Feature"},
	{"geometry":{"coordinates":[2.284449,41.602182],"type":"Point"},"properties":{"osm_id":"9063041291","tag":{"amenity":"waste_basket"}},"type":"Feature"},
	{"geometry":{"coordinates":[2.283757,41.60237],"type":"Point"},"properties":{"osm_id":"9063068000","tag":{"amenity":"waste_basket"}},"type":"Feature"},
	{"geometry":{"coordinates":[2.282945,41.602248],"type":"Point"},"properties":{"osm_id":"9063070523","tag":{"amenity":"waste_basket"}},"type":"Feature"},
	{"geometry":{"coordinates":[2.283818,41.60198],"type":"Point"},"properties":{"osm_id":"9063075831","tag":{"amenity":"waste_basket"}},"type":"Feature"},
	{"geometry":{"coordinates":[2.283804,41.602302],"type":"Point"},"properties":{"osm_id":"9063092132","tag":{"amenity":"waste_basket"}},"type":"Feature"},
	{"geometry":{"coordinates":[2.283413,41.602321],"type":"Point"},"properties":{"osm_id":"9063096705","tag":{"amenity":"waste_basket"}},"type":"Feature"},
	{"geometry":{"coordinates":[2.28468,41.602313],"type":"Point"},"properties":{"osm_id":"9063096937","tag":{"amenity":"waste_basket"}},"type":"Feature"},
	{"geometry":{"coordinates":[2.284704,41.602227],"type":"Point"},"properties":{"osm_id":"9063103658","tag":{"amenity":"waste_basket"}},"type":"Feature"},
	{"geometry":{"coordinates":[2.283641,41.602282],"type":"Point"},"properties":{"osm_id":"9063104755","tag":{"amenity":"waste_basket"}},"type":"Feature"},
	{"geometry":{"coordinates":[2.283051,41.602099],"type":"Point"},"properties":{"osm_id":"9064508530","tag":{"amenity":"waste_basket"}},"type":"Feature"},
	{"geometry":{"coordinates":[2.284678,41.602499],"type":"Point"},"properties":{"osm_id":"9064526014","tag":{"amenity":"waste_basket"}},"type":"Feature"}
]
}
