{
"type": "FeatureCollection",
"features": [
	{"geometry":{"coordinates":[2.23992,41.512782],"type":"Point"},"properties":{"osm_id":"1987304741","tag":{"amenity":"recycling","recycling_type":"container"}},"type":"Feature"},
	{"geometry":{"coordinates":[2.212638,41.541495],"type":"Point"},"properties":{"osm_id":"2866887380","tag":{"amenity":"recycling","recycling:glass_bottles":"yes"}},"type":"Feature"},
	{"geometry":{"coordinates":[2.21263,41.541502],"type":"Point"},"properties":{"osm_id":"2866887381","tag":{"amenity":"recycling","recycling:cans":"yes"}},"type":"Feature"},
	{"geometry":{"coordinates":[2.212624,41.54151],"type":"Point"},"properties":{"osm_id":"2866887382","tag":{"amenity":"recycling","recycling:paper":"yes"}},"type":"Feature"},
	{"geometry":{"coordinates":[2.212618,41.541517],"type":"Point"},"properties":{"osm_id":"2866887383","tag":{"amenity":"recycling","recycling:organic":"yes","recycling_type":"container"}},"type":"Feature"},
	{"geometry":{"coordinates":[2.212609,41.541526],"type":"Point"},"properties":{"osm_id":"2866887384","tag":{"amenity":"waste_disposal"}},"type":"Feature"},
	{"geometry":{"coordinates":[2.21147,41.542849],"type":"Point"},"properties":{"osm_id":"2866887387","tag":{"amenity":"recycling","recycling:organic":"yes","recycling_type":"container"}},"type":"Feature"},
	{"geometry":{"coordinates":[2.211457,41.542862],"type":"Point"},"properties":{"osm_id":"2866887388","tag":{"amenity":"waste_disposal"}},"type":"Feature"},
	{"geometry":{"coordinates":[2.211446,41.542875],"type":"Point"},"properties":{"osm_id":"2866887390","tag":{"amenity":"recycling","recycling:glass_bottles":"yes"}},"type":"Feature"},
	{"geometry":{"coordinates":[2.211517,41.542885],"type":"Point"},"properties":{"osm_id":"2866887391","tag":{"amenity":"recycling","recycling:cans":"yes"}},"type":"Feature"},
	{"geometry":{"coordinates":[2.211504,41.542902],"type":"Point"},"properties":{"osm_id":"2866887392","tag":{"amenity":"recycling","recycling:paper":"yes"}},"type":"Feature"},
	{"geometry":{"coordinates":[2.225128,41.533005],"type":"Point"},"properties":{"barrier":"gate","osm_id":"2959501350","tag":{"bicycle":"yes","foot":"yes","motorcar":"yes","motorcycle":"yes"}},"type":"Feature"},
	{"geometry":{"coordinates":[2.215226,41.54005],"type":"Point"},"properties":{"osm_id":"4782225902","tag":{"amenity":"recycling","recycling_type":"container"}},"type":"Feature"},
	{"geometry":{"coordinates":[2.215245,41.540061],"type":"Point"},"properties":{"osm_id":"4782225903","tag":{"amenity":"recycling","recycling_type":"container"}},"type":"Feature"},
	{"geometry":{"coordinates":[2.215264,41.540071],"type":"Point"},"properties":{"osm_id":"4782225904","tag":{"amenity":"recycling","recycling_type":"container"}},"type":"Feature"},
	{"geometry":{"coordinates":[2.215283,41.540082],"type":"Point"},"properties":{"osm_id":"4782225905","tag":{"amenity":"recycling","recycling_type":"container"}},"type":"Feature"},
	{"geometry":{"coordinates":[2.215301,41.540092],"type":"Point"},"properties":{"osm_id":"4782225906","tag":{"amenity":"recycling","recycling_type":"container"}},"type":"Feature"},
	{"geometry":{"coordinates":[2.210728,41.536697],"type":"Point"},"properties":{"osm_id":"4783981958","tag":{"amenity":"recycling","recycling:batteries":"yes","recycling:cds":"yes","recycling:electrical_appliances":"yes","recycling:low_energy_bulbs":"yes","recycling:printer_inkjet_cartridges":"yes","recycling:small_appliances":"yes","recycling_type":"container"}},"type":"Feature"},
	{"geometry":{"coordinates":[2.209886,41.537778],"type":"Point"},"properties":{"osm_id":"5574945644","tag":{"amenity":"recycling","opening_hours":"24/7","recycling:cardboard":"yes","recycling:paper":"yes","recycling_type":"container","wheelchair":"yes"}},"type":"Feature"},
	{"geometry":{"coordinates":[2.209825,41.53777],"type":"Point"},"properties":{"osm_id":"5574945648","tag":{"amenity":"recycling","opening_hours":"24/7","recycling:green_waste":"yes","recycling_type":"container","wheelchair":"yes"}},"type":"Feature"},
	{"geometry":{"coordinates":[2.209843,41.537772],"type":"Point"},"properties":{"osm_id":"5574945650","tag":{"amenity":"recycling","opening_hours":"24/7","recycling:PET":"yes","recycling:plastic":"yes","recycling:plastic_bottles":"yes","recycling_type":"container","wheelchair":"yes"}},"type":"Feature"},
	{"geometry":{"coordinates":[2.209864,41.537775],"type":"Point"},"properties":{"osm_id":"5574945653","tag":{"amenity":"recycling","opening_hours":"24/7","recycling:PET":"yes","recycling:plastic":"yes","recycling:plastic_bottles":"yes","recycling_type":"container","wheelchair":"yes"}},"type":"Feature"},
	{"geometry":{"coordinates":[2.209769,41.537842],"type":"Point"},"properties":{"osm_id":"5574945657","tag":{"amenity":"waste_basket","waste":"trash"}},"type":"Feature"},
	{"geometry":{"coordinates":[2.209915,41.537782],"type":"Point"},"properties":{"osm_id":"5574945659","tag":{"amenity":"recycling","opening_hours":"24/7","recycling:green_waste":"yes","recycling_type":"container","wheelchair":"yes"}},"type":"Feature"},
	{"geometry":{"coordinates":[2.274539,41.555517],"type":"Point"},"properties":{"name":"Deixalleria Montorn\u00c3\u00a9s del Valles","osm_id":"6111185849","tag":{"amenity":"recycling","recycling_type":"centre"}},"type":"Feature"}
]
}
