{
"type": "FeatureCollection",
"features": [
	{"geometry":{"coordinates":[2.254734,41.453716],"type":"Point"},"properties":{"osm_id":"331338649","tag":{"amenity":"recycling","recycling:glass_bottles":"yes","recycling:paper":"yes","recycling_type":"container"}},"type":"Feature"},
	{"geometry":{"coordinates":[2.252427,41.45329],"type":"Point"},"properties":{"osm_id":"331338653","tag":{"amenity":"recycling","recycling:glass_bottles":"yes","recycling:packaging":"yes","recycling_type":"container"}},"type":"Feature"},
	{"geometry":{"coordinates":[2.255588,41.454025],"type":"Point"},"properties":{"osm_id":"331823196","tag":{"amenity":"recycling","recycling:clothes":"yes","recycling:glass_bottles":"yes","recycling:organic":"yes","recycling:packaging":"yes","recycling:paper":"yes","recycling_type":"container"}},"type":"Feature"},
	{"geometry":{"coordinates":[2.219707,41.443503],"type":"Point"},"properties":{"osm_id":"622742056","tag":{"amenity":"recycling","recycling:cans":"yes","recycling:glass_bottles":"yes","recycling:paper":"yes","recycling:plastic":"yes","recycling_type":"container"}},"type":"Feature"},
	{"geometry":{"coordinates":[2.251791,41.454563],"type":"Point"},"properties":{"osm_id":"1091496695","tag":{"amenity":"waste_basket"}},"type":"Feature"},
	{"geometry":{"coordinates":[2.251815,41.454615],"type":"Point"},"properties":{"osm_id":"1091496740","tag":{"amenity":"waste_basket"}},"type":"Feature"},
	{"geometry":{"coordinates":[2.254976,41.457593],"type":"Point"},"properties":{"osm_id":"1100885078","tag":{"amenity":"waste_basket"}},"type":"Feature"},
	{"geometry":{"coordinates":[2.252628,41.455285],"type":"Point"},"properties":{"osm_id":"1100885178","tag":{"amenity":"waste_basket"}},"type":"Feature"},
	{"geometry":{"coordinates":[2.252624,41.455597],"type":"Point"},"properties":{"osm_id":"1100885199","tag":{"amenity":"waste_basket"}},"type":"Feature"},
	{"geometry":{"coordinates":[2.252705,41.45524],"type":"Point"},"properties":{"osm_id":"1100885243","tag":{"amenity":"waste_basket"}},"type":"Feature"},
	{"geometry":{"coordinates":[2.255313,41.457295],"type":"Point"},"properties":{"osm_id":"1100885244","tag":{"amenity":"waste_basket"}},"type":"Feature"},
	{"geometry":{"coordinates":[2.252417,41.455453],"type":"Point"},"properties":{"osm_id":"1100885248","tag":{"amenity":"waste_basket"}},"type":"Feature"},
	{"geometry":{"coordinates":[2.256893,41.456631],"type":"Point"},"properties":{"osm_id":"1103336979","tag":{"amenity":"waste_basket"}},"type":"Feature"},
	{"geometry":{"coordinates":[2.251672,41.453681],"type":"Point"},"properties":{"osm_id":"1103336981","tag":{"amenity":"waste_basket"}},"type":"Feature"},
	{"geometry":{"coordinates":[2.25218,41.453746],"type":"Point"},"properties":{"osm_id":"1103528213","tag":{"amenity":"recycling","recycling:organic":"yes","recycling_type":"container"}},"type":"Feature"},
	{"geometry":{"coordinates":[2.252021,41.455091],"type":"Point"},"properties":{"osm_id":"1103553601","tag":{"amenity":"waste_basket"}},"type":"Feature"},
	{"geometry":{"coordinates":[2.252031,41.454785],"type":"Point"},"properties":{"osm_id":"1103553602","tag":{"amenity":"waste_basket"}},"type":"Feature"},
	{"geometry":{"coordinates":[2.251932,41.45493],"type":"Point"},"properties":{"osm_id":"1103553605","tag":{"amenity":"waste_basket"}},"type":"Feature"},
	{"geometry":{"coordinates":[2.231907,41.469941],"type":"Point"},"properties":{"osm_id":"1274366411","tag":{"amenity":"recycling","recycling:cans":"yes","recycling:glass_bottles":"yes","recycling:paper":"yes","recycling_type":"container"}},"type":"Feature"},
	{"geometry":{"coordinates":[2.242279,41.465356],"type":"Point"},"properties":{"osm_id":"1275875194","tag":{"amenity":"recycling","recycling_type":"centre"}},"type":"Feature"},
	{"geometry":{"coordinates":[2.233094,41.471454],"type":"Point"},"properties":{"osm_id":"1277663296","tag":{"amenity":"recycling","recycling:cans":"yes","recycling:glass_bottles":"yes","recycling:paper":"yes","recycling_type":"container"}},"type":"Feature"},
	{"geometry":{"coordinates":[2.230126,41.475035],"type":"Point"},"properties":{"osm_id":"1277663346","tag":{"amenity":"recycling","recycling:cans":"yes","recycling:glass_bottles":"yes","recycling:paper":"yes","recycling_type":"container"}},"type":"Feature"},
	{"geometry":{"coordinates":[2.253249,41.452102],"type":"Point"},"properties":{"osm_id":"1281975210","tag":{"amenity":"recycling","recycling:cans":"yes","recycling:glass_bottles":"yes","recycling:paper":"yes","recycling_type":"container"}},"type":"Feature"},
	{"geometry":{"coordinates":[2.253686,41.451934],"type":"Point"},"properties":{"osm_id":"1281975211","tag":{"amenity":"recycling","recycling:cans":"yes","recycling:glass_bottles":"yes","recycling:paper":"yes","recycling_type":"container"}},"type":"Feature"},
	{"geometry":{"coordinates":[2.219738,41.442865],"type":"Point"},"properties":{"osm_id":"3037640234","tag":{"amenity":"recycling","recycling:cans":"yes","recycling:glass_bottles":"yes","recycling:paper":"yes","recycling:plastic":"yes","recycling_type":"container"}},"type":"Feature"},
	{"geometry":{"coordinates":[2.222005,41.444177],"type":"Point"},"properties":{"osm_id":"3054046833","tag":{"amenity":"recycling","recycling:cans":"yes","recycling:glass_bottles":"yes","recycling:paper":"yes","recycling:plastic":"yes","recycling_type":"container"}},"type":"Feature"},
	{"geometry":{"coordinates":[2.222191,41.444483],"type":"Point"},"properties":{"osm_id":"3054047033","tag":{"amenity":"recycling","recycling:cans":"yes","recycling:glass_bottles":"yes","recycling:paper":"yes","recycling:plastic":"yes","recycling_type":"container"}},"type":"Feature"},
	{"geometry":{"coordinates":[2.222496,41.444021],"type":"Point"},"properties":{"osm_id":"3054047134","tag":{"amenity":"recycling","recycling:cans":"yes","recycling:glass_bottles":"yes","recycling:paper":"yes","recycling:plastic":"yes","recycling_type":"container"}},"type":"Feature"},
	{"geometry":{"coordinates":[2.223109,41.442919],"type":"Point"},"properties":{"osm_id":"3054047533","tag":{"amenity":"recycling","recycling:cans":"yes","recycling:glass_bottles":"yes","recycling:paper":"yes","recycling:plastic":"yes","recycling_type":"container"}},"type":"Feature"},
	{"geometry":{"coordinates":[2.220917,41.443363],"type":"Point"},"properties":{"osm_id":"3059741059","tag":{"amenity":"recycling","recycling:cans":"yes","recycling:glass_bottles":"yes","recycling:paper":"yes","recycling:plastic":"yes","recycling_type":"container"}},"type":"Feature"},
	{"geometry":{"coordinates":[2.218917,41.442999],"type":"Point"},"properties":{"osm_id":"3059741186","tag":{"amenity":"recycling","recycling:cans":"yes","recycling:glass_bottles":"yes","recycling:paper":"yes","recycling:plastic":"yes","recycling_type":"container"}},"type":"Feature"},
	{"geometry":{"coordinates":[2.219565,41.443348],"type":"Point"},"properties":{"osm_id":"3059741188","tag":{"amenity":"recycling","information":"map","map_size":"city","map_type":"street","recycling:batteries":"yes","recycling_type":"container","tourism":"information"}},"type":"Feature"},
	{"geometry":{"coordinates":[2.222013,41.447115],"type":"Point"},"properties":{"osm_id":"3059741299","tag":{"amenity":"waste_basket"}},"type":"Feature"},
	{"geometry":{"coordinates":[2.222343,41.446594],"type":"Point"},"properties":{"osm_id":"3059741753","tag":{"amenity":"recycling","recycling:cans":"yes","recycling:glass_bottles":"yes","recycling:paper":"yes","recycling:plastic":"yes","recycling_type":"container"}},"type":"Feature"},
	{"geometry":{"coordinates":[2.223717,41.444229],"type":"Point"},"properties":{"osm_id":"3059742080","tag":{"amenity":"recycling","recycling:cans":"yes","recycling:glass_bottles":"yes","recycling:paper":"yes","recycling:plastic":"yes","recycling_type":"container"}},"type":"Feature"},
	{"geometry":{"coordinates":[2.223223,41.444874],"type":"Point"},"properties":{"osm_id":"3059742082","tag":{"amenity":"recycling","recycling:cans":"yes","recycling:glass_bottles":"yes","recycling:paper":"yes","recycling:plastic":"yes","recycling_type":"container"}},"type":"Feature"},
	{"geometry":{"coordinates":[2.222091,41.447783],"type":"Point"},"properties":{"osm_id":"3059742087","tag":{"amenity":"recycling","recycling:cans":"yes","recycling:glass_bottles":"yes","recycling:paper":"yes","recycling:plastic":"yes","recycling_type":"container"}},"type":"Feature"},
	{"geometry":{"coordinates":[2.224979,41.443822],"type":"Point"},"properties":{"osm_id":"3192205082","tag":{"amenity":"recycling","recycling:cans":"yes","recycling:glass_bottles":"yes","recycling:paper":"yes","recycling:plastic":"yes","recycling_type":"container"}},"type":"Feature"},
	{"geometry":{"coordinates":[2.225531,41.444034],"type":"Point"},"properties":{"osm_id":"3192205083","tag":{"amenity":"recycling","recycling:cans":"yes","recycling:glass_bottles":"yes","recycling:paper":"yes","recycling:plastic":"yes","recycling_type":"container"}},"type":"Feature"},
	{"geometry":{"coordinates":[2.217475,41.44328],"type":"Point"},"properties":{"osm_id":"3193588824","tag":{"amenity":"recycling","recycling:cans":"yes","recycling:glass_bottles":"yes","recycling:paper":"yes","recycling:plastic":"yes","recycling_type":"container"}},"type":"Feature"},
	{"geometry":{"coordinates":[2.225865,41.442962],"type":"Point"},"properties":{"osm_id":"3203817462","tag":{"amenity":"waste_basket"}},"type":"Feature"},
	{"geometry":{"coordinates":[2.21884,41.44393],"type":"Point"},"properties":{"osm_id":"3205377565","tag":{"amenity":"recycling","recycling:cans":"yes","recycling:glass_bottles":"yes","recycling:paper":"yes","recycling:plastic":"yes","recycling_type":"container"}},"type":"Feature"},
	{"geometry":{"coordinates":[2.218199,41.443682],"type":"Point"},"properties":{"osm_id":"3330126493","tag":{"amenity":"recycling","recycling:cans":"yes","recycling:glass_bottles":"yes","recycling:paper":"yes","recycling:plastic":"yes","recycling_type":"container"}},"type":"Feature"},
	{"geometry":{"coordinates":[2.216435,41.443192],"type":"Point"},"properties":{"osm_id":"3330126993","tag":{"amenity":"recycling","recycling:cans":"yes","recycling:glass_bottles":"yes","recycling:paper":"yes","recycling:plastic":"yes","recycling_type":"container"}},"type":"Feature"},
	{"geometry":{"coordinates":[2.220397,41.443618],"type":"Point"},"properties":{"osm_id":"3440815128","tag":{"amenity":"waste_basket"}},"type":"Feature"},
	{"geometry":{"coordinates":[2.220813,41.443931],"type":"Point"},"properties":{"osm_id":"3440815148","tag":{"amenity":"waste_basket"}},"type":"Feature"},
	{"geometry":{"coordinates":[2.221837,41.444128],"type":"Point"},"properties":{"osm_id":"3440815172","tag":{"amenity":"waste_basket"}},"type":"Feature"},
	{"geometry":{"coordinates":[2.220087,41.443364],"type":"Point"},"properties":{"osm_id":"3441737651","tag":{"amenity":"waste_basket"}},"type":"Feature"},
	{"geometry":{"coordinates":[2.220406,41.443715],"type":"Point"},"properties":{"osm_id":"3441738136","tag":{"amenity":"waste_basket"}},"type":"Feature"},
	{"geometry":{"coordinates":[2.219821,41.443495],"type":"Point"},"properties":{"osm_id":"3441738137","tag":{"amenity":"waste_basket"}},"type":"Feature"},
	{"geometry":{"coordinates":[2.220122,41.443532],"type":"Point"},"properties":{"osm_id":"3441738355","tag":{"amenity":"waste_basket"}},"type":"Feature"},
	{"geometry":{"coordinates":[2.220084,41.443644],"type":"Point"},"properties":{"osm_id":"3441738356","tag":{"amenity":"waste_basket"}},"type":"Feature"},
	{"geometry":{"coordinates":[2.221224,41.443797],"type":"Point"},"properties":{"osm_id":"3453962695","tag":{"amenity":"waste_basket"}},"type":"Feature"},
	{"geometry":{"coordinates":[2.220258,41.443307],"type":"Point"},"properties":{"osm_id":"3595399772","tag":{"amenity":"waste_basket"}},"type":"Feature"},
	{"geometry":{"coordinates":[2.220348,41.443244],"type":"Point"},"properties":{"osm_id":"3595399773","tag":{"amenity":"waste_basket"}},"type":"Feature"},
	{"geometry":{"coordinates":[2.219788,41.443364],"type":"Point"},"properties":{"osm_id":"3595401249","tag":{"amenity":"waste_basket"}},"type":"Feature"},
	{"geometry":{"coordinates":[2.220739,41.44338],"type":"Point"},"properties":{"osm_id":"3595401250","tag":{"amenity":"waste_basket"}},"type":"Feature"},
	{"geometry":{"coordinates":[2.217876,41.449148],"type":"Point"},"properties":{"osm_id":"3655210228","tag":{"amenity":"recycling","recycling:cooking_oil":"yes","recycling_type":"container"}},"type":"Feature"},
	{"geometry":{"coordinates":[2.2194,41.454394],"type":"Point"},"properties":{"osm_id":"3832002312","tag":{"amenity":"recycling","recycling:clothes":"yes","recycling_type":"container"}},"type":"Feature"},
	{"geometry":{"coordinates":[2.219463,41.445295],"type":"Point"},"properties":{"osm_id":"3932624933","tag":{"amenity":"waste_basket"}},"type":"Feature"},
	{"geometry":{"coordinates":[2.219384,41.445398],"type":"Point"},"properties":{"osm_id":"3932624936","tag":{"amenity":"waste_basket"}},"type":"Feature"},
	{"geometry":{"coordinates":[2.219474,41.445412],"type":"Point"},"properties":{"osm_id":"3932624939","tag":{"amenity":"waste_basket"}},"type":"Feature"},
	{"geometry":{"coordinates":[2.219868,41.445718],"type":"Point"},"properties":{"osm_id":"3932624950","tag":{"amenity":"waste_basket"}},"type":"Feature"},
	{"geometry":{"coordinates":[2.202311,41.445588],"type":"Point"},"properties":{"barrier":"entrance","osm_id":"4251653370"},"type":"Feature"},
	{"geometry":{"coordinates":[2.245236,41.44974],"type":"Point"},"properties":{"osm_id":"4433202289","tag":{"amenity":"waste_basket"}},"type":"Feature"},
	{"geometry":{"coordinates":[2.223145,41.442841],"type":"Point"},"properties":{"osm_id":"4455339917","tag":{"amenity":"waste_basket"}},"type":"Feature"},
	{"geometry":{"coordinates":[2.222972,41.442943],"type":"Point"},"properties":{"osm_id":"4455339924","tag":{"amenity":"waste_basket"}},"type":"Feature"},
	{"geometry":{"coordinates":[2.221769,41.44308],"type":"Point"},"properties":{"osm_id":"4455339936","tag":{"amenity":"waste_basket"}},"type":"Feature"},
	{"geometry":{"coordinates":[2.222216,41.443289],"type":"Point"},"properties":{"osm_id":"4455339943","tag":{"amenity":"waste_basket"}},"type":"Feature"},
	{"geometry":{"coordinates":[2.222813,41.443302],"type":"Point"},"properties":{"osm_id":"4455339944","tag":{"amenity":"waste_basket"}},"type":"Feature"},
	{"geometry":{"coordinates":[2.222946,41.443312],"type":"Point"},"properties":{"osm_id":"4455339945","tag":{"amenity":"waste_basket"}},"type":"Feature"},
	{"geometry":{"coordinates":[2.222273,41.443441],"type":"Point"},"properties":{"osm_id":"4455339954","tag":{"amenity":"waste_basket"}},"type":"Feature"},
	{"geometry":{"coordinates":[2.222476,41.44388],"type":"Point"},"properties":{"osm_id":"4455339967","tag":{"amenity":"waste_basket"}},"type":"Feature"},
	{"geometry":{"coordinates":[2.222198,41.444197],"type":"Point"},"properties":{"osm_id":"4455339985","tag":{"amenity":"waste_basket"}},"type":"Feature"},
	{"geometry":{"coordinates":[2.222473,41.444216],"type":"Point"},"properties":{"osm_id":"4455339987","tag":{"amenity":"waste_basket"}},"type":"Feature"},
	{"geometry":{"coordinates":[2.220515,41.44306],"type":"Point"},"properties":{"osm_id":"4463702817","tag":{"amenity":"waste_basket"}},"type":"Feature"},
	{"geometry":{"coordinates":[2.220086,41.443091],"type":"Point"},"properties":{"osm_id":"4463702818","tag":{"amenity":"waste_basket"}},"type":"Feature"},
	{"geometry":{"coordinates":[2.221926,41.44377],"type":"Point"},"properties":{"osm_id":"4463702819","tag":{"amenity":"waste_basket"}},"type":"Feature"},
	{"geometry":{"coordinates":[2.221532,41.443647],"type":"Point"},"properties":{"osm_id":"4463702831","tag":{"amenity":"waste_basket"}},"type":"Feature"},
	{"geometry":{"coordinates":[2.219948,41.442917],"type":"Point"},"properties":{"osm_id":"4463702833","tag":{"amenity":"waste_basket"}},"type":"Feature"},
	{"geometry":{"coordinates":[2.219817,41.443145],"type":"Point"},"properties":{"osm_id":"4463702837","tag":{"amenity":"waste_basket"}},"type":"Feature"},
	{"geometry":{"coordinates":[2.221095,41.443317],"type":"Point"},"properties":{"osm_id":"4463702842","tag":{"amenity":"waste_basket"}},"type":"Feature"},
	{"geometry":{"coordinates":[2.221699,41.443767],"type":"Point"},"properties":{"osm_id":"4463702843","tag":{"amenity":"waste_basket"}},"type":"Feature"},
	{"geometry":{"coordinates":[2.221622,41.443718],"type":"Point"},"properties":{"osm_id":"4463702867","tag":{"amenity":"waste_basket"}},"type":"Feature"},
	{"geometry":{"coordinates":[2.220536,41.442819],"type":"Point"},"properties":{"osm_id":"4463702868","tag":{"amenity":"waste_basket"}},"type":"Feature"},
	{"geometry":{"coordinates":[2.222005,41.443767],"type":"Point"},"properties":{"osm_id":"4463702876","tag":{"amenity":"waste_basket"}},"type":"Feature"},
	{"geometry":{"coordinates":[2.219723,41.443196],"type":"Point"},"properties":{"osm_id":"4463702882","tag":{"amenity":"waste_basket"}},"type":"Feature"},
	{"geometry":{"coordinates":[2.219946,41.443214],"type":"Point"},"properties":{"osm_id":"4463702885","tag":{"amenity":"waste_basket"}},"type":"Feature"},
	{"geometry":{"coordinates":[2.220506,41.44359],"type":"Point"},"properties":{"osm_id":"5286467102","tag":{"amenity":"waste_basket"}},"type":"Feature"},
	{"geometry":{"coordinates":[2.220984,41.443877],"type":"Point"},"properties":{"osm_id":"5286467106","tag":{"amenity":"waste_basket"}},"type":"Feature"},
	{"geometry":{"coordinates":[2.220321,41.443618],"type":"Point"},"properties":{"osm_id":"5286467110","tag":{"amenity":"waste_basket"}},"type":"Feature"},
	{"geometry":{"coordinates":[2.221116,41.443616],"type":"Point"},"properties":{"osm_id":"5286467112","tag":{"amenity":"waste_basket"}},"type":"Feature"},
	{"geometry":{"coordinates":[2.221143,41.443808],"type":"Point"},"properties":{"osm_id":"5286467113","tag":{"amenity":"waste_basket"}},"type":"Feature"},
	{"geometry":{"coordinates":[2.220565,41.443552],"type":"Point"},"properties":{"osm_id":"5286469124","tag":{"amenity":"waste_basket"}},"type":"Feature"},
	{"geometry":{"coordinates":[2.220797,41.4437],"type":"Point"},"properties":{"osm_id":"5286469125","tag":{"amenity":"waste_basket"}},"type":"Feature"},
	{"geometry":{"coordinates":[2.220191,41.443817],"type":"Point"},"properties":{"osm_id":"5286469127","tag":{"amenity":"waste_basket"}},"type":"Feature"},
	{"geometry":{"coordinates":[2.220966,41.443915],"type":"Point"},"properties":{"osm_id":"5298404584","tag":{"amenity":"waste_basket"}},"type":"Feature"},
	{"geometry":{"coordinates":[2.220884,41.443986],"type":"Point"},"properties":{"osm_id":"5298405362","tag":{"amenity":"waste_basket"}},"type":"Feature"},
	{"geometry":{"coordinates":[2.24895,41.446081],"type":"Point"},"properties":{"osm_id":"5417394846","tag":{"amenity":"recycling","information":"map","map_size":"city","map_type":"street","recycling:batteries":"yes","recycling_type":"container","tourism":"information"}},"type":"Feature"},
	{"geometry":{"coordinates":[2.22368,41.444138],"type":"Point"},"properties":{"osm_id":"5496834205","tag":{"amenity":"waste_basket"}},"type":"Feature"},
	{"geometry":{"coordinates":[2.222274,41.444964],"type":"Point"},"properties":{"osm_id":"5496834209","tag":{"amenity":"waste_basket"}},"type":"Feature"},
	{"geometry":{"coordinates":[2.222343,41.444517],"type":"Point"},"properties":{"osm_id":"5496834210","tag":{"amenity":"waste_basket"}},"type":"Feature"},
	{"geometry":{"coordinates":[2.223478,41.444357],"type":"Point"},"properties":{"osm_id":"5496834213","tag":{"amenity":"waste_basket"}},"type":"Feature"},
	{"geometry":{"coordinates":[2.222195,41.444859],"type":"Point"},"properties":{"osm_id":"5496834214","tag":{"amenity":"waste_basket"}},"type":"Feature"},
	{"geometry":{"coordinates":[2.22381,41.443896],"type":"Point"},"properties":{"osm_id":"5790819686","tag":{"amenity":"waste_basket"}},"type":"Feature"},
	{"geometry":{"coordinates":[2.235279,41.453783],"type":"Point"},"properties":{"osm_id":"5819481295","tag":{"amenity":"waste_basket"}},"type":"Feature"},
	{"geometry":{"coordinates":[2.235223,41.453826],"type":"Point"},"properties":{"osm_id":"5819481296","tag":{"amenity":"waste_basket"}},"type":"Feature"},
	{"geometry":{"coordinates":[2.234332,41.452738],"type":"Point"},"properties":{"osm_id":"5819486655","tag":{"amenity":"waste_basket"}},"type":"Feature"},
	{"geometry":{"coordinates":[2.236308,41.453149],"type":"Point"},"properties":{"osm_id":"5820184542","tag":{"amenity":"recycling","recycling:glass_bottles":"yes","recycling_type":"container"}},"type":"Feature"},
	{"geometry":{"coordinates":[2.236325,41.453136],"type":"Point"},"properties":{"osm_id":"5820184543","tag":{"amenity":"recycling","recycling:paper":"yes","recycling_type":"container"}},"type":"Feature"},
	{"geometry":{"coordinates":[2.236341,41.453123],"type":"Point"},"properties":{"osm_id":"5820184544","tag":{"amenity":"recycling","recycling:cans":"yes","recycling:plastic_bottles":"yes","recycling_type":"container"}},"type":"Feature"},
	{"geometry":{"coordinates":[2.236355,41.453111],"type":"Point"},"properties":{"osm_id":"5820184545","tag":{"amenity":"recycling","recycling:organic":"yes","recycling_type":"container"}},"type":"Feature"},
	{"geometry":{"coordinates":[2.23637,41.453098],"type":"Point"},"properties":{"osm_id":"5820184546","tag":{"amenity":"waste_disposal"}},"type":"Feature"},
	{"geometry":{"coordinates":[2.236385,41.453082],"type":"Point"},"properties":{"osm_id":"5820184547","tag":{"amenity":"waste_disposal"}},"type":"Feature"},
	{"geometry":{"coordinates":[2.2364,41.453067],"type":"Point"},"properties":{"osm_id":"5820184548","tag":{"amenity":"waste_disposal"}},"type":"Feature"},
	{"geometry":{"coordinates":[2.234807,41.452073],"type":"Point"},"properties":{"osm_id":"5820420010","tag":{"amenity":"recycling","recycling:cans":"yes","recycling:plastic_bottles":"yes","recycling_type":"container"}},"type":"Feature"},
	{"geometry":{"coordinates":[2.234795,41.452088],"type":"Point"},"properties":{"osm_id":"5820420011","tag":{"amenity":"recycling","recycling:glass_bottles":"yes","recycling_type":"container"}},"type":"Feature"},
	{"geometry":{"coordinates":[2.234784,41.452106],"type":"Point"},"properties":{"osm_id":"5820420012","tag":{"amenity":"recycling","recycling:paper":"yes","recycling_type":"container"}},"type":"Feature"},
	{"geometry":{"coordinates":[2.234771,41.452124],"type":"Point"},"properties":{"osm_id":"5820420013","tag":{"amenity":"waste_disposal"}},"type":"Feature"},
	{"geometry":{"coordinates":[2.236775,41.453258],"type":"Point"},"properties":{"osm_id":"5820426514","tag":{"amenity":"waste_basket"}},"type":"Feature"},
	{"geometry":{"coordinates":[2.23641,41.453311],"type":"Point"},"properties":{"osm_id":"5820426515","tag":{"amenity":"waste_basket"}},"type":"Feature"},
	{"geometry":{"coordinates":[2.236519,41.453155],"type":"Point"},"properties":{"osm_id":"5820426516","tag":{"amenity":"waste_basket"}},"type":"Feature"},
	{"geometry":{"coordinates":[2.238501,41.451859],"type":"Point"},"properties":{"osm_id":"5820464438","tag":{"amenity":"waste_disposal"}},"type":"Feature"},
	{"geometry":{"coordinates":[2.238518,41.451846],"type":"Point"},"properties":{"osm_id":"5820464439","tag":{"amenity":"waste_disposal"}},"type":"Feature"},
	{"geometry":{"coordinates":[2.238536,41.451833],"type":"Point"},"properties":{"osm_id":"5820464440","tag":{"amenity":"recycling","recycling:organic":"yes","recycling_type":"container"}},"type":"Feature"},
	{"geometry":{"coordinates":[2.238555,41.451818],"type":"Point"},"properties":{"osm_id":"5820464441","tag":{"amenity":"recycling","recycling:cans":"yes","recycling:plastic_bottles":"yes","recycling_type":"container"}},"type":"Feature"},
	{"geometry":{"coordinates":[2.238572,41.451804],"type":"Point"},"properties":{"osm_id":"5820464442","tag":{"amenity":"recycling","recycling:glass_bottles":"yes","recycling_type":"container"}},"type":"Feature"},
	{"geometry":{"coordinates":[2.238589,41.45179],"type":"Point"},"properties":{"osm_id":"5820464443","tag":{"amenity":"recycling","recycling:paper":"yes","recycling_type":"container"}},"type":"Feature"},
	{"geometry":{"coordinates":[2.233887,41.453423],"type":"Point"},"properties":{"osm_id":"5820656645","tag":{"amenity":"waste_disposal"}},"type":"Feature"},
	{"geometry":{"coordinates":[2.233912,41.45343],"type":"Point"},"properties":{"osm_id":"5820656646","tag":{"amenity":"recycling","recycling:organic":"yes","recycling_type":"container"}},"type":"Feature"},
	{"geometry":{"coordinates":[2.234506,41.453623],"type":"Point"},"properties":{"osm_id":"5820656647","tag":{"amenity":"waste_disposal"}},"type":"Feature"},
	{"geometry":{"coordinates":[2.234538,41.453633],"type":"Point"},"properties":{"osm_id":"5820656648","tag":{"amenity":"recycling","recycling:organic":"yes","recycling_type":"container"}},"type":"Feature"},
	{"geometry":{"coordinates":[2.235615,41.45395],"type":"Point"},"properties":{"osm_id":"5820656652","tag":{"amenity":"waste_disposal"}},"type":"Feature"},
	{"geometry":{"coordinates":[2.235662,41.453961],"type":"Point"},"properties":{"osm_id":"5820657253","tag":{"amenity":"waste_disposal"}},"type":"Feature"},
	{"geometry":{"coordinates":[2.23564,41.453958],"type":"Point"},"properties":{"osm_id":"5820657254","tag":{"amenity":"recycling","recycling:organic":"yes","recycling_type":"container"}},"type":"Feature"},
	{"geometry":{"coordinates":[2.235566,41.453929],"type":"Point"},"properties":{"osm_id":"5820657255","tag":{"amenity":"recycling","recycling:paper":"yes","recycling_type":"container"}},"type":"Feature"},
	{"geometry":{"coordinates":[2.235581,41.453935],"type":"Point"},"properties":{"osm_id":"5820657256","tag":{"amenity":"recycling","recycling:glass_bottles":"yes","recycling_type":"container"}},"type":"Feature"},
	{"geometry":{"coordinates":[2.235597,41.453942],"type":"Point"},"properties":{"osm_id":"5820657257","tag":{"amenity":"recycling","recycling:cans":"yes","recycling:plastic_bottles":"yes","recycling:plastic_packaging":"yes","recycling_type":"container"}},"type":"Feature"},
	{"geometry":{"coordinates":[2.236366,41.44885],"type":"Point"},"properties":{"osm_id":"5850781197","tag":{"amenity":"waste_disposal"}},"type":"Feature"},
	{"geometry":{"coordinates":[2.236377,41.448855],"type":"Point"},"properties":{"osm_id":"5850781198","tag":{"amenity":"recycling","recycling:organic":"yes","recycling_type":"container"}},"type":"Feature"},
	{"geometry":{"coordinates":[2.207781,41.448491],"type":"Point"},"properties":{"osm_id":"5998985297","tag":{"amenity":"recycling","opening_hours":"24/7","operator":"Ajuntament de Santa Coloma de Gramenet","recycling:green_waste":"yes","recycling_type":"container"}},"type":"Feature"},
	{"geometry":{"coordinates":[2.207774,41.448504],"type":"Point"},"properties":{"osm_id":"5998985298","tag":{"amenity":"recycling","opening_hours":"24/7","operator":"Ajuntament de Santa Coloma de Gramenet","recycling:glass_bottles":"yes","recycling_type":"container"}},"type":"Feature"},
	{"geometry":{"coordinates":[2.207766,41.448518],"type":"Point"},"properties":{"osm_id":"5998985299","tag":{"amenity":"recycling","opening_hours":"24/7","operator":"Ajuntament de Santa Coloma de Gramenet","recycling:cans":"yes","recycling:plastic_bottles":"yes","recycling:plastic_packaging":"yes","recycling_type":"container"}},"type":"Feature"},
	{"geometry":{"coordinates":[2.207759,41.448531],"type":"Point"},"properties":{"osm_id":"5998985300","tag":{"amenity":"recycling","opening_hours":"24/7","operator":"Ajuntament de Santa Coloma de Gramenet","recycling:waste":"yes","recycling_type":"container"}},"type":"Feature"},
	{"geometry":{"coordinates":[2.207788,41.448478],"type":"Point"},"properties":{"osm_id":"5998985301","tag":{"amenity":"recycling","opening_hours":"24/7","operator":"Ajuntament de Santa Coloma de Gramenet","recycling:glass_bottles":"yes","recycling_type":"container"}},"type":"Feature"},
	{"geometry":{"coordinates":[2.207744,41.448558],"type":"Point"},"properties":{"osm_id":"5998985302","tag":{"amenity":"recycling","opening_hours":"24/7","operator":"Ajuntament de Santa Coloma de Gramenet","recycling:cooking_oil":"yes","recycling_type":"container"}},"type":"Feature"},
	{"geometry":{"coordinates":[2.207751,41.448545],"type":"Point"},"properties":{"osm_id":"5998985303","tag":{"amenity":"recycling","opening_hours":"24/7","operator":"Ajuntament de Santa Coloma de Gramenet","recycling:waste":"yes","recycling_type":"container"}},"type":"Feature"},
	{"geometry":{"coordinates":[2.216409,41.455995],"type":"Point"},"properties":{"osm_id":"5998985304","tag":{"amenity":"recycling","opening_hours":"24/7","operator":"Ajuntament de Santa Coloma de Gramenet","recycling:waste":"yes","recycling_type":"container"}},"type":"Feature"},
	{"geometry":{"coordinates":[2.216378,41.456013],"type":"Point"},"properties":{"osm_id":"5998985305","tag":{"amenity":"recycling","opening_hours":"24/7","operator":"Ajuntament de Santa Coloma de Gramenet","recycling:waste":"yes","recycling_type":"container"}},"type":"Feature"},
	{"geometry":{"coordinates":[2.216348,41.45603],"type":"Point"},"properties":{"osm_id":"5998985306","tag":{"amenity":"recycling","opening_hours":"24/7","operator":"Ajuntament de Santa Coloma de Gramenet","recycling:cooking_oil":"yes","recycling_type":"container"}},"type":"Feature"},
	{"geometry":{"coordinates":[2.215351,41.453209],"type":"Point"},"properties":{"osm_id":"5998985307","tag":{"amenity":"recycling","opening_hours":"24/7","operator":"Ajuntament de Santa Coloma de Gramenet","recycling:glass_bottles":"yes","recycling_type":"container"}},"type":"Feature"},
	{"geometry":{"coordinates":[2.215273,41.453142],"type":"Point"},"properties":{"osm_id":"5998985308","tag":{"amenity":"recycling","opening_hours":"24/7","operator":"Ajuntament de Santa Coloma de Gramenet","recycling:cooking_oil":"yes","recycling_type":"container"}},"type":"Feature"},
	{"geometry":{"coordinates":[2.215335,41.453196],"type":"Point"},"properties":{"osm_id":"5998985309","tag":{"amenity":"recycling","opening_hours":"24/7","operator":"Ajuntament de Santa Coloma de Gramenet","recycling:green_waste":"yes","recycling_type":"container"}},"type":"Feature"},
	{"geometry":{"coordinates":[2.21532,41.453182],"type":"Point"},"properties":{"osm_id":"5998985310","tag":{"amenity":"recycling","opening_hours":"24/7","operator":"Ajuntament de Santa Coloma de Gramenet","recycling:cardboard":"yes","recycling:paper":"yes","recycling_type":"container"}},"type":"Feature"},
	{"geometry":{"coordinates":[2.215289,41.453155],"type":"Point"},"properties":{"osm_id":"5998985311","tag":{"amenity":"recycling","opening_hours":"24/7","operator":"Ajuntament de Santa Coloma de Gramenet","recycling:waste":"yes","recycling_type":"container"}},"type":"Feature"},
	{"geometry":{"coordinates":[2.215304,41.453169],"type":"Point"},"properties":{"osm_id":"5998985312","tag":{"amenity":"recycling","opening_hours":"24/7","operator":"Ajuntament de Santa Coloma de Gramenet","recycling:cans":"yes","recycling:plastic_bottles":"yes","recycling:plastic_packaging":"yes","recycling_type":"container"}},"type":"Feature"},
	{"geometry":{"coordinates":[2.202887,41.4623],"type":"Point"},"properties":{"osm_id":"5998985319","tag":{"amenity":"recycling","opening_hours":"24/7","operator":"Ajuntament de Santa Coloma de Gramenet","recycling:cooking_oil":"yes","recycling_type":"container"}},"type":"Feature"},
	{"geometry":{"coordinates":[2.202847,41.462301],"type":"Point"},"properties":{"osm_id":"5998985320","tag":{"amenity":"recycling","opening_hours":"24/7","operator":"Ajuntament de Santa Coloma de Gramenet","recycling:glass_bottles":"yes","recycling_type":"container"}},"type":"Feature"},
	{"geometry":{"coordinates":[2.202806,41.462302],"type":"Point"},"properties":{"osm_id":"5998985321","tag":{"amenity":"recycling","opening_hours":"24/7","operator":"Ajuntament de Santa Coloma de Gramenet","recycling:green_waste":"yes","recycling_type":"container"}},"type":"Feature"},
	{"geometry":{"coordinates":[2.202766,41.462303],"type":"Point"},"properties":{"osm_id":"5998985322","tag":{"amenity":"recycling","opening_hours":"24/7","operator":"Ajuntament de Santa Coloma de Gramenet","recycling:cardboard":"yes","recycling:paper":"yes","recycling_type":"container"}},"type":"Feature"},
	{"geometry":{"coordinates":[2.202725,41.462304],"type":"Point"},"properties":{"osm_id":"5998985323","tag":{"amenity":"recycling","opening_hours":"24/7","operator":"Ajuntament de Santa Coloma de Gramenet","recycling:waste":"yes","recycling_type":"container"}},"type":"Feature"},
	{"geometry":{"coordinates":[2.202685,41.462305],"type":"Point"},"properties":{"osm_id":"5998985324","tag":{"amenity":"recycling","opening_hours":"24/7","operator":"Ajuntament de Santa Coloma de Gramenet","recycling:cans":"yes","recycling:plastic_bottles":"yes","recycling:plastic_packaging":"yes","recycling_type":"container"}},"type":"Feature"},
	{"geometry":{"coordinates":[2.210705,41.44981],"type":"Point"},"properties":{"osm_id":"5998985332","tag":{"amenity":"recycling","opening_hours":"24/7","operator":"Ajuntament de Santa Coloma de Gramenet","recycling:cooking_oil":"yes","recycling_type":"container"}},"type":"Feature"},
	{"geometry":{"coordinates":[2.210041,41.455003],"type":"Point"},"properties":{"osm_id":"5998985336","tag":{"amenity":"recycling","opening_hours":"24/7","operator":"Ajuntament de Santa Coloma de Gramenet","recycling:waste":"yes","recycling_type":"container"}},"type":"Feature"},
	{"geometry":{"coordinates":[2.210088,41.454961],"type":"Point"},"properties":{"osm_id":"5998985337","tag":{"amenity":"recycling","opening_hours":"24/7","operator":"Ajuntament de Santa Coloma de Gramenet","recycling:cans":"yes","recycling:plastic_bottles":"yes","recycling:plastic_packaging":"yes","recycling_type":"container"}},"type":"Feature"},
	{"geometry":{"coordinates":[2.210072,41.454975],"type":"Point"},"properties":{"osm_id":"5998985338","tag":{"amenity":"recycling","opening_hours":"24/7","operator":"Ajuntament de Santa Coloma de Gramenet","recycling:waste":"yes","recycling_type":"container"}},"type":"Feature"},
	{"geometry":{"coordinates":[2.210025,41.455016],"type":"Point"},"properties":{"osm_id":"5998985339","tag":{"amenity":"recycling","opening_hours":"24/7","operator":"Ajuntament de Santa Coloma de Gramenet","recycling:glass_bottles":"yes","recycling_type":"container"}},"type":"Feature"},
	{"geometry":{"coordinates":[2.210104,41.454947],"type":"Point"},"properties":{"osm_id":"5998985340","tag":{"amenity":"recycling","opening_hours":"24/7","operator":"Ajuntament de Santa Coloma de Gramenet","recycling:cooking_oil":"yes","recycling_type":"container"}},"type":"Feature"},
	{"geometry":{"coordinates":[2.210057,41.454989],"type":"Point"},"properties":{"osm_id":"5998985341","tag":{"amenity":"recycling","opening_hours":"24/7","operator":"Ajuntament de Santa Coloma de Gramenet","recycling:waste":"yes","recycling_type":"container"}},"type":"Feature"},
	{"geometry":{"coordinates":[2.214194,41.449386],"type":"Point"},"properties":{"osm_id":"5998985342","tag":{"amenity":"recycling","opening_hours":"24/7","operator":"Ajuntament de Santa Coloma de Gramenet","recycling:cooking_oil":"yes","recycling_type":"container"}},"type":"Feature"},
	{"geometry":{"coordinates":[2.214184,41.449405],"type":"Point"},"properties":{"osm_id":"5998985343","tag":{"amenity":"recycling","opening_hours":"24/7","operator":"Ajuntament de Santa Coloma de Gramenet","recycling:cans":"yes","recycling:plastic_bottles":"yes","recycling:plastic_packaging":"yes","recycling_type":"container"}},"type":"Feature"},
	{"geometry":{"coordinates":[2.214174,41.449424],"type":"Point"},"properties":{"osm_id":"5998985344","tag":{"amenity":"recycling","opening_hours":"24/7","operator":"Ajuntament de Santa Coloma de Gramenet","recycling:waste":"yes","recycling_type":"container"}},"type":"Feature"},
	{"geometry":{"coordinates":[2.214163,41.449442],"type":"Point"},"properties":{"osm_id":"5998985345","tag":{"amenity":"recycling","opening_hours":"24/7","operator":"Ajuntament de Santa Coloma de Gramenet","recycling:waste":"yes","recycling_type":"container"}},"type":"Feature"},
	{"geometry":{"coordinates":[2.214153,41.449461],"type":"Point"},"properties":{"osm_id":"5998985346","tag":{"amenity":"recycling","opening_hours":"24/7","operator":"Ajuntament de Santa Coloma de Gramenet","recycling:glass_bottles":"yes","recycling_type":"container"}},"type":"Feature"},
	{"geometry":{"coordinates":[2.20054,41.464973],"type":"Point"},"properties":{"osm_id":"5998985347","tag":{"amenity":"recycling","operator":"Ajuntament de Santa Coloma de Gramenet","recycling:cooking_oil":"yes","recycling_type":"container"}},"type":"Feature"},
	{"geometry":{"coordinates":[2.209847,41.460228],"type":"Point"},"properties":{"osm_id":"5998985349","tag":{"amenity":"recycling","opening_hours":"24/7","operator":"Ajuntament de Santa Coloma de Gramenet","recycling:cooking_oil":"yes","recycling_type":"container"}},"type":"Feature"},
	{"geometry":{"coordinates":[2.200443,41.464912],"type":"Point"},"properties":{"osm_id":"5999916496","tag":{"amenity":"recycling","operator":"Ajuntament de Santa Coloma de Gramenet","recycling:cooking_oil":"yes","recycling_type":"container"}},"type":"Feature"},
	{"geometry":{"coordinates":[2.200437,41.464902],"type":"Point"},"properties":{"osm_id":"5999916497","tag":{"amenity":"recycling","operator":"Roba amiga","recycling:clothes":"yes","recycling_type":"container"}},"type":"Feature"},
	{"geometry":{"coordinates":[2.205991,41.458492],"type":"Point"},"properties":{"osm_id":"5999916505","tag":{"amenity":"recycling","opening_hours":"24/7","operator":"Ajuntament de Santa Coloma de Gramenet","recycling:cooking_oil":"yes","recycling_type":"container"}},"type":"Feature"},
	{"geometry":{"coordinates":[2.205868,41.463766],"type":"Point"},"properties":{"osm_id":"5999916506","tag":{"amenity":"recycling","opening_hours":"24/7","operator":"Ajuntament de Santa Coloma de Gramenet","recycling:cooking_oil":"yes","recycling_type":"container"}},"type":"Feature"},
	{"geometry":{"coordinates":[2.205922,41.463627],"type":"Point"},"properties":{"osm_id":"5999916507","tag":{"amenity":"recycling","opening_hours":"24/7","operator":"Ajuntament de Santa Coloma de Gramenet","recycling:glass_bottles":"yes","recycling_type":"container"}},"type":"Feature"},
	{"geometry":{"coordinates":[2.205911,41.463655],"type":"Point"},"properties":{"osm_id":"5999916508","tag":{"amenity":"recycling","opening_hours":"24/7","operator":"Ajuntament de Santa Coloma de Gramenet","recycling:green_waste":"yes","recycling_type":"container"}},"type":"Feature"},
	{"geometry":{"coordinates":[2.2059,41.463683],"type":"Point"},"properties":{"osm_id":"5999916509","tag":{"amenity":"recycling","opening_hours":"24/7","operator":"Ajuntament de Santa Coloma de Gramenet","recycling:cardboard":"yes","recycling:paper":"yes","recycling_type":"container"}},"type":"Feature"},
	{"geometry":{"coordinates":[2.205889,41.463711],"type":"Point"},"properties":{"osm_id":"5999916510","tag":{"amenity":"recycling","opening_hours":"24/7","operator":"Ajuntament de Santa Coloma de Gramenet","recycling:cans":"yes","recycling:plastic_bottles":"yes","recycling:plastic_packaging":"yes","recycling_type":"container"}},"type":"Feature"},
	{"geometry":{"coordinates":[2.205878,41.463738],"type":"Point"},"properties":{"osm_id":"5999916511","tag":{"amenity":"recycling","opening_hours":"24/7","operator":"Ajuntament de Santa Coloma de Gramenet","recycling:waste":"yes","recycling_type":"container"}},"type":"Feature"},
	{"geometry":{"coordinates":[2.203774,41.45369],"type":"Point"},"properties":{"osm_id":"5999916512","tag":{"amenity":"recycling","opening_hours":"24/7","operator":"Ajuntament de Santa Coloma de Gramenet","recycling:cooking_oil":"yes","recycling_type":"container"}},"type":"Feature"},
	{"geometry":{"coordinates":[2.20375,41.453679],"type":"Point"},"properties":{"osm_id":"5999916513","tag":{"amenity":"recycling","opening_hours":"24/7","operator":"Ajuntament de Santa Coloma de Gramenet","recycling:glass_bottles":"yes","recycling_type":"container"}},"type":"Feature"},
	{"geometry":{"coordinates":[2.203726,41.453668],"type":"Point"},"properties":{"osm_id":"5999916514","tag":{"amenity":"recycling","opening_hours":"24/7","operator":"Ajuntament de Santa Coloma de Gramenet","recycling:green_waste":"yes","recycling_type":"container"}},"type":"Feature"},
	{"geometry":{"coordinates":[2.203702,41.453657],"type":"Point"},"properties":{"osm_id":"5999916515","tag":{"amenity":"recycling","opening_hours":"24/7","operator":"Ajuntament de Santa Coloma de Gramenet","recycling:cardboard":"yes","recycling:paper":"yes","recycling_type":"container"}},"type":"Feature"},
	{"geometry":{"coordinates":[2.203678,41.453646],"type":"Point"},"properties":{"osm_id":"5999916516","tag":{"amenity":"recycling","opening_hours":"24/7","operator":"Ajuntament de Santa Coloma de Gramenet","recycling:waste":"yes","recycling_type":"container"}},"type":"Feature"},
	{"geometry":{"coordinates":[2.203654,41.453635],"type":"Point"},"properties":{"osm_id":"5999916517","tag":{"amenity":"recycling","opening_hours":"24/7","operator":"Ajuntament de Santa Coloma de Gramenet","recycling:waste":"yes","recycling_type":"container"}},"type":"Feature"},
	{"geometry":{"coordinates":[2.20363,41.453624],"type":"Point"},"properties":{"osm_id":"5999916518","tag":{"amenity":"recycling","opening_hours":"24/7","operator":"Ajuntament de Santa Coloma de Gramenet","recycling:waste":"yes","recycling_type":"container"}},"type":"Feature"},
	{"geometry":{"coordinates":[2.202325,41.445536],"type":"Point"},"properties":{"barrier":"entrance","osm_id":"6040269501"},"type":"Feature"},
	{"geometry":{"coordinates":[2.238365,41.4804],"type":"Point"},"properties":{"osm_id":"6047705092","tag":{"amenity":"waste_basket"}},"type":"Feature"},
	{"geometry":{"coordinates":[2.215511,41.446829],"type":"Point"},"properties":{"osm_id":"6056633998","tag":{"amenity":"recycling","operator":"Ajuntament de Santa Coloma de Gramenet","recycling:cooking_oil":"yes","recycling_type":"container"}},"type":"Feature"},
	{"geometry":{"coordinates":[2.219653,41.442984],"type":"Point"},"properties":{"osm_id":"6066258269","tag":{"amenity":"waste_basket","waste":"trash"}},"type":"Feature"},
	{"geometry":{"coordinates":[2.219042,41.444166],"type":"Point"},"properties":{"osm_id":"6066258272","tag":{"amenity":"waste_basket","waste":"trash"}},"type":"Feature"},
	{"geometry":{"coordinates":[2.266915,41.462474],"type":"Point"},"properties":{"osm_id":"6405154005","tag":{"amenity":"waste_basket"}},"type":"Feature"},
	{"geometry":{"coordinates":[2.267602,41.462029],"type":"Point"},"properties":{"osm_id":"6405154007","tag":{"amenity":"waste_basket"}},"type":"Feature"},
	{"geometry":{"coordinates":[2.267037,41.462298],"type":"Point"},"properties":{"osm_id":"6405154008","tag":{"amenity":"waste_basket"}},"type":"Feature"},
	{"geometry":{"coordinates":[2.267094,41.462439],"type":"Point"},"properties":{"osm_id":"6405154014","tag":{"amenity":"waste_basket"}},"type":"Feature"},
	{"geometry":{"coordinates":[2.267303,41.461934],"type":"Point"},"properties":{"osm_id":"6405154016","tag":{"amenity":"waste_basket"}},"type":"Feature"},
	{"geometry":{"coordinates":[2.26725,41.462027],"type":"Point"},"properties":{"osm_id":"6405154018","tag":{"amenity":"waste_basket"}},"type":"Feature"},
	{"geometry":{"coordinates":[2.267026,41.462317],"type":"Point"},"properties":{"osm_id":"6405154027","tag":{"amenity":"waste_basket"}},"type":"Feature"},
	{"geometry":{"coordinates":[2.248512,41.459195],"type":"Point"},"properties":{"osm_id":"6561725449","tag":{"amenity":"waste_basket"}},"type":"Feature"},
	{"geometry":{"coordinates":[2.202342,41.44552],"type":"Point"},"properties":{"address":"C Caracas 46","name":"Punt Verd de Zona - Deixalleria Sant Andreu","osm_id":"6742628736","tag":{"amenity":"recycling","operator":"Ajuntament de Barcelona","recycling:batteries":"yes","recycling:cooking_oil":"yes","recycling_type":"centre","website":"ajuntament.barcelona.cat/ecologiaurbana"}},"type":"Feature"},
	{"geometry":{"coordinates":[2.206059,41.443006],"type":"Point"},"properties":{"osm_id":"6815865300","tag":{"access":"private","amenity":"waste_disposal","capacity":"800","recycling:waste":"yes"}},"type":"Feature"},
	{"geometry":{"coordinates":[2.203099,41.442833],"type":"Point"},"properties":{"osm_id":"6815869869","tag":{"access":"private","amenity":"waste_disposal","capacity":"120","recycling:waste":"yes"}},"type":"Feature"},
	{"geometry":{"coordinates":[2.203643,41.443155],"type":"Point"},"properties":{"osm_id":"6815869870","tag":{"access":"private","amenity":"waste_disposal","capacity":"120","recycling:waste":"yes"}},"type":"Feature"},
	{"geometry":{"coordinates":[2.205245,41.443317],"type":"Point"},"properties":{"osm_id":"6815869871","tag":{"access":"private","amenity":"waste_disposal","capacity":"120","recycling:waste":"yes"}},"type":"Feature"},
	{"geometry":{"coordinates":[2.203085,41.442825],"type":"Point"},"properties":{"osm_id":"6815869872","tag":{"access":"private","amenity":"waste_disposal","capacity":"120","recycling:waste":"yes"}},"type":"Feature"},
	{"geometry":{"coordinates":[2.205475,41.443349],"type":"Point"},"properties":{"osm_id":"6815869873","tag":{"access":"private","amenity":"waste_disposal","capacity":"240","recycling:waste":"yes"}},"type":"Feature"},
	{"geometry":{"coordinates":[2.203036,41.442801],"type":"Point"},"properties":{"osm_id":"6815869874","tag":{"access":"private","amenity":"waste_disposal","capacity":"120","recycling:waste":"yes"}},"type":"Feature"},
	{"geometry":{"coordinates":[2.205501,41.44335],"type":"Point"},"properties":{"osm_id":"6815869875","tag":{"access":"private","amenity":"waste_disposal","capacity":"240","recycling:waste":"yes"}},"type":"Feature"},
	{"geometry":{"coordinates":[2.203662,41.443157],"type":"Point"},"properties":{"osm_id":"6815869876","tag":{"access":"private","amenity":"waste_disposal","capacity":"120","recycling:cartons":"yes","recycling:magazines":"yes","recycling:paper":"yes","recycling:paper_packaging":"yes"}},"type":"Feature"},
	{"geometry":{"coordinates":[2.205526,41.443353],"type":"Point"},"properties":{"osm_id":"6815869877","tag":{"access":"private","amenity":"waste_disposal","capacity":"120","recycling:cartons":"yes","recycling:magazines":"yes","recycling:paper":"yes","recycling:paper_packaging":"yes"}},"type":"Feature"},
	{"geometry":{"coordinates":[2.205229,41.443316],"type":"Point"},"properties":{"osm_id":"6815869878","tag":{"access":"private","amenity":"waste_disposal","capacity":"120","recycling:cartons":"yes","recycling:magazines":"yes","recycling:paper":"yes","recycling:paper_packaging":"yes"}},"type":"Feature"},
	{"geometry":{"coordinates":[2.205324,41.443331],"type":"Point"},"properties":{"osm_id":"6815869879","tag":{"access":"private","amenity":"waste_disposal","capacity":"360","recycling:waste":"yes"}},"type":"Feature"},
	{"geometry":{"coordinates":[2.205344,41.443333],"type":"Point"},"properties":{"osm_id":"6815869880","tag":{"access":"private","amenity":"waste_disposal","capacity":"360","recycling:waste":"yes"}},"type":"Feature"},
	{"geometry":{"coordinates":[2.203137,41.44304],"type":"Point"},"properties":{"osm_id":"6815869881","tag":{"access":"private","amenity":"waste_disposal","capacity":"120","recycling:waste":"yes"}},"type":"Feature"},
	{"geometry":{"coordinates":[2.205363,41.443336],"type":"Point"},"properties":{"osm_id":"6815869882","tag":{"access":"private","amenity":"waste_disposal","capacity":"120","recycling:cartons":"yes","recycling:magazines":"yes","recycling:paper":"yes","recycling:paper_packaging":"yes"}},"type":"Feature"},
	{"geometry":{"coordinates":[2.204413,41.443241],"type":"Point"},"properties":{"osm_id":"6815869883","tag":{"access":"private","amenity":"waste_disposal","capacity":"360","recycling:waste":"yes"}},"type":"Feature"},
	{"geometry":{"coordinates":[2.203135,41.443056],"type":"Point"},"properties":{"osm_id":"6815869884","tag":{"access":"private","amenity":"waste_disposal","capacity":"120","recycling:cartons":"yes","recycling:magazines":"yes","recycling:paper":"yes","recycling:paper_packaging":"yes"}},"type":"Feature"},
	{"geometry":{"coordinates":[2.203068,41.442815],"type":"Point"},"properties":{"osm_id":"6815870185","tag":{"access":"private","amenity":"waste_disposal","capacity":"120","recycling:waste":"yes"}},"type":"Feature"},
	{"geometry":{"coordinates":[2.203942,41.443189],"type":"Point"},"properties":{"osm_id":"6815870186","tag":{"access":"private","amenity":"waste_disposal","capacity":"360","recycling:waste":"yes"}},"type":"Feature"},
	{"geometry":{"coordinates":[2.204184,41.443214],"type":"Point"},"properties":{"osm_id":"6815870187","tag":{"access":"private","amenity":"waste_disposal","capacity":"240","recycling:waste":"yes"}},"type":"Feature"},
	{"geometry":{"coordinates":[2.204469,41.443483],"type":"Point"},"properties":{"osm_id":"6815870188","tag":{"access":"private","amenity":"waste_disposal","capacity":"360","recycling:organic":"yes"}},"type":"Feature"},
	{"geometry":{"coordinates":[2.204638,41.443265],"type":"Point"},"properties":{"osm_id":"6815870189","tag":{"access":"private","amenity":"waste_disposal","capacity":"360","recycling:waste":"yes"}},"type":"Feature"},
	{"geometry":{"coordinates":[2.2047,41.443516],"type":"Point"},"properties":{"osm_id":"6815870190","tag":{"access":"private","amenity":"recycling","capacity":"1000","recycling:waste":"yes","recycling_type":"container"}},"type":"Feature"},
	{"geometry":{"coordinates":[2.204621,41.443262],"type":"Point"},"properties":{"osm_id":"6815870191","tag":{"access":"private","amenity":"waste_disposal","capacity":"360","recycling:waste":"yes"}},"type":"Feature"},
	{"geometry":{"coordinates":[2.203979,41.443193],"type":"Point"},"properties":{"osm_id":"6815870192","tag":{"access":"private","amenity":"waste_disposal","capacity":"90","recycling:cartons":"yes","recycling:magazines":"yes","recycling:paper":"yes","recycling:paper_packaging":"yes"}},"type":"Feature"},
	{"geometry":{"coordinates":[2.20463,41.443506],"type":"Point"},"properties":{"osm_id":"6815870193","tag":{"access":"private","amenity":"recycling","capacity":"1000","recycling:waste":"yes","recycling_type":"container"}},"type":"Feature"},
	{"geometry":{"coordinates":[2.204544,41.443496],"type":"Point"},"properties":{"osm_id":"6815870194","tag":{"access":"private","amenity":"recycling","capacity":"1000","recycling:waste":"yes","recycling_type":"container"}},"type":"Feature"},
	{"geometry":{"coordinates":[2.204438,41.443245],"type":"Point"},"properties":{"osm_id":"6815870195","tag":{"access":"private","amenity":"waste_disposal","capacity":"360","recycling:cartons":"yes","recycling:magazines":"yes","recycling:paper":"yes","recycling:paper_packaging":"yes"}},"type":"Feature"},
	{"geometry":{"coordinates":[2.203053,41.442807],"type":"Point"},"properties":{"osm_id":"6815870196","tag":{"access":"private","amenity":"waste_disposal","capacity":"240","recycling:waste":"yes"}},"type":"Feature"},
	{"geometry":{"coordinates":[2.203961,41.443192],"type":"Point"},"properties":{"osm_id":"6815870197","tag":{"access":"private","amenity":"waste_disposal","capacity":"360","recycling:waste":"yes"}},"type":"Feature"},
	{"geometry":{"coordinates":[2.203727,41.443165],"type":"Point"},"properties":{"osm_id":"6815870198","tag":{"access":"private","amenity":"waste_disposal","capacity":"360","recycling:waste":"yes"}},"type":"Feature"},
	{"geometry":{"coordinates":[2.203746,41.443166],"type":"Point"},"properties":{"osm_id":"6815870199","tag":{"access":"private","amenity":"waste_disposal","capacity":"360","recycling:waste":"yes"}},"type":"Feature"},
	{"geometry":{"coordinates":[2.204655,41.443265],"type":"Point"},"properties":{"osm_id":"6815870200","tag":{"access":"private","amenity":"waste_disposal","capacity":"120","recycling:cartons":"yes","recycling:magazines":"yes","recycling:paper":"yes","recycling:paper_packaging":"yes"}},"type":"Feature"},
	{"geometry":{"coordinates":[2.201226,41.443064],"type":"Point"},"properties":{"osm_id":"6861568319","tag":{"amenity":"recycling","capacity":"3000","recycling:PET":"yes","recycling:beverage_cartons":"yes","recycling:cans":"yes","recycling:organic":"yes","recycling:plastic_bags":"yes","recycling:plastic_bottles":"yes","recycling:plastic_packaging":"yes","recycling_type":"container"}},"type":"Feature"},
	{"geometry":{"coordinates":[2.202306,41.443014],"type":"Point"},"properties":{"osm_id":"6861568320","tag":{"amenity":"recycling","capacity":"1800","recycling:glass_bottles":"yes","recycling_type":"container"}},"type":"Feature"},
	{"geometry":{"coordinates":[2.20126,41.443067],"type":"Point"},"properties":{"osm_id":"6861568321","tag":{"amenity":"recycling","capacity":"1800","recycling:glass_bottles":"yes","recycling_type":"container"}},"type":"Feature"},
	{"geometry":{"coordinates":[2.201243,41.443067],"type":"Point"},"properties":{"osm_id":"6861568322","tag":{"amenity":"recycling","capacity":"3000","recycling:cartons":"yes","recycling:magazines":"yes","recycling:paper":"yes","recycling:paper_packaging":"yes","recycling_type":"container"}},"type":"Feature"},
	{"geometry":{"coordinates":[2.250415,41.446697],"type":"Point"},"properties":{"osm_id":"7849730340","tag":{"amenity":"recycling"}},"type":"Feature"}
]
}
