{
"type": "FeatureCollection",
"features": [
	{"geometry":{"coordinates":[-16.835733,32.646406],"type":"Point"},"properties":{"osm_id":"1474322728","tag":{"amenity":"recycling","recycling:glass":"yes","recycling:paper":"yes","recycling_type":"container"}},"type":"Feature"},
	{"geometry":{"coordinates":[-16.85277,32.644068],"type":"Point"},"properties":{"osm_id":"1506197894","tag":{"amenity":"recycling","recycling:batteries":"yes","recycling:cans":"yes","recycling:glass":"yes","recycling:paper":"yes","recycling_type":"container"}},"type":"Feature"},
	{"geometry":{"coordinates":[-16.852696,32.648552],"type":"Point"},"properties":{"osm_id":"1506197906","tag":{"amenity":"recycling","recycling:cans":"yes","recycling:glass":"yes","recycling:paper":"yes"}},"type":"Feature"},
	{"geometry":{"coordinates":[-16.851814,32.639736],"type":"Point"},"properties":{"osm_id":"1513065535","tag":{"amenity":"waste_basket"}},"type":"Feature"},
	{"geometry":{"coordinates":[-16.844767,32.653722],"type":"Point"},"properties":{"osm_id":"1584762158","tag":{"amenity":"waste_basket"}},"type":"Feature"},
	{"geometry":{"coordinates":[-16.810069,32.67311],"type":"Point"},"properties":{"osm_id":"1944605740","tag":{"amenity":"recycling"}},"type":"Feature"},
	{"geometry":{"coordinates":[-16.853536,32.638604],"type":"Point"},"properties":{"osm_id":"2501583464","tag":{"amenity":"waste_basket"}},"type":"Feature"},
	{"geometry":{"coordinates":[-16.853366,32.638676],"type":"Point"},"properties":{"osm_id":"2501583465","tag":{"amenity":"waste_basket"}},"type":"Feature"},
	{"geometry":{"coordinates":[-16.85273,32.63876],"type":"Point"},"properties":{"osm_id":"2501583467","tag":{"amenity":"waste_basket"}},"type":"Feature"},
	{"geometry":{"coordinates":[-16.852763,32.638658],"type":"Point"},"properties":{"osm_id":"2501583471","tag":{"amenity":"waste_basket"}},"type":"Feature"},
	{"geometry":{"coordinates":[-16.852733,32.63855],"type":"Point"},"properties":{"osm_id":"2501583473","tag":{"amenity":"waste_basket"}},"type":"Feature"},
	{"geometry":{"coordinates":[-16.848156,32.651177],"type":"Point"},"properties":{"osm_id":"2872646645","tag":{"amenity":"recycling","recycling:cans":"yes","recycling:glass":"yes","recycling:paper":"yes"}},"type":"Feature"},
	{"geometry":{"coordinates":[-16.873105,32.685287],"type":"Point"},"properties":{"osm_id":"3890992178","tag":{"amenity":"recycling"}},"type":"Feature"},
	{"geometry":{"coordinates":[-16.857192,32.655351],"type":"Point"},"properties":{"osm_id":"4373926461","tag":{"amenity":"recycling"}},"type":"Feature"},
	{"geometry":{"coordinates":[-16.854079,32.654376],"type":"Point"},"properties":{"osm_id":"4373926462","tag":{"amenity":"recycling"}},"type":"Feature"},
	{"geometry":{"coordinates":[-16.841627,32.652997],"type":"Point"},"properties":{"osm_id":"4425280567","tag":{"amenity":"recycling"}},"type":"Feature"},
	{"geometry":{"coordinates":[-16.842624,32.649377],"type":"Point"},"properties":{"osm_id":"4437728653","tag":{"amenity":"recycling","mapillary":"1r4UYPiFcoFZx5V0E0E_3Q","recycling_type":"container","survey:date":"2018-08-29"}},"type":"Feature"},
	{"geometry":{"coordinates":[-16.838411,32.643612],"type":"Point"},"properties":{"osm_id":"4534691580","tag":{"amenity":"recycling","recycling_type":"centre"}},"type":"Feature"},
	{"geometry":{"coordinates":[-16.807842,32.675556],"type":"Point"},"properties":{"osm_id":"5695242867","tag":{"amenity":"waste_disposal"}},"type":"Feature"},
	{"geometry":{"coordinates":[-16.807863,32.675546],"type":"Point"},"properties":{"osm_id":"5695242868","tag":{"amenity":"waste_disposal"}},"type":"Feature"},
	{"geometry":{"coordinates":[-16.853275,32.653243],"type":"Point"},"properties":{"osm_id":"6779905291","tag":{"amenity":"waste_disposal"}},"type":"Feature"}
]
}
