{
"type": "FeatureCollection",
"features": [
	{"geometry":{"coordinates":[-80.081744,35.883294],"type":"Point"},"properties":{"osm_id":"3413100093","tag":{"amenity":"waste_basket"}},"type":"Feature"},
	{"geometry":{"coordinates":[-80.081505,35.883387],"type":"Point"},"properties":{"osm_id":"3413100094","tag":{"amenity":"waste_basket"}},"type":"Feature"},
	{"geometry":{"coordinates":[-80.083058,35.882785],"type":"Point"},"properties":{"osm_id":"3413100098","tag":{"amenity":"waste_basket"}},"type":"Feature"},
	{"geometry":{"coordinates":[-80.083409,35.882498],"type":"Point"},"properties":{"osm_id":"3413100099","tag":{"amenity":"waste_basket"}},"type":"Feature"},
	{"geometry":{"coordinates":[-80.083733,35.882568],"type":"Point"},"properties":{"osm_id":"3413100100","tag":{"amenity":"waste_basket"}},"type":"Feature"},
	{"geometry":{"coordinates":[-80.081929,35.883484],"type":"Point"},"properties":{"osm_id":"3416688485","tag":{"amenity":"waste_basket"}},"type":"Feature"},
	{"geometry":{"coordinates":[-80.082361,35.883935],"type":"Point"},"properties":{"osm_id":"3416688486","tag":{"amenity":"waste_basket"}},"type":"Feature"},
	{"geometry":{"coordinates":[-80.082272,35.884087],"type":"Point"},"properties":{"osm_id":"3416688487","tag":{"amenity":"waste_basket"}},"type":"Feature"},
	{"geometry":{"coordinates":[-80.082736,35.884597],"type":"Point"},"properties":{"osm_id":"3416688491","tag":{"amenity":"waste_basket"}},"type":"Feature"},
	{"geometry":{"coordinates":[-80.083296,35.884608],"type":"Point"},"properties":{"osm_id":"3416688492","tag":{"amenity":"waste_basket"}},"type":"Feature"},
	{"geometry":{"coordinates":[-80.084063,35.88449],"type":"Point"},"properties":{"osm_id":"3416689295","tag":{"amenity":"waste_basket"}},"type":"Feature"},
	{"geometry":{"coordinates":[-80.080789,35.882836],"type":"Point"},"properties":{"osm_id":"3416689296","tag":{"amenity":"waste_basket"}},"type":"Feature"},
	{"geometry":{"coordinates":[-80.081656,35.882418],"type":"Point"},"properties":{"osm_id":"3422387073","tag":{"amenity":"waste_basket"}},"type":"Feature"},
	{"geometry":{"coordinates":[-80.082788,35.883875],"type":"Point"},"properties":{"osm_id":"3422524028","tag":{"amenity":"waste_basket"}},"type":"Feature"},
	{"geometry":{"coordinates":[-80.080776,35.884498],"type":"Point"},"properties":{"osm_id":"3424180588","tag":{"amenity":"waste_basket"}},"type":"Feature"},
	{"geometry":{"coordinates":[-80.080754,35.884171],"type":"Point"},"properties":{"osm_id":"3424180596","tag":{"amenity":"waste_basket"}},"type":"Feature"},
	{"geometry":{"coordinates":[-80.080128,35.884727],"type":"Point"},"properties":{"osm_id":"3424180613","tag":{"amenity":"waste_basket"}},"type":"Feature"},
	{"geometry":{"coordinates":[-80.080264,35.884677],"type":"Point"},"properties":{"osm_id":"3424180614","tag":{"amenity":"waste_basket"}},"type":"Feature"},
	{"geometry":{"coordinates":[-80.080437,35.884627],"type":"Point"},"properties":{"osm_id":"3424180615","tag":{"amenity":"waste_basket"}},"type":"Feature"},
	{"geometry":{"coordinates":[-80.081977,35.883224],"type":"Point"},"properties":{"osm_id":"3424197813","tag":{"amenity":"waste_basket"}},"type":"Feature"},
	{"geometry":{"coordinates":[-80.079348,35.88366],"type":"Point"},"properties":{"osm_id":"3424206836","tag":{"amenity":"waste_basket"}},"type":"Feature"},
	{"geometry":{"coordinates":[-80.071881,35.858447],"type":"Point"},"properties":{"osm_id":"3635756575","tag":{"amenity":"waste_disposal"}},"type":"Feature"},
	{"geometry":{"coordinates":[-80.073944,35.856781],"type":"Point"},"properties":{"osm_id":"3635756576","tag":{"amenity":"waste_disposal"}},"type":"Feature"},
	{"geometry":{"coordinates":[-80.073359,35.857847],"type":"Point"},"properties":{"osm_id":"3635756577","tag":{"amenity":"waste_disposal"}},"type":"Feature"},
	{"geometry":{"coordinates":[-80.073339,35.857921],"type":"Point"},"properties":{"osm_id":"3635756578","tag":{"amenity":"waste_disposal"}},"type":"Feature"},
	{"geometry":{"coordinates":[-80.081481,35.883052],"type":"Point"},"properties":{"osm_id":"3823227162","tag":{"amenity":"waste_basket"}},"type":"Feature"},
	{"geometry":{"coordinates":[-80.078688,35.879308],"type":"Point"},"properties":{"name":"Thomasville Recycling Center","osm_id":"4084191583","tag":{"addr:city":"Thomasville","addr:country":"US","addr:housenumber":"209","addr:state":"NC","addr:street":"Randolph Street","amenity":"recycling","recycling_type":"centre"}},"type":"Feature"},
	{"geometry":{"coordinates":[-80.074522,35.871156],"type":"Point"},"properties":{"osm_id":"4084203260","tag":{"amenity":"waste_basket"}},"type":"Feature"},
	{"geometry":{"coordinates":[-80.074668,35.857882],"type":"Point"},"properties":{"osm_id":"4111906674","tag":{"amenity":"waste_basket"}},"type":"Feature"},
	{"geometry":{"coordinates":[-80.074694,35.857494],"type":"Point"},"properties":{"osm_id":"4111906675","tag":{"amenity":"waste_basket"}},"type":"Feature"},
	{"geometry":{"coordinates":[-80.074724,35.857468],"type":"Point"},"properties":{"osm_id":"4111906676","tag":{"amenity":"recycling","recycling:clothes":"no","recycling:plastic":"yes","recycling_type":"container"}},"type":"Feature"},
	{"geometry":{"coordinates":[-80.084538,35.881641],"type":"Point"},"properties":{"osm_id":"4929557137","tag":{"amenity":"waste_basket"}},"type":"Feature"},
	{"geometry":{"coordinates":[-80.076467,35.87458],"type":"Point"},"properties":{"osm_id":"4929571392","tag":{"amenity":"waste_basket"}},"type":"Feature"},
	{"geometry":{"coordinates":[-80.115881,35.842112],"type":"Point"},"properties":{"osm_id":"4957795675","tag":{"amenity":"waste_disposal"}},"type":"Feature"},
	{"geometry":{"coordinates":[-80.073341,35.868197],"type":"Point"},"properties":{"osm_id":"4998307878","tag":{"amenity":"waste_basket"}},"type":"Feature"},
	{"geometry":{"coordinates":[-80.072978,35.8577],"type":"Point"},"properties":{"osm_id":"6399425601","tag":{"amenity":"waste_basket"}},"type":"Feature"},
	{"geometry":{"coordinates":[-80.08273,35.883097],"type":"Point"},"properties":{"osm_id":"6433048675","tag":{"amenity":"waste_basket"}},"type":"Feature"},
	{"geometry":{"coordinates":[-80.081088,35.883545],"type":"Point"},"properties":{"osm_id":"6433048682","tag":{"amenity":"waste_basket"}},"type":"Feature"},
	{"geometry":{"coordinates":[-80.082257,35.883091],"type":"Point"},"properties":{"osm_id":"6434213974","tag":{"amenity":"waste_basket"}},"type":"Feature"},
	{"geometry":{"coordinates":[-80.082243,35.846669],"type":"Point"},"properties":{"osm_id":"6517501152","tag":{"amenity":"recycling","recycling:clothes":"yes","recycling:shoes":"yes","recycling_type":"container"}},"type":"Feature"},
	{"geometry":{"coordinates":[-80.083618,35.882695],"type":"Point"},"properties":{"osm_id":"6517501153","tag":{"amenity":"waste_basket"}},"type":"Feature"},
	{"geometry":{"coordinates":[-80.071882,35.856202],"type":"Point"},"properties":{"osm_id":"6517501159","tag":{"amenity":"waste_disposal"}},"type":"Feature"},
	{"geometry":{"coordinates":[-80.073724,35.856433],"type":"Point"},"properties":{"osm_id":"6517501161","tag":{"amenity":"waste_disposal"}},"type":"Feature"},
	{"geometry":{"coordinates":[-80.07373,35.855737],"type":"Point"},"properties":{"osm_id":"6517501162","tag":{"amenity":"waste_disposal"}},"type":"Feature"},
	{"geometry":{"coordinates":[-80.088696,35.868896],"type":"Point"},"properties":{"osm_id":"6541123189","tag":{"amenity":"recycling","recycling:clothes":"yes","recycling:shoes":"yes","recycling_type":"container"}},"type":"Feature"},
	{"geometry":{"coordinates":[-80.081549,35.847805],"type":"Point"},"properties":{"osm_id":"6544016409","tag":{"amenity":"recycling","recycling:clothes":"yes","recycling:shoes":"yes","recycling_type":"container"}},"type":"Feature"},
	{"geometry":{"coordinates":[-80.071015,35.866206],"type":"Point"},"properties":{"osm_id":"6544016410","tag":{"amenity":"recycling","recycling:clothes":"yes","recycling:shoes":"yes","recycling_type":"container"}},"type":"Feature"},
	{"geometry":{"coordinates":[-80.081598,35.847776],"type":"Point"},"properties":{"osm_id":"6545747549","tag":{"amenity":"waste_disposal"}},"type":"Feature"},
	{"geometry":{"coordinates":[-80.08158,35.883119],"type":"Point"},"properties":{"osm_id":"6556392135","tag":{"amenity":"waste_basket"}},"type":"Feature"},
	{"geometry":{"coordinates":[-80.072854,35.888192],"type":"Point"},"properties":{"osm_id":"6571317944","tag":{"amenity":"recycling","recycling:clothes":"yes","recycling:shoes":"yes","recycling_type":"container"}},"type":"Feature"},
	{"geometry":{"coordinates":[-80.070157,35.866232],"type":"Point"},"properties":{"osm_id":"6576060529","tag":{"amenity":"recycling","recycling:aluminium":"yes","recycling:glass_bottles":"yes","recycling:plastic_bottles":"yes","recycling:plastic_containers":"yes","recycling_type":"container"}},"type":"Feature"},
	{"geometry":{"coordinates":[-80.070158,35.866221],"type":"Point"},"properties":{"osm_id":"6576060530","tag":{"amenity":"recycling","recycling:plastic_bags":"yes","recycling:plastic_film":"yes","recycling_type":"container"}},"type":"Feature"},
	{"geometry":{"coordinates":[-80.070157,35.866213],"type":"Point"},"properties":{"osm_id":"6576060531","tag":{"amenity":"recycling","recycling:paper":"yes","recycling_type":"container"}},"type":"Feature"},
	{"geometry":{"coordinates":[-80.084277,35.875033],"type":"Point"},"properties":{"osm_id":"6576060534","tag":{"amenity":"recycling","recycling:clothes":"yes","recycling:shoes":"yes","recycling_type":"container"}},"type":"Feature"},
	{"geometry":{"coordinates":[-80.083529,35.877232],"type":"Point"},"properties":{"osm_id":"6581098264","tag":{"amenity":"recycling","recycling:clothes":"yes","recycling:shoes":"yes","recycling_type":"container"}},"type":"Feature"},
	{"geometry":{"coordinates":[-80.118028,35.837894],"type":"Point"},"properties":{"osm_id":"6708683868","tag":{"amenity":"recycling","recycling:clothes":"yes","recycling:shoes":"yes","recycling_type":"container"}},"type":"Feature"}
]
}
