{
"type": "FeatureCollection",
"features": [
	{"geometry":{"coordinates":[-80.072238,26.654393],"type":"Point"},"properties":{"name":"Trash can","osm_id":"5357749910","tag":{"addr:street":"Pine Tree Lane","amenity":"waste_basket","waste":"trash"}},"type":"Feature"},
	{"geometry":{"coordinates":[-80.075819,26.655196],"type":"Point"},"properties":{"osm_id":"5357792716","tag":{"amenity":"recycling","recycling:aluminium":"yes","recycling:cans":"yes","recycling:glass_bottles":"yes","recycling:plastic_bottles":"yes","recycling_type":"container"}},"type":"Feature"},
	{"geometry":{"coordinates":[-80.075566,26.655414],"type":"Point"},"properties":{"osm_id":"5357792718","tag":{"amenity":"waste_basket","waste":"trash"}},"type":"Feature"},
	{"geometry":{"coordinates":[-80.075562,26.655488],"type":"Point"},"properties":{"osm_id":"5357792725","tag":{"amenity":"waste_basket","waste":"trash"}},"type":"Feature"},
	{"geometry":{"coordinates":[-80.073194,26.654341],"type":"Point"},"properties":{"osm_id":"5364086408","tag":{"amenity":"waste_basket","waste":"trash"}},"type":"Feature"},
	{"geometry":{"coordinates":[-80.073114,26.654199],"type":"Point"},"properties":{"osm_id":"5364086414","tag":{"amenity":"waste_basket","waste":"trash"}},"type":"Feature"},
	{"geometry":{"coordinates":[-80.071357,26.654816],"type":"Point"},"properties":{"osm_id":"5427694275","tag":{"amenity":"recycling","recycling:cans":"yes","recycling:plastic_bottles":"yes","recycling_type":"container","wheelchair":"yes"}},"type":"Feature"},
	{"geometry":{"coordinates":[-80.075645,26.655491],"type":"Point"},"properties":{"osm_id":"5797091083","tag":{"amenity":"recycling","recycling:aluminium":"yes","recycling:cans":"yes","recycling:glass":"yes","recycling:plastic":"yes","recycling:plastic_bottles":"yes","recycling_type":"container"}},"type":"Feature"},
	{"geometry":{"coordinates":[-80.077703,26.599491],"type":"Point"},"properties":{"osm_id":"5976666666","tag":{"amenity":"waste_basket"}},"type":"Feature"},
	{"geometry":{"coordinates":[-80.077718,26.599492],"type":"Point"},"properties":{"name":"Trash bin","osm_id":"5976672961","tag":{"amenity":"waste_disposal"}},"type":"Feature"},
	{"geometry":{"coordinates":[-80.07782,26.599146],"type":"Point"},"properties":{"osm_id":"5976757331","tag":{"amenity":"waste_basket"}},"type":"Feature"},
	{"geometry":{"coordinates":[-80.078168,26.599302],"type":"Point"},"properties":{"osm_id":"5976757338","tag":{"amenity":"waste_basket"}},"type":"Feature"},
	{"geometry":{"coordinates":[-80.07994,26.599761],"type":"Point"},"properties":{"osm_id":"9161420503","tag":{"amenity":"waste_basket"}},"type":"Feature"},
	{"geometry":{"coordinates":[-80.080214,26.599216],"type":"Point"},"properties":{"osm_id":"9161420506","tag":{"amenity":"waste_basket"}},"type":"Feature"}
]
}
