{
"type": "FeatureCollection",
"features": [
	{"geometry":{"coordinates":[-97.123105,33.19898],"type":"Point"},"properties":{"name":"Recycling Point","osm_id":"1655963854","tag":{"amenity":"recycling","recycling_type":"container"}},"type":"Feature"},
	{"geometry":{"coordinates":[-97.152485,33.20737],"type":"Point"},"properties":{"osm_id":"7135066754","tag":{"access":"yes","amenity":"waste_disposal","description":"For use by Rawlins hall residents ONLY","operator":"City of Denton","waste":"all"}},"type":"Feature"},
	{"geometry":{"coordinates":[-97.147222,33.206908],"type":"Point"},"properties":{"osm_id":"8097626487","tag":{"access":"permissive","amenity":"waste_disposal","waste":"trash"}},"type":"Feature"},
	{"geometry":{"coordinates":[-97.147219,33.206865],"type":"Point"},"properties":{"osm_id":"8097626488","tag":{"access":"private","amenity":"waste_disposal","colour":"Blue","waste":"recycling"}},"type":"Feature"},
	{"geometry":{"coordinates":[-97.147678,33.207388],"type":"Point"},"properties":{"osm_id":"8097626489","tag":{"access":"private","amenity":"waste_disposal","waste":"trash"}},"type":"Feature"},
	{"geometry":{"coordinates":[-97.14768,33.207352],"type":"Point"},"properties":{"osm_id":"8097626490","tag":{"access":"private","amenity":"waste_disposal","colour":"Blue","waste":"recycling"}},"type":"Feature"}
]
}
