{
"type": "FeatureCollection",
"features": [
	{"geometry":{"coordinates":[-97.134396,32.843534],"type":"Point"},"properties":{"osm_id":"6991141673","tag":{"amenity":"waste_disposal"}},"type":"Feature"},
	{"geometry":{"coordinates":[-97.134264,32.843807],"type":"Point"},"properties":{"osm_id":"6991141677","tag":{"amenity":"waste_disposal"}},"type":"Feature"},
	{"geometry":{"coordinates":[-97.142263,32.843831],"type":"Point"},"properties":{"osm_id":"6991142172","tag":{"amenity":"waste_disposal"}},"type":"Feature"},
	{"geometry":{"coordinates":[-97.139593,32.845283],"type":"Point"},"properties":{"osm_id":"6991142173","tag":{"amenity":"waste_disposal"}},"type":"Feature"},
	{"geometry":{"coordinates":[-97.133814,32.845269],"type":"Point"},"properties":{"osm_id":"6991199935","tag":{"amenity":"waste_disposal"}},"type":"Feature"},
	{"geometry":{"coordinates":[-97.134238,32.844032],"type":"Point"},"properties":{"osm_id":"6991199936","tag":{"amenity":"waste_disposal"}},"type":"Feature"},
	{"geometry":{"coordinates":[-97.133063,32.844162],"type":"Point"},"properties":{"osm_id":"6991199937","tag":{"amenity":"waste_disposal"}},"type":"Feature"},
	{"geometry":{"coordinates":[-97.132679,32.84288],"type":"Point"},"properties":{"osm_id":"6991199945","tag":{"amenity":"waste_disposal"}},"type":"Feature"},
	{"geometry":{"coordinates":[-97.147508,32.849945],"type":"Point"},"properties":{"osm_id":"6992064789","tag":{"amenity":"waste_disposal"}},"type":"Feature"},
	{"geometry":{"coordinates":[-97.1475,32.846763],"type":"Point"},"properties":{"osm_id":"6992069004","tag":{"amenity":"waste_disposal"}},"type":"Feature"},
	{"geometry":{"coordinates":[-97.148419,32.889968],"type":"Point"},"properties":{"osm_id":"8162954178","tag":{"amenity":"waste_disposal","waste":"trash;mixed;litter"}},"type":"Feature"},
	{"geometry":{"coordinates":[-97.147435,32.891827],"type":"Point"},"properties":{"osm_id":"8163013601","tag":{"access":"private","amenity":"waste_disposal","waste":"trash;litter"}},"type":"Feature"},
	{"geometry":{"coordinates":[-97.148741,32.888895],"type":"Point"},"properties":{"osm_id":"8163038278","tag":{"amenity":"waste_disposal","waste":"trash;litter"}},"type":"Feature"},
	{"geometry":{"coordinates":[-97.149007,32.888915],"type":"Point"},"properties":{"osm_id":"8163098090","tag":{"access":"private","amenity":"waste_disposal","waste":"trash;litter"}},"type":"Feature"},
	{"geometry":{"coordinates":[-97.147558,32.888421],"type":"Point"},"properties":{"osm_id":"8163112250","tag":{"access":"private","amenity":"waste_disposal","waste":"trash;litter"}},"type":"Feature"},
	{"geometry":{"coordinates":[-97.146267,32.889934],"type":"Point"},"properties":{"osm_id":"8163112251","tag":{"amenity":"waste_disposal","waste":"trash;litter"}},"type":"Feature"},
	{"geometry":{"coordinates":[-97.148199,32.886759],"type":"Point"},"properties":{"osm_id":"8177176993","tag":{"amenity":"waste_disposal","waste":"trash;mixed;organic"}},"type":"Feature"},
	{"geometry":{"coordinates":[-97.146065,32.886649],"type":"Point"},"properties":{"osm_id":"8192610734","tag":{"amenity":"waste_disposal","waste":"trash"}},"type":"Feature"},
	{"geometry":{"coordinates":[-97.150806,32.90634],"type":"Point"},"properties":{"osm_id":"8298429954","tag":{"amenity":"waste_basket","colour":"black","material":"metal","waste":"trash"}},"type":"Feature"},
	{"geometry":{"coordinates":[-97.136676,32.911456],"type":"Point"},"properties":{"osm_id":"8298452320","tag":{"amenity":"recycling","colour":"blue","opening_hours":"24/7","recycling_type":"container"}},"type":"Feature"},
	{"geometry":{"coordinates":[-97.1508,32.906342],"type":"Point"},"properties":{"osm_id":"8298452321","tag":{"amenity":"waste_basket","waste":"dog_excrement"}},"type":"Feature"},
	{"geometry":{"coordinates":[-97.136685,32.911449],"type":"Point"},"properties":{"osm_id":"8298466363","tag":{"amenity":"waste_basket","waste":"dog_excrement"}},"type":"Feature"},
	{"geometry":{"coordinates":[-97.162846,32.897319],"type":"Point"},"properties":{"osm_id":"8298575537","tag":{"amenity":"waste_basket","colour":"black","material":"metal","waste":"trash"}},"type":"Feature"},
	{"geometry":{"coordinates":[-97.17234,32.890113],"type":"Point"},"properties":{"osm_id":"8298575682","tag":{"amenity":"waste_basket","waste":"dog_excrement"}},"type":"Feature"},
	{"geometry":{"coordinates":[-97.162824,32.897324],"type":"Point"},"properties":{"osm_id":"8298588748","tag":{"amenity":"waste_basket","waste":"dog_excrement"}},"type":"Feature"},
	{"geometry":{"coordinates":[-97.172234,32.89212],"type":"Point"},"properties":{"osm_id":"8298595037","tag":{"amenity":"waste_basket","colour":"black","material":"metal","waste":"trash"}},"type":"Feature"},
	{"geometry":{"coordinates":[-97.167723,32.893664],"type":"Point"},"properties":{"osm_id":"8298601610","tag":{"amenity":"waste_basket","waste":"dog_excrement"}},"type":"Feature"},
	{"geometry":{"coordinates":[-97.172459,32.892064],"type":"Point"},"properties":{"osm_id":"8298613240","tag":{"amenity":"waste_basket","colour":"black","material":"metal","waste":"trash"}},"type":"Feature"},
	{"geometry":{"coordinates":[-97.172396,32.89228],"type":"Point"},"properties":{"osm_id":"8298619182","tag":{"amenity":"waste_basket","colour":"black","material":"metal","waste":"trash"}},"type":"Feature"},
	{"geometry":{"coordinates":[-97.172396,32.892286],"type":"Point"},"properties":{"osm_id":"8298682630","tag":{"amenity":"recycling","colour":"black","opening_hours":"24/7","recycling_type":"container"}},"type":"Feature"},
	{"geometry":{"coordinates":[-97.179464,32.88463],"type":"Point"},"properties":{"osm_id":"8298754806","tag":{"amenity":"waste_basket","colour":"brown","material":"metal","waste":"trash"}},"type":"Feature"},
	{"geometry":{"coordinates":[-97.194524,32.874737],"type":"Point"},"properties":{"osm_id":"8298760156","tag":{"amenity":"waste_basket","colour":"black","material":"metal","waste":"trash"}},"type":"Feature"},
	{"geometry":{"coordinates":[-97.177255,32.886279],"type":"Point"},"properties":{"osm_id":"8298761949","tag":{"amenity":"waste_basket","colour":"brown","material":"metal","waste":"trash"}},"type":"Feature"},
	{"geometry":{"coordinates":[-97.135038,32.911452],"type":"Point"},"properties":{"osm_id":"8392499940","tag":{"amenity":"waste_basket","waste":"dog_excrement"}},"type":"Feature"},
	{"geometry":{"coordinates":[-97.135191,32.911579],"type":"Point"},"properties":{"osm_id":"8392641460","tag":{"amenity":"recycling","colour":"black","recycling_type":"container"}},"type":"Feature"},
	{"geometry":{"coordinates":[-97.135185,32.911574],"type":"Point"},"properties":{"osm_id":"8392647819","tag":{"amenity":"waste_basket","colour":"black","material":"metal","waste":"trash"}},"type":"Feature"},
	{"geometry":{"coordinates":[-97.196033,32.890845],"type":"Point"},"properties":{"osm_id":"8393831357","tag":{"amenity":"waste_basket","waste":"dog_excrement"}},"type":"Feature"},
	{"geometry":{"coordinates":[-97.191479,32.887424],"type":"Point"},"properties":{"osm_id":"8393840925","tag":{"amenity":"waste_basket","colour":"black","material":"metal","waste":"trash"}},"type":"Feature"},
	{"geometry":{"coordinates":[-97.199081,32.891303],"type":"Point"},"properties":{"osm_id":"8393852071","tag":{"amenity":"waste_basket","colour":"brown","material":"plastic","waste":"trash"}},"type":"Feature"},
	{"geometry":{"coordinates":[-97.198292,32.891019],"type":"Point"},"properties":{"osm_id":"8393853921","tag":{"amenity":"waste_basket","colour":"brown","material":"plastic","waste":"trash"}},"type":"Feature"},
	{"geometry":{"coordinates":[-97.197749,32.891748],"type":"Point"},"properties":{"osm_id":"8393856628","tag":{"amenity":"waste_basket","colour":"brown","material":"plastic","waste":"trash"}},"type":"Feature"},
	{"geometry":{"coordinates":[-97.198286,32.890866],"type":"Point"},"properties":{"osm_id":"8393914501","tag":{"amenity":"waste_basket","colour":"brown","material":"plastic","waste":"trash"}},"type":"Feature"},
	{"geometry":{"coordinates":[-97.198285,32.89097],"type":"Point"},"properties":{"osm_id":"8393941149","tag":{"amenity":"waste_basket","colour":"brown","material":"plastic","waste":"trash"}},"type":"Feature"},
	{"geometry":{"coordinates":[-97.198363,32.891174],"type":"Point"},"properties":{"osm_id":"8394906546","tag":{"amenity":"waste_basket","colour":"brown","material":"plastic","waste":"trash"}},"type":"Feature"},
	{"geometry":{"coordinates":[-97.198251,32.891359],"type":"Point"},"properties":{"osm_id":"8394906547","tag":{"amenity":"waste_basket","colour":"brown","material":"plastic","waste":"trash"}},"type":"Feature"},
	{"geometry":{"coordinates":[-97.198391,32.891457],"type":"Point"},"properties":{"osm_id":"8394965344","tag":{"amenity":"waste_basket","colour":"brown","material":"plastic","waste":"trash"}},"type":"Feature"},
	{"geometry":{"coordinates":[-97.198582,32.891327],"type":"Point"},"properties":{"osm_id":"8394966227","tag":{"amenity":"waste_basket","colour":"brown","material":"plastic","waste":"trash"}},"type":"Feature"},
	{"geometry":{"coordinates":[-97.200506,32.895916],"type":"Point"},"properties":{"osm_id":"8395136287","tag":{"amenity":"waste_basket","colour":"black","material":"metal","waste":"trash"}},"type":"Feature"},
	{"geometry":{"coordinates":[-97.192965,32.89163],"type":"Point"},"properties":{"osm_id":"8395175924","tag":{"amenity":"waste_basket","colour":"black","material":"metal","waste":"trash"}},"type":"Feature"},
	{"geometry":{"coordinates":[-97.199384,32.889774],"type":"Point"},"properties":{"osm_id":"8397041219","tag":{"amenity":"waste_basket","waste":"dog_excrement"}},"type":"Feature"},
	{"geometry":{"coordinates":[-97.197499,32.891217],"type":"Point"},"properties":{"osm_id":"8397771588","tag":{"amenity":"waste_basket","colour":"brown","material":"plastic","waste":"trash"}},"type":"Feature"},
	{"geometry":{"coordinates":[-97.201473,32.890074],"type":"Point"},"properties":{"osm_id":"8447535953","tag":{"amenity":"waste_basket","colour":"green","material":"plastic","operator":"Tipps Canine Hollow Dog Park at Northfield Park","waste":"trash"}},"type":"Feature"},
	{"geometry":{"coordinates":[-97.201977,32.889723],"type":"Point"},"properties":{"osm_id":"8447551288","tag":{"amenity":"waste_basket","waste":"dog_excrement"}},"type":"Feature"},
	{"geometry":{"coordinates":[-97.201993,32.890001],"type":"Point"},"properties":{"osm_id":"8447564490","tag":{"amenity":"waste_basket","waste":"dog_excrement"}},"type":"Feature"},
	{"geometry":{"coordinates":[-97.201307,32.889702],"type":"Point"},"properties":{"osm_id":"8447587194","tag":{"amenity":"waste_basket","waste":"dog_excrement"}},"type":"Feature"},
	{"geometry":{"coordinates":[-97.201533,32.889735],"type":"Point"},"properties":{"osm_id":"8447589157","tag":{"amenity":"waste_basket","waste":"dog_excrement"}},"type":"Feature"},
	{"geometry":{"coordinates":[-97.201228,32.889737],"type":"Point"},"properties":{"osm_id":"8447833111","tag":{"amenity":"waste_basket","colour":"green","material":"plastic","operator":"Tipps Canine Hollow Dog Park at Northfield Park","waste":"trash"}},"type":"Feature"},
	{"geometry":{"coordinates":[-97.201302,32.889759],"type":"Point"},"properties":{"osm_id":"8447849272","tag":{"amenity":"waste_basket","waste":"dog_excrement"}},"type":"Feature"},
	{"geometry":{"coordinates":[-97.201224,32.889704],"type":"Point"},"properties":{"osm_id":"8447858235","tag":{"amenity":"waste_basket","waste":"dog_excrement"}},"type":"Feature"},
	{"geometry":{"coordinates":[-97.201149,32.889761],"type":"Point"},"properties":{"osm_id":"8447858236","tag":{"amenity":"waste_basket","waste":"dog_excrement"}},"type":"Feature"},
	{"geometry":{"coordinates":[-97.200827,32.890217],"type":"Point"},"properties":{"osm_id":"8447885326","tag":{"amenity":"waste_basket","source_ref":"GPS","waste":"dog_excrement"}},"type":"Feature"},
	{"geometry":{"coordinates":[-97.200663,32.889875],"type":"Point"},"properties":{"osm_id":"8447887675","tag":{"amenity":"waste_basket","waste":"dog_excrement"}},"type":"Feature"},
	{"geometry":{"coordinates":[-97.201065,32.889782],"type":"Point"},"properties":{"osm_id":"8447890152","tag":{"amenity":"waste_basket","waste":"dog_excrement"}},"type":"Feature"},
	{"geometry":{"coordinates":[-97.184752,32.902677],"type":"Point"},"properties":{"osm_id":"8543123292","tag":{"amenity":"waste_disposal"}},"type":"Feature"},
	{"geometry":{"coordinates":[-97.126156,32.885741],"type":"Point"},"properties":{"osm_id":"8544952256","tag":{"amenity":"waste_disposal"}},"type":"Feature"}
]
}
