{
"type": "FeatureCollection",
"lastupdate": "2020-08-03T00:00:00Z",
"features": [
	{"geometry":{"coordinates":[9.143449,54.079528],"type":"Point"},"properties":{"osm_id":"1435327110","tag":{"amenity":"recycling","operator":"Abfallwirtschaft Dithmarschen","recycling:glass":"yes","recycling_type":"container"}},"type":"Feature"},
	{"geometry":{"coordinates":[9.146754,54.096525],"type":"Point"},"properties":{"osm_id":"2238419260","tag":{"amenity":"recycling","operator":"Abfallwirtschaft Dithmarschen","recycling:glass_bottles":"yes","recycling_type":"container"}},"type":"Feature"},
	{"geometry":{"coordinates":[9.155924,54.095578],"type":"Point"},"properties":{"osm_id":"2260109052","tag":{"amenity":"recycling","operator":"Abfallwirtschaft Dithmarschen","recycling:glass_bottles":"yes","recycling_type":"container"}},"type":"Feature"},
	{"geometry":{"coordinates":[9.189987,54.072199],"type":"Point"},"properties":{"osm_id":"2958476659","tag":{"amenity":"recycling","operator":"Abfallwirtschaft Dithmarschen","recycling:glass_bottles":"yes","recycling_type":"container"}},"type":"Feature"},
	{"geometry":{"coordinates":[9.190023,54.072231],"type":"Point"},"properties":{"osm_id":"3532349945","tag":{"amenity":"recycling","operator":"hoelp","recycling:clothes":"yes","recycling_type":"container","website":"https://hoelp.de/"}},"type":"Feature"},
	{"geometry":{"coordinates":[9.190012,54.072218],"type":"Point"},"properties":{"osm_id":"3532349946","tag":{"amenity":"recycling","operator":"AHG alpha Handelskontor","recycling:clothes":"yes","recycling_type":"container"}},"type":"Feature"},
	{"geometry":{"coordinates":[9.189999,54.072209],"type":"Point"},"properties":{"osm_id":"3726164819","tag":{"amenity":"recycling","operator":"Textil-Recycling Nord","recycling:clothes":"yes","recycling_type":"container"}},"type":"Feature"},
	{"geometry":{"coordinates":[9.143442,54.07957],"type":"Point"},"properties":{"osm_id":"3726164820","tag":{"amenity":"recycling","operator":"hoelp","recycling:clothes":"yes","recycling_type":"container","website":"https://hoelp.de/"}},"type":"Feature"}
]
}
