{
"type": "FeatureCollection",
"features": [
	{"geometry":{"coordinates":[9.155576,53.923008],"type":"Point"},"properties":{"name":"Recyclinghof Brunsb\u00c3\u00bcttel","osm_id":"1436361214","tag":{"amenity":"recycling","recycling_type":"centre","website":"https://www.awd-online.de/recyclinghoefe/brunsbuettel/"}},"type":"Feature"},
	{"geometry":{"coordinates":[9.187409,53.934612],"type":"Point"},"properties":{"osm_id":"1675863696","tag":{"amenity":"recycling","check_date":"2021-05-24","operator":"Abfallwirtschaft Dithmarschen","recycling:glass_bottles":"yes","recycling_type":"container"}},"type":"Feature"},
	{"geometry":{"coordinates":[9.154988,53.951654],"type":"Point"},"properties":{"osm_id":"1722820809","tag":{"amenity":"recycling","check_date:recycling":"2021-05-22","operator":"Abfallwirtschaft Dithmarschen","recycling:electrical_appliances":"no","recycling:glass_bottles":"yes","recycling:paper":"yes","recycling:small_appliances":"yes","recycling_type":"container"}},"type":"Feature"},
	{"geometry":{"coordinates":[9.187282,53.924294],"type":"Point"},"properties":{"osm_id":"1763120104","tag":{"amenity":"recycling","check_date":"2021-05-24","operator":"Abfallwirtschaft Dithmarschen","recycling:glass_bottles":"yes","recycling_type":"container"}},"type":"Feature"},
	{"geometry":{"coordinates":[9.177294,53.946652],"type":"Point"},"properties":{"osm_id":"2476254177","tag":{"amenity":"recycling","check_date":"2021-05-24","operator":"Abfallwirtschaft Dithmarschen","recycling:glass_bottles":"yes","recycling_type":"container"}},"type":"Feature"},
	{"geometry":{"coordinates":[9.213222,53.930251],"type":"Point"},"properties":{"osm_id":"3114488596","tag":{"amenity":"recycling","operator":"Franz B\u00c3\u00b6tel Entsorgungsbetrieb&S\u00c3\u00b6hne","recycling:clothes":"yes","recycling:glass_bottles":"yes","recycling_type":"container"}},"type":"Feature"},
	{"geometry":{"coordinates":[9.150446,53.906506],"type":"Point"},"properties":{"osm_id":"3193699153","tag":{"amenity":"recycling","check_date":"2021-05-22","operator":"Loop Kleider&Schuhe","recycling:clothes":"yes","recycling_type":"container"}},"type":"Feature"},
	{"geometry":{"coordinates":[9.150487,53.906529],"type":"Point"},"properties":{"osm_id":"3193699154","tag":{"amenity":"recycling","check_date":"2021-05-22","operator":"Abfallwirtschaft Dithmarschen","recycling:glass_bottles":"yes","recycling_type":"container"}},"type":"Feature"},
	{"geometry":{"coordinates":[9.213186,53.930238],"type":"Point"},"properties":{"osm_id":"3532349937","tag":{"amenity":"recycling","operator":"Retextil Recycling International","recycling:clothes":"yes","recycling_type":"container"}},"type":"Feature"},
	{"geometry":{"coordinates":[9.155232,53.917337],"type":"Point"},"properties":{"name":"Autoverwertung Hermes","osm_id":"4518661821","tag":{"addr:city":"Brunsb\u00c3\u00bcttel","addr:housenumber":"58","addr:postcode":"25541","addr:street":"Westerb\u00c3\u00bctteler Stra\u00c3\u009fe","amenity":"recycling","recycling:scrap_metal":"yes","recycling_type":"centre"}},"type":"Feature"},
	{"geometry":{"coordinates":[9.154964,53.951678],"type":"Point"},"properties":{"osm_id":"8757242299","tag":{"amenity":"recycling","check_date":"2021-05-01","check_date:recycling":"2021-05-22","operator":"Deutsches Rotes Kreuz","recycling:clothes":"yes","recycling_type":"container","website":"https://www.humana-kleidersammlung.de/"}},"type":"Feature"}
]
}
