{
"type": "FeatureCollection",
"features": [
	{"geometry":{"coordinates":[9.147479,53.897214],"type":"Point"},"properties":{"osm_id":"832668166","tag":{"amenity":"waste_basket"}},"type":"Feature"},
	{"geometry":{"coordinates":[9.147008,53.896356],"type":"Point"},"properties":{"osm_id":"832668176","tag":{"amenity":"waste_basket"}},"type":"Feature"},
	{"geometry":{"coordinates":[9.147368,53.896603],"type":"Point"},"properties":{"osm_id":"832668179","tag":{"amenity":"waste_basket"}},"type":"Feature"},
	{"geometry":{"coordinates":[9.147465,53.897061],"type":"Point"},"properties":{"osm_id":"832668185","tag":{"amenity":"waste_basket"}},"type":"Feature"},
	{"geometry":{"coordinates":[9.147202,53.896496],"type":"Point"},"properties":{"osm_id":"832668190","tag":{"amenity":"waste_basket"}},"type":"Feature"},
	{"geometry":{"coordinates":[9.147287,53.897331],"type":"Point"},"properties":{"osm_id":"832668201","tag":{"amenity":"waste_basket"}},"type":"Feature"},
	{"geometry":{"coordinates":[9.147351,53.897207],"type":"Point"},"properties":{"osm_id":"832668217","tag":{"amenity":"waste_basket"}},"type":"Feature"},
	{"geometry":{"coordinates":[9.146011,53.898349],"type":"Point"},"properties":{"osm_id":"1976378842","tag":{"amenity":"recycling","operator":"Abfallwirtschaft Dithmarschen","recycling:glass_bottles":"yes","recycling_type":"container"}},"type":"Feature"},
	{"geometry":{"coordinates":[9.146935,53.896414],"type":"Point"},"properties":{"osm_id":"2446716560","tag":{"amenity":"waste_basket"}},"type":"Feature"},
	{"geometry":{"coordinates":[9.15595,53.896024],"type":"Point"},"properties":{"osm_id":"3193699145","tag":{"amenity":"recycling","operator":"Abfallwirtschaft Dithmarschen","recycling:glass_bottles":"yes","recycling_type":"container"}},"type":"Feature"},
	{"geometry":{"coordinates":[9.155973,53.896043],"type":"Point"},"properties":{"osm_id":"3193699146","tag":{"amenity":"recycling","operator":"W. Werbik Textilrecycling","recycling:clothes":"yes","recycling_type":"container"}},"type":"Feature"},
	{"geometry":{"coordinates":[9.160539,53.898026],"type":"Point"},"properties":{"osm_id":"3438989688","tag":{"amenity":"recycling","operator":"hoelp","recycling:clothes":"yes","recycling_type":"container","website":"https://hoelp.de/"}},"type":"Feature"},
	{"geometry":{"coordinates":[9.146074,53.898384],"type":"Point"},"properties":{"osm_id":"3438989904","tag":{"amenity":"recycling","operator":"W. Werbik Textilrecycling","recycling:clothes":"yes","recycling_type":"container"}},"type":"Feature"},
	{"geometry":{"coordinates":[9.146314,53.895848],"type":"Point"},"properties":{"osm_id":"5395418498","tag":{"amenity":"waste_basket"}},"type":"Feature"},
	{"geometry":{"coordinates":[9.145579,53.895405],"type":"Point"},"properties":{"osm_id":"5395454733","tag":{"amenity":"waste_basket"}},"type":"Feature"}
]
}
