{
"type": "FeatureCollection",
"features": [
	{"geometry":{"coordinates":[9.193098,52.921486],"type":"Point"},"properties":{"osm_id":"663722727","tag":{"amenity":"recycling","recycling:cans":"no","recycling:clothes":"yes","recycling:glass_bottles":"yes","recycling:paper":"no","recycling_type":"container"}},"type":"Feature"},
	{"geometry":{"coordinates":[9.227497,52.92961],"type":"Point"},"properties":{"osm_id":"1262189954","tag":{"amenity":"recycling","recycling:glass_bottles":"yes","recycling_type":"container"}},"type":"Feature"},
	{"geometry":{"coordinates":[9.217347,52.91908],"type":"Point"},"properties":{"osm_id":"4757622432","tag":{"amenity":"waste_basket"}},"type":"Feature"},
	{"geometry":{"coordinates":[9.225221,52.924913],"type":"Point"},"properties":{"osm_id":"7257856985","tag":{"amenity":"recycling","location":"overground","recycling:glass":"yes","recycling_type":"container"}},"type":"Feature"},
	{"geometry":{"coordinates":[9.193003,52.921476],"type":"Point"},"properties":{"osm_id":"7465163559","tag":{"amenity":"waste_basket"}},"type":"Feature"},
	{"geometry":{"coordinates":[9.193719,52.920558],"type":"Point"},"properties":{"osm_id":"7702197303","tag":{"amenity":"waste_basket"}},"type":"Feature"},
	{"geometry":{"coordinates":[9.208775,52.920973],"type":"Point"},"properties":{"osm_id":"7702197310","tag":{"amenity":"waste_basket"}},"type":"Feature"},
	{"geometry":{"coordinates":[9.18307,52.948785],"type":"Point"},"properties":{"osm_id":"7922401985","tag":{"amenity":"waste_basket"}},"type":"Feature"},
	{"geometry":{"coordinates":[9.227654,52.942594],"type":"Point"},"properties":{"osm_id":"8063957092","tag":{"amenity":"waste_basket","waste":"trash"}},"type":"Feature"},
	{"geometry":{"coordinates":[9.205555,52.912721],"type":"Point"},"properties":{"osm_id":"8087781315","tag":{"amenity":"waste_basket","waste":"trash"}},"type":"Feature"},
	{"geometry":{"coordinates":[9.228495,52.91773],"type":"Point"},"properties":{"osm_id":"8222536141","tag":{"amenity":"waste_basket"}},"type":"Feature"},
	{"geometry":{"coordinates":[9.155007,52.912927],"type":"Point"},"properties":{"osm_id":"8866827574","tag":{"amenity":"recycling","colour":"white","recycling_type":"container"}},"type":"Feature"}
]
}
