{
"type": "FeatureCollection",
"lastupdate": "2020-08-04T00:00:00Z",
"features": [
	{"geometry":{"coordinates":[9.225181,52.84786],"type":"Point"},"properties":{"osm_id":"475536953","tag":{"amenity":"recycling"}},"type":"Feature"},
	{"geometry":{"coordinates":[9.15778,52.810527],"type":"Point"},"properties":{"name":"Weser Wertstoff GmbH","osm_id":"1940078844","tag":{"amenity":"recycling","recycling_type":"centre"}},"type":"Feature"},
	{"geometry":{"coordinates":[9.143076,52.804548],"type":"Point"},"properties":{"osm_id":"6483988735","tag":{"amenity":"waste_basket","waste":"trash"}},"type":"Feature"},
	{"geometry":{"coordinates":[9.142756,52.805801],"type":"Point"},"properties":{"osm_id":"6566308377","tag":{"amenity":"waste_basket","waste":"trash"}},"type":"Feature"},
	{"geometry":{"coordinates":[9.144157,52.804995],"type":"Point"},"properties":{"osm_id":"6566308382","tag":{"amenity":"waste_basket","waste":"trash"}},"type":"Feature"},
	{"geometry":{"coordinates":[9.143782,52.805712],"type":"Point"},"properties":{"osm_id":"6566338487","tag":{"amenity":"waste_basket","waste":"trash"}},"type":"Feature"}
]
}
