{
"type": "FeatureCollection",
"features": [
	{"geometry":{"coordinates":[9.201144,52.641673],"type":"Point"},"properties":{"osm_id":"34659496","tag":{"amenity":"waste_disposal"}},"type":"Feature"},
	{"geometry":{"coordinates":[9.225175,52.641553],"type":"Point"},"properties":{"osm_id":"408736142","tag":{"amenity":"recycling","mapillary":"e07fJi3t1vdfBTP2QkysEg","recycling:glass_bottles":"yes","recycling_type":"container","survey:date":"2018-10-01"}},"type":"Feature"},
	{"geometry":{"coordinates":[9.210082,52.639585],"type":"Point"},"properties":{"osm_id":"440724783","tag":{"amenity":"recycling","location":"underground","recycling:glass_bottles":"yes","recycling_type":"container"}},"type":"Feature"},
	{"geometry":{"coordinates":[9.223954,52.638515],"type":"Point"},"properties":{"osm_id":"1490545537","tag":{"amenity":"recycling","recycling:glass_bottles":"yes"}},"type":"Feature"},
	{"geometry":{"coordinates":[9.215946,52.625716],"type":"Point"},"properties":{"osm_id":"1496506283","tag":{"amenity":"recycling","recycling:glass_bottles":"yes"}},"type":"Feature"},
	{"geometry":{"coordinates":[9.194437,52.612411],"type":"Point"},"properties":{"osm_id":"1504077759","tag":{"amenity":"recycling","recycling:glass_bottles":"yes","recycling_type":"container"}},"type":"Feature"},
	{"geometry":{"coordinates":[9.203397,52.611032],"type":"Point"},"properties":{"osm_id":"1508715052","tag":{"amenity":"recycling","recycling:glass_bottles":"yes","recycling_type":"container"}},"type":"Feature"},
	{"geometry":{"coordinates":[9.221901,52.630728],"type":"Point"},"properties":{"osm_id":"1779277067","tag":{"amenity":"recycling","mapillary":"DxD14R1NaDEYz6q2P2fjbA","recycling:glass_bottles":"yes","recycling_type":"container","survey:date":"2016-05-10"}},"type":"Feature"},
	{"geometry":{"coordinates":[9.210365,52.640117],"type":"Point"},"properties":{"osm_id":"2855677037","tag":{"amenity":"waste_basket"}},"type":"Feature"},
	{"geometry":{"coordinates":[9.201015,52.641722],"type":"Point"},"properties":{"osm_id":"2953685770","tag":{"amenity":"recycling","recycling:glass_bottles":"yes","recycling_type":"container"}},"type":"Feature"},
	{"geometry":{"coordinates":[9.158278,52.597088],"type":"Point"},"properties":{"osm_id":"2954818842","tag":{"amenity":"recycling","recycling:glass_bottles":"yes","recycling_type":"container"}},"type":"Feature"},
	{"geometry":{"coordinates":[9.210546,52.621486],"type":"Point"},"properties":{"osm_id":"2954818862","tag":{"amenity":"recycling","recycling:glass_bottles":"yes","recycling_type":"container"}},"type":"Feature"},
	{"geometry":{"coordinates":[9.2042,52.637836],"type":"Point"},"properties":{"osm_id":"3036527658","tag":{"amenity":"waste_basket"}},"type":"Feature"},
	{"geometry":{"coordinates":[9.204589,52.638139],"type":"Point"},"properties":{"osm_id":"3036527659","tag":{"amenity":"waste_basket"}},"type":"Feature"},
	{"geometry":{"coordinates":[9.205,52.638505],"type":"Point"},"properties":{"osm_id":"3036527660","tag":{"amenity":"waste_basket"}},"type":"Feature"},
	{"geometry":{"coordinates":[9.204906,52.638538],"type":"Point"},"properties":{"osm_id":"3036527661","tag":{"amenity":"waste_basket"}},"type":"Feature"},
	{"geometry":{"coordinates":[9.205339,52.639089],"type":"Point"},"properties":{"osm_id":"3036527662","tag":{"amenity":"waste_basket"}},"type":"Feature"},
	{"geometry":{"coordinates":[9.205535,52.639191],"type":"Point"},"properties":{"osm_id":"3036527664","tag":{"amenity":"waste_basket"}},"type":"Feature"},
	{"geometry":{"coordinates":[9.212358,52.639203],"type":"Point"},"properties":{"osm_id":"3036527665","tag":{"amenity":"waste_basket"}},"type":"Feature"},
	{"geometry":{"coordinates":[9.212552,52.639261],"type":"Point"},"properties":{"osm_id":"3036527666","tag":{"amenity":"waste_basket"}},"type":"Feature"},
	{"geometry":{"coordinates":[9.205723,52.639436],"type":"Point"},"properties":{"osm_id":"3036527669","tag":{"amenity":"waste_basket"}},"type":"Feature"},
	{"geometry":{"coordinates":[9.205621,52.639467],"type":"Point"},"properties":{"osm_id":"3036527670","tag":{"amenity":"waste_basket"}},"type":"Feature"},
	{"geometry":{"coordinates":[9.205808,52.639712],"type":"Point"},"properties":{"osm_id":"3036527674","tag":{"amenity":"waste_basket"}},"type":"Feature"},
	{"geometry":{"coordinates":[9.211878,52.639718],"type":"Point"},"properties":{"osm_id":"3036527675","tag":{"amenity":"waste_basket"}},"type":"Feature"},
	{"geometry":{"coordinates":[9.205946,52.639865],"type":"Point"},"properties":{"osm_id":"3036527677","tag":{"amenity":"waste_basket"}},"type":"Feature"},
	{"geometry":{"coordinates":[9.210662,52.639946],"type":"Point"},"properties":{"osm_id":"3036527678","tag":{"amenity":"waste_basket"}},"type":"Feature"},
	{"geometry":{"coordinates":[9.210903,52.640066],"type":"Point"},"properties":{"osm_id":"3036527680","tag":{"amenity":"waste_basket"}},"type":"Feature"},
	{"geometry":{"coordinates":[9.208891,52.640058],"type":"Point"},"properties":{"osm_id":"3036527682","tag":{"amenity":"waste_basket"}},"type":"Feature"},
	{"geometry":{"coordinates":[9.206162,52.64016],"type":"Point"},"properties":{"osm_id":"3036527683","tag":{"amenity":"waste_basket"}},"type":"Feature"},
	{"geometry":{"coordinates":[9.210362,52.640252],"type":"Point"},"properties":{"osm_id":"3036527686","tag":{"amenity":"waste_basket"}},"type":"Feature"},
	{"geometry":{"coordinates":[9.210188,52.640277],"type":"Point"},"properties":{"osm_id":"3036527688","tag":{"amenity":"waste_basket"}},"type":"Feature"},
	{"geometry":{"coordinates":[9.206371,52.640288],"type":"Point"},"properties":{"osm_id":"3036527690","tag":{"amenity":"waste_basket"}},"type":"Feature"},
	{"geometry":{"coordinates":[9.208543,52.640267],"type":"Point"},"properties":{"osm_id":"3036527691","tag":{"amenity":"waste_basket"}},"type":"Feature"},
	{"geometry":{"coordinates":[9.206265,52.640315],"type":"Point"},"properties":{"osm_id":"3036527692","tag":{"amenity":"waste_basket"}},"type":"Feature"},
	{"geometry":{"coordinates":[9.206357,52.640458],"type":"Point"},"properties":{"osm_id":"3036527694","tag":{"amenity":"waste_basket"}},"type":"Feature"},
	{"geometry":{"coordinates":[9.20654,52.640569],"type":"Point"},"properties":{"osm_id":"3036527695","tag":{"amenity":"waste_basket"}},"type":"Feature"},
	{"geometry":{"coordinates":[9.209414,52.640576],"type":"Point"},"properties":{"osm_id":"3036527696","tag":{"amenity":"waste_basket"}},"type":"Feature"},
	{"geometry":{"coordinates":[9.207923,52.640626],"type":"Point"},"properties":{"osm_id":"3036527697","tag":{"amenity":"waste_basket"}},"type":"Feature"},
	{"geometry":{"coordinates":[9.206712,52.640869],"type":"Point"},"properties":{"osm_id":"3036527698","tag":{"amenity":"waste_basket"}},"type":"Feature"},
	{"geometry":{"coordinates":[9.206619,52.640884],"type":"Point"},"properties":{"osm_id":"3036527699","tag":{"amenity":"waste_basket"}},"type":"Feature"},
	{"geometry":{"coordinates":[9.207014,52.640908],"type":"Point"},"properties":{"osm_id":"3036527700","tag":{"amenity":"waste_basket"}},"type":"Feature"},
	{"geometry":{"coordinates":[9.206824,52.641024],"type":"Point"},"properties":{"osm_id":"3036527701","tag":{"amenity":"waste_basket"}},"type":"Feature"},
	{"geometry":{"coordinates":[9.206705,52.64105],"type":"Point"},"properties":{"osm_id":"3036527702","tag":{"amenity":"waste_basket"}},"type":"Feature"},
	{"geometry":{"coordinates":[9.20791,52.641373],"type":"Point"},"properties":{"osm_id":"3036527703","tag":{"amenity":"waste_basket"}},"type":"Feature"},
	{"geometry":{"coordinates":[9.207244,52.641749],"type":"Point"},"properties":{"osm_id":"3036527706","tag":{"amenity":"waste_basket"}},"type":"Feature"},
	{"geometry":{"coordinates":[9.207313,52.64187],"type":"Point"},"properties":{"osm_id":"3036527707","tag":{"amenity":"waste_basket"}},"type":"Feature"},
	{"geometry":{"coordinates":[9.207589,52.642213],"type":"Point"},"properties":{"osm_id":"3056782053","tag":{"amenity":"waste_basket"}},"type":"Feature"},
	{"geometry":{"coordinates":[9.207875,52.642306],"type":"Point"},"properties":{"osm_id":"3056782054","tag":{"amenity":"waste_basket"}},"type":"Feature"},
	{"geometry":{"coordinates":[9.203219,52.640803],"type":"Point"},"properties":{"osm_id":"3651162134","tag":{"amenity":"waste_basket"}},"type":"Feature"},
	{"geometry":{"coordinates":[9.203136,52.640977],"type":"Point"},"properties":{"osm_id":"3651162135","tag":{"amenity":"waste_basket"}},"type":"Feature"},
	{"geometry":{"coordinates":[9.20317,52.641014],"type":"Point"},"properties":{"osm_id":"3651162137","tag":{"amenity":"waste_basket"}},"type":"Feature"},
	{"geometry":{"coordinates":[9.203351,52.641283],"type":"Point"},"properties":{"osm_id":"3651162140","tag":{"amenity":"waste_basket"}},"type":"Feature"},
	{"geometry":{"coordinates":[9.203744,52.641426],"type":"Point"},"properties":{"osm_id":"3651162144","tag":{"amenity":"waste_basket"}},"type":"Feature"},
	{"geometry":{"coordinates":[9.203496,52.641929],"type":"Point"},"properties":{"osm_id":"3651162145","tag":{"amenity":"waste_basket"}},"type":"Feature"},
	{"geometry":{"coordinates":[9.204617,52.642241],"type":"Point"},"properties":{"osm_id":"3651162146","tag":{"amenity":"waste_basket"}},"type":"Feature"},
	{"geometry":{"coordinates":[9.203969,52.642345],"type":"Point"},"properties":{"osm_id":"3651162147","tag":{"amenity":"waste_basket"}},"type":"Feature"},
	{"geometry":{"coordinates":[9.204104,52.632745],"type":"Point"},"properties":{"osm_id":"3655106068","tag":{"amenity":"waste_basket"}},"type":"Feature"},
	{"geometry":{"coordinates":[9.213658,52.63012],"type":"Point"},"properties":{"osm_id":"3679391362","tag":{"amenity":"recycling","recycling:glas":"yes","recycling_type":"container"}},"type":"Feature"},
	{"geometry":{"coordinates":[9.209337,52.631575],"type":"Point"},"properties":{"name":"Altglascontainer","osm_id":"3679391364","tag":{"amenity":"recycling","recycling:glass_bottles":"yes","recycling_type":"container"}},"type":"Feature"},
	{"geometry":{"coordinates":[9.21333,52.63908],"type":"Point"},"properties":{"osm_id":"3798945246","tag":{"amenity":"waste_basket"}},"type":"Feature"},
	{"geometry":{"coordinates":[9.212859,52.638528],"type":"Point"},"properties":{"osm_id":"4034134106","tag":{"amenity":"waste_basket"}},"type":"Feature"},
	{"geometry":{"coordinates":[9.206282,52.636629],"type":"Point"},"properties":{"osm_id":"4062408245","tag":{"amenity":"waste_basket"}},"type":"Feature"},
	{"geometry":{"coordinates":[9.206668,52.636743],"type":"Point"},"properties":{"osm_id":"4062408249","tag":{"amenity":"waste_basket"}},"type":"Feature"},
	{"geometry":{"coordinates":[9.206923,52.636818],"type":"Point"},"properties":{"osm_id":"4062408250","tag":{"amenity":"waste_basket"}},"type":"Feature"},
	{"geometry":{"coordinates":[9.207268,52.636935],"type":"Point"},"properties":{"osm_id":"4062408252","tag":{"amenity":"waste_basket"}},"type":"Feature"},
	{"geometry":{"coordinates":[9.203605,52.637845],"type":"Point"},"properties":{"osm_id":"4062856028","tag":{"amenity":"waste_basket"}},"type":"Feature"},
	{"geometry":{"coordinates":[9.203371,52.638283],"type":"Point"},"properties":{"osm_id":"4062856029","tag":{"amenity":"waste_basket"}},"type":"Feature"},
	{"geometry":{"coordinates":[9.203116,52.638974],"type":"Point"},"properties":{"osm_id":"4062856031","tag":{"amenity":"waste_basket"}},"type":"Feature"},
	{"geometry":{"coordinates":[9.203042,52.639367],"type":"Point"},"properties":{"osm_id":"4062856032","tag":{"amenity":"waste_basket"}},"type":"Feature"},
	{"geometry":{"coordinates":[9.196848,52.637896],"type":"Point"},"properties":{"osm_id":"4218019024","tag":{"amenity":"waste_basket"}},"type":"Feature"},
	{"geometry":{"coordinates":[9.208745,52.638912],"type":"Point"},"properties":{"osm_id":"4319456959","tag":{"amenity":"waste_basket"}},"type":"Feature"},
	{"geometry":{"coordinates":[9.198311,52.642653],"type":"Point"},"properties":{"osm_id":"4897758332","tag":{"amenity":"waste_basket"}},"type":"Feature"},
	{"geometry":{"coordinates":[9.18247,52.638319],"type":"Point"},"properties":{"osm_id":"4897758341","tag":{"amenity":"waste_basket"}},"type":"Feature"},
	{"geometry":{"coordinates":[9.182333,52.638658],"type":"Point"},"properties":{"osm_id":"4897758342","tag":{"amenity":"waste_basket"}},"type":"Feature"},
	{"geometry":{"coordinates":[9.205927,52.638324],"type":"Point"},"properties":{"osm_id":"4908521761","tag":{"amenity":"waste_basket"}},"type":"Feature"},
	{"geometry":{"coordinates":[9.203872,52.637561],"type":"Point"},"properties":{"osm_id":"4908521816","tag":{"amenity":"waste_basket"}},"type":"Feature"},
	{"geometry":{"coordinates":[9.204004,52.637434],"type":"Point"},"properties":{"osm_id":"4908521818","tag":{"amenity":"waste_basket"}},"type":"Feature"},
	{"geometry":{"coordinates":[9.212648,52.638783],"type":"Point"},"properties":{"osm_id":"4908522256","tag":{"amenity":"waste_basket"}},"type":"Feature"},
	{"geometry":{"coordinates":[9.207576,52.625485],"type":"Point"},"properties":{"osm_id":"6419333977","tag":{"amenity":"waste_basket","waste":"trash"}},"type":"Feature"},
	{"geometry":{"coordinates":[9.226327,52.637299],"type":"Point"},"properties":{"osm_id":"6420268302","tag":{"amenity":"waste_basket","waste":"trash"}},"type":"Feature"},
	{"geometry":{"coordinates":[9.226329,52.637022],"type":"Point"},"properties":{"osm_id":"6420268303","tag":{"amenity":"waste_basket","waste":"trash"}},"type":"Feature"},
	{"geometry":{"coordinates":[9.206943,52.641364],"type":"Point"},"properties":{"osm_id":"6795161869","tag":{"amenity":"waste_basket"}},"type":"Feature"},
	{"geometry":{"coordinates":[9.207049,52.64134],"type":"Point"},"properties":{"osm_id":"6795161870","tag":{"amenity":"waste_basket"}},"type":"Feature"},
	{"geometry":{"coordinates":[9.20412,52.642227],"type":"Point"},"properties":{"osm_id":"6795246526","tag":{"amenity":"waste_basket"}},"type":"Feature"},
	{"geometry":{"coordinates":[9.206227,52.642987],"type":"Point"},"properties":{"osm_id":"6795654356","tag":{"amenity":"waste_basket"}},"type":"Feature"},
	{"geometry":{"coordinates":[9.207817,52.639721],"type":"Point"},"properties":{"osm_id":"6795820565","tag":{"amenity":"waste_basket"}},"type":"Feature"},
	{"geometry":{"coordinates":[9.211772,52.639754],"type":"Point"},"properties":{"osm_id":"6960691145","tag":{"amenity":"waste_basket"}},"type":"Feature"},
	{"geometry":{"coordinates":[9.212437,52.639222],"type":"Point"},"properties":{"osm_id":"6960691155","tag":{"amenity":"waste_basket"}},"type":"Feature"},
	{"geometry":{"coordinates":[9.212394,52.638676],"type":"Point"},"properties":{"osm_id":"6960691158","tag":{"amenity":"waste_basket"}},"type":"Feature"}
]
}
