{
"type": "FeatureCollection",
"features": [
	{"geometry":{"coordinates":[9.193997,50.920747],"type":"Point"},"properties":{"osm_id":"485269982","tag":{"amenity":"recycling","recycling:clothes":"yes","recycling:glass":"yes","recycling:paper":"no"}},"type":"Feature"},
	{"geometry":{"coordinates":[9.223375,50.925525],"type":"Point"},"properties":{"name":"Gr\u00c3\u00bcngutsammelstelle","osm_id":"503693429","tag":{"amenity":"recycling","recycling:green_waste":"yes"}},"type":"Feature"},
	{"geometry":{"coordinates":[9.201123,50.923636],"type":"Point"},"properties":{"osm_id":"548147016","tag":{"amenity":"recycling","recycling:clothes":"yes","recycling:glass":"yes","recycling_type":"container"}},"type":"Feature"},
	{"geometry":{"coordinates":[9.184367,50.915305],"type":"Point"},"properties":{"osm_id":"1605662330","tag":{"amenity":"recycling","mapillary":"xjCW5lY9yY5Cpl7MOJTcKg","recycling_type":"container","survey:date":"2019-07-31"}},"type":"Feature"},
	{"geometry":{"coordinates":[9.197731,50.909966],"type":"Point"},"properties":{"osm_id":"1605770474","tag":{"amenity":"recycling","recycling:clothes":"yes"}},"type":"Feature"},
	{"geometry":{"coordinates":[9.199831,50.910677],"type":"Point"},"properties":{"osm_id":"1605770480","tag":{"amenity":"recycling","recycling:glass_bottles":"yes","recycling_type":"container"}},"type":"Feature"},
	{"geometry":{"coordinates":[9.177584,50.911208],"type":"Point"},"properties":{"osm_id":"1710317847","tag":{"amenity":"recycling","recycling:clothes":"yes","recycling:glass_bottles":"yes","recycling:paper":"no","recycling_type":"container"}},"type":"Feature"},
	{"geometry":{"coordinates":[9.176864,50.912869],"type":"Point"},"properties":{"osm_id":"1882747836","tag":{"amenity":"recycling","recycling:clothes":"yes"}},"type":"Feature"},
	{"geometry":{"coordinates":[9.186309,50.911856],"type":"Point"},"properties":{"osm_id":"2119140559","tag":{"amenity":"waste_basket"}},"type":"Feature"},
	{"geometry":{"coordinates":[9.17265,50.905599],"type":"Point"},"properties":{"osm_id":"2126379566","tag":{"amenity":"waste_basket"}},"type":"Feature"},
	{"geometry":{"coordinates":[9.191171,50.906161],"type":"Point"},"properties":{"osm_id":"2150159235","tag":{"amenity":"recycling","recycling:clothes":"yes","recycling:glass":"yes"}},"type":"Feature"},
	{"geometry":{"coordinates":[9.191728,50.920119],"type":"Point"},"properties":{"osm_id":"3394630275","tag":{"amenity":"recycling"}},"type":"Feature"},
	{"geometry":{"coordinates":[9.192008,50.91198],"type":"Point"},"properties":{"osm_id":"3403692296","tag":{"amenity":"waste_basket"}},"type":"Feature"},
	{"geometry":{"coordinates":[9.192391,50.912186],"type":"Point"},"properties":{"osm_id":"3403692893","tag":{"amenity":"waste_basket"}},"type":"Feature"}
]
}
