{
"type": "FeatureCollection",
"features": [
	{"geometry":{"coordinates":[9.201491,50.783244],"type":"Point"},"properties":{"osm_id":"794891085","tag":{"amenity":"recycling","recycling:glass":"yes"}},"type":"Feature"},
	{"geometry":{"coordinates":[9.206421,50.761285],"type":"Point"},"properties":{"osm_id":"3984437086","tag":{"amenity":"recycling","recycling:glass":"yes","recycling_type":"container"}},"type":"Feature"},
	{"geometry":{"coordinates":[9.206482,50.761322],"type":"Point"},"properties":{"osm_id":"3984437088","tag":{"amenity":"recycling","recycling:clothes":"yes","recycling_type":"container"}},"type":"Feature"},
	{"geometry":{"coordinates":[9.173595,50.769101],"type":"Point"},"properties":{"osm_id":"5905533753","tag":{"amenity":"recycling","recycling:clothes":"yes","recycling_type":"container"}},"type":"Feature"},
	{"geometry":{"coordinates":[9.173613,50.769088],"type":"Point"},"properties":{"osm_id":"5905533754","tag":{"amenity":"recycling","recycling:glass_bottles":"yes","recycling_type":"container"}},"type":"Feature"},
	{"geometry":{"coordinates":[9.201524,50.75325],"type":"Point"},"properties":{"barrier":"gate","osm_id":"6356106049"},"type":"Feature"},
	{"geometry":{"coordinates":[9.207811,50.761353],"type":"Point"},"properties":{"osm_id":"8317948414","tag":{"amenity":"waste_basket","waste":"dog_excrement"}},"type":"Feature"},
	{"geometry":{"coordinates":[9.208794,50.775212],"type":"Point"},"properties":{"osm_id":"8442534423","tag":{"amenity":"waste_basket"}},"type":"Feature"},
	{"geometry":{"coordinates":[9.203086,50.773594],"type":"Point"},"properties":{"osm_id":"8442535067","tag":{"amenity":"waste_basket"}},"type":"Feature"},
	{"geometry":{"coordinates":[9.205691,50.774573],"type":"Point"},"properties":{"osm_id":"8442535177","tag":{"amenity":"waste_basket"}},"type":"Feature"},
	{"geometry":{"coordinates":[9.210071,50.772311],"type":"Point"},"properties":{"osm_id":"8442570320","tag":{"amenity":"waste_basket"}},"type":"Feature"},
	{"geometry":{"coordinates":[9.209981,50.771278],"type":"Point"},"properties":{"osm_id":"8442580725","tag":{"amenity":"waste_basket"}},"type":"Feature"},
	{"geometry":{"coordinates":[9.211814,50.769763],"type":"Point"},"properties":{"osm_id":"8442588329","tag":{"amenity":"waste_basket"}},"type":"Feature"},
	{"geometry":{"coordinates":[9.210953,50.767751],"type":"Point"},"properties":{"osm_id":"8442589016","tag":{"amenity":"waste_basket"}},"type":"Feature"},
	{"geometry":{"coordinates":[9.207944,50.768827],"type":"Point"},"properties":{"osm_id":"8442594581","tag":{"amenity":"waste_basket"}},"type":"Feature"},
	{"geometry":{"coordinates":[9.203048,50.770439],"type":"Point"},"properties":{"osm_id":"8442687910","tag":{"amenity":"waste_basket"}},"type":"Feature"}
]
}
