{
"type": "FeatureCollection",
"features": [
	{"geometry":{"coordinates":[9.226163,49.90109],"type":"Point"},"properties":{"osm_id":"267467210","tag":{"amenity":"recycling","recycling:clothes":"yes","recycling:shoes":"yes"}},"type":"Feature"},
	{"geometry":{"coordinates":[9.150099,49.924812],"type":"Point"},"properties":{"osm_id":"348089761","tag":{"amenity":"recycling","recycling:cans":"yes","recycling:glass":"yes"}},"type":"Feature"},
	{"geometry":{"coordinates":[9.14361,49.936251],"type":"Point"},"properties":{"osm_id":"599216679","tag":{"amenity":"recycling","recycling:cans":"yes","recycling:glass":"yes"}},"type":"Feature"},
	{"geometry":{"coordinates":[9.209542,49.947198],"type":"Point"},"properties":{"osm_id":"1585014160","tag":{"amenity":"recycling","recycling:cans":"yes","recycling:glass_bottles":"yes","recycling_type":"container"}},"type":"Feature"},
	{"geometry":{"coordinates":[9.184774,49.896495],"type":"Point"},"properties":{"osm_id":"2397315477","tag":{"amenity":"recycling","recycling:glass":"yes"}},"type":"Feature"},
	{"geometry":{"coordinates":[9.171481,49.944159],"type":"Point"},"properties":{"osm_id":"2924735308","tag":{"amenity":"recycling","recycling:cans":"yes","recycling:clothes":"no","recycling:glass_bottles":"yes","recycling:paper":"no","recycling_type":"container"}},"type":"Feature"},
	{"geometry":{"coordinates":[9.180472,49.898712],"type":"Point"},"properties":{"osm_id":"3022453347","tag":{"amenity":"waste_basket"}},"type":"Feature"},
	{"geometry":{"coordinates":[9.173763,49.905434],"type":"Point"},"properties":{"osm_id":"3022453348","tag":{"amenity":"waste_basket"}},"type":"Feature"},
	{"geometry":{"coordinates":[9.169436,49.912485],"type":"Point"},"properties":{"osm_id":"3060003226","tag":{"amenity":"recycling","recycling:clothes":"yes","recycling:electronics":"yes","recycling:glass":"yes","recycling_type":"container"}},"type":"Feature"},
	{"geometry":{"coordinates":[9.218513,49.935756],"type":"Point"},"properties":{"osm_id":"3413109004","tag":{"amenity":"waste_basket"}},"type":"Feature"},
	{"geometry":{"coordinates":[9.216022,49.925808],"type":"Point"},"properties":{"osm_id":"3622347888","tag":{"amenity":"recycling"}},"type":"Feature"},
	{"geometry":{"coordinates":[9.184568,49.912452],"type":"Point"},"properties":{"osm_id":"4294230704","tag":{"amenity":"waste_basket"}},"type":"Feature"},
	{"geometry":{"coordinates":[9.173841,49.909592],"type":"Point"},"properties":{"osm_id":"4294230762","tag":{"amenity":"waste_basket"}},"type":"Feature"},
	{"geometry":{"coordinates":[9.184409,49.916167],"type":"Point"},"properties":{"osm_id":"4352436263","tag":{"amenity":"waste_basket"}},"type":"Feature"},
	{"geometry":{"coordinates":[9.14663,49.917872],"type":"Point"},"properties":{"osm_id":"4527850462","tag":{"amenity":"waste_basket"}},"type":"Feature"},
	{"geometry":{"coordinates":[9.200622,49.904833],"type":"Point"},"properties":{"osm_id":"4705462669","tag":{"amenity":"recycling","recycling:clothes":"yes","recycling:glass":"yes"}},"type":"Feature"},
	{"geometry":{"coordinates":[9.15966,49.906953],"type":"Point"},"properties":{"osm_id":"4726261859","tag":{"amenity":"recycling"}},"type":"Feature"},
	{"geometry":{"coordinates":[9.159194,49.897952],"type":"Point"},"properties":{"osm_id":"4726370190","tag":{"amenity":"waste_basket"}},"type":"Feature"},
	{"geometry":{"coordinates":[9.225916,49.944606],"type":"Point"},"properties":{"osm_id":"4783215631","tag":{"amenity":"recycling"}},"type":"Feature"},
	{"geometry":{"coordinates":[9.211889,49.913784],"type":"Point"},"properties":{"osm_id":"4818620308","tag":{"amenity":"waste_basket"}},"type":"Feature"},
	{"geometry":{"coordinates":[9.227468,49.905221],"type":"Point"},"properties":{"osm_id":"4838737296","tag":{"amenity":"waste_basket"}},"type":"Feature"},
	{"geometry":{"coordinates":[9.19352,49.909458],"type":"Point"},"properties":{"osm_id":"4874249876","tag":{"amenity":"waste_basket"}},"type":"Feature"},
	{"geometry":{"coordinates":[9.148491,49.915456],"type":"Point"},"properties":{"osm_id":"4875736768","tag":{"amenity":"waste_basket"}},"type":"Feature"},
	{"geometry":{"coordinates":[9.148965,49.915202],"type":"Point"},"properties":{"osm_id":"4875736769","tag":{"amenity":"waste_basket"}},"type":"Feature"},
	{"geometry":{"coordinates":[9.208756,49.908124],"type":"Point"},"properties":{"osm_id":"4876740567","tag":{"amenity":"waste_basket"}},"type":"Feature"},
	{"geometry":{"coordinates":[9.214458,49.9039],"type":"Point"},"properties":{"osm_id":"4876740630","tag":{"amenity":"waste_basket"}},"type":"Feature"},
	{"geometry":{"coordinates":[9.163965,49.917499],"type":"Point"},"properties":{"osm_id":"5330042715","tag":{"amenity":"recycling","recycling:clothes":"yes","recycling:glass":"yes","recycling_type":"container"}},"type":"Feature"},
	{"geometry":{"coordinates":[9.196878,49.906783],"type":"Point"},"properties":{"osm_id":"5537155142","tag":{"amenity":"recycling","recycling:clothes":"yes","recycling:glass":"yes","recycling_type":"container"}},"type":"Feature"},
	{"geometry":{"coordinates":[9.167369,49.918966],"type":"Point"},"properties":{"osm_id":"5590552384","tag":{"amenity":"waste_basket"}},"type":"Feature"},
	{"geometry":{"coordinates":[9.198165,49.909769],"type":"Point"},"properties":{"osm_id":"5604317392","tag":{"amenity":"waste_basket"}},"type":"Feature"},
	{"geometry":{"coordinates":[9.207358,49.906969],"type":"Point"},"properties":{"osm_id":"5604317393","tag":{"amenity":"waste_basket"}},"type":"Feature"},
	{"geometry":{"coordinates":[9.200053,49.90829],"type":"Point"},"properties":{"osm_id":"5604317398","tag":{"amenity":"waste_basket"}},"type":"Feature"},
	{"geometry":{"coordinates":[9.189752,49.910558],"type":"Point"},"properties":{"osm_id":"5614036831","tag":{"amenity":"waste_basket"}},"type":"Feature"},
	{"geometry":{"coordinates":[9.218386,49.935494],"type":"Point"},"properties":{"osm_id":"5614036843","tag":{"amenity":"waste_basket"}},"type":"Feature"},
	{"geometry":{"coordinates":[9.151423,49.910559],"type":"Point"},"properties":{"osm_id":"5779249534","tag":{"amenity":"waste_basket"}},"type":"Feature"},
	{"geometry":{"coordinates":[9.147253,49.914751],"type":"Point"},"properties":{"osm_id":"5779249672","tag":{"amenity":"waste_basket"}},"type":"Feature"},
	{"geometry":{"coordinates":[9.154628,49.908629],"type":"Point"},"properties":{"osm_id":"5779605158","tag":{"amenity":"waste_basket"}},"type":"Feature"},
	{"geometry":{"coordinates":[9.147181,49.896974],"type":"Point"},"properties":{"osm_id":"5873103981","tag":{"amenity":"waste_basket"}},"type":"Feature"},
	{"geometry":{"coordinates":[9.15188,49.918927],"type":"Point"},"properties":{"osm_id":"6239562574","tag":{"amenity":"recycling","recycling:clothes":"yes","recycling:glass":"yes","recycling:shoes":"yes","recycling_type":"container"}},"type":"Feature"},
	{"geometry":{"coordinates":[9.150758,49.920799],"type":"Point"},"properties":{"osm_id":"6239562575","tag":{"amenity":"recycling","recycling:clothes":"yes","recycling_type":"container"}},"type":"Feature"},
	{"geometry":{"coordinates":[9.207124,49.908905],"type":"Point"},"properties":{"osm_id":"7035858976","tag":{"amenity":"waste_basket"}},"type":"Feature"},
	{"geometry":{"coordinates":[9.156336,49.909338],"type":"Point"},"properties":{"osm_id":"7036343877","tag":{"amenity":"waste_basket"}},"type":"Feature"},
	{"geometry":{"coordinates":[9.18334,49.900082],"type":"Point"},"properties":{"osm_id":"7617772642","tag":{"amenity":"waste_basket","material":"wood","waste":"trash"}},"type":"Feature"},
	{"geometry":{"coordinates":[9.165123,49.913189],"type":"Point"},"properties":{"osm_id":"7640695627","tag":{"amenity":"recycling","recycling:glass_bottles":"yes","recycling_type":"container"}},"type":"Feature"},
	{"geometry":{"coordinates":[9.201878,49.903128],"type":"Point"},"properties":{"osm_id":"7692466224","tag":{"amenity":"waste_basket"}},"type":"Feature"}
]
}
