{
"type": "FeatureCollection",
"features": [
	{"geometry":{"coordinates":[9.158439,49.84096],"type":"Point"},"properties":{"osm_id":"255313507","tag":{"amenity":"recycling","recycling:glass_bottles":"yes"}},"type":"Feature"},
	{"geometry":{"coordinates":[9.163069,49.8736],"type":"Point"},"properties":{"osm_id":"258936392","tag":{"amenity":"recycling","recycling:clothes":"yes","recycling:glass_bottles":"yes","recycling:shoes":"yes"}},"type":"Feature"},
	{"geometry":{"coordinates":[9.155503,49.841166],"type":"Point"},"properties":{"osm_id":"267084361","tag":{"amenity":"recycling","operator":"Baliz","recycling:clothes":"yes","recycling:shoes":"yes","recycling_type":"container"}},"type":"Feature"},
	{"geometry":{"coordinates":[9.146112,49.838958],"type":"Point"},"properties":{"osm_id":"280858442","tag":{"amenity":"recycling","recycling:clothes":"yes","recycling:clothes:operator":"Kolping","recycling:glass_bottles":"yes","recycling_type":"container"}},"type":"Feature"},
	{"geometry":{"coordinates":[9.147448,49.845777],"type":"Point"},"properties":{"osm_id":"280858565","tag":{"amenity":"recycling","recycling:clothes":"yes","recycling:glass_bottles":"yes","recycling:shoes":"yes","recycling_type":"container"}},"type":"Feature"},
	{"geometry":{"coordinates":[9.151873,49.850378],"type":"Point"},"properties":{"osm_id":"280858679","tag":{"amenity":"recycling","recycling:clothes":"yes"}},"type":"Feature"},
	{"geometry":{"coordinates":[9.150581,49.849238],"type":"Point"},"properties":{"osm_id":"280858707","tag":{"amenity":"recycling","recycling:glass_bottles":"yes","recycling_type":"container"}},"type":"Feature"},
	{"geometry":{"coordinates":[9.149533,49.845023],"type":"Point"},"properties":{"osm_id":"280885124","tag":{"amenity":"recycling","operator":"Bayerisches Rotes Kreuz","recycling:clothes":"yes","recycling:shoes":"yes","recycling_type":"container"}},"type":"Feature"},
	{"geometry":{"coordinates":[9.161441,49.842795],"type":"Point"},"properties":{"osm_id":"303202751","tag":{"amenity":"recycling","recycling:glass_bottles":"yes","recycling_type":"container"}},"type":"Feature"},
	{"geometry":{"coordinates":[9.156967,49.842845],"type":"Point"},"properties":{"osm_id":"303202766","tag":{"amenity":"recycling","recycling:clothes":"yes","recycling:glass":"no","recycling:glass_bottles":"yes","recycling:shoes":"yes","recycling_type":"container"}},"type":"Feature"},
	{"geometry":{"coordinates":[9.160449,49.847224],"type":"Point"},"properties":{"osm_id":"360877115","tag":{"amenity":"recycling"}},"type":"Feature"},
	{"geometry":{"coordinates":[9.170637,49.845849],"type":"Point"},"properties":{"osm_id":"395252908","tag":{"amenity":"recycling","recycling:glass_bottles":"yes","recycling_type":"container"}},"type":"Feature"},
	{"geometry":{"coordinates":[9.154759,49.839136],"type":"Point"},"properties":{"osm_id":"558640913","tag":{"amenity":"recycling","recycling:glass":"no","recycling:glass_bottles":"yes","recycling_type":"container"}},"type":"Feature"},
	{"geometry":{"coordinates":[9.164603,49.845855],"type":"Point"},"properties":{"osm_id":"749652595","tag":{"amenity":"recycling","recycling:glass_bottles":"yes","recycling_type":"container"}},"type":"Feature"},
	{"geometry":{"coordinates":[9.161307,49.846179],"type":"Point"},"properties":{"osm_id":"749652626","tag":{"amenity":"waste_basket"}},"type":"Feature"},
	{"geometry":{"coordinates":[9.168364,49.877694],"type":"Point"},"properties":{"osm_id":"759764334","tag":{"amenity":"recycling"}},"type":"Feature"},
	{"geometry":{"coordinates":[9.150404,49.840622],"type":"Point"},"properties":{"osm_id":"1551775328","tag":{"amenity":"waste_basket"}},"type":"Feature"},
	{"geometry":{"coordinates":[9.150584,49.841093],"type":"Point"},"properties":{"osm_id":"1551775330","tag":{"amenity":"waste_basket"}},"type":"Feature"},
	{"geometry":{"coordinates":[9.148517,49.877797],"type":"Point"},"properties":{"osm_id":"3021034470","tag":{"amenity":"recycling","recycling:glass":"yes"}},"type":"Feature"},
	{"geometry":{"coordinates":[9.154189,49.840267],"type":"Point"},"properties":{"osm_id":"3154353803","tag":{"amenity":"waste_basket","level":"-1"}},"type":"Feature"},
	{"geometry":{"coordinates":[9.154491,49.840477],"type":"Point"},"properties":{"osm_id":"3154353807","tag":{"amenity":"waste_basket"}},"type":"Feature"},
	{"geometry":{"coordinates":[9.154678,49.840738],"type":"Point"},"properties":{"osm_id":"3154353814","tag":{"amenity":"waste_basket"}},"type":"Feature"},
	{"geometry":{"coordinates":[9.174147,49.871291],"type":"Point"},"properties":{"osm_id":"4281885830","tag":{"amenity":"recycling"}},"type":"Feature"},
	{"geometry":{"coordinates":[9.17128,49.866008],"type":"Point"},"properties":{"osm_id":"4343463470","tag":{"amenity":"recycling","recycling:glass":"yes","recycling:glass_bottles":"yes","recycling_type":"container"}},"type":"Feature"},
	{"geometry":{"coordinates":[9.16788,49.869972],"type":"Point"},"properties":{"osm_id":"4343463471","tag":{"amenity":"recycling"}},"type":"Feature"},
	{"geometry":{"coordinates":[9.173644,49.873102],"type":"Point"},"properties":{"osm_id":"4353241234","tag":{"amenity":"recycling"}},"type":"Feature"},
	{"geometry":{"coordinates":[9.150645,49.894613],"type":"Point"},"properties":{"osm_id":"4512433075","tag":{"amenity":"waste_basket"}},"type":"Feature"},
	{"geometry":{"coordinates":[9.15078,49.894543],"type":"Point"},"properties":{"osm_id":"4512433076","tag":{"amenity":"waste_basket"}},"type":"Feature"},
	{"geometry":{"coordinates":[9.151542,49.894084],"type":"Point"},"properties":{"osm_id":"4512433077","tag":{"amenity":"waste_basket"}},"type":"Feature"},
	{"geometry":{"coordinates":[9.216001,49.88375],"type":"Point"},"properties":{"osm_id":"4730763039","tag":{"amenity":"waste_basket"}},"type":"Feature"},
	{"geometry":{"coordinates":[9.203773,49.880152],"type":"Point"},"properties":{"osm_id":"4730763066","tag":{"amenity":"waste_basket"}},"type":"Feature"},
	{"geometry":{"coordinates":[9.147289,49.84178],"type":"Point"},"properties":{"osm_id":"4891776096","tag":{"amenity":"waste_basket"}},"type":"Feature"},
	{"geometry":{"coordinates":[9.220563,49.870634],"type":"Point"},"properties":{"osm_id":"4935415084","tag":{"amenity":"recycling","recycling:glass_bottles":"yes"}},"type":"Feature"},
	{"geometry":{"coordinates":[9.222191,49.874616],"type":"Point"},"properties":{"osm_id":"4935427930","tag":{"amenity":"waste_basket"}},"type":"Feature"},
	{"geometry":{"coordinates":[9.224522,49.878703],"type":"Point"},"properties":{"name":"Schredderplatz Hausen","osm_id":"4935427934","tag":{"amenity":"recycling","recycling:green_waste":"yes"}},"type":"Feature"},
	{"geometry":{"coordinates":[9.145605,49.841925],"type":"Point"},"properties":{"osm_id":"5498698182","tag":{"amenity":"waste_basket"}},"type":"Feature"},
	{"geometry":{"coordinates":[9.146932,49.847298],"type":"Point"},"properties":{"osm_id":"5498698195","tag":{"amenity":"waste_basket"}},"type":"Feature"},
	{"geometry":{"coordinates":[9.224761,49.878283],"type":"Point"},"properties":{"name":"Schredderplatz Hausen","osm_id":"5713035307","tag":{"amenity":"recycling","recycling:green_waste":"yes"}},"type":"Feature"},
	{"geometry":{"coordinates":[9.208278,49.865887],"type":"Point"},"properties":{"osm_id":"5779362198","tag":{"amenity":"recycling","recycling:clothes":"yes","recycling:glass":"yes","recycling:glass_bottles":"yes","recycling_type":"container"}},"type":"Feature"},
	{"geometry":{"coordinates":[9.208321,49.866269],"type":"Point"},"properties":{"osm_id":"5782253549","tag":{"amenity":"waste_basket"}},"type":"Feature"},
	{"geometry":{"coordinates":[9.203831,49.860138],"type":"Point"},"properties":{"osm_id":"5784621367","tag":{"amenity":"waste_basket"}},"type":"Feature"},
	{"geometry":{"coordinates":[9.202426,49.859738],"type":"Point"},"properties":{"osm_id":"5784688598","tag":{"amenity":"recycling","recycling:batteries":"yes","recycling_type":"container"}},"type":"Feature"},
	{"geometry":{"coordinates":[9.162474,49.880209],"type":"Point"},"properties":{"osm_id":"5916059286","tag":{"amenity":"waste_basket"}},"type":"Feature"},
	{"geometry":{"coordinates":[9.16406,49.851107],"type":"Point"},"properties":{"osm_id":"6270137870","tag":{"amenity":"recycling","recycling:glass_bottles":"yes","recycling_type":"container"}},"type":"Feature"},
	{"geometry":{"coordinates":[9.164143,49.851503],"type":"Point"},"properties":{"osm_id":"6270137871","tag":{"amenity":"recycling","recycling:clothes":"yes","recycling:clothes:operator":"Kolping;Baliz","recycling:small_appliances":"yes","recycling_type":"container"}},"type":"Feature"},
	{"geometry":{"coordinates":[9.164723,49.871572],"type":"Point"},"properties":{"osm_id":"6436874182","tag":{"amenity":"recycling","recycling:clothes":"yes","recycling:clothes:operator":"Aktion Hoffnung","recycling:shoes":"yes","recycling_type":"container"}},"type":"Feature"},
	{"geometry":{"coordinates":[9.20292,49.876789],"type":"Point"},"properties":{"osm_id":"6680055548","tag":{"amenity":"waste_basket"}},"type":"Feature"},
	{"geometry":{"coordinates":[9.148758,49.845197],"type":"Point"},"properties":{"osm_id":"6712072145","tag":{"amenity":"recycling","operator":"Bayerisches Rotes Kreuz","recycling:clothes":"yes","recycling_type":"container"}},"type":"Feature"},
	{"geometry":{"coordinates":[9.148508,49.842962],"type":"Point"},"properties":{"osm_id":"7431326951","tag":{"amenity":"waste_basket"}},"type":"Feature"},
	{"geometry":{"coordinates":[9.18632,49.882215],"type":"Point"},"properties":{"osm_id":"7578088816","tag":{"amenity":"waste_basket"}},"type":"Feature"},
	{"geometry":{"coordinates":[9.16123,49.856698],"type":"Point"},"properties":{"osm_id":"7703077093","tag":{"amenity":"waste_basket","material":"metall","waste":"trash"}},"type":"Feature"}
]
}
