{
"type": "FeatureCollection",
"features": [
	{"geometry":{"coordinates":[9.180504,49.783715],"type":"Point"},"properties":{"osm_id":"248305608","tag":{"amenity":"recycling","location":"overground","recycling:glass_bottles":"yes","recycling_type":"container"}},"type":"Feature"},
	{"geometry":{"coordinates":[9.154852,49.791638],"type":"Point"},"properties":{"osm_id":"248882011","tag":{"amenity":"recycling","opening_hours":"07:00-20:00","recycling:glass_bottles":"yes","recycling_type":"container"}},"type":"Feature"},
	{"geometry":{"coordinates":[9.157924,49.80721],"type":"Point"},"properties":{"osm_id":"255152001","tag":{"amenity":"recycling","location":"overground","recycling:clothes":"yes","recycling:glass_bottles":"yes","recycling:shoes":"yes","recycling_type":"container"}},"type":"Feature"},
	{"geometry":{"coordinates":[9.155188,49.804917],"type":"Point"},"properties":{"osm_id":"255264711","tag":{"amenity":"recycling","location":"overground","recycling:clothes":"yes","recycling:glass_bottles":"yes","recycling:shoes":"yes","recycling_type":"container"}},"type":"Feature"},
	{"geometry":{"coordinates":[9.162512,49.799624],"type":"Point"},"properties":{"osm_id":"255300719","tag":{"amenity":"recycling","location":"overground","recycling:glass_bottles":"yes","recycling_type":"container"}},"type":"Feature"},
	{"geometry":{"coordinates":[9.158084,49.810938],"type":"Point"},"properties":{"osm_id":"264058884","tag":{"amenity":"recycling","location":"overground","recycling:clothes":"yes","recycling:glass_bottles":"yes","recycling:shoes":"yes","recycling_type":"container"}},"type":"Feature"},
	{"geometry":{"coordinates":[9.167904,49.806705],"type":"Point"},"properties":{"osm_id":"264065039","tag":{"amenity":"recycling","recycling:glass_bottles":"yes"}},"type":"Feature"},
	{"geometry":{"coordinates":[9.168828,49.808565],"type":"Point"},"properties":{"osm_id":"264065156","tag":{"amenity":"recycling","recycling:glass_bottles":"yes"}},"type":"Feature"},
	{"geometry":{"coordinates":[9.168087,49.805029],"type":"Point"},"properties":{"osm_id":"264065158","tag":{"amenity":"recycling","recycling:clothes":"yes","recycling:shoes":"yes"}},"type":"Feature"},
	{"geometry":{"coordinates":[9.151007,49.792986],"type":"Point"},"properties":{"osm_id":"275282046","tag":{"amenity":"recycling","recycling:clothes":"yes","recycling:shoes":"yes","recycling_type":"container"}},"type":"Feature"},
	{"geometry":{"coordinates":[9.159398,49.787234],"type":"Point"},"properties":{"osm_id":"275282118","tag":{"amenity":"recycling","opening_hours":"Mo-Sa 07:00-20:00; PH off","recycling:glass_bottles":"yes","recycling_type":"container"}},"type":"Feature"},
	{"geometry":{"coordinates":[9.164507,49.793431],"type":"Point"},"properties":{"osm_id":"280357227","tag":{"amenity":"recycling","opening_hours":"Mo-Sa 08:00-20:00","recycling:glass":"no","recycling:glass_bottles":"yes","recycling_type":"container"}},"type":"Feature"},
	{"geometry":{"coordinates":[9.141496,49.837085],"type":"Point"},"properties":{"osm_id":"307838311","tag":{"amenity":"recycling","recycling:clothes":"yes","recycling:glass_bottles":"yes","recycling:shoes":"yes","recycling_type":"container"}},"type":"Feature"},
	{"geometry":{"coordinates":[9.14809,49.797937],"type":"Point"},"properties":{"osm_id":"309736643","tag":{"amenity":"recycling","opening_hours":"Mo-Sa 07:00-20:00","recycling:glass_bottles":"yes","recycling:shoes":"yes","recycling_type":"container"}},"type":"Feature"},
	{"geometry":{"coordinates":[9.162382,49.794437],"type":"Point"},"properties":{"osm_id":"310432357","tag":{"amenity":"waste_basket"}},"type":"Feature"},
	{"geometry":{"coordinates":[9.145311,49.809262],"type":"Point"},"properties":{"osm_id":"315288803","tag":{"amenity":"recycling","recycling:clothes":"yes","recycling:shoes":"yes"}},"type":"Feature"},
	{"geometry":{"coordinates":[9.142759,49.808349],"type":"Point"},"properties":{"osm_id":"315288848","tag":{"amenity":"recycling","recycling:clothes":"yes"}},"type":"Feature"},
	{"geometry":{"coordinates":[9.149756,49.80867],"type":"Point"},"properties":{"osm_id":"315288910","tag":{"amenity":"recycling","recycling:clothes":"yes"}},"type":"Feature"},
	{"geometry":{"coordinates":[9.147813,49.811247],"type":"Point"},"properties":{"osm_id":"315288946","tag":{"amenity":"recycling","recycling:glass":"no","recycling:glass_bottles":"yes","recycling_type":"container"}},"type":"Feature"},
	{"geometry":{"coordinates":[9.153687,49.823228],"type":"Point"},"properties":{"name":"M\u00c3\u00bcll-Umladestation Erlenbach","osm_id":"338636073","tag":{"addr:housenumber":"2","addr:street":"S\u00c3\u00bcdstra\u00c3\u009fe","amenity":"recycling","contact:email":"abfallwirtschaft@lra-mil.de","contact:fax":"+49 6022 614368","contact:phone":"+49 6022 614367","opening_hours":"Mo-Fr 08:00-16:00; Sa 08:00-14:00","opening_hours:url":"http://www.landkreis-miltenberg.de/Natur-Umwelt/Abfallwirtschaft/Einrichtungen/MuellumladestationErlenbach.aspx","recycling_type":"centre"}},"type":"Feature"},
	{"geometry":{"coordinates":[9.20824,49.829543],"type":"Point"},"properties":{"osm_id":"368066388","tag":{"amenity":"recycling","recycling:clothes":"yes","recycling:glass":"yes","recycling_type":"container"}},"type":"Feature"},
	{"geometry":{"coordinates":[9.157788,49.80536],"type":"Point"},"properties":{"osm_id":"429942100","tag":{"amenity":"recycling","location":"overground","recycling:clothes":"yes","recycling:shoes":"yes","recycling_type":"container"}},"type":"Feature"},
	{"geometry":{"coordinates":[9.167783,49.801107],"type":"Point"},"properties":{"osm_id":"429967965","tag":{"amenity":"recycling","location":"overground","recycling:clothes":"yes","recycling:glass_bottles":"yes","recycling:shoes":"yes","recycling_type":"container"}},"type":"Feature"},
	{"geometry":{"coordinates":[9.166659,49.787194],"type":"Point"},"properties":{"osm_id":"677534159","tag":{"amenity":"waste_basket"}},"type":"Feature"},
	{"geometry":{"coordinates":[9.201235,49.830297],"type":"Point"},"properties":{"osm_id":"1241740040","tag":{"amenity":"recycling","recycling:clothes":"yes","recycling:glass":"yes","recycling_type":"container"}},"type":"Feature"},
	{"geometry":{"coordinates":[9.166158,49.789585],"type":"Point"},"properties":{"osm_id":"2269946160","tag":{"amenity":"recycling","recycling:clothes":"yes","recycling_type":"container"}},"type":"Feature"},
	{"geometry":{"coordinates":[9.164663,49.790142],"type":"Point"},"properties":{"osm_id":"2269946166","tag":{"amenity":"recycling","recycling:glass":"no","recycling:glass_bottles":"yes","recycling_type":"container"}},"type":"Feature"},
	{"geometry":{"coordinates":[9.18102,49.782703],"type":"Point"},"properties":{"osm_id":"2496243048","tag":{"amenity":"waste_basket"}},"type":"Feature"},
	{"geometry":{"coordinates":[9.15931,49.835091],"type":"Point"},"properties":{"osm_id":"2633076761","tag":{"amenity":"recycling","recycling:clothes":"yes","recycling:clothes:operator":"Bayerisches Rotes Kreuz","recycling:glass":"no","recycling:glass_bottles":"yes","recycling:small_appliances":"yes","recycling_type":"container"}},"type":"Feature"},
	{"geometry":{"coordinates":[9.159192,49.821846],"type":"Point"},"properties":{"name":"Gr\u00c3\u00bcnabfallsammelplatz f\u00c3\u00bcr die Gemeinden Elsenfeld, Erlenbach und Obernburg","osm_id":"3617890192","tag":{"amenity":"recycling","opening_hours":"Mo,Th 13:00-18:00; Fr 08:00-18:00; Sa 08:00-14:00","opening_hours:url":"http://www.landkreis-miltenberg.de/Energie,Natur-Umwelt/Abfallwirtschaft/Einrichtungen/MuellumladestationErlenbach.aspx","operator":"Landkreis Miltenberg","recycling:cans":"no","recycling:clothes":"no","recycling:glass":"no","recycling:paper":"no","recycling_type":"centre"}},"type":"Feature"},
	{"geometry":{"coordinates":[9.166385,49.837485],"type":"Point"},"properties":{"osm_id":"3623133220","tag":{"amenity":"recycling","recycling:glass_bottles":"yes","recycling_type":"container"}},"type":"Feature"},
	{"geometry":{"coordinates":[9.163381,49.786936],"type":"Point"},"properties":{"osm_id":"3632514813","tag":{"amenity":"waste_basket"}},"type":"Feature"},
	{"geometry":{"coordinates":[9.156348,49.782418],"type":"Point"},"properties":{"osm_id":"3632522036","tag":{"amenity":"waste_basket"}},"type":"Feature"},
	{"geometry":{"coordinates":[9.179749,49.782493],"type":"Point"},"properties":{"osm_id":"3901168312","tag":{"amenity":"waste_basket"}},"type":"Feature"},
	{"geometry":{"coordinates":[9.170824,49.787177],"type":"Point"},"properties":{"highway":"street_lamp","osm_id":"4388079062","tag":{"amenity":"waste_basket"}},"type":"Feature"},
	{"geometry":{"coordinates":[9.143495,49.798641],"type":"Point"},"properties":{"barrier":"gate","osm_id":"4805520132"},"type":"Feature"},
	{"geometry":{"coordinates":[9.180896,49.781462],"type":"Point"},"properties":{"osm_id":"5176481630","tag":{"amenity":"waste_basket"}},"type":"Feature"},
	{"geometry":{"coordinates":[9.183147,49.783734],"type":"Point"},"properties":{"osm_id":"5518578510","tag":{"amenity":"waste_basket"}},"type":"Feature"},
	{"geometry":{"coordinates":[9.155222,49.794518],"type":"Point"},"properties":{"osm_id":"5577880690","tag":{"amenity":"recycling","opening_hours":"Mo-Sa 07:00-20:00; PH off","recycling:glass_bottles":"yes","recycling:small_appliances":"yes","recycling_type":"container"}},"type":"Feature"},
	{"geometry":{"coordinates":[9.159366,49.793002],"type":"Point"},"properties":{"osm_id":"5637083554","tag":{"amenity":"waste_basket"}},"type":"Feature"},
	{"geometry":{"coordinates":[9.146854,49.796444],"type":"Point"},"properties":{"osm_id":"5781492278","tag":{"amenity":"waste_basket"}},"type":"Feature"},
	{"geometry":{"coordinates":[9.155276,49.798858],"type":"Point"},"properties":{"osm_id":"5781572658","tag":{"amenity":"waste_basket"}},"type":"Feature"},
	{"geometry":{"coordinates":[9.151419,49.794552],"type":"Point"},"properties":{"osm_id":"5783324506","tag":{"amenity":"waste_basket"}},"type":"Feature"},
	{"geometry":{"coordinates":[9.154609,49.792904],"type":"Point"},"properties":{"osm_id":"5789503019","tag":{"amenity":"waste_basket"}},"type":"Feature"},
	{"geometry":{"coordinates":[9.152563,49.792482],"type":"Point"},"properties":{"osm_id":"5789503038","tag":{"amenity":"waste_basket"}},"type":"Feature"},
	{"geometry":{"coordinates":[9.149678,49.79911],"type":"Point"},"properties":{"osm_id":"5792639813","tag":{"amenity":"waste_basket"}},"type":"Feature"},
	{"geometry":{"coordinates":[9.14167,49.836889],"type":"Point"},"properties":{"osm_id":"5795628119","tag":{"amenity":"waste_basket"}},"type":"Feature"},
	{"geometry":{"coordinates":[9.154222,49.78765],"type":"Point"},"properties":{"osm_id":"5858830105","tag":{"amenity":"waste_basket"}},"type":"Feature"},
	{"geometry":{"coordinates":[9.160314,49.837293],"type":"Point"},"properties":{"osm_id":"5862938788","tag":{"amenity":"recycling","opening_hours":"07:00-20:00","recycling:clothes":"yes","recycling:clothes:operator":"Bayerisches Rotes Kreuz","recycling:glass_bottles":"yes","recycling_type":"container"}},"type":"Feature"},
	{"geometry":{"coordinates":[9.152858,49.796898],"type":"Point"},"properties":{"osm_id":"6412281794","tag":{"amenity":"recycling","opening_hours":"Mo-Sa 07:00-20:00","recycling:glass_bottles":"yes","recycling_type":"container"}},"type":"Feature"},
	{"geometry":{"coordinates":[9.15554,49.798189],"type":"Point"},"properties":{"osm_id":"6412281795","tag":{"amenity":"recycling","opening_hours":"Mo-Sa 07:00-20:00","recycling:glass_bottles":"yes","recycling_type":"container"}},"type":"Feature"},
	{"geometry":{"coordinates":[9.198978,49.795176],"type":"Point"},"properties":{"osm_id":"6499995177","tag":{"amenity":"recycling","recycling:clothes":"yes","recycling:glass_bottles":"yes","recycling_type":"container"}},"type":"Feature"},
	{"geometry":{"coordinates":[9.179895,49.782566],"type":"Point"},"properties":{"osm_id":"6773035375","tag":{"amenity":"waste_basket"}},"type":"Feature"},
	{"geometry":{"coordinates":[9.177836,49.784007],"type":"Point"},"properties":{"osm_id":"6821180576","tag":{"amenity":"waste_basket"}},"type":"Feature"},
	{"geometry":{"coordinates":[9.159916,49.796268],"type":"Point"},"properties":{"osm_id":"7253053989","tag":{"amenity":"waste_basket"}},"type":"Feature"},
	{"geometry":{"coordinates":[9.15911,49.79394],"type":"Point"},"properties":{"osm_id":"7267195763","tag":{"amenity":"waste_basket"}},"type":"Feature"},
	{"geometry":{"coordinates":[9.156205,49.78826],"type":"Point"},"properties":{"osm_id":"7498003260","tag":{"amenity":"waste_basket"}},"type":"Feature"},
	{"geometry":{"coordinates":[9.145032,49.789054],"type":"Point"},"properties":{"osm_id":"7540930331","tag":{"amenity":"waste_basket"}},"type":"Feature"},
	{"geometry":{"coordinates":[9.14267,49.802777],"type":"Point"},"properties":{"osm_id":"7559261937","tag":{"amenity":"waste_basket"}},"type":"Feature"},
	{"geometry":{"coordinates":[9.15576,49.785869],"type":"Point"},"properties":{"osm_id":"7560559020","tag":{"amenity":"waste_basket"}},"type":"Feature"},
	{"geometry":{"coordinates":[9.142932,49.806415],"type":"Point"},"properties":{"osm_id":"7610401987","tag":{"amenity":"waste_basket"}},"type":"Feature"},
	{"geometry":{"coordinates":[9.143968,49.80572],"type":"Point"},"properties":{"osm_id":"7610401989","tag":{"amenity":"waste_basket"}},"type":"Feature"},
	{"geometry":{"coordinates":[9.145198,49.805057],"type":"Point"},"properties":{"osm_id":"7610401990","tag":{"amenity":"waste_basket"}},"type":"Feature"},
	{"geometry":{"coordinates":[9.149163,49.80366],"type":"Point"},"properties":{"osm_id":"7610401993","tag":{"amenity":"waste_basket"}},"type":"Feature"},
	{"geometry":{"coordinates":[9.156732,49.800616],"type":"Point"},"properties":{"osm_id":"7856721355","tag":{"amenity":"waste_basket","waste":"trash"}},"type":"Feature"},
	{"geometry":{"coordinates":[9.157642,49.800498],"type":"Point"},"properties":{"osm_id":"7856721356","tag":{"amenity":"waste_basket","waste":"trash"}},"type":"Feature"},
	{"geometry":{"coordinates":[9.17562,49.781673],"type":"Point"},"properties":{"osm_id":"7861935827","tag":{"amenity":"waste_basket"}},"type":"Feature"},
	{"geometry":{"coordinates":[9.176207,49.781465],"type":"Point"},"properties":{"osm_id":"7861935829","tag":{"amenity":"waste_basket"}},"type":"Feature"},
	{"geometry":{"coordinates":[9.175786,49.78136],"type":"Point"},"properties":{"osm_id":"7861935835","tag":{"amenity":"waste_basket"}},"type":"Feature"}
]
}
