{
"type": "FeatureCollection",
"features": [
	{"geometry":{"coordinates":[9.176353,49.780673],"type":"Point"},"properties":{"osm_id":"248827213","tag":{"amenity":"recycling","location":"overground","opening_hours":"Mo-Sa 07:00-20:00","operator":"Werner","recycling:glass_bottles":"yes","recycling_type":"container"}},"type":"Feature"},
	{"geometry":{"coordinates":[9.178144,49.742963],"type":"Point"},"properties":{"osm_id":"252609797","tag":{"amenity":"recycling","recycling:clothes":"yes","recycling:glass_bottles":"yes","recycling:shoes":"yes"}},"type":"Feature"},
	{"geometry":{"coordinates":[9.177683,49.769713],"type":"Point"},"properties":{"osm_id":"252609878","tag":{"amenity":"recycling","recycling:clothes":"yes","recycling:glass_bottles":"yes","recycling:shoes":"yes","recycling_type":"container"}},"type":"Feature"},
	{"geometry":{"coordinates":[9.184316,49.770565],"type":"Point"},"properties":{"osm_id":"255657373","tag":{"amenity":"recycling","location":"overground","recycling:clothes":"yes","recycling:glass_bottles":"yes","recycling:shoes":"yes","recycling_type":"container"}},"type":"Feature"},
	{"geometry":{"coordinates":[9.182651,49.779462],"type":"Point"},"properties":{"osm_id":"257424888","tag":{"amenity":"recycling","recycling:glass_bottles":"yes","recycling_type":"container"}},"type":"Feature"},
	{"geometry":{"coordinates":[9.168028,49.780696],"type":"Point"},"properties":{"osm_id":"265577182","tag":{"amenity":"recycling","location":"overground","opening_hours":"07:00-20:00","recycling:clothes":"yes","recycling:clothes:operator":"Malteser","recycling:glass_bottles":"yes","recycling:shoes":"yes","recycling_type":"container"}},"type":"Feature"},
	{"geometry":{"coordinates":[9.176143,49.775768],"type":"Point"},"properties":{"osm_id":"290193151","tag":{"amenity":"recycling","location":"overground","recycling:clothes":"yes","recycling:glass_bottles":"yes","recycling_type":"container"}},"type":"Feature"},
	{"geometry":{"coordinates":[9.215468,49.72876],"type":"Point"},"properties":{"osm_id":"294156825","tag":{"amenity":"recycling","recycling:clothes":"no","recycling:glass":"yes"}},"type":"Feature"},
	{"geometry":{"coordinates":[9.215609,49.728888],"type":"Point"},"properties":{"osm_id":"294156827","tag":{"amenity":"recycling","recycling:clothes":"yes"}},"type":"Feature"},
	{"geometry":{"coordinates":[9.220544,49.725042],"type":"Point"},"properties":{"osm_id":"294156828","tag":{"amenity":"recycling","location":"overground","recycling:clothes":"yes","recycling:glass":"no","recycling:glass_bottles":"yes","recycling_type":"container"}},"type":"Feature"},
	{"geometry":{"coordinates":[9.184232,49.759735],"type":"Point"},"properties":{"osm_id":"393376235","tag":{"amenity":"recycling","recycling:clothes":"yes","recycling:glass":"no","recycling:glass_bottles":"yes","recycling:shoes":"yes","recycling_type":"container"}},"type":"Feature"},
	{"geometry":{"coordinates":[9.193293,49.766631],"type":"Point"},"properties":{"osm_id":"473109346","tag":{"amenity":"recycling","recycling:clothes":"yes","recycling:glass_bottles":"yes","recycling_type":"container"}},"type":"Feature"},
	{"geometry":{"coordinates":[9.171822,49.775319],"type":"Point"},"properties":{"osm_id":"727763622","tag":{"amenity":"waste_basket"}},"type":"Feature"},
	{"geometry":{"coordinates":[9.171227,49.775015],"type":"Point"},"properties":{"osm_id":"727763656","tag":{"amenity":"recycling","recycling:clothes":"yes","recycling:clothes:operator":"Kolping","recycling:shoes":"yes","recycling_type":"container"}},"type":"Feature"},
	{"geometry":{"coordinates":[9.194365,49.764309],"type":"Point"},"properties":{"osm_id":"746864653","tag":{"amenity":"waste_basket"}},"type":"Feature"},
	{"geometry":{"coordinates":[9.172535,49.775634],"type":"Point"},"properties":{"osm_id":"2237656906","tag":{"amenity":"waste_basket"}},"type":"Feature"},
	{"geometry":{"coordinates":[9.176343,49.780685],"type":"Point"},"properties":{"osm_id":"3184209999","tag":{"amenity":"recycling","location":"overground","operator":"Bayerisches Rotes Kreuz","recycling:clothes":"yes","recycling:shoes":"yes","recycling_type":"container"}},"type":"Feature"},
	{"geometry":{"coordinates":[9.176337,49.780691],"type":"Point"},"properties":{"osm_id":"3184210000","tag":{"amenity":"recycling","location":"overground","operator":"Malteser","recycling:clothes":"yes","recycling:shoes":"yes","recycling_type":"container"}},"type":"Feature"},
	{"geometry":{"coordinates":[9.17633,49.780699],"type":"Point"},"properties":{"osm_id":"3184210001","tag":{"amenity":"recycling","location":"overground","opening_hours":"Mo-Sa 07:00-20:00","operator":"Landkreis Miltenberg","recycling:small_appliances":"yes","recycling_type":"container"}},"type":"Feature"},
	{"geometry":{"coordinates":[9.178633,49.779413],"type":"Point"},"properties":{"osm_id":"5789531153","tag":{"amenity":"waste_basket"}},"type":"Feature"},
	{"geometry":{"coordinates":[9.178692,49.778869],"type":"Point"},"properties":{"osm_id":"5789531154","tag":{"amenity":"waste_basket"}},"type":"Feature"},
	{"geometry":{"coordinates":[9.183182,49.777928],"type":"Point"},"properties":{"osm_id":"5789580735","tag":{"amenity":"recycling","recycling:clothes":"yes","recycling:shoes":"yes","recycling_type":"container"}},"type":"Feature"},
	{"geometry":{"coordinates":[9.182583,49.759761],"type":"Point"},"properties":{"osm_id":"6356863894","tag":{"amenity":"recycling","contact:website":"https://altkleider.de","operator":"Wittmann","recycling:clothes":"yes","recycling:shoes":"yes","recycling_type":"container"}},"type":"Feature"},
	{"geometry":{"coordinates":[9.174183,49.745473],"type":"Point"},"properties":{"osm_id":"6613000698","tag":{"amenity":"waste_basket","waste":"dog_excrement"}},"type":"Feature"},
	{"geometry":{"coordinates":[9.178422,49.744588],"type":"Point"},"properties":{"osm_id":"6616839479","tag":{"amenity":"waste_basket","waste":"dog_excrement"}},"type":"Feature"},
	{"geometry":{"coordinates":[9.178001,49.745216],"type":"Point"},"properties":{"osm_id":"6617192609","tag":{"amenity":"waste_basket","waste":"dog_excrement"}},"type":"Feature"},
	{"geometry":{"coordinates":[9.167568,49.768523],"type":"Point"},"properties":{"osm_id":"7563988189","tag":{"amenity":"waste_basket"}},"type":"Feature"},
	{"geometry":{"coordinates":[9.164865,49.774438],"type":"Point"},"properties":{"osm_id":"7563988223","tag":{"amenity":"waste_basket"}},"type":"Feature"},
	{"geometry":{"coordinates":[9.227576,49.725208],"type":"Point"},"properties":{"osm_id":"7653438179","tag":{"amenity":"waste_basket","waste":"trash"}},"type":"Feature"},
	{"geometry":{"coordinates":[9.176006,49.781017],"type":"Point"},"properties":{"osm_id":"7861935834","tag":{"amenity":"waste_basket"}},"type":"Feature"}
]
}
