{
"type": "FeatureCollection",
"lastupdate": "2020-08-05T00:00:00Z",
"features": [
	{"geometry":{"coordinates":[9.227204,49.64233],"type":"Point"},"properties":{"osm_id":"285941448","tag":{"amenity":"recycling","recycling:glass":"yes"}},"type":"Feature"},
	{"geometry":{"coordinates":[9.197623,49.614752],"type":"Point"},"properties":{"osm_id":"356828567","tag":{"amenity":"recycling","mapillary":"SI1a2gXjMnyScRGuhim54Q","recycling:glass":"no","recycling:glass_bottles":"yes","recycling_type":"container","survey:date":"2018-08-16"}},"type":"Feature"},
	{"geometry":{"coordinates":[9.191609,49.641938],"type":"Point"},"properties":{"osm_id":"361137896","tag":{"amenity":"recycling","recycling:glass":"yes"}},"type":"Feature"},
	{"geometry":{"coordinates":[9.220988,49.647045],"type":"Point"},"properties":{"osm_id":"3032940614","tag":{"amenity":"recycling","recycling:cans":"yes","recycling:clothes":"yes","recycling:glass":"yes","recycling_type":"container"}},"type":"Feature"},
	{"geometry":{"coordinates":[9.225932,49.62194],"type":"Point"},"properties":{"osm_id":"3050866211","tag":{"amenity":"waste_basket","tourism":"picnic_site"}},"type":"Feature"},
	{"geometry":{"coordinates":[9.222244,49.644795],"type":"Point"},"properties":{"osm_id":"3381791155","tag":{"amenity":"waste_basket"}},"type":"Feature"},
	{"geometry":{"coordinates":[9.225857,49.621908],"type":"Point"},"properties":{"osm_id":"5760675546","tag":{"amenity":"waste_basket","tourism":"picnic_site"}},"type":"Feature"},
	{"geometry":{"coordinates":[9.208861,49.657429],"type":"Point"},"properties":{"osm_id":"6783202725","tag":{"amenity":"waste_basket","waste":"trash"}},"type":"Feature"},
	{"geometry":{"coordinates":[9.210851,49.661709],"type":"Point"},"properties":{"osm_id":"6783202729","tag":{"amenity":"waste_basket","waste":"dog_excrement"}},"type":"Feature"}
]
}
