{
"type": "FeatureCollection",
"features": [
	{"geometry":{"coordinates":[9.208985,49.354861],"type":"Point"},"properties":{"osm_id":"831178344","tag":{"amenity":"waste_basket"}},"type":"Feature"},
	{"geometry":{"coordinates":[9.220581,49.351561],"type":"Point"},"properties":{"osm_id":"831204220","tag":{"amenity":"waste_basket"}},"type":"Feature"},
	{"geometry":{"coordinates":[9.220044,49.352058],"type":"Point"},"properties":{"osm_id":"831204223","tag":{"amenity":"waste_basket"}},"type":"Feature"},
	{"geometry":{"coordinates":[9.221537,49.349511],"type":"Point"},"properties":{"osm_id":"831204234","tag":{"amenity":"waste_basket"}},"type":"Feature"},
	{"geometry":{"coordinates":[9.22101,49.351358],"type":"Point"},"properties":{"osm_id":"831204236","tag":{"amenity":"waste_basket"}},"type":"Feature"},
	{"geometry":{"coordinates":[9.222173,49.352623],"type":"Point"},"properties":{"osm_id":"831931647","tag":{"amenity":"waste_basket"}},"type":"Feature"},
	{"geometry":{"coordinates":[9.172382,49.376947],"type":"Point"},"properties":{"osm_id":"1272305468","tag":{"addr:city":"Elztal","addr:postcode":"74834","addr:street":"Friedhofweg","amenity":"recycling"}},"type":"Feature"},
	{"geometry":{"coordinates":[9.148801,49.353941],"type":"Point"},"properties":{"osm_id":"4649101140","tag":{"amenity":"waste_basket"}},"type":"Feature"},
	{"geometry":{"coordinates":[9.147298,49.353469],"type":"Point"},"properties":{"osm_id":"6413461777","tag":{"access":"yes","amenity":"waste_basket"}},"type":"Feature"},
	{"geometry":{"coordinates":[9.149583,49.353011],"type":"Point"},"properties":{"osm_id":"6413507292","tag":{"amenity":"waste_basket"}},"type":"Feature"},
	{"geometry":{"coordinates":[9.149414,49.352876],"type":"Point"},"properties":{"osm_id":"6413507293","tag":{"amenity":"waste_basket"}},"type":"Feature"},
	{"geometry":{"coordinates":[9.148668,49.353199],"type":"Point"},"properties":{"osm_id":"6413507294","tag":{"amenity":"waste_basket"}},"type":"Feature"},
	{"geometry":{"coordinates":[9.143426,49.352225],"type":"Point"},"properties":{"osm_id":"6438503793","tag":{"amenity":"waste_basket","ashtray":"yes","covered":"yes","level":"1","waste":"trash;cigarettes"}},"type":"Feature"},
	{"geometry":{"coordinates":[9.143662,49.352353],"type":"Point"},"properties":{"osm_id":"6438503794","tag":{"amenity":"waste_basket","ashtray":"yes","waste":"trash;cigarettes"}},"type":"Feature"},
	{"geometry":{"coordinates":[9.143478,49.352338],"type":"Point"},"properties":{"osm_id":"6438503795","tag":{"amenity":"waste_basket","ashtray":"yes","waste":"trash;cigarettes"}},"type":"Feature"},
	{"geometry":{"coordinates":[9.142444,49.351168],"type":"Point"},"properties":{"osm_id":"6438503796","tag":{"amenity":"waste_basket","waste":"trash"}},"type":"Feature"},
	{"geometry":{"coordinates":[9.143488,49.352538],"type":"Point"},"properties":{"osm_id":"6438503797","tag":{"amenity":"waste_basket","waste":"trash"}},"type":"Feature"},
	{"geometry":{"coordinates":[9.143731,49.352503],"type":"Point"},"properties":{"osm_id":"6438503799","tag":{"amenity":"waste_basket","ashtray":"yes","waste":"trash;cigarettes"}},"type":"Feature"},
	{"geometry":{"coordinates":[9.144535,49.352901],"type":"Point"},"properties":{"osm_id":"6442536650","tag":{"amenity":"waste_basket","waste":"trash"}},"type":"Feature"},
	{"geometry":{"coordinates":[9.145074,49.353559],"type":"Point"},"properties":{"osm_id":"6442536651","tag":{"amenity":"waste_basket","ashtray":"yes","waste":"trash;cigarettes"}},"type":"Feature"},
	{"geometry":{"coordinates":[9.144427,49.352555],"type":"Point"},"properties":{"osm_id":"6442536652","tag":{"amenity":"waste_basket","waste":"trash"}},"type":"Feature"},
	{"geometry":{"coordinates":[9.145199,49.353516],"type":"Point"},"properties":{"osm_id":"6442536654","tag":{"amenity":"waste_basket","ashtray":"yes","waste":"trash;cigarettes"}},"type":"Feature"},
	{"geometry":{"coordinates":[9.144127,49.35188],"type":"Point"},"properties":{"osm_id":"6442536655","tag":{"amenity":"waste_basket","waste":"trash"}},"type":"Feature"},
	{"geometry":{"coordinates":[9.144416,49.352639],"type":"Point"},"properties":{"osm_id":"6442536656","tag":{"amenity":"waste_basket","waste":"trash"}},"type":"Feature"},
	{"geometry":{"coordinates":[9.1501,49.353971],"type":"Point"},"properties":{"osm_id":"6451400018","tag":{"amenity":"waste_basket","ashtray":"yes","waste":"trash;cigarettes"}},"type":"Feature"},
	{"geometry":{"coordinates":[9.150335,49.35385],"type":"Point"},"properties":{"osm_id":"6451400019","tag":{"amenity":"waste_basket","ashtray":"yes","waste":"trash;cigarettes"}},"type":"Feature"},
	{"geometry":{"coordinates":[9.15013,49.353906],"type":"Point"},"properties":{"osm_id":"6451400020","tag":{"amenity":"waste_basket","ashtray":"yes","waste":"trash;cigarettes"}},"type":"Feature"},
	{"geometry":{"coordinates":[9.144207,49.352409],"type":"Point"},"properties":{"osm_id":"6451960543","tag":{"amenity":"waste_basket","ashtray":"no","waste":"trash"}},"type":"Feature"},
	{"geometry":{"coordinates":[9.144566,49.352467],"type":"Point"},"properties":{"osm_id":"6451960544","tag":{"amenity":"waste_basket","ashtray":"no","waste":"trash"}},"type":"Feature"},
	{"geometry":{"coordinates":[9.147178,49.353669],"type":"Point"},"properties":{"osm_id":"6453962461","tag":{"amenity":"waste_basket","ashtray":"yes","waste":"trash;cigarettes"}},"type":"Feature"},
	{"geometry":{"coordinates":[9.149551,49.353062],"type":"Point"},"properties":{"osm_id":"6453962462","tag":{"amenity":"waste_basket","ashtray":"yes","waste":"cigarettes"}},"type":"Feature"},
	{"geometry":{"coordinates":[9.146711,49.353091],"type":"Point"},"properties":{"osm_id":"6453962463","tag":{"amenity":"waste_basket","ashtray":"yes","waste":"trash;cigarettes"}},"type":"Feature"},
	{"geometry":{"coordinates":[9.145592,49.352659],"type":"Point"},"properties":{"osm_id":"6453962464","tag":{"amenity":"waste_basket","ashtray":"yes","waste":"trash;cigarettes"}},"type":"Feature"},
	{"geometry":{"coordinates":[9.149519,49.353074],"type":"Point"},"properties":{"osm_id":"6453962466","tag":{"amenity":"waste_basket","ashtray":"yes","waste":"cigarettes"}},"type":"Feature"},
	{"geometry":{"coordinates":[9.147112,49.353689],"type":"Point"},"properties":{"osm_id":"6453962467","tag":{"amenity":"waste_basket","ashtray":"yes","waste":"trash;cigarettes"}},"type":"Feature"},
	{"geometry":{"coordinates":[9.151788,49.34375],"type":"Point"},"properties":{"osm_id":"7018887918","tag":{"amenity":"waste_basket","waste":"trash"}},"type":"Feature"}
]
}
