{
"type": "FeatureCollection",
"features": [
	{"geometry":{"coordinates":[9.166502,49.280098],"type":"Point"},"properties":{"osm_id":"404311564","tag":{"amenity":"recycling","recycling:glass":"yes","recycling:paper":"yes","recycling_type":"container"}},"type":"Feature"},
	{"geometry":{"coordinates":[9.166067,49.28371],"type":"Point"},"properties":{"osm_id":"404641159","tag":{"amenity":"recycling","location":"overground","recycling:glass":"yes","recycling:paper":"yes","recycling_type":"container"}},"type":"Feature"},
	{"geometry":{"coordinates":[9.142017,49.29529],"type":"Point"},"properties":{"osm_id":"1994411951","tag":{"amenity":"waste_basket"}},"type":"Feature"},
	{"geometry":{"coordinates":[9.151073,49.296526],"type":"Point"},"properties":{"osm_id":"1994411955","tag":{"amenity":"waste_basket"}},"type":"Feature"},
	{"geometry":{"coordinates":[9.152588,49.30039],"type":"Point"},"properties":{"osm_id":"1994424235","tag":{"amenity":"waste_basket"}},"type":"Feature"},
	{"geometry":{"coordinates":[9.150849,49.304433],"type":"Point"},"properties":{"osm_id":"1994424265","tag":{"amenity":"recycling","mapillary":"J0CngOx29_d9FMpXuUkXTg","recycling_type":"container","survey:date":"2019-08-18"}},"type":"Feature"},
	{"geometry":{"coordinates":[9.143494,49.308642],"type":"Point"},"properties":{"osm_id":"3413155288","tag":{"amenity":"recycling","recycling:clothes":"yes","recycling:glass":"yes","recycling:paper":"yes","recycling_type":"container"}},"type":"Feature"},
	{"geometry":{"coordinates":[9.141678,49.295246],"type":"Point"},"properties":{"osm_id":"3558902847","tag":{"amenity":"waste_basket"}},"type":"Feature"},
	{"geometry":{"coordinates":[9.154358,49.303558],"type":"Point"},"properties":{"osm_id":"3640979013","tag":{"amenity":"waste_basket"}},"type":"Feature"},
	{"geometry":{"coordinates":[9.15422,49.30358],"type":"Point"},"properties":{"osm_id":"3640979014","tag":{"amenity":"waste_basket"}},"type":"Feature"},
	{"geometry":{"coordinates":[9.154148,49.304133],"type":"Point"},"properties":{"osm_id":"3640979025","tag":{"amenity":"waste_basket"}},"type":"Feature"},
	{"geometry":{"coordinates":[9.153892,49.304369],"type":"Point"},"properties":{"osm_id":"3640979030","tag":{"amenity":"waste_basket"}},"type":"Feature"},
	{"geometry":{"coordinates":[9.160414,49.291372],"type":"Point"},"properties":{"osm_id":"4031391615","tag":{"amenity":"waste_basket"}},"type":"Feature"},
	{"geometry":{"coordinates":[9.160388,49.286781],"type":"Point"},"properties":{"osm_id":"4119071167","tag":{"amenity":"recycling","operator":"TEXAID Collection","recycling:clothes":"yes","recycling_type":"container","website":"https://www.texaid.de/"}},"type":"Feature"},
	{"geometry":{"coordinates":[9.156792,49.274016],"type":"Point"},"properties":{"barrier":"gate","osm_id":"4754987232"},"type":"Feature"},
	{"geometry":{"coordinates":[9.166217,49.280543],"type":"Point"},"properties":{"osm_id":"4755289646","tag":{"amenity":"recycling","recycling:clothes":"yes","recycling:shoes":"yes","recycling_type":"container"}},"type":"Feature"},
	{"geometry":{"coordinates":[9.16183,49.281215],"type":"Point"},"properties":{"osm_id":"4755289703","tag":{"amenity":"recycling","operator":"Malteser","recycling:clothes":"yes","recycling:shoes":"yes","recycling_type":"container"}},"type":"Feature"},
	{"geometry":{"coordinates":[9.159769,49.28555],"type":"Point"},"properties":{"osm_id":"4755859238","tag":{"amenity":"recycling","recycling:cardboard":"yes","recycling:clothes":"yes","recycling:glass":"yes","recycling:glass_bottles":"no","recycling:paper":"yes","recycling_type":"container"}},"type":"Feature"},
	{"geometry":{"coordinates":[9.16232,49.289094],"type":"Point"},"properties":{"osm_id":"4755859251","tag":{"amenity":"waste_basket"}},"type":"Feature"},
	{"geometry":{"coordinates":[9.170288,49.286195],"type":"Point"},"properties":{"osm_id":"5352939217","tag":{"amenity":"waste_basket"}},"type":"Feature"},
	{"geometry":{"coordinates":[9.157136,49.298586],"type":"Point"},"properties":{"osm_id":"7441192514","tag":{"amenity":"waste_basket"}},"type":"Feature"},
	{"geometry":{"coordinates":[9.156992,49.311773],"type":"Point"},"properties":{"osm_id":"7441203582","tag":{"amenity":"waste_basket"}},"type":"Feature"}
]
}
