{
"type": "FeatureCollection",
"features": [
	{"geometry":{"coordinates":[9.195514,49.131057],"type":"Point"},"properties":{"osm_id":"160048437","tag":{"amenity":"recycling","recycling_type":"container"}},"type":"Feature"},
	{"geometry":{"coordinates":[9.193696,49.13795],"type":"Point"},"properties":{"osm_id":"248879851","tag":{"amenity":"recycling","recycling_type":"container"}},"type":"Feature"},
	{"geometry":{"coordinates":[9.189881,49.131802],"type":"Point"},"properties":{"osm_id":"274101738","tag":{"amenity":"recycling","recycling_type":"container"}},"type":"Feature"},
	{"geometry":{"coordinates":[9.200095,49.123077],"type":"Point"},"properties":{"osm_id":"274344431","tag":{"amenity":"recycling","recycling:glass_bottles":"yes","recycling:paper":"yes","recycling_type":"container"}},"type":"Feature"},
	{"geometry":{"coordinates":[9.199985,49.102361],"type":"Point"},"properties":{"name":"Recyclinghof Flein","osm_id":"278245878","tag":{"addr:city":"Flein","addr:country":"DE","addr:housename":"Dieselstra\u00c3\u009fe","addr:housenumber":"5","addr:postcode":"74223","addr:street":"See\u00c3\u00a4ckerstra\u00c3\u009fe","amenity":"recycling","recycling:batteries":"yes","recycling:clothes":"yes","recycling:glass":"yes","recycling_type":"centre"}},"type":"Feature"},
	{"geometry":{"coordinates":[9.180171,49.118489],"type":"Point"},"properties":{"osm_id":"291426846","tag":{"amenity":"recycling","location":"overground","recycling:clothes":"yes","recycling:glass_bottles":"yes","recycling:paper":"yes","recycling_type":"container"}},"type":"Feature"},
	{"geometry":{"coordinates":[9.152649,49.117453],"type":"Point"},"properties":{"osm_id":"291446994","tag":{"amenity":"recycling","recycling:glass":"yes","recycling:paper":"yes"}},"type":"Feature"},
	{"geometry":{"coordinates":[9.217617,49.143353],"type":"Point"},"properties":{"osm_id":"318185041","tag":{"amenity":"recycling","recycling:glass_bottles":"yes","recycling_type":"container"}},"type":"Feature"},
	{"geometry":{"coordinates":[9.225182,49.142637],"type":"Point"},"properties":{"osm_id":"318185064","tag":{"amenity":"recycling","recycling:glass":"yes","recycling_type":"container"}},"type":"Feature"},
	{"geometry":{"coordinates":[9.219328,49.145859],"type":"Point"},"properties":{"osm_id":"318200123","tag":{"amenity":"recycling","recycling:glass":"yes","recycling_type":"container"}},"type":"Feature"},
	{"geometry":{"coordinates":[9.207722,49.132204],"type":"Point"},"properties":{"osm_id":"322009910","tag":{"amenity":"recycling","location":"overground","recycling:clothes":"yes","recycling:glass":"yes","recycling:glass_bottles":"yes","recycling:shoes":"yes","recycling_type":"container"}},"type":"Feature"},
	{"geometry":{"coordinates":[9.20673,49.128781],"type":"Point"},"properties":{"osm_id":"322010169","tag":{"amenity":"recycling","location":"overground","recycling:glass_bottles":"yes","recycling:paper":"no","recycling_type":"container"}},"type":"Feature"},
	{"geometry":{"coordinates":[9.217128,49.13371],"type":"Point"},"properties":{"osm_id":"338945247","tag":{"amenity":"recycling","recycling:clothes":"yes","recycling:glass_bottles":"yes","recycling:paper":"yes","recycling:shoes":"yes","recycling_type":"container"}},"type":"Feature"},
	{"geometry":{"coordinates":[9.21114,49.133922],"type":"Point"},"properties":{"osm_id":"339597247","tag":{"amenity":"recycling","contact:phone":"+49 7131 99 44 33","recycling:clothes":"yes","recycling:glass_bottles":"yes","recycling:shoes":"yes","recycling_type":"container"}},"type":"Feature"},
	{"geometry":{"coordinates":[9.201457,49.125927],"type":"Point"},"properties":{"osm_id":"339686348","tag":{"amenity":"recycling","location":"overground","recycling:glass_bottles":"yes","recycling:paper":"yes","recycling_type":"container"}},"type":"Feature"},
	{"geometry":{"coordinates":[9.208001,49.13967],"type":"Point"},"properties":{"osm_id":"349168657","tag":{"amenity":"recycling","recycling:glass_bottles":"yes","recycling:paper":"yes"}},"type":"Feature"},
	{"geometry":{"coordinates":[9.20826,49.125544],"type":"Point"},"properties":{"osm_id":"354856663","tag":{"amenity":"recycling","recycling:glass_bottles":"yes","recycling:paper":"no","recycling_type":"container"}},"type":"Feature"},
	{"geometry":{"coordinates":[9.220257,49.133569],"type":"Point"},"properties":{"osm_id":"360772430","tag":{"amenity":"recycling","location":"overground","recycling:glass_bottles":"yes","recycling:paper":"yes","recycling_type":"container"}},"type":"Feature"},
	{"geometry":{"coordinates":[9.222726,49.136503],"type":"Point"},"properties":{"osm_id":"360773224","tag":{"amenity":"recycling","recycling:glass_bottles":"yes","recycling:paper":"yes","recycling_type":"container"}},"type":"Feature"},
	{"geometry":{"coordinates":[9.195514,49.122251],"type":"Point"},"properties":{"osm_id":"364638587","tag":{"amenity":"recycling","location":"overground","recycling:clothes":"yes","recycling:glass_bottles":"yes","recycling:shoes":"yes","recycling_type":"container"}},"type":"Feature"},
	{"geometry":{"coordinates":[9.172267,49.114128],"type":"Point"},"properties":{"osm_id":"370052097","tag":{"amenity":"recycling","recycling_type":"container"}},"type":"Feature"},
	{"geometry":{"coordinates":[9.221702,49.148489],"type":"Point"},"properties":{"osm_id":"373102992","tag":{"amenity":"recycling","recycling:glass":"yes"}},"type":"Feature"},
	{"geometry":{"coordinates":[9.224898,49.144267],"type":"Point"},"properties":{"osm_id":"373103550","tag":{"amenity":"recycling","recycling_type":"container"}},"type":"Feature"},
	{"geometry":{"coordinates":[9.211698,49.120062],"type":"Point"},"properties":{"osm_id":"373243691","tag":{"amenity":"recycling","recycling_type":"container"}},"type":"Feature"},
	{"geometry":{"coordinates":[9.176347,49.139972],"type":"Point"},"properties":{"osm_id":"376040481","tag":{"amenity":"recycling","recycling:glass":"yes","recycling:paper":"yes","recycling_type":"container"}},"type":"Feature"},
	{"geometry":{"coordinates":[9.217709,49.139029],"type":"Point"},"properties":{"osm_id":"378067924","tag":{"amenity":"recycling","recycling:clothes":"yes","recycling:glass_bottles":"yes","recycling:shoes":"yes","recycling_type":"container"}},"type":"Feature"},
	{"geometry":{"coordinates":[9.190144,49.136894],"type":"Point"},"properties":{"osm_id":"383713660","tag":{"amenity":"recycling","location":"overground","recycling_type":"container"}},"type":"Feature"},
	{"geometry":{"coordinates":[9.207732,49.106952],"type":"Point"},"properties":{"osm_id":"383718624","tag":{"amenity":"recycling","location":"overground","recycling_type":"container"}},"type":"Feature"},
	{"geometry":{"coordinates":[9.211964,49.139641],"type":"Point"},"properties":{"osm_id":"383723405","tag":{"amenity":"recycling","contact:phone":"+49 7131 99 44 33","recycling:clothes":"yes","recycling:shoes":"yes","recycling_type":"container"}},"type":"Feature"},
	{"geometry":{"coordinates":[9.206663,49.121454],"type":"Point"},"properties":{"osm_id":"385087709","tag":{"amenity":"recycling"}},"type":"Feature"},
	{"geometry":{"coordinates":[9.206517,49.118449],"type":"Point"},"properties":{"osm_id":"385088107","tag":{"amenity":"recycling","recycling:clothes":"yes","recycling:glass_bottles":"yes","recycling_type":"container"}},"type":"Feature"},
	{"geometry":{"coordinates":[9.206586,49.116781],"type":"Point"},"properties":{"osm_id":"385089384","tag":{"amenity":"recycling","recycling:clothes":"yes"}},"type":"Feature"},
	{"geometry":{"coordinates":[9.197102,49.118011],"type":"Point"},"properties":{"osm_id":"385090511","tag":{"amenity":"recycling"}},"type":"Feature"},
	{"geometry":{"coordinates":[9.189205,49.117698],"type":"Point"},"properties":{"osm_id":"385298629","tag":{"amenity":"recycling","location":"overground","recycling:batteries":"no","recycling:clothes":"no","recycling:glass_bottles":"yes","recycling:paper":"no","recycling:plastic":"no","recycling:shoes":"no","recycling:tyres":"no","recycling:wood":"no","recycling_type":"container"}},"type":"Feature"},
	{"geometry":{"coordinates":[9.200401,49.119087],"type":"Point"},"properties":{"osm_id":"385300706","tag":{"amenity":"recycling"}},"type":"Feature"},
	{"geometry":{"coordinates":[9.224464,49.124037],"type":"Point"},"properties":{"osm_id":"402905133","tag":{"amenity":"recycling","mapillary":"aMYd6n4uN1VgJlRzmzO5Qg","recycling_type":"container","survey:date":"2017-09-15"}},"type":"Feature"},
	{"geometry":{"coordinates":[9.207577,49.136717],"type":"Point"},"properties":{"osm_id":"406089241","tag":{"amenity":"recycling","recycling_type":"container"}},"type":"Feature"},
	{"geometry":{"coordinates":[9.228077,49.14118],"type":"Point"},"properties":{"osm_id":"409678409","tag":{"amenity":"recycling","location":"overground","recycling_type":"container"}},"type":"Feature"},
	{"geometry":{"coordinates":[9.224602,49.140228],"type":"Point"},"properties":{"osm_id":"413478668","tag":{"amenity":"recycling","location":"overground","recycling_type":"container"}},"type":"Feature"},
	{"geometry":{"coordinates":[9.191315,49.130542],"type":"Point"},"properties":{"osm_id":"416813406","tag":{"amenity":"recycling","recycling_type":"container"}},"type":"Feature"},
	{"geometry":{"coordinates":[9.190534,49.131704],"type":"Point"},"properties":{"osm_id":"416814317","tag":{"amenity":"recycling","recycling_type":"container"}},"type":"Feature"},
	{"geometry":{"coordinates":[9.18542,49.150756],"type":"Point"},"properties":{"osm_id":"418147034","tag":{"amenity":"recycling","recycling:clothes":"yes","recycling:glass_bottles":"yes","recycling_type":"container"}},"type":"Feature"},
	{"geometry":{"coordinates":[9.177683,49.145761],"type":"Point"},"properties":{"osm_id":"418149299","tag":{"amenity":"recycling","recycling:glass_bottles":"yes","recycling:green_waste":"yes","recycling_type":"container"}},"type":"Feature"},
	{"geometry":{"coordinates":[9.182377,49.144613],"type":"Point"},"properties":{"osm_id":"418150856","tag":{"amenity":"recycling","recycling_type":"container"}},"type":"Feature"},
	{"geometry":{"coordinates":[9.179938,49.142076],"type":"Point"},"properties":{"osm_id":"418150979","tag":{"amenity":"recycling","recycling_type":"container"}},"type":"Feature"},
	{"geometry":{"coordinates":[9.191924,49.144021],"type":"Point"},"properties":{"osm_id":"419021076","tag":{"amenity":"recycling","recycling_type":"container"}},"type":"Feature"},
	{"geometry":{"coordinates":[9.225377,49.138731],"type":"Point"},"properties":{"osm_id":"419242690","tag":{"amenity":"recycling","location":"overground","recycling_type":"container"}},"type":"Feature"},
	{"geometry":{"coordinates":[9.150588,49.123119],"type":"Point"},"properties":{"osm_id":"419811405","tag":{"amenity":"recycling"}},"type":"Feature"},
	{"geometry":{"coordinates":[9.223095,49.149867],"type":"Point"},"properties":{"osm_id":"444481306","tag":{"amenity":"recycling","recycling_type":"container"}},"type":"Feature"},
	{"geometry":{"coordinates":[9.16971,49.138243],"type":"Point"},"properties":{"osm_id":"471123618","tag":{"amenity":"recycling","recycling:green_waste":"yes"}},"type":"Feature"},
	{"geometry":{"coordinates":[9.170508,49.137347],"type":"Point"},"properties":{"osm_id":"471123620","tag":{"amenity":"recycling","recycling:glass":"yes","recycling:paper":"yes"}},"type":"Feature"},
	{"geometry":{"coordinates":[9.141257,49.108101],"type":"Point"},"properties":{"osm_id":"472317877","tag":{"amenity":"recycling","mapillary":"YS3w89kcvAtycOgdGSsguw","recycling:clothes":"yes","recycling:glass":"no","recycling:glass_bottles":"yes","recycling:paper":"yes","recycling_type":"container","survey:date":"2018-10-14"}},"type":"Feature"},
	{"geometry":{"coordinates":[9.221641,49.127134],"type":"Point"},"properties":{"osm_id":"484626154","tag":{"amenity":"recycling","recycling:clothes":"yes","recycling:glass_bottles":"yes","recycling_type":"container"}},"type":"Feature"},
	{"geometry":{"coordinates":[9.226889,49.125529],"type":"Point"},"properties":{"osm_id":"484630184","tag":{"amenity":"recycling","recycling_type":"container"}},"type":"Feature"},
	{"geometry":{"coordinates":[9.216297,49.125924],"type":"Point"},"properties":{"osm_id":"484642820","tag":{"amenity":"recycling","recycling_type":"container"}},"type":"Feature"},
	{"geometry":{"coordinates":[9.210231,49.128438],"type":"Point"},"properties":{"osm_id":"485598737","tag":{"amenity":"recycling","recycling:clothes":"yes","recycling:glass":"yes","recycling:glass_bottles":"yes","recycling:shoes":"yes","recycling_type":"container"}},"type":"Feature"},
	{"geometry":{"coordinates":[9.18895,49.147215],"type":"Point"},"properties":{"osm_id":"493176626","tag":{"amenity":"recycling","location":"overground","recycling:clothes":"yes","recycling:glass_bottles":"yes","recycling_type":"container"}},"type":"Feature"},
	{"geometry":{"coordinates":[9.194719,49.137149],"type":"Point"},"properties":{"barrier":"entrance","osm_id":"509286775","tag":{"bicycle":"yes","foot":"yes","motorcar":"yes","motorcycle":"yes"}},"type":"Feature"},
	{"geometry":{"coordinates":[9.173383,49.118378],"type":"Point"},"properties":{"barrier":"gate","osm_id":"607270891","tag":{"bicycle":"no","foot":"no"}},"type":"Feature"},
	{"geometry":{"coordinates":[9.172775,49.118304],"type":"Point"},"properties":{"barrier":"gate","osm_id":"607270895","tag":{"bicycle":"no","foot":"no"}},"type":"Feature"},
	{"geometry":{"coordinates":[9.218773,49.131146],"type":"Point"},"properties":{"osm_id":"614848791","tag":{"amenity":"recycling","recycling:clothes":"yes","recycling_type":"container"}},"type":"Feature"},
	{"geometry":{"coordinates":[9.194851,49.136997],"type":"Point"},"properties":{"osm_id":"939253013","tag":{"addr:city":"Heilbronn","addr:country":"DE","addr:housenumber":"29","addr:postcode":"74080","addr:street":"Leonhardstra\u00c3\u009fe"}},"type":"Feature"},
	{"geometry":{"coordinates":[9.182128,49.147594],"type":"Point"},"properties":{"osm_id":"974840559","tag":{"amenity":"recycling"}},"type":"Feature"},
	{"geometry":{"coordinates":[9.186512,49.144835],"type":"Point"},"properties":{"osm_id":"1108696566","tag":{"amenity":"recycling","recycling:clothes":"yes","recycling:glass":"yes","recycling_type":"container"}},"type":"Feature"},
	{"geometry":{"coordinates":[9.185112,49.099003],"type":"Point"},"properties":{"osm_id":"1125334206","tag":{"amenity":"recycling"}},"type":"Feature"},
	{"geometry":{"coordinates":[9.204112,49.139075],"type":"Point"},"properties":{"barrier":"gate","osm_id":"1426253603","tag":{"bicycle":"no","foot":"no"}},"type":"Feature"},
	{"geometry":{"coordinates":[9.206997,49.142784],"type":"Point"},"properties":{"osm_id":"2244637217","tag":{"amenity":"waste_basket","level":"0"}},"type":"Feature"},
	{"geometry":{"coordinates":[9.207372,49.142904],"type":"Point"},"properties":{"osm_id":"2244637230","tag":{"amenity":"waste_basket","level":"0"}},"type":"Feature"},
	{"geometry":{"coordinates":[9.207518,49.142952],"type":"Point"},"properties":{"osm_id":"2244637240","tag":{"amenity":"waste_basket","level":"0"}},"type":"Feature"},
	{"geometry":{"coordinates":[9.207654,49.142996],"type":"Point"},"properties":{"osm_id":"2244637250","tag":{"amenity":"waste_basket","level":"0"}},"type":"Feature"},
	{"geometry":{"coordinates":[9.207929,49.143086],"type":"Point"},"properties":{"osm_id":"2244637271","tag":{"amenity":"waste_basket","level":"0"}},"type":"Feature"},
	{"geometry":{"coordinates":[9.207596,49.14314],"type":"Point"},"properties":{"osm_id":"2244637290","tag":{"amenity":"waste_basket","level":"0"}},"type":"Feature"},
	{"geometry":{"coordinates":[9.207897,49.143222],"type":"Point"},"properties":{"osm_id":"2244637310","tag":{"amenity":"waste_basket","level":"0"}},"type":"Feature"},
	{"geometry":{"coordinates":[9.208402,49.14323],"type":"Point"},"properties":{"osm_id":"2244637313","tag":{"amenity":"waste_basket","level":"0"}},"type":"Feature"},
	{"geometry":{"coordinates":[9.207971,49.143244],"type":"Point"},"properties":{"osm_id":"2244637315","tag":{"amenity":"waste_basket","level":"0"}},"type":"Feature"},
	{"geometry":{"coordinates":[9.218227,49.101573],"type":"Point"},"properties":{"osm_id":"2609534258","tag":{"amenity":"recycling"}},"type":"Feature"},
	{"geometry":{"coordinates":[9.193422,49.119415],"type":"Point"},"properties":{"osm_id":"2609534315","tag":{"amenity":"recycling","location":"overground","recycling:clothes":"yes","recycling:glass_bottles":"yes","recycling:shoes":"yes","recycling_type":"container"}},"type":"Feature"},
	{"geometry":{"coordinates":[9.182204,49.135165],"type":"Point"},"properties":{"osm_id":"3394169750","tag":{"amenity":"recycling","recycling:clothes":"yes"}},"type":"Feature"},
	{"geometry":{"coordinates":[9.148504,49.10897],"type":"Point"},"properties":{"osm_id":"3434692038","tag":{"amenity":"waste_basket"}},"type":"Feature"},
	{"geometry":{"coordinates":[9.148808,49.109182],"type":"Point"},"properties":{"osm_id":"3434692046","tag":{"amenity":"waste_basket"}},"type":"Feature"},
	{"geometry":{"coordinates":[9.148627,49.109342],"type":"Point"},"properties":{"osm_id":"3434692056","tag":{"amenity":"waste_basket"}},"type":"Feature"},
	{"geometry":{"coordinates":[9.168718,49.113394],"type":"Point"},"properties":{"osm_id":"3743047195","tag":{"amenity":"recycling","recycling:clothes":"yes","recycling:glass_bottles":"yes","recycling:shoes":"yes","recycling_type":"container"}},"type":"Feature"},
	{"geometry":{"coordinates":[9.153663,49.1172],"type":"Point"},"properties":{"osm_id":"3845745998","tag":{"amenity":"recycling","opening_hours":"24/7","recycling:cans":"no","recycling:cardboard":"no","recycling:clothes":"yes","recycling:glass":"no","recycling:glass_bottles":"yes","recycling:paper":"no","recycling_type":"container","wheelchair":"yes"}},"type":"Feature"},
	{"geometry":{"coordinates":[9.212469,49.139347],"type":"Point"},"properties":{"osm_id":"4400813293","tag":{"amenity":"recycling","recycling:glass_bottles":"yes","recycling_type":"container"}},"type":"Feature"},
	{"geometry":{"coordinates":[9.205089,49.130667],"type":"Point"},"properties":{"osm_id":"4589885169","tag":{"amenity":"waste_basket"}},"type":"Feature"},
	{"geometry":{"coordinates":[9.205955,49.13134],"type":"Point"},"properties":{"osm_id":"4589885171","tag":{"amenity":"waste_basket"}},"type":"Feature"},
	{"geometry":{"coordinates":[9.220319,49.140983],"type":"Point"},"properties":{"osm_id":"5806530153","tag":{"amenity":"waste_basket"}},"type":"Feature"},
	{"geometry":{"coordinates":[9.20499,49.121744],"type":"Point"},"properties":{"osm_id":"6060014777","tag":{"amenity":"recycling","recycling_type":"container"}},"type":"Feature"},
	{"geometry":{"coordinates":[9.223322,49.132174],"type":"Point"},"properties":{"osm_id":"6073933393","tag":{"amenity":"recycling","recycling_type":"container"}},"type":"Feature"},
	{"geometry":{"coordinates":[9.215443,49.142338],"type":"Point"},"properties":{"osm_id":"6412563292","tag":{"amenity":"waste_basket"}},"type":"Feature"},
	{"geometry":{"coordinates":[9.205553,49.148713],"type":"Point"},"properties":{"osm_id":"6416271265","tag":{"amenity":"waste_basket"}},"type":"Feature"},
	{"geometry":{"coordinates":[9.21511,49.144099],"type":"Point"},"properties":{"osm_id":"6430056338","tag":{"amenity":"waste_basket"}},"type":"Feature"},
	{"geometry":{"coordinates":[9.202486,49.130424],"type":"Point"},"properties":{"osm_id":"6440770821","tag":{"amenity":"waste_basket","waste":"trash"}},"type":"Feature"},
	{"geometry":{"coordinates":[9.201931,49.130285],"type":"Point"},"properties":{"osm_id":"6440770822","tag":{"amenity":"waste_basket","waste":"trash"}},"type":"Feature"},
	{"geometry":{"coordinates":[9.201921,49.130555],"type":"Point"},"properties":{"osm_id":"6440770823","tag":{"amenity":"waste_basket","waste":"ash"}},"type":"Feature"},
	{"geometry":{"coordinates":[9.201325,49.130156],"type":"Point"},"properties":{"osm_id":"6440770824","tag":{"amenity":"waste_basket","waste":"trash"}},"type":"Feature"},
	{"geometry":{"coordinates":[9.201983,49.130525],"type":"Point"},"properties":{"osm_id":"6440770825","tag":{"amenity":"waste_basket","waste":"trash"}},"type":"Feature"},
	{"geometry":{"coordinates":[9.201787,49.130158],"type":"Point"},"properties":{"osm_id":"6440770826","tag":{"amenity":"waste_basket","waste":"trash"}},"type":"Feature"},
	{"geometry":{"coordinates":[9.218603,49.142056],"type":"Point"},"properties":{"osm_id":"6453747281","tag":{"amenity":"waste_basket","ashtray":"yes","waste":"trash;cigarettes"}},"type":"Feature"},
	{"geometry":{"coordinates":[9.221919,49.141359],"type":"Point"},"properties":{"osm_id":"6454996541","tag":{"amenity":"waste_basket","ashtray":"yes","waste":"trash;cigarettes"}},"type":"Feature"},
	{"geometry":{"coordinates":[9.221805,49.141067],"type":"Point"},"properties":{"osm_id":"6454996542","tag":{"amenity":"waste_basket","ashtray":"yes","waste":"trash;cigarettes"}},"type":"Feature"},
	{"geometry":{"coordinates":[9.221562,49.140584],"type":"Point"},"properties":{"osm_id":"6454996543","tag":{"amenity":"waste_basket","ashtray":"yes","waste":"trash;cigarettes"}},"type":"Feature"},
	{"geometry":{"coordinates":[9.221373,49.140434],"type":"Point"},"properties":{"osm_id":"6455770844","tag":{"amenity":"waste_basket","ashtray":"yes","waste":"trash;cigarettes"}},"type":"Feature"},
	{"geometry":{"coordinates":[9.221189,49.140262],"type":"Point"},"properties":{"osm_id":"6455770845","tag":{"amenity":"waste_basket","ashtray":"yes","waste":"trash;cigarettes"}},"type":"Feature"},
	{"geometry":{"coordinates":[9.221071,49.140156],"type":"Point"},"properties":{"osm_id":"6455770846","tag":{"amenity":"waste_basket","ashtray":"yes","waste":"trash;cigarettes"}},"type":"Feature"},
	{"geometry":{"coordinates":[9.219431,49.136987],"type":"Point"},"properties":{"osm_id":"6495141784","tag":{"amenity":"waste_basket","ashtray":"no","waste":"trash"}},"type":"Feature"},
	{"geometry":{"coordinates":[9.219262,49.135405],"type":"Point"},"properties":{"osm_id":"6504574965","tag":{"amenity":"waste_basket","ashtray":"yes","waste":"cigarettes"}},"type":"Feature"},
	{"geometry":{"coordinates":[9.20875,49.14268],"type":"Point"},"properties":{"osm_id":"6508231187","tag":{"amenity":"waste_basket","ashtray":"yes","waste":"trash;cigarettes"}},"type":"Feature"},
	{"geometry":{"coordinates":[9.208702,49.142548],"type":"Point"},"properties":{"osm_id":"6508231188","tag":{"amenity":"waste_basket","ashtray":"yes","waste":"trash;cigarettes"}},"type":"Feature"},
	{"geometry":{"coordinates":[9.207922,49.142602],"type":"Point"},"properties":{"osm_id":"6508231189","tag":{"amenity":"waste_basket","waste":"trash"}},"type":"Feature"},
	{"geometry":{"coordinates":[9.20799,49.142615],"type":"Point"},"properties":{"osm_id":"6508231190","tag":{"amenity":"waste_basket","ashtray":"yes","waste":"trash;cigarettes"}},"type":"Feature"},
	{"geometry":{"coordinates":[9.208082,49.142643],"type":"Point"},"properties":{"osm_id":"6508231193","tag":{"amenity":"waste_basket","ashtray":"yes","waste":"trash;cigarettes"}},"type":"Feature"},
	{"geometry":{"coordinates":[9.208532,49.142499],"type":"Point"},"properties":{"osm_id":"6508231195","tag":{"amenity":"waste_basket","ashtray":"yes","waste":"trash;cigarettes"}},"type":"Feature"},
	{"geometry":{"coordinates":[9.219139,49.138406],"type":"Point"},"properties":{"osm_id":"6536697466","tag":{"amenity":"waste_basket","ashtray":"yes","waste":"trash;cigarettes"}},"type":"Feature"},
	{"geometry":{"coordinates":[9.218999,49.137925],"type":"Point"},"properties":{"osm_id":"6536697467","tag":{"amenity":"waste_basket","ashtray":"yes","waste":"trash;cigarettes"}},"type":"Feature"},
	{"geometry":{"coordinates":[9.218469,49.132839],"type":"Point"},"properties":{"osm_id":"6666642342","tag":{"amenity":"waste_basket","ashtray":"yes","waste":"cigarettes"}},"type":"Feature"},
	{"geometry":{"coordinates":[9.219887,49.141118],"type":"Point"},"properties":{"osm_id":"6871899795","tag":{"amenity":"waste_basket"}},"type":"Feature"},
	{"geometry":{"coordinates":[9.21992,49.151219],"type":"Point"},"properties":{"osm_id":"7124463155","tag":{"amenity":"recycling","recycling:glass":"yes","recycling_type":"container"}},"type":"Feature"},
	{"geometry":{"coordinates":[9.18738,49.128876],"type":"Point"},"properties":{"osm_id":"7476121413","tag":{"amenity":"recycling","recycling_type":"container"}},"type":"Feature"}
]
}
