{
"type": "FeatureCollection",
"features": [
	{"geometry":{"coordinates":[9.191831,49.08594],"type":"Point"},"properties":{"osm_id":"408389769","tag":{"amenity":"recycling","operator":"Gemeinde Talheim","recycling_type":"container"}},"type":"Feature"},
	{"geometry":{"coordinates":[9.196278,49.08136],"type":"Point"},"properties":{"osm_id":"408395473","tag":{"amenity":"recycling","recycling_type":"container"}},"type":"Feature"},
	{"geometry":{"coordinates":[9.14897,49.072844],"type":"Point"},"properties":{"osm_id":"416032342","tag":{"amenity":"recycling","recycling:cans":"yes","recycling:clothes":"yes","recycling:glass_bottles":"yes","recycling:paper":"yes","recycling:scrap_metal":"yes","recycling_type":"container"}},"type":"Feature"},
	{"geometry":{"coordinates":[9.142917,49.070713],"type":"Point"},"properties":{"osm_id":"416046910","tag":{"amenity":"recycling","recycling:cans":"yes","recycling:clothes":"yes","recycling:glass":"yes","recycling:paper":"yes","recycling:scrap_metal":"yes"}},"type":"Feature"},
	{"geometry":{"coordinates":[9.152814,49.07118],"type":"Point"},"properties":{"osm_id":"416080817","tag":{"amenity":"recycling","recycling:cans":"yes","recycling:clothes":"yes","recycling:glass_bottles":"yes","recycling:paper":"yes","recycling:scrap_metal":"yes","recycling_type":"container"}},"type":"Feature"},
	{"geometry":{"coordinates":[9.151002,49.076501],"type":"Point"},"properties":{"osm_id":"417140138","tag":{"amenity":"recycling","recycling:cans":"yes","recycling:clothes":"yes","recycling:glass":"yes","recycling:paper":"yes","recycling:scrap_metal":"yes","recycling_type":"container"}},"type":"Feature"},
	{"geometry":{"coordinates":[9.149226,49.077024],"type":"Point"},"properties":{"osm_id":"417146897","tag":{"amenity":"recycling","recycling:cans":"yes","recycling:clothes":"yes","recycling:glass_bottles":"yes","recycling:paper":"yes","recycling:scrap_metal":"yes","recycling_type":"container"}},"type":"Feature"},
	{"geometry":{"coordinates":[9.168819,49.07496],"type":"Point"},"properties":{"osm_id":"435680548","tag":{"amenity":"recycling","recycling:cans":"yes","recycling:clothes":"yes","recycling:glass_bottles":"yes","recycling:paper":"yes","recycling:scrap_metal":"yes","recycling_type":"container"}},"type":"Feature"},
	{"geometry":{"coordinates":[9.163285,49.076194],"type":"Point"},"properties":{"osm_id":"435696488","tag":{"amenity":"recycling","recycling:cans":"yes","recycling:glass_bottles":"yes","recycling:paper":"yes","recycling:scrap_metal":"yes","recycling_type":"container"}},"type":"Feature"},
	{"geometry":{"coordinates":[9.161474,49.063053],"type":"Point"},"properties":{"name":"Recyclinghof Lauffen","osm_id":"442886911","tag":{"amenity":"recycling","recycling_type":"centre"}},"type":"Feature"},
	{"geometry":{"coordinates":[9.162174,49.063142],"type":"Point"},"properties":{"name":"H\u00c3\u00a4ckselplatz Lauffen","osm_id":"442886913","tag":{"amenity":"recycling","recycling:green_waste":"yes","recycling_type":"centre"}},"type":"Feature"},
	{"geometry":{"coordinates":[9.191073,49.078411],"type":"Point"},"properties":{"osm_id":"477246234","tag":{"amenity":"recycling","recycling:glass":"yes","recycling:paper":"yes"}},"type":"Feature"},
	{"geometry":{"coordinates":[9.201081,49.085112],"type":"Point"},"properties":{"osm_id":"599801717","tag":{"amenity":"recycling","recycling:cans":"yes","recycling:glass_bottles":"yes","recycling:magazines":"yes","recycling:newspaper":"yes","recycling:paper":"yes"}},"type":"Feature"},
	{"geometry":{"coordinates":[9.194512,49.048044],"type":"Point"},"properties":{"osm_id":"711709482","tag":{"amenity":"waste_basket"}},"type":"Feature"},
	{"geometry":{"coordinates":[9.184649,49.066681],"type":"Point"},"properties":{"osm_id":"713405646","tag":{"amenity":"waste_basket"}},"type":"Feature"},
	{"geometry":{"coordinates":[9.181235,49.059361],"type":"Point"},"properties":{"osm_id":"713432080","tag":{"amenity":"waste_basket"}},"type":"Feature"},
	{"geometry":{"coordinates":[9.181966,49.057062],"type":"Point"},"properties":{"osm_id":"713599179","tag":{"amenity":"waste_basket"}},"type":"Feature"},
	{"geometry":{"coordinates":[9.198225,49.066486],"type":"Point"},"properties":{"osm_id":"721059792","tag":{"amenity":"waste_basket"}},"type":"Feature"},
	{"geometry":{"coordinates":[9.197967,49.066475],"type":"Point"},"properties":{"osm_id":"721059794","tag":{"amenity":"waste_basket"}},"type":"Feature"},
	{"geometry":{"coordinates":[9.185501,49.049689],"type":"Point"},"properties":{"osm_id":"737995656","tag":{"amenity":"recycling"}},"type":"Feature"},
	{"geometry":{"coordinates":[9.185868,49.04873],"type":"Point"},"properties":{"osm_id":"738067590","tag":{"amenity":"waste_basket"}},"type":"Feature"},
	{"geometry":{"coordinates":[9.185587,49.049456],"type":"Point"},"properties":{"osm_id":"738067594","tag":{"amenity":"waste_basket"}},"type":"Feature"},
	{"geometry":{"coordinates":[9.210716,49.059598],"type":"Point"},"properties":{"osm_id":"748411042","tag":{"amenity":"waste_basket"}},"type":"Feature"},
	{"geometry":{"coordinates":[9.210789,49.059646],"type":"Point"},"properties":{"osm_id":"748411048","tag":{"amenity":"waste_basket"}},"type":"Feature"},
	{"geometry":{"coordinates":[9.196593,49.080943],"type":"Point"},"properties":{"osm_id":"833337773","tag":{"amenity":"waste_basket"}},"type":"Feature"},
	{"geometry":{"coordinates":[9.197033,49.082872],"type":"Point"},"properties":{"osm_id":"833384188","tag":{"amenity":"waste_basket"}},"type":"Feature"},
	{"geometry":{"coordinates":[9.196152,49.083058],"type":"Point"},"properties":{"osm_id":"833384211","tag":{"amenity":"waste_basket"}},"type":"Feature"},
	{"geometry":{"coordinates":[9.164244,49.069563],"type":"Point"},"properties":{"osm_id":"839082934","tag":{"amenity":"waste_basket"}},"type":"Feature"},
	{"geometry":{"coordinates":[9.197373,49.043327],"type":"Point"},"properties":{"osm_id":"1113119314","tag":{"amenity":"recycling","recycling:cans":"yes","recycling:glass_bottles":"yes","recycling:paper":"yes","recycling_type":"container"}},"type":"Feature"},
	{"geometry":{"coordinates":[9.198494,49.088661],"type":"Point"},"properties":{"osm_id":"1122648477","tag":{"amenity":"recycling"}},"type":"Feature"},
	{"geometry":{"coordinates":[9.198575,49.088701],"type":"Point"},"properties":{"osm_id":"1122648724","tag":{"amenity":"recycling"}},"type":"Feature"},
	{"geometry":{"coordinates":[9.154973,49.075965],"type":"Point"},"properties":{"osm_id":"1123779444","tag":{"amenity":"waste_basket"}},"type":"Feature"},
	{"geometry":{"coordinates":[9.216361,49.094714],"type":"Point"},"properties":{"osm_id":"1408605515","tag":{"amenity":"recycling","recycling:glass_bottles":"yes","recycling:paper":"yes","recycling_type":"container"}},"type":"Feature"},
	{"geometry":{"coordinates":[9.197876,49.077388],"type":"Point"},"properties":{"osm_id":"1838261743","tag":{"amenity":"waste_basket"}},"type":"Feature"},
	{"geometry":{"coordinates":[9.198726,49.079191],"type":"Point"},"properties":{"osm_id":"1838261830","tag":{"amenity":"waste_basket"}},"type":"Feature"},
	{"geometry":{"coordinates":[9.187847,49.041808],"type":"Point"},"properties":{"osm_id":"1853288411","tag":{"amenity":"recycling","recycling:clothes":"yes","recycling:glass":"yes","recycling:paper":"yes","recycling_type":"container"}},"type":"Feature"},
	{"geometry":{"coordinates":[9.193175,49.050418],"type":"Point"},"properties":{"osm_id":"1854364327","tag":{"amenity":"waste_basket"}},"type":"Feature"},
	{"geometry":{"coordinates":[9.193022,49.05061],"type":"Point"},"properties":{"osm_id":"1854364384","tag":{"amenity":"waste_basket"}},"type":"Feature"},
	{"geometry":{"coordinates":[9.193113,49.050675],"type":"Point"},"properties":{"osm_id":"1854364394","tag":{"amenity":"waste_basket"}},"type":"Feature"},
	{"geometry":{"coordinates":[9.192965,49.050864],"type":"Point"},"properties":{"osm_id":"1854364417","tag":{"amenity":"waste_basket"}},"type":"Feature"},
	{"geometry":{"coordinates":[9.193893,49.050625],"type":"Point"},"properties":{"osm_id":"1854400824","tag":{"amenity":"waste_basket"}},"type":"Feature"},
	{"geometry":{"coordinates":[9.192285,49.049974],"type":"Point"},"properties":{"highway":"bus_stop","name":"Neckarwestheim, L\u00c3\u00a4ndelstra\u00c3\u009fe","osm_id":"1855865107","tag":{"amenity":"waste_basket","network":"HNV","operator":"Gross","shelter":"no"}},"type":"Feature"},
	{"geometry":{"coordinates":[9.191978,49.049816],"type":"Point"},"properties":{"osm_id":"1857207928","tag":{"amenity":"recycling","recycling:cans":"yes","recycling:glass":"yes","recycling:magazines":"yes","recycling:paper":"yes"}},"type":"Feature"},
	{"geometry":{"coordinates":[9.19194,49.049599],"type":"Point"},"properties":{"osm_id":"1858894116","tag":{"amenity":"waste_basket"}},"type":"Feature"},
	{"geometry":{"coordinates":[9.190571,49.047914],"type":"Point"},"properties":{"osm_id":"1865137416","tag":{"amenity":"waste_basket"}},"type":"Feature"},
	{"geometry":{"coordinates":[9.200192,49.042572],"type":"Point"},"properties":{"barrier":"gate","osm_id":"2881646786"},"type":"Feature"},
	{"geometry":{"coordinates":[9.19839,49.065235],"type":"Point"},"properties":{"osm_id":"3387521749","tag":{"amenity":"waste_basket"}},"type":"Feature"},
	{"geometry":{"coordinates":[9.198331,49.065285],"type":"Point"},"properties":{"osm_id":"3387521750","tag":{"amenity":"waste_basket"}},"type":"Feature"},
	{"geometry":{"coordinates":[9.150746,49.038499],"type":"Point"},"properties":{"osm_id":"3400069278","tag":{"amenity":"waste_basket"}},"type":"Feature"},
	{"geometry":{"coordinates":[9.150689,49.038792],"type":"Point"},"properties":{"osm_id":"3400069282","tag":{"amenity":"waste_basket"}},"type":"Feature"},
	{"geometry":{"coordinates":[9.143121,49.067187],"type":"Point"},"properties":{"osm_id":"6416278903","tag":{"amenity":"waste_basket"}},"type":"Feature"},
	{"geometry":{"coordinates":[9.145642,49.066394],"type":"Point"},"properties":{"osm_id":"6416347661","tag":{"amenity":"recycling","recycling:cans":"yes","recycling:clothes":"yes","recycling:glass_bottles":"yes","recycling:paper":"yes","recycling:shoes":"yes","recycling_type":"container"}},"type":"Feature"},
	{"geometry":{"coordinates":[9.158023,49.07676],"type":"Point"},"properties":{"osm_id":"6421224694","tag":{"amenity":"waste_basket","waste":"trash"}},"type":"Feature"},
	{"geometry":{"coordinates":[9.202525,49.045609],"type":"Point"},"properties":{"osm_id":"6948513215","tag":{"amenity":"waste_basket"}},"type":"Feature"},
	{"geometry":{"coordinates":[9.161672,49.076728],"type":"Point"},"properties":{"osm_id":"7947991151","tag":{"amenity":"waste_basket"}},"type":"Feature"}
]
}
