{
"type": "FeatureCollection",
"features": [
	{"geometry":{"coordinates":[9.212652,49.00546],"type":"Point"},"properties":{"osm_id":"528912613","tag":{"amenity":"waste_basket"}},"type":"Feature"},
	{"geometry":{"coordinates":[9.216571,49.007783],"type":"Point"},"properties":{"osm_id":"528912682","tag":{"amenity":"waste_basket"}},"type":"Feature"},
	{"geometry":{"coordinates":[9.22098,49.010121],"type":"Point"},"properties":{"osm_id":"528912989","tag":{"amenity":"waste_basket"}},"type":"Feature"},
	{"geometry":{"coordinates":[9.212613,49.009146],"type":"Point"},"properties":{"osm_id":"534459369","tag":{"amenity":"waste_basket"}},"type":"Feature"},
	{"geometry":{"coordinates":[9.206858,49.014449],"type":"Point"},"properties":{"osm_id":"534459411","tag":{"amenity":"waste_basket"}},"type":"Feature"},
	{"geometry":{"coordinates":[9.207414,49.018377],"type":"Point"},"properties":{"osm_id":"534459551","tag":{"amenity":"waste_basket"}},"type":"Feature"},
	{"geometry":{"coordinates":[9.20691,49.017157],"type":"Point"},"properties":{"osm_id":"534587234","tag":{"amenity":"waste_basket"}},"type":"Feature"},
	{"geometry":{"coordinates":[9.218042,48.986935],"type":"Point"},"properties":{"name":"H\u00c3\u00a4ckselplatz","osm_id":"567151577","tag":{"amenity":"recycling","recycling:green_waste":"yes","recycling_type":"centre"}},"type":"Feature"},
	{"geometry":{"coordinates":[9.160503,49.024366],"type":"Point"},"properties":{"osm_id":"973865515","tag":{"amenity":"recycling","recycling:clothes":"yes"}},"type":"Feature"},
	{"geometry":{"coordinates":[9.156037,49.029386],"type":"Point"},"properties":{"osm_id":"1583128193","tag":{"amenity":"recycling","recycling:glass":"yes","recycling_type":"container"}},"type":"Feature"},
	{"geometry":{"coordinates":[9.156387,49.032395],"type":"Point"},"properties":{"osm_id":"1583128795","tag":{"amenity":"recycling","recycling:clothes":"yes"}},"type":"Feature"},
	{"geometry":{"coordinates":[9.215996,48.983291],"type":"Point"},"properties":{"osm_id":"1586133885","tag":{"amenity":"waste_basket"}},"type":"Feature"},
	{"geometry":{"coordinates":[9.143175,48.999963],"type":"Point"},"properties":{"osm_id":"1643271295","tag":{"amenity":"recycling","recycling:batteries":"no","recycling:cans":"yes","recycling:clothes":"yes","recycling:glass":"yes","recycling:paper":"yes","recycling:scrap_metal":"no","recycling_type":"container"}},"type":"Feature"},
	{"geometry":{"coordinates":[9.142931,49.00018],"type":"Point"},"properties":{"osm_id":"1643271324","tag":{"amenity":"waste_basket"}},"type":"Feature"},
	{"geometry":{"coordinates":[9.142781,49.000262],"type":"Point"},"properties":{"osm_id":"1643271346","tag":{"amenity":"waste_basket"}},"type":"Feature"},
	{"geometry":{"coordinates":[9.210484,49.017775],"type":"Point"},"properties":{"osm_id":"1643272089","tag":{"amenity":"waste_basket"}},"type":"Feature"},
	{"geometry":{"coordinates":[9.207277,49.015493],"type":"Point"},"properties":{"osm_id":"1871494970","tag":{"amenity":"waste_basket","covered":"yes"}},"type":"Feature"},
	{"geometry":{"coordinates":[9.207159,49.015594],"type":"Point"},"properties":{"osm_id":"1871494989","tag":{"amenity":"waste_basket"}},"type":"Feature"},
	{"geometry":{"coordinates":[9.207103,49.015742],"type":"Point"},"properties":{"osm_id":"1871495058","tag":{"amenity":"waste_basket"}},"type":"Feature"},
	{"geometry":{"coordinates":[9.20719,49.015745],"type":"Point"},"properties":{"osm_id":"1871495061","tag":{"amenity":"waste_basket"}},"type":"Feature"},
	{"geometry":{"coordinates":[9.206903,49.01584],"type":"Point"},"properties":{"osm_id":"1871495090","tag":{"amenity":"waste_basket"}},"type":"Feature"},
	{"geometry":{"coordinates":[9.206938,49.016037],"type":"Point"},"properties":{"osm_id":"1871495171","tag":{"amenity":"waste_basket"}},"type":"Feature"},
	{"geometry":{"coordinates":[9.206968,49.01675],"type":"Point"},"properties":{"osm_id":"1871495279","tag":{"amenity":"waste_basket"}},"type":"Feature"},
	{"geometry":{"coordinates":[9.21538,49.00007],"type":"Point"},"properties":{"osm_id":"2597436584","tag":{"amenity":"waste_basket"}},"type":"Feature"},
	{"geometry":{"coordinates":[9.148354,49.018677],"type":"Point"},"properties":{"osm_id":"3840618392","tag":{"amenity":"recycling"}},"type":"Feature"},
	{"geometry":{"coordinates":[9.149962,49.000322],"type":"Point"},"properties":{"barrier":"kissing_gate","osm_id":"3840977570"},"type":"Feature"},
	{"geometry":{"coordinates":[9.144366,48.997888],"type":"Point"},"properties":{"osm_id":"3866815363","tag":{"amenity":"waste_basket"}},"type":"Feature"},
	{"geometry":{"coordinates":[9.155678,48.995645],"type":"Point"},"properties":{"osm_id":"3868754550","tag":{"amenity":"recycling","recycling:clothes":"yes","recycling_type":"container"}},"type":"Feature"},
	{"geometry":{"coordinates":[9.155688,48.99566],"type":"Point"},"properties":{"osm_id":"3868754551","tag":{"amenity":"recycling","recycling:clothes":"yes","recycling_type":"container"}},"type":"Feature"},
	{"geometry":{"coordinates":[9.155607,48.995566],"type":"Point"},"properties":{"osm_id":"3868754552","tag":{"amenity":"waste_basket"}},"type":"Feature"},
	{"geometry":{"coordinates":[9.144635,48.998386],"type":"Point"},"properties":{"osm_id":"3882063185","tag":{"amenity":"waste_basket"}},"type":"Feature"},
	{"geometry":{"coordinates":[9.147432,49.034402],"type":"Point"},"properties":{"osm_id":"3898544473","tag":{"amenity":"recycling"}},"type":"Feature"},
	{"geometry":{"coordinates":[9.14073,48.996291],"type":"Point"},"properties":{"osm_id":"3898586436","tag":{"amenity":"waste_basket"}},"type":"Feature"},
	{"geometry":{"coordinates":[9.147296,49.00046],"type":"Point"},"properties":{"osm_id":"3900025321","tag":{"amenity":"waste_basket"}},"type":"Feature"},
	{"geometry":{"coordinates":[9.14234,48.995381],"type":"Point"},"properties":{"osm_id":"3902985342","tag":{"amenity":"waste_basket"}},"type":"Feature"},
	{"geometry":{"coordinates":[9.158175,48.987491],"type":"Point"},"properties":{"osm_id":"4040131124","tag":{"amenity":"waste_disposal"}},"type":"Feature"},
	{"geometry":{"coordinates":[9.159299,48.987589],"type":"Point"},"properties":{"osm_id":"4040268907","tag":{"amenity":"waste_disposal"}},"type":"Feature"},
	{"geometry":{"coordinates":[9.20358,48.996247],"type":"Point"},"properties":{"osm_id":"4392436579","tag":{"amenity":"waste_basket"}},"type":"Feature"},
	{"geometry":{"coordinates":[9.203682,48.9963],"type":"Point"},"properties":{"osm_id":"4392436581","tag":{"amenity":"waste_basket"}},"type":"Feature"},
	{"geometry":{"coordinates":[9.148457,48.99882],"type":"Point"},"properties":{"osm_id":"4425025197","tag":{"amenity":"waste_basket"}},"type":"Feature"},
	{"geometry":{"coordinates":[9.149975,49.00048],"type":"Point"},"properties":{"osm_id":"4425053978","tag":{"amenity":"waste_basket"}},"type":"Feature"},
	{"geometry":{"coordinates":[9.149669,49.000526],"type":"Point"},"properties":{"osm_id":"4425066183","tag":{"amenity":"waste_basket"}},"type":"Feature"},
	{"geometry":{"coordinates":[9.149212,48.99968],"type":"Point"},"properties":{"osm_id":"4425078687","tag":{"amenity":"waste_basket"}},"type":"Feature"},
	{"geometry":{"coordinates":[9.177377,49.001532],"type":"Point"},"properties":{"osm_id":"4475815472","tag":{"amenity":"waste_basket"}},"type":"Feature"},
	{"geometry":{"coordinates":[9.150695,49.037524],"type":"Point"},"properties":{"osm_id":"4665531608","tag":{"amenity":"waste_basket"}},"type":"Feature"},
	{"geometry":{"coordinates":[9.156194,48.996619],"type":"Point"},"properties":{"osm_id":"4681994437","tag":{"amenity":"waste_basket"}},"type":"Feature"},
	{"geometry":{"coordinates":[9.150994,49.037175],"type":"Point"},"properties":{"osm_id":"4709787625","tag":{"amenity":"waste_basket"}},"type":"Feature"},
	{"geometry":{"coordinates":[9.151814,49.029485],"type":"Point"},"properties":{"osm_id":"5079140184","tag":{"amenity":"waste_basket"}},"type":"Feature"},
	{"geometry":{"coordinates":[9.152244,49.030062],"type":"Point"},"properties":{"osm_id":"5079140187","tag":{"amenity":"waste_basket"}},"type":"Feature"},
	{"geometry":{"coordinates":[9.202198,48.99982],"type":"Point"},"properties":{"osm_id":"6456001064","tag":{"amenity":"waste_basket"}},"type":"Feature"},
	{"geometry":{"coordinates":[9.178272,48.995877],"type":"Point"},"properties":{"osm_id":"6549545928","tag":{"amenity":"recycling","recycling:glass":"yes","recycling_type":"container"}},"type":"Feature"},
	{"geometry":{"coordinates":[9.155613,49.024246],"type":"Point"},"properties":{"osm_id":"6945037137","tag":{"amenity":"waste_basket"}},"type":"Feature"},
	{"geometry":{"coordinates":[9.155003,49.024607],"type":"Point"},"properties":{"osm_id":"6945232994","tag":{"amenity":"recycling","recycling:clothes":"yes","recycling:shoes":"yes","recycling_type":"container"}},"type":"Feature"},
	{"geometry":{"coordinates":[9.156815,49.033883],"type":"Point"},"properties":{"osm_id":"6945561113","tag":{"amenity":"waste_basket"}},"type":"Feature"},
	{"geometry":{"coordinates":[9.162139,49.035698],"type":"Point"},"properties":{"osm_id":"6945923945","tag":{"amenity":"waste_basket"}},"type":"Feature"},
	{"geometry":{"coordinates":[9.150368,48.989308],"type":"Point"},"properties":{"osm_id":"7233589920","tag":{"amenity":"waste_basket"}},"type":"Feature"},
	{"geometry":{"coordinates":[9.145148,49.010288],"type":"Point"},"properties":{"osm_id":"7717730933","tag":{"amenity":"waste_basket"}},"type":"Feature"},
	{"geometry":{"coordinates":[9.182547,49.003947],"type":"Point"},"properties":{"osm_id":"7925355287","tag":{"amenity":"waste_basket"}},"type":"Feature"}
]
}
