{
"type": "FeatureCollection",
"features": [
	{"geometry":{"coordinates":[9.198094,48.957608],"type":"Point"},"properties":{"osm_id":"289592332","tag":{"amenity":"recycling","image":"https://storage12.openstreetcam.org/files/photo/2019/9/20/lth/1965137_035ad_5d847f6dab606.jpg","recycling:glass":"no","recycling:glass_bottles":"yes","recycling_type":"container","survey:date":"2019-09-20"}},"type":"Feature"},
	{"geometry":{"coordinates":[9.191005,48.968688],"type":"Point"},"properties":{"osm_id":"1242062945","tag":{"amenity":"waste_basket","waste":"trash"}},"type":"Feature"},
	{"geometry":{"coordinates":[9.187399,48.941858],"type":"Point"},"properties":{"osm_id":"1717941094","tag":{"amenity":"recycling","recycling_type":"container"}},"type":"Feature"},
	{"geometry":{"coordinates":[9.199202,48.977355],"type":"Point"},"properties":{"osm_id":"1746977991","tag":{"amenity":"waste_basket"}},"type":"Feature"},
	{"geometry":{"coordinates":[9.200226,48.975815],"type":"Point"},"properties":{"osm_id":"1747151597","tag":{"amenity":"waste_basket"}},"type":"Feature"},
	{"geometry":{"coordinates":[9.201623,48.974725],"type":"Point"},"properties":{"osm_id":"1747470036","tag":{"amenity":"waste_basket"}},"type":"Feature"},
	{"geometry":{"coordinates":[9.202381,48.975082],"type":"Point"},"properties":{"osm_id":"1747470050","tag":{"amenity":"waste_basket"}},"type":"Feature"},
	{"geometry":{"coordinates":[9.203274,48.974828],"type":"Point"},"properties":{"osm_id":"1753261405","tag":{"amenity":"waste_basket"}},"type":"Feature"},
	{"geometry":{"coordinates":[9.196356,48.939968],"type":"Point"},"properties":{"name":"H\u00c3\u00a4ckselhof","osm_id":"2049583520","tag":{"amenity":"recycling","recycling:green_waste":"yes","recycling_type":"centre"}},"type":"Feature"},
	{"geometry":{"coordinates":[9.149556,48.924965],"type":"Point"},"properties":{"osm_id":"2671706907","tag":{"amenity":"waste_basket"}},"type":"Feature"},
	{"geometry":{"coordinates":[9.149926,48.924933],"type":"Point"},"properties":{"osm_id":"2671706909","tag":{"amenity":"waste_basket"}},"type":"Feature"},
	{"geometry":{"coordinates":[9.174371,48.92265],"type":"Point"},"properties":{"osm_id":"3563857499","tag":{"amenity":"waste_basket"}},"type":"Feature"},
	{"geometry":{"coordinates":[9.179472,48.928953],"type":"Point"},"properties":{"osm_id":"3840549358","tag":{"amenity":"recycling","recycling_type":"container"}},"type":"Feature"},
	{"geometry":{"coordinates":[9.176077,48.963757],"type":"Point"},"properties":{"name":"Bello - F\u00c3\u00bcr Hundekot","osm_id":"4010871532","tag":{"amenity":"waste_basket"}},"type":"Feature"},
	{"geometry":{"coordinates":[9.204799,48.940905],"type":"Point"},"properties":{"osm_id":"4389131871","tag":{"amenity":"waste_basket"}},"type":"Feature"},
	{"geometry":{"coordinates":[9.187058,48.941468],"type":"Point"},"properties":{"osm_id":"4389391214","tag":{"amenity":"waste_basket"}},"type":"Feature"},
	{"geometry":{"coordinates":[9.19042,48.943624],"type":"Point"},"properties":{"osm_id":"4389391229","tag":{"amenity":"waste_basket"}},"type":"Feature"},
	{"geometry":{"coordinates":[9.183815,48.955875],"type":"Point"},"properties":{"osm_id":"4389518644","tag":{"amenity":"waste_basket"}},"type":"Feature"},
	{"geometry":{"coordinates":[9.203921,48.968363],"type":"Point"},"properties":{"osm_id":"4392041932","tag":{"amenity":"waste_basket"}},"type":"Feature"},
	{"geometry":{"coordinates":[9.20559,48.970748],"type":"Point"},"properties":{"osm_id":"4392117689","tag":{"amenity":"waste_basket"}},"type":"Feature"},
	{"geometry":{"coordinates":[9.151223,48.926773],"type":"Point"},"properties":{"osm_id":"4591245175","tag":{"amenity":"waste_basket"}},"type":"Feature"},
	{"geometry":{"coordinates":[9.151151,48.926591],"type":"Point"},"properties":{"osm_id":"4591265434","tag":{"amenity":"waste_basket"}},"type":"Feature"},
	{"geometry":{"coordinates":[9.151367,48.926487],"type":"Point"},"properties":{"osm_id":"4591265435","tag":{"amenity":"waste_basket"}},"type":"Feature"},
	{"geometry":{"coordinates":[9.151461,48.926459],"type":"Point"},"properties":{"osm_id":"4591265436","tag":{"amenity":"waste_basket"}},"type":"Feature"},
	{"geometry":{"coordinates":[9.15138,48.926565],"type":"Point"},"properties":{"osm_id":"4591265438","tag":{"amenity":"waste_basket"}},"type":"Feature"},
	{"geometry":{"coordinates":[9.191256,48.968515],"type":"Point"},"properties":{"osm_id":"5806959948","tag":{"amenity":"waste_basket","waste":"trash"}},"type":"Feature"},
	{"geometry":{"coordinates":[9.14441,48.934512],"type":"Point"},"properties":{"osm_id":"6286494604","tag":{"amenity":"waste_basket","waste":"dog_excrement"}},"type":"Feature"},
	{"geometry":{"coordinates":[9.200104,48.973045],"type":"Point"},"properties":{"osm_id":"6356082803","tag":{"amenity":"waste_basket","check_date":"2019-03-22","waste":"dog_excrement"}},"type":"Feature"},
	{"geometry":{"coordinates":[9.185592,48.966827],"type":"Point"},"properties":{"osm_id":"6356082804","tag":{"amenity":"waste_basket","check_date":"2019-03-22","waste":"dog_excrement"}},"type":"Feature"},
	{"geometry":{"coordinates":[9.14655,48.927998],"type":"Point"},"properties":{"osm_id":"6947776820","tag":{"amenity":"waste_basket"}},"type":"Feature"},
	{"geometry":{"coordinates":[9.147675,48.928481],"type":"Point"},"properties":{"osm_id":"6947784469","tag":{"amenity":"waste_basket"}},"type":"Feature"},
	{"geometry":{"coordinates":[9.188932,48.932391],"type":"Point"},"properties":{"osm_id":"7293227912","tag":{"amenity":"recycling","description":"Altkleidercontainer","recycling:clothes":"yes","recycling_type":"container"}},"type":"Feature"},
	{"geometry":{"coordinates":[9.157261,48.939404],"type":"Point"},"properties":{"osm_id":"7559844770","tag":{"amenity":"waste_basket"}},"type":"Feature"},
	{"geometry":{"coordinates":[9.141504,48.948634],"type":"Point"},"properties":{"osm_id":"7655700179","tag":{"amenity":"waste_basket"}},"type":"Feature"},
	{"geometry":{"coordinates":[9.195871,48.943331],"type":"Point"},"properties":{"osm_id":"7843755746","tag":{"amenity":"waste_basket"}},"type":"Feature"},
	{"geometry":{"coordinates":[9.191927,48.954176],"type":"Point"},"properties":{"osm_id":"7843811264","tag":{"amenity":"waste_basket"}},"type":"Feature"},
	{"geometry":{"coordinates":[9.192152,48.946372],"type":"Point"},"properties":{"osm_id":"7843915114","tag":{"amenity":"waste_basket"}},"type":"Feature"}
]
}
