{
"type": "FeatureCollection",
"features": [
	{"geometry":{"coordinates":[9.16884,48.892837],"type":"Point"},"properties":{"osm_id":"34918023","tag":{"amenity":"recycling","recycling_type":"container","wheelchair":"yes"}},"type":"Feature"},
	{"geometry":{"coordinates":[9.193931,48.890469],"type":"Point"},"properties":{"osm_id":"299812458","tag":{"amenity":"recycling","recycling:glass":"yes","recycling_type":"container"}},"type":"Feature"},
	{"geometry":{"coordinates":[9.209357,48.901265],"type":"Point"},"properties":{"osm_id":"450523822","tag":{"amenity":"waste_disposal"}},"type":"Feature"},
	{"geometry":{"coordinates":[9.210329,48.900563],"type":"Point"},"properties":{"osm_id":"450523826","tag":{"amenity":"waste_disposal"}},"type":"Feature"},
	{"geometry":{"coordinates":[9.210135,48.901304],"type":"Point"},"properties":{"osm_id":"450523828","tag":{"amenity":"waste_disposal"}},"type":"Feature"},
	{"geometry":{"coordinates":[9.210686,48.900704],"type":"Point"},"properties":{"osm_id":"450523831","tag":{"amenity":"waste_disposal"}},"type":"Feature"},
	{"geometry":{"coordinates":[9.210386,48.899822],"type":"Point"},"properties":{"osm_id":"450523833","tag":{"amenity":"waste_disposal"}},"type":"Feature"},
	{"geometry":{"coordinates":[9.210718,48.900139],"type":"Point"},"properties":{"osm_id":"450523836","tag":{"amenity":"waste_disposal"}},"type":"Feature"},
	{"geometry":{"coordinates":[9.181139,48.895723],"type":"Point"},"properties":{"osm_id":"580284231","tag":{"amenity":"recycling","recycling:glass":"yes","recycling_type":"container"}},"type":"Feature"},
	{"geometry":{"coordinates":[9.17134,48.904405],"type":"Point"},"properties":{"osm_id":"580284233","tag":{"amenity":"recycling","recycling:glass":"yes","recycling_type":"container"}},"type":"Feature"},
	{"geometry":{"coordinates":[9.172537,48.919111],"type":"Point"},"properties":{"osm_id":"596623931","tag":{"amenity":"recycling","recycling:glass":"yes","recycling_type":"container"}},"type":"Feature"},
	{"geometry":{"coordinates":[9.176224,48.87619],"type":"Point"},"properties":{"osm_id":"1020127872","tag":{"amenity":"recycling","recycling:clothes":"yes","recycling:glass":"yes"}},"type":"Feature"},
	{"geometry":{"coordinates":[9.1555,48.884134],"type":"Point"},"properties":{"osm_id":"1285376558","tag":{"amenity":"recycling","recycling:glass":"yes","recycling_type":"container"}},"type":"Feature"},
	{"geometry":{"coordinates":[9.209522,48.911543],"type":"Point"},"properties":{"osm_id":"1363089185","tag":{"amenity":"waste_basket"}},"type":"Feature"},
	{"geometry":{"coordinates":[9.208924,48.912179],"type":"Point"},"properties":{"osm_id":"1363089225","tag":{"amenity":"waste_basket"}},"type":"Feature"},
	{"geometry":{"coordinates":[9.208938,48.912572],"type":"Point"},"properties":{"osm_id":"1363089239","tag":{"amenity":"waste_basket"}},"type":"Feature"},
	{"geometry":{"coordinates":[9.178282,48.905203],"type":"Point"},"properties":{"osm_id":"1607452706","tag":{"amenity":"recycling","recycling:clothes":"yes","recycling_type":"container"}},"type":"Feature"},
	{"geometry":{"coordinates":[9.186224,48.904548],"type":"Point"},"properties":{"osm_id":"1737769424","tag":{"amenity":"waste_basket"}},"type":"Feature"},
	{"geometry":{"coordinates":[9.185179,48.904552],"type":"Point"},"properties":{"osm_id":"1737769425","tag":{"amenity":"waste_basket"}},"type":"Feature"},
	{"geometry":{"coordinates":[9.184952,48.904689],"type":"Point"},"properties":{"osm_id":"1737769438","tag":{"amenity":"waste_basket"}},"type":"Feature"},
	{"geometry":{"coordinates":[9.185505,48.904811],"type":"Point"},"properties":{"osm_id":"1737769458","tag":{"amenity":"waste_basket"}},"type":"Feature"},
	{"geometry":{"coordinates":[9.186727,48.905009],"type":"Point"},"properties":{"osm_id":"1737769490","tag":{"amenity":"waste_basket"}},"type":"Feature"},
	{"geometry":{"coordinates":[9.186131,48.905423],"type":"Point"},"properties":{"osm_id":"1737769526","tag":{"amenity":"waste_basket"}},"type":"Feature"},
	{"geometry":{"coordinates":[9.185775,48.90565],"type":"Point"},"properties":{"osm_id":"1737769533","tag":{"amenity":"waste_basket"}},"type":"Feature"},
	{"geometry":{"coordinates":[9.198638,48.885073],"type":"Point"},"properties":{"osm_id":"1821636913","tag":{"amenity":"waste_basket"}},"type":"Feature"},
	{"geometry":{"coordinates":[9.19933,48.88529],"type":"Point"},"properties":{"osm_id":"1821636919","tag":{"amenity":"waste_basket"}},"type":"Feature"},
	{"geometry":{"coordinates":[9.19971,48.885337],"type":"Point"},"properties":{"osm_id":"1821636930","tag":{"amenity":"waste_basket"}},"type":"Feature"},
	{"geometry":{"coordinates":[9.200682,48.885352],"type":"Point"},"properties":{"osm_id":"1821636939","tag":{"amenity":"waste_basket"}},"type":"Feature"},
	{"geometry":{"coordinates":[9.198258,48.885485],"type":"Point"},"properties":{"osm_id":"1821636959","tag":{"amenity":"waste_basket"}},"type":"Feature"},
	{"geometry":{"coordinates":[9.198178,48.885499],"type":"Point"},"properties":{"osm_id":"1821636973","tag":{"amenity":"waste_basket"}},"type":"Feature"},
	{"geometry":{"coordinates":[9.198244,48.885578],"type":"Point"},"properties":{"osm_id":"1821636986","tag":{"amenity":"waste_basket"}},"type":"Feature"},
	{"geometry":{"coordinates":[9.203807,48.886114],"type":"Point"},"properties":{"osm_id":"1821636995","tag":{"amenity":"waste_basket"}},"type":"Feature"},
	{"geometry":{"coordinates":[9.201667,48.88688],"type":"Point"},"properties":{"osm_id":"1821637004","tag":{"amenity":"waste_basket"}},"type":"Feature"},
	{"geometry":{"coordinates":[9.204071,48.88538],"type":"Point"},"properties":{"osm_id":"1821648717","tag":{"amenity":"waste_basket"}},"type":"Feature"},
	{"geometry":{"coordinates":[9.203935,48.88542],"type":"Point"},"properties":{"osm_id":"1821648722","tag":{"amenity":"waste_basket"}},"type":"Feature"},
	{"geometry":{"coordinates":[9.202364,48.885664],"type":"Point"},"properties":{"osm_id":"1821648741","tag":{"amenity":"waste_basket"}},"type":"Feature"},
	{"geometry":{"coordinates":[9.191051,48.893913],"type":"Point"},"properties":{"osm_id":"2157226843","tag":{"amenity":"waste_basket"}},"type":"Feature"},
	{"geometry":{"coordinates":[9.203213,48.908838],"type":"Point"},"properties":{"osm_id":"2663516528","tag":{"amenity":"recycling","recycling:clothes":"yes","recycling_type":"container"}},"type":"Feature"},
	{"geometry":{"coordinates":[9.177396,48.905904],"type":"Point"},"properties":{"osm_id":"2696566932","tag":{"amenity":"recycling","operator":"Malteser","recycling:clothes":"yes","recycling_type":"container"}},"type":"Feature"},
	{"geometry":{"coordinates":[9.195321,48.899875],"type":"Point"},"properties":{"osm_id":"2904749802","tag":{"amenity":"waste_basket"}},"type":"Feature"},
	{"geometry":{"coordinates":[9.195113,48.899996],"type":"Point"},"properties":{"osm_id":"2904749806","tag":{"amenity":"waste_basket"}},"type":"Feature"},
	{"geometry":{"coordinates":[9.150984,48.921101],"type":"Point"},"properties":{"osm_id":"3347737746","tag":{"amenity":"waste_basket"}},"type":"Feature"},
	{"geometry":{"coordinates":[9.184814,48.8924],"type":"Point"},"properties":{"osm_id":"3408896320","tag":{"amenity":"waste_basket"}},"type":"Feature"},
	{"geometry":{"coordinates":[9.184966,48.892521],"type":"Point"},"properties":{"osm_id":"3408899141","tag":{"amenity":"waste_basket"}},"type":"Feature"},
	{"geometry":{"coordinates":[9.184878,48.892621],"type":"Point"},"properties":{"osm_id":"3408899143","tag":{"amenity":"waste_basket"}},"type":"Feature"},
	{"geometry":{"coordinates":[9.186277,48.891094],"type":"Point"},"properties":{"osm_id":"3409084138","tag":{"amenity":"waste_basket"}},"type":"Feature"},
	{"geometry":{"coordinates":[9.185597,48.891807],"type":"Point"},"properties":{"osm_id":"3409084144","tag":{"amenity":"waste_basket"}},"type":"Feature"},
	{"geometry":{"coordinates":[9.185489,48.891931],"type":"Point"},"properties":{"osm_id":"3409084153","tag":{"amenity":"waste_basket"}},"type":"Feature"},
	{"geometry":{"coordinates":[9.182278,48.870147],"type":"Point"},"properties":{"osm_id":"3556924304","tag":{"amenity":"recycling","recycling:clothes":"yes","recycling:glass":"yes","recycling_type":"container"}},"type":"Feature"},
	{"geometry":{"coordinates":[9.190476,48.883048],"type":"Point"},"properties":{"osm_id":"3557724200","tag":{"amenity":"waste_basket"}},"type":"Feature"},
	{"geometry":{"coordinates":[9.190875,48.885954],"type":"Point"},"properties":{"osm_id":"3558492359","tag":{"amenity":"waste_basket"}},"type":"Feature"},
	{"geometry":{"coordinates":[9.190872,48.886051],"type":"Point"},"properties":{"osm_id":"3558492361","tag":{"amenity":"waste_basket"}},"type":"Feature"},
	{"geometry":{"coordinates":[9.190575,48.890856],"type":"Point"},"properties":{"osm_id":"3559101238","tag":{"amenity":"waste_basket"}},"type":"Feature"},
	{"geometry":{"coordinates":[9.190369,48.894177],"type":"Point"},"properties":{"osm_id":"3559451906","tag":{"amenity":"waste_basket"}},"type":"Feature"},
	{"geometry":{"coordinates":[9.190395,48.897468],"type":"Point"},"properties":{"osm_id":"3559459735","tag":{"amenity":"waste_basket"}},"type":"Feature"},
	{"geometry":{"coordinates":[9.190985,48.897596],"type":"Point"},"properties":{"osm_id":"3559459736","tag":{"amenity":"waste_basket"}},"type":"Feature"},
	{"geometry":{"coordinates":[9.19028,48.898458],"type":"Point"},"properties":{"osm_id":"3559464870","tag":{"amenity":"waste_basket"}},"type":"Feature"},
	{"geometry":{"coordinates":[9.191222,48.898688],"type":"Point"},"properties":{"osm_id":"3559488605","tag":{"amenity":"waste_basket"}},"type":"Feature"},
	{"geometry":{"coordinates":[9.194168,48.900017],"type":"Point"},"properties":{"osm_id":"3560407290","tag":{"amenity":"waste_basket"}},"type":"Feature"},
	{"geometry":{"coordinates":[9.194068,48.901827],"type":"Point"},"properties":{"osm_id":"3560411597","tag":{"amenity":"waste_basket"}},"type":"Feature"},
	{"geometry":{"coordinates":[9.185535,48.907823],"type":"Point"},"properties":{"osm_id":"3560914123","tag":{"amenity":"waste_basket"}},"type":"Feature"},
	{"geometry":{"coordinates":[9.185474,48.907967],"type":"Point"},"properties":{"osm_id":"3560914128","tag":{"amenity":"waste_basket"}},"type":"Feature"},
	{"geometry":{"coordinates":[9.185143,48.908603],"type":"Point"},"properties":{"osm_id":"3560914135","tag":{"amenity":"waste_basket"}},"type":"Feature"},
	{"geometry":{"coordinates":[9.183983,48.91085],"type":"Point"},"properties":{"osm_id":"3560914140","tag":{"amenity":"waste_basket"}},"type":"Feature"},
	{"geometry":{"coordinates":[9.183593,48.911538],"type":"Point"},"properties":{"osm_id":"3561999080","tag":{"amenity":"waste_basket"}},"type":"Feature"},
	{"geometry":{"coordinates":[9.181819,48.920369],"type":"Point"},"properties":{"osm_id":"3563813131","tag":{"amenity":"waste_basket"}},"type":"Feature"},
	{"geometry":{"coordinates":[9.171259,48.918561],"type":"Point"},"properties":{"osm_id":"3564332022","tag":{"amenity":"waste_basket"}},"type":"Feature"},
	{"geometry":{"coordinates":[9.150157,48.917846],"type":"Point"},"properties":{"osm_id":"3611245021","tag":{"amenity":"waste_basket"}},"type":"Feature"},
	{"geometry":{"coordinates":[9.147293,48.908311],"type":"Point"},"properties":{"osm_id":"3611419796","tag":{"amenity":"waste_basket"}},"type":"Feature"},
	{"geometry":{"coordinates":[9.147588,48.908062],"type":"Point"},"properties":{"osm_id":"3611451849","tag":{"amenity":"waste_basket"}},"type":"Feature"},
	{"geometry":{"coordinates":[9.14707,48.908093],"type":"Point"},"properties":{"osm_id":"3611451850","tag":{"amenity":"waste_basket","layer":"1"}},"type":"Feature"},
	{"geometry":{"coordinates":[9.146655,48.908074],"type":"Point"},"properties":{"osm_id":"3611469085","tag":{"amenity":"waste_basket"}},"type":"Feature"},
	{"geometry":{"coordinates":[9.141131,48.888865],"type":"Point"},"properties":{"osm_id":"3699083262","tag":{"amenity":"recycling","check_date:recycling":"2020-09-22","recycling:clothes":"yes","recycling:shoes":"yes","recycling_type":"container"}},"type":"Feature"},
	{"geometry":{"coordinates":[9.179484,48.908776],"type":"Point"},"properties":{"osm_id":"3734658573","tag":{"amenity":"waste_basket"}},"type":"Feature"},
	{"geometry":{"coordinates":[9.179793,48.910085],"type":"Point"},"properties":{"osm_id":"3735907182","tag":{"amenity":"recycling","opening_hours":"Mo-Sa 08:00-20:00; PH off","recycling:cans":"no","recycling:clothes":"no","recycling:glass":"yes","recycling:paper":"no","recycling_type":"container"}},"type":"Feature"},
	{"geometry":{"coordinates":[9.177552,48.90992],"type":"Point"},"properties":{"osm_id":"3735907183","tag":{"amenity":"recycling","opening_hours":"Mo-Sa 08:00-20:00; PH off","recycling:cans":"no","recycling:clothes":"no","recycling:glass":"yes","recycling:paper":"no","recycling_type":"container"}},"type":"Feature"},
	{"geometry":{"coordinates":[9.179015,48.906018],"type":"Point"},"properties":{"osm_id":"3736055630","tag":{"amenity":"recycling","recycling:clothes":"yes","recycling_type":"container"}},"type":"Feature"},
	{"geometry":{"coordinates":[9.220771,48.907588],"type":"Point"},"properties":{"osm_id":"3787838266","tag":{"amenity":"waste_basket"}},"type":"Feature"},
	{"geometry":{"coordinates":[9.218359,48.90938],"type":"Point"},"properties":{"osm_id":"3788022373","tag":{"amenity":"waste_basket"}},"type":"Feature"},
	{"geometry":{"coordinates":[9.217974,48.909685],"type":"Point"},"properties":{"osm_id":"3788022374","tag":{"amenity":"waste_basket"}},"type":"Feature"},
	{"geometry":{"coordinates":[9.217192,48.910227],"type":"Point"},"properties":{"osm_id":"3788022375","tag":{"amenity":"waste_basket"}},"type":"Feature"},
	{"geometry":{"coordinates":[9.216932,48.910409],"type":"Point"},"properties":{"osm_id":"3788022376","tag":{"amenity":"waste_basket"}},"type":"Feature"},
	{"geometry":{"coordinates":[9.215816,48.910844],"type":"Point"},"properties":{"osm_id":"3788022377","tag":{"amenity":"waste_basket"}},"type":"Feature"},
	{"geometry":{"coordinates":[9.215902,48.910946],"type":"Point"},"properties":{"osm_id":"3788022380","tag":{"amenity":"waste_basket"}},"type":"Feature"},
	{"geometry":{"coordinates":[9.21585,48.911124],"type":"Point"},"properties":{"osm_id":"3788022382","tag":{"amenity":"waste_basket"}},"type":"Feature"},
	{"geometry":{"coordinates":[9.215419,48.91138],"type":"Point"},"properties":{"osm_id":"3788072521","tag":{"amenity":"waste_basket"}},"type":"Feature"},
	{"geometry":{"coordinates":[9.21456,48.911772],"type":"Point"},"properties":{"osm_id":"3788072524","tag":{"amenity":"waste_basket"}},"type":"Feature"},
	{"geometry":{"coordinates":[9.212879,48.912998],"type":"Point"},"properties":{"osm_id":"3788072528","tag":{"amenity":"waste_basket"}},"type":"Feature"},
	{"geometry":{"coordinates":[9.211827,48.915568],"type":"Point"},"properties":{"osm_id":"3788072533","tag":{"amenity":"waste_basket"}},"type":"Feature"},
	{"geometry":{"coordinates":[9.186544,48.909932],"type":"Point"},"properties":{"osm_id":"3840016848","tag":{"amenity":"waste_basket"}},"type":"Feature"},
	{"geometry":{"coordinates":[9.17029,48.918883],"type":"Point"},"properties":{"osm_id":"3840017566","tag":{"amenity":"waste_basket"}},"type":"Feature"},
	{"geometry":{"coordinates":[9.222477,48.919515],"type":"Point"},"properties":{"osm_id":"3921972766","tag":{"amenity":"recycling"}},"type":"Feature"},
	{"geometry":{"coordinates":[9.22282,48.919381],"type":"Point"},"properties":{"osm_id":"3921972768","tag":{"amenity":"recycling","recycling_type":"container"}},"type":"Feature"},
	{"geometry":{"coordinates":[9.221813,48.91882],"type":"Point"},"properties":{"osm_id":"3921972778","tag":{"amenity":"waste_basket"}},"type":"Feature"},
	{"geometry":{"coordinates":[9.222158,48.919259],"type":"Point"},"properties":{"osm_id":"3921972779","tag":{"amenity":"waste_basket"}},"type":"Feature"},
	{"geometry":{"coordinates":[9.222993,48.918713],"type":"Point"},"properties":{"osm_id":"3926735795","tag":{"amenity":"waste_basket"}},"type":"Feature"},
	{"geometry":{"coordinates":[9.214231,48.909996],"type":"Point"},"properties":{"osm_id":"4060350709","tag":{"amenity":"waste_basket"}},"type":"Feature"},
	{"geometry":{"coordinates":[9.214683,48.91049],"type":"Point"},"properties":{"osm_id":"4060375450","tag":{"amenity":"waste_basket"}},"type":"Feature"},
	{"geometry":{"coordinates":[9.214838,48.910547],"type":"Point"},"properties":{"osm_id":"4060375468","tag":{"amenity":"waste_basket"}},"type":"Feature"},
	{"geometry":{"coordinates":[9.214764,48.910275],"type":"Point"},"properties":{"osm_id":"4135021094","tag":{"amenity":"waste_basket"}},"type":"Feature"},
	{"geometry":{"coordinates":[9.215497,48.910554],"type":"Point"},"properties":{"osm_id":"4135021098","tag":{"amenity":"waste_basket"}},"type":"Feature"},
	{"geometry":{"coordinates":[9.215557,48.91058],"type":"Point"},"properties":{"osm_id":"4135021099","tag":{"amenity":"waste_basket"}},"type":"Feature"},
	{"geometry":{"coordinates":[9.215698,48.910714],"type":"Point"},"properties":{"osm_id":"4135021100","tag":{"amenity":"waste_basket"}},"type":"Feature"},
	{"geometry":{"coordinates":[9.204529,48.906319],"type":"Point"},"properties":{"osm_id":"4135146923","tag":{"amenity":"waste_basket"}},"type":"Feature"},
	{"geometry":{"coordinates":[9.208245,48.906985],"type":"Point"},"properties":{"osm_id":"4135146926","tag":{"amenity":"waste_basket"}},"type":"Feature"},
	{"geometry":{"coordinates":[9.209889,48.90891],"type":"Point"},"properties":{"osm_id":"4135146930","tag":{"amenity":"waste_basket"}},"type":"Feature"},
	{"geometry":{"coordinates":[9.210236,48.909021],"type":"Point"},"properties":{"osm_id":"4135146932","tag":{"amenity":"waste_basket"}},"type":"Feature"},
	{"geometry":{"coordinates":[9.191709,48.896925],"type":"Point"},"properties":{"osm_id":"4139207227","tag":{"amenity":"waste_basket"}},"type":"Feature"},
	{"geometry":{"coordinates":[9.191413,48.897894],"type":"Point"},"properties":{"osm_id":"4139207244","tag":{"amenity":"waste_basket"}},"type":"Feature"},
	{"geometry":{"coordinates":[9.188149,48.896111],"type":"Point"},"properties":{"osm_id":"4139257946","tag":{"amenity":"waste_basket"}},"type":"Feature"},
	{"geometry":{"coordinates":[9.188263,48.895543],"type":"Point"},"properties":{"osm_id":"4139424897","tag":{"amenity":"waste_basket"}},"type":"Feature"},
	{"geometry":{"coordinates":[9.18827,48.895684],"type":"Point"},"properties":{"osm_id":"4139424898","tag":{"amenity":"waste_basket"}},"type":"Feature"},
	{"geometry":{"coordinates":[9.188267,48.895811],"type":"Point"},"properties":{"osm_id":"4139424899","tag":{"amenity":"waste_basket"}},"type":"Feature"},
	{"geometry":{"coordinates":[9.174009,48.893067],"type":"Point"},"properties":{"osm_id":"4140043057","tag":{"amenity":"waste_basket"}},"type":"Feature"},
	{"geometry":{"coordinates":[9.14737,48.905531],"type":"Point"},"properties":{"osm_id":"4187016118","tag":{"amenity":"waste_basket"}},"type":"Feature"},
	{"geometry":{"coordinates":[9.14749,48.906224],"type":"Point"},"properties":{"osm_id":"4187016122","tag":{"amenity":"waste_basket"}},"type":"Feature"},
	{"geometry":{"coordinates":[9.147228,48.907249],"type":"Point"},"properties":{"osm_id":"4187055072","tag":{"amenity":"waste_basket"}},"type":"Feature"},
	{"geometry":{"coordinates":[9.147106,48.907588],"type":"Point"},"properties":{"osm_id":"4187055078","tag":{"amenity":"waste_basket"}},"type":"Feature"},
	{"geometry":{"coordinates":[9.147334,48.907864],"type":"Point"},"properties":{"osm_id":"4187055082","tag":{"amenity":"waste_basket"}},"type":"Feature"},
	{"geometry":{"coordinates":[9.147472,48.907404],"type":"Point"},"properties":{"osm_id":"4187092448","tag":{"amenity":"waste_basket","layer":"-1","level":"-1"}},"type":"Feature"},
	{"geometry":{"coordinates":[9.147682,48.907498],"type":"Point"},"properties":{"osm_id":"4187092449","tag":{"amenity":"waste_basket","layer":"-1","level":"-1"}},"type":"Feature"},
	{"geometry":{"coordinates":[9.148273,48.906966],"type":"Point"},"properties":{"osm_id":"4187160161","tag":{"amenity":"waste_basket"}},"type":"Feature"},
	{"geometry":{"coordinates":[9.147944,48.907245],"type":"Point"},"properties":{"osm_id":"4187160166","tag":{"amenity":"waste_basket"}},"type":"Feature"},
	{"geometry":{"coordinates":[9.147847,48.907339],"type":"Point"},"properties":{"osm_id":"4187160173","tag":{"amenity":"waste_basket"}},"type":"Feature"},
	{"geometry":{"coordinates":[9.147836,48.907383],"type":"Point"},"properties":{"osm_id":"4187160176","tag":{"amenity":"waste_basket"}},"type":"Feature"},
	{"geometry":{"coordinates":[9.147687,48.907493],"type":"Point"},"properties":{"osm_id":"4187160178","tag":{"amenity":"waste_basket","level":"0"}},"type":"Feature"},
	{"geometry":{"coordinates":[9.150885,48.921112],"type":"Point"},"properties":{"osm_id":"4335588290","tag":{"amenity":"waste_basket"}},"type":"Feature"},
	{"geometry":{"coordinates":[9.221205,48.905546],"type":"Point"},"properties":{"osm_id":"4380446187","tag":{"amenity":"waste_basket"}},"type":"Feature"},
	{"geometry":{"coordinates":[9.213519,48.912429],"type":"Point"},"properties":{"osm_id":"4380449198","tag":{"amenity":"waste_basket"}},"type":"Feature"},
	{"geometry":{"coordinates":[9.224999,48.898978],"type":"Point"},"properties":{"osm_id":"4380581219","tag":{"amenity":"waste_basket"}},"type":"Feature"},
	{"geometry":{"coordinates":[9.222604,48.87455],"type":"Point"},"properties":{"osm_id":"4380840592","tag":{"amenity":"waste_basket"}},"type":"Feature"},
	{"geometry":{"coordinates":[9.224013,48.868252],"type":"Point"},"properties":{"osm_id":"4382690874","tag":{"amenity":"recycling","recycling:clothes":"yes","recycling_type":"container"}},"type":"Feature"},
	{"geometry":{"coordinates":[9.214475,48.866512],"type":"Point"},"properties":{"osm_id":"4383564114","tag":{"amenity":"waste_basket"}},"type":"Feature"},
	{"geometry":{"coordinates":[9.211474,48.865732],"type":"Point"},"properties":{"osm_id":"4383583032","tag":{"amenity":"waste_basket"}},"type":"Feature"},
	{"geometry":{"coordinates":[9.211926,48.866332],"type":"Point"},"properties":{"osm_id":"4383583033","tag":{"amenity":"waste_basket"}},"type":"Feature"},
	{"geometry":{"coordinates":[9.198435,48.871891],"type":"Point"},"properties":{"osm_id":"4417813328","tag":{"amenity":"waste_basket"}},"type":"Feature"},
	{"geometry":{"coordinates":[9.167405,48.868653],"type":"Point"},"properties":{"osm_id":"4437422590","tag":{"amenity":"waste_basket"}},"type":"Feature"},
	{"geometry":{"coordinates":[9.181388,48.870634],"type":"Point"},"properties":{"osm_id":"4437707707","tag":{"amenity":"waste_basket"}},"type":"Feature"},
	{"geometry":{"coordinates":[9.153592,48.921741],"type":"Point"},"properties":{"osm_id":"4560056555","tag":{"amenity":"waste_basket"}},"type":"Feature"},
	{"geometry":{"coordinates":[9.1536,48.921591],"type":"Point"},"properties":{"osm_id":"4560056556","tag":{"amenity":"waste_basket"}},"type":"Feature"},
	{"geometry":{"coordinates":[9.186553,48.893038],"type":"Point"},"properties":{"osm_id":"4731248922","tag":{"amenity":"waste_basket"}},"type":"Feature"},
	{"geometry":{"coordinates":[9.190493,48.896226],"type":"Point"},"properties":{"osm_id":"4731691851","tag":{"amenity":"waste_basket"}},"type":"Feature"},
	{"geometry":{"coordinates":[9.190866,48.899332],"type":"Point"},"properties":{"osm_id":"4731697038","tag":{"amenity":"waste_basket"}},"type":"Feature"},
	{"geometry":{"coordinates":[9.188905,48.898553],"type":"Point"},"properties":{"osm_id":"4731699488","tag":{"amenity":"waste_basket"}},"type":"Feature"},
	{"geometry":{"coordinates":[9.187427,48.898509],"type":"Point"},"properties":{"osm_id":"4731705038","tag":{"amenity":"waste_basket"}},"type":"Feature"},
	{"geometry":{"coordinates":[9.186161,48.898591],"type":"Point"},"properties":{"osm_id":"4731712279","tag":{"amenity":"waste_basket"}},"type":"Feature"},
	{"geometry":{"coordinates":[9.186186,48.899853],"type":"Point"},"properties":{"osm_id":"4731720364","tag":{"amenity":"waste_basket"}},"type":"Feature"},
	{"geometry":{"coordinates":[9.174938,48.916685],"type":"Point"},"properties":{"osm_id":"4732948027","tag":{"amenity":"waste_basket"}},"type":"Feature"},
	{"geometry":{"coordinates":[9.179178,48.914198],"type":"Point"},"properties":{"osm_id":"4732948030","tag":{"amenity":"waste_basket"}},"type":"Feature"},
	{"geometry":{"coordinates":[9.17128,48.913455],"type":"Point"},"properties":{"osm_id":"4734324307","tag":{"amenity":"waste_basket"}},"type":"Feature"},
	{"geometry":{"coordinates":[9.171306,48.913887],"type":"Point"},"properties":{"osm_id":"4734324309","tag":{"amenity":"waste_basket"}},"type":"Feature"},
	{"geometry":{"coordinates":[9.178237,48.908532],"type":"Point"},"properties":{"osm_id":"4735130637","tag":{"amenity":"waste_basket"}},"type":"Feature"},
	{"geometry":{"coordinates":[9.177577,48.908518],"type":"Point"},"properties":{"osm_id":"4735130646","tag":{"amenity":"waste_basket"}},"type":"Feature"},
	{"geometry":{"coordinates":[9.178513,48.907885],"type":"Point"},"properties":{"osm_id":"4735132880","tag":{"amenity":"waste_basket"}},"type":"Feature"},
	{"geometry":{"coordinates":[9.176707,48.906256],"type":"Point"},"properties":{"osm_id":"4735149537","tag":{"amenity":"waste_basket"}},"type":"Feature"},
	{"geometry":{"coordinates":[9.1777,48.907204],"type":"Point"},"properties":{"osm_id":"4735149558","tag":{"amenity":"waste_basket"}},"type":"Feature"},
	{"geometry":{"coordinates":[9.177826,48.907402],"type":"Point"},"properties":{"osm_id":"4735149559","tag":{"amenity":"waste_basket"}},"type":"Feature"},
	{"geometry":{"coordinates":[9.176721,48.906183],"type":"Point"},"properties":{"osm_id":"4735160977","tag":{"amenity":"waste_basket"}},"type":"Feature"},
	{"geometry":{"coordinates":[9.17082,48.907031],"type":"Point"},"properties":{"osm_id":"4735896146","tag":{"amenity":"waste_basket"}},"type":"Feature"},
	{"geometry":{"coordinates":[9.171858,48.900761],"type":"Point"},"properties":{"osm_id":"4736311424","tag":{"amenity":"waste_basket"}},"type":"Feature"},
	{"geometry":{"coordinates":[9.171957,48.901874],"type":"Point"},"properties":{"osm_id":"4736311427","tag":{"amenity":"waste_basket","waste":"trash"}},"type":"Feature"},
	{"geometry":{"coordinates":[9.175131,48.897738],"type":"Point"},"properties":{"osm_id":"4736397196","tag":{"amenity":"waste_basket"}},"type":"Feature"},
	{"geometry":{"coordinates":[9.181028,48.89354],"type":"Point"},"properties":{"osm_id":"4738795274","tag":{"amenity":"waste_basket","ashtray":"yes"}},"type":"Feature"},
	{"geometry":{"coordinates":[9.181516,48.895572],"type":"Point"},"properties":{"osm_id":"4738807535","tag":{"amenity":"waste_basket"}},"type":"Feature"},
	{"geometry":{"coordinates":[9.183359,48.893773],"type":"Point"},"properties":{"osm_id":"4738831553","tag":{"amenity":"waste_basket"}},"type":"Feature"},
	{"geometry":{"coordinates":[9.183912,48.894302],"type":"Point"},"properties":{"osm_id":"4739351321","tag":{"amenity":"waste_basket"}},"type":"Feature"},
	{"geometry":{"coordinates":[9.187998,48.894197],"type":"Point"},"properties":{"osm_id":"4739366633","tag":{"amenity":"waste_basket"}},"type":"Feature"},
	{"geometry":{"coordinates":[9.187285,48.893996],"type":"Point"},"properties":{"osm_id":"4739366635","tag":{"amenity":"waste_basket"}},"type":"Feature"},
	{"geometry":{"coordinates":[9.192259,48.894114],"type":"Point"},"properties":{"osm_id":"4739473345","tag":{"amenity":"waste_basket"}},"type":"Feature"},
	{"geometry":{"coordinates":[9.191854,48.894112],"type":"Point"},"properties":{"osm_id":"4739473346","tag":{"amenity":"waste_basket"}},"type":"Feature"},
	{"geometry":{"coordinates":[9.192014,48.894916],"type":"Point"},"properties":{"osm_id":"4739553133","tag":{"amenity":"waste_basket"}},"type":"Feature"},
	{"geometry":{"coordinates":[9.194889,48.893308],"type":"Point"},"properties":{"osm_id":"4739837798","tag":{"amenity":"waste_basket"}},"type":"Feature"},
	{"geometry":{"coordinates":[9.194808,48.893609],"type":"Point"},"properties":{"osm_id":"4739859151","tag":{"amenity":"waste_basket"}},"type":"Feature"},
	{"geometry":{"coordinates":[9.194745,48.894327],"type":"Point"},"properties":{"osm_id":"4739863358","tag":{"amenity":"waste_basket"}},"type":"Feature"},
	{"geometry":{"coordinates":[9.194484,48.896388],"type":"Point"},"properties":{"osm_id":"4740068949","tag":{"amenity":"waste_basket"}},"type":"Feature"},
	{"geometry":{"coordinates":[9.194624,48.895785],"type":"Point"},"properties":{"osm_id":"4740068965","tag":{"amenity":"waste_basket"}},"type":"Feature"},
	{"geometry":{"coordinates":[9.194577,48.895786],"type":"Point"},"properties":{"osm_id":"4740068966","tag":{"amenity":"waste_basket"}},"type":"Feature"},
	{"geometry":{"coordinates":[9.194713,48.895184],"type":"Point"},"properties":{"osm_id":"4740068968","tag":{"amenity":"waste_basket"}},"type":"Feature"},
	{"geometry":{"coordinates":[9.194873,48.895344],"type":"Point"},"properties":{"osm_id":"4740068970","tag":{"amenity":"waste_basket"}},"type":"Feature"},
	{"geometry":{"coordinates":[9.196395,48.893663],"type":"Point"},"properties":{"osm_id":"4740110757","tag":{"amenity":"waste_basket"}},"type":"Feature"},
	{"geometry":{"coordinates":[9.196523,48.891347],"type":"Point"},"properties":{"osm_id":"4740500959","tag":{"amenity":"waste_basket"}},"type":"Feature"},
	{"geometry":{"coordinates":[9.196447,48.892621],"type":"Point"},"properties":{"osm_id":"4740500962","tag":{"amenity":"waste_basket"}},"type":"Feature"},
	{"geometry":{"coordinates":[9.196335,48.89221],"type":"Point"},"properties":{"osm_id":"4740500963","tag":{"amenity":"waste_basket"}},"type":"Feature"},
	{"geometry":{"coordinates":[9.196605,48.889937],"type":"Point"},"properties":{"osm_id":"4740515389","tag":{"amenity":"waste_basket"}},"type":"Feature"},
	{"geometry":{"coordinates":[9.196581,48.890341],"type":"Point"},"properties":{"osm_id":"4740515392","tag":{"amenity":"waste_basket"}},"type":"Feature"},
	{"geometry":{"coordinates":[9.196438,48.890663],"type":"Point"},"properties":{"osm_id":"4740515396","tag":{"amenity":"waste_basket"}},"type":"Feature"},
	{"geometry":{"coordinates":[9.196686,48.888874],"type":"Point"},"properties":{"osm_id":"4740517278","tag":{"amenity":"waste_basket"}},"type":"Feature"},
	{"geometry":{"coordinates":[9.196886,48.885084],"type":"Point"},"properties":{"osm_id":"4740580610","tag":{"amenity":"waste_basket"}},"type":"Feature"},
	{"geometry":{"coordinates":[9.196854,48.885685],"type":"Point"},"properties":{"osm_id":"4740580611","tag":{"amenity":"waste_basket"}},"type":"Feature"},
	{"geometry":{"coordinates":[9.196744,48.886711],"type":"Point"},"properties":{"osm_id":"4740580615","tag":{"amenity":"waste_basket"}},"type":"Feature"},
	{"geometry":{"coordinates":[9.196745,48.887141],"type":"Point"},"properties":{"osm_id":"4740580618","tag":{"amenity":"waste_basket"}},"type":"Feature"},
	{"geometry":{"coordinates":[9.196604,48.887323],"type":"Point"},"properties":{"osm_id":"4740587433","tag":{"amenity":"waste_basket"}},"type":"Feature"},
	{"geometry":{"coordinates":[9.198203,48.88457],"type":"Point"},"properties":{"osm_id":"4740621004","tag":{"amenity":"waste_basket"}},"type":"Feature"},
	{"geometry":{"coordinates":[9.200877,48.884591],"type":"Point"},"properties":{"osm_id":"4740630711","tag":{"amenity":"waste_basket"}},"type":"Feature"},
	{"geometry":{"coordinates":[9.199509,48.884551],"type":"Point"},"properties":{"osm_id":"4740630712","tag":{"amenity":"waste_basket"}},"type":"Feature"},
	{"geometry":{"coordinates":[9.20177,48.884591],"type":"Point"},"properties":{"osm_id":"4741048047","tag":{"amenity":"waste_basket"}},"type":"Feature"},
	{"geometry":{"coordinates":[9.197085,48.87304],"type":"Point"},"properties":{"osm_id":"4741142812","tag":{"amenity":"waste_basket"}},"type":"Feature"},
	{"geometry":{"coordinates":[9.193892,48.871213],"type":"Point"},"properties":{"osm_id":"4741225239","tag":{"amenity":"waste_basket"}},"type":"Feature"},
	{"geometry":{"coordinates":[9.224094,48.908646],"type":"Point"},"properties":{"osm_id":"4753020901","tag":{"amenity":"waste_basket"}},"type":"Feature"},
	{"geometry":{"coordinates":[9.205486,48.911403],"type":"Point"},"properties":{"osm_id":"4753121939","tag":{"amenity":"waste_basket"}},"type":"Feature"},
	{"geometry":{"coordinates":[9.20702,48.907805],"type":"Point"},"properties":{"osm_id":"4753121949","tag":{"amenity":"waste_basket"}},"type":"Feature"},
	{"geometry":{"coordinates":[9.20119,48.917719],"type":"Point"},"properties":{"osm_id":"4753305189","tag":{"amenity":"waste_basket"}},"type":"Feature"},
	{"geometry":{"coordinates":[9.180473,48.909258],"type":"Point"},"properties":{"osm_id":"4753355120","tag":{"amenity":"waste_basket"}},"type":"Feature"},
	{"geometry":{"coordinates":[9.179995,48.908844],"type":"Point"},"properties":{"osm_id":"4753358421","tag":{"amenity":"waste_basket"}},"type":"Feature"},
	{"geometry":{"coordinates":[9.180317,48.909329],"type":"Point"},"properties":{"osm_id":"4753358426","tag":{"amenity":"waste_basket"}},"type":"Feature"},
	{"geometry":{"coordinates":[9.200006,48.893017],"type":"Point"},"properties":{"osm_id":"4830468007","tag":{"amenity":"waste_basket"}},"type":"Feature"},
	{"geometry":{"coordinates":[9.191103,48.893913],"type":"Point"},"properties":{"osm_id":"4862132149","tag":{"amenity":"waste_basket"}},"type":"Feature"},
	{"geometry":{"coordinates":[9.192028,48.893709],"type":"Point"},"properties":{"osm_id":"4862132157","tag":{"amenity":"waste_basket"}},"type":"Feature"},
	{"geometry":{"coordinates":[9.192373,48.893372],"type":"Point"},"properties":{"osm_id":"4862132158","tag":{"amenity":"waste_basket"}},"type":"Feature"},
	{"geometry":{"coordinates":[9.192303,48.893858],"type":"Point"},"properties":{"osm_id":"4862132163","tag":{"amenity":"waste_basket"}},"type":"Feature"},
	{"geometry":{"coordinates":[9.19246,48.893591],"type":"Point"},"properties":{"osm_id":"4862132164","tag":{"amenity":"waste_basket"}},"type":"Feature"},
	{"geometry":{"coordinates":[9.192086,48.893457],"type":"Point"},"properties":{"osm_id":"4862132165","tag":{"amenity":"waste_basket"}},"type":"Feature"},
	{"geometry":{"coordinates":[9.192545,48.893374],"type":"Point"},"properties":{"osm_id":"4862132166","tag":{"amenity":"waste_basket"}},"type":"Feature"},
	{"geometry":{"coordinates":[9.184116,48.892202],"type":"Point"},"properties":{"osm_id":"4986935421","tag":{"amenity":"waste_basket"}},"type":"Feature"},
	{"geometry":{"coordinates":[9.170414,48.886197],"type":"Point"},"properties":{"osm_id":"5034873262","tag":{"amenity":"waste_basket"}},"type":"Feature"},
	{"geometry":{"coordinates":[9.170332,48.88623],"type":"Point"},"properties":{"osm_id":"5034873264","tag":{"amenity":"recycling","recycling:glass":"yes","recycling_type":"container"}},"type":"Feature"},
	{"geometry":{"coordinates":[9.197748,48.895553],"type":"Point"},"properties":{"osm_id":"5165049569","tag":{"amenity":"waste_basket"}},"type":"Feature"},
	{"geometry":{"coordinates":[9.197999,48.893488],"type":"Point"},"properties":{"osm_id":"5165073934","tag":{"amenity":"waste_basket"}},"type":"Feature"},
	{"geometry":{"coordinates":[9.216894,48.890794],"type":"Point"},"properties":{"osm_id":"5167574658","tag":{"amenity":"waste_basket"}},"type":"Feature"},
	{"geometry":{"coordinates":[9.217902,48.89011],"type":"Point"},"properties":{"osm_id":"5167595066","tag":{"amenity":"waste_basket"}},"type":"Feature"},
	{"geometry":{"coordinates":[9.213556,48.889846],"type":"Point"},"properties":{"osm_id":"5168456349","tag":{"amenity":"waste_basket"}},"type":"Feature"},
	{"geometry":{"coordinates":[9.209302,48.911798],"type":"Point"},"properties":{"osm_id":"5605656043","tag":{"amenity":"waste_basket"}},"type":"Feature"},
	{"geometry":{"coordinates":[9.172238,48.919192],"type":"Point"},"properties":{"osm_id":"5832528030","tag":{"amenity":"recycling","recycling_type":"container"}},"type":"Feature"},
	{"geometry":{"coordinates":[9.172258,48.919204],"type":"Point"},"properties":{"osm_id":"5832528031","tag":{"amenity":"recycling","recycling_type":"container"}},"type":"Feature"},
	{"geometry":{"coordinates":[9.172273,48.919214],"type":"Point"},"properties":{"osm_id":"5832528032","tag":{"amenity":"recycling","recycling_type":"container"}},"type":"Feature"},
	{"geometry":{"coordinates":[9.17229,48.919224],"type":"Point"},"properties":{"osm_id":"5832528033","tag":{"amenity":"recycling","recycling_type":"container"}},"type":"Feature"},
	{"geometry":{"coordinates":[9.201711,48.885195],"type":"Point"},"properties":{"osm_id":"5894624444","tag":{"amenity":"waste_basket"}},"type":"Feature"},
	{"geometry":{"coordinates":[9.201012,48.885168],"type":"Point"},"properties":{"osm_id":"5894624445","tag":{"amenity":"waste_basket"}},"type":"Feature"},
	{"geometry":{"coordinates":[9.20023,48.885525],"type":"Point"},"properties":{"osm_id":"5895046985","tag":{"amenity":"waste_basket"}},"type":"Feature"},
	{"geometry":{"coordinates":[9.203,48.865939],"type":"Point"},"properties":{"osm_id":"6023414557","tag":{"amenity":"waste_basket"}},"type":"Feature"},
	{"geometry":{"coordinates":[9.20251,48.867244],"type":"Point"},"properties":{"osm_id":"6025968446","tag":{"amenity":"recycling","recycling:glass_bottles":"yes","recycling_type":"container"}},"type":"Feature"},
	{"geometry":{"coordinates":[9.189488,48.8877],"type":"Point"},"properties":{"osm_id":"6027721779","tag":{"amenity":"waste_basket"}},"type":"Feature"},
	{"geometry":{"coordinates":[9.18273,48.893819],"type":"Point"},"properties":{"osm_id":"6036968073","tag":{"amenity":"waste_basket"}},"type":"Feature"},
	{"geometry":{"coordinates":[9.165702,48.886393],"type":"Point"},"properties":{"osm_id":"6041536110","tag":{"amenity":"waste_basket"}},"type":"Feature"},
	{"geometry":{"coordinates":[9.166273,48.886978],"type":"Point"},"properties":{"osm_id":"6041566707","tag":{"amenity":"waste_basket"}},"type":"Feature"},
	{"geometry":{"coordinates":[9.167191,48.885858],"type":"Point"},"properties":{"osm_id":"6041673019","tag":{"amenity":"waste_basket"}},"type":"Feature"},
	{"geometry":{"coordinates":[9.169052,48.885448],"type":"Point"},"properties":{"osm_id":"6041702405","tag":{"amenity":"waste_basket"}},"type":"Feature"},
	{"geometry":{"coordinates":[9.175918,48.884572],"type":"Point"},"properties":{"osm_id":"6043544821","tag":{"amenity":"waste_basket"}},"type":"Feature"},
	{"geometry":{"coordinates":[9.175846,48.884597],"type":"Point"},"properties":{"osm_id":"6043544822","tag":{"amenity":"waste_basket"}},"type":"Feature"},
	{"geometry":{"coordinates":[9.175794,48.884606],"type":"Point"},"properties":{"osm_id":"6043544823","tag":{"amenity":"waste_basket"}},"type":"Feature"},
	{"geometry":{"coordinates":[9.17692,48.884496],"type":"Point"},"properties":{"osm_id":"6043548293","tag":{"amenity":"waste_basket"}},"type":"Feature"},
	{"geometry":{"coordinates":[9.188693,48.887539],"type":"Point"},"properties":{"osm_id":"6045043978","tag":{"amenity":"waste_basket"}},"type":"Feature"},
	{"geometry":{"coordinates":[9.192013,48.895787],"type":"Point"},"properties":{"osm_id":"6046001422","tag":{"amenity":"waste_basket","ashtray":"yes"}},"type":"Feature"},
	{"geometry":{"coordinates":[9.225025,48.886969],"type":"Point"},"properties":{"osm_id":"6257797745","tag":{"amenity":"waste_basket"}},"type":"Feature"},
	{"geometry":{"coordinates":[9.153521,48.92168],"type":"Point"},"properties":{"osm_id":"6368044806","tag":{"amenity":"waste_basket","waste":"trash"}},"type":"Feature"},
	{"geometry":{"coordinates":[9.153522,48.921646],"type":"Point"},"properties":{"osm_id":"6368044807","tag":{"amenity":"waste_basket","waste":"trash"}},"type":"Feature"},
	{"geometry":{"coordinates":[9.187446,48.896248],"type":"Point"},"properties":{"osm_id":"6446661063","tag":{"amenity":"waste_basket","waste":"trash"}},"type":"Feature"},
	{"geometry":{"coordinates":[9.21511,48.908062],"type":"Point"},"properties":{"osm_id":"6459870733","tag":{"amenity":"waste_basket","waste":"trash"}},"type":"Feature"},
	{"geometry":{"coordinates":[9.170026,48.901912],"type":"Point"},"properties":{"osm_id":"6483476725","tag":{"amenity":"waste_basket","waste":"trash"}},"type":"Feature"},
	{"geometry":{"coordinates":[9.174109,48.906304],"type":"Point"},"properties":{"osm_id":"6489309645","tag":{"amenity":"waste_basket"}},"type":"Feature"},
	{"geometry":{"coordinates":[9.17458,48.906257],"type":"Point"},"properties":{"osm_id":"6489309646","tag":{"amenity":"waste_basket"}},"type":"Feature"},
	{"geometry":{"coordinates":[9.225925,48.868063],"type":"Point"},"properties":{"osm_id":"6511633915","tag":{"amenity":"waste_basket"}},"type":"Feature"},
	{"geometry":{"coordinates":[9.166325,48.901981],"type":"Point"},"properties":{"osm_id":"6518739965","tag":{"amenity":"waste_basket","waste":"trash"}},"type":"Feature"},
	{"geometry":{"coordinates":[9.165442,48.900531],"type":"Point"},"properties":{"osm_id":"6534334215","tag":{"amenity":"waste_basket","waste":"trash"}},"type":"Feature"},
	{"geometry":{"coordinates":[9.161051,48.900926],"type":"Point"},"properties":{"osm_id":"6534334217","tag":{"amenity":"waste_basket","waste":"trash"}},"type":"Feature"},
	{"geometry":{"coordinates":[9.195665,48.902334],"type":"Point"},"properties":{"osm_id":"6604433531","tag":{"amenity":"waste_basket"}},"type":"Feature"},
	{"geometry":{"coordinates":[9.191984,48.899975],"type":"Point"},"properties":{"osm_id":"6604433539","tag":{"amenity":"waste_basket"}},"type":"Feature"},
	{"geometry":{"coordinates":[9.220238,48.90759],"type":"Point"},"properties":{"osm_id":"6604875937","tag":{"amenity":"waste_basket"}},"type":"Feature"},
	{"geometry":{"coordinates":[9.221848,48.914343],"type":"Point"},"properties":{"osm_id":"6610108556","tag":{"amenity":"waste_basket"}},"type":"Feature"},
	{"geometry":{"coordinates":[9.219317,48.91642],"type":"Point"},"properties":{"osm_id":"6610248013","tag":{"amenity":"waste_basket"}},"type":"Feature"},
	{"geometry":{"coordinates":[9.220713,48.921106],"type":"Point"},"properties":{"osm_id":"6610973496","tag":{"amenity":"waste_basket"}},"type":"Feature"},
	{"geometry":{"coordinates":[9.216361,48.912435],"type":"Point"},"properties":{"osm_id":"6610994635","tag":{"amenity":"waste_basket"}},"type":"Feature"},
	{"geometry":{"coordinates":[9.215038,48.910405],"type":"Point"},"properties":{"osm_id":"6612778383","tag":{"amenity":"waste_basket"}},"type":"Feature"},
	{"geometry":{"coordinates":[9.192122,48.899766],"type":"Point"},"properties":{"osm_id":"6614573931","tag":{"amenity":"waste_basket"}},"type":"Feature"},
	{"geometry":{"coordinates":[9.190371,48.893287],"type":"Point"},"properties":{"osm_id":"6614626823","tag":{"amenity":"waste_basket"}},"type":"Feature"},
	{"geometry":{"coordinates":[9.194078,48.887577],"type":"Point"},"properties":{"osm_id":"6634035397","tag":{"amenity":"waste_basket"}},"type":"Feature"},
	{"geometry":{"coordinates":[9.201694,48.885479],"type":"Point"},"properties":{"osm_id":"6634035398","tag":{"amenity":"waste_basket"}},"type":"Feature"},
	{"geometry":{"coordinates":[9.201711,48.885683],"type":"Point"},"properties":{"osm_id":"6634035399","tag":{"amenity":"waste_basket"}},"type":"Feature"},
	{"geometry":{"coordinates":[9.227609,48.87565],"type":"Point"},"properties":{"osm_id":"6789958309","tag":{"amenity":"waste_basket"}},"type":"Feature"},
	{"geometry":{"coordinates":[9.227407,48.875726],"type":"Point"},"properties":{"osm_id":"6790259224","tag":{"amenity":"waste_basket"}},"type":"Feature"},
	{"geometry":{"coordinates":[9.225596,48.875],"type":"Point"},"properties":{"osm_id":"6790267133","tag":{"amenity":"waste_basket"}},"type":"Feature"},
	{"geometry":{"coordinates":[9.223046,48.875983],"type":"Point"},"properties":{"osm_id":"6790344906","tag":{"amenity":"waste_basket"}},"type":"Feature"},
	{"geometry":{"coordinates":[9.219385,48.876931],"type":"Point"},"properties":{"osm_id":"6790348976","tag":{"amenity":"waste_basket"}},"type":"Feature"},
	{"geometry":{"coordinates":[9.222808,48.875331],"type":"Point"},"properties":{"osm_id":"6790359492","tag":{"amenity":"waste_basket"}},"type":"Feature"},
	{"geometry":{"coordinates":[9.219395,48.876719],"type":"Point"},"properties":{"osm_id":"6790365692","tag":{"amenity":"waste_basket"}},"type":"Feature"},
	{"geometry":{"coordinates":[9.21546,48.877569],"type":"Point"},"properties":{"osm_id":"6790375582","tag":{"amenity":"waste_basket"}},"type":"Feature"},
	{"geometry":{"coordinates":[9.215416,48.87701],"type":"Point"},"properties":{"osm_id":"6790384298","tag":{"amenity":"waste_basket"}},"type":"Feature"},
	{"geometry":{"coordinates":[9.212476,48.880953],"type":"Point"},"properties":{"osm_id":"6790484935","tag":{"amenity":"waste_basket"}},"type":"Feature"},
	{"geometry":{"coordinates":[9.216934,48.879547],"type":"Point"},"properties":{"osm_id":"6790486719","tag":{"amenity":"waste_basket"}},"type":"Feature"},
	{"geometry":{"coordinates":[9.215701,48.879887],"type":"Point"},"properties":{"osm_id":"6790497082","tag":{"amenity":"waste_basket"}},"type":"Feature"},
	{"geometry":{"coordinates":[9.210459,48.880887],"type":"Point"},"properties":{"osm_id":"6790502224","tag":{"amenity":"waste_basket"}},"type":"Feature"},
	{"geometry":{"coordinates":[9.212366,48.881243],"type":"Point"},"properties":{"osm_id":"6790507267","tag":{"amenity":"waste_basket"}},"type":"Feature"},
	{"geometry":{"coordinates":[9.215432,48.879647],"type":"Point"},"properties":{"osm_id":"6790508578","tag":{"amenity":"waste_basket"}},"type":"Feature"},
	{"geometry":{"coordinates":[9.212846,48.881015],"type":"Point"},"properties":{"osm_id":"6790515169","tag":{"amenity":"waste_basket"}},"type":"Feature"},
	{"geometry":{"coordinates":[9.210337,48.881197],"type":"Point"},"properties":{"osm_id":"6790515311","tag":{"amenity":"waste_basket"}},"type":"Feature"},
	{"geometry":{"coordinates":[9.206974,48.880704],"type":"Point"},"properties":{"osm_id":"6790515385","tag":{"amenity":"waste_basket"}},"type":"Feature"},
	{"geometry":{"coordinates":[9.211264,48.881188],"type":"Point"},"properties":{"osm_id":"6790516550","tag":{"amenity":"waste_basket"}},"type":"Feature"},
	{"geometry":{"coordinates":[9.221465,48.877401],"type":"Point"},"properties":{"osm_id":"6790520176","tag":{"amenity":"waste_basket"}},"type":"Feature"},
	{"geometry":{"coordinates":[9.212784,48.880947],"type":"Point"},"properties":{"osm_id":"6790525592","tag":{"amenity":"waste_basket"}},"type":"Feature"},
	{"geometry":{"coordinates":[9.21649,48.879636],"type":"Point"},"properties":{"osm_id":"6790527456","tag":{"amenity":"waste_basket"}},"type":"Feature"},
	{"geometry":{"coordinates":[9.224567,48.868146],"type":"Point"},"properties":{"osm_id":"6817601266","tag":{"amenity":"waste_basket"}},"type":"Feature"},
	{"geometry":{"coordinates":[9.223929,48.868584],"type":"Point"},"properties":{"osm_id":"6817624487","tag":{"amenity":"waste_basket"}},"type":"Feature"},
	{"geometry":{"coordinates":[9.222058,48.86811],"type":"Point"},"properties":{"osm_id":"6817627093","tag":{"amenity":"waste_basket"}},"type":"Feature"},
	{"geometry":{"coordinates":[9.2238,48.867476],"type":"Point"},"properties":{"osm_id":"6817628018","tag":{"amenity":"waste_basket"}},"type":"Feature"},
	{"geometry":{"coordinates":[9.220623,48.867283],"type":"Point"},"properties":{"osm_id":"6817641792","tag":{"amenity":"waste_basket"}},"type":"Feature"},
	{"geometry":{"coordinates":[9.224219,48.867572],"type":"Point"},"properties":{"osm_id":"6823195656","tag":{"amenity":"waste_basket"}},"type":"Feature"},
	{"geometry":{"coordinates":[9.224956,48.867748],"type":"Point"},"properties":{"osm_id":"6823223609","tag":{"amenity":"waste_basket"}},"type":"Feature"},
	{"geometry":{"coordinates":[9.223213,48.872547],"type":"Point"},"properties":{"osm_id":"6823226070","tag":{"amenity":"waste_basket"}},"type":"Feature"},
	{"geometry":{"coordinates":[9.22356,48.872314],"type":"Point"},"properties":{"osm_id":"6823227681","tag":{"amenity":"waste_basket"}},"type":"Feature"},
	{"geometry":{"coordinates":[9.223947,48.872372],"type":"Point"},"properties":{"osm_id":"6823233926","tag":{"amenity":"waste_basket"}},"type":"Feature"},
	{"geometry":{"coordinates":[9.223871,48.870554],"type":"Point"},"properties":{"osm_id":"6823238794","tag":{"amenity":"waste_basket"}},"type":"Feature"},
	{"geometry":{"coordinates":[9.223067,48.872477],"type":"Point"},"properties":{"osm_id":"6823239207","tag":{"amenity":"waste_basket"}},"type":"Feature"},
	{"geometry":{"coordinates":[9.223751,48.872349],"type":"Point"},"properties":{"osm_id":"6823243300","tag":{"amenity":"waste_basket"}},"type":"Feature"},
	{"geometry":{"coordinates":[9.22426,48.875118],"type":"Point"},"properties":{"osm_id":"6835578961","tag":{"amenity":"waste_basket"}},"type":"Feature"},
	{"geometry":{"coordinates":[9.226661,48.868423],"type":"Point"},"properties":{"osm_id":"6849536775","tag":{"amenity":"waste_basket"}},"type":"Feature"},
	{"geometry":{"coordinates":[9.226939,48.868972],"type":"Point"},"properties":{"osm_id":"6849547415","tag":{"amenity":"waste_basket"}},"type":"Feature"},
	{"geometry":{"coordinates":[9.227393,48.869873],"type":"Point"},"properties":{"osm_id":"6849554307","tag":{"amenity":"waste_basket"}},"type":"Feature"},
	{"geometry":{"coordinates":[9.227884,48.869554],"type":"Point"},"properties":{"osm_id":"6849556734","tag":{"amenity":"waste_basket"}},"type":"Feature"},
	{"geometry":{"coordinates":[9.224039,48.883934],"type":"Point"},"properties":{"osm_id":"6853676296","tag":{"amenity":"waste_basket"}},"type":"Feature"},
	{"geometry":{"coordinates":[9.172739,48.873836],"type":"Point"},"properties":{"osm_id":"6877409431","tag":{"amenity":"waste_basket"}},"type":"Feature"},
	{"geometry":{"coordinates":[9.19489,48.88938],"type":"Point"},"properties":{"osm_id":"6890797539","tag":{"amenity":"waste_basket"}},"type":"Feature"},
	{"geometry":{"coordinates":[9.202656,48.886422],"type":"Point"},"properties":{"osm_id":"6892030659","tag":{"amenity":"waste_basket"}},"type":"Feature"},
	{"geometry":{"coordinates":[9.198459,48.88623],"type":"Point"},"properties":{"osm_id":"6892086842","tag":{"amenity":"waste_basket"}},"type":"Feature"},
	{"geometry":{"coordinates":[9.194187,48.89123],"type":"Point"},"properties":{"osm_id":"6892156724","tag":{"amenity":"waste_basket"}},"type":"Feature"},
	{"geometry":{"coordinates":[9.194564,48.891326],"type":"Point"},"properties":{"osm_id":"6892180683","tag":{"amenity":"waste_basket"}},"type":"Feature"},
	{"geometry":{"coordinates":[9.194698,48.891226],"type":"Point"},"properties":{"osm_id":"6892207278","tag":{"amenity":"waste_basket"}},"type":"Feature"},
	{"geometry":{"coordinates":[9.181853,48.864866],"type":"Point"},"properties":{"osm_id":"6905729185","tag":{"amenity":"waste_basket"}},"type":"Feature"},
	{"geometry":{"coordinates":[9.167344,48.882233],"type":"Point"},"properties":{"osm_id":"6919862657","tag":{"amenity":"waste_basket"}},"type":"Feature"},
	{"geometry":{"coordinates":[9.217843,48.8804],"type":"Point"},"properties":{"osm_id":"6942923023","tag":{"amenity":"waste_basket"}},"type":"Feature"},
	{"geometry":{"coordinates":[9.226041,48.872779],"type":"Point"},"properties":{"osm_id":"6948807840","tag":{"amenity":"waste_basket"}},"type":"Feature"},
	{"geometry":{"coordinates":[9.199575,48.868885],"type":"Point"},"properties":{"osm_id":"6951243853","tag":{"amenity":"waste_basket"}},"type":"Feature"},
	{"geometry":{"coordinates":[9.223639,48.871327],"type":"Point"},"properties":{"osm_id":"6968527484","tag":{"amenity":"waste_basket"}},"type":"Feature"},
	{"geometry":{"coordinates":[9.223764,48.870968],"type":"Point"},"properties":{"osm_id":"6968573107","tag":{"amenity":"waste_basket"}},"type":"Feature"},
	{"geometry":{"coordinates":[9.217536,48.883515],"type":"Point"},"properties":{"osm_id":"6982855933","tag":{"amenity":"waste_basket"}},"type":"Feature"},
	{"geometry":{"coordinates":[9.219752,48.873913],"type":"Point"},"properties":{"osm_id":"6989261424","tag":{"amenity":"waste_basket"}},"type":"Feature"},
	{"geometry":{"coordinates":[9.222703,48.874281],"type":"Point"},"properties":{"osm_id":"6989265825","tag":{"amenity":"waste_basket"}},"type":"Feature"},
	{"geometry":{"coordinates":[9.184165,48.864754],"type":"Point"},"properties":{"osm_id":"6990026439","tag":{"amenity":"waste_basket"}},"type":"Feature"},
	{"geometry":{"coordinates":[9.215323,48.883418],"type":"Point"},"properties":{"osm_id":"7019766970","tag":{"amenity":"waste_basket"}},"type":"Feature"},
	{"geometry":{"coordinates":[9.209767,48.882061],"type":"Point"},"properties":{"osm_id":"7019836514","tag":{"amenity":"waste_basket"}},"type":"Feature"},
	{"geometry":{"coordinates":[9.20978,48.881993],"type":"Point"},"properties":{"osm_id":"7019836515","tag":{"amenity":"waste_basket"}},"type":"Feature"},
	{"geometry":{"coordinates":[9.144519,48.89667],"type":"Point"},"properties":{"osm_id":"7104094660","tag":{"amenity":"waste_basket"}},"type":"Feature"},
	{"geometry":{"coordinates":[9.14833,48.896323],"type":"Point"},"properties":{"osm_id":"7104115010","tag":{"amenity":"waste_basket"}},"type":"Feature"},
	{"geometry":{"coordinates":[9.146904,48.896402],"type":"Point"},"properties":{"osm_id":"7104118514","tag":{"amenity":"waste_basket"}},"type":"Feature"},
	{"geometry":{"coordinates":[9.203385,48.865934],"type":"Point"},"properties":{"osm_id":"7104782645","tag":{"amenity":"waste_basket"}},"type":"Feature"},
	{"geometry":{"coordinates":[9.176621,48.88414],"type":"Point"},"properties":{"osm_id":"7119571397","tag":{"amenity":"waste_basket","waste":"trash"}},"type":"Feature"},
	{"geometry":{"coordinates":[9.18621,48.873192],"type":"Point"},"properties":{"osm_id":"7119698980","tag":{"amenity":"waste_basket"}},"type":"Feature"},
	{"geometry":{"coordinates":[9.223079,48.899717],"type":"Point"},"properties":{"osm_id":"7241885016","tag":{"amenity":"waste_basket"}},"type":"Feature"},
	{"geometry":{"coordinates":[9.225879,48.903409],"type":"Point"},"properties":{"osm_id":"7241966411","tag":{"amenity":"waste_basket"}},"type":"Feature"},
	{"geometry":{"coordinates":[9.222521,48.903902],"type":"Point"},"properties":{"osm_id":"7241970131","tag":{"amenity":"waste_basket"}},"type":"Feature"},
	{"geometry":{"coordinates":[9.202226,48.882455],"type":"Point"},"properties":{"osm_id":"7298661841","tag":{"amenity":"waste_basket"}},"type":"Feature"},
	{"geometry":{"coordinates":[9.182869,48.864855],"type":"Point"},"properties":{"osm_id":"7401374325","tag":{"amenity":"waste_basket"}},"type":"Feature"}
]
}
