{
"type": "FeatureCollection",
"features": [
	{"geometry":{"coordinates":[9.176884,48.829923],"type":"Point"},"properties":{"osm_id":"59257838","tag":{"amenity":"recycling","recycling:clothes":"yes","recycling:shoes":"yes","recycling_type":"container"}},"type":"Feature"},
	{"geometry":{"coordinates":[9.173669,48.827583],"type":"Point"},"properties":{"osm_id":"175740518","tag":{"amenity":"recycling","recycling:batteries":"no","recycling:cans":"no","recycling:clothes":"no","recycling:glass":"yes","recycling:glass_bottles":"yes","recycling:paper":"no","recycling:scrap_metal":"no","recycling_type":"container"}},"type":"Feature"},
	{"geometry":{"coordinates":[9.144941,48.841854],"type":"Point"},"properties":{"osm_id":"244218846","tag":{"amenity":"recycling","recycling:clothes":"yes","recycling:glass_bottles":"yes","recycling_type":"container"}},"type":"Feature"},
	{"geometry":{"coordinates":[9.174091,48.854867],"type":"Point"},"properties":{"osm_id":"247787054","tag":{"amenity":"recycling","check_date":"2017-10-29","recycling:clothes":"yes","recycling:shoes":"yes","recycling_type":"container"}},"type":"Feature"},
	{"geometry":{"coordinates":[9.183811,48.828897],"type":"Point"},"properties":{"osm_id":"249788422","tag":{"amenity":"recycling","recycling:glass_bottles":"yes","recycling_type":"container"}},"type":"Feature"},
	{"geometry":{"coordinates":[9.146488,48.838025],"type":"Point"},"properties":{"osm_id":"254444389","tag":{"amenity":"recycling","recycling:glass":"yes","recycling_type":"container"}},"type":"Feature"},
	{"geometry":{"coordinates":[9.166855,48.828082],"type":"Point"},"properties":{"osm_id":"254922483","tag":{"amenity":"recycling","operator":"Rhenus","recycling:glass":"yes","recycling:plastic_bottles":"yes","recycling_type":"container"}},"type":"Feature"},
	{"geometry":{"coordinates":[9.18511,48.832703],"type":"Point"},"properties":{"osm_id":"269706409","tag":{"amenity":"recycling","recycling:glass":"yes","recycling:glass_bottles":"yes","recycling_type":"container"}},"type":"Feature"},
	{"geometry":{"coordinates":[9.191962,48.834794],"type":"Point"},"properties":{"osm_id":"276715160","tag":{"amenity":"recycling","operator":"Rhenus","recycling:glass":"yes","recycling:glass_bottles":"yes","recycling_type":"container"}},"type":"Feature"},
	{"geometry":{"coordinates":[9.146584,48.807438],"type":"Point"},"properties":{"osm_id":"288915458","tag":{"amenity":"recycling","recycling:glass_bottles":"yes","recycling_type":"container"}},"type":"Feature"},
	{"geometry":{"coordinates":[9.15759,48.813589],"type":"Point"},"properties":{"osm_id":"294100732","tag":{"amenity":"recycling","recycling:glass_bottles":"yes","recycling_type":"container"}},"type":"Feature"},
	{"geometry":{"coordinates":[9.167639,48.811799],"type":"Point"},"properties":{"osm_id":"318190125","tag":{"amenity":"recycling","operator":"Abfallwirtschaft Stuttgart","recycling:clothes":"yes","recycling:glass":"yes","recycling:glass_bottles":"yes","recycling_type":"container"}},"type":"Feature"},
	{"geometry":{"coordinates":[9.159172,48.81795],"type":"Point"},"properties":{"osm_id":"332106089","tag":{"amenity":"recycling","recycling:clothes":"yes","recycling:glass_bottles":"yes","recycling_type":"container"}},"type":"Feature"},
	{"geometry":{"coordinates":[9.194331,48.818938],"type":"Point"},"properties":{"osm_id":"343573167","tag":{"amenity":"recycling","recycling:glass_bottles":"yes","recycling_type":"container"}},"type":"Feature"},
	{"geometry":{"coordinates":[9.190325,48.838696],"type":"Point"},"properties":{"osm_id":"428648534","tag":{"amenity":"recycling","recycling:glass":"yes","recycling:glass_bottles":"yes","recycling_type":"container"}},"type":"Feature"},
	{"geometry":{"coordinates":[9.168249,48.861594],"type":"Point"},"properties":{"name":"Recyclinghof Kornwestheim","osm_id":"443314178","tag":{"addr:city":"Kornwestheim","addr:housenumber":"11","addr:postcode":"70806","addr:street":"Am Wasserturm","amenity":"recycling","opening_hours":"Mo,We,Fr 09:00-12:30,14:00-17:00;Th 09:00-12:30,13:00-18:00;Sa 09:00-13:00;PH,Tu closed","recycling:batteries":"yes","recycling:cans":"yes","recycling:glass":"yes","recycling:scrap_metal":"yes","recycling_type":"centre"}},"type":"Feature"},
	{"geometry":{"coordinates":[9.206393,48.812363],"type":"Point"},"properties":{"osm_id":"496187756","tag":{"amenity":"recycling","recycling:glass":"yes"}},"type":"Feature"},
	{"geometry":{"coordinates":[9.209683,48.811075],"type":"Point"},"properties":{"osm_id":"496501951","tag":{"amenity":"recycling","operator":"Rhenus","recycling:glass":"yes","recycling:glass_bottles":"yes","recycling_type":"container"}},"type":"Feature"},
	{"geometry":{"coordinates":[9.20992,48.817913],"type":"Point"},"properties":{"osm_id":"498461523","tag":{"amenity":"recycling","recycling:glass":"yes","recycling_type":"container"}},"type":"Feature"},
	{"geometry":{"coordinates":[9.165179,48.849829],"type":"Point"},"properties":{"osm_id":"620107318","tag":{"amenity":"recycling","recycling:clothes":"yes"}},"type":"Feature"},
	{"geometry":{"coordinates":[9.159517,48.835368],"type":"Point"},"properties":{"osm_id":"623653027","tag":{"amenity":"recycling"}},"type":"Feature"},
	{"geometry":{"coordinates":[9.217448,48.832923],"type":"Point"},"properties":{"osm_id":"698563587","tag":{"amenity":"recycling","recycling:clothes":"yes","recycling:glass":"no","recycling:glass_bottles":"yes","recycling_type":"container"}},"type":"Feature"},
	{"geometry":{"coordinates":[9.163316,48.84841],"type":"Point"},"properties":{"osm_id":"726699270","tag":{"amenity":"recycling","recycling:glass":"yes","recycling:paper":"yes"}},"type":"Feature"},
	{"geometry":{"coordinates":[9.167491,48.839229],"type":"Point"},"properties":{"osm_id":"726699769","tag":{"amenity":"recycling","opening_hours":"Mo-Sa 07:00-19:00;PH off","operator":"Rhenus","recycling:glass_bottles":"yes","recycling_type":"container"}},"type":"Feature"},
	{"geometry":{"coordinates":[9.169041,48.813074],"type":"Point"},"properties":{"osm_id":"926174692","tag":{"amenity":"waste_basket"}},"type":"Feature"},
	{"geometry":{"coordinates":[9.15619,48.812004],"type":"Point"},"properties":{"osm_id":"964937322","tag":{"amenity":"waste_basket"}},"type":"Feature"},
	{"geometry":{"coordinates":[9.159524,48.807395],"type":"Point"},"properties":{"osm_id":"1221836590","tag":{"amenity":"recycling","operator":"Rhenus","recycling:glass_bottles":"yes","recycling_type":"container"}},"type":"Feature"},
	{"geometry":{"coordinates":[9.215724,48.808429],"type":"Point"},"properties":{"osm_id":"1505326325","tag":{"amenity":"waste_basket"}},"type":"Feature"},
	{"geometry":{"coordinates":[9.156564,48.843045],"type":"Point"},"properties":{"osm_id":"1585162983","tag":{"amenity":"waste_basket"}},"type":"Feature"},
	{"geometry":{"coordinates":[9.186238,48.806884],"type":"Point"},"properties":{"osm_id":"1661782727","tag":{"amenity":"waste_basket"}},"type":"Feature"},
	{"geometry":{"coordinates":[9.187258,48.8383],"type":"Point"},"properties":{"osm_id":"1661925655","tag":{"amenity":"waste_basket"}},"type":"Feature"},
	{"geometry":{"coordinates":[9.191782,48.817799],"type":"Point"},"properties":{"osm_id":"1662929085","tag":{"amenity":"waste_basket"}},"type":"Feature"},
	{"geometry":{"coordinates":[9.194377,48.81888],"type":"Point"},"properties":{"osm_id":"1662929091","tag":{"amenity":"waste_basket"}},"type":"Feature"},
	{"geometry":{"coordinates":[9.195742,48.834851],"type":"Point"},"properties":{"osm_id":"1663134784","tag":{"amenity":"waste_basket"}},"type":"Feature"},
	{"geometry":{"coordinates":[9.21492,48.843335],"type":"Point"},"properties":{"osm_id":"1666054551","tag":{"amenity":"waste_basket"}},"type":"Feature"},
	{"geometry":{"coordinates":[9.214962,48.843368],"type":"Point"},"properties":{"osm_id":"1666054561","tag":{"amenity":"recycling","check_date":"2019-04-18","recycling:glass":"yes","recycling_type":"container"}},"type":"Feature"},
	{"geometry":{"coordinates":[9.218287,48.807572],"type":"Point"},"properties":{"osm_id":"1667700819","tag":{"amenity":"waste_basket"}},"type":"Feature"},
	{"geometry":{"coordinates":[9.224804,48.835877],"type":"Point"},"properties":{"osm_id":"1668865735","tag":{"amenity":"waste_basket"}},"type":"Feature"},
	{"geometry":{"coordinates":[9.224867,48.835949],"type":"Point"},"properties":{"osm_id":"1668865740","tag":{"amenity":"recycling","location":"overground","recycling:glass":"yes","recycling_type":"container"}},"type":"Feature"},
	{"geometry":{"coordinates":[9.224908,48.835985],"type":"Point"},"properties":{"osm_id":"1668865741","tag":{"amenity":"waste_basket"}},"type":"Feature"},
	{"geometry":{"coordinates":[9.225111,48.835549],"type":"Point"},"properties":{"osm_id":"1670955371","tag":{"amenity":"waste_basket"}},"type":"Feature"},
	{"geometry":{"coordinates":[9.168481,48.83337],"type":"Point"},"properties":{"osm_id":"1742552285","tag":{"amenity":"waste_basket"}},"type":"Feature"},
	{"geometry":{"coordinates":[9.222084,48.807892],"type":"Point"},"properties":{"osm_id":"1779123852","tag":{"amenity":"recycling","operator":"Rhenus","recycling:batteries":"no","recycling:cans":"no","recycling:clothes":"no","recycling:glass":"yes","recycling:glass_bottles":"yes","recycling:paper":"no","recycling:scrap_metal":"no","recycling_type":"container"}},"type":"Feature"},
	{"geometry":{"coordinates":[9.177354,48.829937],"type":"Point"},"properties":{"osm_id":"1781340369","tag":{"amenity":"recycling","recycling:glass":"yes","recycling_type":"container"}},"type":"Feature"},
	{"geometry":{"coordinates":[9.180482,48.859983],"type":"Point"},"properties":{"osm_id":"1829272816","tag":{"amenity":"recycling","location":"overground","recycling:clothes":"yes","recycling:glass":"yes","recycling:paper":"yes","recycling_type":"container"}},"type":"Feature"},
	{"geometry":{"coordinates":[9.177566,48.862175],"type":"Point"},"properties":{"osm_id":"1860395574","tag":{"amenity":"recycling","recycling:clothes":"yes"}},"type":"Feature"},
	{"geometry":{"coordinates":[9.207831,48.840845],"type":"Point"},"properties":{"osm_id":"2073485617","tag":{"amenity":"recycling"}},"type":"Feature"},
	{"geometry":{"coordinates":[9.157144,48.808943],"type":"Point"},"properties":{"osm_id":"2282148958","tag":{"amenity":"recycling","recycling:clothes":"yes","recycling_type":"container"}},"type":"Feature"},
	{"geometry":{"coordinates":[9.212289,48.829887],"type":"Point"},"properties":{"osm_id":"2284141731","tag":{"amenity":"waste_basket"}},"type":"Feature"},
	{"geometry":{"coordinates":[9.215045,48.830675],"type":"Point"},"properties":{"osm_id":"2284141733","tag":{"amenity":"waste_basket"}},"type":"Feature"},
	{"geometry":{"coordinates":[9.214826,48.830724],"type":"Point"},"properties":{"osm_id":"2284141734","tag":{"amenity":"waste_basket"}},"type":"Feature"},
	{"geometry":{"coordinates":[9.214244,48.830876],"type":"Point"},"properties":{"osm_id":"2284141736","tag":{"amenity":"waste_basket"}},"type":"Feature"},
	{"geometry":{"coordinates":[9.211617,48.830077],"type":"Point"},"properties":{"osm_id":"2284557399","tag":{"amenity":"waste_disposal"}},"type":"Feature"},
	{"geometry":{"coordinates":[9.212538,48.831151],"type":"Point"},"properties":{"osm_id":"2284594578","tag":{"amenity":"waste_basket"}},"type":"Feature"},
	{"geometry":{"coordinates":[9.211711,48.83179],"type":"Point"},"properties":{"osm_id":"2284594588","tag":{"amenity":"waste_disposal"}},"type":"Feature"},
	{"geometry":{"coordinates":[9.212204,48.833681],"type":"Point"},"properties":{"osm_id":"2284594596","tag":{"amenity":"waste_disposal"}},"type":"Feature"},
	{"geometry":{"coordinates":[9.214114,48.834926],"type":"Point"},"properties":{"osm_id":"2285262612","tag":{"amenity":"waste_basket"}},"type":"Feature"},
	{"geometry":{"coordinates":[9.214618,48.835115],"type":"Point"},"properties":{"osm_id":"2285262617","tag":{"amenity":"waste_basket"}},"type":"Feature"},
	{"geometry":{"coordinates":[9.216831,48.837009],"type":"Point"},"properties":{"osm_id":"2285306806","tag":{"amenity":"waste_disposal"}},"type":"Feature"},
	{"geometry":{"coordinates":[9.176239,48.825639],"type":"Point"},"properties":{"osm_id":"2286906002","tag":{"amenity":"waste_basket"}},"type":"Feature"},
	{"geometry":{"coordinates":[9.176316,48.825983],"type":"Point"},"properties":{"osm_id":"2286906031","tag":{"amenity":"waste_basket"}},"type":"Feature"},
	{"geometry":{"coordinates":[9.170924,48.832174],"type":"Point"},"properties":{"osm_id":"2305288048","tag":{"amenity":"waste_basket"}},"type":"Feature"},
	{"geometry":{"coordinates":[9.191606,48.831868],"type":"Point"},"properties":{"osm_id":"2330220184","tag":{"amenity":"recycling","recycling:glass":"yes","recycling_type":"container"}},"type":"Feature"},
	{"geometry":{"coordinates":[9.191651,48.831875],"type":"Point"},"properties":{"osm_id":"2330220185","tag":{"amenity":"recycling","recycling:clothes":"yes","recycling_type":"container"}},"type":"Feature"},
	{"geometry":{"coordinates":[9.157096,48.846774],"type":"Point"},"properties":{"osm_id":"2339449030","tag":{"amenity":"waste_basket"}},"type":"Feature"},
	{"geometry":{"coordinates":[9.199798,48.8275],"type":"Point"},"properties":{"osm_id":"2384034113","tag":{"amenity":"waste_basket"}},"type":"Feature"},
	{"geometry":{"coordinates":[9.196567,48.827217],"type":"Point"},"properties":{"osm_id":"2384037214","tag":{"amenity":"waste_basket"}},"type":"Feature"},
	{"geometry":{"coordinates":[9.198604,48.828373],"type":"Point"},"properties":{"osm_id":"2384037215","tag":{"amenity":"waste_basket"}},"type":"Feature"},
	{"geometry":{"coordinates":[9.194711,48.829589],"type":"Point"},"properties":{"osm_id":"2384050790","tag":{"amenity":"waste_basket"}},"type":"Feature"},
	{"geometry":{"coordinates":[9.227793,48.843053],"type":"Point"},"properties":{"osm_id":"2398303121","tag":{"amenity":"waste_basket"}},"type":"Feature"},
	{"geometry":{"coordinates":[9.185341,48.836466],"type":"Point"},"properties":{"osm_id":"2413177595","tag":{"amenity":"waste_basket"}},"type":"Feature"},
	{"geometry":{"coordinates":[9.184275,48.836035],"type":"Point"},"properties":{"osm_id":"2413223838","tag":{"amenity":"waste_basket"}},"type":"Feature"},
	{"geometry":{"coordinates":[9.180137,48.834163],"type":"Point"},"properties":{"osm_id":"2414220483","tag":{"amenity":"waste_basket"}},"type":"Feature"},
	{"geometry":{"coordinates":[9.180438,48.83452],"type":"Point"},"properties":{"osm_id":"2414220499","tag":{"amenity":"waste_basket"}},"type":"Feature"},
	{"geometry":{"coordinates":[9.180627,48.834596],"type":"Point"},"properties":{"osm_id":"2414220516","tag":{"amenity":"waste_basket"}},"type":"Feature"},
	{"geometry":{"coordinates":[9.159486,48.807336],"type":"Point"},"properties":{"osm_id":"2448433834","tag":{"amenity":"waste_basket"}},"type":"Feature"},
	{"geometry":{"coordinates":[9.16003,48.807714],"type":"Point"},"properties":{"osm_id":"2448433841","tag":{"amenity":"waste_basket"}},"type":"Feature"},
	{"geometry":{"coordinates":[9.177312,48.82989],"type":"Point"},"properties":{"osm_id":"2449066482","tag":{"amenity":"waste_basket"}},"type":"Feature"},
	{"geometry":{"coordinates":[9.17964,48.830811],"type":"Point"},"properties":{"osm_id":"2449069596","tag":{"amenity":"waste_basket"}},"type":"Feature"},
	{"geometry":{"coordinates":[9.179932,48.830908],"type":"Point"},"properties":{"osm_id":"2449069602","tag":{"amenity":"waste_basket"}},"type":"Feature"},
	{"geometry":{"coordinates":[9.179461,48.831263],"type":"Point"},"properties":{"osm_id":"2449069609","tag":{"amenity":"waste_basket"}},"type":"Feature"},
	{"geometry":{"coordinates":[9.21525,48.832235],"type":"Point"},"properties":{"osm_id":"2449589198","tag":{"amenity":"waste_basket"}},"type":"Feature"},
	{"geometry":{"coordinates":[9.217201,48.833718],"type":"Point"},"properties":{"osm_id":"2449589200","tag":{"amenity":"waste_basket"}},"type":"Feature"},
	{"geometry":{"coordinates":[9.222907,48.813702],"type":"Point"},"properties":{"osm_id":"2449781438","tag":{"amenity":"waste_basket"}},"type":"Feature"},
	{"geometry":{"coordinates":[9.220693,48.811614],"type":"Point"},"properties":{"osm_id":"2449787479","tag":{"amenity":"waste_basket"}},"type":"Feature"},
	{"geometry":{"coordinates":[9.221932,48.812463],"type":"Point"},"properties":{"osm_id":"2449787482","tag":{"amenity":"waste_basket"}},"type":"Feature"},
	{"geometry":{"coordinates":[9.222137,48.808842],"type":"Point"},"properties":{"osm_id":"2449831972","tag":{"amenity":"waste_basket"}},"type":"Feature"},
	{"geometry":{"coordinates":[9.178611,48.829276],"type":"Point"},"properties":{"osm_id":"2449927136","tag":{"amenity":"waste_basket"}},"type":"Feature"},
	{"geometry":{"coordinates":[9.175443,48.830414],"type":"Point"},"properties":{"osm_id":"2449936977","tag":{"amenity":"waste_basket"}},"type":"Feature"},
	{"geometry":{"coordinates":[9.203209,48.836447],"type":"Point"},"properties":{"osm_id":"2485863275","tag":{"amenity":"recycling","check_date":"2019-04-28","operator":"Remondis","recycling:glass_bottles":"yes","recycling_type":"container"}},"type":"Feature"},
	{"geometry":{"coordinates":[9.206464,48.812353],"type":"Point"},"properties":{"osm_id":"2590665833","tag":{"amenity":"waste_basket"}},"type":"Feature"},
	{"geometry":{"coordinates":[9.188565,48.816061],"type":"Point"},"properties":{"osm_id":"2612126168","tag":{"amenity":"waste_basket"}},"type":"Feature"},
	{"geometry":{"coordinates":[9.189898,48.816629],"type":"Point"},"properties":{"osm_id":"2612131824","tag":{"amenity":"waste_basket"}},"type":"Feature"},
	{"geometry":{"coordinates":[9.192486,48.817789],"type":"Point"},"properties":{"osm_id":"2612133157","tag":{"amenity":"waste_basket"}},"type":"Feature"},
	{"geometry":{"coordinates":[9.194704,48.818732],"type":"Point"},"properties":{"osm_id":"2612135427","tag":{"amenity":"waste_basket"}},"type":"Feature"},
	{"geometry":{"coordinates":[9.195005,48.818948],"type":"Point"},"properties":{"osm_id":"2612135439","tag":{"amenity":"waste_basket"}},"type":"Feature"},
	{"geometry":{"coordinates":[9.198269,48.822232],"type":"Point"},"properties":{"osm_id":"2612147171","tag":{"amenity":"waste_basket"}},"type":"Feature"},
	{"geometry":{"coordinates":[9.198243,48.822922],"type":"Point"},"properties":{"osm_id":"2612147173","tag":{"amenity":"waste_basket"}},"type":"Feature"},
	{"geometry":{"coordinates":[9.190513,48.829977],"type":"Point"},"properties":{"osm_id":"2677662479","tag":{"amenity":"waste_basket"}},"type":"Feature"},
	{"geometry":{"coordinates":[9.190421,48.830165],"type":"Point"},"properties":{"osm_id":"2677662481","tag":{"amenity":"recycling","recycling:clothes":"yes","recycling:shoes":"yes","recycling_type":"container"}},"type":"Feature"},
	{"geometry":{"coordinates":[9.19084,48.829767],"type":"Point"},"properties":{"osm_id":"2677662497","tag":{"amenity":"waste_basket"}},"type":"Feature"},
	{"geometry":{"coordinates":[9.193314,48.864416],"type":"Point"},"properties":{"osm_id":"2786001935","tag":{"amenity":"recycling","recycling:clothes":"yes","recycling_type":"container"}},"type":"Feature"},
	{"geometry":{"coordinates":[9.157158,48.808698],"type":"Point"},"properties":{"osm_id":"2864772027","tag":{"amenity":"waste_basket"}},"type":"Feature"},
	{"geometry":{"coordinates":[9.163118,48.810305],"type":"Point"},"properties":{"osm_id":"2864772034","tag":{"amenity":"waste_basket"}},"type":"Feature"},
	{"geometry":{"coordinates":[9.167615,48.811778],"type":"Point"},"properties":{"osm_id":"2864921811","tag":{"amenity":"waste_basket"}},"type":"Feature"},
	{"geometry":{"coordinates":[9.204744,48.80708],"type":"Point"},"properties":{"osm_id":"2868727749","tag":{"amenity":"waste_basket"}},"type":"Feature"},
	{"geometry":{"coordinates":[9.204893,48.807328],"type":"Point"},"properties":{"osm_id":"2868727752","tag":{"amenity":"waste_basket"}},"type":"Feature"},
	{"geometry":{"coordinates":[9.204673,48.807651],"type":"Point"},"properties":{"osm_id":"2868727754","tag":{"amenity":"waste_basket"}},"type":"Feature"},
	{"geometry":{"coordinates":[9.218352,48.835163],"type":"Point"},"properties":{"osm_id":"2881972120","tag":{"amenity":"waste_basket"}},"type":"Feature"},
	{"geometry":{"coordinates":[9.176789,48.807358],"type":"Point"},"properties":{"osm_id":"2882050261","tag":{"amenity":"waste_basket"}},"type":"Feature"},
	{"geometry":{"coordinates":[9.181241,48.808983],"type":"Point"},"properties":{"osm_id":"2882051486","tag":{"amenity":"recycling","recycling:glass":"yes","recycling_type":"container"}},"type":"Feature"},
	{"geometry":{"coordinates":[9.226574,48.815272],"type":"Point"},"properties":{"osm_id":"2927616607","tag":{"amenity":"recycling","recycling:clothes":"yes","recycling_type":"container"}},"type":"Feature"},
	{"geometry":{"coordinates":[9.227199,48.815592],"type":"Point"},"properties":{"osm_id":"2927616611","tag":{"amenity":"waste_basket"}},"type":"Feature"},
	{"geometry":{"coordinates":[9.213067,48.82706],"type":"Point"},"properties":{"osm_id":"2929024003","tag":{"amenity":"waste_basket"}},"type":"Feature"},
	{"geometry":{"coordinates":[9.212196,48.825194],"type":"Point"},"properties":{"osm_id":"2929086233","tag":{"amenity":"waste_basket"}},"type":"Feature"},
	{"geometry":{"coordinates":[9.212843,48.825381],"type":"Point"},"properties":{"osm_id":"2929086234","tag":{"amenity":"waste_basket"}},"type":"Feature"},
	{"geometry":{"coordinates":[9.19349,48.818788],"type":"Point"},"properties":{"osm_id":"2929138396","tag":{"amenity":"waste_basket"}},"type":"Feature"},
	{"geometry":{"coordinates":[9.191667,48.817694],"type":"Point"},"properties":{"osm_id":"2929154102","tag":{"amenity":"waste_basket"}},"type":"Feature"},
	{"geometry":{"coordinates":[9.186605,48.81155],"type":"Point"},"properties":{"osm_id":"2929311263","tag":{"amenity":"waste_basket"}},"type":"Feature"},
	{"geometry":{"coordinates":[9.186129,48.8116],"type":"Point"},"properties":{"osm_id":"2929311266","tag":{"amenity":"waste_basket"}},"type":"Feature"},
	{"geometry":{"coordinates":[9.185068,48.812034],"type":"Point"},"properties":{"osm_id":"2929311274","tag":{"amenity":"waste_basket"}},"type":"Feature"},
	{"geometry":{"coordinates":[9.180544,48.820943],"type":"Point"},"properties":{"osm_id":"2929354506","tag":{"amenity":"waste_basket"}},"type":"Feature"},
	{"geometry":{"coordinates":[9.168832,48.828873],"type":"Point"},"properties":{"osm_id":"2931126472","tag":{"amenity":"recycling","recycling:glass":"yes","recycling_type":"container"}},"type":"Feature"},
	{"geometry":{"coordinates":[9.168827,48.828905],"type":"Point"},"properties":{"osm_id":"2931126473","tag":{"amenity":"waste_basket"}},"type":"Feature"},
	{"geometry":{"coordinates":[9.211609,48.830065],"type":"Point"},"properties":{"osm_id":"2935874497","tag":{"amenity":"waste_disposal","description:de":"Grillkohle und Einweggrills","waste":"ash"}},"type":"Feature"},
	{"geometry":{"coordinates":[9.211716,48.831765],"type":"Point"},"properties":{"osm_id":"2935874498","tag":{"amenity":"waste_disposal","description:de":"Grillkohle und Einweggrills","waste":"ash"}},"type":"Feature"},
	{"geometry":{"coordinates":[9.228279,48.838453],"type":"Point"},"properties":{"osm_id":"2984424893","tag":{"amenity":"waste_basket"}},"type":"Feature"},
	{"geometry":{"coordinates":[9.217401,48.832952],"type":"Point"},"properties":{"osm_id":"2996280350","tag":{"amenity":"waste_basket"}},"type":"Feature"},
	{"geometry":{"coordinates":[9.224177,48.830356],"type":"Point"},"properties":{"osm_id":"3003594488","tag":{"amenity":"waste_basket"}},"type":"Feature"},
	{"geometry":{"coordinates":[9.218459,48.832231],"type":"Point"},"properties":{"osm_id":"3003620430","tag":{"amenity":"waste_basket"}},"type":"Feature"},
	{"geometry":{"coordinates":[9.206699,48.82224],"type":"Point"},"properties":{"osm_id":"3003724108","tag":{"amenity":"waste_basket"}},"type":"Feature"},
	{"geometry":{"coordinates":[9.208575,48.822262],"type":"Point"},"properties":{"osm_id":"3003724110","tag":{"amenity":"waste_basket"}},"type":"Feature"},
	{"geometry":{"coordinates":[9.223251,48.833011],"type":"Point"},"properties":{"osm_id":"3003727316","tag":{"amenity":"recycling","recycling:glass":"yes","recycling_type":"container"}},"type":"Feature"},
	{"geometry":{"coordinates":[9.223256,48.833021],"type":"Point"},"properties":{"osm_id":"3003727317","tag":{"amenity":"waste_basket"}},"type":"Feature"},
	{"geometry":{"coordinates":[9.210999,48.843007],"type":"Point"},"properties":{"osm_id":"3020980447","tag":{"amenity":"waste_basket"}},"type":"Feature"},
	{"geometry":{"coordinates":[9.207755,48.821433],"type":"Point"},"properties":{"barrier":"gate","osm_id":"3044023385","tag":{"access":"customers"}},"type":"Feature"},
	{"geometry":{"coordinates":[9.142703,48.84092],"type":"Point"},"properties":{"osm_id":"3059956607","tag":{"amenity":"waste_basket"}},"type":"Feature"},
	{"geometry":{"coordinates":[9.143481,48.841324],"type":"Point"},"properties":{"osm_id":"3059956622","tag":{"amenity":"waste_basket"}},"type":"Feature"},
	{"geometry":{"coordinates":[9.144312,48.841556],"type":"Point"},"properties":{"osm_id":"3059957448","tag":{"amenity":"waste_basket"}},"type":"Feature"},
	{"geometry":{"coordinates":[9.166795,48.828143],"type":"Point"},"properties":{"osm_id":"3073806045","tag":{"amenity":"waste_basket"}},"type":"Feature"},
	{"geometry":{"coordinates":[9.159173,48.843163],"type":"Point"},"properties":{"osm_id":"3152720398","tag":{"amenity":"waste_basket"}},"type":"Feature"},
	{"geometry":{"coordinates":[9.161188,48.8434],"type":"Point"},"properties":{"osm_id":"3175768473","tag":{"amenity":"waste_basket"}},"type":"Feature"},
	{"geometry":{"coordinates":[9.1528,48.841345],"type":"Point"},"properties":{"osm_id":"3178040014","tag":{"amenity":"waste_basket"}},"type":"Feature"},
	{"geometry":{"coordinates":[9.152286,48.841435],"type":"Point"},"properties":{"osm_id":"3178040018","tag":{"amenity":"waste_basket"}},"type":"Feature"},
	{"geometry":{"coordinates":[9.150104,48.841466],"type":"Point"},"properties":{"osm_id":"3178040019","tag":{"amenity":"waste_basket"}},"type":"Feature"},
	{"geometry":{"coordinates":[9.142293,48.836882],"type":"Point"},"properties":{"osm_id":"3178053816","tag":{"amenity":"waste_basket"}},"type":"Feature"},
	{"geometry":{"coordinates":[9.143556,48.844389],"type":"Point"},"properties":{"osm_id":"3179428905","tag":{"amenity":"waste_basket"}},"type":"Feature"},
	{"geometry":{"coordinates":[9.142887,48.844494],"type":"Point"},"properties":{"osm_id":"3179666401","tag":{"amenity":"waste_basket"}},"type":"Feature"},
	{"geometry":{"coordinates":[9.165349,48.846068],"type":"Point"},"properties":{"osm_id":"3181714081","tag":{"amenity":"waste_basket"}},"type":"Feature"},
	{"geometry":{"coordinates":[9.164362,48.846888],"type":"Point"},"properties":{"osm_id":"3181714089","tag":{"amenity":"waste_basket"}},"type":"Feature"},
	{"geometry":{"coordinates":[9.160329,48.847],"type":"Point"},"properties":{"osm_id":"3181714090","tag":{"amenity":"waste_basket"}},"type":"Feature"},
	{"geometry":{"coordinates":[9.160314,48.847061],"type":"Point"},"properties":{"osm_id":"3181714092","tag":{"amenity":"recycling","recycling:clothes":"yes","recycling:glass":"yes","recycling_type":"container"}},"type":"Feature"},
	{"geometry":{"coordinates":[9.170167,48.847215],"type":"Point"},"properties":{"osm_id":"3187235183","tag":{"amenity":"waste_basket"}},"type":"Feature"},
	{"geometry":{"coordinates":[9.17047,48.847408],"type":"Point"},"properties":{"osm_id":"3187235186","tag":{"amenity":"waste_basket"}},"type":"Feature"},
	{"geometry":{"coordinates":[9.163357,48.848444],"type":"Point"},"properties":{"osm_id":"3187235188","tag":{"amenity":"waste_basket"}},"type":"Feature"},
	{"geometry":{"coordinates":[9.164236,48.848288],"type":"Point"},"properties":{"osm_id":"3188821840","tag":{"amenity":"waste_basket"}},"type":"Feature"},
	{"geometry":{"coordinates":[9.160937,48.849546],"type":"Point"},"properties":{"osm_id":"3188821842","tag":{"amenity":"waste_basket"}},"type":"Feature"},
	{"geometry":{"coordinates":[9.199631,48.832233],"type":"Point"},"properties":{"osm_id":"3261317198","tag":{"amenity":"recycling","recycling:glass":"yes","recycling_type":"container"}},"type":"Feature"},
	{"geometry":{"coordinates":[9.155674,48.848592],"type":"Point"},"properties":{"osm_id":"3275155084","tag":{"amenity":"waste_basket"}},"type":"Feature"},
	{"geometry":{"coordinates":[9.157133,48.848774],"type":"Point"},"properties":{"osm_id":"3275155085","tag":{"amenity":"waste_basket"}},"type":"Feature"},
	{"geometry":{"coordinates":[9.157513,48.841897],"type":"Point"},"properties":{"osm_id":"3306533546","tag":{"amenity":"waste_basket"}},"type":"Feature"},
	{"geometry":{"coordinates":[9.151553,48.817302],"type":"Point"},"properties":{"osm_id":"3355599382","tag":{"amenity":"waste_basket"}},"type":"Feature"},
	{"geometry":{"coordinates":[9.163786,48.827963],"type":"Point"},"properties":{"osm_id":"3355757487","tag":{"amenity":"waste_basket"}},"type":"Feature"},
	{"geometry":{"coordinates":[9.163715,48.827734],"type":"Point"},"properties":{"osm_id":"3355779937","tag":{"amenity":"waste_basket"}},"type":"Feature"},
	{"geometry":{"coordinates":[9.153194,48.829333],"type":"Point"},"properties":{"osm_id":"3356261921","tag":{"amenity":"waste_basket"}},"type":"Feature"},
	{"geometry":{"coordinates":[9.153087,48.828447],"type":"Point"},"properties":{"osm_id":"3356366997","tag":{"amenity":"waste_basket"}},"type":"Feature"},
	{"geometry":{"coordinates":[9.15281,48.828687],"type":"Point"},"properties":{"osm_id":"3356367001","tag":{"amenity":"recycling","operator":"Rhenus","recycling:glass_bottles":"yes","recycling_type":"container"}},"type":"Feature"},
	{"geometry":{"coordinates":[9.182968,48.809669],"type":"Point"},"properties":{"osm_id":"3374414694","tag":{"amenity":"waste_basket"}},"type":"Feature"},
	{"geometry":{"coordinates":[9.183128,48.80956],"type":"Point"},"properties":{"osm_id":"3374415693","tag":{"amenity":"waste_basket"}},"type":"Feature"},
	{"geometry":{"coordinates":[9.183117,48.809475],"type":"Point"},"properties":{"osm_id":"3386114594","tag":{"amenity":"waste_basket"}},"type":"Feature"},
	{"geometry":{"coordinates":[9.189815,48.826966],"type":"Point"},"properties":{"osm_id":"3426830248","tag":{"amenity":"waste_basket"}},"type":"Feature"},
	{"geometry":{"coordinates":[9.190256,48.827521],"type":"Point"},"properties":{"osm_id":"3426830268","tag":{"amenity":"waste_basket"}},"type":"Feature"},
	{"geometry":{"coordinates":[9.188565,48.828092],"type":"Point"},"properties":{"osm_id":"3427090283","tag":{"amenity":"waste_basket"}},"type":"Feature"},
	{"geometry":{"coordinates":[9.187243,48.82802],"type":"Point"},"properties":{"osm_id":"3427334939","tag":{"amenity":"waste_basket"}},"type":"Feature"},
	{"geometry":{"coordinates":[9.187631,48.828448],"type":"Point"},"properties":{"osm_id":"3427334963","tag":{"amenity":"waste_basket"}},"type":"Feature"},
	{"geometry":{"coordinates":[9.206116,48.840999],"type":"Point"},"properties":{"osm_id":"3466024912","tag":{"amenity":"recycling","recycling:glass_bottles":"yes","recycling_type":"container"}},"type":"Feature"},
	{"geometry":{"coordinates":[9.2208,48.811694],"type":"Point"},"properties":{"osm_id":"3476747143","tag":{"amenity":"waste_basket"}},"type":"Feature"},
	{"geometry":{"coordinates":[9.221706,48.812264],"type":"Point"},"properties":{"osm_id":"3476747150","tag":{"amenity":"waste_basket"}},"type":"Feature"},
	{"geometry":{"coordinates":[9.223633,48.814054],"type":"Point"},"properties":{"osm_id":"3476764775","tag":{"amenity":"waste_basket"}},"type":"Feature"},
	{"geometry":{"coordinates":[9.226138,48.815886],"type":"Point"},"properties":{"osm_id":"3476880631","tag":{"amenity":"waste_basket"}},"type":"Feature"},
	{"geometry":{"coordinates":[9.153423,48.843494],"type":"Point"},"properties":{"osm_id":"3477200597","tag":{"amenity":"waste_basket"}},"type":"Feature"},
	{"geometry":{"coordinates":[9.209438,48.827682],"type":"Point"},"properties":{"osm_id":"3477246329","tag":{"amenity":"waste_disposal"}},"type":"Feature"},
	{"geometry":{"coordinates":[9.208917,48.829388],"type":"Point"},"properties":{"osm_id":"3477246332","tag":{"amenity":"waste_disposal"}},"type":"Feature"},
	{"geometry":{"coordinates":[9.198416,48.840584],"type":"Point"},"properties":{"osm_id":"3478993514","tag":{"amenity":"waste_basket"}},"type":"Feature"},
	{"geometry":{"coordinates":[9.198381,48.839107],"type":"Point"},"properties":{"osm_id":"3479032281","tag":{"amenity":"waste_basket"}},"type":"Feature"},
	{"geometry":{"coordinates":[9.180135,48.83425],"type":"Point"},"properties":{"osm_id":"3479158550","tag":{"amenity":"waste_basket"}},"type":"Feature"},
	{"geometry":{"coordinates":[9.179889,48.831699],"type":"Point"},"properties":{"osm_id":"3479737046","tag":{"amenity":"waste_basket"}},"type":"Feature"},
	{"geometry":{"coordinates":[9.176807,48.828035],"type":"Point"},"properties":{"osm_id":"3479896399","tag":{"amenity":"recycling","recycling:clothes":"yes","recycling_type":"container"}},"type":"Feature"},
	{"geometry":{"coordinates":[9.174787,48.81811],"type":"Point"},"properties":{"osm_id":"3479981535","tag":{"amenity":"waste_basket"}},"type":"Feature"},
	{"geometry":{"coordinates":[9.169046,48.812749],"type":"Point"},"properties":{"osm_id":"3480033705","tag":{"amenity":"waste_basket"}},"type":"Feature"},
	{"geometry":{"coordinates":[9.164791,48.810647],"type":"Point"},"properties":{"osm_id":"3480577851","tag":{"amenity":"waste_basket"}},"type":"Feature"},
	{"geometry":{"coordinates":[9.1634,48.810245],"type":"Point"},"properties":{"osm_id":"3480586105","tag":{"amenity":"waste_basket"}},"type":"Feature"},
	{"geometry":{"coordinates":[9.209741,48.826127],"type":"Point"},"properties":{"osm_id":"3515713907","tag":{"amenity":"waste_basket"}},"type":"Feature"},
	{"geometry":{"coordinates":[9.177599,48.807563],"type":"Point"},"properties":{"osm_id":"3545751487","tag":{"amenity":"waste_basket"}},"type":"Feature"},
	{"geometry":{"coordinates":[9.211271,48.827316],"type":"Point"},"properties":{"osm_id":"3555419971","tag":{"amenity":"waste_basket"}},"type":"Feature"},
	{"geometry":{"coordinates":[9.152872,48.844824],"type":"Point"},"properties":{"osm_id":"3603801559","tag":{"amenity":"waste_basket"}},"type":"Feature"},
	{"geometry":{"coordinates":[9.148592,48.849594],"type":"Point"},"properties":{"osm_id":"3606080715","tag":{"amenity":"waste_basket"}},"type":"Feature"},
	{"geometry":{"coordinates":[9.145949,48.851135],"type":"Point"},"properties":{"osm_id":"3606080716","tag":{"amenity":"waste_basket"}},"type":"Feature"},
	{"geometry":{"coordinates":[9.15251,48.8483],"type":"Point"},"properties":{"osm_id":"3609901100","tag":{"amenity":"waste_basket"}},"type":"Feature"},
	{"geometry":{"coordinates":[9.15205,48.851015],"type":"Point"},"properties":{"osm_id":"3609901106","tag":{"amenity":"waste_basket"}},"type":"Feature"},
	{"geometry":{"coordinates":[9.151777,48.853295],"type":"Point"},"properties":{"osm_id":"3616187471","tag":{"amenity":"recycling","operator":"Rhenus","recycling:glass_bottles":"yes","recycling_type":"container"}},"type":"Feature"},
	{"geometry":{"coordinates":[9.14652,48.838003],"type":"Point"},"properties":{"osm_id":"3616734165","tag":{"amenity":"waste_basket"}},"type":"Feature"},
	{"geometry":{"coordinates":[9.159167,48.81792],"type":"Point"},"properties":{"osm_id":"3617955002","tag":{"amenity":"waste_basket"}},"type":"Feature"},
	{"geometry":{"coordinates":[9.147365,48.807225],"type":"Point"},"properties":{"osm_id":"3618982481","tag":{"amenity":"waste_basket"}},"type":"Feature"},
	{"geometry":{"coordinates":[9.141575,48.808763],"type":"Point"},"properties":{"osm_id":"3620801468","tag":{"amenity":"waste_basket"}},"type":"Feature"},
	{"geometry":{"coordinates":[9.212687,48.820245],"type":"Point"},"properties":{"osm_id":"3628492594","tag":{"amenity":"waste_basket"}},"type":"Feature"},
	{"geometry":{"coordinates":[9.218602,48.838903],"type":"Point"},"properties":{"osm_id":"3628595518","tag":{"amenity":"waste_basket"}},"type":"Feature"},
	{"geometry":{"coordinates":[9.211392,48.825839],"type":"Point"},"properties":{"osm_id":"3629389265","tag":{"amenity":"waste_basket"}},"type":"Feature"},
	{"geometry":{"coordinates":[9.210329,48.810284],"type":"Point"},"properties":{"osm_id":"3634221620","tag":{"amenity":"waste_basket"}},"type":"Feature"},
	{"geometry":{"coordinates":[9.20107,48.83503],"type":"Point"},"properties":{"osm_id":"3635162270","tag":{"amenity":"waste_basket"}},"type":"Feature"},
	{"geometry":{"coordinates":[9.195468,48.834835],"type":"Point"},"properties":{"osm_id":"3635305660","tag":{"amenity":"waste_basket"}},"type":"Feature"},
	{"geometry":{"coordinates":[9.193943,48.832438],"type":"Point"},"properties":{"osm_id":"3635373356","tag":{"amenity":"waste_basket"}},"type":"Feature"},
	{"geometry":{"coordinates":[9.190827,48.831831],"type":"Point"},"properties":{"osm_id":"3635430400","tag":{"amenity":"waste_basket"}},"type":"Feature"},
	{"geometry":{"coordinates":[9.182957,48.830169],"type":"Point"},"properties":{"osm_id":"3635526973","tag":{"amenity":"waste_basket"}},"type":"Feature"},
	{"geometry":{"coordinates":[9.167679,48.829897],"type":"Point"},"properties":{"osm_id":"3646674391","tag":{"amenity":"waste_basket"}},"type":"Feature"},
	{"geometry":{"coordinates":[9.168112,48.830011],"type":"Point"},"properties":{"osm_id":"3646674392","tag":{"amenity":"waste_basket"}},"type":"Feature"},
	{"geometry":{"coordinates":[9.168279,48.830251],"type":"Point"},"properties":{"osm_id":"3646674694","tag":{"amenity":"waste_basket"}},"type":"Feature"},
	{"geometry":{"coordinates":[9.163889,48.832613],"type":"Point"},"properties":{"osm_id":"3646711380","tag":{"amenity":"recycling","recycling:clothes":"yes","recycling:glass":"yes","recycling_type":"container"}},"type":"Feature"},
	{"geometry":{"coordinates":[9.218605,48.807244],"type":"Point"},"properties":{"osm_id":"3657608233","tag":{"amenity":"waste_basket"}},"type":"Feature"},
	{"geometry":{"coordinates":[9.206975,48.826534],"type":"Point"},"properties":{"osm_id":"3660294430","tag":{"amenity":"waste_basket"}},"type":"Feature"},
	{"geometry":{"coordinates":[9.189836,48.80707],"type":"Point"},"properties":{"osm_id":"3660804193","tag":{"amenity":"waste_basket"}},"type":"Feature"},
	{"geometry":{"coordinates":[9.168093,48.814088],"type":"Point"},"properties":{"osm_id":"3665261609","tag":{"amenity":"waste_basket"}},"type":"Feature"},
	{"geometry":{"coordinates":[9.168155,48.814114],"type":"Point"},"properties":{"osm_id":"3665261613","tag":{"amenity":"waste_basket"}},"type":"Feature"},
	{"geometry":{"coordinates":[9.166903,48.813499],"type":"Point"},"properties":{"osm_id":"3665993543","tag":{"amenity":"waste_basket"}},"type":"Feature"},
	{"geometry":{"coordinates":[9.217421,48.827346],"type":"Point"},"properties":{"osm_id":"3672261930","tag":{"amenity":"waste_disposal"}},"type":"Feature"},
	{"geometry":{"coordinates":[9.215637,48.82928],"type":"Point"},"properties":{"osm_id":"3672605739","tag":{"amenity":"waste_disposal"}},"type":"Feature"},
	{"geometry":{"coordinates":[9.223168,48.807575],"type":"Point"},"properties":{"osm_id":"3681363607","tag":{"amenity":"waste_basket"}},"type":"Feature"},
	{"geometry":{"coordinates":[9.21558,48.809365],"type":"Point"},"properties":{"osm_id":"3684992200","tag":{"amenity":"waste_basket"}},"type":"Feature"},
	{"geometry":{"coordinates":[9.158742,48.842722],"type":"Point"},"properties":{"osm_id":"3685881366","tag":{"amenity":"waste_basket"}},"type":"Feature"},
	{"geometry":{"coordinates":[9.185481,48.828682],"type":"Point"},"properties":{"osm_id":"3690130652","tag":{"amenity":"waste_basket"}},"type":"Feature"},
	{"geometry":{"coordinates":[9.146642,48.807397],"type":"Point"},"properties":{"osm_id":"3692804721","tag":{"amenity":"waste_basket"}},"type":"Feature"},
	{"geometry":{"coordinates":[9.142771,48.80916],"type":"Point"},"properties":{"osm_id":"3692807771","tag":{"amenity":"waste_basket"}},"type":"Feature"},
	{"geometry":{"coordinates":[9.142112,48.809969],"type":"Point"},"properties":{"osm_id":"3693652475","tag":{"amenity":"waste_basket"}},"type":"Feature"},
	{"geometry":{"coordinates":[9.15137,48.80988],"type":"Point"},"properties":{"osm_id":"3701567660","tag":{"amenity":"waste_basket"}},"type":"Feature"},
	{"geometry":{"coordinates":[9.177111,48.840567],"type":"Point"},"properties":{"name":"Kompostplatz","osm_id":"3701729192","tag":{"amenity":"recycling","contact:phone":"+49 711 871387","opening_hours":"Mo-Th 07:15-15:45; Fr 07:15-14:45","operator":"Landeshauptstadt Stuttgart","recycling:green_waste":"yes","recycling_type":"centre"}},"type":"Feature"},
	{"geometry":{"coordinates":[9.217066,48.816951],"type":"Point"},"properties":{"osm_id":"3712874805","tag":{"amenity":"waste_basket"}},"type":"Feature"},
	{"geometry":{"coordinates":[9.217321,48.817549],"type":"Point"},"properties":{"osm_id":"3712874888","tag":{"amenity":"waste_basket"}},"type":"Feature"},
	{"geometry":{"coordinates":[9.227199,48.818818],"type":"Point"},"properties":{"osm_id":"3714460241","tag":{"amenity":"waste_basket"}},"type":"Feature"},
	{"geometry":{"coordinates":[9.222688,48.820034],"type":"Point"},"properties":{"osm_id":"3714460428","tag":{"amenity":"waste_basket"}},"type":"Feature"},
	{"geometry":{"coordinates":[9.222439,48.820124],"type":"Point"},"properties":{"osm_id":"3714460496","tag":{"amenity":"waste_basket"}},"type":"Feature"},
	{"geometry":{"coordinates":[9.222306,48.82012],"type":"Point"},"properties":{"osm_id":"3714460505","tag":{"amenity":"waste_basket"}},"type":"Feature"},
	{"geometry":{"coordinates":[9.224098,48.821654],"type":"Point"},"properties":{"osm_id":"3714460811","tag":{"amenity":"waste_basket"}},"type":"Feature"},
	{"geometry":{"coordinates":[9.218397,48.823108],"type":"Point"},"properties":{"osm_id":"3714460913","tag":{"amenity":"recycling","recycling:clothes":"yes","recycling:glass_bottles":"yes","recycling_type":"container"}},"type":"Feature"},
	{"geometry":{"coordinates":[9.164406,48.832434],"type":"Point"},"properties":{"osm_id":"3718988227","tag":{"amenity":"waste_basket"}},"type":"Feature"},
	{"geometry":{"coordinates":[9.169807,48.812497],"type":"Point"},"properties":{"osm_id":"3722784189","tag":{"amenity":"waste_basket"}},"type":"Feature"},
	{"geometry":{"coordinates":[9.140853,48.810792],"type":"Point"},"properties":{"osm_id":"3744350312","tag":{"amenity":"waste_basket"}},"type":"Feature"},
	{"geometry":{"coordinates":[9.147166,48.809496],"type":"Point"},"properties":{"osm_id":"3744379518","tag":{"amenity":"waste_basket"}},"type":"Feature"},
	{"geometry":{"coordinates":[9.200429,48.831362],"type":"Point"},"properties":{"osm_id":"3749821459","tag":{"amenity":"waste_basket"}},"type":"Feature"},
	{"geometry":{"coordinates":[9.200122,48.831976],"type":"Point"},"properties":{"osm_id":"3749821461","tag":{"amenity":"waste_basket"}},"type":"Feature"},
	{"geometry":{"coordinates":[9.201072,48.832188],"type":"Point"},"properties":{"osm_id":"3749821464","tag":{"amenity":"waste_basket"}},"type":"Feature"},
	{"geometry":{"coordinates":[9.187249,48.829647],"type":"Point"},"properties":{"osm_id":"3771869575","tag":{"amenity":"recycling","recycling:clothes":"yes","recycling_type":"container"}},"type":"Feature"},
	{"geometry":{"coordinates":[9.179142,48.830565],"type":"Point"},"properties":{"osm_id":"3784402095","tag":{"amenity":"waste_basket"}},"type":"Feature"},
	{"geometry":{"coordinates":[9.177489,48.810857],"type":"Point"},"properties":{"osm_id":"3814487924","tag":{"amenity":"waste_basket"}},"type":"Feature"},
	{"geometry":{"coordinates":[9.158831,48.808479],"type":"Point"},"properties":{"osm_id":"3814508013","tag":{"amenity":"waste_basket"}},"type":"Feature"},
	{"geometry":{"coordinates":[9.159529,48.848112],"type":"Point"},"properties":{"osm_id":"3817851345","tag":{"amenity":"waste_basket"}},"type":"Feature"},
	{"geometry":{"coordinates":[9.159763,48.848515],"type":"Point"},"properties":{"osm_id":"3817851348","tag":{"amenity":"waste_basket"}},"type":"Feature"},
	{"geometry":{"coordinates":[9.159776,48.848635],"type":"Point"},"properties":{"osm_id":"3817851352","tag":{"amenity":"waste_basket"}},"type":"Feature"},
	{"geometry":{"coordinates":[9.211291,48.807134],"type":"Point"},"properties":{"osm_id":"3833459829","tag":{"amenity":"recycling","description":"Glascontainer befindet sich auf dem Firmengel\u00c3\u00a4nde Rillingsekt","opening_hours":"Mo-Fr 09:00-18:00","recycling:cans":"no","recycling:clothes":"no","recycling:glass":"yes","recycling:paper":"no","recycling:plastic":"no","recycling_type":"container"}},"type":"Feature"},
	{"geometry":{"coordinates":[9.150318,48.849718],"type":"Point"},"properties":{"osm_id":"3840019463","tag":{"amenity":"waste_basket"}},"type":"Feature"},
	{"geometry":{"coordinates":[9.15053,48.849745],"type":"Point"},"properties":{"osm_id":"3840019464","tag":{"amenity":"recycling","operator":"Rhenus","recycling:glass":"yes","recycling:glass_bottles":"yes","recycling_type":"container"}},"type":"Feature"},
	{"geometry":{"coordinates":[9.205116,48.816538],"type":"Point"},"properties":{"osm_id":"3887056742","tag":{"amenity":"waste_basket"}},"type":"Feature"},
	{"geometry":{"coordinates":[9.183268,48.831802],"type":"Point"},"properties":{"osm_id":"3899070258","tag":{"amenity":"waste_basket"}},"type":"Feature"},
	{"geometry":{"coordinates":[9.183029,48.831805],"type":"Point"},"properties":{"osm_id":"3899070260","tag":{"amenity":"waste_basket"}},"type":"Feature"},
	{"geometry":{"coordinates":[9.208199,48.841334],"type":"Point"},"properties":{"osm_id":"3902348069","tag":{"amenity":"waste_basket"}},"type":"Feature"},
	{"geometry":{"coordinates":[9.208504,48.841277],"type":"Point"},"properties":{"osm_id":"3902348070","tag":{"amenity":"waste_basket"}},"type":"Feature"},
	{"geometry":{"coordinates":[9.220464,48.830727],"type":"Point"},"properties":{"osm_id":"3908771801","tag":{"amenity":"waste_basket"}},"type":"Feature"},
	{"geometry":{"coordinates":[9.185271,48.831077],"type":"Point"},"properties":{"osm_id":"3921904223","tag":{"amenity":"waste_basket"}},"type":"Feature"},
	{"geometry":{"coordinates":[9.210517,48.844476],"type":"Point"},"properties":{"osm_id":"3936626850","tag":{"amenity":"waste_basket"}},"type":"Feature"},
	{"geometry":{"coordinates":[9.220567,48.822499],"type":"Point"},"properties":{"osm_id":"3982865922","tag":{"amenity":"recycling","recycling:glass_bottles":"yes","recycling_type":"container"}},"type":"Feature"},
	{"geometry":{"coordinates":[9.193507,48.841435],"type":"Point"},"properties":{"osm_id":"3984944867","tag":{"amenity":"recycling","recycling:glass":"yes","recycling:glass_bottles":"yes","recycling_type":"container"}},"type":"Feature"},
	{"geometry":{"coordinates":[9.210817,48.811862],"type":"Point"},"properties":{"osm_id":"4001648546","tag":{"amenity":"waste_basket"}},"type":"Feature"},
	{"geometry":{"coordinates":[9.213842,48.8134],"type":"Point"},"properties":{"osm_id":"4001648675","tag":{"amenity":"waste_basket"}},"type":"Feature"},
	{"geometry":{"coordinates":[9.216923,48.815174],"type":"Point"},"properties":{"osm_id":"4001648829","tag":{"amenity":"waste_basket"}},"type":"Feature"},
	{"geometry":{"coordinates":[9.218416,48.848664],"type":"Point"},"properties":{"osm_id":"4046587573","tag":{"amenity":"waste_basket"}},"type":"Feature"},
	{"geometry":{"coordinates":[9.218092,48.848722],"type":"Point"},"properties":{"osm_id":"4046587575","tag":{"amenity":"waste_basket"}},"type":"Feature"},
	{"geometry":{"coordinates":[9.188058,48.817995],"type":"Point"},"properties":{"osm_id":"4071186190","tag":{"amenity":"waste_basket"}},"type":"Feature"},
	{"geometry":{"coordinates":[9.189725,48.816859],"type":"Point"},"properties":{"osm_id":"4072930887","tag":{"amenity":"waste_basket"}},"type":"Feature"},
	{"geometry":{"coordinates":[9.187985,48.817815],"type":"Point"},"properties":{"osm_id":"4074708256","tag":{"amenity":"waste_basket"}},"type":"Feature"},
	{"geometry":{"coordinates":[9.189172,48.817441],"type":"Point"},"properties":{"osm_id":"4076289899","tag":{"amenity":"waste_basket"}},"type":"Feature"},
	{"geometry":{"coordinates":[9.188183,48.816552],"type":"Point"},"properties":{"osm_id":"4077081589","tag":{"amenity":"waste_basket"}},"type":"Feature"},
	{"geometry":{"coordinates":[9.192839,48.818757],"type":"Point"},"properties":{"osm_id":"4111790193","tag":{"amenity":"waste_basket"}},"type":"Feature"},
	{"geometry":{"coordinates":[9.192715,48.818441],"type":"Point"},"properties":{"osm_id":"4111839989","tag":{"amenity":"waste_basket"}},"type":"Feature"},
	{"geometry":{"coordinates":[9.190694,48.816857],"type":"Point"},"properties":{"osm_id":"4111982296","tag":{"amenity":"waste_basket"}},"type":"Feature"},
	{"geometry":{"coordinates":[9.190239,48.817866],"type":"Point"},"properties":{"osm_id":"4112000893","tag":{"amenity":"waste_basket"}},"type":"Feature"},
	{"geometry":{"coordinates":[9.19004,48.817851],"type":"Point"},"properties":{"osm_id":"4112018591","tag":{"amenity":"waste_basket"}},"type":"Feature"},
	{"geometry":{"coordinates":[9.157166,48.811078],"type":"Point"},"properties":{"osm_id":"4121966915","tag":{"amenity":"waste_basket"}},"type":"Feature"},
	{"geometry":{"coordinates":[9.158805,48.811878],"type":"Point"},"properties":{"osm_id":"4122980740","tag":{"amenity":"waste_basket"}},"type":"Feature"},
	{"geometry":{"coordinates":[9.160215,48.814411],"type":"Point"},"properties":{"osm_id":"4123197168","tag":{"amenity":"waste_basket"}},"type":"Feature"},
	{"geometry":{"coordinates":[9.165647,48.829021],"type":"Point"},"properties":{"osm_id":"4123792740","tag":{"amenity":"waste_basket"}},"type":"Feature"},
	{"geometry":{"coordinates":[9.18069,48.824129],"type":"Point"},"properties":{"osm_id":"4124281997","tag":{"amenity":"waste_basket"}},"type":"Feature"},
	{"geometry":{"coordinates":[9.166909,48.831958],"type":"Point"},"properties":{"osm_id":"4124616219","tag":{"amenity":"waste_basket"}},"type":"Feature"},
	{"geometry":{"coordinates":[9.166922,48.832162],"type":"Point"},"properties":{"osm_id":"4124616221","tag":{"amenity":"waste_basket"}},"type":"Feature"},
	{"geometry":{"coordinates":[9.167519,48.832285],"type":"Point"},"properties":{"osm_id":"4124616227","tag":{"amenity":"waste_basket"}},"type":"Feature"},
	{"geometry":{"coordinates":[9.167657,48.832369],"type":"Point"},"properties":{"osm_id":"4124616231","tag":{"amenity":"waste_basket"}},"type":"Feature"},
	{"geometry":{"coordinates":[9.174018,48.831695],"type":"Point"},"properties":{"osm_id":"4125242120","tag":{"amenity":"waste_basket"}},"type":"Feature"},
	{"geometry":{"coordinates":[9.173787,48.831702],"type":"Point"},"properties":{"osm_id":"4125242122","tag":{"amenity":"waste_basket"}},"type":"Feature"},
	{"geometry":{"coordinates":[9.174611,48.831851],"type":"Point"},"properties":{"osm_id":"4125242135","tag":{"amenity":"waste_basket"}},"type":"Feature"},
	{"geometry":{"coordinates":[9.172697,48.831887],"type":"Point"},"properties":{"osm_id":"4125242140","tag":{"amenity":"waste_basket"}},"type":"Feature"},
	{"geometry":{"coordinates":[9.17234,48.832031],"type":"Point"},"properties":{"osm_id":"4125242152","tag":{"amenity":"waste_basket"}},"type":"Feature"},
	{"geometry":{"coordinates":[9.1749,48.832164],"type":"Point"},"properties":{"osm_id":"4125271000","tag":{"amenity":"waste_basket"}},"type":"Feature"},
	{"geometry":{"coordinates":[9.185111,48.832664],"type":"Point"},"properties":{"osm_id":"4125485575","tag":{"amenity":"waste_basket"}},"type":"Feature"},
	{"geometry":{"coordinates":[9.183935,48.8327],"type":"Point"},"properties":{"osm_id":"4125485576","tag":{"amenity":"waste_basket"}},"type":"Feature"},
	{"geometry":{"coordinates":[9.187726,48.833275],"type":"Point"},"properties":{"osm_id":"4125500102","tag":{"amenity":"waste_basket"}},"type":"Feature"},
	{"geometry":{"coordinates":[9.187686,48.833452],"type":"Point"},"properties":{"osm_id":"4125500109","tag":{"amenity":"waste_basket"}},"type":"Feature"},
	{"geometry":{"coordinates":[9.19199,48.833344],"type":"Point"},"properties":{"osm_id":"4127818093","tag":{"amenity":"waste_basket"}},"type":"Feature"},
	{"geometry":{"coordinates":[9.19198,48.833503],"type":"Point"},"properties":{"osm_id":"4127818097","tag":{"amenity":"waste_basket"}},"type":"Feature"},
	{"geometry":{"coordinates":[9.192024,48.834804],"type":"Point"},"properties":{"osm_id":"4127818135","tag":{"amenity":"waste_basket"}},"type":"Feature"},
	{"geometry":{"coordinates":[9.192739,48.834964],"type":"Point"},"properties":{"osm_id":"4127818150","tag":{"amenity":"waste_basket"}},"type":"Feature"},
	{"geometry":{"coordinates":[9.192808,48.835039],"type":"Point"},"properties":{"osm_id":"4127818156","tag":{"amenity":"waste_basket"}},"type":"Feature"},
	{"geometry":{"coordinates":[9.225308,48.839154],"type":"Point"},"properties":{"osm_id":"4128758965","tag":{"amenity":"waste_basket"}},"type":"Feature"},
	{"geometry":{"coordinates":[9.15793,48.838663],"type":"Point"},"properties":{"osm_id":"4133902789","tag":{"amenity":"waste_basket"}},"type":"Feature"},
	{"geometry":{"coordinates":[9.16045,48.861811],"type":"Point"},"properties":{"osm_id":"4141703076","tag":{"amenity":"waste_basket"}},"type":"Feature"},
	{"geometry":{"coordinates":[9.155938,48.815564],"type":"Point"},"properties":{"osm_id":"4143459934","tag":{"amenity":"waste_basket"}},"type":"Feature"},
	{"geometry":{"coordinates":[9.157007,48.814193],"type":"Point"},"properties":{"osm_id":"4143479702","tag":{"amenity":"waste_basket"}},"type":"Feature"},
	{"geometry":{"coordinates":[9.188912,48.812906],"type":"Point"},"properties":{"osm_id":"4147908901","tag":{"amenity":"waste_basket"}},"type":"Feature"},
	{"geometry":{"coordinates":[9.188809,48.813495],"type":"Point"},"properties":{"osm_id":"4147908921","tag":{"amenity":"waste_basket"}},"type":"Feature"},
	{"geometry":{"coordinates":[9.18852,48.813739],"type":"Point"},"properties":{"osm_id":"4147908929","tag":{"amenity":"waste_basket"}},"type":"Feature"},
	{"geometry":{"coordinates":[9.188328,48.813862],"type":"Point"},"properties":{"osm_id":"4147908935","tag":{"amenity":"waste_basket"}},"type":"Feature"},
	{"geometry":{"coordinates":[9.187975,48.813901],"type":"Point"},"properties":{"osm_id":"4147908938","tag":{"amenity":"waste_basket"}},"type":"Feature"},
	{"geometry":{"coordinates":[9.184443,48.814395],"type":"Point"},"properties":{"osm_id":"4147908964","tag":{"amenity":"waste_basket"}},"type":"Feature"},
	{"geometry":{"coordinates":[9.184559,48.814499],"type":"Point"},"properties":{"osm_id":"4147908977","tag":{"amenity":"waste_basket"}},"type":"Feature"},
	{"geometry":{"coordinates":[9.184975,48.814671],"type":"Point"},"properties":{"osm_id":"4147909098","tag":{"amenity":"waste_basket"}},"type":"Feature"},
	{"geometry":{"coordinates":[9.1853,48.814887],"type":"Point"},"properties":{"osm_id":"4147909119","tag":{"amenity":"waste_basket"}},"type":"Feature"},
	{"geometry":{"coordinates":[9.186273,48.81521],"type":"Point"},"properties":{"osm_id":"4147909151","tag":{"amenity":"waste_basket"}},"type":"Feature"},
	{"geometry":{"coordinates":[9.187019,48.815243],"type":"Point"},"properties":{"osm_id":"4147909154","tag":{"amenity":"waste_basket"}},"type":"Feature"},
	{"geometry":{"coordinates":[9.186267,48.8153],"type":"Point"},"properties":{"osm_id":"4147909163","tag":{"amenity":"waste_basket"}},"type":"Feature"},
	{"geometry":{"coordinates":[9.186613,48.815162],"type":"Point"},"properties":{"osm_id":"4149625490","tag":{"amenity":"waste_basket"}},"type":"Feature"},
	{"geometry":{"coordinates":[9.187614,48.813378],"type":"Point"},"properties":{"osm_id":"4152199551","tag":{"amenity":"waste_basket"}},"type":"Feature"},
	{"geometry":{"coordinates":[9.186339,48.814723],"type":"Point"},"properties":{"osm_id":"4152199575","tag":{"amenity":"waste_basket"}},"type":"Feature"},
	{"geometry":{"coordinates":[9.186973,48.815128],"type":"Point"},"properties":{"osm_id":"4152202703","tag":{"amenity":"waste_basket"}},"type":"Feature"},
	{"geometry":{"coordinates":[9.190565,48.817546],"type":"Point"},"properties":{"osm_id":"4162594390","tag":{"amenity":"recycling","operator":"Texcycle","recycling:clothes":"yes","recycling_type":"container"}},"type":"Feature"},
	{"geometry":{"coordinates":[9.175721,48.814672],"type":"Point"},"properties":{"osm_id":"4172078985","tag":{"access":"customers","amenity":"waste_basket"}},"type":"Feature"},
	{"geometry":{"coordinates":[9.206032,48.813125],"type":"Point"},"properties":{"osm_id":"4197287090","tag":{"amenity":"waste_basket"}},"type":"Feature"},
	{"geometry":{"coordinates":[9.201291,48.816643],"type":"Point"},"properties":{"osm_id":"4197494491","tag":{"amenity":"recycling","recycling:glass":"yes","recycling_type":"container"}},"type":"Feature"},
	{"geometry":{"coordinates":[9.201385,48.816678],"type":"Point"},"properties":{"osm_id":"4197494492","tag":{"amenity":"waste_basket"}},"type":"Feature"},
	{"geometry":{"coordinates":[9.201702,48.81494],"type":"Point"},"properties":{"osm_id":"4197506389","tag":{"amenity":"waste_basket"}},"type":"Feature"},
	{"geometry":{"coordinates":[9.210877,48.81979],"type":"Point"},"properties":{"osm_id":"4198773228","tag":{"amenity":"waste_basket"}},"type":"Feature"},
	{"geometry":{"coordinates":[9.209374,48.820238],"type":"Point"},"properties":{"osm_id":"4203273764","tag":{"amenity":"waste_basket"}},"type":"Feature"},
	{"geometry":{"coordinates":[9.213086,48.809134],"type":"Point"},"properties":{"osm_id":"4213516277","tag":{"amenity":"waste_basket"}},"type":"Feature"},
	{"geometry":{"coordinates":[9.175553,48.854872],"type":"Point"},"properties":{"osm_id":"4222276601","tag":{"amenity":"waste_basket","waste":"dog_excrement"}},"type":"Feature"},
	{"geometry":{"coordinates":[9.141096,48.809955],"type":"Point"},"properties":{"osm_id":"4240004524","tag":{"amenity":"waste_basket"}},"type":"Feature"},
	{"geometry":{"coordinates":[9.177367,48.826806],"type":"Point"},"properties":{"osm_id":"4311548799","tag":{"amenity":"waste_basket"}},"type":"Feature"},
	{"geometry":{"coordinates":[9.174884,48.825602],"type":"Point"},"properties":{"osm_id":"4311573989","tag":{"amenity":"waste_basket"}},"type":"Feature"},
	{"geometry":{"coordinates":[9.177338,48.826545],"type":"Point"},"properties":{"osm_id":"4311604490","tag":{"amenity":"waste_basket"}},"type":"Feature"},
	{"geometry":{"coordinates":[9.177447,48.827093],"type":"Point"},"properties":{"osm_id":"4311615590","tag":{"amenity":"waste_basket"}},"type":"Feature"},
	{"geometry":{"coordinates":[9.186509,48.82936],"type":"Point"},"properties":{"osm_id":"4311621194","tag":{"amenity":"waste_basket"}},"type":"Feature"},
	{"geometry":{"coordinates":[9.176,48.82574],"type":"Point"},"properties":{"osm_id":"4311946406","tag":{"amenity":"waste_basket"}},"type":"Feature"},
	{"geometry":{"coordinates":[9.185907,48.82732],"type":"Point"},"properties":{"osm_id":"4311946437","tag":{"amenity":"waste_basket"}},"type":"Feature"},
	{"geometry":{"coordinates":[9.174023,48.823675],"type":"Point"},"properties":{"osm_id":"4313159594","tag":{"amenity":"waste_basket"}},"type":"Feature"},
	{"geometry":{"coordinates":[9.173721,48.825465],"type":"Point"},"properties":{"osm_id":"4313204290","tag":{"amenity":"recycling","recycling:clothes":"yes","recycling_type":"container"}},"type":"Feature"},
	{"geometry":{"coordinates":[9.174028,48.823974],"type":"Point"},"properties":{"osm_id":"4313631319","tag":{"amenity":"waste_basket"}},"type":"Feature"},
	{"geometry":{"coordinates":[9.174104,48.824253],"type":"Point"},"properties":{"osm_id":"4313631332","tag":{"amenity":"waste_basket"}},"type":"Feature"},
	{"geometry":{"coordinates":[9.175488,48.825847],"type":"Point"},"properties":{"osm_id":"4315055481","tag":{"amenity":"waste_basket"}},"type":"Feature"},
	{"geometry":{"coordinates":[9.174717,48.823968],"type":"Point"},"properties":{"osm_id":"4316914548","tag":{"amenity":"waste_basket"}},"type":"Feature"},
	{"geometry":{"coordinates":[9.174824,48.824293],"type":"Point"},"properties":{"osm_id":"4316914553","tag":{"amenity":"waste_basket"}},"type":"Feature"},
	{"geometry":{"coordinates":[9.175043,48.826166],"type":"Point"},"properties":{"osm_id":"4316914567","tag":{"amenity":"waste_basket"}},"type":"Feature"},
	{"geometry":{"coordinates":[9.18859,48.816291],"type":"Point"},"properties":{"osm_id":"4323827791","tag":{"amenity":"waste_basket"}},"type":"Feature"},
	{"geometry":{"coordinates":[9.175807,48.82663],"type":"Point"},"properties":{"osm_id":"4326060921","tag":{"amenity":"waste_basket"}},"type":"Feature"},
	{"geometry":{"coordinates":[9.174957,48.828657],"type":"Point"},"properties":{"osm_id":"4326060947","tag":{"amenity":"waste_basket"}},"type":"Feature"},
	{"geometry":{"coordinates":[9.18026,48.830028],"type":"Point"},"properties":{"osm_id":"4326060988","tag":{"amenity":"waste_basket"}},"type":"Feature"},
	{"geometry":{"coordinates":[9.180138,48.830045],"type":"Point"},"properties":{"osm_id":"4326062494","tag":{"amenity":"waste_basket"}},"type":"Feature"},
	{"geometry":{"coordinates":[9.181552,48.830165],"type":"Point"},"properties":{"osm_id":"4326062503","tag":{"amenity":"waste_basket"}},"type":"Feature"},
	{"geometry":{"coordinates":[9.185955,48.830891],"type":"Point"},"properties":{"osm_id":"4326062554","tag":{"amenity":"waste_basket"}},"type":"Feature"},
	{"geometry":{"coordinates":[9.187297,48.831255],"type":"Point"},"properties":{"osm_id":"4326062587","tag":{"amenity":"waste_basket"}},"type":"Feature"},
	{"geometry":{"coordinates":[9.187272,48.831453],"type":"Point"},"properties":{"osm_id":"4326062703","tag":{"amenity":"waste_basket"}},"type":"Feature"},
	{"geometry":{"coordinates":[9.177613,48.829984],"type":"Point"},"properties":{"osm_id":"4340200792","tag":{"amenity":"waste_basket"}},"type":"Feature"},
	{"geometry":{"coordinates":[9.143335,48.807667],"type":"Point"},"properties":{"osm_id":"4342633027","tag":{"amenity":"waste_disposal"}},"type":"Feature"},
	{"geometry":{"coordinates":[9.166209,48.846228],"type":"Point"},"properties":{"osm_id":"4342645054","tag":{"amenity":"waste_disposal"}},"type":"Feature"},
	{"geometry":{"coordinates":[9.198638,48.8091],"type":"Point"},"properties":{"osm_id":"4343670889","tag":{"amenity":"waste_disposal"}},"type":"Feature"},
	{"geometry":{"coordinates":[9.155249,48.81484],"type":"Point"},"properties":{"osm_id":"4343730573","tag":{"amenity":"waste_disposal"}},"type":"Feature"},
	{"geometry":{"coordinates":[9.155539,48.809121],"type":"Point"},"properties":{"osm_id":"4354474398","tag":{"amenity":"waste_basket"}},"type":"Feature"},
	{"geometry":{"coordinates":[9.156488,48.80938],"type":"Point"},"properties":{"osm_id":"4354474404","tag":{"amenity":"waste_basket"}},"type":"Feature"},
	{"geometry":{"coordinates":[9.15588,48.809617],"type":"Point"},"properties":{"osm_id":"4354474408","tag":{"amenity":"waste_basket"}},"type":"Feature"},
	{"geometry":{"coordinates":[9.185538,48.823343],"type":"Point"},"properties":{"osm_id":"4362663113","tag":{"amenity":"waste_basket"}},"type":"Feature"},
	{"geometry":{"coordinates":[9.195378,48.827267],"type":"Point"},"properties":{"osm_id":"4362700873","tag":{"amenity":"waste_basket"}},"type":"Feature"},
	{"geometry":{"coordinates":[9.198589,48.830209],"type":"Point"},"properties":{"osm_id":"4362700878","tag":{"amenity":"waste_basket"}},"type":"Feature"},
	{"geometry":{"coordinates":[9.199621,48.832257],"type":"Point"},"properties":{"osm_id":"4362718578","tag":{"amenity":"waste_basket"}},"type":"Feature"},
	{"geometry":{"coordinates":[9.199407,48.83237],"type":"Point"},"properties":{"osm_id":"4362718579","tag":{"amenity":"waste_basket"}},"type":"Feature"},
	{"geometry":{"coordinates":[9.199245,48.832549],"type":"Point"},"properties":{"osm_id":"4362718584","tag":{"amenity":"waste_basket"}},"type":"Feature"},
	{"geometry":{"coordinates":[9.223536,48.837363],"type":"Point"},"properties":{"osm_id":"4363125382","tag":{"amenity":"waste_basket"}},"type":"Feature"},
	{"geometry":{"coordinates":[9.187008,48.838025],"type":"Point"},"properties":{"osm_id":"4363681456","tag":{"amenity":"waste_disposal"}},"type":"Feature"},
	{"geometry":{"coordinates":[9.15945,48.842315],"type":"Point"},"properties":{"osm_id":"4366362823","tag":{"amenity":"waste_basket"}},"type":"Feature"},
	{"geometry":{"coordinates":[9.209046,48.840988],"type":"Point"},"properties":{"osm_id":"4383980685","tag":{"amenity":"waste_basket"}},"type":"Feature"},
	{"geometry":{"coordinates":[9.208452,48.841162],"type":"Point"},"properties":{"osm_id":"4383980686","tag":{"amenity":"waste_basket"}},"type":"Feature"},
	{"geometry":{"coordinates":[9.175542,48.83668],"type":"Point"},"properties":{"osm_id":"4384048227","tag":{"amenity":"waste_basket"}},"type":"Feature"},
	{"geometry":{"coordinates":[9.173379,48.8298],"type":"Point"},"properties":{"osm_id":"4384109370","tag":{"amenity":"waste_basket"}},"type":"Feature"},
	{"geometry":{"coordinates":[9.22517,48.839485],"type":"Point"},"properties":{"osm_id":"4408691845","tag":{"amenity":"waste_basket"}},"type":"Feature"},
	{"geometry":{"coordinates":[9.168229,48.813716],"type":"Point"},"properties":{"osm_id":"4414419371","tag":{"amenity":"waste_basket"}},"type":"Feature"},
	{"geometry":{"coordinates":[9.167949,48.813857],"type":"Point"},"properties":{"osm_id":"4414419648","tag":{"amenity":"waste_basket"}},"type":"Feature"},
	{"geometry":{"coordinates":[9.16803,48.813672],"type":"Point"},"properties":{"osm_id":"4414419656","tag":{"amenity":"waste_basket"}},"type":"Feature"},
	{"geometry":{"coordinates":[9.168241,48.813542],"type":"Point"},"properties":{"osm_id":"4414419830","tag":{"amenity":"waste_basket"}},"type":"Feature"},
	{"geometry":{"coordinates":[9.18134,48.835917],"type":"Point"},"properties":{"osm_id":"4426878683","tag":{"amenity":"recycling","opening_hours":"Mo-Su 07:00-19:00","recycling:clothes":"yes","recycling:glass_bottles":"yes","recycling_type":"container"}},"type":"Feature"},
	{"geometry":{"coordinates":[9.152017,48.835205],"type":"Point"},"properties":{"osm_id":"4436240011","tag":{"amenity":"waste_basket"}},"type":"Feature"},
	{"geometry":{"coordinates":[9.186676,48.858843],"type":"Point"},"properties":{"osm_id":"4437833460","tag":{"amenity":"waste_basket"}},"type":"Feature"},
	{"geometry":{"coordinates":[9.198555,48.858387],"type":"Point"},"properties":{"osm_id":"4439480487","tag":{"amenity":"waste_basket"}},"type":"Feature"},
	{"geometry":{"coordinates":[9.188798,48.831414],"type":"Point"},"properties":{"osm_id":"4441056758","tag":{"amenity":"waste_basket"}},"type":"Feature"},
	{"geometry":{"coordinates":[9.226472,48.820753],"type":"Point"},"properties":{"osm_id":"4442801321","tag":{"amenity":"waste_basket"}},"type":"Feature"},
	{"geometry":{"coordinates":[9.215742,48.821381],"type":"Point"},"properties":{"osm_id":"4580989679","tag":{"amenity":"recycling","description":"Altkleidercontainer","last_checked":"2016-12","recycling:clothes":"yes","recycling_type":"container"}},"type":"Feature"},
	{"geometry":{"coordinates":[9.216885,48.82088],"type":"Point"},"properties":{"osm_id":"4580989682","tag":{"amenity":"recycling","description":"Altkleidercontainer","last_checked":"2016-12","recycling:clothes":"yes","recycling_type":"container"}},"type":"Feature"},
	{"geometry":{"coordinates":[9.159663,48.851308],"type":"Point"},"properties":{"osm_id":"4687358190","tag":{"amenity":"waste_basket"}},"type":"Feature"},
	{"geometry":{"coordinates":[9.160233,48.852133],"type":"Point"},"properties":{"osm_id":"4687358191","tag":{"amenity":"waste_basket"}},"type":"Feature"},
	{"geometry":{"coordinates":[9.160354,48.852431],"type":"Point"},"properties":{"osm_id":"4687358195","tag":{"amenity":"waste_basket"}},"type":"Feature"},
	{"geometry":{"coordinates":[9.188343,48.815375],"type":"Point"},"properties":{"osm_id":"4730579609","tag":{"amenity":"waste_basket"}},"type":"Feature"},
	{"geometry":{"coordinates":[9.18551,48.814877],"type":"Point"},"properties":{"osm_id":"4730694626","tag":{"amenity":"waste_basket"}},"type":"Feature"},
	{"geometry":{"coordinates":[9.185624,48.814963],"type":"Point"},"properties":{"osm_id":"4730694633","tag":{"amenity":"waste_basket"}},"type":"Feature"},
	{"geometry":{"coordinates":[9.185429,48.815015],"type":"Point"},"properties":{"osm_id":"4730694642","tag":{"amenity":"waste_basket"}},"type":"Feature"},
	{"geometry":{"coordinates":[9.181382,48.86315],"type":"Point"},"properties":{"osm_id":"4741688587","tag":{"amenity":"waste_basket"}},"type":"Feature"},
	{"geometry":{"coordinates":[9.180073,48.856604],"type":"Point"},"properties":{"osm_id":"4741716974","tag":{"amenity":"waste_basket"}},"type":"Feature"},
	{"geometry":{"coordinates":[9.180263,48.856965],"type":"Point"},"properties":{"osm_id":"4741716983","tag":{"amenity":"waste_basket"}},"type":"Feature"},
	{"geometry":{"coordinates":[9.183547,48.84941],"type":"Point"},"properties":{"osm_id":"4742232798","tag":{"amenity":"waste_basket"}},"type":"Feature"},
	{"geometry":{"coordinates":[9.16729,48.814157],"type":"Point"},"properties":{"osm_id":"4742844172","tag":{"amenity":"waste_basket"}},"type":"Feature"},
	{"geometry":{"coordinates":[9.220401,48.843443],"type":"Point"},"properties":{"osm_id":"4783303479","tag":{"amenity":"recycling","check_date":"2019-04-18","recycling:glass_bottles":"yes","recycling_type":"container"}},"type":"Feature"},
	{"geometry":{"coordinates":[9.178465,48.830748],"type":"Point"},"properties":{"osm_id":"4868121721","tag":{"amenity":"waste_basket"}},"type":"Feature"},
	{"geometry":{"coordinates":[9.178826,48.830995],"type":"Point"},"properties":{"osm_id":"4868121722","tag":{"amenity":"waste_basket"}},"type":"Feature"},
	{"geometry":{"coordinates":[9.1945,48.810541],"type":"Point"},"properties":{"osm_id":"4914279227","tag":{"amenity":"waste_basket"}},"type":"Feature"},
	{"geometry":{"coordinates":[9.194483,48.810618],"type":"Point"},"properties":{"osm_id":"4914279233","tag":{"amenity":"waste_basket"}},"type":"Feature"},
	{"geometry":{"coordinates":[9.194665,48.810701],"type":"Point"},"properties":{"osm_id":"4914279262","tag":{"amenity":"waste_basket"}},"type":"Feature"},
	{"geometry":{"coordinates":[9.194741,48.810931],"type":"Point"},"properties":{"osm_id":"4958250546","tag":{"amenity":"waste_basket"}},"type":"Feature"},
	{"geometry":{"coordinates":[9.195117,48.810926],"type":"Point"},"properties":{"osm_id":"4958250547","tag":{"amenity":"waste_basket"}},"type":"Feature"},
	{"geometry":{"coordinates":[9.194224,48.811051],"type":"Point"},"properties":{"osm_id":"4958322937","tag":{"amenity":"waste_basket"}},"type":"Feature"},
	{"geometry":{"coordinates":[9.194304,48.810777],"type":"Point"},"properties":{"osm_id":"4958322966","tag":{"amenity":"waste_basket"}},"type":"Feature"},
	{"geometry":{"coordinates":[9.194367,48.81072],"type":"Point"},"properties":{"osm_id":"4958322967","tag":{"amenity":"waste_basket"}},"type":"Feature"},
	{"geometry":{"coordinates":[9.220836,48.834664],"type":"Point"},"properties":{"osm_id":"4968598015","tag":{"amenity":"waste_basket"}},"type":"Feature"},
	{"geometry":{"coordinates":[9.191959,48.834053],"type":"Point"},"properties":{"osm_id":"5081593926","tag":{"amenity":"waste_basket"}},"type":"Feature"},
	{"geometry":{"coordinates":[9.191912,48.834154],"type":"Point"},"properties":{"osm_id":"5081593930","tag":{"amenity":"waste_basket"}},"type":"Feature"},
	{"geometry":{"coordinates":[9.191785,48.834387],"type":"Point"},"properties":{"osm_id":"5081593935","tag":{"amenity":"waste_basket"}},"type":"Feature"},
	{"geometry":{"coordinates":[9.190734,48.834322],"type":"Point"},"properties":{"osm_id":"5082099866","tag":{"amenity":"waste_basket"}},"type":"Feature"},
	{"geometry":{"coordinates":[9.19161,48.834522],"type":"Point"},"properties":{"osm_id":"5082099871","tag":{"amenity":"waste_basket"}},"type":"Feature"},
	{"geometry":{"coordinates":[9.179463,48.833351],"type":"Point"},"properties":{"osm_id":"5141628498","tag":{"amenity":"waste_basket"}},"type":"Feature"},
	{"geometry":{"coordinates":[9.179379,48.833587],"type":"Point"},"properties":{"osm_id":"5141628502","tag":{"amenity":"waste_basket"}},"type":"Feature"},
	{"geometry":{"coordinates":[9.190312,48.839941],"type":"Point"},"properties":{"osm_id":"5145082868","tag":{"amenity":"waste_basket"}},"type":"Feature"},
	{"geometry":{"coordinates":[9.190679,48.840025],"type":"Point"},"properties":{"osm_id":"5145082871","tag":{"amenity":"waste_basket"}},"type":"Feature"},
	{"geometry":{"coordinates":[9.218028,48.807885],"type":"Point"},"properties":{"osm_id":"5312661313","tag":{"amenity":"waste_basket"}},"type":"Feature"},
	{"geometry":{"coordinates":[9.216212,48.830421],"type":"Point"},"properties":{"osm_id":"5313575343","tag":{"amenity":"waste_basket"}},"type":"Feature"},
	{"geometry":{"coordinates":[9.21472,48.806865],"type":"Point"},"properties":{"osm_id":"5313642587","tag":{"amenity":"waste_basket"}},"type":"Feature"},
	{"geometry":{"coordinates":[9.189813,48.863131],"type":"Point"},"properties":{"osm_id":"5454715706","tag":{"amenity":"waste_basket","waste":"dog_excrement"}},"type":"Feature"},
	{"geometry":{"coordinates":[9.191489,48.828051],"type":"Point"},"properties":{"osm_id":"5523007231","tag":{"amenity":"recycling","operator":"Rhenus","recycling:glass_bottles":"yes","recycling_type":"container"}},"type":"Feature"},
	{"geometry":{"coordinates":[9.210749,48.844119],"type":"Point"},"properties":{"osm_id":"5532717939","tag":{"amenity":"waste_basket"}},"type":"Feature"},
	{"geometry":{"coordinates":[9.211052,48.844134],"type":"Point"},"properties":{"osm_id":"5532717949","tag":{"amenity":"waste_basket"}},"type":"Feature"},
	{"geometry":{"coordinates":[9.184722,48.833891],"type":"Point"},"properties":{"osm_id":"5536255324","tag":{"amenity":"waste_basket"}},"type":"Feature"},
	{"geometry":{"coordinates":[9.185001,48.831971],"type":"Point"},"properties":{"osm_id":"5540389030","tag":{"amenity":"waste_basket"}},"type":"Feature"},
	{"geometry":{"coordinates":[9.176615,48.834352],"type":"Point"},"properties":{"osm_id":"5540447719","tag":{"amenity":"recycling","recycling:clothes":"yes","recycling_type":"container"}},"type":"Feature"},
	{"geometry":{"coordinates":[9.169716,48.832294],"type":"Point"},"properties":{"osm_id":"5548131054","tag":{"amenity":"waste_basket"}},"type":"Feature"},
	{"geometry":{"coordinates":[9.185568,48.809996],"type":"Point"},"properties":{"osm_id":"5548436215","tag":{"amenity":"recycling","recycling:glass":"yes","recycling_type":"container"}},"type":"Feature"},
	{"geometry":{"coordinates":[9.185568,48.809985],"type":"Point"},"properties":{"osm_id":"5548436216","tag":{"amenity":"recycling","recycling:glass":"yes","recycling_type":"container"}},"type":"Feature"},
	{"geometry":{"coordinates":[9.185568,48.80997],"type":"Point"},"properties":{"osm_id":"5548436217","tag":{"amenity":"recycling","recycling:glass":"yes","recycling_type":"container"}},"type":"Feature"},
	{"geometry":{"coordinates":[9.156907,48.847225],"type":"Point"},"properties":{"osm_id":"5549522077","tag":{"amenity":"waste_basket"}},"type":"Feature"},
	{"geometry":{"coordinates":[9.173782,48.855173],"type":"Point"},"properties":{"osm_id":"5550402123","tag":{"amenity":"recycling","recycling:clothes":"yes","recycling_type":"container"}},"type":"Feature"},
	{"geometry":{"coordinates":[9.156636,48.847375],"type":"Point"},"properties":{"osm_id":"5550806957","tag":{"amenity":"waste_basket"}},"type":"Feature"},
	{"geometry":{"coordinates":[9.144871,48.841834],"type":"Point"},"properties":{"osm_id":"5551188304","tag":{"amenity":"waste_basket"}},"type":"Feature"},
	{"geometry":{"coordinates":[9.159315,48.8423],"type":"Point"},"properties":{"osm_id":"5551903331","tag":{"amenity":"waste_basket"}},"type":"Feature"},
	{"geometry":{"coordinates":[9.160987,48.838339],"type":"Point"},"properties":{"osm_id":"5552474346","tag":{"amenity":"waste_basket"}},"type":"Feature"},
	{"geometry":{"coordinates":[9.160914,48.838248],"type":"Point"},"properties":{"osm_id":"5552474350","tag":{"amenity":"waste_basket"}},"type":"Feature"},
	{"geometry":{"coordinates":[9.162458,48.809985],"type":"Point"},"properties":{"osm_id":"5557519754","tag":{"amenity":"waste_basket"}},"type":"Feature"},
	{"geometry":{"coordinates":[9.162466,48.810093],"type":"Point"},"properties":{"osm_id":"5557519757","tag":{"amenity":"waste_basket"}},"type":"Feature"},
	{"geometry":{"coordinates":[9.1619,48.809945],"type":"Point"},"properties":{"osm_id":"5557519758","tag":{"amenity":"waste_basket"}},"type":"Feature"},
	{"geometry":{"coordinates":[9.158238,48.808927],"type":"Point"},"properties":{"osm_id":"5557519793","tag":{"amenity":"waste_basket"}},"type":"Feature"},
	{"geometry":{"coordinates":[9.226611,48.821194],"type":"Point"},"properties":{"osm_id":"5557692513","tag":{"amenity":"waste_basket"}},"type":"Feature"},
	{"geometry":{"coordinates":[9.226467,48.821182],"type":"Point"},"properties":{"osm_id":"5557692516","tag":{"amenity":"waste_basket"}},"type":"Feature"},
	{"geometry":{"coordinates":[9.226558,48.821043],"type":"Point"},"properties":{"osm_id":"5557692517","tag":{"amenity":"waste_basket"}},"type":"Feature"},
	{"geometry":{"coordinates":[9.169309,48.81205],"type":"Point"},"properties":{"osm_id":"5558880373","tag":{"amenity":"waste_basket"}},"type":"Feature"},
	{"geometry":{"coordinates":[9.159619,48.810693],"type":"Point"},"properties":{"osm_id":"5558990178","tag":{"amenity":"waste_basket"}},"type":"Feature"},
	{"geometry":{"coordinates":[9.158799,48.811618],"type":"Point"},"properties":{"osm_id":"5559101730","tag":{"amenity":"waste_basket"}},"type":"Feature"},
	{"geometry":{"coordinates":[9.21565,48.809753],"type":"Point"},"properties":{"osm_id":"5566751410","tag":{"amenity":"waste_basket"}},"type":"Feature"},
	{"geometry":{"coordinates":[9.215758,48.809699],"type":"Point"},"properties":{"osm_id":"5566751411","tag":{"amenity":"waste_basket"}},"type":"Feature"},
	{"geometry":{"coordinates":[9.215634,48.809599],"type":"Point"},"properties":{"osm_id":"5566754367","tag":{"amenity":"waste_basket"}},"type":"Feature"},
	{"geometry":{"coordinates":[9.173787,48.826995],"type":"Point"},"properties":{"osm_id":"5567600248","tag":{"amenity":"waste_basket"}},"type":"Feature"},
	{"geometry":{"coordinates":[9.173682,48.82669],"type":"Point"},"properties":{"osm_id":"5567600249","tag":{"amenity":"waste_basket"}},"type":"Feature"},
	{"geometry":{"coordinates":[9.173655,48.827023],"type":"Point"},"properties":{"osm_id":"5567600269","tag":{"amenity":"waste_basket"}},"type":"Feature"},
	{"geometry":{"coordinates":[9.175496,48.81905],"type":"Point"},"properties":{"osm_id":"5569637998","tag":{"amenity":"waste_basket"}},"type":"Feature"},
	{"geometry":{"coordinates":[9.175431,48.819244],"type":"Point"},"properties":{"osm_id":"5569638006","tag":{"amenity":"waste_basket"}},"type":"Feature"},
	{"geometry":{"coordinates":[9.175466,48.819555],"type":"Point"},"properties":{"osm_id":"5569902664","tag":{"amenity":"waste_basket"}},"type":"Feature"},
	{"geometry":{"coordinates":[9.175331,48.819539],"type":"Point"},"properties":{"osm_id":"5569902667","tag":{"amenity":"waste_basket"}},"type":"Feature"},
	{"geometry":{"coordinates":[9.175375,48.819413],"type":"Point"},"properties":{"osm_id":"5569902668","tag":{"amenity":"waste_basket"}},"type":"Feature"},
	{"geometry":{"coordinates":[9.175512,48.81943],"type":"Point"},"properties":{"osm_id":"5569902669","tag":{"amenity":"waste_basket"}},"type":"Feature"},
	{"geometry":{"coordinates":[9.173041,48.822707],"type":"Point"},"properties":{"osm_id":"5569928316","tag":{"amenity":"waste_basket"}},"type":"Feature"},
	{"geometry":{"coordinates":[9.173842,48.827115],"type":"Point"},"properties":{"osm_id":"5570493947","tag":{"amenity":"waste_basket"}},"type":"Feature"},
	{"geometry":{"coordinates":[9.173707,48.827145],"type":"Point"},"properties":{"osm_id":"5570493950","tag":{"amenity":"waste_basket"}},"type":"Feature"},
	{"geometry":{"coordinates":[9.173631,48.827587],"type":"Point"},"properties":{"osm_id":"5570744043","tag":{"amenity":"waste_basket"}},"type":"Feature"},
	{"geometry":{"coordinates":[9.174911,48.83002],"type":"Point"},"properties":{"osm_id":"5572195717","tag":{"amenity":"waste_basket"}},"type":"Feature"},
	{"geometry":{"coordinates":[9.176065,48.829744],"type":"Point"},"properties":{"osm_id":"5572776274","tag":{"amenity":"waste_basket"}},"type":"Feature"},
	{"geometry":{"coordinates":[9.175683,48.829763],"type":"Point"},"properties":{"osm_id":"5572776276","tag":{"amenity":"waste_basket"}},"type":"Feature"},
	{"geometry":{"coordinates":[9.175338,48.8298],"type":"Point"},"properties":{"osm_id":"5572776286","tag":{"amenity":"waste_basket"}},"type":"Feature"},
	{"geometry":{"coordinates":[9.174804,48.830375],"type":"Point"},"properties":{"osm_id":"5572776289","tag":{"amenity":"waste_basket"}},"type":"Feature"},
	{"geometry":{"coordinates":[9.174546,48.831207],"type":"Point"},"properties":{"osm_id":"5573822805","tag":{"amenity":"waste_basket"}},"type":"Feature"},
	{"geometry":{"coordinates":[9.174637,48.830415],"type":"Point"},"properties":{"osm_id":"5573822806","tag":{"amenity":"waste_basket"}},"type":"Feature"},
	{"geometry":{"coordinates":[9.174607,48.830575],"type":"Point"},"properties":{"osm_id":"5573822807","tag":{"amenity":"waste_basket"}},"type":"Feature"},
	{"geometry":{"coordinates":[9.174767,48.830586],"type":"Point"},"properties":{"osm_id":"5573998874","tag":{"amenity":"waste_basket"}},"type":"Feature"},
	{"geometry":{"coordinates":[9.174861,48.83135],"type":"Point"},"properties":{"osm_id":"5573998876","tag":{"amenity":"waste_basket"}},"type":"Feature"},
	{"geometry":{"coordinates":[9.160044,48.809533],"type":"Point"},"properties":{"osm_id":"5577854321","tag":{"amenity":"waste_basket"}},"type":"Feature"},
	{"geometry":{"coordinates":[9.156673,48.811019],"type":"Point"},"properties":{"osm_id":"5580216853","tag":{"amenity":"waste_basket"}},"type":"Feature"},
	{"geometry":{"coordinates":[9.204537,48.818349],"type":"Point"},"properties":{"osm_id":"5602388883","tag":{"amenity":"waste_basket"}},"type":"Feature"},
	{"geometry":{"coordinates":[9.204007,48.817711],"type":"Point"},"properties":{"osm_id":"5602639926","tag":{"amenity":"waste_basket"}},"type":"Feature"},
	{"geometry":{"coordinates":[9.203834,48.817476],"type":"Point"},"properties":{"osm_id":"5602639927","tag":{"amenity":"waste_basket"}},"type":"Feature"},
	{"geometry":{"coordinates":[9.19658,48.827324],"type":"Point"},"properties":{"osm_id":"5603020768","tag":{"amenity":"waste_basket"}},"type":"Feature"},
	{"geometry":{"coordinates":[9.194929,48.829038],"type":"Point"},"properties":{"osm_id":"5603622827","tag":{"amenity":"waste_basket"}},"type":"Feature"},
	{"geometry":{"coordinates":[9.194165,48.829747],"type":"Point"},"properties":{"osm_id":"5603641336","tag":{"amenity":"waste_basket"}},"type":"Feature"},
	{"geometry":{"coordinates":[9.19488,48.829584],"type":"Point"},"properties":{"osm_id":"5603641340","tag":{"amenity":"waste_basket"}},"type":"Feature"},
	{"geometry":{"coordinates":[9.194417,48.829829],"type":"Point"},"properties":{"osm_id":"5603641348","tag":{"amenity":"waste_basket"}},"type":"Feature"},
	{"geometry":{"coordinates":[9.192506,48.83213],"type":"Point"},"properties":{"osm_id":"5603662438","tag":{"amenity":"waste_basket"}},"type":"Feature"},
	{"geometry":{"coordinates":[9.192198,48.832804],"type":"Point"},"properties":{"osm_id":"5603839876","tag":{"amenity":"waste_basket"}},"type":"Feature"},
	{"geometry":{"coordinates":[9.192554,48.832736],"type":"Point"},"properties":{"osm_id":"5603839877","tag":{"amenity":"waste_basket"}},"type":"Feature"},
	{"geometry":{"coordinates":[9.185208,48.830409],"type":"Point"},"properties":{"osm_id":"5604533422","tag":{"amenity":"waste_basket"}},"type":"Feature"},
	{"geometry":{"coordinates":[9.210509,48.808333],"type":"Point"},"properties":{"osm_id":"5604632495","tag":{"amenity":"waste_basket"}},"type":"Feature"},
	{"geometry":{"coordinates":[9.208376,48.813668],"type":"Point"},"properties":{"osm_id":"5604925640","tag":{"amenity":"waste_basket"}},"type":"Feature"},
	{"geometry":{"coordinates":[9.203857,48.813854],"type":"Point"},"properties":{"osm_id":"5607026241","tag":{"amenity":"waste_basket"}},"type":"Feature"},
	{"geometry":{"coordinates":[9.159207,48.811843],"type":"Point"},"properties":{"osm_id":"5607358384","tag":{"amenity":"waste_basket"}},"type":"Feature"},
	{"geometry":{"coordinates":[9.217802,48.80846],"type":"Point"},"properties":{"osm_id":"5614170736","tag":{"amenity":"waste_basket"}},"type":"Feature"},
	{"geometry":{"coordinates":[9.207483,48.808866],"type":"Point"},"properties":{"osm_id":"5614686437","tag":{"amenity":"waste_basket"}},"type":"Feature"},
	{"geometry":{"coordinates":[9.213453,48.816679],"type":"Point"},"properties":{"osm_id":"5651654678","tag":{"amenity":"waste_basket"}},"type":"Feature"},
	{"geometry":{"coordinates":[9.218021,48.809167],"type":"Point"},"properties":{"osm_id":"5653999603","tag":{"amenity":"recycling","recycling:glass":"yes","recycling:glass_bottles":"yes","recycling_type":"container"}},"type":"Feature"},
	{"geometry":{"coordinates":[9.219937,48.835637],"type":"Point"},"properties":{"osm_id":"5692309328","tag":{"amenity":"waste_basket"}},"type":"Feature"},
	{"geometry":{"coordinates":[9.162794,48.810085],"type":"Point"},"properties":{"osm_id":"5727334047","tag":{"amenity":"waste_basket"}},"type":"Feature"},
	{"geometry":{"coordinates":[9.213733,48.818938],"type":"Point"},"properties":{"osm_id":"5728733075","tag":{"amenity":"waste_basket"}},"type":"Feature"},
	{"geometry":{"coordinates":[9.214301,48.818708],"type":"Point"},"properties":{"osm_id":"5728758946","tag":{"amenity":"waste_basket"}},"type":"Feature"},
	{"geometry":{"coordinates":[9.214223,48.818578],"type":"Point"},"properties":{"osm_id":"5728758955","tag":{"amenity":"waste_basket"}},"type":"Feature"},
	{"geometry":{"coordinates":[9.217871,48.816667],"type":"Point"},"properties":{"osm_id":"5729151461","tag":{"amenity":"waste_basket"}},"type":"Feature"},
	{"geometry":{"coordinates":[9.215838,48.81504],"type":"Point"},"properties":{"osm_id":"5729784367","tag":{"amenity":"waste_basket"}},"type":"Feature"},
	{"geometry":{"coordinates":[9.215964,48.815499],"type":"Point"},"properties":{"osm_id":"5729784385","tag":{"amenity":"waste_basket"}},"type":"Feature"},
	{"geometry":{"coordinates":[9.217153,48.816756],"type":"Point"},"properties":{"osm_id":"5730116375","tag":{"amenity":"waste_basket"}},"type":"Feature"},
	{"geometry":{"coordinates":[9.217555,48.816419],"type":"Point"},"properties":{"osm_id":"5730116378","tag":{"amenity":"waste_basket"}},"type":"Feature"},
	{"geometry":{"coordinates":[9.215467,48.815726],"type":"Point"},"properties":{"osm_id":"5730116412","tag":{"amenity":"waste_basket"}},"type":"Feature"},
	{"geometry":{"coordinates":[9.21313,48.817521],"type":"Point"},"properties":{"osm_id":"5731902511","tag":{"amenity":"waste_basket","ashtray":"yes"}},"type":"Feature"},
	{"geometry":{"coordinates":[9.218055,48.809188],"type":"Point"},"properties":{"osm_id":"5734640918","tag":{"amenity":"recycling","recycling:clothes":"yes","recycling_type":"container"}},"type":"Feature"},
	{"geometry":{"coordinates":[9.213062,48.816761],"type":"Point"},"properties":{"osm_id":"5739231588","tag":{"amenity":"waste_basket"}},"type":"Feature"},
	{"geometry":{"coordinates":[9.209755,48.811063],"type":"Point"},"properties":{"osm_id":"5739262915","tag":{"amenity":"waste_basket"}},"type":"Feature"},
	{"geometry":{"coordinates":[9.222556,48.808872],"type":"Point"},"properties":{"osm_id":"5865613099","tag":{"amenity":"waste_basket"}},"type":"Feature"},
	{"geometry":{"coordinates":[9.222878,48.808111],"type":"Point"},"properties":{"osm_id":"5865636157","tag":{"amenity":"waste_basket"}},"type":"Feature"},
	{"geometry":{"coordinates":[9.214429,48.806937],"type":"Point"},"properties":{"osm_id":"5865765325","tag":{"amenity":"waste_basket"}},"type":"Feature"},
	{"geometry":{"coordinates":[9.214266,48.807037],"type":"Point"},"properties":{"osm_id":"5865765332","tag":{"amenity":"waste_basket"}},"type":"Feature"},
	{"geometry":{"coordinates":[9.14252,48.809022],"type":"Point"},"properties":{"osm_id":"5881993775","tag":{"amenity":"waste_basket"}},"type":"Feature"},
	{"geometry":{"coordinates":[9.151767,48.853274],"type":"Point"},"properties":{"osm_id":"5887390665","tag":{"amenity":"waste_basket"}},"type":"Feature"},
	{"geometry":{"coordinates":[9.154564,48.848201],"type":"Point"},"properties":{"osm_id":"5887559482","tag":{"amenity":"waste_basket"}},"type":"Feature"},
	{"geometry":{"coordinates":[9.155118,48.848187],"type":"Point"},"properties":{"osm_id":"5888407594","tag":{"amenity":"waste_basket"}},"type":"Feature"},
	{"geometry":{"coordinates":[9.205608,48.828248],"type":"Point"},"properties":{"osm_id":"5888787496","tag":{"amenity":"waste_basket"}},"type":"Feature"},
	{"geometry":{"coordinates":[9.172889,48.839756],"type":"Point"},"properties":{"osm_id":"5889776589","tag":{"amenity":"waste_basket"}},"type":"Feature"},
	{"geometry":{"coordinates":[9.175333,48.830865],"type":"Point"},"properties":{"osm_id":"5890238138","tag":{"amenity":"waste_basket"}},"type":"Feature"},
	{"geometry":{"coordinates":[9.175225,48.83085],"type":"Point"},"properties":{"osm_id":"5894784009","tag":{"amenity":"waste_basket"}},"type":"Feature"},
	{"geometry":{"coordinates":[9.213049,48.819387],"type":"Point"},"properties":{"osm_id":"5939321910","tag":{"amenity":"waste_basket"}},"type":"Feature"},
	{"geometry":{"coordinates":[9.213161,48.816774],"type":"Point"},"properties":{"osm_id":"5940150495","tag":{"amenity":"waste_basket"}},"type":"Feature"},
	{"geometry":{"coordinates":[9.21702,48.808765],"type":"Point"},"properties":{"osm_id":"5940913991","tag":{"amenity":"waste_basket"}},"type":"Feature"},
	{"geometry":{"coordinates":[9.21765,48.808651],"type":"Point"},"properties":{"osm_id":"5940920809","tag":{"amenity":"waste_basket"}},"type":"Feature"},
	{"geometry":{"coordinates":[9.218827,48.808363],"type":"Point"},"properties":{"osm_id":"5940962258","tag":{"amenity":"waste_basket"}},"type":"Feature"},
	{"geometry":{"coordinates":[9.22155,48.807555],"type":"Point"},"properties":{"osm_id":"5942108421","tag":{"amenity":"waste_basket"}},"type":"Feature"},
	{"geometry":{"coordinates":[9.221133,48.807796],"type":"Point"},"properties":{"osm_id":"5942117710","tag":{"amenity":"waste_basket"}},"type":"Feature"},
	{"geometry":{"coordinates":[9.22168,48.807906],"type":"Point"},"properties":{"osm_id":"5942369377","tag":{"amenity":"waste_basket"}},"type":"Feature"},
	{"geometry":{"coordinates":[9.222419,48.808012],"type":"Point"},"properties":{"osm_id":"5942369380","tag":{"amenity":"waste_basket"}},"type":"Feature"},
	{"geometry":{"coordinates":[9.222271,48.807896],"type":"Point"},"properties":{"osm_id":"5942369381","tag":{"amenity":"waste_basket"}},"type":"Feature"},
	{"geometry":{"coordinates":[9.224998,48.807042],"type":"Point"},"properties":{"osm_id":"5942528499","tag":{"amenity":"waste_basket"}},"type":"Feature"},
	{"geometry":{"coordinates":[9.225591,48.807275],"type":"Point"},"properties":{"osm_id":"5942559020","tag":{"amenity":"waste_basket"}},"type":"Feature"},
	{"geometry":{"coordinates":[9.226678,48.806923],"type":"Point"},"properties":{"osm_id":"5942704317","tag":{"amenity":"waste_basket"}},"type":"Feature"},
	{"geometry":{"coordinates":[9.225883,48.806875],"type":"Point"},"properties":{"osm_id":"5942704331","tag":{"amenity":"waste_basket"}},"type":"Feature"},
	{"geometry":{"coordinates":[9.228399,48.808034],"type":"Point"},"properties":{"osm_id":"5942826525","tag":{"amenity":"waste_basket"}},"type":"Feature"},
	{"geometry":{"coordinates":[9.227087,48.808497],"type":"Point"},"properties":{"osm_id":"5944816231","tag":{"amenity":"waste_basket"}},"type":"Feature"},
	{"geometry":{"coordinates":[9.227071,48.808134],"type":"Point"},"properties":{"osm_id":"5944836445","tag":{"amenity":"waste_basket"}},"type":"Feature"},
	{"geometry":{"coordinates":[9.228097,48.809638],"type":"Point"},"properties":{"osm_id":"5947831229","tag":{"amenity":"waste_basket"}},"type":"Feature"},
	{"geometry":{"coordinates":[9.228411,48.80949],"type":"Point"},"properties":{"osm_id":"5948874864","tag":{"amenity":"waste_basket"}},"type":"Feature"},
	{"geometry":{"coordinates":[9.224062,48.810275],"type":"Point"},"properties":{"osm_id":"5949741181","tag":{"amenity":"waste_basket"}},"type":"Feature"},
	{"geometry":{"coordinates":[9.224872,48.80898],"type":"Point"},"properties":{"osm_id":"5950827208","tag":{"amenity":"waste_basket"}},"type":"Feature"},
	{"geometry":{"coordinates":[9.22442,48.8089],"type":"Point"},"properties":{"osm_id":"5950827214","tag":{"amenity":"waste_basket"}},"type":"Feature"},
	{"geometry":{"coordinates":[9.225835,48.807488],"type":"Point"},"properties":{"osm_id":"5950905931","tag":{"amenity":"waste_basket"}},"type":"Feature"},
	{"geometry":{"coordinates":[9.220511,48.808501],"type":"Point"},"properties":{"osm_id":"5951292003","tag":{"amenity":"waste_basket"}},"type":"Feature"},
	{"geometry":{"coordinates":[9.221334,48.808673],"type":"Point"},"properties":{"osm_id":"5951292020","tag":{"amenity":"waste_basket"}},"type":"Feature"},
	{"geometry":{"coordinates":[9.221822,48.808773],"type":"Point"},"properties":{"osm_id":"5951292035","tag":{"amenity":"waste_basket"}},"type":"Feature"},
	{"geometry":{"coordinates":[9.220686,48.808412],"type":"Point"},"properties":{"osm_id":"5951303851","tag":{"amenity":"waste_basket"}},"type":"Feature"},
	{"geometry":{"coordinates":[9.220016,48.808409],"type":"Point"},"properties":{"osm_id":"5951322079","tag":{"amenity":"waste_basket"}},"type":"Feature"},
	{"geometry":{"coordinates":[9.219188,48.808091],"type":"Point"},"properties":{"osm_id":"5951406770","tag":{"amenity":"waste_basket"}},"type":"Feature"},
	{"geometry":{"coordinates":[9.219445,48.807656],"type":"Point"},"properties":{"osm_id":"5951431584","tag":{"amenity":"waste_basket"}},"type":"Feature"},
	{"geometry":{"coordinates":[9.219396,48.807771],"type":"Point"},"properties":{"osm_id":"5951432190","tag":{"amenity":"waste_basket"}},"type":"Feature"},
	{"geometry":{"coordinates":[9.219065,48.80767],"type":"Point"},"properties":{"osm_id":"5951506165","tag":{"amenity":"waste_basket"}},"type":"Feature"},
	{"geometry":{"coordinates":[9.146455,48.838037],"type":"Point"},"properties":{"osm_id":"5964734219","tag":{"amenity":"recycling","recycling:clothes":"yes","recycling_type":"container"}},"type":"Feature"},
	{"geometry":{"coordinates":[9.159489,48.807374],"type":"Point"},"properties":{"osm_id":"5971881833","tag":{"amenity":"recycling","operator":"DRK Stuttgart","recycling:clothes":"yes","recycling:shoes":"yes","recycling_type":"container"}},"type":"Feature"},
	{"geometry":{"coordinates":[9.179221,48.831819],"type":"Point"},"properties":{"osm_id":"5975930315","tag":{"amenity":"waste_basket"}},"type":"Feature"},
	{"geometry":{"coordinates":[9.191692,48.82776],"type":"Point"},"properties":{"osm_id":"5981910570","tag":{"amenity":"waste_basket"}},"type":"Feature"},
	{"geometry":{"coordinates":[9.191468,48.828032],"type":"Point"},"properties":{"osm_id":"5981910572","tag":{"amenity":"recycling","operator":"Stadt Stuttgart","recycling:clothes":"yes","recycling:shoes":"yes","recycling_type":"container"}},"type":"Feature"},
	{"geometry":{"coordinates":[9.191922,48.834788],"type":"Point"},"properties":{"osm_id":"5982605256","tag":{"amenity":"recycling","operator":"Stadt Stuttgart","recycling:clothes":"yes","recycling:shoes":"yes","recycling_type":"container"}},"type":"Feature"},
	{"geometry":{"coordinates":[9.200709,48.840342],"type":"Point"},"properties":{"osm_id":"5982722174","tag":{"amenity":"waste_basket"}},"type":"Feature"},
	{"geometry":{"coordinates":[9.199876,48.843185],"type":"Point"},"properties":{"osm_id":"5984117879","tag":{"amenity":"waste_basket"}},"type":"Feature"},
	{"geometry":{"coordinates":[9.225243,48.839891],"type":"Point"},"properties":{"osm_id":"5985314958","tag":{"amenity":"waste_basket"}},"type":"Feature"},
	{"geometry":{"coordinates":[9.221958,48.836512],"type":"Point"},"properties":{"osm_id":"5988402128","tag":{"amenity":"waste_basket"}},"type":"Feature"},
	{"geometry":{"coordinates":[9.209418,48.82771],"type":"Point"},"properties":{"osm_id":"5988773647","tag":{"amenity":"waste_disposal","description:de":"Grillkohle und Einweggrills","waste":"ash"}},"type":"Feature"},
	{"geometry":{"coordinates":[9.212196,48.833653],"type":"Point"},"properties":{"osm_id":"5988775716","tag":{"amenity":"waste_disposal","description:de":"Grillkohle und Einweggrills","waste":"ash"}},"type":"Feature"},
	{"geometry":{"coordinates":[9.208905,48.829425],"type":"Point"},"properties":{"osm_id":"5988782370","tag":{"amenity":"waste_disposal","description:de":"Grillkohle und Einweggrills","waste":"ash"}},"type":"Feature"},
	{"geometry":{"coordinates":[9.219178,48.825567],"type":"Point"},"properties":{"osm_id":"5990594662","tag":{"amenity":"waste_basket"}},"type":"Feature"},
	{"geometry":{"coordinates":[9.221208,48.824807],"type":"Point"},"properties":{"osm_id":"5990644627","tag":{"amenity":"waste_basket"}},"type":"Feature"},
	{"geometry":{"coordinates":[9.212373,48.829471],"type":"Point"},"properties":{"osm_id":"5991022292","tag":{"amenity":"waste_basket"}},"type":"Feature"},
	{"geometry":{"coordinates":[9.216369,48.831075],"type":"Point"},"properties":{"osm_id":"5991531616","tag":{"amenity":"waste_basket"}},"type":"Feature"},
	{"geometry":{"coordinates":[9.216017,48.831174],"type":"Point"},"properties":{"osm_id":"5991531621","tag":{"amenity":"waste_basket"}},"type":"Feature"},
	{"geometry":{"coordinates":[9.221644,48.820016],"type":"Point"},"properties":{"osm_id":"5992895384","tag":{"amenity":"waste_basket"}},"type":"Feature"},
	{"geometry":{"coordinates":[9.224677,48.819949],"type":"Point"},"properties":{"osm_id":"5992895687","tag":{"amenity":"waste_basket"}},"type":"Feature"},
	{"geometry":{"coordinates":[9.165773,48.829357],"type":"Point"},"properties":{"osm_id":"6011057172","tag":{"amenity":"waste_basket"}},"type":"Feature"},
	{"geometry":{"coordinates":[9.184164,48.854872],"type":"Point"},"properties":{"osm_id":"6013865293","tag":{"amenity":"waste_basket"}},"type":"Feature"},
	{"geometry":{"coordinates":[9.180592,48.862108],"type":"Point"},"properties":{"osm_id":"6019351765","tag":{"amenity":"waste_basket"}},"type":"Feature"},
	{"geometry":{"coordinates":[9.201126,48.859005],"type":"Point"},"properties":{"osm_id":"6021966080","tag":{"amenity":"waste_basket"}},"type":"Feature"},
	{"geometry":{"coordinates":[9.203906,48.860443],"type":"Point"},"properties":{"osm_id":"6022264865","tag":{"amenity":"waste_basket"}},"type":"Feature"},
	{"geometry":{"coordinates":[9.205927,48.86121],"type":"Point"},"properties":{"osm_id":"6022337819","tag":{"amenity":"waste_basket"}},"type":"Feature"},
	{"geometry":{"coordinates":[9.205473,48.860791],"type":"Point"},"properties":{"osm_id":"6022337822","tag":{"amenity":"waste_basket"}},"type":"Feature"},
	{"geometry":{"coordinates":[9.209514,48.862103],"type":"Point"},"properties":{"osm_id":"6022358612","tag":{"amenity":"waste_basket"}},"type":"Feature"},
	{"geometry":{"coordinates":[9.195661,48.864111],"type":"Point"},"properties":{"osm_id":"6023414495","tag":{"amenity":"waste_basket"}},"type":"Feature"},
	{"geometry":{"coordinates":[9.183933,48.864424],"type":"Point"},"properties":{"osm_id":"6024329364","tag":{"amenity":"waste_basket"}},"type":"Feature"},
	{"geometry":{"coordinates":[9.182235,48.864501],"type":"Point"},"properties":{"osm_id":"6024343119","tag":{"amenity":"waste_basket"}},"type":"Feature"},
	{"geometry":{"coordinates":[9.186927,48.840889],"type":"Point"},"properties":{"osm_id":"6061131265","tag":{"amenity":"waste_basket"}},"type":"Feature"},
	{"geometry":{"coordinates":[9.186921,48.839831],"type":"Point"},"properties":{"osm_id":"6061131276","tag":{"amenity":"waste_basket"}},"type":"Feature"},
	{"geometry":{"coordinates":[9.182433,48.809704],"type":"Point"},"properties":{"osm_id":"6074045138","tag":{"amenity":"waste_basket"}},"type":"Feature"},
	{"geometry":{"coordinates":[9.159666,48.809307],"type":"Point"},"properties":{"osm_id":"6083261423","tag":{"amenity":"waste_basket"}},"type":"Feature"},
	{"geometry":{"coordinates":[9.152802,48.828721],"type":"Point"},"properties":{"osm_id":"6084384665","tag":{"amenity":"recycling","opening_hours":"Mo-Sa 07:00-19:00;PH off","operator":"Stadt Stuttgart","recycling:clothes":"yes","recycling:shoes":"yes","recycling_type":"container"}},"type":"Feature"},
	{"geometry":{"coordinates":[9.220382,48.830763],"type":"Point"},"properties":{"osm_id":"6093915585","tag":{"amenity":"waste_basket"}},"type":"Feature"},
	{"geometry":{"coordinates":[9.220929,48.830703],"type":"Point"},"properties":{"osm_id":"6093915586","tag":{"amenity":"waste_basket"}},"type":"Feature"},
	{"geometry":{"coordinates":[9.227529,48.833121],"type":"Point"},"properties":{"osm_id":"6094908127","tag":{"amenity":"waste_basket"}},"type":"Feature"},
	{"geometry":{"coordinates":[9.227503,48.833179],"type":"Point"},"properties":{"osm_id":"6094908128","tag":{"amenity":"waste_basket"}},"type":"Feature"},
	{"geometry":{"coordinates":[9.224758,48.830688],"type":"Point"},"properties":{"osm_id":"6105371123","tag":{"amenity":"waste_basket"}},"type":"Feature"},
	{"geometry":{"coordinates":[9.152364,48.827366],"type":"Point"},"properties":{"osm_id":"6119363353","tag":{"amenity":"waste_basket"}},"type":"Feature"},
	{"geometry":{"coordinates":[9.15807,48.828911],"type":"Point"},"properties":{"osm_id":"6120926027","tag":{"amenity":"waste_basket"}},"type":"Feature"},
	{"geometry":{"coordinates":[9.157484,48.828588],"type":"Point"},"properties":{"osm_id":"6120926031","tag":{"amenity":"waste_basket"}},"type":"Feature"},
	{"geometry":{"coordinates":[9.15271,48.826671],"type":"Point"},"properties":{"osm_id":"6121089312","tag":{"amenity":"waste_basket"}},"type":"Feature"},
	{"geometry":{"coordinates":[9.166841,48.828101],"type":"Point"},"properties":{"osm_id":"6121432872","tag":{"amenity":"recycling","operator":"Stadt Stuttgart","recycling:clothes":"yes","recycling:shoes":"yes","recycling_type":"container"}},"type":"Feature"},
	{"geometry":{"coordinates":[9.201641,48.82942],"type":"Point"},"properties":{"osm_id":"6163154841","tag":{"amenity":"waste_basket"}},"type":"Feature"},
	{"geometry":{"coordinates":[9.16296,48.810256],"type":"Point"},"properties":{"osm_id":"6301743907","tag":{"amenity":"waste_basket"}},"type":"Feature"},
	{"geometry":{"coordinates":[9.157287,48.808791],"type":"Point"},"properties":{"osm_id":"6301743943","tag":{"amenity":"waste_basket"}},"type":"Feature"},
	{"geometry":{"coordinates":[9.187138,48.82483],"type":"Point"},"properties":{"osm_id":"6306132431","tag":{"amenity":"waste_basket"}},"type":"Feature"},
	{"geometry":{"coordinates":[9.187332,48.825135],"type":"Point"},"properties":{"osm_id":"6306132432","tag":{"amenity":"waste_basket"}},"type":"Feature"},
	{"geometry":{"coordinates":[9.182356,48.821447],"type":"Point"},"properties":{"osm_id":"6306364517","tag":{"amenity":"waste_basket"}},"type":"Feature"},
	{"geometry":{"coordinates":[9.208405,48.813364],"type":"Point"},"properties":{"osm_id":"6359087995","tag":{"amenity":"waste_basket"}},"type":"Feature"},
	{"geometry":{"coordinates":[9.186412,48.81535],"type":"Point"},"properties":{"osm_id":"6399091938","tag":{"amenity":"waste_basket","waste":"trash"}},"type":"Feature"},
	{"geometry":{"coordinates":[9.206169,48.837758],"type":"Point"},"properties":{"osm_id":"6414977740","tag":{"amenity":"waste_basket"}},"type":"Feature"},
	{"geometry":{"coordinates":[9.205915,48.837842],"type":"Point"},"properties":{"osm_id":"6414977742","tag":{"amenity":"waste_basket"}},"type":"Feature"},
	{"geometry":{"coordinates":[9.220335,48.843425],"type":"Point"},"properties":{"osm_id":"6415045504","tag":{"amenity":"recycling","check_date":"2019-04-18","operator":"Abfallwirtschaft Stuttgart","recycling:clothes":"yes","recycling:shoes":"yes","recycling_type":"container"}},"type":"Feature"},
	{"geometry":{"coordinates":[9.219009,48.842862],"type":"Point"},"properties":{"osm_id":"6415045505","tag":{"amenity":"waste_basket"}},"type":"Feature"},
	{"geometry":{"coordinates":[9.214983,48.843344],"type":"Point"},"properties":{"osm_id":"6415045507","tag":{"amenity":"recycling","check_date":"2019-04-18","operator":"Abfallwirtschaft Stuttgart","recycling:clothes":"yes","recycling:shoes":"yes","recycling_type":"container"}},"type":"Feature"},
	{"geometry":{"coordinates":[9.212231,48.843153],"type":"Point"},"properties":{"osm_id":"6415045509","tag":{"amenity":"waste_basket"}},"type":"Feature"},
	{"geometry":{"coordinates":[9.224348,48.844568],"type":"Point"},"properties":{"osm_id":"6415105116","tag":{"amenity":"waste_basket"}},"type":"Feature"},
	{"geometry":{"coordinates":[9.224168,48.844502],"type":"Point"},"properties":{"osm_id":"6415105117","tag":{"amenity":"waste_basket"}},"type":"Feature"},
	{"geometry":{"coordinates":[9.203318,48.836518],"type":"Point"},"properties":{"osm_id":"6434102633","tag":{"amenity":"recycling","check_date":"2019-04-28","operator":"Abfallwirtschaft Stuttgart","recycling:clothes":"yes","recycling:shoes":"yes","recycling_type":"container"}},"type":"Feature"},
	{"geometry":{"coordinates":[9.21029,48.840043],"type":"Point"},"properties":{"osm_id":"6582145490","tag":{"amenity":"waste_basket"}},"type":"Feature"},
	{"geometry":{"coordinates":[9.179939,48.809789],"type":"Point"},"properties":{"osm_id":"6606445937","tag":{"amenity":"waste_basket"}},"type":"Feature"},
	{"geometry":{"coordinates":[9.185548,48.861661],"type":"Point"},"properties":{"osm_id":"6615813689","tag":{"amenity":"waste_basket"}},"type":"Feature"},
	{"geometry":{"coordinates":[9.143384,48.810362],"type":"Point"},"properties":{"osm_id":"6649243939","tag":{"amenity":"waste_basket"}},"type":"Feature"},
	{"geometry":{"coordinates":[9.188747,48.859247],"type":"Point"},"properties":{"osm_id":"6790804367","tag":{"amenity":"waste_basket"}},"type":"Feature"},
	{"geometry":{"coordinates":[9.187595,48.858964],"type":"Point"},"properties":{"osm_id":"6790804368","tag":{"amenity":"waste_basket"}},"type":"Feature"},
	{"geometry":{"coordinates":[9.190511,48.858624],"type":"Point"},"properties":{"osm_id":"6790823226","tag":{"amenity":"waste_basket"}},"type":"Feature"},
	{"geometry":{"coordinates":[9.191579,48.858521],"type":"Point"},"properties":{"osm_id":"6790839445","tag":{"amenity":"waste_basket"}},"type":"Feature"},
	{"geometry":{"coordinates":[9.188233,48.859548],"type":"Point"},"properties":{"osm_id":"6790866054","tag":{"amenity":"waste_basket"}},"type":"Feature"},
	{"geometry":{"coordinates":[9.189731,48.859231],"type":"Point"},"properties":{"osm_id":"6790881056","tag":{"amenity":"waste_basket"}},"type":"Feature"},
	{"geometry":{"coordinates":[9.189806,48.858916],"type":"Point"},"properties":{"osm_id":"6790888491","tag":{"amenity":"waste_basket"}},"type":"Feature"},
	{"geometry":{"coordinates":[9.190705,48.859359],"type":"Point"},"properties":{"osm_id":"6790890907","tag":{"amenity":"waste_basket"}},"type":"Feature"},
	{"geometry":{"coordinates":[9.189616,48.858784],"type":"Point"},"properties":{"osm_id":"6790891906","tag":{"amenity":"waste_basket"}},"type":"Feature"},
	{"geometry":{"coordinates":[9.188976,48.858748],"type":"Point"},"properties":{"osm_id":"6790895734","tag":{"amenity":"waste_basket"}},"type":"Feature"},
	{"geometry":{"coordinates":[9.186695,48.858875],"type":"Point"},"properties":{"osm_id":"6790900770","tag":{"amenity":"waste_basket"}},"type":"Feature"},
	{"geometry":{"coordinates":[9.187837,48.858951],"type":"Point"},"properties":{"osm_id":"6790901947","tag":{"amenity":"waste_basket"}},"type":"Feature"},
	{"geometry":{"coordinates":[9.187502,48.858631],"type":"Point"},"properties":{"osm_id":"6790909907","tag":{"amenity":"waste_basket"}},"type":"Feature"},
	{"geometry":{"coordinates":[9.186225,48.858742],"type":"Point"},"properties":{"osm_id":"6790910264","tag":{"amenity":"waste_basket"}},"type":"Feature"},
	{"geometry":{"coordinates":[9.189469,48.858609],"type":"Point"},"properties":{"osm_id":"6790910329","tag":{"amenity":"waste_basket"}},"type":"Feature"},
	{"geometry":{"coordinates":[9.186707,48.859388],"type":"Point"},"properties":{"osm_id":"6790911447","tag":{"amenity":"waste_basket"}},"type":"Feature"},
	{"geometry":{"coordinates":[9.188501,48.859371],"type":"Point"},"properties":{"osm_id":"6790912385","tag":{"amenity":"waste_basket"}},"type":"Feature"},
	{"geometry":{"coordinates":[9.188054,48.85895],"type":"Point"},"properties":{"osm_id":"6790913796","tag":{"amenity":"waste_basket"}},"type":"Feature"},
	{"geometry":{"coordinates":[9.186094,48.859306],"type":"Point"},"properties":{"osm_id":"6790919311","tag":{"amenity":"waste_basket"}},"type":"Feature"},
	{"geometry":{"coordinates":[9.186477,48.859058],"type":"Point"},"properties":{"osm_id":"6790920935","tag":{"amenity":"waste_basket"}},"type":"Feature"},
	{"geometry":{"coordinates":[9.187798,48.859479],"type":"Point"},"properties":{"osm_id":"6790935500","tag":{"amenity":"waste_basket"}},"type":"Feature"},
	{"geometry":{"coordinates":[9.190325,48.858556],"type":"Point"},"properties":{"osm_id":"6790948014","tag":{"amenity":"waste_basket"}},"type":"Feature"},
	{"geometry":{"coordinates":[9.183813,48.859442],"type":"Point"},"properties":{"osm_id":"6790956654","tag":{"amenity":"waste_basket"}},"type":"Feature"},
	{"geometry":{"coordinates":[9.191731,48.858519],"type":"Point"},"properties":{"osm_id":"6790959685","tag":{"amenity":"waste_basket"}},"type":"Feature"},
	{"geometry":{"coordinates":[9.187844,48.860065],"type":"Point"},"properties":{"osm_id":"6790961403","tag":{"amenity":"waste_basket"}},"type":"Feature"},
	{"geometry":{"coordinates":[9.185401,48.859878],"type":"Point"},"properties":{"osm_id":"6790986709","tag":{"amenity":"waste_basket"}},"type":"Feature"},
	{"geometry":{"coordinates":[9.189094,48.861203],"type":"Point"},"properties":{"osm_id":"6790986711","tag":{"amenity":"waste_basket"}},"type":"Feature"},
	{"geometry":{"coordinates":[9.18423,48.859718],"type":"Point"},"properties":{"osm_id":"6791017486","tag":{"amenity":"waste_basket"}},"type":"Feature"},
	{"geometry":{"coordinates":[9.18523,48.859756],"type":"Point"},"properties":{"osm_id":"6791019518","tag":{"amenity":"waste_basket"}},"type":"Feature"},
	{"geometry":{"coordinates":[9.189013,48.861033],"type":"Point"},"properties":{"osm_id":"6791019692","tag":{"amenity":"waste_basket"}},"type":"Feature"},
	{"geometry":{"coordinates":[9.185836,48.860233],"type":"Point"},"properties":{"osm_id":"6791024392","tag":{"amenity":"waste_basket"}},"type":"Feature"},
	{"geometry":{"coordinates":[9.226355,48.809595],"type":"Point"},"properties":{"osm_id":"6857862573","tag":{"amenity":"waste_basket"}},"type":"Feature"},
	{"geometry":{"coordinates":[9.22449,48.810469],"type":"Point"},"properties":{"osm_id":"6857878181","tag":{"amenity":"waste_basket"}},"type":"Feature"},
	{"geometry":{"coordinates":[9.223728,48.809089],"type":"Point"},"properties":{"osm_id":"6857921878","tag":{"amenity":"waste_basket"}},"type":"Feature"},
	{"geometry":{"coordinates":[9.197057,48.859207],"type":"Point"},"properties":{"osm_id":"6869148531","tag":{"amenity":"waste_basket"}},"type":"Feature"},
	{"geometry":{"coordinates":[9.197367,48.85892],"type":"Point"},"properties":{"osm_id":"6869150106","tag":{"amenity":"waste_basket"}},"type":"Feature"},
	{"geometry":{"coordinates":[9.197595,48.856831],"type":"Point"},"properties":{"osm_id":"6869156253","tag":{"amenity":"waste_basket"}},"type":"Feature"},
	{"geometry":{"coordinates":[9.19525,48.858168],"type":"Point"},"properties":{"osm_id":"6869385536","tag":{"amenity":"waste_basket"}},"type":"Feature"},
	{"geometry":{"coordinates":[9.195569,48.857837],"type":"Point"},"properties":{"osm_id":"6869391576","tag":{"amenity":"waste_basket"}},"type":"Feature"},
	{"geometry":{"coordinates":[9.195376,48.858227],"type":"Point"},"properties":{"osm_id":"6869396507","tag":{"amenity":"waste_basket"}},"type":"Feature"},
	{"geometry":{"coordinates":[9.192965,48.858484],"type":"Point"},"properties":{"osm_id":"6869398084","tag":{"amenity":"waste_basket"}},"type":"Feature"},
	{"geometry":{"coordinates":[9.195431,48.858838],"type":"Point"},"properties":{"osm_id":"6869400263","tag":{"amenity":"waste_basket"}},"type":"Feature"},
	{"geometry":{"coordinates":[9.192466,48.858637],"type":"Point"},"properties":{"osm_id":"6869402938","tag":{"amenity":"waste_basket"}},"type":"Feature"},
	{"geometry":{"coordinates":[9.194271,48.858412],"type":"Point"},"properties":{"osm_id":"6869403723","tag":{"amenity":"waste_basket"}},"type":"Feature"},
	{"geometry":{"coordinates":[9.19322,48.858631],"type":"Point"},"properties":{"osm_id":"6869406252","tag":{"amenity":"waste_basket"}},"type":"Feature"},
	{"geometry":{"coordinates":[9.192648,48.858519],"type":"Point"},"properties":{"osm_id":"6869409219","tag":{"amenity":"waste_basket"}},"type":"Feature"},
	{"geometry":{"coordinates":[9.1934,48.858649],"type":"Point"},"properties":{"osm_id":"6869411286","tag":{"amenity":"waste_basket"}},"type":"Feature"},
	{"geometry":{"coordinates":[9.189689,48.863341],"type":"Point"},"properties":{"osm_id":"6875643283","tag":{"amenity":"waste_basket"}},"type":"Feature"},
	{"geometry":{"coordinates":[9.188415,48.862668],"type":"Point"},"properties":{"osm_id":"6875651906","tag":{"amenity":"waste_basket"}},"type":"Feature"},
	{"geometry":{"coordinates":[9.189437,48.862984],"type":"Point"},"properties":{"osm_id":"6875686087","tag":{"amenity":"waste_basket"}},"type":"Feature"},
	{"geometry":{"coordinates":[9.188512,48.863076],"type":"Point"},"properties":{"osm_id":"6875687330","tag":{"amenity":"waste_basket"}},"type":"Feature"},
	{"geometry":{"coordinates":[9.189815,48.863114],"type":"Point"},"properties":{"osm_id":"6875690443","tag":{"amenity":"waste_basket"}},"type":"Feature"},
	{"geometry":{"coordinates":[9.187847,48.862763],"type":"Point"},"properties":{"osm_id":"6875725120","tag":{"amenity":"waste_basket"}},"type":"Feature"},
	{"geometry":{"coordinates":[9.189738,48.863218],"type":"Point"},"properties":{"osm_id":"6875729088","tag":{"amenity":"waste_basket"}},"type":"Feature"},
	{"geometry":{"coordinates":[9.189711,48.863503],"type":"Point"},"properties":{"osm_id":"6875730933","tag":{"amenity":"waste_basket"}},"type":"Feature"},
	{"geometry":{"coordinates":[9.188673,48.863436],"type":"Point"},"properties":{"osm_id":"6875734697","tag":{"amenity":"waste_basket"}},"type":"Feature"},
	{"geometry":{"coordinates":[9.183711,48.864353],"type":"Point"},"properties":{"osm_id":"6905715824","tag":{"amenity":"waste_basket"}},"type":"Feature"},
	{"geometry":{"coordinates":[9.19757,48.839032],"type":"Point"},"properties":{"osm_id":"6958685084","tag":{"amenity":"waste_basket"}},"type":"Feature"},
	{"geometry":{"coordinates":[9.20192,48.842937],"type":"Point"},"properties":{"osm_id":"6958689287","tag":{"amenity":"waste_basket"}},"type":"Feature"},
	{"geometry":{"coordinates":[9.210403,48.83386],"type":"Point"},"properties":{"osm_id":"6973615782","tag":{"amenity":"waste_basket"}},"type":"Feature"},
	{"geometry":{"coordinates":[9.211274,48.83475],"type":"Point"},"properties":{"osm_id":"6973634516","tag":{"amenity":"waste_basket"}},"type":"Feature"},
	{"geometry":{"coordinates":[9.211724,48.831878],"type":"Point"},"properties":{"osm_id":"6973650358","tag":{"amenity":"waste_basket"}},"type":"Feature"},
	{"geometry":{"coordinates":[9.211865,48.832921],"type":"Point"},"properties":{"osm_id":"6973673859","tag":{"amenity":"waste_basket"}},"type":"Feature"},
	{"geometry":{"coordinates":[9.212233,48.83073],"type":"Point"},"properties":{"osm_id":"6973713688","tag":{"amenity":"waste_basket"}},"type":"Feature"},
	{"geometry":{"coordinates":[9.216613,48.833487],"type":"Point"},"properties":{"osm_id":"6973758610","tag":{"amenity":"waste_basket"}},"type":"Feature"},
	{"geometry":{"coordinates":[9.214195,48.831532],"type":"Point"},"properties":{"osm_id":"6973765297","tag":{"amenity":"waste_basket"}},"type":"Feature"},
	{"geometry":{"coordinates":[9.21581,48.832856],"type":"Point"},"properties":{"osm_id":"6973767942","tag":{"amenity":"waste_basket"}},"type":"Feature"},
	{"geometry":{"coordinates":[9.217335,48.836791],"type":"Point"},"properties":{"osm_id":"6973825314","tag":{"amenity":"waste_basket"}},"type":"Feature"},
	{"geometry":{"coordinates":[9.21774,48.8366],"type":"Point"},"properties":{"osm_id":"6973826730","tag":{"amenity":"waste_basket"}},"type":"Feature"},
	{"geometry":{"coordinates":[9.181416,48.863432],"type":"Point"},"properties":{"osm_id":"6990012873","tag":{"amenity":"waste_basket"}},"type":"Feature"},
	{"geometry":{"coordinates":[9.199078,48.857671],"type":"Point"},"properties":{"osm_id":"6996838504","tag":{"amenity":"waste_basket"}},"type":"Feature"},
	{"geometry":{"coordinates":[9.183333,48.850091],"type":"Point"},"properties":{"osm_id":"7008881756","tag":{"amenity":"waste_basket"}},"type":"Feature"},
	{"geometry":{"coordinates":[9.182734,48.850437],"type":"Point"},"properties":{"osm_id":"7008902192","tag":{"amenity":"waste_basket"}},"type":"Feature"},
	{"geometry":{"coordinates":[9.202459,48.832618],"type":"Point"},"properties":{"osm_id":"7072170374","tag":{"amenity":"waste_basket"}},"type":"Feature"},
	{"geometry":{"coordinates":[9.203149,48.829645],"type":"Point"},"properties":{"osm_id":"7072195905","tag":{"amenity":"waste_basket"}},"type":"Feature"},
	{"geometry":{"coordinates":[9.202648,48.83097],"type":"Point"},"properties":{"osm_id":"7072204709","tag":{"amenity":"waste_basket"}},"type":"Feature"},
	{"geometry":{"coordinates":[9.141384,48.853562],"type":"Point"},"properties":{"osm_id":"7114667888","tag":{"amenity":"waste_basket"}},"type":"Feature"},
	{"geometry":{"coordinates":[9.168313,48.830008],"type":"Point"},"properties":{"osm_id":"7293069578","tag":{"amenity":"waste_basket","waste":"trash"}},"type":"Feature"},
	{"geometry":{"coordinates":[9.168388,48.830096],"type":"Point"},"properties":{"osm_id":"7293069579","tag":{"amenity":"waste_basket","waste":"trash"}},"type":"Feature"},
	{"geometry":{"coordinates":[9.168034,48.829918],"type":"Point"},"properties":{"osm_id":"7293069580","tag":{"amenity":"waste_basket","waste":"trash"}},"type":"Feature"},
	{"geometry":{"coordinates":[9.168101,48.829875],"type":"Point"},"properties":{"osm_id":"7293069581","tag":{"amenity":"waste_basket","waste":"trash"}},"type":"Feature"},
	{"geometry":{"coordinates":[9.167552,48.830411],"type":"Point"},"properties":{"osm_id":"7293122785","tag":{"amenity":"waste_basket","waste":"trash"}},"type":"Feature"},
	{"geometry":{"coordinates":[9.166488,48.829398],"type":"Point"},"properties":{"osm_id":"7293122824","tag":{"amenity":"waste_basket","level":"0","waste":"trash"}},"type":"Feature"},
	{"geometry":{"coordinates":[9.15227,48.833729],"type":"Point"},"properties":{"osm_id":"7317999894","tag":{"amenity":"waste_basket","waste":"trash"}},"type":"Feature"},
	{"geometry":{"coordinates":[9.192987,48.852653],"type":"Point"},"properties":{"osm_id":"7392862466","tag":{"amenity":"waste_basket"}},"type":"Feature"},
	{"geometry":{"coordinates":[9.171036,48.839032],"type":"Point"},"properties":{"osm_id":"7505808205","tag":{"amenity":"waste_basket","material":"steel","waste":"trash"}},"type":"Feature"},
	{"geometry":{"coordinates":[9.153038,48.817524],"type":"Point"},"properties":{"osm_id":"7518249320","tag":{"amenity":"waste_basket"}},"type":"Feature"},
	{"geometry":{"coordinates":[9.183846,48.828866],"type":"Point"},"properties":{"osm_id":"7518299935","tag":{"amenity":"waste_basket"}},"type":"Feature"},
	{"geometry":{"coordinates":[9.211866,48.825113],"type":"Point"},"properties":{"osm_id":"7518888904","tag":{"amenity":"waste_basket"}},"type":"Feature"},
	{"geometry":{"coordinates":[9.205477,48.818756],"type":"Point"},"properties":{"osm_id":"7521319452","tag":{"amenity":"waste_basket"}},"type":"Feature"},
	{"geometry":{"coordinates":[9.175865,48.829828],"type":"Point"},"properties":{"osm_id":"7541546290","tag":{"amenity":"waste_basket"}},"type":"Feature"},
	{"geometry":{"coordinates":[9.175917,48.829991],"type":"Point"},"properties":{"osm_id":"7541546292","tag":{"amenity":"waste_basket"}},"type":"Feature"},
	{"geometry":{"coordinates":[9.168889,48.846692],"type":"Point"},"properties":{"osm_id":"7562996092","tag":{"amenity":"waste_basket"}},"type":"Feature"},
	{"geometry":{"coordinates":[9.172009,48.845256],"type":"Point"},"properties":{"osm_id":"7562996103","tag":{"amenity":"waste_basket"}},"type":"Feature"},
	{"geometry":{"coordinates":[9.145268,48.815535],"type":"Point"},"properties":{"osm_id":"7565439979","tag":{"amenity":"waste_basket"}},"type":"Feature"},
	{"geometry":{"coordinates":[9.158368,48.809094],"type":"Point"},"properties":{"osm_id":"7565880131","tag":{"amenity":"waste_basket"}},"type":"Feature"},
	{"geometry":{"coordinates":[9.189579,48.855581],"type":"Point"},"properties":{"osm_id":"7612904404","tag":{"amenity":"recycling","operator":"SUEZ Deutschland","recycling:glass_bottles":"yes","recycling_type":"container"}},"type":"Feature"},
	{"geometry":{"coordinates":[9.189615,48.85561],"type":"Point"},"properties":{"osm_id":"7612904405","tag":{"amenity":"recycling","operator":"Arbeiter-Samariter-Bund","recycling:clothes":"yes","recycling:shoes":"yes","recycling_type":"container"}},"type":"Feature"},
	{"geometry":{"coordinates":[9.201429,48.838875],"type":"Point"},"properties":{"osm_id":"7784761230","tag":{"amenity":"waste_basket"}},"type":"Feature"},
	{"geometry":{"coordinates":[9.163743,48.810587],"type":"Point"},"properties":{"osm_id":"7879757148","tag":{"amenity":"recycling","opening_hours":"24/7","operator":"EDEKA S\u00c3\u00bcdwest","recycling:batteries":"yes","recycling:clothes":"yes","recycling:fluorescent_tubes":"yes","recycling:shoes":"yes","recycling:small_appliances":"yes","recycling_type":"container"}},"type":"Feature"},
	{"geometry":{"coordinates":[9.225681,48.836419],"type":"Point"},"properties":{"osm_id":"7925556298","tag":{"amenity":"waste_basket"}},"type":"Feature"}
]
}
