{
"type": "FeatureCollection",
"features": [
	{"geometry":{"coordinates":[9.216191,48.683814],"type":"Point"},"properties":{"osm_id":"35520023","tag":{"amenity":"recycling","recycling:glass_bottles":"yes","recycling_type":"container"}},"type":"Feature"},
	{"geometry":{"coordinates":[9.167148,48.669741],"type":"Point"},"properties":{"osm_id":"240936241","tag":{"amenity":"recycling","recycling:glass":"yes","recycling_type":"container"}},"type":"Feature"},
	{"geometry":{"coordinates":[9.225698,48.634718],"type":"Point"},"properties":{"barrier":"gate","osm_id":"244056433"},"type":"Feature"},
	{"geometry":{"coordinates":[9.196725,48.653944],"type":"Point"},"properties":{"osm_id":"246007124","tag":{"amenity":"recycling","recycling:glass":"yes","recycling_type":"container"}},"type":"Feature"},
	{"geometry":{"coordinates":[9.224927,48.678928],"type":"Point"},"properties":{"osm_id":"248017290","tag":{"amenity":"recycling","recycling:clothes":"no","recycling:glass":"yes","recycling:glass_bottles":"yes","recycling_type":"container","survey:date":"2020-06-09"}},"type":"Feature"},
	{"geometry":{"coordinates":[9.189416,48.656919],"type":"Point"},"properties":{"osm_id":"248095305","tag":{"amenity":"recycling","recycling:glass":"yes","recycling:glass_bottles":"yes","recycling_type":"container"}},"type":"Feature"},
	{"geometry":{"coordinates":[9.212259,48.669347],"type":"Point"},"properties":{"osm_id":"248105318","tag":{"amenity":"recycling"}},"type":"Feature"},
	{"geometry":{"coordinates":[9.214982,48.655195],"type":"Point"},"properties":{"osm_id":"248497784","tag":{"amenity":"recycling","recycling:glass":"yes"}},"type":"Feature"},
	{"geometry":{"coordinates":[9.187052,48.659296],"type":"Point"},"properties":{"osm_id":"250236945","tag":{"amenity":"recycling","recycling:glass_bottles":"yes","recycling_type":"container"}},"type":"Feature"},
	{"geometry":{"coordinates":[9.209288,48.679962],"type":"Point"},"properties":{"osm_id":"250639494","tag":{"amenity":"recycling","recycling:glass":"yes","recycling_type":"container"}},"type":"Feature"},
	{"geometry":{"coordinates":[9.160464,48.689741],"type":"Point"},"properties":{"osm_id":"252988732","tag":{"amenity":"recycling","recycling:clothes":"yes","recycling:glass":"yes","recycling_type":"container"}},"type":"Feature"},
	{"geometry":{"coordinates":[9.213218,48.6535],"type":"Point"},"properties":{"osm_id":"253259193","tag":{"amenity":"recycling","recycling:glass":"yes"}},"type":"Feature"},
	{"geometry":{"coordinates":[9.224992,48.649272],"type":"Point"},"properties":{"osm_id":"253657770","tag":{"amenity":"recycling","image":"https://storage11.openstreetcam.org/files/photo/2019/3/31/lth/1360872_0_ade56_31.jpg","recycling:clothes":"yes","recycling:glass":"yes","recycling_type":"container","survey:date":"2019-03-31"}},"type":"Feature"},
	{"geometry":{"coordinates":[9.216365,48.651061],"type":"Point"},"properties":{"osm_id":"253658115","tag":{"amenity":"recycling","recycling_type":"container"}},"type":"Feature"},
	{"geometry":{"coordinates":[9.212504,48.649547],"type":"Point"},"properties":{"osm_id":"253696890","tag":{"amenity":"recycling","recycling_type":"container"}},"type":"Feature"},
	{"geometry":{"coordinates":[9.190935,48.6527],"type":"Point"},"properties":{"osm_id":"253697240","tag":{"amenity":"recycling","recycling:glass":"yes","recycling_type":"container"}},"type":"Feature"},
	{"geometry":{"coordinates":[9.214334,48.668651],"type":"Point"},"properties":{"osm_id":"254360919","tag":{"amenity":"recycling","recycling:glass_bottles":"yes","recycling_type":"container"}},"type":"Feature"},
	{"geometry":{"coordinates":[9.220225,48.682354],"type":"Point"},"properties":{"osm_id":"254599270","tag":{"amenity":"recycling","location":"overground","operator":"Rhenus logistics","recycling:glass_bottles":"yes","recycling_type":"container"}},"type":"Feature"},
	{"geometry":{"coordinates":[9.16734,48.666143],"type":"Point"},"properties":{"osm_id":"255169225","tag":{"amenity":"recycling","recycling_type":"container"}},"type":"Feature"},
	{"geometry":{"coordinates":[9.175271,48.663175],"type":"Point"},"properties":{"osm_id":"255169226","tag":{"amenity":"recycling","location":"overground","recycling:glass_bottles":"yes","recycling_type":"container"}},"type":"Feature"},
	{"geometry":{"coordinates":[9.21062,48.657592],"type":"Point"},"properties":{"osm_id":"269264598","tag":{"amenity":"recycling","recycling:glass":"yes","recycling_type":"container"}},"type":"Feature"},
	{"geometry":{"coordinates":[9.170072,48.688195],"type":"Point"},"properties":{"osm_id":"270597052","tag":{"amenity":"recycling","recycling:glass":"yes","recycling_type":"container"}},"type":"Feature"},
	{"geometry":{"coordinates":[9.22839,48.670276],"type":"Point"},"properties":{"osm_id":"274106763","tag":{"amenity":"recycling","recycling:glass":"yes"}},"type":"Feature"},
	{"geometry":{"coordinates":[9.191205,48.652846],"type":"Point"},"properties":{"osm_id":"281647641","tag":{"amenity":"recycling","recycling:clothes":"yes","recycling_type":"container"}},"type":"Feature"},
	{"geometry":{"coordinates":[9.190439,48.65741],"type":"Point"},"properties":{"osm_id":"281647642","tag":{"amenity":"recycling","recycling:clothes":"yes"}},"type":"Feature"},
	{"geometry":{"coordinates":[9.200308,48.658871],"type":"Point"},"properties":{"osm_id":"287482981","tag":{"amenity":"recycling","recycling:glass_bottles":"yes","recycling_type":"container"}},"type":"Feature"},
	{"geometry":{"coordinates":[9.169911,48.68555],"type":"Point"},"properties":{"osm_id":"310312842","tag":{"amenity":"recycling","recycling:clothes":"yes","recycling_type":"container"}},"type":"Feature"},
	{"geometry":{"coordinates":[9.203661,48.655831],"type":"Point"},"properties":{"osm_id":"314459336","tag":{"amenity":"recycling","recycling:glass":"yes"}},"type":"Feature"},
	{"geometry":{"coordinates":[9.174638,48.670556],"type":"Point"},"properties":{"osm_id":"331109976","tag":{"amenity":"recycling","recycling:glass":"yes"}},"type":"Feature"},
	{"geometry":{"coordinates":[9.150758,48.679773],"type":"Point"},"properties":{"osm_id":"359067586","tag":{"amenity":"recycling","location":"overground","recycling:glass":"yes","recycling:glass_bottles":"yes","recycling_type":"container"}},"type":"Feature"},
	{"geometry":{"coordinates":[9.155901,48.681872],"type":"Point"},"properties":{"osm_id":"406098926","tag":{"amenity":"recycling","recycling:glass_bottles":"yes","recycling_type":"container"}},"type":"Feature"},
	{"geometry":{"coordinates":[9.222865,48.67644],"type":"Point"},"properties":{"osm_id":"427904836","tag":{"amenity":"recycling","recycling:clothes":"yes","recycling:shoes":"yes","recycling_type":"container"}},"type":"Feature"},
	{"geometry":{"coordinates":[9.221306,48.676397],"type":"Point"},"properties":{"osm_id":"427904837","tag":{"amenity":"recycling","recycling:glass":"yes","recycling:glass_bottles":"yes","recycling_type":"container"}},"type":"Feature"},
	{"geometry":{"coordinates":[9.211776,48.673754],"type":"Point"},"properties":{"osm_id":"427904846","tag":{"amenity":"recycling","recycling:glass":"yes"}},"type":"Feature"},
	{"geometry":{"coordinates":[9.217531,48.671886],"type":"Point"},"properties":{"osm_id":"471718298","tag":{"amenity":"recycling","recycling:glass_bottles":"yes","recycling_type":"container"}},"type":"Feature"},
	{"geometry":{"coordinates":[9.1645,48.686676],"type":"Point"},"properties":{"osm_id":"638957926","tag":{"amenity":"recycling","recycling:glass_bottles":"yes","recycling:shoes":"yes","recycling_type":"container"}},"type":"Feature"},
	{"geometry":{"coordinates":[9.174904,48.685269],"type":"Point"},"properties":{"osm_id":"697268186","tag":{"amenity":"recycling","recycling:glass":"yes","recycling_type":"container"}},"type":"Feature"},
	{"geometry":{"coordinates":[9.197704,48.677514],"type":"Point"},"properties":{"osm_id":"757446665","tag":{"amenity":"recycling","recycling:clothes":"no","recycling:glass":"yes","recycling_type":"container"}},"type":"Feature"},
	{"geometry":{"coordinates":[9.169447,48.670843],"type":"Point"},"properties":{"osm_id":"862282284","tag":{"amenity":"recycling","recycling:clothes":"yes","recycling:glass":"yes","recycling_type":"container"}},"type":"Feature"},
	{"geometry":{"coordinates":[9.151305,48.690637],"type":"Point"},"properties":{"osm_id":"1328047605","tag":{"amenity":"recycling","recycling:clothes":"yes","recycling:glass":"yes","recycling_type":"container"}},"type":"Feature"},
	{"geometry":{"coordinates":[9.182952,48.675],"type":"Point"},"properties":{"barrier":"gate","osm_id":"1851593030","tag":{"bicycle":"no","foot":"no"}},"type":"Feature"},
	{"geometry":{"coordinates":[9.182424,48.67501],"type":"Point"},"properties":{"barrier":"gate","osm_id":"1851593033","tag":{"bicycle":"no","foot":"no"}},"type":"Feature"},
	{"geometry":{"coordinates":[9.218825,48.646268],"type":"Point"},"properties":{"osm_id":"1993195964","tag":{"amenity":"recycling","recycling:glass":"yes","recycling_type":"container"}},"type":"Feature"},
	{"geometry":{"coordinates":[9.160589,48.687273],"type":"Point"},"properties":{"osm_id":"2026053423","tag":{"amenity":"recycling","recycling:glass_bottles":"yes","recycling_type":"container"}},"type":"Feature"},
	{"geometry":{"coordinates":[9.156485,48.687933],"type":"Point"},"properties":{"osm_id":"2026140731","tag":{"amenity":"recycling","recycling:glass_bottles":"yes","recycling_type":"container"}},"type":"Feature"},
	{"geometry":{"coordinates":[9.153006,48.690079],"type":"Point"},"properties":{"osm_id":"2026140733","tag":{"amenity":"recycling","recycling:glass_bottles":"yes","recycling_type":"container"}},"type":"Feature"},
	{"geometry":{"coordinates":[9.17551,48.684895],"type":"Point"},"properties":{"osm_id":"2591592763","tag":{"amenity":"recycling","operator":"Rhenus Recycling GmbH","recycling:glass_bottles":"yes","recycling_type":"container"}},"type":"Feature"},
	{"geometry":{"coordinates":[9.187269,48.689392],"type":"Point"},"properties":{"osm_id":"3003670833","tag":{"amenity":"waste_basket"}},"type":"Feature"},
	{"geometry":{"coordinates":[9.218242,48.658881],"type":"Point"},"properties":{"osm_id":"3822925213","tag":{"amenity":"recycling","recycling:clothes":"yes","recycling_type":"container"}},"type":"Feature"},
	{"geometry":{"coordinates":[9.175331,48.683168],"type":"Point"},"properties":{"osm_id":"3823435471","tag":{"amenity":"waste_basket"}},"type":"Feature"},
	{"geometry":{"coordinates":[9.165864,48.686444],"type":"Point"},"properties":{"osm_id":"3823485300","tag":{"amenity":"waste_basket"}},"type":"Feature"},
	{"geometry":{"coordinates":[9.151839,48.689818],"type":"Point"},"properties":{"osm_id":"3823539308","tag":{"amenity":"waste_basket"}},"type":"Feature"},
	{"geometry":{"coordinates":[9.216316,48.685557],"type":"Point"},"properties":{"osm_id":"4038637224","tag":{"amenity":"waste_basket"}},"type":"Feature"},
	{"geometry":{"coordinates":[9.196111,48.67645],"type":"Point"},"properties":{"osm_id":"4041030294","tag":{"amenity":"waste_basket"}},"type":"Feature"},
	{"geometry":{"coordinates":[9.2179,48.678683],"type":"Point"},"properties":{"osm_id":"4104654835","tag":{"amenity":"waste_basket"}},"type":"Feature"},
	{"geometry":{"coordinates":[9.218074,48.678944],"type":"Point"},"properties":{"osm_id":"4104670701","tag":{"amenity":"waste_basket"}},"type":"Feature"},
	{"geometry":{"coordinates":[9.218188,48.679679],"type":"Point"},"properties":{"osm_id":"4104725097","tag":{"amenity":"waste_basket"}},"type":"Feature"},
	{"geometry":{"coordinates":[9.225243,48.680512],"type":"Point"},"properties":{"osm_id":"4105143624","tag":{"amenity":"waste_basket"}},"type":"Feature"},
	{"geometry":{"coordinates":[9.228469,48.680908],"type":"Point"},"properties":{"osm_id":"4105156474","tag":{"amenity":"waste_basket"}},"type":"Feature"},
	{"geometry":{"coordinates":[9.223827,48.681975],"type":"Point"},"properties":{"osm_id":"4105771512","tag":{"amenity":"waste_basket"}},"type":"Feature"},
	{"geometry":{"coordinates":[9.223824,48.682251],"type":"Point"},"properties":{"osm_id":"4105781459","tag":{"amenity":"waste_basket"}},"type":"Feature"},
	{"geometry":{"coordinates":[9.223989,48.681587],"type":"Point"},"properties":{"osm_id":"4105785183","tag":{"amenity":"recycling","recycling:clothes":"yes","recycling_type":"container"}},"type":"Feature"},
	{"geometry":{"coordinates":[9.216543,48.677477],"type":"Point"},"properties":{"osm_id":"4133409623","tag":{"amenity":"waste_basket"}},"type":"Feature"},
	{"geometry":{"coordinates":[9.201218,48.65967],"type":"Point"},"properties":{"osm_id":"4174643902","tag":{"amenity":"recycling","clothes":"yes","recycling_type":"container"}},"type":"Feature"},
	{"geometry":{"coordinates":[9.21866,48.687057],"type":"Point"},"properties":{"osm_id":"4210369706","tag":{"amenity":"waste_basket"}},"type":"Feature"},
	{"geometry":{"coordinates":[9.219475,48.680243],"type":"Point"},"properties":{"osm_id":"4262580566","tag":{"amenity":"recycling","recycling:clothes":"yes","recycling:shoes":"yes","recycling_type":"container"}},"type":"Feature"},
	{"geometry":{"coordinates":[9.215904,48.678376],"type":"Point"},"properties":{"osm_id":"4288622292","tag":{"amenity":"waste_basket"}},"type":"Feature"},
	{"geometry":{"coordinates":[9.215952,48.678303],"type":"Point"},"properties":{"osm_id":"4288627505","tag":{"amenity":"waste_basket"}},"type":"Feature"},
	{"geometry":{"coordinates":[9.225091,48.678919],"type":"Point"},"properties":{"osm_id":"4288656248","tag":{"amenity":"recycling","recycling:clothes":"yes","recycling:shoes":"yes","recycling_type":"container"}},"type":"Feature"},
	{"geometry":{"coordinates":[9.21253,48.681316],"type":"Point"},"properties":{"osm_id":"4415251561","tag":{"amenity":"waste_basket"}},"type":"Feature"},
	{"geometry":{"coordinates":[9.219967,48.676523],"type":"Point"},"properties":{"osm_id":"4419505600","tag":{"amenity":"waste_basket"}},"type":"Feature"},
	{"geometry":{"coordinates":[9.225646,48.67762],"type":"Point"},"properties":{"osm_id":"4419514326","tag":{"amenity":"waste_basket"}},"type":"Feature"},
	{"geometry":{"coordinates":[9.224492,48.677303],"type":"Point"},"properties":{"osm_id":"4419514616","tag":{"amenity":"waste_basket"}},"type":"Feature"},
	{"geometry":{"coordinates":[9.223679,48.67373],"type":"Point"},"properties":{"osm_id":"4419550897","tag":{"amenity":"waste_basket"}},"type":"Feature"},
	{"geometry":{"coordinates":[9.223697,48.673834],"type":"Point"},"properties":{"osm_id":"4419550898","tag":{"amenity":"waste_basket"}},"type":"Feature"},
	{"geometry":{"coordinates":[9.224385,48.673787],"type":"Point"},"properties":{"osm_id":"4419550944","tag":{"amenity":"waste_basket"}},"type":"Feature"},
	{"geometry":{"coordinates":[9.224379,48.673876],"type":"Point"},"properties":{"osm_id":"4419552395","tag":{"amenity":"waste_basket"}},"type":"Feature"},
	{"geometry":{"coordinates":[9.225982,48.674547],"type":"Point"},"properties":{"osm_id":"4419552455","tag":{"amenity":"waste_basket"}},"type":"Feature"},
	{"geometry":{"coordinates":[9.227482,48.67505],"type":"Point"},"properties":{"osm_id":"4419554364","tag":{"amenity":"waste_basket"}},"type":"Feature"},
	{"geometry":{"coordinates":[9.198159,48.644917],"type":"Point"},"properties":{"osm_id":"4680369831","tag":{"amenity":"waste_basket"}},"type":"Feature"},
	{"geometry":{"coordinates":[9.228414,48.67024],"type":"Point"},"properties":{"osm_id":"4904492800","tag":{"amenity":"waste_basket"}},"type":"Feature"},
	{"geometry":{"coordinates":[9.227217,48.669898],"type":"Point"},"properties":{"osm_id":"4904496405","tag":{"amenity":"waste_basket"}},"type":"Feature"},
	{"geometry":{"coordinates":[9.226546,48.673009],"type":"Point"},"properties":{"osm_id":"4904875512","tag":{"amenity":"recycling","recycling:clothes":"yes","recycling:shoes":"yes","recycling_type":"container"}},"type":"Feature"},
	{"geometry":{"coordinates":[9.161042,48.687407],"type":"Point"},"properties":{"osm_id":"5126050959","tag":{"amenity":"recycling","recycling:glass":"yes","recycling_type":"container"}},"type":"Feature"},
	{"geometry":{"coordinates":[9.222894,48.675335],"type":"Point"},"properties":{"osm_id":"5455121104","tag":{"amenity":"recycling","operator":"Aktion Hoffnung Rottenburg-Stuttgart e. V.","recycling:clothes":"yes","recycling_type":"container","website":"https://www.fairwertung.de"}},"type":"Feature"},
	{"geometry":{"coordinates":[9.197905,48.677939],"type":"Point"},"properties":{"osm_id":"5620217230","tag":{"amenity":"waste_basket"}},"type":"Feature"},
	{"geometry":{"coordinates":[9.198261,48.67785],"type":"Point"},"properties":{"osm_id":"5620217231","tag":{"amenity":"waste_basket"}},"type":"Feature"},
	{"geometry":{"coordinates":[9.182539,48.676005],"type":"Point"},"properties":{"barrier":"gate","osm_id":"5790144952"},"type":"Feature"},
	{"geometry":{"coordinates":[9.22587,48.677508],"type":"Point"},"properties":{"osm_id":"5828808450","tag":{"amenity":"recycling","recycling:clothes":"yes","recycling:shoes":"yes","recycling_type":"container"}},"type":"Feature"},
	{"geometry":{"coordinates":[9.196474,48.654451],"type":"Point"},"properties":{"osm_id":"5975090991","tag":{"amenity":"waste_basket"}},"type":"Feature"},
	{"geometry":{"coordinates":[9.206096,48.634458],"type":"Point"},"properties":{"osm_id":"6037599577","tag":{"amenity":"waste_basket"}},"type":"Feature"},
	{"geometry":{"coordinates":[9.206561,48.634529],"type":"Point"},"properties":{"osm_id":"6037602398","tag":{"amenity":"waste_basket"}},"type":"Feature"},
	{"geometry":{"coordinates":[9.206464,48.634633],"type":"Point"},"properties":{"osm_id":"6037607459","tag":{"amenity":"waste_basket"}},"type":"Feature"},
	{"geometry":{"coordinates":[9.149149,48.636333],"type":"Point"},"properties":{"osm_id":"6166237841","tag":{"amenity":"recycling","location":"overground","recycling:clothes":"yes","recycling:glass_bottles":"yes","recycling:shoes":"yes","recycling_type":"container"}},"type":"Feature"},
	{"geometry":{"coordinates":[9.150616,48.679321],"type":"Point"},"properties":{"osm_id":"6299537905","tag":{"amenity":"waste_basket"}},"type":"Feature"},
	{"geometry":{"coordinates":[9.200171,48.660827],"type":"Point"},"properties":{"osm_id":"6618334052","tag":{"amenity":"waste_basket"}},"type":"Feature"},
	{"geometry":{"coordinates":[9.161324,48.669322],"type":"Point"},"properties":{"osm_id":"6681471618","tag":{"amenity":"waste_basket","waste":"dog_excrement"}},"type":"Feature"},
	{"geometry":{"coordinates":[9.224416,48.680427],"type":"Point"},"properties":{"osm_id":"6958786541","tag":{"amenity":"waste_basket"}},"type":"Feature"}
]
}
