{
"type": "FeatureCollection",
"features": [
	{"geometry":{"coordinates":[9.215769,48.09186],"type":"Point"},"properties":{"osm_id":"764589636","tag":{"amenity":"recycling","recycling:clothes":"yes","recycling_type":"container"}},"type":"Feature"},
	{"geometry":{"coordinates":[9.192747,48.091415],"type":"Point"},"properties":{"osm_id":"1392025238","tag":{"amenity":"recycling","recycling_type":"container"}},"type":"Feature"},
	{"geometry":{"coordinates":[9.198412,48.091575],"type":"Point"},"properties":{"osm_id":"1392025244","tag":{"amenity":"waste_basket"}},"type":"Feature"},
	{"geometry":{"coordinates":[9.153416,48.092319],"type":"Point"},"properties":{"osm_id":"2323979142","tag":{"amenity":"recycling","recycling:clothes":"yes","recycling_type":"container"}},"type":"Feature"},
	{"geometry":{"coordinates":[9.206366,48.088776],"type":"Point"},"properties":{"osm_id":"2351455982","tag":{"amenity":"recycling","opening_hours":"Tu,Th,Fr 13:00-18:00; We 09:00-13:00; Sa 09:00-12:30","recycling:wood":"yes","recycling_type":"centre","website":"https://www.sigmaringen.de/k4cms/de/buerger/rathaus-und-buergerservice/was_erledige_ich_wo/82,0,71.html"}},"type":"Feature"},
	{"geometry":{"coordinates":[9.216855,48.087164],"type":"Point"},"properties":{"osm_id":"4195800122","tag":{"amenity":"recycling","recycling_type":"container"}},"type":"Feature"},
	{"geometry":{"coordinates":[9.219746,48.088029],"type":"Point"},"properties":{"osm_id":"4195800131","tag":{"amenity":"recycling","recycling_type":"container"}},"type":"Feature"},
	{"geometry":{"coordinates":[9.227301,48.079168],"type":"Point"},"properties":{"barrier":"gate","osm_id":"4202294009"},"type":"Feature"},
	{"geometry":{"coordinates":[9.227059,48.079675],"type":"Point"},"properties":{"barrier":"gate","osm_id":"4202294026"},"type":"Feature"},
	{"geometry":{"coordinates":[9.149508,48.093048],"type":"Point"},"properties":{"osm_id":"4439539060","tag":{"amenity":"recycling","recycling:glass":"yes","recycling_type":"container"}},"type":"Feature"},
	{"geometry":{"coordinates":[9.21564,48.086733],"type":"Point"},"properties":{"osm_id":"5192058985","tag":{"amenity":"waste_basket"}},"type":"Feature"},
	{"geometry":{"coordinates":[9.149288,48.09302],"type":"Point"},"properties":{"osm_id":"8592851729","tag":{"amenity":"waste_basket","colour":"green","material":"metal"}},"type":"Feature"},
	{"geometry":{"coordinates":[9.210159,48.08746],"type":"Point"},"properties":{"osm_id":"9014022609","tag":{"amenity":"waste_basket","waste":"trash"}},"type":"Feature"}
]
}
