{
"type": "FeatureCollection",
"lastupdate": "2020-08-02T00:00:00Z",
"features": [
	{"geometry":{"coordinates":[9.148157,47.769284],"type":"Point"},"properties":{"osm_id":"452092324","tag":{"amenity":"recycling"}},"type":"Feature"},
	{"geometry":{"coordinates":[9.213941,47.769421],"type":"Point"},"properties":{"osm_id":"529036550","tag":{"amenity":"recycling","recycling:glass_bottles":"yes","recycling_type":"container"}},"type":"Feature"},
	{"geometry":{"coordinates":[9.172889,47.809294],"type":"Point"},"properties":{"osm_id":"539699913","tag":{"amenity":"recycling","recycling:glass_bottles":"yes","recycling:paper":"yes","recycling_type":"container"}},"type":"Feature"},
	{"geometry":{"coordinates":[9.204462,47.783568],"type":"Point"},"properties":{"name":"Entsorgungszentrum \u00c3\u009cberlingen-F\u00c3\u00bcllenwaid","osm_id":"1624152112","tag":{"amenity":"recycling","recycling_type":"centre"}},"type":"Feature"},
	{"geometry":{"coordinates":[9.19982,47.773208],"type":"Point"},"properties":{"osm_id":"3760162576","tag":{"amenity":"waste_basket"}},"type":"Feature"},
	{"geometry":{"coordinates":[9.199315,47.773088],"type":"Point"},"properties":{"osm_id":"3760366650","tag":{"amenity":"waste_basket"}},"type":"Feature"},
	{"geometry":{"coordinates":[9.200447,47.773284],"type":"Point"},"properties":{"osm_id":"3760366655","tag":{"amenity":"waste_basket"}},"type":"Feature"},
	{"geometry":{"coordinates":[9.198739,47.772856],"type":"Point"},"properties":{"osm_id":"3760366961","tag":{"amenity":"waste_basket"}},"type":"Feature"},
	{"geometry":{"coordinates":[9.199417,47.772357],"type":"Point"},"properties":{"osm_id":"3760366962","tag":{"amenity":"waste_basket"}},"type":"Feature"},
	{"geometry":{"coordinates":[9.200108,47.773936],"type":"Point"},"properties":{"osm_id":"3768025605","tag":{"amenity":"waste_basket"}},"type":"Feature"},
	{"geometry":{"coordinates":[9.200148,47.77429],"type":"Point"},"properties":{"osm_id":"3768025606","tag":{"amenity":"waste_basket"}},"type":"Feature"},
	{"geometry":{"coordinates":[9.200581,47.773022],"type":"Point"},"properties":{"osm_id":"3816347528","tag":{"amenity":"waste_basket"}},"type":"Feature"},
	{"geometry":{"coordinates":[9.171774,47.761255],"type":"Point"},"properties":{"osm_id":"4447812717","tag":{"amenity":"waste_basket"}},"type":"Feature"},
	{"geometry":{"coordinates":[9.168597,47.76212],"type":"Point"},"properties":{"osm_id":"4447812719","tag":{"amenity":"waste_basket"}},"type":"Feature"},
	{"geometry":{"coordinates":[9.161827,47.764819],"type":"Point"},"properties":{"osm_id":"4447812743","tag":{"amenity":"waste_basket"}},"type":"Feature"},
	{"geometry":{"coordinates":[9.161617,47.764839],"type":"Point"},"properties":{"osm_id":"4447812744","tag":{"amenity":"waste_basket"}},"type":"Feature"},
	{"geometry":{"coordinates":[9.178021,47.759042],"type":"Point"},"properties":{"osm_id":"4447829476","tag":{"amenity":"waste_basket"}},"type":"Feature"},
	{"geometry":{"coordinates":[9.158895,47.766014],"type":"Point"},"properties":{"osm_id":"4837227584","tag":{"amenity":"waste_basket"}},"type":"Feature"},
	{"geometry":{"coordinates":[9.161894,47.768902],"type":"Point"},"properties":{"osm_id":"5316467431","tag":{"amenity":"waste_basket"}},"type":"Feature"},
	{"geometry":{"coordinates":[9.171981,47.80915],"type":"Point"},"properties":{"osm_id":"5357806213","tag":{"amenity":"waste_basket"}},"type":"Feature"},
	{"geometry":{"coordinates":[9.1717,47.808522],"type":"Point"},"properties":{"osm_id":"5357806214","tag":{"amenity":"waste_basket"}},"type":"Feature"},
	{"geometry":{"coordinates":[9.171004,47.807948],"type":"Point"},"properties":{"osm_id":"5357806215","tag":{"amenity":"waste_basket"}},"type":"Feature"},
	{"geometry":{"coordinates":[9.175266,47.810462],"type":"Point"},"properties":{"osm_id":"5357806218","tag":{"amenity":"waste_basket"}},"type":"Feature"},
	{"geometry":{"coordinates":[9.172146,47.809269],"type":"Point"},"properties":{"osm_id":"5443479154","tag":{"amenity":"waste_basket"}},"type":"Feature"},
	{"geometry":{"coordinates":[9.166324,47.810566],"type":"Point"},"properties":{"osm_id":"5451902075","tag":{"amenity":"recycling","recycling:shoes":"yes","recycling_type":"container"}},"type":"Feature"},
	{"geometry":{"coordinates":[9.189688,47.766021],"type":"Point"},"properties":{"osm_id":"5509438477","tag":{"amenity":"waste_basket"}},"type":"Feature"},
	{"geometry":{"coordinates":[9.195123,47.759425],"type":"Point"},"properties":{"osm_id":"5509438493","tag":{"amenity":"waste_basket"}},"type":"Feature"},
	{"geometry":{"coordinates":[9.202285,47.754801],"type":"Point"},"properties":{"osm_id":"5509438496","tag":{"amenity":"waste_basket"}},"type":"Feature"},
	{"geometry":{"coordinates":[9.217074,47.810331],"type":"Point"},"properties":{"osm_id":"5528944521","tag":{"amenity":"recycling","recycling:glass":"yes","recycling_type":"container"}},"type":"Feature"},
	{"geometry":{"coordinates":[9.162741,47.764485],"type":"Point"},"properties":{"osm_id":"5852186082","tag":{"amenity":"recycling","mapillary":"6INakWXrUbfq6NJblZH_LA","recycling:glass_bottles":"yes","recycling_type":"container","survey:date":"2016-07-06"}},"type":"Feature"},
	{"geometry":{"coordinates":[9.155433,47.768294],"type":"Point"},"properties":{"osm_id":"6206045915","tag":{"amenity":"waste_basket"}},"type":"Feature"},
	{"geometry":{"coordinates":[9.160362,47.766831],"type":"Point"},"properties":{"osm_id":"6206045964","tag":{"amenity":"waste_basket"}},"type":"Feature"},
	{"geometry":{"coordinates":[9.162885,47.769014],"type":"Point"},"properties":{"osm_id":"7256335382","tag":{"amenity":"waste_basket","waste":"trash"}},"type":"Feature"},
	{"geometry":{"coordinates":[9.187873,47.755073],"type":"Point"},"properties":{"osm_id":"7719515293","tag":{"amenity":"waste_basket","covered":"yes","waste":"trash"}},"type":"Feature"}
]
}
