{
"type": "FeatureCollection",
"features": [
	{"geometry":{"coordinates":[9.201699,47.524332],"type":"Point"},"properties":{"osm_id":"1770741248","tag":{"amenity":"waste_basket"}},"type":"Feature"},
	{"geometry":{"coordinates":[9.199657,47.525149],"type":"Point"},"properties":{"osm_id":"1770741269","tag":{"amenity":"recycling","recycling:batteries":"yes","recycling:cans":"yes","recycling:clothes":"yes","recycling:glass":"yes","recycling_type":"centre"}},"type":"Feature"},
	{"geometry":{"coordinates":[9.189615,47.528956],"type":"Point"},"properties":{"osm_id":"1770741288","tag":{"amenity":"waste_basket","bicycle":"yes","hiking":"yes","information":"guidepost","inline_skates":"yes","tourism":"information"}},"type":"Feature"},
	{"geometry":{"coordinates":[9.186375,47.531409],"type":"Point"},"properties":{"osm_id":"1770741293","tag":{"amenity":"waste_basket"}},"type":"Feature"},
	{"geometry":{"coordinates":[9.183765,47.534647],"type":"Point"},"properties":{"osm_id":"1770741298","tag":{"amenity":"waste_basket"}},"type":"Feature"},
	{"geometry":{"coordinates":[9.184284,47.538791],"type":"Point"},"properties":{"osm_id":"1770741305","tag":{"amenity":"waste_basket"}},"type":"Feature"},
	{"geometry":{"coordinates":[9.178999,47.539274],"type":"Point"},"properties":{"osm_id":"1770741310","tag":{"amenity":"waste_basket"}},"type":"Feature"},
	{"geometry":{"coordinates":[9.144952,47.549312],"type":"Point"},"properties":{"osm_id":"3166419070","tag":{"amenity":"waste_basket","hiking":"yes","information":"guidepost","tourism":"information"}},"type":"Feature"},
	{"geometry":{"coordinates":[9.190653,47.52537],"type":"Point"},"properties":{"osm_id":"3166572329","tag":{"amenity":"waste_basket"}},"type":"Feature"},
	{"geometry":{"coordinates":[9.179876,47.526728],"type":"Point"},"properties":{"osm_id":"3166577266","tag":{"amenity":"waste_basket"}},"type":"Feature"},
	{"geometry":{"coordinates":[9.184484,47.533975],"type":"Point"},"properties":{"osm_id":"3166746980","tag":{"amenity":"waste_basket"}},"type":"Feature"},
	{"geometry":{"coordinates":[9.184634,47.534685],"type":"Point"},"properties":{"osm_id":"3166746984","tag":{"amenity":"waste_basket"}},"type":"Feature"},
	{"geometry":{"coordinates":[9.184562,47.534795],"type":"Point"},"properties":{"osm_id":"3166746991","tag":{"amenity":"waste_basket"}},"type":"Feature"},
	{"geometry":{"coordinates":[9.183313,47.535442],"type":"Point"},"properties":{"osm_id":"3166747012","tag":{"amenity":"recycling","opening_hours":"Mo-Sa 07:00-20:00","recycling:batteries":"yes","recycling:cans":"yes","recycling:clothes":"yes","recycling:coffee_capsules":"yes","recycling:engine_oil":"yes","recycling:glass":"yes","recycling:paper":"yes","recycling_type":"container"}},"type":"Feature"},
	{"geometry":{"coordinates":[9.1832,47.535544],"type":"Point"},"properties":{"barrier":"gate","osm_id":"3166747016"},"type":"Feature"},
	{"geometry":{"coordinates":[9.183152,47.535602],"type":"Point"},"properties":{"barrier":"gate","osm_id":"3166747019"},"type":"Feature"},
	{"geometry":{"coordinates":[9.176312,47.530578],"type":"Point"},"properties":{"osm_id":"3166986268","tag":{"amenity":"waste_basket"}},"type":"Feature"},
	{"geometry":{"coordinates":[9.177275,47.540077],"type":"Point"},"properties":{"osm_id":"3166986313","tag":{"amenity":"recycling","recycling:clothes":"yes","recycling_type":"container"}},"type":"Feature"},
	{"geometry":{"coordinates":[9.174987,47.542722],"type":"Point"},"properties":{"osm_id":"3166986322","tag":{"amenity":"waste_basket"}},"type":"Feature"},
	{"geometry":{"coordinates":[9.159255,47.545176],"type":"Point"},"properties":{"osm_id":"3166986332","tag":{"amenity":"waste_basket"}},"type":"Feature"},
	{"geometry":{"coordinates":[9.18389,47.538989],"type":"Point"},"properties":{"osm_id":"4409558430","tag":{"amenity":"waste_basket"}},"type":"Feature"},
	{"geometry":{"coordinates":[9.225995,47.537181],"type":"Point"},"properties":{"osm_id":"5836326823","tag":{"amenity":"waste_basket"}},"type":"Feature"},
	{"geometry":{"coordinates":[9.146357,47.535459],"type":"Point"},"properties":{"osm_id":"7522407178","tag":{"amenity":"waste_disposal"}},"type":"Feature"},
	{"geometry":{"coordinates":[9.157035,47.550603],"type":"Point"},"properties":{"osm_id":"7523753628","tag":{"amenity":"waste_basket","waste":"dog_excrement"}},"type":"Feature"},
	{"geometry":{"coordinates":[9.180934,47.544321],"type":"Point"},"properties":{"osm_id":"9078979618","tag":{"amenity":"recycling","recycling_type":"container"}},"type":"Feature"},
	{"geometry":{"coordinates":[9.182909,47.542144],"type":"Point"},"properties":{"osm_id":"9078979619","tag":{"amenity":"recycling","recycling_type":"container"}},"type":"Feature"},
	{"geometry":{"coordinates":[9.181393,47.544001],"type":"Point"},"properties":{"osm_id":"9078979817","tag":{"amenity":"waste_disposal"}},"type":"Feature"}
]
}
