{
"type": "FeatureCollection",
"features": [
	{"geometry":{"coordinates":[9.200846,47.373296],"type":"Point"},"properties":{"osm_id":"4616700582","tag":{"amenity":"recycling","location":"underground","recycling:cans":"yes","recycling:clothes":"yes","recycling:glass_bottles":"yes","recycling_type":"container"}},"type":"Feature"},
	{"geometry":{"coordinates":[9.202693,47.371026],"type":"Point"},"properties":{"osm_id":"6419091882","tag":{"amenity":"recycling","location":"underground","recycling:waste":"yes"}},"type":"Feature"},
	{"geometry":{"coordinates":[9.20047,47.373048],"type":"Point"},"properties":{"osm_id":"6565703889","tag":{"amenity":"waste_basket"}},"type":"Feature"},
	{"geometry":{"coordinates":[9.200252,47.373113],"type":"Point"},"properties":{"osm_id":"6900648464","tag":{"amenity":"waste_basket"}},"type":"Feature"},
	{"geometry":{"coordinates":[9.200169,47.372969],"type":"Point"},"properties":{"osm_id":"6900648465","tag":{"amenity":"waste_basket"}},"type":"Feature"},
	{"geometry":{"coordinates":[9.190034,47.374184],"type":"Point"},"properties":{"osm_id":"7276919132","tag":{"amenity":"waste_disposal","location":"underground"}},"type":"Feature"},
	{"geometry":{"coordinates":[9.223079,47.387546],"type":"Point"},"properties":{"osm_id":"7683258916","tag":{"amenity":"waste_basket"}},"type":"Feature"}
]
}
