{
"type": "FeatureCollection",
"features": [
	{"geometry":{"coordinates":[9.18054,45.968835],"type":"Point"},"properties":{"osm_id":"678913609","tag":{"amenity":"recycling","recycling:clothes":"yes"}},"type":"Feature"},
	{"geometry":{"coordinates":[9.180257,45.971066],"type":"Point"},"properties":{"osm_id":"678938024","tag":{"amenity":"waste_basket"}},"type":"Feature"},
	{"geometry":{"coordinates":[9.179995,45.971343],"type":"Point"},"properties":{"osm_id":"678948090","tag":{"amenity":"recycling","recycling:glass":"yes"}},"type":"Feature"},
	{"geometry":{"coordinates":[9.180548,45.972836],"type":"Point"},"properties":{"osm_id":"683563678","tag":{"amenity":"recycling","recycling:glass":"yes","recycling_type":"container"}},"type":"Feature"},
	{"geometry":{"coordinates":[9.187352,45.976777],"type":"Point"},"properties":{"osm_id":"684666721","tag":{"amenity":"recycling","recycling:glass":"yes","recycling_type":"container"}},"type":"Feature"},
	{"geometry":{"coordinates":[9.218237,45.985676],"type":"Point"},"properties":{"osm_id":"1668345878","tag":{"amenity":"waste_basket"}},"type":"Feature"},
	{"geometry":{"coordinates":[9.227513,45.962222],"type":"Point"},"properties":{"osm_id":"2563903533","tag":{"amenity":"waste_basket"}},"type":"Feature"},
	{"geometry":{"coordinates":[9.179835,45.969827],"type":"Point"},"properties":{"osm_id":"2711230559","tag":{"amenity":"recycling","recycling:glass":"yes","recycling_type":"container"}},"type":"Feature"},
	{"geometry":{"coordinates":[9.181757,45.972924],"type":"Point"},"properties":{"osm_id":"2711230670","tag":{"amenity":"waste_basket"}},"type":"Feature"},
	{"geometry":{"coordinates":[9.182522,45.974141],"type":"Point"},"properties":{"osm_id":"2711230782","tag":{"amenity":"waste_basket"}},"type":"Feature"},
	{"geometry":{"coordinates":[9.207034,45.98485],"type":"Point"},"properties":{"osm_id":"2782485016","tag":{"amenity":"waste_basket"}},"type":"Feature"},
	{"geometry":{"coordinates":[9.193975,45.969331],"type":"Point"},"properties":{"osm_id":"3043013523","tag":{"amenity":"recycling","recycling:glass":"yes","recycling_type":"container"}},"type":"Feature"},
	{"geometry":{"coordinates":[9.193477,45.973656],"type":"Point"},"properties":{"osm_id":"3299400217","tag":{"amenity":"recycling","recycling:clothes":"yes","recycling_type":"container"}},"type":"Feature"},
	{"geometry":{"coordinates":[9.17023,45.966728],"type":"Point"},"properties":{"osm_id":"3315487799","tag":{"amenity":"recycling","recycling:glass":"yes","recycling_type":"container"}},"type":"Feature"},
	{"geometry":{"coordinates":[9.175397,45.969271],"type":"Point"},"properties":{"osm_id":"3315487831","tag":{"amenity":"recycling","recycling:glass":"yes","recycling_type":"container"}},"type":"Feature"},
	{"geometry":{"coordinates":[9.179546,45.971922],"type":"Point"},"properties":{"osm_id":"4503220684","tag":{"amenity":"waste_basket"}},"type":"Feature"},
	{"geometry":{"coordinates":[9.180233,45.971321],"type":"Point"},"properties":{"osm_id":"4503220893","tag":{"amenity":"recycling","recycling_type":"container"}},"type":"Feature"},
	{"geometry":{"coordinates":[9.183201,45.974277],"type":"Point"},"properties":{"osm_id":"4509603454","tag":{"amenity":"waste_basket"}},"type":"Feature"},
	{"geometry":{"coordinates":[9.19635,45.969695],"type":"Point"},"properties":{"osm_id":"5503080237","tag":{"amenity":"waste_basket"}},"type":"Feature"},
	{"geometry":{"coordinates":[9.195124,45.969406],"type":"Point"},"properties":{"osm_id":"5503137921","tag":{"amenity":"waste_basket"}},"type":"Feature"},
	{"geometry":{"coordinates":[9.15574,45.957784],"type":"Point"},"properties":{"osm_id":"6381191950","tag":{"amenity":"waste_basket"}},"type":"Feature"},
	{"geometry":{"coordinates":[9.157834,45.959636],"type":"Point"},"properties":{"osm_id":"6386817974","tag":{"amenity":"waste_basket"}},"type":"Feature"},
	{"geometry":{"coordinates":[9.168244,45.964614],"type":"Point"},"properties":{"osm_id":"6394896228","tag":{"amenity":"waste_basket"}},"type":"Feature"},
	{"geometry":{"coordinates":[9.16857,45.964631],"type":"Point"},"properties":{"osm_id":"6394896254","tag":{"amenity":"waste_basket"}},"type":"Feature"},
	{"geometry":{"coordinates":[9.169428,45.965888],"type":"Point"},"properties":{"osm_id":"6399568981","tag":{"amenity":"waste_basket"}},"type":"Feature"},
	{"geometry":{"coordinates":[9.16855,45.965852],"type":"Point"},"properties":{"osm_id":"6401340264","tag":{"amenity":"waste_basket"}},"type":"Feature"},
	{"geometry":{"coordinates":[9.174442,45.968714],"type":"Point"},"properties":{"osm_id":"6404802642","tag":{"amenity":"waste_basket"}},"type":"Feature"},
	{"geometry":{"coordinates":[9.185116,45.967662],"type":"Point"},"properties":{"osm_id":"6415205035","tag":{"amenity":"waste_basket"}},"type":"Feature"},
	{"geometry":{"coordinates":[9.175966,45.969234],"type":"Point"},"properties":{"osm_id":"6415205883","tag":{"amenity":"waste_basket"}},"type":"Feature"},
	{"geometry":{"coordinates":[9.176416,45.969793],"type":"Point"},"properties":{"osm_id":"6415205907","tag":{"amenity":"waste_basket"}},"type":"Feature"},
	{"geometry":{"coordinates":[9.19766,45.977394],"type":"Point"},"properties":{"osm_id":"6665964088","tag":{"amenity":"waste_basket"}},"type":"Feature"},
	{"geometry":{"coordinates":[9.226623,45.991694],"type":"Point"},"properties":{"osm_id":"7253690406","tag":{"amenity":"waste_basket","mapillary":"GWhT78IcIntA0y08K41H6Q","waste":"trash"}},"type":"Feature"}
]
}
