{
"type": "FeatureCollection",
"features": [
	{"geometry":{"coordinates":[9.154801,45.908722],"type":"Point"},"properties":{"osm_id":"2344990410","tag":{"amenity":"recycling","recycling:glass":"yes","recycling_type":"container"}},"type":"Feature"},
	{"geometry":{"coordinates":[9.155196,45.892259],"type":"Point"},"properties":{"osm_id":"2374361656","tag":{"description":"segnavia della Strada Regia: \"<- CARENO M.ti CARENO - NESSO minuti 160\"","hiking":"yes","information":"guidepost","mapillary":"UJALV0xn365hA9eyf3qZyA","operator":"Comunit\u00c3\u00a0 Montana Triangolo Lariano","support":"fence","tourism":"information"}},"type":"Feature"},
	{"geometry":{"coordinates":[9.155192,45.892324],"type":"Point"},"properties":{"barrier":"gate","osm_id":"2374361660","tag":{"access":"customers","opening_hours":"Tu 09:00-12:00; We 13:30-16:30; Sa 09:00-12:00,13:30-16:30"}},"type":"Feature"},
	{"geometry":{"coordinates":[9.155315,45.892544],"type":"Point"},"properties":{"barrier":"gate","osm_id":"2374361668"},"type":"Feature"},
	{"geometry":{"coordinates":[9.155209,45.892638],"type":"Point"},"properties":{"osm_id":"2374361672","tag":{"amenity":"recycling","recycling:clothes":"yes","recycling_type":"container"}},"type":"Feature"},
	{"geometry":{"coordinates":[9.153838,45.895853],"type":"Point"},"properties":{"osm_id":"2383781683","tag":{"amenity":"waste_basket"}},"type":"Feature"},
	{"geometry":{"coordinates":[9.153607,45.896159],"type":"Point"},"properties":{"osm_id":"2383781986","tag":{"amenity":"waste_basket"}},"type":"Feature"},
	{"geometry":{"coordinates":[9.155763,45.90991],"type":"Point"},"properties":{"osm_id":"2553637074","tag":{"amenity":"waste_basket"}},"type":"Feature"},
	{"geometry":{"coordinates":[9.155899,45.910229],"type":"Point"},"properties":{"osm_id":"2553637120","tag":{"amenity":"waste_basket","mapillary":"2n0J7UkajuTMQcigRnKhIw"}},"type":"Feature"},
	{"geometry":{"coordinates":[9.157113,45.91088],"type":"Point"},"properties":{"osm_id":"2554991071","tag":{"amenity":"waste_basket"}},"type":"Feature"},
	{"geometry":{"coordinates":[9.157253,45.911146],"type":"Point"},"properties":{"osm_id":"2554991264","tag":{"amenity":"waste_basket"}},"type":"Feature"},
	{"geometry":{"coordinates":[9.158609,45.912501],"type":"Point"},"properties":{"osm_id":"2554991761","tag":{"amenity":"waste_basket"}},"type":"Feature"},
	{"geometry":{"coordinates":[9.192585,45.94608],"type":"Point"},"properties":{"osm_id":"2560800666","tag":{"amenity":"recycling","recycling:clothes":"yes","recycling_type":"container"}},"type":"Feature"},
	{"geometry":{"coordinates":[9.208982,45.94835],"type":"Point"},"properties":{"osm_id":"2563903077","tag":{"amenity":"recycling","recycling:glass":"yes","recycling_type":"container"}},"type":"Feature"},
	{"geometry":{"coordinates":[9.211527,45.949145],"type":"Point"},"properties":{"osm_id":"2563903277","tag":{"amenity":"waste_basket"}},"type":"Feature"},
	{"geometry":{"coordinates":[9.211907,45.950567],"type":"Point"},"properties":{"barrier":"gate","osm_id":"2563903334","tag":{"opening_hours":"Tu 15:00-18:00; Th 11:00-13:00; Sa 09:00-15:00"}},"type":"Feature"},
	{"geometry":{"coordinates":[9.205481,45.948315],"type":"Point"},"properties":{"osm_id":"3817155765","tag":{"amenity":"waste_disposal"}},"type":"Feature"},
	{"geometry":{"coordinates":[9.203921,45.947026],"type":"Point"},"properties":{"osm_id":"3820622677","tag":{"amenity":"recycling","recycling:batteries":"yes","recycling:paper":"yes","recycling:plastic":"yes","recycling:waste":"yes","recycling_type":"container"}},"type":"Feature"},
	{"geometry":{"coordinates":[9.204199,45.947816],"type":"Point"},"properties":{"osm_id":"3826224671","tag":{"amenity":"recycling","recycling:glass_bottles":"yes","recycling_type":"container"}},"type":"Feature"},
	{"geometry":{"coordinates":[9.201461,45.946634],"type":"Point"},"properties":{"osm_id":"3826357254","tag":{"amenity":"waste_disposal"}},"type":"Feature"},
	{"geometry":{"coordinates":[9.203533,45.947956],"type":"Point"},"properties":{"osm_id":"3826358867","tag":{"amenity":"waste_disposal"}},"type":"Feature"},
	{"geometry":{"coordinates":[9.182802,45.945079],"type":"Point"},"properties":{"osm_id":"5354194121","tag":{"amenity":"recycling","name:en":"Recycling bins - Paper, Plastic, Glass, General waste"}},"type":"Feature"},
	{"geometry":{"coordinates":[9.154888,45.910914],"type":"Point"},"properties":{"osm_id":"6183344831","tag":{"amenity":"waste_basket"}},"type":"Feature"},
	{"geometry":{"coordinates":[9.154526,45.894368],"type":"Point"},"properties":{"osm_id":"6184444220","tag":{"amenity":"waste_basket"}},"type":"Feature"},
	{"geometry":{"coordinates":[9.153267,45.916448],"type":"Point"},"properties":{"osm_id":"6195861311","tag":{"amenity":"waste_basket"}},"type":"Feature"},
	{"geometry":{"coordinates":[9.158379,45.912558],"type":"Point"},"properties":{"osm_id":"6196091342","tag":{"amenity":"waste_basket"}},"type":"Feature"},
	{"geometry":{"coordinates":[9.154033,45.91394],"type":"Point"},"properties":{"osm_id":"6199667583","tag":{"amenity":"waste_basket"}},"type":"Feature"},
	{"geometry":{"coordinates":[9.157041,45.910652],"type":"Point"},"properties":{"osm_id":"6201649685","tag":{"amenity":"waste_basket"}},"type":"Feature"},
	{"geometry":{"coordinates":[9.180924,45.910177],"type":"Point"},"properties":{"osm_id":"6311901341","tag":{"amenity":"waste_basket","waste":"trash"}},"type":"Feature"},
	{"geometry":{"coordinates":[9.186472,45.945277],"type":"Point"},"properties":{"osm_id":"6652858705","tag":{"amenity":"recycling","name:en":"paper,  glas, general","recycling_type":"container"}},"type":"Feature"},
	{"geometry":{"coordinates":[9.18576,45.905727],"type":"Point"},"properties":{"osm_id":"6854307845","tag":{"amenity":"waste_basket","waste":"trash"}},"type":"Feature"},
	{"geometry":{"coordinates":[9.212255,45.896581],"type":"Point"},"properties":{"osm_id":"6876308687","tag":{"amenity":"recycling","recycling:glass":"yes","recycling_type":"container"}},"type":"Feature"},
	{"geometry":{"coordinates":[9.167093,45.910387],"type":"Point"},"properties":{"osm_id":"7274242241","tag":{"amenity":"waste_basket","waste":"trash"}},"type":"Feature"},
	{"geometry":{"coordinates":[9.194967,45.946341],"type":"Point"},"properties":{"osm_id":"7925068719","tag":{"amenity":"waste_basket"}},"type":"Feature"}
]
}
