{
"type": "FeatureCollection",
"features": [
	{"geometry":{"coordinates":[9.176177,45.695728],"type":"Point"},"properties":{"highway":"traffic_signals","osm_id":"977660485","tag":{"traffic_signals":"pedestrian"}},"type":"Feature"},
	{"geometry":{"coordinates":[9.154602,45.665008],"type":"Point"},"properties":{"osm_id":"2520484675","tag":{"amenity":"waste_basket"}},"type":"Feature"},
	{"geometry":{"coordinates":[9.158287,45.657522],"type":"Point"},"properties":{"osm_id":"2703909281","tag":{"amenity":"recycling","recycling:clothes":"yes","recycling_type":"container"}},"type":"Feature"},
	{"geometry":{"coordinates":[9.172942,45.658123],"type":"Point"},"properties":{"osm_id":"2703919457","tag":{"amenity":"recycling","recycling:clothes":"yes","recycling_type":"container"}},"type":"Feature"},
	{"geometry":{"coordinates":[9.171054,45.662789],"type":"Point"},"properties":{"osm_id":"2703930807","tag":{"amenity":"recycling","recycling:clothes":"yes","recycling_type":"container"}},"type":"Feature"},
	{"geometry":{"coordinates":[9.169582,45.661584],"type":"Point"},"properties":{"osm_id":"2703937535","tag":{"amenity":"recycling","recycling:clothes":"yes","recycling_type":"container"}},"type":"Feature"},
	{"geometry":{"coordinates":[9.207141,45.64647],"type":"Point"},"properties":{"osm_id":"2714914502","tag":{"amenity":"waste_basket"}},"type":"Feature"},
	{"geometry":{"coordinates":[9.207146,45.646126],"type":"Point"},"properties":{"osm_id":"2714914542","tag":{"amenity":"waste_basket"}},"type":"Feature"},
	{"geometry":{"coordinates":[9.206928,45.646125],"type":"Point"},"properties":{"osm_id":"2714915034","tag":{"amenity":"waste_basket"}},"type":"Feature"},
	{"geometry":{"coordinates":[9.194053,45.653938],"type":"Point"},"properties":{"osm_id":"4046417254","tag":{"amenity":"recycling","recycling:clothes":"yes","recycling_type":"container"}},"type":"Feature"},
	{"geometry":{"coordinates":[9.194006,45.653689],"type":"Point"},"properties":{"osm_id":"4046417262","tag":{"amenity":"waste_basket"}},"type":"Feature"},
	{"geometry":{"coordinates":[9.22847,45.679367],"type":"Point"},"properties":{"osm_id":"4230452195","tag":{"amenity":"waste_basket"}},"type":"Feature"},
	{"geometry":{"coordinates":[9.20536,45.650514],"type":"Point"},"properties":{"osm_id":"4986330477","tag":{"amenity":"waste_basket"}},"type":"Feature"},
	{"geometry":{"coordinates":[9.205333,45.650401],"type":"Point"},"properties":{"osm_id":"4986334406","tag":{"amenity":"waste_basket"}},"type":"Feature"},
	{"geometry":{"coordinates":[9.205116,45.650453],"type":"Point"},"properties":{"osm_id":"4986334410","tag":{"amenity":"waste_basket"}},"type":"Feature"},
	{"geometry":{"coordinates":[9.205239,45.649893],"type":"Point"},"properties":{"osm_id":"4986334415","tag":{"amenity":"waste_basket"}},"type":"Feature"},
	{"geometry":{"coordinates":[9.205788,45.650643],"type":"Point"},"properties":{"osm_id":"4986334741","tag":{"amenity":"waste_basket"}},"type":"Feature"},
	{"geometry":{"coordinates":[9.205784,45.650533],"type":"Point"},"properties":{"osm_id":"4986334742","tag":{"amenity":"waste_basket"}},"type":"Feature"},
	{"geometry":{"coordinates":[9.206674,45.649666],"type":"Point"},"properties":{"osm_id":"4986335121","tag":{"amenity":"waste_basket"}},"type":"Feature"},
	{"geometry":{"coordinates":[9.206411,45.649649],"type":"Point"},"properties":{"osm_id":"4986335132","tag":{"amenity":"waste_basket"}},"type":"Feature"},
	{"geometry":{"coordinates":[9.206581,45.649379],"type":"Point"},"properties":{"osm_id":"4986335134","tag":{"amenity":"waste_basket"}},"type":"Feature"},
	{"geometry":{"coordinates":[9.205101,45.649199],"type":"Point"},"properties":{"osm_id":"4986335175","tag":{"amenity":"waste_basket"}},"type":"Feature"},
	{"geometry":{"coordinates":[9.205328,45.649542],"type":"Point"},"properties":{"osm_id":"4986335212","tag":{"amenity":"waste_basket"}},"type":"Feature"},
	{"geometry":{"coordinates":[9.205631,45.649583],"type":"Point"},"properties":{"osm_id":"4986335654","tag":{"amenity":"waste_basket"}},"type":"Feature"},
	{"geometry":{"coordinates":[9.205012,45.649028],"type":"Point"},"properties":{"osm_id":"4986335690","tag":{"amenity":"waste_basket"}},"type":"Feature"},
	{"geometry":{"coordinates":[9.203749,45.648854],"type":"Point"},"properties":{"osm_id":"4986336136","tag":{"amenity":"waste_basket"}},"type":"Feature"},
	{"geometry":{"coordinates":[9.204723,45.648883],"type":"Point"},"properties":{"osm_id":"4986336163","tag":{"amenity":"waste_basket"}},"type":"Feature"},
	{"geometry":{"coordinates":[9.204866,45.648803],"type":"Point"},"properties":{"osm_id":"4986336164","tag":{"amenity":"waste_basket"}},"type":"Feature"},
	{"geometry":{"coordinates":[9.204598,45.647955],"type":"Point"},"properties":{"osm_id":"4986336188","tag":{"amenity":"waste_basket"}},"type":"Feature"},
	{"geometry":{"coordinates":[9.203112,45.647661],"type":"Point"},"properties":{"osm_id":"4986336210","tag":{"amenity":"waste_basket"}},"type":"Feature"},
	{"geometry":{"coordinates":[9.204606,45.64776],"type":"Point"},"properties":{"osm_id":"4986336214","tag":{"amenity":"waste_basket"}},"type":"Feature"},
	{"geometry":{"coordinates":[9.204503,45.647088],"type":"Point"},"properties":{"osm_id":"4986337038","tag":{"amenity":"waste_basket"}},"type":"Feature"},
	{"geometry":{"coordinates":[9.203812,45.646681],"type":"Point"},"properties":{"osm_id":"4986337071","tag":{"amenity":"waste_basket"}},"type":"Feature"},
	{"geometry":{"coordinates":[9.203004,45.646519],"type":"Point"},"properties":{"osm_id":"4986337085","tag":{"amenity":"waste_basket"}},"type":"Feature"},
	{"geometry":{"coordinates":[9.203069,45.64622],"type":"Point"},"properties":{"osm_id":"4986337087","tag":{"amenity":"waste_basket"}},"type":"Feature"},
	{"geometry":{"coordinates":[9.203532,45.65015],"type":"Point"},"properties":{"osm_id":"5091201782","tag":{"amenity":"waste_basket"}},"type":"Feature"},
	{"geometry":{"coordinates":[9.203462,45.650156],"type":"Point"},"properties":{"osm_id":"5091201783","tag":{"amenity":"waste_basket"}},"type":"Feature"},
	{"geometry":{"coordinates":[9.203543,45.650734],"type":"Point"},"properties":{"osm_id":"5091201810","tag":{"amenity":"waste_basket"}},"type":"Feature"},
	{"geometry":{"coordinates":[9.2019,45.647517],"type":"Point"},"properties":{"osm_id":"5091203096","tag":{"amenity":"waste_basket"}},"type":"Feature"},
	{"geometry":{"coordinates":[9.202565,45.647671],"type":"Point"},"properties":{"osm_id":"5091203103","tag":{"amenity":"waste_basket"}},"type":"Feature"},
	{"geometry":{"coordinates":[9.202418,45.647504],"type":"Point"},"properties":{"osm_id":"5091203104","tag":{"amenity":"waste_basket"}},"type":"Feature"},
	{"geometry":{"coordinates":[9.203729,45.649767],"type":"Point"},"properties":{"osm_id":"5091203743","tag":{"amenity":"waste_basket"}},"type":"Feature"},
	{"geometry":{"coordinates":[9.203255,45.648715],"type":"Point"},"properties":{"osm_id":"5091203782","tag":{"amenity":"waste_basket"}},"type":"Feature"},
	{"geometry":{"coordinates":[9.203504,45.648601],"type":"Point"},"properties":{"osm_id":"5091203789","tag":{"amenity":"waste_basket"}},"type":"Feature"},
	{"geometry":{"coordinates":[9.203319,45.648412],"type":"Point"},"properties":{"osm_id":"5091203798","tag":{"amenity":"waste_basket"}},"type":"Feature"},
	{"geometry":{"coordinates":[9.202391,45.649177],"type":"Point"},"properties":{"osm_id":"5091203810","tag":{"amenity":"waste_basket"}},"type":"Feature"},
	{"geometry":{"coordinates":[9.202249,45.64868],"type":"Point"},"properties":{"osm_id":"5091203818","tag":{"amenity":"waste_basket"}},"type":"Feature"},
	{"geometry":{"coordinates":[9.203831,45.649795],"type":"Point"},"properties":{"osm_id":"5091203875","tag":{"amenity":"waste_basket"}},"type":"Feature"},
	{"geometry":{"coordinates":[9.206766,45.64504],"type":"Point"},"properties":{"osm_id":"5166981270","tag":{"amenity":"waste_basket"}},"type":"Feature"},
	{"geometry":{"coordinates":[9.206052,45.645046],"type":"Point"},"properties":{"osm_id":"5166981281","tag":{"amenity":"waste_basket"}},"type":"Feature"},
	{"geometry":{"coordinates":[9.205126,45.645019],"type":"Point"},"properties":{"osm_id":"5166981290","tag":{"amenity":"waste_basket"}},"type":"Feature"},
	{"geometry":{"coordinates":[9.204885,45.645756],"type":"Point"},"properties":{"osm_id":"5166981307","tag":{"amenity":"waste_basket"}},"type":"Feature"},
	{"geometry":{"coordinates":[9.207538,45.6489],"type":"Point"},"properties":{"osm_id":"5166985263","tag":{"amenity":"waste_basket"}},"type":"Feature"},
	{"geometry":{"coordinates":[9.20621,45.648702],"type":"Point"},"properties":{"osm_id":"5166985287","tag":{"amenity":"waste_basket"}},"type":"Feature"},
	{"geometry":{"coordinates":[9.207951,45.646891],"type":"Point"},"properties":{"osm_id":"5166987409","tag":{"amenity":"waste_basket"}},"type":"Feature"},
	{"geometry":{"coordinates":[9.207686,45.64696],"type":"Point"},"properties":{"osm_id":"5166988722","tag":{"amenity":"waste_basket"}},"type":"Feature"},
	{"geometry":{"coordinates":[9.206929,45.646882],"type":"Point"},"properties":{"osm_id":"5166988965","tag":{"amenity":"waste_basket"}},"type":"Feature"},
	{"geometry":{"coordinates":[9.205575,45.64702],"type":"Point"},"properties":{"osm_id":"5166988973","tag":{"amenity":"waste_basket"}},"type":"Feature"},
	{"geometry":{"coordinates":[9.205553,45.645876],"type":"Point"},"properties":{"osm_id":"5166989007","tag":{"amenity":"waste_basket"}},"type":"Feature"},
	{"geometry":{"coordinates":[9.200572,45.648044],"type":"Point"},"properties":{"osm_id":"5301852718","tag":{"amenity":"waste_basket"}},"type":"Feature"},
	{"geometry":{"coordinates":[9.200535,45.649223],"type":"Point"},"properties":{"osm_id":"5301853207","tag":{"amenity":"waste_basket"}},"type":"Feature"},
	{"geometry":{"coordinates":[9.200889,45.647476],"type":"Point"},"properties":{"osm_id":"5301853232","tag":{"amenity":"waste_basket"}},"type":"Feature"},
	{"geometry":{"coordinates":[9.198016,45.649595],"type":"Point"},"properties":{"osm_id":"5301853310","tag":{"amenity":"waste_basket"}},"type":"Feature"},
	{"geometry":{"coordinates":[9.198649,45.649589],"type":"Point"},"properties":{"osm_id":"5301853311","tag":{"amenity":"waste_basket"}},"type":"Feature"},
	{"geometry":{"coordinates":[9.201208,45.649878],"type":"Point"},"properties":{"osm_id":"5301853425","tag":{"amenity":"waste_basket"}},"type":"Feature"},
	{"geometry":{"coordinates":[9.202662,45.649842],"type":"Point"},"properties":{"osm_id":"5301853456","tag":{"amenity":"waste_basket"}},"type":"Feature"},
	{"geometry":{"coordinates":[9.202659,45.649921],"type":"Point"},"properties":{"osm_id":"5301853460","tag":{"amenity":"waste_basket"}},"type":"Feature"},
	{"geometry":{"coordinates":[9.201468,45.649998],"type":"Point"},"properties":{"osm_id":"5301853461","tag":{"amenity":"waste_basket"}},"type":"Feature"},
	{"geometry":{"coordinates":[9.201396,45.649968],"type":"Point"},"properties":{"osm_id":"5301853462","tag":{"amenity":"waste_basket"}},"type":"Feature"},
	{"geometry":{"coordinates":[9.202007,45.649979],"type":"Point"},"properties":{"osm_id":"5301853463","tag":{"amenity":"waste_basket"}},"type":"Feature"},
	{"geometry":{"coordinates":[9.202129,45.649842],"type":"Point"},"properties":{"osm_id":"5301853490","tag":{"amenity":"waste_basket"}},"type":"Feature"},
	{"geometry":{"coordinates":[9.201876,45.645308],"type":"Point"},"properties":{"osm_id":"5420077949","tag":{"amenity":"waste_basket"}},"type":"Feature"},
	{"geometry":{"coordinates":[9.200784,45.647128],"type":"Point"},"properties":{"osm_id":"5420077950","tag":{"amenity":"waste_basket"}},"type":"Feature"},
	{"geometry":{"coordinates":[9.204733,45.651127],"type":"Point"},"properties":{"osm_id":"5552237818","tag":{"amenity":"waste_basket"}},"type":"Feature"},
	{"geometry":{"coordinates":[9.20613,45.650695],"type":"Point"},"properties":{"osm_id":"5552238399","tag":{"amenity":"waste_basket"}},"type":"Feature"},
	{"geometry":{"coordinates":[9.204773,45.651215],"type":"Point"},"properties":{"osm_id":"5552238551","tag":{"amenity":"waste_basket"}},"type":"Feature"},
	{"geometry":{"coordinates":[9.204724,45.652081],"type":"Point"},"properties":{"osm_id":"5552238576","tag":{"amenity":"waste_basket"}},"type":"Feature"},
	{"geometry":{"coordinates":[9.205092,45.651779],"type":"Point"},"properties":{"osm_id":"5552238580","tag":{"amenity":"waste_basket"}},"type":"Feature"},
	{"geometry":{"coordinates":[9.204816,45.651777],"type":"Point"},"properties":{"osm_id":"5552238581","tag":{"amenity":"waste_basket"}},"type":"Feature"},
	{"geometry":{"coordinates":[9.208123,45.65089],"type":"Point"},"properties":{"osm_id":"5552238934","tag":{"amenity":"waste_basket"}},"type":"Feature"},
	{"geometry":{"coordinates":[9.207281,45.650172],"type":"Point"},"properties":{"osm_id":"5552238940","tag":{"amenity":"waste_basket"}},"type":"Feature"},
	{"geometry":{"coordinates":[9.207938,45.650108],"type":"Point"},"properties":{"osm_id":"5552238948","tag":{"amenity":"waste_basket"}},"type":"Feature"},
	{"geometry":{"coordinates":[9.208254,45.649488],"type":"Point"},"properties":{"osm_id":"5552238988","tag":{"amenity":"waste_basket"}},"type":"Feature"},
	{"geometry":{"coordinates":[9.208225,45.649255],"type":"Point"},"properties":{"osm_id":"5552238989","tag":{"amenity":"waste_basket"}},"type":"Feature"},
	{"geometry":{"coordinates":[9.207366,45.64966],"type":"Point"},"properties":{"osm_id":"5552238995","tag":{"amenity":"waste_basket"}},"type":"Feature"},
	{"geometry":{"coordinates":[9.207174,45.649694],"type":"Point"},"properties":{"osm_id":"5552238996","tag":{"amenity":"waste_basket"}},"type":"Feature"},
	{"geometry":{"coordinates":[9.207911,45.649227],"type":"Point"},"properties":{"osm_id":"5552239015","tag":{"amenity":"waste_basket"}},"type":"Feature"},
	{"geometry":{"coordinates":[9.206979,45.649109],"type":"Point"},"properties":{"osm_id":"5552239016","tag":{"amenity":"waste_basket"}},"type":"Feature"},
	{"geometry":{"coordinates":[9.201374,45.650527],"type":"Point"},"properties":{"osm_id":"5761377036","tag":{"amenity":"waste_basket"}},"type":"Feature"},
	{"geometry":{"coordinates":[9.202573,45.651085],"type":"Point"},"properties":{"osm_id":"5761377247","tag":{"amenity":"waste_basket"}},"type":"Feature"},
	{"geometry":{"coordinates":[9.203999,45.651094],"type":"Point"},"properties":{"osm_id":"5761377320","tag":{"amenity":"waste_basket"}},"type":"Feature"},
	{"geometry":{"coordinates":[9.22626,45.651833],"type":"Point"},"properties":{"osm_id":"5790170880","tag":{"amenity":"waste_basket"}},"type":"Feature"},
	{"geometry":{"coordinates":[9.212103,45.64786],"type":"Point"},"properties":{"osm_id":"6110507522","tag":{"amenity":"waste_basket"}},"type":"Feature"},
	{"geometry":{"coordinates":[9.210277,45.648023],"type":"Point"},"properties":{"osm_id":"6110507539","tag":{"amenity":"waste_basket"}},"type":"Feature"},
	{"geometry":{"coordinates":[9.210344,45.648948],"type":"Point"},"properties":{"osm_id":"6110507567","tag":{"amenity":"waste_basket"}},"type":"Feature"},
	{"geometry":{"coordinates":[9.212208,45.64888],"type":"Point"},"properties":{"osm_id":"6110507589","tag":{"amenity":"waste_basket"}},"type":"Feature"},
	{"geometry":{"coordinates":[9.208579,45.648408],"type":"Point"},"properties":{"osm_id":"6110508119","tag":{"amenity":"waste_basket"}},"type":"Feature"},
	{"geometry":{"coordinates":[9.208614,45.648974],"type":"Point"},"properties":{"osm_id":"6110508122","tag":{"amenity":"waste_basket"}},"type":"Feature"},
	{"geometry":{"coordinates":[9.208557,45.647963],"type":"Point"},"properties":{"osm_id":"6110508123","tag":{"amenity":"waste_basket"}},"type":"Feature"},
	{"geometry":{"coordinates":[9.208573,45.6481],"type":"Point"},"properties":{"osm_id":"6110508124","tag":{"amenity":"waste_basket"}},"type":"Feature"},
	{"geometry":{"coordinates":[9.212076,45.646953],"type":"Point"},"properties":{"osm_id":"6110508149","tag":{"amenity":"waste_basket"}},"type":"Feature"},
	{"geometry":{"coordinates":[9.209078,45.646876],"type":"Point"},"properties":{"osm_id":"6110508156","tag":{"amenity":"waste_basket"}},"type":"Feature"},
	{"geometry":{"coordinates":[9.211253,45.645406],"type":"Point"},"properties":{"osm_id":"6110508641","tag":{"amenity":"waste_basket"}},"type":"Feature"},
	{"geometry":{"coordinates":[9.211309,45.645035],"type":"Point"},"properties":{"osm_id":"6110508652","tag":{"amenity":"waste_basket"}},"type":"Feature"},
	{"geometry":{"coordinates":[9.185917,45.66896],"type":"Point"},"properties":{"osm_id":"6341128816","tag":{"amenity":"recycling","recycling:clothes":"yes","recycling_type":"container"}},"type":"Feature"},
	{"geometry":{"coordinates":[9.201035,45.647228],"type":"Point"},"properties":{"osm_id":"6776337552","tag":{"amenity":"waste_basket","waste":"trash"}},"type":"Feature"},
	{"geometry":{"coordinates":[9.200967,45.647304],"type":"Point"},"properties":{"osm_id":"6776337553","tag":{"amenity":"waste_basket","waste":"trash"}},"type":"Feature"},
	{"geometry":{"coordinates":[9.159171,45.691148],"type":"Point"},"properties":{"osm_id":"6867235114","tag":{"amenity":"waste_basket","waste":"trash"}},"type":"Feature"},
	{"geometry":{"coordinates":[9.158663,45.690245],"type":"Point"},"properties":{"osm_id":"6867246255","tag":{"amenity":"waste_basket","waste":"trash"}},"type":"Feature"},
	{"geometry":{"coordinates":[9.159323,45.691601],"type":"Point"},"properties":{"osm_id":"6867265824","tag":{"amenity":"waste_basket","waste":"trash"}},"type":"Feature"},
	{"geometry":{"coordinates":[9.1801,45.653271],"type":"Point"},"properties":{"osm_id":"7098602132","tag":{"amenity":"waste_basket","waste":"trash"}},"type":"Feature"},
	{"geometry":{"coordinates":[9.180425,45.654238],"type":"Point"},"properties":{"osm_id":"7098608555","tag":{"amenity":"waste_basket","waste":"trash"}},"type":"Feature"},
	{"geometry":{"coordinates":[9.180263,45.653807],"type":"Point"},"properties":{"osm_id":"7098611542","tag":{"amenity":"waste_basket","waste":"trash"}},"type":"Feature"},
	{"geometry":{"coordinates":[9.181723,45.661994],"type":"Point"},"properties":{"osm_id":"7126147098","tag":{"amenity":"waste_basket","waste":"trash"}},"type":"Feature"},
	{"geometry":{"coordinates":[9.181573,45.661686],"type":"Point"},"properties":{"osm_id":"7126147099","tag":{"amenity":"waste_basket","waste":"trash"}},"type":"Feature"},
	{"geometry":{"coordinates":[9.180303,45.661697],"type":"Point"},"properties":{"osm_id":"7126155987","tag":{"amenity":"waste_basket","waste":"trash"}},"type":"Feature"},
	{"geometry":{"coordinates":[9.18178,45.662112],"type":"Point"},"properties":{"osm_id":"7126158473","tag":{"amenity":"waste_basket","waste":"trash"}},"type":"Feature"},
	{"geometry":{"coordinates":[9.210159,45.659807],"type":"Point"},"properties":{"osm_id":"7127931627","tag":{"amenity":"waste_basket","waste":"trash"}},"type":"Feature"},
	{"geometry":{"coordinates":[9.210159,45.659904],"type":"Point"},"properties":{"osm_id":"7127931628","tag":{"amenity":"waste_basket","waste":"trash"}},"type":"Feature"},
	{"geometry":{"coordinates":[9.210164,45.660077],"type":"Point"},"properties":{"osm_id":"7127931629","tag":{"amenity":"waste_basket","waste":"trash"}},"type":"Feature"},
	{"geometry":{"coordinates":[9.210647,45.659298],"type":"Point"},"properties":{"osm_id":"7127949357","tag":{"amenity":"waste_basket","waste":"trash"}},"type":"Feature"},
	{"geometry":{"coordinates":[9.182163,45.66079],"type":"Point"},"properties":{"osm_id":"7128735484","tag":{"amenity":"waste_basket","waste":"trash"}},"type":"Feature"},
	{"geometry":{"coordinates":[9.179225,45.657838],"type":"Point"},"properties":{"osm_id":"7128771750","tag":{"amenity":"waste_basket","waste":"trash"}},"type":"Feature"},
	{"geometry":{"coordinates":[9.179494,45.659398],"type":"Point"},"properties":{"osm_id":"7128775585","tag":{"amenity":"waste_basket","waste":"trash"}},"type":"Feature"},
	{"geometry":{"coordinates":[9.183712,45.659505],"type":"Point"},"properties":{"osm_id":"7128783480","tag":{"amenity":"waste_basket","waste":"trash"}},"type":"Feature"},
	{"geometry":{"coordinates":[9.183976,45.658914],"type":"Point"},"properties":{"osm_id":"7128830149","tag":{"amenity":"waste_basket","waste":"trash"}},"type":"Feature"},
	{"geometry":{"coordinates":[9.181199,45.660048],"type":"Point"},"properties":{"osm_id":"7128856072","tag":{"amenity":"waste_basket","waste":"trash"}},"type":"Feature"},
	{"geometry":{"coordinates":[9.181094,45.65652],"type":"Point"},"properties":{"osm_id":"7128858387","tag":{"amenity":"waste_basket","waste":"trash"}},"type":"Feature"},
	{"geometry":{"coordinates":[9.180945,45.658713],"type":"Point"},"properties":{"osm_id":"7128862581","tag":{"amenity":"waste_basket","waste":"trash"}},"type":"Feature"},
	{"geometry":{"coordinates":[9.181175,45.659756],"type":"Point"},"properties":{"osm_id":"7128865717","tag":{"amenity":"waste_basket","waste":"trash"}},"type":"Feature"},
	{"geometry":{"coordinates":[9.203751,45.674958],"type":"Point"},"properties":{"osm_id":"7251705441","tag":{"amenity":"recycling","recycling:batteries":"yes","recycling_type":"container"}},"type":"Feature"},
	{"geometry":{"coordinates":[9.200007,45.672962],"type":"Point"},"properties":{"osm_id":"7266279487","tag":{"amenity":"waste_basket"}},"type":"Feature"},
	{"geometry":{"coordinates":[9.199494,45.67334],"type":"Point"},"properties":{"osm_id":"7266279500","tag":{"amenity":"waste_basket"}},"type":"Feature"},
	{"geometry":{"coordinates":[9.199475,45.673175],"type":"Point"},"properties":{"osm_id":"7266279501","tag":{"amenity":"waste_basket"}},"type":"Feature"},
	{"geometry":{"coordinates":[9.199207,45.673429],"type":"Point"},"properties":{"osm_id":"7266279503","tag":{"amenity":"waste_basket"}},"type":"Feature"},
	{"geometry":{"coordinates":[9.200314,45.673353],"type":"Point"},"properties":{"osm_id":"7266279514","tag":{"amenity":"waste_basket"}},"type":"Feature"},
	{"geometry":{"coordinates":[9.20038,45.673235],"type":"Point"},"properties":{"osm_id":"7270622193","tag":{"amenity":"waste_basket"}},"type":"Feature"},
	{"geometry":{"coordinates":[9.214425,45.655566],"type":"Point"},"properties":{"osm_id":"7534071537","tag":{"amenity":"waste_basket","waste":"trash"}},"type":"Feature"},
	{"geometry":{"coordinates":[9.209942,45.656937],"type":"Point"},"properties":{"osm_id":"7534087556","tag":{"amenity":"waste_basket","waste":"trash"}},"type":"Feature"}
]
}
