{
"type": "FeatureCollection",
"features": [
	{"geometry":{"coordinates":[9.208201,45.571822],"type":"Point"},"properties":{"osm_id":"611917417","tag":{"amenity":"waste_basket"}},"type":"Feature"},
	{"geometry":{"coordinates":[9.209726,45.57316],"type":"Point"},"properties":{"osm_id":"611937138","tag":{"amenity":"waste_basket"}},"type":"Feature"},
	{"geometry":{"coordinates":[9.210594,45.573309],"type":"Point"},"properties":{"osm_id":"611937139","tag":{"amenity":"waste_basket"}},"type":"Feature"},
	{"geometry":{"coordinates":[9.212068,45.573099],"type":"Point"},"properties":{"osm_id":"611937175","tag":{"amenity":"waste_basket"}},"type":"Feature"},
	{"geometry":{"coordinates":[9.21224,45.57331],"type":"Point"},"properties":{"osm_id":"611937178","tag":{"amenity":"waste_basket"}},"type":"Feature"},
	{"geometry":{"coordinates":[9.213088,45.573493],"type":"Point"},"properties":{"osm_id":"611937190","tag":{"amenity":"waste_basket"}},"type":"Feature"},
	{"geometry":{"coordinates":[9.214115,45.573314],"type":"Point"},"properties":{"osm_id":"611937207","tag":{"amenity":"waste_basket"}},"type":"Feature"},
	{"geometry":{"coordinates":[9.213821,45.573461],"type":"Point"},"properties":{"osm_id":"611937216","tag":{"amenity":"waste_basket"}},"type":"Feature"},
	{"geometry":{"coordinates":[9.214469,45.573384],"type":"Point"},"properties":{"osm_id":"611937218","tag":{"amenity":"waste_basket"}},"type":"Feature"},
	{"geometry":{"coordinates":[9.21567,45.573867],"type":"Point"},"properties":{"osm_id":"611937225","tag":{"amenity":"waste_basket"}},"type":"Feature"},
	{"geometry":{"coordinates":[9.216108,45.574282],"type":"Point"},"properties":{"osm_id":"611937234","tag":{"amenity":"waste_basket"}},"type":"Feature"},
	{"geometry":{"coordinates":[9.21284,45.572785],"type":"Point"},"properties":{"osm_id":"612679292","tag":{"amenity":"waste_basket"}},"type":"Feature"},
	{"geometry":{"coordinates":[9.213462,45.572961],"type":"Point"},"properties":{"osm_id":"612679299","tag":{"amenity":"waste_basket"}},"type":"Feature"},
	{"geometry":{"coordinates":[9.167757,45.552193],"type":"Point"},"properties":{"osm_id":"633689210","tag":{"amenity":"recycling","operator":"Caritas","recycling:clothes":"yes"}},"type":"Feature"},
	{"geometry":{"coordinates":[9.168324,45.549997],"type":"Point"},"properties":{"osm_id":"633755583","tag":{"amenity":"recycling","operator":"Caritas","recycling:clothes":"yes"}},"type":"Feature"},
	{"geometry":{"coordinates":[9.180652,45.547198],"type":"Point"},"properties":{"osm_id":"639130272","tag":{"amenity":"recycling","recycling:clothes":"yes"}},"type":"Feature"},
	{"geometry":{"coordinates":[9.180482,45.547172],"type":"Point"},"properties":{"osm_id":"639130273","tag":{"amenity":"waste_basket"}},"type":"Feature"},
	{"geometry":{"coordinates":[9.17748,45.546538],"type":"Point"},"properties":{"osm_id":"639134886","tag":{"amenity":"waste_basket"}},"type":"Feature"},
	{"geometry":{"coordinates":[9.177129,45.546504],"type":"Point"},"properties":{"osm_id":"639134887","tag":{"amenity":"waste_basket"}},"type":"Feature"},
	{"geometry":{"coordinates":[9.164061,45.546283],"type":"Point"},"properties":{"osm_id":"649226340","tag":{"amenity":"waste_basket"}},"type":"Feature"},
	{"geometry":{"coordinates":[9.164946,45.546462],"type":"Point"},"properties":{"osm_id":"649226792","tag":{"amenity":"waste_basket"}},"type":"Feature"},
	{"geometry":{"coordinates":[9.164691,45.548841],"type":"Point"},"properties":{"osm_id":"649286092","tag":{"amenity":"waste_basket"}},"type":"Feature"},
	{"geometry":{"coordinates":[9.160321,45.549073],"type":"Point"},"properties":{"osm_id":"649850175","tag":{"amenity":"recycling","recycling:clothes":"yes","recycling_type":"container"}},"type":"Feature"},
	{"geometry":{"coordinates":[9.157386,45.550827],"type":"Point"},"properties":{"osm_id":"651013892","tag":{"amenity":"waste_basket"}},"type":"Feature"},
	{"geometry":{"coordinates":[9.159065,45.548796],"type":"Point"},"properties":{"osm_id":"651074899","tag":{"amenity":"waste_basket"}},"type":"Feature"},
	{"geometry":{"coordinates":[9.160044,45.549001],"type":"Point"},"properties":{"osm_id":"651084986","tag":{"amenity":"waste_basket"}},"type":"Feature"},
	{"geometry":{"coordinates":[9.16024,45.548934],"type":"Point"},"properties":{"osm_id":"651087429","tag":{"amenity":"waste_basket"}},"type":"Feature"},
	{"geometry":{"coordinates":[9.160207,45.549026],"type":"Point"},"properties":{"osm_id":"651087433","tag":{"amenity":"waste_basket"}},"type":"Feature"},
	{"geometry":{"coordinates":[9.15993,45.550174],"type":"Point"},"properties":{"osm_id":"652846086","tag":{"amenity":"waste_basket"}},"type":"Feature"},
	{"geometry":{"coordinates":[9.157988,45.551865],"type":"Point"},"properties":{"osm_id":"652848693","tag":{"amenity":"waste_basket"}},"type":"Feature"},
	{"geometry":{"coordinates":[9.158465,45.54882],"type":"Point"},"properties":{"osm_id":"652923313","tag":{"amenity":"recycling","recycling:batteries":"yes"}},"type":"Feature"},
	{"geometry":{"coordinates":[9.156513,45.550192],"type":"Point"},"properties":{"osm_id":"652923321","tag":{"amenity":"waste_basket"}},"type":"Feature"},
	{"geometry":{"coordinates":[9.163179,45.544485],"type":"Point"},"properties":{"osm_id":"656494405","tag":{"amenity":"waste_basket"}},"type":"Feature"},
	{"geometry":{"coordinates":[9.162549,45.544257],"type":"Point"},"properties":{"osm_id":"660897054","tag":{"amenity":"recycling","operator":"Salesiani Colle don Bosco","recycling:clothes":"yes"}},"type":"Feature"},
	{"geometry":{"coordinates":[9.159788,45.54674],"type":"Point"},"properties":{"osm_id":"661736057","tag":{"amenity":"recycling","recycling:clothes":"yes"}},"type":"Feature"},
	{"geometry":{"coordinates":[9.157584,45.543612],"type":"Point"},"properties":{"osm_id":"662446242","tag":{"amenity":"waste_basket"}},"type":"Feature"},
	{"geometry":{"coordinates":[9.155835,45.548733],"type":"Point"},"properties":{"osm_id":"662560865","tag":{"amenity":"waste_basket"}},"type":"Feature"},
	{"geometry":{"coordinates":[9.155372,45.549346],"type":"Point"},"properties":{"osm_id":"662608146","tag":{"amenity":"recycling","recycling:clothes":"yes","recycling_type":"container"}},"type":"Feature"},
	{"geometry":{"coordinates":[9.155359,45.549409],"type":"Point"},"properties":{"osm_id":"662608149","tag":{"amenity":"waste_basket"}},"type":"Feature"},
	{"geometry":{"coordinates":[9.155476,45.54981],"type":"Point"},"properties":{"osm_id":"662614941","tag":{"amenity":"waste_basket"}},"type":"Feature"},
	{"geometry":{"coordinates":[9.154315,45.553914],"type":"Point"},"properties":{"osm_id":"662686503","tag":{"amenity":"waste_basket"}},"type":"Feature"},
	{"geometry":{"coordinates":[9.149062,45.550381],"type":"Point"},"properties":{"osm_id":"663070993","tag":{"amenity":"waste_basket"}},"type":"Feature"},
	{"geometry":{"coordinates":[9.148986,45.550186],"type":"Point"},"properties":{"osm_id":"663070994","tag":{"amenity":"waste_basket"}},"type":"Feature"},
	{"geometry":{"coordinates":[9.150347,45.549215],"type":"Point"},"properties":{"osm_id":"663075485","tag":{"amenity":"waste_basket"}},"type":"Feature"},
	{"geometry":{"coordinates":[9.151918,45.549464],"type":"Point"},"properties":{"osm_id":"663078319","tag":{"amenity":"waste_basket"}},"type":"Feature"},
	{"geometry":{"coordinates":[9.154232,45.54978],"type":"Point"},"properties":{"osm_id":"663082834","tag":{"amenity":"waste_basket"}},"type":"Feature"},
	{"geometry":{"coordinates":[9.155087,45.549879],"type":"Point"},"properties":{"osm_id":"663085172","tag":{"amenity":"waste_basket"}},"type":"Feature"},
	{"geometry":{"coordinates":[9.153908,45.549963],"type":"Point"},"properties":{"osm_id":"663085894","tag":{"amenity":"waste_basket"}},"type":"Feature"},
	{"geometry":{"coordinates":[9.15387,45.550617],"type":"Point"},"properties":{"osm_id":"663092090","tag":{"amenity":"recycling","recycling:clothes":"yes"}},"type":"Feature"},
	{"geometry":{"coordinates":[9.153696,45.550711],"type":"Point"},"properties":{"osm_id":"663092091","tag":{"amenity":"waste_basket"}},"type":"Feature"},
	{"geometry":{"coordinates":[9.151079,45.550455],"type":"Point"},"properties":{"osm_id":"663097002","tag":{"amenity":"waste_basket"}},"type":"Feature"},
	{"geometry":{"coordinates":[9.153059,45.550658],"type":"Point"},"properties":{"osm_id":"663097004","tag":{"amenity":"waste_basket"}},"type":"Feature"},
	{"geometry":{"coordinates":[9.149798,45.550472],"type":"Point"},"properties":{"osm_id":"663098479","tag":{"amenity":"waste_basket"}},"type":"Feature"},
	{"geometry":{"coordinates":[9.15406,45.548271],"type":"Point"},"properties":{"osm_id":"663890166","tag":{"amenity":"waste_basket"}},"type":"Feature"},
	{"geometry":{"coordinates":[9.154577,45.548602],"type":"Point"},"properties":{"osm_id":"663891923","tag":{"amenity":"waste_basket"}},"type":"Feature"},
	{"geometry":{"coordinates":[9.154351,45.549254],"type":"Point"},"properties":{"osm_id":"663894357","tag":{"amenity":"waste_basket"}},"type":"Feature"},
	{"geometry":{"coordinates":[9.153522,45.548408],"type":"Point"},"properties":{"osm_id":"663895056","tag":{"amenity":"waste_basket"}},"type":"Feature"},
	{"geometry":{"coordinates":[9.153212,45.547383],"type":"Point"},"properties":{"osm_id":"663901239","tag":{"amenity":"waste_basket"}},"type":"Feature"},
	{"geometry":{"coordinates":[9.198001,45.541666],"type":"Point"},"properties":{"osm_id":"1077611367","tag":{"amenity":"waste_basket"}},"type":"Feature"},
	{"geometry":{"coordinates":[9.197953,45.546074],"type":"Point"},"properties":{"osm_id":"1077826168","tag":{"amenity":"waste_basket"}},"type":"Feature"},
	{"geometry":{"coordinates":[9.199735,45.546522],"type":"Point"},"properties":{"osm_id":"1077826226","tag":{"amenity":"waste_basket"}},"type":"Feature"},
	{"geometry":{"coordinates":[9.170462,45.541009],"type":"Point"},"properties":{"osm_id":"1086848553","tag":{"amenity":"recycling","recycling:clothes":"yes"}},"type":"Feature"},
	{"geometry":{"coordinates":[9.176016,45.544399],"type":"Point"},"properties":{"osm_id":"1117952979","tag":{"amenity":"recycling","recycling:clothes":"yes"}},"type":"Feature"},
	{"geometry":{"coordinates":[9.175168,45.542323],"type":"Point"},"properties":{"osm_id":"1119388606","tag":{"amenity":"recycling","recycling:batteries":"yes"}},"type":"Feature"},
	{"geometry":{"coordinates":[9.170528,45.542173],"type":"Point"},"properties":{"osm_id":"1122713829","tag":{"amenity":"waste_basket"}},"type":"Feature"},
	{"geometry":{"coordinates":[9.169799,45.54202],"type":"Point"},"properties":{"osm_id":"1122713848","tag":{"amenity":"waste_basket"}},"type":"Feature"},
	{"geometry":{"coordinates":[9.168439,45.541992],"type":"Point"},"properties":{"osm_id":"1122713862","tag":{"amenity":"waste_basket"}},"type":"Feature"},
	{"geometry":{"coordinates":[9.169942,45.543379],"type":"Point"},"properties":{"osm_id":"1122713865","tag":{"amenity":"waste_basket"}},"type":"Feature"},
	{"geometry":{"coordinates":[9.168305,45.543392],"type":"Point"},"properties":{"osm_id":"1122713887","tag":{"amenity":"waste_basket"}},"type":"Feature"},
	{"geometry":{"coordinates":[9.168133,45.541965],"type":"Point"},"properties":{"osm_id":"1122713888","tag":{"amenity":"recycling","recycling:clothes":"yes"}},"type":"Feature"},
	{"geometry":{"coordinates":[9.168509,45.54201],"type":"Point"},"properties":{"osm_id":"1122714166","tag":{"amenity":"recycling","recycling:batteries":"yes","recycling_type":"container"}},"type":"Feature"},
	{"geometry":{"coordinates":[9.16622,45.540211],"type":"Point"},"properties":{"osm_id":"1122714213","tag":{"amenity":"recycling","recycling:clothes":"yes"}},"type":"Feature"},
	{"geometry":{"coordinates":[9.169387,45.544448],"type":"Point"},"properties":{"osm_id":"1122714317","tag":{"amenity":"waste_basket"}},"type":"Feature"},
	{"geometry":{"coordinates":[9.170117,45.543328],"type":"Point"},"properties":{"osm_id":"1122714357","tag":{"amenity":"waste_basket"}},"type":"Feature"},
	{"geometry":{"coordinates":[9.167965,45.541548],"type":"Point"},"properties":{"osm_id":"1122714550","tag":{"amenity":"waste_basket"}},"type":"Feature"},
	{"geometry":{"coordinates":[9.165337,45.538805],"type":"Point"},"properties":{"osm_id":"1127231291","tag":{"amenity":"waste_basket"}},"type":"Feature"},
	{"geometry":{"coordinates":[9.158933,45.540039],"type":"Point"},"properties":{"osm_id":"1128409968","tag":{"amenity":"recycling","recycling:batteries":"yes"}},"type":"Feature"},
	{"geometry":{"coordinates":[9.173051,45.543867],"type":"Point"},"properties":{"osm_id":"1134692184","tag":{"amenity":"recycling","recycling:clothes":"yes"}},"type":"Feature"},
	{"geometry":{"coordinates":[9.196574,45.553703],"type":"Point"},"properties":{"osm_id":"1221404057","tag":{"amenity":"waste_basket"}},"type":"Feature"},
	{"geometry":{"coordinates":[9.196382,45.554086],"type":"Point"},"properties":{"osm_id":"1221426312","tag":{"amenity":"waste_basket"}},"type":"Feature"},
	{"geometry":{"coordinates":[9.1947,45.55758],"type":"Point"},"properties":{"osm_id":"1228296522","tag":{"amenity":"waste_basket"}},"type":"Feature"},
	{"geometry":{"coordinates":[9.192683,45.556603],"type":"Point"},"properties":{"osm_id":"1563786580","tag":{"amenity":"recycling","recycling:clothes":"yes","recycling_type":"container"}},"type":"Feature"},
	{"geometry":{"coordinates":[9.19372,45.556877],"type":"Point"},"properties":{"osm_id":"1563786688","tag":{"amenity":"waste_basket"}},"type":"Feature"},
	{"geometry":{"coordinates":[9.193805,45.553511],"type":"Point"},"properties":{"osm_id":"1571667488","tag":{"amenity":"waste_basket"}},"type":"Feature"},
	{"geometry":{"coordinates":[9.19399,45.553577],"type":"Point"},"properties":{"osm_id":"1571667508","tag":{"amenity":"waste_basket"}},"type":"Feature"},
	{"geometry":{"coordinates":[9.195009,45.554511],"type":"Point"},"properties":{"osm_id":"1571667822","tag":{"amenity":"waste_basket"}},"type":"Feature"},
	{"geometry":{"coordinates":[9.193164,45.554079],"type":"Point"},"properties":{"osm_id":"1582648960","tag":{"amenity":"waste_basket"}},"type":"Feature"},
	{"geometry":{"coordinates":[9.192694,45.556155],"type":"Point"},"properties":{"osm_id":"1582773005","tag":{"amenity":"waste_basket"}},"type":"Feature"},
	{"geometry":{"coordinates":[9.18335,45.557362],"type":"Point"},"properties":{"osm_id":"1680904213","tag":{"amenity":"waste_basket"}},"type":"Feature"},
	{"geometry":{"coordinates":[9.20845,45.569739],"type":"Point"},"properties":{"osm_id":"1692476112","tag":{"amenity":"recycling","recycling:clothes":"yes","recycling_type":"container"}},"type":"Feature"},
	{"geometry":{"coordinates":[9.208737,45.570933],"type":"Point"},"properties":{"osm_id":"1692476280","tag":{"amenity":"waste_basket"}},"type":"Feature"},
	{"geometry":{"coordinates":[9.20625,45.582281],"type":"Point"},"properties":{"osm_id":"1692476519","tag":{"amenity":"waste_basket"}},"type":"Feature"},
	{"geometry":{"coordinates":[9.224417,45.569562],"type":"Point"},"properties":{"barrier":"gate","osm_id":"1700302889"},"type":"Feature"},
	{"geometry":{"coordinates":[9.20129,45.526867],"type":"Point"},"properties":{"osm_id":"1706091808","tag":{"amenity":"waste_basket"}},"type":"Feature"},
	{"geometry":{"coordinates":[9.200557,45.528535],"type":"Point"},"properties":{"osm_id":"1706091813","tag":{"amenity":"waste_basket"}},"type":"Feature"},
	{"geometry":{"coordinates":[9.200162,45.528646],"type":"Point"},"properties":{"osm_id":"1706091821","tag":{"amenity":"waste_basket"}},"type":"Feature"},
	{"geometry":{"coordinates":[9.197901,45.52983],"type":"Point"},"properties":{"osm_id":"1706091857","tag":{"amenity":"waste_basket"}},"type":"Feature"},
	{"geometry":{"coordinates":[9.197038,45.527799],"type":"Point"},"properties":{"osm_id":"1720802621","tag":{"amenity":"waste_basket"}},"type":"Feature"},
	{"geometry":{"coordinates":[9.203074,45.528856],"type":"Point"},"properties":{"osm_id":"1720802625","tag":{"amenity":"waste_basket"}},"type":"Feature"},
	{"geometry":{"coordinates":[9.203144,45.529021],"type":"Point"},"properties":{"osm_id":"1720802628","tag":{"amenity":"waste_basket"}},"type":"Feature"},
	{"geometry":{"coordinates":[9.203047,45.530154],"type":"Point"},"properties":{"osm_id":"1720802852","tag":{"amenity":"waste_basket"}},"type":"Feature"},
	{"geometry":{"coordinates":[9.203016,45.531112],"type":"Point"},"properties":{"osm_id":"1720802929","tag":{"amenity":"waste_basket"}},"type":"Feature"},
	{"geometry":{"coordinates":[9.201821,45.531827],"type":"Point"},"properties":{"osm_id":"1720803032","tag":{"amenity":"waste_basket"}},"type":"Feature"},
	{"geometry":{"coordinates":[9.198943,45.53242],"type":"Point"},"properties":{"osm_id":"1720803063","tag":{"amenity":"waste_basket"}},"type":"Feature"},
	{"geometry":{"coordinates":[9.18085,45.543723],"type":"Point"},"properties":{"barrier":"gate","osm_id":"1721551154"},"type":"Feature"},
	{"geometry":{"coordinates":[9.180942,45.543743],"type":"Point"},"properties":{"barrier":"gate","osm_id":"1721551156"},"type":"Feature"},
	{"geometry":{"coordinates":[9.180749,45.543779],"type":"Point"},"properties":{"barrier":"gate","osm_id":"1721551159"},"type":"Feature"},
	{"geometry":{"coordinates":[9.191683,45.557975],"type":"Point"},"properties":{"osm_id":"2087797027","tag":{"amenity":"waste_basket"}},"type":"Feature"},
	{"geometry":{"coordinates":[9.191895,45.556234],"type":"Point"},"properties":{"osm_id":"2087934566","tag":{"amenity":"waste_basket"}},"type":"Feature"},
	{"geometry":{"coordinates":[9.191198,45.558232],"type":"Point"},"properties":{"osm_id":"2087934632","tag":{"amenity":"waste_basket"}},"type":"Feature"},
	{"geometry":{"coordinates":[9.192831,45.552764],"type":"Point"},"properties":{"osm_id":"2194418299","tag":{"amenity":"waste_basket"}},"type":"Feature"},
	{"geometry":{"coordinates":[9.194011,45.552886],"type":"Point"},"properties":{"osm_id":"2194847828","tag":{"amenity":"recycling","recycling:batteries":"yes","recycling_type":"container"}},"type":"Feature"},
	{"geometry":{"coordinates":[9.193931,45.55304],"type":"Point"},"properties":{"osm_id":"2194847832","tag":{"amenity":"waste_basket"}},"type":"Feature"},
	{"geometry":{"coordinates":[9.197173,45.553816],"type":"Point"},"properties":{"osm_id":"2194847833","tag":{"amenity":"recycling","recycling:batteries":"yes","recycling_type":"container"}},"type":"Feature"},
	{"geometry":{"coordinates":[9.213978,45.53408],"type":"Point"},"properties":{"osm_id":"2205997835","tag":{"amenity":"waste_basket"}},"type":"Feature"},
	{"geometry":{"coordinates":[9.204522,45.546446],"type":"Point"},"properties":{"osm_id":"2205997939","tag":{"amenity":"waste_basket"}},"type":"Feature"},
	{"geometry":{"coordinates":[9.203894,45.546705],"type":"Point"},"properties":{"osm_id":"2205997954","tag":{"amenity":"waste_basket"}},"type":"Feature"},
	{"geometry":{"coordinates":[9.204354,45.546734],"type":"Point"},"properties":{"osm_id":"2205997957","tag":{"amenity":"waste_basket"}},"type":"Feature"},
	{"geometry":{"coordinates":[9.206563,45.547027],"type":"Point"},"properties":{"osm_id":"2205997988","tag":{"amenity":"waste_basket"}},"type":"Feature"},
	{"geometry":{"coordinates":[9.207369,45.54705],"type":"Point"},"properties":{"osm_id":"2205997989","tag":{"amenity":"waste_basket"}},"type":"Feature"},
	{"geometry":{"coordinates":[9.208215,45.547083],"type":"Point"},"properties":{"osm_id":"2205997991","tag":{"amenity":"waste_basket"}},"type":"Feature"},
	{"geometry":{"coordinates":[9.209536,45.54713],"type":"Point"},"properties":{"osm_id":"2205997993","tag":{"amenity":"waste_basket"}},"type":"Feature"},
	{"geometry":{"coordinates":[9.212551,45.535379],"type":"Point"},"properties":{"osm_id":"2207468286","tag":{"amenity":"waste_basket"}},"type":"Feature"},
	{"geometry":{"coordinates":[9.212982,45.5355],"type":"Point"},"properties":{"osm_id":"2207468288","tag":{"amenity":"waste_basket"}},"type":"Feature"},
	{"geometry":{"coordinates":[9.212663,45.537617],"type":"Point"},"properties":{"osm_id":"2207468327","tag":{"amenity":"waste_basket"}},"type":"Feature"},
	{"geometry":{"coordinates":[9.18602,45.5519],"type":"Point"},"properties":{"osm_id":"2380111207","tag":{"amenity":"waste_basket"}},"type":"Feature"},
	{"geometry":{"coordinates":[9.2199,45.54989],"type":"Point"},"properties":{"osm_id":"2380131334","tag":{"amenity":"waste_basket"}},"type":"Feature"},
	{"geometry":{"coordinates":[9.185725,45.530726],"type":"Point"},"properties":{"barrier":"gate","osm_id":"2444295592"},"type":"Feature"},
	{"geometry":{"coordinates":[9.199113,45.541737],"type":"Point"},"properties":{"osm_id":"2560062677","tag":{"amenity":"waste_basket"}},"type":"Feature"},
	{"geometry":{"coordinates":[9.171255,45.526275],"type":"Point"},"properties":{"osm_id":"2575850367","tag":{"amenity":"waste_basket"}},"type":"Feature"},
	{"geometry":{"coordinates":[9.197943,45.543823],"type":"Point"},"properties":{"osm_id":"2582907135","tag":{"amenity":"waste_basket"}},"type":"Feature"},
	{"geometry":{"coordinates":[9.199691,45.543928],"type":"Point"},"properties":{"osm_id":"2582907148","tag":{"amenity":"waste_basket"}},"type":"Feature"},
	{"geometry":{"coordinates":[9.197895,45.544437],"type":"Point"},"properties":{"osm_id":"2582907151","tag":{"amenity":"waste_basket"}},"type":"Feature"},
	{"geometry":{"coordinates":[9.198503,45.535931],"type":"Point"},"properties":{"osm_id":"2586047557","tag":{"amenity":"waste_basket"}},"type":"Feature"},
	{"geometry":{"coordinates":[9.198325,45.539832],"type":"Point"},"properties":{"osm_id":"2611497084","tag":{"amenity":"waste_basket"}},"type":"Feature"},
	{"geometry":{"coordinates":[9.165864,45.523879],"type":"Point"},"properties":{"osm_id":"2645448054","tag":{"amenity":"recycling","recycling:clothes":"yes","recycling_type":"container"}},"type":"Feature"},
	{"geometry":{"coordinates":[9.218122,45.546026],"type":"Point"},"properties":{"osm_id":"2705586267","tag":{"amenity":"recycling","recycling:clothes":"yes","recycling_type":"container"}},"type":"Feature"},
	{"geometry":{"coordinates":[9.17907,45.524412],"type":"Point"},"properties":{"osm_id":"2725603922","tag":{"amenity":"recycling","recycling:clothes":"yes","recycling_type":"container"}},"type":"Feature"},
	{"geometry":{"coordinates":[9.170098,45.526461],"type":"Point"},"properties":{"osm_id":"2738235968","tag":{"amenity":"recycling","recycling:clothes":"yes","recycling_type":"container"}},"type":"Feature"},
	{"geometry":{"coordinates":[9.2016,45.522485],"type":"Point"},"properties":{"osm_id":"2740964827","tag":{"amenity":"waste_basket"}},"type":"Feature"},
	{"geometry":{"coordinates":[9.202211,45.523362],"type":"Point"},"properties":{"osm_id":"2740964845","tag":{"amenity":"waste_basket"}},"type":"Feature"},
	{"geometry":{"coordinates":[9.201952,45.525901],"type":"Point"},"properties":{"osm_id":"2740964870","tag":{"amenity":"waste_basket"}},"type":"Feature"},
	{"geometry":{"coordinates":[9.198026,45.526328],"type":"Point"},"properties":{"osm_id":"2740964877","tag":{"amenity":"waste_basket"}},"type":"Feature"},
	{"geometry":{"coordinates":[9.195987,45.527033],"type":"Point"},"properties":{"osm_id":"2740964897","tag":{"amenity":"waste_basket"}},"type":"Feature"},
	{"geometry":{"coordinates":[9.196445,45.5277],"type":"Point"},"properties":{"osm_id":"2740964918","tag":{"amenity":"waste_basket"}},"type":"Feature"},
	{"geometry":{"coordinates":[9.199827,45.528092],"type":"Point"},"properties":{"osm_id":"2740964925","tag":{"amenity":"waste_basket"}},"type":"Feature"},
	{"geometry":{"coordinates":[9.200883,45.528361],"type":"Point"},"properties":{"osm_id":"2740964928","tag":{"amenity":"waste_basket"}},"type":"Feature"},
	{"geometry":{"coordinates":[9.207993,45.53071],"type":"Point"},"properties":{"osm_id":"2740964949","tag":{"amenity":"waste_basket"}},"type":"Feature"},
	{"geometry":{"coordinates":[9.209231,45.532033],"type":"Point"},"properties":{"osm_id":"2740965713","tag":{"amenity":"waste_basket"}},"type":"Feature"},
	{"geometry":{"coordinates":[9.210294,45.532497],"type":"Point"},"properties":{"osm_id":"2740965760","tag":{"amenity":"waste_basket"}},"type":"Feature"},
	{"geometry":{"coordinates":[9.184513,45.522761],"type":"Point"},"properties":{"osm_id":"2743753596","tag":{"amenity":"waste_basket"}},"type":"Feature"},
	{"geometry":{"coordinates":[9.190559,45.525047],"type":"Point"},"properties":{"osm_id":"2743753632","tag":{"amenity":"waste_basket"}},"type":"Feature"},
	{"geometry":{"coordinates":[9.182858,45.521839],"type":"Point"},"properties":{"osm_id":"2744630658","tag":{"amenity":"waste_basket"}},"type":"Feature"},
	{"geometry":{"coordinates":[9.183385,45.522563],"type":"Point"},"properties":{"osm_id":"2744630665","tag":{"amenity":"waste_basket"}},"type":"Feature"},
	{"geometry":{"coordinates":[9.176531,45.521775],"type":"Point"},"properties":{"osm_id":"2749842667","tag":{"amenity":"waste_basket"}},"type":"Feature"},
	{"geometry":{"coordinates":[9.202495,45.525734],"type":"Point"},"properties":{"osm_id":"2749842790","tag":{"amenity":"waste_basket"}},"type":"Feature"},
	{"geometry":{"coordinates":[9.203484,45.5269],"type":"Point"},"properties":{"osm_id":"2749842917","tag":{"amenity":"waste_basket"}},"type":"Feature"},
	{"geometry":{"coordinates":[9.211012,45.529879],"type":"Point"},"properties":{"osm_id":"2749842968","tag":{"amenity":"waste_basket"}},"type":"Feature"},
	{"geometry":{"coordinates":[9.211427,45.530587],"type":"Point"},"properties":{"osm_id":"2749842977","tag":{"amenity":"waste_basket"}},"type":"Feature"},
	{"geometry":{"coordinates":[9.2042,45.532323],"type":"Point"},"properties":{"osm_id":"2749843018","tag":{"amenity":"waste_basket"}},"type":"Feature"},
	{"geometry":{"coordinates":[9.211197,45.532602],"type":"Point"},"properties":{"osm_id":"2749843021","tag":{"amenity":"waste_basket"}},"type":"Feature"},
	{"geometry":{"coordinates":[9.198157,45.541742],"type":"Point"},"properties":{"osm_id":"2749843051","tag":{"amenity":"waste_basket"}},"type":"Feature"},
	{"geometry":{"coordinates":[9.17328,45.525622],"type":"Point"},"properties":{"osm_id":"2751588278","tag":{"amenity":"waste_basket"}},"type":"Feature"},
	{"geometry":{"coordinates":[9.173307,45.525622],"type":"Point"},"properties":{"osm_id":"2751588279","tag":{"amenity":"recycling","recycling:clothes":"yes","recycling_type":"container"}},"type":"Feature"},
	{"geometry":{"coordinates":[9.169569,45.528537],"type":"Point"},"properties":{"osm_id":"2764827768","tag":{"amenity":"recycling","recycling:clothes":"yes","recycling_type":"container"}},"type":"Feature"},
	{"geometry":{"coordinates":[9.169364,45.53078],"type":"Point"},"properties":{"osm_id":"2764827822","tag":{"amenity":"recycling","recycling:clothes":"yes"}},"type":"Feature"},
	{"geometry":{"coordinates":[9.211461,45.530108],"type":"Point"},"properties":{"osm_id":"2834803810","tag":{"amenity":"waste_basket"}},"type":"Feature"},
	{"geometry":{"coordinates":[9.213161,45.530302],"type":"Point"},"properties":{"osm_id":"2834803815","tag":{"amenity":"waste_basket"}},"type":"Feature"},
	{"geometry":{"coordinates":[9.214865,45.530578],"type":"Point"},"properties":{"osm_id":"2834803825","tag":{"amenity":"waste_basket"}},"type":"Feature"},
	{"geometry":{"coordinates":[9.21815,45.530828],"type":"Point"},"properties":{"osm_id":"2834803834","tag":{"amenity":"waste_basket"}},"type":"Feature"},
	{"geometry":{"coordinates":[9.217489,45.531265],"type":"Point"},"properties":{"osm_id":"2834803840","tag":{"amenity":"waste_basket"}},"type":"Feature"},
	{"geometry":{"coordinates":[9.217184,45.531851],"type":"Point"},"properties":{"osm_id":"2834803848","tag":{"amenity":"waste_basket"}},"type":"Feature"},
	{"geometry":{"coordinates":[9.215577,45.531893],"type":"Point"},"properties":{"osm_id":"2834803850","tag":{"amenity":"waste_basket"}},"type":"Feature"},
	{"geometry":{"coordinates":[9.217337,45.532397],"type":"Point"},"properties":{"osm_id":"2834803852","tag":{"amenity":"waste_basket"}},"type":"Feature"},
	{"geometry":{"coordinates":[9.211284,45.532918],"type":"Point"},"properties":{"osm_id":"2834803854","tag":{"amenity":"waste_basket"}},"type":"Feature"},
	{"geometry":{"coordinates":[9.211231,45.533489],"type":"Point"},"properties":{"osm_id":"2834803855","tag":{"amenity":"waste_basket"}},"type":"Feature"},
	{"geometry":{"coordinates":[9.21284,45.53438],"type":"Point"},"properties":{"osm_id":"2834803858","tag":{"amenity":"waste_basket"}},"type":"Feature"},
	{"geometry":{"coordinates":[9.210995,45.537654],"type":"Point"},"properties":{"osm_id":"2834803866","tag":{"amenity":"waste_basket"}},"type":"Feature"},
	{"geometry":{"coordinates":[9.210192,45.538606],"type":"Point"},"properties":{"osm_id":"2834803867","tag":{"amenity":"waste_basket"}},"type":"Feature"},
	{"geometry":{"coordinates":[9.210162,45.539061],"type":"Point"},"properties":{"osm_id":"2834803868","tag":{"amenity":"waste_basket"}},"type":"Feature"},
	{"geometry":{"coordinates":[9.183144,45.551226],"type":"Point"},"properties":{"osm_id":"3192147272","tag":{"amenity":"recycling","recycling:clothes":"yes","recycling_type":"container"}},"type":"Feature"},
	{"geometry":{"coordinates":[9.180884,45.547057],"type":"Point"},"properties":{"osm_id":"3203775096","tag":{"amenity":"recycling","recycling:clothes":"yes","recycling_type":"container"}},"type":"Feature"},
	{"geometry":{"coordinates":[9.220047,45.538823],"type":"Point"},"properties":{"osm_id":"3204568985","tag":{"amenity":"recycling","recycling:clothes":"yes"}},"type":"Feature"},
	{"geometry":{"coordinates":[9.203188,45.561097],"type":"Point"},"properties":{"osm_id":"3216806690","tag":{"amenity":"recycling","recycling:clothes":"yes","recycling_type":"container"}},"type":"Feature"},
	{"geometry":{"coordinates":[9.203128,45.553357],"type":"Point"},"properties":{"osm_id":"3218059050","tag":{"amenity":"waste_basket"}},"type":"Feature"},
	{"geometry":{"coordinates":[9.170167,45.574031],"type":"Point"},"properties":{"osm_id":"3219960008","tag":{"amenity":"waste_basket"}},"type":"Feature"},
	{"geometry":{"coordinates":[9.151668,45.548347],"type":"Point"},"properties":{"osm_id":"3271029941","tag":{"amenity":"recycling","recycling:clothes":"yes","recycling_type":"container"}},"type":"Feature"},
	{"geometry":{"coordinates":[9.158972,45.555295],"type":"Point"},"properties":{"osm_id":"3271031007","tag":{"amenity":"recycling","recycling:clothes":"yes","recycling_type":"container"}},"type":"Feature"},
	{"geometry":{"coordinates":[9.160781,45.556847],"type":"Point"},"properties":{"osm_id":"3271031032","tag":{"amenity":"recycling","recycling:clothes":"yes","recycling_type":"container"}},"type":"Feature"},
	{"geometry":{"coordinates":[9.161665,45.559839],"type":"Point"},"properties":{"osm_id":"3271283782","tag":{"amenity":"recycling","recycling:clothes":"yes","recycling_type":"container"}},"type":"Feature"},
	{"geometry":{"coordinates":[9.195665,45.581558],"type":"Point"},"properties":{"osm_id":"3271375825","tag":{"amenity":"recycling","recycling:clothes":"yes","recycling_type":"container"}},"type":"Feature"},
	{"geometry":{"coordinates":[9.185147,45.533453],"type":"Point"},"properties":{"osm_id":"3275129110","tag":{"amenity":"recycling","recycling:clothes":"yes","recycling_type":"container"}},"type":"Feature"},
	{"geometry":{"coordinates":[9.155145,45.548589],"type":"Point"},"properties":{"osm_id":"3275396908","tag":{"amenity":"recycling","recycling:clothes":"yes","recycling_type":"container"}},"type":"Feature"},
	{"geometry":{"coordinates":[9.222718,45.582857],"type":"Point"},"properties":{"osm_id":"3350317492","tag":{"amenity":"waste_basket"}},"type":"Feature"},
	{"geometry":{"coordinates":[9.224025,45.583139],"type":"Point"},"properties":{"osm_id":"3350335358","tag":{"amenity":"waste_basket"}},"type":"Feature"},
	{"geometry":{"coordinates":[9.224689,45.583228],"type":"Point"},"properties":{"osm_id":"3350335363","tag":{"amenity":"waste_basket"}},"type":"Feature"},
	{"geometry":{"coordinates":[9.224202,45.583169],"type":"Point"},"properties":{"osm_id":"3350335751","tag":{"amenity":"waste_basket"}},"type":"Feature"},
	{"geometry":{"coordinates":[9.228027,45.523345],"type":"Point"},"properties":{"osm_id":"3442415548","tag":{"amenity":"waste_basket"}},"type":"Feature"},
	{"geometry":{"coordinates":[9.228152,45.523708],"type":"Point"},"properties":{"osm_id":"3442415550","tag":{"amenity":"waste_basket"}},"type":"Feature"},
	{"geometry":{"coordinates":[9.192073,45.52674],"type":"Point"},"properties":{"osm_id":"3563878589","tag":{"amenity":"waste_basket"}},"type":"Feature"},
	{"geometry":{"coordinates":[9.195953,45.537542],"type":"Point"},"properties":{"osm_id":"3579300756","tag":{"amenity":"recycling","recycling:clothes":"yes","recycling:shoes":"yes","recycling_type":"container"}},"type":"Feature"},
	{"geometry":{"coordinates":[9.228282,45.546362],"type":"Point"},"properties":{"osm_id":"3634508792","tag":{"amenity":"waste_basket"}},"type":"Feature"},
	{"geometry":{"coordinates":[9.225573,45.536432],"type":"Point"},"properties":{"osm_id":"4130737489","tag":{"amenity":"waste_basket"}},"type":"Feature"},
	{"geometry":{"coordinates":[9.187657,45.546448],"type":"Point"},"properties":{"osm_id":"4486027431","tag":{"amenity":"waste_basket"}},"type":"Feature"},
	{"geometry":{"coordinates":[9.186902,45.548463],"type":"Point"},"properties":{"osm_id":"4486027803","tag":{"amenity":"waste_basket"}},"type":"Feature"},
	{"geometry":{"coordinates":[9.186702,45.548401],"type":"Point"},"properties":{"osm_id":"4524027708","tag":{"amenity":"waste_basket"}},"type":"Feature"},
	{"geometry":{"coordinates":[9.19503,45.550493],"type":"Point"},"properties":{"osm_id":"4524027720","tag":{"amenity":"waste_basket"}},"type":"Feature"},
	{"geometry":{"coordinates":[9.195063,45.550994],"type":"Point"},"properties":{"osm_id":"4524027721","tag":{"amenity":"waste_basket"}},"type":"Feature"},
	{"geometry":{"coordinates":[9.194905,45.550961],"type":"Point"},"properties":{"osm_id":"4524027722","tag":{"amenity":"waste_basket"}},"type":"Feature"},
	{"geometry":{"coordinates":[9.194952,45.550849],"type":"Point"},"properties":{"osm_id":"4524027723","tag":{"amenity":"waste_basket"}},"type":"Feature"},
	{"geometry":{"coordinates":[9.194851,45.551068],"type":"Point"},"properties":{"osm_id":"4524027724","tag":{"amenity":"waste_basket"}},"type":"Feature"},
	{"geometry":{"coordinates":[9.194775,45.551237],"type":"Point"},"properties":{"osm_id":"4524027725","tag":{"amenity":"waste_basket"}},"type":"Feature"},
	{"geometry":{"coordinates":[9.194937,45.551399],"type":"Point"},"properties":{"osm_id":"4524027729","tag":{"amenity":"waste_basket"}},"type":"Feature"},
	{"geometry":{"coordinates":[9.186561,45.546997],"type":"Point"},"properties":{"osm_id":"4551158174","tag":{"amenity":"waste_basket"}},"type":"Feature"},
	{"geometry":{"coordinates":[9.18744,45.546799],"type":"Point"},"properties":{"osm_id":"4551158179","tag":{"amenity":"waste_basket"}},"type":"Feature"},
	{"geometry":{"coordinates":[9.187787,45.546855],"type":"Point"},"properties":{"osm_id":"4551158180","tag":{"amenity":"waste_basket"}},"type":"Feature"},
	{"geometry":{"coordinates":[9.188124,45.54728],"type":"Point"},"properties":{"osm_id":"4551160104","tag":{"amenity":"waste_basket"}},"type":"Feature"},
	{"geometry":{"coordinates":[9.18779,45.547145],"type":"Point"},"properties":{"osm_id":"4551160109","tag":{"amenity":"waste_basket"}},"type":"Feature"},
	{"geometry":{"coordinates":[9.188183,45.546606],"type":"Point"},"properties":{"osm_id":"4551160112","tag":{"amenity":"waste_basket"}},"type":"Feature"},
	{"geometry":{"coordinates":[9.187017,45.546356],"type":"Point"},"properties":{"osm_id":"4551160114","tag":{"amenity":"waste_basket"}},"type":"Feature"},
	{"geometry":{"coordinates":[9.186887,45.546672],"type":"Point"},"properties":{"osm_id":"4551160118","tag":{"amenity":"waste_basket"}},"type":"Feature"},
	{"geometry":{"coordinates":[9.186707,45.54686],"type":"Point"},"properties":{"osm_id":"4551160122","tag":{"amenity":"waste_basket"}},"type":"Feature"},
	{"geometry":{"coordinates":[9.228395,45.533545],"type":"Point"},"properties":{"osm_id":"4782433671","tag":{"amenity":"waste_basket"}},"type":"Feature"},
	{"geometry":{"coordinates":[9.228465,45.533377],"type":"Point"},"properties":{"osm_id":"4782433883","tag":{"amenity":"waste_basket"}},"type":"Feature"},
	{"geometry":{"coordinates":[9.227519,45.535451],"type":"Point"},"properties":{"osm_id":"4782433909","tag":{"amenity":"waste_basket"}},"type":"Feature"},
	{"geometry":{"coordinates":[9.228349,45.532648],"type":"Point"},"properties":{"osm_id":"4782434082","tag":{"amenity":"waste_basket"}},"type":"Feature"},
	{"geometry":{"coordinates":[9.228479,45.536024],"type":"Point"},"properties":{"osm_id":"4782434446","tag":{"amenity":"waste_basket"}},"type":"Feature"},
	{"geometry":{"coordinates":[9.228381,45.534622],"type":"Point"},"properties":{"osm_id":"4782434473","tag":{"amenity":"waste_basket"}},"type":"Feature"},
	{"geometry":{"coordinates":[9.228438,45.534071],"type":"Point"},"properties":{"osm_id":"4782434906","tag":{"amenity":"waste_basket"}},"type":"Feature"},
	{"geometry":{"coordinates":[9.227519,45.535382],"type":"Point"},"properties":{"osm_id":"4782435122","tag":{"amenity":"waste_basket"}},"type":"Feature"},
	{"geometry":{"coordinates":[9.22838,45.533446],"type":"Point"},"properties":{"osm_id":"4782436477","tag":{"amenity":"waste_basket"}},"type":"Feature"},
	{"geometry":{"coordinates":[9.227617,45.535987],"type":"Point"},"properties":{"osm_id":"4782437636","tag":{"amenity":"waste_basket"}},"type":"Feature"},
	{"geometry":{"coordinates":[9.227757,45.535985],"type":"Point"},"properties":{"osm_id":"4782437646","tag":{"amenity":"waste_basket"}},"type":"Feature"},
	{"geometry":{"coordinates":[9.228381,45.534759],"type":"Point"},"properties":{"osm_id":"4782437686","tag":{"amenity":"waste_basket"}},"type":"Feature"},
	{"geometry":{"coordinates":[9.227598,45.535905],"type":"Point"},"properties":{"osm_id":"4782437918","tag":{"amenity":"waste_basket"}},"type":"Feature"},
	{"geometry":{"coordinates":[9.228,45.534723],"type":"Point"},"properties":{"osm_id":"4782438295","tag":{"amenity":"waste_basket"}},"type":"Feature"},
	{"geometry":{"coordinates":[9.227609,45.532761],"type":"Point"},"properties":{"osm_id":"4933658636","tag":{"amenity":"waste_basket"}},"type":"Feature"},
	{"geometry":{"coordinates":[9.22762,45.532689],"type":"Point"},"properties":{"osm_id":"4933658639","tag":{"amenity":"waste_basket"}},"type":"Feature"},
	{"geometry":{"coordinates":[9.227343,45.532815],"type":"Point"},"properties":{"osm_id":"4933658640","tag":{"amenity":"waste_basket"}},"type":"Feature"},
	{"geometry":{"coordinates":[9.22733,45.532885],"type":"Point"},"properties":{"osm_id":"4933658641","tag":{"amenity":"waste_basket"}},"type":"Feature"},
	{"geometry":{"coordinates":[9.227336,45.53358],"type":"Point"},"properties":{"osm_id":"4933658666","tag":{"amenity":"waste_basket"}},"type":"Feature"},
	{"geometry":{"coordinates":[9.22748,45.533355],"type":"Point"},"properties":{"osm_id":"4933658667","tag":{"amenity":"waste_basket"}},"type":"Feature"},
	{"geometry":{"coordinates":[9.227397,45.534012],"type":"Point"},"properties":{"osm_id":"4933658673","tag":{"amenity":"waste_basket"}},"type":"Feature"},
	{"geometry":{"coordinates":[9.227601,45.534617],"type":"Point"},"properties":{"osm_id":"4933658712","tag":{"amenity":"waste_basket"}},"type":"Feature"},
	{"geometry":{"coordinates":[9.227673,45.53473],"type":"Point"},"properties":{"osm_id":"4933658713","tag":{"amenity":"waste_basket"}},"type":"Feature"},
	{"geometry":{"coordinates":[9.227488,45.534764],"type":"Point"},"properties":{"osm_id":"4933658714","tag":{"amenity":"waste_basket"}},"type":"Feature"},
	{"geometry":{"coordinates":[9.226716,45.534634],"type":"Point"},"properties":{"osm_id":"4933658715","tag":{"amenity":"waste_basket"}},"type":"Feature"},
	{"geometry":{"coordinates":[9.226547,45.534638],"type":"Point"},"properties":{"osm_id":"4933658716","tag":{"amenity":"waste_basket"}},"type":"Feature"},
	{"geometry":{"coordinates":[9.225681,45.534745],"type":"Point"},"properties":{"osm_id":"4933658717","tag":{"amenity":"waste_basket"}},"type":"Feature"},
	{"geometry":{"coordinates":[9.225654,45.534639],"type":"Point"},"properties":{"osm_id":"4933658718","tag":{"amenity":"waste_basket"}},"type":"Feature"},
	{"geometry":{"coordinates":[9.225475,45.534636],"type":"Point"},"properties":{"osm_id":"4933658719","tag":{"amenity":"waste_basket"}},"type":"Feature"},
	{"geometry":{"coordinates":[9.225407,45.534676],"type":"Point"},"properties":{"osm_id":"4933658720","tag":{"amenity":"waste_basket"}},"type":"Feature"},
	{"geometry":{"coordinates":[9.225428,45.535523],"type":"Point"},"properties":{"osm_id":"4933663428","tag":{"amenity":"waste_basket"}},"type":"Feature"},
	{"geometry":{"coordinates":[9.22545,45.535416],"type":"Point"},"properties":{"osm_id":"4933663429","tag":{"amenity":"waste_basket"}},"type":"Feature"},
	{"geometry":{"coordinates":[9.22549,45.535265],"type":"Point"},"properties":{"osm_id":"4933663430","tag":{"amenity":"waste_basket"}},"type":"Feature"},
	{"geometry":{"coordinates":[9.226153,45.535296],"type":"Point"},"properties":{"osm_id":"4933663431","tag":{"amenity":"waste_basket"}},"type":"Feature"},
	{"geometry":{"coordinates":[9.225605,45.535273],"type":"Point"},"properties":{"osm_id":"4933663432","tag":{"amenity":"waste_basket"}},"type":"Feature"},
	{"geometry":{"coordinates":[9.227923,45.537281],"type":"Point"},"properties":{"osm_id":"4933663495","tag":{"amenity":"waste_basket"}},"type":"Feature"},
	{"geometry":{"coordinates":[9.227869,45.537199],"type":"Point"},"properties":{"osm_id":"4933663496","tag":{"amenity":"waste_basket"}},"type":"Feature"},
	{"geometry":{"coordinates":[9.227998,45.538345],"type":"Point"},"properties":{"osm_id":"4933663519","tag":{"amenity":"waste_basket"}},"type":"Feature"},
	{"geometry":{"coordinates":[9.227824,45.538365],"type":"Point"},"properties":{"osm_id":"4933663520","tag":{"amenity":"waste_basket"}},"type":"Feature"},
	{"geometry":{"coordinates":[9.228323,45.538251],"type":"Point"},"properties":{"osm_id":"4933663521","tag":{"amenity":"waste_basket"}},"type":"Feature"},
	{"geometry":{"coordinates":[9.227966,45.538221],"type":"Point"},"properties":{"osm_id":"4933663522","tag":{"amenity":"waste_basket"}},"type":"Feature"},
	{"geometry":{"coordinates":[9.225447,45.525982],"type":"Point"},"properties":{"osm_id":"5139026855","tag":{"amenity":"waste_basket"}},"type":"Feature"},
	{"geometry":{"coordinates":[9.22615,45.525166],"type":"Point"},"properties":{"osm_id":"5139026888","tag":{"amenity":"waste_basket"}},"type":"Feature"},
	{"geometry":{"coordinates":[9.226233,45.525273],"type":"Point"},"properties":{"osm_id":"5139026893","tag":{"amenity":"waste_basket"}},"type":"Feature"},
	{"geometry":{"coordinates":[9.225259,45.524591],"type":"Point"},"properties":{"osm_id":"5139031976","tag":{"amenity":"waste_basket"}},"type":"Feature"},
	{"geometry":{"coordinates":[9.226303,45.523911],"type":"Point"},"properties":{"osm_id":"5139032140","tag":{"amenity":"waste_basket"}},"type":"Feature"},
	{"geometry":{"coordinates":[9.225428,45.523945],"type":"Point"},"properties":{"osm_id":"5139032167","tag":{"amenity":"waste_basket"}},"type":"Feature"},
	{"geometry":{"coordinates":[9.224911,45.52373],"type":"Point"},"properties":{"osm_id":"5139032168","tag":{"amenity":"waste_basket"}},"type":"Feature"},
	{"geometry":{"coordinates":[9.227534,45.524093],"type":"Point"},"properties":{"osm_id":"5139032199","tag":{"amenity":"waste_basket"}},"type":"Feature"},
	{"geometry":{"coordinates":[9.228194,45.52382],"type":"Point"},"properties":{"osm_id":"5139032201","tag":{"amenity":"waste_basket"}},"type":"Feature"},
	{"geometry":{"coordinates":[9.22696,45.52401],"type":"Point"},"properties":{"osm_id":"5139032216","tag":{"amenity":"waste_basket"}},"type":"Feature"},
	{"geometry":{"coordinates":[9.226936,45.524102],"type":"Point"},"properties":{"osm_id":"5139032217","tag":{"amenity":"waste_basket"}},"type":"Feature"},
	{"geometry":{"coordinates":[9.227134,45.525384],"type":"Point"},"properties":{"osm_id":"5139032312","tag":{"amenity":"waste_basket"}},"type":"Feature"},
	{"geometry":{"coordinates":[9.224975,45.525361],"type":"Point"},"properties":{"osm_id":"5139032327","tag":{"amenity":"waste_basket"}},"type":"Feature"},
	{"geometry":{"coordinates":[9.2249,45.525367],"type":"Point"},"properties":{"osm_id":"5139032328","tag":{"amenity":"waste_basket"}},"type":"Feature"},
	{"geometry":{"coordinates":[9.225179,45.524488],"type":"Point"},"properties":{"osm_id":"5139032330","tag":{"amenity":"waste_basket"}},"type":"Feature"},
	{"geometry":{"coordinates":[9.224248,45.524356],"type":"Point"},"properties":{"osm_id":"5139032331","tag":{"amenity":"waste_basket"}},"type":"Feature"},
	{"geometry":{"coordinates":[9.224154,45.524382],"type":"Point"},"properties":{"osm_id":"5139032332","tag":{"amenity":"waste_basket"}},"type":"Feature"},
	{"geometry":{"coordinates":[9.225026,45.525557],"type":"Point"},"properties":{"osm_id":"5139032353","tag":{"amenity":"waste_basket"}},"type":"Feature"},
	{"geometry":{"coordinates":[9.22563,45.524935],"type":"Point"},"properties":{"osm_id":"5139032354","tag":{"amenity":"waste_basket"}},"type":"Feature"},
	{"geometry":{"coordinates":[9.228457,45.525661],"type":"Point"},"properties":{"osm_id":"5139032657","tag":{"amenity":"waste_basket"}},"type":"Feature"},
	{"geometry":{"coordinates":[9.228361,45.52539],"type":"Point"},"properties":{"osm_id":"5139032658","tag":{"amenity":"waste_basket"}},"type":"Feature"},
	{"geometry":{"coordinates":[9.228111,45.524559],"type":"Point"},"properties":{"osm_id":"5139032684","tag":{"amenity":"waste_basket"}},"type":"Feature"},
	{"geometry":{"coordinates":[9.228038,45.524241],"type":"Point"},"properties":{"osm_id":"5139032698","tag":{"amenity":"waste_basket"}},"type":"Feature"},
	{"geometry":{"coordinates":[9.227977,45.524123],"type":"Point"},"properties":{"osm_id":"5139032699","tag":{"amenity":"waste_basket"}},"type":"Feature"},
	{"geometry":{"coordinates":[9.22789,45.523785],"type":"Point"},"properties":{"osm_id":"5139032711","tag":{"amenity":"waste_basket"}},"type":"Feature"},
	{"geometry":{"coordinates":[9.227196,45.525598],"type":"Point"},"properties":{"osm_id":"5139032726","tag":{"amenity":"waste_basket"}},"type":"Feature"},
	{"geometry":{"coordinates":[9.227097,45.52582],"type":"Point"},"properties":{"osm_id":"5139032727","tag":{"amenity":"waste_basket"}},"type":"Feature"},
	{"geometry":{"coordinates":[9.227336,45.525703],"type":"Point"},"properties":{"osm_id":"5139032734","tag":{"amenity":"waste_basket"}},"type":"Feature"},
	{"geometry":{"coordinates":[9.186327,45.551417],"type":"Point"},"properties":{"osm_id":"5152536201","tag":{"amenity":"waste_basket"}},"type":"Feature"},
	{"geometry":{"coordinates":[9.186665,45.551462],"type":"Point"},"properties":{"osm_id":"5152536206","tag":{"amenity":"waste_basket"}},"type":"Feature"},
	{"geometry":{"coordinates":[9.187286,45.551598],"type":"Point"},"properties":{"osm_id":"5152536207","tag":{"amenity":"waste_basket"}},"type":"Feature"},
	{"geometry":{"coordinates":[9.18908,45.551982],"type":"Point"},"properties":{"osm_id":"5152536213","tag":{"amenity":"waste_basket"}},"type":"Feature"},
	{"geometry":{"coordinates":[9.189637,45.552099],"type":"Point"},"properties":{"osm_id":"5152536218","tag":{"amenity":"waste_basket"}},"type":"Feature"},
	{"geometry":{"coordinates":[9.190836,45.552345],"type":"Point"},"properties":{"osm_id":"5152536219","tag":{"amenity":"waste_basket"}},"type":"Feature"},
	{"geometry":{"coordinates":[9.226563,45.531899],"type":"Point"},"properties":{"osm_id":"5484145978","tag":{"amenity":"waste_basket"}},"type":"Feature"},
	{"geometry":{"coordinates":[9.226579,45.531354],"type":"Point"},"properties":{"osm_id":"5484145998","tag":{"amenity":"waste_basket"}},"type":"Feature"},
	{"geometry":{"coordinates":[9.226574,45.532793],"type":"Point"},"properties":{"osm_id":"5484148871","tag":{"amenity":"waste_basket"}},"type":"Feature"},
	{"geometry":{"coordinates":[9.226381,45.532849],"type":"Point"},"properties":{"osm_id":"5484148872","tag":{"amenity":"waste_basket"}},"type":"Feature"},
	{"geometry":{"coordinates":[9.22582,45.532759],"type":"Point"},"properties":{"osm_id":"5484148890","tag":{"amenity":"waste_basket"}},"type":"Feature"},
	{"geometry":{"coordinates":[9.225568,45.532755],"type":"Point"},"properties":{"osm_id":"5484148891","tag":{"amenity":"waste_basket"}},"type":"Feature"},
	{"geometry":{"coordinates":[9.225777,45.532163],"type":"Point"},"properties":{"osm_id":"5484148908","tag":{"amenity":"waste_basket"}},"type":"Feature"},
	{"geometry":{"coordinates":[9.225879,45.531754],"type":"Point"},"properties":{"osm_id":"5484157625","tag":{"amenity":"waste_basket"}},"type":"Feature"},
	{"geometry":{"coordinates":[9.225725,45.531853],"type":"Point"},"properties":{"osm_id":"5484157626","tag":{"amenity":"waste_basket"}},"type":"Feature"},
	{"geometry":{"coordinates":[9.225723,45.531695],"type":"Point"},"properties":{"osm_id":"5484157627","tag":{"amenity":"waste_basket"}},"type":"Feature"},
	{"geometry":{"coordinates":[9.225664,45.531739],"type":"Point"},"properties":{"osm_id":"5484157628","tag":{"amenity":"waste_basket"}},"type":"Feature"},
	{"geometry":{"coordinates":[9.227993,45.531301],"type":"Point"},"properties":{"osm_id":"5484157926","tag":{"amenity":"waste_basket"}},"type":"Feature"},
	{"geometry":{"coordinates":[9.228188,45.532635],"type":"Point"},"properties":{"osm_id":"5484157951","tag":{"amenity":"waste_basket"}},"type":"Feature"},
	{"geometry":{"coordinates":[9.228151,45.532092],"type":"Point"},"properties":{"osm_id":"5484158122","tag":{"amenity":"waste_basket"}},"type":"Feature"},
	{"geometry":{"coordinates":[9.228001,45.531429],"type":"Point"},"properties":{"osm_id":"5484158136","tag":{"amenity":"waste_basket"}},"type":"Feature"},
	{"geometry":{"coordinates":[9.228253,45.531761],"type":"Point"},"properties":{"osm_id":"5484158138","tag":{"amenity":"waste_basket"}},"type":"Feature"},
	{"geometry":{"coordinates":[9.228065,45.531759],"type":"Point"},"properties":{"osm_id":"5484158139","tag":{"amenity":"waste_basket"}},"type":"Feature"},
	{"geometry":{"coordinates":[9.22807,45.531673],"type":"Point"},"properties":{"osm_id":"5484158140","tag":{"amenity":"waste_basket"}},"type":"Feature"},
	{"geometry":{"coordinates":[9.177665,45.552284],"type":"Point"},"properties":{"osm_id":"5491620559","tag":{"amenity":"waste_basket"}},"type":"Feature"},
	{"geometry":{"coordinates":[9.17753,45.551957],"type":"Point"},"properties":{"osm_id":"5491620571","tag":{"amenity":"waste_basket","mapillary":"bzyR7M7utIGCKljvnzKMbA"}},"type":"Feature"},
	{"geometry":{"coordinates":[9.177701,45.55193],"type":"Point"},"properties":{"osm_id":"5491620576","tag":{"amenity":"waste_basket","mapillary":"bzyR7M7utIGCKljvnzKMbA"}},"type":"Feature"},
	{"geometry":{"coordinates":[9.177923,45.550944],"type":"Point"},"properties":{"osm_id":"5491620580","tag":{"amenity":"waste_basket","mapillary":"CH5zkut3W6aKBegeO8COmA","waste":"dog_excrement"}},"type":"Feature"},
	{"geometry":{"coordinates":[9.204784,45.523838],"type":"Point"},"properties":{"osm_id":"5555183614","tag":{"amenity":"waste_basket"}},"type":"Feature"},
	{"geometry":{"coordinates":[9.226995,45.528422],"type":"Point"},"properties":{"osm_id":"5599948200","tag":{"amenity":"waste_basket"}},"type":"Feature"},
	{"geometry":{"coordinates":[9.22819,45.528514],"type":"Point"},"properties":{"osm_id":"5599955549","tag":{"amenity":"waste_basket"}},"type":"Feature"},
	{"geometry":{"coordinates":[9.227881,45.527816],"type":"Point"},"properties":{"osm_id":"5599955595","tag":{"amenity":"waste_basket"}},"type":"Feature"},
	{"geometry":{"coordinates":[9.22644,45.526906],"type":"Point"},"properties":{"osm_id":"5599955850","tag":{"amenity":"waste_basket"}},"type":"Feature"},
	{"geometry":{"coordinates":[9.227545,45.526741],"type":"Point"},"properties":{"osm_id":"5599955904","tag":{"amenity":"waste_basket"}},"type":"Feature"},
	{"geometry":{"coordinates":[9.227676,45.526835],"type":"Point"},"properties":{"osm_id":"5599955905","tag":{"amenity":"waste_basket"}},"type":"Feature"},
	{"geometry":{"coordinates":[9.228508,45.526543],"type":"Point"},"properties":{"osm_id":"5599955906","tag":{"amenity":"recycling","recycling:clothes":"yes","recycling:drugs":"yes","recycling_type":"container"}},"type":"Feature"},
	{"geometry":{"coordinates":[9.226399,45.527056],"type":"Point"},"properties":{"osm_id":"5599955971","tag":{"amenity":"waste_basket"}},"type":"Feature"},
	{"geometry":{"coordinates":[9.228505,45.526615],"type":"Point"},"properties":{"osm_id":"5599956424","tag":{"amenity":"waste_basket"}},"type":"Feature"},
	{"geometry":{"coordinates":[9.228446,45.526307],"type":"Point"},"properties":{"osm_id":"5599956426","tag":{"amenity":"waste_basket"}},"type":"Feature"},
	{"geometry":{"coordinates":[9.22201,45.53371],"type":"Point"},"properties":{"osm_id":"5656215818","tag":{"amenity":"waste_basket"}},"type":"Feature"},
	{"geometry":{"coordinates":[9.143727,45.534622],"type":"Point"},"properties":{"osm_id":"5780053994","tag":{"amenity":"waste_basket"}},"type":"Feature"},
	{"geometry":{"coordinates":[9.141468,45.53561],"type":"Point"},"properties":{"osm_id":"5783327034","tag":{"amenity":"waste_basket"}},"type":"Feature"},
	{"geometry":{"coordinates":[9.141011,45.534582],"type":"Point"},"properties":{"osm_id":"5785269963","tag":{"amenity":"waste_basket"}},"type":"Feature"},
	{"geometry":{"coordinates":[9.14116,45.534987],"type":"Point"},"properties":{"osm_id":"5785270092","tag":{"amenity":"waste_basket"}},"type":"Feature"},
	{"geometry":{"coordinates":[9.141198,45.53443],"type":"Point"},"properties":{"osm_id":"5785270093","tag":{"amenity":"waste_basket"}},"type":"Feature"},
	{"geometry":{"coordinates":[9.143475,45.532814],"type":"Point"},"properties":{"osm_id":"5790292674","tag":{"amenity":"waste_basket"}},"type":"Feature"},
	{"geometry":{"coordinates":[9.143328,45.533348],"type":"Point"},"properties":{"osm_id":"5790292692","tag":{"amenity":"waste_basket"}},"type":"Feature"},
	{"geometry":{"coordinates":[9.142109,45.532671],"type":"Point"},"properties":{"osm_id":"5790292733","tag":{"amenity":"waste_basket"}},"type":"Feature"},
	{"geometry":{"coordinates":[9.141987,45.532189],"type":"Point"},"properties":{"osm_id":"5790292742","tag":{"amenity":"waste_basket"}},"type":"Feature"},
	{"geometry":{"coordinates":[9.15141,45.532825],"type":"Point"},"properties":{"osm_id":"5854880033","tag":{"amenity":"waste_basket"}},"type":"Feature"},
	{"geometry":{"coordinates":[9.219651,45.53036],"type":"Point"},"properties":{"osm_id":"5936931436","tag":{"amenity":"waste_basket","waste":"trash"}},"type":"Feature"},
	{"geometry":{"coordinates":[9.219328,45.530481],"type":"Point"},"properties":{"osm_id":"5936931437","tag":{"amenity":"waste_basket","waste":"trash"}},"type":"Feature"},
	{"geometry":{"coordinates":[9.224142,45.528552],"type":"Point"},"properties":{"osm_id":"5949645736","tag":{"amenity":"waste_basket","waste":"trash"}},"type":"Feature"},
	{"geometry":{"coordinates":[9.224578,45.528628],"type":"Point"},"properties":{"osm_id":"5949645737","tag":{"amenity":"waste_basket","waste":"trash"}},"type":"Feature"},
	{"geometry":{"coordinates":[9.224475,45.528568],"type":"Point"},"properties":{"osm_id":"5949645738","tag":{"amenity":"waste_basket","waste":"trash"}},"type":"Feature"},
	{"geometry":{"coordinates":[9.223763,45.528646],"type":"Point"},"properties":{"osm_id":"5949645739","tag":{"amenity":"waste_basket","waste":"trash"}},"type":"Feature"},
	{"geometry":{"coordinates":[9.218344,45.532617],"type":"Point"},"properties":{"osm_id":"6122355902","tag":{"amenity":"waste_basket","waste":"trash"}},"type":"Feature"},
	{"geometry":{"coordinates":[9.22447,45.528779],"type":"Point"},"properties":{"osm_id":"6123789100","tag":{"amenity":"waste_basket","waste":"trash"}},"type":"Feature"},
	{"geometry":{"coordinates":[9.224292,45.528853],"type":"Point"},"properties":{"osm_id":"6125237020","tag":{"amenity":"waste_basket","waste":"trash"}},"type":"Feature"},
	{"geometry":{"coordinates":[9.224123,45.528918],"type":"Point"},"properties":{"osm_id":"6126946768","tag":{"amenity":"waste_basket","waste":"trash"}},"type":"Feature"},
	{"geometry":{"coordinates":[9.218686,45.528692],"type":"Point"},"properties":{"osm_id":"6151621849","tag":{"amenity":"waste_basket","waste":"trash"}},"type":"Feature"},
	{"geometry":{"coordinates":[9.146355,45.525943],"type":"Point"},"properties":{"barrier":"gate","osm_id":"6156785917","tag":{"access":"yes"}},"type":"Feature"},
	{"geometry":{"coordinates":[9.142688,45.525118],"type":"Point"},"properties":{"osm_id":"6156785942","tag":{"amenity":"waste_basket"}},"type":"Feature"},
	{"geometry":{"coordinates":[9.224205,45.530501],"type":"Point"},"properties":{"osm_id":"6185367289","tag":{"amenity":"waste_basket","waste":"trash"}},"type":"Feature"},
	{"geometry":{"coordinates":[9.223592,45.528766],"type":"Point"},"properties":{"osm_id":"6213147812","tag":{"amenity":"waste_basket","waste":"trash"}},"type":"Feature"},
	{"geometry":{"coordinates":[9.223254,45.528889],"type":"Point"},"properties":{"osm_id":"6213147813","tag":{"amenity":"waste_basket","waste":"trash"}},"type":"Feature"},
	{"geometry":{"coordinates":[9.222904,45.529016],"type":"Point"},"properties":{"osm_id":"6213147814","tag":{"amenity":"waste_basket","waste":"trash"}},"type":"Feature"},
	{"geometry":{"coordinates":[9.219716,45.530133],"type":"Point"},"properties":{"osm_id":"6227168306","tag":{"amenity":"waste_basket","waste":"trash"}},"type":"Feature"},
	{"geometry":{"coordinates":[9.219201,45.529722],"type":"Point"},"properties":{"osm_id":"6227168307","tag":{"amenity":"waste_basket","waste":"trash"}},"type":"Feature"},
	{"geometry":{"coordinates":[9.21941,45.529636],"type":"Point"},"properties":{"osm_id":"6227168308","tag":{"amenity":"waste_basket","waste":"trash"}},"type":"Feature"},
	{"geometry":{"coordinates":[9.225057,45.529535],"type":"Point"},"properties":{"osm_id":"6293832409","tag":{"amenity":"waste_basket","waste":"trash"}},"type":"Feature"},
	{"geometry":{"coordinates":[9.224391,45.52859],"type":"Point"},"properties":{"osm_id":"6348348677","tag":{"amenity":"waste_basket","waste":"trash"}},"type":"Feature"},
	{"geometry":{"coordinates":[9.196912,45.553818],"type":"Point"},"properties":{"osm_id":"6443130164","tag":{"amenity":"waste_basket"}},"type":"Feature"},
	{"geometry":{"coordinates":[9.19664,45.553948],"type":"Point"},"properties":{"osm_id":"6443130165","tag":{"amenity":"waste_basket"}},"type":"Feature"},
	{"geometry":{"coordinates":[9.196276,45.554697],"type":"Point"},"properties":{"osm_id":"6443130166","tag":{"amenity":"waste_basket"}},"type":"Feature"},
	{"geometry":{"coordinates":[9.197392,45.554243],"type":"Point"},"properties":{"osm_id":"6443130167","tag":{"amenity":"waste_basket"}},"type":"Feature"},
	{"geometry":{"coordinates":[9.16094,45.526215],"type":"Point"},"properties":{"osm_id":"6564647151","tag":{"amenity":"recycling","recycling:clothes":"yes","recycling_type":"container"}},"type":"Feature"},
	{"geometry":{"coordinates":[9.157201,45.528371],"type":"Point"},"properties":{"osm_id":"6565597158","tag":{"amenity":"recycling","recycling:clothes":"yes","recycling_type":"container"}},"type":"Feature"},
	{"geometry":{"coordinates":[9.162725,45.524972],"type":"Point"},"properties":{"osm_id":"6569476209","tag":{"amenity":"recycling","recycling:clothes":"yes","recycling_type":"container"}},"type":"Feature"},
	{"geometry":{"coordinates":[9.154424,45.530658],"type":"Point"},"properties":{"osm_id":"6652757417","tag":{"amenity":"waste_basket","waste":"trash"}},"type":"Feature"},
	{"geometry":{"coordinates":[9.147818,45.527937],"type":"Point"},"properties":{"osm_id":"6652757869","tag":{"amenity":"waste_basket","waste":"trash"}},"type":"Feature"},
	{"geometry":{"coordinates":[9.172982,45.547705],"type":"Point"},"properties":{"osm_id":"6876304779","tag":{"amenity":"recycling","recycling:clothes":"yes","recycling_type":"container"}},"type":"Feature"},
	{"geometry":{"coordinates":[9.141927,45.532826],"type":"Point"},"properties":{"osm_id":"7600366670","tag":{"amenity":"recycling","recycling:clothes":"yes","recycling_type":"container"}},"type":"Feature"},
	{"geometry":{"coordinates":[9.141448,45.531147],"type":"Point"},"properties":{"osm_id":"7883580797","tag":{"amenity":"recycling","recycling:paper":"yes","recycling:plastic":"yes","recycling_type":"container"}},"type":"Feature"},
	{"geometry":{"coordinates":[9.141254,45.531097],"type":"Point"},"properties":{"osm_id":"7883589240","tag":{"amenity":"recycling","recycling:paper":"yes","recycling:plastic":"yes","recycling_type":"container"}},"type":"Feature"},
	{"geometry":{"coordinates":[9.141129,45.531953],"type":"Point"},"properties":{"osm_id":"7934055552","tag":{"amenity":"waste_basket","waste":"trash"}},"type":"Feature"},
	{"geometry":{"coordinates":[9.140992,45.53194],"type":"Point"},"properties":{"osm_id":"7934055553","tag":{"amenity":"recycling","operator":"Caritas Ambrosiana","recycling:clothes":"yes","recycling_type":"container"}},"type":"Feature"}
]
}
