{
"type": "FeatureCollection",
"features": [
	{"geometry":{"coordinates":[9.163171,45.430425],"type":"Point"},"properties":{"osm_id":"268403460","tag":{"amenity":"recycling","recycling_type":"container"}},"type":"Feature"},
	{"geometry":{"coordinates":[9.164658,45.432731],"type":"Point"},"properties":{"osm_id":"268403463","tag":{"amenity":"recycling"}},"type":"Feature"},
	{"geometry":{"coordinates":[9.152349,45.427921],"type":"Point"},"properties":{"osm_id":"268405058","tag":{"amenity":"recycling","recycling:clothes":"yes","recycling_type":"container"}},"type":"Feature"},
	{"geometry":{"coordinates":[9.19772,45.452171],"type":"Point"},"properties":{"osm_id":"282180178","tag":{"amenity":"recycling","recycling:clothes":"yes"}},"type":"Feature"},
	{"geometry":{"coordinates":[9.205064,45.458535],"type":"Point"},"properties":{"osm_id":"282180359","tag":{"amenity":"recycling","recycling:clothes":"yes","recycling_type":"container"}},"type":"Feature"},
	{"geometry":{"coordinates":[9.147877,45.456049],"type":"Point"},"properties":{"osm_id":"282531483","tag":{"amenity":"recycling","recycling:glass":"yes","recycling:paper":"yes","recycling_type":"container"}},"type":"Feature"},
	{"geometry":{"coordinates":[9.186422,45.447459],"type":"Point"},"properties":{"osm_id":"2486686636","tag":{"amenity":"waste_basket"}},"type":"Feature"},
	{"geometry":{"coordinates":[9.2027,45.450073],"type":"Point"},"properties":{"osm_id":"2505950575","tag":{"amenity":"waste_basket"}},"type":"Feature"},
	{"geometry":{"coordinates":[9.155984,45.449575],"type":"Point"},"properties":{"barrier":"gate","osm_id":"2784803150"},"type":"Feature"},
	{"geometry":{"coordinates":[9.220874,45.448627],"type":"Point"},"properties":{"osm_id":"2917020243","tag":{"amenity":"recycling","recycling:clothes":"yes","recycling_type":"container"}},"type":"Feature"},
	{"geometry":{"coordinates":[9.184873,45.443384],"type":"Point"},"properties":{"osm_id":"2920519843","tag":{"amenity":"recycling","recycling:clothes":"yes","recycling_type":"container"}},"type":"Feature"},
	{"geometry":{"coordinates":[9.153018,45.431708],"type":"Point"},"properties":{"osm_id":"2923024597","tag":{"amenity":"recycling","recycling:clothes":"yes","recycling:glass":"yes","recycling:paper":"yes","recycling:paper_packaging":"yes"}},"type":"Feature"},
	{"geometry":{"coordinates":[9.224774,45.450479],"type":"Point"},"properties":{"osm_id":"2926015660","tag":{"amenity":"recycling","recycling:clothes":"yes"}},"type":"Feature"},
	{"geometry":{"coordinates":[9.22206,45.443423],"type":"Point"},"properties":{"osm_id":"2926072343","tag":{"amenity":"recycling","recycling:clothes":"yes"}},"type":"Feature"},
	{"geometry":{"coordinates":[9.196433,45.434347],"type":"Point"},"properties":{"osm_id":"3522113388","tag":{"amenity":"waste_basket"}},"type":"Feature"},
	{"geometry":{"coordinates":[9.195756,45.435037],"type":"Point"},"properties":{"osm_id":"3522113389","tag":{"amenity":"waste_basket"}},"type":"Feature"},
	{"geometry":{"coordinates":[9.158041,45.455464],"type":"Point"},"properties":{"osm_id":"3621886734","tag":{"amenity":"recycling","check_date:recycling":"2020-09-22","recycling:clothes":"yes","recycling_type":"container"}},"type":"Feature"},
	{"geometry":{"coordinates":[9.155474,45.44996],"type":"Point"},"properties":{"barrier":"gate","osm_id":"3623010100"},"type":"Feature"},
	{"geometry":{"coordinates":[9.155486,45.438764],"type":"Point"},"properties":{"osm_id":"3733233838","tag":{"amenity":"recycling","recycling:clothes":"yes","recycling_type":"container"}},"type":"Feature"},
	{"geometry":{"coordinates":[9.195571,45.455992],"type":"Point"},"properties":{"osm_id":"3991748437","tag":{"amenity":"waste_basket"}},"type":"Feature"},
	{"geometry":{"coordinates":[9.195558,45.456062],"type":"Point"},"properties":{"osm_id":"3991748445","tag":{"amenity":"waste_basket"}},"type":"Feature"},
	{"geometry":{"coordinates":[9.192586,45.456124],"type":"Point"},"properties":{"osm_id":"3991748448","tag":{"amenity":"waste_basket"}},"type":"Feature"},
	{"geometry":{"coordinates":[9.192626,45.456124],"type":"Point"},"properties":{"osm_id":"3991748449","tag":{"amenity":"waste_basket"}},"type":"Feature"},
	{"geometry":{"coordinates":[9.195551,45.456135],"type":"Point"},"properties":{"osm_id":"3991748450","tag":{"amenity":"waste_basket"}},"type":"Feature"},
	{"geometry":{"coordinates":[9.192659,45.455943],"type":"Point"},"properties":{"osm_id":"3991749116","tag":{"amenity":"waste_basket"}},"type":"Feature"},
	{"geometry":{"coordinates":[9.19255,45.455951],"type":"Point"},"properties":{"osm_id":"3991749117","tag":{"amenity":"waste_basket"}},"type":"Feature"},
	{"geometry":{"coordinates":[9.192084,45.455458],"type":"Point"},"properties":{"osm_id":"3991749251","tag":{"amenity":"waste_basket"}},"type":"Feature"},
	{"geometry":{"coordinates":[9.192109,45.455375],"type":"Point"},"properties":{"osm_id":"3991749258","tag":{"amenity":"waste_basket"}},"type":"Feature"},
	{"geometry":{"coordinates":[9.192287,45.455567],"type":"Point"},"properties":{"osm_id":"3991749278","tag":{"amenity":"waste_basket"}},"type":"Feature"},
	{"geometry":{"coordinates":[9.190775,45.457209],"type":"Point"},"properties":{"osm_id":"3991749284","tag":{"amenity":"waste_basket"}},"type":"Feature"},
	{"geometry":{"coordinates":[9.193845,45.457232],"type":"Point"},"properties":{"osm_id":"3991749285","tag":{"amenity":"waste_basket"}},"type":"Feature"},
	{"geometry":{"coordinates":[9.192947,45.457565],"type":"Point"},"properties":{"osm_id":"3991749293","tag":{"amenity":"waste_basket"}},"type":"Feature"},
	{"geometry":{"coordinates":[9.19234,45.459046],"type":"Point"},"properties":{"osm_id":"3991749309","tag":{"amenity":"waste_basket"}},"type":"Feature"},
	{"geometry":{"coordinates":[9.192215,45.459128],"type":"Point"},"properties":{"osm_id":"3991749313","tag":{"amenity":"waste_basket"}},"type":"Feature"},
	{"geometry":{"coordinates":[9.192489,45.459239],"type":"Point"},"properties":{"osm_id":"3991749319","tag":{"amenity":"waste_basket"}},"type":"Feature"},
	{"geometry":{"coordinates":[9.192624,45.456014],"type":"Point"},"properties":{"osm_id":"3991749563","tag":{"amenity":"waste_basket"}},"type":"Feature"},
	{"geometry":{"coordinates":[9.19259,45.456013],"type":"Point"},"properties":{"osm_id":"3991751151","tag":{"amenity":"waste_basket"}},"type":"Feature"},
	{"geometry":{"coordinates":[9.19278,45.459448],"type":"Point"},"properties":{"osm_id":"3991754218","tag":{"amenity":"waste_basket"}},"type":"Feature"},
	{"geometry":{"coordinates":[9.195034,45.456373],"type":"Point"},"properties":{"osm_id":"3991757887","tag":{"amenity":"waste_basket"}},"type":"Feature"},
	{"geometry":{"coordinates":[9.192633,45.456405],"type":"Point"},"properties":{"osm_id":"3991757896","tag":{"amenity":"waste_basket"}},"type":"Feature"},
	{"geometry":{"coordinates":[9.195352,45.456429],"type":"Point"},"properties":{"osm_id":"3991757897","tag":{"amenity":"waste_basket"}},"type":"Feature"},
	{"geometry":{"coordinates":[9.19161,45.456319],"type":"Point"},"properties":{"osm_id":"3991758457","tag":{"amenity":"waste_basket"}},"type":"Feature"},
	{"geometry":{"coordinates":[9.19146,45.456819],"type":"Point"},"properties":{"osm_id":"3991758891","tag":{"amenity":"waste_basket"}},"type":"Feature"},
	{"geometry":{"coordinates":[9.194171,45.457181],"type":"Point"},"properties":{"osm_id":"3991759218","tag":{"amenity":"waste_basket"}},"type":"Feature"},
	{"geometry":{"coordinates":[9.192936,45.457331],"type":"Point"},"properties":{"osm_id":"3991759224","tag":{"amenity":"waste_basket"}},"type":"Feature"},
	{"geometry":{"coordinates":[9.193319,45.457455],"type":"Point"},"properties":{"osm_id":"3991759248","tag":{"amenity":"waste_basket"}},"type":"Feature"},
	{"geometry":{"coordinates":[9.192854,45.45754],"type":"Point"},"properties":{"osm_id":"3991759252","tag":{"amenity":"waste_basket"}},"type":"Feature"},
	{"geometry":{"coordinates":[9.191799,45.457187],"type":"Point"},"properties":{"osm_id":"3991759963","tag":{"amenity":"waste_basket"}},"type":"Feature"},
	{"geometry":{"coordinates":[9.192538,45.457491],"type":"Point"},"properties":{"osm_id":"3991759968","tag":{"amenity":"waste_basket"}},"type":"Feature"},
	{"geometry":{"coordinates":[9.191045,45.45895],"type":"Point"},"properties":{"osm_id":"3991759986","tag":{"amenity":"waste_basket"}},"type":"Feature"},
	{"geometry":{"coordinates":[9.192175,45.458242],"type":"Point"},"properties":{"osm_id":"3991760515","tag":{"amenity":"waste_basket"}},"type":"Feature"},
	{"geometry":{"coordinates":[9.190519,45.459406],"type":"Point"},"properties":{"osm_id":"3991761570","tag":{"amenity":"waste_basket"}},"type":"Feature"},
	{"geometry":{"coordinates":[9.190474,45.459428],"type":"Point"},"properties":{"osm_id":"3991762566","tag":{"amenity":"waste_basket"}},"type":"Feature"},
	{"geometry":{"coordinates":[9.190071,45.459898],"type":"Point"},"properties":{"osm_id":"3991762571","tag":{"amenity":"waste_basket"}},"type":"Feature"},
	{"geometry":{"coordinates":[9.191209,45.459904],"type":"Point"},"properties":{"osm_id":"3991762572","tag":{"amenity":"waste_basket"}},"type":"Feature"},
	{"geometry":{"coordinates":[9.192373,45.458254],"type":"Point"},"properties":{"osm_id":"3991762664","tag":{"amenity":"waste_basket"}},"type":"Feature"},
	{"geometry":{"coordinates":[9.192201,45.458436],"type":"Point"},"properties":{"osm_id":"3991762666","tag":{"amenity":"waste_basket"}},"type":"Feature"},
	{"geometry":{"coordinates":[9.191663,45.458558],"type":"Point"},"properties":{"osm_id":"3991762670","tag":{"amenity":"waste_basket"}},"type":"Feature"},
	{"geometry":{"coordinates":[9.191991,45.459546],"type":"Point"},"properties":{"osm_id":"3991763393","tag":{"amenity":"waste_basket"}},"type":"Feature"},
	{"geometry":{"coordinates":[9.191154,45.459989],"type":"Point"},"properties":{"osm_id":"3991763574","tag":{"amenity":"waste_basket"}},"type":"Feature"},
	{"geometry":{"coordinates":[9.193027,45.460013],"type":"Point"},"properties":{"osm_id":"3991763742","tag":{"amenity":"waste_basket"}},"type":"Feature"},
	{"geometry":{"coordinates":[9.197492,45.447929],"type":"Point"},"properties":{"osm_id":"4063105245","tag":{"amenity":"recycling","recycling:clothes":"yes","recycling_type":"container"}},"type":"Feature"},
	{"geometry":{"coordinates":[9.211594,45.456589],"type":"Point"},"properties":{"osm_id":"4234478878","tag":{"amenity":"waste_basket"}},"type":"Feature"},
	{"geometry":{"coordinates":[9.205713,45.458516],"type":"Point"},"properties":{"osm_id":"4318423619","tag":{"amenity":"waste_basket"}},"type":"Feature"},
	{"geometry":{"coordinates":[9.178443,45.459131],"type":"Point"},"properties":{"osm_id":"4348512496","tag":{"amenity":"waste_basket"}},"type":"Feature"},
	{"geometry":{"coordinates":[9.178251,45.451742],"type":"Point"},"properties":{"osm_id":"4349018494","tag":{"amenity":"waste_basket"}},"type":"Feature"},
	{"geometry":{"coordinates":[9.19321,45.435917],"type":"Point"},"properties":{"osm_id":"4596130746","tag":{"amenity":"waste_basket"}},"type":"Feature"},
	{"geometry":{"coordinates":[9.202699,45.447201],"type":"Point"},"properties":{"osm_id":"4863585574","tag":{"amenity":"recycling","recycling:clothes":"yes","recycling:shoes":"yes","recycling_type":"container"}},"type":"Feature"},
	{"geometry":{"coordinates":[9.187118,45.460095],"type":"Point"},"properties":{"osm_id":"4971706411","tag":{"amenity":"waste_basket"}},"type":"Feature"},
	{"geometry":{"coordinates":[9.186607,45.459867],"type":"Point"},"properties":{"osm_id":"4971706414","tag":{"amenity":"waste_basket"}},"type":"Feature"},
	{"geometry":{"coordinates":[9.183056,45.459499],"type":"Point"},"properties":{"osm_id":"4971706709","tag":{"amenity":"waste_basket"}},"type":"Feature"},
	{"geometry":{"coordinates":[9.183436,45.459341],"type":"Point"},"properties":{"osm_id":"4971706711","tag":{"amenity":"waste_basket"}},"type":"Feature"},
	{"geometry":{"coordinates":[9.184081,45.459906],"type":"Point"},"properties":{"osm_id":"4971708330","tag":{"amenity":"waste_basket"}},"type":"Feature"},
	{"geometry":{"coordinates":[9.186867,45.459978],"type":"Point"},"properties":{"osm_id":"4971709222","tag":{"amenity":"waste_basket"}},"type":"Feature"},
	{"geometry":{"coordinates":[9.187196,45.45889],"type":"Point"},"properties":{"osm_id":"4971709234","tag":{"amenity":"waste_basket"}},"type":"Feature"},
	{"geometry":{"coordinates":[9.187271,45.458977],"type":"Point"},"properties":{"osm_id":"4971709238","tag":{"amenity":"waste_basket"}},"type":"Feature"},
	{"geometry":{"coordinates":[9.187805,45.459301],"type":"Point"},"properties":{"osm_id":"4971709240","tag":{"amenity":"waste_basket"}},"type":"Feature"},
	{"geometry":{"coordinates":[9.187997,45.459641],"type":"Point"},"properties":{"osm_id":"4971709252","tag":{"amenity":"waste_basket"}},"type":"Feature"},
	{"geometry":{"coordinates":[9.188221,45.45998],"type":"Point"},"properties":{"osm_id":"4971709253","tag":{"amenity":"waste_basket"}},"type":"Feature"},
	{"geometry":{"coordinates":[9.188162,45.459806],"type":"Point"},"properties":{"osm_id":"4971709254","tag":{"amenity":"waste_basket"}},"type":"Feature"},
	{"geometry":{"coordinates":[9.188076,45.459503],"type":"Point"},"properties":{"osm_id":"4971709255","tag":{"amenity":"waste_basket"}},"type":"Feature"},
	{"geometry":{"coordinates":[9.188875,45.459973],"type":"Point"},"properties":{"osm_id":"4971709256","tag":{"amenity":"waste_basket"}},"type":"Feature"},
	{"geometry":{"coordinates":[9.210753,45.451033],"type":"Point"},"properties":{"osm_id":"5111490825","tag":{"amenity":"waste_basket"}},"type":"Feature"},
	{"geometry":{"coordinates":[9.192464,45.435732],"type":"Point"},"properties":{"osm_id":"5133240050","tag":{"amenity":"waste_basket"}},"type":"Feature"},
	{"geometry":{"coordinates":[9.19379,45.436237],"type":"Point"},"properties":{"osm_id":"5133242371","tag":{"amenity":"waste_basket"}},"type":"Feature"},
	{"geometry":{"coordinates":[9.22372,45.444504],"type":"Point"},"properties":{"osm_id":"5176857323","tag":{"amenity":"waste_basket"}},"type":"Feature"},
	{"geometry":{"coordinates":[9.223128,45.444086],"type":"Point"},"properties":{"osm_id":"5176901321","tag":{"amenity":"waste_basket"}},"type":"Feature"},
	{"geometry":{"coordinates":[9.222365,45.457574],"type":"Point"},"properties":{"osm_id":"5299250298","tag":{"amenity":"waste_basket"}},"type":"Feature"},
	{"geometry":{"coordinates":[9.222325,45.456785],"type":"Point"},"properties":{"osm_id":"5299250318","tag":{"amenity":"waste_basket"}},"type":"Feature"},
	{"geometry":{"coordinates":[9.172366,45.459503],"type":"Point"},"properties":{"osm_id":"5336417822","tag":{"amenity":"waste_basket"}},"type":"Feature"},
	{"geometry":{"coordinates":[9.173241,45.458927],"type":"Point"},"properties":{"osm_id":"5365452504","tag":{"amenity":"waste_basket"}},"type":"Feature"},
	{"geometry":{"coordinates":[9.173184,45.458801],"type":"Point"},"properties":{"osm_id":"5365452509","tag":{"amenity":"waste_basket"}},"type":"Feature"},
	{"geometry":{"coordinates":[9.17316,45.458996],"type":"Point"},"properties":{"osm_id":"5365452510","tag":{"amenity":"waste_basket"}},"type":"Feature"},
	{"geometry":{"coordinates":[9.171503,45.457681],"type":"Point"},"properties":{"osm_id":"5365452827","tag":{"amenity":"waste_basket"}},"type":"Feature"},
	{"geometry":{"coordinates":[9.172224,45.458176],"type":"Point"},"properties":{"osm_id":"5365452831","tag":{"amenity":"waste_basket"}},"type":"Feature"},
	{"geometry":{"coordinates":[9.172095,45.458074],"type":"Point"},"properties":{"osm_id":"5365452832","tag":{"amenity":"waste_basket"}},"type":"Feature"},
	{"geometry":{"coordinates":[9.169893,45.458345],"type":"Point"},"properties":{"osm_id":"5365452860","tag":{"amenity":"waste_basket"}},"type":"Feature"},
	{"geometry":{"coordinates":[9.171047,45.459546],"type":"Point"},"properties":{"osm_id":"5365452865","tag":{"amenity":"waste_basket"}},"type":"Feature"},
	{"geometry":{"coordinates":[9.170567,45.459467],"type":"Point"},"properties":{"osm_id":"5365452866","tag":{"amenity":"waste_basket"}},"type":"Feature"},
	{"geometry":{"coordinates":[9.170647,45.459523],"type":"Point"},"properties":{"osm_id":"5365452867","tag":{"amenity":"waste_basket"}},"type":"Feature"},
	{"geometry":{"coordinates":[9.170206,45.459834],"type":"Point"},"properties":{"osm_id":"5382582245","tag":{"amenity":"waste_basket"}},"type":"Feature"},
	{"geometry":{"coordinates":[9.170137,45.459707],"type":"Point"},"properties":{"osm_id":"5382582246","tag":{"amenity":"waste_basket"}},"type":"Feature"},
	{"geometry":{"coordinates":[9.168952,45.460086],"type":"Point"},"properties":{"osm_id":"5382582270","tag":{"amenity":"waste_basket"}},"type":"Feature"},
	{"geometry":{"coordinates":[9.168975,45.460032],"type":"Point"},"properties":{"osm_id":"5382582271","tag":{"amenity":"waste_basket"}},"type":"Feature"},
	{"geometry":{"coordinates":[9.169397,45.459807],"type":"Point"},"properties":{"osm_id":"5382582306","tag":{"amenity":"waste_basket"}},"type":"Feature"},
	{"geometry":{"coordinates":[9.169585,45.459666],"type":"Point"},"properties":{"osm_id":"5382583312","tag":{"amenity":"waste_basket"}},"type":"Feature"},
	{"geometry":{"coordinates":[9.169417,45.459648],"type":"Point"},"properties":{"osm_id":"5382583313","tag":{"amenity":"waste_basket"}},"type":"Feature"},
	{"geometry":{"coordinates":[9.16854,45.459366],"type":"Point"},"properties":{"osm_id":"5382583316","tag":{"amenity":"waste_basket"}},"type":"Feature"},
	{"geometry":{"coordinates":[9.169602,45.458643],"type":"Point"},"properties":{"osm_id":"5382583732","tag":{"amenity":"waste_basket"}},"type":"Feature"},
	{"geometry":{"coordinates":[9.169233,45.458688],"type":"Point"},"properties":{"osm_id":"5382583733","tag":{"amenity":"waste_basket"}},"type":"Feature"},
	{"geometry":{"coordinates":[9.168327,45.459273],"type":"Point"},"properties":{"osm_id":"5382583734","tag":{"amenity":"waste_basket"}},"type":"Feature"},
	{"geometry":{"coordinates":[9.168474,45.459179],"type":"Point"},"properties":{"osm_id":"5382583735","tag":{"amenity":"waste_basket"}},"type":"Feature"},
	{"geometry":{"coordinates":[9.172632,45.455151],"type":"Point"},"properties":{"osm_id":"5450827400","tag":{"amenity":"waste_basket"}},"type":"Feature"},
	{"geometry":{"coordinates":[9.172769,45.454846],"type":"Point"},"properties":{"osm_id":"5450827401","tag":{"amenity":"waste_basket"}},"type":"Feature"},
	{"geometry":{"coordinates":[9.172543,45.45501],"type":"Point"},"properties":{"osm_id":"5450827402","tag":{"amenity":"waste_basket"}},"type":"Feature"},
	{"geometry":{"coordinates":[9.173337,45.454466],"type":"Point"},"properties":{"osm_id":"5450827407","tag":{"amenity":"waste_basket"}},"type":"Feature"},
	{"geometry":{"coordinates":[9.1732,45.454357],"type":"Point"},"properties":{"osm_id":"5450827415","tag":{"amenity":"waste_basket"}},"type":"Feature"},
	{"geometry":{"coordinates":[9.170888,45.453252],"type":"Point"},"properties":{"osm_id":"5450827550","tag":{"amenity":"waste_basket"}},"type":"Feature"},
	{"geometry":{"coordinates":[9.170289,45.453095],"type":"Point"},"properties":{"osm_id":"5450827560","tag":{"amenity":"waste_basket"}},"type":"Feature"},
	{"geometry":{"coordinates":[9.170196,45.452935],"type":"Point"},"properties":{"osm_id":"5450827561","tag":{"amenity":"waste_basket"}},"type":"Feature"},
	{"geometry":{"coordinates":[9.170143,45.452745],"type":"Point"},"properties":{"osm_id":"5450827562","tag":{"amenity":"waste_basket"}},"type":"Feature"},
	{"geometry":{"coordinates":[9.172039,45.453026],"type":"Point"},"properties":{"osm_id":"5450827953","tag":{"amenity":"waste_basket"}},"type":"Feature"},
	{"geometry":{"coordinates":[9.17179,45.453051],"type":"Point"},"properties":{"osm_id":"5450827954","tag":{"amenity":"waste_basket"}},"type":"Feature"},
	{"geometry":{"coordinates":[9.196088,45.459887],"type":"Point"},"properties":{"osm_id":"5515794043","tag":{"amenity":"waste_basket"}},"type":"Feature"},
	{"geometry":{"coordinates":[9.195887,45.459983],"type":"Point"},"properties":{"osm_id":"5515794046","tag":{"amenity":"waste_basket"}},"type":"Feature"},
	{"geometry":{"coordinates":[9.195942,45.460046],"type":"Point"},"properties":{"osm_id":"5515794047","tag":{"amenity":"waste_basket"}},"type":"Feature"},
	{"geometry":{"coordinates":[9.199473,45.459773],"type":"Point"},"properties":{"osm_id":"5535680541","tag":{"amenity":"waste_basket"}},"type":"Feature"},
	{"geometry":{"coordinates":[9.199108,45.459818],"type":"Point"},"properties":{"osm_id":"5535680550","tag":{"amenity":"waste_basket"}},"type":"Feature"},
	{"geometry":{"coordinates":[9.200629,45.459448],"type":"Point"},"properties":{"osm_id":"5535680556","tag":{"amenity":"waste_basket"}},"type":"Feature"},
	{"geometry":{"coordinates":[9.198834,45.459732],"type":"Point"},"properties":{"osm_id":"5535680583","tag":{"amenity":"waste_basket"}},"type":"Feature"},
	{"geometry":{"coordinates":[9.198657,45.459574],"type":"Point"},"properties":{"osm_id":"5535680584","tag":{"amenity":"waste_basket"}},"type":"Feature"},
	{"geometry":{"coordinates":[9.200768,45.458326],"type":"Point"},"properties":{"osm_id":"5535680593","tag":{"amenity":"waste_basket"}},"type":"Feature"},
	{"geometry":{"coordinates":[9.200975,45.458056],"type":"Point"},"properties":{"osm_id":"5535680594","tag":{"amenity":"waste_basket"}},"type":"Feature"},
	{"geometry":{"coordinates":[9.200704,45.458151],"type":"Point"},"properties":{"osm_id":"5535680595","tag":{"amenity":"waste_basket"}},"type":"Feature"},
	{"geometry":{"coordinates":[9.198971,45.457723],"type":"Point"},"properties":{"osm_id":"5535680699","tag":{"amenity":"waste_basket"}},"type":"Feature"},
	{"geometry":{"coordinates":[9.199076,45.457837],"type":"Point"},"properties":{"osm_id":"5535680700","tag":{"amenity":"waste_basket"}},"type":"Feature"},
	{"geometry":{"coordinates":[9.200495,45.457856],"type":"Point"},"properties":{"osm_id":"5535680701","tag":{"amenity":"waste_basket"}},"type":"Feature"},
	{"geometry":{"coordinates":[9.199145,45.457196],"type":"Point"},"properties":{"osm_id":"5535681129","tag":{"amenity":"waste_basket"}},"type":"Feature"},
	{"geometry":{"coordinates":[9.200685,45.456925],"type":"Point"},"properties":{"osm_id":"5535681240","tag":{"amenity":"waste_basket"}},"type":"Feature"},
	{"geometry":{"coordinates":[9.199339,45.456688],"type":"Point"},"properties":{"osm_id":"5535681242","tag":{"amenity":"waste_basket"}},"type":"Feature"},
	{"geometry":{"coordinates":[9.199135,45.456526],"type":"Point"},"properties":{"osm_id":"5535681246","tag":{"amenity":"waste_basket"}},"type":"Feature"},
	{"geometry":{"coordinates":[9.173648,45.458372],"type":"Point"},"properties":{"osm_id":"5567294170","tag":{"amenity":"waste_basket"}},"type":"Feature"},
	{"geometry":{"coordinates":[9.172651,45.457837],"type":"Point"},"properties":{"osm_id":"5567294182","tag":{"amenity":"waste_basket"}},"type":"Feature"},
	{"geometry":{"coordinates":[9.172546,45.45776],"type":"Point"},"properties":{"osm_id":"5567294187","tag":{"amenity":"waste_basket"}},"type":"Feature"},
	{"geometry":{"coordinates":[9.176658,45.458392],"type":"Point"},"properties":{"osm_id":"5567294386","tag":{"amenity":"waste_basket"}},"type":"Feature"},
	{"geometry":{"coordinates":[9.175542,45.458191],"type":"Point"},"properties":{"osm_id":"5567294395","tag":{"amenity":"waste_basket"}},"type":"Feature"},
	{"geometry":{"coordinates":[9.175314,45.458266],"type":"Point"},"properties":{"osm_id":"5567294396","tag":{"amenity":"waste_basket"}},"type":"Feature"},
	{"geometry":{"coordinates":[9.174061,45.458358],"type":"Point"},"properties":{"osm_id":"5567294413","tag":{"amenity":"waste_basket"}},"type":"Feature"},
	{"geometry":{"coordinates":[9.174169,45.458016],"type":"Point"},"properties":{"osm_id":"5567294419","tag":{"amenity":"waste_basket"}},"type":"Feature"},
	{"geometry":{"coordinates":[9.174075,45.458071],"type":"Point"},"properties":{"osm_id":"5567294420","tag":{"amenity":"waste_basket"}},"type":"Feature"},
	{"geometry":{"coordinates":[9.173686,45.457933],"type":"Point"},"properties":{"osm_id":"5567296521","tag":{"amenity":"waste_basket"}},"type":"Feature"},
	{"geometry":{"coordinates":[9.173501,45.457973],"type":"Point"},"properties":{"osm_id":"5567296522","tag":{"amenity":"waste_basket"}},"type":"Feature"},
	{"geometry":{"coordinates":[9.173372,45.457952],"type":"Point"},"properties":{"osm_id":"5567296523","tag":{"amenity":"waste_basket"}},"type":"Feature"},
	{"geometry":{"coordinates":[9.173836,45.458315],"type":"Point"},"properties":{"osm_id":"5567296530","tag":{"amenity":"waste_basket"}},"type":"Feature"},
	{"geometry":{"coordinates":[9.192998,45.452865],"type":"Point"},"properties":{"osm_id":"5598087967","tag":{"amenity":"waste_basket"}},"type":"Feature"},
	{"geometry":{"coordinates":[9.192807,45.453072],"type":"Point"},"properties":{"osm_id":"5598087968","tag":{"amenity":"waste_basket"}},"type":"Feature"},
	{"geometry":{"coordinates":[9.194299,45.452998],"type":"Point"},"properties":{"osm_id":"5598087971","tag":{"amenity":"waste_basket"}},"type":"Feature"},
	{"geometry":{"coordinates":[9.191574,45.453209],"type":"Point"},"properties":{"osm_id":"5598088006","tag":{"amenity":"waste_basket"}},"type":"Feature"},
	{"geometry":{"coordinates":[9.192904,45.454146],"type":"Point"},"properties":{"osm_id":"5598088014","tag":{"amenity":"waste_basket"}},"type":"Feature"},
	{"geometry":{"coordinates":[9.194301,45.453939],"type":"Point"},"properties":{"osm_id":"5598088520","tag":{"amenity":"waste_basket"}},"type":"Feature"},
	{"geometry":{"coordinates":[9.194519,45.453811],"type":"Point"},"properties":{"osm_id":"5598089058","tag":{"amenity":"waste_basket"}},"type":"Feature"},
	{"geometry":{"coordinates":[9.194258,45.454012],"type":"Point"},"properties":{"osm_id":"5598089322","tag":{"amenity":"waste_basket"}},"type":"Feature"},
	{"geometry":{"coordinates":[9.195811,45.454985],"type":"Point"},"properties":{"osm_id":"5598089323","tag":{"amenity":"waste_basket"}},"type":"Feature"},
	{"geometry":{"coordinates":[9.195798,45.454357],"type":"Point"},"properties":{"osm_id":"5598089329","tag":{"amenity":"waste_basket"}},"type":"Feature"},
	{"geometry":{"coordinates":[9.195777,45.454464],"type":"Point"},"properties":{"osm_id":"5598089330","tag":{"amenity":"waste_basket"}},"type":"Feature"},
	{"geometry":{"coordinates":[9.1969,45.454549],"type":"Point"},"properties":{"osm_id":"5598089365","tag":{"amenity":"waste_basket"}},"type":"Feature"},
	{"geometry":{"coordinates":[9.158854,45.451897],"type":"Point"},"properties":{"osm_id":"5694532984","tag":{"amenity":"waste_basket"}},"type":"Feature"},
	{"geometry":{"coordinates":[9.179822,45.459739],"type":"Point"},"properties":{"osm_id":"5729802417","tag":{"amenity":"waste_basket"}},"type":"Feature"},
	{"geometry":{"coordinates":[9.178303,45.459222],"type":"Point"},"properties":{"osm_id":"5729803585","tag":{"amenity":"waste_basket"}},"type":"Feature"},
	{"geometry":{"coordinates":[9.177739,45.459741],"type":"Point"},"properties":{"osm_id":"5729803599","tag":{"amenity":"waste_basket"}},"type":"Feature"},
	{"geometry":{"coordinates":[9.177602,45.459817],"type":"Point"},"properties":{"osm_id":"5729803600","tag":{"amenity":"waste_basket"}},"type":"Feature"},
	{"geometry":{"coordinates":[9.177468,45.459753],"type":"Point"},"properties":{"osm_id":"5729803601","tag":{"amenity":"waste_basket"}},"type":"Feature"},
	{"geometry":{"coordinates":[9.180457,45.460001],"type":"Point"},"properties":{"osm_id":"5729804026","tag":{"amenity":"waste_basket"}},"type":"Feature"},
	{"geometry":{"coordinates":[9.201451,45.447091],"type":"Point"},"properties":{"osm_id":"6518855938","tag":{"amenity":"waste_basket"}},"type":"Feature"},
	{"geometry":{"coordinates":[9.148267,45.402172],"type":"Point"},"properties":{"osm_id":"6535026646","tag":{"amenity":"waste_basket"}},"type":"Feature"},
	{"geometry":{"coordinates":[9.14769,45.400988],"type":"Point"},"properties":{"osm_id":"6535026647","tag":{"amenity":"waste_basket"}},"type":"Feature"},
	{"geometry":{"coordinates":[9.147286,45.398708],"type":"Point"},"properties":{"osm_id":"6535026648","tag":{"amenity":"waste_basket"}},"type":"Feature"},
	{"geometry":{"coordinates":[9.149621,45.399464],"type":"Point"},"properties":{"osm_id":"6535026649","tag":{"amenity":"waste_basket"}},"type":"Feature"},
	{"geometry":{"coordinates":[9.149492,45.399502],"type":"Point"},"properties":{"osm_id":"6535026650","tag":{"amenity":"waste_basket"}},"type":"Feature"},
	{"geometry":{"coordinates":[9.149071,45.39925],"type":"Point"},"properties":{"osm_id":"6535026651","tag":{"amenity":"waste_basket"}},"type":"Feature"},
	{"geometry":{"coordinates":[9.149226,45.399207],"type":"Point"},"properties":{"osm_id":"6535026652","tag":{"amenity":"waste_basket"}},"type":"Feature"},
	{"geometry":{"coordinates":[9.149157,45.399121],"type":"Point"},"properties":{"osm_id":"6535026653","tag":{"amenity":"waste_basket"}},"type":"Feature"},
	{"geometry":{"coordinates":[9.14901,45.399169],"type":"Point"},"properties":{"osm_id":"6535026654","tag":{"amenity":"waste_basket"}},"type":"Feature"},
	{"geometry":{"coordinates":[9.162073,45.457028],"type":"Point"},"properties":{"osm_id":"6536590367","tag":{"amenity":"waste_basket","waste":"trash"}},"type":"Feature"},
	{"geometry":{"coordinates":[9.161941,45.45707],"type":"Point"},"properties":{"osm_id":"6536590370","tag":{"amenity":"waste_basket","waste":"trash"}},"type":"Feature"},
	{"geometry":{"coordinates":[9.185859,45.451957],"type":"Point"},"properties":{"osm_id":"6867675148","tag":{"amenity":"waste_basket"}},"type":"Feature"},
	{"geometry":{"coordinates":[9.185835,45.451821],"type":"Point"},"properties":{"osm_id":"6867708386","tag":{"amenity":"waste_basket"}},"type":"Feature"},
	{"geometry":{"coordinates":[9.161244,45.459934],"type":"Point"},"properties":{"osm_id":"6879782229","tag":{"amenity":"recycling","recycling:clothes":"yes","recycling_type":"container"}},"type":"Feature"},
	{"geometry":{"coordinates":[9.16158,45.456573],"type":"Point"},"properties":{"osm_id":"6903588757","tag":{"amenity":"recycling","recycling_type":"container"}},"type":"Feature"},
	{"geometry":{"coordinates":[9.185352,45.456479],"type":"Point"},"properties":{"osm_id":"7822234575","tag":{"amenity":"waste_basket"}},"type":"Feature"},
	{"geometry":{"coordinates":[9.186016,45.457006],"type":"Point"},"properties":{"osm_id":"7822249619","tag":{"amenity":"waste_basket"}},"type":"Feature"},
	{"geometry":{"coordinates":[9.183776,45.45719],"type":"Point"},"properties":{"osm_id":"7822249643","tag":{"amenity":"waste_basket"}},"type":"Feature"},
	{"geometry":{"coordinates":[9.184227,45.458031],"type":"Point"},"properties":{"osm_id":"7822249657","tag":{"amenity":"waste_basket"}},"type":"Feature"},
	{"geometry":{"coordinates":[9.184286,45.458217],"type":"Point"},"properties":{"osm_id":"7822249658","tag":{"amenity":"waste_basket"}},"type":"Feature"},
	{"geometry":{"coordinates":[9.184503,45.45725],"type":"Point"},"properties":{"osm_id":"7822249659","tag":{"amenity":"waste_basket"}},"type":"Feature"},
	{"geometry":{"coordinates":[9.184332,45.457282],"type":"Point"},"properties":{"osm_id":"7822249660","tag":{"amenity":"waste_basket"}},"type":"Feature"},
	{"geometry":{"coordinates":[9.185182,45.458088],"type":"Point"},"properties":{"osm_id":"7822249668","tag":{"amenity":"waste_basket"}},"type":"Feature"},
	{"geometry":{"coordinates":[9.186448,45.453311],"type":"Point"},"properties":{"osm_id":"7822250592","tag":{"amenity":"waste_basket"}},"type":"Feature"},
	{"geometry":{"coordinates":[9.186988,45.453278],"type":"Point"},"properties":{"osm_id":"7822250601","tag":{"amenity":"waste_basket"}},"type":"Feature"},
	{"geometry":{"coordinates":[9.186845,45.453368],"type":"Point"},"properties":{"osm_id":"7822250602","tag":{"amenity":"waste_basket"}},"type":"Feature"},
	{"geometry":{"coordinates":[9.184235,45.455354],"type":"Point"},"properties":{"osm_id":"7822250624","tag":{"amenity":"waste_basket"}},"type":"Feature"},
	{"geometry":{"coordinates":[9.183504,45.45669],"type":"Point"},"properties":{"osm_id":"7822250652","tag":{"amenity":"waste_basket"}},"type":"Feature"},
	{"geometry":{"coordinates":[9.183489,45.456812],"type":"Point"},"properties":{"osm_id":"7822250658","tag":{"amenity":"waste_basket"}},"type":"Feature"},
	{"geometry":{"coordinates":[9.183272,45.456898],"type":"Point"},"properties":{"osm_id":"7822250659","tag":{"amenity":"waste_basket"}},"type":"Feature"},
	{"geometry":{"coordinates":[9.184227,45.456509],"type":"Point"},"properties":{"osm_id":"7822250663","tag":{"amenity":"waste_basket"}},"type":"Feature"},
	{"geometry":{"coordinates":[9.184593,45.45883],"type":"Point"},"properties":{"osm_id":"7822251086","tag":{"amenity":"waste_basket"}},"type":"Feature"},
	{"geometry":{"coordinates":[9.18442,45.458592],"type":"Point"},"properties":{"osm_id":"7822251087","tag":{"amenity":"waste_basket"}},"type":"Feature"},
	{"geometry":{"coordinates":[9.184656,45.458683],"type":"Point"},"properties":{"osm_id":"7822251088","tag":{"amenity":"waste_basket"}},"type":"Feature"},
	{"geometry":{"coordinates":[9.221984,45.457629],"type":"Point"},"properties":{"osm_id":"7915850370","tag":{"amenity":"waste_basket","covered":"no","indoor":"no","material":"steel","waste":"trash"}},"type":"Feature"}
]
}
