{
"type": "FeatureCollection",
"features": [
	{"geometry":{"coordinates":[31.21593,59.897802],"type":"Point"},"properties":{"osm_id":"850498323","tag":{"amenity":"waste_disposal","wpt_description":"08-AUG-10 10:53:31"}},"type":"Feature"},
	{"geometry":{"coordinates":[31.216491,59.900453],"type":"Point"},"properties":{"osm_id":"862735385","tag":{"amenity":"waste_disposal"}},"type":"Feature"},
	{"geometry":{"coordinates":[31.213375,59.890294],"type":"Point"},"properties":{"osm_id":"1027812045","tag":{"amenity":"waste_disposal"}},"type":"Feature"},
	{"geometry":{"coordinates":[31.224522,59.896565],"type":"Point"},"properties":{"osm_id":"1027812047","tag":{"amenity":"waste_disposal"}},"type":"Feature"},
	{"geometry":{"coordinates":[31.22614,59.901379],"type":"Point"},"properties":{"osm_id":"1027812064","tag":{"amenity":"waste_disposal"}},"type":"Feature"},
	{"geometry":{"coordinates":[31.264135,59.897089],"type":"Point"},"properties":{"osm_id":"1439303057","tag":{"amenity":"waste_disposal"}},"type":"Feature"},
	{"geometry":{"coordinates":[31.27565,59.899657],"type":"Point"},"properties":{"osm_id":"1439303062","tag":{"amenity":"waste_basket"}},"type":"Feature"},
	{"geometry":{"coordinates":[31.250413,59.909709],"type":"Point"},"properties":{"osm_id":"1448616857","tag":{"amenity":"waste_disposal"}},"type":"Feature"},
	{"geometry":{"coordinates":[31.245927,59.904239],"type":"Point"},"properties":{"osm_id":"1493188332","tag":{"amenity":"waste_disposal"}},"type":"Feature"},
	{"geometry":{"coordinates":[31.244256,59.908034],"type":"Point"},"properties":{"osm_id":"1493188344","tag":{"amenity":"waste_disposal"}},"type":"Feature"},
	{"geometry":{"coordinates":[31.240281,59.908623],"type":"Point"},"properties":{"osm_id":"1493188345","tag":{"amenity":"waste_disposal"}},"type":"Feature"},
	{"geometry":{"coordinates":[31.247371,59.910335],"type":"Point"},"properties":{"osm_id":"1493188356","tag":{"amenity":"waste_disposal"}},"type":"Feature"},
	{"geometry":{"coordinates":[31.276415,59.900917],"type":"Point"},"properties":{"osm_id":"1944115584","tag":{"amenity":"waste_basket"}},"type":"Feature"},
	{"geometry":{"coordinates":[31.267361,59.917231],"type":"Point"},"properties":{"osm_id":"3741172851","tag":{"amenity":"waste_disposal"}},"type":"Feature"},
	{"geometry":{"coordinates":[31.255626,59.923852],"type":"Point"},"properties":{"osm_id":"4197750486","tag":{"amenity":"waste_disposal"}},"type":"Feature"},
	{"geometry":{"coordinates":[31.25252,59.925672],"type":"Point"},"properties":{"osm_id":"4197752531","tag":{"amenity":"waste_disposal"}},"type":"Feature"},
	{"geometry":{"coordinates":[31.273912,59.902607],"type":"Point"},"properties":{"osm_id":"4197765084","tag":{"amenity":"waste_disposal"}},"type":"Feature"},
	{"geometry":{"coordinates":[31.253488,59.900856],"type":"Point"},"properties":{"osm_id":"4199111860","tag":{"amenity":"waste_disposal"}},"type":"Feature"},
	{"geometry":{"coordinates":[31.253973,59.90144],"type":"Point"},"properties":{"osm_id":"4199111871","tag":{"amenity":"waste_disposal"}},"type":"Feature"},
	{"geometry":{"coordinates":[31.254367,59.90197],"type":"Point"},"properties":{"osm_id":"4199111883","tag":{"amenity":"waste_disposal"}},"type":"Feature"},
	{"geometry":{"coordinates":[31.254834,59.902545],"type":"Point"},"properties":{"osm_id":"4199111989","tag":{"amenity":"waste_disposal"}},"type":"Feature"},
	{"geometry":{"coordinates":[31.255253,59.903066],"type":"Point"},"properties":{"osm_id":"4199111990","tag":{"amenity":"waste_disposal"}},"type":"Feature"},
	{"geometry":{"coordinates":[31.255719,59.903629],"type":"Point"},"properties":{"osm_id":"4199111991","tag":{"amenity":"waste_disposal"}},"type":"Feature"},
	{"geometry":{"coordinates":[31.25614,59.904169],"type":"Point"},"properties":{"osm_id":"4199111992","tag":{"amenity":"waste_disposal"}},"type":"Feature"},
	{"geometry":{"coordinates":[31.256583,59.904733],"type":"Point"},"properties":{"osm_id":"4199111993","tag":{"amenity":"waste_disposal"}},"type":"Feature"},
	{"geometry":{"coordinates":[31.256985,59.905279],"type":"Point"},"properties":{"osm_id":"4199111994","tag":{"amenity":"waste_disposal"}},"type":"Feature"},
	{"geometry":{"coordinates":[31.257385,59.905791],"type":"Point"},"properties":{"osm_id":"4199111995","tag":{"amenity":"waste_disposal"}},"type":"Feature"},
	{"geometry":{"coordinates":[31.257953,59.906496],"type":"Point"},"properties":{"osm_id":"4199111996","tag":{"amenity":"waste_disposal"}},"type":"Feature"},
	{"geometry":{"coordinates":[31.258324,59.906943],"type":"Point"},"properties":{"osm_id":"4199111997","tag":{"amenity":"waste_disposal"}},"type":"Feature"},
	{"geometry":{"coordinates":[31.25871,59.907435],"type":"Point"},"properties":{"osm_id":"4199111998","tag":{"amenity":"waste_disposal"}},"type":"Feature"},
	{"geometry":{"coordinates":[31.259128,59.907989],"type":"Point"},"properties":{"osm_id":"4199111999","tag":{"amenity":"waste_disposal"}},"type":"Feature"},
	{"geometry":{"coordinates":[31.259557,59.908546],"type":"Point"},"properties":{"osm_id":"4199112000","tag":{"amenity":"waste_disposal"}},"type":"Feature"},
	{"geometry":{"coordinates":[31.259997,59.909081],"type":"Point"},"properties":{"osm_id":"4199112001","tag":{"amenity":"waste_disposal"}},"type":"Feature"},
	{"geometry":{"coordinates":[31.260426,59.909664],"type":"Point"},"properties":{"osm_id":"4199112002","tag":{"amenity":"waste_disposal"}},"type":"Feature"},
	{"geometry":{"coordinates":[31.260899,59.910213],"type":"Point"},"properties":{"osm_id":"4199112003","tag":{"amenity":"waste_disposal"}},"type":"Feature"},
	{"geometry":{"coordinates":[31.277726,59.899682],"type":"Point"},"properties":{"osm_id":"5822789553","tag":{"amenity":"waste_basket"}},"type":"Feature"},
	{"geometry":{"coordinates":[31.278074,59.899582],"type":"Point"},"properties":{"osm_id":"5894372835","tag":{"amenity":"waste_basket"}},"type":"Feature"}
]
}
