{
"type": "FeatureCollection",
"features": [
	{"geometry":{"coordinates":[31.233107,3.609751],"type":"Point"},"properties":{"name":"Midigo Health Center Disposable Pit","osm_id":"5588378935","tag":{"addr:county":"Aringa","addr:district":"Yumbe","addr:parish":"Medenga","addr:subcounty":"Midigo","addr:village":"Imile","amenity":"waste_disposal","fee":"no","lit":"no","operator:type":"government","source:form":"Sanitation;v3.0.2","start_date":"6/1/2010","waste":"domestic"}},"type":"Feature"},
	{"geometry":{"coordinates":[31.233673,3.60946],"type":"Point"},"properties":{"name":"Midigo Health Center Incinerator","osm_id":"5588378937","tag":{"addr:county":"Aringa","addr:district":"Yumbe","addr:parish":"Medenga","addr:subcounty":"Midigo","addr:village":"Imile","amenity":"waste_disposal","fee":"no","lit":"no","operator:type":"government","source:form":"Sanitation;v3.0.2","start_date":"5/1/2016","waste":"medical"}},"type":"Feature"},
	{"geometry":{"coordinates":[31.23407,3.60954],"type":"Point"},"properties":{"name":"Midigo Health Center Placenta Pit","osm_id":"5588378938","tag":{"addr:county":"Aringa","addr:district":"Yumbe","addr:parish":"Medenga","addr:subcounty":"Midigo","addr:village":"Imile","amenity":"waste_disposal","fee":"no","lit":"no","operator:type":"government","source:form":"Sanitation;v3.0.2","start_date":"4/1/1992","waste":"medical"}},"type":"Feature"},
	{"geometry":{"coordinates":[31.234858,3.6081],"type":"Point"},"properties":{"name":"Midigo Secondary Disposable Pit","osm_id":"5588378943","tag":{"addr:county":"Aringa","addr:district":"Yumbe","addr:parish":"Medenga","addr:subcounty":"Midigo","addr:village":"Imile","amenity":"waste_disposal","fee":"no","lit":"no","operator:type":"government","source:form":"Sanitation;v3.0.2","start_date":"5/1/2010","waste":"domestic"}},"type":"Feature"},
	{"geometry":{"coordinates":[31.231605,3.608437],"type":"Point"},"properties":{"name":"Midigo Primary School Rubbish Pit","osm_id":"5589910524","tag":{"addr:county":"Aringa","addr:district":"Yumbe","addr:parish":"Mocha","addr:subcounty":"Midigo","addr:village":"Meta","amenity":"waste_disposal","fee":"no","lit":"no","operator:type":"community","source:form":"Sanitation;v3.0.2","start_date":"01/04/2018","waste":"Domestic"}},"type":"Feature"},
	{"geometry":{"coordinates":[31.232852,3.603903],"type":"Point"},"properties":{"name":"Huda Nursery Rubbish Pit","osm_id":"5594243617","tag":{"addr:county":"Aringa","addr:district":"Yumbe","addr:parish":"Mocha","addr:subcounty":"Midigo","addr:village":"Sambala","amenity":"waste_disposal","fee":"no","lit":"no","operator:type":"community","source:form":"Sanitation;v3.0.2","start_date":"01/05/2018","waste":"Domestic"}},"type":"Feature"},
	{"geometry":{"coordinates":[31.232018,3.604823],"type":"Point"},"properties":{"name":"Midigo Market Rubbish Pit","osm_id":"5594243618","tag":{"addr:county":"Aringa","addr:district":"Yumbe","addr:parish":"Mocha","addr:subcounty":"Midigo","addr:village":"Sambala","amenity":"waste_disposal","fee":"no","lit":"no","operator:type":"community","source:form":"Sanitation;v3.0.2","start_date":"01/05/2018","waste":"Domestic"}},"type":"Feature"}
]
}
