{
"type": "FeatureCollection",
"features": [
	{"geometry":{"coordinates":[31.248006,3.588478],"type":"Point"},"properties":{"name":"Hilalitopio Primary School Rubbish Pit","osm_id":"5589910529","tag":{"addr:county":"Aringa","addr:district":"Yumbe","addr:parish":"Migo","addr:subcounty":"Midigo","addr:village":"Guba","amenity":"waste_disposal","fee":"no","lit":"no","operator:type":"community","source:form":"Sanitation;v3.0.2","start_date":"01/11/2016","waste":"Rubbish"}},"type":"Feature"},
	{"geometry":{"coordinates":[31.246315,3.566278],"type":"Point"},"properties":{"name":"Achilaka Primary School Rubbish Pit","osm_id":"5589910532","tag":{"addr:county":"Aringa","addr:district":"Yumbe","addr:parish":"Migo","addr:subcounty":"Midigo","addr:village":"Pamule","amenity":"waste_disposal","fee":"no","lit":"no","operator:type":"government","source:form":"Sanitation;v3.0.2","start_date":"01/04/2016","waste":"Rubbish"}},"type":"Feature"},
	{"geometry":{"coordinates":[31.254531,3.538807],"type":"Point"},"properties":{"name":"Gadania Market Rubbish Pit","osm_id":"5594243590","tag":{"addr:county":"Aringa","addr:district":"Yumbe","addr:parish":"Limidia","addr:subcounty":"Kochi","addr:village":"Juba","amenity":"waste_disposal","fee":"no","lit":"no","operator:type":"community","source:form":"Sanitation;v3.0.2","start_date":"01/04/2014","waste":"Domestic"}},"type":"Feature"},
	{"geometry":{"coordinates":[31.225566,3.572911],"type":"Point"},"properties":{"name":"Mocha Health Center Ii","osm_id":"5594243596","tag":{"addr:county":"Aringa","addr:district":"Yumbe","addr:parish":"Mocha","addr:subcounty":"Midigo","addr:village":"Bura B","amenity":"waste_disposal","fee":"no","lit":"no","operator:type":"government","source:form":"Sanitation;v3.0.3","start_date":"01/03/2017","waste":"Medical"}},"type":"Feature"},
	{"geometry":{"coordinates":[31.254238,3.538041],"type":"Point"},"properties":{"name":"Gadania Trading Centre Rubbish Pit","osm_id":"5594243604","tag":{"addr:county":"Aringa","addr:district":"Yumbe","addr:parish":"Limidia","addr:subcounty":"Kochi","addr:village":"Gadania","amenity":"waste_disposal","fee":"no","lit":"no","operator:type":"community","source:form":"Sanitation;v3.0.2","start_date":"01/01/2018","waste":"Domestic"}},"type":"Feature"},
	{"geometry":{"coordinates":[31.255293,3.536715],"type":"Point"},"properties":{"name":"Al-Noor Health Centre Rubbish Pit","osm_id":"5594243605","tag":{"addr:county":"Aringa","addr:district":"Yumbe","addr:parish":"Limidia","addr:subcounty":"Kochi","addr:village":"Gadania","amenity":"waste_disposal","fee":"no","lit":"no","operator:type":"community","source:form":"Sanitation;v3.0.2","start_date":"01/09/2007"}},"type":"Feature"},
	{"geometry":{"coordinates":[31.255281,3.536698],"type":"Point"},"properties":{"name":"Al-Noor Health Centre Placenta Pit","osm_id":"5594243606","tag":{"addr:county":"Aringa","addr:district":"Yumbe","addr:parish":"Limidia","addr:subcounty":"Kochi","addr:village":"Gadania","amenity":"waste_disposal","fee":"no","lit":"no","operator:type":"community","source:form":"Sanitation;v3.0.2","start_date":"01/06/2007","waste":"Medical"}},"type":"Feature"},
	{"geometry":{"coordinates":[31.256424,3.536813],"type":"Point"},"properties":{"name":"Limidia Secondary High School Rubbish Pit","osm_id":"5594243608","tag":{"addr:county":"Aringa","addr:district":"Yumbe","addr:parish":"Limidia","addr:subcounty":"Kochi","addr:village":"Gadania","amenity":"waste_disposal","fee":"no","lit":"no","operator:type":"community","source:form":"Sanitation;v3.0.2","start_date":"01/12/2015","waste":"Domestic"}},"type":"Feature"}
]
}
