{
"type": "FeatureCollection",
"features": [
	{"geometry":{"coordinates":[31.217245,3.435195],"type":"Point"},"properties":{"name":"Inia Primary School Rubish Pit","osm_id":"5561536221","tag":{"addr:county":"Aringa","addr:district":"Yumbe","addr:parish":"Rogale","addr:subcounty":"Kuru","addr:village":"Inia","amenity":"waste_disposal","fee":"no","lit":"no","operator:type":"government","source:form":"Sanitation;v3.0.2","start_date":"2015-06-01","waste":"domestic_waste"}},"type":"Feature"},
	{"geometry":{"coordinates":[31.281708,3.429936],"type":"Point"},"properties":{"name":"Ojinga Primary School Disposable Pit","osm_id":"5573574350","tag":{"addr:county":"Aringa","addr:district":"Yumbe","addr:parish":"Ojinga","addr:subcounty":"Kululu","addr:village":"Ojinga","amenity":"waste_disposal","fee":"no","lit":"no","operator:type":"community","source:form":"Sanitation;v3.0.2","start_date":"2017-08-01","waste":"Domestic"}},"type":"Feature"},
	{"geometry":{"coordinates":[31.254918,3.448126],"type":"Point"},"properties":{"name":"Geya Primary School Rubbish Pit","osm_id":"5573574354","tag":{"addr:county":"Aringa","addr:district":"Yumbe","addr:parish":"Geya","addr:subcounty":"Kululu","addr:village":"Ujjie","amenity":"waste_disposal","fee":"no","lit":"no","operator:type":"government","source:form":"Sanitation;v3.0.2","start_date":"2018-04-01","waste":"Domestic"}},"type":"Feature"},
	{"geometry":{"coordinates":[31.253568,3.436485],"type":"Point"},"properties":{"name":"Yumbe Model Nursery And Primary School Rubbish Pit","osm_id":"5573574363","tag":{"addr:county":"Aringa","addr:district":"Yumbe","addr:parish":"Geya","addr:subcounty":"Kululu","addr:village":"Ujjiw","amenity":"waste_disposal","fee":"no","lit":"no","operator:type":"community","source:form":"Sanitation;v3.0.2","start_date":"2018-03-01","waste":"Domestic"}},"type":"Feature"},
	{"geometry":{"coordinates":[31.253051,3.435846],"type":"Point"},"properties":{"name":"Yumbe Mode Nursery And Primary School Rubbish Pit","osm_id":"5573574367","tag":{"addr:county":"Aringa","addr:district":"Yumbe","addr:parish":"Geya","addr:subcounty":"Kululu","addr:village":"Ujjiw","amenity":"waste_disposal","fee":"no","lit":"no","operator:type":"community","source:form":"Sanitation;v3.0.2","start_date":"2018-04-01","waste":"Domestic"}},"type":"Feature"},
	{"geometry":{"coordinates":[31.252861,3.435728],"type":"Point"},"properties":{"name":"Yumbe Model Nursery And Primary Rubbish Pit","osm_id":"5573574368","tag":{"addr:county":"Aringa","addr:district":"Yumbe","addr:parish":"Geya","addr:subcounty":"Kululu","addr:village":"Ujjiw","amenity":"waste_disposal","fee":"no","lit":"no","operator:type":"community","source:form":"Sanitation;v3.0.2","start_date":"2017-04-01","waste":"Domestic"}},"type":"Feature"},
	{"geometry":{"coordinates":[31.253547,3.439188],"type":"Point"},"properties":{"name":"Aliapi Health Trading Centre Domestic Disposal Point","osm_id":"5573574369","tag":{"addr:county":"Aringa","addr:district":"Yumbe","addr:parish":"Aliapi","addr:subcounty":"Kululu","addr:village":"Naragala","amenity":"waste_disposal","fee":"no","lit":"no","operator:type":"community","source:form":"Sanitation;v3.0.2","start_date":"2017-03-01","waste":"Domestic"}},"type":"Feature"},
	{"geometry":{"coordinates":[31.255184,3.425966],"type":"Point"},"properties":{"name":"Aliapi Health Centre II Medical Disposal","osm_id":"5573574370","tag":{"addr:county":"Aringa","addr:district":"Yumbe","addr:parish":"Aliapi","addr:subcounty":"Kululu","addr:village":"Naragala","amenity":"waste_disposal","fee":"no","lit":"no","operator:type":"community","source:form":"Sanitation;v3.0.2","start_date":"2018-01-01","waste":"Medical"}},"type":"Feature"},
	{"geometry":{"coordinates":[31.246426,3.434285],"type":"Point"},"properties":{"name":"Govule Islamic Primary School Rubbish Pit","osm_id":"5573574390","tag":{"addr:county":"Aringa","addr:district":"Yumbe","addr:parish":"Geya","addr:subcounty":"Kululu","addr:village":"Govule","amenity":"waste_disposal","fee":"no","lit":"no","operator:type":"government","source:form":"Sanitation;v3.0.2","start_date":"2018-04-01","waste":"Domestic"}},"type":"Feature"},
	{"geometry":{"coordinates":[31.219406,3.458291],"type":"Point"},"properties":{"name":"Gojuru Primary School Waste Disposal Pit","osm_id":"5573574397","tag":{"addr:county":"Aringa","addr:district":"Yumbe","addr:parish":"Gojuru","addr:subcounty":"Kuru","addr:village":"Jabala","amenity":"waste_disposal","fee":"no","lit":"no","operator:type":"community","source:form":"Sanitation;v3.0.2","start_date":"2003-04-01","waste":"Domestic"}},"type":"Feature"},
	{"geometry":{"coordinates":[31.268226,3.500594],"type":"Point"},"properties":{"name":"Apo Health Center Placenta Pit","osm_id":"5576292497","tag":{"addr:county":"Aringa","addr:district":"Yumbe","addr:parish":"Kerila","addr:subcounty":"Apo","addr:village":"Wadada","amenity":"waste_disposal","fee":"no","lit":"no","operator:type":"government","source:form":"Sanitation;v3.0.2","start_date":"2009-05-01","waste":"Placenta pit"}},"type":"Feature"},
	{"geometry":{"coordinates":[31.268358,3.500573],"type":"Point"},"properties":{"name":"Apo Health Center Disposable Pit","osm_id":"5576292498","tag":{"addr:county":"Aringa","addr:district":"Yumbe","addr:parish":"Kerila","addr:subcounty":"Apo","addr:village":"Wadada","amenity":"waste_disposal","fee":"no","lit":"no","operator:type":"government","source:form":"Sanitation;v3.0.2","start_date":"2014-04-01","waste":"Hospital waste"}},"type":"Feature"},
	{"geometry":{"coordinates":[31.271113,3.495056],"type":"Point"},"properties":{"name":"Kerila Market Disposable Pit","osm_id":"5576292500","tag":{"addr:county":"Aringa","addr:district":"Yumbe","addr:parish":"Kerila","addr:subcounty":"Apo","addr:village":"Central","amenity":"waste_disposal","fee":"no","lit":"no","operator:type":"government","source:form":"Sanitation;v3.0.2","start_date":"2014-12-01","waste":"Disposable"}},"type":"Feature"},
	{"geometry":{"coordinates":[31.236178,3.509503],"type":"Point"},"properties":{"name":"Fataha Primary School Rubbish Pit","osm_id":"5576292509","tag":{"addr:county":"Aringa","addr:district":"Yumbe","addr:parish":"Pena","addr:subcounty":"Apo","addr:village":"Fatah","amenity":"waste_disposal","fee":"no","lit":"no","operator:type":"community","source:form":"Sanitation;v3.0.2","start_date":"2017-04-01","waste":"Domestic"}},"type":"Feature"},
	{"geometry":{"coordinates":[31.288308,3.490012],"type":"Point"},"properties":{"name":"Apo Army Primary School Girls Bathroom","osm_id":"5578349863","tag":{"addr:county":"Aringa","addr:district":"Yumbe","addr:parish":"Yeta","addr:subcounty":"Apo","addr:village":"Anguwira","amenity":"waste_disposal","fee":"no","lit":"no","operator:type":"government","source:form":"Sanitation;v3.0.2","start_date":"2010-02-01","waste":"Bathroom"}},"type":"Feature"},
	{"geometry":{"coordinates":[31.277544,3.482998],"type":"Point"},"properties":{"name":"Apo Army Primary School Disposal Point","osm_id":"5578349865","tag":{"addr:county":"Aringa","addr:district":"Yumbe","addr:parish":"Yeta","addr:subcounty":"Apo","addr:village":"Aguwira","amenity":"waste_disposal","fee":"no","lit":"no","operator:type":"community","source:form":"Sanitation;v3.0.2","start_date":"2018-02-01","waste":"Domestic"}},"type":"Feature"},
	{"geometry":{"coordinates":[31.277385,3.484965],"type":"Point"},"properties":{"name":"Apo Seed Waste Disposal Point","osm_id":"5578349869","tag":{"addr:county":"Aringa","addr:district":"Yumbe","addr:parish":"Yeta","addr:subcounty":"Apo","addr:village":"Aguwira","amenity":"waste_disposal","fee":"no","lit":"no","operator:type":"community","source:form":"Sanitation;v3.0.2","start_date":"2018-02-01","waste":"Domestic"}},"type":"Feature"},
	{"geometry":{"coordinates":[31.263711,3.492293],"type":"Point"},"properties":{"name":"Eleke Primary School Disposable Pit","osm_id":"5578349873","tag":{"addr:county":"Aringa","addr:district":"Yumbe","addr:parish":"Kerila","addr:subcounty":"Apo","addr:village":"Eleke","amenity":"waste_disposal","fee":"no","lit":"no","operator:type":"community","source:form":"Sanitation;v3.0.2","start_date":"2017-10-01","waste":"Domestic"}},"type":"Feature"},
	{"geometry":{"coordinates":[31.227395,3.477386],"type":"Point"},"properties":{"name":"Yumbe District Town Council Rubbish Pit","osm_id":"5579927571","tag":{"addr:county":"Aringa","addr:district":"Yumbe","addr:parish":"Charanga","addr:subcounty":"Yumbe Town Council","addr:village":"Owolonga","amenity":"waste_disposal","fee":"no","lit":"no","operator:type":"government","source:form":"Sanitation;v3.0.2","start_date":"2004-12-01","waste":"Domestic"}},"type":"Feature"},
	{"geometry":{"coordinates":[31.238715,3.475385],"type":"Point"},"properties":{"name":"Yumbe Calvary Nursery And Primary School Rubbish Pit","osm_id":"5579927572","tag":{"addr:county":"Aringa","addr:district":"Yumbe","addr:parish":"Charanga","addr:subcounty":"Yumbe Town Council","addr:village":"Morodu","amenity":"waste_disposal","fee":"no","lit":"no","operator:type":"community","source:form":"Sanitation;v3.0.2","start_date":"2017-04-01","waste":"Domestic"}},"type":"Feature"},
	{"geometry":{"coordinates":[31.251235,3.457],"type":"Point"},"properties":{"name":"Yumbe Town View College Latrine","osm_id":"5579927580","tag":{"addr:county":"Aringa","addr:district":"Yumbe","addr:parish":"Bilewu","addr:subcounty":"Yumbe Town Council","addr:village":"Parekele","amenity":"waste_disposal","fee":"no","lit":"no","operator:type":"community","source:form":"Sanitation;v3.0.2","start_date":"2015-04-01"}},"type":"Feature"},
	{"geometry":{"coordinates":[31.24533,3.466001],"type":"Point"},"properties":{"name":"Yumbe Market","osm_id":"5579927586","tag":{"addr:county":"Aringa","addr:district":"Yumbe","addr:parish":"Ariguyi","addr:subcounty":"Yumbe Town Council","addr:village":"West Yumbe","amenity":"waste_disposal","fee":"no","lit":"no","operator:type":"government","source:form":"Sanitation;v3.0.3","start_date":"2005-04-01","waste":"Domestic"}},"type":"Feature"},
	{"geometry":{"coordinates":[31.26241,3.4486],"type":"Point"},"properties":{"name":"Ezaruku Memorial Disposable Pit","osm_id":"5579927588","tag":{"addr:county":"Aringa","addr:district":"Yumbe","addr:parish":"Arunga","addr:subcounty":"Yumbe Town Council","addr:village":"Mijale","amenity":"waste_disposal","fee":"no","lit":"no","operator:type":"community","source:form":"Sanitation;v3.0.2","start_date":"2016-02-01","waste":"Domestic"}},"type":"Feature"},
	{"geometry":{"coordinates":[31.245445,3.46285],"type":"Point"},"properties":{"name":"Takwa Primary School","osm_id":"5579927591","tag":{"addr:county":"Aringa","addr:district":"Yumbe","addr:parish":"Ariguyi","addr:subcounty":"Yumbe Town Council","addr:village":"West Yumbe","amenity":"waste_disposal","fee":"no","lit":"no","operator:type":"community","source:form":"Sanitation;v3.0.3","start_date":"2005-04-01","waste":"Domestic"}},"type":"Feature"},
	{"geometry":{"coordinates":[31.278991,3.452538],"type":"Point"},"properties":{"name":"Bilijia Primary School Disposal Point","osm_id":"5579927598","tag":{"addr:county":"Aringa","addr:district":"Yumbe","addr:parish":"Aranga","addr:subcounty":"Apo","addr:village":"Aliba","amenity":"waste_disposal","fee":"no","lit":"no","operator:type":"community","source:form":"Sanitation;v3.0.2","start_date":"2017-03-01","waste":"Domestic"}},"type":"Feature"},
	{"geometry":{"coordinates":[31.251924,3.467456],"type":"Point"},"properties":{"name":"Peace Yumbe Primary School Rubbish Pit","osm_id":"5582701982","tag":{"addr:county":"Aringa","addr:district":"Yumbe","addr:parish":"Bilewu","addr:subcounty":"Yumbe Town Council","addr:village":"Eastyumbe","amenity":"waste_disposal","fee":"no","lit":"no","operator:type":"community","source:form":"Sanitation;v3.0.2","start_date":"2017-02-01","waste":"Rubbish"}},"type":"Feature"},
	{"geometry":{"coordinates":[31.245546,3.474471],"type":"Point"},"properties":{"name":"St. Catherine Nursery And Primary School Rubbish Pit","osm_id":"5582701988","tag":{"addr:county":"Aringa","addr:district":"Yumbe","addr:parish":"Bilewu","addr:subcounty":"Yumbe Town Council","addr:village":"Odriga","amenity":"waste_disposal","fee":"no","lit":"no","operator:type":"community","source:form":"Sanitation;v3.0.2","start_date":"2016-04-01","waste":"School rubbish pit"}},"type":"Feature"}
]
}
