{
"type": "FeatureCollection",
"features": [
	{"geometry":{"coordinates":[31.212155,3.342321],"type":"Point"},"properties":{"name":"Odravu Trading Center Rubish Pit","osm_id":"5561538221","tag":{"addr:county":"Aringa","addr:district":"Yumbe","addr:parish":"Lui","addr:subcounty":"Odravu","addr:village":"Kaliwara","amenity":"waste_disposal","fee":"no","lit":"no","operator:type":"community","source:form":"Sanitation;v3.0.2","start_date":"2003-06-01","waste":"domestic_waste"}},"type":"Feature"},
	{"geometry":{"coordinates":[31.217966,3.396412],"type":"Point"},"properties":{"name":"Alaba Islamic Rubbish Pit","osm_id":"5561538238","tag":{"addr:county":"Aringa","addr:district":"Yumbe","addr:parish":"Moju","addr:subcounty":"Odravu","addr:village":"Alaba","amenity":"waste_disposal","fee":"no","lit":"no","operator:type":"community","source:form":"Sanitation;v3.0.2","start_date":"2017-04-01","waste":"domestic_waste"}},"type":"Feature"},
	{"geometry":{"coordinates":[31.235008,3.403889],"type":"Point"},"properties":{"name":"Rimbe Market Waste Pit","osm_id":"5561538250","tag":{"addr:county":"Aringa","addr:district":"Yumbe","addr:parish":"Moli","addr:subcounty":"Odravu","addr:village":"Rimbe","amenity":"waste_disposal","fee":"no","lit":"no","operator:type":"community","source:form":"Sanitation;v3.0.2","start_date":"2016-04-01","waste":"domestic_waste"}},"type":"Feature"},
	{"geometry":{"coordinates":[31.24974,3.344497],"type":"Point"},"properties":{"name":"Kulikulinga Trading Center Market Rabish Pit","osm_id":"5561538293","tag":{"addr:county":"Aringa","addr:district":"Yumbe","addr:parish":"Oluba","addr:subcounty":"Odravu","addr:village":"Kulikulinga","amenity":"waste_disposal","fee":"no","lit":"no","operator:type":"government","source:form":"Sanitation;v3.0.2","start_date":"2018-03-01","waste":"domestic_waste"}},"type":"Feature"},
	{"geometry":{"coordinates":[31.261481,3.421409],"type":"Point"},"properties":{"name":"Aliapi Primary School Rabish Pit","osm_id":"5573574373","tag":{"addr:county":"Aringa","addr:district":"Yumbe","addr:parish":"Aliapi","addr:subcounty":"Kululu","addr:village":"Ajemara","amenity":"waste_disposal","fee":"no","lit":"no","operator:type":"community","source:form":"Sanitation;v3.0.2","start_date":"2018-02-01","waste":"Domestic"}},"type":"Feature"},
	{"geometry":{"coordinates":[31.237138,3.418555],"type":"Point"},"properties":{"name":"Aliba Primary School Water Disposable Pit","osm_id":"5573574386","tag":{"addr:county":"Aringa","addr:district":"Yumbe","addr:parish":"Meroba","addr:subcounty":"Kululu","addr:village":"Waka","amenity":"waste_disposal","fee":"no","lit":"no","operator:type":"community","source:form":"Sanitation;v3.0.2","start_date":"2012-02-01"}},"type":"Feature"}
]
}
