{
"type": "FeatureCollection",
"features": [
	{"geometry":{"coordinates":[26.257193,50.625387],"type":"Point"},"properties":{"osm_id":"4202206686","tag":{"amenity":"waste_disposal"}},"type":"Feature"},
	{"geometry":{"coordinates":[26.263301,50.637507],"type":"Point"},"properties":{"osm_id":"4886072102","tag":{"amenity":"waste_disposal"}},"type":"Feature"},
	{"geometry":{"coordinates":[26.266012,50.63756],"type":"Point"},"properties":{"osm_id":"4886072103","tag":{"amenity":"waste_disposal"}},"type":"Feature"},
	{"geometry":{"coordinates":[26.265189,50.6383],"type":"Point"},"properties":{"osm_id":"4886072104","tag":{"amenity":"waste_disposal"}},"type":"Feature"},
	{"geometry":{"coordinates":[26.265162,50.636767],"type":"Point"},"properties":{"osm_id":"4886072105","tag":{"amenity":"waste_disposal"}},"type":"Feature"},
	{"geometry":{"coordinates":[26.264701,50.635791],"type":"Point"},"properties":{"osm_id":"4886072107","tag":{"amenity":"waste_disposal"}},"type":"Feature"},
	{"geometry":{"coordinates":[26.264251,50.637073],"type":"Point"},"properties":{"osm_id":"4886109591","tag":{"amenity":"waste_disposal"}},"type":"Feature"},
	{"geometry":{"coordinates":[26.264017,50.638034],"type":"Point"},"properties":{"osm_id":"4886109592","tag":{"amenity":"waste_disposal"}},"type":"Feature"},
	{"geometry":{"coordinates":[26.266898,50.637299],"type":"Point"},"properties":{"osm_id":"4886110422","tag":{"amenity":"waste_disposal"}},"type":"Feature"},
	{"geometry":{"coordinates":[26.263415,50.634224],"type":"Point"},"properties":{"osm_id":"5123898478","tag":{"amenity":"waste_disposal"}},"type":"Feature"},
	{"geometry":{"coordinates":[26.263185,50.634969],"type":"Point"},"properties":{"osm_id":"5123898479","tag":{"amenity":"waste_disposal"}},"type":"Feature"},
	{"geometry":{"coordinates":[26.261324,50.633185],"type":"Point"},"properties":{"osm_id":"5124093791","tag":{"amenity":"waste_disposal"}},"type":"Feature"},
	{"geometry":{"coordinates":[26.263377,50.635751],"type":"Point"},"properties":{"osm_id":"5128483009","tag":{"amenity":"waste_disposal"}},"type":"Feature"},
	{"geometry":{"coordinates":[26.265553,50.635181],"type":"Point"},"properties":{"osm_id":"5128484421","tag":{"amenity":"waste_disposal"}},"type":"Feature"},
	{"geometry":{"coordinates":[26.263121,50.635363],"type":"Point"},"properties":{"osm_id":"5128484422","tag":{"amenity":"waste_disposal"}},"type":"Feature"},
	{"geometry":{"coordinates":[26.262604,50.633776],"type":"Point"},"properties":{"name":"\u00d0\u00a1\u00d0\u00ba\u00d0\u00bb\u00d0\u00be \u00d0\u00bf\u00d1\u0083\u00d0\u00bd\u00d0\u00ba\u00d1\u0082","osm_id":"5128484423","tag":{"amenity":"recycling","recycling_type":"centre"}},"type":"Feature"},
	{"geometry":{"coordinates":[26.266281,50.636107],"type":"Point"},"properties":{"osm_id":"5130343871","tag":{"amenity":"waste_disposal"}},"type":"Feature"},
	{"geometry":{"coordinates":[26.208472,50.631611],"type":"Point"},"properties":{"osm_id":"6165509691","tag":{"amenity":"waste_basket"}},"type":"Feature"},
	{"geometry":{"coordinates":[26.208462,50.631636],"type":"Point"},"properties":{"osm_id":"6165514287","tag":{"amenity":"waste_basket"}},"type":"Feature"},
	{"geometry":{"coordinates":[26.205895,50.631137],"type":"Point"},"properties":{"osm_id":"6165542386","tag":{"amenity":"waste_basket"}},"type":"Feature"},
	{"geometry":{"coordinates":[26.209956,50.635038],"type":"Point"},"properties":{"osm_id":"6966369398","tag":{"amenity":"waste_disposal"}},"type":"Feature"},
	{"geometry":{"coordinates":[26.208221,50.634591],"type":"Point"},"properties":{"osm_id":"7014855221","tag":{"amenity":"waste_disposal"}},"type":"Feature"},
	{"geometry":{"coordinates":[26.206541,50.634131],"type":"Point"},"properties":{"osm_id":"7049145741","tag":{"amenity":"waste_disposal"}},"type":"Feature"},
	{"geometry":{"coordinates":[26.248059,50.6255],"type":"Point"},"properties":{"osm_id":"7049560794","tag":{"amenity":"waste_disposal"}},"type":"Feature"}
]
}
