{
"type": "FeatureCollection",
"features": [
	{"geometry":{"coordinates":[29.635991,46.864714],"type":"Point"},"properties":{"name":"\u00d0\u009c\u00d1\u0083\u00d1\u0081\u00d0\u00be\u00d1\u0080\u00d0\u00bd\u00d1\u008b\u00d0\u00b5 \u00d0\u00b1\u00d0\u00b0\u00d0\u00ba\u00d0\u00b8","osm_id":"4208411620","tag":{"amenity":"waste_disposal","name:ro":"Cosuri de gunoi","name:ru":"\u041c\u0443\u0441\u043e\u0440\u043d\u044b\u0435 \u0431\u0430\u043a\u0438","name:uk":"\u0421\u043c\u0456\u0442\u0442\u0454\u0432\u0456 \u0431\u0430\u043a\u0438"}},"type":"Feature"},
	{"geometry":{"coordinates":[29.629534,46.864251],"type":"Point"},"properties":{"osm_id":"4208666967","tag":{"amenity":"waste_disposal"}},"type":"Feature"},
	{"geometry":{"coordinates":[29.62614,46.864209],"type":"Point"},"properties":{"osm_id":"4208691031","tag":{"amenity":"waste_disposal"}},"type":"Feature"},
	{"geometry":{"coordinates":[29.637905,46.86334],"type":"Point"},"properties":{"osm_id":"4931404922","tag":{"amenity":"waste_disposal"}},"type":"Feature"}
]
}
