{
"type": "FeatureCollection",
"features": [
	{"geometry":{"coordinates":[7.094665,53.500839],"type":"Point"},"properties":{"osm_id":"906646297","tag":{"addr:city":"Krummh\u00c3\u00b6rn","addr:country":"DE","addr:postcode":"26736","addr:suburb":"Greetsiel","amenity":"waste_basket","waste":"trash"}},"type":"Feature"},
	{"geometry":{"coordinates":[7.091712,53.50151],"type":"Point"},"properties":{"osm_id":"906646449","tag":{"addr:city":"Krummh\u00c3\u00b6rn","addr:country":"DE","addr:postcode":"26736","addr:suburb":"Greetsiel","amenity":"recycling","recycling:glass":"yes","recycling_type":"container"}},"type":"Feature"},
	{"geometry":{"coordinates":[7.091339,53.503051],"type":"Point"},"properties":{"osm_id":"1546260563","tag":{"amenity":"waste_basket","fee":"no","vending":"excrement_bags","waste":"dog_excrement"}},"type":"Feature"},
	{"geometry":{"coordinates":[7.100849,53.497401],"type":"Point"},"properties":{"osm_id":"1737340549","tag":{"amenity":"waste_basket"}},"type":"Feature"},
	{"geometry":{"coordinates":[7.094164,53.499835],"type":"Point"},"properties":{"osm_id":"1737580404","tag":{"amenity":"waste_basket"}},"type":"Feature"},
	{"geometry":{"coordinates":[7.094834,53.499895],"type":"Point"},"properties":{"osm_id":"1737580419","tag":{"amenity":"waste_basket"}},"type":"Feature"},
	{"geometry":{"coordinates":[7.09415,53.500364],"type":"Point"},"properties":{"osm_id":"1737580439","tag":{"amenity":"waste_basket"}},"type":"Feature"},
	{"geometry":{"coordinates":[7.094223,53.500617],"type":"Point"},"properties":{"osm_id":"1737580456","tag":{"addr:city":"Krummh\u00c3\u00b6rn","addr:country":"DE","addr:postcode":"26736","addr:suburb":"Greetsiel","amenity":"waste_basket"}},"type":"Feature"},
	{"geometry":{"coordinates":[7.090227,53.503859],"type":"Point"},"properties":{"osm_id":"4338679654","tag":{"amenity":"waste_basket"}},"type":"Feature"},
	{"geometry":{"coordinates":[7.089295,53.504291],"type":"Point"},"properties":{"osm_id":"4338679657","tag":{"amenity":"waste_basket"}},"type":"Feature"},
	{"geometry":{"coordinates":[7.092267,53.502172],"type":"Point"},"properties":{"osm_id":"4338793818","tag":{"amenity":"waste_basket"}},"type":"Feature"},
	{"geometry":{"coordinates":[7.051681,53.5008],"type":"Point"},"properties":{"osm_id":"4462388318","tag":{"amenity":"waste_basket","waste":"trash"}},"type":"Feature"},
	{"geometry":{"coordinates":[7.09216,53.503052],"type":"Point"},"properties":{"osm_id":"5715851938","tag":{"amenity":"waste_basket","fee":"no","vending":"excrement_bags","waste":"dog_excrement"}},"type":"Feature"}
]
}
