{
"type": "FeatureCollection",
"features": [
	{"geometry":{"coordinates":[7.106214,52.887062],"type":"Point"},"properties":{"osm_id":"5649706930","tag":{"amenity":"waste_basket","waste":"trash"}},"type":"Feature"},
	{"geometry":{"coordinates":[7.086825,52.87682],"type":"Point"},"properties":{"osm_id":"8110694654","tag":{"amenity":"waste_basket"}},"type":"Feature"},
	{"geometry":{"coordinates":[7.055182,52.877485],"type":"Point"},"properties":{"osm_id":"8239381582","tag":{"amenity":"recycling","recycling:paper":"yes","recycling_type":"container"}},"type":"Feature"},
	{"geometry":{"coordinates":[7.055227,52.877986],"type":"Point"},"properties":{"osm_id":"8243459798","tag":{"amenity":"recycling","recycling:glass_bottles":"yes","recycling_type":"container"}},"type":"Feature"},
	{"geometry":{"coordinates":[7.059232,52.87493],"type":"Point"},"properties":{"osm_id":"8248310663","tag":{"amenity":"waste_basket"}},"type":"Feature"},
	{"geometry":{"coordinates":[7.059231,52.874971],"type":"Point"},"properties":{"osm_id":"8248310665","tag":{"amenity":"waste_basket"}},"type":"Feature"},
	{"geometry":{"coordinates":[7.069346,52.878148],"type":"Point"},"properties":{"osm_id":"8348641556","tag":{"amenity":"waste_basket"}},"type":"Feature"},
	{"geometry":{"coordinates":[7.070657,52.890503],"type":"Point"},"properties":{"name":"Milieustraat Ter Apel","osm_id":"8541206808","tag":{"addr:city":"Ter Apel","addr:housenumber":"7","addr:postcode":"9561MA","addr:street":"Nulweg","amenity":"recycling","recycling_type":"centre"}},"type":"Feature"},
	{"geometry":{"coordinates":[7.073375,52.872769],"type":"Point"},"properties":{"osm_id":"8567545247","tag":{"amenity":"recycling","recycling:clothes":"yes","recycling_type":"container"}},"type":"Feature"},
	{"geometry":{"coordinates":[7.05907,52.876101],"type":"Point"},"properties":{"osm_id":"8607110203","tag":{"amenity":"waste_basket"}},"type":"Feature"},
	{"geometry":{"coordinates":[7.058518,52.87632],"type":"Point"},"properties":{"osm_id":"8607110205","tag":{"amenity":"waste_basket"}},"type":"Feature"},
	{"geometry":{"coordinates":[7.079832,52.876895],"type":"Point"},"properties":{"osm_id":"8617898688","tag":{"amenity":"waste_basket"}},"type":"Feature"},
	{"geometry":{"coordinates":[7.062672,52.87484],"type":"Point"},"properties":{"osm_id":"9160059085","tag":{"amenity":"recycling","recycling:clothes":"yes","recycling:shoes":"yes","recycling_type":"container"}},"type":"Feature"},
	{"geometry":{"coordinates":[7.062802,52.874838],"type":"Point"},"properties":{"osm_id":"9160059086","tag":{"amenity":"recycling","recycling:glass_bottles":"yes","recycling_type":"container"}},"type":"Feature"}
]
}
