{
"type": "FeatureCollection",
"features": [
	{"geometry":{"coordinates":[7.090998,51.56175],"type":"Point"},"properties":{"osm_id":"30109930","tag":{"amenity":"recycling","location":"overground","recycling:glass_bottles":"yes","recycling_type":"container"}},"type":"Feature"},
	{"geometry":{"coordinates":[7.076578,51.559832],"type":"Point"},"properties":{"osm_id":"30228185","tag":{"amenity":"recycling","recycling:clothes":"yes","recycling:glass_bottles":"yes","recycling_type":"container"}},"type":"Feature"},
	{"geometry":{"coordinates":[7.086994,51.558056],"type":"Point"},"properties":{"osm_id":"30228646","tag":{"amenity":"recycling","recycling:clothes":"yes","recycling:glass_bottles":"yes","recycling_type":"container"}},"type":"Feature"},
	{"geometry":{"coordinates":[7.044791,51.551396],"type":"Point"},"properties":{"osm_id":"309057996","tag":{"amenity":"recycling","mapillary":"vQRfI4EkH2PFHhybReQDrg","recycling:clothes":"yes","recycling:glass_bottles":"yes","recycling_type":"container","survey:date":"2018-04-17"}},"type":"Feature"},
	{"geometry":{"coordinates":[7.073554,51.562573],"type":"Point"},"properties":{"name":"GELSENDIENSTE Wertstoffhof Nord","osm_id":"310156216","tag":{"addr:city":"Gelsenkirchen","addr:housenumber":"115","addr:postcode":"45891","addr:street":"Adenauerallee","amenity":"recycling","collection_times":"Mo-Fr 08:00-18:00; Sa 08:30-15:00","contact:website":"https://www.gelsendienste.de/Muellabfuhr/Unsere_Leistungen/Recyclinghoefe/default.asp#preise","operator":"GELSENDIENSTE","recycling:cans":"yes","recycling:clothes":"yes","recycling:glass":"yes","recycling:glass_bottles":"yes","recycling:paper":"yes","recycling:plastic":"yes","recycling_type":"centre"}},"type":"Feature"},
	{"geometry":{"coordinates":[7.07336,51.548049],"type":"Point"},"properties":{"osm_id":"310161095","tag":{"amenity":"recycling","location":"overground","recycling:glass_bottles":"yes","recycling_type":"container"}},"type":"Feature"},
	{"geometry":{"coordinates":[7.080234,51.552902],"type":"Point"},"properties":{"osm_id":"310161265","tag":{"amenity":"recycling","location":"overground","recycling:clothes":"yes","recycling:glass_bottles":"yes","recycling_type":"container"}},"type":"Feature"},
	{"geometry":{"coordinates":[7.075568,51.544463],"type":"Point"},"properties":{"osm_id":"310161319","tag":{"amenity":"recycling","recycling:clothes":"yes","recycling:glass_bottles":"yes","recycling:paper":"yes","recycling_type":"container"}},"type":"Feature"},
	{"geometry":{"coordinates":[7.103209,51.553091],"type":"Point"},"properties":{"osm_id":"310161551","tag":{"amenity":"recycling","recycling:glass_bottles":"yes"}},"type":"Feature"},
	{"geometry":{"coordinates":[7.086386,51.554915],"type":"Point"},"properties":{"osm_id":"310162033","tag":{"amenity":"recycling","location":"overground","recycling:clothes":"yes","recycling:glass_bottles":"yes","recycling_type":"container"}},"type":"Feature"},
	{"geometry":{"coordinates":[7.089729,51.552869],"type":"Point"},"properties":{"osm_id":"310162035","tag":{"amenity":"recycling","recycling:glass_bottles":"yes"}},"type":"Feature"},
	{"geometry":{"coordinates":[7.097666,51.558284],"type":"Point"},"properties":{"osm_id":"310163243","tag":{"amenity":"recycling","recycling:clothes":"yes","recycling:glass_bottles":"yes","recycling_type":"container"}},"type":"Feature"},
	{"geometry":{"coordinates":[7.096922,51.561279],"type":"Point"},"properties":{"osm_id":"310163325","tag":{"amenity":"recycling","location":"overground","recycling:glass_bottles":"yes","recycling_type":"container"}},"type":"Feature"},
	{"geometry":{"coordinates":[7.083923,51.557027],"type":"Point"},"properties":{"osm_id":"310163346","tag":{"amenity":"recycling","recycling:glass_bottles":"yes"}},"type":"Feature"},
	{"geometry":{"coordinates":[7.073548,51.561934],"type":"Point"},"properties":{"osm_id":"310163357","tag":{"amenity":"recycling","mapillary":"a_jKFDV_aBQjQPXRwini3w","recycling:glass_bottles":"yes","recycling_type":"container","survey:date":"2018-04-22"}},"type":"Feature"},
	{"geometry":{"coordinates":[7.085677,51.550078],"type":"Point"},"properties":{"osm_id":"310163968","tag":{"amenity":"recycling","location":"overground","recycling:clothes":"yes","recycling:glass_bottles":"yes","recycling:paper":"yes","recycling_type":"container"}},"type":"Feature"},
	{"geometry":{"coordinates":[7.094057,51.552131],"type":"Point"},"properties":{"osm_id":"310164059","tag":{"amenity":"recycling","location":"overground","recycling_type":"container"}},"type":"Feature"},
	{"geometry":{"coordinates":[7.101575,51.549869],"type":"Point"},"properties":{"osm_id":"310164123","tag":{"amenity":"recycling","location":"overground","recycling:glass_bottles":"yes","recycling_type":"container"}},"type":"Feature"},
	{"geometry":{"coordinates":[7.10256,51.560656],"type":"Point"},"properties":{"osm_id":"310318409","tag":{"amenity":"recycling","recycling:glass_bottles":"yes"}},"type":"Feature"},
	{"geometry":{"coordinates":[7.106481,51.557062],"type":"Point"},"properties":{"osm_id":"310318698","tag":{"amenity":"recycling","location":"overground","recycling:glass_bottles":"yes","recycling_type":"container"}},"type":"Feature"},
	{"geometry":{"coordinates":[7.091162,51.557353],"type":"Point"},"properties":{"osm_id":"310361331","tag":{"amenity":"recycling","location":"overground","recycling:glass_bottles":"yes","recycling_type":"container"}},"type":"Feature"},
	{"geometry":{"coordinates":[7.046587,51.562776],"type":"Point"},"properties":{"osm_id":"310909871","tag":{"amenity":"recycling","recycling:glass":"yes","recycling_type":"container"}},"type":"Feature"},
	{"geometry":{"coordinates":[7.051457,51.561247],"type":"Point"},"properties":{"osm_id":"310988214","tag":{"amenity":"recycling","recycling:clothes":"yes","recycling:glass_bottles":"yes","recycling:paper":"yes","recycling_type":"container"}},"type":"Feature"},
	{"geometry":{"coordinates":[7.037693,51.512234],"type":"Point"},"properties":{"osm_id":"338414561","tag":{"amenity":"recycling","opening_hours":"Mo-Sa 07:00-19:00; PH Su off","operator":"Rhenus Logistics","recycling:glass_bottles":"yes","recycling_type":"container"}},"type":"Feature"},
	{"geometry":{"coordinates":[7.083874,51.518869],"type":"Point"},"properties":{"osm_id":"648486383","tag":{"amenity":"recycling","location":"overground","recycling:clothes":"yes","recycling:glass_bottles":"yes","recycling_type":"container"}},"type":"Feature"},
	{"geometry":{"coordinates":[7.075055,51.514816],"type":"Point"},"properties":{"osm_id":"1088318742","tag":{"amenity":"recycling","recycling:glass_bottles":"yes","recycling:paper":"yes"}},"type":"Feature"},
	{"geometry":{"coordinates":[7.077738,51.511884],"type":"Point"},"properties":{"osm_id":"1088318760","tag":{"amenity":"recycling","recycling:glass_bottles":"yes"}},"type":"Feature"},
	{"geometry":{"coordinates":[7.085744,51.509364],"type":"Point"},"properties":{"osm_id":"1089304536","tag":{"amenity":"recycling","recycling:glass_bottles":"yes","recycling_type":"container"}},"type":"Feature"},
	{"geometry":{"coordinates":[7.096129,51.513373],"type":"Point"},"properties":{"osm_id":"1089304540","tag":{"amenity":"recycling","location":"overground","recycling:clothes":"yes","recycling:paper":"yes","recycling_type":"container"}},"type":"Feature"},
	{"geometry":{"coordinates":[7.079599,51.518432],"type":"Point"},"properties":{"osm_id":"1094024686","tag":{"amenity":"recycling","location":"underground","recycling:clothes":"yes","recycling:glass_bottles":"yes","recycling_type":"container"}},"type":"Feature"},
	{"geometry":{"coordinates":[7.083704,51.515551],"type":"Point"},"properties":{"osm_id":"1118375402","tag":{"amenity":"recycling","recycling:glass_bottles":"yes"}},"type":"Feature"},
	{"geometry":{"coordinates":[7.087138,51.516432],"type":"Point"},"properties":{"osm_id":"1118375403","tag":{"amenity":"recycling","location":"overground","recycling:glass_bottles":"yes","recycling_type":"container"}},"type":"Feature"},
	{"geometry":{"coordinates":[7.077346,51.510534],"type":"Point"},"properties":{"osm_id":"1137312871","tag":{"amenity":"recycling","recycling:clothes":"yes","recycling:glass_bottles":"yes"}},"type":"Feature"},
	{"geometry":{"coordinates":[7.070294,51.513094],"type":"Point"},"properties":{"osm_id":"1139390485","tag":{"amenity":"recycling","recycling:glass_bottles":"yes"}},"type":"Feature"},
	{"geometry":{"coordinates":[7.074666,51.510047],"type":"Point"},"properties":{"osm_id":"1139390494","tag":{"amenity":"recycling","location":"overground","recycling:clothes":"yes","recycling:glass_bottles":"yes","recycling_type":"container"}},"type":"Feature"},
	{"geometry":{"coordinates":[7.038104,51.545569],"type":"Point"},"properties":{"osm_id":"1223041808","tag":{"amenity":"recycling","location":"overground","recycling:glass_bottles":"yes","recycling_type":"container"}},"type":"Feature"},
	{"geometry":{"coordinates":[7.037478,51.520418],"type":"Point"},"properties":{"osm_id":"1267551542","tag":{"amenity":"waste_basket"}},"type":"Feature"},
	{"geometry":{"coordinates":[7.039469,51.520674],"type":"Point"},"properties":{"osm_id":"1267551560","tag":{"amenity":"waste_basket"}},"type":"Feature"},
	{"geometry":{"coordinates":[7.040772,51.522958],"type":"Point"},"properties":{"osm_id":"1267551615","tag":{"amenity":"waste_basket"}},"type":"Feature"},
	{"geometry":{"coordinates":[7.042198,51.522879],"type":"Point"},"properties":{"osm_id":"1267551673","tag":{"amenity":"waste_basket"}},"type":"Feature"},
	{"geometry":{"coordinates":[7.040192,51.520779],"type":"Point"},"properties":{"osm_id":"1267551689","tag":{"amenity":"waste_basket"}},"type":"Feature"},
	{"geometry":{"coordinates":[7.035769,51.520251],"type":"Point"},"properties":{"osm_id":"1267551829","tag":{"amenity":"waste_basket"}},"type":"Feature"},
	{"geometry":{"coordinates":[7.041849,51.52258],"type":"Point"},"properties":{"osm_id":"1267584356","tag":{"amenity":"waste_basket"}},"type":"Feature"},
	{"geometry":{"coordinates":[7.04692,51.526649],"type":"Point"},"properties":{"osm_id":"1267584358","tag":{"amenity":"waste_basket"}},"type":"Feature"},
	{"geometry":{"coordinates":[7.036957,51.520378],"type":"Point"},"properties":{"osm_id":"1271488016","tag":{"amenity":"waste_basket"}},"type":"Feature"},
	{"geometry":{"coordinates":[7.039529,51.522034],"type":"Point"},"properties":{"osm_id":"1271488037","tag":{"amenity":"waste_basket"}},"type":"Feature"},
	{"geometry":{"coordinates":[7.035796,51.521865],"type":"Point"},"properties":{"osm_id":"1271488042","tag":{"amenity":"waste_basket"}},"type":"Feature"},
	{"geometry":{"coordinates":[7.039333,51.522073],"type":"Point"},"properties":{"osm_id":"1271488044","tag":{"amenity":"waste_basket"}},"type":"Feature"},
	{"geometry":{"coordinates":[7.033642,51.520995],"type":"Point"},"properties":{"osm_id":"1271488050","tag":{"amenity":"waste_basket"}},"type":"Feature"},
	{"geometry":{"coordinates":[7.032824,51.520652],"type":"Point"},"properties":{"osm_id":"1271488057","tag":{"amenity":"waste_basket"}},"type":"Feature"},
	{"geometry":{"coordinates":[7.038626,51.522044],"type":"Point"},"properties":{"osm_id":"1271488059","tag":{"amenity":"waste_basket"}},"type":"Feature"},
	{"geometry":{"coordinates":[7.033948,51.521117],"type":"Point"},"properties":{"osm_id":"1271488062","tag":{"amenity":"waste_basket"}},"type":"Feature"},
	{"geometry":{"coordinates":[7.039118,51.522114],"type":"Point"},"properties":{"osm_id":"1271488063","tag":{"amenity":"waste_basket"}},"type":"Feature"},
	{"geometry":{"coordinates":[7.038004,51.522325],"type":"Point"},"properties":{"osm_id":"1271488064","tag":{"amenity":"waste_basket"}},"type":"Feature"},
	{"geometry":{"coordinates":[7.04003,51.52186],"type":"Point"},"properties":{"osm_id":"1271488065","tag":{"amenity":"waste_basket"}},"type":"Feature"},
	{"geometry":{"coordinates":[7.037278,51.522503],"type":"Point"},"properties":{"osm_id":"1271488066","tag":{"amenity":"waste_basket"}},"type":"Feature"},
	{"geometry":{"coordinates":[7.032422,51.56017],"type":"Point"},"properties":{"osm_id":"1313312372","tag":{"amenity":"recycling","recycling:clothes":"yes","recycling:glass_bottles":"yes","recycling:paper":"yes","recycling_type":"container"}},"type":"Feature"},
	{"geometry":{"coordinates":[7.04239,51.556178],"type":"Point"},"properties":{"osm_id":"1313317643","tag":{"amenity":"recycling","check_date:recycling":"2020-09-20","recycling:clothes":"yes","recycling:glass_bottles":"yes","recycling_type":"container"}},"type":"Feature"},
	{"geometry":{"coordinates":[7.051507,51.549564],"type":"Point"},"properties":{"osm_id":"1313317644","tag":{"amenity":"recycling","recycling:clothes":"yes","recycling:glass_bottles":"yes","recycling:paper":"yes","recycling_type":"container"}},"type":"Feature"},
	{"geometry":{"coordinates":[7.031285,51.555178],"type":"Point"},"properties":{"osm_id":"1313317645","tag":{"amenity":"recycling","location":"overground","recycling:clothes":"yes","recycling:glass_bottles":"yes","recycling:paper":"yes","recycling_type":"container"}},"type":"Feature"},
	{"geometry":{"coordinates":[7.113425,51.532809],"type":"Point"},"properties":{"osm_id":"1313344683","tag":{"amenity":"recycling","mapillary":"u_ZhZardPs1fsFknNn17qQ","recycling_type":"container","survey:date":"2019-04-16"}},"type":"Feature"},
	{"geometry":{"coordinates":[7.1099,51.526903],"type":"Point"},"properties":{"osm_id":"1352486892","tag":{"amenity":"recycling","recycling:glass_bottles":"yes","recycling_type":"container"}},"type":"Feature"},
	{"geometry":{"coordinates":[7.108479,51.516709],"type":"Point"},"properties":{"osm_id":"1373240420","tag":{"amenity":"recycling","location":"overground","recycling:clothes":"yes","recycling:glass_bottles":"yes","recycling_type":"container"}},"type":"Feature"},
	{"geometry":{"coordinates":[7.106697,51.521017],"type":"Point"},"properties":{"osm_id":"1373240433","tag":{"amenity":"recycling","location":"overground","recycling:clothes":"yes","recycling:glass_bottles":"yes","recycling_type":"container"}},"type":"Feature"},
	{"geometry":{"coordinates":[7.061305,51.526151],"type":"Point"},"properties":{"osm_id":"1408440472","tag":{"amenity":"recycling","recycling:clothes":"yes","recycling:glass_bottles":"yes","recycling:paper":"no","recycling_type":"container"}},"type":"Feature"},
	{"geometry":{"coordinates":[7.089811,51.563345],"type":"Point"},"properties":{"osm_id":"1606846098","tag":{"amenity":"recycling","mapillary":"-LjO5PWA2Zjz3Tdzcrp04A","recycling:glass_bottles":"yes","recycling_type":"container","survey:date":"2018-04-07"}},"type":"Feature"},
	{"geometry":{"coordinates":[7.111222,51.509094],"type":"Point"},"properties":{"osm_id":"1609943061","tag":{"amenity":"recycling","recycling:cartons":"yes","recycling:paper":"yes","recycling_type":"container"}},"type":"Feature"},
	{"geometry":{"coordinates":[7.059682,51.51837],"type":"Point"},"properties":{"osm_id":"1631869464","tag":{"amenity":"recycling"}},"type":"Feature"},
	{"geometry":{"coordinates":[7.032241,51.537785],"type":"Point"},"properties":{"osm_id":"1747933593","tag":{"amenity":"recycling","recycling:glass_bottles":"yes","recycling_type":"container"}},"type":"Feature"},
	{"geometry":{"coordinates":[7.057096,51.521041],"type":"Point"},"properties":{"osm_id":"1824817154","tag":{"amenity":"recycling","recycling:clothes":"yes","recycling:glass_bottles":"yes","recycling:paper":"yes","recycling_type":"container"}},"type":"Feature"},
	{"geometry":{"coordinates":[7.039282,51.523057],"type":"Point"},"properties":{"osm_id":"2326330664","tag":{"amenity":"waste_basket"}},"type":"Feature"},
	{"geometry":{"coordinates":[7.107359,51.513312],"type":"Point"},"properties":{"osm_id":"2947709793","tag":{"amenity":"recycling","location":"overground","recycling:clothes":"yes","recycling:glass_bottles":"yes","recycling_type":"container"}},"type":"Feature"},
	{"geometry":{"coordinates":[7.110003,51.514785],"type":"Point"},"properties":{"osm_id":"2947709794","tag":{"amenity":"recycling","location":"overground","recycling:glass_bottles":"yes","recycling_type":"container"}},"type":"Feature"},
	{"geometry":{"coordinates":[7.03422,51.549239],"type":"Point"},"properties":{"osm_id":"3423631341","tag":{"amenity":"recycling","recycling:glass_bottles":"yes","recycling_type":"container"}},"type":"Feature"},
	{"geometry":{"coordinates":[7.097905,51.559209],"type":"Point"},"properties":{"osm_id":"3465133613","tag":{"amenity":"waste_basket"}},"type":"Feature"},
	{"geometry":{"coordinates":[7.097971,51.559271],"type":"Point"},"properties":{"osm_id":"3465133618","tag":{"amenity":"waste_basket"}},"type":"Feature"},
	{"geometry":{"coordinates":[7.097632,51.559463],"type":"Point"},"properties":{"osm_id":"3465133623","tag":{"amenity":"waste_basket"}},"type":"Feature"},
	{"geometry":{"coordinates":[7.097799,51.559533],"type":"Point"},"properties":{"osm_id":"3465133624","tag":{"amenity":"waste_basket"}},"type":"Feature"},
	{"geometry":{"coordinates":[7.097734,51.559611],"type":"Point"},"properties":{"osm_id":"3465133630","tag":{"amenity":"waste_basket"}},"type":"Feature"},
	{"geometry":{"coordinates":[7.097645,51.559761],"type":"Point"},"properties":{"osm_id":"3465133634","tag":{"amenity":"waste_basket"}},"type":"Feature"},
	{"geometry":{"coordinates":[7.087916,51.536922],"type":"Point"},"properties":{"osm_id":"3690076873","tag":{"amenity":"recycling","recycling:glass_bottles":"yes","recycling_type":"container"}},"type":"Feature"},
	{"geometry":{"coordinates":[7.040696,51.522317],"type":"Point"},"properties":{"osm_id":"3772033193","tag":{"amenity":"waste_basket"}},"type":"Feature"},
	{"geometry":{"coordinates":[7.039989,51.522592],"type":"Point"},"properties":{"osm_id":"3772033243","tag":{"amenity":"waste_basket"}},"type":"Feature"},
	{"geometry":{"coordinates":[7.040137,51.522652],"type":"Point"},"properties":{"osm_id":"3772033252","tag":{"amenity":"waste_basket"}},"type":"Feature"},
	{"geometry":{"coordinates":[7.040311,51.522715],"type":"Point"},"properties":{"osm_id":"3772036864","tag":{"amenity":"waste_basket"}},"type":"Feature"},
	{"geometry":{"coordinates":[7.040391,51.522747],"type":"Point"},"properties":{"osm_id":"3772036870","tag":{"amenity":"waste_basket"}},"type":"Feature"},
	{"geometry":{"coordinates":[7.096637,51.518603],"type":"Point"},"properties":{"osm_id":"3992237780","tag":{"amenity":"recycling","recycling:glass_bottles":"yes","recycling_type":"container"}},"type":"Feature"},
	{"geometry":{"coordinates":[7.03668,51.538977],"type":"Point"},"properties":{"osm_id":"4092202413","tag":{"amenity":"recycling","recycling:clothes":"yes","recycling:glass_bottles":"yes","recycling_type":"container"}},"type":"Feature"},
	{"geometry":{"coordinates":[7.118467,51.528836],"type":"Point"},"properties":{"osm_id":"4434604590","tag":{"amenity":"recycling","recycling:clothes":"yes","recycling:glass_bottles":"yes","recycling_type":"container"}},"type":"Feature"},
	{"geometry":{"coordinates":[7.031907,51.509593],"type":"Point"},"properties":{"osm_id":"4708577633","tag":{"amenity":"recycling","opening_hours":"Mo-Sa 07:00-19:00; PH Su off","operator":"Loop","recycling:clothes":"yes","recycling:shoes":"yes","recycling_type":"container"}},"type":"Feature"},
	{"geometry":{"coordinates":[7.031887,51.509628],"type":"Point"},"properties":{"osm_id":"4708577634","tag":{"amenity":"recycling","opening_hours":"Mo-Sa 07:00-19:00; PH Su off","operator":"Essener Entsorgungsbetriebe","recycling:cardboard":"yes","recycling:paper":"yes","recycling_type":"container"}},"type":"Feature"},
	{"geometry":{"coordinates":[7.031859,51.509662],"type":"Point"},"properties":{"osm_id":"4708577635","tag":{"amenity":"recycling","opening_hours":"Mo-Sa 07:00-19:00; PH Su off","operator":"Rhenus Logistics","recycling:glass_bottles":"yes","recycling_type":"container"}},"type":"Feature"},
	{"geometry":{"coordinates":[7.037574,51.512232],"type":"Point"},"properties":{"osm_id":"4708577636","tag":{"amenity":"recycling","opening_hours":"Mo-Sa 07:00-19:00; PH Su off","operator":"Loop","recycling:clothes":"yes","recycling:shoes":"yes","recycling_type":"container"}},"type":"Feature"},
	{"geometry":{"coordinates":[7.037617,51.512233],"type":"Point"},"properties":{"osm_id":"4708577637","tag":{"amenity":"recycling","opening_hours":"Mo-Sa 07:00-19:00; PH Su off","operator":"Essener Entsorgungsbetriebe","recycling:cardboard":"yes","recycling:paper":"yes","recycling_type":"container"}},"type":"Feature"},
	{"geometry":{"coordinates":[7.03233,51.511387],"type":"Point"},"properties":{"osm_id":"4708577644","tag":{"amenity":"recycling","layer":"2","opening_hours":"Mo-Sa 07:00-19:00; PH Su off","operator":"Rhenus Logistics","recycling:glass_bottles":"yes","recycling_type":"container"}},"type":"Feature"},
	{"geometry":{"coordinates":[7.092348,51.517798],"type":"Point"},"properties":{"osm_id":"4975973174","tag":{"amenity":"waste_basket","contributor":"Gelsendienste","description":"Spruch: FALLS DU MAL WAS LOSWERDEN WILLST ..."}},"type":"Feature"},
	{"geometry":{"coordinates":[7.091921,51.517666],"type":"Point"},"properties":{"osm_id":"4975973175","tag":{"amenity":"waste_basket","contributor":"Gelsendienste"}},"type":"Feature"},
	{"geometry":{"coordinates":[7.09118,51.517529],"type":"Point"},"properties":{"osm_id":"4975973176","tag":{"amenity":"waste_basket","contributor":"Gelsendienste","description":"Spruch: WAS DU HEUTE KANNST ENTSORGEN ..."}},"type":"Feature"},
	{"geometry":{"coordinates":[7.074103,51.542094],"type":"Point"},"properties":{"osm_id":"5353070640","tag":{"amenity":"waste_disposal"}},"type":"Feature"},
	{"geometry":{"coordinates":[7.074079,51.542101],"type":"Point"},"properties":{"osm_id":"5353070641","tag":{"amenity":"waste_disposal"}},"type":"Feature"},
	{"geometry":{"coordinates":[7.095817,51.512948],"type":"Point"},"properties":{"osm_id":"5469825736","tag":{"amenity":"recycling","location":"underground","recycling:glass_bottles":"yes","recycling_type":"container"}},"type":"Feature"},
	{"geometry":{"coordinates":[7.103178,51.515362],"type":"Point"},"properties":{"osm_id":"5469825751","tag":{"amenity":"waste_basket"}},"type":"Feature"},
	{"geometry":{"coordinates":[7.094872,51.509446],"type":"Point"},"properties":{"osm_id":"5489624791","tag":{"amenity":"waste_basket"}},"type":"Feature"},
	{"geometry":{"coordinates":[7.094867,51.509527],"type":"Point"},"properties":{"osm_id":"5489624792","tag":{"amenity":"waste_basket"}},"type":"Feature"},
	{"geometry":{"coordinates":[7.09466,51.509231],"type":"Point"},"properties":{"osm_id":"5497671885","tag":{"amenity":"waste_basket"}},"type":"Feature"},
	{"geometry":{"coordinates":[7.094646,51.509354],"type":"Point"},"properties":{"osm_id":"5497671886","tag":{"amenity":"waste_basket"}},"type":"Feature"},
	{"geometry":{"coordinates":[7.094691,51.508914],"type":"Point"},"properties":{"osm_id":"5497671887","tag":{"amenity":"waste_basket"}},"type":"Feature"},
	{"geometry":{"coordinates":[7.094736,51.508921],"type":"Point"},"properties":{"osm_id":"5497671888","tag":{"amenity":"waste_basket"}},"type":"Feature"},
	{"geometry":{"coordinates":[7.094876,51.509664],"type":"Point"},"properties":{"osm_id":"5497671914","tag":{"amenity":"waste_basket"}},"type":"Feature"},
	{"geometry":{"coordinates":[7.095177,51.509676],"type":"Point"},"properties":{"osm_id":"5497671915","tag":{"amenity":"waste_basket"}},"type":"Feature"},
	{"geometry":{"coordinates":[7.096418,51.515117],"type":"Point"},"properties":{"osm_id":"5557867895","tag":{"amenity":"recycling","location":"overground","recycling:glass_bottles":"yes","recycling:paper":"yes","recycling_type":"container"}},"type":"Feature"},
	{"geometry":{"coordinates":[7.092247,51.558925],"type":"Point"},"properties":{"osm_id":"5584362745","tag":{"amenity":"waste_basket"}},"type":"Feature"},
	{"geometry":{"coordinates":[7.097682,51.555248],"type":"Point"},"properties":{"osm_id":"5584430308","tag":{"amenity":"waste_basket"}},"type":"Feature"},
	{"geometry":{"coordinates":[7.095966,51.556437],"type":"Point"},"properties":{"osm_id":"5585737452","tag":{"amenity":"waste_basket"}},"type":"Feature"},
	{"geometry":{"coordinates":[7.091733,51.559269],"type":"Point"},"properties":{"osm_id":"5585822645","tag":{"amenity":"waste_basket"}},"type":"Feature"},
	{"geometry":{"coordinates":[7.092732,51.558598],"type":"Point"},"properties":{"osm_id":"5585822656","tag":{"amenity":"waste_basket"}},"type":"Feature"},
	{"geometry":{"coordinates":[7.089816,51.560601],"type":"Point"},"properties":{"osm_id":"5585954609","tag":{"amenity":"waste_basket"}},"type":"Feature"},
	{"geometry":{"coordinates":[7.090213,51.560318],"type":"Point"},"properties":{"osm_id":"5585954611","tag":{"amenity":"waste_basket"}},"type":"Feature"},
	{"geometry":{"coordinates":[7.086965,51.562762],"type":"Point"},"properties":{"osm_id":"5586080776","tag":{"amenity":"waste_basket"}},"type":"Feature"},
	{"geometry":{"coordinates":[7.088069,51.561753],"type":"Point"},"properties":{"osm_id":"5586080782","tag":{"amenity":"waste_basket"}},"type":"Feature"},
	{"geometry":{"coordinates":[7.088722,51.561334],"type":"Point"},"properties":{"osm_id":"5586080789","tag":{"amenity":"waste_basket"}},"type":"Feature"},
	{"geometry":{"coordinates":[7.032403,51.525815],"type":"Point"},"properties":{"osm_id":"5706945213","tag":{"amenity":"waste_basket"}},"type":"Feature"},
	{"geometry":{"coordinates":[7.033113,51.525807],"type":"Point"},"properties":{"osm_id":"5706945214","tag":{"amenity":"waste_basket"}},"type":"Feature"},
	{"geometry":{"coordinates":[7.043035,51.521439],"type":"Point"},"properties":{"osm_id":"5707068084","tag":{"amenity":"waste_basket"}},"type":"Feature"},
	{"geometry":{"coordinates":[7.112926,51.546917],"type":"Point"},"properties":{"osm_id":"5817766598","tag":{"amenity":"waste_basket"}},"type":"Feature"},
	{"geometry":{"coordinates":[7.037827,51.555235],"type":"Point"},"properties":{"osm_id":"5821109426","tag":{"amenity":"recycling","check_date:recycling":"2020-09-20","recycling:clothes":"yes","recycling:glass_bottles":"yes","recycling_type":"container"}},"type":"Feature"},
	{"geometry":{"coordinates":[7.037613,51.556446],"type":"Point"},"properties":{"osm_id":"5821109427","tag":{"amenity":"recycling","recycling:clothes":"yes","recycling:glass_bottles":"no","recycling_type":"container"}},"type":"Feature"},
	{"geometry":{"coordinates":[7.045204,51.555795],"type":"Point"},"properties":{"osm_id":"5821109429","tag":{"amenity":"recycling","recycling:clothes":"yes","recycling:glass_bottles":"no","recycling_type":"container"}},"type":"Feature"},
	{"geometry":{"coordinates":[7.045807,51.557715],"type":"Point"},"properties":{"osm_id":"5821109432","tag":{"amenity":"waste_basket"}},"type":"Feature"},
	{"geometry":{"coordinates":[7.046023,51.558739],"type":"Point"},"properties":{"osm_id":"5821109433","tag":{"amenity":"waste_basket"}},"type":"Feature"},
	{"geometry":{"coordinates":[7.046245,51.562686],"type":"Point"},"properties":{"osm_id":"5821109449","tag":{"amenity":"waste_basket"}},"type":"Feature"},
	{"geometry":{"coordinates":[7.106008,51.547706],"type":"Point"},"properties":{"osm_id":"5842650360","tag":{"amenity":"waste_basket"}},"type":"Feature"},
	{"geometry":{"coordinates":[7.075063,51.537403],"type":"Point"},"properties":{"osm_id":"5910352265","tag":{"amenity":"recycling","recycling:clothes":"yes","recycling:glass_bottles":"yes","recycling_type":"container"}},"type":"Feature"},
	{"geometry":{"coordinates":[7.0382,51.527248],"type":"Point"},"properties":{"osm_id":"6178632247","tag":{"amenity":"waste_basket"}},"type":"Feature"},
	{"geometry":{"coordinates":[7.116582,51.553446],"type":"Point"},"properties":{"osm_id":"6285051632","tag":{"amenity":"waste_basket"}},"type":"Feature"},
	{"geometry":{"coordinates":[7.116653,51.544295],"type":"Point"},"properties":{"osm_id":"6285051643","tag":{"amenity":"waste_basket"}},"type":"Feature"},
	{"geometry":{"coordinates":[7.037752,51.527111],"type":"Point"},"properties":{"osm_id":"6532031973","tag":{"amenity":"recycling","recycling:glass_bottles":"yes","recycling_type":"container"}},"type":"Feature"},
	{"geometry":{"coordinates":[7.107827,51.512071],"type":"Point"},"properties":{"osm_id":"6656019655","tag":{"amenity":"waste_basket"}},"type":"Feature"},
	{"geometry":{"coordinates":[7.107137,51.511936],"type":"Point"},"properties":{"osm_id":"6656019656","tag":{"amenity":"waste_basket"}},"type":"Feature"},
	{"geometry":{"coordinates":[7.105844,51.524815],"type":"Point"},"properties":{"osm_id":"6681741621","tag":{"amenity":"waste_basket"}},"type":"Feature"},
	{"geometry":{"coordinates":[7.110952,51.517995],"type":"Point"},"properties":{"osm_id":"6681844827","tag":{"amenity":"waste_basket"}},"type":"Feature"},
	{"geometry":{"coordinates":[7.112068,51.518844],"type":"Point"},"properties":{"osm_id":"6681844832","tag":{"amenity":"waste_basket"}},"type":"Feature"},
	{"geometry":{"coordinates":[7.034936,51.525342],"type":"Point"},"properties":{"osm_id":"6816084602","tag":{"amenity":"waste_basket"}},"type":"Feature"},
	{"geometry":{"coordinates":[7.034618,51.524773],"type":"Point"},"properties":{"osm_id":"6816377603","tag":{"amenity":"waste_basket"}},"type":"Feature"},
	{"geometry":{"coordinates":[7.032918,51.521856],"type":"Point"},"properties":{"osm_id":"6816425316","tag":{"amenity":"waste_basket"}},"type":"Feature"},
	{"geometry":{"coordinates":[7.11616,51.547849],"type":"Point"},"properties":{"osm_id":"6875837083","tag":{"amenity":"waste_basket"}},"type":"Feature"},
	{"geometry":{"coordinates":[7.084033,51.555087],"type":"Point"},"properties":{"osm_id":"6945778267","tag":{"amenity":"recycling","recycling:clothes":"yes","recycling_type":"container"}},"type":"Feature"},
	{"geometry":{"coordinates":[7.079856,51.558804],"type":"Point"},"properties":{"osm_id":"6945855689","tag":{"amenity":"recycling","recycling:clothes":"yes","recycling:glass_bottles":"no","recycling_type":"container"}},"type":"Feature"},
	{"geometry":{"coordinates":[7.107914,51.513147],"type":"Point"},"properties":{"osm_id":"7173131661","tag":{"amenity":"waste_basket","colour":"blue","material":"plastic","operator":"Gelsendienste"}},"type":"Feature"},
	{"geometry":{"coordinates":[7.10208,51.525491],"type":"Point"},"properties":{"osm_id":"7193126065","tag":{"amenity":"waste_basket","layer":"-2","level":"-2"}},"type":"Feature"},
	{"geometry":{"coordinates":[7.102093,51.525593],"type":"Point"},"properties":{"osm_id":"7193126066","tag":{"amenity":"waste_basket","layer":"-2","level":"-2"}},"type":"Feature"},
	{"geometry":{"coordinates":[7.102084,51.525282],"type":"Point"},"properties":{"osm_id":"7193126069","tag":{"amenity":"waste_basket","layer":"-2","level":"-2"}},"type":"Feature"},
	{"geometry":{"coordinates":[7.102076,51.524752],"type":"Point"},"properties":{"osm_id":"7193126070","tag":{"amenity":"waste_basket","layer":"-2","level":"-2"}},"type":"Feature"},
	{"geometry":{"coordinates":[7.102109,51.524752],"type":"Point"},"properties":{"osm_id":"7193126071","tag":{"amenity":"waste_basket","layer":"-2","level":"-2"}},"type":"Feature"},
	{"geometry":{"coordinates":[7.102076,51.524849],"type":"Point"},"properties":{"osm_id":"7193126076","tag":{"amenity":"waste_basket","layer":"-2","level":"-2"}},"type":"Feature"},
	{"geometry":{"coordinates":[7.102108,51.524849],"type":"Point"},"properties":{"osm_id":"7193126078","tag":{"amenity":"waste_basket","layer":"-2","level":"-2"}},"type":"Feature"},
	{"geometry":{"coordinates":[7.102086,51.525085],"type":"Point"},"properties":{"osm_id":"7193126079","tag":{"amenity":"waste_basket","layer":"-2","level":"-2"}},"type":"Feature"},
	{"geometry":{"coordinates":[7.098109,51.518926],"type":"Point"},"properties":{"osm_id":"7258823806","tag":{"amenity":"waste_basket","layer":"-2","level":"-2"}},"type":"Feature"},
	{"geometry":{"coordinates":[7.097843,51.518848],"type":"Point"},"properties":{"osm_id":"7258823811","tag":{"amenity":"waste_basket","layer":"-2","level":"-2"}},"type":"Feature"},
	{"geometry":{"coordinates":[7.097615,51.518782],"type":"Point"},"properties":{"osm_id":"7258823815","tag":{"amenity":"waste_basket","layer":"-2","level":"-2"}},"type":"Feature"},
	{"geometry":{"coordinates":[7.091958,51.513366],"type":"Point"},"properties":{"osm_id":"7261353813","tag":{"amenity":"waste_basket","layer":"-1","level":"-1"}},"type":"Feature"},
	{"geometry":{"coordinates":[7.09206,51.513419],"type":"Point"},"properties":{"osm_id":"7261353814","tag":{"amenity":"waste_basket","layer":"-1","level":"-1"}},"type":"Feature"},
	{"geometry":{"coordinates":[7.09191,51.514114],"type":"Point"},"properties":{"osm_id":"7261353843","tag":{"amenity":"waste_basket","layer":"-2","level":"-2"}},"type":"Feature"},
	{"geometry":{"coordinates":[7.09191,51.514122],"type":"Point"},"properties":{"osm_id":"7261353844","tag":{"amenity":"waste_basket","layer":"-2","level":"-2"}},"type":"Feature"},
	{"geometry":{"coordinates":[7.091928,51.514046],"type":"Point"},"properties":{"osm_id":"7261353848","tag":{"amenity":"waste_basket","layer":"-2","level":"-2"}},"type":"Feature"},
	{"geometry":{"coordinates":[7.091929,51.514038],"type":"Point"},"properties":{"osm_id":"7261353849","tag":{"amenity":"waste_basket","layer":"-2","level":"-2"}},"type":"Feature"},
	{"geometry":{"coordinates":[7.091945,51.51396],"type":"Point"},"properties":{"osm_id":"7261353863","tag":{"amenity":"waste_basket","layer":"-2","level":"-2"}},"type":"Feature"},
	{"geometry":{"coordinates":[7.091945,51.513968],"type":"Point"},"properties":{"osm_id":"7261353864","tag":{"amenity":"waste_basket","layer":"-2","level":"-2"}},"type":"Feature"},
	{"geometry":{"coordinates":[7.091893,51.514231],"type":"Point"},"properties":{"osm_id":"7261353865","tag":{"amenity":"waste_basket","layer":"-2","level":"-2"}},"type":"Feature"},
	{"geometry":{"coordinates":[7.091893,51.514238],"type":"Point"},"properties":{"osm_id":"7261353866","tag":{"amenity":"waste_basket","layer":"-2","level":"-2"}},"type":"Feature"},
	{"geometry":{"coordinates":[7.091886,51.514315],"type":"Point"},"properties":{"osm_id":"7261353867","tag":{"amenity":"waste_basket","layer":"-2","level":"-2"}},"type":"Feature"},
	{"geometry":{"coordinates":[7.091985,51.513769],"type":"Point"},"properties":{"osm_id":"7261353868","tag":{"amenity":"waste_basket","layer":"-2","level":"-2"}},"type":"Feature"},
	{"geometry":{"coordinates":[7.091885,51.51435],"type":"Point"},"properties":{"osm_id":"7261353869","tag":{"amenity":"waste_basket","layer":"-2","level":"-2"}},"type":"Feature"},
	{"geometry":{"coordinates":[7.091984,51.513777],"type":"Point"},"properties":{"osm_id":"7261353870","tag":{"amenity":"waste_basket","layer":"-2","level":"-2"}},"type":"Feature"},
	{"geometry":{"coordinates":[7.09197,51.513842],"type":"Point"},"properties":{"osm_id":"7261353871","tag":{"amenity":"waste_basket","layer":"-2","level":"-2"}},"type":"Feature"},
	{"geometry":{"coordinates":[7.094013,51.510287],"type":"Point"},"properties":{"osm_id":"7264515024","tag":{"amenity":"waste_basket","indoor":"yes","layer":"-2","level":"-2"}},"type":"Feature"},
	{"geometry":{"coordinates":[7.094428,51.50977],"type":"Point"},"properties":{"osm_id":"7264515029","tag":{"amenity":"waste_basket","indoor":"yes","layer":"-2","level":"-2"}},"type":"Feature"},
	{"geometry":{"coordinates":[7.094138,51.510067],"type":"Point"},"properties":{"osm_id":"7264515030","tag":{"amenity":"waste_basket","indoor":"yes","layer":"-2","level":"-2"}},"type":"Feature"},
	{"geometry":{"coordinates":[7.094264,51.510006],"type":"Point"},"properties":{"osm_id":"7264515031","tag":{"amenity":"waste_basket","indoor":"yes","layer":"-2","level":"-2"}},"type":"Feature"},
	{"geometry":{"coordinates":[7.094179,51.51034],"type":"Point"},"properties":{"osm_id":"7272216289","tag":{"amenity":"waste_basket","indoor":"yes","layer":"-2","level":"-2"}},"type":"Feature"},
	{"geometry":{"coordinates":[7.094476,51.509981],"type":"Point"},"properties":{"osm_id":"7272216302","tag":{"amenity":"waste_basket","indoor":"yes","layer":"-2","level":"-2"}},"type":"Feature"},
	{"geometry":{"coordinates":[7.094619,51.509798],"type":"Point"},"properties":{"osm_id":"7272216303","tag":{"amenity":"waste_basket","indoor":"yes","layer":"-2","level":"-2"}},"type":"Feature"},
	{"geometry":{"coordinates":[7.073995,51.515407],"type":"Point"},"properties":{"osm_id":"7486830756","tag":{"amenity":"recycling","recycling:glass_bottles":"yes","recycling_type":"container"}},"type":"Feature"},
	{"geometry":{"coordinates":[7.094668,51.51103],"type":"Point"},"properties":{"osm_id":"7554011123","tag":{"amenity":"recycling","material":"metal","recycling:cardboard":"yes","recycling:clothes":"yes","recycling:glass_bottles":"yes","recycling:paper":"yes","recycling_type":"container"}},"type":"Feature"}
]
}
