{
"type": "FeatureCollection",
"features": [
	{"geometry":{"coordinates":[7.078602,51.462401],"type":"Point"},"properties":{"osm_id":"27433405","tag":{"amenity":"waste_basket"}},"type":"Feature"},
	{"geometry":{"coordinates":[7.080498,51.465605],"type":"Point"},"properties":{"osm_id":"270876933","tag":{"amenity":"waste_basket"}},"type":"Feature"},
	{"geometry":{"coordinates":[7.074757,51.473636],"type":"Point"},"properties":{"osm_id":"273090285","tag":{"amenity":"waste_basket","waste":"trash"}},"type":"Feature"},
	{"geometry":{"coordinates":[7.048876,51.466244],"type":"Point"},"properties":{"osm_id":"278918725","tag":{"amenity":"waste_basket"}},"type":"Feature"},
	{"geometry":{"coordinates":[7.047854,51.465798],"type":"Point"},"properties":{"osm_id":"278918727","tag":{"amenity":"waste_basket"}},"type":"Feature"},
	{"geometry":{"coordinates":[7.043559,51.502926],"type":"Point"},"properties":{"osm_id":"289998242","tag":{"amenity":"recycling","opening_hours":"Mo-Sa 07:00-19:00; PH Su off","operator":"Rhenus Logistics","recycling:glass_bottles":"yes","recycling_type":"container"}},"type":"Feature"},
	{"geometry":{"coordinates":[7.043903,51.454862],"type":"Point"},"properties":{"osm_id":"314928512","tag":{"amenity":"recycling","opening_hours":"Mo-Sa 07:00-19:00; PH Su off","operator":"Entsorgungsbetriebe Essen","recycling:cardboard":"yes","recycling:paper":"yes","recycling_type":"container"}},"type":"Feature"},
	{"geometry":{"coordinates":[7.045316,51.456479],"type":"Point"},"properties":{"osm_id":"316421203","tag":{"amenity":"recycling","opening_hours":"Mo-Sa 07:00-19:00; PH Su off","operator":"Loop","recycling:clothes":"yes","recycling:shoes":"yes","recycling_type":"container"}},"type":"Feature"},
	{"geometry":{"coordinates":[7.047333,51.462277],"type":"Point"},"properties":{"osm_id":"316496054","tag":{"amenity":"recycling","opening_hours":"Mo-Sa 07:00-19:00; PH Su off","operator":"Rhenus Logistics","recycling:glass_bottles":"yes","recycling_type":"container"}},"type":"Feature"},
	{"geometry":{"coordinates":[7.041438,51.499786],"type":"Point"},"properties":{"osm_id":"317965119","tag":{"amenity":"recycling","opening_hours":"Mo-Sa 07:00-19:00; PH Su off","operator":"Rhenus Logistics","recycling:glass_bottles":"yes","recycling_type":"container"}},"type":"Feature"},
	{"geometry":{"coordinates":[7.037462,51.498077],"type":"Point"},"properties":{"osm_id":"317977853","tag":{"amenity":"recycling","opening_hours":"Mo-Sa 07:00-19:00; PH Su off","operator":"Rhenus Logistics","recycling:glass_bottles":"yes","recycling_type":"container"}},"type":"Feature"},
	{"geometry":{"coordinates":[7.041377,51.492913],"type":"Point"},"properties":{"osm_id":"332282512","tag":{"amenity":"recycling","opening_hours":"Mo-Sa 07:00-19:00; PH Su off","operator":"Rhenus Logistics","recycling:glass_bottles":"yes","recycling_type":"container"}},"type":"Feature"},
	{"geometry":{"coordinates":[7.046309,51.50008],"type":"Point"},"properties":{"osm_id":"338432047","tag":{"amenity":"recycling","opening_hours":"Mo-Sa 07:00-19:00; PH Su off","operator":"Rhenus Logistics","recycling:glass_bottles":"yes","recycling_type":"container"}},"type":"Feature"},
	{"geometry":{"coordinates":[7.05782,51.490958],"type":"Point"},"properties":{"osm_id":"338472845","tag":{"amenity":"recycling","description":"auf der Br\u00c3\u00bccke","layer":"1","opening_hours":"Mo-Sa 07:00-19:00; PH Su off","operator":"Rhenus Logistics","recycling:glass_bottles":"yes","recycling_type":"container"}},"type":"Feature"},
	{"geometry":{"coordinates":[7.071234,51.465506],"type":"Point"},"properties":{"osm_id":"340955248","tag":{"amenity":"recycling","opening_hours":"Mo-Sa 07:00-19:00; PH Su off","operator":"Rhenus Logistics","recycling:glass_bottles":"yes","recycling_type":"container"}},"type":"Feature"},
	{"geometry":{"coordinates":[7.039458,51.476201],"type":"Point"},"properties":{"osm_id":"344223272","tag":{"amenity":"recycling","opening_hours":"Mo-Sa 07:00-19:00; PH Su off","operator":"Rhenus Logistics","recycling:glass_bottles":"yes","recycling_type":"container"}},"type":"Feature"},
	{"geometry":{"coordinates":[7.036073,51.485806],"type":"Point"},"properties":{"osm_id":"344234643","tag":{"amenity":"recycling","opening_hours":"Mo-Sa 07:00-19:00; PH Su off","operator":"Rhenus Logistics","recycling:glass_bottles":"yes","recycling_type":"container"}},"type":"Feature"},
	{"geometry":{"coordinates":[7.041569,51.481325],"type":"Point"},"properties":{"osm_id":"344392655","tag":{"amenity":"recycling","opening_hours":"Mo-Sa 07:00-19:00; PH Su off","operator":"Rhenus Logistics","recycling:glass_bottles":"yes","recycling_type":"container"}},"type":"Feature"},
	{"geometry":{"coordinates":[7.064894,51.464267],"type":"Point"},"properties":{"osm_id":"348439691","tag":{"amenity":"recycling","opening_hours":"Mo-Sa 07:00-19:00; PH Su off","operator":"Entsorgungsbetriebe Essen","recycling:cardboard":"yes","recycling:paper":"yes","recycling_type":"container"}},"type":"Feature"},
	{"geometry":{"coordinates":[7.073602,51.460798],"type":"Point"},"properties":{"osm_id":"348444589","tag":{"amenity":"recycling","opening_hours":"Mo-Sa 07:00-19:00; PH Su off","operator":"Rhenus Logistics","recycling:glass_bottles":"yes","recycling_type":"container"}},"type":"Feature"},
	{"geometry":{"coordinates":[7.0769,51.461869],"type":"Point"},"properties":{"osm_id":"348489640","tag":{"amenity":"recycling","opening_hours":"Mo-Sa 07:00-19:00; PH Su off","operator":"Rhenus Logistics","recycling:glass_bottles":"yes","recycling_type":"container"}},"type":"Feature"},
	{"geometry":{"coordinates":[7.079224,51.462078],"type":"Point"},"properties":{"osm_id":"348498242","tag":{"amenity":"recycling","opening_hours":"Mo-Sa 07:00-19:00; PH Su off","operator":"Rhenus Logistics","recycling:glass_bottles":"yes","recycling_type":"container"}},"type":"Feature"},
	{"geometry":{"coordinates":[7.079906,51.461776],"type":"Point"},"properties":{"osm_id":"348498619","tag":{"amenity":"recycling","opening_hours":"Mo-Sa 07:00-19:00; PH Su off","operator":"Entsorgungsbetriebe Essen","recycling:cardboard":"yes","recycling_type":"container"}},"type":"Feature"},
	{"geometry":{"coordinates":[7.056931,51.457516],"type":"Point"},"properties":{"osm_id":"349206877","tag":{"amenity":"recycling","opening_hours":"Mo-Sa 07:00-19:00; PH Su off","operator":"Rhenus Logistics","recycling:glass_bottles":"yes","recycling_type":"container"}},"type":"Feature"},
	{"geometry":{"coordinates":[7.088042,51.45747],"type":"Point"},"properties":{"osm_id":"349239043","tag":{"amenity":"recycling","opening_hours":"Mo-Sa 07:00-19:00; PH Su off","operator":"Rhenus Logistics","recycling:glass_bottles":"yes","recycling_type":"container"}},"type":"Feature"},
	{"geometry":{"coordinates":[7.087013,51.455932],"type":"Point"},"properties":{"osm_id":"349242070","tag":{"amenity":"recycling","opening_hours":"Mo-Sa 07:00-19:00; PH Su off","operator":"Rhenus Logistics","recycling:glass_bottles":"yes","recycling_type":"container"}},"type":"Feature"},
	{"geometry":{"coordinates":[7.081062,51.458771],"type":"Point"},"properties":{"osm_id":"349248493","tag":{"amenity":"recycling","opening_hours":"Mo-Sa 07:00-19:00; PH Su off","operator":"Entsorgungsbetriebe Essen","recycling:cardboard":"yes","recycling:paper":"yes","recycling_type":"container"}},"type":"Feature"},
	{"geometry":{"coordinates":[7.081623,51.45899],"type":"Point"},"properties":{"osm_id":"349248679","tag":{"amenity":"recycling","opening_hours":"Mo-Sa 07:00-19:00; PH Su off","operator":"Rhenus Logistics","recycling:glass_bottles":"yes","recycling_type":"container"}},"type":"Feature"},
	{"geometry":{"coordinates":[7.050694,51.463536],"type":"Point"},"properties":{"osm_id":"349839847","tag":{"amenity":"recycling","opening_hours":"Mo-Sa 07:00-19:00; PH Su off","operator":"Rhenus Logistics","recycling:glass_bottles":"yes","recycling_type":"container"}},"type":"Feature"},
	{"geometry":{"coordinates":[7.0474,51.4655],"type":"Point"},"properties":{"osm_id":"349871039","tag":{"amenity":"recycling","opening_hours":"Mo-Sa 07:00-19:00; PH, Su off","operator":"Rhenus Logistics","recycling:glass_bottles":"yes","recycling_type":"container"}},"type":"Feature"},
	{"geometry":{"coordinates":[7.042345,51.473605],"type":"Point"},"properties":{"osm_id":"349894619","tag":{"amenity":"recycling","opening_hours":"Mo-Sa 07:00-19:00; PH Su off","operator":"Rhenus Logistics","recycling:glass_bottles":"yes","recycling_type":"container"}},"type":"Feature"},
	{"geometry":{"coordinates":[7.034145,51.455154],"type":"Point"},"properties":{"osm_id":"374273657","tag":{"amenity":"recycling","opening_hours":"Mo-Sa 07:00-19:00; PH Su off","operator":"Rhenus Logistics","recycling:glass_bottles":"yes","recycling_type":"container"}},"type":"Feature"},
	{"geometry":{"coordinates":[7.065174,51.473206],"type":"Point"},"properties":{"osm_id":"376004062","tag":{"amenity":"waste_basket"}},"type":"Feature"},
	{"geometry":{"coordinates":[7.043026,51.473166],"type":"Point"},"properties":{"osm_id":"410238853","tag":{"amenity":"waste_basket"}},"type":"Feature"},
	{"geometry":{"coordinates":[7.056892,51.474089],"type":"Point"},"properties":{"osm_id":"410294336","tag":{"amenity":"recycling","opening_hours":"Mo-Sa 07:00-19:00; PH Su off","operator":"Rhenus Logistics","recycling:glass_bottles":"yes","recycling_type":"container"}},"type":"Feature"},
	{"geometry":{"coordinates":[7.061425,51.473087],"type":"Point"},"properties":{"osm_id":"410295351","tag":{"amenity":"recycling","opening_hours":"Mo-Sa 07:00-19:00; PH Su off","operator":"Rhenus Logistics","recycling:glass_bottles":"yes","recycling_type":"container"}},"type":"Feature"},
	{"geometry":{"coordinates":[7.068818,51.473041],"type":"Point"},"properties":{"osm_id":"410297501","tag":{"amenity":"waste_basket"}},"type":"Feature"},
	{"geometry":{"coordinates":[7.054628,51.481511],"type":"Point"},"properties":{"osm_id":"410312695","tag":{"amenity":"recycling","opening_hours":"Mo-Sa 07:00-19:00; PH Su off","operator":"Rhenus Logistics","recycling:glass_bottles":"yes","recycling_type":"container"}},"type":"Feature"},
	{"geometry":{"coordinates":[7.033996,51.506763],"type":"Point"},"properties":{"osm_id":"410655763","tag":{"amenity":"recycling","opening_hours":"Mo-Sa 07:00-19:00; PH Su off","operator":"Rhenus Logistics","recycling:glass_bottles":"yes","recycling_type":"container"}},"type":"Feature"},
	{"geometry":{"coordinates":[7.098234,51.469659],"type":"Point"},"properties":{"osm_id":"416577213","tag":{"amenity":"recycling","opening_hours":"Mo-Sa 07:00-19:00; PH Su off","operator":"Rhenus Logistics","recycling:glass_bottles":"yes","recycling_type":"container"}},"type":"Feature"},
	{"geometry":{"coordinates":[7.093731,51.468495],"type":"Point"},"properties":{"osm_id":"416587091","tag":{"amenity":"recycling","opening_hours":"Mo-Sa 07:00-19:00; PH Su off","operator":"Entsorgungsbetriebe Essen","recycling:cardboard":"yes","recycling:paper":"yes","recycling_type":"container"}},"type":"Feature"},
	{"geometry":{"coordinates":[7.093858,51.468622],"type":"Point"},"properties":{"osm_id":"416587133","tag":{"amenity":"recycling","opening_hours":"Mo-Sa 07:00-19:00; PH Su off","operator":"Rhenus Logistics","recycling:glass_bottles":"yes","recycling_type":"container"}},"type":"Feature"},
	{"geometry":{"coordinates":[7.08491,51.469168],"type":"Point"},"properties":{"osm_id":"419750645","tag":{"amenity":"recycling","opening_hours":"Mo-Sa 07:00-19:00; PH Su off","operator":"Rhenus Logistics","recycling:glass_bottles":"yes","recycling_type":"container"}},"type":"Feature"},
	{"geometry":{"coordinates":[7.073512,51.472433],"type":"Point"},"properties":{"osm_id":"419777237","tag":{"amenity":"waste_basket"}},"type":"Feature"},
	{"geometry":{"coordinates":[7.06411,51.479388],"type":"Point"},"properties":{"osm_id":"420828332","tag":{"amenity":"waste_basket"}},"type":"Feature"},
	{"geometry":{"coordinates":[7.063095,51.493782],"type":"Point"},"properties":{"osm_id":"421942325","tag":{"amenity":"recycling","opening_hours":"Mo-Sa 07:00-19:00; PH Su off","operator":"Rhenus Logistics","recycling:glass_bottles":"yes","recycling_type":"container"}},"type":"Feature"},
	{"geometry":{"coordinates":[7.070953,51.455758],"type":"Point"},"properties":{"osm_id":"423877390","tag":{"amenity":"recycling","opening_hours":"Mo-Sa 07:00-19:00; PH Su off","operator":"Rhenus Logistics","recycling:glass_bottles":"yes","recycling_type":"container"}},"type":"Feature"},
	{"geometry":{"coordinates":[7.054697,51.466838],"type":"Point"},"properties":{"osm_id":"437351423","tag":{"amenity":"waste_basket","waste":"trash"}},"type":"Feature"},
	{"geometry":{"coordinates":[7.036529,51.462021],"type":"Point"},"properties":{"osm_id":"660203508","tag":{"amenity":"recycling","opening_hours":"Mo-Sa 07:00-19:00; PH Su off","operator":"Rhenus Logistics","recycling:glass_bottles":"yes","recycling_type":"container"}},"type":"Feature"},
	{"geometry":{"coordinates":[7.052499,51.495502],"type":"Point"},"properties":{"osm_id":"662375494","tag":{"amenity":"recycling","opening_hours":"Mo-Sa 07:00-19:00; PH Su off","operator":"Rhenus Logistics","recycling:glass_bottles":"yes","recycling_type":"container"}},"type":"Feature"},
	{"geometry":{"coordinates":[7.052412,51.499202],"type":"Point"},"properties":{"osm_id":"662430738","tag":{"amenity":"recycling","opening_hours":"Mo-Sa 07:00-19:00; PH Su off","operator":"Rhenus Logistics","recycling:glass_bottles":"yes","recycling_type":"container"}},"type":"Feature"},
	{"geometry":{"coordinates":[7.079301,51.46443],"type":"Point"},"properties":{"osm_id":"714920010","tag":{"amenity":"waste_basket"}},"type":"Feature"},
	{"geometry":{"coordinates":[7.0882,51.466356],"type":"Point"},"properties":{"osm_id":"771764439","tag":{"amenity":"recycling","opening_hours":"Mo-Sa 07:00-19:00; PH Su off","operator":"Rhenus Logistics","recycling:glass_bottles":"yes","recycling_type":"container"}},"type":"Feature"},
	{"geometry":{"coordinates":[7.052997,51.486612],"type":"Point"},"properties":{"osm_id":"885619821","tag":{"amenity":"recycling","opening_hours":"Mo-Sa 07:00-19:00; PH Su off","operator":"Rhenus Logistics","recycling:glass_bottles":"yes","recycling_type":"container"}},"type":"Feature"},
	{"geometry":{"coordinates":[7.085505,51.50754],"type":"Point"},"properties":{"osm_id":"1096077945","tag":{"amenity":"recycling","location":"overground","recycling:clothes":"yes","recycling:glass_bottles":"yes","recycling_type":"container"}},"type":"Feature"},
	{"geometry":{"coordinates":[7.078081,51.508094],"type":"Point"},"properties":{"osm_id":"1137312875","tag":{"amenity":"recycling","location":"overground","recycling:clothes":"yes","recycling:glass_bottles":"yes","recycling_type":"container"}},"type":"Feature"},
	{"geometry":{"coordinates":[7.072433,51.50726],"type":"Point"},"properties":{"osm_id":"1139390491","tag":{"amenity":"recycling","operator":"Rhenus Logistics","recycling:glass_bottles":"yes","recycling_type":"container"}},"type":"Feature"},
	{"geometry":{"coordinates":[7.074855,51.507544],"type":"Point"},"properties":{"osm_id":"1139390509","tag":{"amenity":"recycling","location":"overground","recycling:clothes":"yes","recycling:glass_bottles":"yes","recycling_type":"container"}},"type":"Feature"},
	{"geometry":{"coordinates":[7.080899,51.480879],"type":"Point"},"properties":{"osm_id":"1178997337","tag":{"amenity":"recycling","opening_hours":"Mo-Sa 07:00-19:00; PH Su off","operator":"Rhenus Logistics","recycling:glass_bottles":"yes","recycling_type":"container"}},"type":"Feature"},
	{"geometry":{"coordinates":[7.085155,51.456811],"type":"Point"},"properties":{"osm_id":"1216066110","tag":{"amenity":"recycling","opening_hours":"Mo-Sa 07:00-19:00; PH Su off","operator":"Rhenus Logistics","recycling:glass_bottles":"yes","recycling_type":"container"}},"type":"Feature"},
	{"geometry":{"coordinates":[7.094621,51.507486],"type":"Point"},"properties":{"osm_id":"1222852865","tag":{"amenity":"recycling","recycling:clothes":"yes","recycling:glass_bottles":"yes","recycling:paper":"yes","recycling_type":"container"}},"type":"Feature"},
	{"geometry":{"coordinates":[7.069542,51.455164],"type":"Point"},"properties":{"osm_id":"1234845506","tag":{"amenity":"recycling","opening_hours":"Mo-Sa 07:00-19:00; PH Su off","operator":"Rhenus Logistics","recycling:glass_bottles":"yes","recycling_type":"container"}},"type":"Feature"},
	{"geometry":{"coordinates":[7.074402,51.456913],"type":"Point"},"properties":{"osm_id":"1234846063","tag":{"amenity":"recycling","opening_hours":"Mo-Sa 07:00-19:00; PH Su off","operator":"Rhenus Logistics","recycling:glass_bottles":"yes","recycling_type":"container"}},"type":"Feature"},
	{"geometry":{"coordinates":[7.066733,51.466982],"type":"Point"},"properties":{"osm_id":"1239296386","tag":{"amenity":"recycling","opening_hours":"Mo-Sa 07:00-19:00; PH Su off","operator":"Rhenus Logistics","recycling:glass_bottles":"yes","recycling_type":"container"}},"type":"Feature"},
	{"geometry":{"coordinates":[7.100395,51.45459],"type":"Point"},"properties":{"osm_id":"1254692594","tag":{"amenity":"recycling","opening_hours":"Mo-Sa 07:00-19:00; PH Su off","operator":"Rhenus Logistics","recycling:glass_bottles":"yes","recycling_type":"container"}},"type":"Feature"},
	{"geometry":{"coordinates":[7.082154,51.471807],"type":"Point"},"properties":{"osm_id":"1260267418","tag":{"amenity":"recycling","opening_hours":"Mo-Sa 07:00-19:00; PH Su off","operator":"Rhenus Logistics","recycling:glass_bottles":"yes","recycling_type":"container"}},"type":"Feature"},
	{"geometry":{"coordinates":[7.108208,51.456053],"type":"Point"},"properties":{"osm_id":"1279644435","tag":{"amenity":"recycling","opening_hours":"Mo-Sa 07:00-19:00; PH Su off","operator":"Rhenus Logistics","recycling:glass_bottles":"yes","recycling_type":"container"}},"type":"Feature"},
	{"geometry":{"coordinates":[7.08475,51.465918],"type":"Point"},"properties":{"osm_id":"1291370158","tag":{"amenity":"recycling","opening_hours":"Mo-Sa 07:00-19:00; PH Su off","operator":"Rhenus Logistics","recycling:glass_bottles":"yes","recycling_type":"container"}},"type":"Feature"},
	{"geometry":{"coordinates":[7.074379,51.458772],"type":"Point"},"properties":{"osm_id":"1312905485","tag":{"amenity":"recycling","opening_hours":"Mo-Sa 07:00-19:00; PH Su off","operator":"Entsorgungsbetriebe Essen","recycling:cardboard":"yes","recycling:paper":"yes","recycling_type":"container"}},"type":"Feature"},
	{"geometry":{"coordinates":[7.048125,51.497373],"type":"Point"},"properties":{"osm_id":"1507702166","tag":{"amenity":"recycling","location":"overground","opening_hours":"Mo-Sa 07:00-19:00; PH Su off","operator":"Entsorgungsbetriebe Essen","recycling:cardboard":"yes","recycling:paper":"yes","recycling_type":"container"}},"type":"Feature"},
	{"geometry":{"coordinates":[7.082133,51.494042],"type":"Point"},"properties":{"osm_id":"1555896291","tag":{"amenity":"recycling","location":"overground","recycling:clothes":"yes","recycling:glass_bottles":"yes","recycling_type":"container"}},"type":"Feature"},
	{"geometry":{"coordinates":[7.099797,51.464175],"type":"Point"},"properties":{"osm_id":"1596247093","tag":{"amenity":"recycling","opening_hours":"Mo-Sa 07:00-19:00; PH Su off","operator":"Rhenus Logistics","recycling:glass_bottles":"yes","recycling_type":"container"}},"type":"Feature"},
	{"geometry":{"coordinates":[7.084097,51.48994],"type":"Point"},"properties":{"osm_id":"1597383958","tag":{"amenity":"recycling","recycling:glass_bottles":"yes","recycling:paper":"yes","recycling_type":"container"}},"type":"Feature"},
	{"geometry":{"coordinates":[7.059861,51.48199],"type":"Point"},"properties":{"osm_id":"1630422460","tag":{"amenity":"recycling","opening_hours":"Mo-Sa 07:00-19:00; PH Su off","operator":"Rhenus Logistics","recycling:glass_bottles":"yes","recycling_type":"container"}},"type":"Feature"},
	{"geometry":{"coordinates":[7.069829,51.484789],"type":"Point"},"properties":{"osm_id":"1630422829","tag":{"amenity":"recycling","opening_hours":"Mo-Sa 07:00-19:00; PH Su off","operator":"Rhenus Logistics","recycling:glass_bottles":"yes","recycling_type":"container"}},"type":"Feature"},
	{"geometry":{"coordinates":[7.062484,51.485357],"type":"Point"},"properties":{"osm_id":"1630422929","tag":{"amenity":"recycling","opening_hours":"Mo-Sa 07:00-19:00; PH Su off","operator":"Entsorgungsbetriebe Essen","recycling:cardboard":"yes","recycling:paper":"yes","recycling_type":"container"}},"type":"Feature"},
	{"geometry":{"coordinates":[7.063737,51.485911],"type":"Point"},"properties":{"osm_id":"1630422955","tag":{"amenity":"recycling","opening_hours":"Mo-Sa 07:00-19:00; PH Su off","operator":"Rhenus Logistics","recycling:glass_bottles":"yes","recycling_type":"container"}},"type":"Feature"},
	{"geometry":{"coordinates":[7.032541,51.473172],"type":"Point"},"properties":{"osm_id":"1635454929","tag":{"amenity":"recycling","opening_hours":"Mo-Sa 07:00-19:00; PH Su off","operator":"Rhenus Logistics","recycling:glass_bottles":"yes","recycling_type":"container"}},"type":"Feature"},
	{"geometry":{"coordinates":[7.032318,51.460949],"type":"Point"},"properties":{"osm_id":"1652997859","tag":{"amenity":"recycling","opening_hours":"Mo-Sa 07:00-19:00; PH Su off","operator":"Rhenus Logistics","recycling:glass_bottles":"yes","recycling_type":"container"}},"type":"Feature"},
	{"geometry":{"coordinates":[7.034278,51.455507],"type":"Point"},"properties":{"osm_id":"1809703817","tag":{"amenity":"waste_basket","check_date":"2021-05-16"}},"type":"Feature"},
	{"geometry":{"coordinates":[7.03877,51.501546],"type":"Point"},"properties":{"osm_id":"1910474537","tag":{"amenity":"recycling","opening_hours":"Mo-Sa 07:00-19:00; PH Su off","operator":"Entsorgungsbetriebe Essen","recycling:cardboard":"yes","recycling:paper":"yes","recycling_type":"container"}},"type":"Feature"},
	{"geometry":{"coordinates":[7.04692,51.503505],"type":"Point"},"properties":{"osm_id":"1910474648","tag":{"amenity":"recycling","opening_hours":"Mo-Sa 07:00-19:00; PH Su off","operator":"Rhenus Logistics","recycling:glass_bottles":"yes","recycling_type":"container"}},"type":"Feature"},
	{"geometry":{"coordinates":[7.082464,51.493166],"type":"Point"},"properties":{"osm_id":"2773616646","tag":{"amenity":"recycling","recycling:clothes":"yes","recycling:glass_bottles":"yes","recycling:shoes":"yes","recycling_type":"container"}},"type":"Feature"},
	{"geometry":{"coordinates":[7.08356,51.493981],"type":"Point"},"properties":{"osm_id":"2773616821","tag":{"amenity":"recycling","recycling:glass_bottles":"yes","recycling_type":"container"}},"type":"Feature"},
	{"geometry":{"coordinates":[7.085497,51.464414],"type":"Point"},"properties":{"osm_id":"2800164209","tag":{"amenity":"recycling","opening_hours":"Mo-Sa 07:00-19:00; PH Su off","operator":"Rhenus Logistics","recycling:glass_bottles":"yes","recycling_type":"container"}},"type":"Feature"},
	{"geometry":{"coordinates":[7.093424,51.472564],"type":"Point"},"properties":{"osm_id":"3188073203","tag":{"amenity":"recycling","opening_hours":"Mo-Sa 07:00-19:00; PH Su off","operator":"Entsorgungsbetriebe Essen","recycling:cardboard":"yes","recycling:paper":"yes","recycling_type":"container"}},"type":"Feature"},
	{"geometry":{"coordinates":[7.064925,51.480042],"type":"Point"},"properties":{"osm_id":"3363365956","tag":{"amenity":"waste_basket"}},"type":"Feature"},
	{"geometry":{"coordinates":[7.064898,51.480188],"type":"Point"},"properties":{"osm_id":"3363365961","tag":{"amenity":"waste_basket"}},"type":"Feature"},
	{"geometry":{"coordinates":[7.064015,51.48039],"type":"Point"},"properties":{"osm_id":"3363365972","tag":{"amenity":"waste_basket"}},"type":"Feature"},
	{"geometry":{"coordinates":[7.064819,51.480394],"type":"Point"},"properties":{"osm_id":"3363365976","tag":{"amenity":"waste_basket"}},"type":"Feature"},
	{"geometry":{"coordinates":[7.064789,51.480414],"type":"Point"},"properties":{"osm_id":"3363365977","tag":{"amenity":"waste_basket"}},"type":"Feature"},
	{"geometry":{"coordinates":[7.065029,51.480474],"type":"Point"},"properties":{"osm_id":"3363365984","tag":{"amenity":"waste_basket"}},"type":"Feature"},
	{"geometry":{"coordinates":[7.064162,51.480525],"type":"Point"},"properties":{"osm_id":"3363365986","tag":{"amenity":"waste_basket"}},"type":"Feature"},
	{"geometry":{"coordinates":[7.064843,51.480671],"type":"Point"},"properties":{"osm_id":"3363365992","tag":{"amenity":"waste_basket"}},"type":"Feature"},
	{"geometry":{"coordinates":[7.064602,51.480992],"type":"Point"},"properties":{"osm_id":"3363368198","tag":{"amenity":"waste_basket"}},"type":"Feature"},
	{"geometry":{"coordinates":[7.040112,51.470477],"type":"Point"},"properties":{"osm_id":"3543009533","tag":{"amenity":"recycling","opening_hours":"Mo-Sa 07:00-19:00; PH Su off","operator":"Rhenus Logistics","recycling:glass_bottles":"yes","recycling_type":"container"}},"type":"Feature"},
	{"geometry":{"coordinates":[7.100788,51.465537],"type":"Point"},"properties":{"osm_id":"3754608045","tag":{"amenity":"recycling","opening_hours":"Mo-Sa 07:00-19:00; PH Su off","operator":"Rhenus Logistics","recycling:glass_bottles":"yes","recycling_type":"container"}},"type":"Feature"},
	{"geometry":{"coordinates":[7.081511,51.49063],"type":"Point"},"properties":{"osm_id":"4004272969","tag":{"amenity":"waste_basket"}},"type":"Feature"},
	{"geometry":{"coordinates":[7.085854,51.490793],"type":"Point"},"properties":{"osm_id":"4004272982","tag":{"amenity":"recycling","recycling:glass_bottles":"yes","recycling_type":"container"}},"type":"Feature"},
	{"geometry":{"coordinates":[7.037818,51.476201],"type":"Point"},"properties":{"osm_id":"4058359436","tag":{"amenity":"recycling","operator":"Diakoniewerk Essen","recycling:clothes":"yes","recycling:shoes":"yes","recycling_type":"container"}},"type":"Feature"},
	{"geometry":{"coordinates":[7.04464,51.49855],"type":"Point"},"properties":{"osm_id":"4087784870","tag":{"amenity":"recycling","opening_hours":"Mo-Sa 07:00-19:00; PH Su off","operator":"Rhenus Logistics","recycling:glass_bottles":"yes","recycling_type":"container"}},"type":"Feature"},
	{"geometry":{"coordinates":[7.059188,51.474235],"type":"Point"},"properties":{"osm_id":"4323659423","tag":{"amenity":"waste_basket"}},"type":"Feature"},
	{"geometry":{"coordinates":[7.058784,51.474512],"type":"Point"},"properties":{"osm_id":"4323659426","tag":{"amenity":"waste_basket"}},"type":"Feature"},
	{"geometry":{"coordinates":[7.059332,51.474559],"type":"Point"},"properties":{"osm_id":"4323659428","tag":{"amenity":"waste_basket"}},"type":"Feature"},
	{"geometry":{"coordinates":[7.099779,51.464363],"type":"Point"},"properties":{"osm_id":"4355184328","tag":{"amenity":"waste_basket"}},"type":"Feature"},
	{"geometry":{"coordinates":[7.09985,51.464593],"type":"Point"},"properties":{"osm_id":"4355184331","tag":{"amenity":"waste_basket"}},"type":"Feature"},
	{"geometry":{"coordinates":[7.100128,51.464759],"type":"Point"},"properties":{"osm_id":"4355184332","tag":{"amenity":"waste_basket"}},"type":"Feature"},
	{"geometry":{"coordinates":[7.101102,51.465601],"type":"Point"},"properties":{"osm_id":"4355184342","tag":{"amenity":"waste_basket"}},"type":"Feature"},
	{"geometry":{"coordinates":[7.111904,51.497584],"type":"Point"},"properties":{"osm_id":"4428730051","tag":{"amenity":"recycling","recycling:clothes":"yes","recycling_type":"container"}},"type":"Feature"},
	{"geometry":{"coordinates":[7.04642,51.488771],"type":"Point"},"properties":{"osm_id":"4445182375","tag":{"amenity":"waste_basket"}},"type":"Feature"},
	{"geometry":{"coordinates":[7.031481,51.499255],"type":"Point"},"properties":{"osm_id":"4504343314","tag":{"amenity":"recycling","opening_hours":"Mo-Sa 07:00-19:00; PH Su off","operator":"Rhenus Logistics","recycling:glass_bottles":"yes","recycling_type":"container"}},"type":"Feature"},
	{"geometry":{"coordinates":[7.034134,51.455189],"type":"Point"},"properties":{"osm_id":"4664980348","tag":{"amenity":"recycling","opening_hours":"Mo-Sa 07:00-19:00; PH Su off","operator":"Loop","recycling:clothes":"yes","recycling:shoes":"yes","recycling_type":"container"}},"type":"Feature"},
	{"geometry":{"coordinates":[7.043884,51.454814],"type":"Point"},"properties":{"osm_id":"4664980349","tag":{"amenity":"recycling","opening_hours":"Mo-Sa 07:00-19:00; PH Su off","operator":"Rhenus Logistics","recycling:glass_bottles":"yes","recycling_type":"container"}},"type":"Feature"},
	{"geometry":{"coordinates":[7.043876,51.454782],"type":"Point"},"properties":{"osm_id":"4664980350","tag":{"amenity":"recycling","opening_hours":"Mo-Sa 07:00-19:00; PH Su off","operator":"Loop","recycling:clothes":"yes","recycling:shoes":"yes","recycling_type":"container"}},"type":"Feature"},
	{"geometry":{"coordinates":[7.047359,51.465516],"type":"Point"},"properties":{"osm_id":"4697258263","tag":{"amenity":"recycling","opening_hours":"Mo-Sa 07:00-19:00; PH, Su off","operator":"Loop","recycling:clothes":"yes","recycling:shoes":"yes","recycling_type":"container"}},"type":"Feature"},
	{"geometry":{"coordinates":[7.050686,51.463578],"type":"Point"},"properties":{"osm_id":"4697258264","tag":{"amenity":"recycling","opening_hours":"Mo-Sa 07:00-19:00; PH Su off","operator":"Entsorgungsbetriebe Essen","recycling:cardboard":"yes","recycling:paper":"yes","recycling_type":"container"}},"type":"Feature"},
	{"geometry":{"coordinates":[7.047376,51.462211],"type":"Point"},"properties":{"osm_id":"4697258266","tag":{"amenity":"recycling","opening_hours":"Mo-Sa 07:00-19:00; PH Su off","operator":"Entsorgungsbetriebe Essen","recycling:cardboard":"yes","recycling:paper":"yes","recycling_type":"container"}},"type":"Feature"},
	{"geometry":{"coordinates":[7.047305,51.462314],"type":"Point"},"properties":{"osm_id":"4697258267","tag":{"amenity":"recycling","opening_hours":"Mo-Sa 07:00-19:00; PH Su off","operator":"Loop","recycling:clothes":"yes","recycling:shoes":"yes","recycling_type":"container"}},"type":"Feature"},
	{"geometry":{"coordinates":[7.045405,51.456442],"type":"Point"},"properties":{"osm_id":"4697258272","tag":{"amenity":"recycling","opening_hours":"Mo-Sa 07:00-19:00; PH Su off","operator":"Entsorgungsbetriebe Essen","recycling:cardboard":"yes","recycling:paper":"yes","recycling_type":"container"}},"type":"Feature"},
	{"geometry":{"coordinates":[7.045365,51.456469],"type":"Point"},"properties":{"osm_id":"4697258273","tag":{"amenity":"recycling","opening_hours":"Mo-Sa 07:00-19:00; PH Su off","operator":"Rhenus Logistics","recycling:glass_bottles":"yes","recycling_type":"container"}},"type":"Feature"},
	{"geometry":{"coordinates":[7.032369,51.460791],"type":"Point"},"properties":{"osm_id":"4719014692","tag":{"amenity":"recycling","opening_hours":"Mo-Sa 07:00-19:00; PH Su off","operator":"Diakoniewerk Essen","recycling:clothes":"yes","recycling:shoes":"yes","recycling_type":"container"}},"type":"Feature"},
	{"geometry":{"coordinates":[7.036576,51.462039],"type":"Point"},"properties":{"osm_id":"4719014693","tag":{"amenity":"recycling","opening_hours":"Mo-Sa 07:00-19:00; PH Su off","operator":"Loop","recycling:clothes":"yes","recycling:shoes":"yes","recycling_type":"container"}},"type":"Feature"},
	{"geometry":{"coordinates":[7.110101,51.454646],"type":"Point"},"properties":{"osm_id":"4740918955","tag":{"amenity":"recycling","opening_hours":"Mo-Sa 07:00-19:00; PH Su off","operator":"Loop","recycling:clothes":"yes","recycling:shoes":"yes","recycling_type":"container"}},"type":"Feature"},
	{"geometry":{"coordinates":[7.110062,51.454689],"type":"Point"},"properties":{"osm_id":"4740918956","tag":{"amenity":"recycling","opening_hours":"Mo-Sa 07:00-19:00; PH Su off","operator":"Entsorgungsbetriebe Essen","recycling:cardboard":"yes","recycling:paper":"yes","recycling_type":"container"}},"type":"Feature"},
	{"geometry":{"coordinates":[7.11008,51.454666],"type":"Point"},"properties":{"osm_id":"4740918957","tag":{"amenity":"recycling","opening_hours":"Mo-Sa 07:00-19:00; PH Su off","operator":"Rhenus Logistics","recycling:glass_bottles":"yes","recycling_type":"container"}},"type":"Feature"},
	{"geometry":{"coordinates":[7.108286,51.456079],"type":"Point"},"properties":{"osm_id":"4740918960","tag":{"amenity":"recycling","opening_hours":"Mo-Sa 07:00-19:00; PH Su off","operator":"Entsorgungsbetriebe Essen","recycling:cardboard":"yes","recycling:paper":"yes","recycling_type":"container"}},"type":"Feature"},
	{"geometry":{"coordinates":[7.100421,51.454562],"type":"Point"},"properties":{"osm_id":"4740918961","tag":{"amenity":"recycling","opening_hours":"Mo-Sa 07:00-19:00; PH Su off","operator":"Entsorgungsbetriebe Essen","recycling:cardboard":"yes","recycling:paper":"yes","recycling_type":"container"}},"type":"Feature"},
	{"geometry":{"coordinates":[7.100367,51.454576],"type":"Point"},"properties":{"osm_id":"4740918962","tag":{"amenity":"recycling","opening_hours":"Mo-Sa 07:00-19:00; PH Su off","operator":"Loop","recycling:clothes":"yes","recycling:shoes":"yes","recycling_type":"container"}},"type":"Feature"},
	{"geometry":{"coordinates":[7.064932,51.464268],"type":"Point"},"properties":{"osm_id":"4743220527","tag":{"amenity":"recycling","opening_hours":"Mo-Sa 07:00-19:00; PH Su off","operator":"Loop","recycling:clothes":"yes","recycling:shoes":"yes","recycling_type":"container"}},"type":"Feature"},
	{"geometry":{"coordinates":[7.064838,51.464268],"type":"Point"},"properties":{"osm_id":"4743220528","tag":{"amenity":"recycling","opening_hours":"Mo-Sa 07:00-19:00; PH Su off","operator":"Rhenus Logistics","recycling:glass_bottles":"yes","recycling_type":"container"}},"type":"Feature"},
	{"geometry":{"coordinates":[7.071204,51.465468],"type":"Point"},"properties":{"osm_id":"4743220529","tag":{"amenity":"recycling","opening_hours":"Mo-Sa 07:00-19:00; PH Su off","operator":"Loop","recycling:clothes":"yes","recycling:shoes":"yes","recycling_type":"container"}},"type":"Feature"},
	{"geometry":{"coordinates":[7.071225,51.465482],"type":"Point"},"properties":{"osm_id":"4743220530","tag":{"amenity":"recycling","opening_hours":"Mo-Sa 07:00-19:00; PH Su off","operator":"Entsorgungsbetriebe Essen","recycling:cardboard":"yes","recycling:paper":"yes","recycling_type":"container"}},"type":"Feature"},
	{"geometry":{"coordinates":[7.082216,51.471803],"type":"Point"},"properties":{"osm_id":"4743220531","tag":{"amenity":"recycling","opening_hours":"Mo-Sa 07:00-19:00; PH Su off","operator":"Entsorgungsbetriebe Essen","recycling:cardboard":"yes","recycling:paper":"yes","recycling_type":"container"}},"type":"Feature"},
	{"geometry":{"coordinates":[7.082103,51.47181],"type":"Point"},"properties":{"osm_id":"4743220532","tag":{"amenity":"recycling","opening_hours":"Mo-Sa 07:00-19:00; PH Su off","operator":"Loop","recycling:clothes":"yes","recycling:shoes":"yes","recycling_type":"container"}},"type":"Feature"},
	{"geometry":{"coordinates":[7.076836,51.474162],"type":"Point"},"properties":{"osm_id":"4743220533","tag":{"amenity":"recycling","opening_hours":"Mo-Sa 07:00-19:00; PH Su off","operator":"Rhenus Logistics","recycling:glass_bottles":"yes","recycling_type":"container"}},"type":"Feature"},
	{"geometry":{"coordinates":[7.076861,51.474141],"type":"Point"},"properties":{"osm_id":"4743220534","tag":{"amenity":"recycling","opening_hours":"Mo-Sa 07:00-19:00; PH Su off","operator":"Loop","recycling:clothes":"yes","recycling:shoes":"yes","recycling_type":"container"}},"type":"Feature"},
	{"geometry":{"coordinates":[7.08081,51.482822],"type":"Point"},"properties":{"osm_id":"4743220535","tag":{"amenity":"recycling","opening_hours":"Mo-Sa 07:00-19:00; PH Su off","operator":"Loop","recycling:clothes":"yes","recycling:shoes":"yes","recycling_type":"container"}},"type":"Feature"},
	{"geometry":{"coordinates":[7.080819,51.482844],"type":"Point"},"properties":{"osm_id":"4743220536","tag":{"amenity":"recycling","opening_hours":"Mo-Sa 07:00-19:00; PH Su off","operator":"Entsorgungsbetriebe Essen","recycling:cardboard":"yes","recycling:paper":"yes","recycling_type":"container"}},"type":"Feature"},
	{"geometry":{"coordinates":[7.080805,51.482857],"type":"Point"},"properties":{"osm_id":"4743220537","tag":{"amenity":"recycling","opening_hours":"Mo-Sa 07:00-19:00; PH Su off","operator":"Rhenus Logistics","recycling:glass_bottles":"yes","recycling_type":"container"}},"type":"Feature"},
	{"geometry":{"coordinates":[7.080854,51.480795],"type":"Point"},"properties":{"osm_id":"4743220538","tag":{"amenity":"recycling","opening_hours":"Mo-Sa 07:00-19:00; PH Su off","operator":"Loop","recycling:clothes":"yes","recycling:shoes":"yes","recycling_type":"container"}},"type":"Feature"},
	{"geometry":{"coordinates":[7.08084,51.48076],"type":"Point"},"properties":{"osm_id":"4743220539","tag":{"amenity":"recycling","opening_hours":"Mo-Sa 07:00-19:00; PH Su off","operator":"Entsorgungsbetriebe Essen","recycling:cardboard":"yes","recycling:paper":"yes","recycling_type":"container"}},"type":"Feature"},
	{"geometry":{"coordinates":[7.080329,51.479726],"type":"Point"},"properties":{"osm_id":"4743220540","tag":{"amenity":"recycling","opening_hours":"Mo-Sa 07:00-19:00; PH Su off","operator":"Entsorgungsbetriebe Essen","recycling:cardboard":"yes","recycling:paper":"yes","recycling_type":"container"}},"type":"Feature"},
	{"geometry":{"coordinates":[7.081502,51.474324],"type":"Point"},"properties":{"osm_id":"4743220541","tag":{"amenity":"recycling","operator":"Brotex","recycling:clothes":"yes","recycling:shoes":"yes","recycling_type":"container"}},"type":"Feature"},
	{"geometry":{"coordinates":[7.084933,51.469123],"type":"Point"},"properties":{"osm_id":"4743220542","tag":{"amenity":"recycling","opening_hours":"Mo-Sa 07:00-19:00; PH Su off","operator":"Entsorgungsbetriebe Essen","recycling:cardboard":"yes","recycling:paper":"yes","recycling_type":"container"}},"type":"Feature"},
	{"geometry":{"coordinates":[7.087215,51.467687],"type":"Point"},"properties":{"osm_id":"4743220543","tag":{"amenity":"recycling","opening_hours":"Mo-Sa 07:00-19:00; PH Su off","operator":"Entsorgungsbetriebe Essen","recycling:cardboard":"yes","recycling:paper":"yes","recycling_type":"container"}},"type":"Feature"},
	{"geometry":{"coordinates":[7.087266,51.467699],"type":"Point"},"properties":{"osm_id":"4743220544","tag":{"amenity":"recycling","opening_hours":"Mo-Sa 07:00-19:00; PH Su off","operator":"Rhenus Logistics","recycling:glass_bottles":"yes","recycling_type":"container"}},"type":"Feature"},
	{"geometry":{"coordinates":[7.084673,51.465921],"type":"Point"},"properties":{"osm_id":"4743220547","tag":{"amenity":"recycling","opening_hours":"Mo-Sa 07:00-19:00; PH Su off","operator":"Loop","recycling:clothes":"yes","recycling:shoes":"yes","recycling_type":"container"}},"type":"Feature"},
	{"geometry":{"coordinates":[7.08829,51.4663],"type":"Point"},"properties":{"osm_id":"4743220548","tag":{"amenity":"recycling","opening_hours":"Mo-Sa 07:00-19:00; PH Su off","operator":"Entsorgungsbetriebe Essen","recycling:cardboard":"yes","recycling:paper":"yes","recycling_type":"container"}},"type":"Feature"},
	{"geometry":{"coordinates":[7.08824,51.466327],"type":"Point"},"properties":{"osm_id":"4743220549","tag":{"amenity":"recycling","opening_hours":"Mo-Sa 07:00-19:00; PH Su off","operator":"Loop","recycling:clothes":"yes","recycling:shoes":"yes","recycling_type":"container"}},"type":"Feature"},
	{"geometry":{"coordinates":[7.085603,51.464354],"type":"Point"},"properties":{"osm_id":"4743220560","tag":{"amenity":"recycling","opening_hours":"Mo-Sa 07:00-19:00; PH Su off","operator":"Loop","recycling:clothes":"yes","recycling:shoes":"yes","recycling_type":"container"}},"type":"Feature"},
	{"geometry":{"coordinates":[7.079862,51.461793],"type":"Point"},"properties":{"osm_id":"4743220562","tag":{"amenity":"recycling","opening_hours":"Mo-Sa 07:00-19:00; PH Su off","operator":"Loop","recycling:clothes":"yes","recycling:shoes":"yes","recycling_type":"container"}},"type":"Feature"},
	{"geometry":{"coordinates":[7.076656,51.461891],"type":"Point"},"properties":{"osm_id":"4743220568","tag":{"amenity":"recycling","opening_hours":"Mo-Sa 07:00-19:00; PH Su off","operator":"Loop","recycling:clothes":"yes","recycling:shoes":"yes","recycling_type":"container"}},"type":"Feature"},
	{"geometry":{"coordinates":[7.076878,51.461842],"type":"Point"},"properties":{"osm_id":"4743220569","tag":{"amenity":"recycling","opening_hours":"Mo-Sa 07:00-19:00; PH Su off","operator":"Entsorgungsbetriebe Essen","recycling:cardboard":"yes","recycling:paper":"yes","recycling_type":"container"}},"type":"Feature"},
	{"geometry":{"coordinates":[7.073669,51.460764],"type":"Point"},"properties":{"osm_id":"4743220574","tag":{"amenity":"recycling","opening_hours":"Mo-Sa 07:00-19:00; PH Su off","operator":"Entsorgungsbetriebe Essen","recycling:cardboard":"yes","recycling:paper":"yes","recycling_type":"container"}},"type":"Feature"},
	{"geometry":{"coordinates":[7.073634,51.460777],"type":"Point"},"properties":{"osm_id":"4743220575","tag":{"amenity":"recycling","opening_hours":"Mo-Sa 07:00-19:00; PH Su off","operator":"Loop","recycling:clothes":"yes","recycling:shoes":"yes","recycling_type":"container"}},"type":"Feature"},
	{"geometry":{"coordinates":[7.074399,51.458656],"type":"Point"},"properties":{"osm_id":"4743220576","tag":{"amenity":"recycling","opening_hours":"Mo-Sa 07:00-19:00; PH Su off","operator":"Rhenus Logistics","recycling:glass_bottles":"yes","recycling_type":"container"}},"type":"Feature"},
	{"geometry":{"coordinates":[7.074393,51.458685],"type":"Point"},"properties":{"osm_id":"4743220577","tag":{"amenity":"recycling","opening_hours":"Mo-Sa 07:00-19:00; PH Su off","operator":"Loop","recycling:clothes":"yes","recycling:shoes":"yes","recycling_type":"container"}},"type":"Feature"},
	{"geometry":{"coordinates":[7.076152,51.458444],"type":"Point"},"properties":{"osm_id":"4743220585","tag":{"amenity":"recycling","opening_hours":"Mo-Sa 07:00-19:00; PH Su off","operator":"Rhenus Logistics","recycling:glass_bottles":"yes","recycling_type":"container"}},"type":"Feature"},
	{"geometry":{"coordinates":[7.076193,51.458476],"type":"Point"},"properties":{"osm_id":"4743220586","tag":{"amenity":"recycling","opening_hours":"Mo-Sa 07:00-19:00; PH Su off","operator":"Entsorgungsbetriebe Essen","recycling:cardboard":"yes","recycling:paper":"yes","recycling_type":"container"}},"type":"Feature"},
	{"geometry":{"coordinates":[7.074406,51.45695],"type":"Point"},"properties":{"osm_id":"4743220587","tag":{"amenity":"recycling","opening_hours":"Mo-Sa 07:00-19:00; PH Su off","operator":"Loop","recycling:clothes":"yes","recycling:shoes":"yes","recycling_type":"container"}},"type":"Feature"},
	{"geometry":{"coordinates":[7.070968,51.455702],"type":"Point"},"properties":{"osm_id":"4743220588","tag":{"amenity":"recycling","opening_hours":"Mo-Sa 07:00-19:00; PH Su off","operator":"Entsorgungsbetriebe Essen","recycling:cardboard":"yes","recycling:paper":"yes","recycling_type":"container"}},"type":"Feature"},
	{"geometry":{"coordinates":[7.069585,51.455187],"type":"Point"},"properties":{"osm_id":"4743220593","tag":{"amenity":"recycling","opening_hours":"Mo-Sa 07:00-19:00; PH Su off","operator":"Loop","recycling:clothes":"yes","recycling:shoes":"yes","recycling_type":"container"}},"type":"Feature"},
	{"geometry":{"coordinates":[7.056969,51.457494],"type":"Point"},"properties":{"osm_id":"4743283042","tag":{"amenity":"recycling","opening_hours":"Mo-Sa 07:00-19:00; PH Su off","operator":"Entsorgungsbetriebe Essen","recycling:cardboard":"yes","recycling:paper":"yes","recycling_type":"container"}},"type":"Feature"},
	{"geometry":{"coordinates":[7.056842,51.474056],"type":"Point"},"properties":{"osm_id":"4754962615","tag":{"amenity":"recycling","opening_hours":"Mo-Sa 07:00-19:00; PH Su off","operator":"Entsorgungsbetriebe Essen","recycling:cardboard":"yes","recycling:paper":"yes","recycling_type":"container"}},"type":"Feature"},
	{"geometry":{"coordinates":[7.056935,51.474114],"type":"Point"},"properties":{"osm_id":"4754962616","tag":{"amenity":"recycling","opening_hours":"Mo-Sa 07:00-19:00; PH Su off","operator":"Loop","recycling:clothes":"yes","recycling:shoes":"yes","recycling_type":"container"}},"type":"Feature"},
	{"geometry":{"coordinates":[7.061313,51.473092],"type":"Point"},"properties":{"osm_id":"4754962617","tag":{"amenity":"recycling","opening_hours":"Mo-Sa 07:00-19:00; PH Su off","operator":"Loop","recycling:clothes":"yes","recycling:shoes":"yes","recycling_type":"container"}},"type":"Feature"},
	{"geometry":{"coordinates":[7.061366,51.47309],"type":"Point"},"properties":{"osm_id":"4754962618","tag":{"amenity":"recycling","opening_hours":"Mo-Sa 07:00-19:00; PH Su off","operator":"Entsorgungsbetriebe Essen","recycling:cardboard":"yes","recycling:paper":"yes","recycling_type":"container"}},"type":"Feature"},
	{"geometry":{"coordinates":[7.06834,51.473625],"type":"Point"},"properties":{"osm_id":"4754962619","tag":{"amenity":"recycling","opening_hours":"Mo-Sa 07:00-19:00; PH Su off","operator":"Entsorgungsbetriebe Essen","recycling:cardboard":"yes","recycling:paper":"yes","recycling_type":"container"}},"type":"Feature"},
	{"geometry":{"coordinates":[7.068339,51.473648],"type":"Point"},"properties":{"osm_id":"4754962620","tag":{"amenity":"recycling","opening_hours":"Mo-Sa 07:00-19:00; PH Su off","operator":"Loop","recycling:clothes":"yes","recycling:shoes":"yes","recycling_type":"container"}},"type":"Feature"},
	{"geometry":{"coordinates":[7.068326,51.473672],"type":"Point"},"properties":{"osm_id":"4754963521","tag":{"amenity":"recycling","opening_hours":"Mo-Sa 07:00-19:00; PH Su off","operator":"Rhenus Logistics","recycling:glass_bottles":"yes","recycling_type":"container"}},"type":"Feature"},
	{"geometry":{"coordinates":[7.069087,51.480749],"type":"Point"},"properties":{"osm_id":"4754963522","tag":{"amenity":"recycling","opening_hours":"Mo-Sa 07:00-19:00; PH Su off","operator":"Rhenus Logistics","recycling:glass_bottles":"yes","recycling_type":"container"}},"type":"Feature"},
	{"geometry":{"coordinates":[7.069007,51.480692],"type":"Point"},"properties":{"osm_id":"4754963523","tag":{"amenity":"recycling","opening_hours":"Mo-Sa 07:00-19:00; PH Su off","operator":"Entsorgungsbetriebe Essen","recycling:cardboard":"yes","recycling:paper":"yes","recycling_type":"container"}},"type":"Feature"},
	{"geometry":{"coordinates":[7.070041,51.48482],"type":"Point"},"properties":{"osm_id":"4754963524","tag":{"amenity":"recycling","opening_hours":"Mo-Sa 07:00-19:00; PH Su off","operator":"Entsorgungsbetriebe Essen","recycling:cardboard":"yes","recycling:paper":"yes","recycling_type":"container"}},"type":"Feature"},
	{"geometry":{"coordinates":[7.069874,51.484796],"type":"Point"},"properties":{"osm_id":"4754963525","tag":{"amenity":"recycling","opening_hours":"Mo-Sa 07:00-19:00; PH Su off","operator":"Loop","recycling:clothes":"yes","recycling:shoes":"yes","recycling_type":"container"}},"type":"Feature"},
	{"geometry":{"coordinates":[7.064127,51.485605],"type":"Point"},"properties":{"osm_id":"4754963530","tag":{"amenity":"recycling","operator":"Diakoniwerk Essen","recycling:clothes":"yes","recycling:shoes":"yes","recycling_type":"container"}},"type":"Feature"},
	{"geometry":{"coordinates":[7.063713,51.485915],"type":"Point"},"properties":{"osm_id":"4754963531","tag":{"amenity":"recycling","opening_hours":"Mo-Sa 07:00-19:00; PH Su off","operator":"Loop","recycling:clothes":"yes","recycling:shoes":"yes","recycling_type":"container"}},"type":"Feature"},
	{"geometry":{"coordinates":[7.06369,51.48589],"type":"Point"},"properties":{"osm_id":"4754963532","tag":{"amenity":"recycling","opening_hours":"Mo-Sa 07:00-19:00; PH Su off","operator":"Entsorgungsbetriebe Essen","recycling:cardboard":"yes","recycling:paper":"yes","recycling_type":"container"}},"type":"Feature"},
	{"geometry":{"coordinates":[7.059779,51.48196],"type":"Point"},"properties":{"osm_id":"4754963534","tag":{"amenity":"recycling","opening_hours":"Mo-Sa 07:00-19:00; PH Su off","operator":"Entsorgungsbetriebe Essen","recycling:cardboard":"yes","recycling:paper":"yes","recycling_type":"container"}},"type":"Feature"},
	{"geometry":{"coordinates":[7.05983,51.481977],"type":"Point"},"properties":{"osm_id":"4754963535","tag":{"amenity":"recycling","opening_hours":"Mo-Sa 07:00-19:00; PH Su off","operator":"Loop","recycling:clothes":"yes","recycling:shoes":"yes","recycling_type":"container"}},"type":"Feature"},
	{"geometry":{"coordinates":[7.056994,51.484496],"type":"Point"},"properties":{"osm_id":"4754963537","tag":{"amenity":"recycling","opening_hours":"Mo-Sa 07:00-19:00; PH Su off","operator":"Loop","recycling:clothes":"yes","recycling:shoes":"yes","recycling_type":"container"}},"type":"Feature"},
	{"geometry":{"coordinates":[7.052966,51.486637],"type":"Point"},"properties":{"osm_id":"4754963540","tag":{"amenity":"recycling","opening_hours":"Mo-Sa 07:00-19:00; PH Su off","operator":"Loop","recycling:clothes":"yes","recycling:shoes":"yes","recycling_type":"container"}},"type":"Feature"},
	{"geometry":{"coordinates":[7.05359,51.483671],"type":"Point"},"properties":{"osm_id":"4754963541","tag":{"amenity":"recycling","opening_hours":"Mo-Sa 07:00-19:00; PH Su off","operator":"Entsorgungsbetriebe Essen","recycling:cardboard":"yes","recycling:paper":"yes","recycling_type":"container"}},"type":"Feature"},
	{"geometry":{"coordinates":[7.053664,51.483619],"type":"Point"},"properties":{"osm_id":"4754963542","tag":{"amenity":"recycling","opening_hours":"Mo-Sa 07:00-19:00; PH Su off","operator":"Loop","recycling:clothes":"yes","recycling:shoes":"yes","recycling_type":"container"}},"type":"Feature"},
	{"geometry":{"coordinates":[7.053638,51.483636],"type":"Point"},"properties":{"osm_id":"4754963543","tag":{"amenity":"recycling","opening_hours":"Mo-Sa 07:00-19:00; PH Su off","operator":"Rhenus Logistics","recycling:glass_bottles":"yes","recycling_type":"container"}},"type":"Feature"},
	{"geometry":{"coordinates":[7.048878,51.484237],"type":"Point"},"properties":{"osm_id":"4754963552","tag":{"amenity":"recycling","opening_hours":"Mo-Sa 07:00-19:00; PH Su off","operator":"Rhenus Logistics","recycling:glass_bottles":"yes","recycling_type":"container"}},"type":"Feature"},
	{"geometry":{"coordinates":[7.048903,51.484185],"type":"Point"},"properties":{"osm_id":"4754963553","tag":{"amenity":"recycling","opening_hours":"Mo-Sa 07:00-19:00; PH Su off","operator":"Entsorgungsbetriebe Essen","recycling:cardboard":"yes","recycling:paper":"yes","recycling_type":"container"}},"type":"Feature"},
	{"geometry":{"coordinates":[7.048925,51.48413],"type":"Point"},"properties":{"osm_id":"4754963554","tag":{"amenity":"recycling","opening_hours":"Mo-Sa 07:00-19:00; PH Su off","operator":"Loop","recycling:clothes":"yes","recycling:shoes":"yes","recycling_type":"container"}},"type":"Feature"},
	{"geometry":{"coordinates":[7.042307,51.473624],"type":"Point"},"properties":{"osm_id":"4754963557","tag":{"amenity":"recycling","opening_hours":"Mo-Sa 07:00-19:00; PH Su off","operator":"Loop","recycling:clothes":"yes","recycling:shoes":"yes","recycling_type":"container"}},"type":"Feature"},
	{"geometry":{"coordinates":[7.042388,51.473584],"type":"Point"},"properties":{"osm_id":"4754963558","tag":{"amenity":"recycling","opening_hours":"Mo-Sa 07:00-19:00; PH Su off","operator":"Entsorgungsbetriebe Essen","recycling:cardboard":"yes","recycling:paper":"yes","recycling_type":"container"}},"type":"Feature"},
	{"geometry":{"coordinates":[7.045877,51.470669],"type":"Point"},"properties":{"osm_id":"4754963589","tag":{"amenity":"recycling","operator":"Humana","recycling:clothes":"yes","recycling:shoes":"yes","recycling_type":"container"}},"type":"Feature"},
	{"geometry":{"coordinates":[7.031468,51.499202],"type":"Point"},"properties":{"osm_id":"4756557554","tag":{"amenity":"recycling","opening_hours":"Mo-Sa 07:00-19:00; PH Su off","operator":"Entsorgungsbetriebe Essen","recycling:cardboard":"yes","recycling:paper":"yes","recycling_type":"container"}},"type":"Feature"},
	{"geometry":{"coordinates":[7.031481,51.499285],"type":"Point"},"properties":{"osm_id":"4756557555","tag":{"amenity":"recycling","opening_hours":"Mo-Sa 07:00-19:00; PH Su off","operator":"Loop","recycling:clothes":"yes","recycling:shoes":"yes","recycling_type":"container"}},"type":"Feature"},
	{"geometry":{"coordinates":[7.032579,51.473187],"type":"Point"},"properties":{"osm_id":"4756557614","tag":{"amenity":"recycling","opening_hours":"Mo-Sa 07:00-19:00; PH Su off","operator":"Loop","recycling:clothes":"yes","recycling:shoes":"yes","recycling_type":"container"}},"type":"Feature"},
	{"geometry":{"coordinates":[7.040081,51.470491],"type":"Point"},"properties":{"osm_id":"4756557629","tag":{"amenity":"recycling","opening_hours":"Mo-Sa 07:00-19:00; PH Su off","operator":"Entsorgungsbetriebe Essen","recycling:cardboard":"yes","recycling:paper":"yes","recycling_type":"container"}},"type":"Feature"},
	{"geometry":{"coordinates":[7.04013,51.470497],"type":"Point"},"properties":{"osm_id":"4756557630","tag":{"amenity":"recycling","opening_hours":"Mo-Sa 07:00-19:00; PH Su off","operator":"Loop","recycling:clothes":"yes","recycling:shoes":"yes","recycling_type":"container"}},"type":"Feature"},
	{"geometry":{"coordinates":[7.044027,51.469603],"type":"Point"},"properties":{"osm_id":"4756557634","tag":{"amenity":"recycling","opening_hours":"Mo-Sa 07:00-19:00; PH Su off","operator":"Entsorgungsbetriebe Essen","recycling:cardboard":"yes","recycling:paper":"yes","recycling_type":"container"}},"type":"Feature"},
	{"geometry":{"coordinates":[7.043958,51.469585],"type":"Point"},"properties":{"osm_id":"4756557635","tag":{"amenity":"recycling","opening_hours":"Mo-Sa 07:00-19:00; PH Su off","operator":"Loop","recycling:clothes":"yes","recycling:shoes":"yes","recycling_type":"container"}},"type":"Feature"},
	{"geometry":{"coordinates":[7.044135,51.469621],"type":"Point"},"properties":{"osm_id":"4756557637","tag":{"amenity":"recycling","opening_hours":"Mo-Sa 07:00-19:00; PH Su off","operator":"Rhenus Logistics","recycling:glass_bottles":"yes","recycling_type":"container"}},"type":"Feature"},
	{"geometry":{"coordinates":[7.048578,51.470597],"type":"Point"},"properties":{"osm_id":"4757196460","tag":{"amenity":"recycling","opening_hours":"Mo-Sa 07:00-19:00; PH Su off","operator":"Entsorgungsbetriebe Essen","recycling:cardboard":"yes","recycling:shoes":"yes","recycling_type":"container"}},"type":"Feature"},
	{"geometry":{"coordinates":[7.048633,51.470612],"type":"Point"},"properties":{"osm_id":"4757196461","tag":{"amenity":"recycling","opening_hours":"Mo-Sa 07:00-19:00; PH Su off","operator":"Rhenus Logistics","recycling:glass_bottles":"yes","recycling_type":"container"}},"type":"Feature"},
	{"geometry":{"coordinates":[7.058698,51.475493],"type":"Point"},"properties":{"osm_id":"4757196462","tag":{"amenity":"recycling","opening_hours":"Mo-Sa 07:00-19:00; PH Su off","operator":"Rhenus Logistics","recycling:glass_bottles":"yes","recycling_type":"container"}},"type":"Feature"},
	{"geometry":{"coordinates":[7.058753,51.475536],"type":"Point"},"properties":{"osm_id":"4757196463","tag":{"amenity":"recycling","opening_hours":"Mo-Sa 07:00-19:00; PH Su off","operator":"Entsorgungsbetriebe Essen","recycling:cardboard":"yes","recycling:paper":"yes","recycling_type":"container"}},"type":"Feature"},
	{"geometry":{"coordinates":[7.03954,51.476089],"type":"Point"},"properties":{"osm_id":"4757196464","tag":{"amenity":"recycling","opening_hours":"Mo-Sa 07:00-19:00; PH Su off","operator":"Loop","recycling:clothes":"yes","recycling:shoes":"yes","recycling_type":"container"}},"type":"Feature"},
	{"geometry":{"coordinates":[7.039504,51.47614],"type":"Point"},"properties":{"osm_id":"4757196465","tag":{"amenity":"recycling","opening_hours":"Mo-Sa 07:00-19:00; PH Su off","operator":"Entsorgungsbetriebe Essen","recycling:cardboard":"yes","recycling:paper":"yes","recycling_type":"container"}},"type":"Feature"},
	{"geometry":{"coordinates":[7.041538,51.481354],"type":"Point"},"properties":{"osm_id":"4757196472","tag":{"amenity":"recycling","opening_hours":"Mo-Sa 07:00-19:00; PH Su off","operator":"Loop","recycling:clothes":"yes","recycling:shoes":"yes","recycling_type":"container"}},"type":"Feature"},
	{"geometry":{"coordinates":[7.032252,51.483219],"type":"Point"},"properties":{"osm_id":"4757196473","tag":{"amenity":"recycling","opening_hours":"Mo-Sa 07:00-19:00; PH Su off","operator":"Rhenus Logistics","recycling:glass_bottles":"yes","recycling_type":"container"}},"type":"Feature"},
	{"geometry":{"coordinates":[7.045385,51.488238],"type":"Point"},"properties":{"osm_id":"4757196474","tag":{"amenity":"recycling","opening_hours":"Mo-Sa 07:00-19:00; PH Su off","operator":"Rhenus Logistics","recycling:glass_bottles":"yes","recycling_type":"container"}},"type":"Feature"},
	{"geometry":{"coordinates":[7.036004,51.485775],"type":"Point"},"properties":{"osm_id":"4757196477","tag":{"amenity":"recycling","opening_hours":"Mo-Sa 07:00-19:00; PH Su off","operator":"Entsorgungsbetriebe Essen","recycling:cardboard":"yes","recycling:paper":"yes","recycling_type":"container"}},"type":"Feature"},
	{"geometry":{"coordinates":[7.036037,51.48579],"type":"Point"},"properties":{"osm_id":"4757196478","tag":{"amenity":"recycling","opening_hours":"Mo-Sa 07:00-19:00; PH Su off","operator":"Loop","recycling:clothes":"yes","recycling:shoes":"yes","recycling_type":"container"}},"type":"Feature"},
	{"geometry":{"coordinates":[7.041349,51.492941],"type":"Point"},"properties":{"osm_id":"4758174197","tag":{"amenity":"recycling","opening_hours":"Mo-Sa 07:00-19:00; PH Su off","operator":"Loop","recycling:clothes":"yes","recycling:shoes":"yes","recycling_type":"container"}},"type":"Feature"},
	{"geometry":{"coordinates":[7.049973,51.4978],"type":"Point"},"properties":{"osm_id":"4758174198","tag":{"amenity":"recycling","operator":"L.G.R.","recycling:clothes":"yes","recycling:shoes":"yes","recycling_type":"container"}},"type":"Feature"},
	{"geometry":{"coordinates":[7.048079,51.497149],"type":"Point"},"properties":{"osm_id":"4758174199","tag":{"amenity":"recycling","location":"overground","opening_hours":"Mo-Sa 07:00-19:00; PH Su off","operator":"Rhenus Logistics","recycling:glass_bottles":"yes","recycling_type":"container"}},"type":"Feature"},
	{"geometry":{"coordinates":[7.044669,51.498589],"type":"Point"},"properties":{"osm_id":"4758174200","tag":{"amenity":"recycling","opening_hours":"Mo-Sa 07:00-19:00; PH Su off","operator":"Entsorgungsbetriebe Essen","recycling:cardboard":"yes","recycling:paper":"yes","recycling_type":"container"}},"type":"Feature"},
	{"geometry":{"coordinates":[7.046357,51.500059],"type":"Point"},"properties":{"osm_id":"4758174201","tag":{"amenity":"recycling","opening_hours":"Mo-Sa 07:00-19:00; PH Su off","operator":"Entsorgungsbetriebe Essen","recycling:cardboard":"yes","recycling:paper":"yes","recycling_type":"container"}},"type":"Feature"},
	{"geometry":{"coordinates":[7.046257,51.500107],"type":"Point"},"properties":{"osm_id":"4758174202","tag":{"amenity":"recycling","opening_hours":"Mo-Sa 07:00-19:00; PH Su off","operator":"Loop","recycling:clothes":"yes","recycling:shoes":"yes","recycling_type":"container"}},"type":"Feature"},
	{"geometry":{"coordinates":[7.047627,51.502317],"type":"Point"},"properties":{"osm_id":"4758174203","tag":{"amenity":"recycling","opening_hours":"Mo-Sa 07:00-19:00; PH Su off","operator":"Entsorgungsbetriebe Essen","recycling:cardboard":"yes","recycling:paper":"yes","recycling_type":"container"}},"type":"Feature"},
	{"geometry":{"coordinates":[7.047569,51.502329],"type":"Point"},"properties":{"osm_id":"4758174204","tag":{"amenity":"recycling","opening_hours":"Mo-Sa 07:00-19:00; PH Su off","operator":"Loop","recycling:clothes":"yes","recycling:shoes":"yes","recycling_type":"container"}},"type":"Feature"},
	{"geometry":{"coordinates":[7.04752,51.502338],"type":"Point"},"properties":{"osm_id":"4758174205","tag":{"amenity":"recycling","opening_hours":"Mo-Sa 07:00-19:00; PH Su off","operator":"Rhenus Logistics","recycling:glass_bottles":"yes","recycling_type":"container"}},"type":"Feature"},
	{"geometry":{"coordinates":[7.041479,51.499813],"type":"Point"},"properties":{"osm_id":"4758174206","tag":{"amenity":"recycling","opening_hours":"Mo-Sa 07:00-19:00; PH Su off","operator":"Entsorgungsbetriebe Essen","recycling:cardboard":"yes","recycling:paper":"yes","recycling_type":"container"}},"type":"Feature"},
	{"geometry":{"coordinates":[7.0414,51.499765],"type":"Point"},"properties":{"osm_id":"4758174207","tag":{"amenity":"recycling","opening_hours":"Mo-Sa 07:00-19:00; PH Su off","operator":"Loop","recycling:clothes":"yes","recycling:shoes":"yes","recycling_type":"container"}},"type":"Feature"},
	{"geometry":{"coordinates":[7.037472,51.498024],"type":"Point"},"properties":{"osm_id":"4758174208","tag":{"amenity":"recycling","opening_hours":"Mo-Sa 07:00-19:00; PH Su off","operator":"Entsorgungsbetriebe Essen","recycling:cardboard":"yes","recycling:paper":"yes","recycling_type":"container"}},"type":"Feature"},
	{"geometry":{"coordinates":[7.037467,51.498052],"type":"Point"},"properties":{"osm_id":"4758174209","tag":{"amenity":"recycling","opening_hours":"Mo-Sa 07:00-19:00; PH Su off","operator":"Loop","recycling:clothes":"yes","recycling:shoes":"yes","recycling_type":"container"}},"type":"Feature"},
	{"geometry":{"coordinates":[7.036048,51.501135],"type":"Point"},"properties":{"osm_id":"4758174214","tag":{"amenity":"recycling","opening_hours":"Mo-Sa 07:00-19:00; PH Su off","operator":"Loop","recycling:clothes":"yes","recycling:shoes":"yes","recycling_type":"container"}},"type":"Feature"},
	{"geometry":{"coordinates":[7.03603,51.501162],"type":"Point"},"properties":{"osm_id":"4758174215","tag":{"amenity":"recycling","opening_hours":"Mo-Sa 07:00-19:00; PH Su off","operator":"Rhenus Logistics","recycling:glass_bottles":"yes","recycling_type":"container"}},"type":"Feature"},
	{"geometry":{"coordinates":[7.038701,51.501571],"type":"Point"},"properties":{"osm_id":"4758174216","tag":{"amenity":"recycling","opening_hours":"Mo-Sa 07:00-19:00; PH Su off","operator":"Loop","recycling:clothes":"yes","recycling:shoes":"yes","recycling_type":"container"}},"type":"Feature"},
	{"geometry":{"coordinates":[7.036428,51.502826],"type":"Point"},"properties":{"osm_id":"4758174218","tag":{"amenity":"recycling","recycling:clothes":"yes","recycling:shoes":"yes","recycling_type":"container"}},"type":"Feature"},
	{"geometry":{"coordinates":[7.037416,51.502882],"type":"Point"},"properties":{"osm_id":"4758174219","tag":{"amenity":"recycling","opening_hours":"Mo-Sa 07:00-19:00; PH Su off","operator":"Loop","recycling:clothes":"yes","recycling:shoes":"yes","recycling_type":"container"}},"type":"Feature"},
	{"geometry":{"coordinates":[7.037411,51.502906],"type":"Point"},"properties":{"osm_id":"4758174220","tag":{"amenity":"recycling","opening_hours":"Mo-Sa 07:00-19:00; PH Su off","operator":"Rhenus Logistics","recycling:glass_bottles":"yes","recycling_type":"container"}},"type":"Feature"},
	{"geometry":{"coordinates":[7.043268,51.502829],"type":"Point"},"properties":{"osm_id":"4758174421","tag":{"amenity":"recycling","opening_hours":"Mo-Sa 07:00-19:00; PH Su off","operator":"Entsorgungsbetriebe Essen","recycling:cardboard":"yes","recycling:paper":"yes","recycling_type":"container"}},"type":"Feature"},
	{"geometry":{"coordinates":[7.043408,51.502879],"type":"Point"},"properties":{"osm_id":"4758174422","tag":{"amenity":"recycling","opening_hours":"Mo-Sa 07:00-19:00; PH Su off","operator":"Loop","recycling:clothes":"yes","recycling:shoes":"yes","recycling_type":"container"}},"type":"Feature"},
	{"geometry":{"coordinates":[7.046792,51.5035],"type":"Point"},"properties":{"osm_id":"4758174423","tag":{"amenity":"recycling","opening_hours":"Mo-Sa 07:00-19:00; PH Su off","operator":"Entsorgungsbetriebe Essen","recycling:cardboard":"yes","recycling:paper":"yes","recycling_type":"container"}},"type":"Feature"},
	{"geometry":{"coordinates":[7.049098,51.50536],"type":"Point"},"properties":{"osm_id":"4758174424","tag":{"amenity":"recycling","opening_hours":"Mo-Sa 07:00-19:00; PH Su off","operator":"Rhenus Logistics","recycling:glass_bottles":"yes","recycling_type":"container"}},"type":"Feature"},
	{"geometry":{"coordinates":[7.051176,51.501024],"type":"Point"},"properties":{"osm_id":"4758174425","tag":{"amenity":"recycling","opening_hours":"Mo-Sa 07:00-19:00; PH Su off","operator":"Rhenus Logistics","recycling:glass_bottles":"yes","recycling_type":"container"}},"type":"Feature"},
	{"geometry":{"coordinates":[7.051224,51.501026],"type":"Point"},"properties":{"osm_id":"4758174426","tag":{"amenity":"recycling","opening_hours":"Mo-Sa 07:00-19:00; PH Su off","operator":"Entsorgungsbetriebe Essen","recycling:cardboard":"yes","recycling:paper":"yes","recycling_type":"container"}},"type":"Feature"},
	{"geometry":{"coordinates":[7.05233,51.499205],"type":"Point"},"properties":{"osm_id":"4758174427","tag":{"amenity":"recycling","opening_hours":"Mo-Sa 07:00-19:00; PH Su off","operator":"Loop","recycling:clothes":"yes","recycling:shoes":"yes","recycling_type":"container"}},"type":"Feature"},
	{"geometry":{"coordinates":[7.052361,51.499204],"type":"Point"},"properties":{"osm_id":"4758174428","tag":{"amenity":"recycling","opening_hours":"Mo-Sa 07:00-19:00; PH Su off","operator":"Entsorgungsbetriebe Essen","recycling:cardboard":"yes","recycling:paper":"yes","recycling_type":"container"}},"type":"Feature"},
	{"geometry":{"coordinates":[7.052561,51.495508],"type":"Point"},"properties":{"osm_id":"4758174429","tag":{"amenity":"recycling","opening_hours":"Mo-Sa 07:00-19:00; PH Su off","operator":"Loop","recycling:clothes":"yes","recycling:shoes":"yes","recycling_type":"container"}},"type":"Feature"},
	{"geometry":{"coordinates":[7.052603,51.495514],"type":"Point"},"properties":{"osm_id":"4758174430","tag":{"amenity":"recycling","opening_hours":"Mo-Sa 07:00-19:00; PH Su off","operator":"Entsorgungsbetriebe Essen","recycling:cardboard":"yes","recycling:paper":"yes","recycling_type":"container"}},"type":"Feature"},
	{"geometry":{"coordinates":[7.058009,51.490928],"type":"Point"},"properties":{"osm_id":"4758174431","tag":{"amenity":"recycling","description":"auf der Br\u00c3\u00bccke","layer":"1","opening_hours":"Mo-Sa 07:00-19:00; PH Su off","operator":"Loop","recycling:clothes":"yes","recycling:shoes":"yes","recycling_type":"container"}},"type":"Feature"},
	{"geometry":{"coordinates":[7.057931,51.49094],"type":"Point"},"properties":{"osm_id":"4758174432","tag":{"amenity":"recycling","description":"auf der Br\u00c3\u00bccke","layer":"1","opening_hours":"Mo-Sa 07:00-19:00; PH Su off","operator":"Entsorgungsbetriebe Essen","recycling:cardboard":"yes","recycling:paper":"yes","recycling_type":"container"}},"type":"Feature"},
	{"geometry":{"coordinates":[7.065551,51.490977],"type":"Point"},"properties":{"osm_id":"4758174442","tag":{"amenity":"recycling","opening_hours":"Mo-Sa 07:00-19:00; PH Su off","operator":"Loop","recycling:clothes":"yes","recycling:shoes":"yes","recycling_type":"container"}},"type":"Feature"},
	{"geometry":{"coordinates":[7.065525,51.491003],"type":"Point"},"properties":{"osm_id":"4758174443","tag":{"amenity":"recycling","opening_hours":"Mo-Sa 07:00-19:00; PH Su off","operator":"Entsorgungsbetriebe Essen","recycling:cardboard":"yes","recycling:paper":"yes","recycling_type":"container"}},"type":"Feature"},
	{"geometry":{"coordinates":[7.06564,51.491071],"type":"Point"},"properties":{"osm_id":"4758174444","tag":{"amenity":"recycling","opening_hours":"Mo-Sa 07:00-19:00; PH Su off","operator":"Rhenus Logistics","recycling:glass_bottles":"yes","recycling_type":"container"}},"type":"Feature"},
	{"geometry":{"coordinates":[7.093779,51.468507],"type":"Point"},"properties":{"osm_id":"4769750076","tag":{"amenity":"recycling","opening_hours":"Mo-Sa 07:00-19:00; PH Su off","operator":"Loop","recycling:clothes":"yes","recycling:shoes":"yes","recycling_type":"container"}},"type":"Feature"},
	{"geometry":{"coordinates":[7.098332,51.469634],"type":"Point"},"properties":{"osm_id":"4769750077","tag":{"amenity":"recycling","opening_hours":"Mo-Sa 07:00-19:00; PH Su off","operator":"Loop","recycling:clothes":"yes","recycling:shoes":"yes","recycling_type":"container"}},"type":"Feature"},
	{"geometry":{"coordinates":[7.098308,51.469641],"type":"Point"},"properties":{"osm_id":"4769750078","tag":{"amenity":"recycling","opening_hours":"Mo-Sa 07:00-19:00; PH Su off","operator":"Entsorgungsbetriebe Essen","recycling:cardboard":"yes","recycling:paper":"yes","recycling_type":"container"}},"type":"Feature"},
	{"geometry":{"coordinates":[7.09338,51.472559],"type":"Point"},"properties":{"osm_id":"4769750082","tag":{"amenity":"recycling","opening_hours":"Mo-Sa 07:00-19:00; PH Su off","operator":"Loop","recycling:clothes":"yes","recycling:shoes":"yes","recycling_type":"container"}},"type":"Feature"},
	{"geometry":{"coordinates":[7.093438,51.472543],"type":"Point"},"properties":{"osm_id":"4769750083","tag":{"amenity":"recycling","opening_hours":"Mo-Sa 07:00-19:00; PH Su off","operator":"Rhenus Logistics","recycling:glass_bottles":"yes","recycling_type":"container"}},"type":"Feature"},
	{"geometry":{"coordinates":[7.100779,51.465508],"type":"Point"},"properties":{"osm_id":"4769750084","tag":{"amenity":"recycling","opening_hours":"Mo-Sa 07:00-19:00; PH Su off","operator":"Entsorgungsbetriebe Essen","recycling:cardboard":"yes","recycling:paper":"yes","recycling_type":"container"}},"type":"Feature"},
	{"geometry":{"coordinates":[7.099814,51.464203],"type":"Point"},"properties":{"osm_id":"4769750085","tag":{"amenity":"recycling","opening_hours":"Mo-Sa 07:00-19:00; PH Su off","operator":"Loop","recycling:clothes":"yes","recycling:shoes":"yes","recycling_type":"container"}},"type":"Feature"},
	{"geometry":{"coordinates":[7.087951,51.457453],"type":"Point"},"properties":{"osm_id":"4769750086","tag":{"amenity":"recycling","opening_hours":"Mo-Sa 07:00-19:00; PH Su off","operator":"Loop","recycling:clothes":"yes","recycling:shoes":"yes","recycling_type":"container"}},"type":"Feature"},
	{"geometry":{"coordinates":[7.087988,51.457454],"type":"Point"},"properties":{"osm_id":"4769750087","tag":{"amenity":"recycling","opening_hours":"Mo-Sa 07:00-19:00; PH Su off","operator":"Entsorgungsbetriebe Essen","recycling:cardboard":"yes","recycling:paper":"yes","recycling_type":"container"}},"type":"Feature"},
	{"geometry":{"coordinates":[7.086946,51.455904],"type":"Point"},"properties":{"osm_id":"4769750088","tag":{"amenity":"recycling","opening_hours":"Mo-Sa 07:00-19:00; PH Su off","operator":"Entsorgungsbetriebe Essen","recycling:cardboard":"yes","recycling:paper":"yes","recycling_type":"container"}},"type":"Feature"},
	{"geometry":{"coordinates":[7.087047,51.455952],"type":"Point"},"properties":{"osm_id":"4769750089","tag":{"amenity":"recycling","opening_hours":"Mo-Sa 07:00-19:00; PH Su off","operator":"Loop","recycling:clothes":"yes","recycling:shoes":"yes","recycling_type":"container"}},"type":"Feature"},
	{"geometry":{"coordinates":[7.085188,51.456841],"type":"Point"},"properties":{"osm_id":"4769750090","tag":{"amenity":"recycling","opening_hours":"Mo-Sa 07:00-19:00; PH Su off","operator":"Entsorgungsbetriebe Essen","recycling:cardboard":"yes","recycling:paper":"yes","recycling_type":"container"}},"type":"Feature"},
	{"geometry":{"coordinates":[7.085186,51.456815],"type":"Point"},"properties":{"osm_id":"4769750091","tag":{"amenity":"recycling","opening_hours":"Mo-Sa 07:00-19:00; PH Su off","operator":"Loop","recycling:clothes":"yes","recycling:shoes":"yes","recycling_type":"container"}},"type":"Feature"},
	{"geometry":{"coordinates":[7.041403,51.485691],"type":"Point"},"properties":{"osm_id":"5135831226","tag":{"amenity":"waste_basket"}},"type":"Feature"},
	{"geometry":{"coordinates":[7.074739,51.458468],"type":"Point"},"properties":{"osm_id":"5343119050","tag":{"amenity":"waste_basket"}},"type":"Feature"},
	{"geometry":{"coordinates":[7.075323,51.457959],"type":"Point"},"properties":{"osm_id":"5373227939","tag":{"amenity":"waste_basket","waste":"trash"}},"type":"Feature"},
	{"geometry":{"coordinates":[7.094709,51.508739],"type":"Point"},"properties":{"osm_id":"5497671889","tag":{"amenity":"waste_basket"}},"type":"Feature"},
	{"geometry":{"coordinates":[7.094781,51.508721],"type":"Point"},"properties":{"osm_id":"5497671899","tag":{"amenity":"waste_basket"}},"type":"Feature"},
	{"geometry":{"coordinates":[7.073091,51.507004],"type":"Point"},"properties":{"osm_id":"5553036318","tag":{"amenity":"recycling","operator":"Gelsendienste","recycling:clothes":"yes","recycling:shoes":"yes","recycling_type":"container"}},"type":"Feature"},
	{"geometry":{"coordinates":[7.073124,51.506977],"type":"Point"},"properties":{"osm_id":"5553036319","tag":{"amenity":"recycling","operator":"Rhenus Logistics","recycling:glass_bottles":"yes","recycling_type":"container"}},"type":"Feature"},
	{"geometry":{"coordinates":[7.106941,51.508498],"type":"Point"},"properties":{"osm_id":"5633543205","tag":{"amenity":"waste_basket"}},"type":"Feature"},
	{"geometry":{"coordinates":[7.105325,51.508293],"type":"Point"},"properties":{"osm_id":"5633543428","tag":{"amenity":"waste_basket"}},"type":"Feature"},
	{"geometry":{"coordinates":[7.073458,51.461177],"type":"Point"},"properties":{"osm_id":"5813914563","tag":{"amenity":"waste_basket","waste":"trash"}},"type":"Feature"},
	{"geometry":{"coordinates":[7.113257,51.497872],"type":"Point"},"properties":{"osm_id":"5911190489","tag":{"amenity":"recycling","recycling:clothes":"no","recycling:glass_bottles":"yes","recycling_type":"container"}},"type":"Feature"},
	{"geometry":{"coordinates":[7.047667,51.463687],"type":"Point"},"properties":{"osm_id":"6208675526","tag":{"amenity":"recycling","operator":"Kolping","recycling:clothes":"yes","recycling_type":"container"}},"type":"Feature"},
	{"geometry":{"coordinates":[7.074072,51.50517],"type":"Point"},"properties":{"osm_id":"6417125347","tag":{"amenity":"waste_basket"}},"type":"Feature"},
	{"geometry":{"coordinates":[7.049151,51.488537],"type":"Point"},"properties":{"osm_id":"6562594834","tag":{"amenity":"waste_basket","waste":"trash"}},"type":"Feature"},
	{"geometry":{"coordinates":[7.088864,51.486037],"type":"Point"},"properties":{"osm_id":"6639261860","tag":{"amenity":"waste_basket","material":"metal"}},"type":"Feature"},
	{"geometry":{"coordinates":[7.101342,51.49377],"type":"Point"},"properties":{"osm_id":"6737694396","tag":{"amenity":"waste_basket","material":"metal"}},"type":"Feature"},
	{"geometry":{"coordinates":[7.102317,51.496204],"type":"Point"},"properties":{"osm_id":"6737694398","tag":{"amenity":"waste_basket","material":"metal"}},"type":"Feature"},
	{"geometry":{"coordinates":[7.103578,51.486453],"type":"Point"},"properties":{"osm_id":"6737694409","tag":{"amenity":"recycling","recycling:clothes":"yes","recycling:shoes":"yes","recycling_type":"container"}},"type":"Feature"},
	{"geometry":{"coordinates":[7.104179,51.487667],"type":"Point"},"properties":{"osm_id":"6737694410","tag":{"amenity":"recycling","recycling:glass_bottles":"yes","recycling_type":"container"}},"type":"Feature"},
	{"geometry":{"coordinates":[7.100892,51.483762],"type":"Point"},"properties":{"osm_id":"6737694412","tag":{"amenity":"waste_basket","material":"metal"}},"type":"Feature"},
	{"geometry":{"coordinates":[7.102561,51.505787],"type":"Point"},"properties":{"osm_id":"7369217259","tag":{"amenity":"waste_basket","waste":"trash"}},"type":"Feature"},
	{"geometry":{"coordinates":[7.114741,51.507988],"type":"Point"},"properties":{"osm_id":"7703870287","tag":{"amenity":"waste_basket","material":"metal"}},"type":"Feature"},
	{"geometry":{"coordinates":[7.083075,51.478698],"type":"Point"},"properties":{"osm_id":"7742012800","tag":{"amenity":"waste_basket"}},"type":"Feature"},
	{"geometry":{"coordinates":[7.117158,51.501348],"type":"Point"},"properties":{"osm_id":"8147029792","tag":{"amenity":"waste_basket"}},"type":"Feature"},
	{"geometry":{"coordinates":[7.115848,51.501127],"type":"Point"},"properties":{"osm_id":"8147029796","tag":{"amenity":"waste_basket"}},"type":"Feature"},
	{"geometry":{"coordinates":[7.116682,51.503614],"type":"Point"},"properties":{"osm_id":"8147243342","tag":{"amenity":"waste_basket"}},"type":"Feature"},
	{"geometry":{"coordinates":[7.117639,51.502203],"type":"Point"},"properties":{"osm_id":"8147243343","tag":{"amenity":"waste_basket"}},"type":"Feature"},
	{"geometry":{"coordinates":[7.117972,51.502051],"type":"Point"},"properties":{"osm_id":"8147243344","tag":{"amenity":"waste_basket"}},"type":"Feature"},
	{"geometry":{"coordinates":[7.118584,51.501465],"type":"Point"},"properties":{"osm_id":"8147249525","tag":{"amenity":"waste_basket"}},"type":"Feature"},
	{"geometry":{"coordinates":[7.115985,51.504381],"type":"Point"},"properties":{"osm_id":"8147262852","tag":{"amenity":"waste_basket"}},"type":"Feature"},
	{"geometry":{"coordinates":[7.114358,51.50571],"type":"Point"},"properties":{"osm_id":"8147266434","tag":{"amenity":"recycling","recycling:paper":"yes","recycling_type":"container"}},"type":"Feature"},
	{"geometry":{"coordinates":[7.114417,51.505684],"type":"Point"},"properties":{"osm_id":"8147266435","tag":{"amenity":"recycling","recycling:glass_bottles":"yes","recycling_type":"container"}},"type":"Feature"},
	{"geometry":{"coordinates":[7.108278,51.487523],"type":"Point"},"properties":{"osm_id":"8558436521","tag":{"amenity":"waste_basket","colour":"blue","material":"plastic"}},"type":"Feature"},
	{"geometry":{"coordinates":[7.108223,51.498921],"type":"Point"},"properties":{"osm_id":"8566224606","tag":{"amenity":"waste_basket","material":"metal"}},"type":"Feature"},
	{"geometry":{"coordinates":[7.108648,51.496739],"type":"Point"},"properties":{"osm_id":"8566224608","tag":{"amenity":"waste_basket","colour":"blue","material":"plastic"}},"type":"Feature"},
	{"geometry":{"coordinates":[7.109111,51.496571],"type":"Point"},"properties":{"osm_id":"8566224612","tag":{"amenity":"waste_basket","colour":"blue","material":"plastic"}},"type":"Feature"},
	{"geometry":{"coordinates":[7.107032,51.497452],"type":"Point"},"properties":{"osm_id":"8566225132","tag":{"amenity":"waste_basket"}},"type":"Feature"},
	{"geometry":{"coordinates":[7.106338,51.497378],"type":"Point"},"properties":{"osm_id":"8566225154","tag":{"amenity":"waste_basket"}},"type":"Feature"},
	{"geometry":{"coordinates":[7.105841,51.497614],"type":"Point"},"properties":{"osm_id":"8566225155","tag":{"amenity":"waste_basket"}},"type":"Feature"},
	{"geometry":{"coordinates":[7.107197,51.5003],"type":"Point"},"properties":{"osm_id":"8566225176","tag":{"amenity":"waste_basket"}},"type":"Feature"},
	{"geometry":{"coordinates":[7.105634,51.497683],"type":"Point"},"properties":{"osm_id":"8566225185","tag":{"amenity":"waste_basket","colour":"blue","material":"plastic"}},"type":"Feature"},
	{"geometry":{"coordinates":[7.107081,51.496711],"type":"Point"},"properties":{"osm_id":"8566225186","tag":{"amenity":"waste_basket","colour":"blue","material":"plastic"}},"type":"Feature"},
	{"geometry":{"coordinates":[7.108039,51.49512],"type":"Point"},"properties":{"osm_id":"8566225195","tag":{"amenity":"waste_basket"}},"type":"Feature"},
	{"geometry":{"coordinates":[7.108336,51.49341],"type":"Point"},"properties":{"osm_id":"8566225197","tag":{"amenity":"waste_basket"}},"type":"Feature"},
	{"geometry":{"coordinates":[7.110396,51.491043],"type":"Point"},"properties":{"osm_id":"8566225199","tag":{"amenity":"waste_basket"}},"type":"Feature"},
	{"geometry":{"coordinates":[7.10904,51.50548],"type":"Point"},"properties":{"osm_id":"8610404668","tag":{"amenity":"recycling","recycling:glass_bottles":"yes","recycling_type":"container"}},"type":"Feature"},
	{"geometry":{"coordinates":[7.03141,51.473859],"type":"Point"},"properties":{"osm_id":"8660555923","tag":{"amenity":"waste_basket","check_date":"2021-04-23","operator":"Stadt Essen"}},"type":"Feature"},
	{"geometry":{"coordinates":[7.032843,51.477953],"type":"Point"},"properties":{"osm_id":"8731423562","tag":{"amenity":"waste_basket","waste":"trash"}},"type":"Feature"},
	{"geometry":{"coordinates":[7.081109,51.45984],"type":"Point"},"properties":{"osm_id":"8809278328","tag":{"amenity":"waste_basket","waste":"trash"}},"type":"Feature"},
	{"geometry":{"coordinates":[7.07428,51.493399],"type":"Point"},"properties":{"osm_id":"8873209047","tag":{"amenity":"waste_basket"}},"type":"Feature"},
	{"geometry":{"coordinates":[7.073001,51.495218],"type":"Point"},"properties":{"osm_id":"8873209051","tag":{"amenity":"waste_basket"}},"type":"Feature"},
	{"geometry":{"coordinates":[7.071875,51.495831],"type":"Point"},"properties":{"osm_id":"8873209070","tag":{"amenity":"waste_basket"}},"type":"Feature"},
	{"geometry":{"coordinates":[7.071092,51.496375],"type":"Point"},"properties":{"osm_id":"8873209073","tag":{"amenity":"waste_basket"}},"type":"Feature"},
	{"geometry":{"coordinates":[7.071162,51.497485],"type":"Point"},"properties":{"osm_id":"8873209074","tag":{"amenity":"waste_basket"}},"type":"Feature"},
	{"geometry":{"coordinates":[7.074081,51.495769],"type":"Point"},"properties":{"osm_id":"8873209076","tag":{"amenity":"waste_basket"}},"type":"Feature"},
	{"geometry":{"coordinates":[7.073286,51.497357],"type":"Point"},"properties":{"osm_id":"8873226359","tag":{"amenity":"waste_basket"}},"type":"Feature"},
	{"geometry":{"coordinates":[7.086398,51.503525],"type":"Point"},"properties":{"osm_id":"8881373331","tag":{"amenity":"waste_basket","material":"metal"}},"type":"Feature"},
	{"geometry":{"coordinates":[7.085355,51.503686],"type":"Point"},"properties":{"osm_id":"8881373334","tag":{"amenity":"waste_basket","material":"metal"}},"type":"Feature"},
	{"geometry":{"coordinates":[7.085119,51.503722],"type":"Point"},"properties":{"osm_id":"8881373335","tag":{"amenity":"waste_basket","material":"metal"}},"type":"Feature"},
	{"geometry":{"coordinates":[7.085698,51.504598],"type":"Point"},"properties":{"osm_id":"8881373336","tag":{"amenity":"waste_basket","material":"metal"}},"type":"Feature"},
	{"geometry":{"coordinates":[7.08597,51.505353],"type":"Point"},"properties":{"osm_id":"8881373337","tag":{"amenity":"waste_basket","material":"metal"}},"type":"Feature"},
	{"geometry":{"coordinates":[7.083273,51.503648],"type":"Point"},"properties":{"osm_id":"8881373348","tag":{"amenity":"waste_basket","material":"metal"}},"type":"Feature"},
	{"geometry":{"coordinates":[7.084091,51.503858],"type":"Point"},"properties":{"osm_id":"8881373350","tag":{"amenity":"waste_basket","material":"metal"}},"type":"Feature"},
	{"geometry":{"coordinates":[7.083156,51.504225],"type":"Point"},"properties":{"osm_id":"8881373353","tag":{"amenity":"waste_basket","material":"metal"}},"type":"Feature"},
	{"geometry":{"coordinates":[7.075765,51.496243],"type":"Point"},"properties":{"osm_id":"8881373356","tag":{"amenity":"waste_basket","material":"metal"}},"type":"Feature"},
	{"geometry":{"coordinates":[7.075259,51.497365],"type":"Point"},"properties":{"osm_id":"8881373361","tag":{"amenity":"waste_basket","material":"metal"}},"type":"Feature"},
	{"geometry":{"coordinates":[7.074496,51.496607],"type":"Point"},"properties":{"osm_id":"8881373363","tag":{"amenity":"waste_basket","material":"metal"}},"type":"Feature"},
	{"geometry":{"coordinates":[7.040938,51.454907],"type":"Point"},"properties":{"osm_id":"8898543923","tag":{"amenity":"waste_basket","survey:date":"2021-07-06"}},"type":"Feature"},
	{"geometry":{"coordinates":[7.037702,51.454419],"type":"Point"},"properties":{"osm_id":"8898551018","tag":{"amenity":"waste_basket","survey:date":"2021-07-06"}},"type":"Feature"},
	{"geometry":{"coordinates":[7.040863,51.455294],"type":"Point"},"properties":{"osm_id":"8898551021","tag":{"amenity":"waste_basket","survey:date":"2021-07-06"}},"type":"Feature"},
	{"geometry":{"coordinates":[7.04089,51.455162],"type":"Point"},"properties":{"osm_id":"8898561623","tag":{"amenity":"waste_basket","survey:date":"2021-07-06"}},"type":"Feature"},
	{"geometry":{"coordinates":[7.044768,51.458807],"type":"Point"},"properties":{"osm_id":"8898561625","tag":{"amenity":"waste_basket","survey:date":"2021-07-06"}},"type":"Feature"},
	{"geometry":{"coordinates":[7.037795,51.454619],"type":"Point"},"properties":{"osm_id":"8898561719","tag":{"amenity":"waste_basket","survey:date":"2021-07-06"}},"type":"Feature"},
	{"geometry":{"coordinates":[7.038035,51.454512],"type":"Point"},"properties":{"osm_id":"8898563017","tag":{"amenity":"waste_basket","survey:date":"2021-07-06"}},"type":"Feature"},
	{"geometry":{"coordinates":[7.037879,51.454576],"type":"Point"},"properties":{"osm_id":"8898563117","tag":{"amenity":"waste_basket","survey:date":"2021-07-06"}},"type":"Feature"},
	{"geometry":{"coordinates":[7.040791,51.454892],"type":"Point"},"properties":{"osm_id":"8898563717","tag":{"amenity":"waste_basket","survey:date":"2021-07-06"}},"type":"Feature"},
	{"geometry":{"coordinates":[7.041597,51.455225],"type":"Point"},"properties":{"osm_id":"8898564917","tag":{"amenity":"waste_basket","survey:date":"2021-07-06"}},"type":"Feature"},
	{"geometry":{"coordinates":[7.049346,51.456009],"type":"Point"},"properties":{"osm_id":"8910078718","tag":{"amenity":"waste_basket","survey:date":"2021-07-10"}},"type":"Feature"},
	{"geometry":{"coordinates":[7.052903,51.454721],"type":"Point"},"properties":{"osm_id":"8910078721","tag":{"amenity":"waste_basket","survey:date":"2021-07-10"}},"type":"Feature"},
	{"geometry":{"coordinates":[7.054581,51.457006],"type":"Point"},"properties":{"osm_id":"8910078723","tag":{"amenity":"waste_basket","survey:date":"2021-07-10"}},"type":"Feature"},
	{"geometry":{"coordinates":[7.049789,51.455915],"type":"Point"},"properties":{"osm_id":"8910078822","tag":{"amenity":"waste_basket","survey:date":"2021-07-10"}},"type":"Feature"},
	{"geometry":{"coordinates":[7.049547,51.456003],"type":"Point"},"properties":{"osm_id":"8910079118","tag":{"amenity":"waste_basket","survey:date":"2021-07-10"}},"type":"Feature"},
	{"geometry":{"coordinates":[7.066008,51.496783],"type":"Point"},"properties":{"osm_id":"8929411943","tag":{"amenity":"waste_basket","material":"metal"}},"type":"Feature"},
	{"geometry":{"coordinates":[7.06813,51.497797],"type":"Point"},"properties":{"osm_id":"8929411951","tag":{"amenity":"waste_basket","material":"metal"}},"type":"Feature"},
	{"geometry":{"coordinates":[7.08219,51.504353],"type":"Point"},"properties":{"osm_id":"8929411953","tag":{"amenity":"waste_basket"}},"type":"Feature"},
	{"geometry":{"coordinates":[7.106473,51.506264],"type":"Point"},"properties":{"osm_id":"9040179756","tag":{"amenity":"waste_basket"}},"type":"Feature"},
	{"geometry":{"coordinates":[7.056305,51.457387],"type":"Point"},"properties":{"osm_id":"9124396824","tag":{"amenity":"waste_basket","survey:date":"2021-09-07"}},"type":"Feature"},
	{"geometry":{"coordinates":[7.052861,51.457575],"type":"Point"},"properties":{"osm_id":"9174864821","tag":{"amenity":"waste_basket","survey:date":"2021-10-15"}},"type":"Feature"},
	{"geometry":{"coordinates":[7.052531,51.457786],"type":"Point"},"properties":{"osm_id":"9174864823","tag":{"amenity":"waste_basket","survey:date":"2021-10-15"}},"type":"Feature"},
	{"geometry":{"coordinates":[7.052023,51.457787],"type":"Point"},"properties":{"osm_id":"9174928017","tag":{"amenity":"waste_basket","survey:date":"2021-10-15"}},"type":"Feature"},
	{"geometry":{"coordinates":[7.051902,51.457626],"type":"Point"},"properties":{"osm_id":"9174928317","tag":{"amenity":"waste_basket","survey:date":"2021-10-15"}},"type":"Feature"},
	{"geometry":{"coordinates":[7.052069,51.4575],"type":"Point"},"properties":{"osm_id":"9174928318","tag":{"amenity":"waste_basket","survey:date":"2021-10-15"}},"type":"Feature"},
	{"geometry":{"coordinates":[7.033711,51.455296],"type":"Point"},"properties":{"osm_id":"9187907617","tag":{"amenity":"waste_basket","survey:date":"2021-10-20"}},"type":"Feature"},
	{"geometry":{"coordinates":[7.033788,51.455103],"type":"Point"},"properties":{"osm_id":"9187907621","tag":{"amenity":"waste_basket","survey:date":"2021-10-20"}},"type":"Feature"},
	{"geometry":{"coordinates":[7.033835,51.45506],"type":"Point"},"properties":{"osm_id":"9187907623","tag":{"amenity":"waste_basket","survey:date":"2021-10-20"}},"type":"Feature"},
	{"geometry":{"coordinates":[7.033894,51.454962],"type":"Point"},"properties":{"osm_id":"9188125222","tag":{"amenity":"waste_basket","survey:date":"2021-10-20"}},"type":"Feature"}
]
}
