{
"type": "FeatureCollection",
"features": [
	{"geometry":{"coordinates":[7.084362,51.392393],"type":"Point"},"properties":{"osm_id":"294806284","tag":{"amenity":"recycling","opening_hours":"Mo-Sa 07:00-19:00; PH Su off","operator":"Entsorgungsbetriebe Essen","recycling:glass_bottles":"yes","recycling_type":"container"}},"type":"Feature"},
	{"geometry":{"coordinates":[7.084254,51.393519],"type":"Point"},"properties":{"osm_id":"295339090","tag":{"amenity":"recycling","opening_hours":"Mo-Sa 07:00-19:00; PH Su off","operator":"Rhenus Logistics","recycling:glass_bottles":"yes","recycling_type":"container"}},"type":"Feature"},
	{"geometry":{"coordinates":[7.086878,51.396145],"type":"Point"},"properties":{"osm_id":"308588051","tag":{"amenity":"recycling","opening_hours":"Mo-Sa 07:00-19:00; PH Su off","operator":"Rhenus Logistics","recycling:glass_bottles":"yes","recycling_type":"container"}},"type":"Feature"},
	{"geometry":{"coordinates":[7.078631,51.393736],"type":"Point"},"properties":{"osm_id":"309175497","tag":{"amenity":"waste_basket","waste":"trash"}},"type":"Feature"},
	{"geometry":{"coordinates":[7.0328,51.358388],"type":"Point"},"properties":{"osm_id":"312143324","tag":{"amenity":"recycling","check_date":"2017-05-25","opening_hours":"Mo-Sa 07:00-20:00; PH off","operator":"Technische Betriebe Velbert A\u00c3\u00b6R","recycling:glass_bottles":"yes","recycling:paper":"yes","recycling_type":"container"}},"type":"Feature"},
	{"geometry":{"coordinates":[7.084009,51.384151],"type":"Point"},"properties":{"osm_id":"321883029","tag":{"amenity":"recycling","opening_hours":"Mo-Sa 07:00-19:00; PH Su off","operator":"Rhenus Logistics","recycling:glass_bottles":"yes","recycling_type":"container"}},"type":"Feature"},
	{"geometry":{"coordinates":[7.093717,51.378916],"type":"Point"},"properties":{"osm_id":"321883919","tag":{"amenity":"recycling","opening_hours":"Mo-Sa 07:00-19:00; PH Su off","operator":"Rhenus Logistics","recycling:glass_bottles":"yes","recycling_type":"container"}},"type":"Feature"},
	{"geometry":{"coordinates":[7.092492,51.39331],"type":"Point"},"properties":{"osm_id":"332702595","tag":{"amenity":"recycling","opening_hours":"Mo-Sa 07:00-19:00; PH Su off","operator":"Rhenus Logistics","recycling:glass_bottles":"yes","recycling_type":"container"}},"type":"Feature"},
	{"geometry":{"coordinates":[7.034442,51.354572],"type":"Point"},"properties":{"osm_id":"357154955","tag":{"amenity":"recycling","check_date":"2017-05-25","opening_hours":"Mo-Sa 07:00-20:00; PH off","operator":"Technische Betriebe Velbert A\u00c3\u00b6R","recycling:clothes":"yes","recycling:glass_bottles":"yes","recycling:paper":"yes","recycling_type":"container"}},"type":"Feature"},
	{"geometry":{"coordinates":[7.067927,51.397206],"type":"Point"},"properties":{"osm_id":"384936291","tag":{"amenity":"recycling","opening_hours":"Mo-Sa 07:00-19:00; PH Su off","operator":"Rhenus Logistics","recycling:glass_bottles":"yes","recycling_type":"container"}},"type":"Feature"},
	{"geometry":{"coordinates":[7.078347,51.392803],"type":"Point"},"properties":{"osm_id":"440859095","tag":{"amenity":"recycling","check_date:recycling":"2020-09-19","opening_hours":"Mo-Sa 07:00-19:00; PH Su off","operator":"Rhenus Logistics","recycling:glass_bottles":"yes","recycling_type":"container"}},"type":"Feature"},
	{"geometry":{"coordinates":[7.081238,51.391029],"type":"Point"},"properties":{"osm_id":"476446450","tag":{"amenity":"waste_basket"}},"type":"Feature"},
	{"geometry":{"coordinates":[7.081886,51.391546],"type":"Point"},"properties":{"osm_id":"476452038","tag":{"amenity":"waste_basket"}},"type":"Feature"},
	{"geometry":{"coordinates":[7.106331,51.393745],"type":"Point"},"properties":{"osm_id":"917152085","tag":{"amenity":"waste_basket"}},"type":"Feature"},
	{"geometry":{"coordinates":[7.082609,51.377172],"type":"Point"},"properties":{"osm_id":"937097120","tag":{"amenity":"waste_basket"}},"type":"Feature"},
	{"geometry":{"coordinates":[7.081627,51.374018],"type":"Point"},"properties":{"osm_id":"937106469","tag":{"amenity":"waste_basket"}},"type":"Feature"},
	{"geometry":{"coordinates":[7.098605,51.391067],"type":"Point"},"properties":{"osm_id":"1065877248","tag":{"amenity":"waste_basket","waste":"trash"}},"type":"Feature"},
	{"geometry":{"coordinates":[7.099217,51.391364],"type":"Point"},"properties":{"osm_id":"1065877271","tag":{"amenity":"waste_basket","waste":"trash"}},"type":"Feature"},
	{"geometry":{"coordinates":[7.038414,51.348407],"type":"Point"},"properties":{"osm_id":"1579590787","tag":{"amenity":"recycling","check_date":"2017-05-25","opening_hours":"Mo-Sa 07:00-20:00; PH off","operator":"Technische Betriebe Velbert A\u00c3\u00b6R","recycling:batteries":"yes","recycling:glass_bottles":"yes","recycling:paper":"yes","recycling_type":"container"}},"type":"Feature"},
	{"geometry":{"coordinates":[7.100626,51.394361],"type":"Point"},"properties":{"osm_id":"1854098414","tag":{"amenity":"recycling","opening_hours":"Mo-Sa 07:00-19:00; PH Su off","operator":"Entsorgungsbetriebe Essen","recycling:cardboard":"yes","recycling:paper":"yes","recycling_type":"container"}},"type":"Feature"},
	{"geometry":{"coordinates":[7.115485,51.350797],"type":"Point"},"properties":{"osm_id":"1911710754","tag":{"amenity":"recycling","check_date":"2017-05-25","opening_hours":"Mo-Sa 07:00-20:00; PH off","operator":"Technische Betriebe Velbert A\u00c3\u00b6R","recycling:clothes":"yes","recycling:glass_bottles":"yes","recycling:paper":"yes","recycling_type":"container"}},"type":"Feature"},
	{"geometry":{"coordinates":[7.114497,51.36729],"type":"Point"},"properties":{"osm_id":"1912744115","tag":{"amenity":"recycling","check_date":"2017-05-25","opening_hours":"Mo-Sa 07:00-20:00; PH off","operator":"Technische Betriebe Velbert A\u00c3\u00b6R","recycling:glass_bottles":"yes","recycling:paper":"yes","recycling_type":"container"}},"type":"Feature"},
	{"geometry":{"coordinates":[7.117453,51.367298],"type":"Point"},"properties":{"osm_id":"1912744116","tag":{"amenity":"recycling","check_date":"2017-05-25","opening_hours":"Mo-Sa 07:00-20:00; PH off","operator":"Technische Betriebe Velbert A\u00c3\u00b6R","recycling:clothes":"yes","recycling_type":"container"}},"type":"Feature"},
	{"geometry":{"coordinates":[7.05476,51.35025],"type":"Point"},"properties":{"osm_id":"1928992369","tag":{"amenity":"recycling","check_date":"2017-05-25","opening_hours":"Mo-Sa 07:00-20:00; PH off","operator":"Technische Betriebe Velbert A\u00c3\u00b6R","recycling:clothes":"yes","recycling:glass_bottles":"yes","recycling:paper":"yes","recycling_type":"container"}},"type":"Feature"},
	{"geometry":{"coordinates":[7.107355,51.34941],"type":"Point"},"properties":{"osm_id":"1929110346","tag":{"amenity":"recycling","check_date":"2017-05-25","opening_hours":"Mo-Sa 07:00-20:00; PH off","operator":"Technische Betriebe Velbert A\u00c3\u00b6R","recycling:clothes":"yes","recycling_type":"container"}},"type":"Feature"},
	{"geometry":{"coordinates":[7.111572,51.349034],"type":"Point"},"properties":{"osm_id":"1929975115","tag":{"amenity":"recycling","check_date":"2019-05-17","opening_hours":"Mo-Sa 07:00-20:00; PH off","operator":"Technische Betriebe Velbert A\u00c3\u00b6R","recycling:clothes":"yes","recycling:glass_bottles":"yes","recycling:paper":"yes","recycling:shoes":"yes","recycling_type":"container"}},"type":"Feature"},
	{"geometry":{"coordinates":[7.066523,51.349225],"type":"Point"},"properties":{"osm_id":"2451238491","tag":{"amenity":"recycling","check_date":"2017-05-25","opening_hours":"Mo-Sa 07:00-20:00; PH off","operator":"Technische Betriebe Velbert A\u00c3\u00b6R","recycling:clothes":"yes","recycling:glass_bottles":"yes","recycling:paper":"yes","recycling_type":"container"}},"type":"Feature"},
	{"geometry":{"coordinates":[7.064413,51.347769],"type":"Point"},"properties":{"osm_id":"2490954938","tag":{"amenity":"recycling","check_date":"2017-05-25","opening_hours":"Mo-Sa 07:00-20:00; PH off","operator":"Technische Betriebe Velbert A\u00c3\u00b6R","recycling:glass_bottles":"yes","recycling:paper":"yes","recycling_type":"container"}},"type":"Feature"},
	{"geometry":{"coordinates":[7.043932,51.346706],"type":"Point"},"properties":{"osm_id":"2668264143","tag":{"amenity":"recycling","check_date":"2017-05-25","opening_hours":"Mo-Sa 07:00-20:00; PH off","operator":"Technische Betriebe Velbert A\u00c3\u00b6R","recycling:cans":"yes","recycling:clothes":"yes","recycling:glass_bottles":"yes","recycling_type":"container"}},"type":"Feature"},
	{"geometry":{"coordinates":[7.106035,51.349525],"type":"Point"},"properties":{"osm_id":"2876144465","tag":{"amenity":"recycling","check_date":"2018-04-18","opening_hours":"Mo-Sa 07:00-20:00; PH off","operator":"Technische Betriebe Velbert A\u00c3\u00b6R","recycling:glass_bottles":"yes","recycling:paper":"yes","recycling_type":"container"}},"type":"Feature"},
	{"geometry":{"coordinates":[7.049436,51.344575],"type":"Point"},"properties":{"osm_id":"3357372464","tag":{"amenity":"waste_basket"}},"type":"Feature"},
	{"geometry":{"coordinates":[7.046638,51.345581],"type":"Point"},"properties":{"osm_id":"3743399738","tag":{"amenity":"waste_basket"}},"type":"Feature"},
	{"geometry":{"coordinates":[7.046279,51.347895],"type":"Point"},"properties":{"osm_id":"3788571826","tag":{"amenity":"recycling","check_date":"2021-06-01","opening_hours":"Mo-Sa 07:00-20:00; PH off","operator":"Technische Betriebe Velbert A\u00c3\u00b6R","recycling:glass_bottles":"yes","recycling:paper":"yes","recycling_type":"container"}},"type":"Feature"},
	{"geometry":{"coordinates":[7.095596,51.396439],"type":"Point"},"properties":{"osm_id":"3830587088","tag":{"amenity":"recycling","opening_hours":"Mo-Sa 07:00-19:00; PH Su off","operator":"Rhenus Logistics","recycling:glass_bottles":"yes","recycling_type":"container"}},"type":"Feature"},
	{"geometry":{"coordinates":[7.118719,51.351161],"type":"Point"},"properties":{"osm_id":"4171971567","tag":{"amenity":"waste_basket"}},"type":"Feature"},
	{"geometry":{"coordinates":[7.118901,51.351239],"type":"Point"},"properties":{"osm_id":"4171971569","tag":{"amenity":"waste_basket"}},"type":"Feature"},
	{"geometry":{"coordinates":[7.083025,51.390584],"type":"Point"},"properties":{"osm_id":"4347747596","tag":{"amenity":"waste_basket","check_date":"2020-12-22"}},"type":"Feature"},
	{"geometry":{"coordinates":[7.113426,51.353146],"type":"Point"},"properties":{"osm_id":"4384317559","tag":{"amenity":"recycling","check_date":"2017-05-25","opening_hours":"Mo-Sa 07:00-20:00; PH off","operator":"Technische Betriebe Velbert A\u00c3\u00b6R","recycling:glass_bottles":"yes","recycling:paper":"yes","recycling_type":"container"}},"type":"Feature"},
	{"geometry":{"coordinates":[7.082216,51.394183],"type":"Point"},"properties":{"osm_id":"4730973131","tag":{"amenity":"recycling","operator":"Brotex","recycling:clothes":"yes","recycling:shoes":"yes","recycling_type":"container"}},"type":"Feature"},
	{"geometry":{"coordinates":[7.081222,51.391043],"type":"Point"},"properties":{"osm_id":"4730973139","tag":{"amenity":"recycling","operator":"Brotex","recycling:clothes":"yes","recycling:shoes":"yes","recycling_type":"container"}},"type":"Feature"},
	{"geometry":{"coordinates":[7.081306,51.390655],"type":"Point"},"properties":{"osm_id":"4730973140","tag":{"amenity":"recycling","operator":"AG Textilverband","recycling:clothes":"yes","recycling:shoes":"yes","recycling_type":"container"}},"type":"Feature"},
	{"geometry":{"coordinates":[7.067976,51.397215],"type":"Point"},"properties":{"osm_id":"4732376019","tag":{"amenity":"recycling","opening_hours":"Mo-Sa 07:00-19:00; PH Su off","operator":"Loop","recycling:clothes":"yes","recycling:shoes":"yes","recycling_type":"container"}},"type":"Feature"},
	{"geometry":{"coordinates":[7.031782,51.386272],"type":"Point"},"properties":{"osm_id":"4732428597","tag":{"amenity":"recycling","opening_hours":"Mo-Sa 07:00-19:00; PH Su off","operator":"Rhenus Logistics","recycling:glass_bottles":"yes","recycling_type":"container"}},"type":"Feature"},
	{"geometry":{"coordinates":[7.078366,51.392788],"type":"Point"},"properties":{"osm_id":"4770002716","tag":{"amenity":"waste_basket"}},"type":"Feature"},
	{"geometry":{"coordinates":[7.084444,51.382969],"type":"Point"},"properties":{"osm_id":"4770006024","tag":{"amenity":"recycling","operator":"EuroTex","recycling:clothes":"yes","recycling:shoes":"yes","recycling_type":"container"}},"type":"Feature"},
	{"geometry":{"coordinates":[7.084841,51.382698],"type":"Point"},"properties":{"osm_id":"4770006025","tag":{"amenity":"recycling","operator":"Aks\u00c3\u00b6z Textilien","recycling:clothes":"yes","recycling:shoes":"yes","recycling_type":"container"}},"type":"Feature"},
	{"geometry":{"coordinates":[7.08699,51.380596],"type":"Point"},"properties":{"osm_id":"4770006026","tag":{"amenity":"recycling","opening_hours":"Mo-Sa 07:00-19:00; PH Su off","operator":"Entsorgungsbetriebe Essen","recycling:cardboard":"yes","recycling:paper":"yes","recycling_type":"container"}},"type":"Feature"},
	{"geometry":{"coordinates":[7.087045,51.380564],"type":"Point"},"properties":{"osm_id":"4770006027","tag":{"amenity":"recycling","opening_hours":"Mo-Sa 07:00-19:00; PH Su off","operator":"Rhenus Logistics","recycling:glass_bottles":"yes","recycling_type":"container"}},"type":"Feature"},
	{"geometry":{"coordinates":[7.087071,51.380536],"type":"Point"},"properties":{"osm_id":"4770006028","tag":{"amenity":"recycling","opening_hours":"Mo-Sa 07:00-19:00; PH Su off","operator":"Loop","recycling:clothes":"yes","recycling:shoes":"yes","recycling_type":"container"}},"type":"Feature"},
	{"geometry":{"coordinates":[7.09357,51.378883],"type":"Point"},"properties":{"osm_id":"4770006029","tag":{"amenity":"recycling","opening_hours":"Mo-Sa 07:00-19:00; PH Su off","operator":"Loop","recycling:clothes":"yes","recycling:shoes":"yes","recycling_type":"container"}},"type":"Feature"},
	{"geometry":{"coordinates":[7.09365,51.378903],"type":"Point"},"properties":{"osm_id":"4770006030","tag":{"amenity":"recycling","opening_hours":"Mo-Sa 07:00-19:00; PH Su off","operator":"Entsorgungsbetriebe Essen","recycling:cardboard":"yes","recycling:paper":"yes","recycling_type":"container"}},"type":"Feature"},
	{"geometry":{"coordinates":[7.090889,51.392849],"type":"Point"},"properties":{"osm_id":"4770006031","tag":{"amenity":"recycling","operator":"Diakoniewerk Essen","recycling:clothes":"yes","recycling_type":"container"}},"type":"Feature"},
	{"geometry":{"coordinates":[7.092612,51.393334],"type":"Point"},"properties":{"osm_id":"4770006032","tag":{"amenity":"recycling","opening_hours":"Mo-Sa 07:00-19:00; PH Su off","operator":"Loop","recycling:clothes":"yes","recycling:shoes":"yes","recycling_type":"container"}},"type":"Feature"},
	{"geometry":{"coordinates":[7.092563,51.393326],"type":"Point"},"properties":{"osm_id":"4770006033","tag":{"amenity":"recycling","opening_hours":"Mo-Sa 07:00-19:00; PH Su off","operator":"Entsorgungsbetriebe Essen","recycling:cardboard":"yes","recycling:paper":"yes","recycling_type":"container"}},"type":"Feature"},
	{"geometry":{"coordinates":[7.09564,51.396451],"type":"Point"},"properties":{"osm_id":"4770006034","tag":{"amenity":"waste_basket"}},"type":"Feature"},
	{"geometry":{"coordinates":[7.09566,51.396452],"type":"Point"},"properties":{"osm_id":"4770006035","tag":{"amenity":"recycling","opening_hours":"Mo-Sa 07:00-19:00; PH Su off","operator":"Loop","recycling:clothes":"yes","recycling:shoes":"yes","recycling_type":"container"}},"type":"Feature"},
	{"geometry":{"coordinates":[7.08694,51.39607],"type":"Point"},"properties":{"osm_id":"4770006036","tag":{"amenity":"recycling","opening_hours":"Mo-Sa 07:00-19:00; PH Su off","operator":"Entsorgungsbetriebe Essen","recycling:cardboard":"yes","recycling:paper":"yes","recycling_type":"container"}},"type":"Feature"},
	{"geometry":{"coordinates":[7.086856,51.39617],"type":"Point"},"properties":{"osm_id":"4770006037","tag":{"amenity":"recycling","opening_hours":"Mo-Sa 07:00-19:00; PH Su off","operator":"Loop","recycling:clothes":"yes","recycling:shoes":"yes","recycling_type":"container"}},"type":"Feature"},
	{"geometry":{"coordinates":[7.093544,51.391785],"type":"Point"},"properties":{"osm_id":"4780498085","tag":{"amenity":"recycling","opening_hours":"Mo-Sa 07:00-19:00; PH Su off","operator":"Entsorgungsbetriebe Essen","recycling:cardboard":"yes","recycling:paper":"yes","recycling_type":"container"}},"type":"Feature"},
	{"geometry":{"coordinates":[7.09355,51.391758],"type":"Point"},"properties":{"osm_id":"4780498086","tag":{"amenity":"recycling","opening_hours":"Mo-Sa 07:00-19:00; PH Su off","operator":"Rhenus Logistics","recycling:glass_bottles":"yes","recycling_type":"container"}},"type":"Feature"},
	{"geometry":{"coordinates":[7.10074,51.394379],"type":"Point"},"properties":{"osm_id":"4780498097","tag":{"amenity":"recycling","opening_hours":"Mo-Sa 07:00-19:00; PH Su off","operator":"Loop","recycling:clothes":"yes","recycling:shoes":"yes","recycling_type":"container"}},"type":"Feature"},
	{"geometry":{"coordinates":[7.100701,51.394368],"type":"Point"},"properties":{"osm_id":"4780498098","tag":{"amenity":"recycling","opening_hours":"Mo-Sa 07:00-19:00; PH Su off","operator":"Rhenus Logistics","recycling:glass_bottles":"yes","recycling_type":"container"}},"type":"Feature"},
	{"geometry":{"coordinates":[7.084259,51.393546],"type":"Point"},"properties":{"osm_id":"4780498099","tag":{"amenity":"recycling","opening_hours":"Mo-Sa 07:00-19:00; PH Su off","operator":"Loop","recycling:clothes":"yes","recycling:shoes":"yes","recycling_type":"container"}},"type":"Feature"},
	{"geometry":{"coordinates":[7.046698,51.347951],"type":"Point"},"properties":{"osm_id":"5148165716","tag":{"amenity":"waste_basket","waste":"trash"}},"type":"Feature"},
	{"geometry":{"coordinates":[7.046573,51.347941],"type":"Point"},"properties":{"osm_id":"5148165717","tag":{"amenity":"waste_basket","waste":"trash"}},"type":"Feature"},
	{"geometry":{"coordinates":[7.046041,51.351674],"type":"Point"},"properties":{"osm_id":"5236554254","tag":{"amenity":"waste_basket","waste":"trash"}},"type":"Feature"},
	{"geometry":{"coordinates":[7.077197,51.392197],"type":"Point"},"properties":{"osm_id":"6071133389","tag":{"amenity":"waste_basket","waste":"trash"}},"type":"Feature"},
	{"geometry":{"coordinates":[7.08007,51.391096],"type":"Point"},"properties":{"osm_id":"6073699685","tag":{"amenity":"waste_basket","check_date":"2021-02-27","level":"0"}},"type":"Feature"},
	{"geometry":{"coordinates":[7.079939,51.391231],"type":"Point"},"properties":{"osm_id":"6073699687","tag":{"amenity":"waste_basket","check_date":"2021-02-27","level":"0"}},"type":"Feature"},
	{"geometry":{"coordinates":[7.051272,51.350037],"type":"Point"},"properties":{"osm_id":"6129228059","tag":{"amenity":"waste_basket","waste":"trash"}},"type":"Feature"},
	{"geometry":{"coordinates":[7.051568,51.350162],"type":"Point"},"properties":{"osm_id":"6129228060","tag":{"amenity":"waste_basket","waste":"trash"}},"type":"Feature"},
	{"geometry":{"coordinates":[7.051211,51.350674],"type":"Point"},"properties":{"osm_id":"6129228082","tag":{"amenity":"waste_basket","waste":"trash"}},"type":"Feature"},
	{"geometry":{"coordinates":[7.075509,51.38313],"type":"Point"},"properties":{"osm_id":"6192288545","tag":{"amenity":"waste_basket"}},"type":"Feature"},
	{"geometry":{"coordinates":[7.075383,51.382803],"type":"Point"},"properties":{"osm_id":"6192288817","tag":{"amenity":"waste_basket"}},"type":"Feature"},
	{"geometry":{"coordinates":[7.076098,51.397141],"type":"Point"},"properties":{"osm_id":"6192445928","tag":{"amenity":"waste_basket","waste":"trash"}},"type":"Feature"},
	{"geometry":{"coordinates":[7.083528,51.390627],"type":"Point"},"properties":{"osm_id":"6238142439","tag":{"amenity":"waste_basket"}},"type":"Feature"},
	{"geometry":{"coordinates":[7.083817,51.390602],"type":"Point"},"properties":{"osm_id":"6238142498","tag":{"amenity":"waste_basket"}},"type":"Feature"},
	{"geometry":{"coordinates":[7.083632,51.390517],"type":"Point"},"properties":{"osm_id":"6238142791","tag":{"amenity":"waste_basket"}},"type":"Feature"},
	{"geometry":{"coordinates":[7.055345,51.398753],"type":"Point"},"properties":{"osm_id":"6356679135","tag":{"amenity":"waste_basket"}},"type":"Feature"},
	{"geometry":{"coordinates":[7.055609,51.398602],"type":"Point"},"properties":{"osm_id":"6356679137","tag":{"amenity":"waste_basket"}},"type":"Feature"},
	{"geometry":{"coordinates":[7.056191,51.398016],"type":"Point"},"properties":{"osm_id":"6356680387","tag":{"amenity":"waste_basket"}},"type":"Feature"},
	{"geometry":{"coordinates":[7.072786,51.390648],"type":"Point"},"properties":{"osm_id":"6356680410","tag":{"amenity":"waste_basket"}},"type":"Feature"},
	{"geometry":{"coordinates":[7.073147,51.391235],"type":"Point"},"properties":{"osm_id":"6356680411","tag":{"amenity":"waste_basket"}},"type":"Feature"},
	{"geometry":{"coordinates":[7.056552,51.397713],"type":"Point"},"properties":{"osm_id":"6356680823","tag":{"amenity":"waste_basket"}},"type":"Feature"},
	{"geometry":{"coordinates":[7.060585,51.39404],"type":"Point"},"properties":{"osm_id":"6356682618","tag":{"amenity":"waste_basket"}},"type":"Feature"},
	{"geometry":{"coordinates":[7.062905,51.391908],"type":"Point"},"properties":{"osm_id":"6356682622","tag":{"amenity":"waste_basket"}},"type":"Feature"},
	{"geometry":{"coordinates":[7.064068,51.391047],"type":"Point"},"properties":{"osm_id":"6356682623","tag":{"amenity":"waste_basket"}},"type":"Feature"},
	{"geometry":{"coordinates":[7.064547,51.39072],"type":"Point"},"properties":{"osm_id":"6356682624","tag":{"amenity":"waste_basket"}},"type":"Feature"},
	{"geometry":{"coordinates":[7.065937,51.390113],"type":"Point"},"properties":{"osm_id":"6356682625","tag":{"amenity":"waste_basket"}},"type":"Feature"},
	{"geometry":{"coordinates":[7.072548,51.390486],"type":"Point"},"properties":{"osm_id":"6356682628","tag":{"amenity":"waste_basket"}},"type":"Feature"},
	{"geometry":{"coordinates":[7.060962,51.394179],"type":"Point"},"properties":{"osm_id":"6356683043","tag":{"amenity":"waste_basket"}},"type":"Feature"},
	{"geometry":{"coordinates":[7.060383,51.393818],"type":"Point"},"properties":{"osm_id":"6356683044","tag":{"amenity":"waste_basket"}},"type":"Feature"},
	{"geometry":{"coordinates":[7.061817,51.3927],"type":"Point"},"properties":{"osm_id":"6356683045","tag":{"amenity":"waste_basket"}},"type":"Feature"},
	{"geometry":{"coordinates":[7.062607,51.392217],"type":"Point"},"properties":{"osm_id":"6356683046","tag":{"amenity":"waste_basket"}},"type":"Feature"},
	{"geometry":{"coordinates":[7.068805,51.389775],"type":"Point"},"properties":{"osm_id":"6356683070","tag":{"amenity":"waste_basket"}},"type":"Feature"},
	{"geometry":{"coordinates":[7.072283,51.390299],"type":"Point"},"properties":{"osm_id":"6356683072","tag":{"amenity":"waste_basket"}},"type":"Feature"},
	{"geometry":{"coordinates":[7.060775,51.393478],"type":"Point"},"properties":{"osm_id":"6356683176","tag":{"amenity":"waste_basket"}},"type":"Feature"},
	{"geometry":{"coordinates":[7.061372,51.393038],"type":"Point"},"properties":{"osm_id":"6356683177","tag":{"amenity":"waste_basket"}},"type":"Feature"},
	{"geometry":{"coordinates":[7.062324,51.392351],"type":"Point"},"properties":{"osm_id":"6356683178","tag":{"amenity":"waste_basket"}},"type":"Feature"},
	{"geometry":{"coordinates":[7.062734,51.392087],"type":"Point"},"properties":{"osm_id":"6356683180","tag":{"amenity":"waste_basket"}},"type":"Feature"},
	{"geometry":{"coordinates":[7.067116,51.389821],"type":"Point"},"properties":{"osm_id":"6356683184","tag":{"amenity":"waste_basket"}},"type":"Feature"},
	{"geometry":{"coordinates":[7.071938,51.390333],"type":"Point"},"properties":{"osm_id":"6356683186","tag":{"amenity":"waste_basket"}},"type":"Feature"},
	{"geometry":{"coordinates":[7.07306,51.391703],"type":"Point"},"properties":{"osm_id":"6356683204","tag":{"amenity":"waste_basket"}},"type":"Feature"},
	{"geometry":{"coordinates":[7.04967,51.397303],"type":"Point"},"properties":{"osm_id":"6370455346","tag":{"amenity":"waste_basket"}},"type":"Feature"},
	{"geometry":{"coordinates":[7.055184,51.394212],"type":"Point"},"properties":{"osm_id":"6370455347","tag":{"amenity":"waste_basket"}},"type":"Feature"},
	{"geometry":{"coordinates":[7.05355,51.395153],"type":"Point"},"properties":{"osm_id":"6370456375","tag":{"amenity":"waste_basket"}},"type":"Feature"},
	{"geometry":{"coordinates":[7.046308,51.399156],"type":"Point"},"properties":{"osm_id":"6370456776","tag":{"amenity":"waste_basket"}},"type":"Feature"},
	{"geometry":{"coordinates":[7.04666,51.398848],"type":"Point"},"properties":{"osm_id":"6370458250","tag":{"amenity":"waste_basket"}},"type":"Feature"},
	{"geometry":{"coordinates":[7.049672,51.397243],"type":"Point"},"properties":{"osm_id":"6370459022","tag":{"amenity":"waste_basket"}},"type":"Feature"},
	{"geometry":{"coordinates":[7.049631,51.397322],"type":"Point"},"properties":{"osm_id":"6370459510","tag":{"amenity":"waste_basket"}},"type":"Feature"},
	{"geometry":{"coordinates":[7.051379,51.396307],"type":"Point"},"properties":{"osm_id":"6370459511","tag":{"amenity":"waste_basket"}},"type":"Feature"},
	{"geometry":{"coordinates":[7.06919,51.386432],"type":"Point"},"properties":{"osm_id":"6385744078","tag":{"amenity":"waste_basket"}},"type":"Feature"},
	{"geometry":{"coordinates":[7.071263,51.386546],"type":"Point"},"properties":{"osm_id":"6385744080","tag":{"amenity":"waste_basket"}},"type":"Feature"},
	{"geometry":{"coordinates":[7.072218,51.386758],"type":"Point"},"properties":{"osm_id":"6385744081","tag":{"amenity":"waste_basket"}},"type":"Feature"},
	{"geometry":{"coordinates":[7.073551,51.387248],"type":"Point"},"properties":{"osm_id":"6385744084","tag":{"amenity":"waste_basket"}},"type":"Feature"},
	{"geometry":{"coordinates":[7.055711,51.393706],"type":"Point"},"properties":{"osm_id":"6385762736","tag":{"amenity":"waste_basket"}},"type":"Feature"},
	{"geometry":{"coordinates":[7.058093,51.391787],"type":"Point"},"properties":{"osm_id":"6385762737","tag":{"amenity":"waste_basket"}},"type":"Feature"},
	{"geometry":{"coordinates":[7.059518,51.39027],"type":"Point"},"properties":{"osm_id":"6385762738","tag":{"amenity":"waste_basket"}},"type":"Feature"},
	{"geometry":{"coordinates":[7.061779,51.388435],"type":"Point"},"properties":{"osm_id":"6385763131","tag":{"amenity":"waste_basket"}},"type":"Feature"},
	{"geometry":{"coordinates":[7.063311,51.387602],"type":"Point"},"properties":{"osm_id":"6385763132","tag":{"amenity":"waste_basket"}},"type":"Feature"},
	{"geometry":{"coordinates":[7.065656,51.386669],"type":"Point"},"properties":{"osm_id":"6385763134","tag":{"amenity":"waste_basket"}},"type":"Feature"},
	{"geometry":{"coordinates":[7.067287,51.386389],"type":"Point"},"properties":{"osm_id":"6385763135","tag":{"amenity":"waste_basket"}},"type":"Feature"},
	{"geometry":{"coordinates":[7.067683,51.386368],"type":"Point"},"properties":{"osm_id":"6385763137","tag":{"amenity":"waste_basket"}},"type":"Feature"},
	{"geometry":{"coordinates":[7.068273,51.386393],"type":"Point"},"properties":{"osm_id":"6385763144","tag":{"amenity":"waste_basket"}},"type":"Feature"},
	{"geometry":{"coordinates":[7.057541,51.392259],"type":"Point"},"properties":{"osm_id":"6385763261","tag":{"amenity":"waste_basket"}},"type":"Feature"},
	{"geometry":{"coordinates":[7.06014,51.389649],"type":"Point"},"properties":{"osm_id":"6385763281","tag":{"amenity":"waste_basket"}},"type":"Feature"},
	{"geometry":{"coordinates":[7.075418,51.389001],"type":"Point"},"properties":{"osm_id":"6385763627","tag":{"amenity":"waste_basket"}},"type":"Feature"},
	{"geometry":{"coordinates":[7.075713,51.390703],"type":"Point"},"properties":{"osm_id":"6385765006","tag":{"amenity":"waste_basket"}},"type":"Feature"},
	{"geometry":{"coordinates":[7.075379,51.388431],"type":"Point"},"properties":{"osm_id":"6385765185","tag":{"amenity":"waste_basket"}},"type":"Feature"},
	{"geometry":{"coordinates":[7.056971,51.397426],"type":"Point"},"properties":{"osm_id":"6399070376","tag":{"amenity":"waste_basket"}},"type":"Feature"},
	{"geometry":{"coordinates":[7.116245,51.350534],"type":"Point"},"properties":{"osm_id":"6571212911","tag":{"amenity":"waste_basket"}},"type":"Feature"},
	{"geometry":{"coordinates":[7.054713,51.356968],"type":"Point"},"properties":{"osm_id":"6592720498","tag":{"amenity":"waste_basket","waste":"trash"}},"type":"Feature"},
	{"geometry":{"coordinates":[7.073508,51.384496],"type":"Point"},"properties":{"osm_id":"6650014893","tag":{"amenity":"waste_basket"}},"type":"Feature"},
	{"geometry":{"coordinates":[7.072171,51.385069],"type":"Point"},"properties":{"osm_id":"6650014940","tag":{"amenity":"waste_basket"}},"type":"Feature"},
	{"geometry":{"coordinates":[7.072034,51.385014],"type":"Point"},"properties":{"osm_id":"6655102600","tag":{"amenity":"waste_basket"}},"type":"Feature"},
	{"geometry":{"coordinates":[7.072299,51.384512],"type":"Point"},"properties":{"osm_id":"6655102618","tag":{"amenity":"waste_basket"}},"type":"Feature"},
	{"geometry":{"coordinates":[7.073536,51.384619],"type":"Point"},"properties":{"osm_id":"6655102624","tag":{"amenity":"waste_basket"}},"type":"Feature"},
	{"geometry":{"coordinates":[7.07237,51.384791],"type":"Point"},"properties":{"osm_id":"6655102634","tag":{"amenity":"waste_basket"}},"type":"Feature"},
	{"geometry":{"coordinates":[7.072036,51.384911],"type":"Point"},"properties":{"osm_id":"6655102638","tag":{"amenity":"waste_basket"}},"type":"Feature"},
	{"geometry":{"coordinates":[7.071997,51.391295],"type":"Point"},"properties":{"osm_id":"6744194969","tag":{"amenity":"waste_basket"}},"type":"Feature"},
	{"geometry":{"coordinates":[7.085474,51.393496],"type":"Point"},"properties":{"osm_id":"6910584590","tag":{"amenity":"waste_basket"}},"type":"Feature"},
	{"geometry":{"coordinates":[7.085402,51.393545],"type":"Point"},"properties":{"osm_id":"6910584591","tag":{"amenity":"waste_basket"}},"type":"Feature"},
	{"geometry":{"coordinates":[7.085699,51.393365],"type":"Point"},"properties":{"osm_id":"6910584593","tag":{"amenity":"waste_basket"}},"type":"Feature"},
	{"geometry":{"coordinates":[7.078007,51.393202],"type":"Point"},"properties":{"osm_id":"6985144278","tag":{"amenity":"waste_basket"}},"type":"Feature"},
	{"geometry":{"coordinates":[7.077662,51.39299],"type":"Point"},"properties":{"osm_id":"6985144279","tag":{"amenity":"waste_basket"}},"type":"Feature"},
	{"geometry":{"coordinates":[7.077311,51.392771],"type":"Point"},"properties":{"osm_id":"6985144281","tag":{"amenity":"waste_basket"}},"type":"Feature"},
	{"geometry":{"coordinates":[7.077772,51.392722],"type":"Point"},"properties":{"osm_id":"7058301490","tag":{"amenity":"waste_basket"}},"type":"Feature"},
	{"geometry":{"coordinates":[7.077859,51.392953],"type":"Point"},"properties":{"osm_id":"7058301491","tag":{"amenity":"waste_basket"}},"type":"Feature"},
	{"geometry":{"coordinates":[7.077732,51.392869],"type":"Point"},"properties":{"osm_id":"7058301492","tag":{"amenity":"waste_basket"}},"type":"Feature"},
	{"geometry":{"coordinates":[7.077569,51.39277],"type":"Point"},"properties":{"osm_id":"7058301493","tag":{"amenity":"waste_basket"}},"type":"Feature"},
	{"geometry":{"coordinates":[7.088979,51.388766],"type":"Point"},"properties":{"osm_id":"7347251902","tag":{"amenity":"waste_basket","waste":"trash"}},"type":"Feature"},
	{"geometry":{"coordinates":[7.07669,51.39305],"type":"Point"},"properties":{"osm_id":"7835083601","tag":{"amenity":"waste_basket"}},"type":"Feature"},
	{"geometry":{"coordinates":[7.076979,51.393231],"type":"Point"},"properties":{"osm_id":"7835083739","tag":{"amenity":"waste_basket"}},"type":"Feature"},
	{"geometry":{"coordinates":[7.079713,51.391662],"type":"Point"},"properties":{"osm_id":"7835136028","tag":{"amenity":"waste_basket"}},"type":"Feature"},
	{"geometry":{"coordinates":[7.079973,51.391318],"type":"Point"},"properties":{"osm_id":"7835146204","tag":{"amenity":"waste_basket"}},"type":"Feature"},
	{"geometry":{"coordinates":[7.084256,51.391173],"type":"Point"},"properties":{"osm_id":"7912124336","tag":{"amenity":"waste_basket","waste":"trash"}},"type":"Feature"},
	{"geometry":{"coordinates":[7.084422,51.39127],"type":"Point"},"properties":{"osm_id":"7912210519","tag":{"amenity":"waste_basket"}},"type":"Feature"},
	{"geometry":{"coordinates":[7.032783,51.359251],"type":"Point"},"properties":{"osm_id":"8755594728","tag":{"amenity":"waste_basket"}},"type":"Feature"},
	{"geometry":{"coordinates":[7.044832,51.358947],"type":"Point"},"properties":{"osm_id":"8755785461","tag":{"amenity":"waste_basket"}},"type":"Feature"},
	{"geometry":{"coordinates":[7.057494,51.396817],"type":"Point"},"properties":{"osm_id":"8786563022","tag":{"amenity":"waste_basket"}},"type":"Feature"},
	{"geometry":{"coordinates":[7.099329,51.39532],"type":"Point"},"properties":{"osm_id":"9004956101","tag":{"amenity":"waste_basket","waste":"trash"}},"type":"Feature"}
]
}
