{
"type": "FeatureCollection",
"features": [
	{"geometry":{"coordinates":[7.062564,51.181567],"type":"Point"},"properties":{"osm_id":"324703857","tag":{"amenity":"recycling","recycling:glass":"yes"}},"type":"Feature"},
	{"geometry":{"coordinates":[7.074805,51.225977],"type":"Point"},"properties":{"osm_id":"420594708","tag":{"amenity":"recycling","operator":"AWG","recycling:cardboard":"yes","recycling:cartons":"yes","recycling:clothes":"yes","recycling:glass_bottles":"yes","recycling:magazines":"yes","recycling:newspaper":"yes","recycling:paper":"yes","recycling:paper_packaging":"yes","recycling:shoes":"yes","recycling:small_electrical_appliances":"yes","recycling_type":"container"}},"type":"Feature"},
	{"geometry":{"coordinates":[7.069097,51.221564],"type":"Point"},"properties":{"osm_id":"420597882","tag":{"amenity":"recycling","operator":"AWG","recycling:cardboard":"yes","recycling:cartons":"yes","recycling:clothes":"yes","recycling:glass_bottles":"yes","recycling:magazines":"yes","recycling:newspaper":"yes","recycling:paper":"yes","recycling:paper_packaging":"yes","recycling:shoes":"yes","recycling:small_electrical_appliances":"yes","recycling_type":"container"}},"type":"Feature"},
	{"geometry":{"coordinates":[7.067127,51.229577],"type":"Point"},"properties":{"osm_id":"472664160","tag":{"amenity":"recycling","operator":"Abfallwirtschaftsgesellschaft Wuppertal","operator:abbr":"AWG","recycling:cardboard":"yes","recycling:cartons":"yes","recycling:clothes":"no","recycling:glass_bottles":"yes","recycling:magazines":"yes","recycling:newspaper":"yes","recycling:paper":"yes","recycling:paper_packaging":"yes","recycling:shoes":"no","recycling:small_appliances":"no","recycling_type":"container"}},"type":"Feature"},
	{"geometry":{"coordinates":[7.059145,51.226751],"type":"Point"},"properties":{"osm_id":"474458070","tag":{"amenity":"recycling","recycling:clothes":"yes","recycling:glass_bottles":"yes","recycling:paper":"yes","recycling_type":"container"}},"type":"Feature"},
	{"geometry":{"coordinates":[7.070549,51.232428],"type":"Point"},"properties":{"osm_id":"476287277","tag":{"amenity":"recycling","operator":"AWG","recycling:cardboard":"yes","recycling:cartons":"yes","recycling:glass_bottles":"yes","recycling:magazines":"yes","recycling:newspaper":"yes","recycling:paper":"yes","recycling:paper_packaging":"yes","recycling:small_electrical_appliances":"yes","recycling_type":"container"}},"type":"Feature"},
	{"geometry":{"coordinates":[7.064567,51.231268],"type":"Point"},"properties":{"osm_id":"476287285","tag":{"amenity":"recycling","operator":"Abfallwirtschaftsgesellschaft Wuppertal","recycling:cardboard":"yes","recycling:cartons":"yes","recycling:clothes":"yes","recycling:glass_bottles":"yes","recycling:magazines":"yes","recycling:newspaper":"yes","recycling:paper":"yes","recycling:paper_packaging":"yes","recycling:shoes":"yes","recycling:small_electrical_appliances":"yes","recycling_type":"container"}},"type":"Feature"},
	{"geometry":{"coordinates":[7.082457,51.18331],"type":"Point"},"properties":{"osm_id":"479250816","tag":{"amenity":"waste_basket"}},"type":"Feature"},
	{"geometry":{"coordinates":[7.064587,51.22779],"type":"Point"},"properties":{"osm_id":"492757049","tag":{"amenity":"recycling","operator":"AWG","recycling:books":"yes","recycling:cardboard":"yes","recycling:cartons":"yes","recycling:clothes":"yes","recycling:glass_bottles":"yes","recycling:magazines":"yes","recycling:newspaper":"yes","recycling:paper":"yes","recycling:shoes":"yes","recycling:small_electrical_appliances":"no","recycling_type":"container"}},"type":"Feature"},
	{"geometry":{"coordinates":[7.061859,51.215173],"type":"Point"},"properties":{"osm_id":"492757254","tag":{"amenity":"recycling","operator":"AWG","recycling:cardboard":"yes","recycling:cartons":"yes","recycling:glass_bottles":"yes","recycling:magazines":"yes","recycling:newspaper":"yes","recycling:paper":"yes","recycling:paper_packaging":"yes","recycling:small_electrical_appliances":"yes","recycling_type":"container"}},"type":"Feature"},
	{"geometry":{"coordinates":[7.081731,51.232442],"type":"Point"},"properties":{"osm_id":"514968056","tag":{"amenity":"recycling","operator":"AWG","recycling:cardboard":"yes","recycling:cartons":"yes","recycling:clothes":"yes","recycling:glass_bottles":"yes","recycling:magazines":"yes","recycling:newspaper":"yes","recycling:paper":"yes","recycling:paper_packaging":"yes","recycling:shoes":"yes","recycling:small_electrical_appliances":"yes","recycling_type":"container"}},"type":"Feature"},
	{"geometry":{"coordinates":[7.085448,51.232523],"type":"Point"},"properties":{"osm_id":"514968085","tag":{"amenity":"recycling","operator":"AWG","recycling:cardboard":"yes","recycling:cartons":"yes","recycling:glass_bottles":"yes","recycling:magazines":"yes","recycling:newspaper":"yes","recycling:paper":"yes","recycling:paper_packaging":"yes","recycling:small_electrical_appliances":"yes","recycling_type":"container"}},"type":"Feature"},
	{"geometry":{"coordinates":[7.077562,51.231648],"type":"Point"},"properties":{"osm_id":"573694949","tag":{"amenity":"recycling","operator":"AWG","recycling:cardboard":"yes","recycling:cartons":"yes","recycling:clothes":"yes","recycling:glass_bottles":"yes","recycling:magazines":"yes","recycling:newspaper":"yes","recycling:paper":"yes","recycling:paper_packaging":"yes","recycling:shoes":"yes","recycling:small_electrical_appliances":"yes","recycling_type":"container"}},"type":"Feature"},
	{"geometry":{"coordinates":[7.073255,51.188182],"type":"Point"},"properties":{"osm_id":"648856009","tag":{"amenity":"recycling","location":"overground","recycling:glass_bottles":"yes","recycling_type":"container"}},"type":"Feature"},
	{"geometry":{"coordinates":[7.062212,51.189375],"type":"Point"},"properties":{"osm_id":"662527370","tag":{"amenity":"recycling","recycling:glass":"yes"}},"type":"Feature"},
	{"geometry":{"coordinates":[7.088401,51.179752],"type":"Point"},"properties":{"osm_id":"866886925","ref":"Glas","tag":{"amenity":"recycling"}},"type":"Feature"},
	{"geometry":{"coordinates":[7.088541,51.181171],"type":"Point"},"properties":{"osm_id":"866886979","tag":{"amenity":"recycling"}},"type":"Feature"},
	{"geometry":{"coordinates":[7.086266,51.182065],"type":"Point"},"properties":{"osm_id":"866886990","tag":{"amenity":"recycling"}},"type":"Feature"},
	{"geometry":{"coordinates":[7.052192,51.220374],"type":"Point"},"properties":{"osm_id":"942757983","tag":{"amenity":"recycling","operator":"AWG","recycling:cardboard":"yes","recycling:cartons":"yes","recycling:clothes":"yes","recycling:glass_bottles":"yes","recycling:magazines":"yes","recycling:newspaper":"yes","recycling:paper":"yes","recycling:paper_packaging":"yes","recycling:shoes":"yes","recycling:small_electrical_appliances":"yes","recycling_type":"container"}},"type":"Feature"},
	{"geometry":{"coordinates":[7.076445,51.202123],"type":"Point"},"properties":{"osm_id":"986309467","tag":{"amenity":"recycling","recycling:glass":"yes"}},"type":"Feature"},
	{"geometry":{"coordinates":[7.074685,51.209195],"type":"Point"},"properties":{"osm_id":"1016647242","tag":{"amenity":"recycling","location":"overground","recycling:glass":"yes","recycling_type":"container"}},"type":"Feature"},
	{"geometry":{"coordinates":[7.10389,51.182167],"type":"Point"},"properties":{"osm_id":"1031144476","tag":{"amenity":"recycling","recycling:clothes":"yes","recycling:glass":"yes"}},"type":"Feature"},
	{"geometry":{"coordinates":[7.07255,51.194715],"type":"Point"},"properties":{"osm_id":"1045276280","tag":{"amenity":"recycling","opening_hours":"Mo-Sa 08:00-20:00","recycling:glass":"yes"}},"type":"Feature"},
	{"geometry":{"coordinates":[7.076809,51.189292],"type":"Point"},"properties":{"osm_id":"1106591539","tag":{"amenity":"recycling","recycling:clothes":"yes","recycling:glass_bottles":"yes","recycling:shoes":"yes","recycling_type":"container"}},"type":"Feature"},
	{"geometry":{"coordinates":[7.076367,51.208589],"type":"Point"},"properties":{"osm_id":"1108878996","tag":{"amenity":"recycling","location":"overground","recycling:glass":"yes","recycling_type":"container"}},"type":"Feature"},
	{"geometry":{"coordinates":[7.034566,51.185413],"type":"Point"},"properties":{"osm_id":"1114881866","tag":{"amenity":"recycling","location":"overground","recycling:glass":"yes","recycling_type":"container"}},"type":"Feature"},
	{"geometry":{"coordinates":[7.078408,51.212392],"type":"Point"},"properties":{"osm_id":"1120394570","tag":{"amenity":"recycling","location":"overground","recycling_type":"container"}},"type":"Feature"},
	{"geometry":{"coordinates":[7.080736,51.213765],"type":"Point"},"properties":{"osm_id":"1131312122","tag":{"amenity":"recycling","location":"overground","recycling_type":"container"}},"type":"Feature"},
	{"geometry":{"coordinates":[7.077443,51.206714],"type":"Point"},"properties":{"osm_id":"1342159712","tag":{"amenity":"recycling","location":"overground","recycling_type":"container"}},"type":"Feature"},
	{"geometry":{"coordinates":[7.079591,51.207777],"type":"Point"},"properties":{"osm_id":"1350390335","tag":{"amenity":"recycling","location":"overground","recycling:glass":"yes","recycling_type":"container"}},"type":"Feature"},
	{"geometry":{"coordinates":[7.0695,51.192236],"type":"Point"},"properties":{"osm_id":"1568985512","tag":{"amenity":"recycling","recycling:glass":"yes"}},"type":"Feature"},
	{"geometry":{"coordinates":[7.083896,51.221738],"type":"Point"},"properties":{"osm_id":"1768870747","tag":{"amenity":"waste_basket"}},"type":"Feature"},
	{"geometry":{"coordinates":[7.080399,51.189272],"type":"Point"},"properties":{"osm_id":"2022802886","tag":{"amenity":"recycling","location":"overground","recycling:clothes":"yes","recycling_type":"container"}},"type":"Feature"},
	{"geometry":{"coordinates":[7.067233,51.233127],"type":"Point"},"properties":{"osm_id":"2155833494","tag":{"amenity":"waste_basket"}},"type":"Feature"},
	{"geometry":{"coordinates":[7.067293,51.233134],"type":"Point"},"properties":{"osm_id":"2155833522","tag":{"amenity":"waste_basket"}},"type":"Feature"},
	{"geometry":{"coordinates":[7.084995,51.211878],"type":"Point"},"properties":{"osm_id":"2354453476","tag":{"amenity":"waste_basket"}},"type":"Feature"},
	{"geometry":{"coordinates":[7.085486,51.21216],"type":"Point"},"properties":{"osm_id":"2354453486","tag":{"amenity":"waste_basket"}},"type":"Feature"},
	{"geometry":{"coordinates":[7.08522,51.212464],"type":"Point"},"properties":{"osm_id":"2354453491","tag":{"amenity":"waste_basket"}},"type":"Feature"},
	{"geometry":{"coordinates":[7.085174,51.212647],"type":"Point"},"properties":{"osm_id":"2354453492","tag":{"amenity":"waste_basket"}},"type":"Feature"},
	{"geometry":{"coordinates":[7.086228,51.212803],"type":"Point"},"properties":{"osm_id":"2354453495","tag":{"amenity":"waste_basket"}},"type":"Feature"},
	{"geometry":{"coordinates":[7.085019,51.21312],"type":"Point"},"properties":{"osm_id":"2354453497","tag":{"amenity":"waste_basket"}},"type":"Feature"},
	{"geometry":{"coordinates":[7.08529,51.213209],"type":"Point"},"properties":{"osm_id":"2354453499","tag":{"amenity":"waste_basket"}},"type":"Feature"},
	{"geometry":{"coordinates":[7.085525,51.213238],"type":"Point"},"properties":{"osm_id":"2354453500","tag":{"amenity":"waste_basket"}},"type":"Feature"},
	{"geometry":{"coordinates":[7.082047,51.222103],"type":"Point"},"properties":{"osm_id":"2611038142","tag":{"amenity":"waste_basket"}},"type":"Feature"},
	{"geometry":{"coordinates":[7.067068,51.227937],"type":"Point"},"properties":{"osm_id":"3096072938","tag":{"amenity":"waste_basket"}},"type":"Feature"},
	{"geometry":{"coordinates":[7.087059,51.207402],"type":"Point"},"properties":{"osm_id":"3213799242","tag":{"amenity":"recycling","location":"overground","recycling:clothes":"no","recycling:glass":"yes","recycling:paper":"no","recycling_type":"container"}},"type":"Feature"},
	{"geometry":{"coordinates":[7.046256,51.216354],"type":"Point"},"properties":{"osm_id":"3243665462","tag":{"amenity":"recycling","operator":"AWG","recycling:cardboard":"yes","recycling:cartons":"yes","recycling:clothes":"yes","recycling:glass_bottles":"yes","recycling:magazines":"yes","recycling:newspaper":"yes","recycling:paper":"yes","recycling:paper_packaging":"yes","recycling:shoes":"yes","recycling:small_electrical_appliances":"yes","recycling_type":"container"}},"type":"Feature"},
	{"geometry":{"coordinates":[7.078458,51.182626],"type":"Point"},"properties":{"osm_id":"3248869309","tag":{"amenity":"recycling","operator":"Deutsches Rotes Kreuz","recycling:clothes":"yes","recycling:shoes":"yes","recycling_type":"container"}},"type":"Feature"},
	{"geometry":{"coordinates":[7.078482,51.182631],"type":"Point"},"properties":{"osm_id":"3248869310","tag":{"amenity":"recycling","recycling:glass":"yes","recycling_type":"container"}},"type":"Feature"},
	{"geometry":{"coordinates":[7.078502,51.182636],"type":"Point"},"properties":{"osm_id":"3248869311","tag":{"amenity":"recycling","recycling:glass":"yes","recycling_type":"container"}},"type":"Feature"},
	{"geometry":{"coordinates":[7.07361,51.192541],"type":"Point"},"properties":{"osm_id":"3248874875","tag":{"amenity":"recycling","recycling:clothes":"yes","recycling:shoes":"yes","recycling_type":"container"}},"type":"Feature"},
	{"geometry":{"coordinates":[7.035154,51.201521],"type":"Point"},"properties":{"osm_id":"3248906661","tag":{"amenity":"recycling","recycling:cans":"no","recycling:clothes":"yes","recycling:shoes":"yes","recycling_type":"container"}},"type":"Feature"},
	{"geometry":{"coordinates":[7.080411,51.22975],"type":"Point"},"properties":{"osm_id":"3389858621","tag":{"amenity":"recycling","operator":"AWG","recycling:cardboard":"yes","recycling:cartons":"yes","recycling:glass_bottles":"yes","recycling:magazines":"yes","recycling:newspaper":"yes","recycling:paper":"yes","recycling:paper_packaging":"yes","recycling:small_electrical_appliances":"yes","recycling_type":"container"}},"type":"Feature"},
	{"geometry":{"coordinates":[7.080081,51.229673],"type":"Point"},"properties":{"osm_id":"3389858622","tag":{"amenity":"waste_basket"}},"type":"Feature"},
	{"geometry":{"coordinates":[7.078489,51.228742],"type":"Point"},"properties":{"osm_id":"3389858623","tag":{"amenity":"waste_basket"}},"type":"Feature"},
	{"geometry":{"coordinates":[7.063306,51.232161],"type":"Point"},"properties":{"osm_id":"3441257243","tag":{"amenity":"recycling","operator":"AWG","recycling:cardboard":"yes","recycling:cartons":"yes","recycling:clothes":"yes","recycling:glass_bottles":"yes","recycling:magazines":"yes","recycling:newspaper":"yes","recycling:paper":"yes","recycling:paper_packaging":"yes","recycling:shoes":"yes","recycling:small_electrical_appliances":"yes","recycling_type":"container"}},"type":"Feature"},
	{"geometry":{"coordinates":[7.059779,51.184712],"type":"Point"},"properties":{"osm_id":"3657137400","tag":{"amenity":"recycling","recycling:glass":"yes"}},"type":"Feature"},
	{"geometry":{"coordinates":[7.051519,51.18835],"type":"Point"},"properties":{"osm_id":"3657142371","tag":{"amenity":"recycling","location":"overground","recycling:glass":"no","recycling:glass_bottles":"yes","recycling_type":"container"}},"type":"Feature"},
	{"geometry":{"coordinates":[7.077259,51.219401],"type":"Point"},"properties":{"osm_id":"4294256462","tag":{"amenity":"waste_basket"}},"type":"Feature"},
	{"geometry":{"coordinates":[7.083972,51.213062],"type":"Point"},"properties":{"osm_id":"4294381566","tag":{"amenity":"waste_basket"}},"type":"Feature"},
	{"geometry":{"coordinates":[7.083969,51.213013],"type":"Point"},"properties":{"osm_id":"4294381567","tag":{"amenity":"waste_basket"}},"type":"Feature"},
	{"geometry":{"coordinates":[7.083964,51.212829],"type":"Point"},"properties":{"osm_id":"4294381568","tag":{"amenity":"waste_basket"}},"type":"Feature"},
	{"geometry":{"coordinates":[7.06825,51.230425],"type":"Point"},"properties":{"osm_id":"4315754497","tag":{"amenity":"waste_basket"}},"type":"Feature"},
	{"geometry":{"coordinates":[7.055509,51.18629],"type":"Point"},"properties":{"osm_id":"4434986936","tag":{"amenity":"waste_basket"}},"type":"Feature"},
	{"geometry":{"coordinates":[7.069591,51.189299],"type":"Point"},"properties":{"osm_id":"4452506540","tag":{"amenity":"waste_basket"}},"type":"Feature"},
	{"geometry":{"coordinates":[7.062906,51.189609],"type":"Point"},"properties":{"osm_id":"4452506549","tag":{"amenity":"waste_basket"}},"type":"Feature"},
	{"geometry":{"coordinates":[7.06322,51.189653],"type":"Point"},"properties":{"osm_id":"4452506551","tag":{"amenity":"waste_basket"}},"type":"Feature"},
	{"geometry":{"coordinates":[7.08067,51.219788],"type":"Point"},"properties":{"osm_id":"4455048425","tag":{"amenity":"recycling","operator":"Abfallwirtschaftsgesellschaft Wuppertal","operator:short":"AWG","operator:wikidata":"Q23787400","recycling:cardboard":"yes","recycling:cartons":"yes","recycling:clothes":"yes","recycling:magazines":"yes","recycling:newspaper":"yes","recycling:paper":"yes","recycling:paper_packaging":"yes","recycling:shoes":"yes","recycling:small_electrical_appliances":"yes","recycling_type":"container"}},"type":"Feature"},
	{"geometry":{"coordinates":[7.067559,51.218537],"type":"Point"},"properties":{"osm_id":"4455363689","tag":{"amenity":"recycling","operator":"Abfallwirtschaftsgesellschaft Wuppertal","operator:abbr":"AWG","recycling:cardboard":"yes","recycling:cartons":"yes","recycling:clothes":"no","recycling:glass_bottles":"yes","recycling:magazines":"yes","recycling:newspaper":"yes","recycling:paper":"yes","recycling:paper_packaging":"yes","recycling:shoes":"no","recycling:small_electrical_appliances":"yes","recycling_type":"container"}},"type":"Feature"},
	{"geometry":{"coordinates":[7.051761,51.22922],"type":"Point"},"properties":{"osm_id":"4455401389","tag":{"amenity":"recycling","operator":"AWG","recycling:cardboard":"yes","recycling:cartons":"yes","recycling:glass_bottles":"yes","recycling:magazines":"yes","recycling:newspaper":"yes","recycling:paper":"yes","recycling:paper_packaging":"yes","recycling:small_electrical_appliances":"yes","recycling_type":"container"}},"type":"Feature"},
	{"geometry":{"coordinates":[7.071107,51.205638],"type":"Point"},"properties":{"osm_id":"4480296942","tag":{"amenity":"waste_basket"}},"type":"Feature"},
	{"geometry":{"coordinates":[7.072309,51.23406],"type":"Point"},"properties":{"osm_id":"4717154392","tag":{"amenity":"waste_basket"}},"type":"Feature"},
	{"geometry":{"coordinates":[7.066477,51.229895],"type":"Point"},"properties":{"osm_id":"5089149354","tag":{"amenity":"waste_basket"}},"type":"Feature"},
	{"geometry":{"coordinates":[7.075428,51.233476],"type":"Point"},"properties":{"osm_id":"5089777996","tag":{"amenity":"waste_basket","support":"pole"}},"type":"Feature"},
	{"geometry":{"coordinates":[7.083466,51.222314],"type":"Point"},"properties":{"osm_id":"5260781722","tag":{"amenity":"recycling","operator":"AWG","recycling:clothes":"yes","recycling:glass_bottles":"yes","recycling:paper":"yes","recycling:small_electrical_appliances":"yes","recycling_type":"container"}},"type":"Feature"},
	{"geometry":{"coordinates":[7.059868,51.219758],"type":"Point"},"properties":{"osm_id":"5261849747","tag":{"amenity":"recycling","operator":"AWG","recycling:clothes":"yes","recycling:glass_bottles":"yes","recycling:paper":"yes","recycling:small_electrical_appliances":"no","recycling_type":"container"}},"type":"Feature"},
	{"geometry":{"coordinates":[7.10313,51.233564],"type":"Point"},"properties":{"osm_id":"5306279697","tag":{"amenity":"recycling","check_date":"2017-12-21","operator":"AWG","recycling:clothes":"no","recycling:glass_bottles":"yes","recycling:paper":"yes","recycling:shoes":"no","recycling:small_electrical_appliances":"yes","recycling_type":"container"}},"type":"Feature"},
	{"geometry":{"coordinates":[7.10316,51.233535],"type":"Point"},"properties":{"osm_id":"5306279698","tag":{"amenity":"waste_basket"}},"type":"Feature"},
	{"geometry":{"coordinates":[7.067661,51.230717],"type":"Point"},"properties":{"osm_id":"5413978818","tag":{"amenity":"waste_basket","check_date":"2018-02-14"}},"type":"Feature"},
	{"geometry":{"coordinates":[7.06949,51.231722],"type":"Point"},"properties":{"osm_id":"5413978820","tag":{"amenity":"recycling","check_date":"2018-02-14","recycling:clothes":"yes","recycling:shoes":"yes","recycling_type":"container"}},"type":"Feature"},
	{"geometry":{"coordinates":[7.070126,51.231303],"type":"Point"},"properties":{"osm_id":"5967436223","tag":{"amenity":"waste_basket","ashtray":"yes","check_date":"2018-10-08","support":"pole"}},"type":"Feature"},
	{"geometry":{"coordinates":[7.070327,51.231306],"type":"Point"},"properties":{"osm_id":"5967436224","tag":{"amenity":"waste_basket","ashtray":"yes","check_date":"2018-10-08","support":"pole"}},"type":"Feature"},
	{"geometry":{"coordinates":[7.070308,51.231083],"type":"Point"},"properties":{"osm_id":"5967436225","tag":{"amenity":"waste_basket","ashtray":"yes","check_date":"2018-10-08","support":"pole"}},"type":"Feature"},
	{"geometry":{"coordinates":[7.070639,51.23201],"type":"Point"},"properties":{"osm_id":"5967436227","tag":{"amenity":"waste_basket","ashtray":"yes","check_date":"2018-10-08"}},"type":"Feature"},
	{"geometry":{"coordinates":[7.070506,51.232396],"type":"Point"},"properties":{"osm_id":"5967436230","tag":{"amenity":"waste_basket","ashtray":"yes","check_date":"2018-10-08","support":"pole"}},"type":"Feature"},
	{"geometry":{"coordinates":[7.090082,51.186654],"type":"Point"},"properties":{"osm_id":"5972419278","tag":{"amenity":"waste_basket"}},"type":"Feature"},
	{"geometry":{"coordinates":[7.072205,51.233437],"type":"Point"},"properties":{"osm_id":"5979460673","tag":{"amenity":"waste_basket","check_date":"2018-10-08"}},"type":"Feature"},
	{"geometry":{"coordinates":[7.065325,51.231805],"type":"Point"},"properties":{"osm_id":"6055539871","tag":{"amenity":"recycling","recycling:clothes":"yes","recycling_type":"container"}},"type":"Feature"},
	{"geometry":{"coordinates":[7.046863,51.227802],"type":"Point"},"properties":{"osm_id":"6399033672","tag":{"amenity":"recycling","check_date":"2019-04-10","operator":"Abfallwirtschaftsgesellschaft Wuppertal","operator:abbr":"AWG","recycling:glass_bottles":"yes","recycling:others":"no","recycling_type":"container"}},"type":"Feature"},
	{"geometry":{"coordinates":[7.064233,51.219221],"type":"Point"},"properties":{"osm_id":"6429153357","tag":{"amenity":"recycling","check_date":"2019-04-25","description":"Bitte beachten Sie die Einwurfzeiten f\u00c3\u00bcr Glasgef\u00c3\u00a4\u00c3\u009fe, Einwurf nur an Werktagen von 07:00 - 20:00 Uhr.","operator":"Abfallwirtschaftsgesellschaft Wuppertal","operator:abbr":"AWG","recycling:cardboard":"yes","recycling:clothes":"no","recycling:glass_bottles":"yes","recycling:paper":"yes","recycling:shoes":"no","recycling:small_electrical_appliances":"yes","recycling_type":"container"}},"type":"Feature"},
	{"geometry":{"coordinates":[7.064285,51.217067],"type":"Point"},"properties":{"osm_id":"6443509982","tag":{"amenity":"waste_basket","material":"metal"}},"type":"Feature"},
	{"geometry":{"coordinates":[7.065118,51.217402],"type":"Point"},"properties":{"osm_id":"6443510788","tag":{"amenity":"waste_basket","material":"metal"}},"type":"Feature"},
	{"geometry":{"coordinates":[7.063868,51.217245],"type":"Point"},"properties":{"osm_id":"6443510800","tag":{"amenity":"waste_basket","material":"metal"}},"type":"Feature"},
	{"geometry":{"coordinates":[7.064424,51.218471],"type":"Point"},"properties":{"osm_id":"6443510804","tag":{"amenity":"waste_basket"}},"type":"Feature"},
	{"geometry":{"coordinates":[7.062148,51.219067],"type":"Point"},"properties":{"osm_id":"6443510807","tag":{"amenity":"waste_basket","support":"pole"}},"type":"Feature"},
	{"geometry":{"coordinates":[7.061784,51.21899],"type":"Point"},"properties":{"osm_id":"6443510808","tag":{"amenity":"waste_basket","support":"pole"}},"type":"Feature"},
	{"geometry":{"coordinates":[7.077695,51.221818],"type":"Point"},"properties":{"osm_id":"6452397985","tag":{"amenity":"recycling","recycling:clothes":"yes","recycling_type":"container"}},"type":"Feature"},
	{"geometry":{"coordinates":[7.064036,51.18981],"type":"Point"},"properties":{"osm_id":"6473647458","tag":{"amenity":"waste_basket","material":"metal"}},"type":"Feature"},
	{"geometry":{"coordinates":[7.08796,51.223316],"type":"Point"},"properties":{"osm_id":"6604918660","tag":{"access":"private","amenity":"waste_disposal","covered":"yes","operator":"Private Realschule Boltenheide"}},"type":"Feature"},
	{"geometry":{"coordinates":[7.088494,51.223691],"type":"Point"},"properties":{"osm_id":"6605632655","tag":{"amenity":"waste_basket","waste":"trash"}},"type":"Feature"},
	{"geometry":{"coordinates":[7.088904,51.223608],"type":"Point"},"properties":{"osm_id":"6605632659","tag":{"amenity":"waste_basket","waste":"trash"}},"type":"Feature"},
	{"geometry":{"coordinates":[7.088271,51.223512],"type":"Point"},"properties":{"osm_id":"6605632660","tag":{"amenity":"waste_basket","waste":"trash"}},"type":"Feature"},
	{"geometry":{"coordinates":[7.088778,51.223771],"type":"Point"},"properties":{"osm_id":"6605632665","tag":{"amenity":"waste_basket","waste":"trash"}},"type":"Feature"},
	{"geometry":{"coordinates":[7.085277,51.229236],"type":"Point"},"properties":{"osm_id":"6617045643","tag":{"amenity":"waste_basket","waste":"trash"}},"type":"Feature"},
	{"geometry":{"coordinates":[7.057047,51.194032],"type":"Point"},"properties":{"osm_id":"6700092230","tag":{"amenity":"recycling","recycling:clothes":"yes","recycling:shoes":"yes","recycling_type":"container"}},"type":"Feature"},
	{"geometry":{"coordinates":[7.053574,51.219647],"type":"Point"},"properties":{"osm_id":"6710955107","tag":{"amenity":"recycling","opening_hours":"Mo-Sa 07:00-20:00; Su,PH off","operator":"Abfallwirtschaftsgesellschaft Wuppertal","operator:short":"AWG","recycling:glass_bottles":"yes","recycling_type":"container"}},"type":"Feature"},
	{"geometry":{"coordinates":[7.053587,51.219635],"type":"Point"},"properties":{"osm_id":"6710955108","tag":{"amenity":"recycling","operator":"Abfallwirtschaftsgesellschaft Wuppertal","operator:short":"AWG","recycling:cardboard":"yes","recycling:clothes":"yes","recycling:paper":"yes","recycling:small_electrical_appliances":"yes","recycling_type":"container"}},"type":"Feature"},
	{"geometry":{"coordinates":[7.110303,51.191569],"type":"Point"},"properties":{"osm_id":"6727117976","tag":{"amenity":"recycling","donation":"yes","recycling:clothes":"yes","recycling:shoes":"yes","recycling_type":"container"}},"type":"Feature"},
	{"geometry":{"coordinates":[7.110276,51.191493],"type":"Point"},"properties":{"osm_id":"6727160881","tag":{"amenity":"waste_basket","material":"metal"}},"type":"Feature"},
	{"geometry":{"coordinates":[7.077295,51.230507],"type":"Point"},"properties":{"osm_id":"6858493776","tag":{"amenity":"waste_basket","material":"metal","operator":"Stadt Wuppertal"}},"type":"Feature"},
	{"geometry":{"coordinates":[7.080658,51.21981],"type":"Point"},"properties":{"osm_id":"6935652647","tag":{"amenity":"recycling","opening_hours":"Mo-Sa 07:00-20:00; Su,PH off","operator":"Abfallwirtschaftsgesellschaft Wuppertal","operator:short":"AWG","operator:wikidata":"Q23787400","recycling:glass_bottles":"yes","recycling_type":"container"}},"type":"Feature"},
	{"geometry":{"coordinates":[7.059968,51.216184],"type":"Point"},"properties":{"osm_id":"6935810917","tag":{"amenity":"recycling","opening_hours":"Mo-Sa 07:00-20:00; Su,PH off","operator":"Abfallwirtschaftsgesellschaft Wuppertal","operator:short":"AWG","operator:wikidata":"Q23787400","recycling:glass_bottles":"yes","recycling_type":"container"}},"type":"Feature"},
	{"geometry":{"coordinates":[7.059942,51.216237],"type":"Point"},"properties":{"osm_id":"6935810918","tag":{"amenity":"recycling","operator":"Abfallwirtschaftsgesellschaft Wuppertal","operator:short":"AWG","operator:wikidata":"Q23787400","recycling:cardboard":"yes","recycling:clothes":"yes","recycling:paper":"yes","recycling:small_electrical_appliances":"yes","recycling_type":"container"}},"type":"Feature"},
	{"geometry":{"coordinates":[7.05746,51.209186],"type":"Point"},"properties":{"osm_id":"7325534386","tag":{"amenity":"waste_basket"}},"type":"Feature"},
	{"geometry":{"coordinates":[7.055298,51.195229],"type":"Point"},"properties":{"osm_id":"7653309677","tag":{"amenity":"waste_basket"}},"type":"Feature"},
	{"geometry":{"coordinates":[7.072681,51.208378],"type":"Point"},"properties":{"osm_id":"7747532715","tag":{"amenity":"waste_basket"}},"type":"Feature"},
	{"geometry":{"coordinates":[7.080963,51.219409],"type":"Point"},"properties":{"osm_id":"7747565289","tag":{"amenity":"recycling"}},"type":"Feature"},
	{"geometry":{"coordinates":[7.084508,51.233664],"type":"Point"},"properties":{"osm_id":"7872435789","tag":{"amenity":"waste_basket","ashtray":"no","material":"metal","support":"pole"}},"type":"Feature"}
]
}
