{
"type": "FeatureCollection",
"features": [
	{"geometry":{"coordinates":[7.040763,51.024731],"type":"Point"},"properties":{"osm_id":"269061885","tag":{"traffic_calming":"choker"}},"type":"Feature"},
	{"geometry":{"coordinates":[7.042929,51.025323],"type":"Point"},"properties":{"highway":"turning_circle","osm_id":"269061905"},"type":"Feature"},
	{"geometry":{"coordinates":[7.045658,51.030827],"type":"Point"},"properties":{"osm_id":"442698901","tag":{"amenity":"recycling","recycling:clothes":"yes","recycling:glass_bottles":"yes","recycling_type":"container"}},"type":"Feature"},
	{"geometry":{"coordinates":[7.0592,51.068656],"type":"Point"},"properties":{"osm_id":"506079463","tag":{"amenity":"recycling","location":"overground","recycling:clothes":"yes","recycling:glass_bottles":"yes","recycling:shoes":"yes","recycling:small_appliances":"yes","recycling_type":"container"}},"type":"Feature"},
	{"geometry":{"coordinates":[7.057806,51.065576],"type":"Point"},"properties":{"osm_id":"622887241","tag":{"amenity":"recycling","recycling:glass_bottles":"yes","recycling_type":"container"}},"type":"Feature"},
	{"geometry":{"coordinates":[7.052728,51.038483],"type":"Point"},"properties":{"osm_id":"648562754","tag":{"amenity":"recycling","operator":"AVEA","recycling:batteries":"yes","recycling_type":"container"}},"type":"Feature"},
	{"geometry":{"coordinates":[7.063952,51.036739],"type":"Point"},"properties":{"osm_id":"648562760","tag":{"amenity":"recycling","operator":"reloga;AVEA","recycling:clothes":"yes","recycling:glass_bottles":"yes","recycling:small_appliances":"yes","recycling_type":"container"}},"type":"Feature"},
	{"geometry":{"coordinates":[7.050836,51.041373],"type":"Point"},"properties":{"osm_id":"648863409","tag":{"amenity":"recycling","operator":"AVEA;reloga","recycling:clothes":"yes","recycling:glass_bottles":"yes","recycling:small_appliances":"yes","recycling_type":"container"}},"type":"Feature"},
	{"geometry":{"coordinates":[7.059955,51.04786],"type":"Point"},"properties":{"osm_id":"703377986","tag":{"amenity":"recycling","location":"overground","operator":"reloga","recycling:glass_bottles":"yes","recycling_type":"container"}},"type":"Feature"},
	{"geometry":{"coordinates":[7.03201,51.037545],"type":"Point"},"properties":{"osm_id":"773914889","tag":{"amenity":"recycling","operator":"reloga","recycling:glass":"yes","recycling_type":"container"}},"type":"Feature"},
	{"geometry":{"coordinates":[7.04121,51.021689],"type":"Point"},"properties":{"osm_id":"794209015","tag":{"amenity":"recycling","recycling:clothes":"yes","recycling:glass":"yes"}},"type":"Feature"},
	{"geometry":{"coordinates":[7.058995,51.038804],"type":"Point"},"properties":{"osm_id":"1576955931","tag":{"amenity":"recycling","operator":"avea;reloga","recycling:clothes":"yes","recycling:glass_bottles":"yes","recycling:small_appliances":"yes","recycling_type":"container"}},"type":"Feature"},
	{"geometry":{"coordinates":[7.07133,51.042203],"type":"Point"},"properties":{"osm_id":"1674638784","tag":{"amenity":"recycling","recycling_type":"container"}},"type":"Feature"},
	{"geometry":{"coordinates":[7.071582,51.038263],"type":"Point"},"properties":{"osm_id":"1674638788","tag":{"amenity":"recycling","recycling_type":"container"}},"type":"Feature"},
	{"geometry":{"coordinates":[7.071531,51.057811],"type":"Point"},"properties":{"osm_id":"1933609718","tag":{"amenity":"recycling","recycling:clothes":"yes","recycling:glass":"yes","recycling_type":"container"}},"type":"Feature"},
	{"geometry":{"coordinates":[7.056752,51.028282],"type":"Point"},"properties":{"name":"Kleider- & Glascontainer","osm_id":"2411421976","tag":{"amenity":"recycling","recycling:batteries":"no","recycling:books":"no","recycling:cans":"no","recycling:cardboard":"no","recycling:cartons":"no","recycling:clothes":"yes","recycling:electrical_appliances":"no","recycling:glass":"no","recycling:glass_bottles":"yes","recycling:green_waste":"no","recycling:magazines":"no","recycling:newspaper":"no","recycling:paper":"no","recycling:paper_packaging":"no","recycling:plastic":"no","recycling:plastic_bottles":"no","recycling:plastic_packaging":"no","recycling:scrap_metal":"no","recycling:small_appliances":"no","recycling:waste":"no","recycling:wood":"no","recycling_type":"container"}},"type":"Feature"},
	{"geometry":{"coordinates":[7.058337,51.064956],"type":"Point"},"properties":{"osm_id":"2659280690","tag":{"amenity":"recycling","location":"overground","recycling:clothes":"yes","recycling_type":"container"}},"type":"Feature"},
	{"geometry":{"coordinates":[7.054232,51.025973],"type":"Point"},"properties":{"name":"Kleider- & Glascontainer","osm_id":"2721895642","tag":{"amenity":"recycling","recycling:batteries":"no","recycling:books":"no","recycling:cans":"no","recycling:cardboard":"no","recycling:cartons":"no","recycling:clothes":"yes","recycling:electrical_appliances":"yes","recycling:glass":"no","recycling:glass_bottles":"yes","recycling:green_waste":"no","recycling:magazines":"no","recycling:newspaper":"no","recycling:paper":"no","recycling:paper_packaging":"no","recycling:plastic":"no","recycling:plastic_bottles":"no","recycling:plastic_packaging":"no","recycling:scrap_metal":"no","recycling:small_appliances":"no","recycling:waste":"no","recycling:wood":"no","recycling_type":"container"}},"type":"Feature"},
	{"geometry":{"coordinates":[7.049075,51.032652],"type":"Point"},"properties":{"osm_id":"2733840267","tag":{"amenity":"recycling","recycling:batteries":"no","recycling:books":"no","recycling:cans":"no","recycling:cardboard":"no","recycling:cartons":"no","recycling:clothes":"no","recycling:electrical_appliances":"no","recycling:glass":"yes","recycling:glass_bottles":"yes","recycling:green_waste":"no","recycling:magazines":"no","recycling:newspaper":"no","recycling:paper":"no","recycling:paper_packaging":"no","recycling:plastic":"no","recycling:plastic_bottles":"no","recycling:plastic_packaging":"no","recycling:scrap_metal":"no","recycling:small_appliances":"no","recycling:waste":"no","recycling:wood":"no","recycling_type":"container"}},"type":"Feature"},
	{"geometry":{"coordinates":[7.04986,51.027299],"type":"Point"},"properties":{"osm_id":"2736071757","tag":{"amenity":"recycling","recycling:glass_bottles":"yes","recycling_type":"container"}},"type":"Feature"},
	{"geometry":{"coordinates":[7.055837,51.048886],"type":"Point"},"properties":{"name":"Recyclingcontainer","osm_id":"2754428098","tag":{"amenity":"recycling","recycling:batteries":"no","recycling:books":"no","recycling:cans":"no","recycling:cardboard":"no","recycling:cartons":"no","recycling:clothes":"yes","recycling:electrical_appliances":"yes","recycling:glass":"no","recycling:glass_bottles":"yes","recycling:green_waste":"no","recycling:magazines":"no","recycling:newspaper":"no","recycling:paper":"no","recycling:paper_packaging":"no","recycling:plastic":"no","recycling:plastic_bottles":"no","recycling:plastic_packaging":"no","recycling:scrap_metal":"no","recycling:small_appliances":"no","recycling:waste":"no","recycling:wood":"no","recycling_type":"container"}},"type":"Feature"},
	{"geometry":{"coordinates":[7.058121,51.05536],"type":"Point"},"properties":{"osm_id":"2754440656","tag":{"amenity":"recycling","operator":"AVEA;reloga","recycling:batteries":"no","recycling:books":"no","recycling:cans":"no","recycling:cardboard":"no","recycling:cartons":"no","recycling:clothes":"no","recycling:electrical_appliances":"yes","recycling:glass":"no","recycling:glass_bottles":"yes","recycling:green_waste":"no","recycling:magazines":"no","recycling:newspaper":"no","recycling:paper":"no","recycling:paper_packaging":"no","recycling:plastic":"no","recycling:plastic_bottles":"no","recycling:plastic_packaging":"no","recycling:scrap_metal":"no","recycling:small_appliances":"no","recycling:waste":"no","recycling:wood":"no","recycling_type":"container"}},"type":"Feature"},
	{"geometry":{"coordinates":[7.05786,51.063806],"type":"Point"},"properties":{"osm_id":"2754444365","tag":{"amenity":"recycling","recycling:clothes":"yes","recycling:glass_bottles":"yes","recycling_type":"container"}},"type":"Feature"},
	{"geometry":{"coordinates":[7.064437,51.052465],"type":"Point"},"properties":{"osm_id":"2754550378","tag":{"amenity":"recycling","operator":"avea;reloga","recycling:clothes":"yes","recycling:glass_bottles":"yes","recycling_type":"container"}},"type":"Feature"},
	{"geometry":{"coordinates":[7.045959,51.033364],"type":"Point"},"properties":{"osm_id":"2777316216","tag":{"amenity":"recycling","recycling:clothes":"yes","recycling:glass_bottles":"yes","recycling_type":"container"}},"type":"Feature"},
	{"geometry":{"coordinates":[7.039999,51.029768],"type":"Point"},"properties":{"osm_id":"2789261958","tag":{"amenity":"recycling","recycling:batteries":"no","recycling:books":"no","recycling:cans":"no","recycling:cardboard":"no","recycling:cartons":"no","recycling:clothes":"yes","recycling:electrical_appliances":"no","recycling:glass":"yes","recycling:glass_bottles":"yes","recycling:green_waste":"no","recycling:magazines":"no","recycling:newspaper":"no","recycling:paper":"no","recycling:paper_packaging":"no","recycling:plastic":"no","recycling:plastic_bottles":"no","recycling:plastic_packaging":"no","recycling:scrap_metal":"no","recycling:small_appliances":"no","recycling:waste":"no","recycling:wood":"no","recycling_type":"container"}},"type":"Feature"},
	{"geometry":{"coordinates":[7.060822,51.05008],"type":"Point"},"properties":{"osm_id":"2843557875","tag":{"amenity":"recycling"}},"type":"Feature"},
	{"geometry":{"coordinates":[7.0735,51.020768],"type":"Point"},"properties":{"osm_id":"2850392267","tag":{"amenity":"recycling","recycling:glass_bottles":"yes","recycling_type":"container"}},"type":"Feature"},
	{"geometry":{"coordinates":[7.060964,51.026283],"type":"Point"},"properties":{"osm_id":"2865865525","tag":{"amenity":"recycling","recycling:glass_bottles":"yes","recycling_type":"container"}},"type":"Feature"},
	{"geometry":{"coordinates":[7.052712,51.038657],"type":"Point"},"properties":{"osm_id":"3264348696","tag":{"amenity":"recycling","operator":"reloga;AVEA","recycling:clothes":"yes","recycling:glass":"yes","recycling_type":"container"}},"type":"Feature"},
	{"geometry":{"coordinates":[7.052781,51.038636],"type":"Point"},"properties":{"name":"Schadstoffmobil","osm_id":"3264348697","tag":{"amenity":"recycling","opening_hours":"\"once per month\"","operator":"AVEA","recycling:hazardous_waste":"yes"}},"type":"Feature"},
	{"geometry":{"coordinates":[7.05099,51.041329],"type":"Point"},"properties":{"name":"Gr\u00c3\u00bcnschnitt","osm_id":"3264348698","tag":{"amenity":"recycling","opening_hours":"Tu 16:00-19:00","operator":"AVEA","recycling:green_waste":"yes","recycling_type":"container"}},"type":"Feature"},
	{"geometry":{"coordinates":[7.049409,51.040925],"type":"Point"},"properties":{"osm_id":"3264374582","tag":{"amenity":"recycling","recycling:clothes":"yes","recycling_type":"container"}},"type":"Feature"},
	{"geometry":{"coordinates":[7.040001,51.040366],"type":"Point"},"properties":{"osm_id":"3280182258","tag":{"amenity":"recycling","recycling:cans":"no","recycling:clothes":"yes","recycling:glass":"yes","recycling:paper":"no","recycling_type":"container"}},"type":"Feature"},
	{"geometry":{"coordinates":[7.06893,51.039066],"type":"Point"},"properties":{"name":"Gr\u00c3\u00bcnschnitt","osm_id":"3408650977","tag":{"amenity":"recycling","operator":"AVEA","recycling:green_waste":"yes","recycling_type":"container"}},"type":"Feature"},
	{"geometry":{"coordinates":[7.06336,51.0414],"type":"Point"},"properties":{"osm_id":"3414297012","tag":{"amenity":"recycling","operator":"reloga;AVEA","recycling:clothes":"yes","recycling:glass":"yes","recycling_type":"container"}},"type":"Feature"},
	{"geometry":{"coordinates":[7.044837,51.043151],"type":"Point"},"properties":{"osm_id":"3414299149","tag":{"amenity":"recycling","operator":"reloga","recycling:glass":"yes","recycling_type":"container"}},"type":"Feature"},
	{"geometry":{"coordinates":[7.04715,51.036449],"type":"Point"},"properties":{"osm_id":"3421716914","tag":{"amenity":"recycling","operator":"reloga;AVEA","recycling:clothes":"yes","recycling:glass":"yes"}},"type":"Feature"},
	{"geometry":{"coordinates":[7.043953,51.039516],"type":"Point"},"properties":{"osm_id":"3422074376","tag":{"amenity":"recycling","operator":"reloga;AVEA","recycling:clothes":"yes","recycling:glass":"yes","recycling_type":"container"}},"type":"Feature"},
	{"geometry":{"coordinates":[7.035225,51.058329],"type":"Point"},"properties":{"osm_id":"3718579494","tag":{"amenity":"recycling","recycling:books":"yes","recycling:cartons":"yes","recycling:clothes":"yes","recycling:electrical_appliances":"yes","recycling:glass":"yes","recycling:glass_bottles":"yes","recycling:magazines":"yes","recycling:newspaper":"yes","recycling:paper":"yes","recycling:paper_packaging":"yes","recycling_type":"container"}},"type":"Feature"},
	{"geometry":{"coordinates":[7.061598,51.022021],"type":"Point"},"properties":{"osm_id":"4157449165","tag":{"amenity":"recycling","opening_hours":"Sa 11:00-15:00","recycling:green_waste":"yes","recycling_type":"container","wheelchair":"limited"}},"type":"Feature"},
	{"geometry":{"coordinates":[7.088737,51.051397],"type":"Point"},"properties":{"osm_id":"4157449166","tag":{"amenity":"recycling","operator":"AVEA","recycling:clothes":"yes","recycling_type":"container"}},"type":"Feature"},
	{"geometry":{"coordinates":[7.041182,51.064796],"type":"Point"},"properties":{"name":"Altglascontainer L\u00c3\u00bctzenkirchener Str. / Otto-Hahn-Str.","osm_id":"4320902465","tag":{"amenity":"recycling","location":"overground","operator":"AVEA GmbH & Co. KG","recycling:glass":"yes","recycling_type":"container"}},"type":"Feature"},
	{"geometry":{"coordinates":[7.036656,51.064067],"type":"Point"},"properties":{"name":"Altglascontainer In Der Dasladen / An der Felderh\u00c3\u00bctten","osm_id":"4320902466","tag":{"amenity":"recycling","location":"overground","operator":"AVEA GmbH & Co. KG","recycling:glass":"yes","recycling_type":"container"}},"type":"Feature"},
	{"geometry":{"coordinates":[7.03798,51.065892],"type":"Point"},"properties":{"osm_id":"4320907063","tag":{"amenity":"waste_disposal"}},"type":"Feature"},
	{"geometry":{"coordinates":[7.037981,51.065882],"type":"Point"},"properties":{"osm_id":"4320907064","tag":{"amenity":"waste_disposal"}},"type":"Feature"},
	{"geometry":{"coordinates":[7.037924,51.065896],"type":"Point"},"properties":{"osm_id":"4320907065","tag":{"amenity":"waste_disposal"}},"type":"Feature"},
	{"geometry":{"coordinates":[7.037924,51.065883],"type":"Point"},"properties":{"osm_id":"4320907066","tag":{"amenity":"waste_disposal"}},"type":"Feature"},
	{"geometry":{"coordinates":[7.088911,51.051505],"type":"Point"},"properties":{"osm_id":"4476004149","tag":{"amenity":"recycling","operator":"AVEA","recycling:glass_bottles":"yes","recycling_type":"container"}},"type":"Feature"},
	{"geometry":{"coordinates":[7.033236,51.030926],"type":"Point"},"properties":{"osm_id":"4655689211","tag":{"amenity":"waste_basket"}},"type":"Feature"},
	{"geometry":{"coordinates":[7.03289,51.031219],"type":"Point"},"properties":{"osm_id":"4655689216","tag":{"amenity":"waste_basket"}},"type":"Feature"},
	{"geometry":{"coordinates":[7.032935,51.031476],"type":"Point"},"properties":{"osm_id":"4655689217","tag":{"amenity":"waste_basket"}},"type":"Feature"},
	{"geometry":{"coordinates":[7.032959,51.031585],"type":"Point"},"properties":{"osm_id":"4655689218","tag":{"amenity":"waste_basket"}},"type":"Feature"},
	{"geometry":{"coordinates":[7.032651,51.031716],"type":"Point"},"properties":{"osm_id":"4655689220","tag":{"amenity":"waste_basket"}},"type":"Feature"},
	{"geometry":{"coordinates":[7.032603,51.031428],"type":"Point"},"properties":{"osm_id":"4655689222","tag":{"amenity":"waste_basket"}},"type":"Feature"},
	{"geometry":{"coordinates":[7.032156,51.031299],"type":"Point"},"properties":{"osm_id":"4655689226","tag":{"amenity":"waste_basket"}},"type":"Feature"},
	{"geometry":{"coordinates":[7.116219,51.029099],"type":"Point"},"properties":{"osm_id":"4718429002","tag":{"amenity":"recycling","recycling:clothes":"yes","recycling:electrical_appliances":"yes","recycling:glass":"yes","recycling:glass_bottles":"yes","recycling:shoes":"yes","recycling_type":"container"}},"type":"Feature"},
	{"geometry":{"coordinates":[7.108887,51.030703],"type":"Point"},"properties":{"osm_id":"4718432597","tag":{"amenity":"recycling","recycling:glass":"yes","recycling:glass_bottles":"yes","recycling_type":"container"}},"type":"Feature"},
	{"geometry":{"coordinates":[7.046885,51.037489],"type":"Point"},"properties":{"osm_id":"4876666648","tag":{"amenity":"waste_basket"}},"type":"Feature"},
	{"geometry":{"coordinates":[7.0822,51.048384],"type":"Point"},"properties":{"osm_id":"5319198144","tag":{"amenity":"waste_basket"}},"type":"Feature"},
	{"geometry":{"coordinates":[7.083367,51.050524],"type":"Point"},"properties":{"osm_id":"5319198148","tag":{"amenity":"waste_basket"}},"type":"Feature"},
	{"geometry":{"coordinates":[7.084067,51.051286],"type":"Point"},"properties":{"osm_id":"5319198150","tag":{"amenity":"waste_basket"}},"type":"Feature"},
	{"geometry":{"coordinates":[7.061304,51.043981],"type":"Point"},"properties":{"osm_id":"5319202746","tag":{"amenity":"recycling","operator":"reloga","recycling:glass_bottles":"yes","recycling:paper":"yes","recycling_type":"container"}},"type":"Feature"},
	{"geometry":{"coordinates":[7.061286,51.044005],"type":"Point"},"properties":{"osm_id":"5319202747","tag":{"amenity":"recycling","operator":"AVEA","recycling:clothes":"yes","recycling_type":"container"}},"type":"Feature"},
	{"geometry":{"coordinates":[7.064283,51.044079],"type":"Point"},"properties":{"osm_id":"5319202748","tag":{"amenity":"waste_basket"}},"type":"Feature"},
	{"geometry":{"coordinates":[7.064372,51.04412],"type":"Point"},"properties":{"osm_id":"5319202750","tag":{"amenity":"waste_basket"}},"type":"Feature"},
	{"geometry":{"coordinates":[7.064894,51.044381],"type":"Point"},"properties":{"osm_id":"5319202753","tag":{"amenity":"waste_basket"}},"type":"Feature"},
	{"geometry":{"coordinates":[7.065492,51.044667],"type":"Point"},"properties":{"osm_id":"5319202757","tag":{"amenity":"waste_basket"}},"type":"Feature"},
	{"geometry":{"coordinates":[7.07763,51.047195],"type":"Point"},"properties":{"osm_id":"5319202762","tag":{"amenity":"waste_basket"}},"type":"Feature"},
	{"geometry":{"coordinates":[7.077964,51.047181],"type":"Point"},"properties":{"osm_id":"5319202765","tag":{"amenity":"waste_basket"}},"type":"Feature"},
	{"geometry":{"coordinates":[7.05837,51.055172],"type":"Point"},"properties":{"osm_id":"5467853732","tag":{"amenity":"recycling","operator":"AVEA","recycling:clothes":"yes","recycling:shoes":"yes","recycling_type":"container"}},"type":"Feature"},
	{"geometry":{"coordinates":[7.037703,51.031486],"type":"Point"},"properties":{"osm_id":"5760808731","tag":{"amenity":"waste_basket"}},"type":"Feature"},
	{"geometry":{"coordinates":[7.037906,51.031728],"type":"Point"},"properties":{"osm_id":"5760808733","tag":{"amenity":"waste_basket"}},"type":"Feature"},
	{"geometry":{"coordinates":[7.037702,51.031796],"type":"Point"},"properties":{"osm_id":"5760808736","tag":{"amenity":"waste_basket"}},"type":"Feature"},
	{"geometry":{"coordinates":[7.037517,51.031739],"type":"Point"},"properties":{"osm_id":"5760808738","tag":{"amenity":"waste_basket"}},"type":"Feature"},
	{"geometry":{"coordinates":[7.036984,51.031423],"type":"Point"},"properties":{"osm_id":"5760808742","tag":{"amenity":"waste_basket"}},"type":"Feature"},
	{"geometry":{"coordinates":[7.054145,51.034691],"type":"Point"},"properties":{"osm_id":"5887276783","tag":{"amenity":"waste_basket"}},"type":"Feature"},
	{"geometry":{"coordinates":[7.032787,51.066203],"type":"Point"},"properties":{"osm_id":"6226113258","tag":{"amenity":"waste_basket"}},"type":"Feature"},
	{"geometry":{"coordinates":[7.054085,51.065326],"type":"Point"},"properties":{"osm_id":"6796599143","tag":{"amenity":"waste_basket"}},"type":"Feature"},
	{"geometry":{"coordinates":[7.053848,51.065231],"type":"Point"},"properties":{"osm_id":"6796599144","tag":{"amenity":"waste_basket"}},"type":"Feature"},
	{"geometry":{"coordinates":[7.053537,51.065093],"type":"Point"},"properties":{"osm_id":"6796599145","tag":{"amenity":"waste_basket"}},"type":"Feature"},
	{"geometry":{"coordinates":[7.054389,51.065056],"type":"Point"},"properties":{"osm_id":"6796599146","tag":{"amenity":"waste_basket"}},"type":"Feature"},
	{"geometry":{"coordinates":[7.053805,51.062038],"type":"Point"},"properties":{"osm_id":"6808206037","tag":{"amenity":"recycling","recycling:clothes":"yes","recycling:glass_bottles":"yes","recycling:small_electrical_appliances":"yes","recycling_type":"container"}},"type":"Feature"},
	{"geometry":{"coordinates":[7.050234,51.064479],"type":"Point"},"properties":{"osm_id":"6808206063","tag":{"amenity":"recycling","recycling:glass_bottles":"yes","recycling_type":"container"}},"type":"Feature"},
	{"geometry":{"coordinates":[7.056171,51.059922],"type":"Point"},"properties":{"osm_id":"6811880355","tag":{"amenity":"recycling","recycling:glass":"no","recycling:glass_bottles":"yes","recycling_type":"container"}},"type":"Feature"},
	{"geometry":{"coordinates":[7.033478,51.039943],"type":"Point"},"properties":{"osm_id":"7129369014","tag":{"amenity":"waste_basket"}},"type":"Feature"},
	{"geometry":{"coordinates":[7.033287,51.039822],"type":"Point"},"properties":{"osm_id":"7129369015","tag":{"amenity":"waste_basket"}},"type":"Feature"},
	{"geometry":{"coordinates":[7.036179,51.039507],"type":"Point"},"properties":{"osm_id":"7129369018","tag":{"amenity":"waste_basket"}},"type":"Feature"},
	{"geometry":{"coordinates":[7.035932,51.039508],"type":"Point"},"properties":{"osm_id":"7129369020","tag":{"amenity":"waste_basket"}},"type":"Feature"},
	{"geometry":{"coordinates":[7.035137,51.040169],"type":"Point"},"properties":{"osm_id":"7129369022","tag":{"amenity":"waste_basket"}},"type":"Feature"},
	{"geometry":{"coordinates":[7.034721,51.040155],"type":"Point"},"properties":{"osm_id":"7129369025","tag":{"amenity":"waste_basket"}},"type":"Feature"},
	{"geometry":{"coordinates":[7.040259,51.031933],"type":"Point"},"properties":{"osm_id":"7372055359","tag":{"amenity":"waste_basket"}},"type":"Feature"},
	{"geometry":{"coordinates":[7.041353,51.032183],"type":"Point"},"properties":{"osm_id":"7372055361","tag":{"amenity":"waste_basket"}},"type":"Feature"},
	{"geometry":{"coordinates":[7.04216,51.032139],"type":"Point"},"properties":{"osm_id":"7372055363","tag":{"amenity":"waste_basket"}},"type":"Feature"},
	{"geometry":{"coordinates":[7.043015,51.032305],"type":"Point"},"properties":{"osm_id":"7372055365","tag":{"amenity":"waste_basket"}},"type":"Feature"},
	{"geometry":{"coordinates":[7.046612,51.032392],"type":"Point"},"properties":{"osm_id":"7372055370","tag":{"amenity":"waste_basket"}},"type":"Feature"},
	{"geometry":{"coordinates":[7.083155,51.018089],"type":"Point"},"properties":{"osm_id":"7380360224","tag":{"amenity":"waste_basket","waste":"trash"}},"type":"Feature"},
	{"geometry":{"coordinates":[7.057655,51.048726],"type":"Point"},"properties":{"osm_id":"7425226186","tag":{"amenity":"waste_basket"}},"type":"Feature"},
	{"geometry":{"coordinates":[7.05808,51.048712],"type":"Point"},"properties":{"osm_id":"7425226188","tag":{"amenity":"waste_basket"}},"type":"Feature"},
	{"geometry":{"coordinates":[7.069126,51.054931],"type":"Point"},"properties":{"osm_id":"7425268698","tag":{"amenity":"recycling","operator":"avea;reloga","recycling:clothes":"yes","recycling:glass_bottles":"yes","recycling:shoes":"yes","recycling_type":"container"}},"type":"Feature"},
	{"geometry":{"coordinates":[7.066227,51.053701],"type":"Point"},"properties":{"osm_id":"7425268699","tag":{"amenity":"waste_basket"}},"type":"Feature"},
	{"geometry":{"coordinates":[7.062271,51.049826],"type":"Point"},"properties":{"osm_id":"7425268700","tag":{"amenity":"recycling","operator":"avea","recycling:clothes":"yes","recycling:shoes":"yes","recycling_type":"container"}},"type":"Feature"},
	{"geometry":{"coordinates":[7.060078,51.047803],"type":"Point"},"properties":{"osm_id":"7425268701","tag":{"amenity":"recycling","operator":"avea","recycling:clothes":"yes","recycling:shoes":"yes","recycling_type":"container"}},"type":"Feature"},
	{"geometry":{"coordinates":[7.057863,51.0654],"type":"Point"},"properties":{"osm_id":"7435473322","tag":{"amenity":"recycling","operator":"reloga","recycling:glass_bottles":"yes","recycling_type":"container"}},"type":"Feature"},
	{"geometry":{"coordinates":[7.074019,51.058918],"type":"Point"},"properties":{"osm_id":"7489086685","tag":{"amenity":"recycling","operator":"reloga","recycling:glass_bottles":"yes","recycling_type":"container"}},"type":"Feature"},
	{"geometry":{"coordinates":[7.073829,51.062983],"type":"Point"},"properties":{"osm_id":"7489086686","tag":{"amenity":"recycling","operator":"avea;reloga","recycling:clothes":"yes","recycling:glass_bottles":"yes","recycling:shoes":"yes","recycling_type":"container"}},"type":"Feature"},
	{"geometry":{"coordinates":[7.084728,51.050118],"type":"Point"},"properties":{"osm_id":"7501933390","tag":{"amenity":"waste_basket"}},"type":"Feature"},
	{"geometry":{"coordinates":[7.086328,51.04964],"type":"Point"},"properties":{"osm_id":"7501933393","tag":{"amenity":"waste_basket"}},"type":"Feature"},
	{"geometry":{"coordinates":[7.086016,51.049801],"type":"Point"},"properties":{"osm_id":"7501933395","tag":{"amenity":"waste_basket"}},"type":"Feature"},
	{"geometry":{"coordinates":[7.085562,51.049855],"type":"Point"},"properties":{"osm_id":"7501933399","tag":{"amenity":"waste_basket"}},"type":"Feature"},
	{"geometry":{"coordinates":[7.068012,51.054638],"type":"Point"},"properties":{"osm_id":"7538272013","tag":{"amenity":"waste_basket"}},"type":"Feature"},
	{"geometry":{"coordinates":[7.067862,51.054424],"type":"Point"},"properties":{"osm_id":"7538272016","tag":{"amenity":"waste_basket"}},"type":"Feature"},
	{"geometry":{"coordinates":[7.071985,51.045032],"type":"Point"},"properties":{"osm_id":"7643949743","tag":{"amenity":"recycling","operator":"reloga","recycling:glass_bottles":"yes","recycling_type":"container"}},"type":"Feature"},
	{"geometry":{"coordinates":[7.035012,51.040733],"type":"Point"},"properties":{"osm_id":"7647503548","tag":{"amenity":"waste_basket"}},"type":"Feature"},
	{"geometry":{"coordinates":[7.098353,51.068448],"type":"Point"},"properties":{"osm_id":"7786966685","tag":{"amenity":"waste_basket"}},"type":"Feature"}
]
}
