{
"type": "FeatureCollection",
"features": [
	{"geometry":{"coordinates":[7.102719,50.990759],"type":"Point"},"properties":{"osm_id":"268264732","tag":{"amenity":"recycling","recycling:batteries":"yes","recycling:clothes":"yes","recycling:glass":"yes"}},"type":"Feature"},
	{"geometry":{"coordinates":[7.064708,50.984435],"type":"Point"},"properties":{"osm_id":"274106632","tag":{"amenity":"waste_basket","vending":"excrement_bags","waste":"dog_excrement"}},"type":"Feature"},
	{"geometry":{"coordinates":[7.031841,50.985096],"type":"Point"},"properties":{"osm_id":"288880879","tag":{"amenity":"recycling","recycling:glass_bottles":"yes","recycling_type":"container"}},"type":"Feature"},
	{"geometry":{"coordinates":[7.043465,50.971929],"type":"Point"},"properties":{"osm_id":"288965765","tag":{"amenity":"recycling","location":"overground","recycling:glass_bottles":"yes","recycling_type":"container"}},"type":"Feature"},
	{"geometry":{"coordinates":[7.037506,50.990629],"type":"Point"},"properties":{"osm_id":"289104372","tag":{"amenity":"recycling","recycling:glass":"yes"}},"type":"Feature"},
	{"geometry":{"coordinates":[7.043008,50.976108],"type":"Point"},"properties":{"osm_id":"290818933","tag":{"amenity":"recycling","location":"overground","recycling:glass":"yes","recycling_type":"container"}},"type":"Feature"},
	{"geometry":{"coordinates":[7.04848,50.972729],"type":"Point"},"properties":{"osm_id":"291581512","tag":{"amenity":"recycling","recycling:glass_bottles":"yes"}},"type":"Feature"},
	{"geometry":{"coordinates":[7.05116,50.972999],"type":"Point"},"properties":{"osm_id":"292321759","tag":{"amenity":"recycling","recycling:clothes":"yes","recycling:glass_bottles":"yes","recycling:shoes":"yes"}},"type":"Feature"},
	{"geometry":{"coordinates":[7.046166,50.964732],"type":"Point"},"properties":{"osm_id":"308653762","tag":{"amenity":"recycling","location":"overground","recycling:glass":"yes","recycling_type":"container"}},"type":"Feature"},
	{"geometry":{"coordinates":[7.033304,50.975475],"type":"Point"},"properties":{"osm_id":"320718194","tag":{"amenity":"recycling","recycling:glass":"yes"}},"type":"Feature"},
	{"geometry":{"coordinates":[7.034646,50.975878],"type":"Point"},"properties":{"osm_id":"320718213","tag":{"amenity":"recycling","recycling:clothes":"yes"}},"type":"Feature"},
	{"geometry":{"coordinates":[7.038845,50.976021],"type":"Point"},"properties":{"osm_id":"320718484","tag":{"amenity":"recycling","recycling:glass":"yes"}},"type":"Feature"},
	{"geometry":{"coordinates":[7.049569,50.979168],"type":"Point"},"properties":{"osm_id":"320884693","tag":{"amenity":"recycling","recycling:glass":"yes","recycling_type":"container"}},"type":"Feature"},
	{"geometry":{"coordinates":[7.035849,50.981027],"type":"Point"},"properties":{"osm_id":"320884925","tag":{"amenity":"recycling","operator":"FWS","recycling:clothes":"yes"}},"type":"Feature"},
	{"geometry":{"coordinates":[7.033341,50.996727],"type":"Point"},"properties":{"osm_id":"321673542","tag":{"amenity":"recycling","recycling:glass":"yes"}},"type":"Feature"},
	{"geometry":{"coordinates":[7.038745,50.989414],"type":"Point"},"properties":{"osm_id":"324404530","tag":{"amenity":"recycling","recycling:glass":"yes"}},"type":"Feature"},
	{"geometry":{"coordinates":[7.033737,50.968177],"type":"Point"},"properties":{"osm_id":"325852262","tag":{"amenity":"recycling","recycling:clothes":"yes","recycling_type":"container"}},"type":"Feature"},
	{"geometry":{"coordinates":[7.03598,51.008828],"type":"Point"},"properties":{"osm_id":"348344695","tag":{"amenity":"recycling","recycling:glass":"yes"}},"type":"Feature"},
	{"geometry":{"coordinates":[7.100248,50.979635],"type":"Point"},"properties":{"osm_id":"369108996","tag":{"amenity":"recycling","recycling:clothes":"yes","recycling:glass":"yes"}},"type":"Feature"},
	{"geometry":{"coordinates":[7.041608,50.963842],"type":"Point"},"properties":{"osm_id":"415288439","tag":{"amenity":"recycling","location":"overground","recycling:glass":"yes","recycling_type":"container"}},"type":"Feature"},
	{"geometry":{"coordinates":[7.035226,50.981655],"type":"Point"},"properties":{"osm_id":"434804829","tag":{"amenity":"recycling","recycling:clothes":"yes"}},"type":"Feature"},
	{"geometry":{"coordinates":[7.067278,50.966496],"type":"Point"},"properties":{"osm_id":"818942010","tag":{"amenity":"recycling","location":"overground","recycling:glass":"yes","recycling_type":"container"}},"type":"Feature"},
	{"geometry":{"coordinates":[7.033408,50.968858],"type":"Point"},"properties":{"osm_id":"1189357538","tag":{"amenity":"recycling","recycling:glass_bottles":"yes","recycling_type":"container"}},"type":"Feature"},
	{"geometry":{"coordinates":[7.089573,51.006219],"type":"Point"},"properties":{"name":"Torringen","osm_id":"1269580683","tag":{"amenity":"recycling","opening_hours":"Mo-Sa 7:00-20:00","recycling:batteries":"yes","recycling:glass":"yes"}},"type":"Feature"},
	{"geometry":{"coordinates":[7.112873,50.966838],"type":"Point"},"properties":{"osm_id":"1427084854","tag":{"amenity":"recycling"}},"type":"Feature"},
	{"geometry":{"coordinates":[7.040979,50.965912],"type":"Point"},"properties":{"osm_id":"1494067509","tag":{"amenity":"recycling","operator":"REMONDIS","recycling:glass_bottles":"yes","recycling:glass_bottles:colour":"green;brown"}},"type":"Feature"},
	{"geometry":{"coordinates":[7.075189,50.972117],"type":"Point"},"properties":{"osm_id":"1749683234","tag":{"amenity":"recycling","location":"overground","recycling:glass":"yes","recycling_type":"container"}},"type":"Feature"},
	{"geometry":{"coordinates":[7.103269,50.960582],"type":"Point"},"properties":{"osm_id":"1969638862","tag":{"amenity":"recycling","recycling:glass_bottles":"yes","recycling_type":"container"}},"type":"Feature"},
	{"geometry":{"coordinates":[7.083931,51.009192],"type":"Point"},"properties":{"osm_id":"2131626320","ref":"Katterbach","tag":{"amenity":"recycling","recycling:glass_bottles":"yes","recycling_type":"container"}},"type":"Feature"},
	{"geometry":{"coordinates":[7.038885,50.973706],"type":"Point"},"properties":{"osm_id":"2536546265","tag":{"amenity":"waste_basket"}},"type":"Feature"},
	{"geometry":{"coordinates":[7.038884,50.973791],"type":"Point"},"properties":{"osm_id":"2536546314","tag":{"amenity":"waste_basket"}},"type":"Feature"},
	{"geometry":{"coordinates":[7.076316,50.99708],"type":"Point"},"properties":{"osm_id":"2547693787","tag":{"amenity":"waste_basket"}},"type":"Feature"},
	{"geometry":{"coordinates":[7.078967,51.001087],"type":"Point"},"properties":{"osm_id":"2547693792","tag":{"amenity":"waste_basket"}},"type":"Feature"},
	{"geometry":{"coordinates":[7.111057,51.007152],"type":"Point"},"properties":{"osm_id":"2663346282","tag":{"amenity":"waste_basket"}},"type":"Feature"},
	{"geometry":{"coordinates":[7.061525,50.985028],"type":"Point"},"properties":{"osm_id":"2858233533","tag":{"amenity":"recycling","recycling:batteries":"no","recycling:books":"no","recycling:cans":"no","recycling:cardboard":"no","recycling:cartons":"no","recycling:clothes":"no","recycling:electrical_appliances":"no","recycling:glass":"no","recycling:glass_bottles":"yes","recycling:green_waste":"no","recycling:magazines":"no","recycling:newspaper":"no","recycling:paper":"no","recycling:paper_packaging":"no","recycling:plastic":"no","recycling:plastic_bottles":"no","recycling:plastic_packaging":"no","recycling:scrap_metal":"no","recycling:small_appliances":"no","recycling:waste":"no","recycling:wood":"no","recycling_type":"container"}},"type":"Feature"},
	{"geometry":{"coordinates":[7.054321,50.998626],"type":"Point"},"properties":{"osm_id":"2858243622","tag":{"amenity":"recycling","recycling:glass_bottles":"yes","recycling_type":"container"}},"type":"Feature"},
	{"geometry":{"coordinates":[7.043404,51.003363],"type":"Point"},"properties":{"osm_id":"2865913664","tag":{"amenity":"recycling","recycling:batteries":"no","recycling:books":"no","recycling:cans":"no","recycling:cardboard":"no","recycling:cartons":"no","recycling:clothes":"no","recycling:electrical_appliances":"no","recycling:glass":"no","recycling:glass_bottles":"yes","recycling:green_waste":"no","recycling:magazines":"no","recycling:newspaper":"no","recycling:paper":"no","recycling:paper_packaging":"no","recycling:plastic":"no","recycling:plastic_bottles":"no","recycling:plastic_packaging":"no","recycling:scrap_metal":"no","recycling:small_appliances":"no","recycling:waste":"no","recycling:wood":"no","recycling_type":"container"}},"type":"Feature"},
	{"geometry":{"coordinates":[7.046242,50.999285],"type":"Point"},"properties":{"osm_id":"2865918591","tag":{"amenity":"recycling","recycling:batteries":"no","recycling:books":"no","recycling:cans":"no","recycling:cardboard":"no","recycling:cartons":"no","recycling:clothes":"no","recycling:electrical_appliances":"no","recycling:glass":"no","recycling:glass_bottles":"yes","recycling:green_waste":"no","recycling:magazines":"no","recycling:newspaper":"no","recycling:paper":"no","recycling:paper_packaging":"no","recycling:plastic":"no","recycling:plastic_bottles":"no","recycling:plastic_packaging":"no","recycling:scrap_metal":"no","recycling:small_appliances":"no","recycling:waste":"no","recycling:wood":"no","recycling_type":"container"}},"type":"Feature"},
	{"geometry":{"coordinates":[7.075498,51.01052],"type":"Point"},"properties":{"osm_id":"2873338534","tag":{"amenity":"recycling","recycling:glass_bottles":"yes","recycling_type":"container"}},"type":"Feature"},
	{"geometry":{"coordinates":[7.092269,50.999279],"type":"Point"},"properties":{"osm_id":"3237851283","tag":{"amenity":"recycling","recycling:cans":"no","recycling:glass":"yes","recycling:paper":"no"}},"type":"Feature"},
	{"geometry":{"coordinates":[7.037764,50.969436],"type":"Point"},"properties":{"osm_id":"3392121499","tag":{"amenity":"recycling"}},"type":"Feature"},
	{"geometry":{"coordinates":[7.033617,50.989925],"type":"Point"},"properties":{"osm_id":"3442857349","tag":{"amenity":"recycling","operator":"AWB K\u00c3\u00b6ln","recycling:clothes":"yes","recycling_type":"container"}},"type":"Feature"},
	{"geometry":{"coordinates":[7.033563,50.989939],"type":"Point"},"properties":{"osm_id":"3442857350","tag":{"amenity":"recycling","recycling:glass_bottles":"yes","recycling_type":"container"}},"type":"Feature"},
	{"geometry":{"coordinates":[7.031879,50.985105],"type":"Point"},"properties":{"osm_id":"3781142610","tag":{"amenity":"recycling","operator":"AWB K\u00c3\u00b6ln","recycling:clothes":"yes","recycling_type":"container"}},"type":"Feature"},
	{"geometry":{"coordinates":[7.090147,50.995554],"type":"Point"},"properties":{"osm_id":"4297012945","tag":{"amenity":"recycling"}},"type":"Feature"},
	{"geometry":{"coordinates":[7.055287,50.969675],"type":"Point"},"properties":{"osm_id":"4629356878","tag":{"amenity":"recycling","operator":"AWB K\u00c3\u00b6ln","recycling:clothes":"yes","recycling:glass_bottles":"yes","recycling_type":"container"}},"type":"Feature"},
	{"geometry":{"coordinates":[7.039688,50.96854],"type":"Point"},"properties":{"osm_id":"4656842542","tag":{"amenity":"waste_basket"}},"type":"Feature"},
	{"geometry":{"coordinates":[7.038435,50.968231],"type":"Point"},"properties":{"osm_id":"4656842543","tag":{"amenity":"waste_basket"}},"type":"Feature"},
	{"geometry":{"coordinates":[7.048968,50.97104],"type":"Point"},"properties":{"osm_id":"4656902798","tag":{"amenity":"waste_basket"}},"type":"Feature"},
	{"geometry":{"coordinates":[7.048722,50.970939],"type":"Point"},"properties":{"osm_id":"4656902799","tag":{"amenity":"waste_basket"}},"type":"Feature"},
	{"geometry":{"coordinates":[7.047208,50.970379],"type":"Point"},"properties":{"osm_id":"4656902800","tag":{"amenity":"waste_basket"}},"type":"Feature"},
	{"geometry":{"coordinates":[7.045716,50.969878],"type":"Point"},"properties":{"osm_id":"4656902801","tag":{"amenity":"waste_basket"}},"type":"Feature"},
	{"geometry":{"coordinates":[7.044843,50.969619],"type":"Point"},"properties":{"osm_id":"4656902802","tag":{"amenity":"waste_basket"}},"type":"Feature"},
	{"geometry":{"coordinates":[7.050496,50.971551],"type":"Point"},"properties":{"osm_id":"4656905898","tag":{"amenity":"waste_basket"}},"type":"Feature"},
	{"geometry":{"coordinates":[7.053544,50.971397],"type":"Point"},"properties":{"osm_id":"4656912933","tag":{"amenity":"recycling","operator":"AWB K\u00c3\u00b6ln","recycling:clothes":"yes","recycling:glass_bottles":"yes","recycling_type":"container"}},"type":"Feature"},
	{"geometry":{"coordinates":[7.055348,50.996005],"type":"Point"},"properties":{"osm_id":"4754978259","tag":{"amenity":"waste_basket"}},"type":"Feature"},
	{"geometry":{"coordinates":[7.055122,50.996322],"type":"Point"},"properties":{"osm_id":"4754978261","tag":{"amenity":"waste_basket"}},"type":"Feature"},
	{"geometry":{"coordinates":[7.054533,50.996503],"type":"Point"},"properties":{"osm_id":"4754978263","tag":{"amenity":"waste_basket"}},"type":"Feature"},
	{"geometry":{"coordinates":[7.053215,50.996442],"type":"Point"},"properties":{"osm_id":"4754978266","tag":{"amenity":"waste_basket"}},"type":"Feature"},
	{"geometry":{"coordinates":[7.050439,50.993154],"type":"Point"},"properties":{"osm_id":"4754978600","tag":{"amenity":"waste_basket"}},"type":"Feature"},
	{"geometry":{"coordinates":[7.054787,50.995645],"type":"Point"},"properties":{"osm_id":"4755007390","tag":{"amenity":"waste_basket"}},"type":"Feature"},
	{"geometry":{"coordinates":[7.055833,50.992701],"type":"Point"},"properties":{"osm_id":"4755026325","tag":{"amenity":"waste_basket"}},"type":"Feature"},
	{"geometry":{"coordinates":[7.054903,50.992836],"type":"Point"},"properties":{"osm_id":"4755026327","tag":{"amenity":"waste_basket"}},"type":"Feature"},
	{"geometry":{"coordinates":[7.051771,50.993726],"type":"Point"},"properties":{"osm_id":"4755026333","tag":{"amenity":"waste_basket"}},"type":"Feature"},
	{"geometry":{"coordinates":[7.058276,50.994732],"type":"Point"},"properties":{"osm_id":"4755046208","tag":{"amenity":"waste_basket"}},"type":"Feature"},
	{"geometry":{"coordinates":[7.104342,50.988797],"type":"Point"},"properties":{"osm_id":"4783154174","tag":{"amenity":"recycling","recycling:electrical_appliances":"yes","recycling:glass":"yes","recycling_type":"container"}},"type":"Feature"},
	{"geometry":{"coordinates":[7.101629,50.983792],"type":"Point"},"properties":{"osm_id":"4783154175","tag":{"amenity":"recycling","recycling:glass":"yes","recycling_type":"container"}},"type":"Feature"},
	{"geometry":{"coordinates":[7.109616,50.982735],"type":"Point"},"properties":{"osm_id":"4783154176","tag":{"amenity":"recycling","recycling:electrical_appliances":"yes","recycling:glass":"yes","recycling_type":"container"}},"type":"Feature"},
	{"geometry":{"coordinates":[7.112954,50.959838],"type":"Point"},"properties":{"osm_id":"4797402203","tag":{"amenity":"waste_basket","collection_times":"Mo"}},"type":"Feature"},
	{"geometry":{"coordinates":[7.113272,50.959412],"type":"Point"},"properties":{"osm_id":"4800821571","tag":{"amenity":"recycling","recycling:batteries":"yes pile","recycling:glass":"yes","recycling_type":"container"}},"type":"Feature"},
	{"geometry":{"coordinates":[7.110284,50.958444],"type":"Point"},"properties":{"osm_id":"4800821572","tag":{"amenity":"waste_basket","recycling:clothes":"yes","recycling:glass":"yes"}},"type":"Feature"},
	{"geometry":{"coordinates":[7.116583,50.959802],"type":"Point"},"properties":{"osm_id":"4872511498","tag":{"amenity":"waste_basket"}},"type":"Feature"},
	{"geometry":{"coordinates":[7.04513,50.968149],"type":"Point"},"properties":{"osm_id":"4875653086","tag":{"amenity":"recycling","recycling:glass_bottles":"yes","recycling_type":"container"}},"type":"Feature"},
	{"geometry":{"coordinates":[7.035903,50.977951],"type":"Point"},"properties":{"osm_id":"5145373739","tag":{"amenity":"waste_basket"}},"type":"Feature"},
	{"geometry":{"coordinates":[7.034779,50.978293],"type":"Point"},"properties":{"osm_id":"5145373740","tag":{"amenity":"waste_basket"}},"type":"Feature"},
	{"geometry":{"coordinates":[7.034349,50.978946],"type":"Point"},"properties":{"osm_id":"5145373741","tag":{"amenity":"waste_basket"}},"type":"Feature"},
	{"geometry":{"coordinates":[7.033702,50.979465],"type":"Point"},"properties":{"osm_id":"5145373746","tag":{"amenity":"waste_basket"}},"type":"Feature"},
	{"geometry":{"coordinates":[7.033607,50.979918],"type":"Point"},"properties":{"osm_id":"5145373747","tag":{"amenity":"waste_basket"}},"type":"Feature"},
	{"geometry":{"coordinates":[7.036536,50.977902],"type":"Point"},"properties":{"osm_id":"5145373767","tag":{"amenity":"waste_basket"}},"type":"Feature"},
	{"geometry":{"coordinates":[7.039524,50.978584],"type":"Point"},"properties":{"osm_id":"5145373773","tag":{"amenity":"recycling","recycling:batteries":"no","recycling:cans":"no","recycling:cardboard":"no","recycling:clothes":"yes","recycling:electrical_appliances":"no","recycling:glass":"yes","recycling:glass_bottles":"yes","recycling:green_waste":"no","recycling:paper":"no","recycling:plastic":"no","recycling:plastic_bottles":"no","recycling:plastic_packaging":"no","recycling:scrap_metal":"no","recycling:small_appliances":"no","recycling:waste":"no","recycling_type":"container"}},"type":"Feature"},
	{"geometry":{"coordinates":[7.040314,50.978425],"type":"Point"},"properties":{"osm_id":"5145373778","tag":{"amenity":"waste_basket"}},"type":"Feature"},
	{"geometry":{"coordinates":[7.069707,50.972639],"type":"Point"},"properties":{"osm_id":"5219846177","tag":{"amenity":"recycling","operator":"AWB K\u00c3\u00b6ln","recycling:batteries":"no","recycling:clothes":"yes","recycling_type":"container"}},"type":"Feature"},
	{"geometry":{"coordinates":[7.054868,50.972381],"type":"Point"},"properties":{"osm_id":"5254361910","tag":{"amenity":"waste_basket"}},"type":"Feature"},
	{"geometry":{"coordinates":[7.09635,50.962693],"type":"Point"},"properties":{"osm_id":"5336977779","tag":{"amenity":"recycling","recycling_type":"container"}},"type":"Feature"},
	{"geometry":{"coordinates":[7.04648,50.998898],"type":"Point"},"properties":{"osm_id":"5341581227","tag":{"amenity":"recycling","recycling:clothes":"yes","recycling_type":"container"}},"type":"Feature"},
	{"geometry":{"coordinates":[7.040948,50.965899],"type":"Point"},"properties":{"osm_id":"6260233554","tag":{"amenity":"recycling","operator":"REMONDIS","recycling:glass_bottles":"yes","recycling:glass_bottles:colour":"white"}},"type":"Feature"},
	{"geometry":{"coordinates":[7.065874,50.985277],"type":"Point"},"properties":{"osm_id":"6374485239","tag":{"amenity":"waste_basket"}},"type":"Feature"},
	{"geometry":{"coordinates":[7.065649,50.985232],"type":"Point"},"properties":{"osm_id":"6374485240","tag":{"amenity":"waste_basket"}},"type":"Feature"},
	{"geometry":{"coordinates":[7.089201,51.006211],"type":"Point"},"properties":{"osm_id":"6469338982","tag":{"amenity":"recycling","recycling:clothes":"yes","recycling_type":"container"}},"type":"Feature"},
	{"geometry":{"coordinates":[7.089304,51.006366],"type":"Point"},"properties":{"osm_id":"6469338983","tag":{"amenity":"recycling","recycling:clothes":"yes","recycling_type":"container"}},"type":"Feature"},
	{"geometry":{"coordinates":[7.08938,51.00634],"type":"Point"},"properties":{"osm_id":"6469338984","tag":{"amenity":"recycling","recycling:glass_bottles":"yes","recycling_type":"container"}},"type":"Feature"},
	{"geometry":{"coordinates":[7.089341,51.006345],"type":"Point"},"properties":{"osm_id":"6469339485","tag":{"amenity":"recycling","recycling:glass_bottles":"yes","recycling_type":"container"}},"type":"Feature"},
	{"geometry":{"coordinates":[7.098342,50.996627],"type":"Point"},"properties":{"osm_id":"7002807170","tag":{"amenity":"recycling","recycling:glass_bottles":"yes","recycling_type":"container"}},"type":"Feature"},
	{"geometry":{"coordinates":[7.073285,50.964613],"type":"Point"},"properties":{"osm_id":"7157197459","tag":{"amenity":"waste_basket"}},"type":"Feature"},
	{"geometry":{"coordinates":[7.08111,50.960476],"type":"Point"},"properties":{"osm_id":"7320379108","tag":{"amenity":"waste_basket"}},"type":"Feature"},
	{"geometry":{"coordinates":[7.088842,50.977916],"type":"Point"},"properties":{"osm_id":"7391914498","tag":{"amenity":"waste_basket","waste":"trash"}},"type":"Feature"},
	{"geometry":{"coordinates":[7.088735,50.977748],"type":"Point"},"properties":{"osm_id":"7391914503","tag":{"amenity":"waste_basket","waste":"trash"}},"type":"Feature"},
	{"geometry":{"coordinates":[7.077863,50.963692],"type":"Point"},"properties":{"osm_id":"7439612609","tag":{"amenity":"waste_basket"}},"type":"Feature"},
	{"geometry":{"coordinates":[7.077934,50.96382],"type":"Point"},"properties":{"osm_id":"7439612610","tag":{"amenity":"waste_basket"}},"type":"Feature"},
	{"geometry":{"coordinates":[7.084795,50.987843],"type":"Point"},"properties":{"osm_id":"7512089710","tag":{"amenity":"recycling","operator":"reloga","recycling:glass":"yes","recycling:glass_bottles":"yes","recycling_type":"container"}},"type":"Feature"},
	{"geometry":{"coordinates":[7.086407,50.98785],"type":"Point"},"properties":{"osm_id":"7512089711","tag":{"amenity":"recycling","operator":"Abfallwirtschaftsbetrieb Bergisch Gladbach","recycling:clothes":"yes","recycling_type":"container"}},"type":"Feature"},
	{"geometry":{"coordinates":[7.108304,50.988218],"type":"Point"},"properties":{"osm_id":"7512101036","tag":{"amenity":"recycling","operator":"reloga","recycling:glass":"yes","recycling_type":"container"}},"type":"Feature"},
	{"geometry":{"coordinates":[7.103221,50.960569],"type":"Point"},"properties":{"osm_id":"7635395772","tag":{"amenity":"recycling","recycling:clothes":"yes","recycling_type":"container"}},"type":"Feature"},
	{"geometry":{"coordinates":[7.08865,50.967346],"type":"Point"},"properties":{"osm_id":"7635523292","tag":{"amenity":"recycling","operator":"Remondis","recycling:glass_bottles":"yes","recycling_type":"container"}},"type":"Feature"},
	{"geometry":{"coordinates":[7.090428,50.970745],"type":"Point"},"properties":{"osm_id":"7638632263","tag":{"amenity":"recycling","operator":"Remondis","recycling:glass_bottles":"yes","recycling_type":"container"}},"type":"Feature"},
	{"geometry":{"coordinates":[7.090386,50.97071],"type":"Point"},"properties":{"osm_id":"7638632264","tag":{"amenity":"recycling","contact:phone":"+49 221 9222208","email":"altkleider@awbkoeln.de","operator":"AWB K\u00c3\u00b6ln","recycling:clothes":"yes","recycling_type":"container"}},"type":"Feature"},
	{"geometry":{"coordinates":[7.084977,50.973516],"type":"Point"},"properties":{"osm_id":"7638723182","tag":{"amenity":"recycling","operator":"Remondis","recycling:glass_bottles":"yes","recycling_type":"container"}},"type":"Feature"},
	{"geometry":{"coordinates":[7.08418,50.973739],"type":"Point"},"properties":{"osm_id":"7638743287","tag":{"amenity":"recycling","contact:phone":"+49 521 1441848","email":"brockensammlung@bethel.de","operator":"Bethel","recycling:clothes":"yes","recycling_type":"container"}},"type":"Feature"},
	{"geometry":{"coordinates":[7.079314,50.968682],"type":"Point"},"properties":{"osm_id":"7641901896","tag":{"amenity":"recycling","operator":"Remondis","recycling:glass_bottles":"yes","recycling_type":"container"}},"type":"Feature"},
	{"geometry":{"coordinates":[7.079268,50.968695],"type":"Point"},"properties":{"osm_id":"7641901897","tag":{"amenity":"recycling","operator":"AWB K\u00c3\u00b6ln","recycling:clothes":"yes","recycling_type":"container"}},"type":"Feature"},
	{"geometry":{"coordinates":[7.06653,50.983666],"type":"Point"},"properties":{"osm_id":"7644374620","tag":{"amenity":"recycling","operator":"Texaid Collection GmbH","recycling:clothes":"yes","recycling_type":"container","website":"http://www.texaid.de/"}},"type":"Feature"},
	{"geometry":{"coordinates":[7.079582,50.982393],"type":"Point"},"properties":{"osm_id":"7649642953","tag":{"amenity":"recycling","operator":"Remondis","recycling:glass_bottles":"yes","recycling_type":"container"}},"type":"Feature"},
	{"geometry":{"coordinates":[7.079618,50.982426],"type":"Point"},"properties":{"osm_id":"7649642954","tag":{"amenity":"recycling","operator":"Abfallwirtschaftsbetrieb K\u00c3\u00b6ln","recycling:clothes":"yes","recycling_type":"container"}},"type":"Feature"},
	{"geometry":{"coordinates":[7.102307,50.984045],"type":"Point"},"properties":{"osm_id":"7649895439","tag":{"amenity":"recycling","recycling:clothes":"yes","recycling_type":"container"}},"type":"Feature"},
	{"geometry":{"coordinates":[7.103925,50.984948],"type":"Point"},"properties":{"osm_id":"7649895443","tag":{"amenity":"recycling","operator":"reloga","recycling:glass_bottles":"yes","recycling_type":"container"}},"type":"Feature"},
	{"geometry":{"coordinates":[7.103957,50.984949],"type":"Point"},"properties":{"osm_id":"7649895444","tag":{"amenity":"recycling","recycling:clothes":"yes","recycling_type":"container"}},"type":"Feature"},
	{"geometry":{"coordinates":[7.07383,50.97973],"type":"Point"},"properties":{"osm_id":"7653386441","tag":{"amenity":"recycling","recycling:clothes":"yes","recycling_type":"container"}},"type":"Feature"},
	{"geometry":{"coordinates":[7.073886,50.979746],"type":"Point"},"properties":{"osm_id":"7653386442","tag":{"amenity":"recycling","operator":"Remondis","recycling:glass_bottles":"yes","recycling_type":"container"}},"type":"Feature"},
	{"geometry":{"coordinates":[7.08798,50.976913],"type":"Point"},"properties":{"osm_id":"7653687550","tag":{"amenity":"recycling","operator":"AWB K\u00c3\u00b6ln","recycling:clothes":"yes","recycling_type":"container"}},"type":"Feature"},
	{"geometry":{"coordinates":[7.088003,50.97689],"type":"Point"},"properties":{"osm_id":"7653687551","tag":{"amenity":"recycling","operator":"Remondis","recycling:glass_bottles":"yes","recycling_type":"container"}},"type":"Feature"},
	{"geometry":{"coordinates":[7.094332,50.965458],"type":"Point"},"properties":{"osm_id":"7653804587","tag":{"amenity":"recycling","operator":"Remondis","recycling:glass_bottles":"yes","recycling_type":"container"}},"type":"Feature"},
	{"geometry":{"coordinates":[7.109994,50.958479],"type":"Point"},"properties":{"osm_id":"7653805947","tag":{"amenity":"recycling","operator":"reloga","recycling:glass_bottles":"yes","recycling_type":"container"}},"type":"Feature"},
	{"geometry":{"coordinates":[7.110036,50.958464],"type":"Point"},"properties":{"osm_id":"7653805948","tag":{"amenity":"recycling","operator":"DRK","recycling:clothes":"yes","recycling_type":"container"}},"type":"Feature"},
	{"geometry":{"coordinates":[7.069748,50.97264],"type":"Point"},"properties":{"osm_id":"7653858224","tag":{"amenity":"recycling","operator":"Remondis","recycling:glass_bottles":"yes","recycling_type":"container"}},"type":"Feature"},
	{"geometry":{"coordinates":[7.075099,50.976215],"type":"Point"},"properties":{"osm_id":"7803699492","tag":{"amenity":"recycling","recycling:glass_bottles":"yes","recycling_type":"container"}},"type":"Feature"},
	{"geometry":{"coordinates":[7.103413,50.984744],"type":"Point"},"properties":{"osm_id":"7861868561","tag":{"amenity":"waste_basket","covered":"yes","layer":"1","level":"1"}},"type":"Feature"},
	{"geometry":{"coordinates":[7.102688,50.9847],"type":"Point"},"properties":{"osm_id":"7861868562","tag":{"amenity":"waste_basket","layer":"1","level":"1"}},"type":"Feature"},
	{"geometry":{"coordinates":[7.103571,50.984754],"type":"Point"},"properties":{"osm_id":"7861868563","tag":{"amenity":"waste_basket","covered":"yes","layer":"1","level":"1"}},"type":"Feature"}
]
}
