{
"type": "FeatureCollection",
"features": [
	{"geometry":{"coordinates":[7.107524,50.319325],"type":"Point"},"properties":{"osm_id":"1339821995","tag":{"amenity":"recycling"}},"type":"Feature"},
	{"geometry":{"coordinates":[7.077311,50.341875],"type":"Point"},"properties":{"osm_id":"3968177308","tag":{"amenity":"recycling","opening_hours":"24/7","recycling:clothes":"yes","recycling:glass":"yes","recycling:glass_bottles":"yes","recycling:shoes":"yes","recycling_type":"container","wheelchair":"yes"}},"type":"Feature"},
	{"geometry":{"coordinates":[7.107014,50.331503],"type":"Point"},"properties":{"osm_id":"4894225782","tag":{"amenity":"recycling","recycling:glass":"yes","recycling:glass_bottles":"yes","recycling_type":"container"}},"type":"Feature"},
	{"geometry":{"coordinates":[7.111333,50.328871],"type":"Point"},"properties":{"osm_id":"7392762603","tag":{"amenity":"recycling","covered":"no","indoor":"no","recycling_type":"container"}},"type":"Feature"},
	{"geometry":{"coordinates":[7.111355,50.32884],"type":"Point"},"properties":{"osm_id":"7392762623","tag":{"amenity":"recycling","covered":"no","indoor":"no","recycling_type":"container"}},"type":"Feature"}
]
}
