{
"type": "FeatureCollection",
"features": [
	{"geometry":{"coordinates":[7.113813,49.971553],"type":"Point"},"properties":{"osm_id":"1488745762","tag":{"amenity":"waste_basket"}},"type":"Feature"},
	{"geometry":{"coordinates":[7.113154,49.978482],"type":"Point"},"properties":{"osm_id":"1488761672","tag":{"amenity":"waste_basket"}},"type":"Feature"},
	{"geometry":{"coordinates":[7.107307,49.986735],"type":"Point"},"properties":{"osm_id":"1951090871","tag":{"amenity":"waste_basket"}},"type":"Feature"},
	{"geometry":{"coordinates":[7.112607,49.981927],"type":"Point"},"properties":{"osm_id":"1951090886","tag":{"amenity":"waste_basket"}},"type":"Feature"},
	{"geometry":{"coordinates":[7.11051,49.986741],"type":"Point"},"properties":{"osm_id":"4986680275","tag":{"amenity":"recycling","description":"Nur f\u00c3\u00bcr Landal G\u00c3\u00a4ste","recycling:cans":"no","recycling:clothes":"no","recycling:glass_bottles":"yes","recycling:paper":"yes","recycling:plastic":"no","recycling_type":"container"}},"type":"Feature"},
	{"geometry":{"coordinates":[7.10424,49.958572],"type":"Point"},"properties":{"osm_id":"5021353300","tag":{"amenity":"waste_disposal"}},"type":"Feature"},
	{"geometry":{"coordinates":[7.10912,49.952591],"type":"Point"},"properties":{"osm_id":"6835336183","tag":{"amenity":"waste_basket","waste":"trash"}},"type":"Feature"},
	{"geometry":{"coordinates":[7.112127,49.951276],"type":"Point"},"properties":{"osm_id":"6835342091","tag":{"amenity":"waste_basket","waste":"trash"}},"type":"Feature"},
	{"geometry":{"coordinates":[7.111439,49.951543],"type":"Point"},"properties":{"osm_id":"6835342104","tag":{"amenity":"waste_basket","waste":"trash"}},"type":"Feature"},
	{"geometry":{"coordinates":[7.109685,49.952316],"type":"Point"},"properties":{"osm_id":"6835342105","tag":{"amenity":"waste_basket","waste":"trash"}},"type":"Feature"},
	{"geometry":{"coordinates":[7.105961,49.954538],"type":"Point"},"properties":{"osm_id":"6835342132","tag":{"amenity":"waste_basket","waste":"trash"}},"type":"Feature"},
	{"geometry":{"coordinates":[7.107402,49.953571],"type":"Point"},"properties":{"osm_id":"6835342134","tag":{"amenity":"waste_basket","waste":"trash"}},"type":"Feature"},
	{"geometry":{"coordinates":[7.108154,49.953116],"type":"Point"},"properties":{"osm_id":"6835342137","tag":{"amenity":"waste_basket","waste":"trash"}},"type":"Feature"},
	{"geometry":{"coordinates":[7.111338,49.983622],"type":"Point"},"properties":{"osm_id":"7622278950","tag":{"amenity":"waste_disposal"}},"type":"Feature"}
]
}
