{
"type": "FeatureCollection",
"features": [
	{"geometry":{"coordinates":[7.059465,49.558358],"type":"Point"},"properties":{"osm_id":"1065419133","tag":{"amenity":"waste_basket","url":"http://openstreetmap.falco2.de/Bostalsee/Papierkorb.jpg"}},"type":"Feature"},
	{"geometry":{"coordinates":[7.054467,49.571777],"type":"Point"},"properties":{"osm_id":"1637874347","tag":{"amenity":"recycling","recycling:clothes":"yes","recycling:glass":"yes","recycling:paper":"yes","recycling_type":"container"}},"type":"Feature"},
	{"geometry":{"coordinates":[7.084602,49.572643],"type":"Point"},"properties":{"osm_id":"3710924176","tag":{"amenity":"waste_disposal"}},"type":"Feature"},
	{"geometry":{"coordinates":[7.082585,49.571935],"type":"Point"},"properties":{"osm_id":"3710924206","tag":{"amenity":"recycling","recycling:glass_bottles":"yes","recycling_type":"container"}},"type":"Feature"},
	{"geometry":{"coordinates":[7.083609,49.571845],"type":"Point"},"properties":{"osm_id":"3710924207","tag":{"amenity":"waste_disposal","waste":"trash"}},"type":"Feature"},
	{"geometry":{"coordinates":[7.079269,49.572592],"type":"Point"},"properties":{"osm_id":"3713894628","tag":{"amenity":"waste_disposal"}},"type":"Feature"},
	{"geometry":{"coordinates":[7.080545,49.572584],"type":"Point"},"properties":{"osm_id":"3713894636","tag":{"amenity":"waste_disposal"}},"type":"Feature"},
	{"geometry":{"coordinates":[7.080675,49.570512],"type":"Point"},"properties":{"osm_id":"3713917994","tag":{"amenity":"waste_disposal"}},"type":"Feature"},
	{"geometry":{"coordinates":[7.08061,49.570519],"type":"Point"},"properties":{"osm_id":"3713917997","tag":{"amenity":"recycling","recycling:glass_bottles":"yes","recycling_type":"container"}},"type":"Feature"},
	{"geometry":{"coordinates":[7.081048,49.571861],"type":"Point"},"properties":{"osm_id":"3713926730","tag":{"amenity":"waste_disposal"}},"type":"Feature"},
	{"geometry":{"coordinates":[7.080065,49.571404],"type":"Point"},"properties":{"osm_id":"3713926733","tag":{"amenity":"waste_disposal"}},"type":"Feature"},
	{"geometry":{"coordinates":[7.080552,49.571645],"type":"Point"},"properties":{"osm_id":"3713926734","tag":{"amenity":"waste_disposal"}},"type":"Feature"},
	{"geometry":{"coordinates":[7.081917,49.572201],"type":"Point"},"properties":{"osm_id":"3750090196","tag":{"amenity":"waste_disposal","waste":"trash"}},"type":"Feature"},
	{"geometry":{"coordinates":[7.081966,49.572197],"type":"Point"},"properties":{"osm_id":"3761361012","tag":{"amenity":"recycling","recycling:cartons":"yes","recycling:magazines":"yes","recycling:newspaper":"yes","recycling:paper":"yes","recycling:paper_packaging":"yes","recycling:plastic":"yes","recycling:plastic_bottles":"yes","recycling:plastic_packaging":"yes","recycling_type":"container"}},"type":"Feature"},
	{"geometry":{"coordinates":[7.08248,49.572951],"type":"Point"},"properties":{"osm_id":"4403277207","tag":{"amenity":"recycling","recycling:glass_bottles":"yes","recycling_type":"container"}},"type":"Feature"},
	{"geometry":{"coordinates":[7.092489,49.565022],"type":"Point"},"properties":{"osm_id":"4897281928","tag":{"amenity":"waste_basket"}},"type":"Feature"},
	{"geometry":{"coordinates":[7.092057,49.566339],"type":"Point"},"properties":{"osm_id":"4897883806","tag":{"amenity":"recycling","recycling:paper":"yes","recycling_type":"container"}},"type":"Feature"},
	{"geometry":{"coordinates":[7.092024,49.566358],"type":"Point"},"properties":{"osm_id":"4897883807","tag":{"amenity":"recycling","recycling:glass_bottles":"yes","recycling_type":"container"}},"type":"Feature"},
	{"geometry":{"coordinates":[7.062519,49.556184],"type":"Point"},"properties":{"osm_id":"4960517904","tag":{"amenity":"waste_basket"}},"type":"Feature"},
	{"geometry":{"coordinates":[7.079541,49.571116],"type":"Point"},"properties":{"osm_id":"4985043377","tag":{"amenity":"waste_disposal"}},"type":"Feature"},
	{"geometry":{"coordinates":[7.080056,49.574831],"type":"Point"},"properties":{"osm_id":"4988741230","tag":{"amenity":"waste_disposal"}},"type":"Feature"},
	{"geometry":{"coordinates":[7.082703,49.574449],"type":"Point"},"properties":{"osm_id":"4988741231","tag":{"amenity":"waste_disposal"}},"type":"Feature"},
	{"geometry":{"coordinates":[7.08185,49.574059],"type":"Point"},"properties":{"osm_id":"4988741232","tag":{"amenity":"waste_disposal"}},"type":"Feature"},
	{"geometry":{"coordinates":[7.083457,49.573917],"type":"Point"},"properties":{"osm_id":"4988741233","tag":{"amenity":"waste_disposal"}},"type":"Feature"},
	{"geometry":{"coordinates":[7.08343,49.573331],"type":"Point"},"properties":{"osm_id":"4988741234","tag":{"amenity":"waste_disposal"}},"type":"Feature"},
	{"geometry":{"coordinates":[7.081045,49.573711],"type":"Point"},"properties":{"osm_id":"4988741235","tag":{"amenity":"waste_disposal"}},"type":"Feature"},
	{"geometry":{"coordinates":[7.079456,49.573503],"type":"Point"},"properties":{"osm_id":"4988741236","tag":{"amenity":"waste_disposal"}},"type":"Feature"},
	{"geometry":{"coordinates":[7.071234,49.573149],"type":"Point"},"properties":{"name":"M\u00c3\u00bcllstation","osm_id":"4991207894","tag":{"amenity":"waste_disposal"}},"type":"Feature"},
	{"geometry":{"coordinates":[7.069826,49.572752],"type":"Point"},"properties":{"name":"M\u00c3\u00bcllstation","osm_id":"4991207895","tag":{"amenity":"waste_disposal"}},"type":"Feature"},
	{"geometry":{"coordinates":[7.069944,49.573201],"type":"Point"},"properties":{"name":"M\u00c3\u00bcllstation","osm_id":"4991207896","tag":{"amenity":"waste_disposal"}},"type":"Feature"},
	{"geometry":{"coordinates":[7.072222,49.574686],"type":"Point"},"properties":{"name":"M\u00c3\u00bcllstation","osm_id":"4991207897","tag":{"amenity":"waste_disposal"}},"type":"Feature"},
	{"geometry":{"coordinates":[7.071719,49.574043],"type":"Point"},"properties":{"name":"M\u00c3\u00bcllstation","osm_id":"4991207898","tag":{"amenity":"waste_disposal"}},"type":"Feature"},
	{"geometry":{"coordinates":[7.074203,49.574737],"type":"Point"},"properties":{"name":"M\u00c3\u00bcllstation","osm_id":"4991207899","tag":{"amenity":"waste_disposal"}},"type":"Feature"},
	{"geometry":{"coordinates":[7.072765,49.575306],"type":"Point"},"properties":{"name":"M\u00c3\u00bcllstation","osm_id":"4991207900","tag":{"amenity":"waste_disposal"}},"type":"Feature"},
	{"geometry":{"coordinates":[7.071643,49.575673],"type":"Point"},"properties":{"name":"M\u00c3\u00bcllstation","osm_id":"4991207901","tag":{"amenity":"waste_disposal"}},"type":"Feature"},
	{"geometry":{"coordinates":[7.06812,49.577679],"type":"Point"},"properties":{"osm_id":"4993195962","tag":{"amenity":"recycling","recycling:clothes":"yes","recycling_type":"container"}},"type":"Feature"},
	{"geometry":{"coordinates":[7.068128,49.577656],"type":"Point"},"properties":{"osm_id":"4993195963","tag":{"amenity":"recycling","recycling:glass_bottles":"yes","recycling:paper":"yes","recycling_type":"container"}},"type":"Feature"},
	{"geometry":{"coordinates":[7.067798,49.592791],"type":"Point"},"properties":{"osm_id":"5005660871","tag":{"amenity":"recycling","recycling:glass_bottles":"yes","recycling:paper":"yes","recycling_type":"container"}},"type":"Feature"},
	{"geometry":{"coordinates":[7.05697,49.608989],"type":"Point"},"properties":{"osm_id":"5023049467","tag":{"amenity":"recycling","recycling:clothes":"yes","recycling_type":"container"}},"type":"Feature"}
]
}
