{
"type": "FeatureCollection",
"features": [
	{"geometry":{"coordinates":[7.055169,49.452183],"type":"Point"},"properties":{"osm_id":"371086458","tag":{"amenity":"recycling","recycling:clothes":"yes","recycling:glass":"yes","recycling:paper":"yes","recycling_type":"container"}},"type":"Feature"},
	{"geometry":{"coordinates":[7.055739,49.450705],"type":"Point"},"properties":{"osm_id":"387711843","tag":{"amenity":"recycling","recycling:glass":"yes","recycling:paper":"yes","recycling_type":"container"}},"type":"Feature"},
	{"geometry":{"coordinates":[7.061121,49.451208],"type":"Point"},"properties":{"osm_id":"387736168","tag":{"amenity":"recycling","recycling:glass":"yes","recycling:paper":"yes","recycling_type":"container"}},"type":"Feature"},
	{"geometry":{"coordinates":[7.068252,49.450599],"type":"Point"},"properties":{"osm_id":"455533714","tag":{"amenity":"recycling","recycling:glass":"yes","recycling:paper":"yes"}},"type":"Feature"},
	{"geometry":{"coordinates":[7.04072,49.482133],"type":"Point"},"properties":{"osm_id":"655293784","tag":{"amenity":"recycling","recycling:glass":"yes"}},"type":"Feature"},
	{"geometry":{"coordinates":[7.051736,49.447437],"type":"Point"},"properties":{"osm_id":"858175245","tag":{"amenity":"recycling","recycling:clothes":"yes","recycling:glass":"yes","recycling:paper":"yes","recycling_type":"container"}},"type":"Feature"},
	{"geometry":{"coordinates":[7.046303,49.451226],"type":"Point"},"properties":{"osm_id":"858188111","tag":{"amenity":"recycling","recycling:paper":"yes","recycling_type":"container"}},"type":"Feature"},
	{"geometry":{"coordinates":[7.103152,49.470849],"type":"Point"},"properties":{"osm_id":"2311716443","tag":{"amenity":"recycling","recycling:clothes":"yes"}},"type":"Feature"},
	{"geometry":{"coordinates":[7.107717,49.477367],"type":"Point"},"properties":{"osm_id":"2334799937","tag":{"amenity":"recycling","recycling:glass":"yes","recycling:paper":"yes"}},"type":"Feature"},
	{"geometry":{"coordinates":[7.111801,49.493],"type":"Point"},"properties":{"osm_id":"2354059226","tag":{"amenity":"waste_basket"}},"type":"Feature"},
	{"geometry":{"coordinates":[7.112297,49.491906],"type":"Point"},"properties":{"osm_id":"2364968803","tag":{"amenity":"waste_basket"}},"type":"Feature"},
	{"geometry":{"coordinates":[7.113822,49.492898],"type":"Point"},"properties":{"osm_id":"2364968881","tag":{"amenity":"recycling","mapillary":"ltVhUQFu-2u8-XpK2PcENQ","recycling_type":"container","survey:date":"2017-06-18"}},"type":"Feature"},
	{"geometry":{"coordinates":[7.103769,49.476611],"type":"Point"},"properties":{"osm_id":"2464637056","tag":{"amenity":"waste_basket"}},"type":"Feature"},
	{"geometry":{"coordinates":[7.108757,49.466506],"type":"Point"},"properties":{"osm_id":"2479810762","tag":{"amenity":"waste_basket"}},"type":"Feature"},
	{"geometry":{"coordinates":[7.066501,49.473547],"type":"Point"},"properties":{"osm_id":"4254991051","tag":{"amenity":"recycling","recycling_type":"container"}},"type":"Feature"},
	{"geometry":{"coordinates":[7.06647,49.47356],"type":"Point"},"properties":{"osm_id":"4254991052","tag":{"amenity":"recycling","recycling_type":"container"}},"type":"Feature"},
	{"geometry":{"coordinates":[7.052244,49.455871],"type":"Point"},"properties":{"osm_id":"4322197366","tag":{"amenity":"recycling","recycling:glass":"yes","recycling_type":"container"}},"type":"Feature"},
	{"geometry":{"coordinates":[7.052286,49.455875],"type":"Point"},"properties":{"osm_id":"4322197367","tag":{"amenity":"recycling","recycling:paper":"yes","recycling_type":"container"}},"type":"Feature"},
	{"geometry":{"coordinates":[7.058035,49.451381],"type":"Point"},"properties":{"osm_id":"4335419895","tag":{"amenity":"waste_basket"}},"type":"Feature"},
	{"geometry":{"coordinates":[7.058118,49.451447],"type":"Point"},"properties":{"osm_id":"4335422748","tag":{"amenity":"waste_basket"}},"type":"Feature"},
	{"geometry":{"coordinates":[7.068557,49.450598],"type":"Point"},"properties":{"osm_id":"4338128720","tag":{"amenity":"recycling","recycling:glass":"yes","recycling:paper":"yes","recycling_type":"container"}},"type":"Feature"},
	{"geometry":{"coordinates":[7.063838,49.458234],"type":"Point"},"properties":{"osm_id":"4360102152","tag":{"amenity":"recycling","recycling:glass":"yes","recycling_type":"container"}},"type":"Feature"},
	{"geometry":{"coordinates":[7.063867,49.458251],"type":"Point"},"properties":{"osm_id":"4360102153","tag":{"amenity":"recycling","recycling:paper":"yes","recycling_type":"container"}},"type":"Feature"},
	{"geometry":{"coordinates":[7.043379,49.491914],"type":"Point"},"properties":{"osm_id":"4401551549","tag":{"amenity":"waste_basket"}},"type":"Feature"},
	{"geometry":{"coordinates":[7.043976,49.486087],"type":"Point"},"properties":{"osm_id":"4557786143","tag":{"amenity":"recycling","recycling:clothes":"yes","recycling_type":"container"}},"type":"Feature"},
	{"geometry":{"coordinates":[7.037815,49.490768],"type":"Point"},"properties":{"osm_id":"5145067697","tag":{"amenity":"recycling","recycling:cans":"yes","recycling:glass_bottles":"yes","recycling:paper":"yes","recycling_type":"container"}},"type":"Feature"},
	{"geometry":{"coordinates":[7.038605,49.490576],"type":"Point"},"properties":{"osm_id":"5147457432","tag":{"amenity":"recycling","recycling:glass_bottles":"yes","recycling:paper":"yes","recycling_type":"container"}},"type":"Feature"}
]
}
