{
"type": "FeatureCollection",
"lastupdate": "2020-08-01T00:00:00Z",
"features": [
	{"geometry":{"coordinates":[7.094707,49.326381],"type":"Point"},"properties":{"osm_id":"271784847","tag":{"amenity":"recycling","recycling:glass":"yes"}},"type":"Feature"},
	{"geometry":{"coordinates":[7.097314,49.32523],"type":"Point"},"properties":{"osm_id":"271789515","tag":{"amenity":"recycling","recycling:glass":"yes"}},"type":"Feature"},
	{"geometry":{"coordinates":[7.045622,49.377859],"type":"Point"},"properties":{"osm_id":"279586083","tag":{"amenity":"recycling","recycling_type":"container"}},"type":"Feature"},
	{"geometry":{"coordinates":[7.047392,49.370658],"type":"Point"},"properties":{"osm_id":"279586084","tag":{"amenity":"recycling","recycling:clothes":"yes","recycling:glass_bottles":"yes","recycling:paper":"yes","recycling_type":"container"}},"type":"Feature"},
	{"geometry":{"coordinates":[7.079718,49.336209],"type":"Point"},"properties":{"osm_id":"664266765","tag":{"amenity":"recycling","recycling:glass":"yes","recycling:paper":"yes"}},"type":"Feature"},
	{"geometry":{"coordinates":[7.097876,49.326569],"type":"Point"},"properties":{"osm_id":"679993468","tag":{"amenity":"recycling","recycling:glass":"yes","recycling:paper":"yes"}},"type":"Feature"},
	{"geometry":{"coordinates":[7.08781,49.332042],"type":"Point"},"properties":{"osm_id":"684080100","tag":{"amenity":"recycling","recycling:glass":"yes","recycling:paper":"yes"}},"type":"Feature"},
	{"geometry":{"coordinates":[7.101705,49.329812],"type":"Point"},"properties":{"osm_id":"684080186","tag":{"amenity":"recycling","recycling:glass":"yes","recycling:paper":"yes"}},"type":"Feature"},
	{"geometry":{"coordinates":[7.09026,49.325955],"type":"Point"},"properties":{"osm_id":"695154173","tag":{"amenity":"recycling","recycling:glass":"yes","recycling:paper":"yes"}},"type":"Feature"},
	{"geometry":{"coordinates":[7.105588,49.326111],"type":"Point"},"properties":{"osm_id":"695423494","tag":{"amenity":"recycling","recycling:glass":"yes","recycling:paper":"yes"}},"type":"Feature"},
	{"geometry":{"coordinates":[7.0564,49.329161],"type":"Point"},"properties":{"osm_id":"1410573631","tag":{"amenity":"recycling","recycling:clothes":"yes","recycling:glass_bottles":"yes","recycling:paper":"yes","recycling_type":"container"}},"type":"Feature"},
	{"geometry":{"coordinates":[7.04927,49.375193],"type":"Point"},"properties":{"osm_id":"1533880441","tag":{"amenity":"recycling","recycling_type":"container"}},"type":"Feature"},
	{"geometry":{"coordinates":[7.045289,49.363814],"type":"Point"},"properties":{"osm_id":"1538402137","tag":{"amenity":"recycling","recycling:glass_bottles":"yes","recycling:paper":"yes","recycling_type":"container"}},"type":"Feature"},
	{"geometry":{"coordinates":[7.05412,49.370541],"type":"Point"},"properties":{"osm_id":"1547559981","tag":{"amenity":"recycling","recycling:glass":"yes","recycling:paper":"yes","recycling_type":"container"}},"type":"Feature"},
	{"geometry":{"coordinates":[7.055558,49.372813],"type":"Point"},"properties":{"osm_id":"1548539015","tag":{"amenity":"recycling","recycling:clothes":"yes","recycling:glass":"yes","recycling:paper":"yes"}},"type":"Feature"},
	{"geometry":{"coordinates":[7.098652,49.35404],"type":"Point"},"properties":{"osm_id":"1613637614","tag":{"amenity":"recycling","recycling:clothes":"yes","recycling:glass_bottles":"yes","recycling:paper":"yes","recycling_type":"container"}},"type":"Feature"},
	{"geometry":{"coordinates":[7.101924,49.355086],"type":"Point"},"properties":{"osm_id":"1613657619","tag":{"amenity":"recycling","recycling:glass":"yes","recycling:paper":"yes","recycling_type":"container"}},"type":"Feature"},
	{"geometry":{"coordinates":[7.085111,49.369839],"type":"Point"},"properties":{"osm_id":"2489843709","tag":{"amenity":"recycling","location":"overground","recycling:glass":"yes","recycling:paper":"yes","recycling_type":"container"}},"type":"Feature"},
	{"geometry":{"coordinates":[7.08808,49.370232],"type":"Point"},"properties":{"osm_id":"2490026447","tag":{"amenity":"waste_basket"}},"type":"Feature"},
	{"geometry":{"coordinates":[7.083836,49.373817],"type":"Point"},"properties":{"osm_id":"2490201752","tag":{"amenity":"waste_basket"}},"type":"Feature"},
	{"geometry":{"coordinates":[7.080323,49.373502],"type":"Point"},"properties":{"osm_id":"2490255827","tag":{"amenity":"recycling","location":"overground","recycling:clothes":"yes","recycling_type":"container"}},"type":"Feature"},
	{"geometry":{"coordinates":[7.077103,49.364877],"type":"Point"},"properties":{"osm_id":"2499880319","tag":{"amenity":"recycling","location":"overground","recycling:clothes":"yes","recycling:glass":"yes","recycling:paper":"yes","recycling_type":"container"}},"type":"Feature"},
	{"geometry":{"coordinates":[7.093369,49.32969],"type":"Point"},"properties":{"osm_id":"2629119896","tag":{"amenity":"recycling","recycling:glass":"yes","recycling:paper":"yes"}},"type":"Feature"},
	{"geometry":{"coordinates":[7.111668,49.35108],"type":"Point"},"properties":{"osm_id":"3208869698","tag":{"amenity":"recycling","operator":"commercial","recycling:clothes":"yes","recycling_type":"container"}},"type":"Feature"},
	{"geometry":{"coordinates":[7.101592,49.351384],"type":"Point"},"properties":{"osm_id":"3208869726","tag":{"amenity":"recycling","recycling:glass":"yes","recycling:paper":"yes","recycling_type":"container"}},"type":"Feature"},
	{"geometry":{"coordinates":[7.092966,49.331059],"type":"Point"},"properties":{"osm_id":"3361374230","tag":{"amenity":"recycling","recycling:glass":"yes","recycling:paper":"yes"}},"type":"Feature"},
	{"geometry":{"coordinates":[7.042354,49.36627],"type":"Point"},"properties":{"osm_id":"3706063894","tag":{"amenity":"recycling","recycling:glass":"yes","recycling:paper":"yes","recycling_type":"container"}},"type":"Feature"},
	{"geometry":{"coordinates":[7.108612,49.356179],"type":"Point"},"properties":{"osm_id":"4439571253","tag":{"amenity":"recycling"}},"type":"Feature"},
	{"geometry":{"coordinates":[7.080643,49.32649],"type":"Point"},"properties":{"osm_id":"4549843921","tag":{"amenity":"waste_basket"}},"type":"Feature"},
	{"geometry":{"coordinates":[7.081283,49.327425],"type":"Point"},"properties":{"osm_id":"4549843924","tag":{"amenity":"waste_basket"}},"type":"Feature"},
	{"geometry":{"coordinates":[7.083846,49.333562],"type":"Point"},"properties":{"osm_id":"5170572123","tag":{"amenity":"recycling"}},"type":"Feature"},
	{"geometry":{"coordinates":[7.053272,49.332583],"type":"Point"},"properties":{"osm_id":"5188422241","tag":{"amenity":"recycling","recycling:glass":"yes","recycling:paper":"yes","recycling_type":"container"}},"type":"Feature"},
	{"geometry":{"coordinates":[7.092954,49.349378],"type":"Point"},"properties":{"osm_id":"5539828409","tag":{"amenity":"waste_basket"}},"type":"Feature"},
	{"geometry":{"coordinates":[7.092958,49.349359],"type":"Point"},"properties":{"osm_id":"5539828410","tag":{"amenity":"waste_basket"}},"type":"Feature"},
	{"geometry":{"coordinates":[7.09296,49.349338],"type":"Point"},"properties":{"osm_id":"5539828411","tag":{"amenity":"waste_basket"}},"type":"Feature"},
	{"geometry":{"coordinates":[7.09398,49.348953],"type":"Point"},"properties":{"osm_id":"5539828725","tag":{"amenity":"waste_basket"}},"type":"Feature"},
	{"geometry":{"coordinates":[7.100629,49.363102],"type":"Point"},"properties":{"osm_id":"5602994013","tag":{"amenity":"recycling","recycling:glass_bottles":"yes","recycling:paper":"yes","recycling_type":"container"}},"type":"Feature"},
	{"geometry":{"coordinates":[7.103751,49.356846],"type":"Point"},"properties":{"osm_id":"5602997440","tag":{"amenity":"waste_basket"}},"type":"Feature"},
	{"geometry":{"coordinates":[7.11284,49.348981],"type":"Point"},"properties":{"osm_id":"5605247542","tag":{"amenity":"waste_basket"}},"type":"Feature"},
	{"geometry":{"coordinates":[7.110516,49.351627],"type":"Point"},"properties":{"osm_id":"5605247552","tag":{"amenity":"waste_basket"}},"type":"Feature"},
	{"geometry":{"coordinates":[7.088747,49.365886],"type":"Point"},"properties":{"osm_id":"5610263506","tag":{"amenity":"recycling","recycling:glass_bottles":"yes","recycling:paper":"yes","recycling_type":"container"}},"type":"Feature"},
	{"geometry":{"coordinates":[7.068915,49.361078],"type":"Point"},"properties":{"osm_id":"5620556942","tag":{"amenity":"recycling","recycling:clothes":"yes","recycling:shoes":"yes","recycling_type":"container"}},"type":"Feature"},
	{"geometry":{"coordinates":[7.070704,49.360978],"type":"Point"},"properties":{"osm_id":"5620556955","tag":{"amenity":"recycling","recycling:glass_bottles":"yes","recycling:paper":"yes","recycling_type":"container"}},"type":"Feature"},
	{"geometry":{"coordinates":[7.070528,49.360792],"type":"Point"},"properties":{"osm_id":"5620556961","tag":{"amenity":"waste_basket"}},"type":"Feature"},
	{"geometry":{"coordinates":[7.068431,49.356105],"type":"Point"},"properties":{"osm_id":"5622931069","tag":{"amenity":"recycling","recycling:clothes":"yes","recycling_type":"container"}},"type":"Feature"},
	{"geometry":{"coordinates":[7.068433,49.356148],"type":"Point"},"properties":{"osm_id":"5622931070","tag":{"amenity":"recycling","recycling:glass_bottles":"yes","recycling:paper":"yes","recycling_type":"container"}},"type":"Feature"},
	{"geometry":{"coordinates":[7.062355,49.357514],"type":"Point"},"properties":{"osm_id":"5633370166","tag":{"amenity":"waste_basket"}},"type":"Feature"},
	{"geometry":{"coordinates":[7.058599,49.364475],"type":"Point"},"properties":{"osm_id":"5633409158","tag":{"amenity":"recycling","recycling:clothes":"yes","recycling_type":"container"}},"type":"Feature"},
	{"geometry":{"coordinates":[7.058698,49.364488],"type":"Point"},"properties":{"osm_id":"5633409159","tag":{"amenity":"recycling","recycling:cardboard":"yes","recycling:glass_bottles":"yes","recycling:paper":"yes","recycling_type":"container"}},"type":"Feature"},
	{"geometry":{"coordinates":[7.054522,49.361889],"type":"Point"},"properties":{"osm_id":"5633452795","tag":{"amenity":"waste_basket"}},"type":"Feature"},
	{"geometry":{"coordinates":[7.059614,49.357879],"type":"Point"},"properties":{"osm_id":"5633567997","tag":{"amenity":"recycling","recycling:glass_bottles":"yes","recycling:paper":"yes","recycling_type":"container"}},"type":"Feature"},
	{"geometry":{"coordinates":[7.058619,49.35933],"type":"Point"},"properties":{"osm_id":"5635731429","tag":{"amenity":"waste_basket"}},"type":"Feature"},
	{"geometry":{"coordinates":[7.069755,49.373134],"type":"Point"},"properties":{"osm_id":"5648323827","tag":{"amenity":"recycling","recycling:clothes":"yes","recycling_type":"container"}},"type":"Feature"},
	{"geometry":{"coordinates":[7.042413,49.367352],"type":"Point"},"properties":{"osm_id":"5864155306","tag":{"amenity":"waste_basket"}},"type":"Feature"},
	{"geometry":{"coordinates":[7.039036,49.368657],"type":"Point"},"properties":{"osm_id":"5864155384","tag":{"amenity":"waste_basket"}},"type":"Feature"},
	{"geometry":{"coordinates":[7.051157,49.377446],"type":"Point"},"properties":{"osm_id":"5866510503","tag":{"amenity":"waste_basket"}},"type":"Feature"},
	{"geometry":{"coordinates":[7.055273,49.371132],"type":"Point"},"properties":{"osm_id":"5871951527","tag":{"amenity":"waste_basket"}},"type":"Feature"},
	{"geometry":{"coordinates":[7.084231,49.37796],"type":"Point"},"properties":{"osm_id":"6070704108","tag":{"amenity":"recycling","recycling:cardboard":"yes","recycling:glass_bottles":"yes","recycling:paper":"yes","recycling_type":"container"}},"type":"Feature"},
	{"geometry":{"coordinates":[7.11516,49.347774],"type":"Point"},"properties":{"osm_id":"6544175336","tag":{"amenity":"waste_basket"}},"type":"Feature"},
	{"geometry":{"coordinates":[7.118653,49.352081],"type":"Point"},"properties":{"osm_id":"6544182051","tag":{"amenity":"waste_basket"}},"type":"Feature"},
	{"geometry":{"coordinates":[7.11469,49.347711],"type":"Point"},"properties":{"osm_id":"6544182910","tag":{"amenity":"waste_basket"}},"type":"Feature"},
	{"geometry":{"coordinates":[7.112033,49.350107],"type":"Point"},"properties":{"osm_id":"6544183342","tag":{"amenity":"waste_basket"}},"type":"Feature"},
	{"geometry":{"coordinates":[7.117246,49.351854],"type":"Point"},"properties":{"osm_id":"6544185365","tag":{"amenity":"waste_basket"}},"type":"Feature"},
	{"geometry":{"coordinates":[7.114378,49.347393],"type":"Point"},"properties":{"osm_id":"6544192016","tag":{"amenity":"waste_basket"}},"type":"Feature"},
	{"geometry":{"coordinates":[7.111954,49.350542],"type":"Point"},"properties":{"osm_id":"6544193299","tag":{"amenity":"waste_basket"}},"type":"Feature"},
	{"geometry":{"coordinates":[7.112476,49.350315],"type":"Point"},"properties":{"osm_id":"6544194144","tag":{"amenity":"waste_basket"}},"type":"Feature"},
	{"geometry":{"coordinates":[7.050383,49.357036],"type":"Point"},"properties":{"osm_id":"7625651663","tag":{"amenity":"recycling","operator":"EVS","recycling:cardboard":"yes","recycling:glass":"yes","recycling:glass_bottles":"yes","recycling:paper":"yes","recycling_type":"container"}},"type":"Feature"},
	{"geometry":{"coordinates":[7.054367,49.358947],"type":"Point"},"properties":{"osm_id":"7625661674","tag":{"amenity":"recycling","recycling:clothes":"yes","recycling:shoes":"yes","recycling_type":"container"}},"type":"Feature"}
]
}
