{
"type": "FeatureCollection",
"features": [
	{"geometry":{"coordinates":[7.038267,49.281585],"type":"Point"},"properties":{"osm_id":"257104191","tag":{"amenity":"recycling","location":"overground","recycling:glass":"no","recycling:glass_bottles":"yes","recycling:paper":"yes","recycling_type":"container"}},"type":"Feature"},
	{"geometry":{"coordinates":[7.095868,49.322531],"type":"Point"},"properties":{"osm_id":"271789590","tag":{"amenity":"recycling","recycling:glass":"yes","recycling_type":"container"}},"type":"Feature"},
	{"geometry":{"coordinates":[7.056951,49.311328],"type":"Point"},"properties":{"osm_id":"295717928","tag":{"amenity":"recycling","recycling:glass_bottles":"yes","recycling:paper":"yes","recycling_type":"container"}},"type":"Feature"},
	{"geometry":{"coordinates":[7.053936,49.322557],"type":"Point"},"properties":{"osm_id":"310540760","tag":{"amenity":"recycling","recycling:glass":"yes","recycling:paper":"yes","recycling_type":"container"}},"type":"Feature"},
	{"geometry":{"coordinates":[7.083338,49.321269],"type":"Point"},"properties":{"osm_id":"341878985","tag":{"amenity":"recycling","recycling:glass":"yes","recycling:paper":"yes"}},"type":"Feature"},
	{"geometry":{"coordinates":[7.044076,49.290086],"type":"Point"},"properties":{"osm_id":"365068914","tag":{"amenity":"recycling"}},"type":"Feature"},
	{"geometry":{"coordinates":[7.050407,49.313077],"type":"Point"},"properties":{"osm_id":"371399350","tag":{"amenity":"recycling","mapillary":"04HBtazRw4Vvi_zK1oEjZw","recycling:glass":"yes","recycling:paper":"yes","recycling_type":"container","survey:date":"2019-03-23"}},"type":"Feature"},
	{"geometry":{"coordinates":[7.064163,49.289545],"type":"Point"},"properties":{"osm_id":"372642823","tag":{"amenity":"recycling","location":"overground","recycling:glass":"yes","recycling:paper":"yes","recycling_type":"container"}},"type":"Feature"},
	{"geometry":{"coordinates":[7.05889,49.305621],"type":"Point"},"properties":{"osm_id":"380834342","tag":{"amenity":"recycling","recycling:glass":"yes","recycling:paper":"yes","recycling_type":"container"}},"type":"Feature"},
	{"geometry":{"coordinates":[7.111383,49.279879],"type":"Point"},"properties":{"osm_id":"399237863","tag":{"amenity":"recycling","recycling_type":"container"}},"type":"Feature"},
	{"geometry":{"coordinates":[7.111524,49.289302],"type":"Point"},"properties":{"osm_id":"405100924","tag":{"amenity":"recycling"}},"type":"Feature"},
	{"geometry":{"coordinates":[7.115396,49.282337],"type":"Point"},"properties":{"osm_id":"410811995","tag":{"amenity":"recycling","recycling_type":"container"}},"type":"Feature"},
	{"geometry":{"coordinates":[7.112544,49.282473],"type":"Point"},"properties":{"osm_id":"410811999","tag":{"amenity":"recycling"}},"type":"Feature"},
	{"geometry":{"coordinates":[7.108465,49.299819],"type":"Point"},"properties":{"osm_id":"414894614","tag":{"amenity":"recycling"}},"type":"Feature"},
	{"geometry":{"coordinates":[7.044679,49.277921],"type":"Point"},"properties":{"osm_id":"416366938","tag":{"amenity":"recycling","location":"overground","recycling:glass":"yes","recycling:glass_bottles":"yes","recycling:paper":"yes","recycling_type":"container"}},"type":"Feature"},
	{"geometry":{"coordinates":[7.073198,49.302399],"type":"Point"},"properties":{"osm_id":"433581486","tag":{"amenity":"recycling","recycling_type":"container"}},"type":"Feature"},
	{"geometry":{"coordinates":[7.075701,49.314108],"type":"Point"},"properties":{"osm_id":"663711844","tag":{"amenity":"recycling","recycling:clothes":"yes","recycling:glass":"yes","recycling:paper":"yes","recycling_type":"container"}},"type":"Feature"},
	{"geometry":{"coordinates":[7.063544,49.310884],"type":"Point"},"properties":{"osm_id":"664252691","tag":{"amenity":"recycling","recycling:clothes":"yes","recycling:glass":"yes","recycling:paper":"yes"}},"type":"Feature"},
	{"geometry":{"coordinates":[7.106752,49.271269],"type":"Point"},"properties":{"osm_id":"666778360","tag":{"amenity":"recycling","location":"overground","recycling:glass":"yes","recycling:paper":"yes","recycling_type":"container"}},"type":"Feature"},
	{"geometry":{"coordinates":[7.085786,49.306674],"type":"Point"},"properties":{"osm_id":"679896483","tag":{"amenity":"recycling","recycling:glass":"yes","recycling:paper":"yes","recycling_type":"container"}},"type":"Feature"},
	{"geometry":{"coordinates":[7.105851,49.321983],"type":"Point"},"properties":{"osm_id":"679993451","tag":{"amenity":"recycling","recycling:glass":"yes","recycling:paper":"yes"}},"type":"Feature"},
	{"geometry":{"coordinates":[7.090086,49.316644],"type":"Point"},"properties":{"osm_id":"695153953","tag":{"amenity":"recycling","recycling:glass":"yes","recycling:paper":"yes"}},"type":"Feature"},
	{"geometry":{"coordinates":[7.096171,49.32222],"type":"Point"},"properties":{"osm_id":"695154138","tag":{"amenity":"recycling","recycling:glass":"yes","recycling:paper":"yes"}},"type":"Feature"},
	{"geometry":{"coordinates":[7.099008,49.317682],"type":"Point"},"properties":{"osm_id":"695154218","tag":{"amenity":"recycling","recycling:clothes":"yes","recycling_type":"container"}},"type":"Feature"},
	{"geometry":{"coordinates":[7.033505,49.279919],"type":"Point"},"properties":{"osm_id":"964960730","tag":{"amenity":"recycling"}},"type":"Feature"},
	{"geometry":{"coordinates":[7.040049,49.272517],"type":"Point"},"properties":{"osm_id":"1209661487","tag":{"amenity":"recycling","recycling:cardboard":"yes","recycling:cartons":"yes","recycling:clothes":"no","recycling:electrical_appliances":"no","recycling:glass":"yes","recycling:glass_bottles":"yes","recycling:green_waste":"no","recycling:magazines":"yes","recycling:newspaper":"yes","recycling:paper":"yes","recycling:paper_packaging":"yes","recycling:plastic":"yes","recycling:plastic_bottles":"no","recycling:plastic_packaging":"yes","recycling_type":"container"}},"type":"Feature"},
	{"geometry":{"coordinates":[7.046779,49.269152],"type":"Point"},"properties":{"osm_id":"1324310769","tag":{"amenity":"waste_basket"}},"type":"Feature"},
	{"geometry":{"coordinates":[7.048665,49.276191],"type":"Point"},"properties":{"osm_id":"1422595453","tag":{"amenity":"recycling","recycling:glass":"no","recycling:glass_bottles":"yes","recycling_type":"container"}},"type":"Feature"},
	{"geometry":{"coordinates":[7.075242,49.309904],"type":"Point"},"properties":{"barrier":"gate","osm_id":"1632991352","tag":{"access":"delivery"}},"type":"Feature"},
	{"geometry":{"coordinates":[7.108991,49.268268],"type":"Point"},"properties":{"osm_id":"1708076296","tag":{"amenity":"recycling","recycling:glass_bottles":"yes","recycling:paper":"yes","recycling_type":"container"}},"type":"Feature"},
	{"geometry":{"coordinates":[7.090891,49.285216],"type":"Point"},"properties":{"osm_id":"1944642673","tag":{"amenity":"recycling","recycling:glass":"yes","recycling:paper":"yes","recycling_type":"container"}},"type":"Feature"},
	{"geometry":{"coordinates":[7.100318,49.283432],"type":"Point"},"properties":{"osm_id":"2109266981","tag":{"amenity":"recycling","recycling:glass":"yes","recycling:paper":"yes","recycling_type":"container"}},"type":"Feature"},
	{"geometry":{"coordinates":[7.07427,49.281015],"type":"Point"},"properties":{"osm_id":"2249166466","tag":{"amenity":"recycling","recycling:glass":"no","recycling:glass_bottles":"yes","recycling:paper":"yes","recycling_type":"container"}},"type":"Feature"},
	{"geometry":{"coordinates":[7.07739,49.287198],"type":"Point"},"properties":{"osm_id":"2249166557","tag":{"amenity":"recycling","recycling:clothes":"yes","recycling:glass":"no","recycling:glass_bottles":"yes","recycling:paper":"yes","recycling_type":"container"}},"type":"Feature"},
	{"geometry":{"coordinates":[7.109123,49.287182],"type":"Point"},"properties":{"osm_id":"2255057092","tag":{"amenity":"recycling","recycling:glass":"yes","recycling:paper":"yes","recycling_type":"container"}},"type":"Feature"},
	{"geometry":{"coordinates":[7.096248,49.285681],"type":"Point"},"properties":{"osm_id":"2267524129","tag":{"amenity":"recycling","recycling:glass":"yes","recycling:paper":"yes"}},"type":"Feature"},
	{"geometry":{"coordinates":[7.115738,49.285745],"type":"Point"},"properties":{"osm_id":"2920910140","tag":{"amenity":"recycling","recycling:clothes":"no","recycling:glass":"yes","recycling:paper":"yes","recycling_type":"container"}},"type":"Feature"},
	{"geometry":{"coordinates":[7.075287,49.31902],"type":"Point"},"properties":{"osm_id":"2964470818","tag":{"amenity":"recycling"}},"type":"Feature"},
	{"geometry":{"coordinates":[7.063611,49.280499],"type":"Point"},"properties":{"osm_id":"3023364898","tag":{"amenity":"recycling","recycling:glass":"yes","recycling:paper":"yes","recycling_type":"container"}},"type":"Feature"},
	{"geometry":{"coordinates":[7.057481,49.296],"type":"Point"},"properties":{"osm_id":"3708513460","tag":{"amenity":"waste_basket"}},"type":"Feature"},
	{"geometry":{"coordinates":[7.056424,49.296141],"type":"Point"},"properties":{"osm_id":"3708513468","tag":{"amenity":"waste_basket"}},"type":"Feature"},
	{"geometry":{"coordinates":[7.05041,49.318615],"type":"Point"},"properties":{"osm_id":"4126938744","tag":{"amenity":"recycling","recycling:glass":"yes","recycling:paper":"yes","recycling_type":"container"}},"type":"Feature"},
	{"geometry":{"coordinates":[7.077424,49.324058],"type":"Point"},"properties":{"osm_id":"4549843917","tag":{"amenity":"waste_basket"}},"type":"Feature"},
	{"geometry":{"coordinates":[7.096904,49.269932],"type":"Point"},"properties":{"osm_id":"4716544510","tag":{"amenity":"recycling","recycling:glass":"yes","recycling:paper":"yes","recycling_type":"container"}},"type":"Feature"},
	{"geometry":{"coordinates":[7.031358,49.274891],"type":"Point"},"properties":{"osm_id":"4729414199","tag":{"amenity":"waste_basket"}},"type":"Feature"},
	{"geometry":{"coordinates":[7.040741,49.283997],"type":"Point"},"properties":{"osm_id":"4802545978","tag":{"amenity":"recycling","recycling:clothes":"yes","recycling:shoes":"yes","recycling_type":"container"}},"type":"Feature"},
	{"geometry":{"coordinates":[7.11909,49.282473],"type":"Point"},"properties":{"osm_id":"4922121170","tag":{"amenity":"waste_basket"}},"type":"Feature"},
	{"geometry":{"coordinates":[7.049418,49.269768],"type":"Point"},"properties":{"osm_id":"5139922455","tag":{"amenity":"recycling","opening_hours":"Mo-Sa 06:45-13:00,15:00-20:00; PH closed","recycling:paper":"yes","recycling_type":"container"}},"type":"Feature"},
	{"geometry":{"coordinates":[7.046949,49.269227],"type":"Point"},"properties":{"osm_id":"5139922457","tag":{"amenity":"waste_basket"}},"type":"Feature"},
	{"geometry":{"coordinates":[7.047022,49.269407],"type":"Point"},"properties":{"osm_id":"5139922468","tag":{"amenity":"waste_basket"}},"type":"Feature"},
	{"geometry":{"coordinates":[7.046711,49.269303],"type":"Point"},"properties":{"osm_id":"5139922473","tag":{"amenity":"waste_basket"}},"type":"Feature"},
	{"geometry":{"coordinates":[7.049324,49.269779],"type":"Point"},"properties":{"osm_id":"5139922482","tag":{"amenity":"recycling","opening_hours":"Mo-Sa 07:00-20:00; PH off","recycling:glass_bottles":"yes","recycling_type":"container"}},"type":"Feature"},
	{"geometry":{"coordinates":[7.075038,49.285726],"type":"Point"},"properties":{"osm_id":"6250400443","tag":{"amenity":"waste_basket"}},"type":"Feature"},
	{"geometry":{"coordinates":[7.066771,49.282505],"type":"Point"},"properties":{"osm_id":"6252152621","tag":{"amenity":"recycling","recycling:clothes":"yes","recycling_type":"container"}},"type":"Feature"},
	{"geometry":{"coordinates":[7.0816,49.310422],"type":"Point"},"properties":{"osm_id":"6258537936","tag":{"amenity":"waste_basket"}},"type":"Feature"},
	{"geometry":{"coordinates":[7.056296,49.299586],"type":"Point"},"properties":{"osm_id":"6258732264","tag":{"amenity":"waste_basket"}},"type":"Feature"},
	{"geometry":{"coordinates":[7.054439,49.300266],"type":"Point"},"properties":{"osm_id":"6260340472","tag":{"amenity":"recycling","recycling:glass_bottles":"yes","recycling:paper":"yes","recycling_type":"container"}},"type":"Feature"},
	{"geometry":{"coordinates":[7.056592,49.299645],"type":"Point"},"properties":{"osm_id":"6260340479","tag":{"amenity":"waste_basket"}},"type":"Feature"},
	{"geometry":{"coordinates":[7.056148,49.29993],"type":"Point"},"properties":{"osm_id":"6260340480","tag":{"amenity":"waste_basket"}},"type":"Feature"},
	{"geometry":{"coordinates":[7.067709,49.312535],"type":"Point"},"properties":{"osm_id":"6260743458","tag":{"amenity":"waste_basket"}},"type":"Feature"},
	{"geometry":{"coordinates":[7.062832,49.310907],"type":"Point"},"properties":{"osm_id":"6260743476","tag":{"amenity":"waste_basket"}},"type":"Feature"},
	{"geometry":{"coordinates":[7.059673,49.310277],"type":"Point"},"properties":{"osm_id":"6260758618","tag":{"amenity":"waste_basket"}},"type":"Feature"},
	{"geometry":{"coordinates":[7.080168,49.311794],"type":"Point"},"properties":{"osm_id":"6355967788","tag":{"amenity":"waste_basket"}},"type":"Feature"},
	{"geometry":{"coordinates":[7.077426,49.30672],"type":"Point"},"properties":{"osm_id":"6361132536","tag":{"amenity":"waste_basket"}},"type":"Feature"},
	{"geometry":{"coordinates":[7.05931,49.29863],"type":"Point"},"properties":{"osm_id":"6363479928","tag":{"amenity":"waste_basket"}},"type":"Feature"},
	{"geometry":{"coordinates":[7.058126,49.299312],"type":"Point"},"properties":{"osm_id":"6363479937","tag":{"amenity":"recycling","recycling:clothes":"yes","recycling_type":"container"}},"type":"Feature"},
	{"geometry":{"coordinates":[7.056487,49.29987],"type":"Point"},"properties":{"osm_id":"6363479947","tag":{"amenity":"waste_basket"}},"type":"Feature"},
	{"geometry":{"coordinates":[7.059749,49.297405],"type":"Point"},"properties":{"osm_id":"6365619073","tag":{"amenity":"waste_basket"}},"type":"Feature"},
	{"geometry":{"coordinates":[7.058839,49.296622],"type":"Point"},"properties":{"osm_id":"6365619082","tag":{"amenity":"waste_basket"}},"type":"Feature"},
	{"geometry":{"coordinates":[7.060662,49.298251],"type":"Point"},"properties":{"osm_id":"6366057877","tag":{"amenity":"waste_basket"}},"type":"Feature"},
	{"geometry":{"coordinates":[7.060408,49.297381],"type":"Point"},"properties":{"osm_id":"6366061289","tag":{"amenity":"waste_basket"}},"type":"Feature"},
	{"geometry":{"coordinates":[7.060031,49.297384],"type":"Point"},"properties":{"osm_id":"6366201094","tag":{"amenity":"waste_basket"}},"type":"Feature"},
	{"geometry":{"coordinates":[7.059765,49.297072],"type":"Point"},"properties":{"osm_id":"6366201095","tag":{"amenity":"waste_basket"}},"type":"Feature"},
	{"geometry":{"coordinates":[7.059809,49.299926],"type":"Point"},"properties":{"osm_id":"6367892440","tag":{"amenity":"waste_basket"}},"type":"Feature"},
	{"geometry":{"coordinates":[7.060038,49.298954],"type":"Point"},"properties":{"osm_id":"6367892445","tag":{"amenity":"waste_basket"}},"type":"Feature"},
	{"geometry":{"coordinates":[7.060324,49.299032],"type":"Point"},"properties":{"osm_id":"6367892446","tag":{"amenity":"waste_basket"}},"type":"Feature"},
	{"geometry":{"coordinates":[7.057416,49.300317],"type":"Point"},"properties":{"osm_id":"6368382106","tag":{"amenity":"waste_basket"}},"type":"Feature"},
	{"geometry":{"coordinates":[7.076676,49.303686],"type":"Point"},"properties":{"osm_id":"6368976534","tag":{"amenity":"waste_basket"}},"type":"Feature"},
	{"geometry":{"coordinates":[7.056933,49.300251],"type":"Point"},"properties":{"osm_id":"6368977087","tag":{"amenity":"recycling","recycling:glass_bottles":"yes","recycling:paper":"yes","recycling_type":"container"}},"type":"Feature"},
	{"geometry":{"coordinates":[7.045148,49.298658],"type":"Point"},"properties":{"osm_id":"6386680542","tag":{"amenity":"waste_basket"}},"type":"Feature"},
	{"geometry":{"coordinates":[7.032768,49.275103],"type":"Point"},"properties":{"osm_id":"6386789144","tag":{"amenity":"waste_basket","waste":"trash"}},"type":"Feature"},
	{"geometry":{"coordinates":[7.044,49.298916],"type":"Point"},"properties":{"osm_id":"6427495825","tag":{"amenity":"recycling","recycling:clothes":"yes","recycling_type":"container"}},"type":"Feature"},
	{"geometry":{"coordinates":[7.043995,49.298896],"type":"Point"},"properties":{"osm_id":"6427495826","tag":{"amenity":"recycling","recycling:glass_bottles":"yes","recycling:paper":"yes","recycling_type":"container"}},"type":"Feature"},
	{"geometry":{"coordinates":[7.048576,49.298457],"type":"Point"},"properties":{"osm_id":"6427495840","tag":{"amenity":"recycling","recycling:glass_bottles":"yes","recycling:paper":"yes","recycling_type":"container"}},"type":"Feature"},
	{"geometry":{"coordinates":[7.111377,49.274724],"type":"Point"},"properties":{"osm_id":"6433157878","tag":{"amenity":"waste_basket","waste":"cigarettes"}},"type":"Feature"},
	{"geometry":{"coordinates":[7.112144,49.278665],"type":"Point"},"properties":{"osm_id":"6433157883","tag":{"amenity":"waste_basket"}},"type":"Feature"},
	{"geometry":{"coordinates":[7.112079,49.278747],"type":"Point"},"properties":{"osm_id":"6433157884","tag":{"amenity":"waste_basket"}},"type":"Feature"},
	{"geometry":{"coordinates":[7.111347,49.274741],"type":"Point"},"properties":{"osm_id":"6433157986","tag":{"amenity":"waste_basket","waste":"trash"}},"type":"Feature"},
	{"geometry":{"coordinates":[7.111645,49.278242],"type":"Point"},"properties":{"osm_id":"6433157992","tag":{"amenity":"waste_basket"}},"type":"Feature"},
	{"geometry":{"coordinates":[7.111597,49.274676],"type":"Point"},"properties":{"osm_id":"6433157999","tag":{"amenity":"waste_basket","waste":"trash"}},"type":"Feature"},
	{"geometry":{"coordinates":[7.111818,49.274704],"type":"Point"},"properties":{"osm_id":"6433158000","tag":{"amenity":"waste_basket","waste":"trash"}},"type":"Feature"},
	{"geometry":{"coordinates":[7.111636,49.274629],"type":"Point"},"properties":{"osm_id":"6433158006","tag":{"amenity":"waste_basket","waste":"trash"}},"type":"Feature"},
	{"geometry":{"coordinates":[7.113343,49.275464],"type":"Point"},"properties":{"osm_id":"6433158007","tag":{"amenity":"waste_basket","waste":"trash"}},"type":"Feature"},
	{"geometry":{"coordinates":[7.111785,49.274743],"type":"Point"},"properties":{"osm_id":"6433158010","tag":{"amenity":"waste_basket","waste":"trash"}},"type":"Feature"},
	{"geometry":{"coordinates":[7.112098,49.275],"type":"Point"},"properties":{"osm_id":"6433158014","tag":{"amenity":"waste_basket","waste":"trash"}},"type":"Feature"},
	{"geometry":{"coordinates":[7.111918,49.278539],"type":"Point"},"properties":{"osm_id":"6433158016","tag":{"amenity":"waste_basket"}},"type":"Feature"},
	{"geometry":{"coordinates":[7.112002,49.278808],"type":"Point"},"properties":{"osm_id":"6433158017","tag":{"amenity":"waste_basket"}},"type":"Feature"},
	{"geometry":{"coordinates":[7.113212,49.275615],"type":"Point"},"properties":{"osm_id":"6433158023","tag":{"amenity":"waste_basket","waste":"trash"}},"type":"Feature"},
	{"geometry":{"coordinates":[7.062439,49.31115],"type":"Point"},"properties":{"osm_id":"6443850907","tag":{"amenity":"recycling","recycling:clothes":"yes","recycling_type":"container"}},"type":"Feature"},
	{"geometry":{"coordinates":[7.060071,49.310277],"type":"Point"},"properties":{"osm_id":"6443850908","tag":{"amenity":"waste_basket"}},"type":"Feature"},
	{"geometry":{"coordinates":[7.056632,49.311406],"type":"Point"},"properties":{"osm_id":"6443850918","tag":{"amenity":"waste_basket"}},"type":"Feature"},
	{"geometry":{"coordinates":[7.07379,49.312444],"type":"Point"},"properties":{"osm_id":"6449103893","tag":{"amenity":"waste_basket"}},"type":"Feature"},
	{"geometry":{"coordinates":[7.072801,49.31212],"type":"Point"},"properties":{"osm_id":"6449103896","tag":{"amenity":"recycling","recycling:clothes":"yes","recycling:glass_bottles":"yes","recycling:paper":"yes","recycling_type":"container"}},"type":"Feature"},
	{"geometry":{"coordinates":[7.07568,49.314234],"type":"Point"},"properties":{"osm_id":"6449144698","tag":{"amenity":"waste_basket"}},"type":"Feature"},
	{"geometry":{"coordinates":[7.076472,49.312162],"type":"Point"},"properties":{"osm_id":"6449282727","tag":{"amenity":"waste_basket"}},"type":"Feature"},
	{"geometry":{"coordinates":[7.068951,49.312372],"type":"Point"},"properties":{"osm_id":"6449367866","tag":{"amenity":"waste_basket"}},"type":"Feature"},
	{"geometry":{"coordinates":[7.041132,49.271375],"type":"Point"},"properties":{"osm_id":"7256442804","tag":{"amenity":"waste_disposal","waste":"trash"}},"type":"Feature"},
	{"geometry":{"coordinates":[7.033597,49.276576],"type":"Point"},"properties":{"osm_id":"7659422686","tag":{"amenity":"waste_basket","waste":"trash"}},"type":"Feature"},
	{"geometry":{"coordinates":[7.033712,49.276456],"type":"Point"},"properties":{"osm_id":"7659422696","tag":{"amenity":"waste_basket","waste":"trash"}},"type":"Feature"},
	{"geometry":{"coordinates":[7.035017,49.274794],"type":"Point"},"properties":{"osm_id":"7659422756","tag":{"amenity":"waste_basket","operator":"ZKE","waste":"trash"}},"type":"Feature"},
	{"geometry":{"coordinates":[7.110983,49.274567],"type":"Point"},"properties":{"osm_id":"7667631189","tag":{"amenity":"waste_basket","waste":"trash"}},"type":"Feature"},
	{"geometry":{"coordinates":[7.110775,49.274486],"type":"Point"},"properties":{"osm_id":"7667631191","tag":{"amenity":"waste_basket","waste":"trash"}},"type":"Feature"},
	{"geometry":{"coordinates":[7.115607,49.281837],"type":"Point"},"properties":{"osm_id":"7667631199","tag":{"amenity":"waste_basket","waste":"trash"}},"type":"Feature"},
	{"geometry":{"coordinates":[7.111126,49.274359],"type":"Point"},"properties":{"osm_id":"7667631215","tag":{"amenity":"waste_basket","waste":"trash"}},"type":"Feature"},
	{"geometry":{"coordinates":[7.111213,49.274387],"type":"Point"},"properties":{"osm_id":"7667631219","tag":{"amenity":"waste_basket","waste":"trash"}},"type":"Feature"},
	{"geometry":{"coordinates":[7.112007,49.274517],"type":"Point"},"properties":{"osm_id":"7667631220","tag":{"amenity":"waste_basket","waste":"trash"}},"type":"Feature"},
	{"geometry":{"coordinates":[7.111105,49.274621],"type":"Point"},"properties":{"osm_id":"7667631249","tag":{"amenity":"waste_basket","waste":"trash"}},"type":"Feature"},
	{"geometry":{"coordinates":[7.111088,49.274409],"type":"Point"},"properties":{"osm_id":"7667631253","tag":{"amenity":"waste_basket","waste":"trash"}},"type":"Feature"},
	{"geometry":{"coordinates":[7.111167,49.274438],"type":"Point"},"properties":{"osm_id":"7667631257","tag":{"amenity":"waste_basket","waste":"trash"}},"type":"Feature"},
	{"geometry":{"coordinates":[7.106681,49.275165],"type":"Point"},"properties":{"osm_id":"7667631286","tag":{"amenity":"recycling","recycling:cardboard":"yes","recycling:glass_bottles":"yes","recycling:paper":"yes","recycling_type":"container"}},"type":"Feature"},
	{"geometry":{"coordinates":[7.033372,49.277433],"type":"Point"},"properties":{"osm_id":"7797383895","tag":{"amenity":"waste_basket","colour":"black","operator":"ZKE","waste":"trash"}},"type":"Feature"},
	{"geometry":{"coordinates":[7.039743,49.2746],"type":"Point"},"properties":{"osm_id":"7837212420","tag":{"amenity":"waste_basket","waste":"trash"}},"type":"Feature"}
]
}
