{
"type": "FeatureCollection",
"features": [
	{"geometry":{"coordinates":[7.107797,49.154635],"type":"Point"},"properties":{"osm_id":"253848891","tag":{"amenity":"recycling","recycling:glass":"yes","recycling:paper":"yes"}},"type":"Feature"},
	{"geometry":{"coordinates":[7.103879,49.192134],"type":"Point"},"properties":{"osm_id":"360055000","tag":{"amenity":"recycling","location":"overground","recycling:glass":"yes","recycling_type":"container"}},"type":"Feature"},
	{"geometry":{"coordinates":[7.093906,49.191607],"type":"Point"},"properties":{"osm_id":"360055002","tag":{"amenity":"recycling","recycling:glass":"yes","recycling:paper":"yes","recycling_type":"container"}},"type":"Feature"},
	{"geometry":{"coordinates":[7.110703,49.207364],"type":"Point"},"properties":{"osm_id":"363995272","tag":{"amenity":"recycling","recycling:clothes":"yes","recycling:glass":"yes","recycling:paper":"yes"}},"type":"Feature"},
	{"geometry":{"coordinates":[7.033149,49.156874],"type":"Point"},"properties":{"osm_id":"427495665","tag":{"amenity":"recycling","recycling:glass":"yes","recycling_type":"container"}},"type":"Feature"},
	{"geometry":{"coordinates":[7.11328,49.210176],"type":"Point"},"properties":{"osm_id":"444029267","tag":{"amenity":"recycling"}},"type":"Feature"},
	{"geometry":{"coordinates":[7.038195,49.184741],"type":"Point"},"properties":{"osm_id":"506549422","tag":{"amenity":"recycling","recycling:glass":"yes","recycling:paper":"yes","recycling_type":"container"}},"type":"Feature"},
	{"geometry":{"coordinates":[7.039059,49.182605],"type":"Point"},"properties":{"osm_id":"506549423","tag":{"amenity":"recycling","recycling:glass":"yes","recycling:paper":"yes"}},"type":"Feature"},
	{"geometry":{"coordinates":[7.039374,49.181734],"type":"Point"},"properties":{"osm_id":"506549424","tag":{"amenity":"recycling","recycling:clothes":"yes"}},"type":"Feature"},
	{"geometry":{"coordinates":[7.093392,49.164201],"type":"Point"},"properties":{"osm_id":"619263162","tag":{"amenity":"recycling","recycling:glass":"yes","recycling:paper":"yes"}},"type":"Feature"},
	{"geometry":{"coordinates":[7.082171,49.163937],"type":"Point"},"properties":{"osm_id":"650984825","tag":{"amenity":"recycling","recycling:clothes":"yes","recycling:glass_bottles":"yes","recycling:paper":"yes","recycling:shoes":"yes","recycling_type":"container"}},"type":"Feature"},
	{"geometry":{"coordinates":[7.040704,49.204734],"type":"Point"},"properties":{"osm_id":"2098865842","ref":"Am Langfeld","tag":{"amenity":"recycling","recycling:glass_bottles":"yes","recycling_type":"container"}},"type":"Feature"},
	{"geometry":{"coordinates":[7.076906,49.200421],"type":"Point"},"properties":{"osm_id":"2225251872","tag":{"amenity":"recycling","recycling:cardboard":"yes","recycling:clothes":"yes","recycling:glass_bottles":"yes","recycling:paper":"yes","recycling:shoes":"yes","recycling_type":"container"}},"type":"Feature"},
	{"geometry":{"coordinates":[7.031683,49.161764],"type":"Point"},"properties":{"osm_id":"4006069514","tag":{"amenity":"waste_basket"}},"type":"Feature"},
	{"geometry":{"coordinates":[7.033283,49.157095],"type":"Point"},"properties":{"osm_id":"4116357263","tag":{"amenity":"waste_basket"}},"type":"Feature"},
	{"geometry":{"coordinates":[7.036221,49.154452],"type":"Point"},"properties":{"osm_id":"4416652866","tag":{"amenity":"waste_basket"}},"type":"Feature"},
	{"geometry":{"coordinates":[7.038723,49.153198],"type":"Point"},"properties":{"osm_id":"5057346179","tag":{"amenity":"recycling","recycling:glass":"yes","recycling:paper":"yes","recycling_type":"container"}},"type":"Feature"},
	{"geometry":{"coordinates":[7.040123,49.207094],"type":"Point"},"properties":{"osm_id":"5070894835","tag":{"amenity":"recycling","recycling:glass":"yes","recycling:glass_bottles":"yes","recycling:paper":"yes","recycling_type":"container"}},"type":"Feature"},
	{"geometry":{"coordinates":[7.033312,49.157298],"type":"Point"},"properties":{"osm_id":"5274120075","tag":{"amenity":"waste_basket"}},"type":"Feature"},
	{"geometry":{"coordinates":[7.033565,49.157263],"type":"Point"},"properties":{"osm_id":"5274120076","tag":{"amenity":"waste_basket"}},"type":"Feature"},
	{"geometry":{"coordinates":[7.033736,49.157295],"type":"Point"},"properties":{"osm_id":"5274120078","tag":{"amenity":"waste_basket"}},"type":"Feature"},
	{"geometry":{"coordinates":[7.068631,49.195684],"type":"Point"},"properties":{"osm_id":"5477293847","tag":{"amenity":"recycling","recycling:clothes":"yes","recycling_type":"container"}},"type":"Feature"},
	{"geometry":{"coordinates":[7.088652,49.16484],"type":"Point"},"properties":{"osm_id":"6405167630","tag":{"amenity":"waste_basket","waste":"trash"}},"type":"Feature"},
	{"geometry":{"coordinates":[7.071613,49.191043],"type":"Point"},"properties":{"osm_id":"6434817728","tag":{"amenity":"waste_basket","waste":"trash"}},"type":"Feature"},
	{"geometry":{"coordinates":[7.071495,49.190978],"type":"Point"},"properties":{"osm_id":"6434817731","tag":{"amenity":"waste_basket","waste":"trash"}},"type":"Feature"},
	{"geometry":{"coordinates":[7.07143,49.19103],"type":"Point"},"properties":{"osm_id":"6434817732","tag":{"amenity":"waste_basket","waste":"trash"}},"type":"Feature"},
	{"geometry":{"coordinates":[7.071141,49.191709],"type":"Point"},"properties":{"osm_id":"6434817757","tag":{"amenity":"waste_basket","waste":"trash"}},"type":"Feature"},
	{"geometry":{"coordinates":[7.071301,49.191565],"type":"Point"},"properties":{"osm_id":"6434817758","tag":{"amenity":"waste_basket","waste":"trash"}},"type":"Feature"},
	{"geometry":{"coordinates":[7.068026,49.182393],"type":"Point"},"properties":{"osm_id":"6434819323","tag":{"amenity":"waste_basket","colour":"orange","waste":"trash"}},"type":"Feature"},
	{"geometry":{"coordinates":[7.064524,49.199768],"type":"Point"},"properties":{"osm_id":"7053287384","tag":{"amenity":"recycling","recycling_type":"container"}},"type":"Feature"},
	{"geometry":{"coordinates":[7.11287,49.159279],"type":"Point"},"properties":{"osm_id":"7796778780","tag":{"amenity":"waste_basket","waste":"trash"}},"type":"Feature"}
]
}
