{
"type": "FeatureCollection",
"features": [
	{"geometry":{"coordinates":[7.11325,49.14993],"type":"Point"},"properties":{"osm_id":"352950802","tag":{"amenity":"recycling","recycling:clothes":"yes","recycling:glass":"yes","recycling:paper":"yes"}},"type":"Feature"},
	{"geometry":{"coordinates":[7.037794,49.102496],"type":"Point"},"properties":{"osm_id":"689973162","tag":{"amenity":"recycling","operator":"Sydeme","recycling:beverage_cartons":"yes","recycling:books":"yes","recycling:glass":"yes","recycling:glass_bottles":"yes","recycling:magazines":"yes","recycling:newspaper":"yes","recycling:paper":"yes","recycling:paper_packaging":"yes","recycling_type":"container"}},"type":"Feature"},
	{"geometry":{"coordinates":[7.045936,49.112379],"type":"Point"},"properties":{"osm_id":"689978874","tag":{"amenity":"recycling","recycling:clothes":"yes","recycling:glass_bottles":"yes","recycling:paper":"yes","recycling_type":"container"}},"type":"Feature"},
	{"geometry":{"coordinates":[7.033394,49.150035],"type":"Point"},"properties":{"osm_id":"1803285859","tag":{"amenity":"recycling","recycling:glass_bottles":"yes","recycling:green_waste":"yes","recycling_type":"container"}},"type":"Feature"},
	{"geometry":{"coordinates":[7.080594,49.15183],"type":"Point"},"properties":{"osm_id":"4351613307","tag":{"amenity":"recycling","recycling:glass":"yes","recycling:paper":"yes","recycling_type":"container"}},"type":"Feature"},
	{"geometry":{"coordinates":[7.114099,49.147914],"type":"Point"},"properties":{"name":"Flaschencontainer","osm_id":"4451079793","tag":{"amenity":"recycling","name:de":"Flaschencontainer"}},"type":"Feature"},
	{"geometry":{"coordinates":[7.071376,49.106901],"type":"Point"},"properties":{"osm_id":"4894940758","tag":{"amenity":"waste_basket"}},"type":"Feature"},
	{"geometry":{"coordinates":[7.071003,49.108181],"type":"Point"},"properties":{"osm_id":"4894940760","tag":{"amenity":"waste_basket"}},"type":"Feature"},
	{"geometry":{"coordinates":[7.08467,49.095858],"type":"Point"},"properties":{"osm_id":"4901895437","tag":{"amenity":"waste_basket"}},"type":"Feature"},
	{"geometry":{"coordinates":[7.065079,49.113595],"type":"Point"},"properties":{"osm_id":"4902803168","tag":{"amenity":"waste_basket"}},"type":"Feature"},
	{"geometry":{"coordinates":[7.06763,49.113224],"type":"Point"},"properties":{"osm_id":"4902803178","tag":{"amenity":"waste_basket"}},"type":"Feature"},
	{"geometry":{"coordinates":[7.069531,49.107846],"type":"Point"},"properties":{"osm_id":"4903519883","tag":{"amenity":"waste_basket"}},"type":"Feature"},
	{"geometry":{"coordinates":[7.068219,49.108759],"type":"Point"},"properties":{"osm_id":"4903519891","tag":{"amenity":"waste_basket"}},"type":"Feature"},
	{"geometry":{"coordinates":[7.066025,49.110501],"type":"Point"},"properties":{"osm_id":"4903519894","tag":{"amenity":"waste_basket"}},"type":"Feature"},
	{"geometry":{"coordinates":[7.064003,49.111242],"type":"Point"},"properties":{"osm_id":"4903519916","tag":{"amenity":"waste_basket"}},"type":"Feature"},
	{"geometry":{"coordinates":[7.069092,49.131321],"type":"Point"},"properties":{"osm_id":"4936944099","tag":{"amenity":"recycling","recycling:glass":"yes","recycling:paper":"yes","recycling_type":"container"}},"type":"Feature"},
	{"geometry":{"coordinates":[7.044162,49.148651],"type":"Point"},"properties":{"osm_id":"5031149081","tag":{"amenity":"waste_basket"}},"type":"Feature"},
	{"geometry":{"coordinates":[7.044413,49.148254],"type":"Point"},"properties":{"osm_id":"5031149082","tag":{"amenity":"waste_basket"}},"type":"Feature"},
	{"geometry":{"coordinates":[7.043895,49.148317],"type":"Point"},"properties":{"osm_id":"5031149083","tag":{"amenity":"waste_basket"}},"type":"Feature"},
	{"geometry":{"coordinates":[7.042721,49.149983],"type":"Point"},"properties":{"osm_id":"5031149093","tag":{"amenity":"waste_basket"}},"type":"Feature"},
	{"geometry":{"coordinates":[7.039356,49.152412],"type":"Point"},"properties":{"osm_id":"5057346178","tag":{"amenity":"recycling","recycling:clothes":"yes","recycling:shoes":"yes","recycling_type":"container"}},"type":"Feature"},
	{"geometry":{"coordinates":[7.048247,49.122583],"type":"Point"},"properties":{"osm_id":"5060887708","tag":{"amenity":"waste_basket"}},"type":"Feature"},
	{"geometry":{"coordinates":[7.048432,49.122118],"type":"Point"},"properties":{"osm_id":"5060887710","tag":{"amenity":"waste_basket"}},"type":"Feature"},
	{"geometry":{"coordinates":[7.053226,49.116093],"type":"Point"},"properties":{"osm_id":"5060887713","tag":{"amenity":"recycling","recycling:clothes":"yes","recycling:glass":"yes","recycling:paper":"yes","recycling_type":"container"}},"type":"Feature"},
	{"geometry":{"coordinates":[7.044783,49.136275],"type":"Point"},"properties":{"osm_id":"5215812322","tag":{"amenity":"recycling","recycling:clothes":"yes","recycling:glass_bottles":"yes","recycling_type":"container"}},"type":"Feature"},
	{"geometry":{"coordinates":[7.06551,49.129466],"type":"Point"},"properties":{"osm_id":"5810303143","tag":{"amenity":"waste_basket","waste":"trash"}},"type":"Feature"},
	{"geometry":{"coordinates":[7.057978,49.119908],"type":"Point"},"properties":{"osm_id":"6627691598","tag":{"amenity":"recycling","recycling:clothes":"yes","recycling_type":"container"}},"type":"Feature"},
	{"geometry":{"coordinates":[7.046353,49.115441],"type":"Point"},"properties":{"osm_id":"6716283643","tag":{"amenity":"waste_basket"}},"type":"Feature"},
	{"geometry":{"coordinates":[7.04488,49.104236],"type":"Point"},"properties":{"osm_id":"7272377422","tag":{"amenity":"recycling","operator":"Sydeme","recycling:books":"yes","recycling:cartons":"yes","recycling:glass_bottles":"yes","recycling:magazines":"yes","recycling:newspaper":"yes","recycling:paper":"yes","recycling_type":"container"}},"type":"Feature"},
	{"geometry":{"coordinates":[7.047651,49.100777],"type":"Point"},"properties":{"osm_id":"7626120113","tag":{"amenity":"recycling","recycling_type":"container"}},"type":"Feature"},
	{"geometry":{"coordinates":[7.047571,49.100908],"type":"Point"},"properties":{"osm_id":"7626120114","tag":{"amenity":"recycling","recycling_type":"container"}},"type":"Feature"},
	{"geometry":{"coordinates":[7.048307,49.100248],"type":"Point"},"properties":{"osm_id":"7626120124","tag":{"amenity":"recycling","recycling_type":"container"}},"type":"Feature"},
	{"geometry":{"coordinates":[7.100138,49.13731],"type":"Point"},"properties":{"osm_id":"7727195250","tag":{"amenity":"waste_basket","waste":"trash"}},"type":"Feature"},
	{"geometry":{"coordinates":[7.090606,49.131755],"type":"Point"},"properties":{"osm_id":"7727195263","tag":{"amenity":"waste_basket","waste":"trash"}},"type":"Feature"},
	{"geometry":{"coordinates":[7.099728,49.138093],"type":"Point"},"properties":{"osm_id":"7727197003","tag":{"amenity":"waste_basket","waste":"trash"}},"type":"Feature"},
	{"geometry":{"coordinates":[7.090116,49.138689],"type":"Point"},"properties":{"osm_id":"7727197017","tag":{"amenity":"waste_basket","waste":"trash"}},"type":"Feature"},
	{"geometry":{"coordinates":[7.088404,49.150928],"type":"Point"},"properties":{"osm_id":"7727197029","tag":{"amenity":"waste_basket","waste":"trash"}},"type":"Feature"},
	{"geometry":{"coordinates":[7.099139,49.13964],"type":"Point"},"properties":{"osm_id":"7727197035","tag":{"amenity":"waste_basket","waste":"trash"}},"type":"Feature"},
	{"geometry":{"coordinates":[7.088032,49.150853],"type":"Point"},"properties":{"osm_id":"7727197036","tag":{"amenity":"recycling","recycling:cardboard":"yes","recycling:clothes":"yes","recycling:glass_bottles":"yes","recycling:paper":"yes","recycling:shoes":"yes","recycling_type":"container","wheelchair":"yes"}},"type":"Feature"},
	{"geometry":{"coordinates":[7.091099,49.13194],"type":"Point"},"properties":{"osm_id":"7727197043","tag":{"amenity":"waste_basket","waste":"trash"}},"type":"Feature"},
	{"geometry":{"coordinates":[7.091116,49.132094],"type":"Point"},"properties":{"osm_id":"7727531696","tag":{"amenity":"waste_basket","waste":"trash"}},"type":"Feature"}
]
}
