{
"type": "FeatureCollection",
"features": [
	{"geometry":{"coordinates":[7.114407,46.927777],"type":"Point"},"properties":{"osm_id":"368357108","tag":{"amenity":"waste_basket"}},"type":"Feature"},
	{"geometry":{"coordinates":[7.114579,46.927725],"type":"Point"},"properties":{"osm_id":"368357113","tag":{"amenity":"waste_basket"}},"type":"Feature"},
	{"geometry":{"coordinates":[7.112721,46.92838],"type":"Point"},"properties":{"osm_id":"369466637","tag":{"amenity":"waste_basket"}},"type":"Feature"},
	{"geometry":{"coordinates":[7.112267,46.924034],"type":"Point"},"properties":{"osm_id":"621890812","tag":{"amenity":"recycling","recycling:clothes":"yes"}},"type":"Feature"},
	{"geometry":{"coordinates":[7.089641,46.921772],"type":"Point"},"properties":{"osm_id":"1251665182","tag":{"amenity":"waste_basket"}},"type":"Feature"},
	{"geometry":{"coordinates":[7.114716,46.970429],"type":"Point"},"properties":{"name":"D\u00c3\u00a9ch\u00c3\u00a8terie","osm_id":"1674814626","tag":{"amenity":"recycling","recycling:batteries":"yes","recycling:books":"no","recycling:cans":"yes","recycling:cardboard":"yes","recycling:cartons":"yes","recycling:clothes":"yes","recycling:electrical_appliances":"yes","recycling:glass":"yes","recycling:glass_bottles":"yes","recycling:green_waste":"no","recycling:magazines":"yes","recycling:newspaper":"yes","recycling:paper":"yes","recycling:paper_packaging":"yes","recycling:plastic":"yes","recycling:plastic_bottles":"yes","recycling:plastic_packaging":"yes","recycling:scrap_metal":"yes","recycling:small_appliances":"yes","recycling:waste":"no","recycling:wood":"no","recycling_type":"centre"}},"type":"Feature"},
	{"geometry":{"coordinates":[7.117588,46.961192],"type":"Point"},"properties":{"osm_id":"2721676428","tag":{"amenity":"waste_basket"}},"type":"Feature"},
	{"geometry":{"coordinates":[7.054999,46.975051],"type":"Point"},"properties":{"osm_id":"5420900836","tag":{"amenity":"waste_basket"}},"type":"Feature"},
	{"geometry":{"coordinates":[7.116707,46.93207],"type":"Point"},"properties":{"osm_id":"6482526845","tag":{"amenity":"waste_basket"}},"type":"Feature"},
	{"geometry":{"coordinates":[7.116535,46.931817],"type":"Point"},"properties":{"osm_id":"6482526851","tag":{"amenity":"waste_basket"}},"type":"Feature"},
	{"geometry":{"coordinates":[7.115613,46.926955],"type":"Point"},"properties":{"osm_id":"8261482541","tag":{"amenity":"waste_basket"}},"type":"Feature"},
	{"geometry":{"coordinates":[7.117633,46.931484],"type":"Point"},"properties":{"osm_id":"8261607862","tag":{"amenity":"waste_basket"}},"type":"Feature"},
	{"geometry":{"coordinates":[7.1159,46.927045],"type":"Point"},"properties":{"osm_id":"8444092122","tag":{"amenity":"waste_basket"}},"type":"Feature"},
	{"geometry":{"coordinates":[7.115971,46.926945],"type":"Point"},"properties":{"osm_id":"8444092126","tag":{"amenity":"waste_basket"}},"type":"Feature"},
	{"geometry":{"coordinates":[7.095581,46.974512],"type":"Point"},"properties":{"osm_id":"9019766627","tag":{"amenity":"waste_basket"}},"type":"Feature"},
	{"geometry":{"coordinates":[7.117018,46.930849],"type":"Point"},"properties":{"osm_id":"9019766629","tag":{"amenity":"waste_basket"}},"type":"Feature"},
	{"geometry":{"coordinates":[7.116766,46.931223],"type":"Point"},"properties":{"osm_id":"9019766631","tag":{"amenity":"waste_basket"}},"type":"Feature"},
	{"geometry":{"coordinates":[7.118241,46.932625],"type":"Point"},"properties":{"osm_id":"9019766633","tag":{"amenity":"waste_basket"}},"type":"Feature"},
	{"geometry":{"coordinates":[7.114073,46.96418],"type":"Point"},"properties":{"osm_id":"9019766641","tag":{"amenity":"waste_basket"}},"type":"Feature"},
	{"geometry":{"coordinates":[7.115938,46.929972],"type":"Point"},"properties":{"osm_id":"9019807338","tag":{"amenity":"waste_basket"}},"type":"Feature"},
	{"geometry":{"coordinates":[7.115949,46.925675],"type":"Point"},"properties":{"osm_id":"9019807339","tag":{"amenity":"waste_basket"}},"type":"Feature"},
	{"geometry":{"coordinates":[7.116105,46.925744],"type":"Point"},"properties":{"osm_id":"9019807343","tag":{"amenity":"waste_basket"}},"type":"Feature"}
]
}
