{
"type": "FeatureCollection",
"features": [
	{"geometry":{"coordinates":[7.077417,46.909206],"type":"Point"},"properties":{"osm_id":"851466952","tag":{"amenity":"waste_basket"}},"type":"Feature"},
	{"geometry":{"coordinates":[7.076884,46.910033],"type":"Point"},"properties":{"osm_id":"874377071","tag":{"amenity":"waste_basket"}},"type":"Feature"},
	{"geometry":{"coordinates":[7.077106,46.909837],"type":"Point"},"properties":{"osm_id":"874377100","tag":{"amenity":"waste_basket"}},"type":"Feature"},
	{"geometry":{"coordinates":[7.111181,46.889813],"type":"Point"},"properties":{"osm_id":"1080434058","tag":{"amenity":"recycling","recycling:cans":"yes","recycling:clothes":"yes","recycling:glass":"yes","recycling_type":"container"}},"type":"Feature"},
	{"geometry":{"coordinates":[7.118694,46.894699],"type":"Point"},"properties":{"osm_id":"1081954484","tag":{"amenity":"recycling"}},"type":"Feature"},
	{"geometry":{"coordinates":[7.118227,46.864305],"type":"Point"},"properties":{"osm_id":"1664827378","tag":{"amenity":"recycling","recycling:cans":"yes","recycling:clothes":"yes","recycling:glass":"yes","recycling:paper":"yes","recycling:scrap_metal":"yes","recycling_type":"centre"}},"type":"Feature"},
	{"geometry":{"coordinates":[7.049434,46.903422],"type":"Point"},"properties":{"osm_id":"3056176318","tag":{"amenity":"recycling","recycling_type":"container"}},"type":"Feature"},
	{"geometry":{"coordinates":[7.032409,46.915171],"type":"Point"},"properties":{"osm_id":"3346624087","tag":{"amenity":"recycling","recycling:cans":"yes","recycling:glass":"yes","recycling:glass_bottles":"yes","recycling:paper":"yes","recycling_type":"centre"}},"type":"Feature"},
	{"geometry":{"coordinates":[7.041022,46.881583],"type":"Point"},"properties":{"osm_id":"4397246321","tag":{"amenity":"waste_basket"}},"type":"Feature"},
	{"geometry":{"coordinates":[7.040287,46.881251],"type":"Point"},"properties":{"osm_id":"4397428997","tag":{"amenity":"waste_basket"}},"type":"Feature"},
	{"geometry":{"coordinates":[7.041459,46.880955],"type":"Point"},"properties":{"osm_id":"4398157468","tag":{"amenity":"waste_basket"}},"type":"Feature"},
	{"geometry":{"coordinates":[7.041358,46.881264],"type":"Point"},"properties":{"osm_id":"4398157469","tag":{"amenity":"waste_basket"}},"type":"Feature"},
	{"geometry":{"coordinates":[7.038079,46.87996],"type":"Point"},"properties":{"osm_id":"4398736018","tag":{"amenity":"waste_basket"}},"type":"Feature"},
	{"geometry":{"coordinates":[7.038043,46.879627],"type":"Point"},"properties":{"osm_id":"4398736056","tag":{"amenity":"waste_basket","description":"Poo bag dispatcher"}},"type":"Feature"},
	{"geometry":{"coordinates":[7.038427,46.879142],"type":"Point"},"properties":{"osm_id":"4398791097","tag":{"amenity":"waste_basket"}},"type":"Feature"},
	{"geometry":{"coordinates":[7.041622,46.881728],"type":"Point"},"properties":{"osm_id":"4400847319","tag":{"amenity":"waste_basket"}},"type":"Feature"},
	{"geometry":{"coordinates":[7.041873,46.881215],"type":"Point"},"properties":{"osm_id":"4400952838","tag":{"amenity":"waste_basket"}},"type":"Feature"},
	{"geometry":{"coordinates":[7.042147,46.880793],"type":"Point"},"properties":{"osm_id":"4400952873","tag":{"amenity":"waste_basket"}},"type":"Feature"},
	{"geometry":{"coordinates":[7.041072,46.879535],"type":"Point"},"properties":{"osm_id":"4401232876","tag":{"amenity":"waste_basket"}},"type":"Feature"},
	{"geometry":{"coordinates":[7.042582,46.880507],"type":"Point"},"properties":{"osm_id":"4401325969","tag":{"amenity":"waste_basket"}},"type":"Feature"},
	{"geometry":{"coordinates":[7.041377,46.8793],"type":"Point"},"properties":{"osm_id":"4401774026","tag":{"amenity":"waste_basket","description":"Poo bag dispenser included"}},"type":"Feature"},
	{"geometry":{"coordinates":[7.039287,46.878408],"type":"Point"},"properties":{"osm_id":"4402300256","tag":{"amenity":"waste_basket","description":"Poo bag dipenser included"}},"type":"Feature"},
	{"geometry":{"coordinates":[7.040509,46.879984],"type":"Point"},"properties":{"osm_id":"4402468814","tag":{"amenity":"waste_basket"}},"type":"Feature"},
	{"geometry":{"coordinates":[7.041214,46.881119],"type":"Point"},"properties":{"osm_id":"4402593482","tag":{"amenity":"waste_basket"}},"type":"Feature"},
	{"geometry":{"coordinates":[7.041638,46.881104],"type":"Point"},"properties":{"osm_id":"4402593485","tag":{"amenity":"waste_basket"}},"type":"Feature"},
	{"geometry":{"coordinates":[7.041454,46.881116],"type":"Point"},"properties":{"osm_id":"4402594394","tag":{"amenity":"waste_basket"}},"type":"Feature"},
	{"geometry":{"coordinates":[7.041146,46.881298],"type":"Point"},"properties":{"osm_id":"4402594398","tag":{"amenity":"waste_basket"}},"type":"Feature"},
	{"geometry":{"coordinates":[7.040393,46.880339],"type":"Point"},"properties":{"osm_id":"4402621853","tag":{"amenity":"waste_basket"}},"type":"Feature"},
	{"geometry":{"coordinates":[7.038995,46.880566],"type":"Point"},"properties":{"osm_id":"4403963130","tag":{"amenity":"waste_basket","description":"Poo bag dispenser included"}},"type":"Feature"},
	{"geometry":{"coordinates":[7.040679,46.880929],"type":"Point"},"properties":{"osm_id":"4405150559","tag":{"amenity":"waste_basket"}},"type":"Feature"},
	{"geometry":{"coordinates":[7.040758,46.879905],"type":"Point"},"properties":{"osm_id":"4408746663","tag":{"amenity":"waste_basket"}},"type":"Feature"},
	{"geometry":{"coordinates":[7.033137,46.916549],"type":"Point"},"properties":{"osm_id":"5312066570","tag":{"amenity":"waste_basket"}},"type":"Feature"}
]
}
