{
"type": "FeatureCollection",
"lastupdate": "2020-07-31T00:00:00Z",
"features": [
	{"geometry":{"coordinates":[7.108779,46.821793],"type":"Point"},"properties":{"osm_id":"988690567","tag":{"amenity":"waste_basket"}},"type":"Feature"},
	{"geometry":{"coordinates":[7.107678,46.822329],"type":"Point"},"properties":{"osm_id":"988754183","tag":{"amenity":"waste_basket"}},"type":"Feature"},
	{"geometry":{"coordinates":[7.062313,46.835017],"type":"Point"},"properties":{"osm_id":"1340163209","tag":{"amenity":"recycling","opening_hours":"We 13:30-17:30; week 1-53/2 Sa 09:00-12:00","recycling:cardboard":"yes","recycling:electrical_items":"yes","recycling:scrap_metal":"yes","recycling:white_goods":"yes"}},"type":"Feature"},
	{"geometry":{"coordinates":[7.061291,46.834096],"type":"Point"},"properties":{"osm_id":"1340163301","tag":{"amenity":"waste_basket"}},"type":"Feature"},
	{"geometry":{"coordinates":[7.062919,46.8316],"type":"Point"},"properties":{"osm_id":"1340163741","tag":{"amenity":"waste_basket"}},"type":"Feature"},
	{"geometry":{"coordinates":[7.062562,46.831477],"type":"Point"},"properties":{"osm_id":"1340164666","tag":{"amenity":"waste_basket"}},"type":"Feature"},
	{"geometry":{"coordinates":[7.091845,46.820529],"type":"Point"},"properties":{"name":"Home","osm_id":"4920626325","tag":{"amenity":"waste_basket","name:de":"Home"}},"type":"Feature"},
	{"geometry":{"coordinates":[7.092179,46.82194],"type":"Point"},"properties":{"name":"Bahn\u00c5\u00abbergang","osm_id":"4920626326","tag":{"amenity":"waste_basket","name:de":"Bahn\u016bbergang"}},"type":"Feature"}
]
}
