{
"type": "FeatureCollection",
"features": [
	{"geometry":{"coordinates":[7.094805,46.764015],"type":"Point"},"properties":{"name":"D\u00c3\u00a9ch\u00c3\u00a8terie communale","osm_id":"369570762","tag":{"amenity":"recycling","recycling_type":"centre"}},"type":"Feature"},
	{"geometry":{"coordinates":[7.118616,46.790395],"type":"Point"},"properties":{"osm_id":"370164185","tag":{"amenity":"waste_basket"}},"type":"Feature"},
	{"geometry":{"coordinates":[7.107739,46.787273],"type":"Point"},"properties":{"osm_id":"1050088605","tag":{"amenity":"waste_basket"}},"type":"Feature"},
	{"geometry":{"coordinates":[7.114966,46.798637],"type":"Point"},"properties":{"osm_id":"1150979955","tag":{"amenity":"waste_basket"}},"type":"Feature"},
	{"geometry":{"coordinates":[7.118082,46.798085],"type":"Point"},"properties":{"osm_id":"1150979967","tag":{"amenity":"waste_basket"}},"type":"Feature"},
	{"geometry":{"coordinates":[7.094894,46.788411],"type":"Point"},"properties":{"osm_id":"1151589108","tag":{"amenity":"waste_basket"}},"type":"Feature"},
	{"geometry":{"coordinates":[7.090296,46.787802],"type":"Point"},"properties":{"osm_id":"1151589241","tag":{"amenity":"waste_basket"}},"type":"Feature"},
	{"geometry":{"coordinates":[7.061543,46.782502],"type":"Point"},"properties":{"osm_id":"1311996163","tag":{"amenity":"waste_basket"}},"type":"Feature"},
	{"geometry":{"coordinates":[7.067743,46.766618],"type":"Point"},"properties":{"osm_id":"1347269659","tag":{"amenity":"waste_basket"}},"type":"Feature"},
	{"geometry":{"coordinates":[7.077143,46.768875],"type":"Point"},"properties":{"osm_id":"1347269978","tag":{"amenity":"waste_basket"}},"type":"Feature"},
	{"geometry":{"coordinates":[7.08593,46.782693],"type":"Point"},"properties":{"osm_id":"1347801494","tag":{"amenity":"waste_basket"}},"type":"Feature"},
	{"geometry":{"coordinates":[7.117692,46.777794],"type":"Point"},"properties":{"name":"SFR Soci\u00c3\u00a9t\u00c3\u00a9 Fribourgeoise de Recyclage SA","osm_id":"1855352042","tag":{"amenity":"recycling","recycling_type":"centre","website":"http://www.sfr-recyclage.ch/"}},"type":"Feature"},
	{"geometry":{"coordinates":[7.035635,46.748841],"type":"Point"},"properties":{"osm_id":"2377108624","tag":{"amenity":"recycling","recycling_type":"centre"}},"type":"Feature"},
	{"geometry":{"coordinates":[7.098979,46.769869],"type":"Point"},"properties":{"osm_id":"8986314940","tag":{"amenity":"waste_basket"}},"type":"Feature"},
	{"geometry":{"coordinates":[7.11637,46.784195],"type":"Point"},"properties":{"osm_id":"9004815246","tag":{"amenity":"waste_basket"}},"type":"Feature"}
]
}
