{
"type": "FeatureCollection",
"features": [
	{"geometry":{"coordinates":[7.081549,43.568381],"type":"Point"},"properties":{"osm_id":"271044661","tag":{"amenity":"recycling"}},"type":"Feature"},
	{"geometry":{"coordinates":[7.115755,43.566496],"type":"Point"},"properties":{"osm_id":"331264667","tag":{"amenity":"recycling","recycling:glass":"yes"}},"type":"Feature"},
	{"geometry":{"coordinates":[7.114123,43.569683],"type":"Point"},"properties":{"osm_id":"351941985","tag":{"amenity":"recycling","location":"overground","recycling:glass":"yes","recycling:glass_bottles":"yes","recycling_type":"container"}},"type":"Feature"},
	{"geometry":{"coordinates":[7.087782,43.576467],"type":"Point"},"properties":{"osm_id":"539543171","tag":{"amenity":"recycling","recycling:glass":"yes","recycling:paper":"yes"}},"type":"Feature"},
	{"geometry":{"coordinates":[7.084215,43.566446],"type":"Point"},"properties":{"osm_id":"564882308","tag":{"amenity":"recycling","recycling:glass":"yes","recycling:paper":"yes"}},"type":"Feature"},
	{"geometry":{"coordinates":[7.094395,43.5799],"type":"Point"},"properties":{"osm_id":"579253792","tag":{"amenity":"recycling","recycling:glass":"yes","recycling:paper":"yes","recycling_type":"container"}},"type":"Feature"},
	{"geometry":{"coordinates":[7.06823,43.57757],"type":"Point"},"properties":{"osm_id":"582480742","tag":{"amenity":"recycling","recycling:glass":"yes","recycling:paper":"yes"}},"type":"Feature"},
	{"geometry":{"coordinates":[7.106805,43.577836],"type":"Point"},"properties":{"osm_id":"611057291","tag":{"amenity":"recycling","recycling:glass":"yes","recycling:paper":"yes"}},"type":"Feature"},
	{"geometry":{"coordinates":[7.091808,43.574257],"type":"Point"},"properties":{"osm_id":"1234251313","tag":{"amenity":"recycling","recycling:cans":"yes","recycling:clothes":"yes","recycling:glass_bottles":"yes","recycling:paper":"yes","recycling:plastic":"yes","recycling:plastic_bottles":"yes","recycling:plastic_packaging":"yes","recycling_type":"container"}},"type":"Feature"},
	{"geometry":{"coordinates":[7.102448,43.570779],"type":"Point"},"properties":{"osm_id":"1547995711","tag":{"amenity":"recycling","location":"overground","recycling:glass":"yes","recycling:plastic":"yes","recycling:plastic_bottles":"yes","recycling_type":"container"}},"type":"Feature"},
	{"geometry":{"coordinates":[7.074607,43.566892],"type":"Point"},"properties":{"osm_id":"1722656093","tag":{"amenity":"recycling"}},"type":"Feature"},
	{"geometry":{"coordinates":[7.072591,43.56502],"type":"Point"},"properties":{"osm_id":"1725223108","tag":{"amenity":"recycling","recycling:glass":"yes","recycling_type":"container"}},"type":"Feature"},
	{"geometry":{"coordinates":[7.07185,43.567833],"type":"Point"},"properties":{"osm_id":"1725612920","tag":{"amenity":"recycling","recycling_type":"container"}},"type":"Feature"},
	{"geometry":{"coordinates":[7.073801,43.569689],"type":"Point"},"properties":{"osm_id":"1737469379","tag":{"amenity":"recycling","recycling:glass":"yes","recycling:paper":"yes","recycling_type":"container"}},"type":"Feature"},
	{"geometry":{"coordinates":[7.083604,43.569605],"type":"Point"},"properties":{"osm_id":"1740546617","tag":{"amenity":"recycling","recycling_type":"container"}},"type":"Feature"},
	{"geometry":{"coordinates":[7.073263,43.567866],"type":"Point"},"properties":{"osm_id":"1762293557","tag":{"amenity":"recycling","recycling_type":"container"}},"type":"Feature"},
	{"geometry":{"coordinates":[7.070151,43.566145],"type":"Point"},"properties":{"osm_id":"1763332561","tag":{"amenity":"recycling","recycling_type":"container"}},"type":"Feature"},
	{"geometry":{"coordinates":[7.117219,43.579766],"type":"Point"},"properties":{"osm_id":"1778127765","tag":{"amenity":"recycling"}},"type":"Feature"},
	{"geometry":{"coordinates":[7.086177,43.570325],"type":"Point"},"properties":{"osm_id":"1975006482","tag":{"amenity":"recycling","recycling:glass":"yes","recycling:paper":"yes"}},"type":"Feature"},
	{"geometry":{"coordinates":[7.11167,43.570757],"type":"Point"},"properties":{"osm_id":"2007944973","tag":{"amenity":"recycling","recycling:glass":"yes","recycling:paper":"yes","recycling_type":"container"}},"type":"Feature"},
	{"geometry":{"coordinates":[7.073858,43.566701],"type":"Point"},"properties":{"osm_id":"2008010123","tag":{"amenity":"recycling","recycling:paper":"yes","recycling_type":"container"}},"type":"Feature"},
	{"geometry":{"coordinates":[7.117567,43.57778],"type":"Point"},"properties":{"osm_id":"2815815354","tag":{"amenity":"recycling","recycling:cans":"yes","recycling:clothes":"no","recycling:glass":"yes","recycling:paper":"yes"}},"type":"Feature"},
	{"geometry":{"coordinates":[7.118507,43.580048],"type":"Point"},"properties":{"osm_id":"3149099539","tag":{"amenity":"recycling","recycling:cans":"no","recycling:clothes":"no","recycling:glass":"yes","recycling:paper":"no"}},"type":"Feature"},
	{"geometry":{"coordinates":[7.115529,43.568885],"type":"Point"},"properties":{"osm_id":"3321584585","tag":{"amenity":"recycling","recycling:cans":"yes","recycling:cardboard":"yes","recycling:clothes":"no","recycling:glass":"yes","recycling:paper":"yes"}},"type":"Feature"},
	{"geometry":{"coordinates":[7.118558,43.566561],"type":"Point"},"properties":{"osm_id":"3330146631","tag":{"addr:street":"Avenue Edmond d'Esclevin","amenity":"recycling","recycling:cans":"yes","recycling:clothes":"no","recycling:glass":"yes","recycling:paper":"yes"}},"type":"Feature"},
	{"geometry":{"coordinates":[7.088795,43.571177],"type":"Point"},"properties":{"osm_id":"3428348613","tag":{"amenity":"waste_basket"}},"type":"Feature"},
	{"geometry":{"coordinates":[7.089619,43.571258],"type":"Point"},"properties":{"osm_id":"3428348622","tag":{"amenity":"waste_basket"}},"type":"Feature"},
	{"geometry":{"coordinates":[7.088131,43.571263],"type":"Point"},"properties":{"osm_id":"3428348624","tag":{"amenity":"waste_basket"}},"type":"Feature"},
	{"geometry":{"coordinates":[7.087827,43.572099],"type":"Point"},"properties":{"osm_id":"3428348675","tag":{"amenity":"waste_basket"}},"type":"Feature"},
	{"geometry":{"coordinates":[7.087546,43.572416],"type":"Point"},"properties":{"osm_id":"3428348682","tag":{"amenity":"waste_basket"}},"type":"Feature"},
	{"geometry":{"coordinates":[7.087399,43.572993],"type":"Point"},"properties":{"osm_id":"3428348688","tag":{"amenity":"waste_basket"}},"type":"Feature"},
	{"geometry":{"coordinates":[7.087097,43.573617],"type":"Point"},"properties":{"osm_id":"3428348700","tag":{"amenity":"waste_basket"}},"type":"Feature"},
	{"geometry":{"coordinates":[7.086989,43.573794],"type":"Point"},"properties":{"osm_id":"3428348713","tag":{"amenity":"waste_basket"}},"type":"Feature"},
	{"geometry":{"coordinates":[7.08685,43.574074],"type":"Point"},"properties":{"osm_id":"3428348726","tag":{"amenity":"waste_basket"}},"type":"Feature"},
	{"geometry":{"coordinates":[7.086737,43.574141],"type":"Point"},"properties":{"osm_id":"3428348732","tag":{"amenity":"waste_basket"}},"type":"Feature"},
	{"geometry":{"coordinates":[7.087607,43.57617],"type":"Point"},"properties":{"osm_id":"3428348817","tag":{"amenity":"waste_basket"}},"type":"Feature"},
	{"geometry":{"coordinates":[7.087801,43.57626],"type":"Point"},"properties":{"osm_id":"3428348829","tag":{"amenity":"waste_basket"}},"type":"Feature"},
	{"geometry":{"coordinates":[7.087918,43.571708],"type":"Point"},"properties":{"osm_id":"3428352433","tag":{"amenity":"waste_basket"}},"type":"Feature"},
	{"geometry":{"coordinates":[7.087209,43.573526],"type":"Point"},"properties":{"osm_id":"3428352472","tag":{"amenity":"waste_basket"}},"type":"Feature"},
	{"geometry":{"coordinates":[7.086866,43.573777],"type":"Point"},"properties":{"osm_id":"3428352488","tag":{"amenity":"waste_basket"}},"type":"Feature"},
	{"geometry":{"coordinates":[7.035915,43.567181],"type":"Point"},"properties":{"osm_id":"3603454366","tag":{"amenity":"recycling","recycling:glass":"yes"}},"type":"Feature"},
	{"geometry":{"coordinates":[7.068316,43.517842],"type":"Point"},"properties":{"osm_id":"3717630159","tag":{"amenity":"waste_basket"}},"type":"Feature"},
	{"geometry":{"coordinates":[7.112715,43.570566],"type":"Point"},"properties":{"osm_id":"4031520974","tag":{"amenity":"waste_basket"}},"type":"Feature"},
	{"geometry":{"coordinates":[7.099808,43.571211],"type":"Point"},"properties":{"osm_id":"4039018520","tag":{"amenity":"recycling","recycling:glass":"yes","recycling_type":"container"}},"type":"Feature"},
	{"geometry":{"coordinates":[7.102032,43.571707],"type":"Point"},"properties":{"osm_id":"4361199153","tag":{"amenity":"recycling","location":"overground","recycling_type":"container"}},"type":"Feature"},
	{"geometry":{"coordinates":[7.067953,43.516952],"type":"Point"},"properties":{"osm_id":"5560065804","tag":{"amenity":"waste_basket"}},"type":"Feature"},
	{"geometry":{"coordinates":[7.069704,43.517273],"type":"Point"},"properties":{"osm_id":"5560065809","tag":{"amenity":"waste_basket"}},"type":"Feature"},
	{"geometry":{"coordinates":[7.070075,43.517433],"type":"Point"},"properties":{"osm_id":"5560065812","tag":{"amenity":"waste_basket"}},"type":"Feature"},
	{"geometry":{"coordinates":[7.069004,43.517783],"type":"Point"},"properties":{"osm_id":"5560065814","tag":{"amenity":"waste_basket"}},"type":"Feature"},
	{"geometry":{"coordinates":[7.067282,43.518227],"type":"Point"},"properties":{"osm_id":"5560065818","tag":{"amenity":"waste_basket"}},"type":"Feature"},
	{"geometry":{"coordinates":[7.066637,43.518284],"type":"Point"},"properties":{"osm_id":"5560065819","tag":{"amenity":"waste_basket"}},"type":"Feature"},
	{"geometry":{"coordinates":[7.069657,43.517582],"type":"Point"},"properties":{"osm_id":"5560066132","tag":{"amenity":"waste_basket"}},"type":"Feature"},
	{"geometry":{"coordinates":[7.068307,43.517906],"type":"Point"},"properties":{"osm_id":"5560066134","tag":{"amenity":"waste_basket"}},"type":"Feature"},
	{"geometry":{"coordinates":[7.067789,43.518166],"type":"Point"},"properties":{"osm_id":"5560066135","tag":{"amenity":"waste_basket"}},"type":"Feature"},
	{"geometry":{"coordinates":[7.065992,43.518545],"type":"Point"},"properties":{"osm_id":"5560066137","tag":{"amenity":"waste_basket"}},"type":"Feature"},
	{"geometry":{"coordinates":[7.065759,43.518516],"type":"Point"},"properties":{"osm_id":"5560066138","tag":{"amenity":"waste_basket"}},"type":"Feature"},
	{"geometry":{"coordinates":[7.064084,43.519262],"type":"Point"},"properties":{"osm_id":"5560066139","tag":{"amenity":"waste_basket"}},"type":"Feature"},
	{"geometry":{"coordinates":[7.062757,43.51973],"type":"Point"},"properties":{"osm_id":"5560066140","tag":{"amenity":"waste_basket"}},"type":"Feature"},
	{"geometry":{"coordinates":[7.062435,43.520141],"type":"Point"},"properties":{"osm_id":"5560066141","tag":{"amenity":"waste_basket"}},"type":"Feature"},
	{"geometry":{"coordinates":[7.061239,43.520091],"type":"Point"},"properties":{"osm_id":"5560066142","tag":{"amenity":"waste_basket"}},"type":"Feature"},
	{"geometry":{"coordinates":[7.050678,43.521983],"type":"Point"},"properties":{"osm_id":"5560066153","tag":{"amenity":"waste_basket"}},"type":"Feature"},
	{"geometry":{"coordinates":[7.049166,43.522475],"type":"Point"},"properties":{"osm_id":"5560066154","tag":{"amenity":"waste_basket"}},"type":"Feature"},
	{"geometry":{"coordinates":[7.047981,43.523521],"type":"Point"},"properties":{"osm_id":"5560066155","tag":{"amenity":"waste_basket"}},"type":"Feature"},
	{"geometry":{"coordinates":[7.047021,43.523141],"type":"Point"},"properties":{"osm_id":"5560066156","tag":{"amenity":"waste_basket"}},"type":"Feature"},
	{"geometry":{"coordinates":[7.056838,43.520671],"type":"Point"},"properties":{"osm_id":"5560066646","tag":{"amenity":"waste_basket"}},"type":"Feature"},
	{"geometry":{"coordinates":[7.049016,43.523294],"type":"Point"},"properties":{"osm_id":"5560066711","tag":{"amenity":"waste_basket"}},"type":"Feature"},
	{"geometry":{"coordinates":[7.059972,43.520178],"type":"Point"},"properties":{"osm_id":"5560067075","tag":{"amenity":"waste_basket"}},"type":"Feature"},
	{"geometry":{"coordinates":[7.058305,43.52047],"type":"Point"},"properties":{"osm_id":"5560067077","tag":{"amenity":"waste_basket"}},"type":"Feature"},
	{"geometry":{"coordinates":[7.057694,43.520591],"type":"Point"},"properties":{"osm_id":"5560067078","tag":{"amenity":"waste_basket"}},"type":"Feature"},
	{"geometry":{"coordinates":[7.056232,43.520417],"type":"Point"},"properties":{"osm_id":"5560067079","tag":{"amenity":"waste_basket"}},"type":"Feature"},
	{"geometry":{"coordinates":[7.055299,43.520411],"type":"Point"},"properties":{"osm_id":"5560067081","tag":{"amenity":"waste_basket"}},"type":"Feature"},
	{"geometry":{"coordinates":[7.054494,43.520581],"type":"Point"},"properties":{"osm_id":"5560067082","tag":{"amenity":"waste_basket"}},"type":"Feature"},
	{"geometry":{"coordinates":[7.053324,43.5209],"type":"Point"},"properties":{"osm_id":"5560067084","tag":{"amenity":"waste_basket"}},"type":"Feature"},
	{"geometry":{"coordinates":[7.052611,43.521089],"type":"Point"},"properties":{"osm_id":"5560067085","tag":{"amenity":"waste_basket"}},"type":"Feature"},
	{"geometry":{"coordinates":[7.049665,43.522617],"type":"Point"},"properties":{"osm_id":"5560067100","tag":{"amenity":"waste_basket"}},"type":"Feature"},
	{"geometry":{"coordinates":[7.049407,43.523182],"type":"Point"},"properties":{"osm_id":"5560067103","tag":{"amenity":"waste_basket"}},"type":"Feature"},
	{"geometry":{"coordinates":[7.046489,43.52217],"type":"Point"},"properties":{"osm_id":"5560067107","tag":{"amenity":"waste_basket"}},"type":"Feature"},
	{"geometry":{"coordinates":[7.045309,43.521785],"type":"Point"},"properties":{"osm_id":"5560067108","tag":{"amenity":"waste_basket"}},"type":"Feature"},
	{"geometry":{"coordinates":[7.043228,43.521799],"type":"Point"},"properties":{"osm_id":"5560067110","tag":{"amenity":"waste_basket"}},"type":"Feature"},
	{"geometry":{"coordinates":[7.04217,43.52273],"type":"Point"},"properties":{"osm_id":"5560067111","tag":{"amenity":"waste_basket"}},"type":"Feature"},
	{"geometry":{"coordinates":[7.041421,43.522515],"type":"Point"},"properties":{"osm_id":"5560067112","tag":{"amenity":"waste_basket"}},"type":"Feature"},
	{"geometry":{"coordinates":[7.040574,43.522134],"type":"Point"},"properties":{"osm_id":"5560067113","tag":{"amenity":"waste_basket"}},"type":"Feature"},
	{"geometry":{"coordinates":[7.066522,43.518218],"type":"Point"},"properties":{"osm_id":"5560067121","tag":{"amenity":"waste_basket"}},"type":"Feature"},
	{"geometry":{"coordinates":[7.064935,43.518827],"type":"Point"},"properties":{"osm_id":"5560067123","tag":{"amenity":"waste_basket"}},"type":"Feature"},
	{"geometry":{"coordinates":[7.063388,43.519784],"type":"Point"},"properties":{"osm_id":"5560067125","tag":{"amenity":"waste_basket"}},"type":"Feature"},
	{"geometry":{"coordinates":[7.062531,43.520037],"type":"Point"},"properties":{"osm_id":"5560067126","tag":{"amenity":"waste_basket"}},"type":"Feature"},
	{"geometry":{"coordinates":[7.062095,43.520083],"type":"Point"},"properties":{"osm_id":"5560067128","tag":{"amenity":"waste_basket"}},"type":"Feature"},
	{"geometry":{"coordinates":[7.06068,43.520054],"type":"Point"},"properties":{"osm_id":"5560067129","tag":{"amenity":"waste_basket"}},"type":"Feature"},
	{"geometry":{"coordinates":[7.05916,43.520241],"type":"Point"},"properties":{"osm_id":"5560067131","tag":{"amenity":"waste_basket"}},"type":"Feature"},
	{"geometry":{"coordinates":[7.058407,43.520545],"type":"Point"},"properties":{"osm_id":"5560067132","tag":{"amenity":"waste_basket"}},"type":"Feature"},
	{"geometry":{"coordinates":[7.054818,43.520592],"type":"Point"},"properties":{"osm_id":"5560067139","tag":{"amenity":"waste_basket"}},"type":"Feature"},
	{"geometry":{"coordinates":[7.052014,43.521355],"type":"Point"},"properties":{"osm_id":"5560067145","tag":{"amenity":"waste_basket"}},"type":"Feature"},
	{"geometry":{"coordinates":[7.051368,43.52176],"type":"Point"},"properties":{"osm_id":"5560067147","tag":{"amenity":"waste_basket"}},"type":"Feature"},
	{"geometry":{"coordinates":[7.050194,43.522231],"type":"Point"},"properties":{"osm_id":"5560067148","tag":{"amenity":"waste_basket"}},"type":"Feature"},
	{"geometry":{"coordinates":[7.049649,43.522567],"type":"Point"},"properties":{"osm_id":"5560067150","tag":{"amenity":"waste_basket"}},"type":"Feature"},
	{"geometry":{"coordinates":[7.049139,43.522728],"type":"Point"},"properties":{"osm_id":"5560067151","tag":{"amenity":"waste_basket"}},"type":"Feature"},
	{"geometry":{"coordinates":[7.047304,43.523669],"type":"Point"},"properties":{"osm_id":"5560067162","tag":{"amenity":"waste_basket"}},"type":"Feature"},
	{"geometry":{"coordinates":[7.046951,43.522372],"type":"Point"},"properties":{"osm_id":"5560067164","tag":{"amenity":"waste_basket"}},"type":"Feature"},
	{"geometry":{"coordinates":[7.04562,43.521792],"type":"Point"},"properties":{"osm_id":"5560067166","tag":{"amenity":"waste_basket"}},"type":"Feature"},
	{"geometry":{"coordinates":[7.044391,43.521671],"type":"Point"},"properties":{"osm_id":"5560067167","tag":{"amenity":"waste_basket"}},"type":"Feature"},
	{"geometry":{"coordinates":[7.042226,43.522479],"type":"Point"},"properties":{"osm_id":"5560067169","tag":{"amenity":"waste_basket"}},"type":"Feature"},
	{"geometry":{"coordinates":[7.041562,43.522516],"type":"Point"},"properties":{"osm_id":"5560067170","tag":{"amenity":"waste_basket"}},"type":"Feature"},
	{"geometry":{"coordinates":[7.040972,43.522336],"type":"Point"},"properties":{"osm_id":"5560067172","tag":{"amenity":"waste_basket"}},"type":"Feature"},
	{"geometry":{"coordinates":[7.039708,43.521953],"type":"Point"},"properties":{"osm_id":"5560067173","tag":{"amenity":"waste_basket"}},"type":"Feature"},
	{"geometry":{"coordinates":[7.039494,43.521855],"type":"Point"},"properties":{"osm_id":"5560067247","tag":{"amenity":"waste_basket"}},"type":"Feature"},
	{"geometry":{"coordinates":[7.039281,43.521786],"type":"Point"},"properties":{"osm_id":"5560067873","tag":{"amenity":"waste_basket"}},"type":"Feature"},
	{"geometry":{"coordinates":[7.039106,43.521894],"type":"Point"},"properties":{"osm_id":"5560067874","tag":{"amenity":"waste_basket"}},"type":"Feature"},
	{"geometry":{"coordinates":[7.03871,43.521823],"type":"Point"},"properties":{"osm_id":"5560067875","tag":{"amenity":"waste_basket"}},"type":"Feature"},
	{"geometry":{"coordinates":[7.087247,43.573612],"type":"Point"},"properties":{"osm_id":"6007308194","tag":{"amenity":"recycling","recycling:cardboard":"yes","recycling:glass":"yes","recycling:paper":"yes","recycling_type":"container"}},"type":"Feature"},
	{"geometry":{"coordinates":[7.116947,43.573901],"type":"Point"},"properties":{"osm_id":"6241570822","tag":{"amenity":"recycling","recycling:glass":"yes","recycling_type":"underfloor-container"}},"type":"Feature"},
	{"geometry":{"coordinates":[7.107129,43.570677],"type":"Point"},"properties":{"osm_id":"6516015629","tag":{"amenity":"recycling","colour":"white","material":"steel","recycling:clothes":"yes","recycling_type":"container"}},"type":"Feature"},
	{"geometry":{"coordinates":[7.105963,43.577095],"type":"Point"},"properties":{"osm_id":"6537301644","tag":{"amenity":"recycling"}},"type":"Feature"},
	{"geometry":{"coordinates":[7.032928,43.553435],"type":"Point"},"properties":{"osm_id":"7015339821","tag":{"amenity":"recycling","recycling:glass":"yes","recycling_type":"container"}},"type":"Feature"},
	{"geometry":{"coordinates":[7.10899,43.573029],"type":"Point"},"properties":{"osm_id":"7124568326","tag":{"amenity":"recycling","recycling:PET":"yes","recycling:aluminium":"yes","recycling:cans":"yes","recycling:cardboard":"yes","recycling:glass":"yes","recycling:glass_bottles":"yes","recycling:paper":"yes","recycling:plastic":"yes","recycling:plastic_bottles":"yes","recycling:plastic_packaging":"yes","recycling_type":"container"}},"type":"Feature"},
	{"geometry":{"coordinates":[7.107164,43.572421],"type":"Point"},"properties":{"osm_id":"7124703080","tag":{"amenity":"recycling","recycling:PET":"yes","recycling:aluminium":"yes","recycling:cans":"yes","recycling:glass":"yes","recycling:glass_bottles":"yes","recycling:paper":"yes","recycling:plastic":"yes","recycling:plastic_bottles":"yes","recycling:plastic_packaging":"yes","recycling_type":"container"}},"type":"Feature"},
	{"geometry":{"coordinates":[7.114875,43.566914],"type":"Point"},"properties":{"osm_id":"7160543473","tag":{"amenity":"recycling"}},"type":"Feature"},
	{"geometry":{"coordinates":[7.107839,43.569126],"type":"Point"},"properties":{"osm_id":"7213637942","tag":{"amenity":"waste_basket","waste":"trash"}},"type":"Feature"},
	{"geometry":{"coordinates":[7.108047,43.569073],"type":"Point"},"properties":{"osm_id":"7213637944","tag":{"amenity":"waste_disposal"}},"type":"Feature"},
	{"geometry":{"coordinates":[7.108331,43.568917],"type":"Point"},"properties":{"osm_id":"7213637946","tag":{"amenity":"waste_basket","waste":"trash"}},"type":"Feature"},
	{"geometry":{"coordinates":[7.108581,43.568907],"type":"Point"},"properties":{"osm_id":"7213637948","tag":{"amenity":"recycling","recycling:cardboard":"yes","recycling_type":"container","wheelchair":"no"}},"type":"Feature"},
	{"geometry":{"coordinates":[7.108088,43.569062],"type":"Point"},"properties":{"osm_id":"7213637952","tag":{"amenity":"recycling","recycling:PET":"yes","recycling:aluminium":"yes","recycling:cans":"yes","recycling:glass":"yes","recycling:glass_bottles":"yes","recycling:paper":"yes","recycling:plastic":"yes","recycling:plastic_bottles":"yes","recycling:plastic_packaging":"yes","recycling_type":"container","wheelchair":"yes"}},"type":"Feature"},
	{"geometry":{"coordinates":[7.035042,43.517927],"type":"Point"},"properties":{"osm_id":"7235348786","tag":{"amenity":"waste_basket","material":"metal","survey:date":"2020-02-22"}},"type":"Feature"},
	{"geometry":{"coordinates":[7.035899,43.518236],"type":"Point"},"properties":{"osm_id":"7235348788","tag":{"amenity":"waste_basket","material":"wood","survey:date":"2020-02-22","waste":"trash"}},"type":"Feature"},
	{"geometry":{"coordinates":[7.040822,43.517126],"type":"Point"},"properties":{"osm_id":"7235348791","tag":{"amenity":"waste_basket","survey:date":"2020-02-22"}},"type":"Feature"},
	{"geometry":{"coordinates":[7.040813,43.517069],"type":"Point"},"properties":{"osm_id":"7235348792","tag":{"amenity":"waste_basket","survey:date":"2020-02-22"}},"type":"Feature"},
	{"geometry":{"coordinates":[7.041311,43.516874],"type":"Point"},"properties":{"osm_id":"7235348794","tag":{"amenity":"waste_basket","material":"wood","survey:date":"2020-02-22","waste":"trash"}},"type":"Feature"},
	{"geometry":{"coordinates":[7.036994,43.518453],"type":"Point"},"properties":{"osm_id":"7235348886","tag":{"amenity":"waste_basket","survey:date":"2020-02-22"}},"type":"Feature"},
	{"geometry":{"coordinates":[7.038605,43.51759],"type":"Point"},"properties":{"osm_id":"7235348888","tag":{"amenity":"waste_basket","survey:date":"2020-02-22"}},"type":"Feature"},
	{"geometry":{"coordinates":[7.035384,43.518514],"type":"Point"},"properties":{"osm_id":"7235348893","tag":{"amenity":"waste_basket","survey:date":"2020-02-22"}},"type":"Feature"},
	{"geometry":{"coordinates":[7.03721,43.518195],"type":"Point"},"properties":{"osm_id":"7235348894","tag":{"amenity":"waste_basket","survey:date":"2020-02-22"}},"type":"Feature"},
	{"geometry":{"coordinates":[7.06484,43.518851],"type":"Point"},"properties":{"osm_id":"7235348906","tag":{"amenity":"waste_basket","material":"wood","survey:date":"2020-02-22","waste":"trash"}},"type":"Feature"},
	{"geometry":{"coordinates":[7.062674,43.519735],"type":"Point"},"properties":{"osm_id":"7235348907","tag":{"amenity":"waste_basket","survey:date":"2020-02-22"}},"type":"Feature"},
	{"geometry":{"coordinates":[7.060484,43.51983],"type":"Point"},"properties":{"osm_id":"7235348911","tag":{"amenity":"waste_basket","survey:date":"2020-02-22"}},"type":"Feature"},
	{"geometry":{"coordinates":[7.059194,43.520349],"type":"Point"},"properties":{"osm_id":"7235348912","tag":{"amenity":"waste_basket","survey:date":"2020-02-22"}},"type":"Feature"},
	{"geometry":{"coordinates":[7.057634,43.520591],"type":"Point"},"properties":{"osm_id":"7235348913","tag":{"amenity":"waste_basket","survey:date":"2020-02-22"}},"type":"Feature"},
	{"geometry":{"coordinates":[7.054611,43.520828],"type":"Point"},"properties":{"osm_id":"7235348914","tag":{"amenity":"waste_basket","survey:date":"2020-02-22"}},"type":"Feature"},
	{"geometry":{"coordinates":[7.052551,43.52112],"type":"Point"},"properties":{"osm_id":"7235348917","tag":{"amenity":"waste_basket","survey:date":"2020-02-22"}},"type":"Feature"},
	{"geometry":{"coordinates":[7.05211,43.52136],"type":"Point"},"properties":{"osm_id":"7235348918","tag":{"amenity":"waste_basket","survey:date":"2020-02-22"}},"type":"Feature"},
	{"geometry":{"coordinates":[7.050242,43.522197],"type":"Point"},"properties":{"osm_id":"7235348920","tag":{"amenity":"waste_basket","survey:date":"2020-02-22"}},"type":"Feature"},
	{"geometry":{"coordinates":[7.035122,43.517968],"type":"Point"},"properties":{"osm_id":"7235348985","tag":{"amenity":"waste_basket","material":"wood","survey:date":"2020-02-22"}},"type":"Feature"},
	{"geometry":{"coordinates":[7.035853,43.518457],"type":"Point"},"properties":{"osm_id":"7235348987","tag":{"amenity":"waste_basket","survey:date":"2020-02-22"}},"type":"Feature"},
	{"geometry":{"coordinates":[7.036381,43.51822],"type":"Point"},"properties":{"osm_id":"7235348990","tag":{"amenity":"waste_basket","survey:date":"2020-02-22","waste":"trash"}},"type":"Feature"},
	{"geometry":{"coordinates":[7.03728,43.518084],"type":"Point"},"properties":{"osm_id":"7235349024","tag":{"amenity":"waste_basket","survey:date":"2020-02-22"}},"type":"Feature"},
	{"geometry":{"coordinates":[7.06886,43.517689],"type":"Point"},"properties":{"osm_id":"7235349059","tag":{"amenity":"waste_basket","survey:date":"2020-02-22"}},"type":"Feature"},
	{"geometry":{"coordinates":[7.06765,43.518179],"type":"Point"},"properties":{"osm_id":"7235349060","tag":{"amenity":"waste_basket","material":"wood","survey:date":"2020-02-22","waste":"trash"}},"type":"Feature"},
	{"geometry":{"coordinates":[7.065747,43.518539],"type":"Point"},"properties":{"osm_id":"7235349061","tag":{"amenity":"waste_basket","survey:date":"2020-02-22"}},"type":"Feature"},
	{"geometry":{"coordinates":[7.063913,43.519302],"type":"Point"},"properties":{"osm_id":"7235349062","tag":{"amenity":"waste_basket","material":"wood","survey:date":"2020-02-22","waste":"trash"}},"type":"Feature"},
	{"geometry":{"coordinates":[7.062389,43.519973],"type":"Point"},"properties":{"osm_id":"7235349063","tag":{"amenity":"waste_basket","survey:date":"2020-02-22"}},"type":"Feature"},
	{"geometry":{"coordinates":[7.061304,43.52005],"type":"Point"},"properties":{"osm_id":"7235349064","tag":{"amenity":"waste_basket","survey:date":"2020-02-22"}},"type":"Feature"},
	{"geometry":{"coordinates":[7.058218,43.520481],"type":"Point"},"properties":{"osm_id":"7235349065","tag":{"amenity":"waste_basket","survey:date":"2020-02-22"}},"type":"Feature"},
	{"geometry":{"coordinates":[7.05676,43.520651],"type":"Point"},"properties":{"osm_id":"7235349066","tag":{"amenity":"waste_basket","survey:date":"2020-02-22"}},"type":"Feature"},
	{"geometry":{"coordinates":[7.056181,43.520505],"type":"Point"},"properties":{"osm_id":"7235349067","tag":{"amenity":"waste_basket","survey:date":"2020-02-22"}},"type":"Feature"},
	{"geometry":{"coordinates":[7.055255,43.520551],"type":"Point"},"properties":{"osm_id":"7235349068","tag":{"amenity":"waste_basket","survey:date":"2020-02-22"}},"type":"Feature"},
	{"geometry":{"coordinates":[7.054478,43.52061],"type":"Point"},"properties":{"osm_id":"7235349069","tag":{"amenity":"waste_basket","survey:date":"2020-02-22"}},"type":"Feature"},
	{"geometry":{"coordinates":[7.0514,43.521698],"type":"Point"},"properties":{"osm_id":"7235349073","tag":{"amenity":"waste_basket","survey:date":"2020-02-22"}},"type":"Feature"},
	{"geometry":{"coordinates":[7.050678,43.521927],"type":"Point"},"properties":{"osm_id":"7235349074","tag":{"amenity":"waste_basket","survey:date":"2020-02-22"}},"type":"Feature"},
	{"geometry":{"coordinates":[7.049668,43.522638],"type":"Point"},"properties":{"osm_id":"7235349075","tag":{"amenity":"waste_basket","survey:date":"2020-02-22"}},"type":"Feature"},
	{"geometry":{"coordinates":[7.067911,43.516777],"type":"Point"},"properties":{"osm_id":"7235349498","tag":{"amenity":"waste_basket","survey:date":"2020-02-22"}},"type":"Feature"},
	{"geometry":{"coordinates":[7.059985,43.52015],"type":"Point"},"properties":{"osm_id":"7235349511","tag":{"amenity":"waste_basket","survey:date":"2020-02-22"}},"type":"Feature"},
	{"geometry":{"coordinates":[7.058535,43.520523],"type":"Point"},"properties":{"osm_id":"7235349512","tag":{"amenity":"waste_basket","survey:date":"2020-02-22"}},"type":"Feature"},
	{"geometry":{"coordinates":[7.051673,43.521493],"type":"Point"},"properties":{"osm_id":"7235349514","tag":{"amenity":"waste_basket","survey:date":"2020-02-22"}},"type":"Feature"},
	{"geometry":{"coordinates":[7.069572,43.517326],"type":"Point"},"properties":{"osm_id":"7235349687","tag":{"amenity":"waste_basket","survey:date":"2020-02-22"}},"type":"Feature"},
	{"geometry":{"coordinates":[7.066538,43.518258],"type":"Point"},"properties":{"osm_id":"7235349688","tag":{"amenity":"waste_basket","survey:date":"2020-02-22"}},"type":"Feature"},
	{"geometry":{"coordinates":[7.069622,43.517618],"type":"Point"},"properties":{"osm_id":"7235351191","tag":{"amenity":"waste_basket","material":"wood","survey:date":"2020-02-22","waste":"trash"}},"type":"Feature"},
	{"geometry":{"coordinates":[7.067228,43.518258],"type":"Point"},"properties":{"osm_id":"7235351192","tag":{"amenity":"waste_basket","material":"wood","survey:date":"2020-02-22","waste":"trash"}},"type":"Feature"},
	{"geometry":{"coordinates":[7.051703,43.521763],"type":"Point"},"properties":{"osm_id":"7235351193","tag":{"amenity":"waste_basket","survey:date":"2020-02-22"}},"type":"Feature"},
	{"geometry":{"coordinates":[7.039764,43.521882],"type":"Point"},"properties":{"osm_id":"7235356489","tag":{"amenity":"waste_basket","survey:date":"2020-02-22"}},"type":"Feature"},
	{"geometry":{"coordinates":[7.038764,43.521888],"type":"Point"},"properties":{"osm_id":"7235356493","tag":{"amenity":"waste_basket","survey:date":"2020-02-22"}},"type":"Feature"},
	{"geometry":{"coordinates":[7.038694,43.521881],"type":"Point"},"properties":{"osm_id":"7235356494","tag":{"amenity":"waste_basket","material":"wood","survey:date":"2020-02-22","waste":"trash"}},"type":"Feature"},
	{"geometry":{"coordinates":[7.0392,43.521732],"type":"Point"},"properties":{"osm_id":"7235362289","tag":{"amenity":"waste_basket","survey:date":"2020-02-22"}},"type":"Feature"},
	{"geometry":{"coordinates":[7.038728,43.521889],"type":"Point"},"properties":{"osm_id":"7235362292","tag":{"amenity":"waste_basket","material":"plastic","survey:date":"2020-02-22","waste":"recycling"}},"type":"Feature"},
	{"geometry":{"coordinates":[7.039477,43.521773],"type":"Point"},"properties":{"osm_id":"7235362485","tag":{"amenity":"waste_basket","survey:date":"2020-02-22"}},"type":"Feature"},
	{"geometry":{"coordinates":[7.038954,43.521863],"type":"Point"},"properties":{"osm_id":"7235362487","tag":{"amenity":"waste_basket","material":"wood","survey:date":"2020-02-22","waste":"trash"}},"type":"Feature"},
	{"geometry":{"coordinates":[7.118149,43.560508],"type":"Point"},"properties":{"osm_id":"7617483912","tag":{"amenity":"recycling","recycling:glass":"yes","recycling:glass_bottles":"yes","recycling:plastic_packaging":"yes","recycling_type":"container"}},"type":"Feature"},
	{"geometry":{"coordinates":[7.091352,43.572926],"type":"Point"},"properties":{"osm_id":"7899282313","tag":{"amenity":"recycling","recycling:glass":"yes","recycling_type":"container"}},"type":"Feature"}
]
}
