{
"type": "FeatureCollection",
"features": [
	{"geometry":{"coordinates":[-81.806847,24.559252],"type":"Point"},"properties":{"osm_id":"2858734174","tag":{"amenity":"waste_basket"}},"type":"Feature"},
	{"geometry":{"coordinates":[-81.806546,24.559241],"type":"Point"},"properties":{"osm_id":"2858734183","tag":{"amenity":"waste_basket"}},"type":"Feature"},
	{"geometry":{"coordinates":[-81.807053,24.558881],"type":"Point"},"properties":{"osm_id":"4867439234","tag":{"amenity":"waste_basket"}},"type":"Feature"},
	{"geometry":{"coordinates":[-81.806757,24.558825],"type":"Point"},"properties":{"osm_id":"4867439235","tag":{"amenity":"waste_basket"}},"type":"Feature"},
	{"geometry":{"coordinates":[-81.792055,24.54726],"type":"Point"},"properties":{"osm_id":"5939376956","tag":{"amenity":"waste_basket","description":"Public Garbage Receptacle"}},"type":"Feature"},
	{"geometry":{"coordinates":[-81.795478,24.553417],"type":"Point"},"properties":{"osm_id":"8167986806","tag":{"amenity":"waste_basket","waste":"trash"}},"type":"Feature"},
	{"geometry":{"coordinates":[-81.793496,24.554788],"type":"Point"},"properties":{"osm_id":"8167986807","tag":{"amenity":"waste_basket"}},"type":"Feature"},
	{"geometry":{"coordinates":[-81.793457,24.554683],"type":"Point"},"properties":{"osm_id":"8167986809","tag":{"amenity":"waste_basket"}},"type":"Feature"},
	{"geometry":{"coordinates":[-81.792305,24.555397],"type":"Point"},"properties":{"osm_id":"8167986811","tag":{"amenity":"waste_basket"}},"type":"Feature"},
	{"geometry":{"coordinates":[-81.791902,24.555771],"type":"Point"},"properties":{"osm_id":"8167986816","tag":{"amenity":"waste_basket","waste":"trash"}},"type":"Feature"},
	{"geometry":{"coordinates":[-81.791056,24.5563],"type":"Point"},"properties":{"osm_id":"8167992124","tag":{"amenity":"waste_basket","waste":"trash"}},"type":"Feature"},
	{"geometry":{"coordinates":[-81.757388,24.571995],"type":"Point"},"properties":{"osm_id":"8167992140","tag":{"amenity":"waste_basket","waste":"trash"}},"type":"Feature"},
	{"geometry":{"coordinates":[-81.757435,24.571991],"type":"Point"},"properties":{"osm_id":"8167992141","tag":{"amenity":"waste_basket","waste":"trash"}},"type":"Feature"},
	{"geometry":{"coordinates":[-81.75743,24.571938],"type":"Point"},"properties":{"osm_id":"8167992142","tag":{"amenity":"waste_basket","waste":"trash"}},"type":"Feature"},
	{"geometry":{"coordinates":[-81.757384,24.571939],"type":"Point"},"properties":{"osm_id":"8167992143","tag":{"amenity":"waste_basket","waste":"trash"}},"type":"Feature"},
	{"geometry":{"coordinates":[-81.757333,24.571877],"type":"Point"},"properties":{"osm_id":"8167992144","tag":{"amenity":"waste_basket","waste":"trash"}},"type":"Feature"},
	{"geometry":{"coordinates":[-81.806662,24.558931],"type":"Point"},"properties":{"osm_id":"8168604827","tag":{"amenity":"waste_basket","colour":"black","material":"metal","waste":"trash"}},"type":"Feature"},
	{"geometry":{"coordinates":[-81.806712,24.558307],"type":"Point"},"properties":{"osm_id":"8168604829","tag":{"amenity":"waste_basket","covered":"no","waste":"trash"}},"type":"Feature"},
	{"geometry":{"coordinates":[-81.80658,24.558823],"type":"Point"},"properties":{"osm_id":"8168604833","tag":{"amenity":"waste_basket","covered":"no","indoor":"no","material":"metal","waste":"trash"}},"type":"Feature"},
	{"geometry":{"coordinates":[-81.806585,24.558846],"type":"Point"},"properties":{"osm_id":"8168604837","tag":{"amenity":"recycling","colour":"blue","recycling_type":"container"}},"type":"Feature"},
	{"geometry":{"coordinates":[-81.806267,24.558493],"type":"Point"},"properties":{"osm_id":"8168604839","tag":{"amenity":"waste_basket","colour":"black","material":"metal","waste":"trash"}},"type":"Feature"},
	{"geometry":{"coordinates":[-81.806149,24.560028],"type":"Point"},"properties":{"osm_id":"8168604842","tag":{"amenity":"recycling","colour":"blue","material":"metal","recycling_type":"container"}},"type":"Feature"},
	{"geometry":{"coordinates":[-81.806684,24.558917],"type":"Point"},"properties":{"osm_id":"8168604845","tag":{"amenity":"recycling","colour":"blue","recycling_type":"container"}},"type":"Feature"},
	{"geometry":{"coordinates":[-81.806142,24.560058],"type":"Point"},"properties":{"osm_id":"8168604846","tag":{"amenity":"waste_basket","colour":"black","material":"metal","waste":"trash"}},"type":"Feature"},
	{"geometry":{"coordinates":[-81.814397,24.563476],"type":"Point"},"properties":{"osm_id":"8168672584","tag":{"amenity":"waste_basket","colour":"white","covered":"yes","indoor":"no","material":"wood","waste":"trash"}},"type":"Feature"},
	{"geometry":{"coordinates":[-81.814409,24.563491],"type":"Point"},"properties":{"osm_id":"8168672585","tag":{"amenity":"recycling","colour":"white","covered":"yes","indoor":"no","material":"wood","recycling_type":"container"}},"type":"Feature"},
	{"geometry":{"coordinates":[-81.813936,24.562701],"type":"Point"},"properties":{"osm_id":"8168852657","tag":{"amenity":"waste_basket","colour":"white","covered":"no","indoor":"no","material":"wood","waste":"trash"}},"type":"Feature"},
	{"geometry":{"coordinates":[-81.813952,24.562709],"type":"Point"},"properties":{"osm_id":"8168852668","tag":{"amenity":"recycling","colour":"white","covered":"no","indoor":"no","recycling:cans":"no","recycling:cardboard":"no","recycling:clothes":"no","recycling:glass":"yes","recycling:glass_bottles":"yes","recycling:paper":"yes","recycling:plastic":"yes","recycling:plastic_bottles":"yes","recycling:plastic_packaging":"yes","recycling:waste":"no","recycling_type":"container"}},"type":"Feature"},
	{"geometry":{"coordinates":[-81.80369,24.556949],"type":"Point"},"properties":{"osm_id":"8168869750","tag":{"amenity":"waste_basket","colour":"black","material":"metal","waste":"trash"}},"type":"Feature"},
	{"geometry":{"coordinates":[-81.806241,24.560042],"type":"Point"},"properties":{"osm_id":"8170709974","tag":{"amenity":"recycling","colour":"blue","recycling_type":"container"}},"type":"Feature"},
	{"geometry":{"coordinates":[-81.806245,24.56003],"type":"Point"},"properties":{"osm_id":"8170709975","tag":{"amenity":"waste_basket","waste":"trash"}},"type":"Feature"},
	{"geometry":{"coordinates":[-81.806298,24.559329],"type":"Point"},"properties":{"osm_id":"8170709991","tag":{"amenity":"waste_basket","waste":"trash"}},"type":"Feature"},
	{"geometry":{"coordinates":[-81.806316,24.559352],"type":"Point"},"properties":{"osm_id":"8170709992","tag":{"amenity":"recycling","recycling_type":"container"}},"type":"Feature"},
	{"geometry":{"coordinates":[-81.806551,24.559224],"type":"Point"},"properties":{"osm_id":"8170709997","tag":{"amenity":"recycling","recycling_type":"container"}},"type":"Feature"},
	{"geometry":{"coordinates":[-81.806418,24.559289],"type":"Point"},"properties":{"osm_id":"8170709998","tag":{"amenity":"recycling","recycling_type":"container"}},"type":"Feature"},
	{"geometry":{"coordinates":[-81.806396,24.55832],"type":"Point"},"properties":{"osm_id":"8170719724","tag":{"amenity":"waste_basket","waste":"trash"}},"type":"Feature"},
	{"geometry":{"coordinates":[-81.806601,24.558596],"type":"Point"},"properties":{"osm_id":"8170719725","tag":{"amenity":"waste_basket","waste":"trash"}},"type":"Feature"},
	{"geometry":{"coordinates":[-81.80659,24.558379],"type":"Point"},"properties":{"osm_id":"8170719726","tag":{"amenity":"waste_basket"}},"type":"Feature"},
	{"geometry":{"coordinates":[-81.806723,24.557757],"type":"Point"},"properties":{"osm_id":"8170719747","tag":{"amenity":"waste_basket","waste":"trash"}},"type":"Feature"},
	{"geometry":{"coordinates":[-81.798744,24.561601],"type":"Point"},"properties":{"osm_id":"8172045482","tag":{"amenity":"waste_basket","colour":"red","covered":"no","indoor":"no","material":"metal","waste":"trash"}},"type":"Feature"},
	{"geometry":{"coordinates":[-81.799151,24.561327],"type":"Point"},"properties":{"osm_id":"8172045484","tag":{"amenity":"waste_basket","colour":"black","covered":"no","indoor":"no","material":"metal","waste":"trash"}},"type":"Feature"},
	{"geometry":{"coordinates":[-81.798873,24.561521],"type":"Point"},"properties":{"osm_id":"8172045487","tag":{"amenity":"waste_basket","colour":"black","covered":"no","indoor":"no","material":"metal","waste":"trash"}},"type":"Feature"},
	{"geometry":{"coordinates":[-81.760107,24.571448],"type":"Point"},"properties":{"osm_id":"8172221433","tag":{"amenity":"waste_basket","colour":"black","covered":"yes","indoor":"no","level":"0","material":"metal","waste":"trash"}},"type":"Feature"},
	{"geometry":{"coordinates":[-81.760068,24.571419],"type":"Point"},"properties":{"osm_id":"8172221435","tag":{"amenity":"waste_basket","waste":"dog_excrement"}},"type":"Feature"},
	{"geometry":{"coordinates":[-81.760096,24.571451],"type":"Point"},"properties":{"osm_id":"8172221437","tag":{"amenity":"waste_basket","colour":"gray","covered":"yes","indoor":"no","level":"0","material":"metal","waste":"trash"}},"type":"Feature"},
	{"geometry":{"coordinates":[-81.805945,24.560118],"type":"Point"},"properties":{"osm_id":"8172487671","tag":{"amenity":"recycling","colour":"blue","material":"metal","recycling_type":"container"}},"type":"Feature"},
	{"geometry":{"coordinates":[-81.807044,24.558943],"type":"Point"},"properties":{"osm_id":"8172487674","tag":{"amenity":"waste_basket","colour":"green","material":"Metal","waste":"trash"}},"type":"Feature"},
	{"geometry":{"coordinates":[-81.805217,24.558992],"type":"Point"},"properties":{"osm_id":"8172487675","tag":{"amenity":"recycling","colour":"blue","material":"metal","recycling_type":"container"}},"type":"Feature"},
	{"geometry":{"coordinates":[-81.805935,24.560103],"type":"Point"},"properties":{"osm_id":"8172487680","tag":{"amenity":"waste_basket","colour":"black","material":"metal","waste":"trash"}},"type":"Feature"},
	{"geometry":{"coordinates":[-81.806032,24.560093],"type":"Point"},"properties":{"osm_id":"8172487681","tag":{"amenity":"waste_basket","colour":"black","material":"metal","waste":"trash"}},"type":"Feature"},
	{"geometry":{"coordinates":[-81.805204,24.558978],"type":"Point"},"properties":{"osm_id":"8172487684","tag":{"amenity":"waste_basket","colour":"black","material":"metal"}},"type":"Feature"},
	{"geometry":{"coordinates":[-81.806045,24.560105],"type":"Point"},"properties":{"osm_id":"8172487690","tag":{"amenity":"recycling","colour":"blue","material":"metal","recycling_type":"container"}},"type":"Feature"},
	{"geometry":{"coordinates":[-81.80599,24.55868],"type":"Point"},"properties":{"osm_id":"8172487693","tag":{"amenity":"waste_basket","colour":"black","material":"metal","waste":"trash"}},"type":"Feature"},
	{"geometry":{"coordinates":[-81.804478,24.55816],"type":"Point"},"properties":{"osm_id":"8172487694","tag":{"amenity":"recycling","colour":"blue","material":"metal","recycling_type":"container"}},"type":"Feature"},
	{"geometry":{"coordinates":[-81.752093,24.572516],"type":"Point"},"properties":{"osm_id":"8172487696","tag":{"amenity":"waste_basket","colour":"brown","material":"wood","waste":"trash"}},"type":"Feature"},
	{"geometry":{"coordinates":[-81.801006,24.560353],"type":"Point"},"properties":{"osm_id":"8175450713","tag":{"amenity":"recycling","recycling_type":"container"}},"type":"Feature"},
	{"geometry":{"coordinates":[-81.801015,24.560364],"type":"Point"},"properties":{"osm_id":"8175470418","tag":{"amenity":"waste_basket","waste":"trash"}},"type":"Feature"}
]
}
