{
"type": "FeatureCollection",
"features": [
	{"geometry":{"coordinates":[35.623254,33.219845],"type":"Point"},"properties":{"osm_id":"5107360109","tag":{"amenity":"recycling","recycling:bottles":"yes","recycling:organic":"yes","recycling_type":"container"}},"type":"Feature"},
	{"geometry":{"coordinates":[35.618105,33.220747],"type":"Point"},"properties":{"osm_id":"5107360110","tag":{"amenity":"recycling","recycling:bottles":"yes","recycling:food":"yes","recycling:food_waste":"yes","recycling:organic":"yes","recycling_type":"container"}},"type":"Feature"},
	{"geometry":{"coordinates":[35.618037,33.220366],"type":"Point"},"properties":{"osm_id":"5107360111","tag":{"amenity":"recycling","recycling:bottles":"yes","recycling:organic":"yes","recycling_type":"container"}},"type":"Feature"},
	{"geometry":{"coordinates":[35.618258,33.220533],"type":"Point"},"properties":{"osm_id":"5107601315","tag":{"amenity":"recycling","recycling:bottles":"yes","recycling:organic":"yes","recycling_type":"container"}},"type":"Feature"},
	{"geometry":{"coordinates":[35.618219,33.22017],"type":"Point"},"properties":{"osm_id":"5107601316","tag":{"amenity":"recycling","recycling:bottles":"yes","recycling:organic":"yes","recycling_type":"container"}},"type":"Feature"},
	{"geometry":{"coordinates":[35.618351,33.220854],"type":"Point"},"properties":{"osm_id":"5107601317","tag":{"amenity":"recycling","recycling_type":"container"}},"type":"Feature"},
	{"geometry":{"coordinates":[35.619247,33.218748],"type":"Point"},"properties":{"osm_id":"5107601318","tag":{"amenity":"recycling","recycling:bottles":"yes","recycling:organic":"yes","recycling_type":"container"}},"type":"Feature"},
	{"geometry":{"coordinates":[35.617994,33.219958],"type":"Point"},"properties":{"osm_id":"5107601319","tag":{"amenity":"recycling","recycling:bottles":"yes","recycling:organic":"yes","recycling_type":"container"}},"type":"Feature"},
	{"geometry":{"coordinates":[35.619205,33.218862],"type":"Point"},"properties":{"osm_id":"5109043194","tag":{"amenity":"recycling","mapillary":"Wmd9i_hWR4V87ZOoxjc0lA","recycling:cardboard":"yes","recycling:natural":"yes","recycling:paper":"yes","recycling_type":"container"}},"type":"Feature"},
	{"geometry":{"coordinates":[35.618696,33.218986],"type":"Point"},"properties":{"osm_id":"5109043195","tag":{"amenity":"recycling","recycling:bottles":"yes","recycling:organic":"yes","recycling_type":"container"}},"type":"Feature"},
	{"geometry":{"coordinates":[35.618303,33.219277],"type":"Point"},"properties":{"osm_id":"5109043196","tag":{"amenity":"recycling","recycling:bottles":"yes","recycling:organic":"yes","recycling_type":"container"}},"type":"Feature"},
	{"geometry":{"coordinates":[35.618753,33.218807],"type":"Point"},"properties":{"osm_id":"5109043197","tag":{"amenity":"recycling","recycling:bottles":"yes","recycling:organic":"yes","recycling_type":"container"}},"type":"Feature"},
	{"geometry":{"coordinates":[35.61841,33.218954],"type":"Point"},"properties":{"osm_id":"5109043198","tag":{"amenity":"recycling","recycling:bottles":"yes","recycling:organic":"yes","recycling_type":"container"}},"type":"Feature"},
	{"geometry":{"coordinates":[35.618098,33.219256],"type":"Point"},"properties":{"osm_id":"5109043199","tag":{"amenity":"recycling","recycling:bottles":"yes","recycling:organic":"yes","recycling_type":"container"}},"type":"Feature"},
	{"geometry":{"coordinates":[35.639643,33.229952],"type":"Point"},"properties":{"osm_id":"5113133915","tag":{"amenity":"recycling","location":"overground","recycling_type":"container"}},"type":"Feature"},
	{"geometry":{"coordinates":[35.622833,33.222737],"type":"Point"},"properties":{"osm_id":"5128943861","tag":{"amenity":"recycling","description":"\u00d7\u009b\u00d7\u00aa\u00d7\u0095\u00d7\u009d \u00d7\u0095\u00d7\u0097\u00d7\u0095\u00d7\u009d","location":"overground","recycling_type":"container"}},"type":"Feature"},
	{"geometry":{"coordinates":[35.623557,33.220391],"type":"Point"},"properties":{"osm_id":"5139793121","tag":{"amenity":"recycling","location":"overground","recycling_type":"container"}},"type":"Feature"},
	{"geometry":{"coordinates":[35.625121,33.22163],"type":"Point"},"properties":{"osm_id":"5139793271","tag":{"amenity":"recycling","location":"overground","recycling_type":"container"}},"type":"Feature"},
	{"geometry":{"coordinates":[35.625932,33.222734],"type":"Point"},"properties":{"osm_id":"5139797187","tag":{"amenity":"recycling","location":"overground","recycling_type":"container"}},"type":"Feature"},
	{"geometry":{"coordinates":[35.622049,33.220895],"type":"Point"},"properties":{"osm_id":"5141445241","tag":{"amenity":"recycling","location":"overground","recycling_type":"container"}},"type":"Feature"},
	{"geometry":{"coordinates":[35.62413,33.22241],"type":"Point"},"properties":{"osm_id":"5141446719","tag":{"amenity":"recycling","location":"overground","recycling_type":"container"}},"type":"Feature"},
	{"geometry":{"coordinates":[35.622894,33.22063],"type":"Point"},"properties":{"osm_id":"5141459920","tag":{"amenity":"recycling","location":"overground","recycling_type":"container"}},"type":"Feature"},
	{"geometry":{"coordinates":[35.625927,33.220027],"type":"Point"},"properties":{"osm_id":"5141467961","tag":{"amenity":"recycling","location":"overground","recycling_type":"container"}},"type":"Feature"},
	{"geometry":{"coordinates":[35.626318,33.220762],"type":"Point"},"properties":{"osm_id":"5141470772","tag":{"amenity":"recycling","location":"overground","recycling_type":"container"}},"type":"Feature"},
	{"geometry":{"coordinates":[35.62663,33.221187],"type":"Point"},"properties":{"osm_id":"5141471086","tag":{"amenity":"recycling","location":"overground","recycling_type":"container"}},"type":"Feature"},
	{"geometry":{"coordinates":[35.627043,33.221704],"type":"Point"},"properties":{"osm_id":"5141472531","tag":{"amenity":"recycling","location":"overground","recycling_type":"container"}},"type":"Feature"},
	{"geometry":{"coordinates":[35.622915,33.218788],"type":"Point"},"properties":{"osm_id":"5145281572","tag":{"amenity":"recycling","location":"overground","recycling_type":"container"}},"type":"Feature"},
	{"geometry":{"coordinates":[35.618337,33.217163],"type":"Point"},"properties":{"osm_id":"5145290947","tag":{"amenity":"recycling","location":"overground","recycling_type":"container"}},"type":"Feature"},
	{"geometry":{"coordinates":[35.620213,33.221773],"type":"Point"},"properties":{"osm_id":"5321781033","tag":{"amenity":"waste_basket"}},"type":"Feature"},
	{"geometry":{"coordinates":[35.618563,33.224911],"type":"Point"},"properties":{"osm_id":"5916404316","tag":{"amenity":"waste_basket"}},"type":"Feature"},
	{"geometry":{"coordinates":[35.628831,33.23503],"type":"Point"},"properties":{"osm_id":"5916408747","tag":{"amenity":"waste_basket"}},"type":"Feature"},
	{"geometry":{"coordinates":[35.624192,33.222406],"type":"Point"},"properties":{"osm_id":"8833539333","tag":{"amenity":"waste_disposal"}},"type":"Feature"},
	{"geometry":{"coordinates":[35.625924,33.222798],"type":"Point"},"properties":{"osm_id":"8833539334","tag":{"amenity":"waste_disposal"}},"type":"Feature"},
	{"geometry":{"coordinates":[35.623548,33.220441],"type":"Point"},"properties":{"osm_id":"8833539335","tag":{"amenity":"waste_disposal"}},"type":"Feature"},
	{"geometry":{"coordinates":[35.622934,33.220645],"type":"Point"},"properties":{"osm_id":"8833539336","tag":{"amenity":"waste_disposal"}},"type":"Feature"},
	{"geometry":{"coordinates":[35.623296,33.219862],"type":"Point"},"properties":{"osm_id":"8833539337","tag":{"amenity":"waste_disposal"}},"type":"Feature"},
	{"geometry":{"coordinates":[35.622242,33.219905],"type":"Point"},"properties":{"osm_id":"8833539338","tag":{"amenity":"waste_disposal"}},"type":"Feature"},
	{"geometry":{"coordinates":[35.622218,33.219898],"type":"Point"},"properties":{"osm_id":"8833539339","tag":{"amenity":"recycling","recycling_type":"centre"}},"type":"Feature"},
	{"geometry":{"coordinates":[35.622947,33.218789],"type":"Point"},"properties":{"osm_id":"8833539340","tag":{"amenity":"waste_disposal"}},"type":"Feature"},
	{"geometry":{"coordinates":[35.625138,33.221636],"type":"Point"},"properties":{"osm_id":"8833539341","tag":{"amenity":"waste_disposal"}},"type":"Feature"},
	{"geometry":{"coordinates":[35.622872,33.222745],"type":"Point"},"properties":{"osm_id":"8833539342","tag":{"amenity":"waste_disposal"}},"type":"Feature"},
	{"geometry":{"coordinates":[35.622057,33.220863],"type":"Point"},"properties":{"osm_id":"8833539343","tag":{"amenity":"waste_disposal"}},"type":"Feature"},
	{"geometry":{"coordinates":[35.619283,33.218426],"type":"Point"},"properties":{"osm_id":"8833539344","tag":{"amenity":"waste_disposal"}},"type":"Feature"},
	{"geometry":{"coordinates":[35.623551,33.221692],"type":"Point"},"properties":{"osm_id":"8842547432","tag":{"amenity":"waste_disposal"}},"type":"Feature"},
	{"geometry":{"coordinates":[35.657926,33.228515],"type":"Point"},"properties":{"osm_id":"9126242392","tag":{"amenity":"waste_basket"}},"type":"Feature"},
	{"geometry":{"coordinates":[35.655468,33.226744],"type":"Point"},"properties":{"osm_id":"9126299322","tag":{"amenity":"waste_basket"}},"type":"Feature"}
]
}
