{
"type": "FeatureCollection",
"features": [
	{"geometry":{"coordinates":[-5.548935,33.894841],"type":"Point"},"properties":{"osm_id":"4428169079","tag":{"natural":"tree"}},"type":"Feature"},
	{"geometry":{"coordinates":[-5.564671,33.896286],"type":"Point"},"properties":{"name":"Thymier \u00d8\u00b4\u00d8\u00ac\u00d8\u00b1\u00d8\u00a9 \u00d8\u00a7\u00d9\u0084\u00d8\u00aa\u00d9\u0088\u00d8\u00aa\u00d8\u00a9","osm_id":"5879694014","tag":{"genus":"Morus","name:ar":"\u00d8\u00b4\u00d8\u00ac\u00d8\u00b1\u00d8\u00a9 \u00d8\u00a7\u00d9\u0084\u00d8\u00aa\u00d9\u0088\u00d8\u00aa\u00d8\u00a9","name:en":"Mulberry tree","name:fr":"Thymier","natural":"tree"}},"type":"Feature"},
	{"geometry":{"coordinates":[-5.568188,33.898929],"type":"Point"},"properties":{"osm_id":"5881269031","tag":{"name:en":"Mulberry Tree 02","natural":"tree"}},"type":"Feature"},
	{"geometry":{"coordinates":[-5.568817,33.89731],"type":"Point"},"properties":{"osm_id":"5881272884","tag":{"name:en":"Mulberry tree 03","natural":"tree"}},"type":"Feature"},
	{"geometry":{"coordinates":[-5.565785,33.897548],"type":"Point"},"properties":{"name":"Mulberry tree 04","osm_id":"5881319923","tag":{"natural":"tree"}},"type":"Feature"},
	{"geometry":{"coordinates":[-5.563773,33.892741],"type":"Point"},"properties":{"osm_id":"6573093599","tag":{"natural":"tree"}},"type":"Feature"},
	{"geometry":{"coordinates":[-5.549591,33.900982],"type":"Point"},"properties":{"osm_id":"7214504085","tag":{"natural":"tree"}},"type":"Feature"},
	{"geometry":{"coordinates":[-5.54955,33.901086],"type":"Point"},"properties":{"osm_id":"7214504086","tag":{"natural":"tree"}},"type":"Feature"},
	{"geometry":{"coordinates":[-5.550851,33.899262],"type":"Point"},"properties":{"osm_id":"7740170869","tag":{"natural":"tree"}},"type":"Feature"},
	{"geometry":{"coordinates":[-5.5504,33.899495],"type":"Point"},"properties":{"osm_id":"7753590425","tag":{"natural":"tree"}},"type":"Feature"},
	{"geometry":{"coordinates":[-5.550516,33.899437],"type":"Point"},"properties":{"osm_id":"7753590426","tag":{"natural":"tree"}},"type":"Feature"},
	{"geometry":{"coordinates":[-5.550631,33.899377],"type":"Point"},"properties":{"osm_id":"7753590427","tag":{"natural":"tree"}},"type":"Feature"},
	{"geometry":{"coordinates":[-5.550738,33.899322],"type":"Point"},"properties":{"osm_id":"7753590428","tag":{"natural":"tree"}},"type":"Feature"},
	{"geometry":{"coordinates":[-5.548432,33.898025],"type":"Point"},"properties":{"osm_id":"7787314958","tag":{"natural":"tree"}},"type":"Feature"},
	{"geometry":{"coordinates":[-5.548484,33.898012],"type":"Point"},"properties":{"osm_id":"7787314959","tag":{"natural":"tree"}},"type":"Feature"},
	{"geometry":{"coordinates":[-5.548535,33.89799],"type":"Point"},"properties":{"osm_id":"7787314960","tag":{"natural":"tree"}},"type":"Feature"},
	{"geometry":{"coordinates":[-5.548582,33.897973],"type":"Point"},"properties":{"osm_id":"7787314961","tag":{"natural":"tree"}},"type":"Feature"},
	{"geometry":{"coordinates":[-5.548659,33.897961],"type":"Point"},"properties":{"osm_id":"7787314962","tag":{"natural":"tree"}},"type":"Feature"},
	{"geometry":{"coordinates":[-5.548713,33.897944],"type":"Point"},"properties":{"osm_id":"7787314963","tag":{"natural":"tree"}},"type":"Feature"},
	{"geometry":{"coordinates":[-5.548759,33.897928],"type":"Point"},"properties":{"osm_id":"7787314964","tag":{"natural":"tree"}},"type":"Feature"},
	{"geometry":{"coordinates":[-5.548811,33.897907],"type":"Point"},"properties":{"osm_id":"7787314965","tag":{"natural":"tree"}},"type":"Feature"},
	{"geometry":{"coordinates":[-5.548867,33.89789],"type":"Point"},"properties":{"osm_id":"7787314966","tag":{"natural":"tree"}},"type":"Feature"},
	{"geometry":{"coordinates":[-5.548914,33.897875],"type":"Point"},"properties":{"osm_id":"7787314967","tag":{"natural":"tree"}},"type":"Feature"},
	{"geometry":{"coordinates":[-5.548991,33.897856],"type":"Point"},"properties":{"osm_id":"7787314968","tag":{"natural":"tree"}},"type":"Feature"},
	{"geometry":{"coordinates":[-5.549063,33.897839],"type":"Point"},"properties":{"osm_id":"7787314969","tag":{"natural":"tree"}},"type":"Feature"},
	{"geometry":{"coordinates":[-5.549114,33.897822],"type":"Point"},"properties":{"osm_id":"7787314970","tag":{"natural":"tree"}},"type":"Feature"},
	{"geometry":{"coordinates":[-5.549171,33.897811],"type":"Point"},"properties":{"osm_id":"7787314971","tag":{"natural":"tree"}},"type":"Feature"},
	{"geometry":{"coordinates":[-5.549279,33.897771],"type":"Point"},"properties":{"osm_id":"7787314972","tag":{"natural":"tree"}},"type":"Feature"},
	{"geometry":{"coordinates":[-5.549081,33.897294],"type":"Point"},"properties":{"osm_id":"7787314973","tag":{"natural":"tree"}},"type":"Feature"},
	{"geometry":{"coordinates":[-5.548952,33.897328],"type":"Point"},"properties":{"osm_id":"7787314974","tag":{"natural":"tree"}},"type":"Feature"},
	{"geometry":{"coordinates":[-5.548898,33.897341],"type":"Point"},"properties":{"osm_id":"7787314975","tag":{"natural":"tree"}},"type":"Feature"},
	{"geometry":{"coordinates":[-5.548847,33.897358],"type":"Point"},"properties":{"osm_id":"7787314976","tag":{"natural":"tree"}},"type":"Feature"},
	{"geometry":{"coordinates":[-5.548777,33.897382],"type":"Point"},"properties":{"osm_id":"7787314977","tag":{"natural":"tree"}},"type":"Feature"},
	{"geometry":{"coordinates":[-5.54871,33.897399],"type":"Point"},"properties":{"osm_id":"7787314978","tag":{"natural":"tree"}},"type":"Feature"},
	{"geometry":{"coordinates":[-5.548636,33.897429],"type":"Point"},"properties":{"osm_id":"7787314979","tag":{"natural":"tree"}},"type":"Feature"},
	{"geometry":{"coordinates":[-5.548525,33.897454],"type":"Point"},"properties":{"osm_id":"7787314980","tag":{"natural":"tree"}},"type":"Feature"},
	{"geometry":{"coordinates":[-5.548324,33.89751],"type":"Point"},"properties":{"osm_id":"7787314981","tag":{"natural":"tree"}},"type":"Feature"},
	{"geometry":{"coordinates":[-5.54827,33.897531],"type":"Point"},"properties":{"osm_id":"7787314982","tag":{"natural":"tree"}},"type":"Feature"},
	{"geometry":{"coordinates":[-5.548216,33.897546],"type":"Point"},"properties":{"osm_id":"7787314983","tag":{"natural":"tree"}},"type":"Feature"},
	{"geometry":{"coordinates":[-5.546933,33.899248],"type":"Point"},"properties":{"osm_id":"7796620546","tag":{"natural":"tree"}},"type":"Feature"},
	{"geometry":{"coordinates":[-5.546983,33.899301],"type":"Point"},"properties":{"osm_id":"7796620547","tag":{"natural":"tree"}},"type":"Feature"},
	{"geometry":{"coordinates":[-5.547033,33.89935],"type":"Point"},"properties":{"osm_id":"7796620548","tag":{"natural":"tree"}},"type":"Feature"},
	{"geometry":{"coordinates":[-5.547075,33.899407],"type":"Point"},"properties":{"osm_id":"7796620549","tag":{"natural":"tree"}},"type":"Feature"},
	{"geometry":{"coordinates":[-5.546677,33.899],"type":"Point"},"properties":{"osm_id":"7796620550","tag":{"natural":"tree"}},"type":"Feature"},
	{"geometry":{"coordinates":[-5.546614,33.898937],"type":"Point"},"properties":{"osm_id":"7796620551","tag":{"natural":"tree"}},"type":"Feature"},
	{"geometry":{"coordinates":[-5.546566,33.898885],"type":"Point"},"properties":{"osm_id":"7796620552","tag":{"natural":"tree"}},"type":"Feature"},
	{"geometry":{"coordinates":[-5.546497,33.89883],"type":"Point"},"properties":{"osm_id":"7796620553","tag":{"natural":"tree"}},"type":"Feature"},
	{"geometry":{"coordinates":[-5.546449,33.89876],"type":"Point"},"properties":{"osm_id":"7796620554","tag":{"natural":"tree"}},"type":"Feature"},
	{"geometry":{"coordinates":[-5.546388,33.898694],"type":"Point"},"properties":{"osm_id":"7796620555","tag":{"natural":"tree"}},"type":"Feature"},
	{"geometry":{"coordinates":[-5.546848,33.898397],"type":"Point"},"properties":{"osm_id":"7796620556","tag":{"natural":"tree"}},"type":"Feature"},
	{"geometry":{"coordinates":[-5.546529,33.898598],"type":"Point"},"properties":{"osm_id":"7796620557","tag":{"natural":"tree"}},"type":"Feature"},
	{"geometry":{"coordinates":[-5.546719,33.898485],"type":"Point"},"properties":{"osm_id":"7796620558","tag":{"natural":"tree"}},"type":"Feature"},
	{"geometry":{"coordinates":[-5.547223,33.899265],"type":"Point"},"properties":{"osm_id":"7796621448","tag":{"natural":"tree"}},"type":"Feature"},
	{"geometry":{"coordinates":[-5.545327,33.899232],"type":"Point"},"properties":{"osm_id":"7856569822","tag":{"natural":"tree"}},"type":"Feature"},
	{"geometry":{"coordinates":[-5.545134,33.89902],"type":"Point"},"properties":{"osm_id":"7856569823","tag":{"natural":"tree"}},"type":"Feature"}
]
}
