{
"type": "FeatureCollection",
"features": [
	{"geometry":{"coordinates":[-113.929825,53.55181],"type":"Point"},"properties":{"osm_id":"7212715300","tag":{"amenity":"waste_basket"}},"type":"Feature"},
	{"geometry":{"coordinates":[-113.930544,53.547849],"type":"Point"},"properties":{"osm_id":"7245826740","tag":{"amenity":"waste_basket"}},"type":"Feature"},
	{"geometry":{"coordinates":[-113.929476,53.553488],"type":"Point"},"properties":{"osm_id":"7245826741","tag":{"amenity":"waste_basket"}},"type":"Feature"},
	{"geometry":{"coordinates":[-113.923593,53.555666],"type":"Point"},"properties":{"osm_id":"7245840621","tag":{"amenity":"waste_basket"}},"type":"Feature"},
	{"geometry":{"coordinates":[-113.932084,53.547938],"type":"Point"},"properties":{"osm_id":"8241036315","tag":{"amenity":"waste_basket"}},"type":"Feature"},
	{"geometry":{"coordinates":[-113.916318,53.543278],"type":"Point"},"properties":{"osm_id":"8630269234","tag":{"amenity":"waste_basket","colour":"green","material":"metal","operator":"City of Spruce Grove","waste":"trash"}},"type":"Feature"}
]
}
