{
"type": "FeatureCollection",
"lastupdate": "2020-08-02T00:00:00Z",
"features": [
	{"geometry":{"coordinates":[-113.955748,51.064854],"type":"Point"},"properties":{"osm_id":"527354018","tag":{"amenity":"recycling"}},"type":"Feature"},
	{"geometry":{"coordinates":[-113.981233,51.056257],"type":"Point"},"properties":{"name":"Marlborough Mall Depot","osm_id":"1364084000","tag":{"amenity":"recycling","operator":"City of Calgary"}},"type":"Feature"},
	{"geometry":{"coordinates":[-113.934693,51.067713],"type":"Point"},"properties":{"osm_id":"4455272495","tag":{"amenity":"waste_basket"}},"type":"Feature"},
	{"geometry":{"coordinates":[-113.928887,51.047863],"type":"Point"},"properties":{"osm_id":"4455347847","tag":{"amenity":"waste_basket"}},"type":"Feature"},
	{"geometry":{"coordinates":[-113.985434,51.058708],"type":"Point"},"properties":{"name":"Happy Can Bottle Depot","osm_id":"7191861452","tag":{"addr:unit":"12","amenity":"recycling","opening_hours":"Mo-Sa 09:00-17:30; Su,PH 10:00-16:00","recycling_type":"centre"}},"type":"Feature"}
]
}
