{
"type": "FeatureCollection",
"features": [
	{"geometry":{"coordinates":[-113.959976,50.934799],"type":"Point"},"properties":{"name":"South Point Bottle Depot","osm_id":"296312888","tag":{"amenity":"recycling","recycling_type":"container"}},"type":"Feature"},
	{"geometry":{"coordinates":[-113.922114,50.934549],"type":"Point"},"properties":{"osm_id":"4361779429","tag":{"amenity":"waste_basket"}},"type":"Feature"},
	{"geometry":{"coordinates":[-113.973149,50.918603],"type":"Point"},"properties":{"osm_id":"4751604283","tag":{"amenity":"waste_basket"}},"type":"Feature"},
	{"geometry":{"coordinates":[-113.966066,50.9175],"type":"Point"},"properties":{"osm_id":"4751604284","tag":{"amenity":"waste_basket"}},"type":"Feature"},
	{"geometry":{"coordinates":[-113.952851,50.91783],"type":"Point"},"properties":{"osm_id":"4771712229","tag":{"amenity":"waste_basket"}},"type":"Feature"},
	{"geometry":{"coordinates":[-113.961907,50.932851],"type":"Point"},"properties":{"name":"City of Calgary","osm_id":"4902542036","tag":{"amenity":"recycling","recycling:cans":"yes","recycling:clothes":"yes","recycling:glass":"yes","recycling:glass_bottles":"yes","recycling:paper":"yes","recycling:plastic":"yes","recycling_type":"centre"}},"type":"Feature"},
	{"geometry":{"coordinates":[-113.910949,50.939728],"type":"Point"},"properties":{"osm_id":"4921126457","tag":{"amenity":"waste_basket"}},"type":"Feature"},
	{"geometry":{"coordinates":[-113.992501,50.919473],"type":"Point"},"properties":{"osm_id":"5084272163","tag":{"amenity":"waste_basket"}},"type":"Feature"}
]
}
