{
"type": "FeatureCollection",
"features": [
	{"geometry":{"coordinates":[82.931358,55.1092],"type":"Point"},"properties":{"osm_id":"4603958835","tag":{"amenity":"waste_disposal"}},"type":"Feature"},
	{"geometry":{"coordinates":[82.932452,55.108314],"type":"Point"},"properties":{"osm_id":"4782167299","tag":{"amenity":"waste_disposal"}},"type":"Feature"},
	{"geometry":{"coordinates":[82.898849,55.127574],"type":"Point"},"properties":{"osm_id":"6433589291","tag":{"amenity":"waste_disposal","waste":"trash"}},"type":"Feature"},
	{"geometry":{"coordinates":[82.939294,55.113753],"type":"Point"},"properties":{"osm_id":"6447179497","tag":{"amenity":"waste_disposal"}},"type":"Feature"},
	{"geometry":{"coordinates":[82.938036,55.115979],"type":"Point"},"properties":{"osm_id":"6447179517","tag":{"amenity":"waste_disposal"}},"type":"Feature"},
	{"geometry":{"coordinates":[82.942789,55.112636],"type":"Point"},"properties":{"osm_id":"6447180519","tag":{"amenity":"waste_disposal"}},"type":"Feature"},
	{"geometry":{"coordinates":[82.939219,55.111729],"type":"Point"},"properties":{"osm_id":"6447183063","tag":{"amenity":"waste_disposal"}},"type":"Feature"},
	{"geometry":{"coordinates":[82.938401,55.114331],"type":"Point"},"properties":{"osm_id":"6447183290","tag":{"amenity":"waste_disposal"}},"type":"Feature"},
	{"geometry":{"coordinates":[82.937872,55.113691],"type":"Point"},"properties":{"osm_id":"6447183291","tag":{"amenity":"waste_disposal"}},"type":"Feature"},
	{"geometry":{"coordinates":[82.938302,55.11631],"type":"Point"},"properties":{"osm_id":"6447183327","tag":{"amenity":"waste_disposal"}},"type":"Feature"},
	{"geometry":{"coordinates":[82.938012,55.116345],"type":"Point"},"properties":{"osm_id":"6447183328","tag":{"amenity":"waste_disposal"}},"type":"Feature"},
	{"geometry":{"coordinates":[82.940906,55.109051],"type":"Point"},"properties":{"osm_id":"6448174565","tag":{"amenity":"waste_disposal"}},"type":"Feature"},
	{"geometry":{"coordinates":[82.940447,55.109273],"type":"Point"},"properties":{"osm_id":"6448174574","tag":{"amenity":"waste_disposal"}},"type":"Feature"},
	{"geometry":{"coordinates":[82.940128,55.109354],"type":"Point"},"properties":{"osm_id":"6448174575","tag":{"amenity":"waste_disposal"}},"type":"Feature"},
	{"geometry":{"coordinates":[82.935888,55.103315],"type":"Point"},"properties":{"name":"\u00d0\u0092\u00d1\u0082\u00d0\u00be\u00d1\u0080\u00d0\u00a0\u00d0\u00b5\u00d1\u0081\u00d1\u0083\u00d1\u0080\u00d1\u0081\u00d0\u009d\u00d1\u0081\u00d0\u00ba","osm_id":"6448175823","tag":{"amenity":"recycling","recycling:scrap_metal":"yes","recycling_type":"centre"}},"type":"Feature"},
	{"geometry":{"coordinates":[82.903621,55.078638],"type":"Point"},"properties":{"osm_id":"6608989064","tag":{"amenity":"waste_disposal"}},"type":"Feature"},
	{"geometry":{"coordinates":[82.898951,55.128498],"type":"Point"},"properties":{"osm_id":"7197025498","tag":{"amenity":"waste_disposal"}},"type":"Feature"},
	{"geometry":{"coordinates":[82.898048,55.128507],"type":"Point"},"properties":{"osm_id":"7199690106","tag":{"amenity":"waste_disposal"}},"type":"Feature"},
	{"geometry":{"coordinates":[82.916372,55.121893],"type":"Point"},"properties":{"barrier":"gate","osm_id":"7496223966","tag":{"foot":"private","motor_vehicle":"private","wheelchair":"no"}},"type":"Feature"}
]
}
