{
"type": "FeatureCollection",
"features": [
	{"geometry":{"coordinates":[82.929614,55.0331],"type":"Point"},"properties":{"osm_id":"633566919","tag":{"amenity":"waste_disposal","waste":"trash"}},"type":"Feature"},
	{"geometry":{"coordinates":[82.90853,55.068141],"type":"Point"},"properties":{"osm_id":"672670988","tag":{"amenity":"waste_basket"}},"type":"Feature"},
	{"geometry":{"coordinates":[82.887593,55.035242],"type":"Point"},"properties":{"osm_id":"767856807","tag":{"amenity":"waste_disposal","waste":"trash"}},"type":"Feature"},
	{"geometry":{"coordinates":[82.94359,55.056746],"type":"Point"},"properties":{"osm_id":"775833875","tag":{"amenity":"waste_disposal","waste":"trash"}},"type":"Feature"},
	{"geometry":{"coordinates":[82.910356,55.067824],"type":"Point"},"properties":{"osm_id":"801679853","tag":{"amenity":"waste_basket"}},"type":"Feature"},
	{"geometry":{"coordinates":[82.907262,55.06995],"type":"Point"},"properties":{"osm_id":"810139232","tag":{"amenity":"waste_basket"}},"type":"Feature"},
	{"geometry":{"coordinates":[82.915904,55.058922],"type":"Point"},"properties":{"osm_id":"960352291","tag":{"amenity":"waste_disposal"}},"type":"Feature"},
	{"geometry":{"coordinates":[82.923848,55.052837],"type":"Point"},"properties":{"osm_id":"1154866589","tag":{"amenity":"waste_disposal","waste":"trash"}},"type":"Feature"},
	{"geometry":{"coordinates":[82.922866,55.048329],"type":"Point"},"properties":{"osm_id":"1161419807","tag":{"amenity":"recycling","location":"overground","recycling_type":"container"}},"type":"Feature"},
	{"geometry":{"coordinates":[82.932433,55.055748],"type":"Point"},"properties":{"osm_id":"1187674064","tag":{"amenity":"waste_disposal","waste":"trash"}},"type":"Feature"},
	{"geometry":{"coordinates":[82.930394,55.054224],"type":"Point"},"properties":{"osm_id":"1187674092","tag":{"amenity":"waste_disposal","waste":"trash"}},"type":"Feature"},
	{"geometry":{"coordinates":[82.921628,55.065783],"type":"Point"},"properties":{"osm_id":"1201356645","tag":{"amenity":"waste_disposal"}},"type":"Feature"},
	{"geometry":{"coordinates":[82.932546,55.030115],"type":"Point"},"properties":{"osm_id":"1250749974","tag":{"amenity":"waste_basket"}},"type":"Feature"},
	{"geometry":{"coordinates":[82.932706,55.028812],"type":"Point"},"properties":{"osm_id":"1250750047","tag":{"amenity":"waste_disposal"}},"type":"Feature"},
	{"geometry":{"coordinates":[82.908675,55.05966],"type":"Point"},"properties":{"osm_id":"1281234603","tag":{"amenity":"waste_disposal","waste":"trash"}},"type":"Feature"},
	{"geometry":{"coordinates":[82.90739,55.058072],"type":"Point"},"properties":{"osm_id":"1281234604","tag":{"amenity":"waste_disposal","waste":"trash"}},"type":"Feature"},
	{"geometry":{"coordinates":[82.904928,55.057769],"type":"Point"},"properties":{"osm_id":"1281234605","tag":{"amenity":"waste_disposal","waste":"trash"}},"type":"Feature"},
	{"geometry":{"coordinates":[82.905895,55.057855],"type":"Point"},"properties":{"osm_id":"1281234606","tag":{"amenity":"waste_disposal","waste":"trash"}},"type":"Feature"},
	{"geometry":{"coordinates":[82.909139,55.059301],"type":"Point"},"properties":{"osm_id":"1281243177","tag":{"amenity":"waste_disposal","waste":"trash"}},"type":"Feature"},
	{"geometry":{"coordinates":[82.922021,55.060786],"type":"Point"},"properties":{"osm_id":"1281275090","tag":{"amenity":"waste_disposal"}},"type":"Feature"},
	{"geometry":{"coordinates":[82.919975,55.05929],"type":"Point"},"properties":{"osm_id":"1281275092","tag":{"amenity":"waste_disposal"}},"type":"Feature"},
	{"geometry":{"coordinates":[82.918323,55.052532],"type":"Point"},"properties":{"osm_id":"1495646422","tag":{"amenity":"waste_disposal","waste":"trash"}},"type":"Feature"},
	{"geometry":{"coordinates":[82.897253,55.058459],"type":"Point"},"properties":{"osm_id":"1664265650","tag":{"amenity":"waste_disposal","waste":"trash"}},"type":"Feature"},
	{"geometry":{"coordinates":[82.898127,55.059022],"type":"Point"},"properties":{"osm_id":"1664265718","tag":{"amenity":"waste_disposal","waste":"trash"}},"type":"Feature"},
	{"geometry":{"coordinates":[82.892794,55.059278],"type":"Point"},"properties":{"osm_id":"1664265774","tag":{"amenity":"waste_disposal","waste":"trash"}},"type":"Feature"},
	{"geometry":{"coordinates":[82.894549,55.060179],"type":"Point"},"properties":{"osm_id":"1664265896","tag":{"amenity":"waste_disposal","waste":"trash"}},"type":"Feature"},
	{"geometry":{"coordinates":[82.893888,55.060216],"type":"Point"},"properties":{"osm_id":"1664265914","tag":{"amenity":"waste_disposal","waste":"trash"}},"type":"Feature"},
	{"geometry":{"coordinates":[82.893239,55.060259],"type":"Point"},"properties":{"osm_id":"1664265929","tag":{"amenity":"waste_disposal","waste":"trash"}},"type":"Feature"},
	{"geometry":{"coordinates":[82.892602,55.060282],"type":"Point"},"properties":{"osm_id":"1664265935","tag":{"amenity":"waste_disposal","waste":"trash"}},"type":"Feature"},
	{"geometry":{"coordinates":[82.901425,55.060621],"type":"Point"},"properties":{"osm_id":"1664265974","tag":{"amenity":"waste_disposal","waste":"trash"}},"type":"Feature"},
	{"geometry":{"coordinates":[82.895297,55.061364],"type":"Point"},"properties":{"osm_id":"1664266424","tag":{"amenity":"waste_disposal"}},"type":"Feature"},
	{"geometry":{"coordinates":[82.899198,55.062962],"type":"Point"},"properties":{"osm_id":"1664266676","tag":{"amenity":"waste_disposal","waste":"trash"}},"type":"Feature"},
	{"geometry":{"coordinates":[82.901085,55.063603],"type":"Point"},"properties":{"osm_id":"1664266739","tag":{"amenity":"waste_disposal"}},"type":"Feature"},
	{"geometry":{"coordinates":[82.9243,55.068375],"type":"Point"},"properties":{"osm_id":"1679919656","tag":{"amenity":"waste_disposal","waste":"trash"}},"type":"Feature"},
	{"geometry":{"coordinates":[82.939912,55.06793],"type":"Point"},"properties":{"osm_id":"1730604785","tag":{"amenity":"waste_basket"}},"type":"Feature"},
	{"geometry":{"coordinates":[82.93814,55.065982],"type":"Point"},"properties":{"osm_id":"1754878986","tag":{"amenity":"waste_disposal"}},"type":"Feature"},
	{"geometry":{"coordinates":[82.937174,55.065386],"type":"Point"},"properties":{"osm_id":"1754878987","tag":{"amenity":"waste_disposal"}},"type":"Feature"},
	{"geometry":{"coordinates":[82.913934,55.059118],"type":"Point"},"properties":{"osm_id":"1759528267","tag":{"amenity":"waste_basket"}},"type":"Feature"},
	{"geometry":{"coordinates":[82.933817,55.061143],"type":"Point"},"properties":{"osm_id":"1767283448","tag":{"amenity":"waste_basket"}},"type":"Feature"},
	{"geometry":{"coordinates":[82.934139,55.061346],"type":"Point"},"properties":{"osm_id":"1767283449","tag":{"amenity":"waste_basket"}},"type":"Feature"},
	{"geometry":{"coordinates":[82.933876,55.061988],"type":"Point"},"properties":{"osm_id":"1767283450","tag":{"amenity":"waste_basket"}},"type":"Feature"},
	{"geometry":{"coordinates":[82.935174,55.062132],"type":"Point"},"properties":{"osm_id":"1767283451","tag":{"amenity":"waste_basket"}},"type":"Feature"},
	{"geometry":{"coordinates":[82.934606,55.061585],"type":"Point"},"properties":{"osm_id":"1767283460","tag":{"amenity":"waste_basket"}},"type":"Feature"},
	{"geometry":{"coordinates":[82.934278,55.06145],"type":"Point"},"properties":{"osm_id":"1767283463","tag":{"amenity":"waste_basket"}},"type":"Feature"},
	{"geometry":{"coordinates":[82.935515,55.062569],"type":"Point"},"properties":{"osm_id":"1767283469","tag":{"amenity":"waste_basket"}},"type":"Feature"},
	{"geometry":{"coordinates":[82.933232,55.062437],"type":"Point"},"properties":{"osm_id":"1767283472","tag":{"amenity":"waste_basket"}},"type":"Feature"},
	{"geometry":{"coordinates":[82.933173,55.062645],"type":"Point"},"properties":{"osm_id":"1767283478","tag":{"amenity":"waste_basket"}},"type":"Feature"},
	{"geometry":{"coordinates":[82.933308,55.061499],"type":"Point"},"properties":{"osm_id":"1767283499","tag":{"amenity":"waste_basket"}},"type":"Feature"},
	{"geometry":{"coordinates":[82.93438,55.061994],"type":"Point"},"properties":{"osm_id":"1767283502","tag":{"amenity":"waste_basket"}},"type":"Feature"},
	{"geometry":{"coordinates":[82.93357,55.060993],"type":"Point"},"properties":{"osm_id":"1767283522","tag":{"amenity":"waste_basket"}},"type":"Feature"},
	{"geometry":{"coordinates":[82.933957,55.061226],"type":"Point"},"properties":{"osm_id":"1767283531","tag":{"amenity":"waste_basket"}},"type":"Feature"},
	{"geometry":{"coordinates":[82.933324,55.062255],"type":"Point"},"properties":{"osm_id":"1767283546","tag":{"amenity":"waste_basket"}},"type":"Feature"},
	{"geometry":{"coordinates":[82.933125,55.061877],"type":"Point"},"properties":{"osm_id":"1767283571","tag":{"amenity":"waste_basket"}},"type":"Feature"},
	{"geometry":{"coordinates":[82.934021,55.06161],"type":"Point"},"properties":{"osm_id":"1767283572","tag":{"amenity":"waste_basket"}},"type":"Feature"},
	{"geometry":{"coordinates":[82.933957,55.061825],"type":"Point"},"properties":{"osm_id":"1767283573","tag":{"amenity":"waste_basket"}},"type":"Feature"},
	{"geometry":{"coordinates":[82.924437,55.068278],"type":"Point"},"properties":{"osm_id":"1767784915","tag":{"amenity":"waste_disposal","waste":"trash"}},"type":"Feature"},
	{"geometry":{"coordinates":[82.882654,55.046188],"type":"Point"},"properties":{"osm_id":"1770369982","tag":{"amenity":"waste_basket"}},"type":"Feature"},
	{"geometry":{"coordinates":[82.911464,55.030067],"type":"Point"},"properties":{"osm_id":"1779628093","tag":{"amenity":"waste_disposal","waste":"trash"}},"type":"Feature"},
	{"geometry":{"coordinates":[82.922281,55.055803],"type":"Point"},"properties":{"osm_id":"1964628948","tag":{"amenity":"waste_disposal","waste":"trash"}},"type":"Feature"},
	{"geometry":{"coordinates":[82.919193,55.055995],"type":"Point"},"properties":{"osm_id":"1964628949","tag":{"amenity":"waste_disposal","waste":"trash"}},"type":"Feature"},
	{"geometry":{"coordinates":[82.921843,55.056333],"type":"Point"},"properties":{"osm_id":"1964628950","tag":{"amenity":"waste_disposal","waste":"trash"}},"type":"Feature"},
	{"geometry":{"coordinates":[82.911208,55.075804],"type":"Point"},"properties":{"osm_id":"2287309969","tag":{"amenity":"waste_disposal"}},"type":"Feature"},
	{"geometry":{"coordinates":[82.900695,55.072647],"type":"Point"},"properties":{"osm_id":"2482336221","tag":{"amenity":"waste_disposal"}},"type":"Feature"},
	{"geometry":{"coordinates":[82.893809,55.064347],"type":"Point"},"properties":{"osm_id":"2492015547","tag":{"amenity":"waste_disposal"}},"type":"Feature"},
	{"geometry":{"coordinates":[82.901933,55.065368],"type":"Point"},"properties":{"osm_id":"2495136304","tag":{"amenity":"waste_disposal"}},"type":"Feature"},
	{"geometry":{"coordinates":[82.899339,55.065734],"type":"Point"},"properties":{"osm_id":"2495136360","tag":{"amenity":"waste_disposal"}},"type":"Feature"},
	{"geometry":{"coordinates":[82.904249,55.068317],"type":"Point"},"properties":{"osm_id":"2495172454","tag":{"amenity":"waste_disposal"}},"type":"Feature"},
	{"geometry":{"coordinates":[82.883361,55.052274],"type":"Point"},"properties":{"osm_id":"2518345657","tag":{"amenity":"waste_disposal"}},"type":"Feature"},
	{"geometry":{"coordinates":[82.908609,55.05524],"type":"Point"},"properties":{"osm_id":"2619239603","tag":{"amenity":"waste_disposal","waste":"trash"}},"type":"Feature"},
	{"geometry":{"coordinates":[82.916727,55.052401],"type":"Point"},"properties":{"osm_id":"2933925549","tag":{"amenity":"waste_disposal","waste":"trash"}},"type":"Feature"},
	{"geometry":{"coordinates":[82.910966,55.053354],"type":"Point"},"properties":{"osm_id":"3616703319","tag":{"amenity":"recycling","recycling:cans":"yes","recycling:clothes":"no","recycling:glass":"yes","recycling:paper":"no","recycling_type":"container"}},"type":"Feature"},
	{"geometry":{"coordinates":[82.909485,55.051953],"type":"Point"},"properties":{"osm_id":"3616741412","tag":{"amenity":"recycling","recycling:cans":"yes","recycling:clothes":"no","recycling:glass":"yes","recycling:paper":"no","recycling_type":"container"}},"type":"Feature"},
	{"geometry":{"coordinates":[82.920306,55.04084],"type":"Point"},"properties":{"osm_id":"4248395799","tag":{"amenity":"waste_disposal"}},"type":"Feature"},
	{"geometry":{"coordinates":[82.948641,55.071659],"type":"Point"},"properties":{"osm_id":"4330437047","tag":{"amenity":"waste_disposal"}},"type":"Feature"},
	{"geometry":{"coordinates":[82.949689,55.072709],"type":"Point"},"properties":{"osm_id":"4330437063","tag":{"amenity":"waste_disposal"}},"type":"Feature"},
	{"geometry":{"coordinates":[82.951683,55.072225],"type":"Point"},"properties":{"osm_id":"4330469711","tag":{"amenity":"waste_disposal"}},"type":"Feature"},
	{"geometry":{"coordinates":[82.952831,55.07335],"type":"Point"},"properties":{"osm_id":"4330469745","tag":{"amenity":"waste_disposal"}},"type":"Feature"},
	{"geometry":{"coordinates":[82.953743,55.074554],"type":"Point"},"properties":{"osm_id":"4330469746","tag":{"amenity":"waste_disposal"}},"type":"Feature"},
	{"geometry":{"coordinates":[82.902852,55.037616],"type":"Point"},"properties":{"osm_id":"4384800046","tag":{"amenity":"waste_disposal"}},"type":"Feature"},
	{"geometry":{"coordinates":[82.920832,55.057502],"type":"Point"},"properties":{"osm_id":"4517196626","tag":{"amenity":"waste_disposal"}},"type":"Feature"},
	{"geometry":{"coordinates":[82.9197,55.055363],"type":"Point"},"properties":{"osm_id":"4526293524","tag":{"amenity":"waste_disposal"}},"type":"Feature"},
	{"geometry":{"coordinates":[82.923399,55.056205],"type":"Point"},"properties":{"osm_id":"4796053973","tag":{"amenity":"waste_disposal"}},"type":"Feature"},
	{"geometry":{"coordinates":[82.923271,55.057148],"type":"Point"},"properties":{"osm_id":"4802858324","tag":{"amenity":"waste_disposal"}},"type":"Feature"},
	{"geometry":{"coordinates":[82.924883,55.056409],"type":"Point"},"properties":{"osm_id":"4802858325","tag":{"amenity":"waste_disposal"}},"type":"Feature"},
	{"geometry":{"coordinates":[82.902266,55.065027],"type":"Point"},"properties":{"osm_id":"5487776826","tag":{"amenity":"waste_disposal"}},"type":"Feature"},
	{"geometry":{"coordinates":[82.917973,55.060727],"type":"Point"},"properties":{"osm_id":"5781485604","tag":{"amenity":"waste_disposal"}},"type":"Feature"},
	{"geometry":{"coordinates":[82.917935,55.060715],"type":"Point"},"properties":{"osm_id":"5781485605","tag":{"amenity":"recycling","recycling:aluminium":"yes","recycling:glass":"yes","recycling:plastic":"yes","recycling_type":"container"}},"type":"Feature"},
	{"geometry":{"coordinates":[82.920842,55.060167],"type":"Point"},"properties":{"osm_id":"5781509195","tag":{"amenity":"recycling","recycling:aluminium":"yes","recycling:glass":"yes","recycling:plastic":"yes","recycling_type":"container"}},"type":"Feature"},
	{"geometry":{"coordinates":[82.920803,55.060153],"type":"Point"},"properties":{"osm_id":"5781509196","tag":{"amenity":"waste_disposal"}},"type":"Feature"},
	{"geometry":{"coordinates":[82.942924,55.068512],"type":"Point"},"properties":{"osm_id":"5821968618","tag":{"amenity":"waste_disposal"}},"type":"Feature"},
	{"geometry":{"coordinates":[82.914097,55.046523],"type":"Point"},"properties":{"osm_id":"6448972658","tag":{"amenity":"waste_disposal"}},"type":"Feature"},
	{"geometry":{"coordinates":[82.905579,55.042542],"type":"Point"},"properties":{"osm_id":"6449823149","tag":{"amenity":"waste_disposal"}},"type":"Feature"},
	{"geometry":{"coordinates":[82.903854,55.042396],"type":"Point"},"properties":{"osm_id":"6449823450","tag":{"amenity":"waste_disposal"}},"type":"Feature"},
	{"geometry":{"coordinates":[82.914304,55.047547],"type":"Point"},"properties":{"osm_id":"6457254044","tag":{"amenity":"waste_disposal"}},"type":"Feature"},
	{"geometry":{"coordinates":[82.908507,55.044964],"type":"Point"},"properties":{"osm_id":"6457255193","tag":{"amenity":"waste_disposal"}},"type":"Feature"},
	{"geometry":{"coordinates":[82.910439,55.055586],"type":"Point"},"properties":{"osm_id":"6588532494","tag":{"amenity":"waste_disposal"}},"type":"Feature"},
	{"geometry":{"coordinates":[82.935308,55.047628],"type":"Point"},"properties":{"osm_id":"6592806472","tag":{"amenity":"waste_disposal"}},"type":"Feature"},
	{"geometry":{"coordinates":[82.934745,55.04759],"type":"Point"},"properties":{"osm_id":"6592811820","tag":{"amenity":"waste_disposal"}},"type":"Feature"},
	{"geometry":{"coordinates":[82.911013,55.056483],"type":"Point"},"properties":{"osm_id":"6601949558","tag":{"amenity":"waste_disposal"}},"type":"Feature"},
	{"geometry":{"coordinates":[82.920877,55.033546],"type":"Point"},"properties":{"osm_id":"6627000330","tag":{"amenity":"waste_disposal"}},"type":"Feature"},
	{"geometry":{"coordinates":[82.919027,55.035129],"type":"Point"},"properties":{"osm_id":"6627000627","tag":{"amenity":"waste_basket","waste":"trash"}},"type":"Feature"},
	{"geometry":{"coordinates":[82.90796,55.039147],"type":"Point"},"properties":{"osm_id":"6639662971","tag":{"amenity":"waste_disposal"}},"type":"Feature"},
	{"geometry":{"coordinates":[82.909331,55.039609],"type":"Point"},"properties":{"osm_id":"6639663617","tag":{"amenity":"waste_disposal"}},"type":"Feature"},
	{"geometry":{"coordinates":[82.91018,55.054907],"type":"Point"},"properties":{"osm_id":"6645561184","tag":{"amenity":"waste_disposal"}},"type":"Feature"},
	{"geometry":{"coordinates":[82.90168,55.052114],"type":"Point"},"properties":{"osm_id":"6677525093","tag":{"amenity":"waste_disposal"}},"type":"Feature"},
	{"geometry":{"coordinates":[82.931484,55.059513],"type":"Point"},"properties":{"osm_id":"6847010125","tag":{"amenity":"waste_disposal"}},"type":"Feature"},
	{"geometry":{"coordinates":[82.931504,55.059514],"type":"Point"},"properties":{"osm_id":"6847010126","tag":{"amenity":"waste_disposal"}},"type":"Feature"},
	{"geometry":{"coordinates":[82.931461,55.059511],"type":"Point"},"properties":{"osm_id":"6847010127","tag":{"amenity":"waste_disposal"}},"type":"Feature"},
	{"geometry":{"coordinates":[82.933572,55.059819],"type":"Point"},"properties":{"osm_id":"6847010128","tag":{"amenity":"waste_disposal"}},"type":"Feature"},
	{"geometry":{"coordinates":[82.933607,55.059827],"type":"Point"},"properties":{"osm_id":"6847010129","tag":{"amenity":"waste_disposal"}},"type":"Feature"},
	{"geometry":{"coordinates":[82.933642,55.059833],"type":"Point"},"properties":{"osm_id":"6847010130","tag":{"amenity":"waste_disposal"}},"type":"Feature"},
	{"geometry":{"coordinates":[82.934055,55.060749],"type":"Point"},"properties":{"osm_id":"6847010131","tag":{"amenity":"waste_disposal"}},"type":"Feature"},
	{"geometry":{"coordinates":[82.934081,55.060732],"type":"Point"},"properties":{"osm_id":"6847010132","tag":{"amenity":"waste_disposal"}},"type":"Feature"},
	{"geometry":{"coordinates":[82.929975,55.060294],"type":"Point"},"properties":{"osm_id":"6847010133","tag":{"amenity":"waste_disposal"}},"type":"Feature"},
	{"geometry":{"coordinates":[82.930029,55.060299],"type":"Point"},"properties":{"osm_id":"6847010134","tag":{"amenity":"waste_disposal"}},"type":"Feature"},
	{"geometry":{"coordinates":[82.930082,55.060305],"type":"Point"},"properties":{"osm_id":"6847010135","tag":{"amenity":"waste_disposal"}},"type":"Feature"},
	{"geometry":{"coordinates":[82.931139,55.059917],"type":"Point"},"properties":{"osm_id":"6853561126","tag":{"amenity":"waste_basket"}},"type":"Feature"},
	{"geometry":{"coordinates":[82.931005,55.059759],"type":"Point"},"properties":{"osm_id":"6853561127","tag":{"amenity":"waste_basket"}},"type":"Feature"},
	{"geometry":{"coordinates":[82.931577,55.060123],"type":"Point"},"properties":{"osm_id":"6853561128","tag":{"amenity":"waste_basket"}},"type":"Feature"},
	{"geometry":{"coordinates":[82.931854,55.060096],"type":"Point"},"properties":{"osm_id":"6853561129","tag":{"amenity":"waste_basket"}},"type":"Feature"},
	{"geometry":{"coordinates":[82.903465,55.039923],"type":"Point"},"properties":{"osm_id":"7551978105","tag":{"amenity":"recycling","recycling:paper":"yes","recycling_type":"container"}},"type":"Feature"},
	{"geometry":{"coordinates":[82.903438,55.039954],"type":"Point"},"properties":{"osm_id":"7551978106","tag":{"amenity":"waste_disposal"}},"type":"Feature"},
	{"geometry":{"coordinates":[82.903913,55.042329],"type":"Point"},"properties":{"osm_id":"7551978586","tag":{"amenity":"recycling","operator":"\u00d0\u00a2\u00d0\u00b0\u00d0\u00b9\u00d0\u00b3\u00d0\u00b5-\u00d0\u00a1\u00d0\u00b8\u00d0\u00b1\u00d0\u00b8\u00d1\u0080\u00d1\u008c","recycling:cans":"yes","recycling:glass":"yes","recycling:glass_bottles":"yes","recycling:plastic":"yes","recycling:plastic_packaging":"no","recycling_type":"container","website":"http://tiger-sibir.ru/"}},"type":"Feature"},
	{"geometry":{"coordinates":[82.904269,55.041808],"type":"Point"},"properties":{"osm_id":"7835301861","tag":{"amenity":"waste_disposal"}},"type":"Feature"},
	{"geometry":{"coordinates":[82.90573,55.040355],"type":"Point"},"properties":{"osm_id":"7903879767","tag":{"amenity":"waste_disposal"}},"type":"Feature"}
]
}
