{
"type": "FeatureCollection",
"features": [
	{"geometry":{"coordinates":[4.318688,52.038247],"type":"Point"},"properties":{"osm_id":"28281896","tag":{"amenity":"recycling","recycling_type":"container"}},"type":"Feature"},
	{"geometry":{"coordinates":[4.307279,52.035271],"type":"Point"},"properties":{"osm_id":"266688097","tag":{"amenity":"recycling","recycling_type":"container"}},"type":"Feature"},
	{"geometry":{"coordinates":[4.312653,52.027777],"type":"Point"},"properties":{"osm_id":"266688098","tag":{"amenity":"recycling","recycling:clothes":"yes","recycling:glass":"yes","recycling:paper":"yes","recycling_type":"container"}},"type":"Feature"},
	{"geometry":{"coordinates":[4.323595,52.031453],"type":"Point"},"properties":{"osm_id":"267273760","tag":{"amenity":"recycling","location":"underground","mapillary":"BKWJ5x3jId4JeA0n7t3BBQ","recycling_type":"container","survey:date":"2018-09-10"}},"type":"Feature"},
	{"geometry":{"coordinates":[4.32098,52.033732],"type":"Point"},"properties":{"osm_id":"267273761","tag":{"amenity":"recycling","recycling_type":"container"}},"type":"Feature"},
	{"geometry":{"coordinates":[4.315679,52.03551],"type":"Point"},"properties":{"osm_id":"276972877","tag":{"amenity":"recycling","recycling:glass":"yes","recycling_type":"container"}},"type":"Feature"},
	{"geometry":{"coordinates":[4.381914,52.005953],"type":"Point"},"properties":{"osm_id":"432497249","tag":{"amenity":"recycling","location":"underground","mapillary":"54kCSDrpE60DsKuufZP9sQ","recycling:glass":"no","recycling:glass_bottles":"yes","recycling:green_waste":"yes","recycling:waste":"yes","recycling_type":"container","survey:date":"2018-05-10"}},"type":"Feature"},
	{"geometry":{"coordinates":[4.378276,52.005669],"type":"Point"},"properties":{"osm_id":"432497250","tag":{"amenity":"recycling","recycling:paper":"yes","recycling:waste":"yes","recycling_type":"container"}},"type":"Feature"},
	{"geometry":{"coordinates":[4.36603,52.001869],"type":"Point"},"properties":{"osm_id":"480470581","tag":{"amenity":"recycling","mapillary":"tUVCftogFlX4Ir7Av2XGrg","recycling:glass":"no","recycling:glass_bottles":"yes","recycling:paper":"yes","recycling_type":"container","survey:date":"2018-05-12"}},"type":"Feature"},
	{"geometry":{"coordinates":[4.341611,52.046965],"type":"Point"},"properties":{"osm_id":"509285397","tag":{"amenity":"recycling","mapillary":"50KHh-aTHGYdp_GvkMofVg","recycling:clothes":"yes","recycling:glass":"no","recycling:glass_bottles":"yes","recycling:paper":"yes","recycling_type":"container","survey:date":"2019-04-13"}},"type":"Feature"},
	{"geometry":{"coordinates":[4.336229,52.051264],"type":"Point"},"properties":{"osm_id":"549226534","tag":{"amenity":"recycling","recycling:glass":"yes","recycling:paper":"yes","recycling_type":"container"}},"type":"Feature"},
	{"geometry":{"coordinates":[4.328711,52.005545],"type":"Point"},"properties":{"osm_id":"564824793","tag":{"amenity":"recycling","recycling:glass_bottles":"yes","recycling_type":"container"}},"type":"Feature"},
	{"geometry":{"coordinates":[4.337518,52.003706],"type":"Point"},"properties":{"osm_id":"564824796","tag":{"amenity":"recycling","location":"underground","recycling:glass_bottles":"yes","recycling:paper":"yes","recycling:plastic":"yes","recycling_type":"container"}},"type":"Feature"},
	{"geometry":{"coordinates":[4.332125,52.00381],"type":"Point"},"properties":{"osm_id":"564834718","tag":{"amenity":"recycling","recycling:batteries":"no","recycling:books":"no","recycling:cans":"yes","recycling:cardboard":"no","recycling:cartons":"no","recycling:clothes":"yes","recycling:electrical_appliances":"no","recycling:glass_bottles":"yes","recycling:green_waste":"yes","recycling:paper":"yes","recycling:plastic":"yes","recycling:waste":"yes","recycling_type":"container"}},"type":"Feature"},
	{"geometry":{"coordinates":[4.342414,52.013792],"type":"Point"},"properties":{"osm_id":"567999261","tag":{"amenity":"waste_basket"}},"type":"Feature"},
	{"geometry":{"coordinates":[4.369862,52.001688],"type":"Point"},"properties":{"osm_id":"583019304","tag":{"amenity":"recycling","location":"overground","recycling:batteries":"yes","recycling_type":"container"}},"type":"Feature"},
	{"geometry":{"coordinates":[4.364927,52.009],"type":"Point"},"properties":{"osm_id":"597811631","tag":{"amenity":"recycling","recycling:batteries":"yes","recycling_type":"container"}},"type":"Feature"},
	{"geometry":{"coordinates":[4.368239,52.012249],"type":"Point"},"properties":{"osm_id":"598699736","tag":{"amenity":"recycling","location":"underground","recycling:paper":"yes","recycling:pmd":"yes","recycling:textile":"yes","recycling:waste":"yes","recycling_type":"container"}},"type":"Feature"},
	{"geometry":{"coordinates":[4.364617,52.0177],"type":"Point"},"properties":{"osm_id":"787124429","tag":{"amenity":"recycling","location":"underground","recycling:glass_bottles":"yes","recycling:pmd":"yes","recycling_type":"container"}},"type":"Feature"},
	{"geometry":{"coordinates":[4.388594,52.0395],"type":"Point"},"properties":{"name":"Avalex Afvalbrengstation Nootdorp","osm_id":"810047832","tag":{"addr:city":"Nootdorp","addr:country":"NL","addr:housenumber":"61","addr:postcode":"2631AB","addr:street":"Molenweg","amenity":"recycling","operator":"Avalex","recycling:batteries":"yes","recycling:cans":"yes","recycling:clothes":"yes","recycling:glass":"yes","recycling:paper":"yes","recycling:scrap_metal":"yes","recycling_type":"centre"}},"type":"Feature"},
	{"geometry":{"coordinates":[4.346908,52.006408],"type":"Point"},"properties":{"osm_id":"1010679611","tag":{"amenity":"recycling","location":"underground","recycling:glass_bottles":"yes","recycling:pmd":"yes","recycling:waste":"yes","recycling_type":"container"}},"type":"Feature"},
	{"geometry":{"coordinates":[4.39334,52.009939],"type":"Point"},"properties":{"osm_id":"1224040853","tag":{"amenity":"recycling","mapillary":"Vt9F8SE6eMIhxLoxtjo-0A","recycling:glass":"no","recycling:glass_bottles":"yes","recycling:paper":"yes","recycling_type":"container","survey:date":"2019-04-16"}},"type":"Feature"},
	{"geometry":{"coordinates":[4.375706,52.007102],"type":"Point"},"properties":{"osm_id":"1263509670","tag":{"amenity":"recycling","recycling:clothes":"yes","recycling:glass":"yes","recycling:green_waste":"yes","recycling:paper_packaging":"yes","recycling:waste":"yes","recycling_type":"container"}},"type":"Feature"},
	{"geometry":{"coordinates":[4.355167,52.049254],"type":"Point"},"properties":{"name":"Avalex Afvalbrengstation Rijswijk","osm_id":"1350767461","tag":{"amenity":"recycling","operator":"Avalex","recycling:batteries":"yes","recycling:cans":"yes","recycling:clothes":"yes","recycling:glass":"yes","recycling:paper":"yes","recycling:scrap_metal":"yes","recycling_type":"centre"}},"type":"Feature"},
	{"geometry":{"coordinates":[4.343283,52.013781],"type":"Point"},"properties":{"osm_id":"1359807315","tag":{"amenity":"recycling","location":"underground","recycling:glass_bottles":"yes","recycling:paper":"yes","recycling:pmd":"yes","recycling:textiles":"yes","recycling_type":"container"}},"type":"Feature"},
	{"geometry":{"coordinates":[4.347781,52.012555],"type":"Point"},"properties":{"osm_id":"1360085032","tag":{"amenity":"recycling","recycling:plastic":"yes","recycling_type":"container"}},"type":"Feature"},
	{"geometry":{"coordinates":[4.34747,52.011932],"type":"Point"},"properties":{"osm_id":"1360085033","tag":{"amenity":"recycling","recycling:batteries":"no","recycling:plastic":"yes","recycling_type":"container"}},"type":"Feature"},
	{"geometry":{"coordinates":[4.347689,52.011763],"type":"Point"},"properties":{"osm_id":"1360265587","tag":{"amenity":"recycling","recycling:clothes":"yes","recycling_type":"container"}},"type":"Feature"},
	{"geometry":{"coordinates":[4.344116,52.010676],"type":"Point"},"properties":{"osm_id":"1363043717","tag":{"amenity":"recycling","location":"overground","recycling:clothes":"yes","recycling_type":"container"}},"type":"Feature"},
	{"geometry":{"coordinates":[4.373185,52.005139],"type":"Point"},"properties":{"osm_id":"1376137878","tag":{"amenity":"waste_basket"}},"type":"Feature"},
	{"geometry":{"coordinates":[4.374151,52.005063],"type":"Point"},"properties":{"osm_id":"1376137887","tag":{"amenity":"waste_basket"}},"type":"Feature"},
	{"geometry":{"coordinates":[4.372579,52.00276],"type":"Point"},"properties":{"osm_id":"1376137961","tag":{"amenity":"waste_basket"}},"type":"Feature"},
	{"geometry":{"coordinates":[4.369664,52.00636],"type":"Point"},"properties":{"osm_id":"1377086311","tag":{"amenity":"waste_basket"}},"type":"Feature"},
	{"geometry":{"coordinates":[4.370241,52.006849],"type":"Point"},"properties":{"osm_id":"1377086320","tag":{"amenity":"waste_basket"}},"type":"Feature"},
	{"geometry":{"coordinates":[4.372808,52.005348],"type":"Point"},"properties":{"osm_id":"1377096514","tag":{"amenity":"waste_basket"}},"type":"Feature"},
	{"geometry":{"coordinates":[4.346449,52.010914],"type":"Point"},"properties":{"osm_id":"1377411253","tag":{"amenity":"waste_basket"}},"type":"Feature"},
	{"geometry":{"coordinates":[4.344774,52.012868],"type":"Point"},"properties":{"osm_id":"1377411256","tag":{"amenity":"waste_basket"}},"type":"Feature"},
	{"geometry":{"coordinates":[4.341779,52.013592],"type":"Point"},"properties":{"osm_id":"1377411258","tag":{"amenity":"waste_basket"}},"type":"Feature"},
	{"geometry":{"coordinates":[4.346332,52.008101],"type":"Point"},"properties":{"osm_id":"1377413478","tag":{"amenity":"waste_basket"}},"type":"Feature"},
	{"geometry":{"coordinates":[4.339668,52.012915],"type":"Point"},"properties":{"osm_id":"1377413479","tag":{"amenity":"recycling","location":"underground","recycling:green_waste":"yes","recycling:paper":"yes","recycling:pmd":"yes","recycling:waste":"yes","recycling_type":"container"}},"type":"Feature"},
	{"geometry":{"coordinates":[4.343886,52.010472],"type":"Point"},"properties":{"osm_id":"1377413480","tag":{"amenity":"waste_basket"}},"type":"Feature"},
	{"geometry":{"coordinates":[4.375317,52.005037],"type":"Point"},"properties":{"osm_id":"1377905437","tag":{"amenity":"waste_basket"}},"type":"Feature"},
	{"geometry":{"coordinates":[4.344324,52.014063],"type":"Point"},"properties":{"osm_id":"1378911644","tag":{"amenity":"waste_basket"}},"type":"Feature"},
	{"geometry":{"coordinates":[4.327748,52.025631],"type":"Point"},"properties":{"osm_id":"1378912505","tag":{"amenity":"waste_basket"}},"type":"Feature"},
	{"geometry":{"coordinates":[4.329433,52.026053],"type":"Point"},"properties":{"osm_id":"1378912506","tag":{"amenity":"recycling","recycling:waste":"yes","recycling_type":"container"}},"type":"Feature"},
	{"geometry":{"coordinates":[4.328928,52.025855],"type":"Point"},"properties":{"osm_id":"1378912507","tag":{"amenity":"waste_basket"}},"type":"Feature"},
	{"geometry":{"coordinates":[4.333602,52.007296],"type":"Point"},"properties":{"osm_id":"1379304617","tag":{"amenity":"waste_basket"}},"type":"Feature"},
	{"geometry":{"coordinates":[4.333652,52.004753],"type":"Point"},"properties":{"osm_id":"1379304619","tag":{"amenity":"waste_basket"}},"type":"Feature"},
	{"geometry":{"coordinates":[4.33504,52.008205],"type":"Point"},"properties":{"osm_id":"1379304621","tag":{"amenity":"waste_basket"}},"type":"Feature"},
	{"geometry":{"coordinates":[4.334329,52.007859],"type":"Point"},"properties":{"osm_id":"1379304624","tag":{"amenity":"waste_basket"}},"type":"Feature"},
	{"geometry":{"coordinates":[4.333729,52.007355],"type":"Point"},"properties":{"osm_id":"1379304628","tag":{"amenity":"waste_basket"}},"type":"Feature"},
	{"geometry":{"coordinates":[4.333217,52.001885],"type":"Point"},"properties":{"osm_id":"1379304630","tag":{"amenity":"waste_basket"}},"type":"Feature"},
	{"geometry":{"coordinates":[4.335148,52.008384],"type":"Point"},"properties":{"osm_id":"1379304634","tag":{"amenity":"waste_basket"}},"type":"Feature"},
	{"geometry":{"coordinates":[4.331747,52.006977],"type":"Point"},"properties":{"osm_id":"1379304636","tag":{"amenity":"waste_basket"}},"type":"Feature"},
	{"geometry":{"coordinates":[4.333678,52.007849],"type":"Point"},"properties":{"osm_id":"1379304638","tag":{"amenity":"waste_basket"}},"type":"Feature"},
	{"geometry":{"coordinates":[4.329804,52.001588],"type":"Point"},"properties":{"osm_id":"1379307582","tag":{"amenity":"recycling","recycling:glass_bottles":"yes","recycling_type":"container"}},"type":"Feature"},
	{"geometry":{"coordinates":[4.343959,52.010576],"type":"Point"},"properties":{"osm_id":"1379612445","tag":{"amenity":"waste_basket"}},"type":"Feature"},
	{"geometry":{"coordinates":[4.343369,52.009942],"type":"Point"},"properties":{"osm_id":"1379612446","tag":{"amenity":"waste_basket"}},"type":"Feature"},
	{"geometry":{"coordinates":[4.368536,52.011118],"type":"Point"},"properties":{"osm_id":"1380427023","tag":{"amenity":"waste_basket"}},"type":"Feature"},
	{"geometry":{"coordinates":[4.368075,52.010881],"type":"Point"},"properties":{"osm_id":"1380427048","tag":{"amenity":"waste_basket"}},"type":"Feature"},
	{"geometry":{"coordinates":[4.379702,52.004249],"type":"Point"},"properties":{"osm_id":"1380427051","tag":{"amenity":"waste_basket"}},"type":"Feature"},
	{"geometry":{"coordinates":[4.378661,52.004989],"type":"Point"},"properties":{"osm_id":"1380427082","tag":{"amenity":"recycling","recycling:green_waste":"yes","recycling:waste":"yes","recycling_type":"container"}},"type":"Feature"},
	{"geometry":{"coordinates":[4.371735,52.003491],"type":"Point"},"properties":{"osm_id":"1385629289","tag":{"amenity":"waste_basket"}},"type":"Feature"},
	{"geometry":{"coordinates":[4.372493,52.001677],"type":"Point"},"properties":{"osm_id":"1387779478","tag":{"amenity":"waste_basket"}},"type":"Feature"},
	{"geometry":{"coordinates":[4.371802,52.004373],"type":"Point"},"properties":{"osm_id":"1391283601","tag":{"amenity":"waste_basket"}},"type":"Feature"},
	{"geometry":{"coordinates":[4.372515,52.004218],"type":"Point"},"properties":{"osm_id":"1391283639","tag":{"amenity":"waste_basket"}},"type":"Feature"},
	{"geometry":{"coordinates":[4.373867,52.004204],"type":"Point"},"properties":{"osm_id":"1391283653","tag":{"amenity":"waste_basket"}},"type":"Feature"},
	{"geometry":{"coordinates":[4.371413,52.00398],"type":"Point"},"properties":{"osm_id":"1391283672","tag":{"amenity":"waste_basket"}},"type":"Feature"},
	{"geometry":{"coordinates":[4.372622,52.003751],"type":"Point"},"properties":{"osm_id":"1393791950","tag":{"amenity":"waste_basket"}},"type":"Feature"},
	{"geometry":{"coordinates":[4.373256,52.004525],"type":"Point"},"properties":{"osm_id":"1393791964","tag":{"amenity":"waste_basket"}},"type":"Feature"},
	{"geometry":{"coordinates":[4.374554,52.003932],"type":"Point"},"properties":{"osm_id":"1393791986","tag":{"amenity":"waste_basket"}},"type":"Feature"},
	{"geometry":{"coordinates":[4.373535,52.003577],"type":"Point"},"properties":{"osm_id":"1393792005","tag":{"amenity":"waste_basket"}},"type":"Feature"},
	{"geometry":{"coordinates":[4.353176,52.009398],"type":"Point"},"properties":{"osm_id":"1394068342","tag":{"amenity":"waste_basket"}},"type":"Feature"},
	{"geometry":{"coordinates":[4.353305,52.009348],"type":"Point"},"properties":{"osm_id":"1394068374","tag":{"amenity":"recycling","location":"underground","recycling:glass_bottles":"yes","recycling:paper":"yes","recycling:waste":"yes","recycling_type":"container"}},"type":"Feature"},
	{"geometry":{"coordinates":[4.349958,52.008113],"type":"Point"},"properties":{"osm_id":"1397562899","tag":{"amenity":"waste_basket"}},"type":"Feature"},
	{"geometry":{"coordinates":[4.34645,52.01051],"type":"Point"},"properties":{"osm_id":"1397562906","tag":{"amenity":"recycling","location":"underground","recycling:glass_bottles":"yes","recycling:textiles":"yes","recycling_type":"container","survey:date":"2020-02-15"}},"type":"Feature"},
	{"geometry":{"coordinates":[4.349733,52.007988],"type":"Point"},"properties":{"osm_id":"1397562907","tag":{"amenity":"waste_basket"}},"type":"Feature"},
	{"geometry":{"coordinates":[4.350923,52.007347],"type":"Point"},"properties":{"osm_id":"1397574273","tag":{"amenity":"waste_basket"}},"type":"Feature"},
	{"geometry":{"coordinates":[4.352927,52.006153],"type":"Point"},"properties":{"osm_id":"1397574274","tag":{"amenity":"recycling","recycling:green_waste":"yes","recycling_type":"container"}},"type":"Feature"},
	{"geometry":{"coordinates":[4.351802,52.00618],"type":"Point"},"properties":{"osm_id":"1397574275","tag":{"amenity":"recycling","location":"underground","recycling:paper":"yes","recycling:pmd":"yes","recycling:waste":"yes","recycling_type":"container","shop":"survey"}},"type":"Feature"},
	{"geometry":{"coordinates":[4.34645,52.008912],"type":"Point"},"properties":{"osm_id":"1397574278","tag":{"amenity":"recycling","location":"underground","recycling:green_waste":"yes","recycling_type":"container"}},"type":"Feature"},
	{"geometry":{"coordinates":[4.350151,52.00497],"type":"Point"},"properties":{"osm_id":"1397574284","tag":{"amenity":"waste_basket"}},"type":"Feature"},
	{"geometry":{"coordinates":[4.348082,52.015465],"type":"Point"},"properties":{"osm_id":"1402585694","tag":{"amenity":"recycling","location":"underground","recycling:glass":"yes","recycling:glass_bottles":"yes","recycling_type":"container"}},"type":"Feature"},
	{"geometry":{"coordinates":[4.331252,52.029864],"type":"Point"},"properties":{"osm_id":"1402612993","tag":{"amenity":"recycling","backrest":"yes","recycling:waste":"yes","recycling_type":"container"}},"type":"Feature"},
	{"geometry":{"coordinates":[4.345236,52.034469],"type":"Point"},"properties":{"osm_id":"1408828977","tag":{"amenity":"waste_basket"}},"type":"Feature"},
	{"geometry":{"coordinates":[4.353063,52.017048],"type":"Point"},"properties":{"osm_id":"1408828979","tag":{"amenity":"recycling","location":"underground","recycling:glass_bottles":"yes","recycling:waste":"yes","recycling_type":"container"}},"type":"Feature"},
	{"geometry":{"coordinates":[4.346482,52.026713],"type":"Point"},"properties":{"osm_id":"1408828982","tag":{"amenity":"recycling","location":"overground","recycling:plastic_packaging":"yes","recycling_type":"container"}},"type":"Feature"},
	{"geometry":{"coordinates":[4.337545,52.008031],"type":"Point"},"properties":{"osm_id":"1415216340","tag":{"amenity":"waste_basket"}},"type":"Feature"},
	{"geometry":{"coordinates":[4.339851,52.007397],"type":"Point"},"properties":{"osm_id":"1415216342","tag":{"amenity":"waste_basket"}},"type":"Feature"},
	{"geometry":{"coordinates":[4.338905,52.008354],"type":"Point"},"properties":{"osm_id":"1415216343","tag":{"amenity":"recycling","location":"underground","recycling:green_waste":"yes","recycling:waste":"yes","recycling_type":"container"}},"type":"Feature"},
	{"geometry":{"coordinates":[4.331311,52.027642],"type":"Point"},"properties":{"osm_id":"1415228609","tag":{"amenity":"recycling","recycling:waste":"yes","recycling_type":"container"}},"type":"Feature"},
	{"geometry":{"coordinates":[4.340243,52.007532],"type":"Point"},"properties":{"osm_id":"1415228613","tag":{"amenity":"recycling","recycling:waste":"yes","recycling_type":"container"}},"type":"Feature"},
	{"geometry":{"coordinates":[4.332362,52.028828],"type":"Point"},"properties":{"osm_id":"1416901092","tag":{"amenity":"recycling","recycling:waste":"yes","recycling_type":"container"}},"type":"Feature"},
	{"geometry":{"coordinates":[4.333854,52.027762],"type":"Point"},"properties":{"osm_id":"1416901093","tag":{"amenity":"waste_basket"}},"type":"Feature"},
	{"geometry":{"coordinates":[4.334626,52.025593],"type":"Point"},"properties":{"osm_id":"1416901094","tag":{"amenity":"waste_basket"}},"type":"Feature"},
	{"geometry":{"coordinates":[4.320048,52.021015],"type":"Point"},"properties":{"osm_id":"1417488682","tag":{"amenity":"waste_basket"}},"type":"Feature"},
	{"geometry":{"coordinates":[4.309541,52.051026],"type":"Point"},"properties":{"osm_id":"1432724435","tag":{"amenity":"recycling","recycling:waste":"yes","recycling_type":"container"}},"type":"Feature"},
	{"geometry":{"coordinates":[4.309204,52.052006],"type":"Point"},"properties":{"osm_id":"1432724439","tag":{"amenity":"recycling","recycling:waste":"yes","recycling_type":"container"}},"type":"Feature"},
	{"geometry":{"coordinates":[4.310591,52.052139],"type":"Point"},"properties":{"osm_id":"1432724442","tag":{"amenity":"recycling","recycling:waste":"yes","recycling_type":"container"}},"type":"Feature"},
	{"geometry":{"coordinates":[4.310753,52.052227],"type":"Point"},"properties":{"osm_id":"1432724443","tag":{"amenity":"recycling","recycling:waste":"yes","recycling_type":"container"}},"type":"Feature"},
	{"geometry":{"coordinates":[4.312661,52.052328],"type":"Point"},"properties":{"osm_id":"1432724444","tag":{"amenity":"recycling","recycling:waste":"yes","recycling_type":"container"}},"type":"Feature"},
	{"geometry":{"coordinates":[4.31497,52.022591],"type":"Point"},"properties":{"osm_id":"1438204672","tag":{"amenity":"waste_basket"}},"type":"Feature"},
	{"geometry":{"coordinates":[4.317352,52.022671],"type":"Point"},"properties":{"osm_id":"1438204685","tag":{"amenity":"waste_basket"}},"type":"Feature"},
	{"geometry":{"coordinates":[4.316885,52.022724],"type":"Point"},"properties":{"osm_id":"1438204703","tag":{"amenity":"waste_basket"}},"type":"Feature"},
	{"geometry":{"coordinates":[4.310105,52.019175],"type":"Point"},"properties":{"osm_id":"1438207553","tag":{"amenity":"waste_basket"}},"type":"Feature"},
	{"geometry":{"coordinates":[4.311306,52.017673],"type":"Point"},"properties":{"osm_id":"1438207554","tag":{"amenity":"waste_basket"}},"type":"Feature"},
	{"geometry":{"coordinates":[4.327496,52.005903],"type":"Point"},"properties":{"osm_id":"1445227056","tag":{"amenity":"waste_basket"}},"type":"Feature"},
	{"geometry":{"coordinates":[4.373261,52.04404],"type":"Point"},"properties":{"osm_id":"1456611389","tag":{"amenity":"recycling","recycling:waste":"yes","recycling_type":"container"}},"type":"Feature"},
	{"geometry":{"coordinates":[4.373918,52.043518],"type":"Point"},"properties":{"osm_id":"1456611390","tag":{"amenity":"recycling"}},"type":"Feature"},
	{"geometry":{"coordinates":[4.372508,52.044386],"type":"Point"},"properties":{"osm_id":"1456611391","tag":{"amenity":"recycling","recycling:green_waste":"yes","recycling:waste":"yes","recycling_type":"container"}},"type":"Feature"},
	{"geometry":{"coordinates":[4.372406,52.044029],"type":"Point"},"properties":{"osm_id":"1456611396","tag":{"amenity":"recycling","recycling_type":"container"}},"type":"Feature"},
	{"geometry":{"coordinates":[4.372312,52.044057],"type":"Point"},"properties":{"osm_id":"1456611398","tag":{"amenity":"recycling","recycling_type":"container"}},"type":"Feature"},
	{"geometry":{"coordinates":[4.373347,52.044094],"type":"Point"},"properties":{"osm_id":"1456611400","tag":{"amenity":"recycling","recycling:green_waste":"yes","recycling_type":"container"}},"type":"Feature"},
	{"geometry":{"coordinates":[4.372653,52.044344],"type":"Point"},"properties":{"osm_id":"1456611403","tag":{"amenity":"waste_basket"}},"type":"Feature"},
	{"geometry":{"coordinates":[4.372371,52.010479],"type":"Point"},"properties":{"osm_id":"1456848966","tag":{"amenity":"waste_basket"}},"type":"Feature"},
	{"geometry":{"coordinates":[4.373557,52.045306],"type":"Point"},"properties":{"osm_id":"1459009746","tag":{"amenity":"waste_basket"}},"type":"Feature"},
	{"geometry":{"coordinates":[4.352878,52.021693],"type":"Point"},"properties":{"osm_id":"1481553124","tag":{"amenity":"waste_basket"}},"type":"Feature"},
	{"geometry":{"coordinates":[4.352972,52.017313],"type":"Point"},"properties":{"osm_id":"1481557790","tag":{"amenity":"waste_basket"}},"type":"Feature"},
	{"geometry":{"coordinates":[4.388519,52.003567],"type":"Point"},"properties":{"osm_id":"1484997367","tag":{"amenity":"waste_basket"}},"type":"Feature"},
	{"geometry":{"coordinates":[4.388675,52.007335],"type":"Point"},"properties":{"osm_id":"1484997407","tag":{"amenity":"waste_basket"}},"type":"Feature"},
	{"geometry":{"coordinates":[4.388605,52.004505],"type":"Point"},"properties":{"osm_id":"1484997414","tag":{"amenity":"waste_basket"}},"type":"Feature"},
	{"geometry":{"coordinates":[4.391284,51.999637],"type":"Point"},"properties":{"osm_id":"1485005025","tag":{"amenity":"waste_basket"}},"type":"Feature"},
	{"geometry":{"coordinates":[4.389621,52.001464],"type":"Point"},"properties":{"osm_id":"1485005075","tag":{"amenity":"waste_basket"}},"type":"Feature"},
	{"geometry":{"coordinates":[4.393685,51.998617],"type":"Point"},"properties":{"osm_id":"1485013071","tag":{"amenity":"waste_basket"}},"type":"Feature"},
	{"geometry":{"coordinates":[4.360402,52.033424],"type":"Point"},"properties":{"osm_id":"1493007727","tag":{"amenity":"waste_basket"}},"type":"Feature"},
	{"geometry":{"coordinates":[4.361411,52.033065],"type":"Point"},"properties":{"osm_id":"1493007730","tag":{"amenity":"waste_basket"}},"type":"Feature"},
	{"geometry":{"coordinates":[4.361014,52.033408],"type":"Point"},"properties":{"osm_id":"1493007734","tag":{"amenity":"waste_basket"}},"type":"Feature"},
	{"geometry":{"coordinates":[4.365826,52.036368],"type":"Point"},"properties":{"osm_id":"1493008059","tag":{"amenity":"waste_basket"}},"type":"Feature"},
	{"geometry":{"coordinates":[4.36662,52.036876],"type":"Point"},"properties":{"osm_id":"1493008060","tag":{"amenity":"waste_basket"}},"type":"Feature"},
	{"geometry":{"coordinates":[4.367177,52.035589],"type":"Point"},"properties":{"osm_id":"1493008062","tag":{"amenity":"waste_basket"}},"type":"Feature"},
	{"geometry":{"coordinates":[4.367124,52.037246],"type":"Point"},"properties":{"osm_id":"1493008064","tag":{"amenity":"waste_basket"}},"type":"Feature"},
	{"geometry":{"coordinates":[4.366393,52.035906],"type":"Point"},"properties":{"osm_id":"1493008065","tag":{"amenity":"waste_basket"}},"type":"Feature"},
	{"geometry":{"coordinates":[4.367682,52.037576],"type":"Point"},"properties":{"osm_id":"1493008066","tag":{"amenity":"waste_basket"}},"type":"Feature"},
	{"geometry":{"coordinates":[4.370471,52.038817],"type":"Point"},"properties":{"osm_id":"1493008379","tag":{"amenity":"waste_basket"}},"type":"Feature"},
	{"geometry":{"coordinates":[4.370793,52.038638],"type":"Point"},"properties":{"osm_id":"1493008382","tag":{"amenity":"waste_basket"}},"type":"Feature"},
	{"geometry":{"coordinates":[4.377863,52.043898],"type":"Point"},"properties":{"osm_id":"1493009655","tag":{"amenity":"waste_basket"}},"type":"Feature"},
	{"geometry":{"coordinates":[4.372081,52.040697],"type":"Point"},"properties":{"osm_id":"1493009656","tag":{"amenity":"waste_basket"}},"type":"Feature"},
	{"geometry":{"coordinates":[4.376233,52.041318],"type":"Point"},"properties":{"osm_id":"1493009674","tag":{"amenity":"waste_basket"}},"type":"Feature"},
	{"geometry":{"coordinates":[4.374248,52.046115],"type":"Point"},"properties":{"osm_id":"1493011262","tag":{"amenity":"waste_basket"}},"type":"Feature"},
	{"geometry":{"coordinates":[4.375557,52.048477],"type":"Point"},"properties":{"osm_id":"1493011274","tag":{"amenity":"waste_basket"}},"type":"Feature"},
	{"geometry":{"coordinates":[4.375782,52.048616],"type":"Point"},"properties":{"osm_id":"1493011293","tag":{"amenity":"waste_basket"}},"type":"Feature"},
	{"geometry":{"coordinates":[4.369329,52.01783],"type":"Point"},"properties":{"osm_id":"1493270009","tag":{"amenity":"waste_basket"}},"type":"Feature"},
	{"geometry":{"coordinates":[4.367886,52.019089],"type":"Point"},"properties":{"osm_id":"1493270011","tag":{"amenity":"waste_basket"}},"type":"Feature"},
	{"geometry":{"coordinates":[4.368224,52.018795],"type":"Point"},"properties":{"osm_id":"1493270017","tag":{"amenity":"waste_basket"}},"type":"Feature"},
	{"geometry":{"coordinates":[4.367291,52.019581],"type":"Point"},"properties":{"osm_id":"1493591725","tag":{"amenity":"recycling","recycling:green_waste":"yes","recycling:waste":"yes","recycling_type":"container"}},"type":"Feature"},
	{"geometry":{"coordinates":[4.36639,52.020459],"type":"Point"},"properties":{"osm_id":"1493591736","tag":{"amenity":"waste_basket"}},"type":"Feature"},
	{"geometry":{"coordinates":[4.366964,52.019882],"type":"Point"},"properties":{"osm_id":"1493591741","tag":{"amenity":"waste_basket","backrest":"yes"}},"type":"Feature"},
	{"geometry":{"coordinates":[4.368283,52.021156],"type":"Point"},"properties":{"osm_id":"1493591746","tag":{"amenity":"waste_basket"}},"type":"Feature"},
	{"geometry":{"coordinates":[4.376394,52.019987],"type":"Point"},"properties":{"osm_id":"1493611034","tag":{"amenity":"waste_basket"}},"type":"Feature"},
	{"geometry":{"coordinates":[4.37169,52.020489],"type":"Point"},"properties":{"osm_id":"1493611055","tag":{"amenity":"waste_basket"}},"type":"Feature"},
	{"geometry":{"coordinates":[4.371164,52.020502],"type":"Point"},"properties":{"osm_id":"1493611060","tag":{"amenity":"waste_basket"}},"type":"Feature"},
	{"geometry":{"coordinates":[4.377118,52.019958],"type":"Point"},"properties":{"osm_id":"1493611082","tag":{"amenity":"waste_basket"}},"type":"Feature"},
	{"geometry":{"coordinates":[4.373879,52.020265],"type":"Point"},"properties":{"osm_id":"1493611093","tag":{"amenity":"waste_basket"}},"type":"Feature"},
	{"geometry":{"coordinates":[4.373229,52.020311],"type":"Point"},"properties":{"osm_id":"1493611113","tag":{"amenity":"waste_basket"}},"type":"Feature"},
	{"geometry":{"coordinates":[4.374002,52.022549],"type":"Point"},"properties":{"osm_id":"1493615544","tag":{"amenity":"waste_basket"}},"type":"Feature"},
	{"geometry":{"coordinates":[4.37479,52.020723],"type":"Point"},"properties":{"osm_id":"1493615545","tag":{"amenity":"waste_basket"}},"type":"Feature"},
	{"geometry":{"coordinates":[4.371067,52.021469],"type":"Point"},"properties":{"osm_id":"1493615548","tag":{"amenity":"waste_basket"}},"type":"Feature"},
	{"geometry":{"coordinates":[4.371555,52.021714],"type":"Point"},"properties":{"osm_id":"1493615550","tag":{"amenity":"waste_basket"}},"type":"Feature"},
	{"geometry":{"coordinates":[4.374543,52.021925],"type":"Point"},"properties":{"osm_id":"1493615554","tag":{"amenity":"waste_basket"}},"type":"Feature"},
	{"geometry":{"coordinates":[4.372789,52.021202],"type":"Point"},"properties":{"osm_id":"1493615559","tag":{"amenity":"waste_basket"}},"type":"Feature"},
	{"geometry":{"coordinates":[4.370499,52.021635],"type":"Point"},"properties":{"osm_id":"1493615561","tag":{"amenity":"waste_basket"}},"type":"Feature"},
	{"geometry":{"coordinates":[4.362221,52.018908],"type":"Point"},"properties":{"osm_id":"1493621095","tag":{"amenity":"waste_basket"}},"type":"Feature"},
	{"geometry":{"coordinates":[4.359716,52.017845],"type":"Point"},"properties":{"osm_id":"1493630186","tag":{"amenity":"waste_basket"}},"type":"Feature"},
	{"geometry":{"coordinates":[4.360419,52.017363],"type":"Point"},"properties":{"osm_id":"1493630189","tag":{"amenity":"waste_basket"}},"type":"Feature"},
	{"geometry":{"coordinates":[4.36006,52.017624],"type":"Point"},"properties":{"osm_id":"1493630215","tag":{"amenity":"waste_basket"}},"type":"Feature"},
	{"geometry":{"coordinates":[4.358472,52.018003],"type":"Point"},"properties":{"osm_id":"1493630217","tag":{"amenity":"waste_basket"}},"type":"Feature"},
	{"geometry":{"coordinates":[4.346053,52.016415],"type":"Point"},"properties":{"osm_id":"1502023468","tag":{"amenity":"waste_basket"}},"type":"Feature"},
	{"geometry":{"coordinates":[4.346673,52.016677],"type":"Point"},"properties":{"osm_id":"1502023469","tag":{"amenity":"waste_basket"}},"type":"Feature"},
	{"geometry":{"coordinates":[4.347233,52.016399],"type":"Point"},"properties":{"osm_id":"1502023487","tag":{"amenity":"waste_basket"}},"type":"Feature"},
	{"geometry":{"coordinates":[4.346836,52.015725],"type":"Point"},"properties":{"osm_id":"1502023507","tag":{"amenity":"waste_basket"}},"type":"Feature"},
	{"geometry":{"coordinates":[4.39231,52.009214],"type":"Point"},"properties":{"osm_id":"1502029604","tag":{"amenity":"waste_basket"}},"type":"Feature"},
	{"geometry":{"coordinates":[4.390658,52.00965],"type":"Point"},"properties":{"osm_id":"1502029608","tag":{"amenity":"waste_basket"}},"type":"Feature"},
	{"geometry":{"coordinates":[4.390856,52.00931],"type":"Point"},"properties":{"osm_id":"1502029630","tag":{"amenity":"waste_basket"}},"type":"Feature"},
	{"geometry":{"coordinates":[4.369132,52.008972],"type":"Point"},"properties":{"osm_id":"1516928406","tag":{"amenity":"waste_basket"}},"type":"Feature"},
	{"geometry":{"coordinates":[4.366633,52.012153],"type":"Point"},"properties":{"osm_id":"1517432544","tag":{"amenity":"waste_basket"}},"type":"Feature"},
	{"geometry":{"coordinates":[4.366276,52.012002],"type":"Point"},"properties":{"osm_id":"1517432863","tag":{"amenity":"waste_basket"}},"type":"Feature"},
	{"geometry":{"coordinates":[4.343869,52.015534],"type":"Point"},"properties":{"osm_id":"1531329728","tag":{"amenity":"waste_basket"}},"type":"Feature"},
	{"geometry":{"coordinates":[4.3434,52.015095],"type":"Point"},"properties":{"osm_id":"1531329801","tag":{"amenity":"waste_basket"}},"type":"Feature"},
	{"geometry":{"coordinates":[4.344188,52.015214],"type":"Point"},"properties":{"osm_id":"1531329828","tag":{"amenity":"waste_basket"}},"type":"Feature"},
	{"geometry":{"coordinates":[4.344599,52.015611],"type":"Point"},"properties":{"osm_id":"1531329834","tag":{"amenity":"waste_basket"}},"type":"Feature"},
	{"geometry":{"coordinates":[4.375961,52.00927],"type":"Point"},"properties":{"osm_id":"1590139603","tag":{"amenity":"recycling","recycling:green_waste":"yes","recycling_type":"container"}},"type":"Feature"},
	{"geometry":{"coordinates":[4.375076,52.00895],"type":"Point"},"properties":{"osm_id":"1590139605","tag":{"amenity":"recycling","recycling:green_waste":"yes","recycling_type":"container"}},"type":"Feature"},
	{"geometry":{"coordinates":[4.374813,52.007091],"type":"Point"},"properties":{"osm_id":"1590140950","tag":{"amenity":"recycling","recycling:clothes":"yes","recycling:glass":"yes","recycling:plastic":"yes","recycling_type":"container"}},"type":"Feature"},
	{"geometry":{"coordinates":[4.331507,52.00073],"type":"Point"},"properties":{"osm_id":"1725786121","tag":{"amenity":"recycling","recycling:clothes":"yes","recycling:glass_bottles":"yes","recycling:paper":"yes","recycling:plastic":"yes","recycling_type":"container"}},"type":"Feature"},
	{"geometry":{"coordinates":[4.333213,52.001942],"type":"Point"},"properties":{"osm_id":"1732764838","tag":{"amenity":"recycling","location":"underground","recycling:green_waste":"yes","recycling:plastic_packaging":"yes","recycling:waste":"yes","recycling_type":"container"}},"type":"Feature"},
	{"geometry":{"coordinates":[4.309882,52.00814],"type":"Point"},"properties":{"osm_id":"1741080049","tag":{"amenity":"recycling","recycling:glass_bottles":"yes","recycling_type":"container"}},"type":"Feature"},
	{"geometry":{"coordinates":[4.332153,52.004478],"type":"Point"},"properties":{"osm_id":"1745592036","tag":{"amenity":"waste_basket"}},"type":"Feature"},
	{"geometry":{"coordinates":[4.388509,52.052083],"type":"Point"},"properties":{"osm_id":"1759693276","tag":{"amenity":"recycling","recycling_type":"container"}},"type":"Feature"},
	{"geometry":{"coordinates":[4.388659,52.051833],"type":"Point"},"properties":{"osm_id":"1759693438","tag":{"amenity":"recycling","recycling_type":"container"}},"type":"Feature"},
	{"geometry":{"coordinates":[4.39072,52.052254],"type":"Point"},"properties":{"osm_id":"1760310390","tag":{"amenity":"recycling","recycling_type":"container"}},"type":"Feature"},
	{"geometry":{"coordinates":[4.389561,52.051301],"type":"Point"},"properties":{"osm_id":"1760310433","tag":{"amenity":"recycling","recycling_type":"container"}},"type":"Feature"},
	{"geometry":{"coordinates":[4.389182,52.052477],"type":"Point"},"properties":{"osm_id":"1760310442","tag":{"amenity":"recycling","recycling_type":"container"}},"type":"Feature"},
	{"geometry":{"coordinates":[4.331516,52.004371],"type":"Point"},"properties":{"osm_id":"1784723631","tag":{"amenity":"waste_basket"}},"type":"Feature"},
	{"geometry":{"coordinates":[4.331876,52.005708],"type":"Point"},"properties":{"osm_id":"1784988161","tag":{"amenity":"waste_basket"}},"type":"Feature"},
	{"geometry":{"coordinates":[4.324844,52.007254],"type":"Point"},"properties":{"osm_id":"1787687474","tag":{"amenity":"waste_basket"}},"type":"Feature"},
	{"geometry":{"coordinates":[4.323468,52.005612],"type":"Point"},"properties":{"osm_id":"1787709055","tag":{"amenity":"recycling","recycling:glass_bottles":"yes","recycling_type":"container"}},"type":"Feature"},
	{"geometry":{"coordinates":[4.344314,52.002876],"type":"Point"},"properties":{"osm_id":"1795730694","tag":{"amenity":"waste_basket"}},"type":"Feature"},
	{"geometry":{"coordinates":[4.3447,52.002926],"type":"Point"},"properties":{"osm_id":"1795730697","tag":{"amenity":"waste_basket"}},"type":"Feature"},
	{"geometry":{"coordinates":[4.329698,52.009694],"type":"Point"},"properties":{"osm_id":"1805112020","tag":{"amenity":"waste_basket"}},"type":"Feature"},
	{"geometry":{"coordinates":[4.335812,52.012382],"type":"Point"},"properties":{"osm_id":"1815128258","tag":{"amenity":"recycling","recycling:plastic":"yes","recycling_type":"container"}},"type":"Feature"},
	{"geometry":{"coordinates":[4.330054,52.001102],"type":"Point"},"properties":{"osm_id":"1832325931","tag":{"amenity":"waste_basket"}},"type":"Feature"},
	{"geometry":{"coordinates":[4.384127,52.049627],"type":"Point"},"properties":{"osm_id":"1999239797","tag":{"amenity":"recycling","recycling_type":"container"}},"type":"Feature"},
	{"geometry":{"coordinates":[4.366462,52.037929],"type":"Point"},"properties":{"osm_id":"2116109206","tag":{"amenity":"recycling","recycling:batteries":"no","recycling:books":"no","recycling:cans":"no","recycling:cardboard":"no","recycling:cartons":"no","recycling:clothes":"no","recycling:electrical_appliances":"no","recycling:glass":"no","recycling:glass_bottles":"no","recycling:green_waste":"no","recycling:magazines":"no","recycling:newspaper":"no","recycling:paper":"no","recycling:paper_packaging":"no","recycling:plastic":"no","recycling:plastic_bottles":"no","recycling:plastic_packaging":"no","recycling:scrap_metal":"no","recycling:small_appliances":"no","recycling:waste":"yes","recycling:wood":"no","recycling_type":"container"}},"type":"Feature"},
	{"geometry":{"coordinates":[4.373285,52.009897],"type":"Point"},"properties":{"osm_id":"2207100178","tag":{"amenity":"recycling","recycling:glass":"yes","recycling:glass_bottles":"yes","recycling:green_waste":"yes","recycling_type":"container"}},"type":"Feature"},
	{"geometry":{"coordinates":[4.364957,52.009714],"type":"Point"},"properties":{"osm_id":"2207103119","tag":{"amenity":"recycling","recycling:plastic":"yes","recycling_type":"container"}},"type":"Feature"},
	{"geometry":{"coordinates":[4.365029,52.009655],"type":"Point"},"properties":{"osm_id":"2207103120","tag":{"amenity":"recycling","mapillary":"sm2lrarBCUisoGCuLor9rQ","recycling:glass":"no","recycling:glass_bottles":"yes","recycling_type":"container","survey:date":"2018-05-06"}},"type":"Feature"},
	{"geometry":{"coordinates":[4.37436,52.008732],"type":"Point"},"properties":{"osm_id":"2207103121","tag":{"amenity":"recycling","recycling:green_waste":"yes","recycling_type":"container"}},"type":"Feature"},
	{"geometry":{"coordinates":[4.368873,52.014182],"type":"Point"},"properties":{"osm_id":"2294926512","tag":{"amenity":"recycling","location":"underground","recycling:glass_bottles":"yes","recycling:paper":"yes","recycling:waste":"yes","recycling_type":"container"}},"type":"Feature"},
	{"geometry":{"coordinates":[4.355399,52.006478],"type":"Point"},"properties":{"osm_id":"2341958926","tag":{"amenity":"recycling","recycling:glass_bottles":"yes","recycling_type":"container"}},"type":"Feature"},
	{"geometry":{"coordinates":[4.358658,52.01448],"type":"Point"},"properties":{"osm_id":"2379815744","tag":{"amenity":"recycling","location":"overground","recycling:glass_bottles":"yes","recycling_type":"container"}},"type":"Feature"},
	{"geometry":{"coordinates":[4.364522,52.002197],"type":"Point"},"properties":{"osm_id":"2965010256","tag":{"amenity":"recycling","recycling:paper":"yes","recycling_type":"container"}},"type":"Feature"},
	{"geometry":{"coordinates":[4.320724,52.002521],"type":"Point"},"properties":{"osm_id":"3059882127","tag":{"amenity":"recycling","recycling:clothes":"yes","recycling:glass_bottles":"yes","recycling:paper":"yes","recycling:plastic":"yes","recycling_type":"container"}},"type":"Feature"},
	{"geometry":{"coordinates":[4.330275,52.000938],"type":"Point"},"properties":{"osm_id":"3072495677","tag":{"amenity":"recycling","recycling:clothes":"yes","recycling:cooking_oil":"yes","recycling_type":"container"}},"type":"Feature"},
	{"geometry":{"coordinates":[4.324913,52.034797],"type":"Point"},"properties":{"osm_id":"3105431416","tag":{"amenity":"waste_basket"}},"type":"Feature"},
	{"geometry":{"coordinates":[4.325342,52.034239],"type":"Point"},"properties":{"osm_id":"3105431419","tag":{"amenity":"waste_basket"}},"type":"Feature"},
	{"geometry":{"coordinates":[4.325894,52.03316],"type":"Point"},"properties":{"osm_id":"3105431420","tag":{"amenity":"recycling","recycling:green_waste":"yes","recycling:wood":"no","recycling_type":"container"}},"type":"Feature"},
	{"geometry":{"coordinates":[4.325996,52.033186],"type":"Point"},"properties":{"osm_id":"3105431421","tag":{"amenity":"recycling","recycling:waste":"yes","recycling_type":"container"}},"type":"Feature"},
	{"geometry":{"coordinates":[4.325809,52.032816],"type":"Point"},"properties":{"osm_id":"3105431423","tag":{"amenity":"waste_basket"}},"type":"Feature"},
	{"geometry":{"coordinates":[4.326453,52.03279],"type":"Point"},"properties":{"osm_id":"3105431425","tag":{"amenity":"waste_basket"}},"type":"Feature"},
	{"geometry":{"coordinates":[4.329607,52.031038],"type":"Point"},"properties":{"osm_id":"3105431426","tag":{"amenity":"waste_basket"}},"type":"Feature"},
	{"geometry":{"coordinates":[4.324403,52.035071],"type":"Point"},"properties":{"osm_id":"3105431427","tag":{"amenity":"waste_basket"}},"type":"Feature"},
	{"geometry":{"coordinates":[4.321641,52.037778],"type":"Point"},"properties":{"osm_id":"3105445759","tag":{"amenity":"waste_basket"}},"type":"Feature"},
	{"geometry":{"coordinates":[4.32206,52.041297],"type":"Point"},"properties":{"osm_id":"3105959503","tag":{"amenity":"waste_basket"}},"type":"Feature"},
	{"geometry":{"coordinates":[4.321676,52.041076],"type":"Point"},"properties":{"osm_id":"3105960270","tag":{"amenity":"waste_basket"}},"type":"Feature"},
	{"geometry":{"coordinates":[4.32808,52.043102],"type":"Point"},"properties":{"osm_id":"3107920578","tag":{"amenity":"waste_basket"}},"type":"Feature"},
	{"geometry":{"coordinates":[4.327618,52.043825],"type":"Point"},"properties":{"osm_id":"3107920581","tag":{"amenity":"waste_basket"}},"type":"Feature"},
	{"geometry":{"coordinates":[4.328144,52.043475],"type":"Point"},"properties":{"osm_id":"3107920584","tag":{"amenity":"waste_basket"}},"type":"Feature"},
	{"geometry":{"coordinates":[4.327881,52.043561],"type":"Point"},"properties":{"osm_id":"3107920587","tag":{"amenity":"waste_basket"}},"type":"Feature"},
	{"geometry":{"coordinates":[4.394466,52.045422],"type":"Point"},"properties":{"osm_id":"3112845173","tag":{"amenity":"waste_basket"}},"type":"Feature"},
	{"geometry":{"coordinates":[4.390802,52.04468],"type":"Point"},"properties":{"osm_id":"3113294173","tag":{"amenity":"waste_basket"}},"type":"Feature"},
	{"geometry":{"coordinates":[4.333085,52.013104],"type":"Point"},"properties":{"osm_id":"3113377860","tag":{"amenity":"waste_basket"}},"type":"Feature"},
	{"geometry":{"coordinates":[4.333172,52.013003],"type":"Point"},"properties":{"osm_id":"3113377861","tag":{"amenity":"waste_basket"}},"type":"Feature"},
	{"geometry":{"coordinates":[4.392221,52.042628],"type":"Point"},"properties":{"osm_id":"3113405016","tag":{"amenity":"waste_basket"}},"type":"Feature"},
	{"geometry":{"coordinates":[4.364489,52.004429],"type":"Point"},"properties":{"osm_id":"3119210625","tag":{"amenity":"waste_basket"}},"type":"Feature"},
	{"geometry":{"coordinates":[4.349921,52.024258],"type":"Point"},"properties":{"osm_id":"3133582549","tag":{"amenity":"recycling","recycling:green_waste":"yes","recycling_type":"container"}},"type":"Feature"},
	{"geometry":{"coordinates":[4.373647,52.008426],"type":"Point"},"properties":{"osm_id":"3163689680","tag":{"amenity":"recycling","recycling:organic":"yes","recycling:waste":"yes","recycling_type":"container"}},"type":"Feature"},
	{"geometry":{"coordinates":[4.338341,52.049043],"type":"Point"},"properties":{"osm_id":"3164747775","tag":{"amenity":"recycling","recycling:green_waste":"yes","recycling:trash":"yes","recycling_type":"container"}},"type":"Feature"},
	{"geometry":{"coordinates":[4.339124,52.048735],"type":"Point"},"properties":{"osm_id":"3164747777","tag":{"amenity":"recycling","recycling:green_waste":"yes","recycling_type":"container"}},"type":"Feature"},
	{"geometry":{"coordinates":[4.33943,52.046881],"type":"Point"},"properties":{"osm_id":"3164747812","tag":{"amenity":"waste_basket"}},"type":"Feature"},
	{"geometry":{"coordinates":[4.338639,52.046379],"type":"Point"},"properties":{"osm_id":"3164747814","tag":{"amenity":"waste_basket"}},"type":"Feature"},
	{"geometry":{"coordinates":[4.316293,52.031367],"type":"Point"},"properties":{"osm_id":"3169257704","tag":{"amenity":"recycling","recycling:glass":"yes","recycling:paper":"yes","recycling:plastic":"yes","recycling_type":"container"}},"type":"Feature"},
	{"geometry":{"coordinates":[4.354338,52.005408],"type":"Point"},"properties":{"osm_id":"3270905975","tag":{"amenity":"recycling","recycling:glass_bottles":"yes","recycling_type":"container"}},"type":"Feature"},
	{"geometry":{"coordinates":[4.354365,52.00542],"type":"Point"},"properties":{"osm_id":"3270905978","tag":{"amenity":"recycling","recycling:glass_bottles":"yes","recycling_type":"container"}},"type":"Feature"},
	{"geometry":{"coordinates":[4.328826,52.010038],"type":"Point"},"properties":{"osm_id":"3315409744","tag":{"amenity":"recycling","recycling:plastic":"yes","recycling_type":"container"}},"type":"Feature"},
	{"geometry":{"coordinates":[4.356867,52.006789],"type":"Point"},"properties":{"osm_id":"3327441974","tag":{"amenity":"waste_basket"}},"type":"Feature"},
	{"geometry":{"coordinates":[4.357207,52.007211],"type":"Point"},"properties":{"osm_id":"3327442604","tag":{"amenity":"waste_basket"}},"type":"Feature"},
	{"geometry":{"coordinates":[4.326301,52.041996],"type":"Point"},"properties":{"osm_id":"3383399516","tag":{"access":"private","amenity":"waste_disposal","waste":"household"}},"type":"Feature"},
	{"geometry":{"coordinates":[4.321202,52.04099],"type":"Point"},"properties":{"osm_id":"3383399517","tag":{"access":"yes","amenity":"waste_disposal","waste":"recycling","waste_1":"plastic"}},"type":"Feature"},
	{"geometry":{"coordinates":[4.356783,52.007739],"type":"Point"},"properties":{"osm_id":"3402587116","tag":{"amenity":"waste_basket"}},"type":"Feature"},
	{"geometry":{"coordinates":[4.355704,52.008975],"type":"Point"},"properties":{"osm_id":"3402587393","tag":{"amenity":"waste_basket"}},"type":"Feature"},
	{"geometry":{"coordinates":[4.364506,52.007901],"type":"Point"},"properties":{"osm_id":"3417250488","tag":{"amenity":"waste_disposal"}},"type":"Feature"},
	{"geometry":{"coordinates":[4.328243,52.000688],"type":"Point"},"properties":{"osm_id":"3458718072","tag":{"amenity":"waste_basket","waste":"dog_excrement"}},"type":"Feature"},
	{"geometry":{"coordinates":[4.332402,52.003671],"type":"Point"},"properties":{"osm_id":"3458718073","tag":{"amenity":"waste_basket","waste":"dog_excrement"}},"type":"Feature"},
	{"geometry":{"coordinates":[4.393921,52.045158],"type":"Point"},"properties":{"osm_id":"3501434159","tag":{"amenity":"waste_basket"}},"type":"Feature"},
	{"geometry":{"coordinates":[4.310124,52.049768],"type":"Point"},"properties":{"osm_id":"3506178136","tag":{"amenity":"waste_basket"}},"type":"Feature"},
	{"geometry":{"coordinates":[4.309612,52.050766],"type":"Point"},"properties":{"osm_id":"3506178157","tag":{"amenity":"waste_basket"}},"type":"Feature"},
	{"geometry":{"coordinates":[4.372302,52.001992],"type":"Point"},"properties":{"osm_id":"3518912621","tag":{"amenity":"waste_basket"}},"type":"Feature"},
	{"geometry":{"coordinates":[4.372155,52.002103],"type":"Point"},"properties":{"osm_id":"3518912622","tag":{"amenity":"waste_basket"}},"type":"Feature"},
	{"geometry":{"coordinates":[4.373802,51.999705],"type":"Point"},"properties":{"osm_id":"3518912637","tag":{"amenity":"waste_basket"}},"type":"Feature"},
	{"geometry":{"coordinates":[4.373833,51.999662],"type":"Point"},"properties":{"osm_id":"3518912638","tag":{"amenity":"waste_basket"}},"type":"Feature"},
	{"geometry":{"coordinates":[4.374142,51.999291],"type":"Point"},"properties":{"osm_id":"3518912641","tag":{"amenity":"waste_basket"}},"type":"Feature"},
	{"geometry":{"coordinates":[4.373969,51.999257],"type":"Point"},"properties":{"osm_id":"3518912642","tag":{"amenity":"waste_basket"}},"type":"Feature"},
	{"geometry":{"coordinates":[4.374771,51.999059],"type":"Point"},"properties":{"osm_id":"3520734026","tag":{"amenity":"waste_basket"}},"type":"Feature"},
	{"geometry":{"coordinates":[4.374612,51.99968],"type":"Point"},"properties":{"osm_id":"3520734027","tag":{"amenity":"waste_basket"}},"type":"Feature"},
	{"geometry":{"coordinates":[4.373951,52.0008],"type":"Point"},"properties":{"osm_id":"3520734030","tag":{"amenity":"waste_basket"}},"type":"Feature"},
	{"geometry":{"coordinates":[4.373141,52.001272],"type":"Point"},"properties":{"osm_id":"3520734032","tag":{"amenity":"waste_basket"}},"type":"Feature"},
	{"geometry":{"coordinates":[4.375224,51.998819],"type":"Point"},"properties":{"osm_id":"3529201934","tag":{"amenity":"waste_basket"}},"type":"Feature"},
	{"geometry":{"coordinates":[4.331867,52.048791],"type":"Point"},"properties":{"osm_id":"3609493986","tag":{"amenity":"recycling","recycling:plastic":"yes","recycling_type":"container"}},"type":"Feature"},
	{"geometry":{"coordinates":[4.368974,52.051211],"type":"Point"},"properties":{"osm_id":"3673955318","tag":{"amenity":"recycling","recycling_type":"container"}},"type":"Feature"},
	{"geometry":{"coordinates":[4.353464,52.015252],"type":"Point"},"properties":{"osm_id":"3687496910","tag":{"amenity":"recycling","location":"overground","recycling:glass_bottles":"yes","recycling_type":"container"}},"type":"Feature"},
	{"geometry":{"coordinates":[4.35745,52.007383],"type":"Point"},"properties":{"osm_id":"3703235414","tag":{"amenity":"waste_basket"}},"type":"Feature"},
	{"geometry":{"coordinates":[4.357592,52.007429],"type":"Point"},"properties":{"osm_id":"3703235424","tag":{"amenity":"waste_basket"}},"type":"Feature"},
	{"geometry":{"coordinates":[4.357217,52.007657],"type":"Point"},"properties":{"osm_id":"3703240937","tag":{"amenity":"waste_basket"}},"type":"Feature"},
	{"geometry":{"coordinates":[4.357356,52.007698],"type":"Point"},"properties":{"osm_id":"3703240943","tag":{"amenity":"waste_basket"}},"type":"Feature"},
	{"geometry":{"coordinates":[4.356972,52.007948],"type":"Point"},"properties":{"osm_id":"3703240951","tag":{"amenity":"waste_basket"}},"type":"Feature"},
	{"geometry":{"coordinates":[4.357082,52.008019],"type":"Point"},"properties":{"osm_id":"3703240960","tag":{"amenity":"waste_basket"}},"type":"Feature"},
	{"geometry":{"coordinates":[4.364566,52.048372],"type":"Point"},"properties":{"osm_id":"3708893276","tag":{"amenity":"recycling","recycling_type":"container"}},"type":"Feature"},
	{"geometry":{"coordinates":[4.350358,52.005016],"type":"Point"},"properties":{"osm_id":"4012254726","tag":{"amenity":"recycling","recycling:green_waste":"yes","recycling_type":"container"}},"type":"Feature"},
	{"geometry":{"coordinates":[4.329585,52.008555],"type":"Point"},"properties":{"osm_id":"4051374640","tag":{"amenity":"waste_basket"}},"type":"Feature"},
	{"geometry":{"coordinates":[4.335958,52.008587],"type":"Point"},"properties":{"osm_id":"4113165956","tag":{"amenity":"waste_basket"}},"type":"Feature"},
	{"geometry":{"coordinates":[4.333812,52.005698],"type":"Point"},"properties":{"osm_id":"4263437196","tag":{"amenity":"waste_basket"}},"type":"Feature"},
	{"geometry":{"coordinates":[4.350135,52.049363],"type":"Point"},"properties":{"osm_id":"4382966561","tag":{"amenity":"waste_basket"}},"type":"Feature"},
	{"geometry":{"coordinates":[4.350438,52.049192],"type":"Point"},"properties":{"osm_id":"4382966564","tag":{"amenity":"waste_basket"}},"type":"Feature"},
	{"geometry":{"coordinates":[4.354027,52.034005],"type":"Point"},"properties":{"osm_id":"4384414793","tag":{"amenity":"recycling","recycling_type":"container"}},"type":"Feature"},
	{"geometry":{"coordinates":[4.365468,52.007167],"type":"Point"},"properties":{"osm_id":"4413087024","tag":{"amenity":"waste_basket"}},"type":"Feature"},
	{"geometry":{"coordinates":[4.375519,52.003521],"type":"Point"},"properties":{"osm_id":"4414534511","tag":{"amenity":"waste_basket"}},"type":"Feature"},
	{"geometry":{"coordinates":[4.370838,52.006945],"type":"Point"},"properties":{"osm_id":"4486831036","tag":{"amenity":"waste_basket"}},"type":"Feature"},
	{"geometry":{"coordinates":[4.370227,52.006428],"type":"Point"},"properties":{"osm_id":"4486831037","tag":{"amenity":"waste_basket"}},"type":"Feature"},
	{"geometry":{"coordinates":[4.366481,52.009428],"type":"Point"},"properties":{"osm_id":"4508463663","tag":{"amenity":"waste_basket"}},"type":"Feature"},
	{"geometry":{"coordinates":[4.381557,52.031134],"type":"Point"},"properties":{"osm_id":"4520444284","tag":{"amenity":"waste_disposal"}},"type":"Feature"},
	{"geometry":{"coordinates":[4.382205,52.031398],"type":"Point"},"properties":{"osm_id":"4520444289","tag":{"amenity":"recycling","recycling_type":"container"}},"type":"Feature"},
	{"geometry":{"coordinates":[4.382271,52.031426],"type":"Point"},"properties":{"osm_id":"4520444290","tag":{"amenity":"waste_disposal"}},"type":"Feature"},
	{"geometry":{"coordinates":[4.361522,52.03283],"type":"Point"},"properties":{"osm_id":"4549433488","tag":{"amenity":"waste_disposal"}},"type":"Feature"},
	{"geometry":{"coordinates":[4.360968,52.032099],"type":"Point"},"properties":{"osm_id":"4549458013","tag":{"amenity":"waste_disposal"}},"type":"Feature"},
	{"geometry":{"coordinates":[4.361848,52.033811],"type":"Point"},"properties":{"osm_id":"4549458014","tag":{"amenity":"waste_disposal"}},"type":"Feature"},
	{"geometry":{"coordinates":[4.360114,52.032648],"type":"Point"},"properties":{"osm_id":"4549458015","tag":{"amenity":"waste_disposal"}},"type":"Feature"},
	{"geometry":{"coordinates":[4.362833,52.034471],"type":"Point"},"properties":{"osm_id":"4549458017","tag":{"amenity":"waste_disposal"}},"type":"Feature"},
	{"geometry":{"coordinates":[4.362537,52.033323],"type":"Point"},"properties":{"osm_id":"4549458018","tag":{"amenity":"waste_disposal"}},"type":"Feature"},
	{"geometry":{"coordinates":[4.36636,52.035883],"type":"Point"},"properties":{"osm_id":"4549458019","tag":{"amenity":"recycling","recycling:glass":"yes","recycling_type":"container"}},"type":"Feature"},
	{"geometry":{"coordinates":[4.366382,52.035898],"type":"Point"},"properties":{"osm_id":"4549458020","tag":{"amenity":"waste_disposal"}},"type":"Feature"},
	{"geometry":{"coordinates":[4.368105,52.040361],"type":"Point"},"properties":{"osm_id":"4549458021","tag":{"amenity":"recycling","mapillary":"BPYd8h-5ckMYAVsXG4gcSg","recycling:glass":"no","recycling:glass_bottles":"yes","recycling_type":"container","survey:date":"2018-09-09"}},"type":"Feature"},
	{"geometry":{"coordinates":[4.368077,52.040392],"type":"Point"},"properties":{"osm_id":"4549458022","tag":{"amenity":"recycling","recycling:plastic":"yes","recycling_type":"container"}},"type":"Feature"},
	{"geometry":{"coordinates":[4.368128,52.040376],"type":"Point"},"properties":{"osm_id":"4549458023","tag":{"amenity":"recycling","recycling:paper":"yes","recycling_type":"container"}},"type":"Feature"},
	{"geometry":{"coordinates":[4.36783,52.040375],"type":"Point"},"properties":{"osm_id":"4549458024","tag":{"amenity":"waste_disposal"}},"type":"Feature"},
	{"geometry":{"coordinates":[4.367809,52.040363],"type":"Point"},"properties":{"osm_id":"4549458025","tag":{"amenity":"recycling","recycling:green_waste":"yes","recycling_type":"container"}},"type":"Feature"},
	{"geometry":{"coordinates":[4.391606,52.032368],"type":"Point"},"properties":{"osm_id":"4642935856","tag":{"amenity":"waste_disposal","waste":"trash","waste_1":"organic"}},"type":"Feature"},
	{"geometry":{"coordinates":[4.390796,52.03399],"type":"Point"},"properties":{"osm_id":"4643042765","tag":{"amenity":"waste_disposal","waste":"trash","waste_1":"organic"}},"type":"Feature"},
	{"geometry":{"coordinates":[4.390582,52.034439],"type":"Point"},"properties":{"osm_id":"4643042766","tag":{"amenity":"waste_disposal","waste":"trash","waste_1":"organic"}},"type":"Feature"},
	{"geometry":{"coordinates":[4.357247,52.036617],"type":"Point"},"properties":{"osm_id":"4669341252","tag":{"amenity":"waste_disposal"}},"type":"Feature"},
	{"geometry":{"coordinates":[4.358283,52.036117],"type":"Point"},"properties":{"osm_id":"4669341253","tag":{"amenity":"waste_disposal"}},"type":"Feature"},
	{"geometry":{"coordinates":[4.356756,52.035401],"type":"Point"},"properties":{"osm_id":"4669341254","tag":{"amenity":"waste_disposal"}},"type":"Feature"},
	{"geometry":{"coordinates":[4.355547,52.035534],"type":"Point"},"properties":{"osm_id":"4669341255","tag":{"amenity":"waste_disposal"}},"type":"Feature"},
	{"geometry":{"coordinates":[4.389276,52.052467],"type":"Point"},"properties":{"osm_id":"4672201886","tag":{"amenity":"waste_basket"}},"type":"Feature"},
	{"geometry":{"coordinates":[4.389331,52.052427],"type":"Point"},"properties":{"osm_id":"4672201887","tag":{"amenity":"waste_basket"}},"type":"Feature"},
	{"geometry":{"coordinates":[4.390644,52.052336],"type":"Point"},"properties":{"osm_id":"4677108247","tag":{"amenity":"waste_basket"}},"type":"Feature"},
	{"geometry":{"coordinates":[4.38992,52.051837],"type":"Point"},"properties":{"osm_id":"4677108248","tag":{"amenity":"waste_basket"}},"type":"Feature"},
	{"geometry":{"coordinates":[4.363614,52.03964],"type":"Point"},"properties":{"osm_id":"4679000129","tag":{"amenity":"waste_basket"}},"type":"Feature"},
	{"geometry":{"coordinates":[4.335338,52.009382],"type":"Point"},"properties":{"osm_id":"4786957703","tag":{"amenity":"waste_basket"}},"type":"Feature"},
	{"geometry":{"coordinates":[4.363809,52.014354],"type":"Point"},"properties":{"osm_id":"4825235696","tag":{"amenity":"recycling","recycling:cans":"yes","recycling:plastic":"yes","recycling:plastic_bottles":"yes","recycling:plastic_packaging":"yes","recycling_type":"container"}},"type":"Feature"},
	{"geometry":{"coordinates":[4.363895,52.014411],"type":"Point"},"properties":{"osm_id":"4825235698","tag":{"amenity":"waste_basket"}},"type":"Feature"},
	{"geometry":{"coordinates":[4.343126,52.045994],"type":"Point"},"properties":{"osm_id":"4842368468","tag":{"amenity":"waste_basket"}},"type":"Feature"},
	{"geometry":{"coordinates":[4.343596,52.043847],"type":"Point"},"properties":{"osm_id":"4842368469","tag":{"amenity":"waste_basket"}},"type":"Feature"},
	{"geometry":{"coordinates":[4.343169,52.046085],"type":"Point"},"properties":{"osm_id":"4842368476","tag":{"amenity":"waste_basket"}},"type":"Feature"},
	{"geometry":{"coordinates":[4.343834,52.042132],"type":"Point"},"properties":{"osm_id":"4842368481","tag":{"amenity":"waste_basket"}},"type":"Feature"},
	{"geometry":{"coordinates":[4.342697,52.044917],"type":"Point"},"properties":{"osm_id":"4842368482","tag":{"amenity":"waste_basket"}},"type":"Feature"},
	{"geometry":{"coordinates":[4.326424,52.030916],"type":"Point"},"properties":{"osm_id":"4890447221","tag":{"amenity":"waste_basket"}},"type":"Feature"},
	{"geometry":{"coordinates":[4.325462,52.030559],"type":"Point"},"properties":{"osm_id":"4892739142","tag":{"amenity":"waste_basket"}},"type":"Feature"},
	{"geometry":{"coordinates":[4.32318,52.015544],"type":"Point"},"properties":{"osm_id":"4892739146","tag":{"amenity":"waste_basket"}},"type":"Feature"},
	{"geometry":{"coordinates":[4.344205,52.024764],"type":"Point"},"properties":{"osm_id":"4904669526","tag":{"amenity":"waste_basket"}},"type":"Feature"},
	{"geometry":{"coordinates":[4.339214,52.043162],"type":"Point"},"properties":{"osm_id":"4906664467","tag":{"amenity":"waste_basket"}},"type":"Feature"},
	{"geometry":{"coordinates":[4.338881,52.045383],"type":"Point"},"properties":{"osm_id":"4906664472","tag":{"amenity":"waste_basket"}},"type":"Feature"},
	{"geometry":{"coordinates":[4.34541,52.002206],"type":"Point"},"properties":{"osm_id":"4908073019","tag":{"amenity":"waste_basket"}},"type":"Feature"},
	{"geometry":{"coordinates":[4.344771,52.002545],"type":"Point"},"properties":{"osm_id":"4908073284","tag":{"amenity":"recycling","location":"underground","recycling:glass_bottles":"yes","recycling:green_waste":"yes","recycling:waste":"yes","recycling_type":"container"}},"type":"Feature"},
	{"geometry":{"coordinates":[4.337116,52.003695],"type":"Point"},"properties":{"osm_id":"4908126252","tag":{"amenity":"waste_basket"}},"type":"Feature"},
	{"geometry":{"coordinates":[4.330709,52.003171],"type":"Point"},"properties":{"osm_id":"4909453710","tag":{"amenity":"waste_basket"}},"type":"Feature"},
	{"geometry":{"coordinates":[4.341825,52.047798],"type":"Point"},"properties":{"osm_id":"4919604224","tag":{"amenity":"recycling","recycling:green_waste":"yes","recycling_type":"container"}},"type":"Feature"},
	{"geometry":{"coordinates":[4.327153,52.001525],"type":"Point"},"properties":{"osm_id":"4921078006","tag":{"amenity":"recycling","recycling:plastic_bottles":"yes","recycling:plastic_packaging":"yes","recycling_type":"container"}},"type":"Feature"},
	{"geometry":{"coordinates":[4.339955,52.047014],"type":"Point"},"properties":{"osm_id":"4924988741","tag":{"amenity":"waste_basket"}},"type":"Feature"},
	{"geometry":{"coordinates":[4.336971,52.050539],"type":"Point"},"properties":{"osm_id":"4927386404","tag":{"amenity":"waste_basket"}},"type":"Feature"},
	{"geometry":{"coordinates":[4.333277,52.046858],"type":"Point"},"properties":{"osm_id":"4927400806","tag":{"amenity":"waste_basket"}},"type":"Feature"},
	{"geometry":{"coordinates":[4.34664,52.010845],"type":"Point"},"properties":{"osm_id":"4934356387","tag":{"amenity":"waste_basket"}},"type":"Feature"},
	{"geometry":{"coordinates":[4.367613,52.041263],"type":"Point"},"properties":{"osm_id":"4958189879","tag":{"amenity":"recycling","recycling:clothes":"yes","recycling:electrical_appliances":"yes","recycling:glass":"yes","recycling:green_waste":"yes","recycling:paper":"yes","recycling:plastic":"yes","recycling:waste":"yes","recycling_type":"container"}},"type":"Feature"},
	{"geometry":{"coordinates":[4.357448,52.044458],"type":"Point"},"properties":{"osm_id":"4958190090","tag":{"amenity":"waste_basket"}},"type":"Feature"},
	{"geometry":{"coordinates":[4.351983,52.02159],"type":"Point"},"properties":{"osm_id":"4969008391","tag":{"amenity":"waste_basket"}},"type":"Feature"},
	{"geometry":{"coordinates":[4.356538,52.01984],"type":"Point"},"properties":{"osm_id":"4969008398","tag":{"amenity":"waste_basket"}},"type":"Feature"},
	{"geometry":{"coordinates":[4.366494,52.027598],"type":"Point"},"properties":{"osm_id":"4977433801","tag":{"amenity":"waste_basket"}},"type":"Feature"},
	{"geometry":{"coordinates":[4.366214,52.028036],"type":"Point"},"properties":{"osm_id":"4977433811","tag":{"amenity":"waste_basket"}},"type":"Feature"},
	{"geometry":{"coordinates":[4.34532,51.998642],"type":"Point"},"properties":{"osm_id":"5034695297","tag":{"amenity":"recycling","recycling:garden_waste":"yes","recycling:green_waste":"yes","recycling:organic_waste":"yes","recycling_type":"container"}},"type":"Feature"},
	{"geometry":{"coordinates":[4.377478,52.005447],"type":"Point"},"properties":{"osm_id":"5040768488","tag":{"amenity":"recycling","recycling:waste":"yes","recycling_type":"container"}},"type":"Feature"},
	{"geometry":{"coordinates":[4.382863,52.020051],"type":"Point"},"properties":{"osm_id":"5041108131","tag":{"amenity":"waste_basket"}},"type":"Feature"},
	{"geometry":{"coordinates":[4.376647,52.021459],"type":"Point"},"properties":{"osm_id":"5041108139","tag":{"amenity":"waste_basket"}},"type":"Feature"},
	{"geometry":{"coordinates":[4.375728,52.022836],"type":"Point"},"properties":{"osm_id":"5041108146","tag":{"amenity":"waste_basket"}},"type":"Feature"},
	{"geometry":{"coordinates":[4.376071,52.023249],"type":"Point"},"properties":{"osm_id":"5041108149","tag":{"amenity":"waste_basket"}},"type":"Feature"},
	{"geometry":{"coordinates":[4.376747,52.023803],"type":"Point"},"properties":{"osm_id":"5041108151","tag":{"amenity":"waste_basket"}},"type":"Feature"},
	{"geometry":{"coordinates":[4.377756,52.024259],"type":"Point"},"properties":{"osm_id":"5041108153","tag":{"amenity":"waste_basket"}},"type":"Feature"},
	{"geometry":{"coordinates":[4.380395,52.024754],"type":"Point"},"properties":{"osm_id":"5041108159","tag":{"amenity":"waste_basket"}},"type":"Feature"},
	{"geometry":{"coordinates":[4.381311,52.024874],"type":"Point"},"properties":{"osm_id":"5041108161","tag":{"amenity":"waste_basket"}},"type":"Feature"},
	{"geometry":{"coordinates":[4.351847,52.017507],"type":"Point"},"properties":{"osm_id":"5053535594","tag":{"amenity":"waste_basket"}},"type":"Feature"},
	{"geometry":{"coordinates":[4.353678,52.007152],"type":"Point"},"properties":{"osm_id":"5083864041","tag":{"amenity":"waste_basket"}},"type":"Feature"},
	{"geometry":{"coordinates":[4.35358,52.008338],"type":"Point"},"properties":{"osm_id":"5083864045","tag":{"amenity":"waste_basket"}},"type":"Feature"},
	{"geometry":{"coordinates":[4.310002,52.036174],"type":"Point"},"properties":{"osm_id":"5122653129","tag":{"amenity":"waste_basket"}},"type":"Feature"},
	{"geometry":{"coordinates":[4.37094,52.011214],"type":"Point"},"properties":{"osm_id":"5205048323","tag":{"amenity":"recycling","recycling:green_waste":"yes","recycling:waste":"yes","recycling_type":"container"}},"type":"Feature"},
	{"geometry":{"coordinates":[4.374328,52.043089],"type":"Point"},"properties":{"osm_id":"5309119153","tag":{"amenity":"recycling","recycling:green_waste":"yes","recycling:waste":"yes","recycling_type":"container"}},"type":"Feature"},
	{"geometry":{"coordinates":[4.372475,52.041852],"type":"Point"},"properties":{"osm_id":"5309119154","tag":{"amenity":"recycling","recycling:green_waste":"yes","recycling:waste":"yes","recycling_type":"container"}},"type":"Feature"},
	{"geometry":{"coordinates":[4.375492,52.043857],"type":"Point"},"properties":{"osm_id":"5309119155","tag":{"amenity":"recycling","recycling:green_waste":"no","recycling:waste":"yes","recycling_type":"container"}},"type":"Feature"},
	{"geometry":{"coordinates":[4.371511,52.043139],"type":"Point"},"properties":{"osm_id":"5309119156","tag":{"amenity":"recycling","recycling:green_waste":"yes","recycling:waste":"yes","recycling_type":"container"}},"type":"Feature"},
	{"geometry":{"coordinates":[4.371673,52.041551],"type":"Point"},"properties":{"osm_id":"5309119157","tag":{"amenity":"recycling","recycling:green_waste":"yes","recycling:waste":"yes","recycling_type":"container"}},"type":"Feature"},
	{"geometry":{"coordinates":[4.371174,52.042591],"type":"Point"},"properties":{"osm_id":"5309119158","tag":{"amenity":"recycling","recycling:green_waste":"yes","recycling:waste":"yes","recycling_type":"container"}},"type":"Feature"},
	{"geometry":{"coordinates":[4.365382,52.009596],"type":"Point"},"properties":{"osm_id":"5373447294","tag":{"amenity":"waste_basket"}},"type":"Feature"},
	{"geometry":{"coordinates":[4.336865,52.003718],"type":"Point"},"properties":{"osm_id":"5384217896","tag":{"amenity":"waste_basket"}},"type":"Feature"},
	{"geometry":{"coordinates":[4.344242,52.001213],"type":"Point"},"properties":{"osm_id":"5469302701","tag":{"amenity":"waste_basket"}},"type":"Feature"},
	{"geometry":{"coordinates":[4.344145,52.001306],"type":"Point"},"properties":{"osm_id":"5469302707","tag":{"amenity":"waste_basket"}},"type":"Feature"},
	{"geometry":{"coordinates":[4.328794,51.999737],"type":"Point"},"properties":{"osm_id":"5526174883","tag":{"amenity":"recycling","recycling:green_waste":"yes","recycling_type":"container"}},"type":"Feature"},
	{"geometry":{"coordinates":[4.360608,52.020858],"type":"Point"},"properties":{"osm_id":"5545245179","tag":{"amenity":"waste_basket"}},"type":"Feature"},
	{"geometry":{"coordinates":[4.357612,52.021866],"type":"Point"},"properties":{"osm_id":"5545252621","tag":{"amenity":"waste_basket"}},"type":"Feature"},
	{"geometry":{"coordinates":[4.356839,52.019774],"type":"Point"},"properties":{"osm_id":"5545410479","tag":{"amenity":"waste_basket"}},"type":"Feature"},
	{"geometry":{"coordinates":[4.346428,52.052357],"type":"Point"},"properties":{"osm_id":"5567536409","tag":{"amenity":"waste_basket"}},"type":"Feature"},
	{"geometry":{"coordinates":[4.364961,52.005878],"type":"Point"},"properties":{"osm_id":"5623415148","tag":{"amenity":"recycling","recycling:batteries":"no","recycling:books":"no","recycling:cans":"no","recycling:cardboard":"yes","recycling:cartons":"yes","recycling:clothes":"no","recycling:electrical_appliances":"no","recycling:glass":"no","recycling:glass_bottles":"no","recycling:green_waste":"no","recycling:magazines":"yes","recycling:newspaper":"yes","recycling:paper":"yes","recycling:paper_packaging":"yes","recycling:plastic":"no","recycling:plastic_bottles":"no","recycling:plastic_packaging":"no","recycling:scrap_metal":"no","recycling:small_appliances":"no","recycling:waste":"no","recycling:wood":"no","recycling_type":"container"}},"type":"Feature"},
	{"geometry":{"coordinates":[4.364789,52.004408],"type":"Point"},"properties":{"osm_id":"5623449832","tag":{"amenity":"recycling","recycling:clothes":"yes","recycling_type":"container"}},"type":"Feature"},
	{"geometry":{"coordinates":[4.348121,52.015442],"type":"Point"},"properties":{"osm_id":"5628401283","tag":{"amenity":"recycling","recycling:cans":"yes","recycling:plastic":"yes","recycling_type":"container"}},"type":"Feature"},
	{"geometry":{"coordinates":[4.342123,52.014855],"type":"Point"},"properties":{"osm_id":"5768641477","tag":{"amenity":"recycling","recycling:cans":"yes","recycling:plastic":"yes","recycling:plastic_bottles":"yes","recycling:plastic_packaging":"yes","recycling_type":"container"}},"type":"Feature"},
	{"geometry":{"coordinates":[4.37661,52.005215],"type":"Point"},"properties":{"osm_id":"5781955284","tag":{"amenity":"recycling","recycling:green_waste":"yes","recycling:waste":"yes","recycling_type":"container"}},"type":"Feature"},
	{"geometry":{"coordinates":[4.375479,52.005256],"type":"Point"},"properties":{"osm_id":"5781955285","tag":{"amenity":"recycling","recycling:green_waste":"yes","recycling:waste":"yes","recycling_type":"container"}},"type":"Feature"},
	{"geometry":{"coordinates":[4.369587,52.010489],"type":"Point"},"properties":{"osm_id":"5788089186","tag":{"amenity":"recycling","recycling:green_waste":"yes","recycling:waste":"yes","recycling_type":"container"}},"type":"Feature"},
	{"geometry":{"coordinates":[4.350465,52.014004],"type":"Point"},"properties":{"osm_id":"5834729252","tag":{"amenity":"waste_basket"}},"type":"Feature"},
	{"geometry":{"coordinates":[4.367384,52.011639],"type":"Point"},"properties":{"osm_id":"5856178424","tag":{"amenity":"waste_basket"}},"type":"Feature"},
	{"geometry":{"coordinates":[4.367229,52.011723],"type":"Point"},"properties":{"osm_id":"5856178425","tag":{"amenity":"waste_basket"}},"type":"Feature"},
	{"geometry":{"coordinates":[4.372958,52.01387],"type":"Point"},"properties":{"osm_id":"5856199443","tag":{"amenity":"waste_basket"}},"type":"Feature"},
	{"geometry":{"coordinates":[4.378517,52.018358],"type":"Point"},"properties":{"osm_id":"5882165721","tag":{"amenity":"recycling","recycling_type":"container"}},"type":"Feature"},
	{"geometry":{"coordinates":[4.361077,52.010041],"type":"Point"},"properties":{"osm_id":"5885491827","tag":{"amenity":"waste_basket"}},"type":"Feature"},
	{"geometry":{"coordinates":[4.375378,52.007125],"type":"Point"},"properties":{"osm_id":"5919104599","tag":{"amenity":"recycling","recycling:clothes":"yes","recycling_type":"container"}},"type":"Feature"},
	{"geometry":{"coordinates":[4.353833,52.016854],"type":"Point"},"properties":{"osm_id":"5983171250","tag":{"amenity":"waste_basket"}},"type":"Feature"},
	{"geometry":{"coordinates":[4.359036,52.009178],"type":"Point"},"properties":{"osm_id":"5993882550","tag":{"amenity":"waste_basket"}},"type":"Feature"},
	{"geometry":{"coordinates":[4.391105,51.999902],"type":"Point"},"properties":{"osm_id":"6041267654","tag":{"amenity":"waste_disposal"}},"type":"Feature"},
	{"geometry":{"coordinates":[4.391118,51.99988],"type":"Point"},"properties":{"osm_id":"6041267655","tag":{"amenity":"recycling","recycling:green_waste":"yes","recycling_type":"container"}},"type":"Feature"},
	{"geometry":{"coordinates":[4.391421,51.999413],"type":"Point"},"properties":{"osm_id":"6041267656","tag":{"amenity":"recycling","recycling:green_waste":"yes","recycling:paper":"yes","recycling_type":"container"}},"type":"Feature"},
	{"geometry":{"coordinates":[4.393029,51.999549],"type":"Point"},"properties":{"osm_id":"6041267657","tag":{"amenity":"recycling","recycling:aluminium":"yes","recycling:drink_cartons":"yes","recycling:green_waste":"yes","recycling:plastic":"yes","recycling_type":"container"}},"type":"Feature"},
	{"geometry":{"coordinates":[4.391981,51.998541],"type":"Point"},"properties":{"osm_id":"6041267658","tag":{"amenity":"waste_disposal"}},"type":"Feature"},
	{"geometry":{"coordinates":[4.391949,51.998537],"type":"Point"},"properties":{"osm_id":"6041267659","tag":{"amenity":"recycling","recycling:aluminium":"yes","recycling:drink_cartons":"yes","recycling:green_waste":"yes","recycling:plastic":"yes","recycling_type":"container"}},"type":"Feature"},
	{"geometry":{"coordinates":[4.39344,51.998757],"type":"Point"},"properties":{"osm_id":"6041267660","tag":{"amenity":"recycling","recycling:green_waste":"yes","recycling:paper":"yes","recycling_type":"container"}},"type":"Feature"},
	{"geometry":{"coordinates":[4.39218,52.000461],"type":"Point"},"properties":{"osm_id":"6041267662","tag":{"amenity":"recycling","recycling:aluminium":"yes","recycling:drink_cartons":"yes","recycling:green_waste":"yes","recycling:plastic":"yes","recycling_type":"container"}},"type":"Feature"},
	{"geometry":{"coordinates":[4.394233,51.999513],"type":"Point"},"properties":{"osm_id":"6046875677","tag":{"amenity":"waste_disposal"}},"type":"Feature"},
	{"geometry":{"coordinates":[4.394294,51.99953],"type":"Point"},"properties":{"osm_id":"6046875678","tag":{"amenity":"recycling","recycling:glass":"yes","recycling_type":"container"}},"type":"Feature"},
	{"geometry":{"coordinates":[4.394143,52.000333],"type":"Point"},"properties":{"osm_id":"6046891730","tag":{"amenity":"recycling","recycling:aluminium":"yes","recycling:drink_cartons":"yes","recycling:green_waste":"yes","recycling:plastic":"yes","recycling_type":"container"}},"type":"Feature"},
	{"geometry":{"coordinates":[4.393533,52.000859],"type":"Point"},"properties":{"osm_id":"6046891736","tag":{"amenity":"recycling","recycling:aluminium":"yes","recycling:drink_cartons":"yes","recycling:green_waste":"yes","recycling:plastic":"yes","recycling_type":"container"}},"type":"Feature"},
	{"geometry":{"coordinates":[4.357193,52.006942],"type":"Point"},"properties":{"osm_id":"6347657234","tag":{"amenity":"waste_basket"}},"type":"Feature"},
	{"geometry":{"coordinates":[4.357129,52.006911],"type":"Point"},"properties":{"osm_id":"6347657240","tag":{"amenity":"waste_basket"}},"type":"Feature"},
	{"geometry":{"coordinates":[4.357063,52.006881],"type":"Point"},"properties":{"osm_id":"6347657246","tag":{"amenity":"waste_basket"}},"type":"Feature"},
	{"geometry":{"coordinates":[4.356998,52.006851],"type":"Point"},"properties":{"osm_id":"6347657252","tag":{"amenity":"waste_basket"}},"type":"Feature"},
	{"geometry":{"coordinates":[4.356933,52.006819],"type":"Point"},"properties":{"osm_id":"6347657258","tag":{"amenity":"waste_basket"}},"type":"Feature"},
	{"geometry":{"coordinates":[4.363479,52.00738],"type":"Point"},"properties":{"osm_id":"6419606257","tag":{"amenity":"recycling","location":"underground","recycling:plastic_packaging":"yes","recycling:waste":"yes","recycling_type":"container"}},"type":"Feature"},
	{"geometry":{"coordinates":[4.312386,52.021753],"type":"Point"},"properties":{"osm_id":"6484079310","tag":{"amenity":"waste_basket"}},"type":"Feature"},
	{"geometry":{"coordinates":[4.319791,52.038628],"type":"Point"},"properties":{"osm_id":"6484106532","tag":{"amenity":"waste_basket"}},"type":"Feature"},
	{"geometry":{"coordinates":[4.390633,52.041308],"type":"Point"},"properties":{"osm_id":"6502493862","tag":{"amenity":"waste_basket"}},"type":"Feature"},
	{"geometry":{"coordinates":[4.392169,52.005101],"type":"Point"},"properties":{"osm_id":"6535249869","tag":{"amenity":"waste_basket"}},"type":"Feature"},
	{"geometry":{"coordinates":[4.392131,52.005322],"type":"Point"},"properties":{"osm_id":"6535250899","tag":{"amenity":"waste_basket"}},"type":"Feature"},
	{"geometry":{"coordinates":[4.389742,52.007897],"type":"Point"},"properties":{"osm_id":"6537301443","tag":{"amenity":"waste_basket"}},"type":"Feature"},
	{"geometry":{"coordinates":[4.390105,52.002242],"type":"Point"},"properties":{"osm_id":"6550016958","tag":{"amenity":"waste_basket"}},"type":"Feature"},
	{"geometry":{"coordinates":[4.392004,52.00383],"type":"Point"},"properties":{"osm_id":"6550018102","tag":{"amenity":"waste_basket"}},"type":"Feature"},
	{"geometry":{"coordinates":[4.392319,52.002144],"type":"Point"},"properties":{"osm_id":"6550021932","tag":{"amenity":"waste_basket"}},"type":"Feature"},
	{"geometry":{"coordinates":[4.391973,52.000675],"type":"Point"},"properties":{"osm_id":"6550021936","tag":{"amenity":"waste_basket"}},"type":"Feature"},
	{"geometry":{"coordinates":[4.393826,52.00387],"type":"Point"},"properties":{"osm_id":"6550042519","tag":{"amenity":"waste_basket"}},"type":"Feature"},
	{"geometry":{"coordinates":[4.315347,52.05241],"type":"Point"},"properties":{"osm_id":"6595247504","tag":{"access":"yes","amenity":"waste_disposal","location":"underground"}},"type":"Feature"},
	{"geometry":{"coordinates":[4.315384,52.052412],"type":"Point"},"properties":{"osm_id":"6595247505","tag":{"access":"yes","amenity":"waste_disposal","location":"underground"}},"type":"Feature"},
	{"geometry":{"coordinates":[4.313858,52.017911],"type":"Point"},"properties":{"osm_id":"6708531040","tag":{"amenity":"waste_basket","material":"metal"}},"type":"Feature"},
	{"geometry":{"coordinates":[4.330032,52.003898],"type":"Point"},"properties":{"osm_id":"6823035740","tag":{"amenity":"recycling","recycling:glass":"no","recycling:glass_bottles":"no","recycling:waste":"yes","recycling_type":"container"}},"type":"Feature"},
	{"geometry":{"coordinates":[4.33356,52.004757],"type":"Point"},"properties":{"osm_id":"6823090757","tag":{"amenity":"recycling","recycling:waste":"yes","recycling_type":"container"}},"type":"Feature"},
	{"geometry":{"coordinates":[4.333528,52.00476],"type":"Point"},"properties":{"osm_id":"6823090758","tag":{"amenity":"recycling","recycling:glass":"no","recycling:glass_bottles":"yes","recycling:waste":"no","recycling_type":"container"}},"type":"Feature"},
	{"geometry":{"coordinates":[4.358429,52.011292],"type":"Point"},"properties":{"osm_id":"6833748123","tag":{"amenity":"recycling","location":"underground","recycling:glass_bottles":"yes","recycling_type":"container"}},"type":"Feature"},
	{"geometry":{"coordinates":[4.358374,52.011276],"type":"Point"},"properties":{"osm_id":"6833748124","tag":{"amenity":"recycling","location":"underground","recycling:waste":"yes","recycling_type":"container"}},"type":"Feature"},
	{"geometry":{"coordinates":[4.347848,52.010501],"type":"Point"},"properties":{"osm_id":"6943630234","tag":{"amenity":"waste_disposal","location":"underground","waste":"household"}},"type":"Feature"},
	{"geometry":{"coordinates":[4.349275,52.010383],"type":"Point"},"properties":{"osm_id":"6943630235","tag":{"amenity":"recycling","location":"underground","recycling:beverage_cartons":"yes","recycling:cans":"yes","recycling:green_waste":"yes","recycling:paper":"yes","recycling:plastic_packaging":"yes","recycling_type":"container"}},"type":"Feature"},
	{"geometry":{"coordinates":[4.341422,52.001361],"type":"Point"},"properties":{"osm_id":"6943891758","tag":{"amenity":"recycling","location":"underground","operator":"Avalex","recycling:cans":"yes","recycling:plastic":"yes","recycling_type":"container"}},"type":"Feature"},
	{"geometry":{"coordinates":[4.346248,52.009647],"type":"Point"},"properties":{"osm_id":"7124765283","tag":{"amenity":"waste_basket"}},"type":"Feature"},
	{"geometry":{"coordinates":[4.345851,52.009941],"type":"Point"},"properties":{"osm_id":"7124796986","tag":{"amenity":"waste_basket"}},"type":"Feature"},
	{"geometry":{"coordinates":[4.329756,52.001672],"type":"Point"},"properties":{"osm_id":"7207544468","tag":{"amenity":"recycling","location":"underground","recycling:waste":"yes","recycling_type":"container"}},"type":"Feature"},
	{"geometry":{"coordinates":[4.336952,52.003865],"type":"Point"},"properties":{"osm_id":"7212701003","tag":{"amenity":"recycling","location":"underground","recycling:waste":"yes","recycling_type":"container"}},"type":"Feature"},
	{"geometry":{"coordinates":[4.339056,52.002567],"type":"Point"},"properties":{"osm_id":"7212701004","tag":{"amenity":"recycling","location":"underground","recycling:waste":"yes","recycling_type":"container"}},"type":"Feature"},
	{"geometry":{"coordinates":[4.354347,52.002254],"type":"Point"},"properties":{"osm_id":"7228624960","tag":{"amenity":"recycling","location":"underground","recycling:glass_bottles":"yes","recycling:green_waste":"yes","recycling:waste":"yes","recycling_type":"container","survey:date":"2020-02-14"}},"type":"Feature"},
	{"geometry":{"coordinates":[4.336128,52.000436],"type":"Point"},"properties":{"osm_id":"7229895316","tag":{"amenity":"recycling","location":"underground","recycling:green_waste":"yes","recycling:paper":"yes","recycling:plastic":"yes","recycling:waste":"yes","recycling_type":"container","survey:date":"2020-02-20"}},"type":"Feature"},
	{"geometry":{"coordinates":[4.335634,52.002849],"type":"Point"},"properties":{"osm_id":"7268288536","tag":{"amenity":"recycling","location":"underground","recycling:waste":"yes","recycling_type":"container","type":"container"}},"type":"Feature"},
	{"geometry":{"coordinates":[4.350682,52.024334],"type":"Point"},"properties":{"osm_id":"7467699449","tag":{"amenity":"recycling","location":"overground","recycling:pmd":"yes","recycling_type":"container"}},"type":"Feature"},
	{"geometry":{"coordinates":[4.350832,52.024299],"type":"Point"},"properties":{"osm_id":"7467699450","tag":{"amenity":"recycling","location":"underground","recycling:glass_bottles":"yes","recycling:paper":"yes","recycling_type":"container"}},"type":"Feature"},
	{"geometry":{"coordinates":[4.34645,52.026717],"type":"Point"},"properties":{"osm_id":"7469445314","tag":{"amenity":"recycling","location":"underground","recycling:glass_bottles":"yes","recycling_type":"container"}},"type":"Feature"},
	{"geometry":{"coordinates":[4.342646,52.014389],"type":"Point"},"properties":{"osm_id":"7471733603","tag":{"amenity":"recycling","location":"underground","recycling:green_waste":"yes","recycling:pmd":"yes","recycling_type":"container"}},"type":"Feature"},
	{"geometry":{"coordinates":[4.33957,52.014015],"type":"Point"},"properties":{"osm_id":"7471733605","tag":{"amenity":"recycling","location":"underground","recycling:green_waste":"yes","recycling:paper":"yes","recycling:pmd":"yes","recycling_type":"container"}},"type":"Feature"},
	{"geometry":{"coordinates":[4.335915,52.013583],"type":"Point"},"properties":{"osm_id":"7472073669","tag":{"amenity":"recycling","location":"underground","recycling:green_waste":"yes","recycling:paper":"yes","recycling:waste":"yes","recycling_type":"container"}},"type":"Feature"},
	{"geometry":{"coordinates":[4.329872,52.010992],"type":"Point"},"properties":{"osm_id":"7472073682","tag":{"amenity":"recycling","location":"underground","recycling:waste":"yes","recycling_type":"container"}},"type":"Feature"},
	{"geometry":{"coordinates":[4.359824,52.015912],"type":"Point"},"properties":{"osm_id":"7476990790","tag":{"amenity":"recycling","location":"underground","recycling:green_waste":"yes","recycling:paper":"yes","recycling:pmd":"yes","recycling:waste":"yes","recycling_type":"container"}},"type":"Feature"},
	{"geometry":{"coordinates":[4.360513,52.015291],"type":"Point"},"properties":{"osm_id":"7476990792","tag":{"amenity":"recycling","recycling:green_waste":"yes","recycling:pmd":"yes","recycling_type":"container"}},"type":"Feature"},
	{"geometry":{"coordinates":[4.351813,52.006185],"type":"Point"},"properties":{"osm_id":"7500724292","tag":{"amenity":"recycling","location":"overground","recycling:green_waste":"yes","recycling_type":"container"}},"type":"Feature"},
	{"geometry":{"coordinates":[4.336534,52.012027],"type":"Point"},"properties":{"osm_id":"7511115770","tag":{"amenity":"recycling","location":"underground","recycling:paper":"yes","recycling_type":"container"}},"type":"Feature"},
	{"geometry":{"coordinates":[4.336468,52.012011],"type":"Point"},"properties":{"osm_id":"7511115771","tag":{"amenity":"recycling","location":"underground","recycling:waste":"yes","recycling_type":"container"}},"type":"Feature"},
	{"geometry":{"coordinates":[4.337139,52.012738],"type":"Point"},"properties":{"osm_id":"7511115779","tag":{"amenity":"recycling","location":"underground","recycling:green_waste":"yes","recycling:paper":"yes","recycling:waste":"yes","recycling_type":"container"}},"type":"Feature"},
	{"geometry":{"coordinates":[4.342947,52.044597],"type":"Point"},"properties":{"osm_id":"7537742965","tag":{"amenity":"recycling","location":"overground","recycling:waste":"yes","recycling_type":"container"}},"type":"Feature"},
	{"geometry":{"coordinates":[4.39058,52.035869],"type":"Point"},"properties":{"osm_id":"7542316567","tag":{"amenity":"waste_basket"}},"type":"Feature"},
	{"geometry":{"coordinates":[4.388892,52.037365],"type":"Point"},"properties":{"osm_id":"7542316568","tag":{"amenity":"waste_basket"}},"type":"Feature"},
	{"geometry":{"coordinates":[4.364025,52.000647],"type":"Point"},"properties":{"osm_id":"7553544306","tag":{"amenity":"waste_basket","colour":"black","material":"metal"}},"type":"Feature"},
	{"geometry":{"coordinates":[4.364336,52.000258],"type":"Point"},"properties":{"osm_id":"7553544308","tag":{"amenity":"waste_basket","colour":"black","material":"metal"}},"type":"Feature"},
	{"geometry":{"coordinates":[4.363875,52.000816],"type":"Point"},"properties":{"osm_id":"7553563295","tag":{"amenity":"waste_basket","colour":"black","material":"metal"}},"type":"Feature"},
	{"geometry":{"coordinates":[4.326086,52.008838],"type":"Point"},"properties":{"osm_id":"7599773644","tag":{"amenity":"recycling","location":"underground","recycling:glass_bottles":"yes","recycling:green_waste":"yes","recycling:pmd":"yes","recycling:waste":"yes","recycling_type":"container"}},"type":"Feature"},
	{"geometry":{"coordinates":[4.35076,52.018627],"type":"Point"},"properties":{"osm_id":"7618478217","tag":{"amenity":"recycling","location":"underground","recycling:waste":"yes","recycling_type":"container"}},"type":"Feature"},
	{"geometry":{"coordinates":[4.327618,52.011345],"type":"Point"},"properties":{"osm_id":"7619149017","tag":{"amenity":"recycling","location":"underground","recycling:waste":"yes","recycling_type":"container"}},"type":"Feature"},
	{"geometry":{"coordinates":[4.365105,52.014064],"type":"Point"},"properties":{"osm_id":"7643813797","tag":{"amenity":"recycling","location":"underground","recycling:waste":"yes","recycling_type":"container"}},"type":"Feature"},
	{"geometry":{"coordinates":[4.366375,52.014873],"type":"Point"},"properties":{"osm_id":"7643813798","tag":{"amenity":"recycling","location":"underground","recycling:waste":"yes","recycling_type":"container"}},"type":"Feature"},
	{"geometry":{"coordinates":[4.33606,52.036833],"type":"Point"},"properties":{"osm_id":"7644481453","tag":{"amenity":"waste_basket"}},"type":"Feature"},
	{"geometry":{"coordinates":[4.357891,52.025248],"type":"Point"},"properties":{"osm_id":"7652095957","tag":{"amenity":"recycling","location":"underground","recycling:waste":"yes","recycling_type":"container"}},"type":"Feature"},
	{"geometry":{"coordinates":[4.34908,52.00741],"type":"Point"},"properties":{"osm_id":"7657172207","tag":{"amenity":"recycling","recycling_type":"container"}},"type":"Feature"},
	{"geometry":{"coordinates":[4.391167,52.042306],"type":"Point"},"properties":{"osm_id":"7674673749","tag":{"amenity":"recycling","recycling_type":"container"}},"type":"Feature"},
	{"geometry":{"coordinates":[4.352738,52.051439],"type":"Point"},"properties":{"osm_id":"7705617896","tag":{"amenity":"waste_basket"}},"type":"Feature"},
	{"geometry":{"coordinates":[4.352682,52.049937],"type":"Point"},"properties":{"osm_id":"7705617897","tag":{"amenity":"waste_basket"}},"type":"Feature"}
]
}
