{
"type": "FeatureCollection",
"features": [
	{"geometry":{"coordinates":[4.338086,51.175983],"type":"Point"},"properties":{"osm_id":"306498022","tag":{"amenity":"recycling","recycling:glass":"yes"}},"type":"Feature"},
	{"geometry":{"coordinates":[4.390189,51.172285],"type":"Point"},"properties":{"osm_id":"1538266959","tag":{"amenity":"waste_basket"}},"type":"Feature"},
	{"geometry":{"coordinates":[4.367105,51.173075],"type":"Point"},"properties":{"osm_id":"1636755826","tag":{"amenity":"recycling","location":"overground","recycling:glass":"yes","recycling_type":"container"}},"type":"Feature"},
	{"geometry":{"coordinates":[4.360278,51.170306],"type":"Point"},"properties":{"osm_id":"1914611291","tag":{"amenity":"recycling","recycling:glass":"yes","recycling:glass_bottles":"yes","recycling_type":"container"}},"type":"Feature"},
	{"geometry":{"coordinates":[4.357369,51.17197],"type":"Point"},"properties":{"osm_id":"1914611303","tag":{"amenity":"recycling","recycling:glass":"yes","recycling:glass_bottles":"yes","recycling_type":"container"}},"type":"Feature"},
	{"geometry":{"coordinates":[4.344131,51.173989],"type":"Point"},"properties":{"osm_id":"1928706737","tag":{"amenity":"recycling","recycling:glass_bottles":"yes","recycling_type":"container"}},"type":"Feature"},
	{"geometry":{"coordinates":[4.391811,51.158507],"type":"Point"},"properties":{"name":"Containerpark Wilrijk","osm_id":"1971994136","tag":{"amenity":"recycling","recycling_type":"container"}},"type":"Feature"},
	{"geometry":{"coordinates":[4.344669,51.136888],"type":"Point"},"properties":{"osm_id":"2051891119","tag":{"amenity":"waste_basket"}},"type":"Feature"},
	{"geometry":{"coordinates":[4.344952,51.137047],"type":"Point"},"properties":{"osm_id":"2051891137","tag":{"amenity":"waste_basket"}},"type":"Feature"},
	{"geometry":{"coordinates":[4.347468,51.13581],"type":"Point"},"properties":{"osm_id":"2052790186","tag":{"amenity":"waste_basket"}},"type":"Feature"},
	{"geometry":{"coordinates":[4.350712,51.136331],"type":"Point"},"properties":{"osm_id":"2052790233","tag":{"amenity":"waste_basket"}},"type":"Feature"},
	{"geometry":{"coordinates":[4.350827,51.13637],"type":"Point"},"properties":{"osm_id":"2052790234","tag":{"amenity":"recycling","recycling:glass_bottles":"yes","recycling_type":"container"}},"type":"Feature"},
	{"geometry":{"coordinates":[4.345691,51.13743],"type":"Point"},"properties":{"osm_id":"2052790333","tag":{"amenity":"waste_basket"}},"type":"Feature"},
	{"geometry":{"coordinates":[4.342737,51.14101],"type":"Point"},"properties":{"osm_id":"2052819697","tag":{"amenity":"recycling","operator":"Vlaams Inzamel Centrum Textiel","recycling:clothes":"yes","recycling_type":"container"}},"type":"Feature"},
	{"geometry":{"coordinates":[4.345364,51.141937],"type":"Point"},"properties":{"osm_id":"2052819860","tag":{"amenity":"waste_basket"}},"type":"Feature"},
	{"geometry":{"coordinates":[4.345334,51.141949],"type":"Point"},"properties":{"osm_id":"2052819864","tag":{"amenity":"recycling","recycling:glass_bottles":"yes","recycling_type":"container"}},"type":"Feature"},
	{"geometry":{"coordinates":[4.352692,51.137768],"type":"Point"},"properties":{"osm_id":"2053260960","tag":{"amenity":"waste_basket"}},"type":"Feature"},
	{"geometry":{"coordinates":[4.389491,51.138845],"type":"Point"},"properties":{"osm_id":"2108718421","tag":{"amenity":"waste_basket"}},"type":"Feature"},
	{"geometry":{"coordinates":[4.388228,51.141017],"type":"Point"},"properties":{"osm_id":"2108718482","tag":{"amenity":"waste_basket"}},"type":"Feature"},
	{"geometry":{"coordinates":[4.384842,51.141346],"type":"Point"},"properties":{"osm_id":"2108718533","tag":{"amenity":"waste_basket"}},"type":"Feature"},
	{"geometry":{"coordinates":[4.387659,51.143105],"type":"Point"},"properties":{"osm_id":"2108718804","tag":{"amenity":"waste_basket"}},"type":"Feature"},
	{"geometry":{"coordinates":[4.38444,51.140437],"type":"Point"},"properties":{"osm_id":"2134771044","tag":{"amenity":"waste_basket"}},"type":"Feature"},
	{"geometry":{"coordinates":[4.38118,51.14162],"type":"Point"},"properties":{"osm_id":"2134771295","tag":{"amenity":"waste_basket"}},"type":"Feature"},
	{"geometry":{"coordinates":[4.387827,51.137122],"type":"Point"},"properties":{"osm_id":"2137937018","tag":{"amenity":"waste_basket"}},"type":"Feature"},
	{"geometry":{"coordinates":[4.384558,51.13559],"type":"Point"},"properties":{"osm_id":"2148349610","tag":{"amenity":"waste_basket"}},"type":"Feature"},
	{"geometry":{"coordinates":[4.378917,51.13308],"type":"Point"},"properties":{"osm_id":"2150257181","tag":{"amenity":"recycling","recycling:glass_bottles":"yes","recycling_type":"container"}},"type":"Feature"},
	{"geometry":{"coordinates":[4.381816,51.135088],"type":"Point"},"properties":{"osm_id":"2150257465","tag":{"amenity":"recycling","operator":"Vlaams Inzamel Centrum Textiel","recycling:clothes":"yes","recycling_type":"container"}},"type":"Feature"},
	{"geometry":{"coordinates":[4.38427,51.132137],"type":"Point"},"properties":{"osm_id":"2154405655","tag":{"amenity":"waste_basket"}},"type":"Feature"},
	{"geometry":{"coordinates":[4.384269,51.132222],"type":"Point"},"properties":{"osm_id":"2154405677","tag":{"amenity":"waste_basket"}},"type":"Feature"},
	{"geometry":{"coordinates":[4.390978,51.135307],"type":"Point"},"properties":{"osm_id":"2155895625","tag":{"amenity":"waste_basket"}},"type":"Feature"},
	{"geometry":{"coordinates":[4.389682,51.133797],"type":"Point"},"properties":{"osm_id":"2156432339","tag":{"amenity":"waste_basket"}},"type":"Feature"},
	{"geometry":{"coordinates":[4.389855,51.134062],"type":"Point"},"properties":{"osm_id":"2156432404","tag":{"amenity":"recycling","recycling:glass_bottles":"yes","recycling_type":"container"}},"type":"Feature"},
	{"geometry":{"coordinates":[4.393317,51.130812],"type":"Point"},"properties":{"osm_id":"2156617259","tag":{"amenity":"recycling","operator":"Vlaams Inzamel Centrum Textiel","recycling:clothes":"yes","recycling_type":"container"}},"type":"Feature"},
	{"geometry":{"coordinates":[4.390911,51.13104],"type":"Point"},"properties":{"osm_id":"2156617345","tag":{"amenity":"waste_basket"}},"type":"Feature"},
	{"geometry":{"coordinates":[4.390087,51.131096],"type":"Point"},"properties":{"osm_id":"2156617379","tag":{"amenity":"waste_basket"}},"type":"Feature"},
	{"geometry":{"coordinates":[4.3908,51.131117],"type":"Point"},"properties":{"osm_id":"2156617384","tag":{"amenity":"waste_basket"}},"type":"Feature"},
	{"geometry":{"coordinates":[4.393882,51.148492],"type":"Point"},"properties":{"osm_id":"2159784102","tag":{"amenity":"waste_basket"}},"type":"Feature"},
	{"geometry":{"coordinates":[4.3871,51.133515],"type":"Point"},"properties":{"osm_id":"2162521648","tag":{"amenity":"waste_basket","colour":"green","material":"metal","waste":"trash"}},"type":"Feature"},
	{"geometry":{"coordinates":[4.385108,51.131211],"type":"Point"},"properties":{"osm_id":"2165218131","tag":{"amenity":"waste_basket"}},"type":"Feature"},
	{"geometry":{"coordinates":[4.382437,51.128049],"type":"Point"},"properties":{"osm_id":"2167433189","tag":{"amenity":"waste_basket"}},"type":"Feature"},
	{"geometry":{"coordinates":[4.384335,51.126352],"type":"Point"},"properties":{"osm_id":"2167490586","tag":{"amenity":"waste_basket"}},"type":"Feature"},
	{"geometry":{"coordinates":[4.387255,51.124678],"type":"Point"},"properties":{"osm_id":"2167698842","tag":{"amenity":"waste_basket"}},"type":"Feature"},
	{"geometry":{"coordinates":[4.389016,51.125332],"type":"Point"},"properties":{"osm_id":"2180386490","tag":{"amenity":"waste_basket"}},"type":"Feature"},
	{"geometry":{"coordinates":[4.389066,51.125464],"type":"Point"},"properties":{"osm_id":"2180386527","tag":{"amenity":"waste_basket"}},"type":"Feature"},
	{"geometry":{"coordinates":[4.389975,51.128357],"type":"Point"},"properties":{"osm_id":"2187040869","tag":{"amenity":"waste_basket"}},"type":"Feature"},
	{"geometry":{"coordinates":[4.386882,51.129483],"type":"Point"},"properties":{"osm_id":"2187065673","tag":{"amenity":"waste_basket"}},"type":"Feature"},
	{"geometry":{"coordinates":[4.344616,51.156631],"type":"Point"},"properties":{"osm_id":"2205925198","tag":{"amenity":"waste_basket"}},"type":"Feature"},
	{"geometry":{"coordinates":[4.349746,51.159274],"type":"Point"},"properties":{"osm_id":"2205925204","tag":{"amenity":"waste_basket"}},"type":"Feature"},
	{"geometry":{"coordinates":[4.349866,51.159482],"type":"Point"},"properties":{"osm_id":"2205925215","tag":{"amenity":"waste_basket"}},"type":"Feature"},
	{"geometry":{"coordinates":[4.349328,51.177404],"type":"Point"},"properties":{"osm_id":"2205925342","tag":{"amenity":"waste_basket"}},"type":"Feature"},
	{"geometry":{"coordinates":[4.382018,51.176638],"type":"Point"},"properties":{"osm_id":"2211551851","tag":{"amenity":"waste_basket"}},"type":"Feature"},
	{"geometry":{"coordinates":[4.382106,51.176881],"type":"Point"},"properties":{"osm_id":"2211551861","tag":{"amenity":"waste_basket"}},"type":"Feature"},
	{"geometry":{"coordinates":[4.392048,51.169881],"type":"Point"},"properties":{"osm_id":"2222312658","tag":{"amenity":"recycling","recycling_type":"container"}},"type":"Feature"},
	{"geometry":{"coordinates":[4.325639,51.125238],"type":"Point"},"properties":{"osm_id":"3056202315","tag":{"amenity":"waste_basket"}},"type":"Feature"},
	{"geometry":{"coordinates":[4.328825,51.126081],"type":"Point"},"properties":{"osm_id":"3060687726","tag":{"amenity":"waste_basket"}},"type":"Feature"},
	{"geometry":{"coordinates":[4.328837,51.126124],"type":"Point"},"properties":{"osm_id":"3060687935","tag":{"amenity":"waste_basket"}},"type":"Feature"},
	{"geometry":{"coordinates":[4.326076,51.129076],"type":"Point"},"properties":{"osm_id":"3063454606","tag":{"amenity":"waste_basket"}},"type":"Feature"},
	{"geometry":{"coordinates":[4.325005,51.129818],"type":"Point"},"properties":{"osm_id":"3063454734","tag":{"amenity":"waste_basket"}},"type":"Feature"},
	{"geometry":{"coordinates":[4.331299,51.131092],"type":"Point"},"properties":{"osm_id":"3063801248","tag":{"amenity":"waste_basket","waste_basket:type":"pillar"}},"type":"Feature"},
	{"geometry":{"coordinates":[4.328988,51.131883],"type":"Point"},"properties":{"osm_id":"3063801265","tag":{"amenity":"waste_basket"}},"type":"Feature"},
	{"geometry":{"coordinates":[4.334335,51.134584],"type":"Point"},"properties":{"osm_id":"3063801318","tag":{"amenity":"recycling","recycling:glass_bottles":"yes","recycling_type":"container"}},"type":"Feature"},
	{"geometry":{"coordinates":[4.335074,51.135725],"type":"Point"},"properties":{"osm_id":"3063801324","tag":{"amenity":"waste_basket"}},"type":"Feature"},
	{"geometry":{"coordinates":[4.335676,51.13701],"type":"Point"},"properties":{"osm_id":"3063801347","tag":{"amenity":"waste_basket"}},"type":"Feature"},
	{"geometry":{"coordinates":[4.328623,51.13271],"type":"Point"},"properties":{"osm_id":"3068185465","tag":{"amenity":"waste_basket"}},"type":"Feature"},
	{"geometry":{"coordinates":[4.331078,51.143152],"type":"Point"},"properties":{"osm_id":"3068186740","tag":{"amenity":"waste_basket"}},"type":"Feature"},
	{"geometry":{"coordinates":[4.335808,51.144601],"type":"Point"},"properties":{"osm_id":"3068186764","tag":{"amenity":"waste_basket"}},"type":"Feature"},
	{"geometry":{"coordinates":[4.338171,51.128395],"type":"Point"},"properties":{"osm_id":"3071671526","tag":{"amenity":"waste_basket"}},"type":"Feature"},
	{"geometry":{"coordinates":[4.33822,51.128528],"type":"Point"},"properties":{"osm_id":"3071671837","tag":{"amenity":"waste_basket"}},"type":"Feature"},
	{"geometry":{"coordinates":[4.336488,51.129104],"type":"Point"},"properties":{"osm_id":"3071671939","tag":{"amenity":"waste_basket"}},"type":"Feature"},
	{"geometry":{"coordinates":[4.333685,51.129477],"type":"Point"},"properties":{"osm_id":"3071671989","tag":{"amenity":"waste_basket"}},"type":"Feature"},
	{"geometry":{"coordinates":[4.341248,51.130642],"type":"Point"},"properties":{"osm_id":"3071672014","tag":{"amenity":"recycling","recycling:glass_bottles":"yes","recycling_type":"container"}},"type":"Feature"},
	{"geometry":{"coordinates":[4.341273,51.130806],"type":"Point"},"properties":{"osm_id":"3071672017","tag":{"amenity":"waste_basket"}},"type":"Feature"},
	{"geometry":{"coordinates":[4.341285,51.130821],"type":"Point"},"properties":{"osm_id":"3071672019","tag":{"amenity":"waste_basket"}},"type":"Feature"},
	{"geometry":{"coordinates":[4.343662,51.124406],"type":"Point"},"properties":{"osm_id":"3073197619","tag":{"amenity":"waste_basket"}},"type":"Feature"},
	{"geometry":{"coordinates":[4.350762,51.124872],"type":"Point"},"properties":{"osm_id":"3075626307","tag":{"amenity":"waste_basket"}},"type":"Feature"},
	{"geometry":{"coordinates":[4.335289,51.138048],"type":"Point"},"properties":{"osm_id":"3075746896","tag":{"amenity":"waste_basket"}},"type":"Feature"},
	{"geometry":{"coordinates":[4.33681,51.141092],"type":"Point"},"properties":{"osm_id":"3075746958","tag":{"amenity":"recycling","recycling:glass_bottles":"yes","recycling_type":"container"}},"type":"Feature"},
	{"geometry":{"coordinates":[4.352096,51.138168],"type":"Point"},"properties":{"osm_id":"3081617077","tag":{"amenity":"waste_basket"}},"type":"Feature"},
	{"geometry":{"coordinates":[4.339936,51.142698],"type":"Point"},"properties":{"osm_id":"3084459978","tag":{"amenity":"recycling","recycling:glass_bottles":"yes","recycling_type":"container"}},"type":"Feature"},
	{"geometry":{"coordinates":[4.350006,51.149815],"type":"Point"},"properties":{"osm_id":"3084460005","tag":{"amenity":"waste_basket"}},"type":"Feature"},
	{"geometry":{"coordinates":[4.349948,51.149817],"type":"Point"},"properties":{"osm_id":"3084460006","tag":{"amenity":"recycling","recycling:glass_bottles":"yes","recycling_type":"container"}},"type":"Feature"},
	{"geometry":{"coordinates":[4.349799,51.150216],"type":"Point"},"properties":{"osm_id":"3084460018","tag":{"amenity":"waste_basket"}},"type":"Feature"},
	{"geometry":{"coordinates":[4.350261,51.146422],"type":"Point"},"properties":{"osm_id":"3085944682","tag":{"amenity":"waste_basket"}},"type":"Feature"},
	{"geometry":{"coordinates":[4.343203,51.148332],"type":"Point"},"properties":{"osm_id":"3086570723","tag":{"amenity":"recycling","recycling:glass_bottles":"yes","recycling_type":"container"}},"type":"Feature"},
	{"geometry":{"coordinates":[4.343391,51.148352],"type":"Point"},"properties":{"osm_id":"3086570729","tag":{"amenity":"waste_basket"}},"type":"Feature"},
	{"geometry":{"coordinates":[4.34616,51.149351],"type":"Point"},"properties":{"osm_id":"3086571593","tag":{"amenity":"waste_basket"}},"type":"Feature"},
	{"geometry":{"coordinates":[4.346411,51.149598],"type":"Point"},"properties":{"osm_id":"3086571622","tag":{"amenity":"waste_basket"}},"type":"Feature"},
	{"geometry":{"coordinates":[4.346757,51.150064],"type":"Point"},"properties":{"osm_id":"3086571714","tag":{"amenity":"waste_basket"}},"type":"Feature"},
	{"geometry":{"coordinates":[4.356806,51.125832],"type":"Point"},"properties":{"osm_id":"3088761700","tag":{"amenity":"waste_basket"}},"type":"Feature"},
	{"geometry":{"coordinates":[4.360206,51.134393],"type":"Point"},"properties":{"osm_id":"3088836789","tag":{"amenity":"waste_basket"}},"type":"Feature"},
	{"geometry":{"coordinates":[4.34886,51.138003],"type":"Point"},"properties":{"osm_id":"3095379943","tag":{"amenity":"waste_basket"}},"type":"Feature"},
	{"geometry":{"coordinates":[4.347795,51.139852],"type":"Point"},"properties":{"osm_id":"3095380188","tag":{"amenity":"recycling","recycling:glass_bottles":"yes","recycling_type":"container"}},"type":"Feature"},
	{"geometry":{"coordinates":[4.329596,51.124266],"type":"Point"},"properties":{"osm_id":"3106872887","tag":{"amenity":"waste_basket"}},"type":"Feature"},
	{"geometry":{"coordinates":[4.33421,51.134548],"type":"Point"},"properties":{"osm_id":"3109125646","tag":{"amenity":"waste_basket"}},"type":"Feature"},
	{"geometry":{"coordinates":[4.338146,51.136159],"type":"Point"},"properties":{"osm_id":"3109125694","tag":{"amenity":"waste_basket"}},"type":"Feature"},
	{"geometry":{"coordinates":[4.338225,51.136478],"type":"Point"},"properties":{"osm_id":"3109125705","tag":{"amenity":"waste_basket"}},"type":"Feature"},
	{"geometry":{"coordinates":[4.338136,51.128246],"type":"Point"},"properties":{"osm_id":"3118247656","tag":{"amenity":"waste_basket"}},"type":"Feature"},
	{"geometry":{"coordinates":[4.337829,51.129262],"type":"Point"},"properties":{"osm_id":"3120434399","tag":{"amenity":"waste_basket"}},"type":"Feature"},
	{"geometry":{"coordinates":[4.337382,51.129317],"type":"Point"},"properties":{"osm_id":"3120434408","tag":{"amenity":"waste_basket"}},"type":"Feature"},
	{"geometry":{"coordinates":[4.33725,51.12947],"type":"Point"},"properties":{"osm_id":"3120434956","tag":{"amenity":"waste_basket"}},"type":"Feature"},
	{"geometry":{"coordinates":[4.336022,51.130366],"type":"Point"},"properties":{"osm_id":"3130995268","tag":{"amenity":"recycling","operator":"Fritobox","recycling:cooking_oil":"yes","recycling_type":"container"}},"type":"Feature"},
	{"geometry":{"coordinates":[4.336049,51.130371],"type":"Point"},"properties":{"osm_id":"3130995269","tag":{"amenity":"recycling","recycling:glass_bottles":"yes","recycling_type":"container"}},"type":"Feature"},
	{"geometry":{"coordinates":[4.336091,51.130378],"type":"Point"},"properties":{"osm_id":"3130995270","tag":{"amenity":"recycling","recycling:glass_bottles":"yes","recycling_type":"container"}},"type":"Feature"},
	{"geometry":{"coordinates":[4.33606,51.130389],"type":"Point"},"properties":{"osm_id":"3130995272","tag":{"amenity":"recycling","recycling:glass_bottles":"yes","recycling_type":"container"}},"type":"Feature"},
	{"geometry":{"coordinates":[4.336167,51.13039],"type":"Point"},"properties":{"osm_id":"3130995273","tag":{"amenity":"recycling","operator":"Fritobox","recycling:cooking_oil":"yes","recycling_type":"container"}},"type":"Feature"},
	{"geometry":{"coordinates":[4.336125,51.130392],"type":"Point"},"properties":{"osm_id":"3130995274","tag":{"amenity":"recycling","operator":"Vlaams Inzamel Centrum Textiel","recycling:clothes":"yes","recycling_type":"container"}},"type":"Feature"},
	{"geometry":{"coordinates":[4.347586,51.135794],"type":"Point"},"properties":{"osm_id":"3139798525","tag":{"amenity":"waste_basket"}},"type":"Feature"},
	{"geometry":{"coordinates":[4.364721,51.137011],"type":"Point"},"properties":{"osm_id":"3143604260","tag":{"amenity":"waste_basket"}},"type":"Feature"},
	{"geometry":{"coordinates":[4.36508,51.137097],"type":"Point"},"properties":{"osm_id":"3143604267","tag":{"amenity":"waste_basket"}},"type":"Feature"},
	{"geometry":{"coordinates":[4.332823,51.126538],"type":"Point"},"properties":{"osm_id":"3156089105","tag":{"amenity":"waste_basket"}},"type":"Feature"},
	{"geometry":{"coordinates":[4.332324,51.128746],"type":"Point"},"properties":{"osm_id":"3156089346","tag":{"amenity":"waste_basket"}},"type":"Feature"},
	{"geometry":{"coordinates":[4.329798,51.127553],"type":"Point"},"properties":{"osm_id":"3159154723","tag":{"amenity":"waste_basket"}},"type":"Feature"},
	{"geometry":{"coordinates":[4.33118,51.128779],"type":"Point"},"properties":{"osm_id":"3739492724","tag":{"amenity":"waste_basket"}},"type":"Feature"},
	{"geometry":{"coordinates":[4.331092,51.128785],"type":"Point"},"properties":{"osm_id":"3739493025","tag":{"amenity":"waste_basket"}},"type":"Feature"},
	{"geometry":{"coordinates":[4.325503,51.142303],"type":"Point"},"properties":{"osm_id":"3842505898","tag":{"amenity":"waste_basket"}},"type":"Feature"},
	{"geometry":{"coordinates":[4.319726,51.175346],"type":"Point"},"properties":{"osm_id":"3904514766","tag":{"amenity":"waste_basket"}},"type":"Feature"},
	{"geometry":{"coordinates":[4.318789,51.175574],"type":"Point"},"properties":{"osm_id":"3904514789","tag":{"amenity":"waste_basket"}},"type":"Feature"},
	{"geometry":{"coordinates":[4.322149,51.175756],"type":"Point"},"properties":{"osm_id":"3904514808","tag":{"amenity":"waste_basket"}},"type":"Feature"},
	{"geometry":{"coordinates":[4.322872,51.177269],"type":"Point"},"properties":{"osm_id":"3904514980","tag":{"amenity":"waste_basket"}},"type":"Feature"},
	{"geometry":{"coordinates":[4.315304,51.153794],"type":"Point"},"properties":{"osm_id":"3926904614","tag":{"amenity":"waste_basket"}},"type":"Feature"},
	{"geometry":{"coordinates":[4.39392,51.157638],"type":"Point"},"properties":{"osm_id":"4242726317","tag":{"amenity":"waste_basket"}},"type":"Feature"},
	{"geometry":{"coordinates":[4.392441,51.161205],"type":"Point"},"properties":{"osm_id":"4244174917","tag":{"amenity":"waste_basket"}},"type":"Feature"},
	{"geometry":{"coordinates":[4.392463,51.161301],"type":"Point"},"properties":{"osm_id":"4244174926","tag":{"amenity":"waste_basket"}},"type":"Feature"},
	{"geometry":{"coordinates":[4.394424,51.162353],"type":"Point"},"properties":{"osm_id":"4244174987","tag":{"amenity":"waste_basket"}},"type":"Feature"},
	{"geometry":{"coordinates":[4.394251,51.162384],"type":"Point"},"properties":{"osm_id":"4244174993","tag":{"amenity":"waste_basket"}},"type":"Feature"},
	{"geometry":{"coordinates":[4.392328,51.162643],"type":"Point"},"properties":{"osm_id":"4244175014","tag":{"amenity":"waste_basket"}},"type":"Feature"},
	{"geometry":{"coordinates":[4.394391,51.16279],"type":"Point"},"properties":{"osm_id":"4244175023","tag":{"amenity":"waste_basket"}},"type":"Feature"},
	{"geometry":{"coordinates":[4.392843,51.157302],"type":"Point"},"properties":{"osm_id":"4248237078","tag":{"amenity":"waste_basket"}},"type":"Feature"},
	{"geometry":{"coordinates":[4.392118,51.158081],"type":"Point"},"properties":{"osm_id":"4248238617","tag":{"amenity":"waste_basket"}},"type":"Feature"},
	{"geometry":{"coordinates":[4.394482,51.158218],"type":"Point"},"properties":{"osm_id":"4248238648","tag":{"amenity":"waste_basket"}},"type":"Feature"},
	{"geometry":{"coordinates":[4.390968,51.155006],"type":"Point"},"properties":{"osm_id":"4254183334","tag":{"amenity":"waste_basket"}},"type":"Feature"},
	{"geometry":{"coordinates":[4.39051,51.155206],"type":"Point"},"properties":{"osm_id":"4254183372","tag":{"amenity":"waste_basket"}},"type":"Feature"},
	{"geometry":{"coordinates":[4.394312,51.152384],"type":"Point"},"properties":{"osm_id":"4256139999","tag":{"amenity":"waste_basket"}},"type":"Feature"},
	{"geometry":{"coordinates":[4.393841,51.153124],"type":"Point"},"properties":{"osm_id":"4256140017","tag":{"amenity":"recycling","recycling:glass_bottles":"yes","recycling_type":"container"}},"type":"Feature"},
	{"geometry":{"coordinates":[4.390132,51.154484],"type":"Point"},"properties":{"osm_id":"4256140034","tag":{"amenity":"waste_basket"}},"type":"Feature"},
	{"geometry":{"coordinates":[4.389668,51.155406],"type":"Point"},"properties":{"osm_id":"4256140055","tag":{"amenity":"waste_basket"}},"type":"Feature"},
	{"geometry":{"coordinates":[4.334296,51.141399],"type":"Point"},"properties":{"osm_id":"5108375099","tag":{"amenity":"waste_basket"}},"type":"Feature"},
	{"geometry":{"coordinates":[4.334141,51.140263],"type":"Point"},"properties":{"osm_id":"5108375101","tag":{"amenity":"waste_basket"}},"type":"Feature"},
	{"geometry":{"coordinates":[4.332394,51.140056],"type":"Point"},"properties":{"osm_id":"5108375444","tag":{"amenity":"waste_basket","layer":"1"}},"type":"Feature"},
	{"geometry":{"coordinates":[4.345896,51.153813],"type":"Point"},"properties":{"osm_id":"5150149672","tag":{"amenity":"recycling","recycling:glass":"yes","recycling:glass_bottles":"yes","recycling_type":"container"}},"type":"Feature"},
	{"geometry":{"coordinates":[4.314817,51.167159],"type":"Point"},"properties":{"osm_id":"5238360741","tag":{"amenity":"waste_basket"}},"type":"Feature"},
	{"geometry":{"coordinates":[4.354458,51.173545],"type":"Point"},"properties":{"osm_id":"5334371721","tag":{"amenity":"recycling","recycling:clothes":"yes","recycling:glass":"yes"}},"type":"Feature"},
	{"geometry":{"coordinates":[4.368066,51.176062],"type":"Point"},"properties":{"osm_id":"5478695234","tag":{"amenity":"recycling","recycling:glass_bottles":"yes","recycling_type":"container"}},"type":"Feature"},
	{"geometry":{"coordinates":[4.370393,51.176622],"type":"Point"},"properties":{"osm_id":"5478789354","tag":{"amenity":"waste_basket"}},"type":"Feature"},
	{"geometry":{"coordinates":[4.349431,51.164932],"type":"Point"},"properties":{"osm_id":"5857617436","tag":{"amenity":"recycling","mapillary":"https://www.mapillary.com/map/im/i0A2BPowzWbbwc0xkNC0SQ","recycling:glass":"yes","recycling:glass_bottles":"yes","recycling_type":"container"}},"type":"Feature"},
	{"geometry":{"coordinates":[4.393844,51.138625],"type":"Point"},"properties":{"osm_id":"6470306561","tag":{"amenity":"waste_basket"}},"type":"Feature"},
	{"geometry":{"coordinates":[4.351794,51.172165],"type":"Point"},"properties":{"osm_id":"6696912670","tag":{"amenity":"waste_basket"}},"type":"Feature"},
	{"geometry":{"coordinates":[4.351955,51.171762],"type":"Point"},"properties":{"osm_id":"6696920198","tag":{"amenity":"waste_basket"}},"type":"Feature"},
	{"geometry":{"coordinates":[4.351867,51.172927],"type":"Point"},"properties":{"osm_id":"6697957239","tag":{"amenity":"waste_basket"}},"type":"Feature"},
	{"geometry":{"coordinates":[4.353387,51.171536],"type":"Point"},"properties":{"osm_id":"6699370879","tag":{"amenity":"waste_basket"}},"type":"Feature"},
	{"geometry":{"coordinates":[4.353269,51.171596],"type":"Point"},"properties":{"osm_id":"6699370880","tag":{"amenity":"waste_basket"}},"type":"Feature"},
	{"geometry":{"coordinates":[4.351541,51.173107],"type":"Point"},"properties":{"osm_id":"6702105937","tag":{"amenity":"recycling","recycling:glass_bottles":"yes","recycling_type":"container"}},"type":"Feature"},
	{"geometry":{"coordinates":[4.353054,51.172848],"type":"Point"},"properties":{"osm_id":"6702113086","tag":{"amenity":"waste_basket"}},"type":"Feature"},
	{"geometry":{"coordinates":[4.352202,51.169162],"type":"Point"},"properties":{"osm_id":"6702839005","tag":{"amenity":"waste_basket"}},"type":"Feature"},
	{"geometry":{"coordinates":[4.350899,51.170892],"type":"Point"},"properties":{"osm_id":"6702891445","tag":{"amenity":"waste_basket"}},"type":"Feature"},
	{"geometry":{"coordinates":[4.350625,51.170787],"type":"Point"},"properties":{"osm_id":"6702891447","tag":{"amenity":"waste_basket"}},"type":"Feature"},
	{"geometry":{"coordinates":[4.350155,51.170838],"type":"Point"},"properties":{"osm_id":"6702891472","tag":{"amenity":"waste_basket"}},"type":"Feature"},
	{"geometry":{"coordinates":[4.351105,51.167171],"type":"Point"},"properties":{"osm_id":"6709764997","tag":{"amenity":"waste_basket"}},"type":"Feature"},
	{"geometry":{"coordinates":[4.354184,51.168764],"type":"Point"},"properties":{"osm_id":"6709765005","tag":{"amenity":"waste_basket"}},"type":"Feature"},
	{"geometry":{"coordinates":[4.349136,51.136818],"type":"Point"},"properties":{"osm_id":"7477068745","tag":{"amenity":"waste_basket","waste":"trash"}},"type":"Feature"},
	{"geometry":{"coordinates":[4.393663,51.130911],"type":"Point"},"properties":{"osm_id":"7563235544","tag":{"amenity":"waste_basket","colour":"green","material":"metal","waste":"trash"}},"type":"Feature"},
	{"geometry":{"coordinates":[4.387145,51.13352],"type":"Point"},"properties":{"osm_id":"7563247969","tag":{"amenity":"waste_basket","colour":"green","material":"metal","waste":"trash"}},"type":"Feature"},
	{"geometry":{"coordinates":[4.390159,51.132485],"type":"Point"},"properties":{"osm_id":"7563278487","tag":{"amenity":"waste_basket","colour":"green","material":"wood","waste":"trash"}},"type":"Feature"},
	{"geometry":{"coordinates":[4.392841,51.137247],"type":"Point"},"properties":{"osm_id":"7563292713","tag":{"amenity":"waste_basket","colour":"gray","material":"metal","waste":"trash"}},"type":"Feature"},
	{"geometry":{"coordinates":[4.393822,51.137032],"type":"Point"},"properties":{"osm_id":"7563295648","tag":{"amenity":"waste_basket","colour":"gray","material":"metal","waste":"trash"}},"type":"Feature"},
	{"geometry":{"coordinates":[4.361264,51.14705],"type":"Point"},"properties":{"osm_id":"7829839002","tag":{"amenity":"waste_basket"}},"type":"Feature"},
	{"geometry":{"coordinates":[4.345704,51.17895],"type":"Point"},"properties":{"osm_id":"7830232288","tag":{"amenity":"waste_basket"}},"type":"Feature"},
	{"geometry":{"coordinates":[4.346217,51.179218],"type":"Point"},"properties":{"osm_id":"7830243897","tag":{"amenity":"waste_basket"}},"type":"Feature"},
	{"geometry":{"coordinates":[4.360514,51.170205],"type":"Point"},"properties":{"osm_id":"7876160485","tag":{"amenity":"waste_basket"}},"type":"Feature"},
	{"geometry":{"coordinates":[4.359468,51.170208],"type":"Point"},"properties":{"osm_id":"7876177107","tag":{"amenity":"waste_basket"}},"type":"Feature"}
]
}
