{
"type": "FeatureCollection",
"features": [
	{"geometry":{"coordinates":[4.355631,51.096399],"type":"Point"},"properties":{"osm_id":"291425506","tag":{"amenity":"recycling","recycling:batteries":"yes","recycling:cardboard":"yes","recycling:cartons":"yes","recycling:clothes":"yes","recycling:electrical_appliances":"yes","recycling:glass":"yes","recycling:green_waste":"yes","recycling:magazines":"yes","recycling:newspaper":"yes","recycling:paper":"yes","recycling:paper_packaging":"yes","recycling:plastic_packaging":"yes","recycling:small_appliances":"yes","recycling:waste":"yes","recycling:wood":"yes"}},"type":"Feature"},
	{"geometry":{"coordinates":[4.362603,51.106836],"type":"Point"},"properties":{"osm_id":"299069749","tag":{"amenity":"waste_basket"}},"type":"Feature"},
	{"geometry":{"coordinates":[4.363208,51.081114],"type":"Point"},"properties":{"osm_id":"918201748","tag":{"amenity":"recycling","recycling:glass":"yes"}},"type":"Feature"},
	{"geometry":{"coordinates":[4.352659,51.072987],"type":"Point"},"properties":{"osm_id":"918294542","tag":{"amenity":"recycling","recycling:glass":"yes","recycling_type":"container"}},"type":"Feature"},
	{"geometry":{"coordinates":[4.392464,51.102545],"type":"Point"},"properties":{"osm_id":"1267923334","tag":{"amenity":"waste_basket"}},"type":"Feature"},
	{"geometry":{"coordinates":[4.392325,51.07045],"type":"Point"},"properties":{"osm_id":"1270532794","tag":{"amenity":"recycling","recycling:glass_bottles":"yes"}},"type":"Feature"},
	{"geometry":{"coordinates":[4.311959,51.091317],"type":"Point"},"properties":{"osm_id":"1287632427","tag":{"amenity":"waste_basket"}},"type":"Feature"},
	{"geometry":{"coordinates":[4.318014,51.094735],"type":"Point"},"properties":{"osm_id":"1287632432","tag":{"amenity":"waste_basket"}},"type":"Feature"},
	{"geometry":{"coordinates":[4.321184,51.080355],"type":"Point"},"properties":{"osm_id":"1287632436","tag":{"amenity":"waste_basket"}},"type":"Feature"},
	{"geometry":{"coordinates":[4.307812,51.10245],"type":"Point"},"properties":{"osm_id":"1287632449","tag":{"amenity":"waste_basket"}},"type":"Feature"},
	{"geometry":{"coordinates":[4.323195,51.082343],"type":"Point"},"properties":{"osm_id":"1287632462","tag":{"amenity":"recycling","recycling:glass_bottles":"yes"}},"type":"Feature"},
	{"geometry":{"coordinates":[4.306948,51.077716],"type":"Point"},"properties":{"osm_id":"1288921475","tag":{"amenity":"waste_basket"}},"type":"Feature"},
	{"geometry":{"coordinates":[4.308285,51.090444],"type":"Point"},"properties":{"osm_id":"1288921488","tag":{"amenity":"recycling","recycling:glass_bottles":"yes"}},"type":"Feature"},
	{"geometry":{"coordinates":[4.386209,51.093585],"type":"Point"},"properties":{"osm_id":"1290221615","tag":{"amenity":"waste_basket"}},"type":"Feature"},
	{"geometry":{"coordinates":[4.379781,51.087276],"type":"Point"},"properties":{"osm_id":"1290221627","tag":{"amenity":"waste_basket"}},"type":"Feature"},
	{"geometry":{"coordinates":[4.37962,51.088282],"type":"Point"},"properties":{"osm_id":"1290221643","tag":{"amenity":"waste_basket"}},"type":"Feature"},
	{"geometry":{"coordinates":[4.38092,51.088026],"type":"Point"},"properties":{"osm_id":"1290221656","tag":{"amenity":"waste_basket"}},"type":"Feature"},
	{"geometry":{"coordinates":[4.381757,51.08246],"type":"Point"},"properties":{"osm_id":"1291499418","tag":{"amenity":"waste_basket"}},"type":"Feature"},
	{"geometry":{"coordinates":[4.39414,51.077792],"type":"Point"},"properties":{"osm_id":"1292100462","tag":{"amenity":"waste_basket"}},"type":"Feature"},
	{"geometry":{"coordinates":[4.38673,51.092849],"type":"Point"},"properties":{"osm_id":"1299459941","tag":{"amenity":"waste_basket"}},"type":"Feature"},
	{"geometry":{"coordinates":[4.387262,51.092408],"type":"Point"},"properties":{"osm_id":"1299460070","tag":{"amenity":"waste_basket"}},"type":"Feature"},
	{"geometry":{"coordinates":[4.388596,51.091092],"type":"Point"},"properties":{"osm_id":"1299460199","tag":{"amenity":"waste_basket"}},"type":"Feature"},
	{"geometry":{"coordinates":[4.387461,51.091491],"type":"Point"},"properties":{"osm_id":"1299460363","tag":{"amenity":"waste_basket"}},"type":"Feature"},
	{"geometry":{"coordinates":[4.390077,51.090749],"type":"Point"},"properties":{"osm_id":"1299460430","tag":{"amenity":"waste_basket"}},"type":"Feature"},
	{"geometry":{"coordinates":[4.376671,51.082686],"type":"Point"},"properties":{"osm_id":"1300558545","tag":{"amenity":"waste_basket"}},"type":"Feature"},
	{"geometry":{"coordinates":[4.381947,51.082617],"type":"Point"},"properties":{"osm_id":"1300558714","tag":{"amenity":"waste_basket"}},"type":"Feature"},
	{"geometry":{"coordinates":[4.375378,51.082796],"type":"Point"},"properties":{"osm_id":"1300558716","tag":{"amenity":"waste_basket"}},"type":"Feature"},
	{"geometry":{"coordinates":[4.377535,51.088625],"type":"Point"},"properties":{"osm_id":"1300558721","tag":{"amenity":"waste_basket","description":"afval + PMD"}},"type":"Feature"},
	{"geometry":{"coordinates":[4.379625,51.082532],"type":"Point"},"properties":{"osm_id":"1300558737","tag":{"amenity":"waste_basket"}},"type":"Feature"},
	{"geometry":{"coordinates":[4.374711,51.083331],"type":"Point"},"properties":{"osm_id":"1300558759","tag":{"amenity":"waste_basket"}},"type":"Feature"},
	{"geometry":{"coordinates":[4.377129,51.103761],"type":"Point"},"properties":{"osm_id":"1307613144","tag":{"amenity":"waste_basket"}},"type":"Feature"},
	{"geometry":{"coordinates":[4.383632,51.10252],"type":"Point"},"properties":{"osm_id":"1307613146","tag":{"amenity":"waste_basket"}},"type":"Feature"},
	{"geometry":{"coordinates":[4.380637,51.103346],"type":"Point"},"properties":{"osm_id":"1307613148","tag":{"amenity":"waste_basket"}},"type":"Feature"},
	{"geometry":{"coordinates":[4.374769,51.104623],"type":"Point"},"properties":{"osm_id":"1307613151","tag":{"amenity":"waste_basket"}},"type":"Feature"},
	{"geometry":{"coordinates":[4.379381,51.099218],"type":"Point"},"properties":{"osm_id":"1369325529","tag":{"amenity":"waste_basket"}},"type":"Feature"},
	{"geometry":{"coordinates":[4.376795,51.101133],"type":"Point"},"properties":{"osm_id":"1369325535","tag":{"amenity":"waste_basket"}},"type":"Feature"},
	{"geometry":{"coordinates":[4.375618,51.101251],"type":"Point"},"properties":{"osm_id":"1369325538","tag":{"amenity":"waste_basket"}},"type":"Feature"},
	{"geometry":{"coordinates":[4.375884,51.101596],"type":"Point"},"properties":{"osm_id":"1369325543","tag":{"amenity":"waste_basket"}},"type":"Feature"},
	{"geometry":{"coordinates":[4.379297,51.102308],"type":"Point"},"properties":{"osm_id":"1369325561","tag":{"amenity":"waste_basket"}},"type":"Feature"},
	{"geometry":{"coordinates":[4.377176,51.102343],"type":"Point"},"properties":{"osm_id":"1369325563","tag":{"amenity":"waste_basket"}},"type":"Feature"},
	{"geometry":{"coordinates":[4.385049,51.107671],"type":"Point"},"properties":{"osm_id":"1369429595","tag":{"amenity":"waste_basket"}},"type":"Feature"},
	{"geometry":{"coordinates":[4.376019,51.093289],"type":"Point"},"properties":{"osm_id":"1439212706","tag":{"amenity":"waste_basket","survey:date":"2019-05-15"}},"type":"Feature"},
	{"geometry":{"coordinates":[4.372308,51.092197],"type":"Point"},"properties":{"osm_id":"1442235714","tag":{"amenity":"waste_basket"}},"type":"Feature"},
	{"geometry":{"coordinates":[4.368874,51.09773],"type":"Point"},"properties":{"osm_id":"1442235855","tag":{"amenity":"waste_basket"}},"type":"Feature"},
	{"geometry":{"coordinates":[4.3688,51.098618],"type":"Point"},"properties":{"osm_id":"1442235902","tag":{"amenity":"waste_basket"}},"type":"Feature"},
	{"geometry":{"coordinates":[4.364771,51.100152],"type":"Point"},"properties":{"osm_id":"1442236150","tag":{"amenity":"waste_basket"}},"type":"Feature"},
	{"geometry":{"coordinates":[4.37311,51.100686],"type":"Point"},"properties":{"osm_id":"1442236201","tag":{"amenity":"waste_basket"}},"type":"Feature"},
	{"geometry":{"coordinates":[4.376463,51.101113],"type":"Point"},"properties":{"osm_id":"1442236217","tag":{"amenity":"waste_basket"}},"type":"Feature"},
	{"geometry":{"coordinates":[4.373118,51.101568],"type":"Point"},"properties":{"osm_id":"1442236223","tag":{"amenity":"waste_basket"}},"type":"Feature"},
	{"geometry":{"coordinates":[4.375592,51.091991],"type":"Point"},"properties":{"osm_id":"1457725205","tag":{"amenity":"waste_basket"}},"type":"Feature"},
	{"geometry":{"coordinates":[4.378316,51.096012],"type":"Point"},"properties":{"osm_id":"1462399497","tag":{"amenity":"waste_basket"}},"type":"Feature"},
	{"geometry":{"coordinates":[4.377304,51.088746],"type":"Point"},"properties":{"osm_id":"1463788923","tag":{"amenity":"waste_basket"}},"type":"Feature"},
	{"geometry":{"coordinates":[4.376851,51.08892],"type":"Point"},"properties":{"osm_id":"1463788941","tag":{"amenity":"waste_basket"}},"type":"Feature"},
	{"geometry":{"coordinates":[4.376544,51.089014],"type":"Point"},"properties":{"osm_id":"1463788943","tag":{"amenity":"waste_basket"}},"type":"Feature"},
	{"geometry":{"coordinates":[4.37615,51.089158],"type":"Point"},"properties":{"osm_id":"1463788953","tag":{"amenity":"waste_basket"}},"type":"Feature"},
	{"geometry":{"coordinates":[4.374691,51.094117],"type":"Point"},"properties":{"osm_id":"1464379587","tag":{"amenity":"waste_basket"}},"type":"Feature"},
	{"geometry":{"coordinates":[4.37796,51.094535],"type":"Point"},"properties":{"osm_id":"1464379597","tag":{"amenity":"waste_basket"}},"type":"Feature"},
	{"geometry":{"coordinates":[4.334471,51.077498],"type":"Point"},"properties":{"osm_id":"1477674279","tag":{"amenity":"recycling","recycling:clothes":"yes"}},"type":"Feature"},
	{"geometry":{"coordinates":[4.334783,51.077526],"type":"Point"},"properties":{"osm_id":"1477674286","tag":{"amenity":"recycling","recycling:glass":"yes"}},"type":"Feature"},
	{"geometry":{"coordinates":[4.376379,51.097273],"type":"Point"},"properties":{"osm_id":"1481119644","tag":{"amenity":"waste_basket"}},"type":"Feature"},
	{"geometry":{"coordinates":[4.370544,51.099366],"type":"Point"},"properties":{"osm_id":"1481119670","tag":{"amenity":"waste_basket"}},"type":"Feature"},
	{"geometry":{"coordinates":[4.369923,51.100361],"type":"Point"},"properties":{"osm_id":"1481119680","tag":{"amenity":"waste_basket"}},"type":"Feature"},
	{"geometry":{"coordinates":[4.370438,51.100969],"type":"Point"},"properties":{"osm_id":"1481119681","tag":{"amenity":"waste_basket"}},"type":"Feature"},
	{"geometry":{"coordinates":[4.370945,51.101579],"type":"Point"},"properties":{"osm_id":"1481119682","tag":{"amenity":"waste_basket"}},"type":"Feature"},
	{"geometry":{"coordinates":[4.382588,51.101856],"type":"Point"},"properties":{"osm_id":"1481119683","tag":{"amenity":"waste_basket"}},"type":"Feature"},
	{"geometry":{"coordinates":[4.372581,51.103007],"type":"Point"},"properties":{"osm_id":"1481119692","tag":{"amenity":"waste_basket"}},"type":"Feature"},
	{"geometry":{"coordinates":[4.373892,51.103933],"type":"Point"},"properties":{"osm_id":"1481119757","tag":{"amenity":"waste_basket"}},"type":"Feature"},
	{"geometry":{"coordinates":[4.379441,51.099387],"type":"Point"},"properties":{"osm_id":"1490379576","tag":{"amenity":"waste_basket"}},"type":"Feature"},
	{"geometry":{"coordinates":[4.381142,51.099931],"type":"Point"},"properties":{"osm_id":"1490379967","tag":{"amenity":"waste_basket"}},"type":"Feature"},
	{"geometry":{"coordinates":[4.374811,51.104279],"type":"Point"},"properties":{"osm_id":"1490380433","tag":{"amenity":"waste_basket"}},"type":"Feature"},
	{"geometry":{"coordinates":[4.376512,51.095954],"type":"Point"},"properties":{"osm_id":"1495255207","tag":{"amenity":"waste_basket"}},"type":"Feature"},
	{"geometry":{"coordinates":[4.384901,51.098747],"type":"Point"},"properties":{"osm_id":"1506184848","tag":{"amenity":"waste_basket"}},"type":"Feature"},
	{"geometry":{"coordinates":[4.365247,51.084177],"type":"Point"},"properties":{"osm_id":"1525114641","tag":{"amenity":"waste_basket"}},"type":"Feature"},
	{"geometry":{"coordinates":[4.364997,51.084239],"type":"Point"},"properties":{"osm_id":"1525114643","tag":{"amenity":"waste_basket"}},"type":"Feature"},
	{"geometry":{"coordinates":[4.369297,51.098127],"type":"Point"},"properties":{"osm_id":"1526546517","tag":{"amenity":"waste_basket"}},"type":"Feature"},
	{"geometry":{"coordinates":[4.363762,51.099734],"type":"Point"},"properties":{"osm_id":"1526837262","tag":{"amenity":"waste_basket"}},"type":"Feature"},
	{"geometry":{"coordinates":[4.385048,51.084864],"type":"Point"},"properties":{"osm_id":"1529483798","tag":{"amenity":"waste_basket"}},"type":"Feature"},
	{"geometry":{"coordinates":[4.385781,51.086081],"type":"Point"},"properties":{"osm_id":"1529483816","tag":{"amenity":"waste_basket"}},"type":"Feature"},
	{"geometry":{"coordinates":[4.386667,51.086279],"type":"Point"},"properties":{"osm_id":"1529483831","tag":{"amenity":"waste_basket"}},"type":"Feature"},
	{"geometry":{"coordinates":[4.387761,51.086368],"type":"Point"},"properties":{"osm_id":"1529483834","tag":{"amenity":"waste_basket"}},"type":"Feature"},
	{"geometry":{"coordinates":[4.379736,51.101475],"type":"Point"},"properties":{"osm_id":"1532682406","tag":{"amenity":"waste_basket"}},"type":"Feature"},
	{"geometry":{"coordinates":[4.370772,51.10395],"type":"Point"},"properties":{"osm_id":"1553871900","tag":{"amenity":"recycling","recycling:glass_bottles":"yes","recycling:paper":"yes","recycling:pmd":"yes","recycling_type":"container"}},"type":"Feature"},
	{"geometry":{"coordinates":[4.370818,51.104164],"type":"Point"},"properties":{"osm_id":"1553872067","tag":{"amenity":"waste_basket"}},"type":"Feature"},
	{"geometry":{"coordinates":[4.372562,51.104942],"type":"Point"},"properties":{"osm_id":"1555676859","tag":{"amenity":"waste_basket"}},"type":"Feature"},
	{"geometry":{"coordinates":[4.386924,51.104757],"type":"Point"},"properties":{"osm_id":"1557060779","tag":{"amenity":"waste_basket"}},"type":"Feature"},
	{"geometry":{"coordinates":[4.390771,51.107972],"type":"Point"},"properties":{"osm_id":"1566129843","tag":{"amenity":"waste_basket"}},"type":"Feature"},
	{"geometry":{"coordinates":[4.390807,51.108],"type":"Point"},"properties":{"osm_id":"1566129940","tag":{"amenity":"recycling","mapillary":"https://www.mapillary.com/map/im/VdDL55JVz40lrFNW5IReNg","recycling:clothes":"yes","recycling:glass_bottles":"yes","recycling_type":"container"}},"type":"Feature"},
	{"geometry":{"coordinates":[4.372805,51.100286],"type":"Point"},"properties":{"osm_id":"1626797191","tag":{"amenity":"waste_basket"}},"type":"Feature"},
	{"geometry":{"coordinates":[4.364773,51.107513],"type":"Point"},"properties":{"osm_id":"1626797291","tag":{"amenity":"recycling","recycling:glass_bottles":"yes","recycling_type":"container"}},"type":"Feature"},
	{"geometry":{"coordinates":[4.364753,51.107534],"type":"Point"},"properties":{"osm_id":"1626797301","tag":{"amenity":"waste_basket"}},"type":"Feature"},
	{"geometry":{"coordinates":[4.364931,51.107559],"type":"Point"},"properties":{"osm_id":"1626797306","tag":{"amenity":"recycling","operator":"Vlaams Inzamel Centrum Textiel","recycling:clothes":"yes","recycling_type":"container"}},"type":"Feature"},
	{"geometry":{"coordinates":[4.360041,51.110388],"type":"Point"},"properties":{"osm_id":"1626797395","tag":{"amenity":"waste_basket"}},"type":"Feature"},
	{"geometry":{"coordinates":[4.361705,51.112596],"type":"Point"},"properties":{"osm_id":"1626797422","tag":{"amenity":"waste_basket"}},"type":"Feature"},
	{"geometry":{"coordinates":[4.362387,51.114108],"type":"Point"},"properties":{"osm_id":"1626797447","tag":{"amenity":"waste_basket"}},"type":"Feature"},
	{"geometry":{"coordinates":[4.350871,51.117333],"type":"Point"},"properties":{"osm_id":"1626797483","tag":{"amenity":"waste_basket"}},"type":"Feature"},
	{"geometry":{"coordinates":[4.369226,51.099669],"type":"Point"},"properties":{"osm_id":"1644114971","tag":{"amenity":"waste_basket"}},"type":"Feature"},
	{"geometry":{"coordinates":[4.319575,51.077258],"type":"Point"},"properties":{"osm_id":"1836409435","tag":{"amenity":"waste_basket"}},"type":"Feature"},
	{"geometry":{"coordinates":[4.319263,51.077766],"type":"Point"},"properties":{"osm_id":"1836409470","tag":{"amenity":"waste_basket"}},"type":"Feature"},
	{"geometry":{"coordinates":[4.333926,51.070383],"type":"Point"},"properties":{"osm_id":"1849677794","tag":{"amenity":"waste_basket"}},"type":"Feature"},
	{"geometry":{"coordinates":[4.311627,51.071108],"type":"Point"},"properties":{"osm_id":"1849677795","tag":{"amenity":"waste_basket"}},"type":"Feature"},
	{"geometry":{"coordinates":[4.33784,51.074191],"type":"Point"},"properties":{"osm_id":"1849677807","tag":{"amenity":"waste_basket"}},"type":"Feature"},
	{"geometry":{"coordinates":[4.338087,51.074421],"type":"Point"},"properties":{"osm_id":"1849677810","tag":{"amenity":"waste_basket"}},"type":"Feature"},
	{"geometry":{"coordinates":[4.337688,51.07551],"type":"Point"},"properties":{"osm_id":"1849677860","tag":{"amenity":"waste_basket"}},"type":"Feature"},
	{"geometry":{"coordinates":[4.336571,51.098063],"type":"Point"},"properties":{"osm_id":"1858449610","tag":{"amenity":"waste_basket"}},"type":"Feature"},
	{"geometry":{"coordinates":[4.338395,51.09829],"type":"Point"},"properties":{"osm_id":"1858449640","tag":{"amenity":"waste_basket"}},"type":"Feature"},
	{"geometry":{"coordinates":[4.33527,51.098659],"type":"Point"},"properties":{"osm_id":"1858449659","tag":{"amenity":"waste_basket"}},"type":"Feature"},
	{"geometry":{"coordinates":[4.332899,51.099801],"type":"Point"},"properties":{"osm_id":"1858449673","tag":{"amenity":"waste_basket"}},"type":"Feature"},
	{"geometry":{"coordinates":[4.32859,51.10463],"type":"Point"},"properties":{"osm_id":"1858449710","tag":{"amenity":"waste_basket"}},"type":"Feature"},
	{"geometry":{"coordinates":[4.319455,51.110138],"type":"Point"},"properties":{"osm_id":"1859995336","tag":{"amenity":"waste_basket"}},"type":"Feature"},
	{"geometry":{"coordinates":[4.32419,51.109207],"type":"Point"},"properties":{"osm_id":"1868527239","tag":{"amenity":"waste_basket"}},"type":"Feature"},
	{"geometry":{"coordinates":[4.324921,51.109258],"type":"Point"},"properties":{"osm_id":"1868527243","tag":{"amenity":"waste_basket"}},"type":"Feature"},
	{"geometry":{"coordinates":[4.32553,51.10935],"type":"Point"},"properties":{"osm_id":"1868527263","tag":{"amenity":"waste_basket"}},"type":"Feature"},
	{"geometry":{"coordinates":[4.326474,51.110678],"type":"Point"},"properties":{"osm_id":"1868527637","tag":{"amenity":"waste_basket"}},"type":"Feature"},
	{"geometry":{"coordinates":[4.324921,51.111483],"type":"Point"},"properties":{"osm_id":"1868527906","tag":{"amenity":"waste_basket"}},"type":"Feature"},
	{"geometry":{"coordinates":[4.334412,51.108816],"type":"Point"},"properties":{"osm_id":"1874216175","tag":{"amenity":"waste_basket"}},"type":"Feature"},
	{"geometry":{"coordinates":[4.340834,51.108946],"type":"Point"},"properties":{"osm_id":"1874216177","tag":{"amenity":"waste_basket"}},"type":"Feature"},
	{"geometry":{"coordinates":[4.337975,51.109601],"type":"Point"},"properties":{"osm_id":"1874216346","tag":{"amenity":"recycling","recycling:glass_bottles":"yes","recycling_type":"container"}},"type":"Feature"},
	{"geometry":{"coordinates":[4.337942,51.109628],"type":"Point"},"properties":{"osm_id":"1874216357","tag":{"amenity":"waste_basket"}},"type":"Feature"},
	{"geometry":{"coordinates":[4.352946,51.104969],"type":"Point"},"properties":{"osm_id":"1930915561","tag":{"amenity":"waste_basket"}},"type":"Feature"},
	{"geometry":{"coordinates":[4.375489,51.099381],"type":"Point"},"properties":{"osm_id":"1932110703","tag":{"amenity":"waste_basket"}},"type":"Feature"},
	{"geometry":{"coordinates":[4.381901,51.106483],"type":"Point"},"properties":{"osm_id":"1932111474","tag":{"amenity":"waste_basket"}},"type":"Feature"},
	{"geometry":{"coordinates":[4.343266,51.109511],"type":"Point"},"properties":{"osm_id":"1932638206","tag":{"amenity":"waste_basket"}},"type":"Feature"},
	{"geometry":{"coordinates":[4.393277,51.092106],"type":"Point"},"properties":{"osm_id":"1936552261","tag":{"amenity":"waste_basket"}},"type":"Feature"},
	{"geometry":{"coordinates":[4.393822,51.092166],"type":"Point"},"properties":{"osm_id":"1936552287","tag":{"amenity":"waste_basket"}},"type":"Feature"},
	{"geometry":{"coordinates":[4.323938,51.106419],"type":"Point"},"properties":{"osm_id":"1936977505","tag":{"amenity":"waste_basket"}},"type":"Feature"},
	{"geometry":{"coordinates":[4.373041,51.087876],"type":"Point"},"properties":{"osm_id":"1941267160","tag":{"amenity":"waste_basket"}},"type":"Feature"},
	{"geometry":{"coordinates":[4.37463,51.090513],"type":"Point"},"properties":{"osm_id":"1944093430","tag":{"amenity":"waste_basket"}},"type":"Feature"},
	{"geometry":{"coordinates":[4.374356,51.090857],"type":"Point"},"properties":{"osm_id":"1944093440","tag":{"amenity":"waste_basket"}},"type":"Feature"},
	{"geometry":{"coordinates":[4.372644,51.095536],"type":"Point"},"properties":{"osm_id":"1944094092","tag":{"amenity":"waste_basket"}},"type":"Feature"},
	{"geometry":{"coordinates":[4.372749,51.095696],"type":"Point"},"properties":{"osm_id":"1944094134","tag":{"amenity":"waste_basket"}},"type":"Feature"},
	{"geometry":{"coordinates":[4.372734,51.096077],"type":"Point"},"properties":{"osm_id":"1944094153","tag":{"amenity":"waste_basket"}},"type":"Feature"},
	{"geometry":{"coordinates":[4.368247,51.097423],"type":"Point"},"properties":{"osm_id":"1945874129","tag":{"amenity":"waste_basket"}},"type":"Feature"},
	{"geometry":{"coordinates":[4.368641,51.097941],"type":"Point"},"properties":{"osm_id":"1945874137","tag":{"amenity":"waste_basket"}},"type":"Feature"},
	{"geometry":{"coordinates":[4.368783,51.098001],"type":"Point"},"properties":{"osm_id":"1945874139","tag":{"amenity":"waste_basket"}},"type":"Feature"},
	{"geometry":{"coordinates":[4.369517,51.102426],"type":"Point"},"properties":{"osm_id":"1945874766","tag":{"amenity":"recycling","recycling:glass_bottles":"yes","recycling:paper":"yes","recycling:pmd":"yes","recycling_type":"container"}},"type":"Feature"},
	{"geometry":{"coordinates":[4.369506,51.102461],"type":"Point"},"properties":{"osm_id":"1945874771","tag":{"amenity":"waste_disposal","waste":"trash"}},"type":"Feature"},
	{"geometry":{"coordinates":[4.372108,51.102978],"type":"Point"},"properties":{"osm_id":"1945874885","tag":{"amenity":"waste_basket"}},"type":"Feature"},
	{"geometry":{"coordinates":[4.372222,51.103042],"type":"Point"},"properties":{"osm_id":"1945874917","tag":{"amenity":"waste_basket"}},"type":"Feature"},
	{"geometry":{"coordinates":[4.373255,51.103123],"type":"Point"},"properties":{"osm_id":"1945874926","tag":{"amenity":"waste_basket"}},"type":"Feature"},
	{"geometry":{"coordinates":[4.383056,51.099917],"type":"Point"},"properties":{"osm_id":"1947325731","tag":{"amenity":"waste_basket"}},"type":"Feature"},
	{"geometry":{"coordinates":[4.339031,51.109492],"type":"Point"},"properties":{"osm_id":"1950587852","tag":{"amenity":"waste_basket"}},"type":"Feature"},
	{"geometry":{"coordinates":[4.366238,51.09701],"type":"Point"},"properties":{"osm_id":"1998854826","tag":{"amenity":"waste_basket"}},"type":"Feature"},
	{"geometry":{"coordinates":[4.367306,51.104021],"type":"Point"},"properties":{"osm_id":"1999978424","tag":{"amenity":"waste_basket"}},"type":"Feature"},
	{"geometry":{"coordinates":[4.367075,51.104353],"type":"Point"},"properties":{"osm_id":"1999978434","tag":{"amenity":"waste_basket"}},"type":"Feature"},
	{"geometry":{"coordinates":[4.367378,51.105952],"type":"Point"},"properties":{"osm_id":"1999978597","tag":{"amenity":"waste_basket"}},"type":"Feature"},
	{"geometry":{"coordinates":[4.367435,51.091605],"type":"Point"},"properties":{"osm_id":"2002470315","tag":{"amenity":"waste_basket"}},"type":"Feature"},
	{"geometry":{"coordinates":[4.372127,51.114175],"type":"Point"},"properties":{"osm_id":"2030892823","tag":{"amenity":"recycling","recycling:glass_bottles":"yes","recycling_type":"container"}},"type":"Feature"},
	{"geometry":{"coordinates":[4.376445,51.112658],"type":"Point"},"properties":{"osm_id":"2034573618","tag":{"amenity":"waste_basket"}},"type":"Feature"},
	{"geometry":{"coordinates":[4.370627,51.100364],"type":"Point"},"properties":{"osm_id":"2050321743","tag":{"amenity":"waste_basket"}},"type":"Feature"},
	{"geometry":{"coordinates":[4.348717,51.107399],"type":"Point"},"properties":{"osm_id":"2050356687","tag":{"amenity":"waste_basket"}},"type":"Feature"},
	{"geometry":{"coordinates":[4.350021,51.108831],"type":"Point"},"properties":{"osm_id":"2050356700","tag":{"amenity":"waste_basket"}},"type":"Feature"},
	{"geometry":{"coordinates":[4.3626,51.112553],"type":"Point"},"properties":{"osm_id":"2050356731","tag":{"amenity":"waste_basket"}},"type":"Feature"},
	{"geometry":{"coordinates":[4.368672,51.110241],"type":"Point"},"properties":{"osm_id":"2158749547","tag":{"amenity":"waste_basket"}},"type":"Feature"},
	{"geometry":{"coordinates":[4.353408,51.1108],"type":"Point"},"properties":{"osm_id":"2164283315","tag":{"amenity":"waste_basket"}},"type":"Feature"},
	{"geometry":{"coordinates":[4.392516,51.08976],"type":"Point"},"properties":{"osm_id":"2174977356","tag":{"amenity":"waste_basket"}},"type":"Feature"},
	{"geometry":{"coordinates":[4.393484,51.118566],"type":"Point"},"properties":{"osm_id":"2178290541","tag":{"amenity":"waste_basket"}},"type":"Feature"},
	{"geometry":{"coordinates":[4.392321,51.123167],"type":"Point"},"properties":{"osm_id":"2179731551","tag":{"amenity":"waste_basket"}},"type":"Feature"},
	{"geometry":{"coordinates":[4.393549,51.122366],"type":"Point"},"properties":{"osm_id":"2180344996","tag":{"amenity":"recycling","operator":"Vlaams Inzamel Centrum Textiel","recycling:clothes":"yes","recycling_type":"container"}},"type":"Feature"},
	{"geometry":{"coordinates":[4.39169,51.123591],"type":"Point"},"properties":{"osm_id":"2180345152","tag":{"amenity":"waste_basket"}},"type":"Feature"},
	{"geometry":{"coordinates":[4.391088,51.082878],"type":"Point"},"properties":{"osm_id":"2281966343","tag":{"amenity":"waste_basket"}},"type":"Feature"},
	{"geometry":{"coordinates":[4.367192,51.080391],"type":"Point"},"properties":{"osm_id":"2336019344","tag":{"amenity":"waste_basket"}},"type":"Feature"},
	{"geometry":{"coordinates":[4.367112,51.080569],"type":"Point"},"properties":{"osm_id":"2336019375","tag":{"amenity":"waste_basket"}},"type":"Feature"},
	{"geometry":{"coordinates":[4.36699,51.080959],"type":"Point"},"properties":{"osm_id":"2336019480","tag":{"amenity":"waste_basket"}},"type":"Feature"},
	{"geometry":{"coordinates":[4.367011,51.081041],"type":"Point"},"properties":{"osm_id":"2336019514","tag":{"amenity":"waste_basket"}},"type":"Feature"},
	{"geometry":{"coordinates":[4.367674,51.081526],"type":"Point"},"properties":{"osm_id":"2336019634","tag":{"amenity":"waste_basket"}},"type":"Feature"},
	{"geometry":{"coordinates":[4.365405,51.079445],"type":"Point"},"properties":{"osm_id":"2336244593","tag":{"amenity":"waste_basket"}},"type":"Feature"},
	{"geometry":{"coordinates":[4.363962,51.079508],"type":"Point"},"properties":{"osm_id":"2336244600","tag":{"amenity":"waste_basket"}},"type":"Feature"},
	{"geometry":{"coordinates":[4.364079,51.079621],"type":"Point"},"properties":{"osm_id":"2336244609","tag":{"amenity":"waste_basket"}},"type":"Feature"},
	{"geometry":{"coordinates":[4.366592,51.080618],"type":"Point"},"properties":{"osm_id":"2336244635","tag":{"amenity":"waste_basket"}},"type":"Feature"},
	{"geometry":{"coordinates":[4.366355,51.080876],"type":"Point"},"properties":{"osm_id":"2336244650","tag":{"amenity":"waste_basket"}},"type":"Feature"},
	{"geometry":{"coordinates":[4.365943,51.08194],"type":"Point"},"properties":{"osm_id":"2336244726","tag":{"amenity":"waste_basket"}},"type":"Feature"},
	{"geometry":{"coordinates":[4.355081,51.092769],"type":"Point"},"properties":{"osm_id":"2339126601","tag":{"amenity":"waste_basket"}},"type":"Feature"},
	{"geometry":{"coordinates":[4.351955,51.092991],"type":"Point"},"properties":{"osm_id":"2339126635","tag":{"amenity":"waste_basket"}},"type":"Feature"},
	{"geometry":{"coordinates":[4.349441,51.093832],"type":"Point"},"properties":{"osm_id":"2339126710","tag":{"amenity":"waste_basket"}},"type":"Feature"},
	{"geometry":{"coordinates":[4.349486,51.093855],"type":"Point"},"properties":{"osm_id":"2339126716","tag":{"amenity":"waste_basket"}},"type":"Feature"},
	{"geometry":{"coordinates":[4.342558,51.096697],"type":"Point"},"properties":{"osm_id":"2340412287","tag":{"amenity":"waste_basket"}},"type":"Feature"},
	{"geometry":{"coordinates":[4.339188,51.096896],"type":"Point"},"properties":{"osm_id":"2341779184","tag":{"amenity":"waste_basket"}},"type":"Feature"},
	{"geometry":{"coordinates":[4.334484,51.101903],"type":"Point"},"properties":{"osm_id":"2343187749","tag":{"amenity":"waste_basket"}},"type":"Feature"},
	{"geometry":{"coordinates":[4.351314,51.095749],"type":"Point"},"properties":{"osm_id":"2344755343","tag":{"amenity":"waste_basket"}},"type":"Feature"},
	{"geometry":{"coordinates":[4.350412,51.096024],"type":"Point"},"properties":{"osm_id":"2344755353","tag":{"amenity":"waste_basket"}},"type":"Feature"},
	{"geometry":{"coordinates":[4.347836,51.098488],"type":"Point"},"properties":{"osm_id":"2344755564","tag":{"amenity":"waste_basket"}},"type":"Feature"},
	{"geometry":{"coordinates":[4.315993,51.119925],"type":"Point"},"properties":{"osm_id":"2352080316","tag":{"amenity":"waste_basket"}},"type":"Feature"},
	{"geometry":{"coordinates":[4.317552,51.120605],"type":"Point"},"properties":{"osm_id":"2352080345","tag":{"amenity":"waste_basket"}},"type":"Feature"},
	{"geometry":{"coordinates":[4.317222,51.120511],"type":"Point"},"properties":{"osm_id":"2352080348","tag":{"amenity":"waste_basket"}},"type":"Feature"},
	{"geometry":{"coordinates":[4.318801,51.121076],"type":"Point"},"properties":{"osm_id":"2352080368","tag":{"amenity":"waste_basket"}},"type":"Feature"},
	{"geometry":{"coordinates":[4.31386,51.122546],"type":"Point"},"properties":{"osm_id":"2352080462","tag":{"amenity":"waste_basket"}},"type":"Feature"},
	{"geometry":{"coordinates":[4.324697,51.092151],"type":"Point"},"properties":{"osm_id":"2360257583","tag":{"amenity":"waste_basket"}},"type":"Feature"},
	{"geometry":{"coordinates":[4.324883,51.088921],"type":"Point"},"properties":{"osm_id":"2361446923","tag":{"amenity":"waste_basket"}},"type":"Feature"},
	{"geometry":{"coordinates":[4.320125,51.092748],"type":"Point"},"properties":{"osm_id":"2361447062","tag":{"amenity":"waste_basket"}},"type":"Feature"},
	{"geometry":{"coordinates":[4.32927,51.090929],"type":"Point"},"properties":{"osm_id":"2364684315","tag":{"amenity":"waste_basket"}},"type":"Feature"},
	{"geometry":{"coordinates":[4.331203,51.08861],"type":"Point"},"properties":{"osm_id":"2364726556","tag":{"amenity":"waste_basket"}},"type":"Feature"},
	{"geometry":{"coordinates":[4.32846,51.086356],"type":"Point"},"properties":{"osm_id":"2364744221","tag":{"amenity":"waste_basket"}},"type":"Feature"},
	{"geometry":{"coordinates":[4.331525,51.085414],"type":"Point"},"properties":{"osm_id":"2364782739","tag":{"amenity":"recycling","recycling:glass_bottles":"yes","recycling_type":"container"}},"type":"Feature"},
	{"geometry":{"coordinates":[4.34373,51.100345],"type":"Point"},"properties":{"osm_id":"2386276594","tag":{"amenity":"recycling","recycling:glass_bottles":"yes","recycling_type":"container"}},"type":"Feature"},
	{"geometry":{"coordinates":[4.343992,51.100497],"type":"Point"},"properties":{"osm_id":"2386276595","tag":{"amenity":"waste_basket"}},"type":"Feature"},
	{"geometry":{"coordinates":[4.346993,51.105067],"type":"Point"},"properties":{"osm_id":"2386276637","tag":{"amenity":"waste_basket"}},"type":"Feature"},
	{"geometry":{"coordinates":[4.345066,51.106817],"type":"Point"},"properties":{"osm_id":"2386276644","tag":{"amenity":"waste_basket"}},"type":"Feature"},
	{"geometry":{"coordinates":[4.346684,51.100091],"type":"Point"},"properties":{"osm_id":"2408760734","tag":{"amenity":"waste_basket"}},"type":"Feature"},
	{"geometry":{"coordinates":[4.338866,51.11111],"type":"Point"},"properties":{"osm_id":"2409765716","tag":{"amenity":"recycling","operator":"Vlaams Inzamel Centrum Textiel","recycling:clothes":"yes","recycling_type":"container"}},"type":"Feature"},
	{"geometry":{"coordinates":[4.364301,51.109963],"type":"Point"},"properties":{"osm_id":"2455399388","tag":{"amenity":"recycling","operator":"Caritas n.v.","recycling:clothes":"yes","recycling_type":"container"}},"type":"Feature"},
	{"geometry":{"coordinates":[4.364298,51.109986],"type":"Point"},"properties":{"osm_id":"2455399392","tag":{"amenity":"recycling","recycling:glass_bottles":"yes","recycling_type":"container"}},"type":"Feature"},
	{"geometry":{"coordinates":[4.364378,51.110005],"type":"Point"},"properties":{"osm_id":"2455399393","tag":{"amenity":"waste_basket"}},"type":"Feature"},
	{"geometry":{"coordinates":[4.366299,51.112823],"type":"Point"},"properties":{"osm_id":"2457749070","tag":{"amenity":"waste_basket"}},"type":"Feature"},
	{"geometry":{"coordinates":[4.367988,51.112966],"type":"Point"},"properties":{"osm_id":"2458220876","tag":{"amenity":"waste_basket"}},"type":"Feature"},
	{"geometry":{"coordinates":[4.36925,51.111304],"type":"Point"},"properties":{"osm_id":"2458302889","tag":{"amenity":"waste_basket"}},"type":"Feature"},
	{"geometry":{"coordinates":[4.369302,51.113028],"type":"Point"},"properties":{"osm_id":"2458303065","tag":{"amenity":"recycling","recycling:glass_bottles":"yes","recycling_type":"container"}},"type":"Feature"},
	{"geometry":{"coordinates":[4.369275,51.11303],"type":"Point"},"properties":{"osm_id":"2458303066","tag":{"amenity":"waste_basket"}},"type":"Feature"},
	{"geometry":{"coordinates":[4.367663,51.111033],"type":"Point"},"properties":{"osm_id":"2458459588","tag":{"amenity":"recycling","recycling:glass_bottles":"yes","recycling_type":"container"}},"type":"Feature"},
	{"geometry":{"coordinates":[4.365653,51.12166],"type":"Point"},"properties":{"osm_id":"2465228581","tag":{"amenity":"waste_basket"}},"type":"Feature"},
	{"geometry":{"coordinates":[4.358939,51.122587],"type":"Point"},"properties":{"osm_id":"2465785760","tag":{"amenity":"waste_basket"}},"type":"Feature"},
	{"geometry":{"coordinates":[4.359046,51.123988],"type":"Point"},"properties":{"osm_id":"2465786093","tag":{"amenity":"waste_basket"}},"type":"Feature"},
	{"geometry":{"coordinates":[4.358569,51.124067],"type":"Point"},"properties":{"osm_id":"2465786109","tag":{"amenity":"waste_basket"}},"type":"Feature"},
	{"geometry":{"coordinates":[4.354921,51.110698],"type":"Point"},"properties":{"osm_id":"2477503013","tag":{"amenity":"recycling","recycling:glass_bottles":"yes","recycling_type":"container"}},"type":"Feature"},
	{"geometry":{"coordinates":[4.35458,51.111603],"type":"Point"},"properties":{"osm_id":"2477503164","tag":{"amenity":"waste_basket","description":"blikvanger"}},"type":"Feature"},
	{"geometry":{"coordinates":[4.376928,51.085409],"type":"Point"},"properties":{"osm_id":"2482217134","tag":{"amenity":"waste_basket"}},"type":"Feature"},
	{"geometry":{"coordinates":[4.377348,51.0855],"type":"Point"},"properties":{"osm_id":"2482217144","tag":{"amenity":"waste_basket"}},"type":"Feature"},
	{"geometry":{"coordinates":[4.36776,51.084462],"type":"Point"},"properties":{"osm_id":"2584875327","tag":{"amenity":"waste_basket"}},"type":"Feature"},
	{"geometry":{"coordinates":[4.366665,51.084698],"type":"Point"},"properties":{"osm_id":"2584875330","tag":{"amenity":"waste_basket"}},"type":"Feature"},
	{"geometry":{"coordinates":[4.307785,51.111726],"type":"Point"},"properties":{"osm_id":"2591532635","tag":{"amenity":"waste_basket"}},"type":"Feature"},
	{"geometry":{"coordinates":[4.308978,51.113058],"type":"Point"},"properties":{"osm_id":"2591532651","tag":{"amenity":"waste_basket"}},"type":"Feature"},
	{"geometry":{"coordinates":[4.31055,51.11479],"type":"Point"},"properties":{"osm_id":"2591532686","tag":{"amenity":"waste_basket"}},"type":"Feature"},
	{"geometry":{"coordinates":[4.310164,51.116633],"type":"Point"},"properties":{"osm_id":"2591532742","tag":{"amenity":"waste_basket"}},"type":"Feature"},
	{"geometry":{"coordinates":[4.307743,51.119445],"type":"Point"},"properties":{"osm_id":"2591532777","tag":{"amenity":"waste_basket"}},"type":"Feature"},
	{"geometry":{"coordinates":[4.386391,51.086996],"type":"Point"},"properties":{"osm_id":"3016215791","tag":{"amenity":"waste_basket"}},"type":"Feature"},
	{"geometry":{"coordinates":[4.387016,51.088026],"type":"Point"},"properties":{"osm_id":"3016215799","tag":{"amenity":"waste_basket"}},"type":"Feature"},
	{"geometry":{"coordinates":[4.388641,51.089173],"type":"Point"},"properties":{"osm_id":"3016215805","tag":{"amenity":"waste_basket"}},"type":"Feature"},
	{"geometry":{"coordinates":[4.322529,51.121788],"type":"Point"},"properties":{"osm_id":"3056202279","tag":{"amenity":"waste_basket"}},"type":"Feature"},
	{"geometry":{"coordinates":[4.325801,51.12186],"type":"Point"},"properties":{"osm_id":"3056202281","tag":{"amenity":"waste_basket"}},"type":"Feature"},
	{"geometry":{"coordinates":[4.32548,51.122558],"type":"Point"},"properties":{"osm_id":"3056202285","tag":{"amenity":"waste_basket"}},"type":"Feature"},
	{"geometry":{"coordinates":[4.324966,51.115634],"type":"Point"},"properties":{"osm_id":"3057150163","tag":{"amenity":"waste_basket"}},"type":"Feature"},
	{"geometry":{"coordinates":[4.325895,51.120446],"type":"Point"},"properties":{"osm_id":"3057150577","tag":{"amenity":"waste_basket"}},"type":"Feature"},
	{"geometry":{"coordinates":[4.328838,51.122129],"type":"Point"},"properties":{"osm_id":"3059022040","tag":{"amenity":"waste_basket"}},"type":"Feature"},
	{"geometry":{"coordinates":[4.329059,51.122186],"type":"Point"},"properties":{"osm_id":"3059022042","tag":{"amenity":"waste_basket"}},"type":"Feature"},
	{"geometry":{"coordinates":[4.332794,51.123541],"type":"Point"},"properties":{"osm_id":"3059022467","tag":{"amenity":"waste_basket"}},"type":"Feature"},
	{"geometry":{"coordinates":[4.332753,51.123866],"type":"Point"},"properties":{"osm_id":"3059022481","tag":{"amenity":"waste_basket"}},"type":"Feature"},
	{"geometry":{"coordinates":[4.323288,51.114285],"type":"Point"},"properties":{"osm_id":"3065700269","tag":{"amenity":"waste_basket"}},"type":"Feature"},
	{"geometry":{"coordinates":[4.323563,51.114414],"type":"Point"},"properties":{"osm_id":"3065700270","tag":{"amenity":"recycling","recycling:glass_bottles":"yes","recycling_type":"container"}},"type":"Feature"},
	{"geometry":{"coordinates":[4.323607,51.114417],"type":"Point"},"properties":{"osm_id":"3065700271","tag":{"amenity":"recycling","recycling:glass_bottles":"yes","recycling_type":"container"}},"type":"Feature"},
	{"geometry":{"coordinates":[4.349339,51.117838],"type":"Point"},"properties":{"osm_id":"3073170359","tag":{"amenity":"waste_basket","waste_basket:type:nl":"enkel hondenpoep"}},"type":"Feature"},
	{"geometry":{"coordinates":[4.349332,51.117873],"type":"Point"},"properties":{"osm_id":"3073170362","tag":{"amenity":"waste_basket"}},"type":"Feature"},
	{"geometry":{"coordinates":[4.347578,51.119606],"type":"Point"},"properties":{"osm_id":"3073197215","tag":{"amenity":"waste_basket"}},"type":"Feature"},
	{"geometry":{"coordinates":[4.346334,51.120957],"type":"Point"},"properties":{"osm_id":"3073197219","tag":{"amenity":"waste_basket"}},"type":"Feature"},
	{"geometry":{"coordinates":[4.346309,51.120993],"type":"Point"},"properties":{"osm_id":"3073197221","tag":{"amenity":"waste_basket","waste_basket:type:nl":"cone voor hondenpoep"}},"type":"Feature"},
	{"geometry":{"coordinates":[4.344675,51.122674],"type":"Point"},"properties":{"osm_id":"3073197418","tag":{"amenity":"waste_basket"}},"type":"Feature"},
	{"geometry":{"coordinates":[4.352434,51.123184],"type":"Point"},"properties":{"osm_id":"3075621527","tag":{"amenity":"waste_basket"}},"type":"Feature"},
	{"geometry":{"coordinates":[4.351667,51.12404],"type":"Point"},"properties":{"osm_id":"3075621529","tag":{"amenity":"waste_basket"}},"type":"Feature"},
	{"geometry":{"coordinates":[4.381047,51.086818],"type":"Point"},"properties":{"osm_id":"3085924280","tag":{"amenity":"waste_basket"}},"type":"Feature"},
	{"geometry":{"coordinates":[4.381358,51.087931],"type":"Point"},"properties":{"osm_id":"3085924283","tag":{"amenity":"waste_basket"}},"type":"Feature"},
	{"geometry":{"coordinates":[4.378382,51.088553],"type":"Point"},"properties":{"osm_id":"3085924284","tag":{"amenity":"waste_basket"}},"type":"Feature"},
	{"geometry":{"coordinates":[4.328403,51.117722],"type":"Point"},"properties":{"osm_id":"3097041376","tag":{"amenity":"waste_basket"}},"type":"Feature"},
	{"geometry":{"coordinates":[4.328647,51.118421],"type":"Point"},"properties":{"osm_id":"3097041503","tag":{"amenity":"waste_basket"}},"type":"Feature"},
	{"geometry":{"coordinates":[4.331939,51.119244],"type":"Point"},"properties":{"osm_id":"3106872755","tag":{"amenity":"waste_basket"}},"type":"Feature"},
	{"geometry":{"coordinates":[4.329817,51.106667],"type":"Point"},"properties":{"osm_id":"3141484148","tag":{"amenity":"waste_basket"}},"type":"Feature"},
	{"geometry":{"coordinates":[4.330117,51.106807],"type":"Point"},"properties":{"osm_id":"3141485600","tag":{"amenity":"recycling","recycling:batteries":"no","recycling:books":"no","recycling:cans":"no","recycling:cardboard":"no","recycling:cartons":"no","recycling:clothes":"no","recycling:electrical_appliances":"no","recycling:glass":"yes","recycling:glass_bottles":"yes","recycling:green_waste":"no","recycling:magazines":"no","recycling:newspaper":"no","recycling:paper":"no","recycling:paper_packaging":"no","recycling:plastic":"no","recycling:plastic_bottles":"no","recycling:plastic_packaging":"no","recycling:scrap_metal":"no","recycling:small_appliances":"no","recycling:waste":"no","recycling_type":"container"}},"type":"Feature"},
	{"geometry":{"coordinates":[4.349507,51.111238],"type":"Point"},"properties":{"osm_id":"3145739726","tag":{"amenity":"waste_basket"}},"type":"Feature"},
	{"geometry":{"coordinates":[4.32501,51.081054],"type":"Point"},"properties":{"osm_id":"3254494893","tag":{"amenity":"waste_basket"}},"type":"Feature"},
	{"geometry":{"coordinates":[4.325644,51.081189],"type":"Point"},"properties":{"osm_id":"3254494908","tag":{"amenity":"waste_basket"}},"type":"Feature"},
	{"geometry":{"coordinates":[4.335886,51.078625],"type":"Point"},"properties":{"osm_id":"3254972507","tag":{"amenity":"waste_basket"}},"type":"Feature"},
	{"geometry":{"coordinates":[4.32566,51.081087],"type":"Point"},"properties":{"osm_id":"3254972551","tag":{"amenity":"waste_basket"}},"type":"Feature"},
	{"geometry":{"coordinates":[4.337671,51.081508],"type":"Point"},"properties":{"osm_id":"3254974394","tag":{"amenity":"waste_basket"}},"type":"Feature"},
	{"geometry":{"coordinates":[4.38199,51.087233],"type":"Point"},"properties":{"osm_id":"3361576778","tag":{"amenity":"waste_basket"}},"type":"Feature"},
	{"geometry":{"coordinates":[4.378,51.089337],"type":"Point"},"properties":{"osm_id":"3382696588","tag":{"amenity":"waste_basket"}},"type":"Feature"},
	{"geometry":{"coordinates":[4.376612,51.091062],"type":"Point"},"properties":{"osm_id":"3382699906","tag":{"amenity":"waste_basket"}},"type":"Feature"},
	{"geometry":{"coordinates":[4.376011,51.09154],"type":"Point"},"properties":{"osm_id":"3382699918","tag":{"amenity":"waste_basket"}},"type":"Feature"},
	{"geometry":{"coordinates":[4.382514,51.096884],"type":"Point"},"properties":{"osm_id":"3382700005","tag":{"amenity":"waste_basket"}},"type":"Feature"},
	{"geometry":{"coordinates":[4.372879,51.100515],"type":"Point"},"properties":{"osm_id":"3382700026","tag":{"amenity":"waste_basket"}},"type":"Feature"},
	{"geometry":{"coordinates":[4.343007,51.110935],"type":"Point"},"properties":{"osm_id":"3517167520","tag":{"amenity":"waste_basket"}},"type":"Feature"},
	{"geometry":{"coordinates":[4.381019,51.088124],"type":"Point"},"properties":{"osm_id":"3598320036","tag":{"amenity":"waste_basket"}},"type":"Feature"},
	{"geometry":{"coordinates":[4.381874,51.089464],"type":"Point"},"properties":{"osm_id":"3598320219","tag":{"amenity":"waste_basket"}},"type":"Feature"},
	{"geometry":{"coordinates":[4.380542,51.091939],"type":"Point"},"properties":{"osm_id":"3609393258","tag":{"amenity":"waste_basket"}},"type":"Feature"},
	{"geometry":{"coordinates":[4.381728,51.092822],"type":"Point"},"properties":{"osm_id":"3609393273","tag":{"amenity":"waste_basket"}},"type":"Feature"},
	{"geometry":{"coordinates":[4.326791,51.109489],"type":"Point"},"properties":{"osm_id":"3611098461","tag":{"amenity":"recycling","operator":"Gemeente Niel","recycling:cans":"no","recycling:clothes":"no","recycling:glass":"yes","recycling:paper":"no","recycling_type":"container"}},"type":"Feature"},
	{"geometry":{"coordinates":[4.326543,51.107623],"type":"Point"},"properties":{"osm_id":"3654504704","tag":{"amenity":"recycling","recycling:glass_bottles":"yes","recycling_type":"container"}},"type":"Feature"},
	{"geometry":{"coordinates":[4.326526,51.107639],"type":"Point"},"properties":{"osm_id":"3654504706","tag":{"amenity":"recycling","recycling:glass_bottles":"yes","recycling_type":"container"}},"type":"Feature"},
	{"geometry":{"coordinates":[4.374891,51.102552],"type":"Point"},"properties":{"osm_id":"3654798056","tag":{"amenity":"waste_basket"}},"type":"Feature"},
	{"geometry":{"coordinates":[4.374585,51.1028],"type":"Point"},"properties":{"osm_id":"3654798244","tag":{"amenity":"waste_basket"}},"type":"Feature"},
	{"geometry":{"coordinates":[4.374932,51.102844],"type":"Point"},"properties":{"osm_id":"3654798256","tag":{"amenity":"waste_basket"}},"type":"Feature"},
	{"geometry":{"coordinates":[4.330222,51.090433],"type":"Point"},"properties":{"osm_id":"3661486360","tag":{"amenity":"waste_basket"}},"type":"Feature"},
	{"geometry":{"coordinates":[4.318279,51.086595],"type":"Point"},"properties":{"osm_id":"3662879245","tag":{"amenity":"waste_basket"}},"type":"Feature"},
	{"geometry":{"coordinates":[4.330746,51.089316],"type":"Point"},"properties":{"osm_id":"3662879349","tag":{"amenity":"waste_basket"}},"type":"Feature"},
	{"geometry":{"coordinates":[4.330916,51.089344],"type":"Point"},"properties":{"osm_id":"3662879355","tag":{"amenity":"waste_basket"}},"type":"Feature"},
	{"geometry":{"coordinates":[4.33143,51.089403],"type":"Point"},"properties":{"osm_id":"3662879358","tag":{"amenity":"recycling","operator":"Vlaams Inzamel Centrum Textiel","recycling:clothes":"yes","recycling_type":"container"}},"type":"Feature"},
	{"geometry":{"coordinates":[4.331445,51.089403],"type":"Point"},"properties":{"osm_id":"3662879359","tag":{"amenity":"recycling","operator":"Vlaams Inzamel Centrum Textiel","recycling:clothes":"yes","recycling_type":"container"}},"type":"Feature"},
	{"geometry":{"coordinates":[4.331463,51.089404],"type":"Point"},"properties":{"osm_id":"3662879360","tag":{"amenity":"recycling","operator":"Ivarem","recycling:glass_bottles":"yes","recycling_type":"container"}},"type":"Feature"},
	{"geometry":{"coordinates":[4.331501,51.089404],"type":"Point"},"properties":{"osm_id":"3662879361","tag":{"amenity":"recycling","operator":"Ivarem","recycling:glass_bottles":"yes","recycling_type":"container"}},"type":"Feature"},
	{"geometry":{"coordinates":[4.331129,51.0895],"type":"Point"},"properties":{"osm_id":"3662879367","tag":{"amenity":"waste_basket"}},"type":"Feature"},
	{"geometry":{"coordinates":[4.330743,51.089502],"type":"Point"},"properties":{"osm_id":"3662879369","tag":{"amenity":"waste_basket"}},"type":"Feature"},
	{"geometry":{"coordinates":[4.331024,51.0896],"type":"Point"},"properties":{"osm_id":"3662879377","tag":{"amenity":"waste_basket"}},"type":"Feature"},
	{"geometry":{"coordinates":[4.33114,51.0918],"type":"Point"},"properties":{"osm_id":"3662879400","tag":{"amenity":"waste_basket"}},"type":"Feature"},
	{"geometry":{"coordinates":[4.326341,51.084914],"type":"Point"},"properties":{"osm_id":"3664357433","tag":{"amenity":"waste_basket"}},"type":"Feature"},
	{"geometry":{"coordinates":[4.360948,51.106163],"type":"Point"},"properties":{"osm_id":"3687014488","tag":{"amenity":"waste_basket"}},"type":"Feature"},
	{"geometry":{"coordinates":[4.350493,51.107648],"type":"Point"},"properties":{"osm_id":"3687014498","tag":{"amenity":"waste_basket"}},"type":"Feature"},
	{"geometry":{"coordinates":[4.347346,51.107956],"type":"Point"},"properties":{"osm_id":"3687014510","tag":{"amenity":"waste_basket"}},"type":"Feature"},
	{"geometry":{"coordinates":[4.344467,51.109261],"type":"Point"},"properties":{"osm_id":"3687014523","tag":{"amenity":"waste_basket"}},"type":"Feature"},
	{"geometry":{"coordinates":[4.343643,51.109362],"type":"Point"},"properties":{"osm_id":"3687014625","tag":{"amenity":"waste_basket","waste_basket:type:nl":"blikvanger"}},"type":"Feature"},
	{"geometry":{"coordinates":[4.343541,51.109407],"type":"Point"},"properties":{"osm_id":"3687014628","tag":{"amenity":"waste_basket"}},"type":"Feature"},
	{"geometry":{"coordinates":[4.332364,51.124137],"type":"Point"},"properties":{"osm_id":"3739492015","tag":{"amenity":"waste_basket"}},"type":"Feature"},
	{"geometry":{"coordinates":[4.334407,51.099974],"type":"Point"},"properties":{"osm_id":"3743225911","tag":{"amenity":"waste_basket"}},"type":"Feature"},
	{"geometry":{"coordinates":[4.377878,51.089426],"type":"Point"},"properties":{"osm_id":"3769615093","tag":{"amenity":"waste_basket"}},"type":"Feature"},
	{"geometry":{"coordinates":[4.37974,51.091016],"type":"Point"},"properties":{"osm_id":"3769615141","tag":{"amenity":"waste_basket"}},"type":"Feature"},
	{"geometry":{"coordinates":[4.379735,51.09221],"type":"Point"},"properties":{"osm_id":"3769615223","tag":{"amenity":"waste_basket"}},"type":"Feature"},
	{"geometry":{"coordinates":[4.378501,51.087786],"type":"Point"},"properties":{"osm_id":"3789247995","tag":{"amenity":"waste_basket"}},"type":"Feature"},
	{"geometry":{"coordinates":[4.373941,51.090332],"type":"Point"},"properties":{"osm_id":"3834484676","tag":{"amenity":"waste_basket"}},"type":"Feature"},
	{"geometry":{"coordinates":[4.37353,51.090448],"type":"Point"},"properties":{"osm_id":"3834484687","tag":{"amenity":"waste_basket"}},"type":"Feature"},
	{"geometry":{"coordinates":[4.374046,51.090553],"type":"Point"},"properties":{"osm_id":"3834484706","tag":{"amenity":"waste_basket"}},"type":"Feature"},
	{"geometry":{"coordinates":[4.373341,51.090621],"type":"Point"},"properties":{"osm_id":"3834484719","tag":{"amenity":"waste_basket"}},"type":"Feature"},
	{"geometry":{"coordinates":[4.371086,51.089009],"type":"Point"},"properties":{"osm_id":"3834733557","tag":{"amenity":"waste_basket"}},"type":"Feature"},
	{"geometry":{"coordinates":[4.369377,51.083465],"type":"Point"},"properties":{"osm_id":"4520039851","tag":{"amenity":"waste_basket"}},"type":"Feature"},
	{"geometry":{"coordinates":[4.388766,51.111249],"type":"Point"},"properties":{"osm_id":"4758960844","tag":{"amenity":"waste_basket"}},"type":"Feature"},
	{"geometry":{"coordinates":[4.33643,51.124149],"type":"Point"},"properties":{"osm_id":"4835188137","tag":{"amenity":"waste_basket"}},"type":"Feature"},
	{"geometry":{"coordinates":[4.33032,51.088999],"type":"Point"},"properties":{"osm_id":"5105531982","tag":{"amenity":"waste_basket"}},"type":"Feature"},
	{"geometry":{"coordinates":[4.391023,51.070522],"type":"Point"},"properties":{"osm_id":"5249112888","tag":{"amenity":"recycling","recycling:clothes":"yes","recycling:glass":"yes","recycling_type":"container"}},"type":"Feature"},
	{"geometry":{"coordinates":[4.37429,51.089131],"type":"Point"},"properties":{"osm_id":"5254650030","tag":{"amenity":"waste_basket"}},"type":"Feature"},
	{"geometry":{"coordinates":[4.386901,51.087406],"type":"Point"},"properties":{"osm_id":"5574544521","tag":{"amenity":"waste_basket"}},"type":"Feature"},
	{"geometry":{"coordinates":[4.335585,51.102678],"type":"Point"},"properties":{"osm_id":"5594806656","tag":{"amenity":"waste_basket"}},"type":"Feature"},
	{"geometry":{"coordinates":[4.334392,51.102724],"type":"Point"},"properties":{"osm_id":"5594806694","tag":{"amenity":"waste_basket"}},"type":"Feature"},
	{"geometry":{"coordinates":[4.37701,51.090936],"type":"Point"},"properties":{"osm_id":"5952887834","tag":{"amenity":"waste_basket"}},"type":"Feature"},
	{"geometry":{"coordinates":[4.372764,51.097582],"type":"Point"},"properties":{"osm_id":"5956071482","tag":{"amenity":"waste_basket"}},"type":"Feature"},
	{"geometry":{"coordinates":[4.381551,51.099409],"type":"Point"},"properties":{"osm_id":"5977279127","tag":{"access":"private","amenity":"waste_disposal"}},"type":"Feature"},
	{"geometry":{"coordinates":[4.363757,51.086085],"type":"Point"},"properties":{"osm_id":"6217056404","tag":{"amenity":"waste_basket"}},"type":"Feature"},
	{"geometry":{"coordinates":[4.369991,51.086788],"type":"Point"},"properties":{"osm_id":"6217844499","tag":{"amenity":"waste_basket"}},"type":"Feature"},
	{"geometry":{"coordinates":[4.3383,51.077544],"type":"Point"},"properties":{"osm_id":"6464250925","tag":{"amenity":"waste_basket"}},"type":"Feature"},
	{"geometry":{"coordinates":[4.368886,51.08835],"type":"Point"},"properties":{"osm_id":"7353797536","tag":{"amenity":"waste_basket"}},"type":"Feature"},
	{"geometry":{"coordinates":[4.37646,51.086861],"type":"Point"},"properties":{"osm_id":"7366140235","tag":{"amenity":"waste_basket"}},"type":"Feature"},
	{"geometry":{"coordinates":[4.370409,51.088715],"type":"Point"},"properties":{"osm_id":"7366234142","tag":{"amenity":"waste_basket","material":"plastic","waste":"mixed"}},"type":"Feature"},
	{"geometry":{"coordinates":[4.379447,51.105524],"type":"Point"},"properties":{"osm_id":"7417599941","tag":{"amenity":"waste_basket","colour":"Yellow","material":"steel","waste":"mixed"}},"type":"Feature"},
	{"geometry":{"coordinates":[4.369973,51.088017],"type":"Point"},"properties":{"osm_id":"7419817500","tag":{"amenity":"waste_basket"}},"type":"Feature"},
	{"geometry":{"coordinates":[4.335171,51.083397],"type":"Point"},"properties":{"osm_id":"7532550772","tag":{"amenity":"waste_basket"}},"type":"Feature"},
	{"geometry":{"coordinates":[4.333402,51.084772],"type":"Point"},"properties":{"osm_id":"7532550782","tag":{"amenity":"waste_basket"}},"type":"Feature"},
	{"geometry":{"coordinates":[4.334348,51.086206],"type":"Point"},"properties":{"osm_id":"7535731452","tag":{"amenity":"waste_basket"}},"type":"Feature"},
	{"geometry":{"coordinates":[4.331853,51.10066],"type":"Point"},"properties":{"osm_id":"7869710073","tag":{"amenity":"waste_basket"}},"type":"Feature"},
	{"geometry":{"coordinates":[4.331497,51.101521],"type":"Point"},"properties":{"osm_id":"7871703780","tag":{"amenity":"waste_basket"}},"type":"Feature"}
]
}
