{
"type": "FeatureCollection",
"features": [
	{"geometry":{"coordinates":[4.356809,51.014748],"type":"Point"},"properties":{"osm_id":"715405109","tag":{"amenity":"recycling","recycling:clothes":"yes","recycling:glass":"yes"}},"type":"Feature"},
	{"geometry":{"coordinates":[4.360153,51.014754],"type":"Point"},"properties":{"osm_id":"715405175","tag":{"amenity":"recycling","recycling:clothes":"no","recycling:glass":"yes"}},"type":"Feature"},
	{"geometry":{"coordinates":[4.348155,51.035245],"type":"Point"},"properties":{"osm_id":"715464586","tag":{"amenity":"recycling","recycling:glass":"yes"}},"type":"Feature"},
	{"geometry":{"coordinates":[4.345319,51.036802],"type":"Point"},"properties":{"osm_id":"715464596","tag":{"amenity":"recycling","recycling:glass":"yes"}},"type":"Feature"},
	{"geometry":{"coordinates":[4.358444,51.043137],"type":"Point"},"properties":{"osm_id":"765272193","tag":{"amenity":"recycling","recycling:clothes":"yes"}},"type":"Feature"},
	{"geometry":{"coordinates":[4.357823,51.048908],"type":"Point"},"properties":{"osm_id":"765275126","tag":{"amenity":"recycling","recycling:glass":"yes"}},"type":"Feature"},
	{"geometry":{"coordinates":[4.356091,51.053113],"type":"Point"},"properties":{"osm_id":"765275135","tag":{"amenity":"recycling","recycling:clothes":"yes","recycling_type":"container"}},"type":"Feature"},
	{"geometry":{"coordinates":[4.355438,51.052722],"type":"Point"},"properties":{"osm_id":"765275140","tag":{"amenity":"recycling","recycling:clothes":"yes"}},"type":"Feature"},
	{"geometry":{"coordinates":[4.36143,51.054097],"type":"Point"},"properties":{"osm_id":"765275148","tag":{"amenity":"recycling","recycling:glass":"yes"}},"type":"Feature"},
	{"geometry":{"coordinates":[4.356548,51.053579],"type":"Point"},"properties":{"osm_id":"787127499","tag":{"amenity":"recycling","recycling:cans":"yes","recycling:glass":"yes","recycling:paper":"yes"}},"type":"Feature"},
	{"geometry":{"coordinates":[4.347606,51.048755],"type":"Point"},"properties":{"osm_id":"787155875","tag":{"amenity":"recycling","recycling:glass":"yes"}},"type":"Feature"},
	{"geometry":{"coordinates":[4.345588,51.049173],"type":"Point"},"properties":{"osm_id":"787155913","tag":{"amenity":"recycling","recycling:clothes":"yes","recycling:glass":"yes"}},"type":"Feature"},
	{"geometry":{"coordinates":[4.353909,51.05124],"type":"Point"},"properties":{"osm_id":"787156034","tag":{"amenity":"recycling","recycling:glass":"yes"}},"type":"Feature"},
	{"geometry":{"coordinates":[4.353219,51.057603],"type":"Point"},"properties":{"osm_id":"787201820","tag":{"amenity":"recycling","recycling:glass":"yes"}},"type":"Feature"},
	{"geometry":{"coordinates":[4.315322,51.017866],"type":"Point"},"properties":{"osm_id":"787204357","tag":{"amenity":"recycling","recycling:clothes":"yes","recycling:glass":"yes","recycling_type":"container"}},"type":"Feature"},
	{"geometry":{"coordinates":[4.353173,51.051636],"type":"Point"},"properties":{"osm_id":"791691136","tag":{"amenity":"recycling","recycling:cans":"yes","recycling:glass":"yes"}},"type":"Feature"},
	{"geometry":{"coordinates":[4.348775,51.060503],"type":"Point"},"properties":{"osm_id":"791726154","tag":{"amenity":"recycling","operator":"Belgotex nv","recycling:clothes":"yes"}},"type":"Feature"},
	{"geometry":{"coordinates":[4.344982,51.059936],"type":"Point"},"properties":{"osm_id":"791726182","tag":{"amenity":"recycling","recycling:glass":"yes"}},"type":"Feature"},
	{"geometry":{"coordinates":[4.331166,51.058181],"type":"Point"},"properties":{"osm_id":"791729631","tag":{"amenity":"recycling","recycling:glass":"yes"}},"type":"Feature"},
	{"geometry":{"coordinates":[4.377731,51.049099],"type":"Point"},"properties":{"osm_id":"799254954","tag":{"amenity":"recycling","recycling:glass":"yes"}},"type":"Feature"},
	{"geometry":{"coordinates":[4.375161,51.048752],"type":"Point"},"properties":{"osm_id":"799255005","tag":{"amenity":"recycling","recycling:clothes":"yes"}},"type":"Feature"},
	{"geometry":{"coordinates":[4.367834,51.055342],"type":"Point"},"properties":{"osm_id":"799258321","tag":{"amenity":"recycling","recycling:glass":"yes","recycling_type":"container"}},"type":"Feature"},
	{"geometry":{"coordinates":[4.367231,51.056951],"type":"Point"},"properties":{"osm_id":"809778008","tag":{"amenity":"recycling","recycling:clothes":"yes","recycling_type":"container"}},"type":"Feature"},
	{"geometry":{"coordinates":[4.353059,51.063788],"type":"Point"},"properties":{"osm_id":"809820606","tag":{"amenity":"recycling","recycling:glass":"yes"}},"type":"Feature"},
	{"geometry":{"coordinates":[4.357412,51.067086],"type":"Point"},"properties":{"osm_id":"918294514","tag":{"amenity":"recycling","recycling:glass":"yes"}},"type":"Feature"},
	{"geometry":{"coordinates":[4.360003,51.036917],"type":"Point"},"properties":{"osm_id":"918296288","tag":{"amenity":"recycling","recycling:clothes":"yes","recycling:glass":"yes","recycling_type":"container"}},"type":"Feature"},
	{"geometry":{"coordinates":[4.382237,51.067046],"type":"Point"},"properties":{"osm_id":"1270484161","tag":{"amenity":"waste_basket"}},"type":"Feature"},
	{"geometry":{"coordinates":[4.306923,51.02902],"type":"Point"},"properties":{"osm_id":"1323447182","tag":{"amenity":"recycling","operator":"Curitas","recycling:clothes":"yes","recycling_type":"container"}},"type":"Feature"},
	{"geometry":{"coordinates":[4.354537,51.032968],"type":"Point"},"properties":{"osm_id":"1429899648","tag":{"amenity":"recycling","recycling:clothes":"yes"}},"type":"Feature"},
	{"geometry":{"coordinates":[4.386843,51.02133],"type":"Point"},"properties":{"osm_id":"1460336220","tag":{"amenity":"recycling","recycling:glass_bottles":"yes","recycling_type":"container"}},"type":"Feature"},
	{"geometry":{"coordinates":[4.386758,51.021412],"type":"Point"},"properties":{"osm_id":"1460336224","tag":{"amenity":"waste_basket"}},"type":"Feature"},
	{"geometry":{"coordinates":[4.380246,51.047979],"type":"Point"},"properties":{"osm_id":"1788445635","tag":{"amenity":"waste_basket"}},"type":"Feature"},
	{"geometry":{"coordinates":[4.358492,51.03382],"type":"Point"},"properties":{"osm_id":"1828423551","tag":{"amenity":"waste_basket"}},"type":"Feature"},
	{"geometry":{"coordinates":[4.359108,51.034109],"type":"Point"},"properties":{"osm_id":"1828423560","tag":{"amenity":"waste_basket"}},"type":"Feature"},
	{"geometry":{"coordinates":[4.358892,51.034216],"type":"Point"},"properties":{"osm_id":"1828423608","tag":{"amenity":"waste_basket"}},"type":"Feature"},
	{"geometry":{"coordinates":[4.324642,51.068205],"type":"Point"},"properties":{"osm_id":"1849677749","tag":{"amenity":"waste_basket"}},"type":"Feature"},
	{"geometry":{"coordinates":[4.324327,51.068452],"type":"Point"},"properties":{"osm_id":"1849677754","tag":{"amenity":"waste_basket"}},"type":"Feature"},
	{"geometry":{"coordinates":[4.38533,51.056156],"type":"Point"},"properties":{"osm_id":"2148256754","tag":{"amenity":"waste_basket"}},"type":"Feature"},
	{"geometry":{"coordinates":[4.34176,51.0581],"type":"Point"},"properties":{"osm_id":"2331649506","tag":{"amenity":"waste_basket"}},"type":"Feature"},
	{"geometry":{"coordinates":[4.349232,51.053379],"type":"Point"},"properties":{"osm_id":"2331669865","tag":{"amenity":"waste_basket"}},"type":"Feature"},
	{"geometry":{"coordinates":[4.34919,51.053406],"type":"Point"},"properties":{"osm_id":"2331669868","tag":{"amenity":"recycling","recycling:glass_bottles":"yes","recycling_type":"container"}},"type":"Feature"},
	{"geometry":{"coordinates":[4.348821,51.053881],"type":"Point"},"properties":{"osm_id":"2331669958","tag":{"amenity":"waste_basket"}},"type":"Feature"},
	{"geometry":{"coordinates":[4.348002,51.055155],"type":"Point"},"properties":{"osm_id":"2331670168","tag":{"amenity":"waste_basket"}},"type":"Feature"},
	{"geometry":{"coordinates":[4.348299,51.053088],"type":"Point"},"properties":{"osm_id":"2333034299","tag":{"amenity":"waste_basket"}},"type":"Feature"},
	{"geometry":{"coordinates":[4.346478,51.050587],"type":"Point"},"properties":{"osm_id":"2335877261","tag":{"amenity":"waste_basket"}},"type":"Feature"},
	{"geometry":{"coordinates":[4.344289,51.059412],"type":"Point"},"properties":{"osm_id":"2465906448","tag":{"amenity":"recycling","recycling:glass_bottles":"yes","recycling_type":"container"}},"type":"Feature"},
	{"geometry":{"coordinates":[4.344324,51.059422],"type":"Point"},"properties":{"osm_id":"2465906458","tag":{"amenity":"recycling","recycling:cans":"yes","recycling:plastic":"yes","recycling_type":"container"}},"type":"Feature"},
	{"geometry":{"coordinates":[4.344359,51.059437],"type":"Point"},"properties":{"osm_id":"2465906478","tag":{"amenity":"waste_disposal"}},"type":"Feature"},
	{"geometry":{"coordinates":[4.346232,51.060417],"type":"Point"},"properties":{"osm_id":"2481177839","tag":{"amenity":"recycling","recycling:glass_bottles":"yes","recycling_type":"container"}},"type":"Feature"},
	{"geometry":{"coordinates":[4.348673,51.061138],"type":"Point"},"properties":{"osm_id":"2481225503","tag":{"amenity":"waste_basket"}},"type":"Feature"},
	{"geometry":{"coordinates":[4.3498,51.059963],"type":"Point"},"properties":{"osm_id":"2482244196","tag":{"amenity":"waste_basket"}},"type":"Feature"},
	{"geometry":{"coordinates":[4.350817,51.058547],"type":"Point"},"properties":{"osm_id":"2482900006","tag":{"amenity":"waste_basket"}},"type":"Feature"},
	{"geometry":{"coordinates":[4.351822,51.056601],"type":"Point"},"properties":{"osm_id":"2486219992","tag":{"amenity":"recycling","operator":"Vlaams Inzamel Centrum Textiel","recycling:clothes":"yes","recycling_type":"container"}},"type":"Feature"},
	{"geometry":{"coordinates":[4.345004,51.058947],"type":"Point"},"properties":{"osm_id":"2486246604","tag":{"amenity":"waste_basket"}},"type":"Feature"},
	{"geometry":{"coordinates":[4.344497,51.059172],"type":"Point"},"properties":{"osm_id":"2486246709","tag":{"amenity":"waste_basket"}},"type":"Feature"},
	{"geometry":{"coordinates":[4.347392,51.049982],"type":"Point"},"properties":{"osm_id":"2487885407","tag":{"amenity":"waste_basket"}},"type":"Feature"},
	{"geometry":{"coordinates":[4.351587,51.053204],"type":"Point"},"properties":{"osm_id":"2492114073","tag":{"amenity":"waste_basket"}},"type":"Feature"},
	{"geometry":{"coordinates":[4.349476,51.051344],"type":"Point"},"properties":{"osm_id":"2492828815","tag":{"amenity":"waste_basket"}},"type":"Feature"},
	{"geometry":{"coordinates":[4.352851,51.051071],"type":"Point"},"properties":{"osm_id":"2492906416","tag":{"amenity":"waste_disposal"}},"type":"Feature"},
	{"geometry":{"coordinates":[4.350778,51.050511],"type":"Point"},"properties":{"osm_id":"2492960720","tag":{"amenity":"waste_basket"}},"type":"Feature"},
	{"geometry":{"coordinates":[4.351289,51.049875],"type":"Point"},"properties":{"osm_id":"2493037430","tag":{"amenity":"waste_disposal"}},"type":"Feature"},
	{"geometry":{"coordinates":[4.352075,51.050453],"type":"Point"},"properties":{"osm_id":"2493037464","tag":{"amenity":"waste_disposal"}},"type":"Feature"},
	{"geometry":{"coordinates":[4.335403,51.016853],"type":"Point"},"properties":{"osm_id":"2501858738","tag":{"amenity":"recycling","recycling:glass":"yes","recycling_type":"container"}},"type":"Feature"},
	{"geometry":{"coordinates":[4.327281,51.047112],"type":"Point"},"properties":{"osm_id":"2606916290","tag":{"amenity":"recycling","recycling:glass":"no","recycling:glass_bottles":"yes","recycling_type":"container"}},"type":"Feature"},
	{"geometry":{"coordinates":[4.322542,51.04547],"type":"Point"},"properties":{"osm_id":"2607066748","tag":{"amenity":"recycling","recycling:glass_bottles":"yes","recycling_type":"container"}},"type":"Feature"},
	{"geometry":{"coordinates":[4.362393,51.059805],"type":"Point"},"properties":{"osm_id":"2689910062","tag":{"amenity":"waste_basket"}},"type":"Feature"},
	{"geometry":{"coordinates":[4.360588,51.059948],"type":"Point"},"properties":{"osm_id":"2689910081","tag":{"amenity":"waste_basket"}},"type":"Feature"},
	{"geometry":{"coordinates":[4.36277,51.056832],"type":"Point"},"properties":{"osm_id":"2691213783","tag":{"amenity":"waste_basket"}},"type":"Feature"},
	{"geometry":{"coordinates":[4.36156,51.054183],"type":"Point"},"properties":{"osm_id":"2691236958","tag":{"amenity":"waste_basket"}},"type":"Feature"},
	{"geometry":{"coordinates":[4.381309,51.059715],"type":"Point"},"properties":{"osm_id":"3253679038","tag":{"amenity":"waste_basket"}},"type":"Feature"},
	{"geometry":{"coordinates":[4.365996,51.014517],"type":"Point"},"properties":{"osm_id":"3284476563","tag":{"amenity":"waste_basket"}},"type":"Feature"},
	{"geometry":{"coordinates":[4.356995,51.034518],"type":"Point"},"properties":{"osm_id":"3284702919","tag":{"amenity":"waste_basket"}},"type":"Feature"},
	{"geometry":{"coordinates":[4.35596,51.045388],"type":"Point"},"properties":{"osm_id":"3288018268","tag":{"amenity":"waste_basket"}},"type":"Feature"},
	{"geometry":{"coordinates":[4.348595,51.048898],"type":"Point"},"properties":{"osm_id":"3288490647","tag":{"amenity":"waste_basket"}},"type":"Feature"},
	{"geometry":{"coordinates":[4.348467,51.038516],"type":"Point"},"properties":{"osm_id":"3294869513","tag":{"amenity":"waste_basket"}},"type":"Feature"},
	{"geometry":{"coordinates":[4.352865,51.035904],"type":"Point"},"properties":{"osm_id":"3294887348","tag":{"amenity":"waste_basket"}},"type":"Feature"},
	{"geometry":{"coordinates":[4.352575,51.035933],"type":"Point"},"properties":{"osm_id":"3294887349","tag":{"amenity":"waste_basket"}},"type":"Feature"},
	{"geometry":{"coordinates":[4.356822,51.033679],"type":"Point"},"properties":{"osm_id":"3294908550","tag":{"amenity":"waste_basket"}},"type":"Feature"},
	{"geometry":{"coordinates":[4.363124,51.014083],"type":"Point"},"properties":{"osm_id":"3294974287","tag":{"amenity":"waste_basket"}},"type":"Feature"},
	{"geometry":{"coordinates":[4.344569,51.058981],"type":"Point"},"properties":{"osm_id":"3461389643","tag":{"amenity":"waste_basket"}},"type":"Feature"},
	{"geometry":{"coordinates":[4.367858,51.054475],"type":"Point"},"properties":{"osm_id":"3479081177","tag":{"amenity":"waste_basket"}},"type":"Feature"},
	{"geometry":{"coordinates":[4.367796,51.056228],"type":"Point"},"properties":{"osm_id":"3479081179","tag":{"amenity":"waste_basket"}},"type":"Feature"},
	{"geometry":{"coordinates":[4.355803,51.054987],"type":"Point"},"properties":{"osm_id":"3486081638","tag":{"amenity":"waste_basket"}},"type":"Feature"},
	{"geometry":{"coordinates":[4.354021,51.050972],"type":"Point"},"properties":{"osm_id":"3486096997","tag":{"amenity":"waste_basket"}},"type":"Feature"},
	{"geometry":{"coordinates":[4.366849,51.058841],"type":"Point"},"properties":{"osm_id":"5593601658","tag":{"amenity":"waste_basket"}},"type":"Feature"},
	{"geometry":{"coordinates":[4.364821,51.058472],"type":"Point"},"properties":{"osm_id":"5593601669","tag":{"amenity":"waste_basket"}},"type":"Feature"},
	{"geometry":{"coordinates":[4.364709,51.058487],"type":"Point"},"properties":{"osm_id":"5593601681","tag":{"amenity":"waste_basket"}},"type":"Feature"},
	{"geometry":{"coordinates":[4.369028,51.056372],"type":"Point"},"properties":{"osm_id":"5595608898","tag":{"amenity":"waste_basket"}},"type":"Feature"},
	{"geometry":{"coordinates":[4.368022,51.056108],"type":"Point"},"properties":{"osm_id":"5595608913","tag":{"amenity":"waste_basket"}},"type":"Feature"},
	{"geometry":{"coordinates":[4.368798,51.056887],"type":"Point"},"properties":{"osm_id":"5595608917","tag":{"amenity":"waste_basket"}},"type":"Feature"},
	{"geometry":{"coordinates":[4.306907,51.029032],"type":"Point"},"properties":{"osm_id":"7101223018","tag":{"amenity":"recycling","operator":"Curitas","recycling:clothes":"yes","recycling_type":"container"}},"type":"Feature"},
	{"geometry":{"coordinates":[4.306949,51.029004],"type":"Point"},"properties":{"osm_id":"7101223019","tag":{"amenity":"recycling","recycling:glass":"yes","recycling_type":"container"}},"type":"Feature"},
	{"geometry":{"coordinates":[4.327459,51.043852],"type":"Point"},"properties":{"osm_id":"7595227806","tag":{"amenity":"waste_basket"}},"type":"Feature"},
	{"geometry":{"coordinates":[4.327635,51.043893],"type":"Point"},"properties":{"osm_id":"7595227808","tag":{"amenity":"recycling","recycling:glass_bottles":"yes","recycling_type":"container"}},"type":"Feature"},
	{"geometry":{"coordinates":[4.327594,51.043887],"type":"Point"},"properties":{"osm_id":"7595227809","tag":{"amenity":"recycling","recycling:glass_bottles":"yes","recycling_type":"container"}},"type":"Feature"}
]
}
