{
"type": "FeatureCollection",
"features": [
	{"geometry":{"coordinates":[4.345756,50.607786],"type":"Point"},"properties":{"osm_id":"2272820981","tag":{"amenity":"recycling","recycling:clothes":"yes","recycling:glass":"yes"}},"type":"Feature"},
	{"geometry":{"coordinates":[4.348743,50.60841],"type":"Point"},"properties":{"osm_id":"2272820986","tag":{"amenity":"recycling","recycling:clothes":"yes","recycling:glass":"yes"}},"type":"Feature"},
	{"geometry":{"coordinates":[4.334727,50.588438],"type":"Point"},"properties":{"name":"Bulles \u00c3\u00a0 verres","osm_id":"2361241752","tag":{"amenity":"recycling"}},"type":"Feature"},
	{"geometry":{"coordinates":[4.327286,50.595759],"type":"Point"},"properties":{"osm_id":"2361241755","tag":{"amenity":"recycling","recycling:glass_bottles":"yes","recycling_type":"container"}},"type":"Feature"},
	{"geometry":{"coordinates":[4.33894,50.593424],"type":"Point"},"properties":{"osm_id":"2364067005","tag":{"amenity":"recycling","recycling:clothes":"yes","recycling:glass":"yes","recycling:glass_bottles":"yes","recycling_type":"container"}},"type":"Feature"},
	{"geometry":{"coordinates":[4.31916,50.592366],"type":"Point"},"properties":{"osm_id":"4325800539","tag":{"amenity":"recycling","location":"overground","recycling:glass":"yes","recycling_type":"container"}},"type":"Feature"},
	{"geometry":{"coordinates":[4.327032,50.602029],"type":"Point"},"properties":{"osm_id":"5047558279","tag":{"amenity":"recycling","recycling:glass_bottles":"yes","recycling_type":"container"}},"type":"Feature"},
	{"geometry":{"coordinates":[4.327007,50.60202],"type":"Point"},"properties":{"osm_id":"5047558280","tag":{"amenity":"recycling","recycling:glass_bottles":"yes","recycling_type":"container"}},"type":"Feature"},
	{"geometry":{"coordinates":[4.324513,50.6036],"type":"Point"},"properties":{"osm_id":"5047616340","tag":{"amenity":"waste_basket","waste":"dog_excrement"}},"type":"Feature"},
	{"geometry":{"coordinates":[4.325038,50.603502],"type":"Point"},"properties":{"osm_id":"5047704316","tag":{"amenity":"waste_basket"}},"type":"Feature"},
	{"geometry":{"coordinates":[4.324902,50.603507],"type":"Point"},"properties":{"osm_id":"5047704317","tag":{"amenity":"waste_basket"}},"type":"Feature"},
	{"geometry":{"coordinates":[4.336781,50.600073],"type":"Point"},"properties":{"osm_id":"5361901344","tag":{"amenity":"recycling","recycling:glass":"yes","recycling_type":"container"}},"type":"Feature"},
	{"geometry":{"coordinates":[4.327454,50.599003],"type":"Point"},"properties":{"osm_id":"5949691231","tag":{"amenity":"recycling","recycling:glass_bottles":"yes","recycling_type":"container"}},"type":"Feature"},
	{"geometry":{"coordinates":[4.335236,50.593948],"type":"Point"},"properties":{"osm_id":"6777457978","tag":{"amenity":"recycling","recycling:clothes":"yes","recycling_type":"container"}},"type":"Feature"},
	{"geometry":{"coordinates":[4.340546,50.593374],"type":"Point"},"properties":{"osm_id":"6777566591","tag":{"amenity":"waste_basket"}},"type":"Feature"},
	{"geometry":{"coordinates":[4.327198,50.599063],"type":"Point"},"properties":{"osm_id":"7416490875","tag":{"amenity":"waste_basket"}},"type":"Feature"},
	{"geometry":{"coordinates":[4.328346,50.598362],"type":"Point"},"properties":{"osm_id":"7416490878","tag":{"amenity":"waste_basket"}},"type":"Feature"},
	{"geometry":{"coordinates":[4.328732,50.598045],"type":"Point"},"properties":{"osm_id":"7416490879","tag":{"amenity":"waste_basket"}},"type":"Feature"},
	{"geometry":{"coordinates":[4.323594,50.597145],"type":"Point"},"properties":{"osm_id":"7416531996","tag":{"amenity":"waste_basket"}},"type":"Feature"},
	{"geometry":{"coordinates":[4.32378,50.598351],"type":"Point"},"properties":{"osm_id":"7416531998","tag":{"amenity":"waste_basket"}},"type":"Feature"},
	{"geometry":{"coordinates":[4.323087,50.598277],"type":"Point"},"properties":{"osm_id":"7416532001","tag":{"amenity":"waste_basket"}},"type":"Feature"},
	{"geometry":{"coordinates":[4.322777,50.597639],"type":"Point"},"properties":{"osm_id":"7416532006","tag":{"amenity":"waste_basket"}},"type":"Feature"},
	{"geometry":{"coordinates":[4.322545,50.59754],"type":"Point"},"properties":{"osm_id":"7416532008","tag":{"amenity":"waste_basket"}},"type":"Feature"},
	{"geometry":{"coordinates":[4.322782,50.597099],"type":"Point"},"properties":{"osm_id":"7416532009","tag":{"amenity":"waste_basket"}},"type":"Feature"},
	{"geometry":{"coordinates":[4.32323,50.5971],"type":"Point"},"properties":{"osm_id":"7416532010","tag":{"amenity":"waste_basket"}},"type":"Feature"},
	{"geometry":{"coordinates":[4.323207,50.59687],"type":"Point"},"properties":{"osm_id":"7416532011","tag":{"amenity":"waste_basket"}},"type":"Feature"},
	{"geometry":{"coordinates":[4.324206,50.597971],"type":"Point"},"properties":{"osm_id":"7417730795","tag":{"amenity":"waste_basket"}},"type":"Feature"},
	{"geometry":{"coordinates":[4.324367,50.597756],"type":"Point"},"properties":{"osm_id":"7417730796","tag":{"amenity":"waste_basket"}},"type":"Feature"},
	{"geometry":{"coordinates":[4.324862,50.597711],"type":"Point"},"properties":{"osm_id":"7417730797","tag":{"amenity":"waste_basket"}},"type":"Feature"},
	{"geometry":{"coordinates":[4.324812,50.59776],"type":"Point"},"properties":{"osm_id":"7417730798","tag":{"amenity":"waste_basket"}},"type":"Feature"},
	{"geometry":{"coordinates":[4.328825,50.586326],"type":"Point"},"properties":{"osm_id":"7430696083","tag":{"amenity":"waste_basket"}},"type":"Feature"},
	{"geometry":{"coordinates":[4.324209,50.591735],"type":"Point"},"properties":{"osm_id":"7432859195","tag":{"amenity":"waste_basket"}},"type":"Feature"},
	{"geometry":{"coordinates":[4.324391,50.591217],"type":"Point"},"properties":{"osm_id":"7432859197","tag":{"amenity":"waste_basket"}},"type":"Feature"},
	{"geometry":{"coordinates":[4.324378,50.590966],"type":"Point"},"properties":{"osm_id":"7432859199","tag":{"amenity":"waste_basket"}},"type":"Feature"},
	{"geometry":{"coordinates":[4.32441,50.590667],"type":"Point"},"properties":{"osm_id":"7432859201","tag":{"amenity":"waste_basket"}},"type":"Feature"},
	{"geometry":{"coordinates":[4.324472,50.590358],"type":"Point"},"properties":{"osm_id":"7432859203","tag":{"amenity":"waste_basket"}},"type":"Feature"},
	{"geometry":{"coordinates":[4.324361,50.590134],"type":"Point"},"properties":{"osm_id":"7432859206","tag":{"amenity":"waste_basket"}},"type":"Feature"},
	{"geometry":{"coordinates":[4.323276,50.589468],"type":"Point"},"properties":{"osm_id":"7432859207","tag":{"amenity":"waste_basket"}},"type":"Feature"},
	{"geometry":{"coordinates":[4.322771,50.589563],"type":"Point"},"properties":{"osm_id":"7432859209","tag":{"amenity":"waste_basket"}},"type":"Feature"},
	{"geometry":{"coordinates":[4.323146,50.58967],"type":"Point"},"properties":{"osm_id":"7432859211","tag":{"amenity":"waste_basket"}},"type":"Feature"},
	{"geometry":{"coordinates":[4.323402,50.589947],"type":"Point"},"properties":{"osm_id":"7432859213","tag":{"amenity":"waste_basket"}},"type":"Feature"},
	{"geometry":{"coordinates":[4.32394,50.590108],"type":"Point"},"properties":{"osm_id":"7432859216","tag":{"amenity":"waste_basket"}},"type":"Feature"},
	{"geometry":{"coordinates":[4.324071,50.597251],"type":"Point"},"properties":{"osm_id":"7432894923","tag":{"amenity":"waste_basket"}},"type":"Feature"},
	{"geometry":{"coordinates":[4.324358,50.595083],"type":"Point"},"properties":{"osm_id":"7432894930","tag":{"amenity":"waste_basket"}},"type":"Feature"},
	{"geometry":{"coordinates":[4.324035,50.594459],"type":"Point"},"properties":{"osm_id":"7432894932","tag":{"amenity":"waste_basket"}},"type":"Feature"},
	{"geometry":{"coordinates":[4.327167,50.598654],"type":"Point"},"properties":{"osm_id":"7433175373","tag":{"amenity":"waste_basket"}},"type":"Feature"},
	{"geometry":{"coordinates":[4.325965,50.598261],"type":"Point"},"properties":{"osm_id":"7433175374","tag":{"amenity":"waste_basket"}},"type":"Feature"},
	{"geometry":{"coordinates":[4.325548,50.598137],"type":"Point"},"properties":{"osm_id":"7433175376","tag":{"amenity":"waste_basket"}},"type":"Feature"},
	{"geometry":{"coordinates":[4.323254,50.597949],"type":"Point"},"properties":{"osm_id":"7433400767","tag":{"amenity":"waste_basket"}},"type":"Feature"},
	{"geometry":{"coordinates":[4.312508,50.584728],"type":"Point"},"properties":{"osm_id":"7442072418","tag":{"amenity":"recycling","recycling:glass_bottles":"yes","recycling_type":"container"}},"type":"Feature"},
	{"geometry":{"coordinates":[4.32447,50.598331],"type":"Point"},"properties":{"osm_id":"7449639144","tag":{"amenity":"waste_basket"}},"type":"Feature"},
	{"geometry":{"coordinates":[4.312741,50.598431],"type":"Point"},"properties":{"osm_id":"7449763848","tag":{"amenity":"waste_basket"}},"type":"Feature"},
	{"geometry":{"coordinates":[4.331608,50.601158],"type":"Point"},"properties":{"osm_id":"7452376162","tag":{"amenity":"waste_basket"}},"type":"Feature"},
	{"geometry":{"coordinates":[4.331654,50.603906],"type":"Point"},"properties":{"osm_id":"7462358559","tag":{"amenity":"recycling","recycling:glass_bottles":"yes","recycling_type":"container"}},"type":"Feature"},
	{"geometry":{"coordinates":[4.331628,50.603897],"type":"Point"},"properties":{"osm_id":"7462358560","tag":{"amenity":"recycling","recycling:glass_bottles":"yes","recycling_type":"container"}},"type":"Feature"},
	{"geometry":{"coordinates":[4.323002,50.593883],"type":"Point"},"properties":{"osm_id":"7476481773","tag":{"amenity":"waste_basket"}},"type":"Feature"},
	{"geometry":{"coordinates":[4.338044,50.605598],"type":"Point"},"properties":{"osm_id":"7488436978","tag":{"amenity":"waste_basket"}},"type":"Feature"},
	{"geometry":{"coordinates":[4.32603,50.587411],"type":"Point"},"properties":{"osm_id":"7501775517","tag":{"amenity":"waste_basket"}},"type":"Feature"},
	{"geometry":{"coordinates":[4.327205,50.595614],"type":"Point"},"properties":{"osm_id":"7546135678","tag":{"amenity":"recycling","recycling:glass_bottles":"yes","recycling_type":"container"}},"type":"Feature"},
	{"geometry":{"coordinates":[4.327216,50.595597],"type":"Point"},"properties":{"osm_id":"7546135679","tag":{"amenity":"recycling","recycling:glass_bottles":"yes","recycling_type":"container"}},"type":"Feature"}
]
}
