{
"type": "FeatureCollection",
"features": [
	{"geometry":{"coordinates":[4.381787,50.50754],"type":"Point"},"properties":{"name":"Recyparc Luttre","osm_id":"1852796774","tag":{"addr:city":"Luttre","addr:postcode":"6238","addr:street":"Avenue de la Gare","amenity":"recycling","opening_hours":"Thu-Sa","operator":"Tibi","recycling:batteries":"yes","recycling:cans":"yes","recycling:cartons":"yes","recycling:electrical_appliances":"yes","recycling:glass":"yes","recycling:glass_bottles":"yes","recycling:green_waste":"yes","recycling:magazines":"yes","recycling:newspaper":"yes","recycling:paper":"yes","recycling:paper_packaging":"yes","recycling:plastic_bottles":"yes","recycling:scrap_metal":"yes","recycling:wood":"yes","recycling_type":"centre"}},"type":"Feature"},
	{"geometry":{"coordinates":[4.382394,50.507104],"type":"Point"},"properties":{"barrier":"gate","osm_id":"3459327956"},"type":"Feature"},
	{"geometry":{"coordinates":[4.351707,50.457701],"type":"Point"},"properties":{"barrier":"gate","osm_id":"3459438661"},"type":"Feature"},
	{"geometry":{"coordinates":[4.35303,50.458347],"type":"Point"},"properties":{"barrier":"gate","osm_id":"3459438672"},"type":"Feature"},
	{"geometry":{"coordinates":[4.318659,50.467233],"type":"Point"},"properties":{"osm_id":"3665686317","tag":{"amenity":"waste_basket"}},"type":"Feature"},
	{"geometry":{"coordinates":[4.331873,50.4662],"type":"Point"},"properties":{"osm_id":"3697234011","tag":{"amenity":"waste_disposal"}},"type":"Feature"},
	{"geometry":{"coordinates":[4.33133,50.466962],"type":"Point"},"properties":{"osm_id":"3697234012","tag":{"amenity":"waste_disposal"}},"type":"Feature"},
	{"geometry":{"coordinates":[4.331727,50.466997],"type":"Point"},"properties":{"osm_id":"3697234013","tag":{"amenity":"recycling","recycling_type":"container"}},"type":"Feature"},
	{"geometry":{"coordinates":[4.328956,50.469329],"type":"Point"},"properties":{"osm_id":"3700240805","tag":{"amenity":"waste_basket"}},"type":"Feature"},
	{"geometry":{"coordinates":[4.339061,50.462969],"type":"Point"},"properties":{"osm_id":"3759950823","tag":{"access":"customers","amenity":"waste_basket"}},"type":"Feature"},
	{"geometry":{"coordinates":[4.35858,50.462643],"type":"Point"},"properties":{"osm_id":"3837497158","tag":{"amenity":"waste_basket"}},"type":"Feature"},
	{"geometry":{"coordinates":[4.353463,50.462805],"type":"Point"},"properties":{"osm_id":"3837497242","tag":{"amenity":"recycling","recycling_type":"container"}},"type":"Feature"},
	{"geometry":{"coordinates":[4.354393,50.462844],"type":"Point"},"properties":{"osm_id":"3837497363","tag":{"amenity":"recycling","recycling_type":"container"}},"type":"Feature"}
]
}
