{
"type": "FeatureCollection",
"lastupdate": "2020-08-06T00:00:00Z",
"features": [
	{"geometry":{"coordinates":[4.3615,46.676808],"type":"Point"},"properties":{"osm_id":"2458401598","tag":{"amenity":"waste_basket"}},"type":"Feature"},
	{"geometry":{"coordinates":[4.392613,46.664713],"type":"Point"},"properties":{"osm_id":"4308371563","tag":{"amenity":"recycling"}},"type":"Feature"},
	{"geometry":{"coordinates":[4.385587,46.658511],"type":"Point"},"properties":{"osm_id":"4308371565","tag":{"amenity":"recycling","description":"recyclage verre"}},"type":"Feature"},
	{"geometry":{"coordinates":[4.386356,46.662085],"type":"Point"},"properties":{"osm_id":"4308371567","tag":{"amenity":"recycling"}},"type":"Feature"},
	{"geometry":{"coordinates":[4.361938,46.671304],"type":"Point"},"properties":{"osm_id":"4308388849","tag":{"amenity":"recycling","description":"recyclage verre et papier"}},"type":"Feature"},
	{"geometry":{"coordinates":[4.38647,46.673647],"type":"Point"},"properties":{"osm_id":"4308389343","tag":{"amenity":"recycling","description":"recyclage verre"}},"type":"Feature"},
	{"geometry":{"coordinates":[4.352963,46.666051],"type":"Point"},"properties":{"osm_id":"4439486589","tag":{"amenity":"waste_basket"}},"type":"Feature"}
]
}
