{
"type": "FeatureCollection",
"features": [
	{"geometry":{"coordinates":[4.361209,46.003872],"type":"Point"},"properties":{"osm_id":"1740239486","tag":{"amenity":"recycling","recycling_type":"container"}},"type":"Feature"},
	{"geometry":{"coordinates":[4.325569,46.002798],"type":"Point"},"properties":{"osm_id":"1959449654","tag":{"amenity":"recycling"}},"type":"Feature"},
	{"geometry":{"coordinates":[4.33355,45.975783],"type":"Point"},"properties":{"osm_id":"4893777951","tag":{"amenity":"waste_basket"}},"type":"Feature"},
	{"geometry":{"coordinates":[4.33491,45.978853],"type":"Point"},"properties":{"osm_id":"4906345684","tag":{"amenity":"waste_basket"}},"type":"Feature"},
	{"geometry":{"coordinates":[4.382741,45.984987],"type":"Point"},"properties":{"osm_id":"6235609321","tag":{"amenity":"waste_basket"}},"type":"Feature"},
	{"geometry":{"coordinates":[4.337735,45.973545],"type":"Point"},"properties":{"osm_id":"6376238235","tag":{"amenity":"waste_basket","waste":"trash"}},"type":"Feature"},
	{"geometry":{"coordinates":[4.338018,45.973579],"type":"Point"},"properties":{"osm_id":"6376238238","tag":{"amenity":"recycling","recycling:green_waste":"yes","recycling_type":"container"}},"type":"Feature"},
	{"geometry":{"coordinates":[4.383837,45.984646],"type":"Point"},"properties":{"osm_id":"7435158737","tag":{"amenity":"waste_basket","colour":"vert","material":"metal"}},"type":"Feature"},
	{"geometry":{"coordinates":[4.38308,45.985102],"type":"Point"},"properties":{"osm_id":"7435158738","tag":{"amenity":"waste_basket"}},"type":"Feature"},
	{"geometry":{"coordinates":[4.381368,45.985633],"type":"Point"},"properties":{"osm_id":"7435158741","tag":{"amenity":"waste_basket","material":"wood"}},"type":"Feature"},
	{"geometry":{"coordinates":[4.381648,45.986104],"type":"Point"},"properties":{"osm_id":"7435158742","tag":{"access":"yes","amenity":"waste_disposal","waste":"trash"}},"type":"Feature"},
	{"geometry":{"coordinates":[4.381281,45.987122],"type":"Point"},"properties":{"osm_id":"7441185113","tag":{"access":"yes","amenity":"waste_disposal"}},"type":"Feature"},
	{"geometry":{"coordinates":[4.327216,45.973722],"type":"Point"},"properties":{"osm_id":"7807309771","tag":{"amenity":"recycling","recycling_type":"container"}},"type":"Feature"},
	{"geometry":{"coordinates":[4.378994,46.009383],"type":"Point"},"properties":{"osm_id":"7811720849","tag":{"amenity":"waste_disposal","waste":"trash;recycling"}},"type":"Feature"}
]
}
