{
"type": "FeatureCollection",
"features": [
	{"geometry":{"coordinates":[4.361193,45.480023],"type":"Point"},"properties":{"osm_id":"653807512","tag":{"amenity":"recycling","recycling:glass":"yes","recycling:paper":"yes"}},"type":"Feature"},
	{"geometry":{"coordinates":[4.364151,45.479315],"type":"Point"},"properties":{"osm_id":"656224066","tag":{"amenity":"recycling","recycling:glass":"yes"}},"type":"Feature"},
	{"geometry":{"coordinates":[4.358197,45.479524],"type":"Point"},"properties":{"osm_id":"1755022352","tag":{"amenity":"recycling","operator":"Chrysalide Ressourcerie","recycling:clothes":"yes","recycling_type":"container"}},"type":"Feature"},
	{"geometry":{"coordinates":[4.358166,45.479525],"type":"Point"},"properties":{"osm_id":"1755022357","tag":{"amenity":"recycling","recycling:glass_bottles":"yes","recycling_type":"container"}},"type":"Feature"},
	{"geometry":{"coordinates":[4.345761,45.463797],"type":"Point"},"properties":{"osm_id":"2318452047","tag":{"amenity":"recycling","recycling:glass_bottles":"yes","recycling_type":"container"}},"type":"Feature"},
	{"geometry":{"coordinates":[4.362412,45.469412],"type":"Point"},"properties":{"osm_id":"2319963472","tag":{"amenity":"recycling","location":"underground","recycling:glass_bottles":"yes","recycling_type":"container"}},"type":"Feature"},
	{"geometry":{"coordinates":[4.384281,45.480509],"type":"Point"},"properties":{"barrier":"gate","osm_id":"2513883829","tag":{"entrance":"main"}},"type":"Feature"},
	{"geometry":{"coordinates":[4.361392,45.467591],"type":"Point"},"properties":{"osm_id":"2578117742","tag":{"amenity":"recycling","recycling:glass":"yes"}},"type":"Feature"},
	{"geometry":{"coordinates":[4.351959,45.466056],"type":"Point"},"properties":{"osm_id":"2578149363","tag":{"amenity":"recycling","recycling:glass":"yes","recycling_type":"container"}},"type":"Feature"},
	{"geometry":{"coordinates":[4.353247,45.469068],"type":"Point"},"properties":{"osm_id":"2578149364","tag":{"amenity":"recycling","recycling:glass":"yes","recycling_type":"container"}},"type":"Feature"},
	{"geometry":{"coordinates":[4.378539,45.463889],"type":"Point"},"properties":{"osm_id":"3020232983","tag":{"amenity":"recycling","operator":"Chrysalide Ressourcerie","recycling:clothes":"yes","recycling_type":"container"}},"type":"Feature"},
	{"geometry":{"coordinates":[4.377956,45.464695],"type":"Point"},"properties":{"osm_id":"3896861120","tag":{"amenity":"recycling","recycling:glass":"yes","recycling_type":"container"}},"type":"Feature"},
	{"geometry":{"coordinates":[4.393743,45.468221],"type":"Point"},"properties":{"osm_id":"4039026570","tag":{"amenity":"recycling","operator":"Chrysalide Ressourcerie","recycling:clothes":"yes","recycling_type":"container"}},"type":"Feature"},
	{"geometry":{"coordinates":[4.393748,45.468237],"type":"Point"},"properties":{"osm_id":"4039026571","tag":{"amenity":"recycling","recycling:glass":"yes","recycling_type":"container"}},"type":"Feature"},
	{"geometry":{"coordinates":[4.345736,45.463782],"type":"Point"},"properties":{"osm_id":"4907280104","tag":{"amenity":"recycling","operator":"Chrysalide Ressourcerie","recycling:clothes":"yes","recycling:shoes":"yes","recycling_type":"container"}},"type":"Feature"},
	{"geometry":{"coordinates":[4.352855,45.466419],"type":"Point"},"properties":{"osm_id":"4908897522","tag":{"amenity":"recycling","recycling:cans":"no","recycling:glass":"yes","recycling_type":"container"}},"type":"Feature"},
	{"geometry":{"coordinates":[4.377817,45.467758],"type":"Point"},"properties":{"osm_id":"4917178084","tag":{"amenity":"recycling","recycling:glass":"yes","recycling_type":"container"}},"type":"Feature"},
	{"geometry":{"coordinates":[4.38099,45.467502],"type":"Point"},"properties":{"osm_id":"5650070624","tag":{"amenity":"recycling","recycling:glass":"yes","recycling:glass_bottles":"yes","recycling_type":"container"}},"type":"Feature"},
	{"geometry":{"coordinates":[4.381038,45.468687],"type":"Point"},"properties":{"osm_id":"5650070625","tag":{"amenity":"recycling","recycling:glass":"yes","recycling:glass_bottles":"yes","recycling_type":"container"}},"type":"Feature"},
	{"geometry":{"coordinates":[4.36707,45.46551],"type":"Point"},"properties":{"osm_id":"5840207589","tag":{"amenity":"recycling","recycling:glass":"yes","recycling_type":"container"}},"type":"Feature"},
	{"geometry":{"coordinates":[4.36344,45.466693],"type":"Point"},"properties":{"osm_id":"5840208285","tag":{"amenity":"recycling","recycling:glass":"yes","recycling_type":"container"}},"type":"Feature"},
	{"geometry":{"coordinates":[4.360655,45.469825],"type":"Point"},"properties":{"osm_id":"5840222174","tag":{"amenity":"recycling","recycling:glass":"yes","recycling_type":"container"}},"type":"Feature"},
	{"geometry":{"coordinates":[4.368842,45.46552],"type":"Point"},"properties":{"osm_id":"5923653664","tag":{"amenity":"recycling","recycling:glass":"yes","recycling_type":"container"}},"type":"Feature"},
	{"geometry":{"coordinates":[4.353365,45.469024],"type":"Point"},"properties":{"osm_id":"6219115712","tag":{"amenity":"recycling","recycling:green_waste":"yes","recycling:organic":"yes","recycling_type":"container"}},"type":"Feature"}
]
}
