{
"type": "FeatureCollection",
"features": [
	{"geometry":{"coordinates":[4.372254,44.694994],"type":"Point"},"properties":{"name":"Huiletic","osm_id":"1624533030","tag":{"amenity":"recycling","brand":"Gecco","description":"collecte et recyclage des huiles de friture","email":"huiletic@gecco.fr","recycling_type":"centre"}},"type":"Feature"},
	{"geometry":{"coordinates":[4.367707,44.687724],"type":"Point"},"properties":{"osm_id":"1841483969","tag":{"amenity":"recycling","recycling_type":"container"}},"type":"Feature"},
	{"geometry":{"coordinates":[4.365749,44.665632],"type":"Point"},"properties":{"osm_id":"1842743251","tag":{"amenity":"recycling","recycling_type":"container"}},"type":"Feature"},
	{"geometry":{"coordinates":[4.307261,44.71104],"type":"Point"},"properties":{"osm_id":"2203088532","tag":{"amenity":"recycling","recycling:cans":"yes","recycling:glass":"yes","recycling:paper":"yes","recycling_type":"container"}},"type":"Feature"},
	{"geometry":{"coordinates":[4.367981,44.659434],"type":"Point"},"properties":{"osm_id":"4322907880","tag":{"amenity":"recycling"}},"type":"Feature"},
	{"geometry":{"coordinates":[4.368807,44.656023],"type":"Point"},"properties":{"osm_id":"4322907883","tag":{"amenity":"recycling"}},"type":"Feature"}
]
}
