{
"type": "FeatureCollection",
"features": [
	{"geometry":{"coordinates":[4.370587,43.842305],"type":"Point"},"properties":{"osm_id":"462459082","tag":{"amenity":"recycling","recycling:glass":"yes"}},"type":"Feature"},
	{"geometry":{"coordinates":[4.366395,43.841147],"type":"Point"},"properties":{"osm_id":"463744722","tag":{"amenity":"recycling","mapillary":"vmcFlfr5JDX4GWotnKB9ZA","recycling:glass":"yes","recycling_type":"container","survey:date":"2018-10-05"}},"type":"Feature"},
	{"geometry":{"coordinates":[4.377488,43.8451],"type":"Point"},"properties":{"osm_id":"472349855","tag":{"amenity":"recycling","recycling:glass":"yes"}},"type":"Feature"},
	{"geometry":{"coordinates":[4.371003,43.843845],"type":"Point"},"properties":{"osm_id":"476028586","tag":{"amenity":"recycling","recycling:glass":"yes"}},"type":"Feature"},
	{"geometry":{"coordinates":[4.361829,43.848153],"type":"Point"},"properties":{"osm_id":"477946312","tag":{"amenity":"recycling","recycling:glass":"yes"}},"type":"Feature"},
	{"geometry":{"coordinates":[4.386005,43.848593],"type":"Point"},"properties":{"osm_id":"482734054","tag":{"amenity":"recycling","recycling:glass":"yes"}},"type":"Feature"},
	{"geometry":{"coordinates":[4.364764,43.844683],"type":"Point"},"properties":{"osm_id":"495106540","tag":{"amenity":"recycling","recycling:clothes":"yes","recycling:glass":"yes","recycling_type":"container"}},"type":"Feature"},
	{"geometry":{"coordinates":[4.359482,43.85576],"type":"Point"},"properties":{"osm_id":"508540927","tag":{"amenity":"recycling","recycling:glass":"yes","recycling:glass_bottles":"yes","recycling_type":"container"}},"type":"Feature"},
	{"geometry":{"coordinates":[4.328978,43.837298],"type":"Point"},"properties":{"osm_id":"510814524","tag":{"amenity":"recycling","recycling:glass":"yes","recycling_type":"container"}},"type":"Feature"},
	{"geometry":{"coordinates":[4.344532,43.837949],"type":"Point"},"properties":{"osm_id":"510818178","tag":{"amenity":"recycling","recycling:glass":"yes","recycling_type":"container"}},"type":"Feature"},
	{"geometry":{"coordinates":[4.371732,43.836916],"type":"Point"},"properties":{"osm_id":"558894514","tag":{"amenity":"recycling","recycling:glass":"yes","recycling_type":"container"}},"type":"Feature"},
	{"geometry":{"coordinates":[4.388824,43.847152],"type":"Point"},"properties":{"osm_id":"560814527","tag":{"amenity":"recycling","recycling:glass":"yes","recycling_type":"container"}},"type":"Feature"},
	{"geometry":{"coordinates":[4.377014,43.841786],"type":"Point"},"properties":{"osm_id":"560815075","tag":{"amenity":"recycling","recycling:glass":"yes","recycling:glass_bottles":"yes","recycling_type":"container"}},"type":"Feature"},
	{"geometry":{"coordinates":[4.340644,43.841089],"type":"Point"},"properties":{"osm_id":"567101654","tag":{"amenity":"recycling","recycling:glass":"yes","recycling_type":"container"}},"type":"Feature"},
	{"geometry":{"coordinates":[4.373487,43.848772],"type":"Point"},"properties":{"osm_id":"571966646","tag":{"amenity":"recycling","recycling:glass":"yes"}},"type":"Feature"},
	{"geometry":{"coordinates":[4.378552,43.852925],"type":"Point"},"properties":{"osm_id":"571978187","tag":{"amenity":"recycling","recycling:glass":"yes","recycling_type":"container"}},"type":"Feature"},
	{"geometry":{"coordinates":[4.379539,43.855623],"type":"Point"},"properties":{"osm_id":"571991954","tag":{"amenity":"recycling","recycling:clothes":"yes","recycling:glass":"yes","recycling:glass_bottles":"yes","recycling_type":"container"}},"type":"Feature"},
	{"geometry":{"coordinates":[4.381165,43.854062],"type":"Point"},"properties":{"osm_id":"571998869","tag":{"amenity":"recycling","recycling:glass":"yes","recycling_type":"container"}},"type":"Feature"},
	{"geometry":{"coordinates":[4.369427,43.850127],"type":"Point"},"properties":{"osm_id":"572003782","tag":{"amenity":"recycling","recycling:glass":"yes","recycling:glass_bottles":"yes","recycling_type":"container"}},"type":"Feature"},
	{"geometry":{"coordinates":[4.381467,43.847088],"type":"Point"},"properties":{"osm_id":"583297126","tag":{"amenity":"recycling","recycling:glass":"yes","recycling:glass_bottles":"yes","recycling_type":"container"}},"type":"Feature"},
	{"geometry":{"coordinates":[4.389559,43.849923],"type":"Point"},"properties":{"osm_id":"583297868","tag":{"amenity":"recycling","recycling:glass":"yes"}},"type":"Feature"},
	{"geometry":{"coordinates":[4.386544,43.852996],"type":"Point"},"properties":{"osm_id":"583297870","tag":{"amenity":"recycling","recycling:glass":"yes","recycling:glass_bottles":"yes","recycling_type":"container"}},"type":"Feature"},
	{"geometry":{"coordinates":[4.388995,43.856632],"type":"Point"},"properties":{"osm_id":"583298340","tag":{"amenity":"recycling","recycling:glass":"yes"}},"type":"Feature"},
	{"geometry":{"coordinates":[4.394251,43.853233],"type":"Point"},"properties":{"osm_id":"583298346","tag":{"amenity":"recycling","recycling:glass":"yes","recycling:glass_bottles":"yes","recycling_type":"container"}},"type":"Feature"},
	{"geometry":{"coordinates":[4.37241,43.840552],"type":"Point"},"properties":{"osm_id":"639615296","tag":{"amenity":"recycling","recycling:glass":"yes"}},"type":"Feature"},
	{"geometry":{"coordinates":[4.385216,43.837136],"type":"Point"},"properties":{"osm_id":"661212567","tag":{"amenity":"recycling","recycling:glass":"yes","recycling:glass_bottles":"yes","recycling_type":"container"}},"type":"Feature"},
	{"geometry":{"coordinates":[4.336549,43.836432],"type":"Point"},"properties":{"osm_id":"665607407","tag":{"amenity":"recycling","recycling:glass":"yes"}},"type":"Feature"},
	{"geometry":{"coordinates":[4.349017,43.846134],"type":"Point"},"properties":{"osm_id":"3665927810","tag":{"amenity":"recycling","recycling:glass":"yes","recycling_type":"container"}},"type":"Feature"},
	{"geometry":{"coordinates":[4.349016,43.846166],"type":"Point"},"properties":{"osm_id":"3665927811","tag":{"amenity":"recycling","recycling:clothes":"yes","recycling_type":"container"}},"type":"Feature"},
	{"geometry":{"coordinates":[4.349868,43.848678],"type":"Point"},"properties":{"osm_id":"3665927813","tag":{"amenity":"recycling","recycling:glass":"yes","recycling_type":"container"}},"type":"Feature"},
	{"geometry":{"coordinates":[4.365405,43.836835],"type":"Point"},"properties":{"osm_id":"3714210160","tag":{"amenity":"waste_basket"}},"type":"Feature"},
	{"geometry":{"coordinates":[4.365634,43.836901],"type":"Point"},"properties":{"osm_id":"3714210161","tag":{"amenity":"waste_basket"}},"type":"Feature"},
	{"geometry":{"coordinates":[4.365785,43.836964],"type":"Point"},"properties":{"osm_id":"3714210162","tag":{"amenity":"waste_basket"}},"type":"Feature"},
	{"geometry":{"coordinates":[4.365186,43.837111],"type":"Point"},"properties":{"osm_id":"3714210163","tag":{"amenity":"recycling","recycling:glass":"yes","recycling_type":"container"}},"type":"Feature"},
	{"geometry":{"coordinates":[4.364681,43.836712],"type":"Point"},"properties":{"osm_id":"3714296831","tag":{"amenity":"waste_basket"}},"type":"Feature"},
	{"geometry":{"coordinates":[4.364918,43.837149],"type":"Point"},"properties":{"osm_id":"3714296833","tag":{"amenity":"waste_basket"}},"type":"Feature"},
	{"geometry":{"coordinates":[4.366028,43.837195],"type":"Point"},"properties":{"osm_id":"3714296834","tag":{"amenity":"recycling","recycling:glass":"yes","recycling_type":"container"}},"type":"Feature"},
	{"geometry":{"coordinates":[4.365627,43.840282],"type":"Point"},"properties":{"osm_id":"4414784621","tag":{"amenity":"recycling","recycling:glass":"yes","recycling_type":"container"}},"type":"Feature"},
	{"geometry":{"coordinates":[4.387365,43.839726],"type":"Point"},"properties":{"osm_id":"5425655657","tag":{"amenity":"waste_basket"}},"type":"Feature"},
	{"geometry":{"coordinates":[4.369292,43.845119],"type":"Point"},"properties":{"osm_id":"5454895351","tag":{"amenity":"waste_basket"}},"type":"Feature"},
	{"geometry":{"coordinates":[4.368391,43.844742],"type":"Point"},"properties":{"osm_id":"5454895356","tag":{"amenity":"waste_basket"}},"type":"Feature"},
	{"geometry":{"coordinates":[4.368514,43.845512],"type":"Point"},"properties":{"osm_id":"5454895359","tag":{"amenity":"waste_basket"}},"type":"Feature"},
	{"geometry":{"coordinates":[4.368449,43.845541],"type":"Point"},"properties":{"osm_id":"5454895360","tag":{"amenity":"waste_basket"}},"type":"Feature"},
	{"geometry":{"coordinates":[4.368289,43.845353],"type":"Point"},"properties":{"osm_id":"5454895361","tag":{"amenity":"waste_basket"}},"type":"Feature"},
	{"geometry":{"coordinates":[4.367823,43.846643],"type":"Point"},"properties":{"osm_id":"5454895367","tag":{"amenity":"waste_basket"}},"type":"Feature"},
	{"geometry":{"coordinates":[4.368035,43.84664],"type":"Point"},"properties":{"osm_id":"5454895369","tag":{"amenity":"waste_basket"}},"type":"Feature"},
	{"geometry":{"coordinates":[4.368014,43.846739],"type":"Point"},"properties":{"osm_id":"5454895370","tag":{"amenity":"waste_basket"}},"type":"Feature"},
	{"geometry":{"coordinates":[4.36825,43.846644],"type":"Point"},"properties":{"osm_id":"5454895371","tag":{"amenity":"waste_basket"}},"type":"Feature"},
	{"geometry":{"coordinates":[4.36816,43.846745],"type":"Point"},"properties":{"osm_id":"5454895372","tag":{"amenity":"waste_basket"}},"type":"Feature"},
	{"geometry":{"coordinates":[4.370998,43.845411],"type":"Point"},"properties":{"osm_id":"5454895375","tag":{"amenity":"waste_basket"}},"type":"Feature"},
	{"geometry":{"coordinates":[4.370724,43.845535],"type":"Point"},"properties":{"osm_id":"5454895377","tag":{"amenity":"waste_basket"}},"type":"Feature"},
	{"geometry":{"coordinates":[4.369622,43.846029],"type":"Point"},"properties":{"osm_id":"5454895379","tag":{"amenity":"waste_basket"}},"type":"Feature"},
	{"geometry":{"coordinates":[4.3694,43.846127],"type":"Point"},"properties":{"osm_id":"5454895381","tag":{"amenity":"waste_basket"}},"type":"Feature"},
	{"geometry":{"coordinates":[4.368709,43.84644],"type":"Point"},"properties":{"osm_id":"5454895384","tag":{"amenity":"waste_basket"}},"type":"Feature"},
	{"geometry":{"coordinates":[4.368613,43.846482],"type":"Point"},"properties":{"osm_id":"5454895386","tag":{"amenity":"waste_basket"}},"type":"Feature"},
	{"geometry":{"coordinates":[4.368427,43.846565],"type":"Point"},"properties":{"osm_id":"5454895387","tag":{"amenity":"waste_basket"}},"type":"Feature"},
	{"geometry":{"coordinates":[4.368333,43.846608],"type":"Point"},"properties":{"osm_id":"5454895389","tag":{"amenity":"waste_basket"}},"type":"Feature"},
	{"geometry":{"coordinates":[4.370387,43.834585],"type":"Point"},"properties":{"osm_id":"5497658277","tag":{"amenity":"waste_basket"}},"type":"Feature"},
	{"geometry":{"coordinates":[4.370251,43.834735],"type":"Point"},"properties":{"osm_id":"5497658280","tag":{"amenity":"waste_basket"}},"type":"Feature"},
	{"geometry":{"coordinates":[4.370038,43.834968],"type":"Point"},"properties":{"osm_id":"5497658283","tag":{"amenity":"waste_basket"}},"type":"Feature"},
	{"geometry":{"coordinates":[4.335489,43.858879],"type":"Point"},"properties":{"osm_id":"5551482761","tag":{"amenity":"waste_basket"}},"type":"Feature"},
	{"geometry":{"coordinates":[4.335552,43.85909],"type":"Point"},"properties":{"osm_id":"5551482762","tag":{"amenity":"waste_basket"}},"type":"Feature"},
	{"geometry":{"coordinates":[4.334535,43.838937],"type":"Point"},"properties":{"osm_id":"5553227135","tag":{"amenity":"waste_basket"}},"type":"Feature"},
	{"geometry":{"coordinates":[4.337358,43.836686],"type":"Point"},"properties":{"osm_id":"5559383239","tag":{"amenity":"waste_basket"}},"type":"Feature"},
	{"geometry":{"coordinates":[4.377661,43.839469],"type":"Point"},"properties":{"osm_id":"5564567875","tag":{"amenity":"waste_basket"}},"type":"Feature"},
	{"geometry":{"coordinates":[4.391363,43.844587],"type":"Point"},"properties":{"osm_id":"5592707731","tag":{"amenity":"waste_basket"}},"type":"Feature"},
	{"geometry":{"coordinates":[4.346866,43.863399],"type":"Point"},"properties":{"osm_id":"5596118674","tag":{"amenity":"recycling","recycling:glass":"yes","recycling:glass_bottles":"yes","recycling_type":"container"}},"type":"Feature"},
	{"geometry":{"coordinates":[4.309299,43.862065],"type":"Point"},"properties":{"osm_id":"5596120278","tag":{"amenity":"recycling","recycling:glass":"yes","recycling:glass_bottles":"yes","recycling_type":"container"}},"type":"Feature"},
	{"geometry":{"coordinates":[4.361842,43.866888],"type":"Point"},"properties":{"osm_id":"5600358245","tag":{"amenity":"recycling","recycling:glass":"yes","recycling:glass_bottles":"yes","recycling_type":"container"}},"type":"Feature"},
	{"geometry":{"coordinates":[4.308201,43.844408],"type":"Point"},"properties":{"osm_id":"5600358264","tag":{"amenity":"recycling","recycling:glass":"yes","recycling:glass_bottles":"yes","recycling_type":"container"}},"type":"Feature"},
	{"geometry":{"coordinates":[4.340831,43.857793],"type":"Point"},"properties":{"osm_id":"5663879296","tag":{"amenity":"recycling","recycling:glass":"yes","recycling:glass_bottles":"yes","recycling_type":"container"}},"type":"Feature"},
	{"geometry":{"coordinates":[4.32097,43.838571],"type":"Point"},"properties":{"osm_id":"5692905679","tag":{"amenity":"waste_basket"}},"type":"Feature"},
	{"geometry":{"coordinates":[4.320977,43.838686],"type":"Point"},"properties":{"osm_id":"5692905682","tag":{"amenity":"waste_basket"}},"type":"Feature"},
	{"geometry":{"coordinates":[4.320779,43.83874],"type":"Point"},"properties":{"osm_id":"5692905685","tag":{"amenity":"recycling","recycling:glass":"yes","recycling:glass_bottles":"yes","recycling_type":"container"}},"type":"Feature"},
	{"geometry":{"coordinates":[4.350791,43.836531],"type":"Point"},"properties":{"osm_id":"5736877216","tag":{"amenity":"recycling","recycling:glass":"yes","recycling:glass_bottles":"yes","recycling_type":"container"}},"type":"Feature"},
	{"geometry":{"coordinates":[4.329868,43.843387],"type":"Point"},"properties":{"osm_id":"5972523053","tag":{"amenity":"recycling","recycling:glass":"yes","recycling:glass_bottles":"yes","recycling_type":"container"}},"type":"Feature"},
	{"geometry":{"coordinates":[4.360658,43.836497],"type":"Point"},"properties":{"osm_id":"6054593724","tag":{"amenity":"waste_basket"}},"type":"Feature"},
	{"geometry":{"coordinates":[4.367971,43.846798],"type":"Point"},"properties":{"osm_id":"6068758740","tag":{"amenity":"recycling","recycling:glass":"yes","recycling_type":"container"}},"type":"Feature"},
	{"geometry":{"coordinates":[4.343691,43.841536],"type":"Point"},"properties":{"osm_id":"6126831725","tag":{"amenity":"waste_basket"}},"type":"Feature"},
	{"geometry":{"coordinates":[4.33523,43.845036],"type":"Point"},"properties":{"osm_id":"6126831749","tag":{"amenity":"waste_basket"}},"type":"Feature"},
	{"geometry":{"coordinates":[4.335217,43.845046],"type":"Point"},"properties":{"osm_id":"6126831750","tag":{"amenity":"recycling","recycling:glass":"yes","recycling:glass_bottles":"yes","recycling_type":"container"}},"type":"Feature"},
	{"geometry":{"coordinates":[4.335951,43.844704],"type":"Point"},"properties":{"osm_id":"6126831755","tag":{"amenity":"waste_basket"}},"type":"Feature"},
	{"geometry":{"coordinates":[4.358984,43.837272],"type":"Point"},"properties":{"osm_id":"6126832486","tag":{"amenity":"waste_basket"}},"type":"Feature"},
	{"geometry":{"coordinates":[4.334632,43.843343],"type":"Point"},"properties":{"osm_id":"6131470560","tag":{"amenity":"recycling","recycling:glass":"yes","recycling:glass_bottles":"yes","recycling_type":"container"}},"type":"Feature"},
	{"geometry":{"coordinates":[4.388126,43.843046],"type":"Point"},"properties":{"osm_id":"6131507707","tag":{"amenity":"waste_basket"}},"type":"Feature"},
	{"geometry":{"coordinates":[4.373095,43.84739],"type":"Point"},"properties":{"osm_id":"6131507719","tag":{"amenity":"waste_basket"}},"type":"Feature"},
	{"geometry":{"coordinates":[4.361568,43.836357],"type":"Point"},"properties":{"osm_id":"6131671181","tag":{"amenity":"waste_basket"}},"type":"Feature"},
	{"geometry":{"coordinates":[4.357537,43.840422],"type":"Point"},"properties":{"osm_id":"6140642336","tag":{"amenity":"waste_basket"}},"type":"Feature"},
	{"geometry":{"coordinates":[4.387457,43.844963],"type":"Point"},"properties":{"osm_id":"6145663584","tag":{"amenity":"recycling","recycling:glass":"yes","recycling:glass_bottles":"yes","recycling_type":"container"}},"type":"Feature"},
	{"geometry":{"coordinates":[4.371067,43.845033],"type":"Point"},"properties":{"osm_id":"6145667267","tag":{"amenity":"waste_basket"}},"type":"Feature"},
	{"geometry":{"coordinates":[4.354562,43.838871],"type":"Point"},"properties":{"osm_id":"6148409584","tag":{"amenity":"waste_basket"}},"type":"Feature"},
	{"geometry":{"coordinates":[4.383477,43.848567],"type":"Point"},"properties":{"osm_id":"6148465783","tag":{"amenity":"waste_basket"}},"type":"Feature"},
	{"geometry":{"coordinates":[4.366248,43.836111],"type":"Point"},"properties":{"osm_id":"6152585425","tag":{"amenity":"waste_basket","waste":"trash"}},"type":"Feature"},
	{"geometry":{"coordinates":[4.358192,43.834851],"type":"Point"},"properties":{"osm_id":"6436591661","tag":{"amenity":"waste_basket"}},"type":"Feature"},
	{"geometry":{"coordinates":[4.358483,43.835334],"type":"Point"},"properties":{"osm_id":"6436596036","tag":{"amenity":"waste_basket"}},"type":"Feature"},
	{"geometry":{"coordinates":[4.358409,43.835208],"type":"Point"},"properties":{"osm_id":"6436596037","tag":{"amenity":"recycling","recycling_type":"container"}},"type":"Feature"},
	{"geometry":{"coordinates":[4.358739,43.836258],"type":"Point"},"properties":{"osm_id":"6436596189","tag":{"amenity":"waste_basket"}},"type":"Feature"},
	{"geometry":{"coordinates":[4.358394,43.83525],"type":"Point"},"properties":{"osm_id":"6436596193","tag":{"amenity":"waste_basket"}},"type":"Feature"},
	{"geometry":{"coordinates":[4.363878,43.847161],"type":"Point"},"properties":{"osm_id":"6652339278","tag":{"amenity":"waste_basket","colour":"green","material":"metal"}},"type":"Feature"},
	{"geometry":{"coordinates":[4.387668,43.83596],"type":"Point"},"properties":{"osm_id":"7256734627","tag":{"amenity":"recycling","recycling:glass":"yes","recycling_type":"container"}},"type":"Feature"},
	{"geometry":{"coordinates":[4.341798,43.853194],"type":"Point"},"properties":{"osm_id":"7260554971","tag":{"amenity":"recycling","recycling:glass":"yes","recycling_type":"container"}},"type":"Feature"},
	{"geometry":{"coordinates":[4.32524,43.851306],"type":"Point"},"properties":{"osm_id":"7265089672","tag":{"amenity":"recycling","recycling:glass":"yes","recycling_type":"container"}},"type":"Feature"},
	{"geometry":{"coordinates":[4.387376,43.839595],"type":"Point"},"properties":{"osm_id":"7265425736","tag":{"amenity":"recycling","recycling:glass":"yes","recycling:paper":"yes","recycling_type":"container"}},"type":"Feature"},
	{"geometry":{"coordinates":[4.36652,43.835108],"type":"Point"},"properties":{"osm_id":"7265438869","tag":{"amenity":"recycling","recycling:glass":"yes","recycling_type":"container"}},"type":"Feature"},
	{"geometry":{"coordinates":[4.346178,43.83642],"type":"Point"},"properties":{"osm_id":"7265603253","tag":{"amenity":"recycling","recycling:glass":"yes","recycling_type":"container"}},"type":"Feature"},
	{"geometry":{"coordinates":[4.379197,43.866663],"type":"Point"},"properties":{"osm_id":"7270874658","tag":{"amenity":"recycling","recycling:glass":"yes","recycling_type":"container"}},"type":"Feature"},
	{"geometry":{"coordinates":[4.362793,43.871056],"type":"Point"},"properties":{"osm_id":"7273288093","tag":{"amenity":"recycling","recycling:glass":"yes","recycling_type":"container"}},"type":"Feature"},
	{"geometry":{"coordinates":[4.319568,43.862872],"type":"Point"},"properties":{"osm_id":"7290064807","tag":{"amenity":"recycling","recycling:glass":"yes","recycling:glass_bottles":"yes","recycling_type":"container"}},"type":"Feature"},
	{"geometry":{"coordinates":[4.361261,43.845246],"type":"Point"},"properties":{"osm_id":"7400510623","tag":{"amenity":"recycling","recycling:glass":"yes","recycling_type":"container"}},"type":"Feature"},
	{"geometry":{"coordinates":[4.383505,43.836209],"type":"Point"},"properties":{"osm_id":"7576466321","tag":{"amenity":"recycling","recycling:glass":"yes","recycling:glass_bottles":"yes","recycling_type":"container"}},"type":"Feature"},
	{"geometry":{"coordinates":[4.351052,43.838077],"type":"Point"},"properties":{"osm_id":"7675033529","tag":{"amenity":"recycling","recycling:glass":"yes","recycling:glass_bottles":"yes","recycling_type":"container"}},"type":"Feature"}
]
}
