{
"type": "FeatureCollection",
"features": [
	{"geometry":{"coordinates":[4.375181,43.832311],"type":"Point"},"properties":{"osm_id":"476665806","tag":{"amenity":"recycling","recycling:glass":"yes"}},"type":"Feature"},
	{"geometry":{"coordinates":[4.362402,43.822248],"type":"Point"},"properties":{"osm_id":"539656359","tag":{"amenity":"recycling","recycling:glass":"yes","recycling_type":"container"}},"type":"Feature"},
	{"geometry":{"coordinates":[4.351686,43.823444],"type":"Point"},"properties":{"osm_id":"549760835","tag":{"amenity":"recycling","recycling:glass":"yes","recycling:glass_bottles":"yes","recycling_type":"container"}},"type":"Feature"},
	{"geometry":{"coordinates":[4.352843,43.825752],"type":"Point"},"properties":{"osm_id":"549760837","tag":{"amenity":"recycling","recycling:glass":"yes"}},"type":"Feature"},
	{"geometry":{"coordinates":[4.351752,43.787913],"type":"Point"},"properties":{"osm_id":"559613520","tag":{"amenity":"recycling","recycling:glass":"yes"}},"type":"Feature"},
	{"geometry":{"coordinates":[4.380193,43.832777],"type":"Point"},"properties":{"osm_id":"560802922","tag":{"amenity":"recycling","recycling:glass":"yes","recycling_type":"container"}},"type":"Feature"},
	{"geometry":{"coordinates":[4.372975,43.826483],"type":"Point"},"properties":{"osm_id":"561274776","tag":{"amenity":"recycling","recycling:glass":"yes","recycling_type":"container"}},"type":"Feature"},
	{"geometry":{"coordinates":[4.375209,43.817303],"type":"Point"},"properties":{"osm_id":"561283450","tag":{"amenity":"recycling","recycling:glass":"yes","recycling:glass_bottles":"yes","recycling_type":"container"}},"type":"Feature"},
	{"geometry":{"coordinates":[4.353072,43.832159],"type":"Point"},"properties":{"osm_id":"563880127","tag":{"amenity":"recycling","recycling:glass":"yes"}},"type":"Feature"},
	{"geometry":{"coordinates":[4.35253,43.830598],"type":"Point"},"properties":{"osm_id":"563884381","tag":{"amenity":"recycling","mapillary":"_mdSeN9il6yzndMqZ1V-Qw","recycling:glass":"yes","recycling_type":"container","survey:date":"2018-09-01"}},"type":"Feature"},
	{"geometry":{"coordinates":[4.339823,43.832246],"type":"Point"},"properties":{"osm_id":"567513925","tag":{"amenity":"recycling","recycling:glass":"yes"}},"type":"Feature"},
	{"geometry":{"coordinates":[4.348714,43.827734],"type":"Point"},"properties":{"osm_id":"567514274","tag":{"amenity":"recycling","recycling:glass":"yes"}},"type":"Feature"},
	{"geometry":{"coordinates":[4.347878,43.832425],"type":"Point"},"properties":{"osm_id":"571518035","tag":{"amenity":"recycling","recycling:glass":"yes"}},"type":"Feature"},
	{"geometry":{"coordinates":[4.382819,43.825477],"type":"Point"},"properties":{"osm_id":"581047240","tag":{"amenity":"recycling","recycling:glass":"yes","recycling_type":"container"}},"type":"Feature"},
	{"geometry":{"coordinates":[4.381591,43.826346],"type":"Point"},"properties":{"osm_id":"581047246","tag":{"amenity":"recycling","recycling:glass":"yes","recycling_type":"container"}},"type":"Feature"},
	{"geometry":{"coordinates":[4.379119,43.825109],"type":"Point"},"properties":{"osm_id":"581048372","tag":{"amenity":"recycling","location":"overground","recycling:glass":"yes","recycling_type":"container"}},"type":"Feature"},
	{"geometry":{"coordinates":[4.352843,43.816997],"type":"Point"},"properties":{"osm_id":"614587508","tag":{"amenity":"recycling","recycling:glass":"yes","recycling:glass_bottles":"yes","recycling_type":"container"}},"type":"Feature"},
	{"geometry":{"coordinates":[4.326782,43.824482],"type":"Point"},"properties":{"osm_id":"765316766","tag":{"amenity":"recycling","recycling:clothes":"yes"}},"type":"Feature"},
	{"geometry":{"coordinates":[4.348578,43.833505],"type":"Point"},"properties":{"osm_id":"1048612406","tag":{"amenity":"recycling","recycling:glass":"yes","recycling_type":"container"}},"type":"Feature"},
	{"geometry":{"coordinates":[4.319077,43.821398],"type":"Point"},"properties":{"osm_id":"3370485637","tag":{"amenity":"recycling","recycling:glass":"yes","recycling_type":"container"}},"type":"Feature"},
	{"geometry":{"coordinates":[4.352416,43.824226],"type":"Point"},"properties":{"osm_id":"3714144724","tag":{"amenity":"waste_basket"}},"type":"Feature"},
	{"geometry":{"coordinates":[4.366031,43.818977],"type":"Point"},"properties":{"osm_id":"3714336536","tag":{"amenity":"waste_basket"}},"type":"Feature"},
	{"geometry":{"coordinates":[4.36195,43.826597],"type":"Point"},"properties":{"osm_id":"3714336539","tag":{"amenity":"waste_basket"}},"type":"Feature"},
	{"geometry":{"coordinates":[4.364219,43.82777],"type":"Point"},"properties":{"osm_id":"3714336542","tag":{"amenity":"recycling","recycling:glass":"yes","recycling_type":"container"}},"type":"Feature"},
	{"geometry":{"coordinates":[4.353457,43.82701],"type":"Point"},"properties":{"osm_id":"4104963672","tag":{"amenity":"waste_basket"}},"type":"Feature"},
	{"geometry":{"coordinates":[4.353615,43.827072],"type":"Point"},"properties":{"osm_id":"4104963674","tag":{"amenity":"waste_basket"}},"type":"Feature"},
	{"geometry":{"coordinates":[4.352503,43.829379],"type":"Point"},"properties":{"osm_id":"4104963679","tag":{"amenity":"waste_basket"}},"type":"Feature"},
	{"geometry":{"coordinates":[4.352257,43.831593],"type":"Point"},"properties":{"osm_id":"4104963680","tag":{"amenity":"recycling","recycling:glass":"yes","recycling_type":"container"}},"type":"Feature"},
	{"geometry":{"coordinates":[4.352143,43.831937],"type":"Point"},"properties":{"osm_id":"4104963682","tag":{"amenity":"waste_basket"}},"type":"Feature"},
	{"geometry":{"coordinates":[4.357768,43.833701],"type":"Point"},"properties":{"osm_id":"4104977593","tag":{"amenity":"recycling","recycling_type":"container"}},"type":"Feature"},
	{"geometry":{"coordinates":[4.35779,43.833709],"type":"Point"},"properties":{"osm_id":"4104977594","tag":{"amenity":"waste_basket"}},"type":"Feature"},
	{"geometry":{"coordinates":[4.35706,43.829248],"type":"Point"},"properties":{"osm_id":"4140804015","tag":{"amenity":"waste_basket"}},"type":"Feature"},
	{"geometry":{"coordinates":[4.346989,43.785644],"type":"Point"},"properties":{"osm_id":"4239934209","tag":{"amenity":"waste_basket"}},"type":"Feature"},
	{"geometry":{"coordinates":[4.327058,43.820181],"type":"Point"},"properties":{"osm_id":"4309746490","tag":{"amenity":"waste_basket"}},"type":"Feature"},
	{"geometry":{"coordinates":[4.327168,43.820459],"type":"Point"},"properties":{"osm_id":"4309746491","tag":{"amenity":"waste_basket"}},"type":"Feature"},
	{"geometry":{"coordinates":[4.327037,43.820918],"type":"Point"},"properties":{"osm_id":"4309764191","tag":{"amenity":"waste_basket"}},"type":"Feature"},
	{"geometry":{"coordinates":[4.327567,43.819826],"type":"Point"},"properties":{"osm_id":"4309852490","tag":{"amenity":"waste_basket"}},"type":"Feature"},
	{"geometry":{"coordinates":[4.349954,43.832248],"type":"Point"},"properties":{"osm_id":"4430713744","tag":{"amenity":"recycling","recycling:glass":"yes","recycling_type":"container"}},"type":"Feature"},
	{"geometry":{"coordinates":[4.319875,43.829478],"type":"Point"},"properties":{"osm_id":"5272163767","tag":{"amenity":"recycling","recycling:glass":"yes","recycling:glass_bottles":"yes","recycling_type":"container"}},"type":"Feature"},
	{"geometry":{"coordinates":[4.309618,43.787149],"type":"Point"},"properties":{"osm_id":"5299237583","tag":{"amenity":"recycling","recycling:glass":"yes","recycling:glass_bottles":"yes","recycling:paper":"no","recycling:plastic":"yes","recycling:plastic_bottles":"yes","recycling:plastic_packaging":"yes","recycling_type":"container"}},"type":"Feature"},
	{"geometry":{"coordinates":[4.378289,43.794476],"type":"Point"},"properties":{"osm_id":"5393296200","tag":{"amenity":"waste_basket"}},"type":"Feature"},
	{"geometry":{"coordinates":[4.319667,43.795744],"type":"Point"},"properties":{"osm_id":"5433773865","tag":{"amenity":"waste_basket"}},"type":"Feature"},
	{"geometry":{"coordinates":[4.358551,43.824403],"type":"Point"},"properties":{"osm_id":"5493807069","tag":{"amenity":"waste_basket"}},"type":"Feature"},
	{"geometry":{"coordinates":[4.329189,43.830476],"type":"Point"},"properties":{"osm_id":"5497454660","tag":{"amenity":"waste_basket"}},"type":"Feature"},
	{"geometry":{"coordinates":[4.371013,43.833905],"type":"Point"},"properties":{"osm_id":"5497658269","tag":{"amenity":"waste_basket"}},"type":"Feature"},
	{"geometry":{"coordinates":[4.370883,43.834053],"type":"Point"},"properties":{"osm_id":"5497658270","tag":{"amenity":"waste_basket"}},"type":"Feature"},
	{"geometry":{"coordinates":[4.370739,43.834224],"type":"Point"},"properties":{"osm_id":"5497658274","tag":{"amenity":"waste_basket"}},"type":"Feature"},
	{"geometry":{"coordinates":[4.370562,43.834391],"type":"Point"},"properties":{"osm_id":"5497658275","tag":{"amenity":"waste_basket"}},"type":"Feature"},
	{"geometry":{"coordinates":[4.327081,43.828246],"type":"Point"},"properties":{"osm_id":"5498630287","tag":{"amenity":"waste_basket"}},"type":"Feature"},
	{"geometry":{"coordinates":[4.327475,43.828033],"type":"Point"},"properties":{"osm_id":"5498630318","tag":{"amenity":"recycling","recycling:glass":"yes","recycling:glass_bottles":"yes","recycling_type":"container"}},"type":"Feature"},
	{"geometry":{"coordinates":[4.327349,43.827764],"type":"Point"},"properties":{"osm_id":"5498630320","tag":{"amenity":"waste_basket"}},"type":"Feature"},
	{"geometry":{"coordinates":[4.32681,43.827425],"type":"Point"},"properties":{"osm_id":"5498630440","tag":{"amenity":"waste_basket"}},"type":"Feature"},
	{"geometry":{"coordinates":[4.325682,43.829413],"type":"Point"},"properties":{"osm_id":"5498630449","tag":{"amenity":"waste_basket"}},"type":"Feature"},
	{"geometry":{"coordinates":[4.332718,43.820986],"type":"Point"},"properties":{"osm_id":"5524998129","tag":{"amenity":"waste_basket"}},"type":"Feature"},
	{"geometry":{"coordinates":[4.327065,43.83136],"type":"Point"},"properties":{"osm_id":"5524998172","tag":{"amenity":"waste_basket"}},"type":"Feature"},
	{"geometry":{"coordinates":[4.326769,43.830418],"type":"Point"},"properties":{"osm_id":"5524998175","tag":{"amenity":"waste_basket"}},"type":"Feature"},
	{"geometry":{"coordinates":[4.344286,43.821939],"type":"Point"},"properties":{"osm_id":"5545407685","tag":{"amenity":"waste_basket"}},"type":"Feature"},
	{"geometry":{"coordinates":[4.331714,43.816809],"type":"Point"},"properties":{"osm_id":"5547659615","tag":{"amenity":"waste_basket"}},"type":"Feature"},
	{"geometry":{"coordinates":[4.331454,43.816857],"type":"Point"},"properties":{"osm_id":"5547659721","tag":{"amenity":"recycling","recycling:clothes":"yes","recycling_type":"container"}},"type":"Feature"},
	{"geometry":{"coordinates":[4.331416,43.816873],"type":"Point"},"properties":{"osm_id":"5547659722","tag":{"amenity":"recycling","recycling:glass":"yes","recycling:glass_bottles":"yes","recycling_type":"container"}},"type":"Feature"},
	{"geometry":{"coordinates":[4.349522,43.81481],"type":"Point"},"properties":{"osm_id":"5550455835","tag":{"amenity":"waste_basket"}},"type":"Feature"},
	{"geometry":{"coordinates":[4.352842,43.817021],"type":"Point"},"properties":{"osm_id":"5550455838","tag":{"amenity":"recycling","recycling:clothes":"yes","recycling_type":"container"}},"type":"Feature"},
	{"geometry":{"coordinates":[4.344586,43.8165],"type":"Point"},"properties":{"osm_id":"5550455911","tag":{"amenity":"recycling","recycling:glass":"yes","recycling:glass_bottles":"yes","recycling_type":"container"}},"type":"Feature"},
	{"geometry":{"coordinates":[4.347203,43.815289],"type":"Point"},"properties":{"osm_id":"5550455916","tag":{"amenity":"waste_basket"}},"type":"Feature"},
	{"geometry":{"coordinates":[4.347277,43.815369],"type":"Point"},"properties":{"osm_id":"5550455917","tag":{"amenity":"recycling","recycling:glass":"yes","recycling:glass_bottles":"yes","recycling_type":"container"}},"type":"Feature"},
	{"geometry":{"coordinates":[4.349164,43.813591],"type":"Point"},"properties":{"osm_id":"5550484349","tag":{"amenity":"waste_basket"}},"type":"Feature"},
	{"geometry":{"coordinates":[4.348973,43.813743],"type":"Point"},"properties":{"osm_id":"5550484351","tag":{"amenity":"waste_basket"}},"type":"Feature"},
	{"geometry":{"coordinates":[4.357503,43.821252],"type":"Point"},"properties":{"osm_id":"5553227188","tag":{"amenity":"waste_basket"}},"type":"Feature"},
	{"geometry":{"coordinates":[4.357318,43.821198],"type":"Point"},"properties":{"osm_id":"5553227191","tag":{"amenity":"waste_basket"}},"type":"Feature"},
	{"geometry":{"coordinates":[4.356818,43.821075],"type":"Point"},"properties":{"osm_id":"5553227194","tag":{"amenity":"waste_basket"}},"type":"Feature"},
	{"geometry":{"coordinates":[4.356461,43.821167],"type":"Point"},"properties":{"osm_id":"5553227195","tag":{"amenity":"waste_basket"}},"type":"Feature"},
	{"geometry":{"coordinates":[4.356019,43.820823],"type":"Point"},"properties":{"osm_id":"5553227205","tag":{"amenity":"recycling","recycling:glass":"yes","recycling:glass_bottles":"yes","recycling_type":"container"}},"type":"Feature"},
	{"geometry":{"coordinates":[4.332635,43.808637],"type":"Point"},"properties":{"osm_id":"5553398611","tag":{"amenity":"recycling","recycling:glass":"yes","recycling:glass_bottles":"yes","recycling_type":"container"}},"type":"Feature"},
	{"geometry":{"coordinates":[4.375427,43.817214],"type":"Point"},"properties":{"osm_id":"5553400415","tag":{"amenity":"waste_basket"}},"type":"Feature"},
	{"geometry":{"coordinates":[4.370676,43.821404],"type":"Point"},"properties":{"osm_id":"5553400417","tag":{"amenity":"waste_basket"}},"type":"Feature"},
	{"geometry":{"coordinates":[4.37055,43.821302],"type":"Point"},"properties":{"osm_id":"5553400419","tag":{"amenity":"waste_basket"}},"type":"Feature"},
	{"geometry":{"coordinates":[4.310945,43.809053],"type":"Point"},"properties":{"osm_id":"5556793371","tag":{"amenity":"waste_basket"}},"type":"Feature"},
	{"geometry":{"coordinates":[4.339645,43.823054],"type":"Point"},"properties":{"osm_id":"5720813152","tag":{"amenity":"waste_basket"}},"type":"Feature"},
	{"geometry":{"coordinates":[4.35115,43.833258],"type":"Point"},"properties":{"osm_id":"5736817373","tag":{"amenity":"waste_basket"}},"type":"Feature"},
	{"geometry":{"coordinates":[4.367729,43.821283],"type":"Point"},"properties":{"osm_id":"5913684833","tag":{"amenity":"recycling","recycling_type":"container"}},"type":"Feature"},
	{"geometry":{"coordinates":[4.35273,43.829281],"type":"Point"},"properties":{"osm_id":"6155997630","tag":{"amenity":"waste_basket"}},"type":"Feature"},
	{"geometry":{"coordinates":[4.353054,43.828234],"type":"Point"},"properties":{"osm_id":"6155997651","tag":{"amenity":"waste_basket"}},"type":"Feature"},
	{"geometry":{"coordinates":[4.368581,43.824566],"type":"Point"},"properties":{"osm_id":"6157470933","tag":{"amenity":"recycling","recycling:clothes":"yes","recycling_type":"container"}},"type":"Feature"},
	{"geometry":{"coordinates":[4.368594,43.82457],"type":"Point"},"properties":{"osm_id":"6157470934","tag":{"amenity":"recycling","recycling:glass":"yes","recycling:glass_bottles":"yes","recycling_type":"container"}},"type":"Feature"},
	{"geometry":{"coordinates":[4.355897,43.818474],"type":"Point"},"properties":{"osm_id":"6247993511","tag":{"amenity":"waste_basket"}},"type":"Feature"},
	{"geometry":{"coordinates":[4.355981,43.81817],"type":"Point"},"properties":{"osm_id":"6247993532","tag":{"amenity":"waste_basket"}},"type":"Feature"},
	{"geometry":{"coordinates":[4.355977,43.817563],"type":"Point"},"properties":{"osm_id":"6247993537","tag":{"amenity":"recycling","recycling:glass":"yes","recycling:glass_bottles":"yes","recycling_type":"container"}},"type":"Feature"},
	{"geometry":{"coordinates":[4.332579,43.825468],"type":"Point"},"properties":{"osm_id":"6283324209","tag":{"amenity":"waste_disposal"}},"type":"Feature"},
	{"geometry":{"coordinates":[4.363208,43.828786],"type":"Point"},"properties":{"osm_id":"6372977506","tag":{"amenity":"waste_basket"}},"type":"Feature"},
	{"geometry":{"coordinates":[4.363277,43.828721],"type":"Point"},"properties":{"osm_id":"6372977507","tag":{"amenity":"waste_basket"}},"type":"Feature"},
	{"geometry":{"coordinates":[4.329961,43.824854],"type":"Point"},"properties":{"osm_id":"6412420677","tag":{"amenity":"waste_basket"}},"type":"Feature"},
	{"geometry":{"coordinates":[4.35731,43.826122],"type":"Point"},"properties":{"osm_id":"6436595380","tag":{"amenity":"recycling","recycling:glass":"yes","recycling_type":"container"}},"type":"Feature"},
	{"geometry":{"coordinates":[4.357457,43.83165],"type":"Point"},"properties":{"osm_id":"6436596035","tag":{"amenity":"waste_basket"}},"type":"Feature"},
	{"geometry":{"coordinates":[4.357515,43.827108],"type":"Point"},"properties":{"osm_id":"6436596153","tag":{"amenity":"waste_basket"}},"type":"Feature"},
	{"geometry":{"coordinates":[4.357291,43.825955],"type":"Point"},"properties":{"osm_id":"6436596154","tag":{"amenity":"waste_basket"}},"type":"Feature"},
	{"geometry":{"coordinates":[4.357865,43.828833],"type":"Point"},"properties":{"osm_id":"6436596156","tag":{"amenity":"waste_basket"}},"type":"Feature"},
	{"geometry":{"coordinates":[4.358091,43.832009],"type":"Point"},"properties":{"osm_id":"6436596161","tag":{"amenity":"recycling","location":"underground","recycling:glass_bottles":"yes","recycling_type":"container"}},"type":"Feature"},
	{"geometry":{"coordinates":[4.357825,43.831891],"type":"Point"},"properties":{"osm_id":"6436596187","tag":{"amenity":"waste_basket"}},"type":"Feature"},
	{"geometry":{"coordinates":[4.357504,43.831828],"type":"Point"},"properties":{"osm_id":"6436596188","tag":{"amenity":"waste_basket"}},"type":"Feature"},
	{"geometry":{"coordinates":[4.387539,43.796279],"type":"Point"},"properties":{"osm_id":"6448665920","tag":{"amenity":"recycling","recycling:glass":"yes","recycling:glass_bottles":"yes","recycling_type":"container"}},"type":"Feature"},
	{"geometry":{"coordinates":[4.328494,43.82009],"type":"Point"},"properties":{"osm_id":"6501138882","tag":{"amenity":"waste_basket"}},"type":"Feature"},
	{"geometry":{"coordinates":[4.357664,43.817928],"type":"Point"},"properties":{"osm_id":"6651436126","tag":{"amenity":"recycling","recycling:glass":"yes","recycling:glass_bottles":"yes","recycling_type":"container"}},"type":"Feature"},
	{"geometry":{"coordinates":[4.338211,43.82686],"type":"Point"},"properties":{"osm_id":"6652339261","tag":{"amenity":"waste_basket","colour":"green","material":"metal"}},"type":"Feature"},
	{"geometry":{"coordinates":[4.330365,43.827629],"type":"Point"},"properties":{"osm_id":"6652918175","tag":{"amenity":"recycling","recycling:glass":"yes","recycling:glass_bottles":"yes","recycling_type":"container"}},"type":"Feature"},
	{"geometry":{"coordinates":[4.358055,43.818705],"type":"Point"},"properties":{"osm_id":"6652944519","tag":{"amenity":"waste_basket","colour":"green","material":"metal"}},"type":"Feature"},
	{"geometry":{"coordinates":[4.3619,43.831733],"type":"Point"},"properties":{"osm_id":"6775932210","tag":{"amenity":"recycling","recycling:glass":"yes"}},"type":"Feature"},
	{"geometry":{"coordinates":[4.332217,43.825478],"type":"Point"},"properties":{"osm_id":"6855153601","tag":{"amenity":"waste_basket"}},"type":"Feature"},
	{"geometry":{"coordinates":[4.34079,43.816306],"type":"Point"},"properties":{"osm_id":"6888006093","tag":{"amenity":"recycling","operator":"Le Relais","recycling:clothes":"yes","recycling_type":"container","website":"https://www.lerelais.org"}},"type":"Feature"},
	{"geometry":{"coordinates":[4.313638,43.79235],"type":"Point"},"properties":{"osm_id":"7180894637","tag":{"amenity":"recycling","recycling:glass":"yes","recycling:paper":"yes","recycling_type":"container"}},"type":"Feature"},
	{"geometry":{"coordinates":[4.317361,43.792388],"type":"Point"},"properties":{"osm_id":"7180894638","tag":{"amenity":"recycling","recycling:clothes":"yes","recycling:glass":"yes","recycling:paper":"yes","recycling_type":"container"}},"type":"Feature"},
	{"geometry":{"coordinates":[4.312922,43.789118],"type":"Point"},"properties":{"osm_id":"7180894639","tag":{"amenity":"recycling","recycling:clothes":"yes","recycling:glass":"yes","recycling:paper":"yes","recycling_type":"container"}},"type":"Feature"},
	{"geometry":{"coordinates":[4.312445,43.795654],"type":"Point"},"properties":{"osm_id":"7180894640","tag":{"amenity":"recycling","recycling:glass":"yes","recycling:paper":"yes","recycling_type":"container"}},"type":"Feature"},
	{"geometry":{"coordinates":[4.310896,43.790859],"type":"Point"},"properties":{"osm_id":"7181115536","tag":{"amenity":"recycling","recycling:glass":"yes","recycling:paper":"yes","recycling_type":"container"}},"type":"Feature"},
	{"geometry":{"coordinates":[4.310815,43.790794],"type":"Point"},"properties":{"osm_id":"7181115537","tag":{"amenity":"waste_basket","operator":"Mairie de Milhaud"}},"type":"Feature"},
	{"geometry":{"coordinates":[4.310876,43.790836],"type":"Point"},"properties":{"osm_id":"7181115538","tag":{"amenity":"waste_basket","waste":"dog_excrement"}},"type":"Feature"},
	{"geometry":{"coordinates":[4.311986,43.787319],"type":"Point"},"properties":{"osm_id":"7181273541","tag":{"amenity":"recycling","recycling:clothes":"yes","recycling:glass":"yes","recycling:paper":"yes","recycling_type":"container"}},"type":"Feature"},
	{"geometry":{"coordinates":[4.307444,43.789473],"type":"Point"},"properties":{"osm_id":"7182535149","tag":{"amenity":"waste_basket","operator":"Mairie de Milhaud"}},"type":"Feature"},
	{"geometry":{"coordinates":[4.308576,43.78822],"type":"Point"},"properties":{"osm_id":"7184397366","tag":{"amenity":"recycling","recycling:glass":"yes","recycling:paper":"yes","recycling_type":"container"}},"type":"Feature"},
	{"geometry":{"coordinates":[4.311694,43.787423],"type":"Point"},"properties":{"osm_id":"7184606763","tag":{"amenity":"waste_basket","operator":"Mairie de Milhaud"}},"type":"Feature"},
	{"geometry":{"coordinates":[4.311496,43.787648],"type":"Point"},"properties":{"osm_id":"7184606777","tag":{"amenity":"waste_basket","operator":"Mairie de Milhaud"}},"type":"Feature"},
	{"geometry":{"coordinates":[4.315495,43.798171],"type":"Point"},"properties":{"osm_id":"7193364664","tag":{"amenity":"recycling","recycling:glass":"yes","recycling:paper":"yes","recycling_type":"container"}},"type":"Feature"},
	{"geometry":{"coordinates":[4.315792,43.79259],"type":"Point"},"properties":{"osm_id":"7193411778","tag":{"amenity":"waste_basket","operator":"Mairie de Milhaud"}},"type":"Feature"},
	{"geometry":{"coordinates":[4.309126,43.790842],"type":"Point"},"properties":{"osm_id":"7193575681","tag":{"amenity":"waste_basket"}},"type":"Feature"},
	{"geometry":{"coordinates":[4.310344,43.796253],"type":"Point"},"properties":{"osm_id":"7235158821","tag":{"amenity":"recycling","recycling:glass":"yes","recycling:paper":"yes","recycling_type":"container"}},"type":"Feature"},
	{"geometry":{"coordinates":[4.314007,43.795923],"type":"Point"},"properties":{"osm_id":"7235158823","tag":{"amenity":"recycling","recycling:glass":"yes","recycling:paper":"yes","recycling_type":"container"}},"type":"Feature"},
	{"geometry":{"coordinates":[4.313863,43.79593],"type":"Point"},"properties":{"osm_id":"7235278461","tag":{"amenity":"waste_basket","material":"metal","operator":"Ville de Milhaud"}},"type":"Feature"},
	{"geometry":{"coordinates":[4.316194,43.788487],"type":"Point"},"properties":{"osm_id":"7235302998","tag":{"amenity":"recycling","recycling:paper":"yes","recycling_type":"container"}},"type":"Feature"},
	{"geometry":{"coordinates":[4.309868,43.786417],"type":"Point"},"properties":{"osm_id":"7235303002","tag":{"amenity":"waste_basket","operator":"Ville de Milhaud"}},"type":"Feature"},
	{"geometry":{"coordinates":[4.309695,43.786729],"type":"Point"},"properties":{"osm_id":"7235303004","tag":{"amenity":"waste_basket","operator":"Ville de Milhaud"}},"type":"Feature"},
	{"geometry":{"coordinates":[4.309612,43.787379],"type":"Point"},"properties":{"osm_id":"7235307330","tag":{"amenity":"waste_basket","operator":"Ville de Milhaud"}},"type":"Feature"},
	{"geometry":{"coordinates":[4.360011,43.828115],"type":"Point"},"properties":{"osm_id":"7248848948","tag":{"amenity":"recycling","recycling:glass":"yes","recycling_type":"container"}},"type":"Feature"},
	{"geometry":{"coordinates":[4.39031,43.788187],"type":"Point"},"properties":{"osm_id":"7259800797","tag":{"amenity":"recycling","recycling:glass":"yes","recycling_type":"container"}},"type":"Feature"},
	{"geometry":{"coordinates":[4.366327,43.817738],"type":"Point"},"properties":{"osm_id":"7265289246","tag":{"amenity":"recycling","recycling:glass":"yes","recycling_type":"container"}},"type":"Feature"},
	{"geometry":{"coordinates":[4.320644,43.815301],"type":"Point"},"properties":{"osm_id":"7265348335","tag":{"amenity":"recycling","recycling:glass":"yes","recycling_type":"container"}},"type":"Feature"},
	{"geometry":{"coordinates":[4.373933,43.81239],"type":"Point"},"properties":{"osm_id":"7279488082","tag":{"amenity":"recycling","recycling:glass":"yes","recycling_type":"container"}},"type":"Feature"},
	{"geometry":{"coordinates":[4.386047,43.832558],"type":"Point"},"properties":{"osm_id":"7403749878","tag":{"amenity":"recycling","recycling:clothes":"yes","recycling_type":"container"}},"type":"Feature"}
]
}
