{
"type": "FeatureCollection",
"features": [
	{"geometry":{"coordinates":[-91.929192,44.871905],"type":"Point"},"properties":{"osm_id":"6917095050","tag":{"amenity":"waste_disposal"}},"type":"Feature"},
	{"geometry":{"coordinates":[-91.929264,44.879958],"type":"Point"},"properties":{"osm_id":"7235360031","tag":{"amenity":"waste_basket"}},"type":"Feature"},
	{"geometry":{"coordinates":[-91.92919,44.880896],"type":"Point"},"properties":{"osm_id":"7235360032","tag":{"amenity":"waste_disposal"}},"type":"Feature"},
	{"geometry":{"coordinates":[-91.92842,44.876304],"type":"Point"},"properties":{"osm_id":"7412890418","tag":{"amenity":"waste_basket","mapillary":"y8e2E7Pzd1bUg4DI4a8qOQ"}},"type":"Feature"},
	{"geometry":{"coordinates":[-91.92852,44.872465],"type":"Point"},"properties":{"osm_id":"8576822221","tag":{"amenity":"recycling","recycling:green_waste":"yes","recycling_type":"container"}},"type":"Feature"},
	{"geometry":{"coordinates":[-91.928521,44.872483],"type":"Point"},"properties":{"osm_id":"8576822222","tag":{"amenity":"waste_basket"}},"type":"Feature"}
]
}
