{
"type": "FeatureCollection",
"features": [
	{"geometry":{"coordinates":[47.859487,56.646694],"type":"Point"},"properties":{"osm_id":"613084625","tag":{"amenity":"waste_disposal","waste":"trash"}},"type":"Feature"},
	{"geometry":{"coordinates":[47.86252,56.651882],"type":"Point"},"properties":{"osm_id":"613084657","tag":{"amenity":"waste_disposal","waste":"trash"}},"type":"Feature"},
	{"geometry":{"coordinates":[47.886239,56.643229],"type":"Point"},"properties":{"osm_id":"629042870","tag":{"amenity":"waste_disposal"}},"type":"Feature"},
	{"geometry":{"coordinates":[47.886585,56.64927],"type":"Point"},"properties":{"osm_id":"1018099568","tag":{"amenity":"waste_basket"}},"type":"Feature"},
	{"geometry":{"coordinates":[47.821521,56.630985],"type":"Point"},"properties":{"osm_id":"1257173781","tag":{"amenity":"recycling","recycling:glass":"yes"}},"type":"Feature"},
	{"geometry":{"coordinates":[47.879024,56.645788],"type":"Point"},"properties":{"osm_id":"1397174892","tag":{"amenity":"waste_disposal","waste":"trash"}},"type":"Feature"},
	{"geometry":{"coordinates":[47.876468,56.648557],"type":"Point"},"properties":{"osm_id":"1711155048","tag":{"amenity":"waste_disposal","waste":"trash"}},"type":"Feature"},
	{"geometry":{"coordinates":[47.862797,56.647859],"type":"Point"},"properties":{"osm_id":"1788280475","tag":{"amenity":"waste_disposal"}},"type":"Feature"},
	{"geometry":{"coordinates":[47.872519,56.646656],"type":"Point"},"properties":{"osm_id":"1966352480","tag":{"amenity":"waste_disposal","waste":"trash"}},"type":"Feature"},
	{"geometry":{"coordinates":[47.86038,56.651544],"type":"Point"},"properties":{"osm_id":"3948921132","tag":{"amenity":"waste_disposal"}},"type":"Feature"},
	{"geometry":{"coordinates":[47.834366,56.635724],"type":"Point"},"properties":{"osm_id":"4267008392","tag":{"amenity":"waste_disposal"}},"type":"Feature"},
	{"geometry":{"coordinates":[47.834467,56.635758],"type":"Point"},"properties":{"osm_id":"4267015789","tag":{"amenity":"waste_disposal"}},"type":"Feature"},
	{"geometry":{"coordinates":[47.896988,56.646158],"type":"Point"},"properties":{"osm_id":"4382115000","tag":{"amenity":"waste_disposal"}},"type":"Feature"},
	{"geometry":{"coordinates":[47.893492,56.631538],"type":"Point"},"properties":{"osm_id":"4458467162","tag":{"amenity":"waste_disposal"}},"type":"Feature"},
	{"geometry":{"coordinates":[47.886259,56.641775],"type":"Point"},"properties":{"osm_id":"4458467206","tag":{"amenity":"waste_disposal"}},"type":"Feature"},
	{"geometry":{"coordinates":[47.853644,56.644631],"type":"Point"},"properties":{"osm_id":"5834791586","tag":{"amenity":"waste_disposal"}},"type":"Feature"},
	{"geometry":{"coordinates":[47.896801,56.626613],"type":"Point"},"properties":{"osm_id":"6272216100","tag":{"amenity":"waste_disposal"}},"type":"Feature"},
	{"geometry":{"coordinates":[47.895749,56.623626],"type":"Point"},"properties":{"osm_id":"6281948704","tag":{"amenity":"waste_disposal"}},"type":"Feature"},
	{"geometry":{"coordinates":[47.832529,56.64649],"type":"Point"},"properties":{"osm_id":"7666642106","tag":{"amenity":"waste_disposal","waste":"trash"}},"type":"Feature"},
	{"geometry":{"coordinates":[47.832651,56.647036],"type":"Point"},"properties":{"osm_id":"7666642107","tag":{"amenity":"waste_disposal","waste":"trash"}},"type":"Feature"},
	{"geometry":{"coordinates":[47.833765,56.647259],"type":"Point"},"properties":{"osm_id":"7666669917","tag":{"amenity":"waste_disposal","waste":"trash"}},"type":"Feature"},
	{"geometry":{"coordinates":[47.835728,56.650913],"type":"Point"},"properties":{"osm_id":"7666670095","tag":{"amenity":"waste_disposal","waste":"trash"}},"type":"Feature"},
	{"geometry":{"coordinates":[47.882513,56.627317],"type":"Point"},"properties":{"osm_id":"7810286301","tag":{"amenity":"waste_disposal","waste":"trash;plastic"}},"type":"Feature"}
]
}
