{
"type": "FeatureCollection",
"features": [
	{"geometry":{"coordinates":[-77.34734,38.943301],"type":"Point"},"properties":{"osm_id":"63455074","tag":{"noexit":"yes"}},"type":"Feature"},
	{"geometry":{"coordinates":[-77.346901,38.935719],"type":"Point"},"properties":{"osm_id":"926414277","tag":{"amenity":"waste_basket"}},"type":"Feature"},
	{"geometry":{"coordinates":[-77.401936,38.950781],"type":"Point"},"properties":{"osm_id":"1569566474","tag":{"amenity":"waste_basket"}},"type":"Feature"},
	{"geometry":{"coordinates":[-77.404192,38.950324],"type":"Point"},"properties":{"osm_id":"1569566491","tag":{"amenity":"waste_basket"}},"type":"Feature"},
	{"geometry":{"coordinates":[-77.372784,38.92525],"type":"Point"},"properties":{"name":"Recycling Drop Off Center","osm_id":"2477663268","tag":{"addr:city":"Reston","addr:housenumber":"2531","addr:street":"Reston Parkway","amenity":"waste_basket"}},"type":"Feature"},
	{"geometry":{"coordinates":[-77.410115,38.949085],"type":"Point"},"properties":{"osm_id":"2717370412","tag":{"amenity":"waste_basket"}},"type":"Feature"},
	{"geometry":{"coordinates":[-77.345646,38.937933],"type":"Point"},"properties":{"osm_id":"6131714776","tag":{"amenity":"waste_basket","waste":"dog_excrement"}},"type":"Feature"},
	{"geometry":{"coordinates":[-77.346386,38.938025],"type":"Point"},"properties":{"osm_id":"6131714777","tag":{"amenity":"waste_basket","waste":"dog_excrement"}},"type":"Feature"},
	{"geometry":{"coordinates":[-77.345943,38.938526],"type":"Point"},"properties":{"osm_id":"6131714778","tag":{"amenity":"waste_basket","waste":"dog_excrement"}},"type":"Feature"},
	{"geometry":{"coordinates":[-77.346748,38.939432],"type":"Point"},"properties":{"osm_id":"6131714779","tag":{"amenity":"waste_basket"}},"type":"Feature"}
]
}
