{
"type": "FeatureCollection",
"features": [
	{"geometry":{"coordinates":[-77.376285,38.854959],"type":"Point"},"properties":{"name":"Fairfax County Recycling Center","osm_id":"439660425","tag":{"amenity":"recycling","recycling_type":"centre"}},"type":"Feature"},
	{"geometry":{"coordinates":[-77.406711,38.847795],"type":"Point"},"properties":{"osm_id":"4724526085","tag":{"amenity":"waste_basket"}},"type":"Feature"},
	{"geometry":{"coordinates":[-77.409152,38.859826],"type":"Point"},"properties":{"osm_id":"4879493515","tag":{"amenity":"waste_basket"}},"type":"Feature"},
	{"geometry":{"coordinates":[-77.411615,38.826096],"type":"Point"},"properties":{"osm_id":"7876224376","tag":{"amenity":"waste_basket"}},"type":"Feature"},
	{"geometry":{"coordinates":[-77.411184,38.824259],"type":"Point"},"properties":{"osm_id":"7876236461","tag":{"amenity":"waste_basket"}},"type":"Feature"},
	{"geometry":{"coordinates":[-77.411271,38.82448],"type":"Point"},"properties":{"osm_id":"7876236463","tag":{"amenity":"waste_basket"}},"type":"Feature"},
	{"geometry":{"coordinates":[-77.411367,38.8234],"type":"Point"},"properties":{"osm_id":"7876236475","tag":{"amenity":"waste_basket"}},"type":"Feature"},
	{"geometry":{"coordinates":[-77.411871,38.824515],"type":"Point"},"properties":{"osm_id":"7876253092","tag":{"amenity":"waste_basket"}},"type":"Feature"},
	{"geometry":{"coordinates":[-77.412344,38.823224],"type":"Point"},"properties":{"osm_id":"7876253102","tag":{"amenity":"waste_basket"}},"type":"Feature"},
	{"geometry":{"coordinates":[-77.411333,38.823256],"type":"Point"},"properties":{"osm_id":"7876253106","tag":{"amenity":"waste_basket"}},"type":"Feature"},
	{"geometry":{"coordinates":[-77.410383,38.824882],"type":"Point"},"properties":{"osm_id":"7876312035","tag":{"amenity":"waste_disposal"}},"type":"Feature"},
	{"geometry":{"coordinates":[-77.410349,38.824987],"type":"Point"},"properties":{"osm_id":"7876312039","tag":{"amenity":"waste_disposal"}},"type":"Feature"},
	{"geometry":{"coordinates":[-77.410383,38.824905],"type":"Point"},"properties":{"osm_id":"7876312040","tag":{"amenity":"waste_disposal"}},"type":"Feature"},
	{"geometry":{"coordinates":[-77.410369,38.824859],"type":"Point"},"properties":{"osm_id":"7876312043","tag":{"amenity":"waste_disposal"}},"type":"Feature"}
]
}
