{
"type": "FeatureCollection",
"features": [
	{"geometry":{"coordinates":[-77.413598,38.465491],"type":"Point"},"properties":{"name":"Lakewood Trash Area","osm_id":"4629907596","tag":{"amenity":"waste_disposal"}},"type":"Feature"},
	{"geometry":{"coordinates":[-77.415574,38.465881],"type":"Point"},"properties":{"name":"Lakewood Trash Area","osm_id":"4629907598","tag":{"amenity":"waste_disposal"}},"type":"Feature"},
	{"geometry":{"coordinates":[-77.412766,38.465696],"type":"Point"},"properties":{"name":"Lakewood Trash Area","osm_id":"4629907599","tag":{"amenity":"waste_disposal"}},"type":"Feature"},
	{"geometry":{"coordinates":[-77.410399,38.438227],"type":"Point"},"properties":{"osm_id":"9063870955","tag":{"amenity":"waste_basket","waste":"dog_excrement"}},"type":"Feature"},
	{"geometry":{"coordinates":[-77.410159,38.437074],"type":"Point"},"properties":{"osm_id":"9063870956","tag":{"amenity":"waste_basket","waste":"dog_excrement"}},"type":"Feature"},
	{"geometry":{"coordinates":[-77.409623,38.437366],"type":"Point"},"properties":{"osm_id":"9063870957","tag":{"amenity":"waste_basket","waste":"dog_excrement"}},"type":"Feature"},
	{"geometry":{"coordinates":[-77.416872,38.439007],"type":"Point"},"properties":{"osm_id":"9200819276","tag":{"amenity":"waste_disposal"}},"type":"Feature"}
]
}
