{
"type": "FeatureCollection",
"features": [
	{"geometry":{"coordinates":[-9.24003,38.650176],"type":"Point"},"properties":{"osm_id":"2615819306","tag":{"amenity":"waste_basket"}},"type":"Feature"},
	{"geometry":{"coordinates":[-9.237361,38.648869],"type":"Point"},"properties":{"osm_id":"2981060495","tag":{"amenity":"recycling"}},"type":"Feature"},
	{"geometry":{"coordinates":[-9.240994,38.647562],"type":"Point"},"properties":{"osm_id":"2981095085","tag":{"amenity":"recycling"}},"type":"Feature"},
	{"geometry":{"coordinates":[-9.229812,38.640272],"type":"Point"},"properties":{"osm_id":"3658894516","tag":{"amenity":"recycling"}},"type":"Feature"},
	{"geometry":{"coordinates":[-9.25427,38.664809],"type":"Point"},"properties":{"osm_id":"3718486424","tag":{"amenity":"recycling","recycling:cardboard":"yes","recycling:glass":"yes","recycling:glass_bottles":"yes","recycling:paper":"yes","recycling:waste":"yes","recycling_type":"container"}},"type":"Feature"},
	{"geometry":{"coordinates":[-9.246627,38.665985],"type":"Point"},"properties":{"osm_id":"4226859551","tag":{"amenity":"recycling","recycling:cardboard":"yes","recycling:glass":"yes","recycling:glass_bottles":"yes","recycling:paper":"yes","recycling_type":"container"}},"type":"Feature"},
	{"geometry":{"coordinates":[-9.231378,38.674082],"type":"Point"},"properties":{"osm_id":"4226859701","tag":{"amenity":"recycling","recycling:cardboard":"yes","recycling:glass":"yes","recycling:glass_bottles":"yes","recycling:paper":"yes","recycling_type":"container"}},"type":"Feature"},
	{"geometry":{"coordinates":[-9.307116,38.685449],"type":"Point"},"properties":{"osm_id":"4321161591","tag":{"amenity":"recycling"}},"type":"Feature"},
	{"geometry":{"coordinates":[-9.242997,38.647482],"type":"Point"},"properties":{"osm_id":"4707288921","tag":{"amenity":"recycling"}},"type":"Feature"},
	{"geometry":{"coordinates":[-9.233555,38.638083],"type":"Point"},"properties":{"osm_id":"4886308650","tag":{"amenity":"recycling"}},"type":"Feature"},
	{"geometry":{"coordinates":[-9.234376,38.639005],"type":"Point"},"properties":{"osm_id":"4886308652","tag":{"amenity":"recycling"}},"type":"Feature"},
	{"geometry":{"coordinates":[-9.233678,38.636317],"type":"Point"},"properties":{"osm_id":"5478150528","tag":{"amenity":"recycling","location":"underground","recycling_type":"container"}},"type":"Feature"},
	{"geometry":{"coordinates":[-9.235936,38.639109],"type":"Point"},"properties":{"osm_id":"5478150529","tag":{"amenity":"recycling","location":"underground","recycling_type":"container"}},"type":"Feature"},
	{"geometry":{"coordinates":[-9.232414,38.634951],"type":"Point"},"properties":{"osm_id":"5478151692","tag":{"amenity":"recycling","location":"underground","recycling_type":"container"}},"type":"Feature"},
	{"geometry":{"coordinates":[-9.232607,38.643916],"type":"Point"},"properties":{"osm_id":"7358850152","tag":{"amenity":"recycling"}},"type":"Feature"},
	{"geometry":{"coordinates":[-9.31351,38.684727],"type":"Point"},"properties":{"osm_id":"9072528160","tag":{"amenity":"recycling","recycling:oil":"yes","recycling_type":"container"}},"type":"Feature"}
]
}
