{
"type": "FeatureCollection",
"features": [
	{"geometry":{"coordinates":[-97.40558,32.674213],"type":"Point"},"properties":{"osm_id":"7321059766","tag":{"amenity":"recycling","colour":"blue","covered":"yes","indoor":"no","material":"metal","operator":"Progressive Waste Solutions","recycling:cans":"yes","recycling:cardboard":"yes","recycling:clothes":"no","recycling:glass":"yes","recycling:glass_bottles":"yes","recycling:paper":"yes","recycling:plastic":"yes","recycling:plastic_bottles":"yes","recycling:plastic_packaging":"yes","recycling:waste":"no","recycling_type":"container"}},"type":"Feature"},
	{"geometry":{"coordinates":[-97.405525,32.674235],"type":"Point"},"properties":{"osm_id":"7321059767","tag":{"access":"yes","amenity":"waste_disposal","colour":"blue","manufacturer":"Progressive Waste Solutions","material":"metal","operator":"Progressive Waste Solutions","waste":"mixed"}},"type":"Feature"},
	{"geometry":{"coordinates":[-97.404448,32.675926],"type":"Point"},"properties":{"osm_id":"7321059768","tag":{"access":"yes","amenity":"waste_disposal","colour":"blue","manufacturer":"Progressive Waste Solutions","material":"metal","operator":"Progressive Waste Solutions","waste":"mixed"}},"type":"Feature"},
	{"geometry":{"coordinates":[-97.406047,32.67528],"type":"Point"},"properties":{"osm_id":"7321059769","tag":{"access":"yes","amenity":"waste_disposal","colour":"blue","manufacturer":"Progressive Waste Solutions","material":"metal","operator":"Progressive Waste Solutions","waste":"mixed"}},"type":"Feature"},
	{"geometry":{"coordinates":[-97.405065,32.674565],"type":"Point"},"properties":{"osm_id":"7321059770","tag":{"access":"yes","amenity":"waste_disposal","colour":"blue","manufacturer":"Progressive Waste Solutions","material":"metal","operator":"Progressive Waste Solutions","waste":"mixed"}},"type":"Feature"},
	{"geometry":{"coordinates":[-97.406055,32.675998],"type":"Point"},"properties":{"osm_id":"7321059771","tag":{"access":"yes","amenity":"waste_disposal","colour":"blue","manufacturer":"Progressive Waste Solutions","material":"metal","operator":"Progressive Waste Solutions","waste":"mixed"}},"type":"Feature"},
	{"geometry":{"coordinates":[-97.40107,32.677397],"type":"Point"},"properties":{"osm_id":"7684039421","tag":{"amenity":"waste_disposal"}},"type":"Feature"},
	{"geometry":{"coordinates":[-97.405818,32.677489],"type":"Point"},"properties":{"osm_id":"7689970497","tag":{"amenity":"waste_disposal"}},"type":"Feature"},
	{"geometry":{"coordinates":[-97.40474,32.677519],"type":"Point"},"properties":{"osm_id":"7689970525","tag":{"amenity":"waste_disposal"}},"type":"Feature"},
	{"geometry":{"coordinates":[-97.404348,32.679133],"type":"Point"},"properties":{"osm_id":"7689970532","tag":{"amenity":"waste_disposal"}},"type":"Feature"},
	{"geometry":{"coordinates":[-97.405602,32.678429],"type":"Point"},"properties":{"osm_id":"7689970539","tag":{"amenity":"waste_disposal"}},"type":"Feature"},
	{"geometry":{"coordinates":[-97.404319,32.677431],"type":"Point"},"properties":{"osm_id":"7689970545","tag":{"amenity":"waste_disposal"}},"type":"Feature"},
	{"geometry":{"coordinates":[-97.405024,32.677304],"type":"Point"},"properties":{"osm_id":"7689970550","tag":{"amenity":"waste_disposal"}},"type":"Feature"},
	{"geometry":{"coordinates":[-97.413977,32.679405],"type":"Point"},"properties":{"osm_id":"7727575229","tag":{"amenity":"recycling","colour":"Green","material":"metal","recycling_type":"container"}},"type":"Feature"},
	{"geometry":{"coordinates":[-97.414455,32.677974],"type":"Point"},"properties":{"osm_id":"7727575230","tag":{"amenity":"waste_disposal","material":"metal"}},"type":"Feature"},
	{"geometry":{"coordinates":[-97.414476,32.677943],"type":"Point"},"properties":{"osm_id":"7727575231","tag":{"amenity":"recycling","colour":"Green","covered":"yes","material":"metal","recycling_type":"container"}},"type":"Feature"},
	{"geometry":{"coordinates":[-97.414857,32.677797],"type":"Point"},"properties":{"osm_id":"7727575232","tag":{"access":"no","amenity":"waste_disposal","material":"metal"}},"type":"Feature"},
	{"geometry":{"coordinates":[-97.415186,32.677394],"type":"Point"},"properties":{"osm_id":"7727575233","tag":{"access":"no","amenity":"waste_disposal","material":"metal"}},"type":"Feature"},
	{"geometry":{"coordinates":[-97.415164,32.677427],"type":"Point"},"properties":{"osm_id":"7727575234","tag":{"access":"no","amenity":"waste_disposal","material":"metal"}},"type":"Feature"},
	{"geometry":{"coordinates":[-97.415097,32.677391],"type":"Point"},"properties":{"osm_id":"7727575235","tag":{"amenity":"waste_disposal","material":"metal"}},"type":"Feature"},
	{"geometry":{"coordinates":[-97.414912,32.677329],"type":"Point"},"properties":{"osm_id":"7727575236","tag":{"amenity":"waste_disposal","material":"metal"}},"type":"Feature"},
	{"geometry":{"coordinates":[-97.41399,32.679371],"type":"Point"},"properties":{"osm_id":"7727575237","tag":{"access":"yes","amenity":"waste_disposal","material":"metal"}},"type":"Feature"},
	{"geometry":{"coordinates":[-97.413538,32.68478],"type":"Point"},"properties":{"osm_id":"7901902068","tag":{"access":"private","amenity":"waste_disposal"}},"type":"Feature"},
	{"geometry":{"coordinates":[-97.413515,32.68482],"type":"Point"},"properties":{"osm_id":"7901902070","tag":{"amenity":"recycling","recycling:cans":"yes","recycling:cardboard":"yes","recycling:clothes":"no","recycling:glass":"yes","recycling:glass_bottles":"yes","recycling:paper":"no","recycling:plastic":"yes","recycling:plastic_bottles":"yes","recycling:plastic_packaging":"no","recycling:waste":"no","recycling_type":"container"}},"type":"Feature"}
]
}
