{
"type": "FeatureCollection",
"features": [
	{"geometry":{"coordinates":[-97.383715,27.829055],"type":"Point"},"properties":{"osm_id":"8207858996","tag":{"amenity":"waste_disposal"}},"type":"Feature"},
	{"geometry":{"coordinates":[-97.385341,27.82697],"type":"Point"},"properties":{"barrier":"gate","osm_id":"8207926668"},"type":"Feature"},
	{"geometry":{"coordinates":[-97.385572,27.827092],"type":"Point"},"properties":{"barrier":"gate","osm_id":"8207926670"},"type":"Feature"},
	{"geometry":{"coordinates":[-97.383249,27.826867],"type":"Point"},"properties":{"osm_id":"8207962138","tag":{"amenity":"waste_basket","material":"plastic"}},"type":"Feature"},
	{"geometry":{"coordinates":[-97.383186,27.826875],"type":"Point"},"properties":{"osm_id":"8207962139","tag":{"amenity":"waste_basket","material":"plastic"}},"type":"Feature"},
	{"geometry":{"coordinates":[-97.382997,27.827249],"type":"Point"},"properties":{"osm_id":"8207962143","tag":{"amenity":"waste_basket"}},"type":"Feature"},
	{"geometry":{"coordinates":[-97.383742,27.827057],"type":"Point"},"properties":{"osm_id":"8210183932","tag":{"amenity":"waste_disposal"}},"type":"Feature"},
	{"geometry":{"coordinates":[-97.385239,27.824206],"type":"Point"},"properties":{"osm_id":"8210541965","tag":{"amenity":"waste_basket"}},"type":"Feature"},
	{"geometry":{"coordinates":[-97.385156,27.824178],"type":"Point"},"properties":{"osm_id":"8210541968","tag":{"amenity":"waste_basket"}},"type":"Feature"},
	{"geometry":{"coordinates":[-97.384901,27.824524],"type":"Point"},"properties":{"osm_id":"8210541971","tag":{"amenity":"waste_basket"}},"type":"Feature"},
	{"geometry":{"coordinates":[-97.384742,27.824751],"type":"Point"},"properties":{"osm_id":"8210541972","tag":{"amenity":"waste_basket"}},"type":"Feature"},
	{"geometry":{"coordinates":[-97.386206,27.823051],"type":"Point"},"properties":{"osm_id":"8210541975","tag":{"amenity":"waste_basket"}},"type":"Feature"},
	{"geometry":{"coordinates":[-97.386779,27.821862],"type":"Point"},"properties":{"osm_id":"8210541981","tag":{"amenity":"waste_basket"}},"type":"Feature"},
	{"geometry":{"coordinates":[-97.386674,27.822014],"type":"Point"},"properties":{"osm_id":"8210541982","tag":{"amenity":"waste_basket"}},"type":"Feature"},
	{"geometry":{"coordinates":[-97.387275,27.821539],"type":"Point"},"properties":{"osm_id":"8210541995","tag":{"amenity":"waste_basket"}},"type":"Feature"},
	{"geometry":{"coordinates":[-97.387357,27.821425],"type":"Point"},"properties":{"osm_id":"8210541996","tag":{"amenity":"waste_basket"}},"type":"Feature"},
	{"geometry":{"coordinates":[-97.387473,27.821257],"type":"Point"},"properties":{"osm_id":"8210541997","tag":{"amenity":"waste_basket"}},"type":"Feature"},
	{"geometry":{"coordinates":[-97.386973,27.821601],"type":"Point"},"properties":{"osm_id":"8210541998","tag":{"amenity":"waste_basket"}},"type":"Feature"},
	{"geometry":{"coordinates":[-97.386847,27.821722],"type":"Point"},"properties":{"osm_id":"8210541999","tag":{"amenity":"waste_basket"}},"type":"Feature"},
	{"geometry":{"coordinates":[-97.386605,27.822034],"type":"Point"},"properties":{"osm_id":"8210542000","tag":{"amenity":"waste_basket"}},"type":"Feature"},
	{"geometry":{"coordinates":[-97.38654,27.822582],"type":"Point"},"properties":{"osm_id":"8210542001","tag":{"amenity":"waste_basket"}},"type":"Feature"},
	{"geometry":{"coordinates":[-97.38714,27.821728],"type":"Point"},"properties":{"osm_id":"8210542003","tag":{"amenity":"waste_basket"}},"type":"Feature"},
	{"geometry":{"coordinates":[-97.38843,27.819941],"type":"Point"},"properties":{"osm_id":"8211026276","tag":{"amenity":"waste_basket"}},"type":"Feature"},
	{"geometry":{"coordinates":[-97.388451,27.819757],"type":"Point"},"properties":{"osm_id":"8211026277","tag":{"amenity":"waste_basket"}},"type":"Feature"},
	{"geometry":{"coordinates":[-97.388496,27.819473],"type":"Point"},"properties":{"osm_id":"8211026279","tag":{"amenity":"waste_basket"}},"type":"Feature"},
	{"geometry":{"coordinates":[-97.388597,27.819327],"type":"Point"},"properties":{"osm_id":"8211026280","tag":{"amenity":"waste_basket"}},"type":"Feature"},
	{"geometry":{"coordinates":[-97.388683,27.819118],"type":"Point"},"properties":{"osm_id":"8211026285","tag":{"amenity":"waste_basket"}},"type":"Feature"},
	{"geometry":{"coordinates":[-97.389484,27.818382],"type":"Point"},"properties":{"osm_id":"8211026286","tag":{"amenity":"waste_basket"}},"type":"Feature"},
	{"geometry":{"coordinates":[-97.389693,27.818026],"type":"Point"},"properties":{"osm_id":"8211026287","tag":{"amenity":"waste_basket"}},"type":"Feature"},
	{"geometry":{"coordinates":[-97.389749,27.81757],"type":"Point"},"properties":{"osm_id":"8211026293","tag":{"amenity":"waste_basket"}},"type":"Feature"},
	{"geometry":{"coordinates":[-97.389977,27.817248],"type":"Point"},"properties":{"osm_id":"8211026294","tag":{"amenity":"waste_basket"}},"type":"Feature"},
	{"geometry":{"coordinates":[-97.390219,27.816937],"type":"Point"},"properties":{"osm_id":"8211026297","tag":{"amenity":"waste_basket"}},"type":"Feature"},
	{"geometry":{"coordinates":[-97.392603,27.800153],"type":"Point"},"properties":{"osm_id":"8211604238","tag":{"amenity":"waste_disposal"}},"type":"Feature"},
	{"geometry":{"coordinates":[-97.395881,27.807098],"type":"Point"},"properties":{"osm_id":"8217846193","tag":{"amenity":"waste_disposal"}},"type":"Feature"},
	{"geometry":{"coordinates":[-97.396673,27.805304],"type":"Point"},"properties":{"osm_id":"8217875859","tag":{"amenity":"waste_disposal"}},"type":"Feature"},
	{"geometry":{"coordinates":[-97.393098,27.802973],"type":"Point"},"properties":{"osm_id":"8223095886","tag":{"amenity":"waste_disposal"}},"type":"Feature"},
	{"geometry":{"coordinates":[-97.394034,27.802915],"type":"Point"},"properties":{"osm_id":"8223207127","tag":{"amenity":"waste_disposal"}},"type":"Feature"}
]
}
