{
"type": "FeatureCollection",
"features": [
	{"geometry":{"coordinates":[25.502303,65.04417],"type":"Point"},"properties":{"osm_id":"291641201","tag":{"amenity":"waste_basket"}},"type":"Feature"},
	{"geometry":{"coordinates":[25.494195,65.068126],"type":"Point"},"properties":{"osm_id":"442612492","tag":{"amenity":"recycling"}},"type":"Feature"},
	{"geometry":{"coordinates":[25.496798,65.047339],"type":"Point"},"properties":{"osm_id":"1290399161","tag":{"amenity":"waste_basket"}},"type":"Feature"},
	{"geometry":{"coordinates":[25.539116,65.056605],"type":"Point"},"properties":{"osm_id":"1365285955","tag":{"amenity":"recycling","recycling:cardboard":"yes","recycling_type":"container"}},"type":"Feature"},
	{"geometry":{"coordinates":[25.53876,65.057115],"type":"Point"},"properties":{"osm_id":"1365285960","tag":{"amenity":"recycling","recycling:fluorescent_tubes":"yes","recycling:low_energy_bulbs":"yes","recycling_type":"container"}},"type":"Feature"},
	{"geometry":{"coordinates":[25.539689,65.056875],"type":"Point"},"properties":{"osm_id":"1365285963","tag":{"amenity":"recycling","recycling:tyres":"yes","recycling_type":"container"}},"type":"Feature"},
	{"geometry":{"coordinates":[25.538212,65.056699],"type":"Point"},"properties":{"osm_id":"1365294680","tag":{"amenity":"recycling","recycling:paper":"yes","recycling_type":"container"}},"type":"Feature"},
	{"geometry":{"coordinates":[25.539728,65.056791],"type":"Point"},"properties":{"osm_id":"1365294681","tag":{"amenity":"recycling","recycling:glass":"yes","recycling_type":"container"}},"type":"Feature"},
	{"geometry":{"coordinates":[25.538899,65.057153],"type":"Point"},"properties":{"osm_id":"1365294682","tag":{"amenity":"recycling","recycling:computers":"yes","recycling:electrical_items":"yes","recycling:mobile_phones":"yes","recycling:white_goods":"yes","recycling_type":"container"}},"type":"Feature"},
	{"geometry":{"coordinates":[25.538483,65.057038],"type":"Point"},"properties":{"osm_id":"1365301085","tag":{"amenity":"recycling","recycling:batteries":"yes","recycling:engine_oil":"yes","recycling:paint":"yes","recycling_type":"container"}},"type":"Feature"},
	{"geometry":{"coordinates":[25.495899,65.061346],"type":"Point"},"properties":{"osm_id":"4042209170","tag":{"amenity":"waste_basket"}},"type":"Feature"},
	{"geometry":{"coordinates":[25.538881,65.058128],"type":"Point"},"properties":{"name":"Ruskon j\u00c3\u00a4tekeskus","osm_id":"4437980117","tag":{"addr:housenumber":"10","addr:street":"Ruskonniityntie","amenity":"recycling","opening_hours":"Mo-Fr 07:00-20:00; Sa 08:30-15:00","website":"https://oulunjatehuolto.fi/oulun-jatehuolto/ruskon-jatekeskus/"}},"type":"Feature"},
	{"geometry":{"coordinates":[25.575363,65.039006],"type":"Point"},"properties":{"name":"Ekopiste","osm_id":"4988842830","tag":{"amenity":"recycling","recycling:carton":"yes","recycling:glass":"yes","recycling:metal":"yes","recycling:paper":"yes","recycling_type":"container"}},"type":"Feature"},
	{"geometry":{"coordinates":[25.566963,65.036924],"type":"Point"},"properties":{"osm_id":"4988842935","tag":{"amenity":"waste_basket"}},"type":"Feature"},
	{"geometry":{"coordinates":[25.506178,65.062088],"type":"Point"},"properties":{"osm_id":"5523562293","tag":{"amenity":"waste_basket"}},"type":"Feature"},
	{"geometry":{"coordinates":[25.554383,65.040167],"type":"Point"},"properties":{"name":"Ekopiste","osm_id":"5705001237","tag":{"amenity":"recycling","recycling:cartons":"yes","recycling:glass":"yes","recycling:paper":"yes","recycling:plastic":"yes","recycling_type":"container"}},"type":"Feature"},
	{"geometry":{"coordinates":[25.553856,65.040246],"type":"Point"},"properties":{"name":"Vaatteiden lahjoitus","osm_id":"5705001238","tag":{"amenity":"recycling","recycling:clothes":"yes","recycling:shoes":"yes","recycling_type":"container"}},"type":"Feature"},
	{"geometry":{"coordinates":[25.553415,65.039769],"type":"Point"},"properties":{"name":"Pullonpalautus","osm_id":"5705001247","tag":{"amenity":"recycling","name:en":"Bottle recycling","name:fi":"Pullonpalautus","recycling:cans":"yes","recycling:glass_bottles":"yes","recycling:plastic_bottles":"yes","recycling_type":"container"}},"type":"Feature"},
	{"geometry":{"coordinates":[25.494008,65.063836],"type":"Point"},"properties":{"osm_id":"7575251902","tag":{"amenity":"waste_basket"}},"type":"Feature"},
	{"geometry":{"coordinates":[25.499187,65.064366],"type":"Point"},"properties":{"osm_id":"7589990099","tag":{"amenity":"waste_basket"}},"type":"Feature"},
	{"geometry":{"coordinates":[25.502041,65.04601],"type":"Point"},"properties":{"osm_id":"7757535001","tag":{"amenity":"waste_basket"}},"type":"Feature"},
	{"geometry":{"coordinates":[25.510886,65.042882],"type":"Point"},"properties":{"osm_id":"7757535003","tag":{"amenity":"waste_basket"}},"type":"Feature"},
	{"geometry":{"coordinates":[25.513324,65.042978],"type":"Point"},"properties":{"osm_id":"7757535004","tag":{"amenity":"waste_basket"}},"type":"Feature"},
	{"geometry":{"coordinates":[25.528635,65.050868],"type":"Point"},"properties":{"osm_id":"7757535040","tag":{"amenity":"waste_basket"}},"type":"Feature"},
	{"geometry":{"coordinates":[25.53961,65.056981],"type":"Point"},"properties":{"osm_id":"7948188993","tag":{"amenity":"recycling","recycling:white_goods":"yes","recycling_type":"container"}},"type":"Feature"},
	{"geometry":{"coordinates":[25.539654,65.056649],"type":"Point"},"properties":{"osm_id":"7948188994","tag":{"amenity":"recycling","recycling:small_appliances":"yes","recycling_type":"container"}},"type":"Feature"},
	{"geometry":{"coordinates":[25.539721,65.056725],"type":"Point"},"properties":{"osm_id":"7948188995","tag":{"amenity":"recycling","recycling:tv_monitor":"yes","recycling_type":"container"}},"type":"Feature"},
	{"geometry":{"coordinates":[25.539434,65.056609],"type":"Point"},"properties":{"osm_id":"7948189002","tag":{"amenity":"recycling","recycling:scrap_metal":"yes","recycling_type":"container"}},"type":"Feature"},
	{"geometry":{"coordinates":[25.538538,65.056651],"type":"Point"},"properties":{"osm_id":"7948189015","tag":{"amenity":"recycling","recycling:wood":"yes","recycling_type":"container"}},"type":"Feature"}
]
}
