{
"type": "FeatureCollection",
"lastupdate": "2020-07-31T00:00:00Z",
"features": [
	{"geometry":{"coordinates":[25.554104,61.170667],"type":"Point"},"properties":{"osm_id":"835464255","tag":{"amenity":"waste_basket"}},"type":"Feature"},
	{"geometry":{"coordinates":[25.544424,61.179147],"type":"Point"},"properties":{"name":"Veneilij\u00c3\u00a4n ekopiste","osm_id":"3679533916","tag":{"amenity":"recycling","operator":"Asikkalan kunta;Pid\u00e4 Saaristo Siistin\u00e4 ry","recycling:glass":"yes","recycling:organic":"yes"}},"type":"Feature"},
	{"geometry":{"coordinates":[25.544932,61.179641],"type":"Point"},"properties":{"osm_id":"3679533923","tag":{"amenity":"waste_basket"}},"type":"Feature"},
	{"geometry":{"coordinates":[25.545808,61.178886],"type":"Point"},"properties":{"osm_id":"3679536267","tag":{"amenity":"waste_basket"}},"type":"Feature"},
	{"geometry":{"coordinates":[25.540767,61.177864],"type":"Point"},"properties":{"osm_id":"3679536275","tag":{"amenity":"waste_basket"}},"type":"Feature"},
	{"geometry":{"coordinates":[25.5396,61.177307],"type":"Point"},"properties":{"osm_id":"3679536281","tag":{"amenity":"waste_basket"}},"type":"Feature"},
	{"geometry":{"coordinates":[25.537139,61.176334],"type":"Point"},"properties":{"osm_id":"3679536301","tag":{"amenity":"waste_basket"}},"type":"Feature"},
	{"geometry":{"coordinates":[25.553294,61.171957],"type":"Point"},"properties":{"osm_id":"3684363206","tag":{"amenity":"recycling","operator":"Suomen UFF ry","recycling:cardboard":"yes","recycling:clothes":"yes","recycling:glass":"yes","recycling:paper":"yes"}},"type":"Feature"},
	{"geometry":{"coordinates":[25.552864,61.172583],"type":"Point"},"properties":{"osm_id":"3684363352","tag":{"amenity":"waste_basket"}},"type":"Feature"},
	{"geometry":{"coordinates":[25.550951,61.172509],"type":"Point"},"properties":{"osm_id":"3684363367","tag":{"amenity":"waste_basket"}},"type":"Feature"},
	{"geometry":{"coordinates":[25.548701,61.17268],"type":"Point"},"properties":{"osm_id":"3684610012","tag":{"amenity":"waste_basket"}},"type":"Feature"},
	{"geometry":{"coordinates":[25.549376,61.172259],"type":"Point"},"properties":{"osm_id":"3684619243","tag":{"access":"no","amenity":"recycling","recycling:cans":"no","recycling:cardboard":"yes","recycling:clothes":"no","recycling:energy_waste":"yes","recycling:glass":"no","recycling:organic":"yes","recycling:paper":"yes"}},"type":"Feature"},
	{"geometry":{"coordinates":[25.550485,61.172296],"type":"Point"},"properties":{"osm_id":"3684619245","tag":{"amenity":"waste_basket"}},"type":"Feature"},
	{"geometry":{"coordinates":[25.550696,61.172181],"type":"Point"},"properties":{"osm_id":"3684619246","tag":{"amenity":"waste_basket"}},"type":"Feature"},
	{"geometry":{"coordinates":[25.551024,61.172189],"type":"Point"},"properties":{"osm_id":"3684619247","tag":{"amenity":"waste_basket"}},"type":"Feature"},
	{"geometry":{"coordinates":[25.552226,61.171777],"type":"Point"},"properties":{"name":"Pullonpalautus","osm_id":"3684619255","tag":{"amenity":"recycling","recycling:cans":"no","recycling:clothes":"no","recycling:glass":"no","recycling:glass_bottles":"yes","recycling:paper":"no","recycling:plastic_bottles":"yes","recycling_type":"reverse_vending_machine"}},"type":"Feature"}
]
}
