{
"type": "FeatureCollection",
"features": [
	{"geometry":{"coordinates":[25.544852,60.980575],"type":"Point"},"properties":{"osm_id":"437464342","tag":{"amenity":"recycling","recycling:paper":"yes"}},"type":"Feature"},
	{"geometry":{"coordinates":[25.527635,60.981193],"type":"Point"},"properties":{"osm_id":"447873795","tag":{"amenity":"recycling","recycling_type":"container"}},"type":"Feature"},
	{"geometry":{"coordinates":[25.567309,60.991187],"type":"Point"},"properties":{"highway":"bus_stop","name":"Keskussairaala","osm_id":"517798818","tag":{"amenity":"waste_basket","shelter":"yes"}},"type":"Feature"},
	{"geometry":{"coordinates":[25.491655,60.987705],"type":"Point"},"properties":{"osm_id":"546270114","tag":{"amenity":"waste_basket"}},"type":"Feature"},
	{"geometry":{"coordinates":[25.495597,60.987955],"type":"Point"},"properties":{"osm_id":"546270197","tag":{"amenity":"waste_basket"}},"type":"Feature"},
	{"geometry":{"coordinates":[25.571768,60.975543],"type":"Point"},"properties":{"highway":"bus_stop","osm_id":"564708499","tag":{"amenity":"waste_basket","shelter":"no"}},"type":"Feature"},
	{"geometry":{"coordinates":[25.569684,60.981532],"type":"Point"},"properties":{"highway":"bus_stop","osm_id":"564708501","tag":{"amenity":"waste_basket","shelter":"no"}},"type":"Feature"},
	{"geometry":{"coordinates":[25.57144,60.975597],"type":"Point"},"properties":{"highway":"bus_stop","osm_id":"579855844","tag":{"amenity":"waste_basket","shelter":"no"}},"type":"Feature"},
	{"geometry":{"coordinates":[25.568636,60.990892],"type":"Point"},"properties":{"highway":"bus_stop","name":"Keskussairaala","osm_id":"588253968","tag":{"amenity":"waste_basket","shelter":"yes"}},"type":"Feature"},
	{"geometry":{"coordinates":[25.521353,60.991028],"type":"Point"},"properties":{"osm_id":"599302899","tag":{"amenity":"recycling","recycling:aluminium":"yes","recycling:cans":"yes","recycling:cardboard":"yes","recycling:cartons":"yes","recycling:clothes":"yes","recycling:glass":"yes","recycling:paper":"yes","recycling:shoes":"yes"}},"type":"Feature"},
	{"geometry":{"coordinates":[25.506741,60.996594],"type":"Point"},"properties":{"osm_id":"614729520","tag":{"amenity":"waste_basket"}},"type":"Feature"},
	{"geometry":{"coordinates":[25.556809,60.982119],"type":"Point"},"properties":{"highway":"bus_stop","name":"Riihel\u00c3\u00a4n p\u00c3\u00a4\u00c3\u00a4te","osm_id":"638570246","tag":{"amenity":"waste_basket","shelter":"yes"}},"type":"Feature"},
	{"geometry":{"coordinates":[25.564628,60.983701],"type":"Point"},"properties":{"highway":"bus_stop","name":"Uotilankatu","osm_id":"638570262","tag":{"amenity":"waste_basket","shelter":"yes"}},"type":"Feature"},
	{"geometry":{"coordinates":[25.573326,60.989667],"type":"Point"},"properties":{"highway":"bus_stop","name":"Sykekatu","osm_id":"656144358","tag":{"amenity":"waste_basket","shelter":"no"}},"type":"Feature"},
	{"geometry":{"coordinates":[25.505363,60.9914],"type":"Point"},"properties":{"osm_id":"659529528","tag":{"amenity":"waste_basket"}},"type":"Feature"},
	{"geometry":{"coordinates":[25.50739,60.986691],"type":"Point"},"properties":{"osm_id":"728357036","tag":{"amenity":"waste_basket"}},"type":"Feature"},
	{"geometry":{"coordinates":[25.49117,60.994525],"type":"Point"},"properties":{"osm_id":"760286263","tag":{"amenity":"recycling","recycling:paper":"yes","recycling_type":"container"}},"type":"Feature"},
	{"geometry":{"coordinates":[25.493552,60.994523],"type":"Point"},"properties":{"osm_id":"760286376","tag":{"amenity":"recycling","recycling:paper":"yes","recycling_type":"container"}},"type":"Feature"},
	{"geometry":{"coordinates":[25.512435,60.99962],"type":"Point"},"properties":{"osm_id":"2301140121","tag":{"amenity":"waste_basket"}},"type":"Feature"},
	{"geometry":{"coordinates":[25.503564,61.001848],"type":"Point"},"properties":{"osm_id":"2301140125","tag":{"amenity":"waste_basket"}},"type":"Feature"},
	{"geometry":{"coordinates":[25.52154,60.995687],"type":"Point"},"properties":{"osm_id":"6634227189","tag":{"amenity":"waste_basket"}},"type":"Feature"},
	{"geometry":{"coordinates":[25.509256,60.998781],"type":"Point"},"properties":{"osm_id":"6634227856","tag":{"amenity":"waste_basket"}},"type":"Feature"},
	{"geometry":{"coordinates":[25.494197,60.997084],"type":"Point"},"properties":{"osm_id":"6635007787","tag":{"amenity":"waste_basket"}},"type":"Feature"},
	{"geometry":{"coordinates":[25.494003,60.996987],"type":"Point"},"properties":{"osm_id":"6635007789","tag":{"amenity":"waste_basket"}},"type":"Feature"},
	{"geometry":{"coordinates":[25.494146,60.997143],"type":"Point"},"properties":{"osm_id":"6635007887","tag":{"amenity":"waste_basket"}},"type":"Feature"},
	{"geometry":{"coordinates":[25.489998,60.986739],"type":"Point"},"properties":{"osm_id":"6635031185","tag":{"amenity":"waste_basket"}},"type":"Feature"},
	{"geometry":{"coordinates":[25.509135,60.987068],"type":"Point"},"properties":{"osm_id":"6635271788","tag":{"amenity":"waste_basket"}},"type":"Feature"},
	{"geometry":{"coordinates":[25.508749,60.987237],"type":"Point"},"properties":{"osm_id":"6635322786","tag":{"amenity":"waste_basket"}},"type":"Feature"},
	{"geometry":{"coordinates":[25.508474,60.987238],"type":"Point"},"properties":{"osm_id":"6635322788","tag":{"amenity":"waste_basket"}},"type":"Feature"},
	{"geometry":{"coordinates":[25.507786,60.987693],"type":"Point"},"properties":{"osm_id":"6635322791","tag":{"amenity":"waste_basket"}},"type":"Feature"},
	{"geometry":{"coordinates":[25.520805,61.008234],"type":"Point"},"properties":{"osm_id":"6655455885","tag":{"amenity":"waste_basket"}},"type":"Feature"},
	{"geometry":{"coordinates":[25.504979,60.991474],"type":"Point"},"properties":{"osm_id":"6698621288","tag":{"amenity":"waste_basket"}},"type":"Feature"},
	{"geometry":{"coordinates":[25.504959,60.995191],"type":"Point"},"properties":{"osm_id":"6698623088","tag":{"amenity":"waste_basket"}},"type":"Feature"},
	{"geometry":{"coordinates":[25.512067,60.997744],"type":"Point"},"properties":{"osm_id":"6699305536","tag":{"amenity":"waste_basket"}},"type":"Feature"},
	{"geometry":{"coordinates":[25.524374,60.995605],"type":"Point"},"properties":{"osm_id":"6699305826","tag":{"amenity":"waste_basket"}},"type":"Feature"},
	{"geometry":{"coordinates":[25.494373,60.990105],"type":"Point"},"properties":{"osm_id":"6761399440","tag":{"amenity":"waste_basket"}},"type":"Feature"},
	{"geometry":{"coordinates":[25.492248,60.988977],"type":"Point"},"properties":{"osm_id":"6761399451","tag":{"amenity":"waste_basket"}},"type":"Feature"},
	{"geometry":{"coordinates":[25.503335,60.994707],"type":"Point"},"properties":{"osm_id":"6761399460","tag":{"amenity":"waste_basket"}},"type":"Feature"},
	{"geometry":{"coordinates":[25.49948,60.992959],"type":"Point"},"properties":{"osm_id":"6761399463","tag":{"amenity":"waste_basket"}},"type":"Feature"},
	{"geometry":{"coordinates":[25.542375,60.987663],"type":"Point"},"properties":{"osm_id":"6764282788","tag":{"amenity":"recycling"}},"type":"Feature"},
	{"geometry":{"coordinates":[25.513473,60.990332],"type":"Point"},"properties":{"osm_id":"6771810387","tag":{"amenity":"waste_basket"}},"type":"Feature"},
	{"geometry":{"coordinates":[25.513736,60.988679],"type":"Point"},"properties":{"osm_id":"6771810389","tag":{"amenity":"waste_basket"}},"type":"Feature"},
	{"geometry":{"coordinates":[25.514632,60.988095],"type":"Point"},"properties":{"osm_id":"6771810390","tag":{"amenity":"waste_basket"}},"type":"Feature"},
	{"geometry":{"coordinates":[25.514838,60.98841],"type":"Point"},"properties":{"osm_id":"6771810391","tag":{"amenity":"waste_basket"}},"type":"Feature"},
	{"geometry":{"coordinates":[25.515122,60.9897],"type":"Point"},"properties":{"osm_id":"6771810392","tag":{"amenity":"waste_basket"}},"type":"Feature"},
	{"geometry":{"coordinates":[25.506763,60.994348],"type":"Point"},"properties":{"osm_id":"6771810395","tag":{"amenity":"waste_basket"}},"type":"Feature"},
	{"geometry":{"coordinates":[25.513991,60.988134],"type":"Point"},"properties":{"osm_id":"6771810489","tag":{"amenity":"waste_basket"}},"type":"Feature"},
	{"geometry":{"coordinates":[25.515903,60.989766],"type":"Point"},"properties":{"osm_id":"6771810490","tag":{"amenity":"waste_basket"}},"type":"Feature"},
	{"geometry":{"coordinates":[25.513674,60.990911],"type":"Point"},"properties":{"osm_id":"6771810491","tag":{"amenity":"waste_basket"}},"type":"Feature"},
	{"geometry":{"coordinates":[25.512669,60.990673],"type":"Point"},"properties":{"osm_id":"6771810585","tag":{"amenity":"waste_basket"}},"type":"Feature"},
	{"geometry":{"coordinates":[25.514829,60.988382],"type":"Point"},"properties":{"osm_id":"6771810587","tag":{"amenity":"waste_basket"}},"type":"Feature"},
	{"geometry":{"coordinates":[25.51513,60.989758],"type":"Point"},"properties":{"osm_id":"6771810588","tag":{"amenity":"waste_basket"}},"type":"Feature"},
	{"geometry":{"coordinates":[25.506922,60.994525],"type":"Point"},"properties":{"osm_id":"6771810589","tag":{"amenity":"waste_basket"}},"type":"Feature"},
	{"geometry":{"coordinates":[25.506282,60.996187],"type":"Point"},"properties":{"osm_id":"6771810591","tag":{"amenity":"waste_basket"}},"type":"Feature"},
	{"geometry":{"coordinates":[25.51383,60.989018],"type":"Point"},"properties":{"osm_id":"6771810685","tag":{"amenity":"waste_basket"}},"type":"Feature"},
	{"geometry":{"coordinates":[25.514742,60.989638],"type":"Point"},"properties":{"osm_id":"6771810686","tag":{"amenity":"waste_basket"}},"type":"Feature"},
	{"geometry":{"coordinates":[25.514756,60.98811],"type":"Point"},"properties":{"osm_id":"6771810785","tag":{"amenity":"waste_basket"}},"type":"Feature"},
	{"geometry":{"coordinates":[25.510331,60.992563],"type":"Point"},"properties":{"osm_id":"6771810786","tag":{"amenity":"waste_basket"}},"type":"Feature"},
	{"geometry":{"coordinates":[25.509971,60.992919],"type":"Point"},"properties":{"osm_id":"6771810787","tag":{"amenity":"waste_basket"}},"type":"Feature"},
	{"geometry":{"coordinates":[25.514599,60.988046],"type":"Point"},"properties":{"osm_id":"6771810885","tag":{"amenity":"waste_basket"}},"type":"Feature"},
	{"geometry":{"coordinates":[25.493384,61.001057],"type":"Point"},"properties":{"osm_id":"6772636759","tag":{"amenity":"recycling","recycling:paper":"yes","recycling_type":"container"}},"type":"Feature"},
	{"geometry":{"coordinates":[25.502566,60.988295],"type":"Point"},"properties":{"osm_id":"6772688686","tag":{"amenity":"waste_basket"}},"type":"Feature"},
	{"geometry":{"coordinates":[25.502587,60.988452],"type":"Point"},"properties":{"osm_id":"6772688785","tag":{"amenity":"waste_basket"}},"type":"Feature"},
	{"geometry":{"coordinates":[25.491753,60.986642],"type":"Point"},"properties":{"osm_id":"6772688786","tag":{"amenity":"waste_basket"}},"type":"Feature"},
	{"geometry":{"coordinates":[25.491662,60.986637],"type":"Point"},"properties":{"osm_id":"6772688787","tag":{"amenity":"waste_basket"}},"type":"Feature"},
	{"geometry":{"coordinates":[25.491381,60.986619],"type":"Point"},"properties":{"osm_id":"6772688888","tag":{"amenity":"waste_basket"}},"type":"Feature"},
	{"geometry":{"coordinates":[25.495867,60.988085],"type":"Point"},"properties":{"osm_id":"6772689086","tag":{"amenity":"waste_basket"}},"type":"Feature"},
	{"geometry":{"coordinates":[25.491964,60.986684],"type":"Point"},"properties":{"osm_id":"6772689185","tag":{"amenity":"waste_basket"}},"type":"Feature"},
	{"geometry":{"coordinates":[25.492118,60.986529],"type":"Point"},"properties":{"osm_id":"6772689186","tag":{"amenity":"waste_basket"}},"type":"Feature"},
	{"geometry":{"coordinates":[25.49221,60.986471],"type":"Point"},"properties":{"osm_id":"6772689285","tag":{"amenity":"waste_basket"}},"type":"Feature"},
	{"geometry":{"coordinates":[25.50386,60.991117],"type":"Point"},"properties":{"osm_id":"6815140701","tag":{"amenity":"waste_basket"}},"type":"Feature"},
	{"geometry":{"coordinates":[25.504167,60.991359],"type":"Point"},"properties":{"osm_id":"6815140905","tag":{"amenity":"waste_basket"}},"type":"Feature"},
	{"geometry":{"coordinates":[25.504787,60.991133],"type":"Point"},"properties":{"osm_id":"6815140906","tag":{"amenity":"waste_basket"}},"type":"Feature"},
	{"geometry":{"coordinates":[25.53404,61.001865],"type":"Point"},"properties":{"osm_id":"6916237672","tag":{"amenity":"waste_basket"}},"type":"Feature"},
	{"geometry":{"coordinates":[25.492432,60.999909],"type":"Point"},"properties":{"osm_id":"7023379414","tag":{"amenity":"waste_basket"}},"type":"Feature"},
	{"geometry":{"coordinates":[25.500768,61.001514],"type":"Point"},"properties":{"osm_id":"7089561323","tag":{"amenity":"recycling","recycling:paper":"yes","recycling_type":"container"}},"type":"Feature"},
	{"geometry":{"coordinates":[25.507384,60.989102],"type":"Point"},"properties":{"osm_id":"7089561324","tag":{"amenity":"waste_basket"}},"type":"Feature"},
	{"geometry":{"coordinates":[25.513577,60.988105],"type":"Point"},"properties":{"osm_id":"7089561332","tag":{"amenity":"waste_basket"}},"type":"Feature"},
	{"geometry":{"coordinates":[25.511805,60.997889],"type":"Point"},"properties":{"osm_id":"7093439396","tag":{"amenity":"recycling","ele:msl":"177.1","ele:source":"GPS","recycling_type":"container"}},"type":"Feature"},
	{"geometry":{"coordinates":[25.492407,60.998221],"type":"Point"},"properties":{"osm_id":"7100853205","tag":{"amenity":"recycling","recycling:clothes":"yes","recycling:paper":"yes","recycling_type":"container"}},"type":"Feature"},
	{"geometry":{"coordinates":[25.509592,60.989148],"type":"Point"},"properties":{"osm_id":"7100853219","tag":{"amenity":"waste_basket"}},"type":"Feature"},
	{"geometry":{"coordinates":[25.511927,60.988808],"type":"Point"},"properties":{"osm_id":"7100853243","tag":{"amenity":"waste_basket"}},"type":"Feature"},
	{"geometry":{"coordinates":[25.510748,60.988861],"type":"Point"},"properties":{"osm_id":"7100853247","tag":{"amenity":"waste_basket"}},"type":"Feature"},
	{"geometry":{"coordinates":[25.512439,60.988726],"type":"Point"},"properties":{"osm_id":"7100853268","tag":{"amenity":"waste_basket"}},"type":"Feature"},
	{"geometry":{"coordinates":[25.541114,61.010808],"type":"Point"},"properties":{"osm_id":"7227857158","tag":{"amenity":"waste_basket"}},"type":"Feature"},
	{"geometry":{"coordinates":[25.541143,61.010587],"type":"Point"},"properties":{"osm_id":"7227857159","tag":{"amenity":"waste_basket"}},"type":"Feature"},
	{"geometry":{"coordinates":[25.540658,61.01207],"type":"Point"},"properties":{"osm_id":"7227857176","tag":{"amenity":"waste_basket"}},"type":"Feature"},
	{"geometry":{"coordinates":[25.548414,61.008951],"type":"Point"},"properties":{"osm_id":"7236873286","tag":{"amenity":"waste_basket"}},"type":"Feature"},
	{"geometry":{"coordinates":[25.549672,61.0105],"type":"Point"},"properties":{"osm_id":"7237064771","tag":{"amenity":"waste_basket"}},"type":"Feature"}
]
}
