{
"type": "FeatureCollection",
"features": [
	{"geometry":{"coordinates":[25.54092,58.871631],"type":"Point"},"properties":{"name":"Kuusakoski","osm_id":"3657158603","tag":{"addr:city":"Paide","addr:housenumber":"49","addr:street":"M\u00c3\u00bcndi","amenity":"recycling","recycling_type":"container"}},"type":"Feature"},
	{"geometry":{"coordinates":[25.541886,58.871898],"type":"Point"},"properties":{"name":"Paide J\u00c3\u00a4\u00c3\u00a4tmejaam","osm_id":"3657164315","tag":{"addr:city":"Paide","addr:housenumber":"49","addr:street":"M\u00c3\u00bcndi","amenity":"recycling","recycling_type":"container"}},"type":"Feature"},
	{"geometry":{"coordinates":[25.539913,58.884248],"type":"Point"},"properties":{"osm_id":"8203430144","tag":{"amenity":"waste_basket","waste":"recycling"}},"type":"Feature"},
	{"geometry":{"coordinates":[25.562985,58.892927],"type":"Point"},"properties":{"osm_id":"9192991274","tag":{"amenity":"waste_basket"}},"type":"Feature"},
	{"geometry":{"coordinates":[25.563159,58.892652],"type":"Point"},"properties":{"osm_id":"9192991327","tag":{"amenity":"waste_basket"}},"type":"Feature"},
	{"geometry":{"coordinates":[25.563236,58.893262],"type":"Point"},"properties":{"osm_id":"9192991537","tag":{"amenity":"waste_basket"}},"type":"Feature"}
]
}
