{
"type": "FeatureCollection",
"lastupdate": "2020-07-31T00:00:00Z",
"features": [
	{"geometry":{"coordinates":[2.1127,49.467915],"type":"Point"},"properties":{"osm_id":"5838571206","tag":{"amenity":"waste_basket"}},"type":"Feature"},
	{"geometry":{"coordinates":[2.112452,49.46791],"type":"Point"},"properties":{"osm_id":"5838571207","tag":{"amenity":"waste_basket"}},"type":"Feature"},
	{"geometry":{"coordinates":[2.112169,49.46785],"type":"Point"},"properties":{"osm_id":"5838571208","tag":{"amenity":"waste_basket"}},"type":"Feature"},
	{"geometry":{"coordinates":[2.111807,49.467731],"type":"Point"},"properties":{"osm_id":"5838571209","tag":{"amenity":"waste_basket"}},"type":"Feature"},
	{"geometry":{"coordinates":[2.129205,49.440374],"type":"Point"},"properties":{"name":"D\u00c3\u00a9cheterie de la Communaut\u00c3\u00a9 d\u00e2\u0080\u0099Agglom\u00c3\u00a9ration du Beauvaisis (CAB)","osm_id":"7163440130","tag":{"addr:city":"Beauvais","addr:housenumber":"6","addr:postcode":"60000","addr:street":"Rue Marius Doffoy","amenity":"recycling","building":"yes","recycling_type":"centre"}},"type":"Feature"},
	{"geometry":{"coordinates":[2.128946,49.484828],"type":"Point"},"properties":{"osm_id":"7528077361","tag":{"amenity":"recycling","recycling:glass_bottles":"yes","recycling_type":"container","wikimedia_commons":"File:Recyclage \u00e0 Guignecourt le 11 juillet 2015.jpg"}},"type":"Feature"},
	{"geometry":{"coordinates":[2.12893,49.484818],"type":"Point"},"properties":{"osm_id":"7528077362","tag":{"amenity":"recycling","recycling:glass_bottles":"yes","recycling_type":"container","wikimedia_commons":"File:Recyclage \u00e0 Guignecourt le 11 juillet 2015.jpg"}},"type":"Feature"},
	{"geometry":{"coordinates":[2.128891,49.484818],"type":"Point"},"properties":{"osm_id":"7528077363","tag":{"amenity":"recycling","operator":"Le Relais","recycling:clothes":"yes","recycling_type":"container","wikimedia_commons":"File:Recyclage \u00e0 Guignecourt le 11 juillet 2015.jpg"}},"type":"Feature"},
	{"geometry":{"coordinates":[2.188227,49.472527],"type":"Point"},"properties":{"name":"D\u00c3\u00a9cheterie de Velennes","osm_id":"7556315957","tag":{"addr:city":"Velennes","addr:street":"Route de Fouquerolles","amenity":"recycling","building":"yes","recycling_type":"centre"}},"type":"Feature"}
]
}
