{
"type": "FeatureCollection",
"features": [
	{"geometry":{"coordinates":[2.113017,49.019178],"type":"Point"},"properties":{"osm_id":"794784858","tag":{"amenity":"recycling"}},"type":"Feature"},
	{"geometry":{"coordinates":[2.111816,49.022883],"type":"Point"},"properties":{"osm_id":"794784865","tag":{"amenity":"recycling"}},"type":"Feature"},
	{"geometry":{"coordinates":[2.113897,49.016575],"type":"Point"},"properties":{"osm_id":"794784914","tag":{"amenity":"recycling"}},"type":"Feature"},
	{"geometry":{"coordinates":[2.187736,48.998194],"type":"Point"},"properties":{"osm_id":"1743645055","tag":{"amenity":"waste_basket"}},"type":"Feature"},
	{"geometry":{"coordinates":[2.186719,48.99839],"type":"Point"},"properties":{"osm_id":"1743645074","tag":{"amenity":"waste_basket"}},"type":"Feature"},
	{"geometry":{"coordinates":[2.196755,48.993436],"type":"Point"},"properties":{"osm_id":"1751757203","tag":{"amenity":"waste_basket"}},"type":"Feature"},
	{"geometry":{"coordinates":[2.192433,48.995438],"type":"Point"},"properties":{"osm_id":"1751757300","tag":{"amenity":"waste_basket"}},"type":"Feature"},
	{"geometry":{"coordinates":[2.191472,48.995955],"type":"Point"},"properties":{"osm_id":"1753109124","tag":{"amenity":"waste_basket"}},"type":"Feature"},
	{"geometry":{"coordinates":[2.190955,48.996245],"type":"Point"},"properties":{"osm_id":"1753109165","tag":{"amenity":"recycling","location":"overground","operator":"Samu Social","recycling:clothes":"yes","recycling_type":"container"}},"type":"Feature"},
	{"geometry":{"coordinates":[2.190623,48.996463],"type":"Point"},"properties":{"osm_id":"1753109182","tag":{"amenity":"waste_basket"}},"type":"Feature"},
	{"geometry":{"coordinates":[2.189625,48.996927],"type":"Point"},"properties":{"osm_id":"1753109200","tag":{"amenity":"waste_basket"}},"type":"Feature"},
	{"geometry":{"coordinates":[2.188912,48.997349],"type":"Point"},"properties":{"osm_id":"1753109221","tag":{"amenity":"waste_basket"}},"type":"Feature"},
	{"geometry":{"coordinates":[2.18661,48.998205],"type":"Point"},"properties":{"osm_id":"1753109227","tag":{"amenity":"waste_basket"}},"type":"Feature"},
	{"geometry":{"coordinates":[2.171704,48.992083],"type":"Point"},"properties":{"name":"Container \u00c3\u00a0 v\u00c3\u00aatements","osm_id":"1792318139","tag":{"amenity":"recycling"}},"type":"Feature"},
	{"geometry":{"coordinates":[2.162916,48.989864],"type":"Point"},"properties":{"osm_id":"2775776319","tag":{"amenity":"waste_basket"}},"type":"Feature"},
	{"geometry":{"coordinates":[2.162417,48.99],"type":"Point"},"properties":{"osm_id":"2775776333","tag":{"amenity":"waste_basket"}},"type":"Feature"},
	{"geometry":{"coordinates":[2.162554,48.990027],"type":"Point"},"properties":{"osm_id":"2775776351","tag":{"amenity":"waste_basket"}},"type":"Feature"},
	{"geometry":{"coordinates":[2.162298,48.990042],"type":"Point"},"properties":{"osm_id":"2775776358","tag":{"amenity":"waste_basket"}},"type":"Feature"},
	{"geometry":{"coordinates":[2.162155,48.990108],"type":"Point"},"properties":{"osm_id":"2775776390","tag":{"amenity":"waste_basket"}},"type":"Feature"},
	{"geometry":{"coordinates":[2.162339,48.99013],"type":"Point"},"properties":{"osm_id":"2775776392","tag":{"amenity":"waste_basket"}},"type":"Feature"},
	{"geometry":{"coordinates":[2.162194,48.990233],"type":"Point"},"properties":{"osm_id":"2775776421","tag":{"amenity":"waste_basket"}},"type":"Feature"},
	{"geometry":{"coordinates":[2.162169,48.990248],"type":"Point"},"properties":{"osm_id":"2775776439","tag":{"amenity":"waste_basket"}},"type":"Feature"},
	{"geometry":{"coordinates":[2.162101,48.990308],"type":"Point"},"properties":{"osm_id":"2775776457","tag":{"amenity":"waste_basket"}},"type":"Feature"},
	{"geometry":{"coordinates":[2.161846,48.990354],"type":"Point"},"properties":{"osm_id":"2775776471","tag":{"amenity":"waste_basket"}},"type":"Feature"},
	{"geometry":{"coordinates":[2.161644,48.990364],"type":"Point"},"properties":{"osm_id":"2775776472","tag":{"amenity":"waste_basket"}},"type":"Feature"},
	{"geometry":{"coordinates":[2.161527,48.990516],"type":"Point"},"properties":{"osm_id":"2775776490","tag":{"amenity":"waste_basket"}},"type":"Feature"},
	{"geometry":{"coordinates":[2.162335,48.990165],"type":"Point"},"properties":{"osm_id":"2806888202","tag":{"amenity":"waste_basket"}},"type":"Feature"},
	{"geometry":{"coordinates":[2.162264,48.990324],"type":"Point"},"properties":{"osm_id":"2806888207","tag":{"amenity":"waste_basket"}},"type":"Feature"},
	{"geometry":{"coordinates":[2.16202,48.990366],"type":"Point"},"properties":{"osm_id":"2806888213","tag":{"amenity":"waste_basket"}},"type":"Feature"},
	{"geometry":{"coordinates":[2.161974,48.990428],"type":"Point"},"properties":{"osm_id":"2806888230","tag":{"amenity":"waste_basket"}},"type":"Feature"},
	{"geometry":{"coordinates":[2.180144,48.980221],"type":"Point"},"properties":{"osm_id":"2870453685","tag":{"amenity":"waste_basket"}},"type":"Feature"},
	{"geometry":{"coordinates":[2.179916,48.98024],"type":"Point"},"properties":{"osm_id":"2870453688","tag":{"amenity":"waste_basket"}},"type":"Feature"},
	{"geometry":{"coordinates":[2.180211,48.980282],"type":"Point"},"properties":{"osm_id":"2870453696","tag":{"amenity":"waste_basket"}},"type":"Feature"},
	{"geometry":{"coordinates":[2.180191,48.980304],"type":"Point"},"properties":{"osm_id":"2870453700","tag":{"amenity":"waste_basket"}},"type":"Feature"},
	{"geometry":{"coordinates":[2.180073,48.980342],"type":"Point"},"properties":{"osm_id":"2870453807","tag":{"amenity":"waste_basket"}},"type":"Feature"},
	{"geometry":{"coordinates":[2.193722,48.999015],"type":"Point"},"properties":{"osm_id":"3387989881","tag":{"amenity":"waste_basket"}},"type":"Feature"},
	{"geometry":{"coordinates":[2.192397,49.002107],"type":"Point"},"properties":{"osm_id":"3444214120","tag":{"amenity":"waste_basket"}},"type":"Feature"},
	{"geometry":{"coordinates":[2.153774,49.019531],"type":"Point"},"properties":{"osm_id":"3905983563","tag":{"amenity":"waste_basket","level":"0"}},"type":"Feature"},
	{"geometry":{"coordinates":[2.153695,49.019479],"type":"Point"},"properties":{"osm_id":"3906035157","tag":{"amenity":"waste_basket","level":"0","operator":"SNCF"}},"type":"Feature"},
	{"geometry":{"coordinates":[2.127682,49.033793],"type":"Point"},"properties":{"osm_id":"4237124261","tag":{"amenity":"waste_basket"}},"type":"Feature"},
	{"geometry":{"coordinates":[2.127904,49.033915],"type":"Point"},"properties":{"osm_id":"4237124265","tag":{"amenity":"waste_basket"}},"type":"Feature"},
	{"geometry":{"coordinates":[2.1284,49.033454],"type":"Point"},"properties":{"osm_id":"6064247712","tag":{"amenity":"waste_basket"}},"type":"Feature"},
	{"geometry":{"coordinates":[2.128038,49.03342],"type":"Point"},"properties":{"osm_id":"6064247718","tag":{"amenity":"waste_basket"}},"type":"Feature"},
	{"geometry":{"coordinates":[2.128042,49.033486],"type":"Point"},"properties":{"osm_id":"6064247728","tag":{"amenity":"waste_basket"}},"type":"Feature"},
	{"geometry":{"coordinates":[2.128134,49.03352],"type":"Point"},"properties":{"osm_id":"6064247734","tag":{"amenity":"waste_basket"}},"type":"Feature"},
	{"geometry":{"coordinates":[2.128247,49.033609],"type":"Point"},"properties":{"osm_id":"6064247740","tag":{"amenity":"waste_basket"}},"type":"Feature"},
	{"geometry":{"coordinates":[2.128255,49.033668],"type":"Point"},"properties":{"osm_id":"6064247746","tag":{"amenity":"waste_basket"}},"type":"Feature"},
	{"geometry":{"coordinates":[2.128249,49.033741],"type":"Point"},"properties":{"osm_id":"6064247748","tag":{"amenity":"waste_basket"}},"type":"Feature"},
	{"geometry":{"coordinates":[2.127993,49.03393],"type":"Point"},"properties":{"osm_id":"6064247758","tag":{"amenity":"waste_basket","level":"0"}},"type":"Feature"},
	{"geometry":{"coordinates":[2.128032,49.033888],"type":"Point"},"properties":{"osm_id":"6064247759","tag":{"amenity":"waste_basket","level":"0"}},"type":"Feature"},
	{"geometry":{"coordinates":[2.141314,48.999298],"type":"Point"},"properties":{"osm_id":"6213753194","tag":{"amenity":"recycling","recycling_type":"container"}},"type":"Feature"},
	{"geometry":{"coordinates":[2.185595,49.017785],"type":"Point"},"properties":{"osm_id":"6215828247","tag":{"amenity":"recycling","recycling:clothes":"yes","recycling:shoes":"yes","recycling_type":"container"}},"type":"Feature"},
	{"geometry":{"coordinates":[2.195347,49.002423],"type":"Point"},"properties":{"osm_id":"6267883341","tag":{"amenity":"waste_basket"}},"type":"Feature"},
	{"geometry":{"coordinates":[2.189058,48.996977],"type":"Point"},"properties":{"osm_id":"6267971285","tag":{"amenity":"waste_basket"}},"type":"Feature"},
	{"geometry":{"coordinates":[2.176718,49.00272],"type":"Point"},"properties":{"osm_id":"6288754576","tag":{"amenity":"recycling","recycling:clothes":"yes"}},"type":"Feature"},
	{"geometry":{"coordinates":[2.143592,48.999381],"type":"Point"},"properties":{"osm_id":"6464139210","tag":{"amenity":"recycling","recycling_type":"container"}},"type":"Feature"},
	{"geometry":{"coordinates":[2.136175,48.993947],"type":"Point"},"properties":{"osm_id":"6473032670","tag":{"amenity":"recycling","recycling_type":"container"}},"type":"Feature"},
	{"geometry":{"coordinates":[2.127456,49.033685],"type":"Point"},"properties":{"osm_id":"7124326460","tag":{"amenity":"waste_basket"}},"type":"Feature"},
	{"geometry":{"coordinates":[2.128584,49.03421],"type":"Point"},"properties":{"osm_id":"7124326466","tag":{"amenity":"waste_basket"}},"type":"Feature"},
	{"geometry":{"coordinates":[2.128984,49.034119],"type":"Point"},"properties":{"osm_id":"7124326468","tag":{"amenity":"recycling","recycling:glass":"yes","recycling_type":"container"}},"type":"Feature"},
	{"geometry":{"coordinates":[2.197144,48.991476],"type":"Point"},"properties":{"osm_id":"7473033137","tag":{"amenity":"waste_basket"}},"type":"Feature"},
	{"geometry":{"coordinates":[2.162744,49.01793],"type":"Point"},"properties":{"osm_id":"7893881521","tag":{"amenity":"recycling","operator":"Tri-Action","recycling_type":"container"}},"type":"Feature"},
	{"geometry":{"coordinates":[2.162754,49.017939],"type":"Point"},"properties":{"osm_id":"7893881522","tag":{"amenity":"recycling","operator":"Tri-Action","recycling_type":"container"}},"type":"Feature"},
	{"geometry":{"coordinates":[2.162764,49.017948],"type":"Point"},"properties":{"osm_id":"7893881523","tag":{"amenity":"recycling","operator":"Tri-Action","recycling_type":"container"}},"type":"Feature"},
	{"geometry":{"coordinates":[2.162734,49.017918],"type":"Point"},"properties":{"osm_id":"7893881524","tag":{"amenity":"recycling","operator":"Tri-Action","recycling_type":"container"}},"type":"Feature"},
	{"geometry":{"coordinates":[2.152306,49.027738],"type":"Point"},"properties":{"osm_id":"7893911223","tag":{"amenity":"recycling","operator":"TRIACTION","recycling_type":"container"}},"type":"Feature"},
	{"geometry":{"coordinates":[2.151226,49.026509],"type":"Point"},"properties":{"osm_id":"7893985541","tag":{"amenity":"recycling","operator":"TRIACTION","recycling_type":"container"}},"type":"Feature"},
	{"geometry":{"coordinates":[2.146171,48.997911],"type":"Point"},"properties":{"osm_id":"7916491424","tag":{"amenity":"recycling","recycling_type":"container"}},"type":"Feature"},
	{"geometry":{"coordinates":[2.144977,48.998186],"type":"Point"},"properties":{"osm_id":"7916491427","tag":{"amenity":"recycling","recycling_type":"container"}},"type":"Feature"}
]
}
