{
"type": "FeatureCollection",
"features": [
	{"geometry":{"coordinates":[2.129806,48.809114],"type":"Point"},"properties":{"osm_id":"619797516","tag":{"amenity":"recycling","recycling:glass_bottles":"yes","recycling_type":"container"}},"type":"Feature"},
	{"geometry":{"coordinates":[2.118172,48.823714],"type":"Point"},"properties":{"osm_id":"1077635687","tag":{"amenity":"recycling","recycling:glass":"yes","recycling_type":"container"}},"type":"Feature"},
	{"geometry":{"coordinates":[2.132676,48.845411],"type":"Point"},"properties":{"osm_id":"1672697590","tag":{"amenity":"recycling","location":"underground","recycling:glass_bottles":"yes","recycling_type":"container"}},"type":"Feature"},
	{"geometry":{"coordinates":[2.125534,48.809359],"type":"Point"},"properties":{"osm_id":"1793342756","tag":{"amenity":"recycling","recycling:glass_bottles":"yes","recycling_type":"container"}},"type":"Feature"},
	{"geometry":{"coordinates":[2.132185,48.807125],"type":"Point"},"properties":{"osm_id":"1793716485","tag":{"amenity":"recycling","recycling:glass_bottles":"yes","recycling_type":"container"}},"type":"Feature"},
	{"geometry":{"coordinates":[2.140764,48.812129],"type":"Point"},"properties":{"osm_id":"1793716488","tag":{"amenity":"recycling","recycling:glass_bottles":"yes","recycling_type":"container"}},"type":"Feature"},
	{"geometry":{"coordinates":[2.141299,48.812099],"type":"Point"},"properties":{"osm_id":"1796732134","tag":{"amenity":"recycling","operator":"Le Relais","recycling:clothes":"yes","recycling_type":"container"}},"type":"Feature"},
	{"geometry":{"coordinates":[2.147237,48.807118],"type":"Point"},"properties":{"osm_id":"1798131907","tag":{"amenity":"recycling","recycling:glass_bottles":"yes","recycling_type":"container"}},"type":"Feature"},
	{"geometry":{"coordinates":[2.19204,48.812342],"type":"Point"},"properties":{"osm_id":"1798131942","tag":{"amenity":"recycling","recycling:glass_bottles":"yes","recycling_type":"container"}},"type":"Feature"},
	{"geometry":{"coordinates":[2.143248,48.812458],"type":"Point"},"properties":{"osm_id":"1801602844","tag":{"amenity":"recycling","operator":"Le Relais","recycling:clothes":"yes","recycling_type":"container"}},"type":"Feature"},
	{"geometry":{"coordinates":[2.138098,48.819259],"type":"Point"},"properties":{"osm_id":"1803852468","tag":{"amenity":"recycling","recycling:glass":"yes","recycling_type":"container"}},"type":"Feature"},
	{"geometry":{"coordinates":[2.136324,48.821279],"type":"Point"},"properties":{"osm_id":"1803852472","tag":{"amenity":"recycling","recycling:glass":"yes","recycling_type":"container"}},"type":"Feature"},
	{"geometry":{"coordinates":[2.119975,48.827028],"type":"Point"},"properties":{"osm_id":"1807245426","tag":{"amenity":"recycling","recycling:glass":"yes","recycling_type":"container"}},"type":"Feature"},
	{"geometry":{"coordinates":[2.12985,48.809111],"type":"Point"},"properties":{"osm_id":"1809213255","tag":{"amenity":"recycling","recycling:paper":"yes","recycling_type":"container"}},"type":"Feature"},
	{"geometry":{"coordinates":[2.121913,48.829971],"type":"Point"},"properties":{"osm_id":"1812352785","tag":{"amenity":"recycling","recycling:glass":"yes","recycling:glass_bottles":"yes","recycling_type":"container"}},"type":"Feature"},
	{"geometry":{"coordinates":[2.127731,48.826977],"type":"Point"},"properties":{"osm_id":"1820460745","tag":{"amenity":"recycling","operator":"Le Relais","recycling:clothes":"yes","recycling_type":"container"}},"type":"Feature"},
	{"geometry":{"coordinates":[2.190031,48.809847],"type":"Point"},"properties":{"osm_id":"1829502346","tag":{"amenity":"recycling","operator":"Le Relais","recycling:clothes":"yes","recycling_type":"container"}},"type":"Feature"},
	{"geometry":{"coordinates":[2.190087,48.809869],"type":"Point"},"properties":{"osm_id":"1829502347","tag":{"amenity":"recycling","recycling:glass_bottles":"yes","recycling_type":"container"}},"type":"Feature"},
	{"geometry":{"coordinates":[2.189704,48.826192],"type":"Point"},"properties":{"osm_id":"1843047456","tag":{"amenity":"recycling","location":"underground","recycling:glass":"yes","recycling_type":"container"}},"type":"Feature"},
	{"geometry":{"coordinates":[2.119753,48.834621],"type":"Point"},"properties":{"osm_id":"1844621212","tag":{"amenity":"recycling","recycling:glass":"yes","recycling_type":"container"}},"type":"Feature"},
	{"geometry":{"coordinates":[2.12953,48.816464],"type":"Point"},"properties":{"osm_id":"1844621988","tag":{"amenity":"recycling","recycling:glass":"yes","recycling_type":"container"}},"type":"Feature"},
	{"geometry":{"coordinates":[2.132269,48.816948],"type":"Point"},"properties":{"osm_id":"1844622995","tag":{"amenity":"recycling","recycling:glass":"yes","recycling_type":"container"}},"type":"Feature"},
	{"geometry":{"coordinates":[2.131242,48.81855],"type":"Point"},"properties":{"osm_id":"1844622999","tag":{"amenity":"recycling","recycling:glass":"yes","recycling_type":"container"}},"type":"Feature"},
	{"geometry":{"coordinates":[2.130222,48.819639],"type":"Point"},"properties":{"osm_id":"1844631106","tag":{"amenity":"recycling","recycling:glass":"yes","recycling_type":"container"}},"type":"Feature"},
	{"geometry":{"coordinates":[2.12689,48.81954],"type":"Point"},"properties":{"osm_id":"1844648837","tag":{"amenity":"recycling","location":"underground","recycling:glass":"yes","recycling_type":"container","survey:date":"2019-06-11"}},"type":"Feature"},
	{"geometry":{"coordinates":[2.127188,48.822335],"type":"Point"},"properties":{"osm_id":"1844648838","tag":{"amenity":"recycling","recycling:glass":"yes","recycling_type":"container"}},"type":"Feature"},
	{"geometry":{"coordinates":[2.125633,48.824609],"type":"Point"},"properties":{"osm_id":"1844648855","tag":{"amenity":"recycling","recycling:glass":"yes","recycling_type":"container"}},"type":"Feature"},
	{"geometry":{"coordinates":[2.128536,48.826327],"type":"Point"},"properties":{"osm_id":"1844664807","tag":{"amenity":"recycling","recycling:glass":"yes","recycling_type":"container"}},"type":"Feature"},
	{"geometry":{"coordinates":[2.125702,48.827515],"type":"Point"},"properties":{"osm_id":"1844664808","tag":{"amenity":"recycling","recycling:glass":"yes","recycling_type":"container"}},"type":"Feature"},
	{"geometry":{"coordinates":[2.129097,48.834316],"type":"Point"},"properties":{"osm_id":"1844671532","tag":{"amenity":"recycling","recycling:glass":"yes","recycling_type":"container"}},"type":"Feature"},
	{"geometry":{"coordinates":[2.192735,48.811335],"type":"Point"},"properties":{"osm_id":"1867498921","tag":{"amenity":"recycling","recycling:glass_bottles":"yes","recycling_type":"container"}},"type":"Feature"},
	{"geometry":{"coordinates":[2.152308,48.837122],"type":"Point"},"properties":{"osm_id":"1956149585","tag":{"amenity":"recycling","recycling:glass_bottles":"yes"}},"type":"Feature"},
	{"geometry":{"coordinates":[2.121751,48.826159],"type":"Point"},"properties":{"osm_id":"1978322047","tag":{"amenity":"waste_basket"}},"type":"Feature"},
	{"geometry":{"coordinates":[2.121154,48.826455],"type":"Point"},"properties":{"osm_id":"1978322049","tag":{"amenity":"waste_basket"}},"type":"Feature"},
	{"geometry":{"coordinates":[2.121992,48.826656],"type":"Point"},"properties":{"osm_id":"1978322051","tag":{"amenity":"waste_basket"}},"type":"Feature"},
	{"geometry":{"coordinates":[2.121402,48.826809],"type":"Point"},"properties":{"osm_id":"1978322052","tag":{"amenity":"waste_basket"}},"type":"Feature"},
	{"geometry":{"coordinates":[2.121826,48.827192],"type":"Point"},"properties":{"osm_id":"1978322053","tag":{"amenity":"waste_basket"}},"type":"Feature"},
	{"geometry":{"coordinates":[2.18097,48.809489],"type":"Point"},"properties":{"osm_id":"2031956102","tag":{"amenity":"waste_basket"}},"type":"Feature"},
	{"geometry":{"coordinates":[2.183669,48.808144],"type":"Point"},"properties":{"osm_id":"2031965919","tag":{"amenity":"waste_basket"}},"type":"Feature"},
	{"geometry":{"coordinates":[2.183652,48.808109],"type":"Point"},"properties":{"osm_id":"2031966367","tag":{"amenity":"recycling","recycling:glass_bottles":"yes","recycling_type":"container"}},"type":"Feature"},
	{"geometry":{"coordinates":[2.187975,48.812402],"type":"Point"},"properties":{"osm_id":"2031980124","tag":{"amenity":"waste_basket","level":"-1"}},"type":"Feature"},
	{"geometry":{"coordinates":[2.188156,48.81234],"type":"Point"},"properties":{"osm_id":"2031980238","tag":{"amenity":"waste_basket","level":"-1","survey:date":"2017-07-28"}},"type":"Feature"},
	{"geometry":{"coordinates":[2.187054,48.811474],"type":"Point"},"properties":{"osm_id":"2031980358","tag":{"amenity":"waste_basket"}},"type":"Feature"},
	{"geometry":{"coordinates":[2.187357,48.811887],"type":"Point"},"properties":{"osm_id":"2031980376","tag":{"amenity":"waste_basket"}},"type":"Feature"},
	{"geometry":{"coordinates":[2.176999,48.80908],"type":"Point"},"properties":{"osm_id":"2118367394","tag":{"amenity":"recycling","recycling:glass_bottles":"yes","recycling_type":"container"}},"type":"Feature"},
	{"geometry":{"coordinates":[2.193389,48.846907],"type":"Point"},"properties":{"osm_id":"2169059087","tag":{"amenity":"recycling","recycling:glass_bottles":"yes","recycling_type":"container"}},"type":"Feature"},
	{"geometry":{"coordinates":[2.164651,48.817991],"type":"Point"},"properties":{"osm_id":"2356581275","tag":{"amenity":"recycling","recycling:glass":"yes","recycling:glass_bottles":"yes","recycling_type":"container"}},"type":"Feature"},
	{"geometry":{"coordinates":[2.126963,48.811816],"type":"Point"},"properties":{"osm_id":"2421054141","tag":{"amenity":"recycling","location":"underground","recycling:glass":"yes","recycling:glass_bottles":"yes","recycling_type":"container"}},"type":"Feature"},
	{"geometry":{"coordinates":[2.127854,48.813668],"type":"Point"},"properties":{"osm_id":"2421054149","tag":{"amenity":"recycling","recycling:glass":"yes","recycling:glass_bottles":"yes"}},"type":"Feature"},
	{"geometry":{"coordinates":[2.132538,48.807538],"type":"Point"},"properties":{"osm_id":"2479170947","tag":{"amenity":"recycling","recycling_type":"container"}},"type":"Feature"},
	{"geometry":{"coordinates":[2.122944,48.861092],"type":"Point"},"properties":{"osm_id":"2508422617","tag":{"amenity":"waste_basket"}},"type":"Feature"},
	{"geometry":{"coordinates":[2.12288,48.861294],"type":"Point"},"properties":{"osm_id":"2508422636","tag":{"amenity":"waste_basket"}},"type":"Feature"},
	{"geometry":{"coordinates":[2.118877,48.862189],"type":"Point"},"properties":{"osm_id":"2508422656","tag":{"amenity":"waste_basket"}},"type":"Feature"},
	{"geometry":{"coordinates":[2.117492,48.862208],"type":"Point"},"properties":{"osm_id":"2508422659","tag":{"amenity":"waste_basket"}},"type":"Feature"},
	{"geometry":{"coordinates":[2.187372,48.812425],"type":"Point"},"properties":{"osm_id":"2676780050","tag":{"amenity":"waste_basket"}},"type":"Feature"},
	{"geometry":{"coordinates":[2.188241,48.812439],"type":"Point"},"properties":{"osm_id":"2676780060","tag":{"amenity":"waste_basket","level":"-1"}},"type":"Feature"},
	{"geometry":{"coordinates":[2.18746,48.812485],"type":"Point"},"properties":{"osm_id":"2676780062","tag":{"amenity":"recycling","recycling:glass_bottles":"yes","recycling_type":"container"}},"type":"Feature"},
	{"geometry":{"coordinates":[2.187475,48.812494],"type":"Point"},"properties":{"osm_id":"2676780065","tag":{"amenity":"recycling","recycling:clothes":"yes","recycling:glass_bottles":"yes","recycling_type":"container"}},"type":"Feature"},
	{"geometry":{"coordinates":[2.188167,48.812587],"type":"Point"},"properties":{"osm_id":"2676780078","tag":{"amenity":"waste_basket","level":"-1"}},"type":"Feature"},
	{"geometry":{"coordinates":[2.188374,48.812619],"type":"Point"},"properties":{"osm_id":"2676780082","tag":{"amenity":"waste_basket","level":"-1"}},"type":"Feature"},
	{"geometry":{"coordinates":[2.188213,48.812647],"type":"Point"},"properties":{"osm_id":"2676780087","tag":{"amenity":"waste_basket","level":"-1"}},"type":"Feature"},
	{"geometry":{"coordinates":[2.188621,48.812929],"type":"Point"},"properties":{"osm_id":"2676780096","tag":{"amenity":"waste_basket","level":"-1"}},"type":"Feature"},
	{"geometry":{"coordinates":[2.188645,48.813185],"type":"Point"},"properties":{"osm_id":"2676780111","tag":{"amenity":"waste_basket","level":"-1"}},"type":"Feature"},
	{"geometry":{"coordinates":[2.188848,48.813427],"type":"Point"},"properties":{"osm_id":"2676780117","tag":{"amenity":"waste_basket","level":"-1"}},"type":"Feature"},
	{"geometry":{"coordinates":[2.18895,48.81355],"type":"Point"},"properties":{"osm_id":"2676780119","tag":{"amenity":"waste_basket","level":"-1"}},"type":"Feature"},
	{"geometry":{"coordinates":[2.188424,48.812896],"type":"Point"},"properties":{"osm_id":"2682248681","tag":{"amenity":"waste_basket","level":"-1"}},"type":"Feature"},
	{"geometry":{"coordinates":[2.186116,48.837826],"type":"Point"},"properties":{"osm_id":"2696186005","tag":{"amenity":"waste_basket"}},"type":"Feature"},
	{"geometry":{"coordinates":[2.186256,48.837967],"type":"Point"},"properties":{"osm_id":"2696186010","tag":{"amenity":"recycling","recycling:glass_bottles":"yes","recycling_type":"container"}},"type":"Feature"},
	{"geometry":{"coordinates":[2.186231,48.837988],"type":"Point"},"properties":{"osm_id":"2696186014","tag":{"amenity":"recycling","recycling:clothes":"yes","recycling_type":"container"}},"type":"Feature"},
	{"geometry":{"coordinates":[2.187039,48.838156],"type":"Point"},"properties":{"osm_id":"2696186037","tag":{"amenity":"waste_basket"}},"type":"Feature"},
	{"geometry":{"coordinates":[2.186946,48.838257],"type":"Point"},"properties":{"osm_id":"2696186058","tag":{"amenity":"waste_basket"}},"type":"Feature"},
	{"geometry":{"coordinates":[2.186917,48.838328],"type":"Point"},"properties":{"osm_id":"2696186072","tag":{"amenity":"waste_basket"}},"type":"Feature"},
	{"geometry":{"coordinates":[2.186265,48.838348],"type":"Point"},"properties":{"osm_id":"2696186081","tag":{"amenity":"waste_basket"}},"type":"Feature"},
	{"geometry":{"coordinates":[2.187613,48.838464],"type":"Point"},"properties":{"osm_id":"2696186133","tag":{"amenity":"waste_basket"}},"type":"Feature"},
	{"geometry":{"coordinates":[2.185773,48.838524],"type":"Point"},"properties":{"osm_id":"2696186150","tag":{"amenity":"waste_basket"}},"type":"Feature"},
	{"geometry":{"coordinates":[2.18722,48.838576],"type":"Point"},"properties":{"osm_id":"2696186163","tag":{"amenity":"waste_basket"}},"type":"Feature"},
	{"geometry":{"coordinates":[2.187601,48.838608],"type":"Point"},"properties":{"osm_id":"2696186172","tag":{"amenity":"waste_basket"}},"type":"Feature"},
	{"geometry":{"coordinates":[2.18768,48.83865],"type":"Point"},"properties":{"osm_id":"2696186176","tag":{"amenity":"waste_basket"}},"type":"Feature"},
	{"geometry":{"coordinates":[2.153237,48.836449],"type":"Point"},"properties":{"osm_id":"2696425976","tag":{"amenity":"waste_basket"}},"type":"Feature"},
	{"geometry":{"coordinates":[2.152769,48.836533],"type":"Point"},"properties":{"osm_id":"2696425983","tag":{"amenity":"waste_basket"}},"type":"Feature"},
	{"geometry":{"coordinates":[2.152979,48.836573],"type":"Point"},"properties":{"osm_id":"2696425988","tag":{"amenity":"waste_basket"}},"type":"Feature"},
	{"geometry":{"coordinates":[2.152746,48.836674],"type":"Point"},"properties":{"osm_id":"2696425999","tag":{"amenity":"waste_basket"}},"type":"Feature"},
	{"geometry":{"coordinates":[2.15225,48.836739],"type":"Point"},"properties":{"osm_id":"2696426006","tag":{"amenity":"waste_basket"}},"type":"Feature"},
	{"geometry":{"coordinates":[2.152543,48.836757],"type":"Point"},"properties":{"osm_id":"2696426008","tag":{"amenity":"waste_basket"}},"type":"Feature"},
	{"geometry":{"coordinates":[2.152167,48.836791],"type":"Point"},"properties":{"osm_id":"2696426016","tag":{"amenity":"waste_basket"}},"type":"Feature"},
	{"geometry":{"coordinates":[2.152506,48.836857],"type":"Point"},"properties":{"osm_id":"2696426035","tag":{"amenity":"waste_basket"}},"type":"Feature"},
	{"geometry":{"coordinates":[2.152246,48.836889],"type":"Point"},"properties":{"osm_id":"2696426046","tag":{"amenity":"waste_basket"}},"type":"Feature"},
	{"geometry":{"coordinates":[2.151768,48.836966],"type":"Point"},"properties":{"osm_id":"2696426052","tag":{"amenity":"waste_basket"}},"type":"Feature"},
	{"geometry":{"coordinates":[2.153192,48.836934],"type":"Point"},"properties":{"osm_id":"2696426068","tag":{"amenity":"waste_basket"}},"type":"Feature"},
	{"geometry":{"coordinates":[2.152345,48.837144],"type":"Point"},"properties":{"osm_id":"2696426082","tag":{"amenity":"recycling","recycling:clothes":"yes","recycling_type":"container"}},"type":"Feature"},
	{"geometry":{"coordinates":[2.123416,48.861118],"type":"Point"},"properties":{"osm_id":"2777486580","tag":{"amenity":"waste_basket"}},"type":"Feature"},
	{"geometry":{"coordinates":[2.123281,48.861153],"type":"Point"},"properties":{"osm_id":"2777486592","tag":{"amenity":"waste_basket"}},"type":"Feature"},
	{"geometry":{"coordinates":[2.122947,48.861165],"type":"Point"},"properties":{"osm_id":"2777486597","tag":{"amenity":"waste_basket"}},"type":"Feature"},
	{"geometry":{"coordinates":[2.123631,48.861191],"type":"Point"},"properties":{"osm_id":"2777486605","tag":{"amenity":"waste_basket"}},"type":"Feature"},
	{"geometry":{"coordinates":[2.123489,48.861199],"type":"Point"},"properties":{"osm_id":"2777486614","tag":{"amenity":"waste_basket"}},"type":"Feature"},
	{"geometry":{"coordinates":[2.12283,48.861299],"type":"Point"},"properties":{"osm_id":"2777486647","tag":{"amenity":"waste_basket"}},"type":"Feature"},
	{"geometry":{"coordinates":[2.131949,48.853116],"type":"Point"},"properties":{"osm_id":"2777566081","tag":{"amenity":"waste_basket"}},"type":"Feature"},
	{"geometry":{"coordinates":[2.132024,48.853382],"type":"Point"},"properties":{"osm_id":"2777566094","tag":{"amenity":"waste_basket"}},"type":"Feature"},
	{"geometry":{"coordinates":[2.132071,48.853594],"type":"Point"},"properties":{"osm_id":"2777566102","tag":{"amenity":"waste_basket"}},"type":"Feature"},
	{"geometry":{"coordinates":[2.131907,48.853614],"type":"Point"},"properties":{"osm_id":"2777566104","tag":{"amenity":"waste_basket"}},"type":"Feature"},
	{"geometry":{"coordinates":[2.132121,48.853802],"type":"Point"},"properties":{"osm_id":"2777566114","tag":{"amenity":"waste_basket"}},"type":"Feature"},
	{"geometry":{"coordinates":[2.132162,48.85402],"type":"Point"},"properties":{"osm_id":"2777566126","tag":{"amenity":"waste_basket"}},"type":"Feature"},
	{"geometry":{"coordinates":[2.13204,48.854095],"type":"Point"},"properties":{"osm_id":"2777566139","tag":{"amenity":"waste_basket"}},"type":"Feature"},
	{"geometry":{"coordinates":[2.132193,48.85413],"type":"Point"},"properties":{"osm_id":"2777566146","tag":{"amenity":"waste_basket"}},"type":"Feature"},
	{"geometry":{"coordinates":[2.132056,48.854158],"type":"Point"},"properties":{"osm_id":"2777566161","tag":{"amenity":"waste_basket"}},"type":"Feature"},
	{"geometry":{"coordinates":[2.132218,48.854195],"type":"Point"},"properties":{"osm_id":"2777566211","tag":{"amenity":"waste_basket"}},"type":"Feature"},
	{"geometry":{"coordinates":[2.132297,48.8542],"type":"Point"},"properties":{"osm_id":"2777566237","tag":{"amenity":"waste_basket"}},"type":"Feature"},
	{"geometry":{"coordinates":[2.132364,48.854225],"type":"Point"},"properties":{"osm_id":"2777566287","tag":{"amenity":"waste_basket"}},"type":"Feature"},
	{"geometry":{"coordinates":[2.13225,48.854234],"type":"Point"},"properties":{"osm_id":"2777566299","tag":{"amenity":"waste_basket"}},"type":"Feature"},
	{"geometry":{"coordinates":[2.132054,48.854257],"type":"Point"},"properties":{"osm_id":"2777566305","tag":{"amenity":"waste_basket"}},"type":"Feature"},
	{"geometry":{"coordinates":[2.132245,48.854282],"type":"Point"},"properties":{"osm_id":"2777566311","tag":{"amenity":"waste_basket"}},"type":"Feature"},
	{"geometry":{"coordinates":[2.132243,48.854422],"type":"Point"},"properties":{"osm_id":"2777566316","tag":{"amenity":"waste_basket"}},"type":"Feature"},
	{"geometry":{"coordinates":[2.132103,48.854564],"type":"Point"},"properties":{"osm_id":"2777566320","tag":{"amenity":"waste_basket"}},"type":"Feature"},
	{"geometry":{"coordinates":[2.13211,48.854578],"type":"Point"},"properties":{"osm_id":"2777566326","tag":{"amenity":"waste_basket"}},"type":"Feature"},
	{"geometry":{"coordinates":[2.139063,48.84213],"type":"Point"},"properties":{"osm_id":"2806083247","tag":{"amenity":"waste_basket"}},"type":"Feature"},
	{"geometry":{"coordinates":[2.138783,48.842327],"type":"Point"},"properties":{"osm_id":"2806083250","tag":{"amenity":"waste_basket"}},"type":"Feature"},
	{"geometry":{"coordinates":[2.13855,48.84235],"type":"Point"},"properties":{"osm_id":"2806083251","tag":{"amenity":"waste_basket"}},"type":"Feature"},
	{"geometry":{"coordinates":[2.138348,48.842491],"type":"Point"},"properties":{"osm_id":"2806083256","tag":{"amenity":"waste_basket"}},"type":"Feature"},
	{"geometry":{"coordinates":[2.138322,48.842506],"type":"Point"},"properties":{"osm_id":"2806083261","tag":{"amenity":"waste_basket"}},"type":"Feature"},
	{"geometry":{"coordinates":[2.138228,48.842518],"type":"Point"},"properties":{"osm_id":"2806083264","tag":{"amenity":"waste_basket"}},"type":"Feature"},
	{"geometry":{"coordinates":[2.138067,48.842531],"type":"Point"},"properties":{"osm_id":"2806083267","tag":{"amenity":"waste_basket"}},"type":"Feature"},
	{"geometry":{"coordinates":[2.138409,48.842601],"type":"Point"},"properties":{"osm_id":"2806083283","tag":{"amenity":"waste_basket"}},"type":"Feature"},
	{"geometry":{"coordinates":[2.138316,48.842673],"type":"Point"},"properties":{"osm_id":"2806083297","tag":{"amenity":"waste_basket"}},"type":"Feature"},
	{"geometry":{"coordinates":[2.138428,48.842673],"type":"Point"},"properties":{"osm_id":"2806083298","tag":{"amenity":"waste_basket"}},"type":"Feature"},
	{"geometry":{"coordinates":[2.138035,48.842708],"type":"Point"},"properties":{"osm_id":"2806085101","tag":{"amenity":"waste_basket"}},"type":"Feature"},
	{"geometry":{"coordinates":[2.138439,48.842762],"type":"Point"},"properties":{"osm_id":"2806085118","tag":{"amenity":"waste_basket"}},"type":"Feature"},
	{"geometry":{"coordinates":[2.138404,48.84278],"type":"Point"},"properties":{"osm_id":"2806085121","tag":{"amenity":"waste_basket"}},"type":"Feature"},
	{"geometry":{"coordinates":[2.137885,48.84281],"type":"Point"},"properties":{"osm_id":"2806085128","tag":{"amenity":"waste_basket"}},"type":"Feature"},
	{"geometry":{"coordinates":[2.138104,48.842812],"type":"Point"},"properties":{"osm_id":"2806085131","tag":{"amenity":"waste_basket"}},"type":"Feature"},
	{"geometry":{"coordinates":[2.138075,48.842838],"type":"Point"},"properties":{"osm_id":"2806085141","tag":{"amenity":"waste_basket"}},"type":"Feature"},
	{"geometry":{"coordinates":[2.138173,48.84286],"type":"Point"},"properties":{"osm_id":"2806085145","tag":{"amenity":"waste_basket"}},"type":"Feature"},
	{"geometry":{"coordinates":[2.138024,48.842869],"type":"Point"},"properties":{"osm_id":"2806085149","tag":{"amenity":"waste_basket"}},"type":"Feature"},
	{"geometry":{"coordinates":[2.137652,48.84299],"type":"Point"},"properties":{"osm_id":"2806085155","tag":{"amenity":"waste_basket"}},"type":"Feature"},
	{"geometry":{"coordinates":[2.137826,48.84301],"type":"Point"},"properties":{"osm_id":"2806085159","tag":{"amenity":"waste_basket"}},"type":"Feature"},
	{"geometry":{"coordinates":[2.137618,48.843168],"type":"Point"},"properties":{"osm_id":"2806085161","tag":{"amenity":"waste_basket"}},"type":"Feature"},
	{"geometry":{"coordinates":[2.138569,48.809378],"type":"Point"},"properties":{"osm_id":"2889459312","tag":{"amenity":"waste_basket","layer":"1","level":"1"}},"type":"Feature"},
	{"geometry":{"coordinates":[2.137817,48.809391],"type":"Point"},"properties":{"osm_id":"2889459314","tag":{"amenity":"waste_basket","layer":"1","level":"1"}},"type":"Feature"},
	{"geometry":{"coordinates":[2.13502,48.809415],"type":"Point"},"properties":{"osm_id":"2889459317","tag":{"amenity":"waste_basket","layer":"1","level":"1"}},"type":"Feature"},
	{"geometry":{"coordinates":[2.134928,48.809464],"type":"Point"},"properties":{"osm_id":"2889459322","tag":{"amenity":"waste_basket","level":"1"}},"type":"Feature"},
	{"geometry":{"coordinates":[2.13692,48.809467],"type":"Point"},"properties":{"osm_id":"2889459323","tag":{"amenity":"waste_basket","layer":"1","level":"1"}},"type":"Feature"},
	{"geometry":{"coordinates":[2.137838,48.809476],"type":"Point"},"properties":{"osm_id":"2889459325","tag":{"amenity":"waste_basket","layer":"1","level":"1"}},"type":"Feature"},
	{"geometry":{"coordinates":[2.136486,48.809496],"type":"Point"},"properties":{"osm_id":"2889459329","tag":{"amenity":"waste_basket","layer":"1","level":"1"}},"type":"Feature"},
	{"geometry":{"coordinates":[2.136939,48.809531],"type":"Point"},"properties":{"osm_id":"2889459336","tag":{"amenity":"waste_basket","layer":"1","level":"1"}},"type":"Feature"},
	{"geometry":{"coordinates":[2.13578,48.809551],"type":"Point"},"properties":{"osm_id":"2889459340","tag":{"amenity":"waste_basket","layer":"1","level":"1"}},"type":"Feature"},
	{"geometry":{"coordinates":[2.135478,48.809556],"type":"Point"},"properties":{"osm_id":"2889459343","tag":{"amenity":"waste_basket","layer":"1","level":"1"}},"type":"Feature"},
	{"geometry":{"coordinates":[2.135613,48.809559],"type":"Point"},"properties":{"osm_id":"2889459345","tag":{"amenity":"waste_basket","layer":"1","level":"1"}},"type":"Feature"},
	{"geometry":{"coordinates":[2.13598,48.809563],"type":"Point"},"properties":{"osm_id":"2889459348","tag":{"amenity":"waste_basket","layer":"1","level":"1"}},"type":"Feature"},
	{"geometry":{"coordinates":[2.136518,48.809568],"type":"Point"},"properties":{"osm_id":"2889459350","tag":{"amenity":"waste_basket","layer":"1","level":"1"}},"type":"Feature"},
	{"geometry":{"coordinates":[2.135309,48.809583],"type":"Point"},"properties":{"osm_id":"2889459353","tag":{"amenity":"waste_basket","layer":"1","level":"1"}},"type":"Feature"},
	{"geometry":{"coordinates":[2.135168,48.809588],"type":"Point"},"properties":{"osm_id":"2889459358","tag":{"amenity":"waste_basket","layer":"1","level":"1"}},"type":"Feature"},
	{"geometry":{"coordinates":[2.135514,48.809603],"type":"Point"},"properties":{"osm_id":"2889459360","tag":{"amenity":"waste_basket","layer":"1","level":"1"}},"type":"Feature"},
	{"geometry":{"coordinates":[2.134959,48.809656],"type":"Point"},"properties":{"osm_id":"2889459362","tag":{"amenity":"waste_basket","layer":"1","level":"1"}},"type":"Feature"},
	{"geometry":{"coordinates":[2.135787,48.809615],"type":"Point"},"properties":{"osm_id":"2889459368","tag":{"amenity":"waste_basket","layer":"1","level":"1"}},"type":"Feature"},
	{"geometry":{"coordinates":[2.135635,48.809625],"type":"Point"},"properties":{"osm_id":"2889459373","tag":{"amenity":"waste_basket","layer":"1","level":"1"}},"type":"Feature"},
	{"geometry":{"coordinates":[2.135307,48.809632],"type":"Point"},"properties":{"osm_id":"2889459375","tag":{"amenity":"waste_basket","layer":"1","level":"1"}},"type":"Feature"},
	{"geometry":{"coordinates":[2.135182,48.809651],"type":"Point"},"properties":{"osm_id":"2889459379","tag":{"amenity":"waste_basket","layer":"1","level":"1"}},"type":"Feature"},
	{"geometry":{"coordinates":[2.135501,48.809653],"type":"Point"},"properties":{"osm_id":"2889459382","tag":{"amenity":"waste_basket","layer":"1","level":"1"}},"type":"Feature"},
	{"geometry":{"coordinates":[2.134757,48.809623],"type":"Point"},"properties":{"osm_id":"2889459385","tag":{"amenity":"waste_basket","level":"0"}},"type":"Feature"},
	{"geometry":{"coordinates":[2.135039,48.809681],"type":"Point"},"properties":{"osm_id":"2889459387","tag":{"amenity":"waste_basket","layer":"1","level":"1"}},"type":"Feature"},
	{"geometry":{"coordinates":[2.135157,48.809837],"type":"Point"},"properties":{"osm_id":"2889459398","tag":{"amenity":"waste_basket","layer":"1","level":"1"}},"type":"Feature"},
	{"geometry":{"coordinates":[2.177189,48.809322],"type":"Point"},"properties":{"osm_id":"2973357193","tag":{"amenity":"waste_basket"}},"type":"Feature"},
	{"geometry":{"coordinates":[2.167158,48.808186],"type":"Point"},"properties":{"osm_id":"3092093534","tag":{"amenity":"recycling","recycling:cans":"no","recycling:clothes":"no","recycling:glass":"yes","recycling:paper":"no","recycling_type":"container"}},"type":"Feature"},
	{"geometry":{"coordinates":[2.132025,48.846174],"type":"Point"},"properties":{"osm_id":"3138685339","tag":{"amenity":"recycling","recycling:clothes":"yes","recycling_type":"container"}},"type":"Feature"},
	{"geometry":{"coordinates":[2.130154,48.847196],"type":"Point"},"properties":{"osm_id":"3138685340","tag":{"amenity":"recycling","location":"underground","recycling:glass_bottles":"yes","recycling_type":"container"}},"type":"Feature"},
	{"geometry":{"coordinates":[2.186252,48.807366],"type":"Point"},"properties":{"osm_id":"3350036728","tag":{"amenity":"recycling","recycling:glass_bottles":"yes","recycling_type":"container"}},"type":"Feature"},
	{"geometry":{"coordinates":[2.187704,48.807617],"type":"Point"},"properties":{"osm_id":"3350036731","tag":{"amenity":"recycling","recycling:glass_bottles":"yes","recycling_type":"container"}},"type":"Feature"},
	{"geometry":{"coordinates":[2.195737,48.809175],"type":"Point"},"properties":{"osm_id":"3350036737","tag":{"amenity":"recycling","recycling:glass_bottles":"yes","recycling_type":"container"}},"type":"Feature"},
	{"geometry":{"coordinates":[2.191197,48.809396],"type":"Point"},"properties":{"osm_id":"3350036738","tag":{"amenity":"recycling","recycling:glass_bottles":"yes","recycling_type":"container"}},"type":"Feature"},
	{"geometry":{"coordinates":[2.186238,48.809603],"type":"Point"},"properties":{"osm_id":"3350036740","tag":{"amenity":"recycling","recycling:glass_bottles":"yes","recycling_type":"container"}},"type":"Feature"},
	{"geometry":{"coordinates":[2.190107,48.809878],"type":"Point"},"properties":{"osm_id":"3350036741","tag":{"amenity":"recycling","recycling:glass_bottles":"yes","recycling_type":"container"}},"type":"Feature"},
	{"geometry":{"coordinates":[2.193398,48.810115],"type":"Point"},"properties":{"osm_id":"3350036742","tag":{"amenity":"recycling","recycling:glass_bottles":"yes","recycling_type":"container"}},"type":"Feature"},
	{"geometry":{"coordinates":[2.182998,48.811337],"type":"Point"},"properties":{"osm_id":"3350036745","tag":{"amenity":"recycling","recycling:glass_bottles":"yes","recycling_type":"container"}},"type":"Feature"},
	{"geometry":{"coordinates":[2.193026,48.812568],"type":"Point"},"properties":{"osm_id":"3350036747","tag":{"amenity":"recycling","recycling:glass_bottles":"yes","recycling_type":"container"}},"type":"Feature"},
	{"geometry":{"coordinates":[2.194306,48.81472],"type":"Point"},"properties":{"osm_id":"3350036751","tag":{"amenity":"recycling","recycling:glass_bottles":"yes","recycling_type":"container"}},"type":"Feature"},
	{"geometry":{"coordinates":[2.193867,48.815904],"type":"Point"},"properties":{"osm_id":"3350036759","tag":{"amenity":"recycling","recycling:glass_bottles":"yes","recycling_type":"container"}},"type":"Feature"},
	{"geometry":{"coordinates":[2.174645,48.820975],"type":"Point"},"properties":{"osm_id":"3350037202","tag":{"amenity":"recycling","recycling:glass":"yes","recycling_type":"container"}},"type":"Feature"},
	{"geometry":{"coordinates":[2.194297,48.821852],"type":"Point"},"properties":{"osm_id":"3350037215","tag":{"amenity":"recycling","recycling:glass":"yes","recycling_type":"container"}},"type":"Feature"},
	{"geometry":{"coordinates":[2.188783,48.822309],"type":"Point"},"properties":{"osm_id":"3350037222","tag":{"amenity":"recycling","recycling:glass":"yes","recycling_type":"container"}},"type":"Feature"},
	{"geometry":{"coordinates":[2.183765,48.825592],"type":"Point"},"properties":{"osm_id":"3350037258","tag":{"amenity":"recycling","recycling:glass":"yes","recycling_type":"container"}},"type":"Feature"},
	{"geometry":{"coordinates":[2.195539,48.825965],"type":"Point"},"properties":{"osm_id":"3350037266","tag":{"amenity":"recycling","recycling:glass":"yes","recycling_type":"container"}},"type":"Feature"},
	{"geometry":{"coordinates":[2.188681,48.827468],"type":"Point"},"properties":{"osm_id":"3350037279","tag":{"amenity":"recycling","recycling:glass":"yes","recycling_type":"container"}},"type":"Feature"},
	{"geometry":{"coordinates":[2.182572,48.827714],"type":"Point"},"properties":{"osm_id":"3350037283","tag":{"amenity":"recycling","recycling:glass":"yes","recycling_type":"container"}},"type":"Feature"},
	{"geometry":{"coordinates":[2.133445,48.849242],"type":"Point"},"properties":{"osm_id":"3486404084","tag":{"amenity":"recycling","recycling:cans":"no","recycling:clothes":"no","recycling:glass":"no","recycling:glass_bottles":"yes","recycling:paper":"no","recycling_type":"container"}},"type":"Feature"},
	{"geometry":{"coordinates":[2.131414,48.854278],"type":"Point"},"properties":{"osm_id":"3486415639","tag":{"amenity":"recycling","location":"overground","recycling:cans":"no","recycling:clothes":"yes","recycling:glass":"no","recycling:paper":"no","recycling_type":"container"}},"type":"Feature"},
	{"geometry":{"coordinates":[2.132795,48.80905],"type":"Point"},"properties":{"osm_id":"3966675077","tag":{"amenity":"recycling","recycling_type":"container"}},"type":"Feature"},
	{"geometry":{"coordinates":[2.132655,48.840889],"type":"Point"},"properties":{"osm_id":"4426408816","tag":{"amenity":"recycling","location":"underground","recycling:glass":"no","recycling:glass_bottles":"yes","recycling_type":"container"}},"type":"Feature"},
	{"geometry":{"coordinates":[2.193056,48.811991],"type":"Point"},"properties":{"name":"Sani-chien","osm_id":"4540883588","tag":{"amenity":"waste_basket","waste":"dog_excrement"}},"type":"Feature"},
	{"geometry":{"coordinates":[2.152782,48.848887],"type":"Point"},"properties":{"osm_id":"4574940333","tag":{"amenity":"recycling","recycling:glass":"yes","recycling_type":"container"}},"type":"Feature"},
	{"geometry":{"coordinates":[2.125557,48.824589],"type":"Point"},"properties":{"osm_id":"4774667682","tag":{"amenity":"waste_basket"}},"type":"Feature"},
	{"geometry":{"coordinates":[2.125557,48.826734],"type":"Point"},"properties":{"osm_id":"4775148937","tag":{"amenity":"waste_basket","material":"stone"}},"type":"Feature"},
	{"geometry":{"coordinates":[2.160961,48.825575],"type":"Point"},"properties":{"osm_id":"4866385841","tag":{"amenity":"waste_basket"}},"type":"Feature"},
	{"geometry":{"coordinates":[2.126076,48.840209],"type":"Point"},"properties":{"osm_id":"4921073142","tag":{"amenity":"waste_disposal","description":"Verre"}},"type":"Feature"},
	{"geometry":{"coordinates":[2.124511,48.82579],"type":"Point"},"properties":{"osm_id":"4982745091","tag":{"amenity":"waste_basket"}},"type":"Feature"},
	{"geometry":{"coordinates":[2.18303,48.811421],"type":"Point"},"properties":{"osm_id":"4982793895","tag":{"amenity":"waste_basket"}},"type":"Feature"},
	{"geometry":{"coordinates":[2.188558,48.809105],"type":"Point"},"properties":{"osm_id":"4982985669","tag":{"amenity":"recycling","recycling:glass_bottles":"yes","recycling_type":"container"}},"type":"Feature"},
	{"geometry":{"coordinates":[2.12918,48.807308],"type":"Point"},"properties":{"osm_id":"4986693221","tag":{"amenity":"waste_basket"}},"type":"Feature"},
	{"geometry":{"coordinates":[2.130321,48.807122],"type":"Point"},"properties":{"osm_id":"4986693222","tag":{"amenity":"waste_basket"}},"type":"Feature"},
	{"geometry":{"coordinates":[2.130316,48.807029],"type":"Point"},"properties":{"osm_id":"4986693223","tag":{"amenity":"waste_basket"}},"type":"Feature"},
	{"geometry":{"coordinates":[2.129434,48.807375],"type":"Point"},"properties":{"osm_id":"4986693321","tag":{"amenity":"waste_basket"}},"type":"Feature"},
	{"geometry":{"coordinates":[2.130562,48.806945],"type":"Point"},"properties":{"osm_id":"4986693421","tag":{"amenity":"waste_basket"}},"type":"Feature"},
	{"geometry":{"coordinates":[2.132432,48.807147],"type":"Point"},"properties":{"osm_id":"4986713421","tag":{"amenity":"waste_basket"}},"type":"Feature"},
	{"geometry":{"coordinates":[2.135409,48.809571],"type":"Point"},"properties":{"osm_id":"5054193021","tag":{"amenity":"recycling","location":"overground","recycling_type":"container"}},"type":"Feature"},
	{"geometry":{"coordinates":[2.134263,48.810479],"type":"Point"},"properties":{"osm_id":"5060858501","tag":{"amenity":"recycling","location":"underground","recycling:cardboard":"yes","recycling:glass_bottles":"yes","recycling:paper":"yes","recycling:plastic":"yes","recycling_type":"container"}},"type":"Feature"},
	{"geometry":{"coordinates":[2.134286,48.810107],"type":"Point"},"properties":{"osm_id":"5063550421","tag":{"amenity":"waste_basket"}},"type":"Feature"},
	{"geometry":{"coordinates":[2.134572,48.809699],"type":"Point"},"properties":{"osm_id":"5063550521","tag":{"amenity":"waste_basket","survey:date":"2019-09-04"}},"type":"Feature"},
	{"geometry":{"coordinates":[2.193999,48.815441],"type":"Point"},"properties":{"name":"Sani-chien","osm_id":"5085507904","tag":{"amenity":"waste_basket","waste":"dog_excrement"}},"type":"Feature"},
	{"geometry":{"coordinates":[2.193701,48.813907],"type":"Point"},"properties":{"name":"Sani-chien","osm_id":"5085513395","tag":{"amenity":"waste_basket","waste":"dog_excrement"}},"type":"Feature"},
	{"geometry":{"coordinates":[2.192824,48.81088],"type":"Point"},"properties":{"name":"Sani-chien","osm_id":"5085536964","tag":{"amenity":"waste_basket","waste":"dog_excrement"}},"type":"Feature"},
	{"geometry":{"coordinates":[2.197014,48.817834],"type":"Point"},"properties":{"name":"Sani-chien","osm_id":"5085543361","tag":{"amenity":"waste_basket","waste":"dog_excrement"}},"type":"Feature"},
	{"geometry":{"coordinates":[2.191888,48.81158],"type":"Point"},"properties":{"name":"Sani-chien","osm_id":"5085574485","tag":{"amenity":"waste_basket","waste":"dog_excrement"}},"type":"Feature"},
	{"geometry":{"coordinates":[2.186264,48.807264],"type":"Point"},"properties":{"name":"Sani-chien","osm_id":"5085591220","tag":{"amenity":"waste_basket","waste":"dog_excrement"}},"type":"Feature"},
	{"geometry":{"coordinates":[2.197043,48.815099],"type":"Point"},"properties":{"name":"Sani-chien","osm_id":"5085646480","tag":{"amenity":"waste_basket","waste":"dog_excrement"}},"type":"Feature"},
	{"geometry":{"coordinates":[2.13047,48.807144],"type":"Point"},"properties":{"osm_id":"5092348229","tag":{"amenity":"recycling","recycling_type":"container"}},"type":"Feature"},
	{"geometry":{"coordinates":[2.132259,48.859398],"type":"Point"},"properties":{"osm_id":"5140748922","tag":{"amenity":"recycling","recycling_type":"container"}},"type":"Feature"},
	{"geometry":{"coordinates":[2.147886,48.859179],"type":"Point"},"properties":{"osm_id":"5389243185","tag":{"amenity":"recycling","recycling:glass_bottles":"yes","recycling_type":"container","wheelchair":"yes"}},"type":"Feature"},
	{"geometry":{"coordinates":[2.113142,48.819483],"type":"Point"},"properties":{"osm_id":"5613624076","tag":{"amenity":"waste_disposal"}},"type":"Feature"},
	{"geometry":{"coordinates":[2.187503,48.812348],"type":"Point"},"properties":{"osm_id":"5999284313","tag":{"amenity":"waste_basket"}},"type":"Feature"},
	{"geometry":{"coordinates":[2.183392,48.862626],"type":"Point"},"properties":{"osm_id":"6098164297","tag":{"amenity":"waste_basket"}},"type":"Feature"},
	{"geometry":{"coordinates":[2.131332,48.806979],"type":"Point"},"properties":{"osm_id":"6101507699","tag":{"amenity":"waste_basket"}},"type":"Feature"},
	{"geometry":{"coordinates":[2.132561,48.807025],"type":"Point"},"properties":{"osm_id":"6101507709","tag":{"amenity":"recycling","recycling:glass_bottles":"yes","recycling_type":"container"}},"type":"Feature"},
	{"geometry":{"coordinates":[2.132534,48.80703],"type":"Point"},"properties":{"osm_id":"6101507710","tag":{"amenity":"recycling","recycling:glass_bottles":"yes","recycling_type":"container"}},"type":"Feature"},
	{"geometry":{"coordinates":[2.124213,48.809567],"type":"Point"},"properties":{"osm_id":"6502445285","tag":{"amenity":"waste_basket"}},"type":"Feature"},
	{"geometry":{"coordinates":[2.121928,48.817904],"type":"Point"},"properties":{"osm_id":"6593494985","tag":{"amenity":"recycling","recycling:glass_bottles":"yes","recycling_type":"container"}},"type":"Feature"},
	{"geometry":{"coordinates":[2.127638,48.817468],"type":"Point"},"properties":{"osm_id":"6600653785","tag":{"amenity":"recycling","location":"underground","recycling:glass_bottles":"yes","recycling_type":"container"}},"type":"Feature"},
	{"geometry":{"coordinates":[2.128293,48.815336],"type":"Point"},"properties":{"osm_id":"6600653786","tag":{"amenity":"recycling","location":"underground","recycling:glass_bottles":"yes","recycling_type":"container"}},"type":"Feature"},
	{"geometry":{"coordinates":[2.130583,48.807044],"type":"Point"},"properties":{"osm_id":"6620824487","tag":{"amenity":"waste_basket"}},"type":"Feature"},
	{"geometry":{"coordinates":[2.13342,48.807559],"type":"Point"},"properties":{"osm_id":"6620894187","tag":{"amenity":"waste_basket"}},"type":"Feature"},
	{"geometry":{"coordinates":[2.133511,48.808009],"type":"Point"},"properties":{"osm_id":"6620894188","tag":{"amenity":"waste_basket"}},"type":"Feature"},
	{"geometry":{"coordinates":[2.133269,48.808391],"type":"Point"},"properties":{"osm_id":"6620921185","tag":{"amenity":"waste_basket"}},"type":"Feature"},
	{"geometry":{"coordinates":[2.123831,48.81698],"type":"Point"},"properties":{"osm_id":"6638554586","tag":{"amenity":"waste_basket"}},"type":"Feature"},
	{"geometry":{"coordinates":[2.12387,48.817115],"type":"Point"},"properties":{"osm_id":"6638558587","tag":{"amenity":"waste_basket"}},"type":"Feature"},
	{"geometry":{"coordinates":[2.122854,48.817341],"type":"Point"},"properties":{"osm_id":"6638558589","tag":{"amenity":"waste_basket"}},"type":"Feature"},
	{"geometry":{"coordinates":[2.122914,48.817472],"type":"Point"},"properties":{"osm_id":"6638558590","tag":{"amenity":"waste_basket"}},"type":"Feature"},
	{"geometry":{"coordinates":[2.121765,48.817898],"type":"Point"},"properties":{"osm_id":"6638575885","tag":{"amenity":"waste_basket"}},"type":"Feature"},
	{"geometry":{"coordinates":[2.119954,48.818402],"type":"Point"},"properties":{"osm_id":"6647647185","tag":{"amenity":"waste_basket"}},"type":"Feature"},
	{"geometry":{"coordinates":[2.18939,48.864392],"type":"Point"},"properties":{"osm_id":"6660299641","tag":{"amenity":"waste_basket"}},"type":"Feature"},
	{"geometry":{"coordinates":[2.124441,48.816519],"type":"Point"},"properties":{"osm_id":"6700463187","tag":{"amenity":"recycling","recycling:glass_bottles":"yes","recycling_type":"container"}},"type":"Feature"},
	{"geometry":{"coordinates":[2.115791,48.819799],"type":"Point"},"properties":{"osm_id":"6755414285","tag":{"amenity":"waste_basket"}},"type":"Feature"},
	{"geometry":{"coordinates":[2.125649,48.823908],"type":"Point"},"properties":{"osm_id":"6755673486","tag":{"amenity":"waste_basket"}},"type":"Feature"},
	{"geometry":{"coordinates":[2.123863,48.825247],"type":"Point"},"properties":{"osm_id":"6755675887","tag":{"amenity":"waste_basket"}},"type":"Feature"},
	{"geometry":{"coordinates":[2.126913,48.819625],"type":"Point"},"properties":{"osm_id":"6757241687","tag":{"amenity":"waste_basket"}},"type":"Feature"},
	{"geometry":{"coordinates":[2.124054,48.820408],"type":"Point"},"properties":{"osm_id":"6757241688","tag":{"amenity":"waste_basket"}},"type":"Feature"},
	{"geometry":{"coordinates":[2.122601,48.82027],"type":"Point"},"properties":{"osm_id":"6757241689","tag":{"amenity":"waste_basket"}},"type":"Feature"},
	{"geometry":{"coordinates":[2.122597,48.820608],"type":"Point"},"properties":{"osm_id":"6757241690","tag":{"amenity":"waste_basket"}},"type":"Feature"},
	{"geometry":{"coordinates":[2.123876,48.820071],"type":"Point"},"properties":{"osm_id":"6757245685","tag":{"amenity":"waste_basket"}},"type":"Feature"},
	{"geometry":{"coordinates":[2.12297,48.819935],"type":"Point"},"properties":{"osm_id":"6757245686","tag":{"amenity":"waste_basket"}},"type":"Feature"},
	{"geometry":{"coordinates":[2.123056,48.8208],"type":"Point"},"properties":{"osm_id":"6757245687","tag":{"amenity":"waste_basket"}},"type":"Feature"},
	{"geometry":{"coordinates":[2.123248,48.820875],"type":"Point"},"properties":{"osm_id":"6757245786","tag":{"amenity":"waste_basket"}},"type":"Feature"},
	{"geometry":{"coordinates":[2.128431,48.815093],"type":"Point"},"properties":{"osm_id":"6774324985","tag":{"amenity":"waste_basket"}},"type":"Feature"},
	{"geometry":{"coordinates":[2.130999,48.818111],"type":"Point"},"properties":{"osm_id":"6776986785","tag":{"amenity":"waste_basket"}},"type":"Feature"},
	{"geometry":{"coordinates":[2.148788,48.807744],"type":"Point"},"properties":{"osm_id":"6920807482","tag":{"amenity":"recycling","colour":"gray","description":"{{https://www.bing.com/maps?osid=170f61f7-5e85-4442-aaa0-d5561b1ecd0e&cp=48.807758~2.14887&lvl=19&dir=259.23578&pi=-13.989003&style=x&mo=z.2%2c61&v=2&sV=2&form=S00027}}","recycling:glass":"yes","recycling_type":"container"}},"type":"Feature"},
	{"geometry":{"coordinates":[2.148884,48.808042],"type":"Point"},"properties":{"osm_id":"6925266879","tag":{"amenity":"waste_basket","colour":"brown","waste":"trash"}},"type":"Feature"},
	{"geometry":{"coordinates":[2.11756,48.82626],"type":"Point"},"properties":{"osm_id":"6932416106","tag":{"amenity":"waste_basket"}},"type":"Feature"},
	{"geometry":{"coordinates":[2.142651,48.811417],"type":"Point"},"properties":{"osm_id":"6992960795","tag":{"amenity":"waste_basket"}},"type":"Feature"},
	{"geometry":{"coordinates":[2.175151,48.809927],"type":"Point"},"properties":{"osm_id":"7059696067","tag":{"amenity":"waste_basket"}},"type":"Feature"},
	{"geometry":{"coordinates":[2.173336,48.809216],"type":"Point"},"properties":{"osm_id":"7059696068","tag":{"amenity":"waste_basket"}},"type":"Feature"},
	{"geometry":{"coordinates":[2.173093,48.809636],"type":"Point"},"properties":{"osm_id":"7059696069","tag":{"amenity":"waste_basket"}},"type":"Feature"},
	{"geometry":{"coordinates":[2.180523,48.864378],"type":"Point"},"properties":{"osm_id":"7108924899","tag":{"amenity":"waste_basket"}},"type":"Feature"},
	{"geometry":{"coordinates":[2.18071,48.864276],"type":"Point"},"properties":{"osm_id":"7108924900","tag":{"amenity":"waste_basket"}},"type":"Feature"},
	{"geometry":{"coordinates":[2.180285,48.864376],"type":"Point"},"properties":{"osm_id":"7108924901","tag":{"amenity":"waste_basket"}},"type":"Feature"},
	{"geometry":{"coordinates":[2.180567,48.86422],"type":"Point"},"properties":{"osm_id":"7108924902","tag":{"amenity":"waste_basket"}},"type":"Feature"},
	{"geometry":{"coordinates":[2.181838,48.823783],"type":"Point"},"properties":{"osm_id":"7442845425","tag":{"amenity":"recycling","recycling:green_waste":"yes","recycling_type":"container"}},"type":"Feature"},
	{"geometry":{"coordinates":[2.184662,48.823841],"type":"Point"},"properties":{"osm_id":"7442845426","tag":{"amenity":"recycling","recycling:green_waste":"yes","recycling_type":"container"}},"type":"Feature"},
	{"geometry":{"coordinates":[2.185099,48.824703],"type":"Point"},"properties":{"osm_id":"7442845427","tag":{"amenity":"recycling","recycling:green_waste":"yes","recycling_type":"container"}},"type":"Feature"},
	{"geometry":{"coordinates":[2.149396,48.811508],"type":"Point"},"properties":{"osm_id":"7932581716","tag":{"amenity":"waste_basket"}},"type":"Feature"}
]
}
