{
"type": "FeatureCollection",
"features": [
	{"geometry":{"coordinates":[2.119235,48.612443],"type":"Point"},"properties":{"name":"Station d'\u00c3\u00a9puration SIAI","osm_id":"1826572470","tag":{"amenity":"recycling","recycling_type":"centre"}},"type":"Feature"},
	{"geometry":{"coordinates":[2.191702,48.577597],"type":"Point"},"properties":{"osm_id":"6009650807","tag":{"amenity":"waste_basket"}},"type":"Feature"},
	{"geometry":{"coordinates":[2.193693,48.578166],"type":"Point"},"properties":{"osm_id":"6013312529","tag":{"amenity":"recycling","recycling:paper":"yes","recycling_type":"container"}},"type":"Feature"},
	{"geometry":{"coordinates":[2.193718,48.578181],"type":"Point"},"properties":{"osm_id":"6013312530","tag":{"amenity":"recycling","recycling:glass_bottles":"yes","recycling_type":"container"}},"type":"Feature"},
	{"geometry":{"coordinates":[2.19165,48.576986],"type":"Point"},"properties":{"osm_id":"6015514893","tag":{"amenity":"waste_basket"}},"type":"Feature"},
	{"geometry":{"coordinates":[2.193079,48.578066],"type":"Point"},"properties":{"osm_id":"6015514894","tag":{"amenity":"waste_basket"}},"type":"Feature"},
	{"geometry":{"coordinates":[2.192632,48.57785],"type":"Point"},"properties":{"osm_id":"6015514895","tag":{"amenity":"waste_basket"}},"type":"Feature"},
	{"geometry":{"coordinates":[2.192135,48.577615],"type":"Point"},"properties":{"osm_id":"6015514897","tag":{"amenity":"waste_basket"}},"type":"Feature"},
	{"geometry":{"coordinates":[2.191725,48.577441],"type":"Point"},"properties":{"osm_id":"6015514898","tag":{"amenity":"waste_basket"}},"type":"Feature"},
	{"geometry":{"coordinates":[2.127343,48.627857],"type":"Point"},"properties":{"osm_id":"6145357363","tag":{"amenity":"recycling","recycling:bottles":"yes","recycling:paper":"yes","recycling_type":"container"}},"type":"Feature"},
	{"geometry":{"coordinates":[2.124139,48.62442],"type":"Point"},"properties":{"osm_id":"6153767548","tag":{"amenity":"waste_basket"}},"type":"Feature"},
	{"geometry":{"coordinates":[2.126915,48.627061],"type":"Point"},"properties":{"osm_id":"6161609363","tag":{"amenity":"recycling","recycling:bottles":"yes","recycling:paper":"yes","recycling_type":"container"}},"type":"Feature"},
	{"geometry":{"coordinates":[2.118312,48.628244],"type":"Point"},"properties":{"osm_id":"6168696313","tag":{"amenity":"recycling","recycling:bottles":"yes","recycling:paper":"yes","recycling_type":"container"}},"type":"Feature"},
	{"geometry":{"coordinates":[2.122904,48.623556],"type":"Point"},"properties":{"osm_id":"6379078114","tag":{"amenity":"waste_basket"}},"type":"Feature"},
	{"geometry":{"coordinates":[2.123083,48.623913],"type":"Point"},"properties":{"osm_id":"6379078115","tag":{"amenity":"waste_basket"}},"type":"Feature"},
	{"geometry":{"coordinates":[2.122967,48.623042],"type":"Point"},"properties":{"osm_id":"6468357438","tag":{"amenity":"waste_basket"}},"type":"Feature"},
	{"geometry":{"coordinates":[2.127087,48.61598],"type":"Point"},"properties":{"osm_id":"6643094624","tag":{"amenity":"waste_basket"}},"type":"Feature"},
	{"geometry":{"coordinates":[2.126544,48.616636],"type":"Point"},"properties":{"osm_id":"6646089295","tag":{"amenity":"waste_basket"}},"type":"Feature"},
	{"geometry":{"coordinates":[2.125506,48.622341],"type":"Point"},"properties":{"name":"Poubelle","osm_id":"6687502639","tag":{"amenity":"waste_basket"}},"type":"Feature"},
	{"geometry":{"coordinates":[2.12743,48.615962],"type":"Point"},"properties":{"osm_id":"6695299768","tag":{"amenity":"waste_basket"}},"type":"Feature"},
	{"geometry":{"coordinates":[2.127785,48.629671],"type":"Point"},"properties":{"osm_id":"6700329519","tag":{"amenity":"waste_basket"}},"type":"Feature"},
	{"geometry":{"coordinates":[2.128467,48.629444],"type":"Point"},"properties":{"osm_id":"6702828965","tag":{"amenity":"waste_basket"}},"type":"Feature"},
	{"geometry":{"coordinates":[2.125144,48.624251],"type":"Point"},"properties":{"osm_id":"6708073781","tag":{"amenity":"waste_basket"}},"type":"Feature"},
	{"geometry":{"coordinates":[2.123899,48.624336],"type":"Point"},"properties":{"osm_id":"6721657892","tag":{"amenity":"waste_basket"}},"type":"Feature"},
	{"geometry":{"coordinates":[2.127578,48.616253],"type":"Point"},"properties":{"osm_id":"6725877126","tag":{"amenity":"waste_basket"}},"type":"Feature"},
	{"geometry":{"coordinates":[2.125771,48.62232],"type":"Point"},"properties":{"osm_id":"6813657261","tag":{"amenity":"waste_basket","waste":"trash"}},"type":"Feature"},
	{"geometry":{"coordinates":[2.124395,48.624909],"type":"Point"},"properties":{"osm_id":"6855694228","tag":{"amenity":"waste_basket"}},"type":"Feature"},
	{"geometry":{"coordinates":[2.12662,48.626722],"type":"Point"},"properties":{"osm_id":"6942970984","tag":{"addr:street":"Route de Paris","amenity":"waste_basket"}},"type":"Feature"},
	{"geometry":{"coordinates":[2.122732,48.623366],"type":"Point"},"properties":{"osm_id":"7052523475","tag":{"amenity":"recycling","recycling:green_waste":"yes","recycling_type":"container"}},"type":"Feature"},
	{"geometry":{"coordinates":[2.123752,48.623954],"type":"Point"},"properties":{"osm_id":"7410186501","tag":{"amenity":"waste_basket"}},"type":"Feature"},
	{"geometry":{"coordinates":[2.122696,48.630904],"type":"Point"},"properties":{"osm_id":"7612645700","tag":{"amenity":"waste_basket","waste":"trash"}},"type":"Feature"},
	{"geometry":{"coordinates":[2.122415,48.630695],"type":"Point"},"properties":{"osm_id":"7704541155","tag":{"amenity":"waste_basket"}},"type":"Feature"},
	{"geometry":{"coordinates":[2.123252,48.61798],"type":"Point"},"properties":{"osm_id":"7875555002","tag":{"amenity":"waste_basket"}},"type":"Feature"},
	{"geometry":{"coordinates":[2.123564,48.618062],"type":"Point"},"properties":{"osm_id":"7875564183","tag":{"amenity":"waste_basket"}},"type":"Feature"},
	{"geometry":{"coordinates":[2.123594,48.618056],"type":"Point"},"properties":{"osm_id":"7875570987","tag":{"amenity":"waste_basket"}},"type":"Feature"},
	{"geometry":{"coordinates":[2.123697,48.618034],"type":"Point"},"properties":{"osm_id":"7875570990","tag":{"amenity":"waste_basket"}},"type":"Feature"},
	{"geometry":{"coordinates":[2.125999,48.620908],"type":"Point"},"properties":{"osm_id":"7875610169","tag":{"amenity":"waste_basket"}},"type":"Feature"},
	{"geometry":{"coordinates":[2.125769,48.620592],"type":"Point"},"properties":{"osm_id":"7875610171","tag":{"amenity":"waste_basket"}},"type":"Feature"},
	{"geometry":{"coordinates":[2.126079,48.620826],"type":"Point"},"properties":{"osm_id":"7875610173","tag":{"amenity":"waste_basket"}},"type":"Feature"},
	{"geometry":{"coordinates":[2.123802,48.61883],"type":"Point"},"properties":{"osm_id":"7875610582","tag":{"amenity":"waste_basket"}},"type":"Feature"},
	{"geometry":{"coordinates":[2.125172,48.61885],"type":"Point"},"properties":{"osm_id":"7875621967","tag":{"amenity":"recycling","recycling:paper":"yes","recycling_type":"container"}},"type":"Feature"},
	{"geometry":{"coordinates":[2.125026,48.618852],"type":"Point"},"properties":{"osm_id":"7875621968","tag":{"amenity":"waste_basket"}},"type":"Feature"},
	{"geometry":{"coordinates":[2.124726,48.618385],"type":"Point"},"properties":{"osm_id":"7875621969","tag":{"amenity":"waste_basket"}},"type":"Feature"},
	{"geometry":{"coordinates":[2.126249,48.618799],"type":"Point"},"properties":{"osm_id":"7875643598","tag":{"amenity":"waste_basket"}},"type":"Feature"},
	{"geometry":{"coordinates":[2.126413,48.619195],"type":"Point"},"properties":{"osm_id":"7875643602","tag":{"amenity":"waste_basket"}},"type":"Feature"},
	{"geometry":{"coordinates":[2.126715,48.619238],"type":"Point"},"properties":{"osm_id":"7875643603","tag":{"amenity":"waste_basket"}},"type":"Feature"},
	{"geometry":{"coordinates":[2.126167,48.618852],"type":"Point"},"properties":{"osm_id":"7875643608","tag":{"amenity":"recycling","recycling:paper":"yes","recycling_type":"container"}},"type":"Feature"},
	{"geometry":{"coordinates":[2.12443,48.6179],"type":"Point"},"properties":{"osm_id":"7875705451","tag":{"amenity":"waste_basket"}},"type":"Feature"},
	{"geometry":{"coordinates":[2.125016,48.618183],"type":"Point"},"properties":{"osm_id":"7875706129","tag":{"amenity":"waste_basket"}},"type":"Feature"},
	{"geometry":{"coordinates":[2.124553,48.617625],"type":"Point"},"properties":{"osm_id":"7875706132","tag":{"amenity":"waste_basket"}},"type":"Feature"},
	{"geometry":{"coordinates":[2.124734,48.618077],"type":"Point"},"properties":{"osm_id":"7875706135","tag":{"amenity":"waste_basket"}},"type":"Feature"},
	{"geometry":{"coordinates":[2.125964,48.618082],"type":"Point"},"properties":{"osm_id":"7875755040","tag":{"amenity":"recycling","recycling_type":"container"}},"type":"Feature"},
	{"geometry":{"coordinates":[2.1275,48.616172],"type":"Point"},"properties":{"osm_id":"7875809226","tag":{"amenity":"waste_basket"}},"type":"Feature"},
	{"geometry":{"coordinates":[2.127443,48.616156],"type":"Point"},"properties":{"osm_id":"7875809231","tag":{"amenity":"waste_basket"}},"type":"Feature"},
	{"geometry":{"coordinates":[2.127288,48.616036],"type":"Point"},"properties":{"osm_id":"7875809232","tag":{"amenity":"waste_basket"}},"type":"Feature"},
	{"geometry":{"coordinates":[2.117142,48.621108],"type":"Point"},"properties":{"osm_id":"7875828067","tag":{"amenity":"recycling","recycling_type":"container"}},"type":"Feature"},
	{"geometry":{"coordinates":[2.122705,48.624118],"type":"Point"},"properties":{"osm_id":"7878928981","tag":{"amenity":"waste_basket"}},"type":"Feature"}
]
}
