{
"type": "FeatureCollection",
"features": [
	{"geometry":{"coordinates":[2.176661,48.487351],"type":"Point"},"properties":{"osm_id":"5308196005","tag":{"amenity":"recycling","opening_hours":"24/7","operator":"SIREDOM","recycling:cans":"yes","recycling:cardboard":"yes","recycling:glass":"yes","recycling:plastic":"yes","recycling:plastic_bottles":"yes","recycling:waste":"yes","recycling_type":"container"}},"type":"Feature"},
	{"geometry":{"coordinates":[2.194829,48.493405],"type":"Point"},"properties":{"osm_id":"6042219546","tag":{"amenity":"waste_basket"}},"type":"Feature"},
	{"geometry":{"coordinates":[2.194539,48.493365],"type":"Point"},"properties":{"osm_id":"6042219547","tag":{"amenity":"waste_basket"}},"type":"Feature"},
	{"geometry":{"coordinates":[2.194729,48.493606],"type":"Point"},"properties":{"osm_id":"6042219558","tag":{"amenity":"waste_basket"}},"type":"Feature"},
	{"geometry":{"coordinates":[2.194066,48.493687],"type":"Point"},"properties":{"osm_id":"6042219572","tag":{"amenity":"waste_basket"}},"type":"Feature"},
	{"geometry":{"coordinates":[2.194127,48.493765],"type":"Point"},"properties":{"osm_id":"6042219573","tag":{"amenity":"waste_basket"}},"type":"Feature"},
	{"geometry":{"coordinates":[2.194103,48.49364],"type":"Point"},"properties":{"osm_id":"6042219574","tag":{"amenity":"waste_basket"}},"type":"Feature"},
	{"geometry":{"coordinates":[2.194276,48.493485],"type":"Point"},"properties":{"osm_id":"6042219575","tag":{"amenity":"waste_basket"}},"type":"Feature"},
	{"geometry":{"coordinates":[2.194318,48.493737],"type":"Point"},"properties":{"osm_id":"6042224797","tag":{"amenity":"waste_basket","indoor":"yes"}},"type":"Feature"},
	{"geometry":{"coordinates":[2.194298,48.493751],"type":"Point"},"properties":{"osm_id":"6042224833","tag":{"amenity":"waste_basket"}},"type":"Feature"},
	{"geometry":{"coordinates":[2.126435,48.512602],"type":"Point"},"properties":{"osm_id":"7578921139","tag":{"amenity":"waste_basket"}},"type":"Feature"}
]
}
