{
"type": "FeatureCollection",
"lastupdate": "2020-08-02T00:00:00Z",
"features": [
	{"geometry":{"coordinates":[2.159785,48.437198],"type":"Point"},"properties":{"osm_id":"2365880068","tag":{"amenity":"waste_basket","level":"0"}},"type":"Feature"},
	{"geometry":{"coordinates":[2.145353,48.427356],"type":"Point"},"properties":{"osm_id":"2533363672","tag":{"amenity":"waste_basket"}},"type":"Feature"},
	{"geometry":{"coordinates":[2.145264,48.427502],"type":"Point"},"properties":{"osm_id":"2533363688","tag":{"amenity":"waste_basket"}},"type":"Feature"},
	{"geometry":{"coordinates":[2.14627,48.429462],"type":"Point"},"properties":{"osm_id":"2533363720","tag":{"amenity":"recycling","recycling:glass":"yes"}},"type":"Feature"},
	{"geometry":{"coordinates":[2.147094,48.429225],"type":"Point"},"properties":{"osm_id":"2533625219","tag":{"amenity":"waste_basket"}},"type":"Feature"},
	{"geometry":{"coordinates":[2.147897,48.429675],"type":"Point"},"properties":{"osm_id":"2533625225","tag":{"amenity":"waste_basket"}},"type":"Feature"},
	{"geometry":{"coordinates":[2.14796,48.430099],"type":"Point"},"properties":{"osm_id":"2533625232","tag":{"amenity":"recycling","recycling:glass":"yes"}},"type":"Feature"},
	{"geometry":{"coordinates":[2.147563,48.430767],"type":"Point"},"properties":{"osm_id":"2533625234","tag":{"amenity":"recycling","recycling:glass":"yes"}},"type":"Feature"},
	{"geometry":{"coordinates":[2.152479,48.436395],"type":"Point"},"properties":{"osm_id":"3217857438","tag":{"amenity":"recycling","recycling:glass":"yes"}},"type":"Feature"},
	{"geometry":{"coordinates":[2.167288,48.435517],"type":"Point"},"properties":{"osm_id":"5206645350","tag":{"amenity":"recycling"}},"type":"Feature"},
	{"geometry":{"coordinates":[2.168857,48.429764],"type":"Point"},"properties":{"osm_id":"5834224123","tag":{"amenity":"recycling","recycling:glass_bottles":"yes","recycling_type":"container"}},"type":"Feature"},
	{"geometry":{"coordinates":[2.159326,48.437229],"type":"Point"},"properties":{"osm_id":"6042765149","tag":{"amenity":"waste_basket"}},"type":"Feature"},
	{"geometry":{"coordinates":[2.16001,48.437703],"type":"Point"},"properties":{"osm_id":"6042765151","tag":{"amenity":"waste_basket"}},"type":"Feature"},
	{"geometry":{"coordinates":[2.160398,48.438591],"type":"Point"},"properties":{"osm_id":"6042765157","tag":{"amenity":"waste_basket"}},"type":"Feature"},
	{"geometry":{"coordinates":[2.159309,48.436512],"type":"Point"},"properties":{"osm_id":"6043870082","tag":{"amenity":"waste_basket"}},"type":"Feature"},
	{"geometry":{"coordinates":[2.159469,48.436234],"type":"Point"},"properties":{"osm_id":"6043870188","tag":{"amenity":"waste_basket"}},"type":"Feature"},
	{"geometry":{"coordinates":[2.159904,48.436798],"type":"Point"},"properties":{"osm_id":"6043870205","tag":{"amenity":"recycling","recycling:glass_bottles":"yes","recycling_type":"container"}},"type":"Feature"},
	{"geometry":{"coordinates":[2.159601,48.436805],"type":"Point"},"properties":{"osm_id":"6043870215","tag":{"amenity":"waste_basket","level":"-1"}},"type":"Feature"},
	{"geometry":{"coordinates":[2.139273,48.440508],"type":"Point"},"properties":{"osm_id":"7573113754","tag":{"amenity":"recycling"}},"type":"Feature"}
]
}
