{
"type": "FeatureCollection",
"lastupdate": "2020-08-06T00:00:00Z",
"features": [
	{"geometry":{"coordinates":[2.123981,44.549426],"type":"Point"},"properties":{"osm_id":"5465028249","tag":{"amenity":"waste_basket"}},"type":"Feature"},
	{"geometry":{"coordinates":[2.162417,44.574057],"type":"Point"},"properties":{"osm_id":"5593010080","tag":{"amenity":"recycling","recycling_type":"container"}},"type":"Feature"},
	{"geometry":{"coordinates":[2.176432,44.573087],"type":"Point"},"properties":{"osm_id":"5593020667","tag":{"amenity":"waste_basket"}},"type":"Feature"},
	{"geometry":{"coordinates":[2.109672,44.54904],"type":"Point"},"properties":{"osm_id":"6495582199","tag":{"amenity":"recycling","recycling:glass_bottles":"yes","recycling_type":"container"}},"type":"Feature"},
	{"geometry":{"coordinates":[2.109535,44.548913],"type":"Point"},"properties":{"osm_id":"6495582211","tag":{"amenity":"waste_basket"}},"type":"Feature"},
	{"geometry":{"coordinates":[2.109518,44.54883],"type":"Point"},"properties":{"osm_id":"6495582213","tag":{"amenity":"waste_basket","support":"wall_mounted"}},"type":"Feature"}
]
}
