{
"type": "FeatureCollection",
"features": [
	{"geometry":{"coordinates":[2.116204,43.923058],"type":"Point"},"properties":{"osm_id":"601615165","tag":{"amenity":"recycling","recycling:glass":"yes"}},"type":"Feature"},
	{"geometry":{"coordinates":[2.137818,43.924046],"type":"Point"},"properties":{"osm_id":"649418218","tag":{"amenity":"recycling","recycling:glass":"yes"}},"type":"Feature"},
	{"geometry":{"coordinates":[2.143431,43.923685],"type":"Point"},"properties":{"osm_id":"1190686064","tag":{"amenity":"recycling","opening_hours":"24/7","recycling:waste":"yes","recycling_type":"container","wheelchair":"yes"}},"type":"Feature"},
	{"geometry":{"coordinates":[2.119066,43.923349],"type":"Point"},"properties":{"osm_id":"1324100907","tag":{"amenity":"waste_basket"}},"type":"Feature"},
	{"geometry":{"coordinates":[2.135726,43.926423],"type":"Point"},"properties":{"osm_id":"2145044882","tag":{"amenity":"recycling","recycling:cans":"yes","recycling:glass_bottles":"yes","recycling:paper":"yes","recycling_type":"container"}},"type":"Feature"},
	{"geometry":{"coordinates":[2.110158,43.916454],"type":"Point"},"properties":{"osm_id":"2411229072","tag":{"amenity":"recycling"}},"type":"Feature"},
	{"geometry":{"coordinates":[2.140321,43.933624],"type":"Point"},"properties":{"osm_id":"2412398205","tag":{"amenity":"recycling","location":"overground","recycling:cans":"yes","recycling:glass_bottles":"yes","recycling:paper":"yes","recycling:plastic":"yes","recycling:plastic_bottles":"yes","recycling:plastic_packaging":"yes","recycling_type":"container"}},"type":"Feature"},
	{"geometry":{"coordinates":[2.144687,43.928729],"type":"Point"},"properties":{"osm_id":"3033343844","tag":{"amenity":"recycling","location":"underground","recycling_type":"container"}},"type":"Feature"},
	{"geometry":{"coordinates":[2.145081,43.93264],"type":"Point"},"properties":{"osm_id":"3033343854","tag":{"amenity":"recycling","location":"underground","recycling_type":"container"}},"type":"Feature"},
	{"geometry":{"coordinates":[2.146386,43.943663],"type":"Point"},"properties":{"osm_id":"3527770938","tag":{"amenity":"waste_basket"}},"type":"Feature"},
	{"geometry":{"coordinates":[2.14637,43.943666],"type":"Point"},"properties":{"osm_id":"3527770939","tag":{"amenity":"waste_basket"}},"type":"Feature"},
	{"geometry":{"coordinates":[2.146293,43.94415],"type":"Point"},"properties":{"osm_id":"3528353729","tag":{"amenity":"waste_basket"}},"type":"Feature"},
	{"geometry":{"coordinates":[2.145827,43.944172],"type":"Point"},"properties":{"osm_id":"3528353730","tag":{"amenity":"waste_basket"}},"type":"Feature"},
	{"geometry":{"coordinates":[2.144904,43.947983],"type":"Point"},"properties":{"osm_id":"3528362105","tag":{"amenity":"waste_basket"}},"type":"Feature"},
	{"geometry":{"coordinates":[2.144017,43.948504],"type":"Point"},"properties":{"osm_id":"3528362118","tag":{"amenity":"recycling","recycling:glass_bottles":"yes","recycling_type":"container"}},"type":"Feature"},
	{"geometry":{"coordinates":[2.144548,43.940281],"type":"Point"},"properties":{"osm_id":"3528641783","tag":{"amenity":"waste_basket"}},"type":"Feature"},
	{"geometry":{"coordinates":[2.143734,43.942082],"type":"Point"},"properties":{"osm_id":"3528641923","tag":{"amenity":"recycling","recycling:glass_bottles":"yes","recycling_type":"container"}},"type":"Feature"},
	{"geometry":{"coordinates":[2.11032,43.919619],"type":"Point"},"properties":{"osm_id":"3712373555","tag":{"amenity":"recycling"}},"type":"Feature"},
	{"geometry":{"coordinates":[2.109378,43.919603],"type":"Point"},"properties":{"osm_id":"3712373556","tag":{"amenity":"recycling"}},"type":"Feature"},
	{"geometry":{"coordinates":[2.152447,43.92549],"type":"Point"},"properties":{"osm_id":"3796589337","tag":{"amenity":"recycling","recycling:cans":"no","recycling:glass":"no","recycling:glass_bottles":"yes","recycling:paper":"yes","recycling_type":"container"}},"type":"Feature"},
	{"geometry":{"coordinates":[2.170462,43.917354],"type":"Point"},"properties":{"osm_id":"3830418013","tag":{"addr:street":"Rue Alain Colas","amenity":"recycling","recycling:cans":"yes","recycling:glass_bottles":"yes","recycling:paper":"yes","recycling:plastic":"yes","recycling_type":"container"}},"type":"Feature"},
	{"geometry":{"coordinates":[2.123407,43.9242],"type":"Point"},"properties":{"osm_id":"3830428578","tag":{"amenity":"recycling","recycling:glass":"yes","recycling:glass_bottles":"yes"}},"type":"Feature"},
	{"geometry":{"coordinates":[2.146385,43.935598],"type":"Point"},"properties":{"osm_id":"3830662622","tag":{"amenity":"recycling","mapillary":"w_yekXgf7ePJh8QOt4FJ2g","recycling:glass":"yes","recycling:glass_bottles":"yes","recycling_type":"container","survey:date":"2018-04-13"}},"type":"Feature"},
	{"geometry":{"coordinates":[2.155671,43.920041],"type":"Point"},"properties":{"name":"Recyclage","osm_id":"3831430968","tag":{"amenity":"recycling","recycling:glass_bottles":"yes","recycling:paper":"yes","recycling:plastic":"yes","recycling_type":"container"}},"type":"Feature"},
	{"geometry":{"coordinates":[2.151313,43.946165],"type":"Point"},"properties":{"osm_id":"3834770002","tag":{"amenity":"recycling","recycling:glass_bottles":"yes"}},"type":"Feature"},
	{"geometry":{"coordinates":[2.131714,43.91558],"type":"Point"},"properties":{"osm_id":"3843011689","tag":{"amenity":"recycling","recycling:cans":"yes","recycling:glass_bottles":"yes","recycling:paper":"yes","recycling_type":"container"}},"type":"Feature"},
	{"geometry":{"coordinates":[2.157641,43.921841],"type":"Point"},"properties":{"osm_id":"3896851421","tag":{"amenity":"recycling","recycling:glass_bottles":"yes"}},"type":"Feature"},
	{"geometry":{"coordinates":[2.141132,43.907255],"type":"Point"},"properties":{"osm_id":"4244696768","tag":{"amenity":"waste_basket"}},"type":"Feature"},
	{"geometry":{"coordinates":[2.144712,43.9277],"type":"Point"},"properties":{"osm_id":"4549455131","tag":{"amenity":"waste_basket"}},"type":"Feature"},
	{"geometry":{"coordinates":[2.144483,43.926608],"type":"Point"},"properties":{"osm_id":"4549455138","tag":{"amenity":"recycling","recycling:waste":"yes","recycling_type":"container"}},"type":"Feature"},
	{"geometry":{"coordinates":[2.143783,43.928864],"type":"Point"},"properties":{"osm_id":"4960006512","tag":{"amenity":"recycling","location":"underground","recycling:glass_bottles":"yes","recycling_type":"container"}},"type":"Feature"},
	{"geometry":{"coordinates":[2.145011,43.928767],"type":"Point"},"properties":{"osm_id":"4960006513","tag":{"amenity":"recycling","location":"underground","recycling:glass_bottles":"yes","recycling_type":"container"}},"type":"Feature"},
	{"geometry":{"coordinates":[2.142899,43.927855],"type":"Point"},"properties":{"osm_id":"6126225182","tag":{"amenity":"recycling","opening_hours":"24/7","recycling:waste":"yes","recycling_type":"container","wheelchair":"yes"}},"type":"Feature"},
	{"geometry":{"coordinates":[2.11245,43.908192],"type":"Point"},"properties":{"osm_id":"6130642627","tag":{"amenity":"waste_basket","waste":"trash"}},"type":"Feature"},
	{"geometry":{"coordinates":[2.144041,43.924206],"type":"Point"},"properties":{"osm_id":"6201400767","tag":{"amenity":"recycling","opening_hours":"24/7","recycling:waste":"yes","recycling_type":"container","wheelchair":"yes"}},"type":"Feature"},
	{"geometry":{"coordinates":[2.143981,43.923962],"type":"Point"},"properties":{"osm_id":"6201400768","tag":{"amenity":"recycling","opening_hours":"24/7","recycling:waste":"yes","recycling_type":"container","wheelchair":"yes"}},"type":"Feature"},
	{"geometry":{"coordinates":[2.142473,43.922853],"type":"Point"},"properties":{"osm_id":"6201400769","tag":{"amenity":"recycling","opening_hours":"24/7","recycling:waste":"yes","recycling_type":"container","wheelchair":"yes"}},"type":"Feature"},
	{"geometry":{"coordinates":[2.142992,43.923126],"type":"Point"},"properties":{"osm_id":"6201400770","tag":{"amenity":"recycling","opening_hours":"24/7","recycling:waste":"yes","recycling_type":"container","wheelchair":"yes"}},"type":"Feature"},
	{"geometry":{"coordinates":[2.143164,43.923609],"type":"Point"},"properties":{"osm_id":"6201400771","tag":{"amenity":"recycling","opening_hours":"24/7","recycling:waste":"yes","recycling_type":"container","wheelchair":"yes"}},"type":"Feature"},
	{"geometry":{"coordinates":[2.143302,43.923404],"type":"Point"},"properties":{"osm_id":"6201400772","tag":{"amenity":"recycling","opening_hours":"24/7","recycling:waste":"yes","recycling_type":"container","wheelchair":"yes"}},"type":"Feature"},
	{"geometry":{"coordinates":[2.142872,43.923382],"type":"Point"},"properties":{"osm_id":"6201400773","tag":{"amenity":"recycling","opening_hours":"24/7","recycling:waste":"yes","recycling_type":"container","wheelchair":"yes"}},"type":"Feature"},
	{"geometry":{"coordinates":[2.142981,43.923271],"type":"Point"},"properties":{"osm_id":"6201400774","tag":{"amenity":"recycling","opening_hours":"24/7","recycling:waste":"yes","recycling_type":"container","wheelchair":"yes"}},"type":"Feature"},
	{"geometry":{"coordinates":[2.1432,43.923469],"type":"Point"},"properties":{"osm_id":"6201400775","tag":{"amenity":"recycling","opening_hours":"24/7","recycling:waste":"yes","recycling_type":"container","wheelchair":"yes"}},"type":"Feature"},
	{"geometry":{"coordinates":[2.128845,43.924648],"type":"Point"},"properties":{"osm_id":"6281206349","tag":{"amenity":"recycling","opening_hours":"24/7","recycling:cardboard":"yes","recycling:glass_bottles":"yes","recycling:paper":"yes","recycling:plastic_bottles":"yes","recycling:plastic_packaging":"yes","recycling:waste":"yes","recycling_type":"container","wheelchair":"yes"}},"type":"Feature"},
	{"geometry":{"coordinates":[2.140041,43.942139],"type":"Point"},"properties":{"osm_id":"6420636085","tag":{"amenity":"recycling","recycling:glass_bottles":"yes","recycling_type":"container"}},"type":"Feature"},
	{"geometry":{"coordinates":[2.141744,43.929535],"type":"Point"},"properties":{"osm_id":"7751483185","tag":{"amenity":"waste_basket"}},"type":"Feature"}
]
}
