{
"type": "FeatureCollection",
"features": [
	{"geometry":{"coordinates":[2.18885,43.774481],"type":"Point"},"properties":{"osm_id":"1357798338","tag":{"amenity":"waste_basket"}},"type":"Feature"},
	{"geometry":{"coordinates":[2.137695,43.778417],"type":"Point"},"properties":{"osm_id":"1395395934","tag":{"amenity":"recycling","recycling:glass":"yes"}},"type":"Feature"},
	{"geometry":{"coordinates":[2.15162,43.802874],"type":"Point"},"properties":{"osm_id":"1396538178","tag":{"amenity":"recycling","recycling:clothes":"yes","recycling:glass":"yes"}},"type":"Feature"},
	{"geometry":{"coordinates":[2.138263,43.78553],"type":"Point"},"properties":{"osm_id":"2713499087","tag":{"amenity":"recycling","mapillary":"dbxmP65cwyrdqGLwMnUQbQ","recycling:glass":"no","recycling:glass_bottles":"yes","recycling_type":"container","survey:date":"2018-06-09"}},"type":"Feature"},
	{"geometry":{"coordinates":[2.187989,43.777322],"type":"Point"},"properties":{"osm_id":"2728256041","tag":{"amenity":"waste_basket"}},"type":"Feature"},
	{"geometry":{"coordinates":[2.187756,43.775412],"type":"Point"},"properties":{"osm_id":"2730554339","tag":{"amenity":"waste_basket"}},"type":"Feature"},
	{"geometry":{"coordinates":[2.188879,43.777195],"type":"Point"},"properties":{"osm_id":"3002699738","tag":{"amenity":"recycling","recycling:glass":"yes"}},"type":"Feature"},
	{"geometry":{"coordinates":[2.190312,43.775382],"type":"Point"},"properties":{"osm_id":"3006252598","tag":{"amenity":"waste_basket"}},"type":"Feature"},
	{"geometry":{"coordinates":[2.192539,43.772668],"type":"Point"},"properties":{"osm_id":"3134577229","tag":{"amenity":"waste_basket"}},"type":"Feature"},
	{"geometry":{"coordinates":[2.187545,43.775028],"type":"Point"},"properties":{"osm_id":"4235817831","tag":{"amenity":"waste_basket","support":"pole","traffic_sign":"FR:B6a1,FR:M4g"}},"type":"Feature"}
]
}
