{
"type": "FeatureCollection",
"features": [
	{"geometry":{"coordinates":[2.118148,42.487358],"type":"Point"},"properties":{"osm_id":"5318316922","tag":{"amenity":"recycling","recycling_type":"container"}},"type":"Feature"},
	{"geometry":{"coordinates":[2.118102,42.48733],"type":"Point"},"properties":{"osm_id":"5318316923","tag":{"amenity":"waste_disposal"}},"type":"Feature"},
	{"geometry":{"coordinates":[2.118357,42.484694],"type":"Point"},"properties":{"osm_id":"6933156996","tag":{"amenity":"waste_basket","waste":"trash"}},"type":"Feature"},
	{"geometry":{"coordinates":[2.118754,42.484551],"type":"Point"},"properties":{"osm_id":"6933156997","tag":{"amenity":"waste_basket","waste":"trash"}},"type":"Feature"},
	{"geometry":{"coordinates":[2.117018,42.48549],"type":"Point"},"properties":{"osm_id":"8174172352","tag":{"amenity":"waste_disposal"}},"type":"Feature"},
	{"geometry":{"coordinates":[2.117041,42.485448],"type":"Point"},"properties":{"osm_id":"8174172353","tag":{"amenity":"recycling","location":"underground","recycling:glass":"yes","recycling:paper":"yes","recycling:scrap_metal":"yes","recycling_type":"container"}},"type":"Feature"}
]
}
