{
"type": "FeatureCollection",
"features": [
	{"geometry":{"coordinates":[137.304945,34.85956],"type":"Point"},"properties":{"name":"\u00e6\u009d\u0089\u00e6\u00a3\u00ae\u00e5\u0085\u00ab\u00e5\u00b9\u00a1\u00e7\u00a4\u00be\u00e3\u0081\u00ae\u00e3\u0082\u00af\u00e3\u0082\u00b9\u00e3\u0083\u008e\u00e3\u0082\u00ad","osm_id":"3838859721","tag":{"natural":"tree"}},"type":"Feature"},
	{"geometry":{"coordinates":[137.309828,34.854278],"type":"Point"},"properties":{"name":"\u00e9\u0096\u00a2\u00e5\u00b7\u009d\u00e7\u00a5\u009e\u00e7\u00a4\u00be\u00e3\u0081\u00ae\u00e3\u0082\u00af\u00e3\u0082\u00b9\u00e3\u0083\u008e\u00e3\u0082\u00ad","osm_id":"3839845390","tag":{"natural":"tree"}},"type":"Feature"},
	{"geometry":{"coordinates":[137.307245,34.85567],"type":"Point"},"properties":{"name":"\u00e6\u00b5\u0084\u00e6\u00b3\u0089\u00e5\u00af\u00ba\u00e3\u0081\u00ae\u00e3\u0082\u00bd\u00e3\u0083\u0086\u00e3\u0083\u0084","osm_id":"3877556030","tag":{"natural":"tree"}},"type":"Feature"},
	{"geometry":{"coordinates":[137.371269,34.82771],"type":"Point"},"properties":{"name":"\u00e3\u0081\u008b\u00e3\u0081\u00aa\u00e3\u0081\u0096\u00e3\u0082\u008f\u00e3\u0081\u00ae\u00e6\u009d\u00be","osm_id":"3882536822","tag":{"natural":"tree"}},"type":"Feature"},
	{"geometry":{"coordinates":[137.371451,34.827654],"type":"Point"},"properties":{"name":"\u00e8\u0096\u0084\u00e5\u00a2\u00a8\u00e3\u0081\u00ae\u00e6\u00a1\u009c","osm_id":"3884071407","tag":{"natural":"tree"}},"type":"Feature"},
	{"geometry":{"coordinates":[137.333919,34.87904],"type":"Point"},"properties":{"name":"\u00e5\u0096\u0084\u00e4\u00bd\u008f\u00e5\u00af\u00ba\u00e3\u0081\u00ae\u00e3\u0083\u00a4\u00e3\u0083\u009e\u00e3\u0083\u00a2\u00e3\u0083\u00a2","osm_id":"4081699040","tag":{"natural":"tree"}},"type":"Feature"},
	{"geometry":{"coordinates":[137.317331,34.826415],"type":"Point"},"properties":{"name":"\u00e5\u00a4\u00a7\u00e6\u0097\u00a5\u00e5\u00a6\u0082\u00e6\u009d\u00a5\u00e5\u00a0\u0082\u00e3\u0081\u00ae\u00e3\u0082\u00a2\u00e3\u0083\u0099\u00e3\u0083\u009e\u00e3\u0082\u00ad","osm_id":"4448600388","tag":{"name:ja":"\u00e5\u00a4\u00a7\u00e6\u0097\u00a5\u00e5\u00a6\u0082\u00e6\u009d\u00a5\u00e5\u00a0\u0082\u00e3\u0081\u00ae\u00e3\u0082\u00a2\u00e3\u0083\u0099\u00e3\u0083\u009e\u00e3\u0082\u00ad","name:ja-Hira":"\u00e3\u0081\u00a0\u00e3\u0081\u0084\u00e3\u0081\u00ab\u00e3\u0081\u00a1\u00e3\u0081\u00ab\u00e3\u0082\u0087\u00e3\u0082\u0089\u00e3\u0081\u0084\u00e3\u0081\u00a9\u00e3\u0081\u0086\u00e3\u0081\u00ae\u00e3\u0081\u0082\u00e3\u0081\u00b9\u00e3\u0081\u00be\u00e3\u0081\u008d","natural":"tree"}},"type":"Feature"},
	{"geometry":{"coordinates":[137.326282,34.843003],"type":"Point"},"properties":{"osm_id":"4603077108","tag":{"natural":"tree"}},"type":"Feature"},
	{"geometry":{"coordinates":[137.326374,34.84303],"type":"Point"},"properties":{"osm_id":"4603077161","tag":{"natural":"tree"}},"type":"Feature"},
	{"geometry":{"coordinates":[137.326138,34.84296],"type":"Point"},"properties":{"osm_id":"4603077174","tag":{"natural":"tree"}},"type":"Feature"},
	{"geometry":{"coordinates":[137.326187,34.842975],"type":"Point"},"properties":{"osm_id":"4603077393","tag":{"natural":"tree"}},"type":"Feature"},
	{"geometry":{"coordinates":[137.326234,34.842989],"type":"Point"},"properties":{"osm_id":"4603077416","tag":{"natural":"tree"}},"type":"Feature"},
	{"geometry":{"coordinates":[137.326329,34.843017],"type":"Point"},"properties":{"osm_id":"4603077454","tag":{"natural":"tree"}},"type":"Feature"},
	{"geometry":{"coordinates":[137.326086,34.842945],"type":"Point"},"properties":{"osm_id":"4603077507","tag":{"natural":"tree"}},"type":"Feature"},
	{"geometry":{"coordinates":[137.372697,34.851564],"type":"Point"},"properties":{"osm_id":"4608735634","tag":{"natural":"tree"}},"type":"Feature"},
	{"geometry":{"coordinates":[137.37246,34.851586],"type":"Point"},"properties":{"osm_id":"4608735660","tag":{"natural":"tree"}},"type":"Feature"},
	{"geometry":{"coordinates":[137.372749,34.85156],"type":"Point"},"properties":{"osm_id":"4608735735","tag":{"natural":"tree"}},"type":"Feature"},
	{"geometry":{"coordinates":[137.350146,34.837416],"type":"Point"},"properties":{"osm_id":"4642331171","tag":{"natural":"tree"}},"type":"Feature"},
	{"geometry":{"coordinates":[137.363756,34.846946],"type":"Point"},"properties":{"osm_id":"4645588237","tag":{"natural":"tree"}},"type":"Feature"},
	{"geometry":{"coordinates":[137.365005,34.847233],"type":"Point"},"properties":{"osm_id":"4645588242","tag":{"natural":"tree"}},"type":"Feature"},
	{"geometry":{"coordinates":[137.349563,34.846257],"type":"Point"},"properties":{"osm_id":"4658845794","tag":{"natural":"tree"}},"type":"Feature"},
	{"geometry":{"coordinates":[137.337458,34.854995],"type":"Point"},"properties":{"osm_id":"4672510954","tag":{"natural":"tree"}},"type":"Feature"},
	{"geometry":{"coordinates":[137.343582,34.816491],"type":"Point"},"properties":{"osm_id":"4679293013","tag":{"natural":"tree"}},"type":"Feature"},
	{"geometry":{"coordinates":[137.343615,34.816453],"type":"Point"},"properties":{"osm_id":"4679293034","tag":{"natural":"tree"}},"type":"Feature"},
	{"geometry":{"coordinates":[137.334987,34.816257],"type":"Point"},"properties":{"name":"\u00e8\u00a6\u00b3\u00e9\u009f\u00b3\u00e5\u00af\u00ba\u00e3\u0081\u00ae\u00e5\u00a4\u00a7\u00e3\u0082\u00af\u00e3\u0082\u00b9","osm_id":"4685979499","tag":{"leaf_cycle":"evergreen","leaf_type":"broadleaved","name:ja":"\u00e8\u00a6\u00b3\u00e9\u009f\u00b3\u00e5\u00af\u00ba\u00e3\u0081\u00ae\u00e5\u00a4\u00a7\u00e3\u0082\u00af\u00e3\u0082\u00b9","name:ja-Hira":"\u00e3\u0081\u008b\u00e3\u0082\u0093\u00e3\u0081\u00ae\u00e3\u0082\u0093\u00e3\u0081\u0098\u00e3\u0081\u00ae\u00e3\u0081\u008a\u00e3\u0081\u008a\u00e3\u0081\u008f\u00e3\u0081\u0099","name:ja-Latn":"Kan'non-ji no Ookusu","natural":"tree","operator":"\u00e8\u00a6\u00b3\u00e9\u009f\u00b3\u00e5\u00af\u00ba","species":"Cinnamomum camphora","species:ja":"\u00e3\u0082\u00af\u00e3\u0082\u00b9\u00e3\u0083\u008e\u00e3\u0082\u00ad"}},"type":"Feature"},
	{"geometry":{"coordinates":[137.334977,34.816099],"type":"Point"},"properties":{"osm_id":"4685979574","tag":{"natural":"tree"}},"type":"Feature"},
	{"geometry":{"coordinates":[137.304725,34.816381],"type":"Point"},"properties":{"osm_id":"5094644269","tag":{"natural":"tree"}},"type":"Feature"},
	{"geometry":{"coordinates":[137.308021,34.814929],"type":"Point"},"properties":{"osm_id":"5095034983","tag":{"natural":"tree"}},"type":"Feature"},
	{"geometry":{"coordinates":[137.30795,34.814942],"type":"Point"},"properties":{"osm_id":"5095034995","tag":{"natural":"tree"}},"type":"Feature"},
	{"geometry":{"coordinates":[137.307965,34.814979],"type":"Point"},"properties":{"osm_id":"5095035001","tag":{"natural":"tree"}},"type":"Feature"},
	{"geometry":{"coordinates":[137.302731,34.818562],"type":"Point"},"properties":{"osm_id":"5096286171","tag":{"natural":"tree"}},"type":"Feature"},
	{"geometry":{"coordinates":[137.302674,34.818581],"type":"Point"},"properties":{"osm_id":"5096286198","tag":{"natural":"tree"}},"type":"Feature"},
	{"geometry":{"coordinates":[137.363258,34.840818],"type":"Point"},"properties":{"osm_id":"5279701425","tag":{"natural":"tree"}},"type":"Feature"},
	{"geometry":{"coordinates":[137.363247,34.840882],"type":"Point"},"properties":{"osm_id":"5279701477","tag":{"natural":"tree"}},"type":"Feature"},
	{"geometry":{"coordinates":[137.357452,34.838919],"type":"Point"},"properties":{"osm_id":"5445062109","tag":{"natural":"tree"}},"type":"Feature"}
]
}
