{
"type": "FeatureCollection",
"features": [
	{"geometry":{"coordinates":[-117.808778,34.005572],"type":"Point"},"properties":{"osm_id":"4572216012","tag":{"amenity":"waste_basket"}},"type":"Feature"},
	{"geometry":{"coordinates":[-117.808875,34.005869],"type":"Point"},"properties":{"osm_id":"4572216017","tag":{"amenity":"waste_basket"}},"type":"Feature"},
	{"geometry":{"coordinates":[-117.809093,34.005709],"type":"Point"},"properties":{"osm_id":"4572216024","tag":{"amenity":"waste_basket"}},"type":"Feature"},
	{"geometry":{"coordinates":[-117.811404,34.007496],"type":"Point"},"properties":{"osm_id":"4572226498","tag":{"amenity":"waste_basket"}},"type":"Feature"},
	{"geometry":{"coordinates":[-117.812805,34.007903],"type":"Point"},"properties":{"osm_id":"4572267357","tag":{"amenity":"recycling","recycling:cans":"yes","recycling:clothes":"no","recycling:glass_bottles":"yes","recycling:paper":"no","recycling:plastic":"yes","recycling_type":"container"}},"type":"Feature"},
	{"geometry":{"coordinates":[-117.812787,34.007873],"type":"Point"},"properties":{"osm_id":"4572267362","tag":{"amenity":"waste_basket"}},"type":"Feature"},
	{"geometry":{"coordinates":[-117.813468,34.008448],"type":"Point"},"properties":{"osm_id":"4572267363","tag":{"amenity":"waste_basket"}},"type":"Feature"},
	{"geometry":{"coordinates":[-117.813325,34.008063],"type":"Point"},"properties":{"osm_id":"4572267368","tag":{"amenity":"waste_basket"}},"type":"Feature"},
	{"geometry":{"coordinates":[-117.814507,34.009352],"type":"Point"},"properties":{"osm_id":"4572283476","tag":{"amenity":"waste_basket"}},"type":"Feature"},
	{"geometry":{"coordinates":[-117.814507,34.009363],"type":"Point"},"properties":{"osm_id":"4572283482","tag":{"amenity":"recycling","recycling:cans":"yes","recycling:glass_bottles":"yes","recycling:plastic":"yes","recycling_type":"container"}},"type":"Feature"},
	{"geometry":{"coordinates":[-117.81383,34.008746],"type":"Point"},"properties":{"osm_id":"4572283513","tag":{"amenity":"recycling","recycling:cans":"yes","recycling:clothes":"no","recycling:glass_bottles":"yes","recycling:paper":"no","recycling:plastic":"yes","recycling_type":"container"}},"type":"Feature"},
	{"geometry":{"coordinates":[-117.814163,34.009204],"type":"Point"},"properties":{"osm_id":"4572287445","tag":{"amenity":"waste_basket"}},"type":"Feature"},
	{"geometry":{"coordinates":[-117.814327,34.009383],"type":"Point"},"properties":{"osm_id":"4572287446","tag":{"amenity":"recycling","recycling_type":"container"}},"type":"Feature"},
	{"geometry":{"coordinates":[-117.812168,34.00571],"type":"Point"},"properties":{"osm_id":"4572311231","tag":{"amenity":"waste_basket"}},"type":"Feature"},
	{"geometry":{"coordinates":[-117.811515,34.005813],"type":"Point"},"properties":{"osm_id":"4572311238","tag":{"amenity":"waste_basket"}},"type":"Feature"},
	{"geometry":{"coordinates":[-117.812261,34.006175],"type":"Point"},"properties":{"osm_id":"4572311245","tag":{"amenity":"waste_basket"}},"type":"Feature"},
	{"geometry":{"coordinates":[-117.774883,33.994056],"type":"Point"},"properties":{"name":"Recycling","osm_id":"6597210526","tag":{"amenity":"recycling"}},"type":"Feature"},
	{"geometry":{"coordinates":[-117.774372,33.992883],"type":"Point"},"properties":{"name":"Trash can","osm_id":"6597231801","tag":{"amenity":"waste_basket"}},"type":"Feature"},
	{"geometry":{"coordinates":[-117.774061,33.992848],"type":"Point"},"properties":{"osm_id":"6597235247","tag":{"amenity":"waste_basket"}},"type":"Feature"},
	{"geometry":{"coordinates":[-117.773819,33.993509],"type":"Point"},"properties":{"osm_id":"6597235248","tag":{"amenity":"waste_basket"}},"type":"Feature"},
	{"geometry":{"coordinates":[-117.774761,33.994128],"type":"Point"},"properties":{"osm_id":"6597237639","tag":{"amenity":"waste_basket"}},"type":"Feature"},
	{"geometry":{"coordinates":[-117.773679,33.99319],"type":"Point"},"properties":{"name":"Trash can","osm_id":"6597238238","tag":{"amenity":"waste_basket"}},"type":"Feature"},
	{"geometry":{"coordinates":[-117.774056,33.99363],"type":"Point"},"properties":{"osm_id":"6597238239","tag":{"amenity":"waste_basket"}},"type":"Feature"},
	{"geometry":{"coordinates":[-117.775308,33.993879],"type":"Point"},"properties":{"name":"Trash can","osm_id":"6597239137","tag":{"amenity":"waste_basket"}},"type":"Feature"},
	{"geometry":{"coordinates":[-117.773798,33.993084],"type":"Point"},"properties":{"osm_id":"6597240768","tag":{"amenity":"waste_basket"}},"type":"Feature"},
	{"geometry":{"coordinates":[-117.774871,33.994069],"type":"Point"},"properties":{"name":"Trash can","osm_id":"6597241524","tag":{"amenity":"waste_basket"}},"type":"Feature"},
	{"geometry":{"coordinates":[-117.773797,33.993165],"type":"Point"},"properties":{"name":"Trash can","osm_id":"6597248563","tag":{"amenity":"waste_basket"}},"type":"Feature"},
	{"geometry":{"coordinates":[-117.775001,33.993766],"type":"Point"},"properties":{"name":"Trash can","osm_id":"6597258201","tag":{"amenity":"waste_basket"}},"type":"Feature"},
	{"geometry":{"coordinates":[-117.840106,33.974011],"type":"Point"},"properties":{"osm_id":"6943886258","tag":{"amenity":"recycling","building":"hut","recycling_type":"centre"}},"type":"Feature"},
	{"geometry":{"coordinates":[-117.804955,34.006453],"type":"Point"},"properties":{"osm_id":"7064820084","tag":{"amenity":"waste_basket"}},"type":"Feature"}
]
}
