{
"type": "FeatureCollection",
"features": [
	{"geometry":{"coordinates":[-117.828999,33.62949],"type":"Point"},"properties":{"osm_id":"5290452280","tag":{"amenity":"waste_basket"}},"type":"Feature"},
	{"geometry":{"coordinates":[-117.828692,33.629194],"type":"Point"},"properties":{"osm_id":"5290452283","tag":{"amenity":"waste_basket"}},"type":"Feature"},
	{"geometry":{"coordinates":[-117.828552,33.629207],"type":"Point"},"properties":{"osm_id":"5290452304","tag":{"amenity":"waste_basket"}},"type":"Feature"},
	{"geometry":{"coordinates":[-117.829463,33.631107],"type":"Point"},"properties":{"osm_id":"5290465427","tag":{"amenity":"waste_disposal"}},"type":"Feature"},
	{"geometry":{"coordinates":[-117.829613,33.631103],"type":"Point"},"properties":{"osm_id":"5290465428","tag":{"amenity":"waste_disposal"}},"type":"Feature"},
	{"geometry":{"coordinates":[-117.829346,33.630333],"type":"Point"},"properties":{"osm_id":"5290708491","tag":{"amenity":"waste_basket"}},"type":"Feature"},
	{"geometry":{"coordinates":[-117.829237,33.629977],"type":"Point"},"properties":{"osm_id":"5290739014","tag":{"amenity":"waste_basket"}},"type":"Feature"},
	{"geometry":{"coordinates":[-117.82923,33.629978],"type":"Point"},"properties":{"osm_id":"5290739015","tag":{"amenity":"recycling","recycling:cans":"yes","recycling:glass_bottles":"yes","recycling:paper":"yes","recycling_type":"container"}},"type":"Feature"},
	{"geometry":{"coordinates":[-117.830176,33.63037],"type":"Point"},"properties":{"osm_id":"5290744910","tag":{"amenity":"waste_basket"}},"type":"Feature"},
	{"geometry":{"coordinates":[-117.830177,33.630362],"type":"Point"},"properties":{"osm_id":"5290744911","tag":{"amenity":"recycling","recycling:cans":"yes","recycling:glass_bottles":"yes","recycling:paper":"yes","recycling_type":"container"}},"type":"Feature"},
	{"geometry":{"coordinates":[-117.829973,33.630405],"type":"Point"},"properties":{"osm_id":"5290744916","tag":{"amenity":"waste_basket"}},"type":"Feature"},
	{"geometry":{"coordinates":[-117.830027,33.630241],"type":"Point"},"properties":{"osm_id":"5290744917","tag":{"amenity":"waste_basket"}},"type":"Feature"},
	{"geometry":{"coordinates":[-117.828739,33.62865],"type":"Point"},"properties":{"osm_id":"5290754062","tag":{"amenity":"waste_basket"}},"type":"Feature"},
	{"geometry":{"coordinates":[-117.828912,33.628384],"type":"Point"},"properties":{"osm_id":"5290754063","tag":{"amenity":"waste_basket"}},"type":"Feature"},
	{"geometry":{"coordinates":[-117.829608,33.628699],"type":"Point"},"properties":{"osm_id":"5290754064","tag":{"amenity":"waste_basket"}},"type":"Feature"},
	{"geometry":{"coordinates":[-117.829289,33.629103],"type":"Point"},"properties":{"osm_id":"5290754065","tag":{"amenity":"waste_basket"}},"type":"Feature"},
	{"geometry":{"coordinates":[-117.830366,33.629151],"type":"Point"},"properties":{"osm_id":"5290808970","tag":{"amenity":"waste_basket"}},"type":"Feature"},
	{"geometry":{"coordinates":[-117.83006,33.629434],"type":"Point"},"properties":{"osm_id":"5290808971","tag":{"amenity":"waste_basket"}},"type":"Feature"},
	{"geometry":{"coordinates":[-117.830575,33.629559],"type":"Point"},"properties":{"osm_id":"5290808974","tag":{"amenity":"waste_basket"}},"type":"Feature"},
	{"geometry":{"coordinates":[-117.828861,33.629759],"type":"Point"},"properties":{"osm_id":"5290828998","tag":{"amenity":"waste_basket"}},"type":"Feature"},
	{"geometry":{"coordinates":[-117.828808,33.629665],"type":"Point"},"properties":{"osm_id":"5290829000","tag":{"amenity":"waste_basket"}},"type":"Feature"},
	{"geometry":{"coordinates":[-117.829031,33.629786],"type":"Point"},"properties":{"osm_id":"5298397220","tag":{"amenity":"waste_basket"}},"type":"Feature"},
	{"geometry":{"coordinates":[-117.828666,33.629265],"type":"Point"},"properties":{"osm_id":"5298397721","tag":{"amenity":"waste_basket"}},"type":"Feature"},
	{"geometry":{"coordinates":[-117.85065,33.600845],"type":"Point"},"properties":{"osm_id":"7879947989","tag":{"addr:city":"Newport Beach","addr:housenumber":"3","addr:postcode":"92657","addr:street":"Sunset Vista","building":"yes","height":"8.08"}},"type":"Feature"},
	{"geometry":{"coordinates":[-117.857469,33.603783],"type":"Point"},"properties":{"osm_id":"7879948009","tag":{"addr:city":"Corona Del Mar","addr:housenumber":"1307","addr:postcode":"92625","addr:street":"Seacrest Drive","building":"yes","height":"3.22"}},"type":"Feature"}
]
}
