{
"type": "FeatureCollection",
"features": [
	{"geometry":{"coordinates":[-79.938411,43.270842],"type":"Point"},"properties":{"name":"Dundas Community Recycling Centre","osm_id":"912485187","tag":{"addr:housenumber":"27","addr:street":"Olympic Drive","amenity":"recycling","opening_hours":"Mo-Sa 08:00-18:00","recycling_type":"centre"}},"type":"Feature"},
	{"geometry":{"coordinates":[-79.918629,43.264636],"type":"Point"},"properties":{"osm_id":"4360322849","tag":{"amenity":"waste_disposal"}},"type":"Feature"},
	{"geometry":{"coordinates":[-79.896715,43.274178],"type":"Point"},"properties":{"osm_id":"8576782710","tag":{"amenity":"recycling","recycling:glass_bottles":"yes","recycling:paper":"yes","recycling:plastic_bottles":"yes","recycling_type":"container"}},"type":"Feature"},
	{"geometry":{"coordinates":[-79.896733,43.274176],"type":"Point"},"properties":{"osm_id":"8576782711","tag":{"amenity":"waste_basket","waste":"trash"}},"type":"Feature"},
	{"geometry":{"coordinates":[-79.922958,43.26239],"type":"Point"},"properties":{"osm_id":"8990257086","tag":{"amenity":"waste_basket"}},"type":"Feature"},
	{"geometry":{"coordinates":[-79.922968,43.26252],"type":"Point"},"properties":{"osm_id":"8990257087","tag":{"amenity":"waste_basket"}},"type":"Feature"},
	{"geometry":{"coordinates":[-79.923165,43.263463],"type":"Point"},"properties":{"osm_id":"8990301428","tag":{"amenity":"waste_basket","colour":"black"}},"type":"Feature"}
]
}
