{
"type": "FeatureCollection",
"features": [
	{"geometry":{"coordinates":[-79.91348,43.212979],"type":"Point"},"properties":{"osm_id":"2619937573","tag":{"amenity":"waste_basket"}},"type":"Feature"},
	{"geometry":{"coordinates":[-79.923493,43.260031],"type":"Point"},"properties":{"osm_id":"3153691180","tag":{"amenity":"waste_basket","colour":"green"}},"type":"Feature"},
	{"geometry":{"coordinates":[-79.944851,43.256875],"type":"Point"},"properties":{"osm_id":"3220870216","tag":{"amenity":"waste_basket"}},"type":"Feature"},
	{"geometry":{"coordinates":[-79.944387,43.249488],"type":"Point"},"properties":{"osm_id":"3306777504","tag":{"amenity":"waste_basket","colour":"green"}},"type":"Feature"},
	{"geometry":{"coordinates":[-79.944247,43.248832],"type":"Point"},"properties":{"osm_id":"3306782785","tag":{"amenity":"waste_basket","colour":"blue"}},"type":"Feature"},
	{"geometry":{"coordinates":[-79.899971,43.218125],"type":"Point"},"properties":{"osm_id":"4794217771","tag":{"amenity":"waste_basket"}},"type":"Feature"},
	{"geometry":{"coordinates":[-79.899961,43.218123],"type":"Point"},"properties":{"osm_id":"4794217772","tag":{"amenity":"recycling","recycling_type":"container"}},"type":"Feature"}
]
}
