{
"type": "FeatureCollection",
"features": [
	{"geometry":{"coordinates":[-79.95886,37.249761],"type":"Point"},"properties":{"name":"Cycle Systems","osm_id":"789294804","tag":{"amenity":"recycling"}},"type":"Feature"},
	{"geometry":{"coordinates":[-79.925298,37.280239],"type":"Point"},"properties":{"name":"Tinker Creek Transfer Station","osm_id":"2954089403","tag":{"addr:city":"Roanoke","addr:country":"US","addr:housenumber":"1020","addr:postcode":"24012","addr:state":"Va","addr:street":"Hollins Road Northeast","amenity":"recycling","phone":"+1-540-857-5050","recycling_type":"centre","website":"https://www.rvra.net/index.aspx?NID=8"}},"type":"Feature"},
	{"geometry":{"coordinates":[-79.925176,37.281776],"type":"Point"},"properties":{"osm_id":"2954090088","tag":{"amenity":"recycling","recycling_type":"container"}},"type":"Feature"},
	{"geometry":{"coordinates":[-79.918983,37.294636],"type":"Point"},"properties":{"osm_id":"2954190903","tag":{"amenity":"waste_basket"}},"type":"Feature"},
	{"geometry":{"coordinates":[-79.971761,37.244315],"type":"Point"},"properties":{"osm_id":"2957442415","tag":{"amenity":"recycling","recycling_type":"container"}},"type":"Feature"},
	{"geometry":{"coordinates":[-79.895431,37.26984],"type":"Point"},"properties":{"osm_id":"2963527275","tag":{"amenity":"waste_basket"}},"type":"Feature"},
	{"geometry":{"coordinates":[-79.912175,37.274526],"type":"Point"},"properties":{"osm_id":"5154288125","tag":{"amenity":"waste_basket"}},"type":"Feature"},
	{"geometry":{"coordinates":[-79.912547,37.274437],"type":"Point"},"properties":{"osm_id":"5154288165","tag":{"amenity":"waste_basket"}},"type":"Feature"},
	{"geometry":{"coordinates":[-79.946003,37.27143],"type":"Point"},"properties":{"osm_id":"6950460490","tag":{"amenity":"waste_basket"}},"type":"Feature"}
]
}
