{
"type": "FeatureCollection",
"features": [
	{"geometry":{"coordinates":[-79.906127,-2.172314],"type":"Point"},"properties":{"osm_id":"4323577997","tag":{"amenity":"waste_basket"}},"type":"Feature"},
	{"geometry":{"coordinates":[-79.928324,-2.135791],"type":"Point"},"properties":{"name":"Plastiguayas C\u00c3\u00ada Ltda","osm_id":"4439111989","tag":{"amenity":"recycling","name:es":"Plastiguayas C\u00c3\u00ada Ltda"}},"type":"Feature"},
	{"geometry":{"coordinates":[-79.913888,-2.156513],"type":"Point"},"properties":{"osm_id":"4496869591","tag":{"amenity":"waste_basket"}},"type":"Feature"},
	{"geometry":{"coordinates":[-79.912794,-2.164057],"type":"Point"},"properties":{"osm_id":"4832849625","tag":{"amenity":"waste_disposal"}},"type":"Feature"},
	{"geometry":{"coordinates":[-79.979497,-2.110516],"type":"Point"},"properties":{"name":"canal","osm_id":"5487076324","tag":{"amenity":"recycling"}},"type":"Feature"},
	{"geometry":{"coordinates":[-79.941101,-2.121098],"type":"Point"},"properties":{"name":"RECYNTER","osm_id":"6135153185","tag":{"amenity":"recycling"}},"type":"Feature"}
]
}
