{
"type": "FeatureCollection",
"lastupdate": "2020-08-01T00:00:00Z",
"features": [
	{"geometry":{"coordinates":[-7.46801,38.872191],"type":"Point"},"properties":{"name":"536 Travessa do Por do Sol","osm_id":"7468450544","ref":"536","tag":{"amenity":"recycling","operator":"Gesamb","recycling:glass":"yes","recycling:paper":"yes","recycling:plastic":"yes","recycling_type":"container"}},"type":"Feature"},
	{"geometry":{"coordinates":[-7.466625,38.873399],"type":"Point"},"properties":{"name":"534 RUA AZINHAL ABELHO","osm_id":"7468450554","ref":"534","tag":{"amenity":"recycling","operator":"Gesamb","recycling:glass":"yes","recycling_type":"container"}},"type":"Feature"},
	{"geometry":{"coordinates":[-7.466682,38.873268],"type":"Point"},"properties":{"name":"1081 Rua Azinhal Abelho","osm_id":"7468450556","ref":"1081","tag":{"amenity":"recycling","operator":"Gesamb","recycling:batteries":"yes","recycling:glass":"yes","recycling:paper":"yes","recycling:plastic":"yes","recycling_type":"container"}},"type":"Feature"},
	{"geometry":{"coordinates":[-7.466172,38.874584],"type":"Point"},"properties":{"name":"533 IGREJA PAROQUIAL DE NOSSA SENHORA DA ORADA","osm_id":"7468450557","ref":"533","tag":{"amenity":"recycling","operator":"Gesamb","recycling:batteries":"yes","recycling:cooking_oil":"yes","recycling:glass":"yes","recycling:paper":"yes","recycling:plastic":"yes","recycling_type":"container"}},"type":"Feature"},
	{"geometry":{"coordinates":[-7.466008,38.875417],"type":"Point"},"properties":{"name":"531 RUA DOM NUNO ALVARES PEREIRA","osm_id":"7468501756","ref":"531","tag":{"amenity":"recycling","operator":"Gesamb","recycling:batteries":"yes","recycling:glass":"yes","recycling:paper":"yes","recycling:plastic":"yes","recycling_type":"container"}},"type":"Feature"},
	{"geometry":{"coordinates":[-7.46683,38.875424],"type":"Point"},"properties":{"name":"530 RUA DOM NUNO ALVARES PEREIRA","osm_id":"7468501758","ref":"530","tag":{"amenity":"recycling","operator":"Gesamb","recycling:glass":"yes","recycling_type":"container"}},"type":"Feature"},
	{"geometry":{"coordinates":[-7.464583,38.875448],"type":"Point"},"properties":{"name":"532 Rua Dom Nuno \u00c3\u0081lvares Pereira","osm_id":"7468501764","ref":"532","tag":{"amenity":"recycling","operator":"Gesamb","recycling:glass":"yes","recycling_type":"container"}},"type":"Feature"},
	{"geometry":{"coordinates":[-7.467264,38.831915],"type":"Point"},"properties":{"name":"526 CM 1040 ALCARAVI\u00c3\u0087A","osm_id":"7468517987","ref":"526","tag":{"amenity":"recycling","operator":"Gesamb","recycling:glass":"yes","recycling_type":"container"}},"type":"Feature"},
	{"geometry":{"coordinates":[-7.462627,38.837557],"type":"Point"},"properties":{"name":"535 MONTE DAS NAVES DE CIMA","osm_id":"7468517988","ref":"535","tag":{"amenity":"recycling","operator":"Gesamb","recycling:glass":"yes","recycling_type":"container"}},"type":"Feature"},
	{"geometry":{"coordinates":[-7.464534,38.826181],"type":"Point"},"properties":{"name":"524 CM 1040 ALCARAVI\u00c3\u0087A","osm_id":"7485829793","ref":"524","tag":{"amenity":"recycling","operator":"Gesamb","recycling:glass":"yes","recycling_type":"container"}},"type":"Feature"}
]
}
