{
"type": "FeatureCollection",
"features": [
	{"geometry":{"coordinates":[-7.415412,38.777081],"type":"Point"},"properties":{"osm_id":"4079306343","tag":{"amenity":"waste_disposal"}},"type":"Feature"},
	{"geometry":{"coordinates":[-7.46177,38.806697],"type":"Point"},"properties":{"name":"433 LARGO GAGO COUTINHO E SACADURA CABRAL","osm_id":"7485499123","ref":"433","tag":{"amenity":"recycling","operator":"Gesamb","recycling:batteries":"yes","recycling:cooking_oil":"yes","recycling:glass":"yes","recycling:paper":"yes","recycling:plastic":"yes","recycling_type":"container"}},"type":"Feature"},
	{"geometry":{"coordinates":[-7.461733,38.806672],"type":"Point"},"properties":{"osm_id":"7485499124","tag":{"amenity":"waste_disposal"}},"type":"Feature"},
	{"geometry":{"coordinates":[-7.459981,38.807044],"type":"Point"},"properties":{"name":"1124 Rua Terreiro das Servas","osm_id":"7485499131","ref":"1124","tag":{"amenity":"recycling","operator":"Gesamb","recycling:batteries":"yes","recycling:glass":"yes","recycling:paper":"yes","recycling:plastic":"yes","recycling_type":"container"}},"type":"Feature"},
	{"geometry":{"coordinates":[-7.46002,38.80703],"type":"Point"},"properties":{"osm_id":"7485499132","tag":{"amenity":"waste_disposal"}},"type":"Feature"},
	{"geometry":{"coordinates":[-7.457758,38.808036],"type":"Point"},"properties":{"name":"436 Estaleiro da CM de Borba","osm_id":"7485499133","ref":"436","tag":{"amenity":"recycling","operator":"Gesamb","recycling:paper":"yes","recycling_type":"container"}},"type":"Feature"},
	{"geometry":{"coordinates":[-7.457937,38.808296],"type":"Point"},"properties":{"name":"437 Estaleiro da CM de Borba","osm_id":"7485499134","ref":"437 Estaleiro da CM de Borba","tag":{"amenity":"recycling","operator":"Gesamb","recycling:glass":"yes","recycling_type":"container"}},"type":"Feature"},
	{"geometry":{"coordinates":[-7.459718,38.805372],"type":"Point"},"properties":{"name":"440 RUA ANT\u00c3\u0093NIO JOAQUIM DA GUERRA","osm_id":"7485499136","ref":"440","tag":{"amenity":"recycling","operator":"Gesamb","recycling:batteries":"yes","recycling:cooking_oil":"yes","recycling:glass":"yes","recycling:paper":"yes","recycling:plastic":"yes","recycling_type":"container"}},"type":"Feature"},
	{"geometry":{"coordinates":[-7.444761,38.816334],"type":"Point"},"properties":{"name":"447 EN 4","osm_id":"7485918763","ref":"447","tag":{"amenity":"recycling","operator":"Gesamb","recycling:batteries":"yes","recycling:glass":"yes","recycling:paper":"yes","recycling:plastic":"yes","recycling_type":"container"}},"type":"Feature"},
	{"geometry":{"coordinates":[-7.452996,38.810148],"type":"Point"},"properties":{"osm_id":"7485918764","tag":{"amenity":"waste_disposal"}},"type":"Feature"},
	{"geometry":{"coordinates":[-7.452966,38.810129],"type":"Point"},"properties":{"name":"448 AVENIDA 10 DE JUNHO","osm_id":"7485918765","ref":"448","tag":{"amenity":"recycling","operator":"Gesamb","recycling:glass":"yes","recycling:paper":"yes","recycling:plastic":"yes","recycling_type":"container"}},"type":"Feature"},
	{"geometry":{"coordinates":[-7.455977,38.809711],"type":"Point"},"properties":{"name":"449 HORTA DO MOSTEIRO- PINGO DOCE","osm_id":"7486554380","ref":"449","tag":{"amenity":"recycling","operator":"Gesamb","recycling:batteries":"yes","recycling:glass":"yes","recycling:paper":"yes","recycling:plastic":"yes","recycling_type":"container"}},"type":"Feature"},
	{"geometry":{"coordinates":[-7.455686,38.810118],"type":"Point"},"properties":{"name":"450 HORTA DO MOSTEIRO- PINGO DOCE","osm_id":"7486554381","ref":"450","tag":{"amenity":"recycling","operator":"Gesamb","recycling:glass":"yes","recycling_type":"container"}},"type":"Feature"},
	{"geometry":{"coordinates":[-7.455155,38.808054],"type":"Point"},"properties":{"name":"1125 Rua do Geleiro","osm_id":"7486575205","ref":"1125","tag":{"amenity":"recycling","operator":"Gesamb","recycling:batteries":"yes","recycling:glass":"yes","recycling:paper":"yes","recycling:plastic":"yes","recycling_type":"container"}},"type":"Feature"},
	{"geometry":{"coordinates":[-7.457362,38.80855],"type":"Point"},"properties":{"osm_id":"7486575206","tag":{"amenity":"waste_disposal"}},"type":"Feature"},
	{"geometry":{"coordinates":[-7.45733,38.808577],"type":"Point"},"properties":{"name":"444 RUA DAS M\u00c3\u0093S","osm_id":"7486575207","ref":"444","tag":{"amenity":"recycling","operator":"Gesamb","recycling:cooking_oil":"yes","recycling:glass":"yes","recycling:paper":"yes","recycling:plastic":"yes","recycling_type":"container"}},"type":"Feature"},
	{"geometry":{"coordinates":[-7.455314,38.806577],"type":"Point"},"properties":{"osm_id":"7486575208","tag":{"amenity":"waste_disposal"}},"type":"Feature"},
	{"geometry":{"coordinates":[-7.455286,38.806578],"type":"Point"},"properties":{"name":"443 LARGO DA LIBERDADE","osm_id":"7486575209","ref":"443","tag":{"amenity":"recycling","operator":"Gesamb","recycling:batteries":"yes","recycling:glass":"yes","recycling:paper":"yes","recycling:plastic":"yes","recycling_type":"container"}},"type":"Feature"},
	{"geometry":{"coordinates":[-7.456055,38.805789],"type":"Point"},"properties":{"name":"s024 AVENIDA DO POVO","osm_id":"7486575210","ref":"s024","tag":{"amenity":"recycling","operator":"Gesamb","recycling:cooking_oil":"yes","recycling:glass":"yes","recycling:paper":"yes","recycling:plastic":"yes","recycling_type":"container"}},"type":"Feature"},
	{"geometry":{"coordinates":[-7.455646,38.804781],"type":"Point"},"properties":{"osm_id":"7486575211","tag":{"amenity":"waste_disposal"}},"type":"Feature"},
	{"geometry":{"coordinates":[-7.455664,38.80469],"type":"Point"},"properties":{"name":"s023 RUA HUMBERTO SILVEIRA FERNANDES","osm_id":"7486575212","ref":"s023","tag":{"amenity":"recycling","operator":"Gesamb","recycling:cooking_oil":"yes","recycling:glass":"yes","recycling:paper":"yes","recycling:plastic":"yes","recycling_type":"container"}},"type":"Feature"},
	{"geometry":{"coordinates":[-7.455124,38.806315],"type":"Point"},"properties":{"osm_id":"7486575213","tag":{"amenity":"waste_disposal"}},"type":"Feature"},
	{"geometry":{"coordinates":[-7.454449,38.806018],"type":"Point"},"properties":{"name":"445 PRA\u00c3\u0087A REP\u00c3\u009aBLICA","osm_id":"7486575215","ref":"445","tag":{"amenity":"recycling","operator":"Gesamb","recycling:glass":"yes","recycling_type":"container"}},"type":"Feature"},
	{"geometry":{"coordinates":[-7.453776,38.806749],"type":"Point"},"properties":{"name":"446 AVENIDA DOM DINIS DE MELO E CASTRO","osm_id":"7486575216","ref":"446","tag":{"amenity":"recycling","operator":"Gesamb","recycling:glass":"yes","recycling:paper":"yes","recycling:plastic":"yes","recycling_type":"container"}},"type":"Feature"},
	{"geometry":{"coordinates":[-7.453766,38.806724],"type":"Point"},"properties":{"osm_id":"7486575217","tag":{"amenity":"waste_disposal"}},"type":"Feature"},
	{"geometry":{"coordinates":[-7.451539,38.805886],"type":"Point"},"properties":{"name":"1080 Rua das Casas Novas (prox. da Urbaniza\u00c3\u00a7\u00c3\u00a3o Horta do Rossio)","osm_id":"7486602734","ref":"1080","tag":{"amenity":"recycling","operator":"Gesamb","recycling:batteries":"yes","recycling:glass":"yes","recycling:paper":"yes","recycling:plastic":"yes","recycling_type":"container"}},"type":"Feature"},
	{"geometry":{"coordinates":[-7.450835,38.80464],"type":"Point"},"properties":{"name":"453 RUA TOMAZ DEL NEGRO","osm_id":"7486602735","ref":"453","tag":{"amenity":"recycling","operator":"Gesamb","recycling:batteries":"yes","recycling:glass":"yes","recycling:paper":"yes","recycling:plastic":"yes","recycling_type":"container"}},"type":"Feature"},
	{"geometry":{"coordinates":[-7.453122,38.804579],"type":"Point"},"properties":{"name":"452 AVENIDA DOS BOMBEIROS VOLUNT\u00c3\u0081RIOS DE BORBA","osm_id":"7486602736","ref":"452","tag":{"amenity":"recycling","operator":"Gesamb","recycling:glass":"yes","recycling:paper":"yes","recycling:plastic":"yes","recycling_type":"container"}},"type":"Feature"},
	{"geometry":{"coordinates":[-7.452211,38.803384],"type":"Point"},"properties":{"osm_id":"7486602737","tag":{"amenity":"waste_disposal"}},"type":"Feature"},
	{"geometry":{"coordinates":[-7.452262,38.803369],"type":"Point"},"properties":{"name":"454 AVENIDA LU\u00c3\u008dS DE CAM\u00c3\u0095ES","osm_id":"7486602738","ref":"454","tag":{"amenity":"recycling","operator":"Gesamb","recycling:batteries":"yes","recycling:glass":"yes","recycling:paper":"yes","recycling:plastic":"yes","recycling_type":"container"}},"type":"Feature"},
	{"geometry":{"coordinates":[-7.454353,38.803709],"type":"Point"},"properties":{"name":"455 AVENIDA DOS BOMBEIROS VOLUNT\u00c3\u0081RIOS DE BORBA","osm_id":"7486602739","ref":"455","tag":{"amenity":"recycling","operator":"Gesamb","recycling:batteries":"yes","recycling:glass":"yes","recycling:paper":"yes","recycling:plastic":"yes","recycling_type":"container"}},"type":"Feature"},
	{"geometry":{"coordinates":[-7.456373,38.801464],"type":"Point"},"properties":{"name":"457 RUA MIGUEL TORGA","osm_id":"7486602740","ref":"457","tag":{"amenity":"recycling","operator":"Gesamb","recycling:batteries":"yes","recycling:glass":"yes","recycling:paper":"yes","recycling:plastic":"yes","recycling_type":"container"}},"type":"Feature"},
	{"geometry":{"coordinates":[-7.45633,38.801469],"type":"Point"},"properties":{"osm_id":"7486602741","tag":{"amenity":"waste_disposal"}},"type":"Feature"},
	{"geometry":{"coordinates":[-7.454533,38.801612],"type":"Point"},"properties":{"name":"456 RUA JOS\u00c3\u0089 SARAMAGO","osm_id":"7486602742","ref":"456","tag":{"amenity":"recycling","operator":"Gesamb","recycling:batteries":"yes","recycling:glass":"yes","recycling:paper":"yes","recycling:plastic":"yes","recycling_type":"container"}},"type":"Feature"},
	{"geometry":{"coordinates":[-7.455215,38.798437],"type":"Point"},"properties":{"osm_id":"7486602743","tag":{"amenity":"waste_disposal"}},"type":"Feature"},
	{"geometry":{"coordinates":[-7.455549,38.798538],"type":"Point"},"properties":{"name":"458 RUA DA CRUZ DE CRISTO","osm_id":"7486602744","ref":"458","tag":{"amenity":"recycling","operator":"Gesamb","recycling:glass":"yes","recycling_type":"container"}},"type":"Feature"},
	{"geometry":{"coordinates":[-7.456618,38.803224],"type":"Point"},"properties":{"name":"442 LARGO DE SANTO ANT\u00c3\u0093NIO","osm_id":"7486602745","ref":"442","tag":{"amenity":"recycling","operator":"Gesamb","recycling:glass":"yes","recycling_type":"container"}},"type":"Feature"},
	{"geometry":{"coordinates":[-7.45838,38.803734],"type":"Point"},"properties":{"name":"441 RUA PO\u00c3\u0087O DA PEDREIRA","osm_id":"7486602746","ref":"441","tag":{"amenity":"recycling","operator":"Gesamb","recycling:batteries":"yes","recycling:glass":"yes","recycling:paper":"yes","recycling:plastic":"yes","recycling_type":"container"}},"type":"Feature"},
	{"geometry":{"coordinates":[-7.465643,38.802394],"type":"Point"},"properties":{"name":"1003 Monte da Rocha","osm_id":"7486617775","ref":"1003","tag":{"amenity":"recycling","operator":"Gesamb","recycling:batteries":"yes","recycling:cooking_oil":"yes","recycling:glass":"yes","recycling:paper":"yes","recycling:plastic":"yes","recycling_type":"container"}},"type":"Feature"},
	{"geometry":{"coordinates":[-7.463875,38.804448],"type":"Point"},"properties":{"name":"439 PERPENDICULAR RUA QUINTA DA PRATA","osm_id":"7486617777","ref":"439","tag":{"amenity":"recycling","operator":"Gesamb","recycling:paper":"yes","recycling_type":"container"}},"type":"Feature"},
	{"geometry":{"coordinates":[-7.464209,38.805555],"type":"Point"},"properties":{"name":"438 LARGO ALEXANDRE DUARTE DA SILVA","osm_id":"7486617778","ref":"438","tag":{"amenity":"recycling","operator":"Gesamb","recycling:batteries":"yes","recycling:glass":"yes","recycling:paper":"yes","recycling:plastic":"yes","recycling_type":"container"}},"type":"Feature"},
	{"geometry":{"coordinates":[-7.464193,38.805537],"type":"Point"},"properties":{"osm_id":"7486617779","tag":{"amenity":"waste_disposal"}},"type":"Feature"},
	{"geometry":{"coordinates":[-7.463854,38.807583],"type":"Point"},"properties":{"name":"1082 Avenida da Esta\u00c3\u00a7\u00c3\u00a3o","osm_id":"7486617784","ref":"1082","tag":{"amenity":"recycling","operator":"Gesamb","recycling:batteries":"yes","recycling:glass":"yes","recycling:paper":"yes","recycling:plastic":"yes","recycling_type":"container"}},"type":"Feature"},
	{"geometry":{"coordinates":[-7.46389,38.807361],"type":"Point"},"properties":{"name":"432 AVENIDA DA ESTA\u00c3\u0087\u00c3\u0083O","osm_id":"7486684385","ref":"432","tag":{"amenity":"recycling","operator":"Gesamb","recycling:glass":"yes","recycling_type":"container"}},"type":"Feature"},
	{"geometry":{"coordinates":[-7.461255,38.808596],"type":"Point"},"properties":{"name":"434 RUA ADRIANO CORREIA DE OLIVEIRA","osm_id":"7486684390","ref":"434","tag":{"amenity":"recycling","operator":"Gesamb","recycling:glass":"yes","recycling:paper":"yes","recycling:plastic":"yes","recycling_type":"container"}},"type":"Feature"},
	{"geometry":{"coordinates":[-7.454156,38.805179],"type":"Point"},"properties":{"name":"451 LARGO DOM FERN\u00c3\u0083O R SEQUEIRA","osm_id":"7486991317","ref":"451","tag":{"amenity":"recycling","operator":"Gesamb","recycling:batteries":"yes","recycling:glass":"yes","recycling:paper":"yes","recycling:plastic":"yes","recycling_type":"container"}},"type":"Feature"},
	{"geometry":{"coordinates":[-7.454307,38.805198],"type":"Point"},"properties":{"osm_id":"7486991318","tag":{"amenity":"waste_disposal"}},"type":"Feature"},
	{"geometry":{"coordinates":[-7.443565,38.760805],"type":"Point"},"properties":{"name":"490 MONTE DAS CABANAS","osm_id":"7500237916","ref":"490","tag":{"amenity":"recycling","operator":"Gesamb","recycling:glass":"yes","recycling:paper":"yes","recycling:plastic":"yes","recycling_type":"container"}},"type":"Feature"},
	{"geometry":{"coordinates":[-7.42608,38.786792],"type":"Point"},"properties":{"name":"491 RUA FREI MANUEL CALADO","osm_id":"7501748150","ref":"491","tag":{"amenity":"recycling","operator":"Gesamb","recycling:glass":"yes","recycling:paper":"yes","recycling:plastic":"yes","recycling_type":"container"}},"type":"Feature"},
	{"geometry":{"coordinates":[-7.427266,38.786489],"type":"Point"},"properties":{"name":"492 Rua Ant\u00c3\u00b3nio Cadornega","osm_id":"7501748151","ref":"492","tag":{"amenity":"recycling","operator":"Gesamb","recycling:batteries":"yes","recycling:glass":"yes","recycling:paper":"yes","recycling:plastic":"yes","recycling_type":"container"}},"type":"Feature"},
	{"geometry":{"coordinates":[-7.424426,38.785188],"type":"Point"},"properties":{"name":"493 RUA DOM CARLOS","osm_id":"7501748157","ref":"493","tag":{"amenity":"recycling","operator":"Gesamb","recycling:batteries":"yes","recycling:cooking_oil":"yes","recycling:glass":"yes","recycling:paper":"yes","recycling:plastic":"yes","recycling_type":"container"}},"type":"Feature"},
	{"geometry":{"coordinates":[-7.424393,38.785194],"type":"Point"},"properties":{"osm_id":"7501748158","tag":{"amenity":"waste_disposal"}},"type":"Feature"},
	{"geometry":{"coordinates":[-7.416742,38.769868],"type":"Point"},"properties":{"name":"500 V\u00c3\u008dA S1","osm_id":"7501791278","ref":"500","tag":{"amenity":"recycling","operator":"Gesamb","recycling:glass":"yes","recycling:paper":"yes","recycling:plastic":"yes","recycling_type":"container"}},"type":"Feature"},
	{"geometry":{"coordinates":[-7.416746,38.769225],"type":"Point"},"properties":{"name":"501 V\u00c3\u008dA P4","osm_id":"7501791283","ref":"501","tag":{"amenity":"recycling","operator":"Gesamb","recycling:glass":"yes","recycling_type":"container"}},"type":"Feature"},
	{"geometry":{"coordinates":[-7.413695,38.769579],"type":"Point"},"properties":{"name":"517 UNIDADE DE CUIDADOS CONTINUADOS DA CRUZ VERMELHA PORTUGUESA - VILA VI\u00c3\u0087OSA","osm_id":"7501791284","ref":"517","tag":{"amenity":"recycling","operator":"Gesamb","recycling:glass":"yes","recycling:paper":"yes","recycling:plastic":"yes","recycling_type":"container"}},"type":"Feature"},
	{"geometry":{"coordinates":[-7.413729,38.769666],"type":"Point"},"properties":{"osm_id":"7501845685","tag":{"amenity":"waste_disposal"}},"type":"Feature"},
	{"geometry":{"coordinates":[-7.410631,38.771275],"type":"Point"},"properties":{"name":"502 EM 1045","osm_id":"7501980396","ref":"502","tag":{"amenity":"recycling","operator":"Gesamb","recycling:glass":"yes","recycling_type":"container"}},"type":"Feature"},
	{"geometry":{"coordinates":[-7.416574,38.771697],"type":"Point"},"properties":{"name":"1069 AVENIDA DO ALANDROAL","osm_id":"7501980397","ref":"1069","tag":{"amenity":"recycling","operator":"Gesamb","recycling:batteries":"yes","recycling:glass":"yes","recycling:paper":"yes","recycling:plastic":"yes","recycling_type":"container"}},"type":"Feature"},
	{"geometry":{"coordinates":[-7.414085,38.773045],"type":"Point"},"properties":{"name":"503 AVENIDA 25 DE ABRIL","osm_id":"7501980398","ref":"503","tag":{"amenity":"recycling","operator":"Gesamb","recycling:batteries":"yes","recycling:glass":"yes","recycling:paper":"yes","recycling:plastic":"yes","recycling_type":"container"}},"type":"Feature"},
	{"geometry":{"coordinates":[-7.418718,38.773208],"type":"Point"},"properties":{"name":"499 V\u00c3\u008dA P2","osm_id":"7501980399","ref":"499","tag":{"amenity":"recycling","operator":"Gesamb","recycling:batteries":"yes","recycling:glass":"yes","recycling:paper":"yes","recycling:plastic":"yes","recycling_type":"container"}},"type":"Feature"},
	{"geometry":{"coordinates":[-7.422469,38.773829],"type":"Point"},"properties":{"name":"497 V\u00c3\u008dA P1","osm_id":"7501980400","ref":"497","tag":{"amenity":"recycling","operator":"Gesamb","recycling:glass":"yes","recycling:paper":"yes","recycling:plastic":"yes","recycling_type":"container"}},"type":"Feature"},
	{"geometry":{"coordinates":[-7.421157,38.77288],"type":"Point"},"properties":{"name":"498 V\u00c3\u008dA U1","osm_id":"7501980401","ref":"498","tag":{"amenity":"recycling","operator":"Gesamb","recycling:glass":"yes","recycling_type":"container"}},"type":"Feature"},
	{"geometry":{"coordinates":[-7.417822,38.773909],"type":"Point"},"properties":{"name":"1068 RUA 1.\u00c2\u00ba DE MAIO","osm_id":"7501980402","ref":"1068","tag":{"amenity":"recycling","operator":"Gesamb","recycling:batteries":"yes","recycling:glass":"yes","recycling:paper":"yes","recycling:plastic":"yes","recycling_type":"container"}},"type":"Feature"},
	{"geometry":{"coordinates":[-7.415157,38.774968],"type":"Point"},"properties":{"name":"504 AVENIDA 25 DE ABRIL","osm_id":"7501980403","ref":"504","tag":{"amenity":"recycling","operator":"Gesamb","recycling:batteries":"yes","recycling:cooking_oil":"yes","recycling:glass":"yes","recycling:paper":"yes","recycling:plastic":"yes","recycling_type":"container"}},"type":"Feature"},
	{"geometry":{"coordinates":[-7.412928,38.775808],"type":"Point"},"properties":{"name":"506 RUA DOUTOR JEREMIAS TOSCANO","osm_id":"7502004050","ref":"506","tag":{"amenity":"recycling","operator":"Gesamb","recycling:glass":"yes","recycling:paper":"yes","recycling:plastic":"yes","recycling_type":"container"}},"type":"Feature"},
	{"geometry":{"coordinates":[-7.414433,38.776421],"type":"Point"},"properties":{"name":"505 RUA DE OLIVEN\u00c3\u0087A","osm_id":"7502004062","ref":"505","tag":{"amenity":"recycling","operator":"Gesamb","recycling:batteries":"yes","recycling:glass":"yes","recycling:paper":"yes","recycling:plastic":"yes","recycling_type":"container"}},"type":"Feature"},
	{"geometry":{"coordinates":[-7.415393,38.777068],"type":"Point"},"properties":{"name":"508 RUA ALDEIA DO MEIO","osm_id":"7502004063","ref":"508","tag":{"amenity":"recycling","operator":"Gesamb","recycling:glass":"yes","recycling:paper":"yes","recycling:plastic":"yes","recycling_type":"container"}},"type":"Feature"},
	{"geometry":{"coordinates":[-7.41701,38.777215],"type":"Point"},"properties":{"name":"s046 RUA DOM JO\u00c3\u0083O IV","osm_id":"7502004064","ref":"s046","tag":{"amenity":"recycling","operator":"Gesamb","recycling:batteries":"yes","recycling:glass":"yes","recycling:paper":"yes","recycling:plastic":"yes","recycling_type":"container"}},"type":"Feature"},
	{"geometry":{"coordinates":[-7.418298,38.775718],"type":"Point"},"properties":{"name":"512 RUA ANDR\u00c3\u0089 GOMES PEREIRA","osm_id":"7502004065","ref":"512","tag":{"amenity":"recycling","operator":"Gesamb","recycling:glass":"yes","recycling_type":"container"}},"type":"Feature"},
	{"geometry":{"coordinates":[-7.418703,38.776628],"type":"Point"},"properties":{"name":"511 RUA DE FORA","osm_id":"7502004066","ref":"511","tag":{"amenity":"recycling","operator":"Gesamb","recycling:batteries":"yes","recycling:cooking_oil":"yes","recycling:glass":"yes","recycling:paper":"yes","recycling:plastic":"yes","recycling_type":"container"}},"type":"Feature"},
	{"geometry":{"coordinates":[-7.420364,38.776034],"type":"Point"},"properties":{"name":"513 LARGO GAGO COUTINHO","osm_id":"7502004068","ref":"513","tag":{"amenity":"recycling","operator":"Gesamb","recycling:glass":"yes","recycling:paper":"yes","recycling:plastic":"yes","recycling_type":"container"}},"type":"Feature"},
	{"geometry":{"coordinates":[-7.421762,38.775522],"type":"Point"},"properties":{"name":"520 RUA ENG. DUARTE PACHECO","osm_id":"7502004069","ref":"520","tag":{"amenity":"recycling","operator":"Gesamb","recycling:cooking_oil":"yes","recycling:glass":"yes","recycling:paper":"yes","recycling:plastic":"yes","recycling_type":"container"}},"type":"Feature"},
	{"geometry":{"coordinates":[-7.414588,38.778453],"type":"Point"},"properties":{"name":"515 LARGO MOUZINHO DE ALBUQUERQUE","osm_id":"7502004070","ref":"515","tag":{"amenity":"recycling","operator":"Gesamb","recycling:glass":"yes","recycling:paper":"yes","recycling:plastic":"yes","recycling_type":"container"}},"type":"Feature"},
	{"geometry":{"coordinates":[-7.415463,38.778949],"type":"Point"},"properties":{"name":"s054 AVENIDA DUQUES DE BRAGAN\u00c3\u0087A","osm_id":"7502004071","ref":"s054","tag":{"amenity":"recycling","operator":"Gesamb","recycling:glass":"yes","recycling:paper":"yes","recycling:plastic":"yes","recycling_type":"container"}},"type":"Feature"},
	{"geometry":{"coordinates":[-7.408451,38.77809],"type":"Point"},"properties":{"name":"507 RUA \"B\"","osm_id":"7502004072","ref":"507","tag":{"amenity":"recycling","operator":"Gesamb","recycling:batteries":"yes","recycling:glass":"yes","recycling:paper":"yes","recycling:plastic":"yes","recycling_type":"container"}},"type":"Feature"},
	{"geometry":{"coordinates":[-7.417469,38.779002],"type":"Point"},"properties":{"name":"s039 AVENIDA BENTO DE JESUS CARA\u00c3\u0087A","osm_id":"7502052715","ref":"s039","tag":{"amenity":"recycling","operator":"Gesamb","recycling:batteries":"yes","recycling:glass":"yes","recycling:paper":"yes","recycling:plastic":"yes","recycling_type":"container"}},"type":"Feature"},
	{"geometry":{"coordinates":[-7.424646,38.780724],"type":"Point"},"properties":{"osm_id":"7502058453","tag":{"amenity":"waste_disposal"}},"type":"Feature"},
	{"geometry":{"coordinates":[-7.423446,38.779197],"type":"Point"},"properties":{"name":"495 AVENIDA DA ESTA\u00c3\u0087\u00c3\u0083O","osm_id":"7502058454","ref":"495","tag":{"amenity":"recycling","operator":"Gesamb","recycling:batteries":"yes","recycling:glass":"yes","recycling:paper":"yes","recycling:plastic":"yes","recycling_type":"container"}},"type":"Feature"},
	{"geometry":{"coordinates":[-7.423275,38.777174],"type":"Point"},"properties":{"name":"496 ALAMEDA DAS PISCINAS","osm_id":"7502058469","ref":"496","tag":{"amenity":"recycling","operator":"Gesamb","recycling:batteries":"yes","recycling:glass":"yes","recycling:paper":"yes","recycling:plastic":"yes","recycling_type":"container"}},"type":"Feature"},
	{"geometry":{"coordinates":[-7.420856,38.778278],"type":"Point"},"properties":{"name":"1067 CAMPO DA RESTAURA\u00c3\u0087\u00c3\u0083O","osm_id":"7502058470","ref":"1067","tag":{"amenity":"recycling","operator":"Gesamb","recycling:batteries":"yes","recycling:glass":"yes","recycling:paper":"yes","recycling:plastic":"yes","recycling_type":"container"}},"type":"Feature"}
]
}
