{
"type": "FeatureCollection",
"lastupdate": "2020-07-31T00:00:00Z",
"features": [
	{"geometry":{"coordinates":[-7.399208,38.721959],"type":"Point"},"properties":{"name":"523 RUA B","osm_id":"7495599115","ref":"523","tag":{"amenity":"recycling","operator":"Gesamb","recycling:glass":"yes","recycling:paper":"yes","recycling:plastic":"yes","recycling_type":"container"}},"type":"Feature"},
	{"geometry":{"coordinates":[-7.398166,38.722107],"type":"Point"},"properties":{"name":"510 Largo Santa Catarina","osm_id":"7495599127","ref":"510","tag":{"amenity":"recycling","operator":"Gesamb","recycling:batteries":"yes","recycling:glass":"yes","recycling:paper":"yes","recycling:plastic":"yes","recycling_type":"container"}},"type":"Feature"},
	{"geometry":{"coordinates":[-7.397783,38.724314],"type":"Point"},"properties":{"name":"522 RUA DAS CASAS NOVAS","osm_id":"7495599144","ref":"522","tag":{"amenity":"recycling","operator":"Gesamb","recycling:cooking_oil":"yes","recycling:glass":"yes","recycling:paper":"yes","recycling:plastic":"yes","recycling_type":"container"}},"type":"Feature"},
	{"geometry":{"coordinates":[-7.390763,38.731078],"type":"Point"},"properties":{"name":"521 EM 1046 FONTE SOEIRO","osm_id":"7495628324","ref":"521","tag":{"amenity":"recycling","operator":"Gesamb","recycling:glass":"yes","recycling:paper":"yes","recycling:plastic":"yes","recycling_type":"container"}},"type":"Feature"},
	{"geometry":{"coordinates":[-7.455886,38.745501],"type":"Point"},"properties":{"name":"483 RUA ANT\u00c3\u0093NIO SALVADOR MARQU\u00c3\u008aS","osm_id":"7500237907","ref":"483","tag":{"amenity":"recycling","operator":"Gesamb","recycling:glass":"yes","recycling:paper":"yes","recycling:plastic":"yes","recycling_type":"container"}},"type":"Feature"},
	{"geometry":{"coordinates":[-7.45453,38.744157],"type":"Point"},"properties":{"name":"484 RUA GENERAL HUMBERTO DELGADO","osm_id":"7500237908","ref":"484","tag":{"amenity":"recycling","operator":"Gesamb","recycling:cooking_oil":"yes","recycling:glass":"yes","recycling:paper":"yes","recycling:plastic":"yes","recycling_type":"container"}},"type":"Feature"},
	{"geometry":{"coordinates":[-7.453729,38.744777],"type":"Point"},"properties":{"name":"482 RUA MACHADO DO SANTOS","osm_id":"7500237909","ref":"482","tag":{"amenity":"recycling","operator":"Gesamb","recycling:glass":"yes","recycling:paper":"yes","recycling:plastic":"yes","recycling_type":"container"}},"type":"Feature"},
	{"geometry":{"coordinates":[-7.452545,38.742507],"type":"Point"},"properties":{"name":"485 RUA SACADURA CABRAL","osm_id":"7500237910","ref":"485","tag":{"amenity":"recycling","operator":"Gesamb","recycling:batteries":"yes","recycling:glass":"yes","recycling:paper":"yes","recycling:plastic":"yes","recycling_type":"container"}},"type":"Feature"},
	{"geometry":{"coordinates":[-7.452411,38.740103],"type":"Point"},"properties":{"name":"486 LARGO MARIANO PREZADO","osm_id":"7500237911","ref":"486","tag":{"amenity":"recycling","operator":"Gesamb","recycling:batteries":"yes","recycling:glass":"yes","recycling:paper":"yes","recycling:plastic":"yes","recycling_type":"container"}},"type":"Feature"},
	{"geometry":{"coordinates":[-7.451331,38.745096],"type":"Point"},"properties":{"name":"488 AZINHAGA DA QUINTA","osm_id":"7500237912","ref":"488","tag":{"amenity":"recycling","operator":"Gesamb","recycling:batteries":"yes","recycling:glass":"yes","recycling:paper":"yes","recycling:plastic":"yes","recycling_type":"container"}},"type":"Feature"},
	{"geometry":{"coordinates":[-7.449608,38.745642],"type":"Point"},"properties":{"name":"489 RUA I","osm_id":"7500237913","ref":"489","tag":{"amenity":"recycling","operator":"Gesamb","recycling:glass":"yes","recycling:paper":"yes","recycling:plastic":"yes","recycling_type":"container"}},"type":"Feature"},
	{"geometry":{"coordinates":[-7.449122,38.746087],"type":"Point"},"properties":{"name":"1123 AVENIDA DR. JEREMIAS TOSCANO","osm_id":"7500237914","ref":"1123","tag":{"amenity":"recycling","operator":"Gesamb","recycling:batteries":"yes","recycling:glass":"yes","recycling:paper":"yes","recycling:plastic":"yes","recycling_type":"container"}},"type":"Feature"},
	{"geometry":{"coordinates":[-7.450988,38.747458],"type":"Point"},"properties":{"name":"487 RUA GENERAL HUMBERTO DELGADO","osm_id":"7500237915","ref":"487","tag":{"amenity":"recycling","operator":"Gesamb","recycling:glass":"yes","recycling_type":"container"}},"type":"Feature"},
	{"geometry":{"coordinates":[-7.407078,38.689116],"type":"Point"},"properties":{"name":"1149 ZONA INDUSTRIAL - JUNTO \u00c3\u0080 EMPRESA ALANDAL","osm_id":"7515432484","ref":"1149","tag":{"amenity":"recycling","operator":"Gesamb","recycling:batteries":"yes","recycling:glass":"yes","recycling:paper":"yes","recycling:plastic":"yes","recycling_type":"container"}},"type":"Feature"},
	{"geometry":{"coordinates":[-7.403517,38.691011],"type":"Point"},"properties":{"name":"1151 ZONA INDUSTRIAL - JUNTO AO ESTALEIRO DA CM DE ALANDROAL","osm_id":"7515482785","ref":"1151","tag":{"amenity":"recycling","operator":"Gesamb","recycling:batteries":"yes","recycling:glass":"yes","recycling:paper":"yes","recycling:plastic":"yes","recycling_type":"container"}},"type":"Feature"},
	{"geometry":{"coordinates":[-7.404758,38.694035],"type":"Point"},"properties":{"name":"177 BAIRRO DAS ANDORINHAS","osm_id":"7515619088","ref":"177","tag":{"amenity":"recycling","operator":"Gesamb","recycling:glass":"yes","recycling:paper":"yes","recycling:plastic":"yes","recycling_type":"container"}},"type":"Feature"},
	{"geometry":{"coordinates":[-7.391416,38.696015],"type":"Point"},"properties":{"name":"178 EN 373","osm_id":"7515619090","ref":"178","tag":{"amenity":"recycling","operator":"Gesamb","recycling:glass":"yes","recycling_type":"container"}},"type":"Feature"},
	{"geometry":{"coordinates":[-7.406806,38.698866],"type":"Point"},"properties":{"name":"186 LARGO DO MATADOURO","osm_id":"7515619091","ref":"186","tag":{"amenity":"recycling","operator":"Gesamb","recycling:batteries":"yes","recycling:glass":"yes","recycling_type":"container"}},"type":"Feature"},
	{"geometry":{"coordinates":[-7.406427,38.699753],"type":"Point"},"properties":{"name":"1064 LARGO DO MATADOURO","osm_id":"7515619098","ref":"1064","tag":{"amenity":"recycling","operator":"Gesamb","recycling:batteries":"yes","recycling:glass":"yes","recycling:paper":"yes","recycling:plastic":"yes","recycling_type":"container"}},"type":"Feature"},
	{"geometry":{"coordinates":[-7.405491,38.70031],"type":"Point"},"properties":{"name":"187 LARGO P\u00c3\u008aRO RODRIGUES","osm_id":"7515619099","ref":"187","tag":{"amenity":"recycling","operator":"Gesamb","recycling:glass":"yes","recycling_type":"container"}},"type":"Feature"},
	{"geometry":{"coordinates":[-7.403843,38.701225],"type":"Point"},"properties":{"name":"s003 RUA JO\u00c3\u0083O DE DEUS","osm_id":"7515619100","ref":"s003","tag":{"amenity":"recycling","operator":"Gesamb","recycling:glass":"yes","recycling:paper":"yes","recycling:plastic":"yes","recycling_type":"container"}},"type":"Feature"},
	{"geometry":{"coordinates":[-7.402171,38.701044],"type":"Point"},"properties":{"name":"188 RUA DE SANTO ANT\u00c3\u0093NIO","osm_id":"7515619106","ref":"188","tag":{"amenity":"recycling","operator":"Gesamb","recycling:batteries":"yes","recycling:glass":"yes","recycling:paper":"yes","recycling:plastic":"yes","recycling_type":"container"}},"type":"Feature"},
	{"geometry":{"coordinates":[-7.402561,38.701787],"type":"Point"},"properties":{"name":"1190 RUA JOS\u00c3\u0089 VELADAS DA SILVEIRA BELO","osm_id":"7515619107","ref":"1190","tag":{"amenity":"recycling","operator":"Gesamb","recycling:glass":"yes","recycling_type":"container"}},"type":"Feature"},
	{"geometry":{"coordinates":[-7.401346,38.700488],"type":"Point"},"properties":{"name":"s040 RUA DR. LUIS FORTUNATO DA FONSECA","osm_id":"7515619108","ref":"s040","tag":{"amenity":"recycling","operator":"Gesamb","recycling:batteries":"yes","recycling:glass":"yes","recycling:paper":"yes","recycling:plastic":"yes","recycling_type":"container"}},"type":"Feature"},
	{"geometry":{"coordinates":[-7.400759,38.700972],"type":"Point"},"properties":{"name":"s058 RUA DR. LUIS FORTUNATO DA FONSECA","osm_id":"7515619110","ref":"s058","tag":{"amenity":"recycling","operator":"Gesamb","recycling:glass":"yes","recycling:paper":"yes","recycling:plastic":"yes","recycling_type":"container"}},"type":"Feature"},
	{"geometry":{"coordinates":[-7.400419,38.699801],"type":"Point"},"properties":{"name":"189 RUA BOMBEIROS VOLUNT\u00c3\u0081RIOS DE ALANDROAL - CENTRO DE SA\u00c3\u009aDE","osm_id":"7515619111","ref":"189","tag":{"amenity":"recycling","operator":"Gesamb","recycling:glass":"yes","recycling_type":"container"}},"type":"Feature"},
	{"geometry":{"coordinates":[-7.401493,38.702445],"type":"Point"},"properties":{"name":"1191 LARGO DE SANTO ANT\u00c3\u0093NIO","osm_id":"7515653143","ref":"1191","tag":{"amenity":"recycling","operator":"Gesamb","recycling:glass":"yes","recycling_type":"container"}},"type":"Feature"},
	{"geometry":{"coordinates":[-7.400098,38.701637],"type":"Point"},"properties":{"name":"179 LARGO DE SANTO ANT\u00c3\u0093NIO","osm_id":"7515656187","ref":"179","tag":{"amenity":"recycling","operator":"Gesamb","recycling:batteries":"yes","recycling:glass":"yes","recycling:paper":"yes","recycling:plastic":"yes","recycling_type":"container"}},"type":"Feature"},
	{"geometry":{"coordinates":[-7.402374,38.702793],"type":"Point"},"properties":{"name":"180 TRAVESSA DA FONTE","osm_id":"7515674423","ref":"180","tag":{"amenity":"recycling","operator":"Gesamb","recycling:glass":"yes","recycling_type":"container"}},"type":"Feature"},
	{"geometry":{"coordinates":[-7.400754,38.704405],"type":"Point"},"properties":{"name":"181 RUA DE S\u00c3\u0083O BENTO","osm_id":"7515688973","ref":"181","tag":{"amenity":"recycling","operator":"Gesamb","recycling:glass":"yes","recycling:paper":"yes","recycling:plastic":"yes","recycling_type":"container"}},"type":"Feature"},
	{"geometry":{"coordinates":[-7.404581,38.705115],"type":"Point"},"properties":{"name":"182 TAPADA DA ALFARROBEIRA - JUNTO \u00c3\u0080 ESCOLA","osm_id":"7515688974","ref":"182","tag":{"amenity":"recycling","operator":"Gesamb","recycling:batteries":"yes","recycling:glass":"yes","recycling:paper":"yes","recycling:plastic":"yes","recycling_type":"container"}},"type":"Feature"},
	{"geometry":{"coordinates":[-7.40339,38.704086],"type":"Point"},"properties":{"name":"1148 RUA DE OLIVEN\u00c3\u0087A","osm_id":"7515688975","ref":"1148","tag":{"amenity":"recycling","operator":"Gesamb","recycling:batteries":"yes","recycling:glass":"yes","recycling:paper":"yes","recycling:plastic":"yes","recycling_type":"container"}},"type":"Feature"},
	{"geometry":{"coordinates":[-7.403626,38.70349],"type":"Point"},"properties":{"name":"183 RUA DOS COMBATENTES DA GRANDE GUERRA","osm_id":"7515688976","ref":"183","tag":{"amenity":"recycling","operator":"Gesamb","recycling:glass":"yes","recycling_type":"container"}},"type":"Feature"},
	{"geometry":{"coordinates":[-7.406717,38.703864],"type":"Point"},"properties":{"name":"184 RUA NOVA","osm_id":"7516302512","ref":"184","tag":{"amenity":"recycling","operator":"Gesamb","recycling:glass":"yes","recycling:paper":"yes","recycling:plastic":"yes","recycling_type":"container"}},"type":"Feature"},
	{"geometry":{"coordinates":[-7.405527,38.702603],"type":"Point"},"properties":{"name":"185 MERCADO MUNICIPAL","osm_id":"7516302514","ref":"185","tag":{"amenity":"recycling","operator":"Gesamb","recycling:batteries":"yes","recycling:cooking_oil":"yes","recycling:glass":"yes","recycling:paper":"yes","recycling:plastic":"yes","recycling_type":"container"}},"type":"Feature"},
	{"geometry":{"coordinates":[-7.407068,38.702552],"type":"Point"},"properties":{"name":"1189 TRAVESSA DO SILVEIRA - JUNTO AO COMPLEXO DESPORTIVO MIGU\u00c3\u0089L FIGUEIREDO L\u00c3\u0089RIAS","osm_id":"7516471865","ref":"1189","tag":{"amenity":"recycling","operator":"Gesamb","recycling:glass":"yes","recycling_type":"container"}},"type":"Feature"},
	{"geometry":{"coordinates":[-7.403923,38.702497],"type":"Point"},"properties":{"name":"s004 LARGO DA MATRIZ","osm_id":"7516513688","ref":"s004","tag":{"amenity":"recycling","operator":"Gesamb","recycling:cooking_oil":"yes","recycling:glass":"yes","recycling:paper":"yes","recycling:plastic":"yes","recycling_type":"container"}},"type":"Feature"}
]
}
