{
"type": "FeatureCollection",
"lastupdate": "2020-08-04T00:00:00Z",
"features": [
	{"geometry":{"coordinates":[-7.406238,38.634222],"type":"Point"},"properties":{"name":"190 BARRAGEM DO LUCEFECIT","osm_id":"7508341181","ref":"190","tag":{"amenity":"recycling","operator":"Gesamb","recycling:glass":"yes","recycling_type":"container"}},"type":"Feature"},
	{"geometry":{"coordinates":[-7.409869,38.623667],"type":"Point"},"properties":{"name":"191 EN 255","osm_id":"7508357250","ref":"191","tag":{"amenity":"recycling","operator":"Gesamb","recycling:batteries":"yes","recycling:glass":"yes","recycling:paper":"yes","recycling:plastic":"yes","recycling_type":"container"}},"type":"Feature"},
	{"geometry":{"coordinates":[-7.408552,38.620855],"type":"Point"},"properties":{"name":"1152 Cruzamento da Rua de Estremoz com a Travessa das Varandas","osm_id":"7508536395","ref":"1152","tag":{"amenity":"recycling","operator":"Gesamb","recycling:batteries":"yes","recycling:glass":"yes","recycling:paper":"yes","recycling:plastic":"yes","recycling_type":"container"}},"type":"Feature"},
	{"geometry":{"coordinates":[-7.410224,38.618122],"type":"Point"},"properties":{"name":"192 ESTRADA DA BOA NOVA","osm_id":"7508536401","ref":"192","tag":{"amenity":"recycling","operator":"Gesamb","recycling:cooking_oil":"yes","recycling:glass":"yes","recycling:paper":"yes","recycling:plastic":"yes","recycling_type":"container"}},"type":"Feature"},
	{"geometry":{"coordinates":[-7.412558,38.618339],"type":"Point"},"properties":{"name":"193 EM 541","osm_id":"7508536402","ref":"193","tag":{"amenity":"recycling","operator":"Gesamb","recycling:glass":"yes","recycling_type":"container"}},"type":"Feature"},
	{"geometry":{"coordinates":[-7.41429,38.618795],"type":"Point"},"properties":{"name":"194 RUA INTERIOR DE TERENA","osm_id":"7508536413","ref":"194","tag":{"amenity":"recycling","operator":"Gesamb","recycling:glass":"yes","recycling:paper":"yes","recycling:plastic":"yes","recycling_type":"container"}},"type":"Feature"}
]
}
