{
"type": "FeatureCollection",
"features": [
	{"geometry":{"coordinates":[-7.468577,38.596096],"type":"Point"},"properties":{"osm_id":"7504555833","tag":{"amenity":"waste_disposal"}},"type":"Feature"},
	{"geometry":{"coordinates":[-7.46833,38.596102],"type":"Point"},"properties":{"name":"1154 RUA DO DEP\u00c3\u0093SITO","osm_id":"7504555834","ref":"1154","tag":{"amenity":"recycling","operator":"Gesamb","recycling:batteries":"yes","recycling:glass":"yes","recycling:paper":"yes","recycling:plastic":"yes","recycling_type":"container"}},"type":"Feature"},
	{"geometry":{"coordinates":[-7.469251,38.597701],"type":"Point"},"properties":{"name":"198 ORVALHOS (CASA DO POVO)","osm_id":"7504555835","ref":"198","tag":{"amenity":"recycling","operator":"Gesamb","recycling:glass":"yes","recycling_type":"container"}},"type":"Feature"},
	{"geometry":{"coordinates":[-7.452885,38.6147],"type":"Point"},"properties":{"name":"197 RUA 25 DE ABRIL","osm_id":"7508337251","ref":"197","tag":{"amenity":"recycling","operator":"Gesamb","recycling:glass":"yes","recycling_type":"container"}},"type":"Feature"},
	{"geometry":{"coordinates":[-7.452771,38.614674],"type":"Point"},"properties":{"osm_id":"7508337252","tag":{"amenity":"waste_disposal"}},"type":"Feature"},
	{"geometry":{"coordinates":[-7.450389,38.615435],"type":"Point"},"properties":{"name":"196 LARGO DA JUVENTUDE","osm_id":"7508337254","ref":"196","tag":{"amenity":"recycling","operator":"Gesamb","recycling:glass":"yes","recycling_type":"container"}},"type":"Feature"},
	{"geometry":{"coordinates":[-7.450423,38.615433],"type":"Point"},"properties":{"osm_id":"7508337255","tag":{"amenity":"waste_disposal"}},"type":"Feature"},
	{"geometry":{"coordinates":[-7.448985,38.61545],"type":"Point"},"properties":{"name":"195 LARGO DA JUVENTUDE","osm_id":"7508337257","ref":"195","tag":{"amenity":"recycling","operator":"Gesamb","recycling:batteries":"yes","recycling:glass":"yes","recycling:paper":"yes","recycling:plastic":"yes","recycling_type":"container"}},"type":"Feature"},
	{"geometry":{"coordinates":[-7.450819,38.612251],"type":"Point"},"properties":{"name":"1155 RUA DA LIBERDADE","osm_id":"7508337258","ref":"1155","tag":{"amenity":"recycling","operator":"Gesamb","recycling:batteries":"yes","recycling:glass":"yes","recycling:paper":"yes","recycling:plastic":"yes","recycling_type":"container"}},"type":"Feature"}
]
}
