{
"type": "FeatureCollection",
"features": [
	{"geometry":{"coordinates":[-7.461286,38.54773],"type":"Point"},"properties":{"name":"156 Pra\u00c3\u00a7a dos Grilos","osm_id":"7504230103","ref":"156","tag":{"amenity":"recycling","operator":"Gesamb","recycling:batteries":"yes","recycling:cooking_oil":"yes","recycling:glass":"yes","recycling:paper":"yes","recycling:plastic":"yes","recycling_type":"container"}},"type":"Feature"},
	{"geometry":{"coordinates":[-7.459867,38.546612],"type":"Point"},"properties":{"osm_id":"7504230136","tag":{"amenity":"waste_disposal"}},"type":"Feature"},
	{"geometry":{"coordinates":[-7.460054,38.546802],"type":"Point"},"properties":{"name":"157 Rua Com\u00c3\u00a9rcio e Ind\u00c3\u00bastria","osm_id":"7504230137","ref":"157","tag":{"amenity":"recycling","operator":"Gesamb","recycling:batteries":"yes","recycling:glass":"yes","recycling:paper":"yes","recycling:plastic":"yes","recycling_type":"container"}},"type":"Feature"},
	{"geometry":{"coordinates":[-7.463296,38.544422],"type":"Point"},"properties":{"name":"1065 Rua Monte das Cavacas","osm_id":"7504230149","ref":"1065","tag":{"amenity":"recycling","operator":"Gesamb","recycling:batteries":"yes","recycling:glass":"yes","recycling:paper":"yes","recycling:plastic":"yes","recycling_type":"container"}},"type":"Feature"},
	{"geometry":{"coordinates":[-7.390664,38.533432],"type":"Point"},"properties":{"name":"160 Rua Nova","osm_id":"7504608543","ref":"160","tag":{"amenity":"recycling","operator":"Gesamb","recycling:batteries":"yes","recycling:glass":"yes","recycling:paper":"yes","recycling:plastic":"yes","recycling_type":"container"}},"type":"Feature"},
	{"geometry":{"coordinates":[-7.392535,38.534219],"type":"Point"},"properties":{"name":"159 Rua Principal","osm_id":"7504608556","ref":"159","tag":{"amenity":"recycling","operator":"Gesamb","recycling:glass":"yes","recycling_type":"container"}},"type":"Feature"},
	{"geometry":{"coordinates":[-7.392775,38.534892],"type":"Point"},"properties":{"name":"158 Rua Principal","osm_id":"7504608557","ref":"158","tag":{"amenity":"recycling","operator":"Gesamb","recycling:batteries":"yes","recycling:glass":"yes","recycling:paper":"yes","recycling:plastic":"yes","recycling_type":"container"}},"type":"Feature"},
	{"geometry":{"coordinates":[-7.392767,38.534957],"type":"Point"},"properties":{"osm_id":"7504608558","tag":{"amenity":"waste_disposal"}},"type":"Feature"}
]
}
