{
"type": "FeatureCollection",
"features": [
	{"geometry":{"coordinates":[20.163608,63.83826],"type":"Point"},"properties":{"osm_id":"301743655","tag":{"amenity":"recycling","recycling_type":"container"}},"type":"Feature"},
	{"geometry":{"coordinates":[20.161166,63.844285],"type":"Point"},"properties":{"osm_id":"302916859","tag":{"amenity":"recycling"}},"type":"Feature"},
	{"geometry":{"coordinates":[20.172226,63.837607],"type":"Point"},"properties":{"osm_id":"306818921","tag":{"amenity":"recycling"}},"type":"Feature"},
	{"geometry":{"coordinates":[20.196406,63.833408],"type":"Point"},"properties":{"osm_id":"1286289250","tag":{"amenity":"recycling","recycling_type":"container"}},"type":"Feature"},
	{"geometry":{"coordinates":[20.205252,63.833698],"type":"Point"},"properties":{"osm_id":"1357160220","tag":{"amenity":"recycling"}},"type":"Feature"},
	{"geometry":{"coordinates":[20.14938,63.851536],"type":"Point"},"properties":{"barrier":"gate","osm_id":"4154370532","tag":{"entrance":"exit"}},"type":"Feature"},
	{"geometry":{"coordinates":[20.148659,63.852103],"type":"Point"},"properties":{"barrier":"entrance","osm_id":"4156229615","tag":{"access":"employees"}},"type":"Feature"},
	{"geometry":{"coordinates":[20.148504,63.852225],"type":"Point"},"properties":{"barrier":"gate","osm_id":"4156229619","tag":{"entrance":"main"}},"type":"Feature"},
	{"geometry":{"coordinates":[20.156389,63.847086],"type":"Point"},"properties":{"osm_id":"4168157669","tag":{"amenity":"waste_basket"}},"type":"Feature"},
	{"geometry":{"coordinates":[20.156153,63.847124],"type":"Point"},"properties":{"osm_id":"4168157670","tag":{"amenity":"waste_basket"}},"type":"Feature"},
	{"geometry":{"coordinates":[20.159308,63.834857],"type":"Point"},"properties":{"osm_id":"4171811785","tag":{"amenity":"waste_basket","waste":"dog_excrement"}},"type":"Feature"},
	{"geometry":{"coordinates":[20.12749,63.838293],"type":"Point"},"properties":{"osm_id":"4172287653","tag":{"access":"private","amenity":"waste_disposal"}},"type":"Feature"},
	{"geometry":{"coordinates":[20.168841,63.830442],"type":"Point"},"properties":{"osm_id":"4570435055","tag":{"amenity":"waste_basket"}},"type":"Feature"},
	{"geometry":{"coordinates":[20.194798,63.840631],"type":"Point"},"properties":{"osm_id":"4648662471","tag":{"amenity":"recycling","recycling_type":"container"}},"type":"Feature"},
	{"geometry":{"coordinates":[20.195042,63.840587],"type":"Point"},"properties":{"osm_id":"5767554039","tag":{"amenity":"recycling","recycling_type":"container"}},"type":"Feature"},
	{"geometry":{"coordinates":[20.173329,63.834441],"type":"Point"},"properties":{"osm_id":"7328129472","tag":{"access":"private","amenity":"recycling","operator":"Seniorhusen","recycling_type":"container"}},"type":"Feature"},
	{"geometry":{"coordinates":[20.172685,63.836437],"type":"Point"},"properties":{"osm_id":"7837073986","tag":{"amenity":"waste_basket"}},"type":"Feature"},
	{"geometry":{"coordinates":[20.173014,63.836531],"type":"Point"},"properties":{"osm_id":"7845244312","tag":{"amenity":"waste_basket"}},"type":"Feature"}
]
}
