{
"type": "FeatureCollection",
"lastupdate": "2020-08-06T00:00:00Z",
"features": [
	{"geometry":{"coordinates":[20.178162,47.168237],"type":"Point"},"properties":{"osm_id":"892771471","tag":{"amenity":"recycling","recycling:glass":"yes","recycling:paper":"yes"}},"type":"Feature"},
	{"geometry":{"coordinates":[20.179582,47.173417],"type":"Point"},"properties":{"osm_id":"985173905","tag":{"amenity":"recycling","recycling:cans":"no","recycling:glass":"yes","recycling:paper":"yes"}},"type":"Feature"},
	{"geometry":{"coordinates":[20.180377,47.168879],"type":"Point"},"properties":{"osm_id":"1129279303","tag":{"amenity":"recycling","recycling:cans":"no","recycling:glass":"yes","recycling:paper":"yes"}},"type":"Feature"},
	{"geometry":{"coordinates":[20.186499,47.193959],"type":"Point"},"properties":{"osm_id":"2086547408","tag":{"amenity":"recycling","recycling:cans":"yes","recycling:glass":"yes","recycling:paper":"yes"}},"type":"Feature"},
	{"geometry":{"coordinates":[20.186509,47.194217],"type":"Point"},"properties":{"osm_id":"2086547409","tag":{"amenity":"recycling","recycling:cans":"yes","recycling:glass":"yes","recycling:paper":"yes"}},"type":"Feature"},
	{"geometry":{"coordinates":[20.201652,47.160738],"type":"Point"},"properties":{"osm_id":"3224469544","tag":{"amenity":"recycling","recycling:batteries":"yes","recycling:cans":"yes","recycling:clothes":"yes","recycling:glass":"yes","recycling:paper":"yes","recycling:scrap_metal":"yes","recycling_type":"centre"}},"type":"Feature"},
	{"geometry":{"coordinates":[20.182096,47.193389],"type":"Point"},"properties":{"osm_id":"3270497935","tag":{"amenity":"recycling","recycling:batteries":"yes","recycling_type":"container"}},"type":"Feature"},
	{"geometry":{"coordinates":[20.166817,47.17055],"type":"Point"},"properties":{"osm_id":"3490657451","tag":{"amenity":"recycling","source:date":"2012-09-19","url":"http://turistautak.hu/poi.php?id=145073"}},"type":"Feature"},
	{"geometry":{"coordinates":[20.189883,47.1935],"type":"Point"},"properties":{"osm_id":"3490657464","tag":{"addr:city":"Szolnok","addr:street":"Sz\u00e9chenyi ltp. Orosz Gy\u00f6rgy \u00fat","amenity":"recycling","source:date":"2008-06-11","url":"http://turistautak.hu/poi.php?id=39576"}},"type":"Feature"},
	{"geometry":{"coordinates":[20.174723,47.179721],"type":"Point"},"properties":{"osm_id":"3734882140","tag":{"amenity":"waste_basket","layer":"-1"}},"type":"Feature"},
	{"geometry":{"coordinates":[20.174682,47.17968],"type":"Point"},"properties":{"osm_id":"3734882141","tag":{"amenity":"waste_basket","layer":"-1"}},"type":"Feature"},
	{"geometry":{"coordinates":[20.174903,47.179546],"type":"Point"},"properties":{"osm_id":"3734882142","tag":{"amenity":"waste_basket","layer":"-1"}},"type":"Feature"},
	{"geometry":{"coordinates":[20.174948,47.179575],"type":"Point"},"properties":{"osm_id":"3734882143","tag":{"amenity":"waste_basket","layer":"-1"}},"type":"Feature"},
	{"geometry":{"coordinates":[20.175077,47.179434],"type":"Point"},"properties":{"osm_id":"3734882144","tag":{"amenity":"waste_basket","layer":"-1"}},"type":"Feature"},
	{"geometry":{"coordinates":[20.175125,47.179467],"type":"Point"},"properties":{"osm_id":"3734882145","tag":{"amenity":"waste_basket","layer":"-1"}},"type":"Feature"},
	{"geometry":{"coordinates":[20.175334,47.179334],"type":"Point"},"properties":{"osm_id":"3734882146","tag":{"amenity":"waste_basket","layer":"-1"}},"type":"Feature"},
	{"geometry":{"coordinates":[20.175288,47.179308],"type":"Point"},"properties":{"osm_id":"3734882147","tag":{"amenity":"waste_basket","layer":"-1"}},"type":"Feature"},
	{"geometry":{"coordinates":[20.175564,47.179137],"type":"Point"},"properties":{"osm_id":"3734882148","tag":{"amenity":"waste_basket","layer":"-1"}},"type":"Feature"},
	{"geometry":{"coordinates":[20.175616,47.179167],"type":"Point"},"properties":{"osm_id":"3734882149","tag":{"amenity":"waste_basket","layer":"-1"}},"type":"Feature"},
	{"geometry":{"coordinates":[20.175173,47.179245],"type":"Point"},"properties":{"osm_id":"3734882150","tag":{"amenity":"waste_basket"}},"type":"Feature"},
	{"geometry":{"coordinates":[20.177685,47.179054],"type":"Point"},"properties":{"osm_id":"3734885203","tag":{"amenity":"waste_basket"}},"type":"Feature"},
	{"geometry":{"coordinates":[20.177635,47.179524],"type":"Point"},"properties":{"osm_id":"3734886192","tag":{"amenity":"recycling","recycling:glass":"yes","recycling:paper":"yes","recycling_type":"container"}},"type":"Feature"},
	{"geometry":{"coordinates":[20.194581,47.178597],"type":"Point"},"properties":{"osm_id":"4434416300","tag":{"amenity":"recycling","recycling:glass_bottles":"yes","recycling:paper":"yes","recycling:plastic":"yes","recycling_type":"container"}},"type":"Feature"},
	{"geometry":{"coordinates":[20.196499,47.172548],"type":"Point"},"properties":{"osm_id":"4485306598","tag":{"amenity":"waste_basket"}},"type":"Feature"},
	{"geometry":{"coordinates":[20.204608,47.183121],"type":"Point"},"properties":{"osm_id":"4530036494","tag":{"amenity":"recycling","recycling:batteries":"no","recycling:cans":"no","recycling:cardboard":"no","recycling:clothes":"no","recycling:glass":"yes","recycling:glass_bottles":"yes","recycling:green_waste":"no","recycling:paper":"yes","recycling:plastic":"yes","recycling:scrap_metal":"no","recycling_type":"container"}},"type":"Feature"},
	{"geometry":{"coordinates":[20.201347,47.178877],"type":"Point"},"properties":{"osm_id":"4535447091","tag":{"amenity":"recycling","recycling_type":"container"}},"type":"Feature"},
	{"geometry":{"coordinates":[20.201969,47.17841],"type":"Point"},"properties":{"osm_id":"4535477991","tag":{"amenity":"waste_basket"}},"type":"Feature"},
	{"geometry":{"coordinates":[20.200124,47.176974],"type":"Point"},"properties":{"osm_id":"4540960334","tag":{"amenity":"waste_basket"}},"type":"Feature"},
	{"geometry":{"coordinates":[20.204143,47.182877],"type":"Point"},"properties":{"osm_id":"4540960374","tag":{"amenity":"waste_basket"}},"type":"Feature"},
	{"geometry":{"coordinates":[20.203495,47.185881],"type":"Point"},"properties":{"osm_id":"4546567091","tag":{"amenity":"recycling","recycling_type":"container"}},"type":"Feature"},
	{"geometry":{"coordinates":[20.180117,47.19504],"type":"Point"},"properties":{"osm_id":"4556920191","tag":{"amenity":"waste_basket"}},"type":"Feature"},
	{"geometry":{"coordinates":[20.179996,47.195108],"type":"Point"},"properties":{"osm_id":"4556931492","tag":{"amenity":"waste_basket"}},"type":"Feature"},
	{"geometry":{"coordinates":[20.179889,47.194947],"type":"Point"},"properties":{"osm_id":"4556945189","tag":{"amenity":"waste_basket"}},"type":"Feature"},
	{"geometry":{"coordinates":[20.186175,47.196369],"type":"Point"},"properties":{"osm_id":"4571622989","tag":{"amenity":"recycling","recycling_type":"container"}},"type":"Feature"},
	{"geometry":{"coordinates":[20.183687,47.193737],"type":"Point"},"properties":{"osm_id":"4571678591","tag":{"amenity":"recycling","recycling_type":"container"}},"type":"Feature"},
	{"geometry":{"coordinates":[20.185919,47.193649],"type":"Point"},"properties":{"osm_id":"4571696492","tag":{"amenity":"waste_basket"}},"type":"Feature"},
	{"geometry":{"coordinates":[20.205295,47.182917],"type":"Point"},"properties":{"osm_id":"4577140691","tag":{"amenity":"recycling","recycling:batteries":"no","recycling:cans":"no","recycling:cardboard":"no","recycling:clothes":"yes","recycling:glass":"no","recycling:glass_bottles":"no","recycling:green_waste":"no","recycling:paper":"no","recycling:plastic":"no","recycling:scrap_metal":"no","recycling_type":"container"}},"type":"Feature"},
	{"geometry":{"coordinates":[20.180397,47.1672],"type":"Point"},"properties":{"osm_id":"5499232818","tag":{"amenity":"waste_basket"}},"type":"Feature"},
	{"geometry":{"coordinates":[20.177951,47.167603],"type":"Point"},"properties":{"osm_id":"5499233374","tag":{"amenity":"waste_basket"}},"type":"Feature"},
	{"geometry":{"coordinates":[20.178182,47.167571],"type":"Point"},"properties":{"osm_id":"5499233375","tag":{"amenity":"waste_basket"}},"type":"Feature"},
	{"geometry":{"coordinates":[20.178424,47.167543],"type":"Point"},"properties":{"osm_id":"5499233376","tag":{"amenity":"waste_basket"}},"type":"Feature"},
	{"geometry":{"coordinates":[20.177879,47.179878],"type":"Point"},"properties":{"name":"Szelekt\u00c3\u00adv hullad\u00c3\u00a9kgy\u00c5\u00b1jt\u00c5\u0091 sziget","osm_id":"7272597086","tag":{"amenity":"recycling","name:en":"Recycling bank","recycling_type":"container"}},"type":"Feature"}
]
}
