{
"type": "FeatureCollection",
"lastupdate": "2020-08-03T00:00:00Z",
"features": [
	{"geometry":{"coordinates":[20.136432,46.270753],"type":"Point"},"properties":{"osm_id":"410741685","tag":{"amenity":"recycling","description":"Ilona utca 8. mellett","location":"overground","operator":"Szegedi Hullad\u00e9kgazd\u00e1lkod\u00e1si Nonprofit Kft.","recycling:cans":"yes","recycling:glass_bottles":"yes","recycling:paper":"yes","recycling:plastic_packaging":"yes","recycling_type":"container"}},"type":"Feature"},
	{"geometry":{"coordinates":[20.137571,46.267941],"type":"Point"},"properties":{"osm_id":"411029843","tag":{"amenity":"recycling","description":"R\u00f3kusi k\u00f6r\u00fat 48-52 Tesco parkol\u00f3j\u00e1ban","location":"overground","operator":"Szegedi Hullad\u00e9kgazd\u00e1lkod\u00e1si Nonprofit Kft.","recycling:glass_bottles":"yes","recycling:paper":"yes","recycling:plastic_bottles":"yes","recycling_type":"container"}},"type":"Feature"},
	{"geometry":{"coordinates":[20.142409,46.265415],"type":"Point"},"properties":{"osm_id":"411029884","tag":{"amenity":"recycling","description":"K\u00f6rt\u00f6lt\u00e9s utca-Bartucz L. utca sarok","operator":"Szegedi Hullad\u00e9kgazd\u00e1lkod\u00e1si Nonprofit Kft.","recycling:cartons":"yes","recycling:glass_bottles":"yes","recycling:paper":"yes","recycling:paper_packaging":"yes","recycling:plastic":"yes","recycling:plastic_bottles":"yes","recycling:plastic_packaging":"yes","recycling_type":"container"}},"type":"Feature"},
	{"geometry":{"coordinates":[20.146459,46.261473],"type":"Point"},"properties":{"osm_id":"411029885","tag":{"amenity":"recycling","description":"Klapka t\u00e9r-Jakab Lajos utca sark\u00e1n","location":"overground","operator":"Szegedi Hullad\u00e9kgazd\u00e1lkod\u00e1si Nonprofit Kft.","recycling:glass_bottles":"yes","recycling:paper":"yes","recycling_type":"container"}},"type":"Feature"},
	{"geometry":{"coordinates":[20.163876,46.266113],"type":"Point"},"properties":{"osm_id":"414992826","tag":{"amenity":"recycling","description":"Kemes utca 18/A el\u0151tt","operator":"Szegedi Hullad\u00e9kgazd\u00e1lkod\u00e1si Nonprofit Kft.","recycling:cans":"yes","recycling:glass_bottles":"yes","recycling:paper":"yes","recycling_type":"container"}},"type":"Feature"},
	{"geometry":{"coordinates":[20.161156,46.265376],"type":"Point"},"properties":{"osm_id":"414992827","tag":{"amenity":"recycling","description":"Bihari utca 28/B el\u0151tt","location":"overground","operator":"Szegedi Hullad\u00e9kgazd\u00e1lkod\u00e1si Nonprofit Kft.","recycling:cans":"yes","recycling:glass_bottles":"yes","recycling:paper":"yes","recycling:plastic":"yes","recycling_type":"container"}},"type":"Feature"},
	{"geometry":{"coordinates":[20.151215,46.270558],"type":"Point"},"properties":{"osm_id":"414992829","tag":{"amenity":"recycling","description":"\u00c1g utca 3 el\u0151tt","location":"overground","operator":"Szegedi Hullad\u00e9kgazd\u00e1lkod\u00e1si Nonprofit Kft.","recycling:cans":"yes","recycling:clothes":"no","recycling:glass_bottles":"yes","recycling:paper":"yes","recycling:plastic":"yes","recycling_type":"container"}},"type":"Feature"},
	{"geometry":{"coordinates":[20.150496,46.270508],"type":"Point"},"properties":{"osm_id":"414992830","tag":{"amenity":"recycling","description":"Csongr\u00e1di sgt. 75/a el\u0151tt","location":"overground","operator":"Szegedi Hullad\u00e9kgazd\u00e1lkod\u00e1si Nonprofit Kft.","recycling:cans":"yes","recycling:clothes":"no","recycling:glass_bottles":"yes","recycling:paper":"yes","recycling_type":"container"}},"type":"Feature"},
	{"geometry":{"coordinates":[20.162213,46.259809],"type":"Point"},"properties":{"osm_id":"415419550","tag":{"amenity":"recycling","description":"R\u00f3mai krt.-Bertalan h\u00edd l\u00e1ba buszmeg\u00e1ll\u00f3","location":"overground","operator":"Szegedi Hullad\u00e9kgazd\u00e1lkod\u00e1si Nonprofit Kft.","recycling:cans":"yes","recycling:glass_bottles":"yes","recycling:paper":"yes","recycling:plastic":"yes","recycling_type":"container"}},"type":"Feature"},
	{"geometry":{"coordinates":[20.139828,46.273104],"type":"Point"},"properties":{"osm_id":"1266933486","tag":{"amenity":"recycling","description":"Nyitra utca-F\u0171t\u0151m\u0171 utca tal\u00e1lkoz\u00e1s\u00e1n\u00e1l","location":"overground","operator":"Szegedi Hullad\u00e9kgazd\u00e1lkod\u00e1si Nonprofit Kft.","recycling_type":"container"}},"type":"Feature"},
	{"geometry":{"coordinates":[20.140342,46.272628],"type":"Point"},"properties":{"osm_id":"1267448419","tag":{"amenity":"waste_basket"}},"type":"Feature"},
	{"geometry":{"coordinates":[20.14708,46.270908],"type":"Point"},"properties":{"osm_id":"1277394429","tag":{"amenity":"recycling","description":"Csongr\u00e1di sgt. 104 m\u00f6g\u00f6tt","location":"overground","operator":"Szegedi Hullad\u00e9kgazd\u00e1lkod\u00e1si Nonprofit Kft.","recycling_type":"container"}},"type":"Feature"},
	{"geometry":{"coordinates":[20.14127,46.255926],"type":"Point"},"properties":{"osm_id":"2637903517","tag":{"amenity":"recycling","description":"Attila utca 21 el\u0151tt","operator":"Szegedi Hullad\u00e9kgazd\u00e1lkod\u00e1si Nonprofit Kft.","recycling:cans":"yes","recycling:clothes":"no","recycling:glass_bottles":"yes","recycling:paper":"yes","recycling_type":"container"}},"type":"Feature"},
	{"geometry":{"coordinates":[20.149411,46.275081],"type":"Point"},"properties":{"osm_id":"2638160933","tag":{"amenity":"recycling","description":"Hont Ferenc utca 14 mellett","operator":"Szegedi Hullad\u00e9kgazd\u00e1lkod\u00e1si Nonprofit Kft.","recycling:cans":"yes","recycling:cardboard":"yes","recycling:glass_bottles":"yes","recycling:paper":"yes","recycling_type":"container"}},"type":"Feature"},
	{"geometry":{"coordinates":[20.166265,46.27248],"type":"Point"},"properties":{"osm_id":"3087160260","tag":{"amenity":"recycling","description":"S\u00f3lyom utca","operator":"Szegedi Hullad\u00e9kgazd\u00e1lkod\u00e1si Nonprofit Kft.","recycling:cans":"yes","recycling:clothes":"no","recycling:glass":"yes","recycling:glass_bottles":"yes","recycling:paper":"yes","recycling:plastic":"yes","recycling_type":"container"}},"type":"Feature"},
	{"geometry":{"coordinates":[20.168175,46.266361],"type":"Point"},"properties":{"osm_id":"3087160261","tag":{"amenity":"recycling","description":"Keresztt\u00f6lt\u00e9s utca 33. el\u0151tt","location":"overground","operator":"Szegedi Hullad\u00e9kgazd\u00e1lkod\u00e1si Nonprofit Kft.","recycling:cans":"yes","recycling:clothes":"no","recycling:glass_bottles":"yes","recycling:paper":"yes","recycling_type":"container"}},"type":"Feature"},
	{"geometry":{"coordinates":[20.142377,46.275556],"type":"Point"},"properties":{"osm_id":"3330828883","tag":{"amenity":"recycling","description":"Garam utca 3 (traf\u00f3 mellett)","location":"overground","operator":"Szegedi Hullad\u00e9kgazd\u00e1lkod\u00e1si Nonprofit Kft.","recycling_type":"container"}},"type":"Feature"},
	{"geometry":{"coordinates":[20.167833,46.267967],"type":"Point"},"properties":{"osm_id":"3437115991","tag":{"addr:city":"Szeged","addr:housenumber":"3-5","addr:postcode":"6723","addr:street":"Budapesti k\u00f6r\u00fat","amenity":"recycling","description":"Aki esetleg nem tal\u00e1ln\u00e1 a pontatlan koordin\u00e1t\u00e1k miatt,a SPAR parkol\u00f3j\u00e1n\u00e1l van.","location":"overground","recycling_type":"container","source:date":"2011-06-24","url":"http://turistautak.hu/poi.php?id=42549"}},"type":"Feature"},
	{"geometry":{"coordinates":[20.150384,46.273261],"type":"Point"},"properties":{"osm_id":"3437116793","tag":{"amenity":"recycling","description":"Gy\u00f6ngyvir\u00e1g utca 16 el\u0151tt","location":"overground","operator":"Szegedi Hullad\u00e9kgazd\u00e1lkod\u00e1si Nonprofit Kft.","recycling:cans":"yes","recycling:glass":"yes","recycling:paper":"yes","recycling:plastic":"yes","recycling_type":"container"}},"type":"Feature"},
	{"geometry":{"coordinates":[20.129281,46.265602],"type":"Point"},"properties":{"osm_id":"3533938334","tag":{"amenity":"recycling","description":"Plaza parkol\u00f3-Kossuth L. sgt. 117","operator":"Szegedi Hullad\u00e9kgazd\u00e1lkod\u00e1si Nonprofit Kft.","recycling:cans":"yes","recycling:clothes":"no","recycling:glass":"yes","recycling:glass_bottles":"no","recycling:paper":"yes","recycling:plastic":"yes","recycling_type":"container"}},"type":"Feature"},
	{"geometry":{"coordinates":[20.167298,46.268132],"type":"Point"},"properties":{"osm_id":"4014760391","tag":{"amenity":"recycling","recycling:clothes":"yes","recycling_type":"container"}},"type":"Feature"},
	{"geometry":{"coordinates":[20.165574,46.275157],"type":"Point"},"properties":{"name":"Haszn\u00c3\u00a1lt ruha","osm_id":"4014777737","tag":{"amenity":"recycling","recycling:clothes":"yes","recycling_type":"container"}},"type":"Feature"},
	{"geometry":{"coordinates":[20.146663,46.273951],"type":"Point"},"properties":{"osm_id":"4222633906","tag":{"amenity":"recycling","description":"Csongr\u00e1di sug\u00e1r\u00fat 110 el\u0151tt","location":"overground","operator":"Szegedi Hullad\u00e9kgazd\u00e1lkod\u00e1si Nonprofit Kft.","recycling:cans":"yes","recycling:glass_bottles":"yes","recycling:paper":"yes","recycling:plastic":"yes","recycling_type":"container"}},"type":"Feature"},
	{"geometry":{"coordinates":[20.130863,46.268598],"type":"Point"},"properties":{"osm_id":"4296927442","tag":{"amenity":"recycling","description":"Szatymazi utca OBI parkol\u00f3j\u00e1ban","location":"overground","operator":"Szegedi Hullad\u00e9kgazd\u00e1lkod\u00e1si Nonprofit Kft.","recycling:cans":"yes","recycling:glass_bottles":"yes","recycling:paper":"yes","recycling:plastic":"yes","recycling_type":"container"}},"type":"Feature"},
	{"geometry":{"coordinates":[20.152672,46.269011],"type":"Point"},"properties":{"osm_id":"4551157960","tag":{"amenity":"recycling","description":"G\u00e1sp\u00e1r Zolt\u00e1n utca 1 el\u0151tt","operator":"Szegedi Hullad\u00e9kgazd\u00e1lkod\u00e1si Nonprofit Kft.","recycling:cans":"yes","recycling:glass_bottles":"yes","recycling:paper":"yes","recycling:plastic":"no","recycling:plastic_bottles":"yes","recycling_type":"container"}},"type":"Feature"},
	{"geometry":{"coordinates":[20.171795,46.265042],"type":"Point"},"properties":{"osm_id":"5010118535","tag":{"amenity":"recycling","description":"Csaba utca-Gy\u00edk utcasark\u00e1n","operator":"Szegedi Hullad\u00e9kgazd\u00e1lkod\u00e1si Nonprofit Kft.","recycling_type":"container"}},"type":"Feature"},
	{"geometry":{"coordinates":[20.15877,46.266712],"type":"Point"},"properties":{"osm_id":"5062699790","tag":{"amenity":"recycling","description":"Retek utca-MATCH el\u0151tt","operator":"Szegedi Hullad\u00e9kgazd\u00e1lkod\u00e1si Nonprofit Kft.","recycling_type":"container"}},"type":"Feature"},
	{"geometry":{"coordinates":[20.163964,46.270164],"type":"Point"},"properties":{"osm_id":"5211944064","tag":{"amenity":"recycling","recycling:clothes":"yes","recycling_type":"container"}},"type":"Feature"},
	{"geometry":{"coordinates":[20.157984,46.256827],"type":"Point"},"properties":{"osm_id":"5311866799","tag":{"amenity":"recycling","description":"Maros utca (g\u00e1znyom\u00e1s szab\u00e1lyz\u00f3 mellett)","operator":"Szegedi Hullad\u00e9kgazd\u00e1lkod\u00e1si Nonprofit Kft.","recycling:PET":"yes","recycling:aluminium":"yes","recycling:cans":"yes","recycling:cardboard":"yes","recycling:glass_bottles":"yes","recycling:paper":"yes","recycling:plastic_bottles":"yes","recycling:scrap_metal":"yes","recycling_type":"container"}},"type":"Feature"},
	{"geometry":{"coordinates":[20.147149,46.264947],"type":"Point"},"properties":{"osm_id":"5415927899","tag":{"amenity":"waste_basket"}},"type":"Feature"},
	{"geometry":{"coordinates":[20.165974,46.274654],"type":"Point"},"properties":{"osm_id":"5570449167","tag":{"amenity":"recycling","description":"Cs\u00f6rl\u0151 utca 4/B-C","operator":"Szegedi Hullad\u00e9kgazd\u00e1lkod\u00e1si Nonprofit Kft.","recycling:glass_bottles":"yes","recycling:paper":"yes","recycling:plastic":"yes","recycling_type":"container"}},"type":"Feature"},
	{"geometry":{"coordinates":[20.147596,46.267994],"type":"Point"},"properties":{"osm_id":"5570488648","tag":{"amenity":"recycling","description":"Kod\u00e1ly t\u00e9r","operator":"Szegedi Hullad\u00e9kgazd\u00e1lkod\u00e1si Nonprofit Kft.","recycling:cans":"yes","recycling:glass_bottles":"yes","recycling:paper":"yes","recycling:plastic":"yes","recycling_type":"container"}},"type":"Feature"},
	{"geometry":{"coordinates":[20.16993,46.264663],"type":"Point"},"properties":{"osm_id":"5582511206","tag":{"amenity":"waste_basket"}},"type":"Feature"},
	{"geometry":{"coordinates":[20.16985,46.26467],"type":"Point"},"properties":{"osm_id":"5596031244","tag":{"amenity":"waste_basket"}},"type":"Feature"},
	{"geometry":{"coordinates":[20.160036,46.27282],"type":"Point"},"properties":{"name":"Haszn\u00c3\u00a1ltruha gy\u00c5\u00b1jt\u00c5\u0091kont\u00c3\u00a9ner","osm_id":"5838632450","tag":{"amenity":"recycling","recycling:clothes":"yes","recycling_type":"container"}},"type":"Feature"},
	{"geometry":{"coordinates":[20.1478,46.276201],"type":"Point"},"properties":{"osm_id":"5906752280","tag":{"amenity":"recycling","description":"Hont Ferenc utca 15 el\u0151tt","operator":"Szegedi Hullad\u00e9kgazd\u00e1lkod\u00e1si Nonprofit Kft.","recycling_type":"container"}},"type":"Feature"},
	{"geometry":{"coordinates":[20.140816,46.269932],"type":"Point"},"properties":{"osm_id":"5906753616","tag":{"amenity":"recycling","description":"Kukorica utca 12 el\u0151tt","operator":"Szegedi Hullad\u00e9kgazd\u00e1lkod\u00e1si Nonprofit Kft.","recycling_type":"container"}},"type":"Feature"},
	{"geometry":{"coordinates":[20.150726,46.268306],"type":"Point"},"properties":{"osm_id":"5906753686","tag":{"amenity":"recycling","description":"Csongr\u00e1di sug\u00e1r\u00fat 76-78 el\u0151tt","operator":"Szegedi Hullad\u00e9kgazd\u00e1lkod\u00e1si Nonprofit Kft.","recycling_type":"container"}},"type":"Feature"},
	{"geometry":{"coordinates":[20.189329,46.262798],"type":"Point"},"properties":{"osm_id":"5906753689","tag":{"amenity":"recycling","description":"Dobi Istv\u00e1n utca 17. el\u0151tt","operator":"Szegedi Hullad\u00e9kgazd\u00e1lkod\u00e1si Nonprofit Kft.","recycling_type":"container"}},"type":"Feature"},
	{"geometry":{"coordinates":[20.166545,46.267014],"type":"Point"},"properties":{"osm_id":"5906753697","tag":{"amenity":"recycling","description":"Budapesti krt. 4/a m\u00f6g\u00f6tt","operator":"Szegedi Hullad\u00e9kgazd\u00e1lkod\u00e1si Nonprofit Kft.","recycling_type":"container"}},"type":"Feature"},
	{"geometry":{"coordinates":[20.144309,46.25648],"type":"Point"},"properties":{"osm_id":"5906753699","tag":{"amenity":"recycling","description":"M\u00e9rey u-T\u00f6r\u00f6k u sarok (Megyeh\u00e1za \u00c9tterem mellett)","operator":"Szegedi Hullad\u00e9kgazd\u00e1lkod\u00e1si Nonprofit Kft.","recycling:cans":"yes","recycling:glass_bottles":"yes","recycling:paper":"yes","recycling:plastic":"yes","recycling_type":"container"}},"type":"Feature"},
	{"geometry":{"coordinates":[20.134,46.266101],"type":"Point"},"properties":{"osm_id":"5906753708","tag":{"amenity":"recycling","description":"Szatymazi utca-Kukovecz Nana utca sark\u00e1n","operator":"Szegedi Hullad\u00e9kgazd\u00e1lkod\u00e1si Nonprofit Kft.","recycling_type":"container"}},"type":"Feature"},
	{"geometry":{"coordinates":[20.1608,46.290499],"type":"Point"},"properties":{"osm_id":"5906753718","tag":{"amenity":"recycling","description":"V\u00f6lgy\u00e9rh\u00e1t utca 17. el\u0151tt","operator":"Szegedi Hullad\u00e9kgazd\u00e1lkod\u00e1si Nonprofit Kft.","recycling_type":"container"}},"type":"Feature"},
	{"geometry":{"coordinates":[20.131023,46.266802],"type":"Point"},"properties":{"osm_id":"6268533780","tag":{"amenity":"waste_basket"}},"type":"Feature"},
	{"geometry":{"coordinates":[20.193389,46.274325],"type":"Point"},"properties":{"barrier":"gate","osm_id":"6976173923"},"type":"Feature"}
]
}
