{
"type": "FeatureCollection",
"features": [
	{"geometry":{"coordinates":[20.12782,46.2535],"type":"Point"},"properties":{"osm_id":"2244600208","tag":{"amenity":"recycling","description":"K\u00c3\u00a1lv\u00c3\u00a1ria sgt. 53-55 Szikra lak\u00c3\u00b3park","location":"overground","operator":"Szegedi Hullad\u00c3\u00a9kgazd\u00c3\u00a1lkod\u00c3\u00a1si Nonprofit Kft.","recycling:PET":"yes","recycling:aluminium":"yes","recycling:cans":"yes","recycling:cardboard":"yes","recycling:glass_bottles":"yes","recycling:paper":"yes","recycling:plastic":"yes","recycling:plastic_bottles":"yes","recycling:plastic_packaging":"yes","recycling:scrap_metal":"yes","recycling_type":"container"}},"type":"Feature"},
	{"geometry":{"coordinates":[20.161523,46.243277],"type":"Point"},"properties":{"osm_id":"4014720615","tag":{"amenity":"recycling","description":"Csan\u00c3\u00a1di utca 13. el\u00c5\u0091tt","operator":"Szegedi Hullad\u00c3\u00a9kgazd\u00c3\u00a1lkod\u00c3\u00a1si Nonprofit Kft.","recycling:cans":"yes","recycling:glass_bottles":"yes","recycling:paper":"yes","recycling:plastic":"yes","recycling_type":"container"}},"type":"Feature"},
	{"geometry":{"coordinates":[20.167635,46.250299],"type":"Point"},"properties":{"osm_id":"4014732975","tag":{"amenity":"recycling","description":"D\u00c3\u00a9ryn\u00c3\u00a9 utca 4 COOP parkol\u00c3\u00b3ja","operator":"Szegedi Hullad\u00c3\u00a9kgazd\u00c3\u00a1lkod\u00c3\u00a1si Nonprofit Kft.","recycling:cans":"yes","recycling:glass_bottles":"yes","recycling:paper":"yes","recycling:plastic":"yes","recycling_type":"container"}},"type":"Feature"},
	{"geometry":{"coordinates":[20.160307,46.244273],"type":"Point"},"properties":{"osm_id":"4037441731","tag":{"amenity":"recycling","recycling:cans":"yes","recycling:glass":"yes","recycling:paper":"yes","recycling:plastic":"yes","recycling_type":"container"}},"type":"Feature"},
	{"geometry":{"coordinates":[20.173821,46.24513],"type":"Point"},"properties":{"osm_id":"4231000940","tag":{"amenity":"recycling","description":"V\u00c3\u00adztorony t\u00c3\u00a9ren","location":"overground","operator":"Szegedi Hullad\u00c3\u00a9kgazd\u00c3\u00a1lkod\u00c3\u00a1si Nonprofit Kft.","recycling:cans":"yes","recycling:glass_bottles":"yes","recycling:paper":"yes","recycling:plastic":"yes","recycling_type":"container"}},"type":"Feature"},
	{"geometry":{"coordinates":[20.14367,46.250991],"type":"Point"},"properties":{"osm_id":"4449223072","tag":{"amenity":"waste_basket"}},"type":"Feature"},
	{"geometry":{"coordinates":[20.131874,46.234574],"type":"Point"},"properties":{"osm_id":"4568723692","tag":{"amenity":"waste_basket"}},"type":"Feature"},
	{"geometry":{"coordinates":[20.166743,46.247946],"type":"Point"},"properties":{"osm_id":"4697498670","tag":{"amenity":"recycling","description":"Bal fasor 1 - Temesv\u00c3\u00a1ri krt. sarka","operator":"Szegedi Hullad\u00c3\u00a9kgazd\u00c3\u00a1lkod\u00c3\u00a1si Nonprofit Kft.","recycling:cans":"yes","recycling:glass_bottles":"yes","recycling:paper":"yes","recycling:plastic":"yes","recycling_type":"container"}},"type":"Feature"},
	{"geometry":{"coordinates":[20.135499,46.239888],"type":"Point"},"properties":{"osm_id":"4752301470","tag":{"amenity":"waste_basket"}},"type":"Feature"},
	{"geometry":{"coordinates":[20.138119,46.241881],"type":"Point"},"properties":{"osm_id":"4772231415","tag":{"amenity":"waste_basket"}},"type":"Feature"},
	{"geometry":{"coordinates":[20.138912,46.241581],"type":"Point"},"properties":{"osm_id":"4772231450","tag":{"amenity":"waste_basket"}},"type":"Feature"},
	{"geometry":{"coordinates":[20.141281,46.246992],"type":"Point"},"properties":{"osm_id":"4772563926","tag":{"amenity":"waste_basket"}},"type":"Feature"},
	{"geometry":{"coordinates":[20.132336,46.246584],"type":"Point"},"properties":{"osm_id":"4830283291","tag":{"amenity":"waste_basket"}},"type":"Feature"},
	{"geometry":{"coordinates":[20.132634,46.246762],"type":"Point"},"properties":{"osm_id":"4830283522","tag":{"amenity":"waste_basket"}},"type":"Feature"},
	{"geometry":{"coordinates":[20.131997,46.230261],"type":"Point"},"properties":{"osm_id":"4944602487","tag":{"amenity":"waste_basket"}},"type":"Feature"},
	{"geometry":{"coordinates":[20.157741,46.236314],"type":"Point"},"properties":{"osm_id":"4956652753","tag":{"amenity":"waste_basket"}},"type":"Feature"},
	{"geometry":{"coordinates":[20.160796,46.233654],"type":"Point"},"properties":{"osm_id":"4956653322","tag":{"amenity":"waste_basket"}},"type":"Feature"},
	{"geometry":{"coordinates":[20.160304,46.233192],"type":"Point"},"properties":{"osm_id":"4956653325","tag":{"amenity":"waste_basket"}},"type":"Feature"},
	{"geometry":{"coordinates":[20.158372,46.234345],"type":"Point"},"properties":{"osm_id":"4956653369","tag":{"amenity":"waste_basket"}},"type":"Feature"},
	{"geometry":{"coordinates":[20.147071,46.247771],"type":"Point"},"properties":{"osm_id":"5300793290","tag":{"amenity":"waste_basket"}},"type":"Feature"},
	{"geometry":{"coordinates":[20.150889,46.250504],"type":"Point"},"properties":{"osm_id":"5311900677","tag":{"amenity":"recycling","description":"B\u00c3\u00a9la utca 4 t\u00c3\u00b6mb bels\u00c5\u0091","operator":"Szegedi Hullad\u00c3\u00a9kgazd\u00c3\u00a1lkod\u00c3\u00a1si Nonprofit Kft.","recycling:PET":"yes","recycling:cans":"yes","recycling:cardboard":"yes","recycling:glass_bottles":"yes","recycling:paper":"yes","recycling:plastic_bottles":"yes","recycling:scrap_metal":"yes","recycling_type":"container"}},"type":"Feature"},
	{"geometry":{"coordinates":[20.136636,46.255054],"type":"Point"},"properties":{"osm_id":"5403632462","tag":{"amenity":"recycling","indoor":"yes","level":"-1","operator":"Spar","recycling:PET":"yes","recycling:batteries":"yes","recycling:cans":"yes","recycling:cardboard":"yes","recycling:glass_bottles":"yes","recycling:paper":"yes","recycling:plastic_bottles":"yes","recycling_type":"container","wheelchair":"yes"}},"type":"Feature"},
	{"geometry":{"coordinates":[20.149507,46.254668],"type":"Point"},"properties":{"osm_id":"5584381157","tag":{"amenity":"waste_basket"}},"type":"Feature"},
	{"geometry":{"coordinates":[20.146578,46.254429],"type":"Point"},"properties":{"osm_id":"5655587878","tag":{"amenity":"waste_disposal"}},"type":"Feature"},
	{"geometry":{"coordinates":[20.127773,46.253565],"type":"Point"},"properties":{"osm_id":"5701723460","tag":{"amenity":"waste_disposal","waste":"trash"}},"type":"Feature"},
	{"geometry":{"coordinates":[20.149696,46.25488],"type":"Point"},"properties":{"osm_id":"5829038645","tag":{"amenity":"waste_basket"}},"type":"Feature"},
	{"geometry":{"coordinates":[20.186014,46.236352],"type":"Point"},"properties":{"osm_id":"5906752276","tag":{"amenity":"recycling","description":"Hargitai utca 60 el\u00c5\u0091tt","operator":"Szegedi Hullad\u00c3\u00a9kgazd\u00c3\u00a1lkod\u00c3\u00a1si Nonprofit Kft.","recycling_type":"container"}},"type":"Feature"},
	{"geometry":{"coordinates":[20.146979,46.254265],"type":"Point"},"properties":{"osm_id":"5906753694","tag":{"amenity":"recycling","description":"K\u00c3\u00a1rolyi utca CBA el\u00c5\u0091tt","operator":"Szegedi Hullad\u00c3\u00a9kgazd\u00c3\u00a1lkod\u00c3\u00a1si Nonprofit Kft.","recycling:PET":"yes","recycling:aluminium":"yes","recycling:cans":"yes","recycling:cardboard":"yes","recycling:glass_bottles":"yes","recycling:paper":"yes","recycling:plastic":"yes","recycling:plastic_bottles":"yes","recycling:plastic_packaging":"yes","recycling:scrap_metal":"yes","recycling_type":"container"}},"type":"Feature"},
	{"geometry":{"coordinates":[20.158227,46.24472],"type":"Point"},"properties":{"osm_id":"5906753710","tag":{"amenity":"recycling","description":"Szolg\u00c3\u00a1ltat\u00c3\u00b3 sor","operator":"Szegedi Hullad\u00c3\u00a9kgazd\u00c3\u00a1lkod\u00c3\u00a1si Nonprofit Kft.","recycling_type":"container"}},"type":"Feature"},
	{"geometry":{"coordinates":[20.179981,46.238285],"type":"Point"},"properties":{"osm_id":"5906753722","tag":{"amenity":"recycling","description":"Erd\u00c3\u00a9lyi t\u00c3\u00a9ren","operator":"Szegedi Hullad\u00c3\u00a9kgazd\u00c3\u00a1lkod\u00c3\u00a1si Nonprofit Kft.","recycling_type":"container"}},"type":"Feature"},
	{"geometry":{"coordinates":[20.146549,46.247856],"type":"Point"},"properties":{"osm_id":"6152528617","tag":{"amenity":"waste_basket"}},"type":"Feature"},
	{"geometry":{"coordinates":[20.148415,46.24725],"type":"Point"},"properties":{"osm_id":"6262662126","tag":{"amenity":"waste_basket"}},"type":"Feature"},
	{"geometry":{"coordinates":[20.127537,46.240915],"type":"Point"},"properties":{"osm_id":"6282993203","tag":{"amenity":"waste_disposal"}},"type":"Feature"},
	{"geometry":{"coordinates":[20.14643,46.24926],"type":"Point"},"properties":{"osm_id":"6533563995","tag":{"amenity":"waste_basket"}},"type":"Feature"},
	{"geometry":{"coordinates":[20.138283,46.248236],"type":"Point"},"properties":{"osm_id":"6871281586","tag":{"amenity":"waste_basket"}},"type":"Feature"},
	{"geometry":{"coordinates":[20.138136,46.24913],"type":"Point"},"properties":{"osm_id":"6871281590","tag":{"amenity":"waste_basket"}},"type":"Feature"},
	{"geometry":{"coordinates":[20.138788,46.24673],"type":"Point"},"properties":{"osm_id":"6871554067","tag":{"amenity":"waste_basket"}},"type":"Feature"},
	{"geometry":{"coordinates":[20.137007,46.255137],"type":"Point"},"properties":{"osm_id":"7072400112","tag":{"amenity":"recycling","description":"A vev\u00c5\u0091szolg\u00c3\u00a1lati pultn\u00c3\u00a1l balra. Ha a hullad\u00c3\u00a9k egyik fi\u00c3\u00b3kba sem illik, szem\u00c3\u00a9lyesen is \u00c3\u00a1tadhat\u00c3\u00b3","level":"1","operator":"MediaMarkt","recycling:batteries":"yes","recycling:electrical_appliances":"yes","recycling:small_appliances":"yes","recycling_type":"container"}},"type":"Feature"},
	{"geometry":{"coordinates":[20.154702,46.249692],"type":"Point"},"properties":{"osm_id":"7848750543","tag":{"amenity":"waste_disposal"}},"type":"Feature"},
	{"geometry":{"coordinates":[20.154479,46.249172],"type":"Point"},"properties":{"osm_id":"7848750545","tag":{"amenity":"waste_basket"}},"type":"Feature"},
	{"geometry":{"coordinates":[20.135844,46.242524],"type":"Point"},"properties":{"osm_id":"7944185321","tag":{"amenity":"recycling","recycling:drugs":"yes","recycling_type":"container"}},"type":"Feature"},
	{"geometry":{"coordinates":[20.148004,46.250041],"type":"Point"},"properties":{"osm_id":"8243843883","tag":{"amenity":"waste_basket"}},"type":"Feature"},
	{"geometry":{"coordinates":[20.154673,46.249501],"type":"Point"},"properties":{"osm_id":"8858112588","tag":{"amenity":"waste_disposal"}},"type":"Feature"},
	{"geometry":{"coordinates":[20.154448,46.249443],"type":"Point"},"properties":{"osm_id":"8858112602","tag":{"amenity":"waste_basket"}},"type":"Feature"},
	{"geometry":{"coordinates":[20.154458,46.249353],"type":"Point"},"properties":{"osm_id":"8858112603","tag":{"amenity":"waste_basket"}},"type":"Feature"},
	{"geometry":{"coordinates":[20.154468,46.249263],"type":"Point"},"properties":{"osm_id":"8858112604","tag":{"amenity":"waste_basket"}},"type":"Feature"}
]
}
