{
"type": "FeatureCollection",
"features": [
	{"geometry":{"coordinates":[-112.005402,33.684234],"type":"Point"},"properties":{"highway":"crossing","osm_id":"850528311","tag":{"crossing":"traffic_signals"}},"type":"Feature"},
	{"geometry":{"coordinates":[-112.005346,33.679265],"type":"Point"},"properties":{"highway":"crossing","osm_id":"1406554476"},"type":"Feature"},
	{"geometry":{"coordinates":[-112.005343,33.680865],"type":"Point"},"properties":{"highway":"crossing","osm_id":"1406556887","tag":{"bicycle":"yes","crossing":"traffic_signals","horse":"yes","supervised":"no"}},"type":"Feature"},
	{"geometry":{"coordinates":[-111.980313,33.674245],"type":"Point"},"properties":{"osm_id":"2514659813","tag":{"amenity":"waste_basket"}},"type":"Feature"},
	{"geometry":{"coordinates":[-111.978847,33.674497],"type":"Point"},"properties":{"osm_id":"2517015871","tag":{"amenity":"waste_basket"}},"type":"Feature"},
	{"geometry":{"coordinates":[-111.978865,33.67453],"type":"Point"},"properties":{"osm_id":"2517015872","tag":{"amenity":"waste_basket"}},"type":"Feature"},
	{"geometry":{"coordinates":[-111.976522,33.679903],"type":"Point"},"properties":{"osm_id":"2517015880","tag":{"amenity":"waste_basket"}},"type":"Feature"},
	{"geometry":{"coordinates":[-111.976509,33.680107],"type":"Point"},"properties":{"osm_id":"2517015882","tag":{"amenity":"waste_basket"}},"type":"Feature"},
	{"geometry":{"coordinates":[-111.979811,33.681385],"type":"Point"},"properties":{"osm_id":"2517015914","tag":{"amenity":"waste_basket"}},"type":"Feature"},
	{"geometry":{"coordinates":[-112.005399,33.684087],"type":"Point"},"properties":{"highway":"crossing","osm_id":"3864702870","tag":{"crossing":"traffic_signals"}},"type":"Feature"},
	{"geometry":{"coordinates":[-112.005344,33.679827],"type":"Point"},"properties":{"highway":"crossing","osm_id":"4379542651"},"type":"Feature"},
	{"geometry":{"coordinates":[-111.977614,33.651275],"type":"Point"},"properties":{"osm_id":"4837011347","tag":{"amenity":"waste_basket"}},"type":"Feature"},
	{"geometry":{"coordinates":[-111.97719,33.65191],"type":"Point"},"properties":{"osm_id":"4837011348","tag":{"amenity":"waste_basket"}},"type":"Feature"},
	{"geometry":{"coordinates":[-111.977217,33.655697],"type":"Point"},"properties":{"osm_id":"4837011359","tag":{"amenity":"waste_basket"}},"type":"Feature"},
	{"geometry":{"coordinates":[-111.977683,33.654833],"type":"Point"},"properties":{"osm_id":"4837011364","tag":{"amenity":"waste_basket"}},"type":"Feature"},
	{"geometry":{"coordinates":[-111.977912,33.655369],"type":"Point"},"properties":{"osm_id":"4837011371","tag":{"amenity":"waste_basket"}},"type":"Feature"},
	{"geometry":{"coordinates":[-111.976917,33.668577],"type":"Point"},"properties":{"osm_id":"4837011382","tag":{"amenity":"waste_basket"}},"type":"Feature"},
	{"geometry":{"coordinates":[-111.977645,33.668146],"type":"Point"},"properties":{"osm_id":"4837011384","tag":{"amenity":"waste_basket"}},"type":"Feature"},
	{"geometry":{"coordinates":[-111.977618,33.676288],"type":"Point"},"properties":{"osm_id":"4837011397","tag":{"amenity":"waste_basket"}},"type":"Feature"},
	{"geometry":{"coordinates":[-111.977197,33.677366],"type":"Point"},"properties":{"osm_id":"4837011399","tag":{"amenity":"waste_basket"}},"type":"Feature"},
	{"geometry":{"coordinates":[-111.977521,33.679922],"type":"Point"},"properties":{"osm_id":"4837011405","tag":{"amenity":"waste_basket"}},"type":"Feature"},
	{"geometry":{"coordinates":[-112.026787,33.683518],"type":"Point"},"properties":{"osm_id":"4840824118","tag":{"amenity":"waste_basket"}},"type":"Feature"},
	{"geometry":{"coordinates":[-112.026832,33.683402],"type":"Point"},"properties":{"osm_id":"4840824119","tag":{"amenity":"waste_basket"}},"type":"Feature"},
	{"geometry":{"coordinates":[-112.026788,33.683317],"type":"Point"},"properties":{"osm_id":"4840824120","tag":{"amenity":"waste_basket"}},"type":"Feature"},
	{"geometry":{"coordinates":[-112.026777,33.683421],"type":"Point"},"properties":{"osm_id":"4840824121","tag":{"amenity":"waste_basket"}},"type":"Feature"},
	{"geometry":{"coordinates":[-112.026723,33.683331],"type":"Point"},"properties":{"osm_id":"4840824122","tag":{"amenity":"waste_basket"}},"type":"Feature"},
	{"geometry":{"coordinates":[-112.024035,33.681197],"type":"Point"},"properties":{"osm_id":"4840824134","tag":{"amenity":"waste_basket"}},"type":"Feature"},
	{"geometry":{"coordinates":[-112.012771,33.651654],"type":"Point"},"properties":{"osm_id":"5223689431","tag":{"amenity":"waste_basket"}},"type":"Feature"},
	{"geometry":{"coordinates":[-112.030005,33.678198],"type":"Point"},"properties":{"osm_id":"5816789803","tag":{"amenity":"waste_disposal"}},"type":"Feature"},
	{"geometry":{"coordinates":[-112.03077,33.679638],"type":"Point"},"properties":{"osm_id":"5816789804","tag":{"amenity":"waste_disposal"}},"type":"Feature"},
	{"geometry":{"coordinates":[-112.029508,33.678287],"type":"Point"},"properties":{"osm_id":"5816789807","tag":{"amenity":"waste_disposal"}},"type":"Feature"},
	{"geometry":{"coordinates":[-112.030027,33.677578],"type":"Point"},"properties":{"osm_id":"5816789808","tag":{"amenity":"waste_disposal"}},"type":"Feature"},
	{"geometry":{"coordinates":[-112.030864,33.668671],"type":"Point"},"properties":{"osm_id":"5833769268","tag":{"amenity":"waste_basket"}},"type":"Feature"},
	{"geometry":{"coordinates":[-112.030589,33.662687],"type":"Point"},"properties":{"osm_id":"5833770193","tag":{"amenity":"waste_basket"}},"type":"Feature"},
	{"geometry":{"coordinates":[-112.030711,33.659023],"type":"Point"},"properties":{"osm_id":"5833770209","tag":{"amenity":"waste_basket"}},"type":"Feature"},
	{"geometry":{"coordinates":[-112.030245,33.654848],"type":"Point"},"properties":{"osm_id":"5833770241","tag":{"amenity":"waste_basket"}},"type":"Feature"},
	{"geometry":{"coordinates":[-112.031356,33.655195],"type":"Point"},"properties":{"osm_id":"5833770248","tag":{"amenity":"waste_basket"}},"type":"Feature"},
	{"geometry":{"coordinates":[-112.030705,33.65569],"type":"Point"},"properties":{"osm_id":"5833770255","tag":{"amenity":"waste_basket"}},"type":"Feature"},
	{"geometry":{"coordinates":[-112.031095,33.654642],"type":"Point"},"properties":{"osm_id":"5833770256","tag":{"amenity":"waste_basket"}},"type":"Feature"},
	{"geometry":{"coordinates":[-112.031253,33.676435],"type":"Point"},"properties":{"osm_id":"5833770262","tag":{"amenity":"waste_basket"}},"type":"Feature"},
	{"geometry":{"coordinates":[-112.004546,33.655048],"type":"Point"},"properties":{"osm_id":"5834400956","tag":{"amenity":"waste_basket"}},"type":"Feature"},
	{"geometry":{"coordinates":[-112.005521,33.655301],"type":"Point"},"properties":{"osm_id":"5834400969","tag":{"amenity":"waste_basket"}},"type":"Feature"},
	{"geometry":{"coordinates":[-112.00964,33.655285],"type":"Point"},"properties":{"osm_id":"5834400976","tag":{"amenity":"waste_basket"}},"type":"Feature"},
	{"geometry":{"coordinates":[-112.008792,33.655031],"type":"Point"},"properties":{"osm_id":"5834400982","tag":{"amenity":"waste_basket"}},"type":"Feature"},
	{"geometry":{"coordinates":[-112.013835,33.654749],"type":"Point"},"properties":{"osm_id":"5834401390","tag":{"amenity":"waste_basket"}},"type":"Feature"},
	{"geometry":{"coordinates":[-112.014116,33.655286],"type":"Point"},"properties":{"osm_id":"5834401396","tag":{"amenity":"waste_basket"}},"type":"Feature"},
	{"geometry":{"coordinates":[-112.013092,33.654946],"type":"Point"},"properties":{"osm_id":"5834401398","tag":{"amenity":"waste_basket"}},"type":"Feature"},
	{"geometry":{"coordinates":[-112.018119,33.655232],"type":"Point"},"properties":{"osm_id":"5834401410","tag":{"amenity":"waste_basket"}},"type":"Feature"},
	{"geometry":{"coordinates":[-112.015985,33.654985],"type":"Point"},"properties":{"osm_id":"5834401417","tag":{"amenity":"waste_basket"}},"type":"Feature"},
	{"geometry":{"coordinates":[-112.021813,33.654966],"type":"Point"},"properties":{"osm_id":"5834401432","tag":{"amenity":"waste_basket"}},"type":"Feature"},
	{"geometry":{"coordinates":[-112.022672,33.655207],"type":"Point"},"properties":{"osm_id":"5834401433","tag":{"amenity":"waste_basket"}},"type":"Feature"},
	{"geometry":{"coordinates":[-112.025176,33.654945],"type":"Point"},"properties":{"osm_id":"5834401447","tag":{"amenity":"waste_basket"}},"type":"Feature"},
	{"geometry":{"coordinates":[-112.027447,33.655174],"type":"Point"},"properties":{"osm_id":"5834401453","tag":{"amenity":"waste_basket"}},"type":"Feature"},
	{"geometry":{"coordinates":[-112.030713,33.65167],"type":"Point"},"properties":{"osm_id":"5834401482","tag":{"amenity":"waste_basket"}},"type":"Feature"},
	{"geometry":{"coordinates":[-112.035129,33.65488],"type":"Point"},"properties":{"osm_id":"5834401505","tag":{"amenity":"waste_basket"}},"type":"Feature"},
	{"geometry":{"coordinates":[-112.035737,33.655126],"type":"Point"},"properties":{"osm_id":"5834401511","tag":{"amenity":"waste_basket"}},"type":"Feature"},
	{"geometry":{"coordinates":[-112.040041,33.655101],"type":"Point"},"properties":{"osm_id":"5834401513","tag":{"amenity":"waste_basket"}},"type":"Feature"},
	{"geometry":{"coordinates":[-112.043959,33.654831],"type":"Point"},"properties":{"osm_id":"5834401560","tag":{"amenity":"waste_basket"}},"type":"Feature"},
	{"geometry":{"coordinates":[-112.048896,33.655047],"type":"Point"},"properties":{"osm_id":"5834401566","tag":{"amenity":"waste_basket"}},"type":"Feature"},
	{"geometry":{"coordinates":[-112.047876,33.654815],"type":"Point"},"properties":{"osm_id":"5834401572","tag":{"amenity":"waste_basket"}},"type":"Feature"},
	{"geometry":{"coordinates":[-112.044729,33.655079],"type":"Point"},"properties":{"osm_id":"5834401578","tag":{"amenity":"waste_basket"}},"type":"Feature"},
	{"geometry":{"coordinates":[-112.056594,33.654709],"type":"Point"},"properties":{"osm_id":"5834401584","tag":{"amenity":"waste_basket"}},"type":"Feature"},
	{"geometry":{"coordinates":[-112.057367,33.654957],"type":"Point"},"properties":{"osm_id":"5834401585","tag":{"amenity":"waste_basket"}},"type":"Feature"},
	{"geometry":{"coordinates":[-111.982199,33.655091],"type":"Point"},"properties":{"osm_id":"5835796463","tag":{"amenity":"waste_basket"}},"type":"Feature"},
	{"geometry":{"coordinates":[-111.982989,33.655328],"type":"Point"},"properties":{"osm_id":"5835796469","tag":{"amenity":"waste_basket"}},"type":"Feature"},
	{"geometry":{"coordinates":[-111.985751,33.655086],"type":"Point"},"properties":{"osm_id":"5835796477","tag":{"amenity":"waste_basket"}},"type":"Feature"},
	{"geometry":{"coordinates":[-111.98643,33.655333],"type":"Point"},"properties":{"osm_id":"5835796483","tag":{"amenity":"waste_basket"}},"type":"Feature"},
	{"geometry":{"coordinates":[-111.991384,33.655113],"type":"Point"},"properties":{"osm_id":"5835797189","tag":{"amenity":"waste_basket"}},"type":"Feature"},
	{"geometry":{"coordinates":[-111.991941,33.655339],"type":"Point"},"properties":{"osm_id":"5835797195","tag":{"amenity":"waste_basket"}},"type":"Feature"},
	{"geometry":{"coordinates":[-111.996411,33.654811],"type":"Point"},"properties":{"osm_id":"5835797203","tag":{"amenity":"waste_basket"}},"type":"Feature"},
	{"geometry":{"coordinates":[-111.995593,33.6551],"type":"Point"},"properties":{"osm_id":"5835797209","tag":{"amenity":"waste_basket"}},"type":"Feature"},
	{"geometry":{"coordinates":[-111.996922,33.655357],"type":"Point"},"properties":{"osm_id":"5835797210","tag":{"amenity":"waste_basket"}},"type":"Feature"},
	{"geometry":{"coordinates":[-111.996382,33.651336],"type":"Point"},"properties":{"osm_id":"6056557685","tag":{"amenity":"waste_basket"}},"type":"Feature"},
	{"geometry":{"coordinates":[-111.996117,33.651799],"type":"Point"},"properties":{"osm_id":"6056557687","tag":{"amenity":"waste_basket"}},"type":"Feature"},
	{"geometry":{"coordinates":[-112.013749,33.65156],"type":"Point"},"properties":{"osm_id":"6157829851","tag":{"amenity":"waste_basket"}},"type":"Feature"},
	{"geometry":{"coordinates":[-112.014907,33.669024],"type":"Point"},"properties":{"osm_id":"6981973733","tag":{"amenity":"waste_disposal"}},"type":"Feature"},
	{"geometry":{"coordinates":[-112.01488,33.669018],"type":"Point"},"properties":{"osm_id":"6981973734","tag":{"amenity":"waste_disposal"}},"type":"Feature"},
	{"geometry":{"coordinates":[-111.977749,33.677791],"type":"Point"},"properties":{"osm_id":"7557591127","tag":{"amenity":"waste_disposal"}},"type":"Feature"},
	{"geometry":{"coordinates":[-111.976298,33.679891],"type":"Point"},"properties":{"osm_id":"7557591154","tag":{"amenity":"waste_disposal"}},"type":"Feature"},
	{"geometry":{"coordinates":[-112.02646,33.702904],"type":"Point"},"properties":{"osm_id":"7557643369","tag":{"amenity":"waste_disposal"}},"type":"Feature"},
	{"geometry":{"coordinates":[-112.026434,33.702864],"type":"Point"},"properties":{"osm_id":"7557643370","tag":{"amenity":"waste_disposal"}},"type":"Feature"},
	{"geometry":{"coordinates":[-112.025809,33.703746],"type":"Point"},"properties":{"osm_id":"7557643371","tag":{"amenity":"waste_disposal"}},"type":"Feature"},
	{"geometry":{"coordinates":[-112.025754,33.70378],"type":"Point"},"properties":{"osm_id":"7557643372","tag":{"amenity":"waste_disposal"}},"type":"Feature"},
	{"geometry":{"coordinates":[-112.025921,33.704159],"type":"Point"},"properties":{"osm_id":"7557643373","tag":{"amenity":"waste_disposal"}},"type":"Feature"},
	{"geometry":{"coordinates":[-112.02596,33.704135],"type":"Point"},"properties":{"osm_id":"7557643374","tag":{"amenity":"waste_disposal"}},"type":"Feature"},
	{"geometry":{"coordinates":[-112.025429,33.704171],"type":"Point"},"properties":{"osm_id":"7557643375","tag":{"amenity":"waste_disposal"}},"type":"Feature"},
	{"geometry":{"coordinates":[-112.025393,33.704157],"type":"Point"},"properties":{"osm_id":"7557643376","tag":{"amenity":"waste_disposal"}},"type":"Feature"},
	{"geometry":{"coordinates":[-112.025445,33.70456],"type":"Point"},"properties":{"osm_id":"7557643377","tag":{"amenity":"waste_disposal"}},"type":"Feature"},
	{"geometry":{"coordinates":[-112.025491,33.704535],"type":"Point"},"properties":{"osm_id":"7557643378","tag":{"amenity":"waste_disposal"}},"type":"Feature"},
	{"geometry":{"coordinates":[-112.024989,33.704874],"type":"Point"},"properties":{"osm_id":"7557643379","tag":{"amenity":"waste_disposal"}},"type":"Feature"},
	{"geometry":{"coordinates":[-112.024959,33.70485],"type":"Point"},"properties":{"osm_id":"7557643380","tag":{"amenity":"waste_disposal"}},"type":"Feature"},
	{"geometry":{"coordinates":[-112.024089,33.703769],"type":"Point"},"properties":{"osm_id":"7557643381","tag":{"amenity":"waste_disposal"}},"type":"Feature"},
	{"geometry":{"coordinates":[-112.024106,33.703741],"type":"Point"},"properties":{"osm_id":"7557643382","tag":{"amenity":"waste_disposal"}},"type":"Feature"},
	{"geometry":{"coordinates":[-112.024428,33.703282],"type":"Point"},"properties":{"osm_id":"7557643383","tag":{"amenity":"waste_disposal"}},"type":"Feature"},
	{"geometry":{"coordinates":[-112.02445,33.703254],"type":"Point"},"properties":{"osm_id":"7557643384","tag":{"amenity":"waste_disposal"}},"type":"Feature"},
	{"geometry":{"coordinates":[-112.024737,33.702837],"type":"Point"},"properties":{"osm_id":"7557653185","tag":{"amenity":"waste_disposal"}},"type":"Feature"},
	{"geometry":{"coordinates":[-112.024769,33.70279],"type":"Point"},"properties":{"osm_id":"7557653186","tag":{"amenity":"waste_disposal"}},"type":"Feature"},
	{"geometry":{"coordinates":[-112.025167,33.702215],"type":"Point"},"properties":{"osm_id":"7557653187","tag":{"amenity":"waste_disposal"}},"type":"Feature"},
	{"geometry":{"coordinates":[-112.025218,33.7022],"type":"Point"},"properties":{"osm_id":"7557653188","tag":{"amenity":"waste_disposal"}},"type":"Feature"},
	{"geometry":{"coordinates":[-112.025305,33.703086],"type":"Point"},"properties":{"osm_id":"7557653189","tag":{"amenity":"waste_disposal"}},"type":"Feature"},
	{"geometry":{"coordinates":[-112.025329,33.703057],"type":"Point"},"properties":{"osm_id":"7557653190","tag":{"amenity":"waste_disposal"}},"type":"Feature"},
	{"geometry":{"coordinates":[-112.026058,33.702701],"type":"Point"},"properties":{"osm_id":"7557653191","tag":{"amenity":"waste_disposal"}},"type":"Feature"},
	{"geometry":{"coordinates":[-112.026017,33.702664],"type":"Point"},"properties":{"osm_id":"7557653193","tag":{"amenity":"waste_disposal"}},"type":"Feature"},
	{"geometry":{"coordinates":[-112.02758,33.702634],"type":"Point"},"properties":{"osm_id":"7557653194","tag":{"amenity":"waste_disposal"}},"type":"Feature"},
	{"geometry":{"coordinates":[-112.027641,33.702594],"type":"Point"},"properties":{"osm_id":"7557653195","tag":{"amenity":"waste_disposal"}},"type":"Feature"},
	{"geometry":{"coordinates":[-112.026836,33.703377],"type":"Point"},"properties":{"osm_id":"7557653196","tag":{"amenity":"waste_disposal"}},"type":"Feature"},
	{"geometry":{"coordinates":[-112.026878,33.703352],"type":"Point"},"properties":{"osm_id":"7557653197","tag":{"amenity":"waste_disposal"}},"type":"Feature"},
	{"geometry":{"coordinates":[-112.026372,33.70376],"type":"Point"},"properties":{"osm_id":"7557653198","tag":{"amenity":"waste_disposal"}},"type":"Feature"},
	{"geometry":{"coordinates":[-112.02642,33.703735],"type":"Point"},"properties":{"osm_id":"7557653199","tag":{"amenity":"waste_disposal"}},"type":"Feature"},
	{"geometry":{"coordinates":[-112.027887,33.70235],"type":"Point"},"properties":{"osm_id":"7557653200","tag":{"amenity":"waste_disposal"}},"type":"Feature"},
	{"geometry":{"coordinates":[-112.027932,33.702326],"type":"Point"},"properties":{"osm_id":"7557653201","tag":{"amenity":"waste_disposal"}},"type":"Feature"},
	{"geometry":{"coordinates":[-112.028133,33.701801],"type":"Point"},"properties":{"osm_id":"7557653202","tag":{"amenity":"waste_disposal"}},"type":"Feature"},
	{"geometry":{"coordinates":[-112.028141,33.701758],"type":"Point"},"properties":{"osm_id":"7557653203","tag":{"amenity":"waste_disposal"}},"type":"Feature"}
]
}
