{
"type": "FeatureCollection",
"features": [
	{"geometry":{"coordinates":[-8.049088,43.245033],"type":"Point"},"properties":{"osm_id":"4817878191","tag":{"amenity":"waste_disposal"}},"type":"Feature"},
	{"geometry":{"coordinates":[-8.04987,43.244962],"type":"Point"},"properties":{"name":"Inorg\u00c3\u00a1nico","osm_id":"4817878192","tag":{"amenity":"waste_disposal"}},"type":"Feature"},
	{"geometry":{"coordinates":[-8.049845,43.244962],"type":"Point"},"properties":{"name":"Org\u00c3\u00a1nico","osm_id":"4817878193","tag":{"amenity":"waste_disposal"}},"type":"Feature"},
	{"geometry":{"coordinates":[-8.052138,43.244477],"type":"Point"},"properties":{"name":"Vidrio","osm_id":"4817878194","tag":{"amenity":"waste_disposal"}},"type":"Feature"},
	{"geometry":{"coordinates":[-8.05116,43.24444],"type":"Point"},"properties":{"name":"Papel e cart\u00c3\u00b3n","osm_id":"4817878195","tag":{"amenity":"waste_disposal"}},"type":"Feature"},
	{"geometry":{"coordinates":[-8.0499,43.244259],"type":"Point"},"properties":{"name":"Org\u00c3\u00a1nico","osm_id":"4817878196","tag":{"amenity":"waste_disposal"}},"type":"Feature"},
	{"geometry":{"coordinates":[-8.050535,43.243363],"type":"Point"},"properties":{"name":"Org\u00c3\u00a1nico","osm_id":"4817878197","tag":{"amenity":"waste_disposal"}},"type":"Feature"},
	{"geometry":{"coordinates":[-8.050611,43.242715],"type":"Point"},"properties":{"name":"Org\u00c3\u00a1nico","osm_id":"4817878198","tag":{"amenity":"waste_disposal"}},"type":"Feature"},
	{"geometry":{"coordinates":[-8.051672,43.241659],"type":"Point"},"properties":{"name":"Org\u00c3\u00a1nico","osm_id":"4817878199","tag":{"amenity":"waste_disposal"}},"type":"Feature"},
	{"geometry":{"coordinates":[-8.051681,43.241674],"type":"Point"},"properties":{"name":"Inorg\u00c3\u00a1nico","osm_id":"4817878200","tag":{"amenity":"waste_disposal"}},"type":"Feature"},
	{"geometry":{"coordinates":[-8.053655,43.241436],"type":"Point"},"properties":{"name":"Org\u00c3\u00a1nico","osm_id":"4817878201","tag":{"amenity":"waste_disposal"}},"type":"Feature"},
	{"geometry":{"coordinates":[-8.052362,43.238857],"type":"Point"},"properties":{"name":"Org\u00c3\u00a1nico","osm_id":"4817878202","tag":{"amenity":"waste_disposal"}},"type":"Feature"},
	{"geometry":{"coordinates":[-8.045445,43.241679],"type":"Point"},"properties":{"name":"Org\u00c3\u00a1nico","osm_id":"4817878203","tag":{"amenity":"waste_disposal"}},"type":"Feature"},
	{"geometry":{"coordinates":[-8.048132,43.245746],"type":"Point"},"properties":{"name":"Org\u00c3\u00a1nico","osm_id":"4817878204","tag":{"amenity":"waste_disposal"}},"type":"Feature"},
	{"geometry":{"coordinates":[-8.014853,43.232044],"type":"Point"},"properties":{"name":"Inorg\u00c3\u00a1nico","osm_id":"4817930091","tag":{"amenity":"waste_disposal"}},"type":"Feature"},
	{"geometry":{"coordinates":[-8.01486,43.232028],"type":"Point"},"properties":{"name":"Org\u00c3\u00a1nico","osm_id":"4817930092","tag":{"amenity":"waste_disposal"}},"type":"Feature"},
	{"geometry":{"coordinates":[-8.016363,43.233573],"type":"Point"},"properties":{"name":"Inorg\u00c3\u00a1nico","osm_id":"4817930093","tag":{"amenity":"waste_disposal"}},"type":"Feature"},
	{"geometry":{"coordinates":[-8.016381,43.233574],"type":"Point"},"properties":{"name":"Org\u00c3\u00a1nico","osm_id":"4817930094","tag":{"amenity":"waste_disposal"}},"type":"Feature"},
	{"geometry":{"coordinates":[-8.016343,43.23357],"type":"Point"},"properties":{"name":"Vidrio","osm_id":"4817930095","tag":{"amenity":"waste_disposal"}},"type":"Feature"},
	{"geometry":{"coordinates":[-8.016324,43.233569],"type":"Point"},"properties":{"name":"Papel e cart\u00c3\u00b3n","osm_id":"4817930096","tag":{"amenity":"waste_disposal"}},"type":"Feature"},
	{"geometry":{"coordinates":[-8.052434,43.244914],"type":"Point"},"properties":{"name":"Org\u00c3\u00a1nico","osm_id":"4817930097","tag":{"amenity":"waste_disposal"}},"type":"Feature"},
	{"geometry":{"coordinates":[-8.051327,43.244439],"type":"Point"},"properties":{"name":"Org\u00c3\u00a1nico","osm_id":"5596107386","tag":{"amenity":"waste_disposal"}},"type":"Feature"},
	{"geometry":{"coordinates":[-8.051352,43.244439],"type":"Point"},"properties":{"name":"Inorg\u00c3\u00a1nico","osm_id":"5596107387","tag":{"amenity":"waste_disposal"}},"type":"Feature"}
]
}
