{
"type": "FeatureCollection",
"features": [
	{"geometry":{"coordinates":[-53.307373,-23.776772],"type":"Point"},"properties":{"name":"Ip\u00c3\u00aa Roxo","osm_id":"4697848433","tag":{"addr:city":"Umuarama","addr:postcode":"87506-122","addr:street":"Rua Eid Abou Saab","addr:suburb":"Parque Cidade Jardim","denotation":"urban","description":"Nome cient\u00c3\u00adfico: Handroanthus impetiginosus Classifica\u00c3\u00a7\u00c3\u00a3o superior: Handroanthus Classifica\u00c3\u00a7\u00c3\u00a3o: esp\u00c3\u00a9cie Esp\u00c3\u00a9cie: H. impetiginosus Fam\u00c3\u00adlia:  Bignoniaceae","natural":"tree"}},"type":"Feature"},
	{"geometry":{"coordinates":[-53.307116,-23.776541],"type":"Point"},"properties":{"name":"Ip\u00c3\u00aa Roxo","osm_id":"4717432655","tag":{"addr:city":"Umuarama","addr:postcode":"87506-122","addr:street":"Rua Eid Abou Saab","addr:suburb":"Parque Cidade Jardim","denotation":"urban","description":"Nome cient\u00c3\u00adfico: Handroanthus impetiginosus Classifica\u00c3\u00a7\u00c3\u00a3o superior: Handroanthus Classifica\u00c3\u00a7\u00c3\u00a3o: esp\u00c3\u00a9cie Classifica\u00c3\u00a7\u00c3\u00a3o: esp\u00c3\u00a9cie Esp\u00c3\u00a9cie: H. impetiginosus Fam\u00c3\u00adlia:  Bignoniaceae","natural":"tree"}},"type":"Feature"},
	{"geometry":{"coordinates":[-53.309241,-23.763393],"type":"Point"},"properties":{"osm_id":"4931778583","tag":{"natural":"tree"}},"type":"Feature"},
	{"geometry":{"coordinates":[-53.309063,-23.763495],"type":"Point"},"properties":{"osm_id":"4931778584","tag":{"natural":"tree"}},"type":"Feature"},
	{"geometry":{"coordinates":[-53.308869,-23.763594],"type":"Point"},"properties":{"osm_id":"4931778585","tag":{"natural":"tree"}},"type":"Feature"},
	{"geometry":{"coordinates":[-53.30875,-23.763659],"type":"Point"},"properties":{"osm_id":"4931778586","tag":{"natural":"tree"}},"type":"Feature"},
	{"geometry":{"coordinates":[-53.308663,-23.76371],"type":"Point"},"properties":{"osm_id":"4931778587","tag":{"natural":"tree"}},"type":"Feature"},
	{"geometry":{"coordinates":[-53.308277,-23.763907],"type":"Point"},"properties":{"osm_id":"4931778588","tag":{"natural":"tree"}},"type":"Feature"},
	{"geometry":{"coordinates":[-53.307342,-23.764132],"type":"Point"},"properties":{"osm_id":"4931778596","tag":{"natural":"tree"}},"type":"Feature"},
	{"geometry":{"coordinates":[-53.306662,-23.764723],"type":"Point"},"properties":{"osm_id":"4931778597","tag":{"natural":"tree"}},"type":"Feature"},
	{"geometry":{"coordinates":[-53.306064,-23.765034],"type":"Point"},"properties":{"osm_id":"4931778598","tag":{"natural":"tree"}},"type":"Feature"},
	{"geometry":{"coordinates":[-53.305906,-23.765132],"type":"Point"},"properties":{"osm_id":"4931778599","tag":{"natural":"tree"}},"type":"Feature"},
	{"geometry":{"coordinates":[-53.305809,-23.765177],"type":"Point"},"properties":{"osm_id":"4931778600","tag":{"natural":"tree"}},"type":"Feature"},
	{"geometry":{"coordinates":[-53.305583,-23.765303],"type":"Point"},"properties":{"osm_id":"4931778601","tag":{"natural":"tree"}},"type":"Feature"},
	{"geometry":{"coordinates":[-53.304834,-23.765671],"type":"Point"},"properties":{"osm_id":"4931778602","tag":{"natural":"tree"}},"type":"Feature"},
	{"geometry":{"coordinates":[-53.304577,-23.765586],"type":"Point"},"properties":{"osm_id":"4931778603","tag":{"natural":"tree"}},"type":"Feature"},
	{"geometry":{"coordinates":[-53.304557,-23.764979],"type":"Point"},"properties":{"osm_id":"4931778604","tag":{"natural":"tree"}},"type":"Feature"},
	{"geometry":{"coordinates":[-53.310288,-23.761819],"type":"Point"},"properties":{"osm_id":"4932459045","tag":{"natural":"tree"}},"type":"Feature"},
	{"geometry":{"coordinates":[-53.310099,-23.761769],"type":"Point"},"properties":{"osm_id":"4932459046","tag":{"natural":"tree"}},"type":"Feature"},
	{"geometry":{"coordinates":[-53.309932,-23.761735],"type":"Point"},"properties":{"osm_id":"4932459047","tag":{"natural":"tree"}},"type":"Feature"},
	{"geometry":{"coordinates":[-53.30856,-23.761375],"type":"Point"},"properties":{"osm_id":"4932459048","tag":{"natural":"tree"}},"type":"Feature"},
	{"geometry":{"coordinates":[-53.308392,-23.76133],"type":"Point"},"properties":{"osm_id":"4932459049","tag":{"natural":"tree"}},"type":"Feature"},
	{"geometry":{"coordinates":[-53.308277,-23.761308],"type":"Point"},"properties":{"osm_id":"4932459050","tag":{"natural":"tree"}},"type":"Feature"},
	{"geometry":{"coordinates":[-53.304894,-23.762327],"type":"Point"},"properties":{"osm_id":"4933572112","tag":{"denotation":"urban","leaf_type":"needleleaved","natural":"tree"}},"type":"Feature"},
	{"geometry":{"coordinates":[-53.305099,-23.762342],"type":"Point"},"properties":{"osm_id":"4933572113","tag":{"denotation":"urban","leaf_cycle":"evergreen","leaf_type":"needleleaved","natural":"tree"}},"type":"Feature"},
	{"geometry":{"coordinates":[-53.305207,-23.762383],"type":"Point"},"properties":{"osm_id":"4933572114","tag":{"denotation":"urban","leaf_cycle":"evergreen","leaf_type":"needleleaved","natural":"tree"}},"type":"Feature"},
	{"geometry":{"coordinates":[-53.304528,-23.762249],"type":"Point"},"properties":{"osm_id":"4933572115","tag":{"denotation":"urban","natural":"tree"}},"type":"Feature"},
	{"geometry":{"coordinates":[-53.302725,-23.760007],"type":"Point"},"properties":{"osm_id":"4934607523","tag":{"natural":"tree"}},"type":"Feature"},
	{"geometry":{"coordinates":[-53.302904,-23.759825],"type":"Point"},"properties":{"osm_id":"4934607524","tag":{"natural":"tree"}},"type":"Feature"},
	{"geometry":{"coordinates":[-53.302887,-23.760014],"type":"Point"},"properties":{"osm_id":"4934607525","tag":{"natural":"tree"}},"type":"Feature"},
	{"geometry":{"coordinates":[-53.302854,-23.75975],"type":"Point"},"properties":{"osm_id":"4934607526","tag":{"natural":"tree"}},"type":"Feature"},
	{"geometry":{"coordinates":[-53.302627,-23.759853],"type":"Point"},"properties":{"osm_id":"4934607527","tag":{"natural":"tree"}},"type":"Feature"},
	{"geometry":{"coordinates":[-53.302702,-23.759726],"type":"Point"},"properties":{"osm_id":"4934607528","tag":{"natural":"tree"}},"type":"Feature"},
	{"geometry":{"coordinates":[-53.303058,-23.759878],"type":"Point"},"properties":{"osm_id":"4934607529","tag":{"natural":"tree"}},"type":"Feature"},
	{"geometry":{"coordinates":[-53.303092,-23.759972],"type":"Point"},"properties":{"osm_id":"4934607530","tag":{"natural":"tree"}},"type":"Feature"},
	{"geometry":{"coordinates":[-53.302981,-23.759985],"type":"Point"},"properties":{"osm_id":"4934607531","tag":{"natural":"tree"}},"type":"Feature"},
	{"geometry":{"coordinates":[-53.302881,-23.75964],"type":"Point"},"properties":{"osm_id":"4934607532","tag":{"natural":"tree"}},"type":"Feature"},
	{"geometry":{"coordinates":[-53.302565,-23.759794],"type":"Point"},"properties":{"osm_id":"4934607533","tag":{"natural":"tree"}},"type":"Feature"},
	{"geometry":{"coordinates":[-53.302875,-23.760252],"type":"Point"},"properties":{"osm_id":"4934607534","tag":{"denotation":"urban","leaf_type":"leafless","natural":"tree"}},"type":"Feature"},
	{"geometry":{"coordinates":[-53.302236,-23.759875],"type":"Point"},"properties":{"osm_id":"4934607535","tag":{"natural":"tree"}},"type":"Feature"},
	{"geometry":{"coordinates":[-53.302304,-23.759657],"type":"Point"},"properties":{"osm_id":"4934607536","tag":{"natural":"tree"}},"type":"Feature"},
	{"geometry":{"coordinates":[-53.303187,-23.759897],"type":"Point"},"properties":{"osm_id":"4934607556","tag":{"natural":"tree"}},"type":"Feature"},
	{"geometry":{"coordinates":[-53.30491,-23.764719],"type":"Point"},"properties":{"osm_id":"4937919067","tag":{"natural":"tree"}},"type":"Feature"},
	{"geometry":{"coordinates":[-53.305228,-23.764571],"type":"Point"},"properties":{"osm_id":"4937919068","tag":{"natural":"tree"}},"type":"Feature"},
	{"geometry":{"coordinates":[-53.305522,-23.764401],"type":"Point"},"properties":{"osm_id":"4937919069","tag":{"natural":"tree"}},"type":"Feature"},
	{"geometry":{"coordinates":[-53.305674,-23.764329],"type":"Point"},"properties":{"osm_id":"4937919070","tag":{"natural":"tree"}},"type":"Feature"},
	{"geometry":{"coordinates":[-53.305813,-23.764268],"type":"Point"},"properties":{"osm_id":"4937919071","tag":{"natural":"tree"}},"type":"Feature"},
	{"geometry":{"coordinates":[-53.304368,-23.764218],"type":"Point"},"properties":{"osm_id":"4937919072","tag":{"natural":"tree"}},"type":"Feature"},
	{"geometry":{"coordinates":[-53.304309,-23.763993],"type":"Point"},"properties":{"osm_id":"4937919073","tag":{"natural":"tree"}},"type":"Feature"},
	{"geometry":{"coordinates":[-53.304514,-23.763887],"type":"Point"},"properties":{"osm_id":"4937919074","tag":{"natural":"tree"}},"type":"Feature"},
	{"geometry":{"coordinates":[-53.304727,-23.763793],"type":"Point"},"properties":{"osm_id":"4937919075","tag":{"natural":"tree"}},"type":"Feature"},
	{"geometry":{"coordinates":[-53.30518,-23.763549],"type":"Point"},"properties":{"osm_id":"4937919076","tag":{"natural":"tree"}},"type":"Feature"},
	{"geometry":{"coordinates":[-53.304921,-23.763683],"type":"Point"},"properties":{"osm_id":"4937919077","tag":{"natural":"tree"}},"type":"Feature"},
	{"geometry":{"coordinates":[-53.305839,-23.763248],"type":"Point"},"properties":{"osm_id":"4937919078","tag":{"natural":"tree"}},"type":"Feature"},
	{"geometry":{"coordinates":[-53.305912,-23.76318],"type":"Point"},"properties":{"osm_id":"4937919079","tag":{"natural":"tree"}},"type":"Feature"},
	{"geometry":{"coordinates":[-53.303208,-23.76188],"type":"Point"},"properties":{"osm_id":"4937919080","tag":{"natural":"tree"}},"type":"Feature"},
	{"geometry":{"coordinates":[-53.302497,-23.761689],"type":"Point"},"properties":{"osm_id":"4937919081","tag":{"natural":"tree"}},"type":"Feature"},
	{"geometry":{"coordinates":[-53.302718,-23.761533],"type":"Point"},"properties":{"osm_id":"4937919082","tag":{"natural":"tree"}},"type":"Feature"},
	{"geometry":{"coordinates":[-53.303438,-23.761735],"type":"Point"},"properties":{"osm_id":"4937919083","tag":{"natural":"tree"}},"type":"Feature"},
	{"geometry":{"coordinates":[-53.304134,-23.761052],"type":"Point"},"properties":{"osm_id":"4937919084","tag":{"natural":"tree"}},"type":"Feature"},
	{"geometry":{"coordinates":[-53.304178,-23.760927],"type":"Point"},"properties":{"osm_id":"4937919085","tag":{"natural":"tree"}},"type":"Feature"},
	{"geometry":{"coordinates":[-53.304476,-23.760885],"type":"Point"},"properties":{"osm_id":"4937919086","tag":{"natural":"tree"}},"type":"Feature"},
	{"geometry":{"coordinates":[-53.304636,-23.761219],"type":"Point"},"properties":{"osm_id":"4937919087","tag":{"natural":"tree"}},"type":"Feature"},
	{"geometry":{"coordinates":[-53.304336,-23.761459],"type":"Point"},"properties":{"osm_id":"4937919088","tag":{"natural":"tree"}},"type":"Feature"},
	{"geometry":{"coordinates":[-53.305737,-23.760556],"type":"Point"},"properties":{"osm_id":"4937919090","tag":{"natural":"tree"}},"type":"Feature"},
	{"geometry":{"coordinates":[-53.305208,-23.760664],"type":"Point"},"properties":{"osm_id":"4937919091","tag":{"natural":"tree"}},"type":"Feature"},
	{"geometry":{"coordinates":[-53.30513,-23.760379],"type":"Point"},"properties":{"osm_id":"4937919092","tag":{"natural":"tree"}},"type":"Feature"},
	{"geometry":{"coordinates":[-53.304942,-23.760569],"type":"Point"},"properties":{"osm_id":"4937919093","tag":{"natural":"tree"}},"type":"Feature"},
	{"geometry":{"coordinates":[-53.304781,-23.760529],"type":"Point"},"properties":{"osm_id":"4937919094","tag":{"natural":"tree"}},"type":"Feature"},
	{"geometry":{"coordinates":[-53.304516,-23.760478],"type":"Point"},"properties":{"osm_id":"4937919095","tag":{"natural":"tree"}},"type":"Feature"},
	{"geometry":{"coordinates":[-53.304921,-23.760341],"type":"Point"},"properties":{"osm_id":"4937919096","tag":{"natural":"tree"}},"type":"Feature"},
	{"geometry":{"coordinates":[-53.304731,-23.760285],"type":"Point"},"properties":{"osm_id":"4937919097","tag":{"natural":"tree"}},"type":"Feature"},
	{"geometry":{"coordinates":[-53.304486,-23.760221],"type":"Point"},"properties":{"osm_id":"4937919098","tag":{"natural":"tree"}},"type":"Feature"},
	{"geometry":{"coordinates":[-53.304049,-23.760226],"type":"Point"},"properties":{"osm_id":"4937919099","tag":{"natural":"tree"}},"type":"Feature"},
	{"geometry":{"coordinates":[-53.304178,-23.760257],"type":"Point"},"properties":{"osm_id":"4937919100","tag":{"natural":"tree"}},"type":"Feature"},
	{"geometry":{"coordinates":[-53.30368,-23.760139],"type":"Point"},"properties":{"osm_id":"4937919101","tag":{"natural":"tree"}},"type":"Feature"},
	{"geometry":{"coordinates":[-53.303495,-23.76009],"type":"Point"},"properties":{"osm_id":"4937919102","tag":{"natural":"tree"}},"type":"Feature"},
	{"geometry":{"coordinates":[-53.303399,-23.760066],"type":"Point"},"properties":{"osm_id":"4937919103","tag":{"natural":"tree"}},"type":"Feature"},
	{"geometry":{"coordinates":[-53.303332,-23.76004],"type":"Point"},"properties":{"osm_id":"4937919104","tag":{"natural":"tree"}},"type":"Feature"},
	{"geometry":{"coordinates":[-53.304457,-23.760007],"type":"Point"},"properties":{"osm_id":"4937919105","tag":{"natural":"tree"}},"type":"Feature"},
	{"geometry":{"coordinates":[-53.304509,-23.759857],"type":"Point"},"properties":{"osm_id":"4937919106","tag":{"natural":"tree"}},"type":"Feature"},
	{"geometry":{"coordinates":[-53.305153,-23.759671],"type":"Point"},"properties":{"osm_id":"4937919107","tag":{"natural":"tree"}},"type":"Feature"},
	{"geometry":{"coordinates":[-53.305389,-23.759734],"type":"Point"},"properties":{"osm_id":"4937919108","tag":{"natural":"tree"}},"type":"Feature"},
	{"geometry":{"coordinates":[-53.305338,-23.759586],"type":"Point"},"properties":{"osm_id":"4937919109","tag":{"natural":"tree"}},"type":"Feature"},
	{"geometry":{"coordinates":[-53.304417,-23.759485],"type":"Point"},"properties":{"osm_id":"4937919110","tag":{"natural":"tree"}},"type":"Feature"},
	{"geometry":{"coordinates":[-53.304018,-23.759361],"type":"Point"},"properties":{"osm_id":"4937919111","tag":{"natural":"tree"}},"type":"Feature"},
	{"geometry":{"coordinates":[-53.303646,-23.759272],"type":"Point"},"properties":{"osm_id":"4937919112","tag":{"natural":"tree"}},"type":"Feature"},
	{"geometry":{"coordinates":[-53.303416,-23.759217],"type":"Point"},"properties":{"osm_id":"4937919113","tag":{"natural":"tree"}},"type":"Feature"},
	{"geometry":{"coordinates":[-53.303214,-23.759159],"type":"Point"},"properties":{"osm_id":"4937919114","tag":{"natural":"tree"}},"type":"Feature"},
	{"geometry":{"coordinates":[-53.30467,-23.759316],"type":"Point"},"properties":{"osm_id":"4937919115","tag":{"natural":"tree"}},"type":"Feature"},
	{"geometry":{"coordinates":[-53.304708,-23.759227],"type":"Point"},"properties":{"osm_id":"4937919116","tag":{"natural":"tree"}},"type":"Feature"},
	{"geometry":{"coordinates":[-53.304733,-23.759138],"type":"Point"},"properties":{"osm_id":"4937919117","tag":{"natural":"tree"}},"type":"Feature"},
	{"geometry":{"coordinates":[-53.304798,-23.758914],"type":"Point"},"properties":{"osm_id":"4937919118","tag":{"natural":"tree"}},"type":"Feature"},
	{"geometry":{"coordinates":[-53.304687,-23.75863],"type":"Point"},"properties":{"osm_id":"4937919119","tag":{"natural":"tree"}},"type":"Feature"},
	{"geometry":{"coordinates":[-53.304514,-23.75859],"type":"Point"},"properties":{"osm_id":"4937919120","tag":{"natural":"tree"}},"type":"Feature"},
	{"geometry":{"coordinates":[-53.304332,-23.758542],"type":"Point"},"properties":{"osm_id":"4937921221","tag":{"natural":"tree"}},"type":"Feature"},
	{"geometry":{"coordinates":[-53.304157,-23.7585],"type":"Point"},"properties":{"osm_id":"4937921222","tag":{"natural":"tree"}},"type":"Feature"},
	{"geometry":{"coordinates":[-53.303697,-23.758378],"type":"Point"},"properties":{"osm_id":"4937921223","tag":{"natural":"tree"}},"type":"Feature"},
	{"geometry":{"coordinates":[-53.303505,-23.758333],"type":"Point"},"properties":{"osm_id":"4937921224","tag":{"natural":"tree"}},"type":"Feature"},
	{"geometry":{"coordinates":[-53.303178,-23.758249],"type":"Point"},"properties":{"osm_id":"4937921225","tag":{"natural":"tree"}},"type":"Feature"},
	{"geometry":{"coordinates":[-53.303037,-23.758208],"type":"Point"},"properties":{"osm_id":"4937921226","tag":{"natural":"tree"}},"type":"Feature"},
	{"geometry":{"coordinates":[-53.302885,-23.758166],"type":"Point"},"properties":{"osm_id":"4937921227","tag":{"natural":"tree"}},"type":"Feature"},
	{"geometry":{"coordinates":[-53.302752,-23.758136],"type":"Point"},"properties":{"osm_id":"4937921228","tag":{"natural":"tree"}},"type":"Feature"},
	{"geometry":{"coordinates":[-53.30279,-23.75799],"type":"Point"},"properties":{"osm_id":"4937921229","tag":{"natural":"tree"}},"type":"Feature"},
	{"geometry":{"coordinates":[-53.302608,-23.75794],"type":"Point"},"properties":{"osm_id":"4937921230","tag":{"natural":"tree"}},"type":"Feature"},
	{"geometry":{"coordinates":[-53.303267,-23.758112],"type":"Point"},"properties":{"osm_id":"4937921231","tag":{"natural":"tree"}},"type":"Feature"},
	{"geometry":{"coordinates":[-53.303193,-23.758128],"type":"Point"},"properties":{"osm_id":"4937921232","tag":{"natural":"tree"}},"type":"Feature"},
	{"geometry":{"coordinates":[-53.303022,-23.758063],"type":"Point"},"properties":{"osm_id":"4937921233","tag":{"natural":"tree"}},"type":"Feature"},
	{"geometry":{"coordinates":[-53.30229,-23.757856],"type":"Point"},"properties":{"osm_id":"4937921234","tag":{"natural":"tree"}},"type":"Feature"},
	{"geometry":{"coordinates":[-53.302169,-23.757823],"type":"Point"},"properties":{"osm_id":"4937921235","tag":{"natural":"tree"}},"type":"Feature"},
	{"geometry":{"coordinates":[-53.302052,-23.757791],"type":"Point"},"properties":{"osm_id":"4937921236","tag":{"natural":"tree"}},"type":"Feature"},
	{"geometry":{"coordinates":[-53.302193,-23.757647],"type":"Point"},"properties":{"osm_id":"4937921237","tag":{"natural":"tree"}},"type":"Feature"},
	{"geometry":{"coordinates":[-53.302036,-23.757684],"type":"Point"},"properties":{"osm_id":"4937921238","tag":{"natural":"tree"}},"type":"Feature"},
	{"geometry":{"coordinates":[-53.302347,-23.757493],"type":"Point"},"properties":{"osm_id":"4937921239","tag":{"natural":"tree"}},"type":"Feature"},
	{"geometry":{"coordinates":[-53.302406,-23.757428],"type":"Point"},"properties":{"osm_id":"4937921240","tag":{"natural":"tree"}},"type":"Feature"},
	{"geometry":{"coordinates":[-53.302459,-23.757353],"type":"Point"},"properties":{"osm_id":"4937921241","tag":{"natural":"tree"}},"type":"Feature"},
	{"geometry":{"coordinates":[-53.302283,-23.757242],"type":"Point"},"properties":{"osm_id":"4937921242","tag":{"natural":"tree"}},"type":"Feature"},
	{"geometry":{"coordinates":[-53.30215,-23.757395],"type":"Point"},"properties":{"osm_id":"4937921243","tag":{"natural":"tree"}},"type":"Feature"},
	{"geometry":{"coordinates":[-53.301754,-23.757364],"type":"Point"},"properties":{"osm_id":"4937921244","tag":{"natural":"tree"}},"type":"Feature"},
	{"geometry":{"coordinates":[-53.301708,-23.757277],"type":"Point"},"properties":{"osm_id":"4937921245","tag":{"natural":"tree"}},"type":"Feature"},
	{"geometry":{"coordinates":[-53.301669,-23.757089],"type":"Point"},"properties":{"osm_id":"4937921246","tag":{"natural":"tree"}},"type":"Feature"},
	{"geometry":{"coordinates":[-53.301674,-23.756988],"type":"Point"},"properties":{"osm_id":"4937921247","tag":{"natural":"tree"}},"type":"Feature"},
	{"geometry":{"coordinates":[-53.3011,-23.757345],"type":"Point"},"properties":{"osm_id":"4937921249","tag":{"natural":"tree"}},"type":"Feature"},
	{"geometry":{"coordinates":[-53.301108,-23.757433],"type":"Point"},"properties":{"osm_id":"4937921250","tag":{"natural":"tree"}},"type":"Feature"},
	{"geometry":{"coordinates":[-53.315487,-23.758044],"type":"Point"},"properties":{"osm_id":"4939352447","tag":{"natural":"tree"}},"type":"Feature"},
	{"geometry":{"coordinates":[-53.314187,-23.758412],"type":"Point"},"properties":{"osm_id":"4939352448","tag":{"natural":"tree"}},"type":"Feature"},
	{"geometry":{"coordinates":[-53.316204,-23.763445],"type":"Point"},"properties":{"osm_id":"4940666896","tag":{"natural":"tree"}},"type":"Feature"},
	{"geometry":{"coordinates":[-53.316717,-23.76345],"type":"Point"},"properties":{"osm_id":"4940666897","tag":{"natural":"tree"}},"type":"Feature"},
	{"geometry":{"coordinates":[-53.316561,-23.763416],"type":"Point"},"properties":{"osm_id":"4940666898","tag":{"natural":"tree"}},"type":"Feature"},
	{"geometry":{"coordinates":[-53.316219,-23.763329],"type":"Point"},"properties":{"osm_id":"4940666899","tag":{"natural":"tree"}},"type":"Feature"},
	{"geometry":{"coordinates":[-53.316054,-23.763281],"type":"Point"},"properties":{"osm_id":"4940666900","tag":{"natural":"tree"}},"type":"Feature"},
	{"geometry":{"coordinates":[-53.315887,-23.763239],"type":"Point"},"properties":{"osm_id":"4940666901","tag":{"natural":"tree"}},"type":"Feature"},
	{"geometry":{"coordinates":[-53.315729,-23.763202],"type":"Point"},"properties":{"osm_id":"4940666902","tag":{"natural":"tree"}},"type":"Feature"},
	{"geometry":{"coordinates":[-53.315446,-23.763134],"type":"Point"},"properties":{"osm_id":"4940666903","tag":{"natural":"tree"}},"type":"Feature"},
	{"geometry":{"coordinates":[-53.314892,-23.762995],"type":"Point"},"properties":{"osm_id":"4940666904","tag":{"natural":"tree"}},"type":"Feature"},
	{"geometry":{"coordinates":[-53.314706,-23.762944],"type":"Point"},"properties":{"osm_id":"4940666905","tag":{"natural":"tree"}},"type":"Feature"},
	{"geometry":{"coordinates":[-53.314184,-23.762807],"type":"Point"},"properties":{"osm_id":"4940666906","tag":{"natural":"tree"}},"type":"Feature"},
	{"geometry":{"coordinates":[-53.314044,-23.762774],"type":"Point"},"properties":{"osm_id":"4940666907","tag":{"natural":"tree"}},"type":"Feature"},
	{"geometry":{"coordinates":[-53.313445,-23.76263],"type":"Point"},"properties":{"osm_id":"4940666908","tag":{"natural":"tree"}},"type":"Feature"},
	{"geometry":{"coordinates":[-53.313003,-23.762511],"type":"Point"},"properties":{"osm_id":"4940666909","tag":{"natural":"tree"}},"type":"Feature"},
	{"geometry":{"coordinates":[-53.312845,-23.762467],"type":"Point"},"properties":{"osm_id":"4940666910","tag":{"natural":"tree"}},"type":"Feature"},
	{"geometry":{"coordinates":[-53.312711,-23.76243],"type":"Point"},"properties":{"osm_id":"4940666911","tag":{"natural":"tree"}},"type":"Feature"},
	{"geometry":{"coordinates":[-53.312525,-23.762515],"type":"Point"},"properties":{"osm_id":"4940666912","tag":{"natural":"tree"}},"type":"Feature"},
	{"geometry":{"coordinates":[-53.312284,-23.762456],"type":"Point"},"properties":{"osm_id":"4940666913","tag":{"natural":"tree"}},"type":"Feature"},
	{"geometry":{"coordinates":[-53.312847,-23.762361],"type":"Point"},"properties":{"osm_id":"4940666914","tag":{"natural":"tree"}},"type":"Feature"},
	{"geometry":{"coordinates":[-53.312629,-23.762298],"type":"Point"},"properties":{"osm_id":"4940666915","tag":{"natural":"tree"}},"type":"Feature"},
	{"geometry":{"coordinates":[-53.312165,-23.762819],"type":"Point"},"properties":{"osm_id":"4940666916","tag":{"natural":"tree"}},"type":"Feature"},
	{"geometry":{"coordinates":[-53.312243,-23.762922],"type":"Point"},"properties":{"osm_id":"4940666917","tag":{"natural":"tree"}},"type":"Feature"},
	{"geometry":{"coordinates":[-53.312107,-23.762953],"type":"Point"},"properties":{"osm_id":"4940666918","tag":{"natural":"tree"}},"type":"Feature"},
	{"geometry":{"coordinates":[-53.312023,-23.762824],"type":"Point"},"properties":{"osm_id":"4940666919","tag":{"natural":"tree"}},"type":"Feature"},
	{"geometry":{"coordinates":[-53.3122,-23.763109],"type":"Point"},"properties":{"osm_id":"4940666920","tag":{"natural":"tree"}},"type":"Feature"},
	{"geometry":{"coordinates":[-53.312283,-23.763246],"type":"Point"},"properties":{"osm_id":"4940666921","tag":{"natural":"tree"}},"type":"Feature"},
	{"geometry":{"coordinates":[-53.312367,-23.763389],"type":"Point"},"properties":{"osm_id":"4940666922","tag":{"natural":"tree"}},"type":"Feature"},
	{"geometry":{"coordinates":[-53.31247,-23.763551],"type":"Point"},"properties":{"osm_id":"4940666923","tag":{"natural":"tree"}},"type":"Feature"},
	{"geometry":{"coordinates":[-53.312545,-23.763686],"type":"Point"},"properties":{"osm_id":"4940666924","tag":{"natural":"tree"}},"type":"Feature"},
	{"geometry":{"coordinates":[-53.312648,-23.763659],"type":"Point"},"properties":{"osm_id":"4940666925","tag":{"natural":"tree"}},"type":"Feature"},
	{"geometry":{"coordinates":[-53.312431,-23.763729],"type":"Point"},"properties":{"osm_id":"4940666926","tag":{"natural":"tree"}},"type":"Feature"},
	{"geometry":{"coordinates":[-53.312583,-23.763992],"type":"Point"},"properties":{"osm_id":"4940666927","tag":{"natural":"tree"}},"type":"Feature"},
	{"geometry":{"coordinates":[-53.312499,-23.764087],"type":"Point"},"properties":{"osm_id":"4940666928","tag":{"natural":"tree"}},"type":"Feature"},
	{"geometry":{"coordinates":[-53.307901,-23.761323],"type":"Point"},"properties":{"osm_id":"4941128448","tag":{"natural":"tree"}},"type":"Feature"},
	{"geometry":{"coordinates":[-53.308033,-23.761356],"type":"Point"},"properties":{"osm_id":"4941128449","tag":{"natural":"tree"}},"type":"Feature"},
	{"geometry":{"coordinates":[-53.308308,-23.761432],"type":"Point"},"properties":{"osm_id":"4941128450","tag":{"natural":"tree"}},"type":"Feature"},
	{"geometry":{"coordinates":[-53.308617,-23.761515],"type":"Point"},"properties":{"osm_id":"4941128451","tag":{"natural":"tree"}},"type":"Feature"},
	{"geometry":{"coordinates":[-53.308693,-23.761532],"type":"Point"},"properties":{"osm_id":"4941128452","tag":{"natural":"tree"}},"type":"Feature"},
	{"geometry":{"coordinates":[-53.308572,-23.761263],"type":"Point"},"properties":{"osm_id":"4941128453","tag":{"natural":"tree"}},"type":"Feature"},
	{"geometry":{"coordinates":[-53.308131,-23.761163],"type":"Point"},"properties":{"osm_id":"4941128454","tag":{"natural":"tree"}},"type":"Feature"},
	{"geometry":{"coordinates":[-53.308264,-23.761198],"type":"Point"},"properties":{"osm_id":"4941128455","tag":{"natural":"tree"}},"type":"Feature"},
	{"geometry":{"coordinates":[-53.308396,-23.761219],"type":"Point"},"properties":{"osm_id":"4941128456","tag":{"natural":"tree"}},"type":"Feature"},
	{"geometry":{"coordinates":[-53.307525,-23.760992],"type":"Point"},"properties":{"osm_id":"4941128457","tag":{"natural":"tree"}},"type":"Feature"},
	{"geometry":{"coordinates":[-53.307445,-23.760972],"type":"Point"},"properties":{"osm_id":"4941128458","tag":{"natural":"tree"}},"type":"Feature"},
	{"geometry":{"coordinates":[-53.307962,-23.761113],"type":"Point"},"properties":{"osm_id":"4941128459","tag":{"natural":"tree"}},"type":"Feature"},
	{"geometry":{"coordinates":[-53.307956,-23.760689],"type":"Point"},"properties":{"osm_id":"4941128460","tag":{"natural":"tree"}},"type":"Feature"},
	{"geometry":{"coordinates":[-53.308005,-23.760466],"type":"Point"},"properties":{"osm_id":"4941128461","tag":{"natural":"tree"}},"type":"Feature"},
	{"geometry":{"coordinates":[-53.307338,-23.760425],"type":"Point"},"properties":{"osm_id":"4941128462","tag":{"natural":"tree"}},"type":"Feature"},
	{"geometry":{"coordinates":[-53.307414,-23.760246],"type":"Point"},"properties":{"osm_id":"4941128463","tag":{"natural":"tree"}},"type":"Feature"},
	{"geometry":{"coordinates":[-53.307193,-23.760187],"type":"Point"},"properties":{"osm_id":"4941128464","tag":{"natural":"tree"}},"type":"Feature"},
	{"geometry":{"coordinates":[-53.307227,-23.759621],"type":"Point"},"properties":{"osm_id":"4941128465","tag":{"natural":"tree"}},"type":"Feature"},
	{"geometry":{"coordinates":[-53.307195,-23.759735],"type":"Point"},"properties":{"osm_id":"4941128466","tag":{"natural":"tree"}},"type":"Feature"},
	{"geometry":{"coordinates":[-53.308096,-23.759503],"type":"Point"},"properties":{"osm_id":"4941128467","tag":{"natural":"tree"}},"type":"Feature"},
	{"geometry":{"coordinates":[-53.307962,-23.759418],"type":"Point"},"properties":{"osm_id":"4941128468","tag":{"natural":"tree"}},"type":"Feature"},
	{"geometry":{"coordinates":[-53.30784,-23.759259],"type":"Point"},"properties":{"osm_id":"4941128469","tag":{"natural":"tree"}},"type":"Feature"},
	{"geometry":{"coordinates":[-53.307752,-23.759118],"type":"Point"},"properties":{"osm_id":"4941128470","tag":{"natural":"tree"}},"type":"Feature"},
	{"geometry":{"coordinates":[-53.307181,-23.757928],"type":"Point"},"properties":{"osm_id":"4941128471","tag":{"natural":"tree"}},"type":"Feature"},
	{"geometry":{"coordinates":[-53.307669,-23.757835],"type":"Point"},"properties":{"osm_id":"4941128472","tag":{"natural":"tree"}},"type":"Feature"},
	{"geometry":{"coordinates":[-53.308156,-23.757588],"type":"Point"},"properties":{"osm_id":"4941128588","tag":{"natural":"tree"}},"type":"Feature"},
	{"geometry":{"coordinates":[-53.30804,-23.757654],"type":"Point"},"properties":{"osm_id":"4941128589","tag":{"natural":"tree"}},"type":"Feature"},
	{"geometry":{"coordinates":[-53.30791,-23.757717],"type":"Point"},"properties":{"osm_id":"4941128590","tag":{"natural":"tree"}},"type":"Feature"},
	{"geometry":{"coordinates":[-53.308761,-23.757783],"type":"Point"},"properties":{"osm_id":"4941128591","tag":{"natural":"tree"}},"type":"Feature"},
	{"geometry":{"coordinates":[-53.308685,-23.75768],"type":"Point"},"properties":{"osm_id":"4941128592","tag":{"natural":"tree"}},"type":"Feature"},
	{"geometry":{"coordinates":[-53.308862,-23.757673],"type":"Point"},"properties":{"osm_id":"4941128593","tag":{"natural":"tree"}},"type":"Feature"},
	{"geometry":{"coordinates":[-53.308923,-23.757767],"type":"Point"},"properties":{"osm_id":"4941128594","tag":{"natural":"tree"}},"type":"Feature"},
	{"geometry":{"coordinates":[-53.308981,-23.757858],"type":"Point"},"properties":{"osm_id":"4941128595","tag":{"natural":"tree"}},"type":"Feature"},
	{"geometry":{"coordinates":[-53.309099,-23.758079],"type":"Point"},"properties":{"osm_id":"4941128596","tag":{"natural":"tree"}},"type":"Feature"},
	{"geometry":{"coordinates":[-53.30919,-23.758225],"type":"Point"},"properties":{"osm_id":"4941128597","tag":{"natural":"tree"}},"type":"Feature"},
	{"geometry":{"coordinates":[-53.309276,-23.758344],"type":"Point"},"properties":{"osm_id":"4941128598","tag":{"natural":"tree"}},"type":"Feature"},
	{"geometry":{"coordinates":[-53.309322,-23.758414],"type":"Point"},"properties":{"osm_id":"4941128599","tag":{"natural":"tree"}},"type":"Feature"},
	{"geometry":{"coordinates":[-53.309417,-23.758563],"type":"Point"},"properties":{"osm_id":"4941128600","tag":{"natural":"tree"}},"type":"Feature"},
	{"geometry":{"coordinates":[-53.309629,-23.758658],"type":"Point"},"properties":{"osm_id":"4941128601","tag":{"natural":"tree"}},"type":"Feature"},
	{"geometry":{"coordinates":[-53.309495,-23.758417],"type":"Point"},"properties":{"osm_id":"4941128602","tag":{"natural":"tree"}},"type":"Feature"},
	{"geometry":{"coordinates":[-53.31026,-23.758675],"type":"Point"},"properties":{"osm_id":"4941128603","tag":{"natural":"tree"}},"type":"Feature"},
	{"geometry":{"coordinates":[-53.310065,-23.758763],"type":"Point"},"properties":{"osm_id":"4941128604","tag":{"natural":"tree"}},"type":"Feature"},
	{"geometry":{"coordinates":[-53.309944,-23.758831],"type":"Point"},"properties":{"osm_id":"4941128605","tag":{"natural":"tree"}},"type":"Feature"},
	{"geometry":{"coordinates":[-53.310286,-23.761946],"type":"Point"},"properties":{"osm_id":"4941382178","tag":{"natural":"tree"}},"type":"Feature"},
	{"geometry":{"coordinates":[-53.310437,-23.761736],"type":"Point"},"properties":{"osm_id":"4941382179","tag":{"natural":"tree"}},"type":"Feature"},
	{"geometry":{"coordinates":[-53.310242,-23.76168],"type":"Point"},"properties":{"osm_id":"4941382180","tag":{"natural":"tree"}},"type":"Feature"},
	{"geometry":{"coordinates":[-53.310152,-23.76165],"type":"Point"},"properties":{"osm_id":"4941382181","tag":{"natural":"tree"}},"type":"Feature"},
	{"geometry":{"coordinates":[-53.309558,-23.761262],"type":"Point"},"properties":{"osm_id":"4941382182","tag":{"natural":"tree"}},"type":"Feature"},
	{"geometry":{"coordinates":[-53.30959,-23.761126],"type":"Point"},"properties":{"osm_id":"4941382183","tag":{"natural":"tree"}},"type":"Feature"},
	{"geometry":{"coordinates":[-53.309636,-23.76094],"type":"Point"},"properties":{"osm_id":"4941382184","tag":{"natural":"tree"}},"type":"Feature"},
	{"geometry":{"coordinates":[-53.309687,-23.760806],"type":"Point"},"properties":{"osm_id":"4941382185","tag":{"natural":"tree"}},"type":"Feature"},
	{"geometry":{"coordinates":[-53.30996,-23.760652],"type":"Point"},"properties":{"osm_id":"4941382186","tag":{"natural":"tree"}},"type":"Feature"},
	{"geometry":{"coordinates":[-53.310065,-23.760596],"type":"Point"},"properties":{"osm_id":"4941382187","tag":{"natural":"tree"}},"type":"Feature"},
	{"geometry":{"coordinates":[-53.310301,-23.760462],"type":"Point"},"properties":{"osm_id":"4941382188","tag":{"natural":"tree"}},"type":"Feature"},
	{"geometry":{"coordinates":[-53.310705,-23.760246],"type":"Point"},"properties":{"osm_id":"4941382189","tag":{"natural":"tree"}},"type":"Feature"},
	{"geometry":{"coordinates":[-53.310863,-23.760164],"type":"Point"},"properties":{"osm_id":"4941382190","tag":{"natural":"tree"}},"type":"Feature"},
	{"geometry":{"coordinates":[-53.310977,-23.759974],"type":"Point"},"properties":{"osm_id":"4941382191","tag":{"natural":"tree"}},"type":"Feature"},
	{"geometry":{"coordinates":[-53.310535,-23.760126],"type":"Point"},"properties":{"osm_id":"4941382192","tag":{"natural":"tree"}},"type":"Feature"},
	{"geometry":{"coordinates":[-53.310458,-23.76],"type":"Point"},"properties":{"osm_id":"4941382193","tag":{"natural":"tree"}},"type":"Feature"},
	{"geometry":{"coordinates":[-53.310301,-23.760028],"type":"Point"},"properties":{"osm_id":"4941382194","tag":{"natural":"tree"}},"type":"Feature"},
	{"geometry":{"coordinates":[-53.310373,-23.76015],"type":"Point"},"properties":{"osm_id":"4941382195","tag":{"natural":"tree"}},"type":"Feature"},
	{"geometry":{"coordinates":[-53.310264,-23.760205],"type":"Point"},"properties":{"osm_id":"4941382196","tag":{"natural":"tree"}},"type":"Feature"},
	{"geometry":{"coordinates":[-53.310189,-23.759836],"type":"Point"},"properties":{"osm_id":"4941382197","tag":{"natural":"tree"}},"type":"Feature"},
	{"geometry":{"coordinates":[-53.3101,-23.75969],"type":"Point"},"properties":{"osm_id":"4941382198","tag":{"natural":"tree"}},"type":"Feature"},
	{"geometry":{"coordinates":[-53.310013,-23.759803],"type":"Point"},"properties":{"osm_id":"4941382199","tag":{"natural":"tree"}},"type":"Feature"},
	{"geometry":{"coordinates":[-53.309991,-23.759493],"type":"Point"},"properties":{"osm_id":"4941382200","tag":{"natural":"tree"}},"type":"Feature"},
	{"geometry":{"coordinates":[-53.309901,-23.759347],"type":"Point"},"properties":{"osm_id":"4941382201","tag":{"natural":"tree"}},"type":"Feature"},
	{"geometry":{"coordinates":[-53.309807,-23.759193],"type":"Point"},"properties":{"osm_id":"4941382202","tag":{"natural":"tree"}},"type":"Feature"},
	{"geometry":{"coordinates":[-53.309704,-23.759037],"type":"Point"},"properties":{"osm_id":"4941382203","tag":{"natural":"tree"}},"type":"Feature"},
	{"geometry":{"coordinates":[-53.309514,-23.758723],"type":"Point"},"properties":{"osm_id":"4941382204","tag":{"natural":"tree"}},"type":"Feature"},
	{"geometry":{"coordinates":[-53.3085,-23.757402],"type":"Point"},"properties":{"osm_id":"4941382205","tag":{"natural":"tree"}},"type":"Feature"},
	{"geometry":{"coordinates":[-53.309134,-23.757262],"type":"Point"},"properties":{"osm_id":"4941382206","tag":{"natural":"tree"}},"type":"Feature"},
	{"geometry":{"coordinates":[-53.309315,-23.757014],"type":"Point"},"properties":{"osm_id":"4941382207","tag":{"natural":"tree"}},"type":"Feature"},
	{"geometry":{"coordinates":[-53.309271,-23.75709],"type":"Point"},"properties":{"osm_id":"4941382208","tag":{"natural":"tree"}},"type":"Feature"},
	{"geometry":{"coordinates":[-53.310719,-23.756802],"type":"Point"},"properties":{"osm_id":"4941382209","tag":{"natural":"tree"}},"type":"Feature"},
	{"geometry":{"coordinates":[-53.312008,-23.757248],"type":"Point"},"properties":{"osm_id":"4941385268","tag":{"natural":"tree"}},"type":"Feature"},
	{"geometry":{"coordinates":[-53.313053,-23.757268],"type":"Point"},"properties":{"osm_id":"4941385269","tag":{"natural":"tree"}},"type":"Feature"},
	{"geometry":{"coordinates":[-53.313058,-23.757458],"type":"Point"},"properties":{"osm_id":"4941385270","tag":{"natural":"tree"}},"type":"Feature"},
	{"geometry":{"coordinates":[-53.313203,-23.756887],"type":"Point"},"properties":{"osm_id":"4941385271","tag":{"natural":"tree"}},"type":"Feature"},
	{"geometry":{"coordinates":[-53.313427,-23.756999],"type":"Point"},"properties":{"osm_id":"4941385272","tag":{"natural":"tree"}},"type":"Feature"},
	{"geometry":{"coordinates":[-53.313277,-23.756923],"type":"Point"},"properties":{"osm_id":"4941385273","tag":{"natural":"tree"}},"type":"Feature"},
	{"geometry":{"coordinates":[-53.313714,-23.757154],"type":"Point"},"properties":{"osm_id":"4941385274","tag":{"natural":"tree"}},"type":"Feature"},
	{"geometry":{"coordinates":[-53.313934,-23.757268],"type":"Point"},"properties":{"osm_id":"4941385275","tag":{"natural":"tree"}},"type":"Feature"},
	{"geometry":{"coordinates":[-53.314129,-23.75738],"type":"Point"},"properties":{"osm_id":"4941385276","tag":{"natural":"tree"}},"type":"Feature"},
	{"geometry":{"coordinates":[-53.314238,-23.75744],"type":"Point"},"properties":{"osm_id":"4941385277","tag":{"natural":"tree"}},"type":"Feature"},
	{"geometry":{"coordinates":[-53.31668,-23.759031],"type":"Point"},"properties":{"osm_id":"4941385278","tag":{"natural":"tree"}},"type":"Feature"},
	{"geometry":{"coordinates":[-53.315379,-23.759491],"type":"Point"},"properties":{"osm_id":"4941385279","tag":{"natural":"tree"}},"type":"Feature"},
	{"geometry":{"coordinates":[-53.315299,-23.759337],"type":"Point"},"properties":{"osm_id":"4941385280","tag":{"natural":"tree"}},"type":"Feature"},
	{"geometry":{"coordinates":[-53.314995,-23.759836],"type":"Point"},"properties":{"osm_id":"4941385281","tag":{"natural":"tree"}},"type":"Feature"},
	{"geometry":{"coordinates":[-53.315045,-23.75992],"type":"Point"},"properties":{"osm_id":"4941385282","tag":{"natural":"tree"}},"type":"Feature"},
	{"geometry":{"coordinates":[-53.315113,-23.760038],"type":"Point"},"properties":{"osm_id":"4941385283","tag":{"natural":"tree"}},"type":"Feature"},
	{"geometry":{"coordinates":[-53.315821,-23.759722],"type":"Point"},"properties":{"osm_id":"4941385284","tag":{"natural":"tree"}},"type":"Feature"},
	{"geometry":{"coordinates":[-53.317024,-23.760528],"type":"Point"},"properties":{"osm_id":"4941385285","tag":{"natural":"tree"}},"type":"Feature"},
	{"geometry":{"coordinates":[-53.316971,-23.760398],"type":"Point"},"properties":{"osm_id":"4941385286","tag":{"natural":"tree"}},"type":"Feature"},
	{"geometry":{"coordinates":[-53.316884,-23.760266],"type":"Point"},"properties":{"osm_id":"4941385287","tag":{"natural":"tree"}},"type":"Feature"},
	{"geometry":{"coordinates":[-53.317275,-23.760656],"type":"Point"},"properties":{"osm_id":"4941385288","tag":{"natural":"tree"}},"type":"Feature"},
	{"geometry":{"coordinates":[-53.316678,-23.761109],"type":"Point"},"properties":{"osm_id":"4941386235","tag":{"natural":"tree"}},"type":"Feature"},
	{"geometry":{"coordinates":[-53.316617,-23.761012],"type":"Point"},"properties":{"osm_id":"4941386236","tag":{"natural":"tree"}},"type":"Feature"},
	{"geometry":{"coordinates":[-53.316741,-23.761198],"type":"Point"},"properties":{"osm_id":"4941386237","tag":{"natural":"tree"}},"type":"Feature"},
	{"geometry":{"coordinates":[-53.316823,-23.761336],"type":"Point"},"properties":{"osm_id":"4941386238","tag":{"natural":"tree"}},"type":"Feature"},
	{"geometry":{"coordinates":[-53.316876,-23.761441],"type":"Point"},"properties":{"osm_id":"4941386239","tag":{"natural":"tree"}},"type":"Feature"},
	{"geometry":{"coordinates":[-53.31693,-23.761525],"type":"Point"},"properties":{"osm_id":"4941386240","tag":{"natural":"tree"}},"type":"Feature"},
	{"geometry":{"coordinates":[-53.317018,-23.761651],"type":"Point"},"properties":{"osm_id":"4941386241","tag":{"natural":"tree"}},"type":"Feature"},
	{"geometry":{"coordinates":[-53.317121,-23.761845],"type":"Point"},"properties":{"osm_id":"4941386264","tag":{"natural":"tree"}},"type":"Feature"},
	{"geometry":{"coordinates":[-53.317184,-23.761932],"type":"Point"},"properties":{"osm_id":"4941386265","tag":{"natural":"tree"}},"type":"Feature"},
	{"geometry":{"coordinates":[-53.317218,-23.76201],"type":"Point"},"properties":{"osm_id":"4941386266","tag":{"natural":"tree"}},"type":"Feature"},
	{"geometry":{"coordinates":[-53.317246,-23.762079],"type":"Point"},"properties":{"osm_id":"4941386267","tag":{"natural":"tree"}},"type":"Feature"},
	{"geometry":{"coordinates":[-53.317152,-23.762122],"type":"Point"},"properties":{"osm_id":"4941386268","tag":{"natural":"tree"}},"type":"Feature"},
	{"geometry":{"coordinates":[-53.317557,-23.761909],"type":"Point"},"properties":{"osm_id":"4941386269","tag":{"natural":"tree"}},"type":"Feature"},
	{"geometry":{"coordinates":[-53.311396,-23.76288],"type":"Point"},"properties":{"osm_id":"4941389482","tag":{"natural":"tree"}},"type":"Feature"},
	{"geometry":{"coordinates":[-53.31121,-23.7627],"type":"Point"},"properties":{"osm_id":"4941389483","tag":{"natural":"tree"}},"type":"Feature"},
	{"geometry":{"coordinates":[-53.311121,-23.762619],"type":"Point"},"properties":{"osm_id":"4941389484","tag":{"natural":"tree"}},"type":"Feature"},
	{"geometry":{"coordinates":[-53.310841,-23.762704],"type":"Point"},"properties":{"osm_id":"4941389485","tag":{"natural":"tree"}},"type":"Feature"},
	{"geometry":{"coordinates":[-53.310903,-23.762526],"type":"Point"},"properties":{"osm_id":"4941389486","tag":{"natural":"tree"}},"type":"Feature"},
	{"geometry":{"coordinates":[-53.310751,-23.762601],"type":"Point"},"properties":{"osm_id":"4941389487","tag":{"natural":"tree"}},"type":"Feature"},
	{"geometry":{"coordinates":[-53.312549,-23.76239],"type":"Point"},"properties":{"osm_id":"4941389488","tag":{"natural":"tree"}},"type":"Feature"},
	{"geometry":{"coordinates":[-53.312442,-23.762236],"type":"Point"},"properties":{"osm_id":"4941389489","tag":{"natural":"tree"}},"type":"Feature"},
	{"geometry":{"coordinates":[-53.312329,-23.762195],"type":"Point"},"properties":{"osm_id":"4941389490","tag":{"natural":"tree"}},"type":"Feature"},
	{"geometry":{"coordinates":[-53.31206,-23.762218],"type":"Point"},"properties":{"osm_id":"4941389491","tag":{"natural":"tree"}},"type":"Feature"},
	{"geometry":{"coordinates":[-53.311959,-23.762449],"type":"Point"},"properties":{"osm_id":"4941389492","tag":{"natural":"tree"}},"type":"Feature"},
	{"geometry":{"coordinates":[-53.311922,-23.761814],"type":"Point"},"properties":{"osm_id":"4941398005","tag":{"natural":"tree"}},"type":"Feature"},
	{"geometry":{"coordinates":[-53.3118,-23.761784],"type":"Point"},"properties":{"osm_id":"4941398006","tag":{"natural":"tree"}},"type":"Feature"},
	{"geometry":{"coordinates":[-53.311697,-23.761723],"type":"Point"},"properties":{"osm_id":"4941398007","tag":{"natural":"tree"}},"type":"Feature"},
	{"geometry":{"coordinates":[-53.311677,-23.761805],"type":"Point"},"properties":{"osm_id":"4941398008","tag":{"natural":"tree"}},"type":"Feature"},
	{"geometry":{"coordinates":[-53.311544,-23.761792],"type":"Point"},"properties":{"osm_id":"4941398009","tag":{"natural":"tree"}},"type":"Feature"},
	{"geometry":{"coordinates":[-53.311569,-23.761691],"type":"Point"},"properties":{"osm_id":"4941398010","tag":{"natural":"tree"}},"type":"Feature"},
	{"geometry":{"coordinates":[-53.311239,-23.762003],"type":"Point"},"properties":{"osm_id":"4941398011","tag":{"natural":"tree"}},"type":"Feature"},
	{"geometry":{"coordinates":[-53.311134,-23.762064],"type":"Point"},"properties":{"osm_id":"4941398012","tag":{"natural":"tree"}},"type":"Feature"},
	{"geometry":{"coordinates":[-53.311098,-23.762189],"type":"Point"},"properties":{"osm_id":"4941398013","tag":{"natural":"tree"}},"type":"Feature"},
	{"geometry":{"coordinates":[-53.311254,-23.76245],"type":"Point"},"properties":{"osm_id":"4941398014","tag":{"natural":"tree"}},"type":"Feature"},
	{"geometry":{"coordinates":[-53.311737,-23.762614],"type":"Point"},"properties":{"osm_id":"4941398015","tag":{"natural":"tree"}},"type":"Feature"},
	{"geometry":{"coordinates":[-53.311589,-23.762614],"type":"Point"},"properties":{"osm_id":"4941398016","tag":{"natural":"tree"}},"type":"Feature"},
	{"geometry":{"coordinates":[-53.311466,-23.762577],"type":"Point"},"properties":{"osm_id":"4941398017","tag":{"natural":"tree"}},"type":"Feature"},
	{"geometry":{"coordinates":[-53.311345,-23.76252],"type":"Point"},"properties":{"osm_id":"4941398018","tag":{"natural":"tree"}},"type":"Feature"},
	{"geometry":{"coordinates":[-53.312141,-23.762085],"type":"Point"},"properties":{"osm_id":"4941398019","tag":{"natural":"tree"}},"type":"Feature"},
	{"geometry":{"coordinates":[-53.317625,-23.762021],"type":"Point"},"properties":{"osm_id":"4943232026","tag":{"natural":"tree"}},"type":"Feature"},
	{"geometry":{"coordinates":[-53.317746,-23.761956],"type":"Point"},"properties":{"osm_id":"4943232027","tag":{"natural":"tree"}},"type":"Feature"},
	{"geometry":{"coordinates":[-53.317848,-23.761912],"type":"Point"},"properties":{"osm_id":"4943232028","tag":{"natural":"tree"}},"type":"Feature"},
	{"geometry":{"coordinates":[-53.31779,-23.761781],"type":"Point"},"properties":{"osm_id":"4943232029","tag":{"natural":"tree"}},"type":"Feature"},
	{"geometry":{"coordinates":[-53.317666,-23.761846],"type":"Point"},"properties":{"osm_id":"4943232030","tag":{"natural":"tree"}},"type":"Feature"},
	{"geometry":{"coordinates":[-53.317292,-23.76168],"type":"Point"},"properties":{"osm_id":"4943232031","tag":{"natural":"tree"}},"type":"Feature"},
	{"geometry":{"coordinates":[-53.318642,-23.761497],"type":"Point"},"properties":{"osm_id":"4943238013","tag":{"natural":"tree"}},"type":"Feature"},
	{"geometry":{"coordinates":[-53.318677,-23.761324],"type":"Point"},"properties":{"osm_id":"4943238014","tag":{"natural":"tree"}},"type":"Feature"},
	{"geometry":{"coordinates":[-53.318457,-23.761439],"type":"Point"},"properties":{"osm_id":"4943238015","tag":{"natural":"tree"}},"type":"Feature"},
	{"geometry":{"coordinates":[-53.318338,-23.761503],"type":"Point"},"properties":{"osm_id":"4943238016","tag":{"natural":"tree"}},"type":"Feature"},
	{"geometry":{"coordinates":[-53.318154,-23.761762],"type":"Point"},"properties":{"osm_id":"4943238017","tag":{"natural":"tree"}},"type":"Feature"},
	{"geometry":{"coordinates":[-53.31828,-23.761816],"type":"Point"},"properties":{"osm_id":"4943238018","tag":{"natural":"tree"}},"type":"Feature"},
	{"geometry":{"coordinates":[-53.318434,-23.76179],"type":"Point"},"properties":{"osm_id":"4943238019","tag":{"natural":"tree"}},"type":"Feature"},
	{"geometry":{"coordinates":[-53.318478,-23.761888],"type":"Point"},"properties":{"osm_id":"4943238020","tag":{"natural":"tree"}},"type":"Feature"},
	{"geometry":{"coordinates":[-53.318394,-23.761993],"type":"Point"},"properties":{"osm_id":"4943238821","tag":{"natural":"tree"}},"type":"Feature"},
	{"geometry":{"coordinates":[-53.318562,-23.762273],"type":"Point"},"properties":{"osm_id":"4943238822","tag":{"natural":"tree"}},"type":"Feature"},
	{"geometry":{"coordinates":[-53.318504,-23.762177],"type":"Point"},"properties":{"osm_id":"4943238823","tag":{"natural":"tree"}},"type":"Feature"},
	{"geometry":{"coordinates":[-53.318628,-23.762371],"type":"Point"},"properties":{"osm_id":"4943238824","tag":{"natural":"tree"}},"type":"Feature"},
	{"geometry":{"coordinates":[-53.318782,-23.762354],"type":"Point"},"properties":{"osm_id":"4943238825","tag":{"natural":"tree"}},"type":"Feature"},
	{"geometry":{"coordinates":[-53.318803,-23.762658],"type":"Point"},"properties":{"osm_id":"4943238826","tag":{"natural":"tree"}},"type":"Feature"},
	{"geometry":{"coordinates":[-53.318938,-23.762596],"type":"Point"},"properties":{"osm_id":"4943238827","tag":{"natural":"tree"}},"type":"Feature"},
	{"geometry":{"coordinates":[-53.319109,-23.762905],"type":"Point"},"properties":{"osm_id":"4943238828","tag":{"natural":"tree"}},"type":"Feature"},
	{"geometry":{"coordinates":[-53.319027,-23.763008],"type":"Point"},"properties":{"osm_id":"4943238829","tag":{"natural":"tree"}},"type":"Feature"},
	{"geometry":{"coordinates":[-53.31923,-23.763098],"type":"Point"},"properties":{"osm_id":"4943238830","tag":{"natural":"tree"}},"type":"Feature"},
	{"geometry":{"coordinates":[-53.319403,-23.76316],"type":"Point"},"properties":{"osm_id":"4943238831","tag":{"natural":"tree"}},"type":"Feature"},
	{"geometry":{"coordinates":[-53.319945,-23.763055],"type":"Point"},"properties":{"osm_id":"4943238832","tag":{"natural":"tree"}},"type":"Feature"},
	{"geometry":{"coordinates":[-53.319835,-23.763104],"type":"Point"},"properties":{"osm_id":"4943238833","tag":{"natural":"tree"}},"type":"Feature"},
	{"geometry":{"coordinates":[-53.319676,-23.763183],"type":"Point"},"properties":{"osm_id":"4943238834","tag":{"natural":"tree"}},"type":"Feature"},
	{"geometry":{"coordinates":[-53.319956,-23.762891],"type":"Point"},"properties":{"osm_id":"4943238835","tag":{"natural":"tree"}},"type":"Feature"},
	{"geometry":{"coordinates":[-53.319787,-23.762973],"type":"Point"},"properties":{"osm_id":"4943238836","tag":{"natural":"tree"}},"type":"Feature"},
	{"geometry":{"coordinates":[-53.319664,-23.763036],"type":"Point"},"properties":{"osm_id":"4943238837","tag":{"natural":"tree"}},"type":"Feature"},
	{"geometry":{"coordinates":[-53.320514,-23.762606],"type":"Point"},"properties":{"osm_id":"4943238838","tag":{"natural":"tree"}},"type":"Feature"},
	{"geometry":{"coordinates":[-53.320402,-23.76267],"type":"Point"},"properties":{"osm_id":"4943238839","tag":{"natural":"tree"}},"type":"Feature"},
	{"geometry":{"coordinates":[-53.320304,-23.762705],"type":"Point"},"properties":{"osm_id":"4943238840","tag":{"natural":"tree"}},"type":"Feature"},
	{"geometry":{"coordinates":[-53.320216,-23.762756],"type":"Point"},"properties":{"osm_id":"4943238841","tag":{"natural":"tree"}},"type":"Feature"},
	{"geometry":{"coordinates":[-53.320666,-23.762525],"type":"Point"},"properties":{"osm_id":"4943238842","tag":{"natural":"tree"}},"type":"Feature"},
	{"geometry":{"coordinates":[-53.320669,-23.762442],"type":"Point"},"properties":{"osm_id":"4943238843","tag":{"natural":"tree"}},"type":"Feature"},
	{"geometry":{"coordinates":[-53.320573,-23.762307],"type":"Point"},"properties":{"osm_id":"4943238844","tag":{"natural":"tree"}},"type":"Feature"},
	{"geometry":{"coordinates":[-53.320888,-23.762555],"type":"Point"},"properties":{"osm_id":"4943238846","tag":{"natural":"tree"}},"type":"Feature"},
	{"geometry":{"coordinates":[-53.320832,-23.76245],"type":"Point"},"properties":{"osm_id":"4943238847","tag":{"natural":"tree"}},"type":"Feature"},
	{"geometry":{"coordinates":[-53.320774,-23.76236],"type":"Point"},"properties":{"osm_id":"4943238848","tag":{"natural":"tree"}},"type":"Feature"},
	{"geometry":{"coordinates":[-53.320694,-23.762234],"type":"Point"},"properties":{"osm_id":"4943238849","tag":{"natural":"tree"}},"type":"Feature"},
	{"geometry":{"coordinates":[-53.320505,-23.762198],"type":"Point"},"properties":{"osm_id":"4943238850","tag":{"natural":"tree"}},"type":"Feature"},
	{"geometry":{"coordinates":[-53.319739,-23.762467],"type":"Point"},"properties":{"osm_id":"4943238851","tag":{"natural":"tree"}},"type":"Feature"},
	{"geometry":{"coordinates":[-53.319793,-23.762574],"type":"Point"},"properties":{"osm_id":"4943238852","tag":{"natural":"tree"}},"type":"Feature"},
	{"geometry":{"coordinates":[-53.319926,-23.762749],"type":"Point"},"properties":{"osm_id":"4943238853","tag":{"natural":"tree"}},"type":"Feature"},
	{"geometry":{"coordinates":[-53.320064,-23.762758],"type":"Point"},"properties":{"osm_id":"4943238854","tag":{"natural":"tree"}},"type":"Feature"},
	{"geometry":{"coordinates":[-53.319956,-23.762564],"type":"Point"},"properties":{"osm_id":"4943238855","tag":{"natural":"tree"}},"type":"Feature"},
	{"geometry":{"coordinates":[-53.320851,-23.762995],"type":"Point"},"properties":{"osm_id":"4943238856","tag":{"natural":"tree"}},"type":"Feature"},
	{"geometry":{"coordinates":[-53.320736,-23.763049],"type":"Point"},"properties":{"osm_id":"4943238857","tag":{"natural":"tree"}},"type":"Feature"},
	{"geometry":{"coordinates":[-53.320648,-23.763089],"type":"Point"},"properties":{"osm_id":"4943238858","tag":{"natural":"tree"}},"type":"Feature"},
	{"geometry":{"coordinates":[-53.320575,-23.763123],"type":"Point"},"properties":{"osm_id":"4943238859","tag":{"natural":"tree"}},"type":"Feature"},
	{"geometry":{"coordinates":[-53.320169,-23.763356],"type":"Point"},"properties":{"osm_id":"4943238860","tag":{"natural":"tree"}},"type":"Feature"},
	{"geometry":{"coordinates":[-53.320099,-23.763384],"type":"Point"},"properties":{"osm_id":"4943238861","tag":{"natural":"tree"}},"type":"Feature"},
	{"geometry":{"coordinates":[-53.319905,-23.763489],"type":"Point"},"properties":{"osm_id":"4943238862","tag":{"natural":"tree"}},"type":"Feature"},
	{"geometry":{"coordinates":[-53.319786,-23.763534],"type":"Point"},"properties":{"osm_id":"4943238863","tag":{"natural":"tree"}},"type":"Feature"},
	{"geometry":{"coordinates":[-53.319681,-23.763598],"type":"Point"},"properties":{"osm_id":"4943238864","tag":{"natural":"tree"}},"type":"Feature"},
	{"geometry":{"coordinates":[-53.317271,-23.764204],"type":"Point"},"properties":{"osm_id":"4943778594","tag":{"natural":"tree"}},"type":"Feature"},
	{"geometry":{"coordinates":[-53.317231,-23.764479],"type":"Point"},"properties":{"osm_id":"4943778595","tag":{"natural":"tree"}},"type":"Feature"},
	{"geometry":{"coordinates":[-53.31722,-23.764373],"type":"Point"},"properties":{"osm_id":"4943778596","tag":{"natural":"tree"}},"type":"Feature"},
	{"geometry":{"coordinates":[-53.31769,-23.764199],"type":"Point"},"properties":{"osm_id":"4943778597","tag":{"natural":"tree"}},"type":"Feature"},
	{"geometry":{"coordinates":[-53.318223,-23.764535],"type":"Point"},"properties":{"osm_id":"4943778598","tag":{"natural":"tree"}},"type":"Feature"},
	{"geometry":{"coordinates":[-53.318183,-23.764956],"type":"Point"},"properties":{"osm_id":"4943778599","tag":{"natural":"tree"}},"type":"Feature"},
	{"geometry":{"coordinates":[-53.318103,-23.765007],"type":"Point"},"properties":{"osm_id":"4943778600","tag":{"natural":"tree"}},"type":"Feature"},
	{"geometry":{"coordinates":[-53.317658,-23.765092],"type":"Point"},"properties":{"osm_id":"4943778601","tag":{"natural":"tree"}},"type":"Feature"},
	{"geometry":{"coordinates":[-53.318836,-23.764709],"type":"Point"},"properties":{"osm_id":"4943778602","tag":{"natural":"tree"}},"type":"Feature"},
	{"geometry":{"coordinates":[-53.318729,-23.764773],"type":"Point"},"properties":{"osm_id":"4943778603","tag":{"natural":"tree"}},"type":"Feature"},
	{"geometry":{"coordinates":[-53.318472,-23.764906],"type":"Point"},"properties":{"osm_id":"4943778604","tag":{"natural":"tree"}},"type":"Feature"},
	{"geometry":{"coordinates":[-53.319184,-23.764698],"type":"Point"},"properties":{"osm_id":"4943778605","tag":{"natural":"tree"}},"type":"Feature"},
	{"geometry":{"coordinates":[-53.319241,-23.764794],"type":"Point"},"properties":{"osm_id":"4943778606","tag":{"natural":"tree"}},"type":"Feature"},
	{"geometry":{"coordinates":[-53.319308,-23.764883],"type":"Point"},"properties":{"osm_id":"4943778607","tag":{"natural":"tree"}},"type":"Feature"},
	{"geometry":{"coordinates":[-53.319481,-23.765191],"type":"Point"},"properties":{"osm_id":"4943778608","tag":{"natural":"tree"}},"type":"Feature"},
	{"geometry":{"coordinates":[-53.319523,-23.7655],"type":"Point"},"properties":{"osm_id":"4943778609","tag":{"natural":"tree"}},"type":"Feature"},
	{"geometry":{"coordinates":[-53.319369,-23.765259],"type":"Point"},"properties":{"osm_id":"4943778610","tag":{"natural":"tree"}},"type":"Feature"},
	{"geometry":{"coordinates":[-53.319226,-23.765019],"type":"Point"},"properties":{"osm_id":"4943778611","tag":{"natural":"tree"}},"type":"Feature"},
	{"geometry":{"coordinates":[-53.319863,-23.765724],"type":"Point"},"properties":{"osm_id":"4943778612","tag":{"natural":"tree"}},"type":"Feature"},
	{"geometry":{"coordinates":[-53.320075,-23.765627],"type":"Point"},"properties":{"osm_id":"4943778613","tag":{"natural":"tree"}},"type":"Feature"},
	{"geometry":{"coordinates":[-53.320181,-23.765568],"type":"Point"},"properties":{"osm_id":"4943778614","tag":{"natural":"tree"}},"type":"Feature"},
	{"geometry":{"coordinates":[-53.320471,-23.765425],"type":"Point"},"properties":{"osm_id":"4943778615","tag":{"natural":"tree"}},"type":"Feature"},
	{"geometry":{"coordinates":[-53.320682,-23.765461],"type":"Point"},"properties":{"osm_id":"4943778616","tag":{"natural":"tree"}},"type":"Feature"},
	{"geometry":{"coordinates":[-53.320387,-23.76523],"type":"Point"},"properties":{"osm_id":"4943778617","tag":{"natural":"tree"}},"type":"Feature"},
	{"geometry":{"coordinates":[-53.320788,-23.76524],"type":"Point"},"properties":{"osm_id":"4943778618","tag":{"natural":"tree"}},"type":"Feature"},
	{"geometry":{"coordinates":[-53.320423,-23.765047],"type":"Point"},"properties":{"osm_id":"4943778619","tag":{"natural":"tree"}},"type":"Feature"},
	{"geometry":{"coordinates":[-53.320887,-23.765181],"type":"Point"},"properties":{"osm_id":"4943778620","tag":{"natural":"tree"}},"type":"Feature"},
	{"geometry":{"coordinates":[-53.320992,-23.765137],"type":"Point"},"properties":{"osm_id":"4943778921","tag":{"natural":"tree"}},"type":"Feature"},
	{"geometry":{"coordinates":[-53.321064,-23.764404],"type":"Point"},"properties":{"osm_id":"4943778953","tag":{"natural":"tree"}},"type":"Feature"},
	{"geometry":{"coordinates":[-53.320752,-23.764143],"type":"Point"},"properties":{"osm_id":"4943778954","tag":{"natural":"tree"}},"type":"Feature"},
	{"geometry":{"coordinates":[-53.320682,-23.764021],"type":"Point"},"properties":{"osm_id":"4943778955","tag":{"natural":"tree"}},"type":"Feature"},
	{"geometry":{"coordinates":[-53.320615,-23.763888],"type":"Point"},"properties":{"osm_id":"4943778956","tag":{"natural":"tree"}},"type":"Feature"},
	{"geometry":{"coordinates":[-53.320984,-23.764496],"type":"Point"},"properties":{"osm_id":"4943778957","tag":{"natural":"tree"}},"type":"Feature"},
	{"geometry":{"coordinates":[-53.318882,-23.763695],"type":"Point"},"properties":{"osm_id":"4944496853","tag":{"natural":"tree"}},"type":"Feature"},
	{"geometry":{"coordinates":[-53.319958,-23.763241],"type":"Point"},"properties":{"osm_id":"4944496854","tag":{"natural":"tree"}},"type":"Feature"},
	{"geometry":{"coordinates":[-53.319525,-23.763478],"type":"Point"},"properties":{"osm_id":"4944496855","tag":{"natural":"tree"}},"type":"Feature"},
	{"geometry":{"coordinates":[-53.31914,-23.763465],"type":"Point"},"properties":{"osm_id":"4944496856","tag":{"natural":"tree"}},"type":"Feature"},
	{"geometry":{"coordinates":[-53.31924,-23.763417],"type":"Point"},"properties":{"osm_id":"4944496857","tag":{"natural":"tree"}},"type":"Feature"},
	{"geometry":{"coordinates":[-53.318978,-23.763546],"type":"Point"},"properties":{"osm_id":"4944496858","tag":{"natural":"tree"}},"type":"Feature"},
	{"geometry":{"coordinates":[-53.318711,-23.763695],"type":"Point"},"properties":{"osm_id":"4944496859","tag":{"natural":"tree"}},"type":"Feature"},
	{"geometry":{"coordinates":[-53.31873,-23.763857],"type":"Point"},"properties":{"osm_id":"4944496860","tag":{"natural":"tree"}},"type":"Feature"},
	{"geometry":{"coordinates":[-53.31863,-23.763732],"type":"Point"},"properties":{"osm_id":"4944496861","tag":{"natural":"tree"}},"type":"Feature"},
	{"geometry":{"coordinates":[-53.319569,-23.763231],"type":"Point"},"properties":{"osm_id":"4944496862","tag":{"natural":"tree"}},"type":"Feature"},
	{"geometry":{"coordinates":[-53.319444,-23.763316],"type":"Point"},"properties":{"osm_id":"4944496863","tag":{"natural":"tree"}},"type":"Feature"},
	{"geometry":{"coordinates":[-53.320124,-23.763059],"type":"Point"},"properties":{"osm_id":"4944496864","tag":{"natural":"tree"}},"type":"Feature"},
	{"geometry":{"coordinates":[-53.320175,-23.763207],"type":"Point"},"properties":{"osm_id":"4944496865","tag":{"natural":"tree"}},"type":"Feature"},
	{"geometry":{"coordinates":[-53.320072,-23.763263],"type":"Point"},"properties":{"osm_id":"4944496866","tag":{"natural":"tree"}},"type":"Feature"},
	{"geometry":{"coordinates":[-53.319977,-23.763311],"type":"Point"},"properties":{"osm_id":"4944496867","tag":{"natural":"tree"}},"type":"Feature"},
	{"geometry":{"coordinates":[-53.319724,-23.763436],"type":"Point"},"properties":{"osm_id":"4944496868","tag":{"natural":"tree"}},"type":"Feature"},
	{"geometry":{"coordinates":[-53.319871,-23.762931],"type":"Point"},"properties":{"osm_id":"4944496869","tag":{"natural":"tree"}},"type":"Feature"},
	{"geometry":{"coordinates":[-53.319693,-23.762363],"type":"Point"},"properties":{"osm_id":"4944496870","tag":{"natural":"tree"}},"type":"Feature"},
	{"geometry":{"coordinates":[-53.319767,-23.762249],"type":"Point"},"properties":{"osm_id":"4944496871","tag":{"natural":"tree"}},"type":"Feature"},
	{"geometry":{"coordinates":[-53.319692,-23.762137],"type":"Point"},"properties":{"osm_id":"4944496872","tag":{"natural":"tree"}},"type":"Feature"},
	{"geometry":{"coordinates":[-53.319614,-23.762016],"type":"Point"},"properties":{"osm_id":"4944496873","tag":{"natural":"tree"}},"type":"Feature"},
	{"geometry":{"coordinates":[-53.319581,-23.761954],"type":"Point"},"properties":{"osm_id":"4944496874","tag":{"natural":"tree"}},"type":"Feature"},
	{"geometry":{"coordinates":[-53.319405,-23.761893],"type":"Point"},"properties":{"osm_id":"4944496875","tag":{"natural":"tree"}},"type":"Feature"},
	{"geometry":{"coordinates":[-53.319353,-23.761807],"type":"Point"},"properties":{"osm_id":"4944496876","tag":{"natural":"tree"}},"type":"Feature"},
	{"geometry":{"coordinates":[-53.319281,-23.761719],"type":"Point"},"properties":{"osm_id":"4944496877","tag":{"natural":"tree"}},"type":"Feature"},
	{"geometry":{"coordinates":[-53.319223,-23.761602],"type":"Point"},"properties":{"osm_id":"4944496878","tag":{"natural":"tree"}},"type":"Feature"},
	{"geometry":{"coordinates":[-53.320271,-23.763315],"type":"Point"},"properties":{"osm_id":"4944496879","tag":{"natural":"tree"}},"type":"Feature"},
	{"geometry":{"coordinates":[-53.320327,-23.763391],"type":"Point"},"properties":{"osm_id":"4944496880","tag":{"natural":"tree"}},"type":"Feature"},
	{"geometry":{"coordinates":[-53.320795,-23.763928],"type":"Point"},"properties":{"osm_id":"4944496881","tag":{"natural":"tree"}},"type":"Feature"},
	{"geometry":{"coordinates":[-53.320879,-23.764078],"type":"Point"},"properties":{"osm_id":"4944496882","tag":{"natural":"tree"}},"type":"Feature"},
	{"geometry":{"coordinates":[-53.320911,-23.764145],"type":"Point"},"properties":{"osm_id":"4944496883","tag":{"natural":"tree"}},"type":"Feature"},
	{"geometry":{"coordinates":[-53.320749,-23.764305],"type":"Point"},"properties":{"osm_id":"4944496884","tag":{"natural":"tree"}},"type":"Feature"},
	{"geometry":{"coordinates":[-53.321101,-23.76467],"type":"Point"},"properties":{"osm_id":"4944496885","tag":{"natural":"tree"}},"type":"Feature"},
	{"geometry":{"coordinates":[-53.321245,-23.764677],"type":"Point"},"properties":{"osm_id":"4944496886","tag":{"natural":"tree"}},"type":"Feature"},
	{"geometry":{"coordinates":[-53.321293,-23.764779],"type":"Point"},"properties":{"osm_id":"4944496887","tag":{"natural":"tree"}},"type":"Feature"},
	{"geometry":{"coordinates":[-53.321432,-23.764895],"type":"Point"},"properties":{"osm_id":"4944496888","tag":{"natural":"tree"}},"type":"Feature"},
	{"geometry":{"coordinates":[-53.321535,-23.764838],"type":"Point"},"properties":{"osm_id":"4944496889","tag":{"natural":"tree"}},"type":"Feature"},
	{"geometry":{"coordinates":[-53.321821,-23.764708],"type":"Point"},"properties":{"osm_id":"4944496890","tag":{"natural":"tree"}},"type":"Feature"},
	{"geometry":{"coordinates":[-53.322063,-23.764711],"type":"Point"},"properties":{"osm_id":"4944496891","tag":{"natural":"tree"}},"type":"Feature"},
	{"geometry":{"coordinates":[-53.322232,-23.764755],"type":"Point"},"properties":{"osm_id":"4944496892","tag":{"natural":"tree"}},"type":"Feature"},
	{"geometry":{"coordinates":[-53.322153,-23.764853],"type":"Point"},"properties":{"osm_id":"4944496893","tag":{"natural":"tree"}},"type":"Feature"},
	{"geometry":{"coordinates":[-53.322209,-23.764963],"type":"Point"},"properties":{"osm_id":"4944496894","tag":{"natural":"tree"}},"type":"Feature"},
	{"geometry":{"coordinates":[-53.322333,-23.764921],"type":"Point"},"properties":{"osm_id":"4944496895","tag":{"natural":"tree"}},"type":"Feature"},
	{"geometry":{"coordinates":[-53.322395,-23.76525],"type":"Point"},"properties":{"osm_id":"4944496896","tag":{"natural":"tree"}},"type":"Feature"},
	{"geometry":{"coordinates":[-53.322446,-23.765343],"type":"Point"},"properties":{"osm_id":"4944496897","tag":{"natural":"tree"}},"type":"Feature"},
	{"geometry":{"coordinates":[-53.322497,-23.765419],"type":"Point"},"properties":{"osm_id":"4944496898","tag":{"natural":"tree"}},"type":"Feature"},
	{"geometry":{"coordinates":[-53.322548,-23.765492],"type":"Point"},"properties":{"osm_id":"4944496899","tag":{"natural":"tree"}},"type":"Feature"},
	{"geometry":{"coordinates":[-53.322725,-23.765571],"type":"Point"},"properties":{"osm_id":"4944496900","tag":{"natural":"tree"}},"type":"Feature"},
	{"geometry":{"coordinates":[-53.322658,-23.765443],"type":"Point"},"properties":{"osm_id":"4944496901","tag":{"natural":"tree"}},"type":"Feature"},
	{"geometry":{"coordinates":[-53.322604,-23.765355],"type":"Point"},"properties":{"osm_id":"4944496902","tag":{"natural":"tree"}},"type":"Feature"},
	{"geometry":{"coordinates":[-53.322562,-23.765285],"type":"Point"},"properties":{"osm_id":"4944496903","tag":{"natural":"tree"}},"type":"Feature"},
	{"geometry":{"coordinates":[-53.322493,-23.765194],"type":"Point"},"properties":{"osm_id":"4944496904","tag":{"natural":"tree"}},"type":"Feature"},
	{"geometry":{"coordinates":[-53.314452,-23.762987],"type":"Point"},"properties":{"osm_id":"4944895622","tag":{"natural":"tree"}},"type":"Feature"},
	{"geometry":{"coordinates":[-53.314552,-23.763019],"type":"Point"},"properties":{"osm_id":"4944895623","tag":{"natural":"tree"}},"type":"Feature"},
	{"geometry":{"coordinates":[-53.314633,-23.76304],"type":"Point"},"properties":{"osm_id":"4944895624","tag":{"natural":"tree"}},"type":"Feature"},
	{"geometry":{"coordinates":[-53.314968,-23.76288],"type":"Point"},"properties":{"osm_id":"4944895625","tag":{"natural":"tree"}},"type":"Feature"},
	{"geometry":{"coordinates":[-53.31507,-23.762904],"type":"Point"},"properties":{"osm_id":"4944895626","tag":{"natural":"tree"}},"type":"Feature"},
	{"geometry":{"coordinates":[-53.315164,-23.762921],"type":"Point"},"properties":{"osm_id":"4944895627","tag":{"natural":"tree"}},"type":"Feature"},
	{"geometry":{"coordinates":[-53.315315,-23.762958],"type":"Point"},"properties":{"osm_id":"4944895628","tag":{"natural":"tree"}},"type":"Feature"},
	{"geometry":{"coordinates":[-53.315452,-23.762993],"type":"Point"},"properties":{"osm_id":"4944895629","tag":{"natural":"tree"}},"type":"Feature"},
	{"geometry":{"coordinates":[-53.315589,-23.763036],"type":"Point"},"properties":{"osm_id":"4944895630","tag":{"natural":"tree"}},"type":"Feature"},
	{"geometry":{"coordinates":[-53.315737,-23.763077],"type":"Point"},"properties":{"osm_id":"4944895631","tag":{"natural":"tree"}},"type":"Feature"},
	{"geometry":{"coordinates":[-53.315833,-23.763105],"type":"Point"},"properties":{"osm_id":"4944895632","tag":{"natural":"tree"}},"type":"Feature"},
	{"geometry":{"coordinates":[-53.315958,-23.763141],"type":"Point"},"properties":{"osm_id":"4944895633","tag":{"natural":"tree"}},"type":"Feature"},
	{"geometry":{"coordinates":[-53.316107,-23.763177],"type":"Point"},"properties":{"osm_id":"4944895634","tag":{"natural":"tree"}},"type":"Feature"},
	{"geometry":{"coordinates":[-53.316261,-23.763213],"type":"Point"},"properties":{"osm_id":"4944895635","tag":{"natural":"tree"}},"type":"Feature"},
	{"geometry":{"coordinates":[-53.315958,-23.763377],"type":"Point"},"properties":{"osm_id":"4944895636","tag":{"natural":"tree"}},"type":"Feature"},
	{"geometry":{"coordinates":[-53.315845,-23.763341],"type":"Point"},"properties":{"osm_id":"4944895637","tag":{"natural":"tree"}},"type":"Feature"},
	{"geometry":{"coordinates":[-53.315722,-23.763315],"type":"Point"},"properties":{"osm_id":"4944895638","tag":{"natural":"tree"}},"type":"Feature"},
	{"geometry":{"coordinates":[-53.316369,-23.763479],"type":"Point"},"properties":{"osm_id":"4944895639","tag":{"natural":"tree"}},"type":"Feature"},
	{"geometry":{"coordinates":[-53.316454,-23.763503],"type":"Point"},"properties":{"osm_id":"4944895640","tag":{"natural":"tree"}},"type":"Feature"},
	{"geometry":{"coordinates":[-53.31649,-23.76328],"type":"Point"},"properties":{"osm_id":"4944895641","tag":{"natural":"tree"}},"type":"Feature"},
	{"geometry":{"coordinates":[-53.316686,-23.763564],"type":"Point"},"properties":{"osm_id":"4944895642","tag":{"natural":"tree"}},"type":"Feature"},
	{"geometry":{"coordinates":[-53.317038,-23.763534],"type":"Point"},"properties":{"osm_id":"4944895643","tag":{"natural":"tree"}},"type":"Feature"},
	{"geometry":{"coordinates":[-53.317137,-23.763698],"type":"Point"},"properties":{"osm_id":"4944895644","tag":{"natural":"tree"}},"type":"Feature"},
	{"geometry":{"coordinates":[-53.316753,-23.763777],"type":"Point"},"properties":{"osm_id":"4944895645","tag":{"natural":"tree"}},"type":"Feature"},
	{"geometry":{"coordinates":[-53.316562,-23.763872],"type":"Point"},"properties":{"osm_id":"4944895646","tag":{"natural":"tree"}},"type":"Feature"},
	{"geometry":{"coordinates":[-53.316629,-23.763835],"type":"Point"},"properties":{"osm_id":"4944895647","tag":{"natural":"tree"}},"type":"Feature"},
	{"geometry":{"coordinates":[-53.317084,-23.763602],"type":"Point"},"properties":{"osm_id":"4944895648","tag":{"natural":"tree"}},"type":"Feature"},
	{"geometry":{"coordinates":[-53.317401,-23.763618],"type":"Point"},"properties":{"osm_id":"4944895649","tag":{"natural":"tree"}},"type":"Feature"},
	{"geometry":{"coordinates":[-53.317531,-23.763652],"type":"Point"},"properties":{"osm_id":"4944895650","tag":{"natural":"tree"}},"type":"Feature"},
	{"geometry":{"coordinates":[-53.317739,-23.763844],"type":"Point"},"properties":{"osm_id":"4944895651","tag":{"natural":"tree"}},"type":"Feature"},
	{"geometry":{"coordinates":[-53.317815,-23.763854],"type":"Point"},"properties":{"osm_id":"4944895652","tag":{"natural":"tree"}},"type":"Feature"},
	{"geometry":{"coordinates":[-53.317943,-23.763891],"type":"Point"},"properties":{"osm_id":"4944895653","tag":{"natural":"tree"}},"type":"Feature"},
	{"geometry":{"coordinates":[-53.318011,-23.763923],"type":"Point"},"properties":{"osm_id":"4944895654","tag":{"natural":"tree"}},"type":"Feature"},
	{"geometry":{"coordinates":[-53.318065,-23.763962],"type":"Point"},"properties":{"osm_id":"4944895655","tag":{"natural":"tree"}},"type":"Feature"},
	{"geometry":{"coordinates":[-53.318119,-23.764013],"type":"Point"},"properties":{"osm_id":"4944895656","tag":{"natural":"tree"}},"type":"Feature"},
	{"geometry":{"coordinates":[-53.318162,-23.764067],"type":"Point"},"properties":{"osm_id":"4944895657","tag":{"natural":"tree"}},"type":"Feature"},
	{"geometry":{"coordinates":[-53.318198,-23.764123],"type":"Point"},"properties":{"osm_id":"4944895658","tag":{"natural":"tree"}},"type":"Feature"},
	{"geometry":{"coordinates":[-53.317892,-23.764169],"type":"Point"},"properties":{"osm_id":"4944895659","tag":{"natural":"tree"}},"type":"Feature"},
	{"geometry":{"coordinates":[-53.317668,-23.76403],"type":"Point"},"properties":{"osm_id":"4944895660","tag":{"natural":"tree"}},"type":"Feature"},
	{"geometry":{"coordinates":[-53.318247,-23.764466],"type":"Point"},"properties":{"osm_id":"4944895661","tag":{"natural":"tree"}},"type":"Feature"},
	{"geometry":{"coordinates":[-53.318182,-23.764604],"type":"Point"},"properties":{"osm_id":"4944895662","tag":{"natural":"tree"}},"type":"Feature"},
	{"geometry":{"coordinates":[-53.318145,-23.764659],"type":"Point"},"properties":{"osm_id":"4944895663","tag":{"natural":"tree"}},"type":"Feature"},
	{"geometry":{"coordinates":[-53.318106,-23.764706],"type":"Point"},"properties":{"osm_id":"4944895664","tag":{"natural":"tree"}},"type":"Feature"},
	{"geometry":{"coordinates":[-53.31805,-23.764753],"type":"Point"},"properties":{"osm_id":"4944895665","tag":{"natural":"tree"}},"type":"Feature"},
	{"geometry":{"coordinates":[-53.317987,-23.764793],"type":"Point"},"properties":{"osm_id":"4944895666","tag":{"natural":"tree"}},"type":"Feature"},
	{"geometry":{"coordinates":[-53.317927,-23.764822],"type":"Point"},"properties":{"osm_id":"4944895667","tag":{"natural":"tree"}},"type":"Feature"},
	{"geometry":{"coordinates":[-53.317851,-23.76485],"type":"Point"},"properties":{"osm_id":"4944895668","tag":{"natural":"tree"}},"type":"Feature"},
	{"geometry":{"coordinates":[-53.317775,-23.76486],"type":"Point"},"properties":{"osm_id":"4944895669","tag":{"natural":"tree"}},"type":"Feature"},
	{"geometry":{"coordinates":[-53.317699,-23.764862],"type":"Point"},"properties":{"osm_id":"4944895670","tag":{"natural":"tree"}},"type":"Feature"},
	{"geometry":{"coordinates":[-53.318228,-23.764907],"type":"Point"},"properties":{"osm_id":"4944895671","tag":{"natural":"tree"}},"type":"Feature"},
	{"geometry":{"coordinates":[-53.317986,-23.765061],"type":"Point"},"properties":{"osm_id":"4944895672","tag":{"natural":"tree"}},"type":"Feature"},
	{"geometry":{"coordinates":[-53.318547,-23.764868],"type":"Point"},"properties":{"osm_id":"4944895673","tag":{"natural":"tree"}},"type":"Feature"},
	{"geometry":{"coordinates":[-53.318378,-23.764989],"type":"Point"},"properties":{"osm_id":"4944895674","tag":{"natural":"tree"}},"type":"Feature"},
	{"geometry":{"coordinates":[-53.318794,-23.764597],"type":"Point"},"properties":{"osm_id":"4944895675","tag":{"natural":"tree"}},"type":"Feature"},
	{"geometry":{"coordinates":[-53.318816,-23.764631],"type":"Point"},"properties":{"osm_id":"4944895676","tag":{"natural":"tree"}},"type":"Feature"},
	{"geometry":{"coordinates":[-53.318947,-23.764563],"type":"Point"},"properties":{"osm_id":"4944895677","tag":{"natural":"tree"}},"type":"Feature"},
	{"geometry":{"coordinates":[-53.318902,-23.764486],"type":"Point"},"properties":{"osm_id":"4944895678","tag":{"natural":"tree"}},"type":"Feature"},
	{"geometry":{"coordinates":[-53.318868,-23.764431],"type":"Point"},"properties":{"osm_id":"4944895679","tag":{"natural":"tree"}},"type":"Feature"},
	{"geometry":{"coordinates":[-53.318825,-23.764354],"type":"Point"},"properties":{"osm_id":"4944895680","tag":{"natural":"tree"}},"type":"Feature"},
	{"geometry":{"coordinates":[-53.318772,-23.764273],"type":"Point"},"properties":{"osm_id":"4944895681","tag":{"natural":"tree"}},"type":"Feature"},
	{"geometry":{"coordinates":[-53.318563,-23.764288],"type":"Point"},"properties":{"osm_id":"4944895682","tag":{"natural":"tree"}},"type":"Feature"},
	{"geometry":{"coordinates":[-53.318861,-23.764038],"type":"Point"},"properties":{"osm_id":"4944895683","tag":{"natural":"tree"}},"type":"Feature"},
	{"geometry":{"coordinates":[-53.318947,-23.763991],"type":"Point"},"properties":{"osm_id":"4944895684","tag":{"natural":"tree"}},"type":"Feature"},
	{"geometry":{"coordinates":[-53.318772,-23.76409],"type":"Point"},"properties":{"osm_id":"4944895685","tag":{"natural":"tree"}},"type":"Feature"},
	{"geometry":{"coordinates":[-53.31906,-23.763922],"type":"Point"},"properties":{"osm_id":"4944895686","tag":{"natural":"tree"}},"type":"Feature"},
	{"geometry":{"coordinates":[-53.319157,-23.763869],"type":"Point"},"properties":{"osm_id":"4944895687","tag":{"natural":"tree"}},"type":"Feature"},
	{"geometry":{"coordinates":[-53.319255,-23.763812],"type":"Point"},"properties":{"osm_id":"4944895688","tag":{"natural":"tree"}},"type":"Feature"},
	{"geometry":{"coordinates":[-53.31935,-23.763763],"type":"Point"},"properties":{"osm_id":"4944895689","tag":{"natural":"tree"}},"type":"Feature"},
	{"geometry":{"coordinates":[-53.3187,-23.763783],"type":"Point"},"properties":{"osm_id":"4944895690","tag":{"natural":"tree"}},"type":"Feature"},
	{"geometry":{"coordinates":[-53.319069,-23.763683],"type":"Point"},"properties":{"osm_id":"4944895691","tag":{"natural":"tree"}},"type":"Feature"},
	{"geometry":{"coordinates":[-53.319019,-23.763386],"type":"Point"},"properties":{"osm_id":"4944895692","tag":{"natural":"tree"}},"type":"Feature"},
	{"geometry":{"coordinates":[-53.318897,-23.76345],"type":"Point"},"properties":{"osm_id":"4944895693","tag":{"natural":"tree"}},"type":"Feature"},
	{"geometry":{"coordinates":[-53.319174,-23.763006],"type":"Point"},"properties":{"osm_id":"4944895694","tag":{"natural":"tree"}},"type":"Feature"},
	{"geometry":{"coordinates":[-53.319,-23.762724],"type":"Point"},"properties":{"osm_id":"4944895695","tag":{"natural":"tree"}},"type":"Feature"},
	{"geometry":{"coordinates":[-53.318864,-23.762735],"type":"Point"},"properties":{"osm_id":"4944895696","tag":{"natural":"tree"}},"type":"Feature"},
	{"geometry":{"coordinates":[-53.318712,-23.762255],"type":"Point"},"properties":{"osm_id":"4944895697","tag":{"natural":"tree"}},"type":"Feature"},
	{"geometry":{"coordinates":[-53.318219,-23.761728],"type":"Point"},"properties":{"osm_id":"4944895698","tag":{"natural":"tree"}},"type":"Feature"},
	{"geometry":{"coordinates":[-53.318166,-23.761398],"type":"Point"},"properties":{"osm_id":"4944895699","tag":{"natural":"tree"}},"type":"Feature"},
	{"geometry":{"coordinates":[-53.318906,-23.761342],"type":"Point"},"properties":{"osm_id":"4944895700","tag":{"natural":"tree"}},"type":"Feature"},
	{"geometry":{"coordinates":[-53.318766,-23.761419],"type":"Point"},"properties":{"osm_id":"4944895701","tag":{"natural":"tree"}},"type":"Feature"},
	{"geometry":{"coordinates":[-53.319048,-23.76133],"type":"Point"},"properties":{"osm_id":"4944895702","tag":{"natural":"tree"}},"type":"Feature"},
	{"geometry":{"coordinates":[-53.319171,-23.76127],"type":"Point"},"properties":{"osm_id":"4944895703","tag":{"natural":"tree"}},"type":"Feature"},
	{"geometry":{"coordinates":[-53.319228,-23.761375],"type":"Point"},"properties":{"osm_id":"4944895704","tag":{"natural":"tree"}},"type":"Feature"},
	{"geometry":{"coordinates":[-53.310961,-23.764333],"type":"Point"},"properties":{"osm_id":"4944940382","tag":{"natural":"tree"}},"type":"Feature"},
	{"geometry":{"coordinates":[-53.311328,-23.764405],"type":"Point"},"properties":{"osm_id":"4944940383","tag":{"natural":"tree"}},"type":"Feature"},
	{"geometry":{"coordinates":[-53.310944,-23.76441],"type":"Point"},"properties":{"osm_id":"4944940384","tag":{"natural":"tree"}},"type":"Feature"},
	{"geometry":{"coordinates":[-53.310876,-23.764626],"type":"Point"},"properties":{"osm_id":"4944940385","tag":{"natural":"tree"}},"type":"Feature"},
	{"geometry":{"coordinates":[-53.311309,-23.764225],"type":"Point"},"properties":{"osm_id":"4944940386","tag":{"natural":"tree"}},"type":"Feature"},
	{"geometry":{"coordinates":[-53.311439,-23.764258],"type":"Point"},"properties":{"osm_id":"4944940387","tag":{"natural":"tree"}},"type":"Feature"},
	{"geometry":{"coordinates":[-53.311541,-23.764279],"type":"Point"},"properties":{"osm_id":"4944940388","tag":{"natural":"tree"}},"type":"Feature"},
	{"geometry":{"coordinates":[-53.310807,-23.764228],"type":"Point"},"properties":{"osm_id":"4944940389","tag":{"natural":"tree"}},"type":"Feature"},
	{"geometry":{"coordinates":[-53.31057,-23.764171],"type":"Point"},"properties":{"osm_id":"4944940390","tag":{"natural":"tree"}},"type":"Feature"},
	{"geometry":{"coordinates":[-53.311033,-23.764073],"type":"Point"},"properties":{"osm_id":"4944940391","tag":{"natural":"tree"}},"type":"Feature"},
	{"geometry":{"coordinates":[-53.311062,-23.764001],"type":"Point"},"properties":{"osm_id":"4944940392","tag":{"natural":"tree"}},"type":"Feature"},
	{"geometry":{"coordinates":[-53.31112,-23.763829],"type":"Point"},"properties":{"osm_id":"4944940393","tag":{"natural":"tree"}},"type":"Feature"},
	{"geometry":{"coordinates":[-53.311149,-23.763714],"type":"Point"},"properties":{"osm_id":"4944940394","tag":{"natural":"tree"}},"type":"Feature"},
	{"geometry":{"coordinates":[-53.311225,-23.763898],"type":"Point"},"properties":{"osm_id":"4944940395","tag":{"natural":"tree"}},"type":"Feature"},
	{"geometry":{"coordinates":[-53.311144,-23.764104],"type":"Point"},"properties":{"osm_id":"4944940396","tag":{"natural":"tree"}},"type":"Feature"},
	{"geometry":{"coordinates":[-53.311219,-23.763489],"type":"Point"},"properties":{"osm_id":"4944940397","tag":{"natural":"tree"}},"type":"Feature"},
	{"geometry":{"coordinates":[-53.311263,-23.763341],"type":"Point"},"properties":{"osm_id":"4944940398","tag":{"natural":"tree"}},"type":"Feature"},
	{"geometry":{"coordinates":[-53.311172,-23.763308],"type":"Point"},"properties":{"osm_id":"4944940399","tag":{"natural":"tree"}},"type":"Feature"},
	{"geometry":{"coordinates":[-53.311191,-23.763213],"type":"Point"},"properties":{"osm_id":"4944940400","tag":{"natural":"tree"}},"type":"Feature"},
	{"geometry":{"coordinates":[-53.311711,-23.763181],"type":"Point"},"properties":{"osm_id":"4944940401","tag":{"natural":"tree"}},"type":"Feature"},
	{"geometry":{"coordinates":[-53.311628,-23.763257],"type":"Point"},"properties":{"osm_id":"4944940402","tag":{"natural":"tree"}},"type":"Feature"},
	{"geometry":{"coordinates":[-53.311361,-23.762999],"type":"Point"},"properties":{"osm_id":"4944940403","tag":{"natural":"tree"}},"type":"Feature"},
	{"geometry":{"coordinates":[-53.311625,-23.762818],"type":"Point"},"properties":{"osm_id":"4944940404","tag":{"natural":"tree"}},"type":"Feature"},
	{"geometry":{"coordinates":[-53.311801,-23.762799],"type":"Point"},"properties":{"osm_id":"4944940405","tag":{"natural":"tree"}},"type":"Feature"},
	{"geometry":{"coordinates":[-53.311707,-23.762818],"type":"Point"},"properties":{"osm_id":"4944940406","tag":{"natural":"tree"}},"type":"Feature"},
	{"geometry":{"coordinates":[-53.313291,-23.762461],"type":"Point"},"properties":{"osm_id":"4944940407","tag":{"natural":"tree"}},"type":"Feature"},
	{"geometry":{"coordinates":[-53.313018,-23.762384],"type":"Point"},"properties":{"osm_id":"4944940408","tag":{"natural":"tree"}},"type":"Feature"},
	{"geometry":{"coordinates":[-53.314648,-23.760699],"type":"Point"},"properties":{"osm_id":"4944940729","tag":{"natural":"tree"}},"type":"Feature"},
	{"geometry":{"coordinates":[-53.314234,-23.760788],"type":"Point"},"properties":{"osm_id":"4944940730","tag":{"natural":"tree"}},"type":"Feature"},
	{"geometry":{"coordinates":[-53.314129,-23.760851],"type":"Point"},"properties":{"osm_id":"4944940731","tag":{"natural":"tree"}},"type":"Feature"},
	{"geometry":{"coordinates":[-53.314009,-23.760907],"type":"Point"},"properties":{"osm_id":"4944940732","tag":{"natural":"tree"}},"type":"Feature"},
	{"geometry":{"coordinates":[-53.314361,-23.760725],"type":"Point"},"properties":{"osm_id":"4944940733","tag":{"natural":"tree"}},"type":"Feature"},
	{"geometry":{"coordinates":[-53.314471,-23.760668],"type":"Point"},"properties":{"osm_id":"4944940734","tag":{"natural":"tree"}},"type":"Feature"},
	{"geometry":{"coordinates":[-53.314598,-23.760604],"type":"Point"},"properties":{"osm_id":"4944940735","tag":{"natural":"tree"}},"type":"Feature"},
	{"geometry":{"coordinates":[-53.31471,-23.760545],"type":"Point"},"properties":{"osm_id":"4944940736","tag":{"natural":"tree"}},"type":"Feature"},
	{"geometry":{"coordinates":[-53.314823,-23.760487],"type":"Point"},"properties":{"osm_id":"4944940737","tag":{"natural":"tree"}},"type":"Feature"},
	{"geometry":{"coordinates":[-53.314994,-23.760532],"type":"Point"},"properties":{"osm_id":"4944940738","tag":{"natural":"tree"}},"type":"Feature"},
	{"geometry":{"coordinates":[-53.315056,-23.760365],"type":"Point"},"properties":{"osm_id":"4944940739","tag":{"natural":"tree"}},"type":"Feature"},
	{"geometry":{"coordinates":[-53.31483,-23.760342],"type":"Point"},"properties":{"osm_id":"4944940740","tag":{"natural":"tree"}},"type":"Feature"},
	{"geometry":{"coordinates":[-53.314742,-23.760382],"type":"Point"},"properties":{"osm_id":"4944940741","tag":{"natural":"tree"}},"type":"Feature"},
	{"geometry":{"coordinates":[-53.314625,-23.760444],"type":"Point"},"properties":{"osm_id":"4944940742","tag":{"natural":"tree"}},"type":"Feature"},
	{"geometry":{"coordinates":[-53.314529,-23.760494],"type":"Point"},"properties":{"osm_id":"4944940743","tag":{"natural":"tree"}},"type":"Feature"},
	{"geometry":{"coordinates":[-53.315171,-23.760439],"type":"Point"},"properties":{"osm_id":"4944940744","tag":{"natural":"tree"}},"type":"Feature"},
	{"geometry":{"coordinates":[-53.315284,-23.760543],"type":"Point"},"properties":{"osm_id":"4944940745","tag":{"natural":"tree"}},"type":"Feature"},
	{"geometry":{"coordinates":[-53.315517,-23.76031],"type":"Point"},"properties":{"osm_id":"4944940746","tag":{"natural":"tree"}},"type":"Feature"},
	{"geometry":{"coordinates":[-53.315336,-23.760226],"type":"Point"},"properties":{"osm_id":"4944940747","tag":{"natural":"tree"}},"type":"Feature"},
	{"geometry":{"coordinates":[-53.315397,-23.760191],"type":"Point"},"properties":{"osm_id":"4944940748","tag":{"natural":"tree"}},"type":"Feature"},
	{"geometry":{"coordinates":[-53.315314,-23.760105],"type":"Point"},"properties":{"osm_id":"4944940749","tag":{"natural":"tree"}},"type":"Feature"},
	{"geometry":{"coordinates":[-53.315225,-23.760133],"type":"Point"},"properties":{"osm_id":"4944940750","tag":{"natural":"tree"}},"type":"Feature"},
	{"geometry":{"coordinates":[-53.315056,-23.760209],"type":"Point"},"properties":{"osm_id":"4944940751","tag":{"natural":"tree"}},"type":"Feature"},
	{"geometry":{"coordinates":[-53.31505,-23.76014],"type":"Point"},"properties":{"osm_id":"4944940752","tag":{"natural":"tree"}},"type":"Feature"},
	{"geometry":{"coordinates":[-53.314933,-23.759957],"type":"Point"},"properties":{"osm_id":"4944940753","tag":{"natural":"tree"}},"type":"Feature"},
	{"geometry":{"coordinates":[-53.315017,-23.759756],"type":"Point"},"properties":{"osm_id":"4944940754","tag":{"natural":"tree"}},"type":"Feature"},
	{"geometry":{"coordinates":[-53.30364,-23.760971],"type":"Point"},"properties":{"osm_id":"4946315201","tag":{"natural":"tree"}},"type":"Feature"},
	{"geometry":{"coordinates":[-53.3034,-23.76091],"type":"Point"},"properties":{"osm_id":"4946315202","tag":{"natural":"tree"}},"type":"Feature"},
	{"geometry":{"coordinates":[-53.303316,-23.760892],"type":"Point"},"properties":{"osm_id":"4946315203","tag":{"natural":"tree"}},"type":"Feature"},
	{"geometry":{"coordinates":[-53.303174,-23.760859],"type":"Point"},"properties":{"osm_id":"4946315204","tag":{"natural":"tree"}},"type":"Feature"},
	{"geometry":{"coordinates":[-53.303279,-23.760989],"type":"Point"},"properties":{"osm_id":"4946315205","tag":{"natural":"tree"}},"type":"Feature"},
	{"geometry":{"coordinates":[-53.303789,-23.761101],"type":"Point"},"properties":{"osm_id":"4946315206","tag":{"natural":"tree"}},"type":"Feature"},
	{"geometry":{"coordinates":[-53.303632,-23.76106],"type":"Point"},"properties":{"osm_id":"4946315207","tag":{"natural":"tree"}},"type":"Feature"},
	{"geometry":{"coordinates":[-53.303509,-23.761032],"type":"Point"},"properties":{"osm_id":"4946315208","tag":{"natural":"tree"}},"type":"Feature"},
	{"geometry":{"coordinates":[-53.303403,-23.761005],"type":"Point"},"properties":{"osm_id":"4946315209","tag":{"natural":"tree"}},"type":"Feature"},
	{"geometry":{"coordinates":[-53.302592,-23.760831],"type":"Point"},"properties":{"osm_id":"4946315210","tag":{"natural":"tree"}},"type":"Feature"},
	{"geometry":{"coordinates":[-53.302566,-23.760929],"type":"Point"},"properties":{"osm_id":"4946315211","tag":{"natural":"tree"}},"type":"Feature"},
	{"geometry":{"coordinates":[-53.3024,-23.761056],"type":"Point"},"properties":{"osm_id":"4946336751","tag":{"natural":"tree"}},"type":"Feature"},
	{"geometry":{"coordinates":[-53.302421,-23.760983],"type":"Point"},"properties":{"osm_id":"4946336752","tag":{"natural":"tree"}},"type":"Feature"},
	{"geometry":{"coordinates":[-53.302343,-23.761269],"type":"Point"},"properties":{"osm_id":"4946336758","tag":{"natural":"tree"}},"type":"Feature"},
	{"geometry":{"coordinates":[-53.302325,-23.761331],"type":"Point"},"properties":{"osm_id":"4946336759","tag":{"natural":"tree"}},"type":"Feature"},
	{"geometry":{"coordinates":[-53.302314,-23.761367],"type":"Point"},"properties":{"osm_id":"4946336760","tag":{"natural":"tree"}},"type":"Feature"},
	{"geometry":{"coordinates":[-53.302299,-23.761402],"type":"Point"},"properties":{"osm_id":"4946336761","tag":{"natural":"tree"}},"type":"Feature"},
	{"geometry":{"coordinates":[-53.302469,-23.761258],"type":"Point"},"properties":{"osm_id":"4946336762","tag":{"natural":"tree"}},"type":"Feature"},
	{"geometry":{"coordinates":[-53.302454,-23.761316],"type":"Point"},"properties":{"osm_id":"4946336763","tag":{"natural":"tree"}},"type":"Feature"},
	{"geometry":{"coordinates":[-53.302435,-23.761384],"type":"Point"},"properties":{"osm_id":"4946336764","tag":{"natural":"tree"}},"type":"Feature"},
	{"geometry":{"coordinates":[-53.297325,-23.758538],"type":"Point"},"properties":{"osm_id":"4946348749","tag":{"natural":"tree"}},"type":"Feature"},
	{"geometry":{"coordinates":[-53.296712,-23.75844],"type":"Point"},"properties":{"osm_id":"4946348750","tag":{"natural":"tree"}},"type":"Feature"},
	{"geometry":{"coordinates":[-53.296866,-23.758277],"type":"Point"},"properties":{"osm_id":"4946348751","tag":{"natural":"tree"}},"type":"Feature"},
	{"geometry":{"coordinates":[-53.296847,-23.758635],"type":"Point"},"properties":{"osm_id":"4946348752","tag":{"natural":"tree"}},"type":"Feature"},
	{"geometry":{"coordinates":[-53.296837,-23.758106],"type":"Point"},"properties":{"osm_id":"4946348753","tag":{"natural":"tree"}},"type":"Feature"},
	{"geometry":{"coordinates":[-53.297018,-23.758326],"type":"Point"},"properties":{"osm_id":"4946348754","tag":{"natural":"tree"}},"type":"Feature"},
	{"geometry":{"coordinates":[-53.297069,-23.75815],"type":"Point"},"properties":{"osm_id":"4946348755","tag":{"natural":"tree"}},"type":"Feature"},
	{"geometry":{"coordinates":[-53.297243,-23.758057],"type":"Point"},"properties":{"osm_id":"4946348757","tag":{"natural":"tree"}},"type":"Feature"},
	{"geometry":{"coordinates":[-53.297195,-23.757985],"type":"Point"},"properties":{"osm_id":"4946348758","tag":{"natural":"tree"}},"type":"Feature"},
	{"geometry":{"coordinates":[-53.296467,-23.75785],"type":"Point"},"properties":{"osm_id":"4946348759","tag":{"natural":"tree"}},"type":"Feature"},
	{"geometry":{"coordinates":[-53.296408,-23.758078],"type":"Point"},"properties":{"osm_id":"4946348760","tag":{"natural":"tree"}},"type":"Feature"},
	{"geometry":{"coordinates":[-53.29677,-23.757353],"type":"Point"},"properties":{"osm_id":"4946348761","tag":{"natural":"tree"}},"type":"Feature"},
	{"geometry":{"coordinates":[-53.296812,-23.757231],"type":"Point"},"properties":{"osm_id":"4946348762","tag":{"natural":"tree"}},"type":"Feature"},
	{"geometry":{"coordinates":[-53.296843,-23.757117],"type":"Point"},"properties":{"osm_id":"4946348769","tag":{"natural":"tree"}},"type":"Feature"},
	{"geometry":{"coordinates":[-53.296873,-23.757018],"type":"Point"},"properties":{"osm_id":"4946348770","tag":{"natural":"tree"}},"type":"Feature"},
	{"geometry":{"coordinates":[-53.296856,-23.756591],"type":"Point"},"properties":{"osm_id":"4946348771","tag":{"natural":"tree"}},"type":"Feature"},
	{"geometry":{"coordinates":[-53.296764,-23.756536],"type":"Point"},"properties":{"osm_id":"4946348772","tag":{"natural":"tree"}},"type":"Feature"},
	{"geometry":{"coordinates":[-53.296196,-23.756642],"type":"Point"},"properties":{"osm_id":"4946348773","tag":{"natural":"tree"}},"type":"Feature"},
	{"geometry":{"coordinates":[-53.297228,-23.756631],"type":"Point"},"properties":{"osm_id":"4946348774","tag":{"natural":"tree"}},"type":"Feature"},
	{"geometry":{"coordinates":[-53.297315,-23.75665],"type":"Point"},"properties":{"osm_id":"4946348775","tag":{"natural":"tree"}},"type":"Feature"},
	{"geometry":{"coordinates":[-53.297411,-23.756674],"type":"Point"},"properties":{"osm_id":"4946348776","tag":{"natural":"tree"}},"type":"Feature"},
	{"geometry":{"coordinates":[-53.297125,-23.75652],"type":"Point"},"properties":{"osm_id":"4946348777","tag":{"natural":"tree"}},"type":"Feature"},
	{"geometry":{"coordinates":[-53.297014,-23.756499],"type":"Point"},"properties":{"osm_id":"4946348778","tag":{"natural":"tree"}},"type":"Feature"},
	{"geometry":{"coordinates":[-53.297224,-23.756276],"type":"Point"},"properties":{"osm_id":"4946348779","tag":{"natural":"tree"}},"type":"Feature"},
	{"geometry":{"coordinates":[-53.296419,-23.756318],"type":"Point"},"properties":{"osm_id":"4946348780","tag":{"natural":"tree"}},"type":"Feature"},
	{"geometry":{"coordinates":[-53.29654,-23.75606],"type":"Point"},"properties":{"osm_id":"4946348781","tag":{"natural":"tree"}},"type":"Feature"},
	{"geometry":{"coordinates":[-53.296463,-23.756034],"type":"Point"},"properties":{"osm_id":"4946348782","tag":{"natural":"tree"}},"type":"Feature"},
	{"geometry":{"coordinates":[-53.296389,-23.75601],"type":"Point"},"properties":{"osm_id":"4946348783","tag":{"natural":"tree"}},"type":"Feature"},
	{"geometry":{"coordinates":[-53.297015,-23.756025],"type":"Point"},"properties":{"osm_id":"4946348784","tag":{"natural":"tree"}},"type":"Feature"},
	{"geometry":{"coordinates":[-53.29697,-23.756215],"type":"Point"},"properties":{"osm_id":"4946348785","tag":{"natural":"tree"}},"type":"Feature"},
	{"geometry":{"coordinates":[-53.29703,-23.755863],"type":"Point"},"properties":{"osm_id":"4946348786","tag":{"natural":"tree"}},"type":"Feature"},
	{"geometry":{"coordinates":[-53.296956,-23.755847],"type":"Point"},"properties":{"osm_id":"4946348787","tag":{"natural":"tree"}},"type":"Feature"},
	{"geometry":{"coordinates":[-53.296877,-23.755833],"type":"Point"},"properties":{"osm_id":"4946348788","tag":{"natural":"tree"}},"type":"Feature"},
	{"geometry":{"coordinates":[-53.296793,-23.755806],"type":"Point"},"properties":{"osm_id":"4946348789","tag":{"natural":"tree"}},"type":"Feature"},
	{"geometry":{"coordinates":[-53.296706,-23.755789],"type":"Point"},"properties":{"osm_id":"4946348790","tag":{"natural":"tree"}},"type":"Feature"},
	{"geometry":{"coordinates":[-53.296985,-23.755776],"type":"Point"},"properties":{"osm_id":"4946348791","tag":{"natural":"tree"}},"type":"Feature"},
	{"geometry":{"coordinates":[-53.296911,-23.755755],"type":"Point"},"properties":{"osm_id":"4946348792","tag":{"natural":"tree"}},"type":"Feature"},
	{"geometry":{"coordinates":[-53.296843,-23.755737],"type":"Point"},"properties":{"osm_id":"4946348793","tag":{"natural":"tree"}},"type":"Feature"},
	{"geometry":{"coordinates":[-53.296757,-23.755719],"type":"Point"},"properties":{"osm_id":"4946348794","tag":{"natural":"tree"}},"type":"Feature"},
	{"geometry":{"coordinates":[-53.297241,-23.755755],"type":"Point"},"properties":{"osm_id":"4946348795","tag":{"natural":"tree"}},"type":"Feature"},
	{"geometry":{"coordinates":[-53.297427,-23.755586],"type":"Point"},"properties":{"osm_id":"4946348796","tag":{"natural":"tree"}},"type":"Feature"},
	{"geometry":{"coordinates":[-53.297454,-23.755508],"type":"Point"},"properties":{"osm_id":"4946348797","tag":{"natural":"tree"}},"type":"Feature"},
	{"geometry":{"coordinates":[-53.297425,-23.755967],"type":"Point"},"properties":{"osm_id":"4946348798","tag":{"natural":"tree"}},"type":"Feature"},
	{"geometry":{"coordinates":[-53.297577,-23.756003],"type":"Point"},"properties":{"osm_id":"4946348799","tag":{"natural":"tree"}},"type":"Feature"},
	{"geometry":{"coordinates":[-53.297822,-23.756069],"type":"Point"},"properties":{"osm_id":"4946348800","tag":{"natural":"tree"}},"type":"Feature"},
	{"geometry":{"coordinates":[-53.297961,-23.756095],"type":"Point"},"properties":{"osm_id":"4946348801","tag":{"natural":"tree"}},"type":"Feature"},
	{"geometry":{"coordinates":[-53.297863,-23.75596],"type":"Point"},"properties":{"osm_id":"4946348802","tag":{"natural":"tree"}},"type":"Feature"},
	{"geometry":{"coordinates":[-53.298248,-23.756175],"type":"Point"},"properties":{"osm_id":"4946348803","tag":{"natural":"tree"}},"type":"Feature"},
	{"geometry":{"coordinates":[-53.298642,-23.756163],"type":"Point"},"properties":{"osm_id":"4946348804","tag":{"natural":"tree"}},"type":"Feature"},
	{"geometry":{"coordinates":[-53.298871,-23.756216],"type":"Point"},"properties":{"osm_id":"4946348805","tag":{"natural":"tree"}},"type":"Feature"},
	{"geometry":{"coordinates":[-53.298787,-23.756188],"type":"Point"},"properties":{"osm_id":"4946348806","tag":{"natural":"tree"}},"type":"Feature"},
	{"geometry":{"coordinates":[-53.298834,-23.756323],"type":"Point"},"properties":{"osm_id":"4946348807","tag":{"natural":"tree"}},"type":"Feature"},
	{"geometry":{"coordinates":[-53.298516,-23.756232],"type":"Point"},"properties":{"osm_id":"4946348808","tag":{"natural":"tree"}},"type":"Feature"},
	{"geometry":{"coordinates":[-53.299138,-23.75628],"type":"Point"},"properties":{"osm_id":"4946348809","tag":{"natural":"tree"}},"type":"Feature"},
	{"geometry":{"coordinates":[-53.299048,-23.756215],"type":"Point"},"properties":{"osm_id":"4946348810","tag":{"natural":"tree"}},"type":"Feature"},
	{"geometry":{"coordinates":[-53.298954,-23.756046],"type":"Point"},"properties":{"osm_id":"4946348811","tag":{"natural":"tree"}},"type":"Feature"},
	{"geometry":{"coordinates":[-53.299073,-23.75613],"type":"Point"},"properties":{"osm_id":"4946348812","tag":{"natural":"tree"}},"type":"Feature"},
	{"geometry":{"coordinates":[-53.299099,-23.756038],"type":"Point"},"properties":{"osm_id":"4946348813","tag":{"natural":"tree"}},"type":"Feature"},
	{"geometry":{"coordinates":[-53.299451,-23.755983],"type":"Point"},"properties":{"osm_id":"4946348814","tag":{"natural":"tree"}},"type":"Feature"},
	{"geometry":{"coordinates":[-53.30009,-23.755831],"type":"Point"},"properties":{"osm_id":"4946348815","tag":{"natural":"tree"}},"type":"Feature"},
	{"geometry":{"coordinates":[-53.299913,-23.755789],"type":"Point"},"properties":{"osm_id":"4946348816","tag":{"natural":"tree"}},"type":"Feature"},
	{"geometry":{"coordinates":[-53.299661,-23.755737],"type":"Point"},"properties":{"osm_id":"4946348817","tag":{"natural":"tree"}},"type":"Feature"},
	{"geometry":{"coordinates":[-53.299846,-23.755666],"type":"Point"},"properties":{"osm_id":"4946348818","tag":{"natural":"tree"}},"type":"Feature"},
	{"geometry":{"coordinates":[-53.300041,-23.755727],"type":"Point"},"properties":{"osm_id":"4946348819","tag":{"natural":"tree"}},"type":"Feature"},
	{"geometry":{"coordinates":[-53.299347,-23.755655],"type":"Point"},"properties":{"osm_id":"4946348820","tag":{"natural":"tree"}},"type":"Feature"},
	{"geometry":{"coordinates":[-53.299254,-23.755622],"type":"Point"},"properties":{"osm_id":"4946348821","tag":{"natural":"tree"}},"type":"Feature"},
	{"geometry":{"coordinates":[-53.30032,-23.755892],"type":"Point"},"properties":{"osm_id":"4946348822","tag":{"natural":"tree"}},"type":"Feature"},
	{"geometry":{"coordinates":[-53.300464,-23.755932],"type":"Point"},"properties":{"osm_id":"4946348823","tag":{"natural":"tree"}},"type":"Feature"},
	{"geometry":{"coordinates":[-53.300694,-23.756151],"type":"Point"},"properties":{"osm_id":"4946348824","tag":{"natural":"tree"}},"type":"Feature"},
	{"geometry":{"coordinates":[-53.300516,-23.75631],"type":"Point"},"properties":{"osm_id":"4946348825","tag":{"natural":"tree"}},"type":"Feature"},
	{"geometry":{"coordinates":[-53.300709,-23.755664],"type":"Point"},"properties":{"osm_id":"4946348826","tag":{"natural":"tree"}},"type":"Feature"},
	{"geometry":{"coordinates":[-53.300782,-23.755414],"type":"Point"},"properties":{"osm_id":"4946348827","tag":{"natural":"tree"}},"type":"Feature"},
	{"geometry":{"coordinates":[-53.300811,-23.755313],"type":"Point"},"properties":{"osm_id":"4946348828","tag":{"natural":"tree"}},"type":"Feature"},
	{"geometry":{"coordinates":[-53.30084,-23.755213],"type":"Point"},"properties":{"osm_id":"4946348829","tag":{"natural":"tree"}},"type":"Feature"},
	{"geometry":{"coordinates":[-53.300742,-23.755179],"type":"Point"},"properties":{"osm_id":"4946348830","tag":{"natural":"tree"}},"type":"Feature"},
	{"geometry":{"coordinates":[-53.30062,-23.755154],"type":"Point"},"properties":{"osm_id":"4946348831","tag":{"natural":"tree"}},"type":"Feature"},
	{"geometry":{"coordinates":[-53.300501,-23.755116],"type":"Point"},"properties":{"osm_id":"4946348832","tag":{"natural":"tree"}},"type":"Feature"},
	{"geometry":{"coordinates":[-53.300869,-23.755078],"type":"Point"},"properties":{"osm_id":"4946348833","tag":{"natural":"tree"}},"type":"Feature"},
	{"geometry":{"coordinates":[-53.300651,-23.75506],"type":"Point"},"properties":{"osm_id":"4946348834","tag":{"natural":"tree"}},"type":"Feature"},
	{"geometry":{"coordinates":[-53.302291,-23.754803],"type":"Point"},"properties":{"osm_id":"4946423845","tag":{"natural":"tree"}},"type":"Feature"},
	{"geometry":{"coordinates":[-53.302136,-23.754759],"type":"Point"},"properties":{"osm_id":"4946423846","tag":{"natural":"tree"}},"type":"Feature"},
	{"geometry":{"coordinates":[-53.302312,-23.754683],"type":"Point"},"properties":{"osm_id":"4946423847","tag":{"natural":"tree"}},"type":"Feature"},
	{"geometry":{"coordinates":[-53.301925,-23.754692],"type":"Point"},"properties":{"osm_id":"4946423848","tag":{"natural":"tree"}},"type":"Feature"},
	{"geometry":{"coordinates":[-53.301817,-23.754668],"type":"Point"},"properties":{"osm_id":"4946423849","tag":{"natural":"tree"}},"type":"Feature"},
	{"geometry":{"coordinates":[-53.302533,-23.754863],"type":"Point"},"properties":{"osm_id":"4946423850","tag":{"natural":"tree"}},"type":"Feature"},
	{"geometry":{"coordinates":[-53.302529,-23.754981],"type":"Point"},"properties":{"osm_id":"4946423851","tag":{"natural":"tree"}},"type":"Feature"},
	{"geometry":{"coordinates":[-53.302853,-23.754832],"type":"Point"},"properties":{"osm_id":"4946423852","tag":{"natural":"tree"}},"type":"Feature"},
	{"geometry":{"coordinates":[-53.302955,-23.754849],"type":"Point"},"properties":{"osm_id":"4946423853","tag":{"natural":"tree"}},"type":"Feature"},
	{"geometry":{"coordinates":[-53.302816,-23.754923],"type":"Point"},"properties":{"osm_id":"4946423854","tag":{"natural":"tree"}},"type":"Feature"},
	{"geometry":{"coordinates":[-53.302738,-23.754978],"type":"Point"},"properties":{"osm_id":"4946423855","tag":{"natural":"tree"}},"type":"Feature"},
	{"geometry":{"coordinates":[-53.302806,-23.75475],"type":"Point"},"properties":{"osm_id":"4946423856","tag":{"natural":"tree"}},"type":"Feature"},
	{"geometry":{"coordinates":[-53.302562,-23.754746],"type":"Point"},"properties":{"osm_id":"4946423857","tag":{"natural":"tree"}},"type":"Feature"},
	{"geometry":{"coordinates":[-53.302609,-23.754712],"type":"Point"},"properties":{"osm_id":"4946423858","tag":{"natural":"tree"}},"type":"Feature"},
	{"geometry":{"coordinates":[-53.302835,-23.754648],"type":"Point"},"properties":{"osm_id":"4946423859","tag":{"natural":"tree"}},"type":"Feature"},
	{"geometry":{"coordinates":[-53.302856,-23.754558],"type":"Point"},"properties":{"osm_id":"4946423860","tag":{"natural":"tree"}},"type":"Feature"},
	{"geometry":{"coordinates":[-53.302638,-23.754608],"type":"Point"},"properties":{"osm_id":"4946423861","tag":{"natural":"tree"}},"type":"Feature"},
	{"geometry":{"coordinates":[-53.302665,-23.754515],"type":"Point"},"properties":{"osm_id":"4946423862","tag":{"natural":"tree"}},"type":"Feature"},
	{"geometry":{"coordinates":[-53.303849,-23.755194],"type":"Point"},"properties":{"osm_id":"4946426145","tag":{"natural":"tree"}},"type":"Feature"},
	{"geometry":{"coordinates":[-53.303702,-23.755157],"type":"Point"},"properties":{"osm_id":"4946426146","tag":{"natural":"tree"}},"type":"Feature"},
	{"geometry":{"coordinates":[-53.303459,-23.755089],"type":"Point"},"properties":{"osm_id":"4946426147","tag":{"natural":"tree"}},"type":"Feature"},
	{"geometry":{"coordinates":[-53.303876,-23.755081],"type":"Point"},"properties":{"osm_id":"4946426148","tag":{"natural":"tree"}},"type":"Feature"},
	{"geometry":{"coordinates":[-53.303588,-23.755],"type":"Point"},"properties":{"osm_id":"4946426149","tag":{"natural":"tree"}},"type":"Feature"},
	{"geometry":{"coordinates":[-53.303476,-23.754973],"type":"Point"},"properties":{"osm_id":"4946426150","tag":{"natural":"tree"}},"type":"Feature"},
	{"geometry":{"coordinates":[-53.303332,-23.755056],"type":"Point"},"properties":{"osm_id":"4946426151","tag":{"natural":"tree"}},"type":"Feature"},
	{"geometry":{"coordinates":[-53.303165,-23.755017],"type":"Point"},"properties":{"osm_id":"4946426152","tag":{"natural":"tree"}},"type":"Feature"},
	{"geometry":{"coordinates":[-53.303063,-23.754991],"type":"Point"},"properties":{"osm_id":"4946426153","tag":{"natural":"tree"}},"type":"Feature"},
	{"geometry":{"coordinates":[-53.302956,-23.754962],"type":"Point"},"properties":{"osm_id":"4946426154","tag":{"natural":"tree"}},"type":"Feature"},
	{"geometry":{"coordinates":[-53.30317,-23.754904],"type":"Point"},"properties":{"osm_id":"4946426155","tag":{"natural":"tree"}},"type":"Feature"},
	{"geometry":{"coordinates":[-53.303074,-23.754879],"type":"Point"},"properties":{"osm_id":"4946426156","tag":{"natural":"tree"}},"type":"Feature"},
	{"geometry":{"coordinates":[-53.305101,-23.755385],"type":"Point"},"properties":{"osm_id":"4946426175","tag":{"natural":"tree"}},"type":"Feature"},
	{"geometry":{"coordinates":[-53.305007,-23.755366],"type":"Point"},"properties":{"osm_id":"4946426176","tag":{"natural":"tree"}},"type":"Feature"},
	{"geometry":{"coordinates":[-53.304866,-23.755334],"type":"Point"},"properties":{"osm_id":"4946426177","tag":{"natural":"tree"}},"type":"Feature"},
	{"geometry":{"coordinates":[-53.304732,-23.755302],"type":"Point"},"properties":{"osm_id":"4946426178","tag":{"natural":"tree"}},"type":"Feature"},
	{"geometry":{"coordinates":[-53.305373,-23.755458],"type":"Point"},"properties":{"osm_id":"4946426179","tag":{"natural":"tree"}},"type":"Feature"},
	{"geometry":{"coordinates":[-53.305206,-23.755557],"type":"Point"},"properties":{"osm_id":"4946426180","tag":{"natural":"tree"}},"type":"Feature"},
	{"geometry":{"coordinates":[-53.305071,-23.755516],"type":"Point"},"properties":{"osm_id":"4946426181","tag":{"natural":"tree"}},"type":"Feature"},
	{"geometry":{"coordinates":[-53.305595,-23.755525],"type":"Point"},"properties":{"osm_id":"4946426182","tag":{"natural":"tree"}},"type":"Feature"},
	{"geometry":{"coordinates":[-53.305672,-23.755537],"type":"Point"},"properties":{"osm_id":"4946426183","tag":{"natural":"tree"}},"type":"Feature"},
	{"geometry":{"coordinates":[-53.30571,-23.755696],"type":"Point"},"properties":{"osm_id":"4946426184","tag":{"natural":"tree"}},"type":"Feature"},
	{"geometry":{"coordinates":[-53.305629,-23.755654],"type":"Point"},"properties":{"osm_id":"4946426185","tag":{"natural":"tree"}},"type":"Feature"},
	{"geometry":{"coordinates":[-53.305477,-23.755622],"type":"Point"},"properties":{"osm_id":"4946426186","tag":{"natural":"tree"}},"type":"Feature"},
	{"geometry":{"coordinates":[-53.304836,-23.755431],"type":"Point"},"properties":{"osm_id":"4946426187","tag":{"natural":"tree"}},"type":"Feature"},
	{"geometry":{"coordinates":[-53.30459,-23.755252],"type":"Point"},"properties":{"osm_id":"4946426188","tag":{"natural":"tree"}},"type":"Feature"},
	{"geometry":{"coordinates":[-53.304675,-23.755392],"type":"Point"},"properties":{"osm_id":"4946426189","tag":{"natural":"tree"}},"type":"Feature"},
	{"geometry":{"coordinates":[-53.304541,-23.755363],"type":"Point"},"properties":{"osm_id":"4946426190","tag":{"natural":"tree"}},"type":"Feature"},
	{"geometry":{"coordinates":[-53.305881,-23.756109],"type":"Point"},"properties":{"osm_id":"4946426191","tag":{"natural":"tree"}},"type":"Feature"},
	{"geometry":{"coordinates":[-53.306661,-23.754803],"type":"Point"},"properties":{"osm_id":"4946426202","tag":{"natural":"tree"}},"type":"Feature"},
	{"geometry":{"coordinates":[-53.306545,-23.754623],"type":"Point"},"properties":{"osm_id":"4946426203","tag":{"natural":"tree"}},"type":"Feature"},
	{"geometry":{"coordinates":[-53.30647,-23.754734],"type":"Point"},"properties":{"osm_id":"4946426204","tag":{"natural":"tree"}},"type":"Feature"},
	{"geometry":{"coordinates":[-53.306596,-23.754536],"type":"Point"},"properties":{"osm_id":"4946426205","tag":{"natural":"tree"}},"type":"Feature"},
	{"geometry":{"coordinates":[-53.306632,-23.754466],"type":"Point"},"properties":{"osm_id":"4946426206","tag":{"natural":"tree"}},"type":"Feature"},
	{"geometry":{"coordinates":[-53.306863,-23.753871],"type":"Point"},"properties":{"osm_id":"4946426207","tag":{"natural":"tree"}},"type":"Feature"},
	{"geometry":{"coordinates":[-53.306362,-23.753859],"type":"Point"},"properties":{"osm_id":"4946426208","tag":{"natural":"tree"}},"type":"Feature"},
	{"geometry":{"coordinates":[-53.306012,-23.753802],"type":"Point"},"properties":{"osm_id":"4946426209","tag":{"natural":"tree"}},"type":"Feature"},
	{"geometry":{"coordinates":[-53.305861,-23.754319],"type":"Point"},"properties":{"osm_id":"4946426210","tag":{"natural":"tree"}},"type":"Feature"},
	{"geometry":{"coordinates":[-53.305923,-23.763971],"type":"Point"},"properties":{"osm_id":"4947038183","tag":{"natural":"tree"}},"type":"Feature"},
	{"geometry":{"coordinates":[-53.305866,-23.763868],"type":"Point"},"properties":{"osm_id":"4947038184","tag":{"natural":"tree"}},"type":"Feature"},
	{"geometry":{"coordinates":[-53.305706,-23.763905],"type":"Point"},"properties":{"osm_id":"4947038185","tag":{"natural":"tree"}},"type":"Feature"},
	{"geometry":{"coordinates":[-53.305627,-23.763506],"type":"Point"},"properties":{"osm_id":"4947038186","tag":{"natural":"tree"}},"type":"Feature"},
	{"geometry":{"coordinates":[-53.305688,-23.763602],"type":"Point"},"properties":{"osm_id":"4947038187","tag":{"natural":"tree"}},"type":"Feature"},
	{"geometry":{"coordinates":[-53.306009,-23.763861],"type":"Point"},"properties":{"osm_id":"4947038188","tag":{"natural":"tree"}},"type":"Feature"},
	{"geometry":{"coordinates":[-53.305925,-23.76372],"type":"Point"},"properties":{"osm_id":"4947038189","tag":{"natural":"tree"}},"type":"Feature"},
	{"geometry":{"coordinates":[-53.305486,-23.763558],"type":"Point"},"properties":{"osm_id":"4947038190","tag":{"natural":"tree"}},"type":"Feature"},
	{"geometry":{"coordinates":[-53.305541,-23.763637],"type":"Point"},"properties":{"osm_id":"4947038191","tag":{"natural":"tree"}},"type":"Feature"},
	{"geometry":{"coordinates":[-53.30558,-23.763713],"type":"Point"},"properties":{"osm_id":"4947038192","tag":{"natural":"tree"}},"type":"Feature"},
	{"geometry":{"coordinates":[-53.305867,-23.763614],"type":"Point"},"properties":{"osm_id":"4947038193","tag":{"natural":"tree"}},"type":"Feature"},
	{"geometry":{"coordinates":[-53.30582,-23.763549],"type":"Point"},"properties":{"osm_id":"4947038194","tag":{"natural":"tree"}},"type":"Feature"},
	{"geometry":{"coordinates":[-53.305482,-23.763218],"type":"Point"},"properties":{"osm_id":"4947038195","tag":{"natural":"tree"}},"type":"Feature"},
	{"geometry":{"coordinates":[-53.305417,-23.763116],"type":"Point"},"properties":{"osm_id":"4947038196","tag":{"natural":"tree"}},"type":"Feature"},
	{"geometry":{"coordinates":[-53.305364,-23.763022],"type":"Point"},"properties":{"osm_id":"4947038197","tag":{"natural":"tree"}},"type":"Feature"},
	{"geometry":{"coordinates":[-53.305373,-23.763281],"type":"Point"},"properties":{"osm_id":"4947038198","tag":{"natural":"tree"}},"type":"Feature"},
	{"geometry":{"coordinates":[-53.305305,-23.763198],"type":"Point"},"properties":{"osm_id":"4947038199","tag":{"natural":"tree"}},"type":"Feature"},
	{"geometry":{"coordinates":[-53.305191,-23.763022],"type":"Point"},"properties":{"osm_id":"4947038200","tag":{"natural":"tree"}},"type":"Feature"},
	{"geometry":{"coordinates":[-53.305774,-23.763062],"type":"Point"},"properties":{"osm_id":"4947038201","tag":{"natural":"tree"}},"type":"Feature"},
	{"geometry":{"coordinates":[-53.305711,-23.763152],"type":"Point"},"properties":{"osm_id":"4947038202","tag":{"natural":"tree"}},"type":"Feature"},
	{"geometry":{"coordinates":[-53.305275,-23.762798],"type":"Point"},"properties":{"osm_id":"4947038203","tag":{"natural":"tree"}},"type":"Feature"},
	{"geometry":{"coordinates":[-53.305447,-23.762671],"type":"Point"},"properties":{"osm_id":"4947038204","tag":{"natural":"tree"}},"type":"Feature"},
	{"geometry":{"coordinates":[-53.305339,-23.762588],"type":"Point"},"properties":{"osm_id":"4947038205","tag":{"natural":"tree"}},"type":"Feature"},
	{"geometry":{"coordinates":[-53.30538,-23.762436],"type":"Point"},"properties":{"osm_id":"4947038206","tag":{"natural":"tree"}},"type":"Feature"},
	{"geometry":{"coordinates":[-53.305602,-23.762167],"type":"Point"},"properties":{"osm_id":"4947038207","tag":{"natural":"tree"}},"type":"Feature"},
	{"geometry":{"coordinates":[-53.305454,-23.762165],"type":"Point"},"properties":{"osm_id":"4947038208","tag":{"natural":"tree"}},"type":"Feature"},
	{"geometry":{"coordinates":[-53.305735,-23.761735],"type":"Point"},"properties":{"osm_id":"4947038209","tag":{"natural":"tree"}},"type":"Feature"},
	{"geometry":{"coordinates":[-53.305403,-23.761514],"type":"Point"},"properties":{"osm_id":"4947038210","tag":{"natural":"tree"}},"type":"Feature"},
	{"geometry":{"coordinates":[-53.305269,-23.761483],"type":"Point"},"properties":{"osm_id":"4947038211","tag":{"natural":"tree"}},"type":"Feature"},
	{"geometry":{"coordinates":[-53.305004,-23.761422],"type":"Point"},"properties":{"osm_id":"4947038212","tag":{"natural":"tree"}},"type":"Feature"},
	{"geometry":{"coordinates":[-53.304826,-23.76128],"type":"Point"},"properties":{"osm_id":"4947038213","tag":{"natural":"tree"}},"type":"Feature"},
	{"geometry":{"coordinates":[-53.304724,-23.761252],"type":"Point"},"properties":{"osm_id":"4947038214","tag":{"natural":"tree"}},"type":"Feature"},
	{"geometry":{"coordinates":[-53.305723,-23.761285],"type":"Point"},"properties":{"osm_id":"4947038215","tag":{"natural":"tree"}},"type":"Feature"},
	{"geometry":{"coordinates":[-53.305754,-23.76117],"type":"Point"},"properties":{"osm_id":"4947038216","tag":{"natural":"tree"}},"type":"Feature"},
	{"geometry":{"coordinates":[-53.3058,-23.761043],"type":"Point"},"properties":{"osm_id":"4947038217","tag":{"natural":"tree"}},"type":"Feature"},
	{"geometry":{"coordinates":[-53.305831,-23.760915],"type":"Point"},"properties":{"osm_id":"4947038218","tag":{"natural":"tree"}},"type":"Feature"},
	{"geometry":{"coordinates":[-53.30595,-23.760999],"type":"Point"},"properties":{"osm_id":"4947038219","tag":{"natural":"tree"}},"type":"Feature"},
	{"geometry":{"coordinates":[-53.306214,-23.760902],"type":"Point"},"properties":{"osm_id":"4947038220","tag":{"natural":"tree"}},"type":"Feature"},
	{"geometry":{"coordinates":[-53.306311,-23.76092],"type":"Point"},"properties":{"osm_id":"4947038421","tag":{"natural":"tree"}},"type":"Feature"},
	{"geometry":{"coordinates":[-53.306468,-23.760717],"type":"Point"},"properties":{"osm_id":"4947038422","tag":{"natural":"tree"}},"type":"Feature"},
	{"geometry":{"coordinates":[-53.306539,-23.760865],"type":"Point"},"properties":{"osm_id":"4947038423","tag":{"natural":"tree"}},"type":"Feature"},
	{"geometry":{"coordinates":[-53.306303,-23.760805],"type":"Point"},"properties":{"osm_id":"4947038424","tag":{"natural":"tree"}},"type":"Feature"},
	{"geometry":{"coordinates":[-53.306923,-23.760966],"type":"Point"},"properties":{"osm_id":"4947038425","tag":{"natural":"tree"}},"type":"Feature"},
	{"geometry":{"coordinates":[-53.306785,-23.760929],"type":"Point"},"properties":{"osm_id":"4947038426","tag":{"natural":"tree"}},"type":"Feature"},
	{"geometry":{"coordinates":[-53.306975,-23.760856],"type":"Point"},"properties":{"osm_id":"4947038427","tag":{"natural":"tree"}},"type":"Feature"},
	{"geometry":{"coordinates":[-53.307089,-23.760884],"type":"Point"},"properties":{"osm_id":"4947038428","tag":{"natural":"tree"}},"type":"Feature"},
	{"geometry":{"coordinates":[-53.306846,-23.760817],"type":"Point"},"properties":{"osm_id":"4947038429","tag":{"natural":"tree"}},"type":"Feature"},
	{"geometry":{"coordinates":[-53.3072,-23.760914],"type":"Point"},"properties":{"osm_id":"4947038430","tag":{"natural":"tree"}},"type":"Feature"},
	{"geometry":{"coordinates":[-53.30733,-23.760938],"type":"Point"},"properties":{"osm_id":"4947038431","tag":{"natural":"tree"}},"type":"Feature"},
	{"geometry":{"coordinates":[-53.307267,-23.761167],"type":"Point"},"properties":{"osm_id":"4947038432","tag":{"natural":"tree"}},"type":"Feature"},
	{"geometry":{"coordinates":[-53.307133,-23.761136],"type":"Point"},"properties":{"osm_id":"4947038433","tag":{"natural":"tree"}},"type":"Feature"},
	{"geometry":{"coordinates":[-53.307036,-23.761107],"type":"Point"},"properties":{"osm_id":"4947038434","tag":{"natural":"tree"}},"type":"Feature"},
	{"geometry":{"coordinates":[-53.306932,-23.761079],"type":"Point"},"properties":{"osm_id":"4947038435","tag":{"natural":"tree"}},"type":"Feature"},
	{"geometry":{"coordinates":[-53.306844,-23.761056],"type":"Point"},"properties":{"osm_id":"4947038436","tag":{"natural":"tree"}},"type":"Feature"},
	{"geometry":{"coordinates":[-53.306757,-23.761039],"type":"Point"},"properties":{"osm_id":"4947038437","tag":{"natural":"tree"}},"type":"Feature"},
	{"geometry":{"coordinates":[-53.307938,-23.76122],"type":"Point"},"properties":{"osm_id":"4947047574","tag":{"natural":"tree"}},"type":"Feature"},
	{"geometry":{"coordinates":[-53.3081,-23.76126],"type":"Point"},"properties":{"osm_id":"4947047575","tag":{"natural":"tree"}},"type":"Feature"},
	{"geometry":{"coordinates":[-53.307747,-23.76095],"type":"Point"},"properties":{"osm_id":"4947047576","tag":{"natural":"tree"}},"type":"Feature"},
	{"geometry":{"coordinates":[-53.307801,-23.760766],"type":"Point"},"properties":{"osm_id":"4947047577","tag":{"natural":"tree"}},"type":"Feature"},
	{"geometry":{"coordinates":[-53.30784,-23.760621],"type":"Point"},"properties":{"osm_id":"4947047578","tag":{"natural":"tree"}},"type":"Feature"},
	{"geometry":{"coordinates":[-53.307888,-23.760436],"type":"Point"},"properties":{"osm_id":"4947047579","tag":{"natural":"tree"}},"type":"Feature"},
	{"geometry":{"coordinates":[-53.308163,-23.760329],"type":"Point"},"properties":{"osm_id":"4947047580","tag":{"natural":"tree"}},"type":"Feature"},
	{"geometry":{"coordinates":[-53.30805,-23.76023],"type":"Point"},"properties":{"osm_id":"4947047581","tag":{"natural":"tree"}},"type":"Feature"},
	{"geometry":{"coordinates":[-53.30796,-23.760193],"type":"Point"},"properties":{"osm_id":"4947047582","tag":{"natural":"tree"}},"type":"Feature"},
	{"geometry":{"coordinates":[-53.308129,-23.759962],"type":"Point"},"properties":{"osm_id":"4947047583","tag":{"natural":"tree"}},"type":"Feature"},
	{"geometry":{"coordinates":[-53.307931,-23.759917],"type":"Point"},"properties":{"osm_id":"4947047584","tag":{"natural":"tree"}},"type":"Feature"},
	{"geometry":{"coordinates":[-53.307905,-23.760034],"type":"Point"},"properties":{"osm_id":"4947047585","tag":{"natural":"tree"}},"type":"Feature"},
	{"geometry":{"coordinates":[-53.308006,-23.760048],"type":"Point"},"properties":{"osm_id":"4947047586","tag":{"natural":"tree"}},"type":"Feature"},
	{"geometry":{"coordinates":[-53.308092,-23.760068],"type":"Point"},"properties":{"osm_id":"4947047587","tag":{"natural":"tree"}},"type":"Feature"},
	{"geometry":{"coordinates":[-53.307754,-23.759826],"type":"Point"},"properties":{"osm_id":"4947047588","tag":{"natural":"tree"}},"type":"Feature"},
	{"geometry":{"coordinates":[-53.307725,-23.75992],"type":"Point"},"properties":{"osm_id":"4947047589","tag":{"natural":"tree"}},"type":"Feature"},
	{"geometry":{"coordinates":[-53.307899,-23.75949],"type":"Point"},"properties":{"osm_id":"4947047590","tag":{"natural":"tree"}},"type":"Feature"},
	{"geometry":{"coordinates":[-53.308017,-23.759561],"type":"Point"},"properties":{"osm_id":"4947147069","tag":{"natural":"tree"}},"type":"Feature"},
	{"geometry":{"coordinates":[-53.307951,-23.759646],"type":"Point"},"properties":{"osm_id":"4947147070","tag":{"natural":"tree"}},"type":"Feature"},
	{"geometry":{"coordinates":[-53.307977,-23.759737],"type":"Point"},"properties":{"osm_id":"4947147071","tag":{"natural":"tree"}},"type":"Feature"},
	{"geometry":{"coordinates":[-53.307396,-23.759322],"type":"Point"},"properties":{"osm_id":"4947147072","tag":{"natural":"tree"}},"type":"Feature"},
	{"geometry":{"coordinates":[-53.307187,-23.75927],"type":"Point"},"properties":{"osm_id":"4947147073","tag":{"natural":"tree"}},"type":"Feature"},
	{"geometry":{"coordinates":[-53.306999,-23.759221],"type":"Point"},"properties":{"osm_id":"4947147074","tag":{"natural":"tree"}},"type":"Feature"},
	{"geometry":{"coordinates":[-53.306651,-23.759125],"type":"Point"},"properties":{"osm_id":"4947147075","tag":{"natural":"tree"}},"type":"Feature"},
	{"geometry":{"coordinates":[-53.305949,-23.75896],"type":"Point"},"properties":{"osm_id":"4947147076","tag":{"natural":"tree"}},"type":"Feature"},
	{"geometry":{"coordinates":[-53.305768,-23.758906],"type":"Point"},"properties":{"osm_id":"4947147077","tag":{"natural":"tree"}},"type":"Feature"},
	{"geometry":{"coordinates":[-53.305605,-23.75887],"type":"Point"},"properties":{"osm_id":"4947147078","tag":{"natural":"tree"}},"type":"Feature"},
	{"geometry":{"coordinates":[-53.305277,-23.758786],"type":"Point"},"properties":{"osm_id":"4947147079","tag":{"natural":"tree"}},"type":"Feature"},
	{"geometry":{"coordinates":[-53.305144,-23.758846],"type":"Point"},"properties":{"osm_id":"4947147080","tag":{"natural":"tree"}},"type":"Feature"},
	{"geometry":{"coordinates":[-53.305476,-23.758732],"type":"Point"},"properties":{"osm_id":"4947147081","tag":{"natural":"tree"}},"type":"Feature"},
	{"geometry":{"coordinates":[-53.30562,-23.758727],"type":"Point"},"properties":{"osm_id":"4947147082","tag":{"natural":"tree"}},"type":"Feature"},
	{"geometry":{"coordinates":[-53.306199,-23.758851],"type":"Point"},"properties":{"osm_id":"4947147083","tag":{"natural":"tree"}},"type":"Feature"},
	{"geometry":{"coordinates":[-53.306007,-23.758796],"type":"Point"},"properties":{"osm_id":"4947147084","tag":{"natural":"tree"}},"type":"Feature"},
	{"geometry":{"coordinates":[-53.306429,-23.758879],"type":"Point"},"properties":{"osm_id":"4947147085","tag":{"natural":"tree"}},"type":"Feature"},
	{"geometry":{"coordinates":[-53.306326,-23.75873],"type":"Point"},"properties":{"osm_id":"4947147086","tag":{"natural":"tree"}},"type":"Feature"},
	{"geometry":{"coordinates":[-53.306359,-23.75862],"type":"Point"},"properties":{"osm_id":"4947147087","tag":{"natural":"tree"}},"type":"Feature"},
	{"geometry":{"coordinates":[-53.30656,-23.758498],"type":"Point"},"properties":{"osm_id":"4947147088","tag":{"natural":"tree"}},"type":"Feature"},
	{"geometry":{"coordinates":[-53.306687,-23.758552],"type":"Point"},"properties":{"osm_id":"4947147089","tag":{"natural":"tree"}},"type":"Feature"},
	{"geometry":{"coordinates":[-53.306653,-23.758674],"type":"Point"},"properties":{"osm_id":"4947147090","tag":{"natural":"tree"}},"type":"Feature"},
	{"geometry":{"coordinates":[-53.306581,-23.758884],"type":"Point"},"properties":{"osm_id":"4947147091","tag":{"natural":"tree"}},"type":"Feature"},
	{"geometry":{"coordinates":[-53.306165,-23.75821],"type":"Point"},"properties":{"osm_id":"4947147092","tag":{"natural":"tree"}},"type":"Feature"},
	{"geometry":{"coordinates":[-53.306412,-23.758251],"type":"Point"},"properties":{"osm_id":"4947147093","tag":{"natural":"tree"}},"type":"Feature"},
	{"geometry":{"coordinates":[-53.305716,-23.758083],"type":"Point"},"properties":{"osm_id":"4947147094","tag":{"natural":"tree"}},"type":"Feature"},
	{"geometry":{"coordinates":[-53.306543,-23.75806],"type":"Point"},"properties":{"osm_id":"4947147095","tag":{"natural":"tree"}},"type":"Feature"},
	{"geometry":{"coordinates":[-53.306448,-23.757912],"type":"Point"},"properties":{"osm_id":"4947147096","tag":{"natural":"tree"}},"type":"Feature"},
	{"geometry":{"coordinates":[-53.306347,-23.757766],"type":"Point"},"properties":{"osm_id":"4947147097","tag":{"natural":"tree"}},"type":"Feature"},
	{"geometry":{"coordinates":[-53.306241,-23.757825],"type":"Point"},"properties":{"osm_id":"4947147098","tag":{"natural":"tree"}},"type":"Feature"},
	{"geometry":{"coordinates":[-53.30597,-23.758155],"type":"Point"},"properties":{"osm_id":"4947147099","tag":{"natural":"tree"}},"type":"Feature"},
	{"geometry":{"coordinates":[-53.306391,-23.758494],"type":"Point"},"properties":{"osm_id":"4947147100","tag":{"natural":"tree"}},"type":"Feature"},
	{"geometry":{"coordinates":[-53.306133,-23.758079],"type":"Point"},"properties":{"osm_id":"4947147101","tag":{"natural":"tree"}},"type":"Feature"},
	{"geometry":{"coordinates":[-53.305871,-23.757998],"type":"Point"},"properties":{"osm_id":"4947147102","tag":{"natural":"tree"}},"type":"Feature"},
	{"geometry":{"coordinates":[-53.305421,-23.757893],"type":"Point"},"properties":{"osm_id":"4947147103","tag":{"natural":"tree"}},"type":"Feature"},
	{"geometry":{"coordinates":[-53.305334,-23.757862],"type":"Point"},"properties":{"osm_id":"4947147104","tag":{"natural":"tree"}},"type":"Feature"},
	{"geometry":{"coordinates":[-53.30551,-23.75802],"type":"Point"},"properties":{"osm_id":"4947147105","tag":{"natural":"tree"}},"type":"Feature"},
	{"geometry":{"coordinates":[-53.30524,-23.757954],"type":"Point"},"properties":{"osm_id":"4947147106","tag":{"natural":"tree"}},"type":"Feature"},
	{"geometry":{"coordinates":[-53.305151,-23.757931],"type":"Point"},"properties":{"osm_id":"4947147107","tag":{"natural":"tree"}},"type":"Feature"},
	{"geometry":{"coordinates":[-53.303358,-23.757786],"type":"Point"},"properties":{"osm_id":"4947148050","tag":{"natural":"tree"}},"type":"Feature"},
	{"geometry":{"coordinates":[-53.30339,-23.757681],"type":"Point"},"properties":{"osm_id":"4947148051","tag":{"natural":"tree"}},"type":"Feature"},
	{"geometry":{"coordinates":[-53.303415,-23.757592],"type":"Point"},"properties":{"osm_id":"4947148052","tag":{"natural":"tree"}},"type":"Feature"},
	{"geometry":{"coordinates":[-53.303665,-23.757557],"type":"Point"},"properties":{"osm_id":"4947148053","tag":{"natural":"tree"}},"type":"Feature"},
	{"geometry":{"coordinates":[-53.304149,-23.757677],"type":"Point"},"properties":{"osm_id":"4947148054","tag":{"natural":"tree"}},"type":"Feature"},
	{"geometry":{"coordinates":[-53.304281,-23.757702],"type":"Point"},"properties":{"osm_id":"4947148055","tag":{"natural":"tree"}},"type":"Feature"},
	{"geometry":{"coordinates":[-53.30405,-23.757541],"type":"Point"},"properties":{"osm_id":"4947148056","tag":{"natural":"tree"}},"type":"Feature"},
	{"geometry":{"coordinates":[-53.303928,-23.757514],"type":"Point"},"properties":{"osm_id":"4947148057","tag":{"natural":"tree"}},"type":"Feature"},
	{"geometry":{"coordinates":[-53.304307,-23.757613],"type":"Point"},"properties":{"osm_id":"4947148058","tag":{"natural":"tree"}},"type":"Feature"},
	{"geometry":{"coordinates":[-53.304434,-23.757642],"type":"Point"},"properties":{"osm_id":"4947148059","tag":{"natural":"tree"}},"type":"Feature"},
	{"geometry":{"coordinates":[-53.304628,-23.757795],"type":"Point"},"properties":{"osm_id":"4947148060","tag":{"natural":"tree"}},"type":"Feature"},
	{"geometry":{"coordinates":[-53.304754,-23.757821],"type":"Point"},"properties":{"osm_id":"4947148061","tag":{"natural":"tree"}},"type":"Feature"},
	{"geometry":{"coordinates":[-53.305169,-23.757815],"type":"Point"},"properties":{"osm_id":"4947148062","tag":{"natural":"tree"}},"type":"Feature"},
	{"geometry":{"coordinates":[-53.305262,-23.757851],"type":"Point"},"properties":{"osm_id":"4947148063","tag":{"natural":"tree"}},"type":"Feature"},
	{"geometry":{"coordinates":[-53.307364,-23.776198],"type":"Point"},"properties":{"name":"Ip\u00c3\u00aa Roxo","osm_id":"4947820222","tag":{"denotation":"urban","description":"Nome cient\u00c3\u00adfico: Handroanthus impetiginosus Classifica\u00c3\u00a7\u00c3\u00a3o superior: Handroanthus Classifica\u00c3\u00a7\u00c3\u00a3o: esp\u00c3\u00a9cie","natural":"tree"}},"type":"Feature"},
	{"geometry":{"coordinates":[-53.306868,-23.776702],"type":"Point"},"properties":{"osm_id":"4947820223","tag":{"natural":"tree"}},"type":"Feature"},
	{"geometry":{"coordinates":[-53.306809,-23.776613],"type":"Point"},"properties":{"osm_id":"4947820224","tag":{"natural":"tree"}},"type":"Feature"},
	{"geometry":{"coordinates":[-53.306748,-23.776526],"type":"Point"},"properties":{"osm_id":"4947820225","tag":{"natural":"tree"}},"type":"Feature"},
	{"geometry":{"coordinates":[-53.306837,-23.776443],"type":"Point"},"properties":{"osm_id":"4947820226","tag":{"natural":"tree"}},"type":"Feature"},
	{"geometry":{"coordinates":[-53.306889,-23.776524],"type":"Point"},"properties":{"osm_id":"4947820227","tag":{"natural":"tree"}},"type":"Feature"},
	{"geometry":{"coordinates":[-53.306793,-23.776371],"type":"Point"},"properties":{"osm_id":"4947820228","tag":{"natural":"tree"}},"type":"Feature"},
	{"geometry":{"coordinates":[-53.30673,-23.776266],"type":"Point"},"properties":{"osm_id":"4947820229","tag":{"natural":"tree"}},"type":"Feature"},
	{"geometry":{"coordinates":[-53.306691,-23.776201],"type":"Point"},"properties":{"osm_id":"4947820230","tag":{"natural":"tree"}},"type":"Feature"},
	{"geometry":{"coordinates":[-53.306618,-23.776313],"type":"Point"},"properties":{"osm_id":"4947820231","tag":{"natural":"tree"}},"type":"Feature"},
	{"geometry":{"coordinates":[-53.306575,-23.776235],"type":"Point"},"properties":{"osm_id":"4947820232","tag":{"natural":"tree"}},"type":"Feature"},
	{"geometry":{"coordinates":[-53.306522,-23.776158],"type":"Point"},"properties":{"osm_id":"4947820233","tag":{"natural":"tree"}},"type":"Feature"},
	{"geometry":{"coordinates":[-53.306658,-23.776405],"type":"Point"},"properties":{"osm_id":"4947820234","tag":{"natural":"tree"}},"type":"Feature"},
	{"geometry":{"coordinates":[-53.306647,-23.776086],"type":"Point"},"properties":{"osm_id":"4947820235","tag":{"natural":"tree"}},"type":"Feature"},
	{"geometry":{"coordinates":[-53.306595,-23.776014],"type":"Point"},"properties":{"osm_id":"4947820236","tag":{"natural":"tree"}},"type":"Feature"},
	{"geometry":{"coordinates":[-53.306525,-23.775944],"type":"Point"},"properties":{"osm_id":"4947820237","tag":{"natural":"tree"}},"type":"Feature"},
	{"geometry":{"coordinates":[-53.306496,-23.775899],"type":"Point"},"properties":{"osm_id":"4947820238","tag":{"natural":"tree"}},"type":"Feature"},
	{"geometry":{"coordinates":[-53.306435,-23.775795],"type":"Point"},"properties":{"osm_id":"4947820239","tag":{"natural":"tree"}},"type":"Feature"},
	{"geometry":{"coordinates":[-53.306407,-23.775745],"type":"Point"},"properties":{"osm_id":"4947820240","tag":{"natural":"tree"}},"type":"Feature"},
	{"geometry":{"coordinates":[-53.306386,-23.775571],"type":"Point"},"properties":{"osm_id":"4947820241","tag":{"natural":"tree"}},"type":"Feature"},
	{"geometry":{"coordinates":[-53.305945,-23.775688],"type":"Point"},"properties":{"osm_id":"4947820242","tag":{"natural":"tree"}},"type":"Feature"},
	{"geometry":{"coordinates":[-53.30641,-23.775456],"type":"Point"},"properties":{"osm_id":"4947820243","tag":{"natural":"tree"}},"type":"Feature"},
	{"geometry":{"coordinates":[-53.306492,-23.775412],"type":"Point"},"properties":{"osm_id":"4947820244","tag":{"natural":"tree"}},"type":"Feature"},
	{"geometry":{"coordinates":[-53.306233,-23.775466],"type":"Point"},"properties":{"osm_id":"4947820245","tag":{"natural":"tree"}},"type":"Feature"},
	{"geometry":{"coordinates":[-53.306198,-23.775416],"type":"Point"},"properties":{"osm_id":"4947820246","tag":{"natural":"tree"}},"type":"Feature"},
	{"geometry":{"coordinates":[-53.306162,-23.775357],"type":"Point"},"properties":{"osm_id":"4947820247","tag":{"natural":"tree"}},"type":"Feature"},
	{"geometry":{"coordinates":[-53.306155,-23.775539],"type":"Point"},"properties":{"osm_id":"4947820248","tag":{"natural":"tree"}},"type":"Feature"},
	{"geometry":{"coordinates":[-53.30613,-23.775485],"type":"Point"},"properties":{"osm_id":"4947820249","tag":{"natural":"tree"}},"type":"Feature"},
	{"geometry":{"coordinates":[-53.306102,-23.775444],"type":"Point"},"properties":{"osm_id":"4947820250","tag":{"natural":"tree"}},"type":"Feature"},
	{"geometry":{"coordinates":[-53.306073,-23.775401],"type":"Point"},"properties":{"osm_id":"4947820251","tag":{"natural":"tree"}},"type":"Feature"},
	{"geometry":{"coordinates":[-53.306042,-23.775351],"type":"Point"},"properties":{"osm_id":"4947820252","tag":{"natural":"tree"}},"type":"Feature"},
	{"geometry":{"coordinates":[-53.306142,-23.775591],"type":"Point"},"properties":{"osm_id":"4947820253","tag":{"natural":"tree"}},"type":"Feature"},
	{"geometry":{"coordinates":[-53.306104,-23.77561],"type":"Point"},"properties":{"osm_id":"4947820254","tag":{"natural":"tree"}},"type":"Feature"},
	{"geometry":{"coordinates":[-53.306051,-23.775641],"type":"Point"},"properties":{"osm_id":"4947820255","tag":{"natural":"tree"}},"type":"Feature"},
	{"geometry":{"coordinates":[-53.305871,-23.77585],"type":"Point"},"properties":{"osm_id":"4947820256","tag":{"natural":"tree"}},"type":"Feature"},
	{"geometry":{"coordinates":[-53.305785,-23.775881],"type":"Point"},"properties":{"osm_id":"4947820257","tag":{"natural":"tree"}},"type":"Feature"},
	{"geometry":{"coordinates":[-53.305696,-23.775929],"type":"Point"},"properties":{"osm_id":"4947820258","tag":{"natural":"tree"}},"type":"Feature"},
	{"geometry":{"coordinates":[-53.305518,-23.775866],"type":"Point"},"properties":{"osm_id":"4947820259","tag":{"natural":"tree"}},"type":"Feature"},
	{"geometry":{"coordinates":[-53.305458,-23.775943],"type":"Point"},"properties":{"osm_id":"4947820260","tag":{"natural":"tree"}},"type":"Feature"},
	{"geometry":{"coordinates":[-53.306338,-23.77549],"type":"Point"},"properties":{"osm_id":"4947820261","tag":{"natural":"tree"}},"type":"Feature"},
	{"geometry":{"coordinates":[-53.306578,-23.775468],"type":"Point"},"properties":{"osm_id":"4947820262","tag":{"natural":"tree"}},"type":"Feature"},
	{"geometry":{"coordinates":[-53.306649,-23.775437],"type":"Point"},"properties":{"osm_id":"4947820263","tag":{"natural":"tree"}},"type":"Feature"},
	{"geometry":{"coordinates":[-53.306719,-23.7754],"type":"Point"},"properties":{"osm_id":"4947820264","tag":{"natural":"tree"}},"type":"Feature"},
	{"geometry":{"coordinates":[-53.30674,-23.775278],"type":"Point"},"properties":{"osm_id":"4947820265","tag":{"natural":"tree"}},"type":"Feature"},
	{"geometry":{"coordinates":[-53.306631,-23.775337],"type":"Point"},"properties":{"osm_id":"4947820266","tag":{"natural":"tree"}},"type":"Feature"},
	{"geometry":{"coordinates":[-53.306789,-23.775254],"type":"Point"},"properties":{"osm_id":"4947820267","tag":{"natural":"tree"}},"type":"Feature"},
	{"geometry":{"coordinates":[-53.305203,-23.774002],"type":"Point"},"properties":{"osm_id":"4947820678","tag":{"natural":"tree"}},"type":"Feature"},
	{"geometry":{"coordinates":[-53.305281,-23.774133],"type":"Point"},"properties":{"osm_id":"4947820679","tag":{"natural":"tree"}},"type":"Feature"},
	{"geometry":{"coordinates":[-53.305339,-23.77422],"type":"Point"},"properties":{"osm_id":"4947820680","tag":{"natural":"tree"}},"type":"Feature"},
	{"geometry":{"coordinates":[-53.305443,-23.774156],"type":"Point"},"properties":{"osm_id":"4947820681","tag":{"natural":"tree"}},"type":"Feature"},
	{"geometry":{"coordinates":[-53.305381,-23.774076],"type":"Point"},"properties":{"osm_id":"4947820682","tag":{"natural":"tree"}},"type":"Feature"},
	{"geometry":{"coordinates":[-53.30533,-23.774008],"type":"Point"},"properties":{"osm_id":"4947820683","tag":{"natural":"tree"}},"type":"Feature"},
	{"geometry":{"coordinates":[-53.307549,-23.777409],"type":"Point"},"properties":{"osm_id":"4948115154","tag":{"natural":"tree"}},"type":"Feature"},
	{"geometry":{"coordinates":[-53.307606,-23.777328],"type":"Point"},"properties":{"osm_id":"4948115155","tag":{"natural":"tree"}},"type":"Feature"},
	{"geometry":{"coordinates":[-53.307662,-23.77725],"type":"Point"},"properties":{"osm_id":"4948115156","tag":{"natural":"tree"}},"type":"Feature"},
	{"geometry":{"coordinates":[-53.307719,-23.777174],"type":"Point"},"properties":{"osm_id":"4948115157","tag":{"natural":"tree"}},"type":"Feature"},
	{"geometry":{"coordinates":[-53.307773,-23.777093],"type":"Point"},"properties":{"osm_id":"4948115158","tag":{"natural":"tree"}},"type":"Feature"},
	{"geometry":{"coordinates":[-53.307935,-23.776871],"type":"Point"},"properties":{"osm_id":"4948115159","tag":{"natural":"tree"}},"type":"Feature"},
	{"geometry":{"coordinates":[-53.307994,-23.776787],"type":"Point"},"properties":{"osm_id":"4948115160","tag":{"natural":"tree"}},"type":"Feature"},
	{"geometry":{"coordinates":[-53.308047,-23.776708],"type":"Point"},"properties":{"osm_id":"4948115161","tag":{"natural":"tree"}},"type":"Feature"},
	{"geometry":{"coordinates":[-53.308106,-23.776636],"type":"Point"},"properties":{"osm_id":"4948115162","tag":{"natural":"tree"}},"type":"Feature"},
	{"geometry":{"coordinates":[-53.308163,-23.77655],"type":"Point"},"properties":{"osm_id":"4948115163","tag":{"natural":"tree"}},"type":"Feature"},
	{"geometry":{"coordinates":[-53.308211,-23.776478],"type":"Point"},"properties":{"osm_id":"4948115164","tag":{"natural":"tree"}},"type":"Feature"},
	{"geometry":{"coordinates":[-53.308269,-23.776398],"type":"Point"},"properties":{"osm_id":"4948115165","tag":{"natural":"tree"}},"type":"Feature"},
	{"geometry":{"coordinates":[-53.307902,-23.776783],"type":"Point"},"properties":{"osm_id":"4948115166","tag":{"natural":"tree"}},"type":"Feature"},
	{"geometry":{"coordinates":[-53.307876,-23.776734],"type":"Point"},"properties":{"osm_id":"4948115167","tag":{"natural":"tree"}},"type":"Feature"},
	{"geometry":{"coordinates":[-53.307828,-23.776666],"type":"Point"},"properties":{"osm_id":"4948115168","tag":{"natural":"tree"}},"type":"Feature"},
	{"geometry":{"coordinates":[-53.30775,-23.776741],"type":"Point"},"properties":{"osm_id":"4948115169","tag":{"natural":"tree"}},"type":"Feature"},
	{"geometry":{"coordinates":[-53.307709,-23.776674],"type":"Point"},"properties":{"osm_id":"4948115170","tag":{"natural":"tree"}},"type":"Feature"},
	{"geometry":{"coordinates":[-53.307672,-23.776607],"type":"Point"},"properties":{"osm_id":"4948115171","tag":{"natural":"tree"}},"type":"Feature"},
	{"geometry":{"coordinates":[-53.307618,-23.776515],"type":"Point"},"properties":{"osm_id":"4948115172","tag":{"natural":"tree"}},"type":"Feature"},
	{"geometry":{"coordinates":[-53.307585,-23.776463],"type":"Point"},"properties":{"osm_id":"4948115173","tag":{"natural":"tree"}},"type":"Feature"},
	{"geometry":{"coordinates":[-53.307561,-23.776418],"type":"Point"},"properties":{"osm_id":"4948115174","tag":{"natural":"tree"}},"type":"Feature"},
	{"geometry":{"coordinates":[-53.307533,-23.776379],"type":"Point"},"properties":{"osm_id":"4948115175","tag":{"natural":"tree"}},"type":"Feature"},
	{"geometry":{"coordinates":[-53.307607,-23.776309],"type":"Point"},"properties":{"osm_id":"4948115176","tag":{"natural":"tree"}},"type":"Feature"},
	{"geometry":{"coordinates":[-53.307701,-23.776447],"type":"Point"},"properties":{"osm_id":"4948115177","tag":{"natural":"tree"}},"type":"Feature"},
	{"geometry":{"coordinates":[-53.307523,-23.776153],"type":"Point"},"properties":{"osm_id":"4948115178","tag":{"natural":"tree"}},"type":"Feature"},
	{"geometry":{"coordinates":[-53.307379,-23.775947],"type":"Point"},"properties":{"osm_id":"4948115179","tag":{"natural":"tree"}},"type":"Feature"},
	{"geometry":{"coordinates":[-53.307257,-23.775998],"type":"Point"},"properties":{"osm_id":"4948115180","tag":{"natural":"tree"}},"type":"Feature"},
	{"geometry":{"coordinates":[-53.307301,-23.77606],"type":"Point"},"properties":{"osm_id":"4948115181","tag":{"natural":"tree"}},"type":"Feature"},
	{"geometry":{"coordinates":[-53.307323,-23.775856],"type":"Point"},"properties":{"osm_id":"4948115182","tag":{"natural":"tree"}},"type":"Feature"},
	{"geometry":{"coordinates":[-53.307269,-23.775766],"type":"Point"},"properties":{"osm_id":"4948115183","tag":{"natural":"tree"}},"type":"Feature"},
	{"geometry":{"coordinates":[-53.306473,-23.776087],"type":"Point"},"properties":{"osm_id":"4948115184","tag":{"natural":"tree"}},"type":"Feature"},
	{"geometry":{"coordinates":[-53.306421,-23.775991],"type":"Point"},"properties":{"osm_id":"4948115185","tag":{"natural":"tree"}},"type":"Feature"},
	{"geometry":{"coordinates":[-53.306374,-23.775908],"type":"Point"},"properties":{"osm_id":"4948115186","tag":{"natural":"tree"}},"type":"Feature"},
	{"geometry":{"coordinates":[-53.306324,-23.775826],"type":"Point"},"properties":{"osm_id":"4948115187","tag":{"natural":"tree"}},"type":"Feature"},
	{"geometry":{"coordinates":[-53.306279,-23.775748],"type":"Point"},"properties":{"osm_id":"4948115188","tag":{"natural":"tree"}},"type":"Feature"},
	{"geometry":{"coordinates":[-53.305982,-23.775256],"type":"Point"},"properties":{"osm_id":"4948115189","tag":{"natural":"tree"}},"type":"Feature"},
	{"geometry":{"coordinates":[-53.305285,-23.773939],"type":"Point"},"properties":{"osm_id":"4948115190","tag":{"natural":"tree"}},"type":"Feature"},
	{"geometry":{"coordinates":[-53.305711,-23.774087],"type":"Point"},"properties":{"osm_id":"4948115191","tag":{"natural":"tree"}},"type":"Feature"},
	{"geometry":{"coordinates":[-53.30581,-23.774166],"type":"Point"},"properties":{"osm_id":"4948115192","tag":{"natural":"tree"}},"type":"Feature"},
	{"geometry":{"coordinates":[-53.305734,-23.774193],"type":"Point"},"properties":{"osm_id":"4948115193","tag":{"natural":"tree"}},"type":"Feature"},
	{"geometry":{"coordinates":[-53.305974,-23.773879],"type":"Point"},"properties":{"osm_id":"4948115194","tag":{"natural":"tree"}},"type":"Feature"},
	{"geometry":{"coordinates":[-53.305933,-23.774101],"type":"Point"},"properties":{"osm_id":"4948115195","tag":{"natural":"tree"}},"type":"Feature"},
	{"geometry":{"coordinates":[-53.30621,-23.773954],"type":"Point"},"properties":{"osm_id":"4948115196","tag":{"natural":"tree"}},"type":"Feature"},
	{"geometry":{"coordinates":[-53.306207,-23.774037],"type":"Point"},"properties":{"osm_id":"4948115197","tag":{"natural":"tree"}},"type":"Feature"},
	{"geometry":{"coordinates":[-53.306256,-23.774122],"type":"Point"},"properties":{"osm_id":"4948115198","tag":{"natural":"tree"}},"type":"Feature"},
	{"geometry":{"coordinates":[-53.306446,-23.773824],"type":"Point"},"properties":{"osm_id":"4948115199","tag":{"natural":"tree"}},"type":"Feature"},
	{"geometry":{"coordinates":[-53.305893,-23.773575],"type":"Point"},"properties":{"osm_id":"4948115200","tag":{"natural":"tree"}},"type":"Feature"},
	{"geometry":{"coordinates":[-53.305845,-23.773678],"type":"Point"},"properties":{"osm_id":"4948115201","tag":{"natural":"tree"}},"type":"Feature"},
	{"geometry":{"coordinates":[-53.306584,-23.773751],"type":"Point"},"properties":{"osm_id":"4948115202","tag":{"natural":"tree"}},"type":"Feature"},
	{"geometry":{"coordinates":[-53.306649,-23.773715],"type":"Point"},"properties":{"osm_id":"4948115203","tag":{"natural":"tree"}},"type":"Feature"},
	{"geometry":{"coordinates":[-53.306852,-23.773905],"type":"Point"},"properties":{"osm_id":"4948115204","tag":{"natural":"tree"}},"type":"Feature"},
	{"geometry":{"coordinates":[-53.306859,-23.773699],"type":"Point"},"properties":{"osm_id":"4948115205","tag":{"natural":"tree"}},"type":"Feature"},
	{"geometry":{"coordinates":[-53.306762,-23.773757],"type":"Point"},"properties":{"osm_id":"4948115206","tag":{"natural":"tree"}},"type":"Feature"},
	{"geometry":{"coordinates":[-53.307017,-23.773534],"type":"Point"},"properties":{"osm_id":"4948115207","tag":{"natural":"tree"}},"type":"Feature"},
	{"geometry":{"coordinates":[-53.306925,-23.773576],"type":"Point"},"properties":{"osm_id":"4948115208","tag":{"natural":"tree"}},"type":"Feature"},
	{"geometry":{"coordinates":[-53.307935,-23.773036],"type":"Point"},"properties":{"osm_id":"4948115742","tag":{"natural":"tree"}},"type":"Feature"},
	{"geometry":{"coordinates":[-53.307752,-23.773139],"type":"Point"},"properties":{"osm_id":"4948115743","tag":{"natural":"tree"}},"type":"Feature"},
	{"geometry":{"coordinates":[-53.30767,-23.773192],"type":"Point"},"properties":{"osm_id":"4948115744","tag":{"natural":"tree"}},"type":"Feature"},
	{"geometry":{"coordinates":[-53.308048,-23.773058],"type":"Point"},"properties":{"osm_id":"4948115745","tag":{"natural":"tree"}},"type":"Feature"},
	{"geometry":{"coordinates":[-53.30808,-23.773114],"type":"Point"},"properties":{"osm_id":"4948115746","tag":{"natural":"tree"}},"type":"Feature"},
	{"geometry":{"coordinates":[-53.308141,-23.773011],"type":"Point"},"properties":{"osm_id":"4948115747","tag":{"natural":"tree"}},"type":"Feature"},
	{"geometry":{"coordinates":[-53.308172,-23.773058],"type":"Point"},"properties":{"osm_id":"4948115748","tag":{"natural":"tree"}},"type":"Feature"},
	{"geometry":{"coordinates":[-53.30822,-23.773127],"type":"Point"},"properties":{"osm_id":"4948115749","tag":{"natural":"tree"}},"type":"Feature"},
	{"geometry":{"coordinates":[-53.308268,-23.773197],"type":"Point"},"properties":{"osm_id":"4948115750","tag":{"natural":"tree"}},"type":"Feature"},
	{"geometry":{"coordinates":[-53.3083,-23.773247],"type":"Point"},"properties":{"osm_id":"4948115751","tag":{"natural":"tree"}},"type":"Feature"},
	{"geometry":{"coordinates":[-53.308352,-23.773326],"type":"Point"},"properties":{"osm_id":"4948115752","tag":{"natural":"tree"}},"type":"Feature"},
	{"geometry":{"coordinates":[-53.308386,-23.77338],"type":"Point"},"properties":{"osm_id":"4948115753","tag":{"natural":"tree"}},"type":"Feature"},
	{"geometry":{"coordinates":[-53.30842,-23.773444],"type":"Point"},"properties":{"osm_id":"4948115754","tag":{"natural":"tree"}},"type":"Feature"},
	{"geometry":{"coordinates":[-53.308452,-23.77349],"type":"Point"},"properties":{"osm_id":"4948115755","tag":{"natural":"tree"}},"type":"Feature"},
	{"geometry":{"coordinates":[-53.308487,-23.773554],"type":"Point"},"properties":{"osm_id":"4948115756","tag":{"natural":"tree"}},"type":"Feature"},
	{"geometry":{"coordinates":[-53.308526,-23.773605],"type":"Point"},"properties":{"osm_id":"4948115757","tag":{"natural":"tree"}},"type":"Feature"},
	{"geometry":{"coordinates":[-53.308556,-23.77366],"type":"Point"},"properties":{"osm_id":"4948115758","tag":{"natural":"tree"}},"type":"Feature"},
	{"geometry":{"coordinates":[-53.308487,-23.773784],"type":"Point"},"properties":{"osm_id":"4948115759","tag":{"natural":"tree"}},"type":"Feature"},
	{"geometry":{"coordinates":[-53.308432,-23.773703],"type":"Point"},"properties":{"osm_id":"4948115760","tag":{"natural":"tree"}},"type":"Feature"},
	{"geometry":{"coordinates":[-53.308389,-23.773624],"type":"Point"},"properties":{"osm_id":"4948115761","tag":{"natural":"tree"}},"type":"Feature"},
	{"geometry":{"coordinates":[-53.308998,-23.761373],"type":"Point"},"properties":{"osm_id":"4952003425","tag":{"natural":"tree"}},"type":"Feature"},
	{"geometry":{"coordinates":[-53.308789,-23.761314],"type":"Point"},"properties":{"osm_id":"4952003426","tag":{"natural":"tree"}},"type":"Feature"},
	{"geometry":{"coordinates":[-53.309759,-23.761687],"type":"Point"},"properties":{"osm_id":"4952003427","tag":{"natural":"tree"}},"type":"Feature"},
	{"geometry":{"coordinates":[-53.309247,-23.761567],"type":"Point"},"properties":{"osm_id":"4952003428","tag":{"natural":"tree"}},"type":"Feature"},
	{"geometry":{"coordinates":[-53.309089,-23.76152],"type":"Point"},"properties":{"osm_id":"4952003429","tag":{"natural":"tree"}},"type":"Feature"},
	{"geometry":{"coordinates":[-53.311008,-23.761807],"type":"Point"},"properties":{"osm_id":"4952003430","tag":{"natural":"tree"}},"type":"Feature"},
	{"geometry":{"coordinates":[-53.310949,-23.761844],"type":"Point"},"properties":{"osm_id":"4952003431","tag":{"natural":"tree"}},"type":"Feature"},
	{"geometry":{"coordinates":[-53.310862,-23.761826],"type":"Point"},"properties":{"osm_id":"4952003432","tag":{"natural":"tree"}},"type":"Feature"},
	{"geometry":{"coordinates":[-53.311085,-23.761699],"type":"Point"},"properties":{"osm_id":"4952003433","tag":{"natural":"tree"}},"type":"Feature"},
	{"geometry":{"coordinates":[-53.311444,-23.762246],"type":"Point"},"properties":{"osm_id":"4952003434","tag":{"natural":"tree"}},"type":"Feature"},
	{"geometry":{"coordinates":[-53.312299,-23.761942],"type":"Point"},"properties":{"osm_id":"4952003435","tag":{"natural":"tree"}},"type":"Feature"},
	{"geometry":{"coordinates":[-53.31233,-23.762058],"type":"Point"},"properties":{"osm_id":"4952003436","tag":{"natural":"tree"}},"type":"Feature"},
	{"geometry":{"coordinates":[-53.312085,-23.76163],"type":"Point"},"properties":{"osm_id":"4952003437","tag":{"natural":"tree"}},"type":"Feature"},
	{"geometry":{"coordinates":[-53.311568,-23.761491],"type":"Point"},"properties":{"osm_id":"4952003438","tag":{"natural":"tree"}},"type":"Feature"},
	{"geometry":{"coordinates":[-53.313424,-23.761351],"type":"Point"},"properties":{"osm_id":"4952003439","tag":{"natural":"tree"}},"type":"Feature"},
	{"geometry":{"coordinates":[-53.312779,-23.761407],"type":"Point"},"properties":{"osm_id":"4952003440","tag":{"natural":"tree"}},"type":"Feature"},
	{"geometry":{"coordinates":[-53.312626,-23.761481],"type":"Point"},"properties":{"osm_id":"4952003441","tag":{"natural":"tree"}},"type":"Feature"},
	{"geometry":{"coordinates":[-53.31224,-23.761689],"type":"Point"},"properties":{"osm_id":"4952003442","tag":{"natural":"tree"}},"type":"Feature"},
	{"geometry":{"coordinates":[-53.312395,-23.761863],"type":"Point"},"properties":{"osm_id":"4952003443","tag":{"natural":"tree"}},"type":"Feature"},
	{"geometry":{"coordinates":[-53.312556,-23.761792],"type":"Point"},"properties":{"osm_id":"4952003444","tag":{"natural":"tree"}},"type":"Feature"},
	{"geometry":{"coordinates":[-53.312666,-23.761736],"type":"Point"},"properties":{"osm_id":"4952003445","tag":{"natural":"tree"}},"type":"Feature"},
	{"geometry":{"coordinates":[-53.313914,-23.761099],"type":"Point"},"properties":{"osm_id":"4952003446","tag":{"natural":"tree"}},"type":"Feature"},
	{"geometry":{"coordinates":[-53.314065,-23.761013],"type":"Point"},"properties":{"osm_id":"4952003447","tag":{"natural":"tree"}},"type":"Feature"},
	{"geometry":{"coordinates":[-53.313764,-23.76104],"type":"Point"},"properties":{"osm_id":"4952003448","tag":{"natural":"tree"}},"type":"Feature"},
	{"geometry":{"coordinates":[-53.31433,-23.760874],"type":"Point"},"properties":{"osm_id":"4952003449","tag":{"natural":"tree"}},"type":"Feature"},
	{"geometry":{"coordinates":[-53.315602,-23.760085],"type":"Point"},"properties":{"osm_id":"4952003450","tag":{"natural":"tree"}},"type":"Feature"},
	{"geometry":{"coordinates":[-53.315732,-23.760015],"type":"Point"},"properties":{"osm_id":"4952003451","tag":{"natural":"tree"}},"type":"Feature"},
	{"geometry":{"coordinates":[-53.315652,-23.75993],"type":"Point"},"properties":{"osm_id":"4952003452","tag":{"natural":"tree"}},"type":"Feature"},
	{"geometry":{"coordinates":[-53.315769,-23.759867],"type":"Point"},"properties":{"osm_id":"4952003453","tag":{"natural":"tree"}},"type":"Feature"},
	{"geometry":{"coordinates":[-53.315877,-23.759807],"type":"Point"},"properties":{"osm_id":"4952003454","tag":{"natural":"tree"}},"type":"Feature"},
	{"geometry":{"coordinates":[-53.315772,-23.759638],"type":"Point"},"properties":{"osm_id":"4952003455","tag":{"natural":"tree"}},"type":"Feature"},
	{"geometry":{"coordinates":[-53.315958,-23.759694],"type":"Point"},"properties":{"osm_id":"4952003456","tag":{"natural":"tree"}},"type":"Feature"},
	{"geometry":{"coordinates":[-53.315906,-23.759613],"type":"Point"},"properties":{"osm_id":"4952003457","tag":{"natural":"tree"}},"type":"Feature"},
	{"geometry":{"coordinates":[-53.315812,-23.759452],"type":"Point"},"properties":{"osm_id":"4952003458","tag":{"natural":"tree"}},"type":"Feature"},
	{"geometry":{"coordinates":[-53.315757,-23.759362],"type":"Point"},"properties":{"osm_id":"4952003459","tag":{"natural":"tree"}},"type":"Feature"},
	{"geometry":{"coordinates":[-53.315274,-23.759465],"type":"Point"},"properties":{"osm_id":"4952003460","tag":{"natural":"tree"}},"type":"Feature"},
	{"geometry":{"coordinates":[-53.315224,-23.759381],"type":"Point"},"properties":{"osm_id":"4952003461","tag":{"natural":"tree"}},"type":"Feature"},
	{"geometry":{"coordinates":[-53.315276,-23.759038],"type":"Point"},"properties":{"osm_id":"4952003462","tag":{"natural":"tree"}},"type":"Feature"},
	{"geometry":{"coordinates":[-53.316306,-23.759333],"type":"Point"},"properties":{"osm_id":"4952003467","tag":{"natural":"tree"}},"type":"Feature"},
	{"geometry":{"coordinates":[-53.316265,-23.759278],"type":"Point"},"properties":{"osm_id":"4952003468","tag":{"natural":"tree"}},"type":"Feature"},
	{"geometry":{"coordinates":[-53.316206,-23.759198],"type":"Point"},"properties":{"osm_id":"4952003469","tag":{"natural":"tree"}},"type":"Feature"},
	{"geometry":{"coordinates":[-53.31616,-23.759142],"type":"Point"},"properties":{"osm_id":"4952003470","tag":{"natural":"tree"}},"type":"Feature"},
	{"geometry":{"coordinates":[-53.316101,-23.759073],"type":"Point"},"properties":{"osm_id":"4952003471","tag":{"natural":"tree"}},"type":"Feature"},
	{"geometry":{"coordinates":[-53.31601,-23.758982],"type":"Point"},"properties":{"osm_id":"4952003472","tag":{"natural":"tree"}},"type":"Feature"},
	{"geometry":{"coordinates":[-53.315937,-23.758921],"type":"Point"},"properties":{"osm_id":"4952003473","tag":{"natural":"tree"}},"type":"Feature"},
	{"geometry":{"coordinates":[-53.315882,-23.758862],"type":"Point"},"properties":{"osm_id":"4952003474","tag":{"natural":"tree"}},"type":"Feature"},
	{"geometry":{"coordinates":[-53.315803,-23.758773],"type":"Point"},"properties":{"osm_id":"4952003475","tag":{"natural":"tree"}},"type":"Feature"},
	{"geometry":{"coordinates":[-53.315732,-23.758698],"type":"Point"},"properties":{"osm_id":"4952003476","tag":{"natural":"tree"}},"type":"Feature"},
	{"geometry":{"coordinates":[-53.316872,-23.758463],"type":"Point"},"properties":{"osm_id":"4952003477","tag":{"natural":"tree"}},"type":"Feature"},
	{"geometry":{"coordinates":[-53.316785,-23.758396],"type":"Point"},"properties":{"osm_id":"4952003478","tag":{"natural":"tree"}},"type":"Feature"},
	{"geometry":{"coordinates":[-53.316728,-23.758344],"type":"Point"},"properties":{"osm_id":"4952003479","tag":{"natural":"tree"}},"type":"Feature"},
	{"geometry":{"coordinates":[-53.316598,-23.758238],"type":"Point"},"properties":{"osm_id":"4952003480","tag":{"natural":"tree"}},"type":"Feature"},
	{"geometry":{"coordinates":[-53.316669,-23.758286],"type":"Point"},"properties":{"osm_id":"4952003481","tag":{"natural":"tree"}},"type":"Feature"},
	{"geometry":{"coordinates":[-53.316529,-23.758166],"type":"Point"},"properties":{"osm_id":"4952003482","tag":{"natural":"tree"}},"type":"Feature"},
	{"geometry":{"coordinates":[-53.317419,-23.758106],"type":"Point"},"properties":{"osm_id":"4952003483","tag":{"natural":"tree"}},"type":"Feature"},
	{"geometry":{"coordinates":[-53.317312,-23.758095],"type":"Point"},"properties":{"osm_id":"4952003484","tag":{"natural":"tree"}},"type":"Feature"},
	{"geometry":{"coordinates":[-53.31721,-23.758086],"type":"Point"},"properties":{"osm_id":"4952003485","tag":{"natural":"tree"}},"type":"Feature"},
	{"geometry":{"coordinates":[-53.317007,-23.758058],"type":"Point"},"properties":{"osm_id":"4952003486","tag":{"natural":"tree"}},"type":"Feature"},
	{"geometry":{"coordinates":[-53.316924,-23.758051],"type":"Point"},"properties":{"osm_id":"4952003487","tag":{"natural":"tree"}},"type":"Feature"},
	{"geometry":{"coordinates":[-53.316813,-23.758032],"type":"Point"},"properties":{"osm_id":"4952003488","tag":{"natural":"tree"}},"type":"Feature"},
	{"geometry":{"coordinates":[-53.317411,-23.757965],"type":"Point"},"properties":{"osm_id":"4952003489","tag":{"natural":"tree"}},"type":"Feature"},
	{"geometry":{"coordinates":[-53.317314,-23.757954],"type":"Point"},"properties":{"osm_id":"4952003490","tag":{"natural":"tree"}},"type":"Feature"},
	{"geometry":{"coordinates":[-53.317206,-23.757934],"type":"Point"},"properties":{"osm_id":"4952003491","tag":{"natural":"tree"}},"type":"Feature"},
	{"geometry":{"coordinates":[-53.317117,-23.757926],"type":"Point"},"properties":{"osm_id":"4952003492","tag":{"natural":"tree"}},"type":"Feature"},
	{"geometry":{"coordinates":[-53.317022,-23.757908],"type":"Point"},"properties":{"osm_id":"4952003493","tag":{"natural":"tree"}},"type":"Feature"},
	{"geometry":{"coordinates":[-53.316916,-23.757895],"type":"Point"},"properties":{"osm_id":"4952003494","tag":{"natural":"tree"}},"type":"Feature"},
	{"geometry":{"coordinates":[-53.316821,-23.757884],"type":"Point"},"properties":{"osm_id":"4952003495","tag":{"natural":"tree"}},"type":"Feature"},
	{"geometry":{"coordinates":[-53.316722,-23.757874],"type":"Point"},"properties":{"osm_id":"4952003496","tag":{"natural":"tree"}},"type":"Feature"},
	{"geometry":{"coordinates":[-53.31663,-23.757861],"type":"Point"},"properties":{"osm_id":"4952003497","tag":{"natural":"tree"}},"type":"Feature"},
	{"geometry":{"coordinates":[-53.317744,-23.758154],"type":"Point"},"properties":{"osm_id":"4952003498","tag":{"natural":"tree"}},"type":"Feature"},
	{"geometry":{"coordinates":[-53.317902,-23.758177],"type":"Point"},"properties":{"osm_id":"4952003499","tag":{"natural":"tree"}},"type":"Feature"},
	{"geometry":{"coordinates":[-53.318107,-23.758195],"type":"Point"},"properties":{"osm_id":"4952003500","tag":{"natural":"tree"}},"type":"Feature"},
	{"geometry":{"coordinates":[-53.318291,-23.758207],"type":"Point"},"properties":{"osm_id":"4952003501","tag":{"natural":"tree"}},"type":"Feature"},
	{"geometry":{"coordinates":[-53.31778,-23.75801],"type":"Point"},"properties":{"osm_id":"4952003502","tag":{"natural":"tree"}},"type":"Feature"},
	{"geometry":{"coordinates":[-53.317961,-23.758036],"type":"Point"},"properties":{"osm_id":"4952003503","tag":{"natural":"tree"}},"type":"Feature"},
	{"geometry":{"coordinates":[-53.31807,-23.758054],"type":"Point"},"properties":{"osm_id":"4952003504","tag":{"natural":"tree"}},"type":"Feature"},
	{"geometry":{"coordinates":[-53.318222,-23.758069],"type":"Point"},"properties":{"osm_id":"4952003505","tag":{"natural":"tree"}},"type":"Feature"},
	{"geometry":{"coordinates":[-53.318381,-23.757952],"type":"Point"},"properties":{"osm_id":"4952003506","tag":{"natural":"tree"}},"type":"Feature"},
	{"geometry":{"coordinates":[-53.318184,-23.757924],"type":"Point"},"properties":{"osm_id":"4952003507","tag":{"natural":"tree"}},"type":"Feature"},
	{"geometry":{"coordinates":[-53.318014,-23.757904],"type":"Point"},"properties":{"osm_id":"4952003508","tag":{"natural":"tree"}},"type":"Feature"},
	{"geometry":{"coordinates":[-53.317835,-23.757884],"type":"Point"},"properties":{"osm_id":"4952003509","tag":{"natural":"tree"}},"type":"Feature"},
	{"geometry":{"coordinates":[-53.319328,-23.758619],"type":"Point"},"properties":{"osm_id":"4952003510","tag":{"natural":"tree"}},"type":"Feature"},
	{"geometry":{"coordinates":[-53.319174,-23.758606],"type":"Point"},"properties":{"osm_id":"4952003511","tag":{"natural":"tree"}},"type":"Feature"},
	{"geometry":{"coordinates":[-53.318989,-23.758565],"type":"Point"},"properties":{"osm_id":"4952003512","tag":{"natural":"tree"}},"type":"Feature"},
	{"geometry":{"coordinates":[-53.319182,-23.758947],"type":"Point"},"properties":{"osm_id":"4952003513","tag":{"natural":"tree"}},"type":"Feature"},
	{"geometry":{"coordinates":[-53.302667,-23.764988],"type":"Point"},"properties":{"osm_id":"4952008275","tag":{"natural":"tree"}},"type":"Feature"},
	{"geometry":{"coordinates":[-53.302511,-23.765067],"type":"Point"},"properties":{"osm_id":"4952008276","tag":{"natural":"tree"}},"type":"Feature"},
	{"geometry":{"coordinates":[-53.302807,-23.765028],"type":"Point"},"properties":{"osm_id":"4952008277","tag":{"natural":"tree"}},"type":"Feature"},
	{"geometry":{"coordinates":[-53.302854,-23.765098],"type":"Point"},"properties":{"osm_id":"4952008278","tag":{"natural":"tree"}},"type":"Feature"},
	{"geometry":{"coordinates":[-53.302953,-23.765041],"type":"Point"},"properties":{"osm_id":"4952008279","tag":{"natural":"tree"}},"type":"Feature"},
	{"geometry":{"coordinates":[-53.302918,-23.765225],"type":"Point"},"properties":{"osm_id":"4952008280","tag":{"natural":"tree"}},"type":"Feature"},
	{"geometry":{"coordinates":[-53.302988,-23.765343],"type":"Point"},"properties":{"osm_id":"4952008281","tag":{"natural":"tree"}},"type":"Feature"},
	{"geometry":{"coordinates":[-53.303164,-23.765385],"type":"Point"},"properties":{"osm_id":"4952008282","tag":{"natural":"tree"}},"type":"Feature"},
	{"geometry":{"coordinates":[-53.303042,-23.765179],"type":"Point"},"properties":{"osm_id":"4952008283","tag":{"natural":"tree"}},"type":"Feature"},
	{"geometry":{"coordinates":[-53.303086,-23.765251],"type":"Point"},"properties":{"osm_id":"4952008284","tag":{"natural":"tree"}},"type":"Feature"},
	{"geometry":{"coordinates":[-53.302894,-23.764735],"type":"Point"},"properties":{"osm_id":"4952008311","tag":{"natural":"tree"}},"type":"Feature"},
	{"geometry":{"coordinates":[-53.302955,-23.764842],"type":"Point"},"properties":{"osm_id":"4952008312","tag":{"natural":"tree"}},"type":"Feature"},
	{"geometry":{"coordinates":[-53.303089,-23.764767],"type":"Point"},"properties":{"osm_id":"4952008313","tag":{"natural":"tree"}},"type":"Feature"},
	{"geometry":{"coordinates":[-53.302999,-23.764688],"type":"Point"},"properties":{"osm_id":"4952008314","tag":{"natural":"tree"}},"type":"Feature"},
	{"geometry":{"coordinates":[-53.302495,-23.76451],"type":"Point"},"properties":{"osm_id":"4952008315","tag":{"natural":"tree"}},"type":"Feature"},
	{"geometry":{"coordinates":[-53.302542,-23.764591],"type":"Point"},"properties":{"osm_id":"4952008316","tag":{"natural":"tree"}},"type":"Feature"},
	{"geometry":{"coordinates":[-53.30258,-23.764661],"type":"Point"},"properties":{"osm_id":"4952008317","tag":{"natural":"tree"}},"type":"Feature"},
	{"geometry":{"coordinates":[-53.302631,-23.764738],"type":"Point"},"properties":{"osm_id":"4952008318","tag":{"natural":"tree"}},"type":"Feature"},
	{"geometry":{"coordinates":[-53.302451,-23.764436],"type":"Point"},"properties":{"osm_id":"4952008319","tag":{"natural":"tree"}},"type":"Feature"},
	{"geometry":{"coordinates":[-53.302394,-23.764348],"type":"Point"},"properties":{"osm_id":"4952008320","tag":{"natural":"tree"}},"type":"Feature"},
	{"geometry":{"coordinates":[-53.30234,-23.764266],"type":"Point"},"properties":{"osm_id":"4952008321","tag":{"natural":"tree"}},"type":"Feature"},
	{"geometry":{"coordinates":[-53.302201,-23.76408],"type":"Point"},"properties":{"osm_id":"4952008322","tag":{"natural":"tree"}},"type":"Feature"},
	{"geometry":{"coordinates":[-53.302107,-23.764122],"type":"Point"},"properties":{"osm_id":"4952008323","tag":{"natural":"tree"}},"type":"Feature"},
	{"geometry":{"coordinates":[-53.302023,-23.764175],"type":"Point"},"properties":{"osm_id":"4952008324","tag":{"natural":"tree"}},"type":"Feature"},
	{"geometry":{"coordinates":[-53.301936,-23.764217],"type":"Point"},"properties":{"osm_id":"4952008325","tag":{"natural":"tree"}},"type":"Feature"},
	{"geometry":{"coordinates":[-53.30248,-23.764072],"type":"Point"},"properties":{"osm_id":"4952008326","tag":{"natural":"tree"}},"type":"Feature"},
	{"geometry":{"coordinates":[-53.302579,-23.764019],"type":"Point"},"properties":{"osm_id":"4952008327","tag":{"natural":"tree"}},"type":"Feature"},
	{"geometry":{"coordinates":[-53.303249,-23.76367],"type":"Point"},"properties":{"osm_id":"4952008372","tag":{"natural":"tree"}},"type":"Feature"},
	{"geometry":{"coordinates":[-53.303323,-23.763628],"type":"Point"},"properties":{"osm_id":"4952008373","tag":{"natural":"tree"}},"type":"Feature"},
	{"geometry":{"coordinates":[-53.30307,-23.763752],"type":"Point"},"properties":{"osm_id":"4952008374","tag":{"natural":"tree"}},"type":"Feature"},
	{"geometry":{"coordinates":[-53.303003,-23.763779],"type":"Point"},"properties":{"osm_id":"4952008375","tag":{"natural":"tree"}},"type":"Feature"},
	{"geometry":{"coordinates":[-53.30292,-23.763811],"type":"Point"},"properties":{"osm_id":"4952008376","tag":{"natural":"tree"}},"type":"Feature"},
	{"geometry":{"coordinates":[-53.302822,-23.763862],"type":"Point"},"properties":{"osm_id":"4952008377","tag":{"natural":"tree"}},"type":"Feature"},
	{"geometry":{"coordinates":[-53.303809,-23.763724],"type":"Point"},"properties":{"osm_id":"4952008378","tag":{"natural":"tree"}},"type":"Feature"},
	{"geometry":{"coordinates":[-53.303757,-23.763637],"type":"Point"},"properties":{"osm_id":"4952008379","tag":{"natural":"tree"}},"type":"Feature"},
	{"geometry":{"coordinates":[-53.303706,-23.763572],"type":"Point"},"properties":{"osm_id":"4952008380","tag":{"natural":"tree"}},"type":"Feature"},
	{"geometry":{"coordinates":[-53.303839,-23.763581],"type":"Point"},"properties":{"osm_id":"4952008381","tag":{"natural":"tree"}},"type":"Feature"},
	{"geometry":{"coordinates":[-53.303792,-23.76302],"type":"Point"},"properties":{"osm_id":"4952008382","tag":{"natural":"tree"}},"type":"Feature"},
	{"geometry":{"coordinates":[-53.303769,-23.762943],"type":"Point"},"properties":{"osm_id":"4952008383","tag":{"natural":"tree"}},"type":"Feature"},
	{"geometry":{"coordinates":[-53.303737,-23.762879],"type":"Point"},"properties":{"osm_id":"4952008384","tag":{"natural":"tree"}},"type":"Feature"},
	{"geometry":{"coordinates":[-53.303666,-23.762814],"type":"Point"},"properties":{"osm_id":"4952008385","tag":{"natural":"tree"}},"type":"Feature"},
	{"geometry":{"coordinates":[-53.303588,-23.762774],"type":"Point"},"properties":{"osm_id":"4952008386","tag":{"natural":"tree"}},"type":"Feature"},
	{"geometry":{"coordinates":[-53.303447,-23.762759],"type":"Point"},"properties":{"osm_id":"4952008387","tag":{"natural":"tree"}},"type":"Feature"},
	{"geometry":{"coordinates":[-53.303353,-23.762781],"type":"Point"},"properties":{"osm_id":"4952008388","tag":{"natural":"tree"}},"type":"Feature"},
	{"geometry":{"coordinates":[-53.303243,-23.762867],"type":"Point"},"properties":{"osm_id":"4952008389","tag":{"natural":"tree"}},"type":"Feature"},
	{"geometry":{"coordinates":[-53.303201,-23.762945],"type":"Point"},"properties":{"osm_id":"4952008390","tag":{"natural":"tree"}},"type":"Feature"},
	{"geometry":{"coordinates":[-53.303182,-23.763012],"type":"Point"},"properties":{"osm_id":"4952008391","tag":{"natural":"tree"}},"type":"Feature"},
	{"geometry":{"coordinates":[-53.303186,-23.763097],"type":"Point"},"properties":{"osm_id":"4952008392","tag":{"natural":"tree"}},"type":"Feature"},
	{"geometry":{"coordinates":[-53.303216,-23.763171],"type":"Point"},"properties":{"osm_id":"4952008393","tag":{"natural":"tree"}},"type":"Feature"},
	{"geometry":{"coordinates":[-53.303256,-23.763233],"type":"Point"},"properties":{"osm_id":"4952008394","tag":{"natural":"tree"}},"type":"Feature"},
	{"geometry":{"coordinates":[-53.303306,-23.763275],"type":"Point"},"properties":{"osm_id":"4952008395","tag":{"natural":"tree"}},"type":"Feature"},
	{"geometry":{"coordinates":[-53.303371,-23.763305],"type":"Point"},"properties":{"osm_id":"4952008396","tag":{"natural":"tree"}},"type":"Feature"},
	{"geometry":{"coordinates":[-53.303507,-23.763158],"type":"Point"},"properties":{"osm_id":"4952008397","tag":{"natural":"tree"}},"type":"Feature"},
	{"geometry":{"coordinates":[-53.303574,-23.763091],"type":"Point"},"properties":{"osm_id":"4952008398","tag":{"natural":"tree"}},"type":"Feature"},
	{"geometry":{"coordinates":[-53.303453,-23.763047],"type":"Point"},"properties":{"osm_id":"4952008399","tag":{"natural":"tree"}},"type":"Feature"},
	{"geometry":{"coordinates":[-53.303583,-23.763002],"type":"Point"},"properties":{"osm_id":"4952008400","tag":{"natural":"tree"}},"type":"Feature"},
	{"geometry":{"coordinates":[-53.30348,-23.7629],"type":"Point"},"properties":{"osm_id":"4952008401","tag":{"natural":"tree"}},"type":"Feature"},
	{"geometry":{"coordinates":[-53.304045,-23.763024],"type":"Point"},"properties":{"osm_id":"4952008402","tag":{"natural":"tree"}},"type":"Feature"},
	{"geometry":{"coordinates":[-53.304115,-23.763219],"type":"Point"},"properties":{"osm_id":"4952008403","tag":{"natural":"tree"}},"type":"Feature"},
	{"geometry":{"coordinates":[-53.302771,-23.761773],"type":"Point"},"properties":{"osm_id":"4952008404","tag":{"natural":"tree"}},"type":"Feature"},
	{"geometry":{"coordinates":[-53.30358,-23.761871],"type":"Point"},"properties":{"osm_id":"4952008405","tag":{"natural":"tree"}},"type":"Feature"},
	{"geometry":{"coordinates":[-53.303456,-23.761841],"type":"Point"},"properties":{"osm_id":"4952008406","tag":{"natural":"tree"}},"type":"Feature"},
	{"geometry":{"coordinates":[-53.303289,-23.761792],"type":"Point"},"properties":{"osm_id":"4952008407","tag":{"natural":"tree"}},"type":"Feature"},
	{"geometry":{"coordinates":[-53.303173,-23.761767],"type":"Point"},"properties":{"osm_id":"4952008408","tag":{"natural":"tree"}},"type":"Feature"},
	{"geometry":{"coordinates":[-53.303059,-23.761739],"type":"Point"},"properties":{"osm_id":"4952008409","tag":{"natural":"tree"}},"type":"Feature"},
	{"geometry":{"coordinates":[-53.302925,-23.7617],"type":"Point"},"properties":{"osm_id":"4952008410","tag":{"natural":"tree"}},"type":"Feature"},
	{"geometry":{"coordinates":[-53.30278,-23.761668],"type":"Point"},"properties":{"osm_id":"4952008411","tag":{"natural":"tree"}},"type":"Feature"},
	{"geometry":{"coordinates":[-53.303744,-23.761816],"type":"Point"},"properties":{"osm_id":"4952008412","tag":{"natural":"tree"}},"type":"Feature"},
	{"geometry":{"coordinates":[-53.303601,-23.761773],"type":"Point"},"properties":{"osm_id":"4952008413","tag":{"natural":"tree"}},"type":"Feature"},
	{"geometry":{"coordinates":[-53.303521,-23.761758],"type":"Point"},"properties":{"osm_id":"4952008414","tag":{"natural":"tree"}},"type":"Feature"},
	{"geometry":{"coordinates":[-53.305181,-23.762278],"type":"Point"},"properties":{"osm_id":"4952008415","tag":{"natural":"tree"}},"type":"Feature"},
	{"geometry":{"coordinates":[-53.305055,-23.762248],"type":"Point"},"properties":{"osm_id":"4952008416","tag":{"natural":"tree"}},"type":"Feature"},
	{"geometry":{"coordinates":[-53.30492,-23.762211],"type":"Point"},"properties":{"osm_id":"4952008417","tag":{"natural":"tree"}},"type":"Feature"},
	{"geometry":{"coordinates":[-53.304977,-23.762132],"type":"Point"},"properties":{"osm_id":"4952008418","tag":{"natural":"tree"}},"type":"Feature"},
	{"geometry":{"coordinates":[-53.304884,-23.762108],"type":"Point"},"properties":{"osm_id":"4952008419","tag":{"natural":"tree"}},"type":"Feature"},
	{"geometry":{"coordinates":[-53.304812,-23.762086],"type":"Point"},"properties":{"osm_id":"4952008420","tag":{"natural":"tree"}},"type":"Feature"},
	{"geometry":{"coordinates":[-53.304729,-23.762065],"type":"Point"},"properties":{"osm_id":"4952008421","tag":{"natural":"tree"}},"type":"Feature"},
	{"geometry":{"coordinates":[-53.304799,-23.762181],"type":"Point"},"properties":{"osm_id":"4952008422","tag":{"natural":"tree"}},"type":"Feature"},
	{"geometry":{"coordinates":[-53.304663,-23.762147],"type":"Point"},"properties":{"osm_id":"4952008423","tag":{"natural":"tree"}},"type":"Feature"},
	{"geometry":{"coordinates":[-53.304655,-23.762283],"type":"Point"},"properties":{"osm_id":"4952008424","tag":{"natural":"tree"}},"type":"Feature"},
	{"geometry":{"coordinates":[-53.304552,-23.762116],"type":"Point"},"properties":{"osm_id":"4952008425","tag":{"natural":"tree"}},"type":"Feature"},
	{"geometry":{"coordinates":[-53.304644,-23.762047],"type":"Point"},"properties":{"osm_id":"4952008426","tag":{"natural":"tree"}},"type":"Feature"},
	{"geometry":{"coordinates":[-53.304567,-23.762022],"type":"Point"},"properties":{"osm_id":"4952008427","tag":{"natural":"tree"}},"type":"Feature"},
	{"geometry":{"coordinates":[-53.304441,-23.761991],"type":"Point"},"properties":{"osm_id":"4952008428","tag":{"natural":"tree"}},"type":"Feature"},
	{"geometry":{"coordinates":[-53.304402,-23.762078],"type":"Point"},"properties":{"osm_id":"4952008429","tag":{"natural":"tree"}},"type":"Feature"},
	{"geometry":{"coordinates":[-53.304291,-23.762051],"type":"Point"},"properties":{"osm_id":"4952008430","tag":{"natural":"tree"}},"type":"Feature"},
	{"geometry":{"coordinates":[-53.304435,-23.762224],"type":"Point"},"properties":{"osm_id":"4952008431","tag":{"natural":"tree"}},"type":"Feature"},
	{"geometry":{"coordinates":[-53.304362,-23.762199],"type":"Point"},"properties":{"osm_id":"4952008432","tag":{"natural":"tree"}},"type":"Feature"},
	{"geometry":{"coordinates":[-53.319401,-23.758709],"type":"Point"},"properties":{"osm_id":"4952014230","tag":{"natural":"tree"}},"type":"Feature"},
	{"geometry":{"coordinates":[-53.319466,-23.758857],"type":"Point"},"properties":{"osm_id":"4952014231","tag":{"natural":"tree"}},"type":"Feature"},
	{"geometry":{"coordinates":[-53.31955,-23.758968],"type":"Point"},"properties":{"osm_id":"4952014232","tag":{"natural":"tree"}},"type":"Feature"},
	{"geometry":{"coordinates":[-53.319604,-23.759081],"type":"Point"},"properties":{"osm_id":"4952014233","tag":{"natural":"tree"}},"type":"Feature"},
	{"geometry":{"coordinates":[-53.319602,-23.758833],"type":"Point"},"properties":{"osm_id":"4952014234","tag":{"natural":"tree"}},"type":"Feature"},
	{"geometry":{"coordinates":[-53.319566,-23.758765],"type":"Point"},"properties":{"osm_id":"4952014235","tag":{"natural":"tree"}},"type":"Feature"},
	{"geometry":{"coordinates":[-53.319495,-23.758653],"type":"Point"},"properties":{"osm_id":"4952014236","tag":{"natural":"tree"}},"type":"Feature"},
	{"geometry":{"coordinates":[-53.319669,-23.758941],"type":"Point"},"properties":{"osm_id":"4952014237","tag":{"natural":"tree"}},"type":"Feature"},
	{"geometry":{"coordinates":[-53.319746,-23.758792],"type":"Point"},"properties":{"osm_id":"4952014238","tag":{"natural":"tree"}},"type":"Feature"},
	{"geometry":{"coordinates":[-53.319779,-23.758861],"type":"Point"},"properties":{"osm_id":"4952014239","tag":{"natural":"tree"}},"type":"Feature"},
	{"geometry":{"coordinates":[-53.319661,-23.758662],"type":"Point"},"properties":{"osm_id":"4952014240","tag":{"natural":"tree"}},"type":"Feature"},
	{"geometry":{"coordinates":[-53.319603,-23.758534],"type":"Point"},"properties":{"osm_id":"4952014241","tag":{"natural":"tree"}},"type":"Feature"},
	{"geometry":{"coordinates":[-53.319578,-23.758479],"type":"Point"},"properties":{"osm_id":"4952014242","tag":{"natural":"tree"}},"type":"Feature"},
	{"geometry":{"coordinates":[-53.319615,-23.758428],"type":"Point"},"properties":{"osm_id":"4952014243","tag":{"natural":"tree"}},"type":"Feature"},
	{"geometry":{"coordinates":[-53.319646,-23.758378],"type":"Point"},"properties":{"osm_id":"4952014244","tag":{"natural":"tree"}},"type":"Feature"},
	{"geometry":{"coordinates":[-53.319695,-23.758394],"type":"Point"},"properties":{"osm_id":"4952014245","tag":{"natural":"tree"}},"type":"Feature"},
	{"geometry":{"coordinates":[-53.319852,-23.758443],"type":"Point"},"properties":{"osm_id":"4952014246","tag":{"natural":"tree"}},"type":"Feature"},
	{"geometry":{"coordinates":[-53.31994,-23.758469],"type":"Point"},"properties":{"osm_id":"4952014247","tag":{"natural":"tree"}},"type":"Feature"},
	{"geometry":{"coordinates":[-53.320028,-23.758487],"type":"Point"},"properties":{"osm_id":"4952014248","tag":{"natural":"tree"}},"type":"Feature"},
	{"geometry":{"coordinates":[-53.320136,-23.758511],"type":"Point"},"properties":{"osm_id":"4952014249","tag":{"natural":"tree"}},"type":"Feature"},
	{"geometry":{"coordinates":[-53.320269,-23.758542],"type":"Point"},"properties":{"osm_id":"4952014250","tag":{"natural":"tree"}},"type":"Feature"},
	{"geometry":{"coordinates":[-53.320406,-23.758578],"type":"Point"},"properties":{"osm_id":"4952014251","tag":{"natural":"tree"}},"type":"Feature"},
	{"geometry":{"coordinates":[-53.320509,-23.758655],"type":"Point"},"properties":{"osm_id":"4952014252","tag":{"natural":"tree"}},"type":"Feature"},
	{"geometry":{"coordinates":[-53.320475,-23.758594],"type":"Point"},"properties":{"osm_id":"4952014253","tag":{"natural":"tree"}},"type":"Feature"},
	{"geometry":{"coordinates":[-53.320665,-23.758911],"type":"Point"},"properties":{"osm_id":"4952014254","tag":{"natural":"tree"}},"type":"Feature"},
	{"geometry":{"coordinates":[-53.320704,-23.758988],"type":"Point"},"properties":{"osm_id":"4952014255","tag":{"natural":"tree"}},"type":"Feature"},
	{"geometry":{"coordinates":[-53.312303,-23.754389],"type":"Point"},"properties":{"osm_id":"7871505935","tag":{"natural":"tree"}},"type":"Feature"},
	{"geometry":{"coordinates":[-53.313206,-23.754077],"type":"Point"},"properties":{"osm_id":"7871505936","tag":{"natural":"tree"}},"type":"Feature"},
	{"geometry":{"coordinates":[-53.313333,-23.754195],"type":"Point"},"properties":{"osm_id":"7871505937","tag":{"natural":"tree"}},"type":"Feature"},
	{"geometry":{"coordinates":[-53.313405,-23.754271],"type":"Point"},"properties":{"osm_id":"7871505938","tag":{"natural":"tree"}},"type":"Feature"},
	{"geometry":{"coordinates":[-53.31362,-23.754261],"type":"Point"},"properties":{"osm_id":"7871505939","tag":{"natural":"tree"}},"type":"Feature"},
	{"geometry":{"coordinates":[-53.31492,-23.754499],"type":"Point"},"properties":{"osm_id":"7871505940","tag":{"natural":"tree"}},"type":"Feature"},
	{"geometry":{"coordinates":[-53.315873,-23.755395],"type":"Point"},"properties":{"osm_id":"7871505941","tag":{"natural":"tree"}},"type":"Feature"},
	{"geometry":{"coordinates":[-53.315811,-23.755344],"type":"Point"},"properties":{"osm_id":"7871505942","tag":{"natural":"tree"}},"type":"Feature"},
	{"geometry":{"coordinates":[-53.316248,-23.755724],"type":"Point"},"properties":{"osm_id":"7871505943","tag":{"natural":"tree"}},"type":"Feature"},
	{"geometry":{"coordinates":[-53.316342,-23.7558],"type":"Point"},"properties":{"osm_id":"7871505944","tag":{"natural":"tree"}},"type":"Feature"},
	{"geometry":{"coordinates":[-53.316433,-23.755877],"type":"Point"},"properties":{"osm_id":"7871505945","tag":{"natural":"tree"}},"type":"Feature"},
	{"geometry":{"coordinates":[-53.316573,-23.755997],"type":"Point"},"properties":{"osm_id":"7871505946","tag":{"natural":"tree"}},"type":"Feature"},
	{"geometry":{"coordinates":[-53.316645,-23.756048],"type":"Point"},"properties":{"osm_id":"7871505947","tag":{"natural":"tree"}},"type":"Feature"},
	{"geometry":{"coordinates":[-53.316742,-23.756139],"type":"Point"},"properties":{"osm_id":"7871505948","tag":{"natural":"tree"}},"type":"Feature"},
	{"geometry":{"coordinates":[-53.315848,-23.756323],"type":"Point"},"properties":{"osm_id":"7871505949","tag":{"natural":"tree"}},"type":"Feature"},
	{"geometry":{"coordinates":[-53.315717,-23.756183],"type":"Point"},"properties":{"osm_id":"7871505950","tag":{"natural":"tree"}},"type":"Feature"},
	{"geometry":{"coordinates":[-53.315596,-23.756083],"type":"Point"},"properties":{"osm_id":"7871505951","tag":{"natural":"tree"}},"type":"Feature"},
	{"geometry":{"coordinates":[-53.315401,-23.755928],"type":"Point"},"properties":{"osm_id":"7871505952","tag":{"natural":"tree"}},"type":"Feature"},
	{"geometry":{"coordinates":[-53.315175,-23.755702],"type":"Point"},"properties":{"osm_id":"7871505953","tag":{"natural":"tree"}},"type":"Feature"},
	{"geometry":{"coordinates":[-53.315092,-23.755636],"type":"Point"},"properties":{"osm_id":"7871505954","tag":{"natural":"tree"}},"type":"Feature"}
]
}
