{
"type": "FeatureCollection",
"features": [
	{"geometry":{"coordinates":[-17.275875,14.71246],"type":"Point"},"properties":{"osm_id":"2437060725","tag":{"amenity":"recycling","recycling_type":"container"}},"type":"Feature"},
	{"geometry":{"coordinates":[-17.267864,14.712368],"type":"Point"},"properties":{"osm_id":"2437077427","tag":{"amenity":"waste_disposal"}},"type":"Feature"},
	{"geometry":{"coordinates":[-17.270772,14.714201],"type":"Point"},"properties":{"osm_id":"2492229111","tag":{"amenity":"recycling","recycling_type":"container"}},"type":"Feature"},
	{"geometry":{"coordinates":[-17.274193,14.715761],"type":"Point"},"properties":{"osm_id":"2898928816","tag":{"amenity":"recycling","recycling_type":"container"}},"type":"Feature"},
	{"geometry":{"coordinates":[-17.27471,14.716071],"type":"Point"},"properties":{"osm_id":"2898931486","tag":{"amenity":"recycling","recycling_type":"container"}},"type":"Feature"},
	{"geometry":{"coordinates":[-17.274069,14.715838],"type":"Point"},"properties":{"osm_id":"2917419091","tag":{"amenity":"waste_disposal"}},"type":"Feature"},
	{"geometry":{"coordinates":[-17.272657,14.715296],"type":"Point"},"properties":{"osm_id":"2917421429","tag":{"amenity":"waste_disposal"}},"type":"Feature"},
	{"geometry":{"coordinates":[-17.270073,14.71395],"type":"Point"},"properties":{"osm_id":"2917421959","tag":{"amenity":"waste_disposal"}},"type":"Feature"},
	{"geometry":{"coordinates":[-17.276809,14.712926],"type":"Point"},"properties":{"name":"Ecocentre by GroupeSenghor","osm_id":"2917422662","tag":{"amenity":"waste_disposal"}},"type":"Feature"},
	{"geometry":{"coordinates":[-17.260431,14.709122],"type":"Point"},"properties":{"osm_id":"2946101578","tag":{"amenity":"waste_disposal"}},"type":"Feature"},
	{"geometry":{"coordinates":[-17.261484,14.709586],"type":"Point"},"properties":{"osm_id":"2946101579","tag":{"amenity":"waste_disposal"}},"type":"Feature"},
	{"geometry":{"coordinates":[-17.26241,14.710037],"type":"Point"},"properties":{"osm_id":"2946101580","tag":{"amenity":"waste_disposal"}},"type":"Feature"},
	{"geometry":{"coordinates":[-17.267763,14.712315],"type":"Point"},"properties":{"osm_id":"2946167139","tag":{"amenity":"waste_disposal"}},"type":"Feature"},
	{"geometry":{"coordinates":[-17.26795,14.71241],"type":"Point"},"properties":{"osm_id":"2946167140","tag":{"amenity":"waste_disposal"}},"type":"Feature"},
	{"geometry":{"coordinates":[-17.273316,14.71525],"type":"Point"},"properties":{"osm_id":"2946181065","tag":{"amenity":"waste_disposal"}},"type":"Feature"},
	{"geometry":{"coordinates":[-17.273511,14.715359],"type":"Point"},"properties":{"osm_id":"2946181066","tag":{"amenity":"waste_disposal"}},"type":"Feature"},
	{"geometry":{"coordinates":[-17.274477,14.715918],"type":"Point"},"properties":{"osm_id":"2946181067","tag":{"amenity":"waste_disposal"}},"type":"Feature"},
	{"geometry":{"coordinates":[-17.274126,14.715968],"type":"Point"},"properties":{"osm_id":"2946181068","tag":{"amenity":"waste_disposal"}},"type":"Feature"},
	{"geometry":{"coordinates":[-17.274238,14.716026],"type":"Point"},"properties":{"osm_id":"2946181069","tag":{"amenity":"waste_disposal"}},"type":"Feature"},
	{"geometry":{"coordinates":[-17.269466,14.725917],"type":"Point"},"properties":{"osm_id":"2960033843","tag":{"amenity":"waste_disposal"}},"type":"Feature"},
	{"geometry":{"coordinates":[-17.271812,14.714774],"type":"Point"},"properties":{"osm_id":"2965993523","tag":{"amenity":"waste_disposal"}},"type":"Feature"},
	{"geometry":{"coordinates":[-17.271898,14.714827],"type":"Point"},"properties":{"osm_id":"2965993524","tag":{"amenity":"waste_disposal"}},"type":"Feature"},
	{"geometry":{"coordinates":[-17.282788,14.720325],"type":"Point"},"properties":{"osm_id":"2965994892","tag":{"amenity":"waste_disposal"}},"type":"Feature"},
	{"geometry":{"coordinates":[-17.282734,14.720343],"type":"Point"},"properties":{"osm_id":"2965994893","tag":{"amenity":"waste_disposal"}},"type":"Feature"},
	{"geometry":{"coordinates":[-17.271775,14.714428],"type":"Point"},"properties":{"osm_id":"2965995067","tag":{"amenity":"waste_disposal"}},"type":"Feature"},
	{"geometry":{"coordinates":[-17.2719,14.714491],"type":"Point"},"properties":{"osm_id":"2965995068","tag":{"amenity":"waste_disposal"}},"type":"Feature"},
	{"geometry":{"coordinates":[-17.262078,14.709647],"type":"Point"},"properties":{"osm_id":"2965999766","tag":{"amenity":"waste_disposal"}},"type":"Feature"},
	{"geometry":{"coordinates":[-17.27382,14.714175],"type":"Point"},"properties":{"osm_id":"3014326953","tag":{"amenity":"waste_disposal"}},"type":"Feature"},
	{"geometry":{"coordinates":[-17.273905,14.71423],"type":"Point"},"properties":{"osm_id":"3014326954","tag":{"amenity":"waste_disposal"}},"type":"Feature"},
	{"geometry":{"coordinates":[-17.237361,14.694429],"type":"Point"},"properties":{"osm_id":"3663320687","tag":{"amenity":"waste_disposal"}},"type":"Feature"},
	{"geometry":{"coordinates":[-17.262066,14.710006],"type":"Point"},"properties":{"osm_id":"4745225122","tag":{"amenity":"waste_disposal"}},"type":"Feature"},
	{"geometry":{"coordinates":[-17.282722,14.720296],"type":"Point"},"properties":{"osm_id":"4830986836","tag":{"amenity":"waste_disposal"}},"type":"Feature"},
	{"geometry":{"coordinates":[-17.269442,14.729847],"type":"Point"},"properties":{"osm_id":"5020274915","tag":{"amenity":"waste_disposal"}},"type":"Feature"},
	{"geometry":{"coordinates":[-17.268876,14.72758],"type":"Point"},"properties":{"osm_id":"5020277111","tag":{"amenity":"waste_disposal"}},"type":"Feature"},
	{"geometry":{"coordinates":[-17.278863,14.718431],"type":"Point"},"properties":{"osm_id":"5020280848","tag":{"amenity":"waste_disposal"}},"type":"Feature"},
	{"geometry":{"coordinates":[-17.266359,14.711865],"type":"Point"},"properties":{"osm_id":"5020280849","tag":{"amenity":"waste_disposal"}},"type":"Feature"},
	{"geometry":{"coordinates":[-17.269972,14.71287],"type":"Point"},"properties":{"osm_id":"5020292256","tag":{"amenity":"waste_disposal"}},"type":"Feature"},
	{"geometry":{"coordinates":[-17.277584,14.716233],"type":"Point"},"properties":{"osm_id":"5020292284","tag":{"amenity":"waste_disposal"}},"type":"Feature"},
	{"geometry":{"coordinates":[-17.269803,14.718423],"type":"Point"},"properties":{"osm_id":"5020308755","tag":{"amenity":"waste_disposal"}},"type":"Feature"},
	{"geometry":{"coordinates":[-17.267912,14.723009],"type":"Point"},"properties":{"osm_id":"5020308756","tag":{"amenity":"waste_disposal"}},"type":"Feature"},
	{"geometry":{"coordinates":[-17.254969,14.71231],"type":"Point"},"properties":{"name":"Point collecte","osm_id":"5613520289","tag":{"amenity":"waste_disposal"}},"type":"Feature"},
	{"geometry":{"coordinates":[-17.261004,14.716639],"type":"Point"},"properties":{"name":"Point de collecte d\u00c3\u00a9chets","osm_id":"5613520735","tag":{"amenity":"waste_disposal"}},"type":"Feature"},
	{"geometry":{"coordinates":[-17.275236,14.731065],"type":"Point"},"properties":{"name":"Point collecte dechets","osm_id":"5613522121","tag":{"amenity":"recycling"}},"type":"Feature"},
	{"geometry":{"coordinates":[-17.289182,14.714563],"type":"Point"},"properties":{"osm_id":"5617743622","tag":{"amenity":"waste_disposal"}},"type":"Feature"},
	{"geometry":{"coordinates":[-17.268056,14.712431],"type":"Point"},"properties":{"osm_id":"7049167161","tag":{"amenity":"waste_disposal"}},"type":"Feature"},
	{"geometry":{"coordinates":[-17.270746,14.714214],"type":"Point"},"properties":{"osm_id":"7049167162","tag":{"amenity":"waste_disposal"}},"type":"Feature"},
	{"geometry":{"coordinates":[-17.271129,14.715535],"type":"Point"},"properties":{"osm_id":"7049167163","tag":{"amenity":"waste_disposal"}},"type":"Feature"},
	{"geometry":{"coordinates":[-17.27382,14.716798],"type":"Point"},"properties":{"osm_id":"7049167164","tag":{"amenity":"waste_disposal"}},"type":"Feature"},
	{"geometry":{"coordinates":[-17.278921,14.718464],"type":"Point"},"properties":{"osm_id":"7049167165","tag":{"amenity":"waste_disposal"}},"type":"Feature"},
	{"geometry":{"coordinates":[-17.282563,14.720394],"type":"Point"},"properties":{"osm_id":"7049167166","tag":{"amenity":"waste_disposal"}},"type":"Feature"},
	{"geometry":{"coordinates":[-17.28367,14.720407],"type":"Point"},"properties":{"osm_id":"7049167167","tag":{"amenity":"waste_disposal"}},"type":"Feature"},
	{"geometry":{"coordinates":[-17.296218,14.727382],"type":"Point"},"properties":{"osm_id":"7049167168","tag":{"amenity":"waste_disposal"}},"type":"Feature"},
	{"geometry":{"coordinates":[-17.302176,14.730348],"type":"Point"},"properties":{"osm_id":"7049167169","tag":{"amenity":"waste_disposal"}},"type":"Feature"},
	{"geometry":{"coordinates":[-17.30224,14.730385],"type":"Point"},"properties":{"osm_id":"7051720470","tag":{"amenity":"waste_disposal"}},"type":"Feature"},
	{"geometry":{"coordinates":[-17.285298,14.725351],"type":"Point"},"properties":{"name":"Point de collecte","osm_id":"7200615972","tag":{"amenity":"waste_disposal"}},"type":"Feature"},
	{"geometry":{"coordinates":[-17.284716,14.724218],"type":"Point"},"properties":{"name":"Point de collecte","osm_id":"7200620255","tag":{"amenity":"waste_disposal"}},"type":"Feature"},
	{"geometry":{"coordinates":[-17.28252,14.722905],"type":"Point"},"properties":{"name":"Point collecte","osm_id":"7200639962","tag":{"amenity":"waste_disposal"}},"type":"Feature"},
	{"geometry":{"coordinates":[-17.284513,14.726226],"type":"Point"},"properties":{"name":"Point de collecte","osm_id":"7200640559","tag":{"amenity":"waste_disposal"}},"type":"Feature"}
]
}
