{
"type": "FeatureCollection",
"features": [
	{"geometry":{"coordinates":[-85.855302,41.596015],"type":"Point"},"properties":{"name":"Goshen Recycling Site","osm_id":"3502056165","tag":{"addr:city":"Goshen","addr:housenumber":"1527","addr:state":"IN","addr:street":"Bashor Road","amenity":"recycling","recycling:cans":"yes","recycling:cardboard":"yes","recycling:glass":"yes","recycling:paper":"yes","recycling_type":"centre"}},"type":"Feature"},
	{"geometry":{"coordinates":[-85.861735,41.585291],"type":"Point"},"properties":{"osm_id":"3944953584","tag":{"amenity":"waste_disposal"}},"type":"Feature"},
	{"geometry":{"coordinates":[-85.861719,41.585672],"type":"Point"},"properties":{"osm_id":"3955519508","tag":{"amenity":"waste_disposal"}},"type":"Feature"},
	{"geometry":{"coordinates":[-85.807116,41.591993],"type":"Point"},"properties":{"osm_id":"4589681573","tag":{"amenity":"recycling","recycling_type":"container"}},"type":"Feature"},
	{"geometry":{"coordinates":[-85.848519,41.585683],"type":"Point"},"properties":{"osm_id":"6278959654","tag":{"amenity":"waste_basket"}},"type":"Feature"},
	{"geometry":{"coordinates":[-85.83835,41.584665],"type":"Point"},"properties":{"osm_id":"6357358151","tag":{"amenity":"waste_basket"}},"type":"Feature"},
	{"geometry":{"coordinates":[-85.838275,41.584982],"type":"Point"},"properties":{"osm_id":"6357358159","tag":{"amenity":"waste_basket"}},"type":"Feature"},
	{"geometry":{"coordinates":[-85.83835,41.584738],"type":"Point"},"properties":{"osm_id":"6357358160","tag":{"amenity":"waste_basket"}},"type":"Feature"},
	{"geometry":{"coordinates":[-85.840037,41.576679],"type":"Point"},"properties":{"osm_id":"6484453180","tag":{"amenity":"recycling"}},"type":"Feature"},
	{"geometry":{"coordinates":[-85.816617,41.588789],"type":"Point"},"properties":{"osm_id":"6515569107","tag":{"amenity":"waste_basket"}},"type":"Feature"},
	{"geometry":{"coordinates":[-85.815994,41.588813],"type":"Point"},"properties":{"osm_id":"6515569127","tag":{"amenity":"waste_basket"}},"type":"Feature"},
	{"geometry":{"coordinates":[-85.816311,41.588632],"type":"Point"},"properties":{"osm_id":"6515569128","tag":{"amenity":"recycling","recycling_type":"container"}},"type":"Feature"},
	{"geometry":{"coordinates":[-85.815541,41.593095],"type":"Point"},"properties":{"osm_id":"6515569168","tag":{"amenity":"waste_basket"}},"type":"Feature"},
	{"geometry":{"coordinates":[-85.809053,41.576899],"type":"Point"},"properties":{"osm_id":"6767598202","tag":{"amenity":"waste_basket"}},"type":"Feature"},
	{"geometry":{"coordinates":[-85.810685,41.575101],"type":"Point"},"properties":{"osm_id":"6767598221","tag":{"amenity":"waste_basket"}},"type":"Feature"},
	{"geometry":{"coordinates":[-85.817604,41.582714],"type":"Point"},"properties":{"name":"OmniSource Corporation","osm_id":"6777800729","tag":{"amenity":"recycling","recycling_type":"centre"}},"type":"Feature"},
	{"geometry":{"coordinates":[-85.864675,41.585636],"type":"Point"},"properties":{"osm_id":"7725656235","tag":{"amenity":"waste_basket","waste":"trash"}},"type":"Feature"},
	{"geometry":{"coordinates":[-85.864164,41.585622],"type":"Point"},"properties":{"osm_id":"7725656238","tag":{"amenity":"waste_basket","waste":"trash"}},"type":"Feature"},
	{"geometry":{"coordinates":[-85.864533,41.585279],"type":"Point"},"properties":{"osm_id":"7725656239","tag":{"amenity":"waste_basket","waste":"trash"}},"type":"Feature"},
	{"geometry":{"coordinates":[-85.864417,41.585651],"type":"Point"},"properties":{"osm_id":"7725656241","tag":{"amenity":"waste_basket","waste":"trash"}},"type":"Feature"},
	{"geometry":{"coordinates":[-85.863938,41.585474],"type":"Point"},"properties":{"osm_id":"7725656249","tag":{"amenity":"waste_basket","waste":"trash"}},"type":"Feature"},
	{"geometry":{"coordinates":[-85.864697,41.585907],"type":"Point"},"properties":{"osm_id":"7725656251","tag":{"amenity":"waste_basket","waste":"trash"}},"type":"Feature"},
	{"geometry":{"coordinates":[-85.864202,41.58593],"type":"Point"},"properties":{"osm_id":"7725656252","tag":{"amenity":"waste_basket","waste":"trash"}},"type":"Feature"},
	{"geometry":{"coordinates":[-85.86448,41.585302],"type":"Point"},"properties":{"osm_id":"7725656253","tag":{"amenity":"waste_basket","waste":"trash"}},"type":"Feature"},
	{"geometry":{"coordinates":[-85.864431,41.585783],"type":"Point"},"properties":{"osm_id":"7725656255","tag":{"amenity":"waste_basket","waste":"trash"}},"type":"Feature"},
	{"geometry":{"coordinates":[-85.812139,41.580989],"type":"Point"},"properties":{"osm_id":"7859708296","tag":{"amenity":"waste_basket","waste":"trash"}},"type":"Feature"},
	{"geometry":{"coordinates":[-85.817072,41.588068],"type":"Point"},"properties":{"osm_id":"7859708316","tag":{"amenity":"waste_basket","waste":"trash"}},"type":"Feature"},
	{"geometry":{"coordinates":[-85.816795,41.589782],"type":"Point"},"properties":{"osm_id":"7859708319","tag":{"amenity":"waste_basket","waste":"trash"}},"type":"Feature"},
	{"geometry":{"coordinates":[-85.813863,41.589884],"type":"Point"},"properties":{"osm_id":"7859708376","tag":{"amenity":"waste_basket","waste":"trash"}},"type":"Feature"},
	{"geometry":{"coordinates":[-85.813819,41.589423],"type":"Point"},"properties":{"osm_id":"7859708379","tag":{"amenity":"waste_basket","waste":"trash"}},"type":"Feature"},
	{"geometry":{"coordinates":[-85.852884,41.583549],"type":"Point"},"properties":{"osm_id":"7882496862","tag":{"amenity":"waste_basket","waste":"trash"}},"type":"Feature"},
	{"geometry":{"coordinates":[-85.839072,41.57552],"type":"Point"},"properties":{"osm_id":"7911142701","tag":{"amenity":"waste_basket","waste":"trash"}},"type":"Feature"},
	{"geometry":{"coordinates":[-85.83867,41.576714],"type":"Point"},"properties":{"osm_id":"7911142703","tag":{"amenity":"waste_basket","waste":"trash"}},"type":"Feature"},
	{"geometry":{"coordinates":[-85.837279,41.576621],"type":"Point"},"properties":{"osm_id":"7911142704","tag":{"amenity":"waste_basket","waste":"trash"}},"type":"Feature"},
	{"geometry":{"coordinates":[-85.837561,41.576804],"type":"Point"},"properties":{"osm_id":"7911142705","tag":{"amenity":"waste_basket","waste":"trash"}},"type":"Feature"},
	{"geometry":{"coordinates":[-85.837105,41.576219],"type":"Point"},"properties":{"osm_id":"7911142711","tag":{"amenity":"waste_basket","waste":"trash"}},"type":"Feature"},
	{"geometry":{"coordinates":[-85.836946,41.576121],"type":"Point"},"properties":{"osm_id":"7911142712","tag":{"amenity":"waste_basket","waste":"trash"}},"type":"Feature"},
	{"geometry":{"coordinates":[-85.83531,41.574943],"type":"Point"},"properties":{"osm_id":"7911142732","tag":{"amenity":"waste_basket","waste":"trash"}},"type":"Feature"},
	{"geometry":{"coordinates":[-85.831066,41.590144],"type":"Point"},"properties":{"osm_id":"8045742884","tag":{"amenity":"waste_basket","waste":"trash"}},"type":"Feature"},
	{"geometry":{"coordinates":[-85.8256,41.587341],"type":"Point"},"properties":{"osm_id":"8045751837","tag":{"amenity":"waste_basket","waste":"trash"}},"type":"Feature"},
	{"geometry":{"coordinates":[-85.832836,41.59519],"type":"Point"},"properties":{"osm_id":"8045751840","tag":{"amenity":"waste_basket","waste":"trash"}},"type":"Feature"},
	{"geometry":{"coordinates":[-85.832414,41.594887],"type":"Point"},"properties":{"osm_id":"8045751846","tag":{"amenity":"waste_basket","waste":"trash"}},"type":"Feature"},
	{"geometry":{"coordinates":[-85.827906,41.592861],"type":"Point"},"properties":{"osm_id":"8045751851","tag":{"amenity":"waste_basket","waste":"trash"}},"type":"Feature"},
	{"geometry":{"coordinates":[-85.828455,41.588518],"type":"Point"},"properties":{"osm_id":"8045751857","tag":{"amenity":"waste_basket","waste":"trash"}},"type":"Feature"},
	{"geometry":{"coordinates":[-85.835686,41.593088],"type":"Point"},"properties":{"osm_id":"8045751863","tag":{"amenity":"waste_basket","waste":"trash"}},"type":"Feature"},
	{"geometry":{"coordinates":[-85.840413,41.595427],"type":"Point"},"properties":{"osm_id":"8045751874","tag":{"amenity":"waste_basket","waste":"trash"}},"type":"Feature"},
	{"geometry":{"coordinates":[-85.83598,41.592756],"type":"Point"},"properties":{"osm_id":"8045751884","tag":{"amenity":"waste_basket","waste":"trash"}},"type":"Feature"},
	{"geometry":{"coordinates":[-85.825543,41.588798],"type":"Point"},"properties":{"osm_id":"8045751888","tag":{"amenity":"waste_basket","waste":"trash"}},"type":"Feature"}
]
}
