{
"type": "FeatureCollection",
"features": [
	{"geometry":{"coordinates":[-85.827391,41.561148],"type":"Point"},"properties":{"name":"Goshen Recycling Site","osm_id":"3509229191","tag":{"amenity":"recycling","recycling_type":"centre"}},"type":"Feature"},
	{"geometry":{"coordinates":[-85.828497,41.508647],"type":"Point"},"properties":{"osm_id":"6017924985","tag":{"amenity":"recycling"}},"type":"Feature"},
	{"geometry":{"coordinates":[-85.809347,41.573653],"type":"Point"},"properties":{"osm_id":"6767598203","tag":{"amenity":"waste_basket"}},"type":"Feature"},
	{"geometry":{"coordinates":[-85.808864,41.571797],"type":"Point"},"properties":{"osm_id":"6767598223","tag":{"amenity":"waste_basket"}},"type":"Feature"},
	{"geometry":{"coordinates":[-85.809269,41.572004],"type":"Point"},"properties":{"osm_id":"6767598228","tag":{"amenity":"waste_basket"}},"type":"Feature"},
	{"geometry":{"coordinates":[-85.809545,41.573279],"type":"Point"},"properties":{"osm_id":"6767598229","tag":{"amenity":"waste_basket"}},"type":"Feature"},
	{"geometry":{"coordinates":[-85.807348,41.570512],"type":"Point"},"properties":{"osm_id":"6767598237","tag":{"amenity":"waste_basket"}},"type":"Feature"},
	{"geometry":{"coordinates":[-85.802436,41.571242],"type":"Point"},"properties":{"osm_id":"6767598238","tag":{"amenity":"waste_basket"}},"type":"Feature"},
	{"geometry":{"coordinates":[-85.802323,41.573634],"type":"Point"},"properties":{"osm_id":"6767598239","tag":{"amenity":"waste_basket"}},"type":"Feature"},
	{"geometry":{"coordinates":[-85.804822,41.570083],"type":"Point"},"properties":{"osm_id":"6767598241","tag":{"amenity":"waste_basket"}},"type":"Feature"},
	{"geometry":{"coordinates":[-85.796944,41.560439],"type":"Point"},"properties":{"osm_id":"7193222118","tag":{"amenity":"waste_disposal"}},"type":"Feature"},
	{"geometry":{"coordinates":[-85.795671,41.559795],"type":"Point"},"properties":{"osm_id":"7193222119","tag":{"amenity":"waste_disposal"}},"type":"Feature"},
	{"geometry":{"coordinates":[-85.79842,41.561573],"type":"Point"},"properties":{"osm_id":"7193222120","tag":{"amenity":"waste_disposal"}},"type":"Feature"},
	{"geometry":{"coordinates":[-85.855378,41.572423],"type":"Point"},"properties":{"osm_id":"7882496851","tag":{"amenity":"waste_basket","waste":"trash"}},"type":"Feature"},
	{"geometry":{"coordinates":[-85.855857,41.572354],"type":"Point"},"properties":{"osm_id":"7882496853","tag":{"amenity":"waste_basket","waste":"trash"}},"type":"Feature"},
	{"geometry":{"coordinates":[-85.830923,41.568338],"type":"Point"},"properties":{"osm_id":"7911142715","tag":{"amenity":"waste_basket","waste":"trash"}},"type":"Feature"},
	{"geometry":{"coordinates":[-85.833165,41.566185],"type":"Point"},"properties":{"osm_id":"7911142717","tag":{"amenity":"waste_basket","waste":"trash"}},"type":"Feature"},
	{"geometry":{"coordinates":[-85.835376,41.562132],"type":"Point"},"properties":{"osm_id":"7911142721","tag":{"amenity":"waste_basket","waste":"trash"}},"type":"Feature"},
	{"geometry":{"coordinates":[-85.835226,41.561471],"type":"Point"},"properties":{"osm_id":"7911142725","tag":{"amenity":"waste_basket","waste":"trash"}},"type":"Feature"},
	{"geometry":{"coordinates":[-85.833882,41.572615],"type":"Point"},"properties":{"osm_id":"7911142728","tag":{"amenity":"waste_basket","waste":"trash"}},"type":"Feature"},
	{"geometry":{"coordinates":[-85.835565,41.574068],"type":"Point"},"properties":{"osm_id":"7911142765","tag":{"amenity":"waste_basket","waste":"trash"}},"type":"Feature"},
	{"geometry":{"coordinates":[-85.82617,41.560156],"type":"Point"},"properties":{"osm_id":"7929407959","tag":{"amenity":"waste_basket","waste":"trash"}},"type":"Feature"},
	{"geometry":{"coordinates":[-85.825983,41.553025],"type":"Point"},"properties":{"osm_id":"7929407960","tag":{"amenity":"waste_basket","waste":"trash"}},"type":"Feature"},
	{"geometry":{"coordinates":[-85.825916,41.551418],"type":"Point"},"properties":{"osm_id":"7929407962","tag":{"amenity":"waste_basket","waste":"trash"}},"type":"Feature"},
	{"geometry":{"coordinates":[-85.825899,41.546512],"type":"Point"},"properties":{"osm_id":"7929407967","tag":{"amenity":"waste_basket","waste":"trash"}},"type":"Feature"},
	{"geometry":{"coordinates":[-85.825851,41.544354],"type":"Point"},"properties":{"osm_id":"7929407974","tag":{"amenity":"waste_basket","waste":"trash"}},"type":"Feature"}
]
}
