{
"type": "FeatureCollection",
"features": [
	{"geometry":{"coordinates":[-85.785092,38.264403],"type":"Point"},"properties":{"osm_id":"5157280694","tag":{"amenity":"waste_basket"}},"type":"Feature"},
	{"geometry":{"coordinates":[-85.792907,38.265834],"type":"Point"},"properties":{"osm_id":"5157317057","tag":{"amenity":"waste_basket"}},"type":"Feature"},
	{"geometry":{"coordinates":[-85.795518,38.266273],"type":"Point"},"properties":{"osm_id":"5158432686","tag":{"amenity":"waste_basket"}},"type":"Feature"},
	{"geometry":{"coordinates":[-85.797756,38.266405],"type":"Point"},"properties":{"osm_id":"5158435263","tag":{"amenity":"waste_basket"}},"type":"Feature"},
	{"geometry":{"coordinates":[-85.7968,38.26859],"type":"Point"},"properties":{"osm_id":"5158468532","tag":{"amenity":"waste_basket"}},"type":"Feature"},
	{"geometry":{"coordinates":[-85.805024,38.2704],"type":"Point"},"properties":{"osm_id":"5158588937","tag":{"amenity":"waste_basket"}},"type":"Feature"},
	{"geometry":{"coordinates":[-85.80624,38.260799],"type":"Point"},"properties":{"osm_id":"5158607579","tag":{"amenity":"waste_basket"}},"type":"Feature"},
	{"geometry":{"coordinates":[-85.78176,38.257911],"type":"Point"},"properties":{"osm_id":"5172902453","tag":{"amenity":"waste_basket"}},"type":"Feature"},
	{"geometry":{"coordinates":[-85.788371,38.258649],"type":"Point"},"properties":{"osm_id":"5172976402","tag":{"amenity":"waste_basket"}},"type":"Feature"},
	{"geometry":{"coordinates":[-85.791707,38.259209],"type":"Point"},"properties":{"osm_id":"5172986861","tag":{"amenity":"waste_basket"}},"type":"Feature"},
	{"geometry":{"coordinates":[-85.811646,38.261509],"type":"Point"},"properties":{"osm_id":"5173020232","tag":{"amenity":"waste_basket"}},"type":"Feature"},
	{"geometry":{"coordinates":[-85.813278,38.261543],"type":"Point"},"properties":{"osm_id":"5173030212","tag":{"amenity":"waste_basket"}},"type":"Feature"},
	{"geometry":{"coordinates":[-85.813309,38.261531],"type":"Point"},"properties":{"osm_id":"5173030214","tag":{"amenity":"waste_basket"}},"type":"Feature"},
	{"geometry":{"coordinates":[-85.813469,38.261733],"type":"Point"},"properties":{"osm_id":"5173031275","tag":{"amenity":"waste_basket"}},"type":"Feature"},
	{"geometry":{"coordinates":[-85.814315,38.261952],"type":"Point"},"properties":{"osm_id":"5173041147","tag":{"amenity":"waste_basket"}},"type":"Feature"},
	{"geometry":{"coordinates":[-85.814355,38.261971],"type":"Point"},"properties":{"osm_id":"5173041151","tag":{"amenity":"waste_basket"}},"type":"Feature"},
	{"geometry":{"coordinates":[-85.827397,38.261277],"type":"Point"},"properties":{"osm_id":"5173096615","tag":{"amenity":"waste_basket"}},"type":"Feature"},
	{"geometry":{"coordinates":[-85.786289,38.24907],"type":"Point"},"properties":{"osm_id":"5226069667","tag":{"amenity":"waste_basket"}},"type":"Feature"},
	{"geometry":{"coordinates":[-85.79025,38.271226],"type":"Point"},"properties":{"name":"Portland / 26th","osm_id":"5489133518","tag":{"amenity":"waste_basket"}},"type":"Feature"},
	{"geometry":{"coordinates":[-85.800627,38.248959],"type":"Point"},"properties":{"osm_id":"7555702108","tag":{"amenity":"waste_basket","waste":"trash"}},"type":"Feature"},
	{"geometry":{"coordinates":[-85.800399,38.248933],"type":"Point"},"properties":{"osm_id":"7555702109","tag":{"amenity":"waste_basket","waste":"trash"}},"type":"Feature"},
	{"geometry":{"coordinates":[-85.782851,38.251645],"type":"Point"},"properties":{"osm_id":"7556842178","tag":{"amenity":"waste_basket","waste":"trash"}},"type":"Feature"},
	{"geometry":{"coordinates":[-85.791996,38.252666],"type":"Point"},"properties":{"osm_id":"7556842179","tag":{"amenity":"waste_basket","waste":"trash"}},"type":"Feature"},
	{"geometry":{"coordinates":[-85.797992,38.250856],"type":"Point"},"properties":{"osm_id":"7556842180","tag":{"amenity":"waste_basket","waste":"trash"}},"type":"Feature"},
	{"geometry":{"coordinates":[-85.79143,38.24942],"type":"Point"},"properties":{"osm_id":"7556842182","tag":{"amenity":"waste_basket","waste":"trash"}},"type":"Feature"},
	{"geometry":{"coordinates":[-85.791797,38.249252],"type":"Point"},"properties":{"osm_id":"7556842183","tag":{"amenity":"waste_basket","waste":"trash"}},"type":"Feature"},
	{"geometry":{"coordinates":[-85.794556,38.249346],"type":"Point"},"properties":{"osm_id":"7556893887","tag":{"amenity":"waste_basket","waste":"trash"}},"type":"Feature"},
	{"geometry":{"coordinates":[-85.800346,38.249531],"type":"Point"},"properties":{"osm_id":"7556893894","tag":{"amenity":"waste_basket","waste":"trash"}},"type":"Feature"},
	{"geometry":{"coordinates":[-85.800348,38.24972],"type":"Point"},"properties":{"osm_id":"7556893897","tag":{"amenity":"waste_basket","waste":"trash"}},"type":"Feature"},
	{"geometry":{"coordinates":[-85.798634,38.249666],"type":"Point"},"properties":{"osm_id":"7556893904","tag":{"amenity":"waste_basket","waste":"trash"}},"type":"Feature"},
	{"geometry":{"coordinates":[-85.79855,38.249479],"type":"Point"},"properties":{"osm_id":"7556893906","tag":{"amenity":"waste_basket","waste":"trash"}},"type":"Feature"},
	{"geometry":{"coordinates":[-85.798346,38.248874],"type":"Point"},"properties":{"osm_id":"7556893907","tag":{"amenity":"waste_basket","waste":"trash"}},"type":"Feature"},
	{"geometry":{"coordinates":[-85.800345,38.238354],"type":"Point"},"properties":{"osm_id":"7556893909","tag":{"amenity":"waste_basket","waste":"trash"}},"type":"Feature"},
	{"geometry":{"coordinates":[-85.800176,38.238507],"type":"Point"},"properties":{"osm_id":"7556893910","tag":{"amenity":"waste_basket","waste":"trash"}},"type":"Feature"},
	{"geometry":{"coordinates":[-85.806412,38.227333],"type":"Point"},"properties":{"osm_id":"7556893913","tag":{"amenity":"waste_basket","waste":"trash"}},"type":"Feature"},
	{"geometry":{"coordinates":[-85.794106,38.255242],"type":"Point"},"properties":{"osm_id":"7557411277","tag":{"amenity":"waste_basket","waste":"trash"}},"type":"Feature"},
	{"geometry":{"coordinates":[-85.806561,38.260807],"type":"Point"},"properties":{"osm_id":"7651026108","tag":{"amenity":"waste_basket","waste":"trash"}},"type":"Feature"},
	{"geometry":{"coordinates":[-85.799884,38.227857],"type":"Point"},"properties":{"osm_id":"7662035637","tag":{"amenity":"waste_basket","waste":"trash"}},"type":"Feature"},
	{"geometry":{"coordinates":[-85.799877,38.227909],"type":"Point"},"properties":{"osm_id":"7662035638","tag":{"amenity":"waste_basket","waste":"trash"}},"type":"Feature"},
	{"geometry":{"coordinates":[-85.78364,38.272331],"type":"Point"},"properties":{"osm_id":"7677989667","tag":{"amenity":"waste_basket","waste":"trash"}},"type":"Feature"},
	{"geometry":{"coordinates":[-85.782375,38.272433],"type":"Point"},"properties":{"osm_id":"7678042517","tag":{"amenity":"waste_basket","waste":"trash"}},"type":"Feature"},
	{"geometry":{"coordinates":[-85.783498,38.272454],"type":"Point"},"properties":{"osm_id":"7678042518","tag":{"amenity":"waste_basket","waste":"trash"}},"type":"Feature"},
	{"geometry":{"coordinates":[-85.78331,38.272315],"type":"Point"},"properties":{"osm_id":"7678042519","tag":{"amenity":"waste_basket","waste":"trash"}},"type":"Feature"},
	{"geometry":{"coordinates":[-85.78443,38.242365],"type":"Point"},"properties":{"osm_id":"7713944227","tag":{"amenity":"waste_basket","waste":"trash"}},"type":"Feature"}
]
}
