{
"type": "FeatureCollection",
"features": [
	{"geometry":{"coordinates":[-85.809937,38.189709],"type":"Point"},"properties":{"osm_id":"5212057783","tag":{"amenity":"waste_basket"}},"type":"Feature"},
	{"geometry":{"coordinates":[-85.809966,38.189216],"type":"Point"},"properties":{"osm_id":"5212057790","tag":{"amenity":"waste_basket"}},"type":"Feature"},
	{"geometry":{"coordinates":[-85.820288,38.176718],"type":"Point"},"properties":{"osm_id":"5212057813","tag":{"amenity":"waste_basket"}},"type":"Feature"},
	{"geometry":{"coordinates":[-85.823404,38.174507],"type":"Point"},"properties":{"osm_id":"5212059424","tag":{"amenity":"waste_basket"}},"type":"Feature"},
	{"geometry":{"coordinates":[-85.854356,38.183996],"type":"Point"},"properties":{"osm_id":"5212059475","tag":{"amenity":"waste_basket"}},"type":"Feature"},
	{"geometry":{"coordinates":[-85.807491,38.19157],"type":"Point"},"properties":{"osm_id":"5212725150","tag":{"amenity":"waste_basket"}},"type":"Feature"},
	{"geometry":{"coordinates":[-85.807552,38.191852],"type":"Point"},"properties":{"osm_id":"5212725154","tag":{"amenity":"waste_basket"}},"type":"Feature"},
	{"geometry":{"coordinates":[-85.80857,38.192462],"type":"Point"},"properties":{"osm_id":"5212725165","tag":{"amenity":"waste_basket"}},"type":"Feature"},
	{"geometry":{"coordinates":[-85.807974,38.192381],"type":"Point"},"properties":{"osm_id":"5212725177","tag":{"amenity":"waste_basket"}},"type":"Feature"},
	{"geometry":{"coordinates":[-85.804974,38.193725],"type":"Point"},"properties":{"osm_id":"5215729540","tag":{"amenity":"waste_basket"}},"type":"Feature"},
	{"geometry":{"coordinates":[-85.798871,38.197281],"type":"Point"},"properties":{"osm_id":"5215761212","tag":{"amenity":"waste_basket"}},"type":"Feature"},
	{"geometry":{"coordinates":[-85.782989,38.197353],"type":"Point"},"properties":{"osm_id":"5215825193","tag":{"amenity":"waste_basket"}},"type":"Feature"},
	{"geometry":{"coordinates":[-85.782756,38.197231],"type":"Point"},"properties":{"osm_id":"5215825198","tag":{"amenity":"waste_basket"}},"type":"Feature"},
	{"geometry":{"coordinates":[-85.78245,38.200492],"type":"Point"},"properties":{"osm_id":"5215886214","tag":{"amenity":"waste_basket"}},"type":"Feature"},
	{"geometry":{"coordinates":[-85.78266,38.200723],"type":"Point"},"properties":{"osm_id":"5215888403","tag":{"amenity":"waste_basket"}},"type":"Feature"},
	{"geometry":{"coordinates":[-85.84423,38.135626],"type":"Point"},"properties":{"osm_id":"5416541440","tag":{"amenity":"waste_basket"}},"type":"Feature"},
	{"geometry":{"coordinates":[-85.838697,38.145794],"type":"Point"},"properties":{"osm_id":"5439796783","tag":{"amenity":"waste_basket"}},"type":"Feature"},
	{"geometry":{"coordinates":[-85.838266,38.145826],"type":"Point"},"properties":{"osm_id":"5439802959","tag":{"amenity":"waste_basket"}},"type":"Feature"},
	{"geometry":{"coordinates":[-85.83682,38.150423],"type":"Point"},"properties":{"osm_id":"5439822736","tag":{"amenity":"waste_basket"}},"type":"Feature"},
	{"geometry":{"coordinates":[-85.836172,38.151863],"type":"Point"},"properties":{"osm_id":"5439827656","tag":{"amenity":"waste_basket"}},"type":"Feature"},
	{"geometry":{"coordinates":[-85.834735,38.155347],"type":"Point"},"properties":{"osm_id":"5439844238","tag":{"amenity":"waste_basket"}},"type":"Feature"},
	{"geometry":{"coordinates":[-85.834694,38.156328],"type":"Point"},"properties":{"osm_id":"5439856075","tag":{"amenity":"waste_basket"}},"type":"Feature"},
	{"geometry":{"coordinates":[-85.833889,38.157215],"type":"Point"},"properties":{"osm_id":"5439869803","tag":{"amenity":"waste_basket"}},"type":"Feature"},
	{"geometry":{"coordinates":[-85.829227,38.166739],"type":"Point"},"properties":{"osm_id":"5440078062","tag":{"amenity":"waste_basket"}},"type":"Feature"},
	{"geometry":{"coordinates":[-85.828091,38.168758],"type":"Point"},"properties":{"osm_id":"5440087938","tag":{"amenity":"waste_basket"}},"type":"Feature"},
	{"geometry":{"coordinates":[-85.800719,38.191488],"type":"Point"},"properties":{"osm_id":"5458538426","tag":{"amenity":"waste_basket"}},"type":"Feature"},
	{"geometry":{"coordinates":[-85.862635,38.144532],"type":"Point"},"properties":{"osm_id":"5459406872","tag":{"amenity":"waste_basket"}},"type":"Feature"},
	{"geometry":{"coordinates":[-85.846466,38.192263],"type":"Point"},"properties":{"osm_id":"5467366519","tag":{"amenity":"waste_basket"}},"type":"Feature"},
	{"geometry":{"coordinates":[-85.842977,38.194908],"type":"Point"},"properties":{"osm_id":"5474980463","tag":{"amenity":"waste_basket"}},"type":"Feature"},
	{"geometry":{"coordinates":[-85.839781,38.197319],"type":"Point"},"properties":{"osm_id":"5474999352","tag":{"amenity":"waste_basket"}},"type":"Feature"},
	{"geometry":{"coordinates":[-85.837464,38.199093],"type":"Point"},"properties":{"osm_id":"5475019070","tag":{"amenity":"waste_basket"}},"type":"Feature"},
	{"geometry":{"coordinates":[-85.8021,38.1907],"type":"Point"},"properties":{"osm_id":"5483887734","tag":{"amenity":"waste_disposal"}},"type":"Feature"},
	{"geometry":{"coordinates":[-85.802151,38.190001],"type":"Point"},"properties":{"osm_id":"5483887735","tag":{"amenity":"waste_disposal"}},"type":"Feature"},
	{"geometry":{"coordinates":[-85.806504,38.194749],"type":"Point"},"properties":{"osm_id":"7659926755","tag":{"amenity":"waste_basket","waste":"trash"}},"type":"Feature"},
	{"geometry":{"coordinates":[-85.809371,38.195506],"type":"Point"},"properties":{"osm_id":"7659926770","tag":{"amenity":"waste_basket","waste":"trash"}},"type":"Feature"}
]
}
