{
"type": "FeatureCollection",
"features": [
	{"geometry":{"coordinates":[20.112044,48.688592],"type":"Point"},"properties":{"osm_id":"849948075","tag":{"amenity":"waste_disposal"}},"type":"Feature"},
	{"geometry":{"coordinates":[20.056923,48.650447],"type":"Point"},"properties":{"osm_id":"3169265733","tag":{"amenity":"waste_basket"}},"type":"Feature"},
	{"geometry":{"coordinates":[20.056875,48.650537],"type":"Point"},"properties":{"osm_id":"3169265734","tag":{"amenity":"recycling","recycling:clothes":"yes","recycling:glass":"yes","recycling_type":"container"}},"type":"Feature"},
	{"geometry":{"coordinates":[20.113489,48.683109],"type":"Point"},"properties":{"osm_id":"3169265925","tag":{"amenity":"waste_basket"}},"type":"Feature"},
	{"geometry":{"coordinates":[20.113014,48.683122],"type":"Point"},"properties":{"osm_id":"3169265927","tag":{"amenity":"waste_basket"}},"type":"Feature"},
	{"geometry":{"coordinates":[20.099653,48.68938],"type":"Point"},"properties":{"osm_id":"3169265950","tag":{"amenity":"recycling","recycling:clothes":"yes","recycling_type":"container"}},"type":"Feature"},
	{"geometry":{"coordinates":[20.114127,48.682663],"type":"Point"},"properties":{"osm_id":"6381440892","tag":{"amenity":"waste_basket"}},"type":"Feature"},
	{"geometry":{"coordinates":[20.116815,48.679378],"type":"Point"},"properties":{"osm_id":"6447931545","tag":{"amenity":"waste_basket","collection_times":"kontajnery (sklo, papier, plasty)"}},"type":"Feature"},
	{"geometry":{"coordinates":[20.116518,48.68154],"type":"Point"},"properties":{"name":"kontajnery (sklo, papier, plasty)","osm_id":"6447931546","tag":{"amenity":"waste_basket"}},"type":"Feature"},
	{"geometry":{"coordinates":[20.11566,48.681796],"type":"Point"},"properties":{"name":"kontajnery (sklo, papier, plasty)","osm_id":"6447931547","tag":{"amenity":"waste_basket"}},"type":"Feature"}
]
}
