{
"type": "FeatureCollection",
"features": [
	{"geometry":{"coordinates":[20.0669,46.495933],"type":"Point"},"properties":{"osm_id":"3490739697","tag":{"amenity":"recycling","description":"\u00c3\u0093pusztaszer, Felszabadul\u00c3\u00a1s utca","operator":"Szegedi Hullad\u00c3\u00a9kgazd\u00c3\u00a1lkod\u00c3\u00a1si Nonprofit Kft.","recycling_type":"container","source:date":"2014-08-15","url":"http://turistautak.hu/poi.php?id=170699"}},"type":"Feature"},
	{"geometry":{"coordinates":[20.06667,46.495814],"type":"Point"},"properties":{"osm_id":"8735130187","tag":{"amenity":"waste_basket"}},"type":"Feature"},
	{"geometry":{"coordinates":[20.06649,46.495669],"type":"Point"},"properties":{"osm_id":"8735190547","tag":{"amenity":"waste_basket"}},"type":"Feature"},
	{"geometry":{"coordinates":[20.066419,46.49561],"type":"Point"},"properties":{"osm_id":"8735190548","tag":{"amenity":"waste_basket"}},"type":"Feature"},
	{"geometry":{"coordinates":[20.067615,46.495562],"type":"Point"},"properties":{"osm_id":"8735190552","tag":{"amenity":"waste_basket"}},"type":"Feature"},
	{"geometry":{"coordinates":[20.0675,46.495625],"type":"Point"},"properties":{"osm_id":"8735190553","tag":{"amenity":"waste_basket"}},"type":"Feature"},
	{"geometry":{"coordinates":[20.067398,46.495684],"type":"Point"},"properties":{"osm_id":"8735190554","tag":{"amenity":"waste_basket"}},"type":"Feature"},
	{"geometry":{"coordinates":[20.066589,46.495739],"type":"Point"},"properties":{"osm_id":"8735217824","tag":{"amenity":"waste_basket"}},"type":"Feature"}
]
}
