{
"type": "FeatureCollection",
"lastupdate": "2020-08-06T00:00:00Z",
"features": [
	{"geometry":{"coordinates":[20.067272,46.279594],"type":"Point"},"properties":{"osm_id":"3437116799","tag":{"amenity":"recycling","description":"Kiskundorozsma, Farag\u00f3 t\u00e9r Trombita utca tal\u00e1lkoz\u00e1s\u00e1n\u00e1l","operator":"Szegedi Hullad\u00e9kgazd\u00e1lkod\u00e1si Nonprofit Kft.","recycling:glass":"yes","recycling:paper":"yes","recycling:plastic":"yes","recycling:scrap_metal":"yes","recycling_type":"container"}},"type":"Feature"},
	{"geometry":{"coordinates":[20.051332,46.316277],"type":"Point"},"properties":{"barrier":"gate","osm_id":"5838873345"},"type":"Feature"},
	{"geometry":{"coordinates":[20.068327,46.272618],"type":"Point"},"properties":{"osm_id":"5906752281","tag":{"amenity":"recycling","description":"Kiskundorozsma, Ad\u00e9l k\u00f6z-T\u00f6r\u0151 utca sark\u00e1n","operator":"Szegedi Hullad\u00e9kgazd\u00e1lkod\u00e1si Nonprofit Kft.","recycling_type":"container"}},"type":"Feature"},
	{"geometry":{"coordinates":[20.07122,46.267297],"type":"Point"},"properties":{"osm_id":"5906752284","tag":{"amenity":"recycling","description":"Kiskundorozsma, M\u00e1lna utca 40-50 ABC mellett","operator":"Szegedi Hullad\u00e9kgazd\u00e1lkod\u00e1si Nonprofit Kft.","recycling_type":"container"}},"type":"Feature"},
	{"geometry":{"coordinates":[20.051466,46.28054],"type":"Point"},"properties":{"name":"Hullad\u00c3\u00a9kudvar Kiskundorozsma","osm_id":"5906756991","tag":{"amenity":"recycling","description":"Nyitvatart\u00e1s: H\u00e9tf\u0151,Kedd,Cs\u00fct\u00f6rt\u00f6k,P\u00e9ntek,Szombat: 8-16:20 | Szerda,Vas\u00e1rnap: Sz\u00fcnnap | Eb\u00e9dsz\u00fcnet: 12:00-12:20","email":"hulladek@szegedihulladek.hu","opening_hours":"Mo,Tu,Th,Fr,Sa 08:00-16:20; Mo,Tu,Th,Fr,Sa 12:00-12:20 off \"Eb\u00e9dsz\u00fcnet\"","operator":"Szegedi Hullad\u00e9kgazd\u00e1lkod\u00e1si Nonprofit Kft.","phone":"+36 70 682 8578","recycling_type":"centre","website":"https://www.szegedihulladek.hu"}},"type":"Feature"}
]
}
