{
"type": "FeatureCollection",
"features": [
	{"geometry":{"coordinates":[140.916316,38.304643],"type":"Point"},"properties":{"name":"\u00e3\u0082\u00bb\u00e3\u0082\u00ab\u00e3\u0083\u00b3\u00e3\u0083\u0089\u00e3\u0082\u00b9\u00e3\u0083\u0088\u00e3\u0083\u00aa\u00e3\u0083\u00bc\u00e3\u0083\u0088 \u00e4\u00bb\u0099\u00e5\u008f\u00b0\u00e6\u009d\u00be\u00e6\u00a3\u00ae\u00e5\u00ba\u0097","osm_id":"4496708794","tag":{"amenity":"recycling","name:en":"Second Street","name:ja":"\u00e3\u0082\u00bb\u00e3\u0082\u00ab\u00e3\u0083\u00b3\u00e3\u0083\u0089\u00e3\u0082\u00b9\u00e3\u0083\u0088\u00e3\u0083\u00aa\u00e3\u0083\u00bc\u00e3\u0083\u0088 \u00e4\u00bb\u0099\u00e5\u008f\u00b0\u00e6\u009d\u00be\u00e6\u00a3\u00ae\u00e5\u00ba\u0097"}},"type":"Feature"},
	{"geometry":{"coordinates":[140.935343,38.2752],"type":"Point"},"properties":{"name":"\u00e3\u0082\u00bb\u00e3\u0082\u00ab\u00e3\u0083\u00b3\u00e3\u0083\u0089\u00e3\u0082\u00b9\u00e3\u0083\u0088\u00e3\u0083\u00aa\u00e3\u0083\u00bc\u00e3\u0083\u0088\u00e6\u0096\u00b0\u00e7\u0094\u00b0\u00e6\u009d\u00b1\u00e5\u00ba\u0097","osm_id":"4933671921","tag":{"amenity":"recycling","name:ja":"\u00e3\u0082\u00bb\u00e3\u0082\u00ab\u00e3\u0083\u00b3\u00e3\u0083\u0089\u00e3\u0082\u00b9\u00e3\u0083\u0088\u00e3\u0083\u00aa\u00e3\u0083\u00bc\u00e3\u0083\u0088\u00e6\u0096\u00b0\u00e7\u0094\u00b0\u00e6\u009d\u00b1\u00e5\u00ba\u0097"}},"type":"Feature"},
	{"geometry":{"coordinates":[140.960205,38.340678],"type":"Point"},"properties":{"osm_id":"8288586917","tag":{"amenity":"waste_disposal"}},"type":"Feature"},
	{"geometry":{"coordinates":[140.960679,38.34147],"type":"Point"},"properties":{"osm_id":"8288586919","tag":{"amenity":"waste_disposal"}},"type":"Feature"},
	{"geometry":{"coordinates":[140.961438,38.340018],"type":"Point"},"properties":{"osm_id":"8288589818","tag":{"amenity":"waste_disposal"}},"type":"Feature"},
	{"geometry":{"coordinates":[140.962182,38.339522],"type":"Point"},"properties":{"osm_id":"8288589819","tag":{"amenity":"waste_disposal"}},"type":"Feature"},
	{"geometry":{"coordinates":[140.963259,38.338928],"type":"Point"},"properties":{"osm_id":"8288613817","tag":{"amenity":"waste_disposal"}},"type":"Feature"},
	{"geometry":{"coordinates":[140.962162,38.338146],"type":"Point"},"properties":{"osm_id":"8291986717","tag":{"amenity":"waste_disposal"}},"type":"Feature"},
	{"geometry":{"coordinates":[140.961758,38.338508],"type":"Point"},"properties":{"osm_id":"8291986817","tag":{"amenity":"waste_disposal"}},"type":"Feature"},
	{"geometry":{"coordinates":[140.964103,38.334267],"type":"Point"},"properties":{"osm_id":"8292006218","tag":{"amenity":"waste_disposal"}},"type":"Feature"},
	{"geometry":{"coordinates":[140.963083,38.337726],"type":"Point"},"properties":{"osm_id":"8292012217","tag":{"amenity":"waste_disposal"}},"type":"Feature"},
	{"geometry":{"coordinates":[140.963099,38.336304],"type":"Point"},"properties":{"osm_id":"8292012617","tag":{"amenity":"waste_disposal"}},"type":"Feature"},
	{"geometry":{"coordinates":[140.963335,38.334193],"type":"Point"},"properties":{"osm_id":"8292035918","tag":{"amenity":"waste_disposal"}},"type":"Feature"},
	{"geometry":{"coordinates":[140.97251,38.335191],"type":"Point"},"properties":{"osm_id":"8295282817","tag":{"amenity":"waste_disposal"}},"type":"Feature"},
	{"geometry":{"coordinates":[140.971351,38.336895],"type":"Point"},"properties":{"osm_id":"8295288918","tag":{"amenity":"waste_disposal"}},"type":"Feature"},
	{"geometry":{"coordinates":[140.971258,38.33994],"type":"Point"},"properties":{"osm_id":"8295289217","tag":{"amenity":"waste_disposal"}},"type":"Feature"},
	{"geometry":{"coordinates":[140.971217,38.340998],"type":"Point"},"properties":{"osm_id":"8295289218","tag":{"amenity":"waste_disposal"}},"type":"Feature"},
	{"geometry":{"coordinates":[140.973998,38.340341],"type":"Point"},"properties":{"osm_id":"8295613118","tag":{"amenity":"waste_disposal"}},"type":"Feature"},
	{"geometry":{"coordinates":[140.971706,38.340343],"type":"Point"},"properties":{"osm_id":"8295613119","tag":{"amenity":"waste_disposal"}},"type":"Feature"},
	{"geometry":{"coordinates":[140.97556,38.340345],"type":"Point"},"properties":{"osm_id":"8295613417","tag":{"amenity":"waste_disposal"}},"type":"Feature"},
	{"geometry":{"coordinates":[140.972727,38.336875],"type":"Point"},"properties":{"osm_id":"8295621117","tag":{"amenity":"waste_disposal"}},"type":"Feature"},
	{"geometry":{"coordinates":[140.972679,38.337228],"type":"Point"},"properties":{"osm_id":"8295621217","tag":{"amenity":"waste_disposal"}},"type":"Feature"},
	{"geometry":{"coordinates":[140.972684,38.337526],"type":"Point"},"properties":{"osm_id":"8295626717","tag":{"amenity":"waste_disposal"}},"type":"Feature"},
	{"geometry":{"coordinates":[140.972671,38.336533],"type":"Point"},"properties":{"osm_id":"8295627017","tag":{"amenity":"waste_disposal"}},"type":"Feature"},
	{"geometry":{"coordinates":[140.971821,38.338611],"type":"Point"},"properties":{"osm_id":"8295660619","tag":{"amenity":"waste_disposal"}},"type":"Feature"},
	{"geometry":{"coordinates":[140.972678,38.337871],"type":"Point"},"properties":{"osm_id":"8295674818","tag":{"amenity":"waste_disposal"}},"type":"Feature"},
	{"geometry":{"coordinates":[140.973665,38.340707],"type":"Point"},"properties":{"osm_id":"8295675218","tag":{"amenity":"waste_disposal"}},"type":"Feature"},
	{"geometry":{"coordinates":[140.97434,38.338713],"type":"Point"},"properties":{"osm_id":"8296456117","tag":{"amenity":"waste_disposal"}},"type":"Feature"},
	{"geometry":{"coordinates":[140.97494,38.339367],"type":"Point"},"properties":{"osm_id":"8296456119","tag":{"amenity":"waste_disposal"}},"type":"Feature"},
	{"geometry":{"coordinates":[140.975834,38.340709],"type":"Point"},"properties":{"osm_id":"8296456120","tag":{"amenity":"waste_disposal"}},"type":"Feature"},
	{"geometry":{"coordinates":[140.969042,38.340567],"type":"Point"},"properties":{"osm_id":"8296456218","tag":{"amenity":"waste_disposal"}},"type":"Feature"},
	{"geometry":{"coordinates":[140.973509,38.338303],"type":"Point"},"properties":{"osm_id":"8296456320","tag":{"amenity":"waste_disposal"}},"type":"Feature"},
	{"geometry":{"coordinates":[140.976351,38.339],"type":"Point"},"properties":{"osm_id":"8296456518","tag":{"amenity":"waste_disposal"}},"type":"Feature"},
	{"geometry":{"coordinates":[140.975994,38.340006],"type":"Point"},"properties":{"osm_id":"8296456519","tag":{"amenity":"waste_disposal"}},"type":"Feature"},
	{"geometry":{"coordinates":[140.975042,38.340011],"type":"Point"},"properties":{"osm_id":"8296456718","tag":{"amenity":"waste_disposal"}},"type":"Feature"},
	{"geometry":{"coordinates":[140.975959,38.341287],"type":"Point"},"properties":{"osm_id":"8296456719","tag":{"amenity":"waste_disposal"}},"type":"Feature"},
	{"geometry":{"coordinates":[140.975126,38.341038],"type":"Point"},"properties":{"osm_id":"8296456818","tag":{"amenity":"waste_disposal"}},"type":"Feature"},
	{"geometry":{"coordinates":[140.970368,38.340522],"type":"Point"},"properties":{"osm_id":"8296477217","tag":{"amenity":"waste_disposal"}},"type":"Feature"},
	{"geometry":{"coordinates":[140.96959,38.340085],"type":"Point"},"properties":{"osm_id":"8296642718","tag":{"amenity":"waste_disposal"}},"type":"Feature"},
	{"geometry":{"coordinates":[140.970418,38.33958],"type":"Point"},"properties":{"osm_id":"8296649417","tag":{"amenity":"waste_disposal"}},"type":"Feature"},
	{"geometry":{"coordinates":[140.968387,38.34128],"type":"Point"},"properties":{"osm_id":"8298550617","tag":{"amenity":"waste_disposal"}},"type":"Feature"}
]
}
