{
"type": "FeatureCollection",
"features": [
	{"geometry":{"coordinates":[140.910937,38.253266],"type":"Point"},"properties":{"name":"\u00e3\u0082\u00bb\u00e3\u0082\u00ab\u00e3\u0083\u00b3\u00e3\u0083\u0089\u00e3\u0082\u00b9\u00e3\u0083\u0088\u00e3\u0083\u00aa\u00e3\u0083\u00bc\u00e3\u0083\u0088","osm_id":"4735559550","tag":{"amenity":"recycling","name:en":"Second Street","name:ja":"\u00e3\u0082\u00bb\u00e3\u0082\u00ab\u00e3\u0083\u00b3\u00e3\u0083\u0089\u00e3\u0082\u00b9\u00e3\u0083\u0088\u00e3\u0083\u00aa\u00e3\u0083\u00bc\u00e3\u0083\u0088\u00e5\u00ae\u00ae\u00e5\u008d\u0083\u00e4\u00bb\u00a3\u00e5\u00ba\u0097"}},"type":"Feature"},
	{"geometry":{"coordinates":[140.943934,38.24962],"type":"Point"},"properties":{"name":"\u00e3\u0082\u00bb\u00e3\u0082\u00ab\u00e3\u0083\u00b3\u00e3\u0083\u0089\u00e3\u0082\u00b9\u00e3\u0083\u0088\u00e3\u0083\u00aa\u00e3\u0083\u00bc\u00e3\u0083\u0088\u00e4\u00bb\u0099\u00e5\u008f\u00b0\u00e5\u0085\u00ad\u00e4\u00b8\u0081\u00e3\u0081\u00ae\u00e7\u009b\u00ae\u00e5\u00ba\u0097","osm_id":"4933673821","tag":{"amenity":"recycling","name:ja":"\u00e3\u0082\u00bb\u00e3\u0082\u00ab\u00e3\u0083\u00b3\u00e3\u0083\u0089\u00e3\u0082\u00b9\u00e3\u0083\u0088\u00e3\u0083\u00aa\u00e3\u0083\u00bc\u00e3\u0083\u0088\u00e4\u00bb\u0099\u00e5\u008f\u00b0\u00e5\u0085\u00ad\u00e4\u00b8\u0081\u00e3\u0081\u00ae\u00e7\u009b\u00ae\u00e5\u00ba\u0097"}},"type":"Feature"},
	{"geometry":{"coordinates":[140.934507,38.241558],"type":"Point"},"properties":{"name":"\u00e3\u0083\u008f\u00e3\u0083\u00bc\u00e3\u0083\u0089\u00e3\u0082\u00aa\u00e3\u0083\u0095\u00e3\u0083\u00bb\u00e3\u0082\u00aa\u00e3\u0083\u0095\u00e3\u0083\u008f\u00e3\u0082\u00a6\u00e3\u0082\u00b9\u00e4\u00bb\u0099\u00e5\u008f\u00b0\u00e8\u008d\u0092\u00e4\u00ba\u0095\u00e5\u00ba\u0097","osm_id":"4935017021","tag":{"amenity":"recycling"}},"type":"Feature"},
	{"geometry":{"coordinates":[140.897891,38.260221],"type":"Point"},"properties":{"osm_id":"4967432725","tag":{"amenity":"waste_basket"}},"type":"Feature"},
	{"geometry":{"coordinates":[140.914481,38.211369],"type":"Point"},"properties":{"osm_id":"7821738489","tag":{"amenity":"waste_disposal"}},"type":"Feature"},
	{"geometry":{"coordinates":[140.916202,38.208508],"type":"Point"},"properties":{"osm_id":"7825174087","tag":{"amenity":"waste_disposal"}},"type":"Feature"},
	{"geometry":{"coordinates":[140.925771,38.211627],"type":"Point"},"properties":{"osm_id":"7825174089","tag":{"amenity":"waste_disposal"}},"type":"Feature"},
	{"geometry":{"coordinates":[140.925797,38.209113],"type":"Point"},"properties":{"osm_id":"7834117388","tag":{"amenity":"waste_disposal"}},"type":"Feature"},
	{"geometry":{"coordinates":[140.926589,38.209643],"type":"Point"},"properties":{"osm_id":"7834117389","tag":{"amenity":"waste_disposal"}},"type":"Feature"},
	{"geometry":{"coordinates":[140.927493,38.212585],"type":"Point"},"properties":{"osm_id":"7834118085","tag":{"amenity":"waste_disposal"}},"type":"Feature"},
	{"geometry":{"coordinates":[140.929714,38.211308],"type":"Point"},"properties":{"osm_id":"7834118189","tag":{"amenity":"waste_disposal"}},"type":"Feature"},
	{"geometry":{"coordinates":[140.93418,38.215516],"type":"Point"},"properties":{"osm_id":"7834128393","tag":{"amenity":"waste_disposal"}},"type":"Feature"},
	{"geometry":{"coordinates":[140.930808,38.214488],"type":"Point"},"properties":{"osm_id":"7834128394","tag":{"amenity":"waste_disposal"}},"type":"Feature"},
	{"geometry":{"coordinates":[140.934514,38.212116],"type":"Point"},"properties":{"osm_id":"7834128686","tag":{"amenity":"waste_disposal"}},"type":"Feature"},
	{"geometry":{"coordinates":[140.93266,38.213593],"type":"Point"},"properties":{"osm_id":"7834128786","tag":{"amenity":"waste_disposal"}},"type":"Feature"},
	{"geometry":{"coordinates":[140.913601,38.232667],"type":"Point"},"properties":{"osm_id":"8122433519","tag":{"amenity":"waste_disposal"}},"type":"Feature"},
	{"geometry":{"coordinates":[140.913391,38.233764],"type":"Point"},"properties":{"osm_id":"8122441917","tag":{"amenity":"waste_disposal"}},"type":"Feature"},
	{"geometry":{"coordinates":[140.915684,38.230899],"type":"Point"},"properties":{"osm_id":"8122482419","tag":{"amenity":"waste_disposal"}},"type":"Feature"},
	{"geometry":{"coordinates":[140.913774,38.230546],"type":"Point"},"properties":{"osm_id":"8122482420","tag":{"amenity":"waste_disposal"}},"type":"Feature"},
	{"geometry":{"coordinates":[140.919987,38.226022],"type":"Point"},"properties":{"osm_id":"8123651017","tag":{"amenity":"waste_disposal"}},"type":"Feature"},
	{"geometry":{"coordinates":[140.921491,38.224152],"type":"Point"},"properties":{"osm_id":"8123656117","tag":{"amenity":"waste_disposal"}},"type":"Feature"},
	{"geometry":{"coordinates":[140.919213,38.219666],"type":"Point"},"properties":{"osm_id":"8127463318","tag":{"amenity":"waste_disposal"}},"type":"Feature"},
	{"geometry":{"coordinates":[140.917267,38.215043],"type":"Point"},"properties":{"osm_id":"8127501217","tag":{"amenity":"waste_disposal"}},"type":"Feature"}
]
}
