{
"type": "FeatureCollection",
"features": [
	{"geometry":{"coordinates":[1.138477,51.090083],"type":"Point"},"properties":{"osm_id":"230276840","tag":{"amenity":"recycling","recycling:glass_bottles":"yes"}},"type":"Feature"},
	{"geometry":{"coordinates":[1.064744,51.082637],"type":"Point"},"properties":{"osm_id":"629118301","tag":{"amenity":"waste_basket","waste":"dog_excrement"}},"type":"Feature"},
	{"geometry":{"coordinates":[1.092571,51.070988],"type":"Point"},"properties":{"osm_id":"5315006432","tag":{"amenity":"waste_basket","waste":"trash"}},"type":"Feature"},
	{"geometry":{"coordinates":[1.122881,51.080735],"type":"Point"},"properties":{"osm_id":"7090280377","tag":{"amenity":"waste_basket","waste":"dog_excrement"}},"type":"Feature"},
	{"geometry":{"coordinates":[1.122264,51.080048],"type":"Point"},"properties":{"osm_id":"7090280378","tag":{"amenity":"waste_basket"}},"type":"Feature"},
	{"geometry":{"coordinates":[1.140588,51.073081],"type":"Point"},"properties":{"osm_id":"7798929248","tag":{"amenity":"waste_basket","waste":"trash"}},"type":"Feature"},
	{"geometry":{"coordinates":[1.099626,51.070641],"type":"Point"},"properties":{"osm_id":"7798929280","tag":{"amenity":"waste_basket","waste":"trash;dog_excrement"}},"type":"Feature"},
	{"geometry":{"coordinates":[1.138817,51.072558],"type":"Point"},"properties":{"osm_id":"7798942501","tag":{"amenity":"waste_basket","waste":"trash"}},"type":"Feature"},
	{"geometry":{"coordinates":[1.109288,51.071246],"type":"Point"},"properties":{"osm_id":"7801748149","tag":{"amenity":"waste_basket","waste":"trash"}},"type":"Feature"},
	{"geometry":{"coordinates":[1.115014,51.071535],"type":"Point"},"properties":{"osm_id":"7801748168","tag":{"amenity":"waste_basket","waste":"trash;dog_excrement"}},"type":"Feature"},
	{"geometry":{"coordinates":[1.093845,51.07085],"type":"Point"},"properties":{"osm_id":"7801748172","tag":{"amenity":"waste_basket","waste":"dog_excrement"}},"type":"Feature"},
	{"geometry":{"coordinates":[1.119048,51.071924],"type":"Point"},"properties":{"osm_id":"7801748177","tag":{"amenity":"waste_basket","waste":"trash;dog_excrement"}},"type":"Feature"},
	{"geometry":{"coordinates":[1.101116,51.071066],"type":"Point"},"properties":{"osm_id":"7801748182","tag":{"amenity":"waste_basket","waste":"trash"}},"type":"Feature"},
	{"geometry":{"coordinates":[1.116873,51.070682],"type":"Point"},"properties":{"osm_id":"7846965025","tag":{"amenity":"waste_basket","waste":"trash"}},"type":"Feature"},
	{"geometry":{"coordinates":[1.112505,51.070212],"type":"Point"},"properties":{"osm_id":"7846965029","tag":{"amenity":"waste_basket","waste":"trash"}},"type":"Feature"},
	{"geometry":{"coordinates":[1.118257,51.070826],"type":"Point"},"properties":{"osm_id":"7846965045","tag":{"amenity":"waste_basket","waste":"trash"}},"type":"Feature"},
	{"geometry":{"coordinates":[1.114136,51.070397],"type":"Point"},"properties":{"osm_id":"7846965048","tag":{"amenity":"waste_basket","waste":"trash"}},"type":"Feature"},
	{"geometry":{"coordinates":[1.111048,51.070049],"type":"Point"},"properties":{"osm_id":"7846965054","tag":{"amenity":"waste_basket","waste":"trash"}},"type":"Feature"},
	{"geometry":{"coordinates":[1.121087,51.071099],"type":"Point"},"properties":{"osm_id":"7846965056","tag":{"amenity":"waste_basket","waste":"trash"}},"type":"Feature"},
	{"geometry":{"coordinates":[1.109064,51.069812],"type":"Point"},"properties":{"osm_id":"7846965063","tag":{"amenity":"waste_basket","waste":"trash"}},"type":"Feature"},
	{"geometry":{"coordinates":[1.105664,51.069357],"type":"Point"},"properties":{"osm_id":"7850059530","tag":{"amenity":"waste_basket","waste":"trash"}},"type":"Feature"},
	{"geometry":{"coordinates":[1.103575,51.069071],"type":"Point"},"properties":{"osm_id":"7850059538","tag":{"amenity":"waste_basket","waste":"trash"}},"type":"Feature"},
	{"geometry":{"coordinates":[1.070875,51.070552],"type":"Point"},"properties":{"osm_id":"7857282564","tag":{"addr:housenumber":"50","addr:street":"Dymchurch Road"}},"type":"Feature"},
	{"geometry":{"coordinates":[1.12237,51.071218],"type":"Point"},"properties":{"osm_id":"7869163257","tag":{"amenity":"waste_basket","waste":"trash"}},"type":"Feature"},
	{"geometry":{"coordinates":[1.135089,51.072299],"type":"Point"},"properties":{"osm_id":"7869163277","tag":{"amenity":"waste_basket","waste":"trash"}},"type":"Feature"},
	{"geometry":{"coordinates":[1.129689,51.071862],"type":"Point"},"properties":{"osm_id":"7869180619","tag":{"amenity":"waste_basket","waste":"trash"}},"type":"Feature"},
	{"geometry":{"coordinates":[1.136174,51.072389],"type":"Point"},"properties":{"osm_id":"7869180639","tag":{"amenity":"waste_basket","waste":"trash"}},"type":"Feature"},
	{"geometry":{"coordinates":[1.13114,51.071933],"type":"Point"},"properties":{"osm_id":"7869180662","tag":{"amenity":"waste_basket"}},"type":"Feature"},
	{"geometry":{"coordinates":[1.13965,51.072636],"type":"Point"},"properties":{"osm_id":"7869180692","tag":{"amenity":"waste_basket","waste":"trash"}},"type":"Feature"},
	{"geometry":{"coordinates":[1.13538,51.072352],"type":"Point"},"properties":{"osm_id":"7869180698","tag":{"amenity":"waste_basket","waste":"trash"}},"type":"Feature"},
	{"geometry":{"coordinates":[1.132724,51.072073],"type":"Point"},"properties":{"osm_id":"7869180711","tag":{"amenity":"waste_basket","waste":"trash"}},"type":"Feature"},
	{"geometry":{"coordinates":[1.11961,51.070921],"type":"Point"},"properties":{"osm_id":"7869180722","tag":{"amenity":"waste_basket"}},"type":"Feature"},
	{"geometry":{"coordinates":[1.122234,51.072076],"type":"Point"},"properties":{"osm_id":"7884870006","tag":{"amenity":"waste_basket","waste":"trash"}},"type":"Feature"},
	{"geometry":{"coordinates":[1.125033,51.071653],"type":"Point"},"properties":{"osm_id":"7884870040","tag":{"amenity":"waste_basket","waste":"trash"}},"type":"Feature"},
	{"geometry":{"coordinates":[1.116909,51.078008],"type":"Point"},"properties":{"osm_id":"7921075008","tag":{"amenity":"waste_basket","waste":"trash"}},"type":"Feature"},
	{"geometry":{"coordinates":[1.120399,51.072502],"type":"Point"},"properties":{"osm_id":"7921107681","tag":{"amenity":"waste_basket","waste":"trash"}},"type":"Feature"},
	{"geometry":{"coordinates":[1.079422,51.07005],"type":"Point"},"properties":{"osm_id":"7923564286","tag":{"amenity":"waste_basket","waste":"trash"}},"type":"Feature"},
	{"geometry":{"coordinates":[1.082024,51.078557],"type":"Point"},"properties":{"osm_id":"7923782493","tag":{"amenity":"waste_basket","waste":"trash"}},"type":"Feature"},
	{"geometry":{"coordinates":[1.107354,51.071367],"type":"Point"},"properties":{"osm_id":"7923829640","tag":{"amenity":"waste_basket","waste":"trash;dog_excrement"}},"type":"Feature"}
]
}
