{
"type": "FeatureCollection",
"features": [
	{"geometry":{"coordinates":[1.139934,49.501442],"type":"Point"},"properties":{"osm_id":"3636870285","tag":{"amenity":"recycling","recycling:glass_bottles":"yes","recycling_type":"container"}},"type":"Feature"},
	{"geometry":{"coordinates":[1.142362,49.498494],"type":"Point"},"properties":{"osm_id":"3864887376","tag":{"amenity":"waste_basket","wheelchair":"yes"}},"type":"Feature"},
	{"geometry":{"coordinates":[1.078878,49.508351],"type":"Point"},"properties":{"osm_id":"4524927687","tag":{"access":"yes","amenity":"recycling","fee":"no","recycling:glass":"yes","recycling_type":"container","wheelchair":"no"}},"type":"Feature"},
	{"geometry":{"coordinates":[1.140862,49.498377],"type":"Point"},"properties":{"osm_id":"4717380739","tag":{"amenity":"waste_basket","wheelchair":"yes"}},"type":"Feature"},
	{"geometry":{"coordinates":[1.139319,49.497811],"type":"Point"},"properties":{"osm_id":"4717391974","tag":{"amenity":"recycling","operator":"Syndicat mixte d\u00e2\u0080\u0099\u00c3\u00a9limination des d\u00c3\u00a9chets de l\u00e2\u0080\u0099arrondissement de Rouen","recycling:glass_bottles":"yes","recycling:glass_jars":"yes","recycling_type":"container","wheelchair":"no"}},"type":"Feature"},
	{"geometry":{"coordinates":[1.074311,49.548296],"type":"Point"},"properties":{"osm_id":"5875434949","tag":{"amenity":"waste_basket","wheelchair":"yes"}},"type":"Feature"},
	{"geometry":{"coordinates":[1.135974,49.498496],"type":"Point"},"properties":{"osm_id":"9047180633","tag":{"amenity":"waste_basket"}},"type":"Feature"}
]
}
