{
"type": "FeatureCollection",
"features": [
	{"geometry":{"coordinates":[1.129511,49.337604],"type":"Point"},"properties":{"osm_id":"1104532665","tag":{"amenity":"recycling"}},"type":"Feature"},
	{"geometry":{"coordinates":[1.09396,49.328807],"type":"Point"},"properties":{"osm_id":"3210595308","tag":{"amenity":"recycling","recycling:clothes":"yes","recycling:glass":"yes","recycling:paper":"yes"}},"type":"Feature"},
	{"geometry":{"coordinates":[1.103323,49.328676],"type":"Point"},"properties":{"osm_id":"3424025154","tag":{"amenity":"recycling","recycling_type":"container"}},"type":"Feature"},
	{"geometry":{"coordinates":[1.101156,49.342425],"type":"Point"},"properties":{"osm_id":"4718691208","tag":{"amenity":"waste_basket","wheelchair":"yes"}},"type":"Feature"},
	{"geometry":{"coordinates":[1.106799,49.381078],"type":"Point"},"properties":{"osm_id":"4727817709","tag":{"amenity":"waste_basket","wheelchair":"yes"}},"type":"Feature"},
	{"geometry":{"coordinates":[1.106919,49.381046],"type":"Point"},"properties":{"osm_id":"4727817710","tag":{"amenity":"waste_basket","wheelchair":"yes"}},"type":"Feature"},
	{"geometry":{"coordinates":[1.106879,49.381071],"type":"Point"},"properties":{"osm_id":"4727817711","tag":{"access":"permissive","amenity":"recycling","fee":"no","operator":"Syndicat mixte d\u00e2\u0080\u0099\u00c3\u00a9limination des d\u00c3\u00a9chets de l\u00e2\u0080\u0099arrondissement de Rouen","recycling:cans":"yes","recycling:cartons":"yes","recycling:paper":"yes","recycling:plastic":"yes","recycling_type":"container","wheelchair":"no"}},"type":"Feature"},
	{"geometry":{"coordinates":[1.103395,49.372101],"type":"Point"},"properties":{"osm_id":"4729605050","tag":{"amenity":"waste_basket","wheelchair":"yes"}},"type":"Feature"},
	{"geometry":{"coordinates":[1.107715,49.379999],"type":"Point"},"properties":{"osm_id":"5572108169","tag":{"amenity":"waste_basket","wheelchair":"yes"}},"type":"Feature"},
	{"geometry":{"coordinates":[1.10796,49.379718],"type":"Point"},"properties":{"osm_id":"5577054999","tag":{"amenity":"waste_basket","wheelchair":"yes"}},"type":"Feature"},
	{"geometry":{"coordinates":[1.107654,49.379616],"type":"Point"},"properties":{"osm_id":"5577055001","tag":{"amenity":"waste_basket","wheelchair":"yes"}},"type":"Feature"},
	{"geometry":{"coordinates":[1.105187,49.380277],"type":"Point"},"properties":{"osm_id":"5659469901","tag":{"access":"yes","amenity":"recycling","fee":"no","operator":"Syndicat mixte d\u00e2\u0080\u0099\u00c3\u00a9limination des d\u00c3\u00a9chets de l\u00e2\u0080\u0099arrondissement de Rouen","recycling:glass":"yes","recycling_type":"container","wheelchair":"no"}},"type":"Feature"},
	{"geometry":{"coordinates":[1.090028,49.340099],"type":"Point"},"properties":{"osm_id":"6245405387","tag":{"amenity":"waste_basket"}},"type":"Feature"},
	{"geometry":{"coordinates":[1.09,49.339932],"type":"Point"},"properties":{"osm_id":"6245405391","tag":{"amenity":"waste_basket"}},"type":"Feature"},
	{"geometry":{"coordinates":[1.089711,49.339907],"type":"Point"},"properties":{"osm_id":"6245429625","tag":{"amenity":"waste_basket"}},"type":"Feature"},
	{"geometry":{"coordinates":[1.103517,49.372179],"type":"Point"},"properties":{"osm_id":"6991089412","tag":{"amenity":"waste_basket","wheelchair":"yes"}},"type":"Feature"},
	{"geometry":{"coordinates":[1.107866,49.379515],"type":"Point"},"properties":{"osm_id":"7747157760","tag":{"amenity":"waste_basket","waste":"trash","wheelchair":"yes"}},"type":"Feature"},
	{"geometry":{"coordinates":[1.107749,49.379403],"type":"Point"},"properties":{"osm_id":"7747157762","tag":{"amenity":"waste_basket","waste":"trash","wheelchair":"yes"}},"type":"Feature"},
	{"geometry":{"coordinates":[1.107569,49.37982],"type":"Point"},"properties":{"osm_id":"7747157766","tag":{"amenity":"waste_basket","wheelchair":"yes"}},"type":"Feature"},
	{"geometry":{"coordinates":[1.09749,49.341671],"type":"Point"},"properties":{"osm_id":"7900315672","tag":{"amenity":"waste_basket","waste":"trash","wheelchair":"yes"}},"type":"Feature"},
	{"geometry":{"coordinates":[1.097587,49.341433],"type":"Point"},"properties":{"osm_id":"7900315678","tag":{"amenity":"waste_basket","waste":"trash","wheelchair":"yes"}},"type":"Feature"},
	{"geometry":{"coordinates":[1.093088,49.339826],"type":"Point"},"properties":{"osm_id":"7902487996","tag":{"amenity":"waste_basket","waste":"trash","wheelchair":"yes"}},"type":"Feature"},
	{"geometry":{"coordinates":[1.094001,49.340314],"type":"Point"},"properties":{"osm_id":"7902488005","tag":{"amenity":"waste_basket","waste":"trash","wheelchair":"yes"}},"type":"Feature"},
	{"geometry":{"coordinates":[1.094207,49.340391],"type":"Point"},"properties":{"osm_id":"7902488012","tag":{"amenity":"waste_basket","waste":"trash","wheelchair":"yes"}},"type":"Feature"},
	{"geometry":{"coordinates":[1.094345,49.340449],"type":"Point"},"properties":{"osm_id":"7902488014","tag":{"amenity":"waste_basket","waste":"trash","wheelchair":"yes"}},"type":"Feature"},
	{"geometry":{"coordinates":[1.094292,49.340286],"type":"Point"},"properties":{"osm_id":"7902488018","tag":{"amenity":"waste_basket","waste":"trash","wheelchair":"yes"}},"type":"Feature"},
	{"geometry":{"coordinates":[1.094899,49.340467],"type":"Point"},"properties":{"osm_id":"7902536888","tag":{"access":"yes","amenity":"recycling","fee":"no","operator":"Lions Club Elbeuf","recycling:clothes":"yes","recycling:shoes":"yes","recycling_type":"container","wheelchair":"no"}},"type":"Feature"},
	{"geometry":{"coordinates":[1.098988,49.360917],"type":"Point"},"properties":{"osm_id":"7914281770","tag":{"amenity":"waste_basket","waste":"trash","wheelchair":"yes"}},"type":"Feature"},
	{"geometry":{"coordinates":[1.085425,49.338275],"type":"Point"},"properties":{"osm_id":"7917736437","tag":{"access":"yes","amenity":"recycling","fee":"no","operator":"Syndicat mixte d'\u00c3\u00a9limination des d\u00c3\u00a9chets de l'arrondissement de Rouen","recycling:glass":"yes","recycling_type":"container","wheelchair":"no"}},"type":"Feature"}
]
}
