{
"type": "FeatureCollection",
"lastupdate": "2020-07-31T00:00:00Z",
"features": [
	{"geometry":{"coordinates":[1.112166,49.143075],"type":"Point"},"properties":{"name":"D\u00c3\u00a9ch\u00c3\u00a8terie d'Hondouville","osm_id":"2383947313","tag":{"addr:city":"Hondouville","addr:place":"La Carri\u00e8re Auzoux","addr:postcode":"27400","addr:street":"Route de la For\u00eat","amenity":"recycling","opening_hours":"Mo,We 14:00-17:20; Sa 9:00-11:30,14:00-17:20; Tu,Th,Fr off","operator":"Communaut\u00e9 de communes du Neubourg","operator:type":"public","recycling_type":"centre"}},"type":"Feature"},
	{"geometry":{"coordinates":[1.134281,49.145756],"type":"Point"},"properties":{"osm_id":"7401062035","tag":{"amenity":"waste_basket","operator":"Commune Hondouville"}},"type":"Feature"},
	{"geometry":{"coordinates":[1.131746,49.141339],"type":"Point"},"properties":{"osm_id":"7401961945","tag":{"amenity":"waste_basket","operator":"Commune d'Hondouville"}},"type":"Feature"},
	{"geometry":{"coordinates":[1.132406,49.141983],"type":"Point"},"properties":{"osm_id":"7422372552","tag":{"amenity":"recycling","operator":"Communaut\u00e9 de communes Le Neubourg","recycling_type":"container"}},"type":"Feature"},
	{"geometry":{"coordinates":[1.135001,49.143201],"type":"Point"},"properties":{"osm_id":"7474309779","tag":{"amenity":"waste_basket","operator":"Commune Hondouville"}},"type":"Feature"}
]
}
