{
"type": "FeatureCollection",
"features": [
	{"geometry":{"coordinates":[1.141641,45.796544],"type":"Point"},"properties":{"osm_id":"3705315233","tag":{"amenity":"waste_basket"}},"type":"Feature"},
	{"geometry":{"coordinates":[1.136157,45.798035],"type":"Point"},"properties":{"osm_id":"5353325373","tag":{"amenity":"recycling","recycling:clothes":"yes","recycling:shoes":"yes","recycling_type":"container"}},"type":"Feature"},
	{"geometry":{"coordinates":[1.136935,45.812189],"type":"Point"},"properties":{"osm_id":"5353325374","tag":{"amenity":"recycling","recycling:glass_bottles":"yes","recycling_type":"container"}},"type":"Feature"},
	{"geometry":{"coordinates":[1.126612,45.794963],"type":"Point"},"properties":{"osm_id":"5386740918","tag":{"amenity":"recycling","recycling:glass_bottles":"yes","recycling_type":"container"}},"type":"Feature"},
	{"geometry":{"coordinates":[1.131035,45.794692],"type":"Point"},"properties":{"osm_id":"5418271848","tag":{"amenity":"recycling","recycling:glass_bottles":"yes","recycling_type":"container"}},"type":"Feature"},
	{"geometry":{"coordinates":[1.139002,45.798946],"type":"Point"},"properties":{"osm_id":"5418278959","tag":{"amenity":"recycling","recycling:glass_bottles":"yes","recycling_type":"container"}},"type":"Feature"},
	{"geometry":{"coordinates":[1.111299,45.785035],"type":"Point"},"properties":{"osm_id":"5418345310","tag":{"amenity":"recycling","recycling:glass_bottles":"yes","recycling_type":"container"}},"type":"Feature"},
	{"geometry":{"coordinates":[1.14169,45.797683],"type":"Point"},"properties":{"osm_id":"5428846470","tag":{"amenity":"waste_basket"}},"type":"Feature"},
	{"geometry":{"coordinates":[1.14146,45.797819],"type":"Point"},"properties":{"osm_id":"5428846471","tag":{"amenity":"waste_basket"}},"type":"Feature"},
	{"geometry":{"coordinates":[1.140786,45.798247],"type":"Point"},"properties":{"osm_id":"5428846473","tag":{"amenity":"waste_basket"}},"type":"Feature"},
	{"geometry":{"coordinates":[1.119839,45.784217],"type":"Point"},"properties":{"osm_id":"5428886371","tag":{"amenity":"recycling","recycling:glass_bottles":"yes","recycling_type":"container"}},"type":"Feature"},
	{"geometry":{"coordinates":[1.137825,45.796022],"type":"Point"},"properties":{"osm_id":"5691542301","tag":{"amenity":"recycling","operator":"Le Relais","recycling:clothes":"yes","recycling:shoes":"yes","recycling_type":"container"}},"type":"Feature"},
	{"geometry":{"coordinates":[1.118708,45.797425],"type":"Point"},"properties":{"osm_id":"5834637145","tag":{"amenity":"waste_basket"}},"type":"Feature"},
	{"geometry":{"coordinates":[1.130834,45.795492],"type":"Point"},"properties":{"osm_id":"6024959086","tag":{"amenity":"waste_basket"}},"type":"Feature"},
	{"geometry":{"coordinates":[1.13447,45.797765],"type":"Point"},"properties":{"osm_id":"6254075556","tag":{"amenity":"waste_basket"}},"type":"Feature"},
	{"geometry":{"coordinates":[1.135112,45.79781],"type":"Point"},"properties":{"osm_id":"6254075561","tag":{"amenity":"waste_basket"}},"type":"Feature"},
	{"geometry":{"coordinates":[1.135684,45.798057],"type":"Point"},"properties":{"osm_id":"6254075562","tag":{"amenity":"waste_basket"}},"type":"Feature"},
	{"geometry":{"coordinates":[1.135344,45.797986],"type":"Point"},"properties":{"osm_id":"6254075563","tag":{"amenity":"waste_basket"}},"type":"Feature"},
	{"geometry":{"coordinates":[1.130709,45.792898],"type":"Point"},"properties":{"osm_id":"7040234607","tag":{"amenity":"recycling","operator":"Syded87","recycling:glass_bottles":"yes","recycling_type":"container"}},"type":"Feature"},
	{"geometry":{"coordinates":[1.131005,45.794696],"type":"Point"},"properties":{"osm_id":"7093313275","tag":{"amenity":"recycling","recycling:paper":"yes","recycling_type":"container"}},"type":"Feature"},
	{"geometry":{"coordinates":[1.13692,45.812163],"type":"Point"},"properties":{"osm_id":"7093313276","tag":{"amenity":"recycling","recycling:paper":"yes","recycling_type":"container"}},"type":"Feature"},
	{"geometry":{"coordinates":[1.136147,45.798035],"type":"Point"},"properties":{"osm_id":"7134065144","tag":{"amenity":"recycling","recycling:clothes":"yes","recycling:shoes":"yes","recycling_type":"container"}},"type":"Feature"},
	{"geometry":{"coordinates":[1.136133,45.798036],"type":"Point"},"properties":{"osm_id":"7134065145","tag":{"amenity":"recycling","recycling:glass_bottles":"yes","recycling_type":"container"}},"type":"Feature"},
	{"geometry":{"coordinates":[1.136119,45.798036],"type":"Point"},"properties":{"osm_id":"7134065146","tag":{"amenity":"recycling","recycling:glass_bottles":"yes","recycling_type":"container"}},"type":"Feature"},
	{"geometry":{"coordinates":[1.135058,45.797387],"type":"Point"},"properties":{"osm_id":"7215003685","tag":{"amenity":"recycling","operator":"SYDED 87","recycling:paper":"yes","recycling_type":"container"}},"type":"Feature"},
	{"geometry":{"coordinates":[1.124807,45.803532],"type":"Point"},"properties":{"osm_id":"7251643018","tag":{"amenity":"recycling","operator":"SYDED 87","recycling:glass_bottles":"yes","recycling_type":"container"}},"type":"Feature"},
	{"geometry":{"coordinates":[1.113608,45.768146],"type":"Point"},"properties":{"barrier":"gate","osm_id":"7515458196"},"type":"Feature"},
	{"geometry":{"coordinates":[1.113555,45.768154],"type":"Point"},"properties":{"barrier":"gate","osm_id":"7515458197"},"type":"Feature"}
]
}
