{
"type": "FeatureCollection",
"features": [
	{"geometry":{"coordinates":[1.087057,44.102883],"type":"Point"},"properties":{"osm_id":"581064753","tag":{"amenity":"waste_basket","material":"metal"}},"type":"Feature"},
	{"geometry":{"coordinates":[1.089566,44.100852],"type":"Point"},"properties":{"osm_id":"732657480","tag":{"amenity":"waste_basket"}},"type":"Feature"},
	{"geometry":{"coordinates":[1.084794,44.10308],"type":"Point"},"properties":{"osm_id":"732660878","tag":{"amenity":"waste_basket"}},"type":"Feature"},
	{"geometry":{"coordinates":[1.087893,44.101542],"type":"Point"},"properties":{"osm_id":"732663767","tag":{"amenity":"waste_basket","check_date":"2021-07-07"}},"type":"Feature"},
	{"geometry":{"coordinates":[1.089282,44.100949],"type":"Point"},"properties":{"osm_id":"732674700","tag":{"amenity":"waste_basket","check_date":"2021-07-08"}},"type":"Feature"},
	{"geometry":{"coordinates":[1.088492,44.096331],"type":"Point"},"properties":{"osm_id":"1200870269","tag":{"amenity":"waste_disposal"}},"type":"Feature"},
	{"geometry":{"coordinates":[1.083718,44.104671],"type":"Point"},"properties":{"osm_id":"1210857093","tag":{"amenity":"recycling","check_date:recycling":"2020-12-20","location":"overground","recycling:glass_bottles":"yes","recycling_type":"container"}},"type":"Feature"},
	{"geometry":{"coordinates":[1.104555,44.105483],"type":"Point"},"properties":{"osm_id":"1221371800","tag":{"amenity":"recycling","recycling:glass_bottles":"yes","recycling_type":"container"}},"type":"Feature"},
	{"geometry":{"coordinates":[1.099669,44.104177],"type":"Point"},"properties":{"osm_id":"1221717214","tag":{"amenity":"recycling","location":"overground","recycling:glass_bottles":"yes","recycling_type":"container"}},"type":"Feature"},
	{"geometry":{"coordinates":[1.103135,44.108427],"type":"Point"},"properties":{"osm_id":"1229560763","tag":{"amenity":"recycling","recycling:glass_bottles":"yes","recycling_type":"container"}},"type":"Feature"},
	{"geometry":{"coordinates":[1.114453,44.112753],"type":"Point"},"properties":{"osm_id":"1229584172","tag":{"amenity":"recycling","recycling:glass_bottles":"yes","recycling_type":"container"}},"type":"Feature"},
	{"geometry":{"coordinates":[1.106167,44.114245],"type":"Point"},"properties":{"osm_id":"1229715451","tag":{"amenity":"waste_basket"}},"type":"Feature"},
	{"geometry":{"coordinates":[1.084014,44.103484],"type":"Point"},"properties":{"osm_id":"1248634796","tag":{"amenity":"recycling","check_date:recycling":"2020-12-20","location":"overground","recycling:glass_bottles":"yes","recycling_type":"container"}},"type":"Feature"},
	{"geometry":{"coordinates":[1.085673,44.100281],"type":"Point"},"properties":{"osm_id":"1248634817","tag":{"amenity":"recycling","location":"underground","recycling:glass_bottles":"yes","recycling_type":"container"}},"type":"Feature"},
	{"geometry":{"coordinates":[1.090025,44.100861],"type":"Point"},"properties":{"osm_id":"1309145764","tag":{"amenity":"recycling","recycling:clothes":"yes","recycling:electrical_appliances":"yes","recycling:glass_bottles":"yes","recycling:small_appliances":"yes","recycling_type":"container"}},"type":"Feature"},
	{"geometry":{"coordinates":[1.088658,44.09999],"type":"Point"},"properties":{"osm_id":"1310791450","tag":{"amenity":"recycling","check_date:recycling":"2020-12-20","recycling:glass_bottles":"yes","recycling_type":"container"}},"type":"Feature"},
	{"geometry":{"coordinates":[1.082321,44.095614],"type":"Point"},"properties":{"osm_id":"1313142487","tag":{"amenity":"recycling","recycling:glass_bottles":"yes","recycling_type":"container"}},"type":"Feature"},
	{"geometry":{"coordinates":[1.081188,44.100151],"type":"Point"},"properties":{"osm_id":"1366959185","tag":{"amenity":"recycling","recycling:glass_bottles":"yes","recycling_type":"container"}},"type":"Feature"},
	{"geometry":{"coordinates":[1.100878,44.100178],"type":"Point"},"properties":{"osm_id":"1369345425","tag":{"amenity":"recycling","recycling:glass_bottles":"yes","recycling_type":"container"}},"type":"Feature"},
	{"geometry":{"coordinates":[1.089679,44.105343],"type":"Point"},"properties":{"osm_id":"1384895565","tag":{"amenity":"recycling","check_date:recycling":"2020-12-20","location":"overground","recycling:glass_bottles":"yes","recycling_type":"container"}},"type":"Feature"},
	{"geometry":{"coordinates":[1.091281,44.104777],"type":"Point"},"properties":{"osm_id":"1389548773","tag":{"amenity":"recycling","location":"overground","recycling:glass_bottles":"yes","recycling_type":"container"}},"type":"Feature"},
	{"geometry":{"coordinates":[1.085399,44.106445],"type":"Point"},"properties":{"osm_id":"1389548784","tag":{"amenity":"recycling","location":"overground","recycling:clothes":"yes","recycling:glass_bottles":"yes","recycling_type":"container"}},"type":"Feature"},
	{"geometry":{"coordinates":[1.069241,44.131348],"type":"Point"},"properties":{"osm_id":"1476348884","tag":{"amenity":"recycling","recycling:glass_bottles":"yes","recycling_type":"container"}},"type":"Feature"},
	{"geometry":{"coordinates":[1.070044,44.099863],"type":"Point"},"properties":{"osm_id":"1476518486","tag":{"amenity":"waste_basket"}},"type":"Feature"},
	{"geometry":{"coordinates":[1.0713,44.100327],"type":"Point"},"properties":{"osm_id":"1476518488","tag":{"amenity":"waste_basket"}},"type":"Feature"},
	{"geometry":{"coordinates":[1.072572,44.100666],"type":"Point"},"properties":{"osm_id":"1476518490","tag":{"amenity":"waste_basket"}},"type":"Feature"},
	{"geometry":{"coordinates":[1.111369,44.115082],"type":"Point"},"properties":{"osm_id":"1501590698","tag":{"amenity":"recycling","recycling:glass_bottles":"yes","recycling_type":"container"}},"type":"Feature"},
	{"geometry":{"coordinates":[1.120188,44.119966],"type":"Point"},"properties":{"osm_id":"1574335865","tag":{"amenity":"recycling","recycling:glass_bottles":"yes","recycling_type":"container","wheelchair":"yes"}},"type":"Feature"},
	{"geometry":{"coordinates":[1.098231,44.101062],"type":"Point"},"properties":{"osm_id":"1638040801","tag":{"amenity":"recycling","recycling:electrical_appliances":"yes","recycling:glass_bottles":"yes","recycling:small_appliances":"yes","recycling_type":"container"}},"type":"Feature"},
	{"geometry":{"coordinates":[1.08793,44.10435],"type":"Point"},"properties":{"osm_id":"1642237234","tag":{"amenity":"waste_basket","check_date":"2021-07-07"}},"type":"Feature"},
	{"geometry":{"coordinates":[1.087484,44.104985],"type":"Point"},"properties":{"osm_id":"1642237999","tag":{"amenity":"waste_basket","check_date":"2021-06-05"}},"type":"Feature"},
	{"geometry":{"coordinates":[1.08705,44.104809],"type":"Point"},"properties":{"osm_id":"1642245388","tag":{"amenity":"waste_basket","check_date":"2021-06-05"}},"type":"Feature"},
	{"geometry":{"coordinates":[1.086903,44.103074],"type":"Point"},"properties":{"osm_id":"1645873046","tag":{"amenity":"waste_basket","check_date":"2021-07-31"}},"type":"Feature"},
	{"geometry":{"coordinates":[1.08527,44.095835],"type":"Point"},"properties":{"osm_id":"1647174240","tag":{"amenity":"recycling","recycling:glass_bottles":"yes","recycling_type":"container"}},"type":"Feature"},
	{"geometry":{"coordinates":[1.089015,44.096492],"type":"Point"},"properties":{"osm_id":"1647174241","tag":{"amenity":"recycling","recycling:glass_bottles":"yes","recycling_type":"container"}},"type":"Feature"},
	{"geometry":{"coordinates":[1.07786,44.101272],"type":"Point"},"properties":{"osm_id":"1647174242","tag":{"amenity":"recycling","recycling:glass_bottles":"yes","recycling_type":"container"}},"type":"Feature"},
	{"geometry":{"coordinates":[1.079473,44.1029],"type":"Point"},"properties":{"osm_id":"1647174247","tag":{"amenity":"recycling","recycling:glass_bottles":"yes","recycling_type":"container"}},"type":"Feature"},
	{"geometry":{"coordinates":[1.086508,44.103646],"type":"Point"},"properties":{"osm_id":"1647174248","tag":{"amenity":"recycling","check_date:recycling":"2020-12-20","recycling:glass_bottles":"yes","recycling_type":"container"}},"type":"Feature"},
	{"geometry":{"coordinates":[1.096589,44.103904],"type":"Point"},"properties":{"osm_id":"1647182082","tag":{"amenity":"recycling","recycling:glass_bottles":"yes","recycling_type":"container"}},"type":"Feature"},
	{"geometry":{"coordinates":[1.098332,44.106681],"type":"Point"},"properties":{"osm_id":"1647182098","tag":{"amenity":"recycling","recycling:glass_bottles":"yes","recycling_type":"container"}},"type":"Feature"},
	{"geometry":{"coordinates":[1.106357,44.111538],"type":"Point"},"properties":{"osm_id":"1647182100","tag":{"amenity":"recycling","recycling:glass_bottles":"yes","recycling_type":"container"}},"type":"Feature"},
	{"geometry":{"coordinates":[1.074733,44.113946],"type":"Point"},"properties":{"osm_id":"1647192512","tag":{"amenity":"recycling","recycling:glass_bottles":"yes","recycling_type":"container"}},"type":"Feature"},
	{"geometry":{"coordinates":[1.113694,44.114711],"type":"Point"},"properties":{"osm_id":"1647192513","tag":{"amenity":"recycling","recycling:glass_bottles":"yes","recycling_type":"container"}},"type":"Feature"},
	{"geometry":{"coordinates":[1.108717,44.11516],"type":"Point"},"properties":{"osm_id":"1647192514","tag":{"amenity":"recycling","recycling:glass_bottles":"yes","recycling_type":"container"}},"type":"Feature"},
	{"geometry":{"coordinates":[1.102164,44.116562],"type":"Point"},"properties":{"osm_id":"1647192531","tag":{"amenity":"recycling","recycling:glass_bottles":"yes","recycling_type":"container"}},"type":"Feature"},
	{"geometry":{"coordinates":[1.08722,44.090486],"type":"Point"},"properties":{"osm_id":"1647209875","tag":{"amenity":"recycling","recycling:glass_bottles":"yes","recycling_type":"container"}},"type":"Feature"},
	{"geometry":{"coordinates":[1.056451,44.094954],"type":"Point"},"properties":{"osm_id":"1647209891","tag":{"amenity":"recycling","recycling:glass_bottles":"yes","recycling_type":"container"}},"type":"Feature"},
	{"geometry":{"coordinates":[1.05701,44.142441],"type":"Point"},"properties":{"osm_id":"1647209981","tag":{"amenity":"recycling","recycling:glass_bottles":"yes","recycling_type":"container"}},"type":"Feature"},
	{"geometry":{"coordinates":[1.1031,44.124021],"type":"Point"},"properties":{"osm_id":"1647214184","tag":{"amenity":"recycling","recycling:glass_bottles":"yes","recycling_type":"container"}},"type":"Feature"},
	{"geometry":{"coordinates":[1.084118,44.103314],"type":"Point"},"properties":{"osm_id":"1648213675","tag":{"amenity":"waste_basket","check_date":"2021-06-05"}},"type":"Feature"},
	{"geometry":{"coordinates":[1.087752,44.105104],"type":"Point"},"properties":{"osm_id":"1648213698","tag":{"amenity":"waste_basket"}},"type":"Feature"},
	{"geometry":{"coordinates":[1.102818,44.09374],"type":"Point"},"properties":{"osm_id":"1649016345","tag":{"amenity":"waste_basket"}},"type":"Feature"},
	{"geometry":{"coordinates":[1.087923,44.103299],"type":"Point"},"properties":{"osm_id":"1649016525","tag":{"amenity":"waste_basket","check_date":"2021-07-07"}},"type":"Feature"},
	{"geometry":{"coordinates":[1.082286,44.102781],"type":"Point"},"properties":{"osm_id":"1649028680","tag":{"amenity":"waste_basket"}},"type":"Feature"},
	{"geometry":{"coordinates":[1.090298,44.101545],"type":"Point"},"properties":{"osm_id":"1652055717","tag":{"amenity":"waste_basket","check_date":"2021-07-08"}},"type":"Feature"},
	{"geometry":{"coordinates":[1.100034,44.108384],"type":"Point"},"properties":{"osm_id":"1683864719","tag":{"amenity":"waste_basket"}},"type":"Feature"},
	{"geometry":{"coordinates":[1.084363,44.106326],"type":"Point"},"properties":{"osm_id":"1690508040","tag":{"amenity":"waste_basket"}},"type":"Feature"},
	{"geometry":{"coordinates":[1.084695,44.100001],"type":"Point"},"properties":{"osm_id":"2181566201","tag":{"amenity":"recycling","location":"underground","recycling:glass_bottles":"yes","recycling_type":"container"}},"type":"Feature"},
	{"geometry":{"coordinates":[1.091747,44.102291],"type":"Point"},"properties":{"osm_id":"2183360640","tag":{"amenity":"waste_basket","check_date":"2021-07-08"}},"type":"Feature"},
	{"geometry":{"coordinates":[1.092404,44.103801],"type":"Point"},"properties":{"osm_id":"2183360770","tag":{"amenity":"waste_basket","check_date":"2021-07-08"}},"type":"Feature"},
	{"geometry":{"coordinates":[1.084899,44.099925],"type":"Point"},"properties":{"osm_id":"2183429209","tag":{"amenity":"waste_basket"}},"type":"Feature"},
	{"geometry":{"coordinates":[1.077276,44.102492],"type":"Point"},"properties":{"osm_id":"2190256729","tag":{"amenity":"waste_basket"}},"type":"Feature"},
	{"geometry":{"coordinates":[1.083639,44.099909],"type":"Point"},"properties":{"osm_id":"2191212006","tag":{"amenity":"waste_basket"}},"type":"Feature"},
	{"geometry":{"coordinates":[1.083909,44.099974],"type":"Point"},"properties":{"osm_id":"2191212010","tag":{"amenity":"waste_basket"}},"type":"Feature"},
	{"geometry":{"coordinates":[1.083746,44.104677],"type":"Point"},"properties":{"osm_id":"2191492309","tag":{"amenity":"waste_disposal"}},"type":"Feature"},
	{"geometry":{"coordinates":[1.085422,44.110236],"type":"Point"},"properties":{"osm_id":"2191492310","tag":{"amenity":"waste_disposal"}},"type":"Feature"},
	{"geometry":{"coordinates":[1.074115,44.115502],"type":"Point"},"properties":{"osm_id":"2191492311","tag":{"amenity":"waste_disposal"}},"type":"Feature"},
	{"geometry":{"coordinates":[1.090279,44.104301],"type":"Point"},"properties":{"osm_id":"2192272427","tag":{"amenity":"waste_basket","check_date":"2021-07-08"}},"type":"Feature"},
	{"geometry":{"coordinates":[1.113961,44.114701],"type":"Point"},"properties":{"osm_id":"2192920704","tag":{"amenity":"waste_basket"}},"type":"Feature"},
	{"geometry":{"coordinates":[1.088043,44.105038],"type":"Point"},"properties":{"osm_id":"2193793774","tag":{"amenity":"waste_basket","check_date":"2021-07-07"}},"type":"Feature"},
	{"geometry":{"coordinates":[1.135659,44.103074],"type":"Point"},"properties":{"osm_id":"2194657915","tag":{"amenity":"waste_disposal"}},"type":"Feature"},
	{"geometry":{"coordinates":[1.13214,44.121924],"type":"Point"},"properties":{"osm_id":"2194657973","tag":{"amenity":"waste_disposal"}},"type":"Feature"},
	{"geometry":{"coordinates":[1.134969,44.121958],"type":"Point"},"properties":{"osm_id":"2194657975","tag":{"amenity":"waste_disposal"}},"type":"Feature"},
	{"geometry":{"coordinates":[1.085931,44.104069],"type":"Point"},"properties":{"osm_id":"2206437385","tag":{"amenity":"waste_basket","check_date":"2021-06-03"}},"type":"Feature"},
	{"geometry":{"coordinates":[1.084148,44.105718],"type":"Point"},"properties":{"osm_id":"2206437422","tag":{"amenity":"waste_basket"}},"type":"Feature"},
	{"geometry":{"coordinates":[1.085288,44.095825],"type":"Point"},"properties":{"osm_id":"2207102740","tag":{"amenity":"waste_disposal"}},"type":"Feature"},
	{"geometry":{"coordinates":[1.079391,44.103171],"type":"Point"},"properties":{"osm_id":"2275678618","tag":{"amenity":"waste_disposal"}},"type":"Feature"},
	{"geometry":{"coordinates":[1.077706,44.106576],"type":"Point"},"properties":{"osm_id":"2275678620","tag":{"amenity":"waste_disposal"}},"type":"Feature"},
	{"geometry":{"coordinates":[1.090704,44.100101],"type":"Point"},"properties":{"osm_id":"2399493309","tag":{"amenity":"waste_basket","check_date":"2021-07-08"}},"type":"Feature"},
	{"geometry":{"coordinates":[1.090099,44.100353],"type":"Point"},"properties":{"osm_id":"2399514020","tag":{"amenity":"waste_disposal"}},"type":"Feature"},
	{"geometry":{"coordinates":[1.087986,44.100981],"type":"Point"},"properties":{"osm_id":"2498864953","tag":{"amenity":"waste_basket"}},"type":"Feature"},
	{"geometry":{"coordinates":[1.096927,44.098386],"type":"Point"},"properties":{"osm_id":"2519118805","tag":{"amenity":"waste_basket"}},"type":"Feature"},
	{"geometry":{"coordinates":[1.103891,44.10727],"type":"Point"},"properties":{"osm_id":"2519118870","tag":{"amenity":"waste_basket"}},"type":"Feature"},
	{"geometry":{"coordinates":[1.106148,44.113949],"type":"Point"},"properties":{"osm_id":"2519134204","tag":{"amenity":"waste_disposal"}},"type":"Feature"},
	{"geometry":{"coordinates":[1.081161,44.10536],"type":"Point"},"properties":{"osm_id":"2526750889","tag":{"amenity":"waste_basket"}},"type":"Feature"},
	{"geometry":{"coordinates":[1.078004,44.100251],"type":"Point"},"properties":{"osm_id":"2526766219","tag":{"amenity":"waste_basket"}},"type":"Feature"},
	{"geometry":{"coordinates":[1.089358,44.099519],"type":"Point"},"properties":{"osm_id":"2548903503","tag":{"amenity":"waste_basket"}},"type":"Feature"},
	{"geometry":{"coordinates":[1.118745,44.113762],"type":"Point"},"properties":{"osm_id":"2559973154","tag":{"amenity":"waste_disposal"}},"type":"Feature"},
	{"geometry":{"coordinates":[1.089011,44.096532],"type":"Point"},"properties":{"osm_id":"2580908939","tag":{"amenity":"waste_disposal"}},"type":"Feature"},
	{"geometry":{"coordinates":[1.083878,44.095001],"type":"Point"},"properties":{"osm_id":"2580929461","tag":{"amenity":"waste_disposal"}},"type":"Feature"},
	{"geometry":{"coordinates":[1.082363,44.095418],"type":"Point"},"properties":{"osm_id":"2581038254","tag":{"amenity":"waste_disposal"}},"type":"Feature"},
	{"geometry":{"coordinates":[1.083727,44.103976],"type":"Point"},"properties":{"osm_id":"2696621468","tag":{"amenity":"waste_basket"}},"type":"Feature"},
	{"geometry":{"coordinates":[1.063474,44.150075],"type":"Point"},"properties":{"osm_id":"2931024091","tag":{"amenity":"recycling"}},"type":"Feature"},
	{"geometry":{"coordinates":[1.122529,44.1451],"type":"Point"},"properties":{"osm_id":"2933951820","tag":{"amenity":"recycling"}},"type":"Feature"},
	{"geometry":{"coordinates":[1.13014,44.128571],"type":"Point"},"properties":{"osm_id":"2934176350","tag":{"amenity":"waste_disposal"}},"type":"Feature"},
	{"geometry":{"coordinates":[1.138478,44.131096],"type":"Point"},"properties":{"osm_id":"2934184645","tag":{"amenity":"waste_disposal"}},"type":"Feature"},
	{"geometry":{"coordinates":[1.085448,44.104866],"type":"Point"},"properties":{"osm_id":"2934376527","tag":{"amenity":"recycling","location":"overground","recycling:cans":"yes","recycling:paper":"yes","recycling:plastic":"yes","recycling_type":"container"}},"type":"Feature"},
	{"geometry":{"coordinates":[1.101973,44.099265],"type":"Point"},"properties":{"osm_id":"2939152812","tag":{"amenity":"waste_disposal"}},"type":"Feature"},
	{"geometry":{"coordinates":[1.090336,44.099357],"type":"Point"},"properties":{"osm_id":"2939152814","tag":{"amenity":"waste_basket"}},"type":"Feature"},
	{"geometry":{"coordinates":[1.089257,44.100598],"type":"Point"},"properties":{"osm_id":"2939152825","tag":{"amenity":"waste_disposal"}},"type":"Feature"},
	{"geometry":{"coordinates":[1.085392,44.105356],"type":"Point"},"properties":{"osm_id":"2939152840","tag":{"amenity":"waste_basket","check_date":"2021-06-05"}},"type":"Feature"},
	{"geometry":{"coordinates":[1.094887,44.103334],"type":"Point"},"properties":{"osm_id":"2951186509","tag":{"amenity":"waste_basket"}},"type":"Feature"},
	{"geometry":{"coordinates":[1.096479,44.104448],"type":"Point"},"properties":{"osm_id":"2951186530","tag":{"amenity":"waste_basket","check_date":"2021-07-08"}},"type":"Feature"},
	{"geometry":{"coordinates":[1.091725,44.106397],"type":"Point"},"properties":{"osm_id":"2951187034","tag":{"amenity":"waste_disposal"}},"type":"Feature"},
	{"geometry":{"coordinates":[1.093791,44.126705],"type":"Point"},"properties":{"osm_id":"2971693893","tag":{"amenity":"waste_disposal"}},"type":"Feature"},
	{"geometry":{"coordinates":[1.092587,44.09944],"type":"Point"},"properties":{"osm_id":"3082863357","tag":{"amenity":"waste_disposal"}},"type":"Feature"},
	{"geometry":{"coordinates":[1.086598,44.102296],"type":"Point"},"properties":{"osm_id":"3087116212","tag":{"amenity":"waste_basket","check_date":"2021-06-03"}},"type":"Feature"},
	{"geometry":{"coordinates":[1.077371,44.102292],"type":"Point"},"properties":{"osm_id":"3502261993","tag":{"amenity":"waste_basket"}},"type":"Feature"},
	{"geometry":{"coordinates":[1.121133,44.119737],"type":"Point"},"properties":{"osm_id":"3657046291","tag":{"amenity":"recycling","opening_hours":"24/7","recycling:plastic_bottles":"yes","recycling_type":"container","wheelchair":"yes"}},"type":"Feature"},
	{"geometry":{"coordinates":[1.08475,44.104949],"type":"Point"},"properties":{"osm_id":"3729133811","tag":{"amenity":"waste_basket","check_date":"2021-06-03"}},"type":"Feature"},
	{"geometry":{"coordinates":[1.089278,44.100592],"type":"Point"},"properties":{"osm_id":"3925034858","tag":{"amenity":"recycling","recycling:cans":"yes","recycling:paper":"yes","recycling:plastic":"yes","recycling_type":"container"}},"type":"Feature"},
	{"geometry":{"coordinates":[1.103236,44.093362],"type":"Point"},"properties":{"osm_id":"4416237723","tag":{"amenity":"waste_basket"}},"type":"Feature"},
	{"geometry":{"coordinates":[1.08617,44.102366],"type":"Point"},"properties":{"osm_id":"4460849703","tag":{"amenity":"waste_basket","check_date":"2021-01-12"}},"type":"Feature"},
	{"geometry":{"coordinates":[1.08678,44.101982],"type":"Point"},"properties":{"osm_id":"4475348011","tag":{"amenity":"waste_basket","check_date":"2021-06-03"}},"type":"Feature"},
	{"geometry":{"coordinates":[1.124812,44.149879],"type":"Point"},"properties":{"osm_id":"4558886243","tag":{"amenity":"recycling","recycling_type":"container"}},"type":"Feature"},
	{"geometry":{"coordinates":[1.084166,44.099682],"type":"Point"},"properties":{"osm_id":"4923843481","tag":{"amenity":"waste_basket","check_date":"2021-07-31"}},"type":"Feature"},
	{"geometry":{"coordinates":[1.090557,44.099252],"type":"Point"},"properties":{"osm_id":"5159214602","tag":{"amenity":"waste_basket"}},"type":"Feature"},
	{"geometry":{"coordinates":[1.091164,44.0989],"type":"Point"},"properties":{"osm_id":"5159214616","tag":{"amenity":"waste_basket"}},"type":"Feature"},
	{"geometry":{"coordinates":[1.091351,44.098806],"type":"Point"},"properties":{"osm_id":"5159214617","tag":{"amenity":"waste_basket"}},"type":"Feature"},
	{"geometry":{"coordinates":[1.09153,44.098684],"type":"Point"},"properties":{"osm_id":"5159214618","tag":{"amenity":"waste_basket"}},"type":"Feature"},
	{"geometry":{"coordinates":[1.089996,44.105292],"type":"Point"},"properties":{"osm_id":"5250512098","tag":{"amenity":"waste_basket"}},"type":"Feature"},
	{"geometry":{"coordinates":[1.111532,44.138685],"type":"Point"},"properties":{"osm_id":"5337034940","tag":{"amenity":"recycling"}},"type":"Feature"},
	{"geometry":{"coordinates":[1.085188,44.106067],"type":"Point"},"properties":{"osm_id":"6002481956","tag":{"amenity":"waste_basket"}},"type":"Feature"},
	{"geometry":{"coordinates":[1.093047,44.09816],"type":"Point"},"properties":{"osm_id":"6712506195","tag":{"amenity":"recycling","recycling:glass_bottles":"yes","recycling_type":"container"}},"type":"Feature"},
	{"geometry":{"coordinates":[1.093381,44.098276],"type":"Point"},"properties":{"osm_id":"6712506200","tag":{"amenity":"waste_disposal"}},"type":"Feature"},
	{"geometry":{"coordinates":[1.093393,44.098269],"type":"Point"},"properties":{"osm_id":"6712506201","tag":{"amenity":"recycling","recycling:cans":"yes","recycling:cardboard":"yes","recycling:paper":"yes","recycling:plastic":"yes","recycling:plastic_bottles":"yes","recycling:plastic_packaging":"yes","recycling_type":"container"}},"type":"Feature"},
	{"geometry":{"coordinates":[1.087215,44.104063],"type":"Point"},"properties":{"osm_id":"6808129240","tag":{"amenity":"waste_basket","colour":"blue","material":"metal"}},"type":"Feature"},
	{"geometry":{"coordinates":[1.087731,44.104079],"type":"Point"},"properties":{"osm_id":"6808129241","tag":{"amenity":"waste_basket","colour":"blue","material":"metal"}},"type":"Feature"},
	{"geometry":{"coordinates":[1.084083,44.10355],"type":"Point"},"properties":{"osm_id":"6808129244","tag":{"amenity":"waste_basket"}},"type":"Feature"},
	{"geometry":{"coordinates":[1.084818,44.103871],"type":"Point"},"properties":{"osm_id":"6808129245","tag":{"amenity":"waste_basket"}},"type":"Feature"},
	{"geometry":{"coordinates":[1.085655,44.103789],"type":"Point"},"properties":{"osm_id":"6808129246","tag":{"amenity":"waste_basket"}},"type":"Feature"},
	{"geometry":{"coordinates":[1.084764,44.105192],"type":"Point"},"properties":{"osm_id":"6808129247","tag":{"amenity":"waste_basket"}},"type":"Feature"},
	{"geometry":{"coordinates":[1.084181,44.105187],"type":"Point"},"properties":{"osm_id":"6808129249","tag":{"amenity":"waste_basket"}},"type":"Feature"},
	{"geometry":{"coordinates":[1.084167,44.105519],"type":"Point"},"properties":{"osm_id":"6808129250","tag":{"amenity":"waste_basket"}},"type":"Feature"},
	{"geometry":{"coordinates":[1.08577,44.106058],"type":"Point"},"properties":{"osm_id":"6808159422","tag":{"amenity":"waste_basket"}},"type":"Feature"},
	{"geometry":{"coordinates":[1.087649,44.105665],"type":"Point"},"properties":{"osm_id":"6808159424","tag":{"amenity":"waste_basket"}},"type":"Feature"},
	{"geometry":{"coordinates":[1.08957,44.103656],"type":"Point"},"properties":{"osm_id":"6808314657","tag":{"amenity":"waste_basket"}},"type":"Feature"},
	{"geometry":{"coordinates":[1.097704,44.102997],"type":"Point"},"properties":{"osm_id":"6808314659","tag":{"amenity":"waste_basket"}},"type":"Feature"},
	{"geometry":{"coordinates":[1.090113,44.099448],"type":"Point"},"properties":{"osm_id":"6808314660","tag":{"amenity":"waste_basket"}},"type":"Feature"},
	{"geometry":{"coordinates":[1.091373,44.098984],"type":"Point"},"properties":{"osm_id":"6808314661","tag":{"amenity":"waste_basket"}},"type":"Feature"},
	{"geometry":{"coordinates":[1.091042,44.099117],"type":"Point"},"properties":{"osm_id":"6808314662","tag":{"amenity":"waste_basket"}},"type":"Feature"},
	{"geometry":{"coordinates":[1.080376,44.100126],"type":"Point"},"properties":{"osm_id":"6810801914","tag":{"amenity":"waste_basket","waste":"dog_excrement"}},"type":"Feature"},
	{"geometry":{"coordinates":[1.07905,44.100537],"type":"Point"},"properties":{"osm_id":"6810801915","tag":{"amenity":"waste_basket"}},"type":"Feature"},
	{"geometry":{"coordinates":[1.072489,44.101028],"type":"Point"},"properties":{"osm_id":"6810813463","tag":{"amenity":"waste_basket"}},"type":"Feature"},
	{"geometry":{"coordinates":[1.085481,44.095193],"type":"Point"},"properties":{"osm_id":"6810842445","tag":{"amenity":"waste_basket"}},"type":"Feature"},
	{"geometry":{"coordinates":[1.087364,44.103529],"type":"Point"},"properties":{"osm_id":"6811506780","tag":{"amenity":"waste_basket","material":"wood"}},"type":"Feature"},
	{"geometry":{"coordinates":[1.086694,44.103608],"type":"Point"},"properties":{"osm_id":"6811506781","tag":{"amenity":"waste_basket","material":"wood"}},"type":"Feature"},
	{"geometry":{"coordinates":[1.082035,44.103744],"type":"Point"},"properties":{"osm_id":"6811506782","tag":{"amenity":"waste_basket"}},"type":"Feature"},
	{"geometry":{"coordinates":[1.084524,44.099843],"type":"Point"},"properties":{"osm_id":"6811767255","tag":{"amenity":"waste_basket"}},"type":"Feature"},
	{"geometry":{"coordinates":[1.085524,44.10201],"type":"Point"},"properties":{"osm_id":"6811912011","tag":{"amenity":"waste_basket"}},"type":"Feature"},
	{"geometry":{"coordinates":[1.085214,44.105845],"type":"Point"},"properties":{"osm_id":"6811926803","tag":{"amenity":"waste_basket"}},"type":"Feature"},
	{"geometry":{"coordinates":[1.089729,44.105229],"type":"Point"},"properties":{"osm_id":"6811926804","tag":{"amenity":"waste_basket"}},"type":"Feature"},
	{"geometry":{"coordinates":[1.089838,44.103566],"type":"Point"},"properties":{"osm_id":"6811950601","tag":{"amenity":"waste_basket"}},"type":"Feature"},
	{"geometry":{"coordinates":[1.098544,44.102477],"type":"Point"},"properties":{"osm_id":"6812015523","tag":{"amenity":"waste_basket"}},"type":"Feature"},
	{"geometry":{"coordinates":[1.098435,44.102182],"type":"Point"},"properties":{"osm_id":"6812015525","tag":{"amenity":"waste_basket"}},"type":"Feature"},
	{"geometry":{"coordinates":[1.098365,44.101977],"type":"Point"},"properties":{"osm_id":"6812015526","tag":{"amenity":"waste_basket"}},"type":"Feature"},
	{"geometry":{"coordinates":[1.098878,44.102413],"type":"Point"},"properties":{"osm_id":"6812015527","tag":{"amenity":"waste_basket"}},"type":"Feature"},
	{"geometry":{"coordinates":[1.098688,44.101869],"type":"Point"},"properties":{"osm_id":"6812015528","tag":{"amenity":"waste_basket"}},"type":"Feature"},
	{"geometry":{"coordinates":[1.098721,44.101162],"type":"Point"},"properties":{"osm_id":"6812015529","tag":{"amenity":"waste_basket"}},"type":"Feature"},
	{"geometry":{"coordinates":[1.099085,44.101044],"type":"Point"},"properties":{"osm_id":"6812015530","tag":{"amenity":"waste_basket"}},"type":"Feature"},
	{"geometry":{"coordinates":[1.099049,44.101182],"type":"Point"},"properties":{"osm_id":"6812015531","tag":{"amenity":"waste_basket"}},"type":"Feature"},
	{"geometry":{"coordinates":[1.096424,44.101186],"type":"Point"},"properties":{"osm_id":"6812126543","tag":{"amenity":"waste_basket"}},"type":"Feature"},
	{"geometry":{"coordinates":[1.093759,44.099644],"type":"Point"},"properties":{"osm_id":"6812126547","tag":{"amenity":"waste_basket"}},"type":"Feature"},
	{"geometry":{"coordinates":[1.095904,44.102272],"type":"Point"},"properties":{"osm_id":"6812164282","tag":{"amenity":"waste_basket"}},"type":"Feature"},
	{"geometry":{"coordinates":[1.087572,44.103439],"type":"Point"},"properties":{"osm_id":"6816816621","tag":{"amenity":"waste_basket"}},"type":"Feature"},
	{"geometry":{"coordinates":[1.088424,44.101189],"type":"Point"},"properties":{"osm_id":"6816816622","tag":{"amenity":"waste_basket"}},"type":"Feature"},
	{"geometry":{"coordinates":[1.091611,44.100285],"type":"Point"},"properties":{"osm_id":"6817530270","tag":{"amenity":"waste_basket"}},"type":"Feature"},
	{"geometry":{"coordinates":[1.085111,44.101616],"type":"Point"},"properties":{"osm_id":"6817550356","tag":{"amenity":"waste_basket"}},"type":"Feature"},
	{"geometry":{"coordinates":[1.087128,44.099748],"type":"Point"},"properties":{"osm_id":"6819179545","tag":{"amenity":"waste_basket"}},"type":"Feature"},
	{"geometry":{"coordinates":[1.085595,44.105755],"type":"Point"},"properties":{"osm_id":"6819192078","tag":{"amenity":"waste_basket"}},"type":"Feature"},
	{"geometry":{"coordinates":[1.105641,44.116187],"type":"Point"},"properties":{"osm_id":"6819347138","tag":{"amenity":"waste_basket"}},"type":"Feature"},
	{"geometry":{"coordinates":[1.084922,44.102922],"type":"Point"},"properties":{"osm_id":"6820193737","tag":{"amenity":"waste_basket"}},"type":"Feature"},
	{"geometry":{"coordinates":[1.090243,44.102367],"type":"Point"},"properties":{"osm_id":"6821784595","tag":{"amenity":"waste_basket","waste":"trash"}},"type":"Feature"},
	{"geometry":{"coordinates":[1.098763,44.108012],"type":"Point"},"properties":{"osm_id":"6824790739","tag":{"amenity":"waste_basket"}},"type":"Feature"},
	{"geometry":{"coordinates":[1.081186,44.099877],"type":"Point"},"properties":{"osm_id":"6830596135","tag":{"amenity":"waste_basket"}},"type":"Feature"},
	{"geometry":{"coordinates":[1.085095,44.103863],"type":"Point"},"properties":{"osm_id":"6830596136","tag":{"amenity":"waste_basket"}},"type":"Feature"},
	{"geometry":{"coordinates":[1.080836,44.100226],"type":"Point"},"properties":{"osm_id":"6830596137","tag":{"amenity":"waste_basket"}},"type":"Feature"},
	{"geometry":{"coordinates":[1.082724,44.0959],"type":"Point"},"properties":{"osm_id":"7150814212","tag":{"amenity":"waste_basket"}},"type":"Feature"},
	{"geometry":{"coordinates":[1.08691,44.100604],"type":"Point"},"properties":{"osm_id":"9176667134","tag":{"amenity":"waste_basket"}},"type":"Feature"}
]
}
