{
"type": "FeatureCollection",
"features": [
	{"geometry":{"coordinates":[1.086466,43.207855],"type":"Point"},"properties":{"osm_id":"1018151087","tag":{"addr:city":"Caz\u00c3\u00a8res","addr:postcode":"31220","addr:street":"Place Henri Barbusse","amenity":"recycling","location":"overground","recycling:glass_bottles":"yes","recycling_type":"container"}},"type":"Feature"},
	{"geometry":{"coordinates":[1.067353,43.205297],"type":"Point"},"properties":{"osm_id":"4368458974","tag":{"addr:city":"Palaminy","addr:postcode":"31220","amenity":"recycling","recycling:glass_bottles":"yes","recycling_type":"container"}},"type":"Feature"},
	{"geometry":{"coordinates":[1.090298,43.212304],"type":"Point"},"properties":{"osm_id":"4482361889","tag":{"amenity":"recycling","recycling:glass_bottles":"yes","recycling_type":"container"}},"type":"Feature"},
	{"geometry":{"coordinates":[1.059503,43.200698],"type":"Point"},"properties":{"osm_id":"4853740534","tag":{"amenity":"recycling","recycling:glass_bottles":"yes","recycling_type":"container"}},"type":"Feature"},
	{"geometry":{"coordinates":[1.086632,43.203815],"type":"Point"},"properties":{"osm_id":"8334336893","tag":{"amenity":"recycling","recycling:glass_bottles":"yes","recycling_type":"container"}},"type":"Feature"},
	{"geometry":{"coordinates":[1.060385,43.200539],"type":"Point"},"properties":{"osm_id":"8614242988","tag":{"amenity":"recycling","recycling:glass_bottles":"yes","recycling_type":"container"}},"type":"Feature"}
]
}
