{
"type": "FeatureCollection",
"features": [
	{"geometry":{"coordinates":[1.093896,41.154121],"type":"Point"},"properties":{"name":"Contenidors","osm_id":"3210836881","tag":{"amenity":"recycling","operator":"Recollida municipal","recycling:cans":"yes","recycling:glass_bottles":"yes","recycling:paper":"yes"}},"type":"Feature"},
	{"geometry":{"coordinates":[1.096634,41.15513],"type":"Point"},"properties":{"name":"Contenidors","osm_id":"3210836882","tag":{"amenity":"recycling","recycling:cans":"yes","recycling:glass_bottles":"yes","recycling:paper":"yes"}},"type":"Feature"},
	{"geometry":{"coordinates":[1.096988,41.15313],"type":"Point"},"properties":{"osm_id":"3213860794","tag":{"amenity":"recycling","recycling:cans":"yes","recycling:glass_bottles":"yes","recycling:paper":"yes"}},"type":"Feature"},
	{"geometry":{"coordinates":[1.096215,41.151151],"type":"Point"},"properties":{"osm_id":"3213866846","tag":{"amenity":"recycling","recycling:cans":"yes","recycling:glass_bottles":"yes","recycling:paper":"yes"}},"type":"Feature"},
	{"geometry":{"coordinates":[1.094685,41.146813],"type":"Point"},"properties":{"osm_id":"3215088821","tag":{"amenity":"recycling","operator":"Recollida municipal","recycling:cans":"yes","recycling:glass_bottles":"yes","recycling:paper":"yes"}},"type":"Feature"},
	{"geometry":{"coordinates":[1.095884,41.146126],"type":"Point"},"properties":{"osm_id":"3215088822","tag":{"amenity":"recycling","operator":"Recollida municipal","recycling:cans":"yes","recycling:glass_bottles":"yes","recycling:paper":"yes"}},"type":"Feature"},
	{"geometry":{"coordinates":[1.116426,41.14655],"type":"Point"},"properties":{"osm_id":"3226061603","tag":{"amenity":"waste_basket"}},"type":"Feature"},
	{"geometry":{"coordinates":[1.094154,41.147816],"type":"Point"},"properties":{"name":"Restes de Jardineria","osm_id":"3226553299","tag":{"amenity":"recycling"}},"type":"Feature"},
	{"geometry":{"coordinates":[1.096526,41.149656],"type":"Point"},"properties":{"osm_id":"3226553312","tag":{"amenity":"recycling","recycling:cans":"yes","recycling:glass_bottles":"yes","recycling:paper":"yes"}},"type":"Feature"},
	{"geometry":{"coordinates":[1.102054,41.145778],"type":"Point"},"properties":{"osm_id":"3226560124","tag":{"amenity":"recycling","recycling:cans":"yes","recycling:glass_bottles":"yes","recycling:paper":"yes"}},"type":"Feature"},
	{"geometry":{"coordinates":[1.101064,41.15118],"type":"Point"},"properties":{"osm_id":"3751402124","tag":{"amenity":"recycling","recycling:organic":"yes","recycling:waste":"yes","recycling_type":"container"}},"type":"Feature"},
	{"geometry":{"coordinates":[1.102542,41.15169],"type":"Point"},"properties":{"osm_id":"3751438653","tag":{"amenity":"recycling","recycling:cans":"yes","recycling:paper":"yes","recycling_type":"container"}},"type":"Feature"},
	{"geometry":{"coordinates":[1.102754,41.151767],"type":"Point"},"properties":{"osm_id":"3751439604","tag":{"amenity":"recycling","recycling:glass_bottles":"yes","recycling:organic":"yes","recycling:waste":"yes","recycling_type":"container"}},"type":"Feature"},
	{"geometry":{"coordinates":[1.101315,41.150423],"type":"Point"},"properties":{"osm_id":"3751587156","tag":{"amenity":"recycling","recycling:organic":"yes","recycling:waste":"yes","recycling_type":"container"}},"type":"Feature"},
	{"geometry":{"coordinates":[1.100712,41.15035],"type":"Point"},"properties":{"osm_id":"3751602456","tag":{"amenity":"recycling","recycling:cans":"yes","recycling:glass_bottles":"yes","recycling:organic":"yes","recycling:paper":"yes","recycling:waste":"yes","recycling_type":"container"}},"type":"Feature"},
	{"geometry":{"coordinates":[1.098822,41.149786],"type":"Point"},"properties":{"osm_id":"3751907811","tag":{"amenity":"waste_basket"}},"type":"Feature"},
	{"geometry":{"coordinates":[1.099041,41.1498],"type":"Point"},"properties":{"osm_id":"3751907812","tag":{"amenity":"waste_basket"}},"type":"Feature"},
	{"geometry":{"coordinates":[1.09838,41.149858],"type":"Point"},"properties":{"osm_id":"3751907813","tag":{"amenity":"waste_basket"}},"type":"Feature"},
	{"geometry":{"coordinates":[1.099106,41.149861],"type":"Point"},"properties":{"osm_id":"3751907814","tag":{"amenity":"waste_basket"}},"type":"Feature"},
	{"geometry":{"coordinates":[1.0999,41.149921],"type":"Point"},"properties":{"osm_id":"3751907815","tag":{"amenity":"waste_basket"}},"type":"Feature"},
	{"geometry":{"coordinates":[1.098681,41.149951],"type":"Point"},"properties":{"osm_id":"3751907816","tag":{"amenity":"waste_basket"}},"type":"Feature"},
	{"geometry":{"coordinates":[1.100552,41.150044],"type":"Point"},"properties":{"osm_id":"3751907817","tag":{"amenity":"waste_basket"}},"type":"Feature"},
	{"geometry":{"coordinates":[1.098925,41.15022],"type":"Point"},"properties":{"osm_id":"3751907818","tag":{"amenity":"waste_basket"}},"type":"Feature"},
	{"geometry":{"coordinates":[1.098349,41.150237],"type":"Point"},"properties":{"osm_id":"3751907819","tag":{"amenity":"waste_basket"}},"type":"Feature"},
	{"geometry":{"coordinates":[1.098461,41.150284],"type":"Point"},"properties":{"osm_id":"3751907820","tag":{"amenity":"waste_basket"}},"type":"Feature"},
	{"geometry":{"coordinates":[1.09888,41.150375],"type":"Point"},"properties":{"osm_id":"3751907821","tag":{"amenity":"waste_basket"}},"type":"Feature"},
	{"geometry":{"coordinates":[1.101393,41.150482],"type":"Point"},"properties":{"osm_id":"3751907822","tag":{"amenity":"waste_basket"}},"type":"Feature"},
	{"geometry":{"coordinates":[1.10066,41.150592],"type":"Point"},"properties":{"osm_id":"3751907823","tag":{"amenity":"waste_basket"}},"type":"Feature"},
	{"geometry":{"coordinates":[1.099345,41.1507],"type":"Point"},"properties":{"osm_id":"3751907824","tag":{"amenity":"waste_basket"}},"type":"Feature"},
	{"geometry":{"coordinates":[1.102058,41.15077],"type":"Point"},"properties":{"osm_id":"3751908125","tag":{"amenity":"waste_basket"}},"type":"Feature"},
	{"geometry":{"coordinates":[1.099971,41.15081],"type":"Point"},"properties":{"osm_id":"3751908126","tag":{"amenity":"waste_basket"}},"type":"Feature"},
	{"geometry":{"coordinates":[1.098144,41.150814],"type":"Point"},"properties":{"osm_id":"3751908127","tag":{"amenity":"waste_basket"}},"type":"Feature"},
	{"geometry":{"coordinates":[1.100104,41.150856],"type":"Point"},"properties":{"osm_id":"3751908128","tag":{"amenity":"waste_basket"}},"type":"Feature"},
	{"geometry":{"coordinates":[1.100461,41.150934],"type":"Point"},"properties":{"osm_id":"3751908129","tag":{"amenity":"waste_basket"}},"type":"Feature"},
	{"geometry":{"coordinates":[1.102734,41.151065],"type":"Point"},"properties":{"osm_id":"3751908130","tag":{"amenity":"waste_basket"}},"type":"Feature"},
	{"geometry":{"coordinates":[1.101003,41.15107],"type":"Point"},"properties":{"osm_id":"3751908131","tag":{"amenity":"waste_basket"}},"type":"Feature"},
	{"geometry":{"coordinates":[1.098097,41.151151],"type":"Point"},"properties":{"osm_id":"3751908132","tag":{"amenity":"waste_basket"}},"type":"Feature"},
	{"geometry":{"coordinates":[1.101154,41.151204],"type":"Point"},"properties":{"osm_id":"3751908133","tag":{"amenity":"waste_basket"}},"type":"Feature"},
	{"geometry":{"coordinates":[1.100481,41.151244],"type":"Point"},"properties":{"osm_id":"3751908134","tag":{"amenity":"waste_basket"}},"type":"Feature"},
	{"geometry":{"coordinates":[1.09804,41.151293],"type":"Point"},"properties":{"osm_id":"3751908135","tag":{"amenity":"waste_basket"}},"type":"Feature"},
	{"geometry":{"coordinates":[1.10151,41.151325],"type":"Point"},"properties":{"osm_id":"3751908136","tag":{"amenity":"waste_basket"}},"type":"Feature"},
	{"geometry":{"coordinates":[1.101288,41.151344],"type":"Point"},"properties":{"osm_id":"3751908137","tag":{"amenity":"waste_basket"}},"type":"Feature"},
	{"geometry":{"coordinates":[1.100297,41.151507],"type":"Point"},"properties":{"osm_id":"3751908138","tag":{"amenity":"waste_basket"}},"type":"Feature"},
	{"geometry":{"coordinates":[1.099194,41.151552],"type":"Point"},"properties":{"osm_id":"3751908139","tag":{"amenity":"waste_basket"}},"type":"Feature"},
	{"geometry":{"coordinates":[1.102066,41.151613],"type":"Point"},"properties":{"osm_id":"3751908140","tag":{"amenity":"waste_basket"}},"type":"Feature"},
	{"geometry":{"coordinates":[1.102369,41.151622],"type":"Point"},"properties":{"osm_id":"3751908141","tag":{"amenity":"waste_basket"}},"type":"Feature"},
	{"geometry":{"coordinates":[1.103033,41.151636],"type":"Point"},"properties":{"osm_id":"3751908142","tag":{"amenity":"waste_basket"}},"type":"Feature"},
	{"geometry":{"coordinates":[1.102838,41.151784],"type":"Point"},"properties":{"osm_id":"3751908143","tag":{"amenity":"waste_basket"}},"type":"Feature"},
	{"geometry":{"coordinates":[1.102777,41.151855],"type":"Point"},"properties":{"osm_id":"3751908144","tag":{"amenity":"waste_basket"}},"type":"Feature"},
	{"geometry":{"coordinates":[1.097816,41.151967],"type":"Point"},"properties":{"osm_id":"3751908145","tag":{"amenity":"waste_basket"}},"type":"Feature"},
	{"geometry":{"coordinates":[1.097746,41.152232],"type":"Point"},"properties":{"osm_id":"3751908146","tag":{"amenity":"waste_basket"}},"type":"Feature"},
	{"geometry":{"coordinates":[1.101351,41.152428],"type":"Point"},"properties":{"osm_id":"3751908147","tag":{"amenity":"waste_basket"}},"type":"Feature"},
	{"geometry":{"coordinates":[1.101664,41.152514],"type":"Point"},"properties":{"osm_id":"3751908148","tag":{"amenity":"waste_basket"}},"type":"Feature"},
	{"geometry":{"coordinates":[1.100938,41.152543],"type":"Point"},"properties":{"osm_id":"3751908149","tag":{"amenity":"waste_basket"}},"type":"Feature"},
	{"geometry":{"coordinates":[1.1025,41.15255],"type":"Point"},"properties":{"osm_id":"3751908150","tag":{"amenity":"waste_basket"}},"type":"Feature"},
	{"geometry":{"coordinates":[1.097641,41.152658],"type":"Point"},"properties":{"osm_id":"3751908151","tag":{"amenity":"waste_basket"}},"type":"Feature"},
	{"geometry":{"coordinates":[1.102303,41.152692],"type":"Point"},"properties":{"osm_id":"3751908152","tag":{"amenity":"waste_basket"}},"type":"Feature"},
	{"geometry":{"coordinates":[1.09941,41.152721],"type":"Point"},"properties":{"osm_id":"3751908153","tag":{"amenity":"waste_basket"}},"type":"Feature"},
	{"geometry":{"coordinates":[1.100807,41.152796],"type":"Point"},"properties":{"osm_id":"3751908154","tag":{"amenity":"waste_basket"}},"type":"Feature"},
	{"geometry":{"coordinates":[1.101478,41.152815],"type":"Point"},"properties":{"osm_id":"3751908155","tag":{"amenity":"waste_basket"}},"type":"Feature"},
	{"geometry":{"coordinates":[1.10077,41.152911],"type":"Point"},"properties":{"osm_id":"3751908156","tag":{"amenity":"waste_basket"}},"type":"Feature"},
	{"geometry":{"coordinates":[1.099345,41.152914],"type":"Point"},"properties":{"osm_id":"3751908157","tag":{"amenity":"waste_basket"}},"type":"Feature"},
	{"geometry":{"coordinates":[1.099114,41.152963],"type":"Point"},"properties":{"osm_id":"3751908158","tag":{"amenity":"waste_basket"}},"type":"Feature"},
	{"geometry":{"coordinates":[1.097561,41.152987],"type":"Point"},"properties":{"osm_id":"3751908159","tag":{"amenity":"waste_basket"}},"type":"Feature"},
	{"geometry":{"coordinates":[1.102232,41.153011],"type":"Point"},"properties":{"osm_id":"3751908160","tag":{"amenity":"waste_basket"}},"type":"Feature"},
	{"geometry":{"coordinates":[1.100752,41.153046],"type":"Point"},"properties":{"osm_id":"3751908161","tag":{"amenity":"waste_basket"}},"type":"Feature"},
	{"geometry":{"coordinates":[1.099313,41.153088],"type":"Point"},"properties":{"osm_id":"3751908162","tag":{"amenity":"waste_basket"}},"type":"Feature"},
	{"geometry":{"coordinates":[1.099105,41.153095],"type":"Point"},"properties":{"osm_id":"3751908163","tag":{"amenity":"waste_basket"}},"type":"Feature"},
	{"geometry":{"coordinates":[1.100649,41.153206],"type":"Point"},"properties":{"osm_id":"3751908164","tag":{"amenity":"waste_basket"}},"type":"Feature"},
	{"geometry":{"coordinates":[1.099261,41.153233],"type":"Point"},"properties":{"osm_id":"3751908165","tag":{"amenity":"waste_basket"}},"type":"Feature"},
	{"geometry":{"coordinates":[1.100538,41.153323],"type":"Point"},"properties":{"osm_id":"3751908166","tag":{"amenity":"waste_basket"}},"type":"Feature"},
	{"geometry":{"coordinates":[1.098482,41.149652],"type":"Point"},"properties":{"osm_id":"3751935822","tag":{"amenity":"recycling","recycling:cans":"no","recycling:glass":"no","recycling:organic":"yes","recycling:paper":"no","recycling:waste":"yes","recycling_type":"container"}},"type":"Feature"},
	{"geometry":{"coordinates":[1.098312,41.149995],"type":"Point"},"properties":{"osm_id":"3751935823","tag":{"amenity":"recycling","recycling:cans":"no","recycling:glass":"no","recycling:organic":"yes","recycling:paper":"no","recycling:waste":"yes","recycling_type":"container"}},"type":"Feature"},
	{"geometry":{"coordinates":[1.098673,41.150407],"type":"Point"},"properties":{"osm_id":"3751935824","tag":{"amenity":"recycling","recycling:cans":"yes","recycling:glass":"no","recycling:organic":"yes","recycling:paper":"yes","recycling:waste":"yes","recycling_type":"container"}},"type":"Feature"},
	{"geometry":{"coordinates":[1.099393,41.150609],"type":"Point"},"properties":{"osm_id":"3751936825","tag":{"amenity":"recycling","recycling:cans":"no","recycling:glass":"no","recycling:organic":"yes","recycling:paper":"no","recycling:waste":"yes","recycling_type":"container"}},"type":"Feature"},
	{"geometry":{"coordinates":[1.098088,41.150872],"type":"Point"},"properties":{"osm_id":"3751936826","tag":{"amenity":"recycling","recycling:cans":"yes","recycling:glass":"no","recycling:organic":"yes","recycling:paper":"yes","recycling:waste":"yes","recycling_type":"container"}},"type":"Feature"},
	{"geometry":{"coordinates":[1.098098,41.151233],"type":"Point"},"properties":{"osm_id":"3751936827","tag":{"amenity":"recycling","recycling:cans":"no","recycling:glass":"no","recycling:organic":"yes","recycling:paper":"yes","recycling:waste":"yes","recycling_type":"container"}},"type":"Feature"},
	{"geometry":{"coordinates":[1.100379,41.151233],"type":"Point"},"properties":{"osm_id":"3751936828","tag":{"amenity":"recycling","recycling:cans":"no","recycling:glass_bottles":"yes","recycling:organic":"no","recycling:paper":"no","recycling:waste":"no","recycling_type":"container"}},"type":"Feature"},
	{"geometry":{"coordinates":[1.097966,41.151356],"type":"Point"},"properties":{"osm_id":"3751936829","tag":{"amenity":"recycling","recycling:cans":"no","recycling:glass_bottles":"yes","recycling:organic":"no","recycling:paper":"no","recycling:waste":"no","recycling_type":"container"}},"type":"Feature"},
	{"geometry":{"coordinates":[1.100287,41.151792],"type":"Point"},"properties":{"osm_id":"3751936830","tag":{"amenity":"recycling","recycling:cans":"yes","recycling:glass":"no","recycling:organic":"yes","recycling:paper":"yes","recycling:waste":"yes","recycling_type":"container"}},"type":"Feature"},
	{"geometry":{"coordinates":[1.100129,41.152272],"type":"Point"},"properties":{"osm_id":"3751936831","tag":{"amenity":"recycling","recycling:cans":"yes","recycling:glass":"no","recycling:organic":"yes","recycling:paper":"yes","recycling:waste":"yes","recycling_type":"container"}},"type":"Feature"},
	{"geometry":{"coordinates":[1.10116,41.152372],"type":"Point"},"properties":{"osm_id":"3751936832","tag":{"amenity":"recycling","recycling:cans":"yes","recycling:glass":"no","recycling:organic":"yes","recycling:paper":"yes","recycling:waste":"yes","recycling_type":"container"}},"type":"Feature"},
	{"geometry":{"coordinates":[1.102335,41.152833],"type":"Point"},"properties":{"osm_id":"3751936833","tag":{"amenity":"recycling","recycling:cans":"no","recycling:glass_bottles":"yes","recycling:organic":"yes","recycling:paper":"no","recycling:waste":"yes","recycling_type":"container"}},"type":"Feature"},
	{"geometry":{"coordinates":[1.100495,41.152917],"type":"Point"},"properties":{"osm_id":"3751936834","tag":{"amenity":"recycling","recycling:cans":"no","recycling:glass":"no","recycling:organic":"yes","recycling:paper":"no","recycling:waste":"yes","recycling_type":"container"}},"type":"Feature"},
	{"geometry":{"coordinates":[1.097804,41.153141],"type":"Point"},"properties":{"osm_id":"3751936835","tag":{"amenity":"recycling","recycling:cans":"no","recycling:glass":"no","recycling:organic":"yes","recycling:paper":"no","recycling:waste":"yes","recycling_type":"container"}},"type":"Feature"},
	{"geometry":{"coordinates":[1.097991,41.153169],"type":"Point"},"properties":{"osm_id":"3751936836","tag":{"amenity":"recycling","recycling:cans":"yes","recycling:glass_bottles":"yes","recycling:organic":"yes","recycling:paper":"yes","recycling:waste":"yes","recycling_type":"container"}},"type":"Feature"},
	{"geometry":{"coordinates":[1.09988,41.153202],"type":"Point"},"properties":{"osm_id":"3751936837","tag":{"amenity":"recycling","recycling:cans":"yes","recycling:glass":"no","recycling:organic":"yes","recycling:paper":"yes","recycling:waste":"yes","recycling_type":"container"}},"type":"Feature"},
	{"geometry":{"coordinates":[1.102047,41.153316],"type":"Point"},"properties":{"osm_id":"3751936838","tag":{"amenity":"recycling","recycling:cans":"no","recycling:glass":"no","recycling:organic":"no","recycling:paper":"yes","recycling:waste":"no","recycling_type":"container"}},"type":"Feature"},
	{"geometry":{"coordinates":[1.100057,41.15344],"type":"Point"},"properties":{"osm_id":"3751936839","tag":{"amenity":"recycling","recycling:cans":"yes","recycling:glass":"no","recycling:organic":"yes","recycling:paper":"yes","recycling:waste":"yes","recycling_type":"container"}},"type":"Feature"},
	{"geometry":{"coordinates":[1.099071,41.153285],"type":"Point"},"properties":{"osm_id":"3753294924","tag":{"amenity":"recycling","recycling:cans":"yes","recycling:glass_bottles":"yes","recycling:paper":"yes","recycling:plastic":"yes","recycling_type":"container"}},"type":"Feature"},
	{"geometry":{"coordinates":[1.099309,41.150584],"type":"Point"},"properties":{"osm_id":"3753318946","tag":{"amenity":"recycling","recycling:cooking_oil":"yes","recycling_type":"container"}},"type":"Feature"},
	{"geometry":{"coordinates":[1.099352,41.150598],"type":"Point"},"properties":{"osm_id":"3753318947","tag":{"amenity":"recycling","recycling:clothes":"yes","recycling_type":"container"}},"type":"Feature"},
	{"geometry":{"coordinates":[1.102021,41.153364],"type":"Point"},"properties":{"osm_id":"3753318948","tag":{"amenity":"recycling","recycling:clothes":"yes","recycling_type":"container"}},"type":"Feature"},
	{"geometry":{"coordinates":[1.101991,41.153402],"type":"Point"},"properties":{"osm_id":"3753318949","tag":{"amenity":"recycling","recycling:cooking_oil":"yes","recycling_type":"container"}},"type":"Feature"},
	{"geometry":{"coordinates":[1.108927,41.138562],"type":"Point"},"properties":{"barrier":"gate","osm_id":"5708376239"},"type":"Feature"},
	{"geometry":{"coordinates":[1.108903,41.154876],"type":"Point"},"properties":{"osm_id":"6288128370","tag":{"amenity":"waste_disposal","operator":"FCC"}},"type":"Feature"},
	{"geometry":{"coordinates":[1.108925,41.154891],"type":"Point"},"properties":{"osm_id":"6288128371","tag":{"amenity":"waste_disposal","operator":"FCC"}},"type":"Feature"},
	{"geometry":{"coordinates":[1.108946,41.154907],"type":"Point"},"properties":{"osm_id":"6288128372","tag":{"amenity":"waste_disposal","operator":"FCC"}},"type":"Feature"},
	{"geometry":{"coordinates":[1.108973,41.154925],"type":"Point"},"properties":{"osm_id":"6288128373","tag":{"amenity":"waste_disposal","operator":"FCC"}},"type":"Feature"},
	{"geometry":{"coordinates":[1.108994,41.15494],"type":"Point"},"properties":{"osm_id":"6288128374","tag":{"amenity":"waste_disposal","operator":"FCC"}},"type":"Feature"}
]
}
