{
"type": "FeatureCollection",
"features": [
	{"geometry":{"coordinates":[169.156414,-44.712085],"type":"Point"},"properties":{"name":"Wanaka Wastebusters Recycling","osm_id":"1426049194","tag":{"amenity":"recycling","recycling_type":"centre"}},"type":"Feature"},
	{"geometry":{"coordinates":[169.108716,-44.705341],"type":"Point"},"properties":{"osm_id":"4182758167","tag":{"access":"guests","amenity":"recycling"}},"type":"Feature"},
	{"geometry":{"coordinates":[169.133518,-44.696828],"type":"Point"},"properties":{"osm_id":"4599238489","tag":{"amenity":"waste_basket"}},"type":"Feature"},
	{"geometry":{"coordinates":[169.125444,-44.699187],"type":"Point"},"properties":{"osm_id":"5197396424","tag":{"amenity":"waste_basket"}},"type":"Feature"},
	{"geometry":{"coordinates":[169.127697,-44.698377],"type":"Point"},"properties":{"osm_id":"5197419322","tag":{"amenity":"waste_basket"}},"type":"Feature"},
	{"geometry":{"coordinates":[169.139122,-44.696161],"type":"Point"},"properties":{"osm_id":"5197517822","tag":{"amenity":"waste_basket"}},"type":"Feature"},
	{"geometry":{"coordinates":[169.136679,-44.695208],"type":"Point"},"properties":{"osm_id":"5197518221","tag":{"amenity":"waste_basket"}},"type":"Feature"},
	{"geometry":{"coordinates":[169.136469,-44.695214],"type":"Point"},"properties":{"osm_id":"5197550421","tag":{"amenity":"waste_basket"}},"type":"Feature"},
	{"geometry":{"coordinates":[169.13492,-44.696058],"type":"Point"},"properties":{"osm_id":"5199202621","tag":{"amenity":"waste_basket"}},"type":"Feature"},
	{"geometry":{"coordinates":[169.135342,-44.69481],"type":"Point"},"properties":{"osm_id":"5199251627","tag":{"amenity":"waste_basket"}},"type":"Feature"},
	{"geometry":{"coordinates":[169.134771,-44.695066],"type":"Point"},"properties":{"osm_id":"5199510623","tag":{"amenity":"waste_basket"}},"type":"Feature"},
	{"geometry":{"coordinates":[169.129006,-44.681328],"type":"Point"},"properties":{"osm_id":"5955674390","tag":{"amenity":"waste_basket"}},"type":"Feature"},
	{"geometry":{"coordinates":[169.151468,-44.706354],"type":"Point"},"properties":{"osm_id":"6162085286","tag":{"amenity":"waste_disposal"}},"type":"Feature"}
]
}
