{
"type": "FeatureCollection",
"features": [
	{"geometry":{"coordinates":[17.747207,53.014166],"type":"Point"},"properties":{"osm_id":"6252215042","tag":{"amenity":"waste_basket"}},"type":"Feature"},
	{"geometry":{"coordinates":[17.74518,53.013997],"type":"Point"},"properties":{"osm_id":"6252286923","tag":{"amenity":"waste_basket"}},"type":"Feature"},
	{"geometry":{"coordinates":[17.747514,53.013046],"type":"Point"},"properties":{"osm_id":"6255748316","tag":{"amenity":"waste_basket"}},"type":"Feature"},
	{"geometry":{"coordinates":[17.74739,53.01308],"type":"Point"},"properties":{"osm_id":"6255748317","tag":{"amenity":"waste_basket"}},"type":"Feature"},
	{"geometry":{"coordinates":[17.74732,53.013364],"type":"Point"},"properties":{"osm_id":"6255748318","tag":{"amenity":"waste_basket"}},"type":"Feature"},
	{"geometry":{"coordinates":[17.747477,53.012608],"type":"Point"},"properties":{"osm_id":"6255748360","tag":{"amenity":"waste_basket"}},"type":"Feature"},
	{"geometry":{"coordinates":[17.744748,53.013185],"type":"Point"},"properties":{"osm_id":"6255748364","tag":{"amenity":"waste_basket"}},"type":"Feature"},
	{"geometry":{"coordinates":[17.742227,53.006753],"type":"Point"},"properties":{"osm_id":"6577064887","tag":{"amenity":"waste_basket"}},"type":"Feature"},
	{"geometry":{"coordinates":[17.74432,53.008868],"type":"Point"},"properties":{"osm_id":"6577135072","tag":{"amenity":"waste_basket"}},"type":"Feature"},
	{"geometry":{"coordinates":[17.745075,53.012312],"type":"Point"},"properties":{"osm_id":"6577154233","tag":{"amenity":"waste_basket","material":"plastic","operator":"Urz\u0105d Miejski w Szubinie"}},"type":"Feature"},
	{"geometry":{"coordinates":[17.740129,53.009531],"type":"Point"},"properties":{"osm_id":"6577178961","tag":{"amenity":"waste_basket"}},"type":"Feature"},
	{"geometry":{"coordinates":[17.739659,53.009389],"type":"Point"},"properties":{"osm_id":"6577251789","tag":{"amenity":"waste_basket"}},"type":"Feature"},
	{"geometry":{"coordinates":[17.736453,53.008746],"type":"Point"},"properties":{"osm_id":"6577251829","tag":{"amenity":"waste_basket"}},"type":"Feature"},
	{"geometry":{"coordinates":[17.723472,53.000876],"type":"Point"},"properties":{"osm_id":"6577279540","tag":{"amenity":"recycling","recycling_type":"container"}},"type":"Feature"},
	{"geometry":{"coordinates":[17.723484,53.000857],"type":"Point"},"properties":{"osm_id":"6577279541","tag":{"amenity":"recycling","recycling_type":"container"}},"type":"Feature"},
	{"geometry":{"coordinates":[17.723496,53.000841],"type":"Point"},"properties":{"osm_id":"6577279542","tag":{"amenity":"recycling","recycling_type":"container"}},"type":"Feature"},
	{"geometry":{"coordinates":[17.723525,53.000814],"type":"Point"},"properties":{"osm_id":"6577279543","tag":{"amenity":"recycling","recycling_type":"container"}},"type":"Feature"},
	{"geometry":{"coordinates":[17.723514,53.000831],"type":"Point"},"properties":{"osm_id":"6577279544","tag":{"amenity":"recycling","recycling_type":"container"}},"type":"Feature"},
	{"geometry":{"coordinates":[17.719582,52.999991],"type":"Point"},"properties":{"osm_id":"6577394412","tag":{"amenity":"waste_basket"}},"type":"Feature"},
	{"geometry":{"coordinates":[17.720121,53.000085],"type":"Point"},"properties":{"osm_id":"6577394413","tag":{"amenity":"waste_basket"}},"type":"Feature"},
	{"geometry":{"coordinates":[17.746515,53.012412],"type":"Point"},"properties":{"osm_id":"6581907262","tag":{"amenity":"waste_basket"}},"type":"Feature"},
	{"geometry":{"coordinates":[17.744733,53.012244],"type":"Point"},"properties":{"osm_id":"6582703936","tag":{"amenity":"waste_basket"}},"type":"Feature"},
	{"geometry":{"coordinates":[17.747559,53.012932],"type":"Point"},"properties":{"osm_id":"6582703968","tag":{"amenity":"waste_basket"}},"type":"Feature"},
	{"geometry":{"coordinates":[17.744637,53.013762],"type":"Point"},"properties":{"osm_id":"6593427204","tag":{"amenity":"waste_basket"}},"type":"Feature"},
	{"geometry":{"coordinates":[17.744523,53.009239],"type":"Point"},"properties":{"osm_id":"6605948245","tag":{"amenity":"waste_basket"}},"type":"Feature"},
	{"geometry":{"coordinates":[17.741337,53.009702],"type":"Point"},"properties":{"osm_id":"6606274384","tag":{"amenity":"waste_basket"}},"type":"Feature"},
	{"geometry":{"coordinates":[17.736493,53.011469],"type":"Point"},"properties":{"osm_id":"6606553184","tag":{"amenity":"waste_basket"}},"type":"Feature"},
	{"geometry":{"coordinates":[17.734746,53.011183],"type":"Point"},"properties":{"osm_id":"6606567031","tag":{"amenity":"waste_basket"}},"type":"Feature"},
	{"geometry":{"coordinates":[17.735934,53.011442],"type":"Point"},"properties":{"osm_id":"6606567033","tag":{"amenity":"waste_basket"}},"type":"Feature"},
	{"geometry":{"coordinates":[17.737084,53.011071],"type":"Point"},"properties":{"osm_id":"6606609725","tag":{"amenity":"waste_basket"}},"type":"Feature"},
	{"geometry":{"coordinates":[17.736353,53.011743],"type":"Point"},"properties":{"osm_id":"6609937891","tag":{"amenity":"recycling","recycling:paper":"yes","recycling_type":"centre"}},"type":"Feature"},
	{"geometry":{"coordinates":[17.736386,53.011741],"type":"Point"},"properties":{"osm_id":"6609937892","tag":{"amenity":"recycling","recycling:glass":"yes","recycling_type":"centre"}},"type":"Feature"},
	{"geometry":{"coordinates":[17.736389,53.011757],"type":"Point"},"properties":{"osm_id":"6609937893","tag":{"amenity":"recycling","recycling:plastic":"yes","recycling_type":"centre"}},"type":"Feature"},
	{"geometry":{"coordinates":[17.736536,53.010847],"type":"Point"},"properties":{"osm_id":"6609938018","tag":{"amenity":"waste_basket"}},"type":"Feature"},
	{"geometry":{"coordinates":[17.736307,53.011033],"type":"Point"},"properties":{"osm_id":"6609938059","tag":{"amenity":"recycling","recycling:glass":"yes","recycling_type":"container"}},"type":"Feature"},
	{"geometry":{"coordinates":[17.736328,53.01104],"type":"Point"},"properties":{"osm_id":"6609938060","tag":{"amenity":"recycling","recycling:paper":"yes","recycling_type":"container"}},"type":"Feature"},
	{"geometry":{"coordinates":[17.736347,53.011048],"type":"Point"},"properties":{"osm_id":"6609938061","tag":{"amenity":"recycling","recycling:plastic":"yes","recycling_type":"container"}},"type":"Feature"},
	{"geometry":{"coordinates":[17.734925,53.010844],"type":"Point"},"properties":{"osm_id":"6610317510","tag":{"amenity":"waste_basket"}},"type":"Feature"},
	{"geometry":{"coordinates":[17.734204,53.01057],"type":"Point"},"properties":{"osm_id":"6610317603","tag":{"amenity":"waste_basket"}},"type":"Feature"},
	{"geometry":{"coordinates":[17.733624,53.011288],"type":"Point"},"properties":{"osm_id":"6610317668","tag":{"amenity":"recycling","recycling:glass":"yes","recycling_type":"container"}},"type":"Feature"},
	{"geometry":{"coordinates":[17.733624,53.011301],"type":"Point"},"properties":{"osm_id":"6610317669","tag":{"amenity":"recycling","recycling:paper":"yes","recycling_type":"container"}},"type":"Feature"},
	{"geometry":{"coordinates":[17.733625,53.011318],"type":"Point"},"properties":{"osm_id":"6610317670","tag":{"amenity":"recycling","recycling:plastic":"yes","recycling_type":"container"}},"type":"Feature"},
	{"geometry":{"coordinates":[17.733625,53.011331],"type":"Point"},"properties":{"osm_id":"6610317671","tag":{"amenity":"recycling","recycling:plastic":"yes","recycling_type":"container"}},"type":"Feature"},
	{"geometry":{"coordinates":[17.733609,53.01127],"type":"Point"},"properties":{"osm_id":"6610317672","tag":{"amenity":"waste_basket"}},"type":"Feature"},
	{"geometry":{"coordinates":[17.733609,53.011251],"type":"Point"},"properties":{"osm_id":"6610317673","tag":{"amenity":"waste_basket"}},"type":"Feature"},
	{"geometry":{"coordinates":[17.736312,53.011019],"type":"Point"},"properties":{"osm_id":"6610323644","tag":{"amenity":"recycling","recycling:clothes":"yes","recycling_type":"container"}},"type":"Feature"},
	{"geometry":{"coordinates":[17.744717,53.012461],"type":"Point"},"properties":{"name":"Pojemnik na odzie\u00c5\u00bc CPK","osm_id":"6634006794","tag":{"amenity":"recycling","recycling:clothes":"yes","recycling_type":"centre"}},"type":"Feature"},
	{"geometry":{"coordinates":[17.744713,53.012475],"type":"Point"},"properties":{"name":"Pojemnik na odzie\u00c5\u00bc CPK","osm_id":"6634006795","tag":{"amenity":"recycling","recycling:clothes":"yes","recycling_type":"centre"}},"type":"Feature"},
	{"geometry":{"coordinates":[17.74315,53.01161],"type":"Point"},"properties":{"osm_id":"6634953593","tag":{"amenity":"waste_basket","material":"stone","operator":"Urz\u0105d Miejski w Szubinie"}},"type":"Feature"},
	{"geometry":{"coordinates":[17.744004,53.012215],"type":"Point"},"properties":{"osm_id":"6634953594","tag":{"amenity":"waste_basket","colour":"green","material":"plastic","operator":"Urz\u0105d Miejski w Szubinie"}},"type":"Feature"},
	{"geometry":{"coordinates":[17.742307,53.010899],"type":"Point"},"properties":{"osm_id":"6635018175","tag":{"amenity":"recycling","material":"plastic","recycling:plastic":"yes","recycling_type":"container"}},"type":"Feature"},
	{"geometry":{"coordinates":[17.742289,53.010892],"type":"Point"},"properties":{"osm_id":"6635018176","tag":{"amenity":"recycling","material":"plastic","recycling:glass":"yes","recycling_type":"container"}},"type":"Feature"},
	{"geometry":{"coordinates":[17.742312,53.010885],"type":"Point"},"properties":{"osm_id":"6635018177","tag":{"amenity":"recycling","material":"plastic","recycling:paper":"yes","recycling_type":"container"}},"type":"Feature"},
	{"geometry":{"coordinates":[17.742271,53.011143],"type":"Point"},"properties":{"osm_id":"6635018200","tag":{"amenity":"recycling","material":"plastic","recycling:plastic":"yes","recycling_type":"container"}},"type":"Feature"},
	{"geometry":{"coordinates":[17.742248,53.011141],"type":"Point"},"properties":{"osm_id":"6635018201","tag":{"amenity":"recycling","material":"plastic","recycling:glass":"yes","recycling_type":"container"}},"type":"Feature"},
	{"geometry":{"coordinates":[17.742294,53.011144],"type":"Point"},"properties":{"osm_id":"6635018202","tag":{"amenity":"recycling","material":"plastic","recycling:paper":"yes","recycling_type":"container"}},"type":"Feature"},
	{"geometry":{"coordinates":[17.742225,53.011141],"type":"Point"},"properties":{"osm_id":"6635018203","tag":{"amenity":"waste_basket"}},"type":"Feature"},
	{"geometry":{"coordinates":[17.742207,53.011141],"type":"Point"},"properties":{"osm_id":"6635018204","tag":{"amenity":"waste_basket"}},"type":"Feature"},
	{"geometry":{"coordinates":[17.742242,53.011546],"type":"Point"},"properties":{"osm_id":"6635041388","tag":{"amenity":"waste_basket","material":"stone","operator":"Urz\u0105d Miejski w Szubinie"}},"type":"Feature"},
	{"geometry":{"coordinates":[17.740884,53.01155],"type":"Point"},"properties":{"osm_id":"6635188455","tag":{"amenity":"recycling","colour":"green","material":"plastic","recycling:glass":"yes","recycling_type":"container"}},"type":"Feature"},
	{"geometry":{"coordinates":[17.740882,53.011563],"type":"Point"},"properties":{"osm_id":"6635188456","tag":{"amenity":"recycling","colour":"blue","material":"plastic","recycling:paper":"yes","recycling_type":"container"}},"type":"Feature"},
	{"geometry":{"coordinates":[17.740881,53.011577],"type":"Point"},"properties":{"osm_id":"6635188457","tag":{"amenity":"recycling","colour":"yellow","material":"plastic","recycling:plastic":"yes","recycling_type":"container"}},"type":"Feature"},
	{"geometry":{"coordinates":[17.740883,53.01159],"type":"Point"},"properties":{"osm_id":"6635188458","tag":{"amenity":"waste_basket"}},"type":"Feature"},
	{"geometry":{"coordinates":[17.741735,53.012154],"type":"Point"},"properties":{"osm_id":"6635290227","tag":{"amenity":"waste_basket","colour":"grey","material":"stone","operator":"Urz\u0105d Miejski w Szubinie"}},"type":"Feature"},
	{"geometry":{"coordinates":[17.742282,53.012089],"type":"Point"},"properties":{"osm_id":"6635528336","tag":{"amenity":"waste_basket","colour":"grey","material":"stone","operator":"Urz\u0105d Miejski w Szubinie"}},"type":"Feature"}
]
}
