{
"type": "FeatureCollection",
"features": [
	{"geometry":{"coordinates":[17.746486,50.575217],"type":"Point"},"properties":{"osm_id":"2925704888","tag":{"amenity":"waste_basket"}},"type":"Feature"},
	{"geometry":{"coordinates":[17.699894,50.620692],"type":"Point"},"properties":{"osm_id":"4208623293","tag":{"amenity":"waste_basket"}},"type":"Feature"},
	{"geometry":{"coordinates":[17.702907,50.577673],"type":"Point"},"properties":{"osm_id":"8420392456","tag":{"amenity":"waste_basket"}},"type":"Feature"},
	{"geometry":{"coordinates":[17.681149,50.57756],"type":"Point"},"properties":{"osm_id":"8420392458","tag":{"amenity":"waste_basket"}},"type":"Feature"},
	{"geometry":{"coordinates":[17.750259,50.612372],"type":"Point"},"properties":{"osm_id":"8500404185","tag":{"amenity":"waste_basket"}},"type":"Feature"},
	{"geometry":{"coordinates":[17.750053,50.612494],"type":"Point"},"properties":{"osm_id":"8514525507","tag":{"amenity":"waste_basket"}},"type":"Feature"},
	{"geometry":{"coordinates":[17.750356,50.612589],"type":"Point"},"properties":{"osm_id":"8514525508","tag":{"amenity":"waste_basket"}},"type":"Feature"},
	{"geometry":{"coordinates":[17.706924,50.595882],"type":"Point"},"properties":{"osm_id":"8602922482","tag":{"amenity":"waste_basket"}},"type":"Feature"},
	{"geometry":{"coordinates":[17.724514,50.60442],"type":"Point"},"properties":{"osm_id":"8850073529","tag":{"amenity":"waste_basket","colour":"orange","material":"steel","waste":"trash"}},"type":"Feature"},
	{"geometry":{"coordinates":[17.724413,50.604662],"type":"Point"},"properties":{"osm_id":"8850073535","tag":{"amenity":"waste_basket","colour":"green","material":"steel","waste":"trash"}},"type":"Feature"},
	{"geometry":{"coordinates":[17.724282,50.604263],"type":"Point"},"properties":{"osm_id":"8850073540","tag":{"amenity":"recycling","recycling_type":"container"}},"type":"Feature"},
	{"geometry":{"coordinates":[17.706964,50.595649],"type":"Point"},"properties":{"osm_id":"8895516899","tag":{"amenity":"waste_basket"}},"type":"Feature"}
]
}
