{
"type": "FeatureCollection",
"features": [
	{"geometry":{"coordinates":[17.683752,50.541475],"type":"Point"},"properties":{"osm_id":"8525546331","tag":{"amenity":"waste_basket"}},"type":"Feature"},
	{"geometry":{"coordinates":[17.723435,50.548946],"type":"Point"},"properties":{"osm_id":"8840259163","tag":{"amenity":"waste_basket","colour":"brown","material":"wood","waste":"trash"}},"type":"Feature"},
	{"geometry":{"coordinates":[17.712975,50.558615],"type":"Point"},"properties":{"osm_id":"8840259187","tag":{"amenity":"waste_basket","colour":"brown","material":"wood","waste":"trash"}},"type":"Feature"},
	{"geometry":{"coordinates":[17.725605,50.562112],"type":"Point"},"properties":{"osm_id":"8840259188","tag":{"amenity":"waste_basket","colour":"brown","material":"wood","waste":"trash"}},"type":"Feature"},
	{"geometry":{"coordinates":[17.720727,50.530158],"type":"Point"},"properties":{"osm_id":"8849080807","tag":{"amenity":"waste_basket","colour":"grey","material":"concrete","waste":"trash"}},"type":"Feature"},
	{"geometry":{"coordinates":[17.686028,50.534929],"type":"Point"},"properties":{"osm_id":"8849167931","tag":{"amenity":"waste_basket","colour":"brown","material":"wood","waste":"trash"}},"type":"Feature"},
	{"geometry":{"coordinates":[17.702825,50.551367],"type":"Point"},"properties":{"osm_id":"8933362779","tag":{"amenity":"waste_basket","colour":"brown","material":"wood","operator":"Nadle\u00c5\u009bnictwo Tu\u00c5\u0082owice","waste":"trash"}},"type":"Feature"},
	{"geometry":{"coordinates":[17.668357,50.5333],"type":"Point"},"properties":{"osm_id":"8933362792","tag":{"amenity":"waste_basket","colour":"grey","material":"concrete","waste":"trash"}},"type":"Feature"},
	{"geometry":{"coordinates":[17.668257,50.533439],"type":"Point"},"properties":{"osm_id":"8933362793","tag":{"amenity":"waste_basket","colour":"grey","material":"concrete","waste":"trash"}},"type":"Feature"}
]
}
