{
"type": "FeatureCollection",
"features": [
	{"geometry":{"coordinates":[17.751516,49.775135],"type":"Point"},"properties":{"osm_id":"4502512380","tag":{"amenity":"waste_basket"}},"type":"Feature"},
	{"geometry":{"coordinates":[17.751985,49.776319],"type":"Point"},"properties":{"osm_id":"4502512944","tag":{"amenity":"recycling","location":"indoor","recycling:batteries":"yes","recycling:low_energy_bulbs":"yes","recycling_type":"container"}},"type":"Feature"},
	{"geometry":{"coordinates":[17.751627,49.776327],"type":"Point"},"properties":{"osm_id":"4502512950","tag":{"amenity":"waste_basket"}},"type":"Feature"},
	{"geometry":{"coordinates":[17.751521,49.776173],"type":"Point"},"properties":{"osm_id":"4502512952","tag":{"amenity":"waste_basket"}},"type":"Feature"},
	{"geometry":{"coordinates":[17.751457,49.775577],"type":"Point"},"properties":{"osm_id":"4502512964","tag":{"amenity":"waste_basket"}},"type":"Feature"},
	{"geometry":{"coordinates":[17.751182,49.775777],"type":"Point"},"properties":{"osm_id":"4502512970","tag":{"amenity":"waste_basket"}},"type":"Feature"},
	{"geometry":{"coordinates":[17.751894,49.776312],"type":"Point"},"properties":{"osm_id":"4502512978","tag":{"amenity":"waste_basket"}},"type":"Feature"},
	{"geometry":{"coordinates":[17.752933,49.776533],"type":"Point"},"properties":{"osm_id":"4502512994","tag":{"amenity":"waste_basket"}},"type":"Feature"},
	{"geometry":{"coordinates":[17.75164,49.777366],"type":"Point"},"properties":{"osm_id":"4502513012","tag":{"amenity":"waste_disposal"}},"type":"Feature"},
	{"geometry":{"coordinates":[17.752315,49.775826],"type":"Point"},"properties":{"osm_id":"4502513075","tag":{"amenity":"waste_basket"}},"type":"Feature"},
	{"geometry":{"coordinates":[17.751948,49.775352],"type":"Point"},"properties":{"osm_id":"4502513081","tag":{"amenity":"recycling","recycling:batteries":"yes","recycling:clothes":"yes","recycling:electrical_appliances":"yes","recycling_type":"container"}},"type":"Feature"}
]
}
