{
"type": "FeatureCollection",
"features": [
	{"geometry":{"coordinates":[34.679278,-1.827288],"type":"Point"},"properties":{"osm_id":"4950207321","tag":{"name:en":"Mti wa Kengere Chamoto","name:sw":"Mti wa Kengele Chamoto","natural":"tree"}},"type":"Feature"},
	{"geometry":{"coordinates":[34.646322,-1.789548],"type":"Point"},"properties":{"name":"Scrubs","osm_id":"4968287327","tag":{"name:en":"Scrubs","natural":"tree"}},"type":"Feature"},
	{"geometry":{"coordinates":[34.646089,-1.792807],"type":"Point"},"properties":{"name":"Scrubs","osm_id":"4968315428","tag":{"name:en":"Scrubs","natural":"tree"}},"type":"Feature"},
	{"geometry":{"coordinates":[34.716675,-1.814363],"type":"Point"},"properties":{"name":"Forest","osm_id":"4970126126","tag":{"name:en":"Forest","name:sw":"Msitu","natural":"tree"}},"type":"Feature"},
	{"geometry":{"coordinates":[34.681195,-1.839631],"type":"Point"},"properties":{"name":"Forest","osm_id":"5060408623","tag":{"name:en":"Forest","name:sw":"Msitu","natural":"tree"}},"type":"Feature"}
]
}
