{
"type": "FeatureCollection",
"lastupdate": "2020-08-01T00:00:00Z",
"features": [
	{"geometry":{"coordinates":[-2.264755,52.58965],"type":"Point"},"properties":{"osm_id":"773309017","tag":{"amenity":"recycling","description":"Village Hall rear car park","opening_hours":"24/7","recycling:batteries":"no","recycling:cans":"yes","recycling:cartons":"yes","recycling:clothes":"yes","recycling:electrical_appliances":"no","recycling:glass":"yes","recycling:glass_bottles":"yes","recycling:green_waste":"no","recycling:plastic_bottles":"yes","recycling:small_appliances":"no","recycling:wood":"no","recycling_type":"container"}},"type":"Feature"},
	{"geometry":{"coordinates":[-2.270604,52.585775],"type":"Point"},"properties":{"osm_id":"798819494","tag":{"amenity":"waste_basket","waste":"dog_excrement"}},"type":"Feature"},
	{"geometry":{"coordinates":[-2.262245,52.584836],"type":"Point"},"properties":{"osm_id":"798819495","tag":{"amenity":"waste_basket","waste":"dog_excrement"}},"type":"Feature"},
	{"geometry":{"coordinates":[-2.266167,52.588483],"type":"Point"},"properties":{"osm_id":"3394324961","tag":{"amenity":"waste_basket","waste":"dog_excrement"}},"type":"Feature"},
	{"geometry":{"coordinates":[-2.264147,52.589129],"type":"Point"},"properties":{"osm_id":"3394324962","tag":{"amenity":"waste_basket","waste":"trash"}},"type":"Feature"},
	{"geometry":{"coordinates":[-2.267469,52.586827],"type":"Point"},"properties":{"osm_id":"3412892776","tag":{"amenity":"waste_basket","waste":"dog_excrement"}},"type":"Feature"},
	{"geometry":{"coordinates":[-2.264299,52.589377],"type":"Point"},"properties":{"osm_id":"4792891518","tag":{"amenity":"waste_basket"}},"type":"Feature"},
	{"geometry":{"coordinates":[-2.264399,52.589004],"type":"Point"},"properties":{"osm_id":"5257859484","tag":{"amenity":"waste_basket"}},"type":"Feature"},
	{"geometry":{"coordinates":[-2.262707,52.58659],"type":"Point"},"properties":{"osm_id":"6539903333","tag":{"amenity":"waste_basket","waste":"dog_excrement"}},"type":"Feature"},
	{"geometry":{"coordinates":[-2.265597,52.585959],"type":"Point"},"properties":{"osm_id":"6833231443","tag":{"amenity":"waste_basket","waste":"dog_excrement"}},"type":"Feature"}
]
}
