{
"type": "FeatureCollection",
"lastupdate": "2020-08-06T00:00:00Z",
"features": [
	{"geometry":{"coordinates":[-2.22278,52.18987],"type":"Point"},"properties":{"osm_id":"249199247","tag":{"amenity":"recycling","recycling:glass":"yes"}},"type":"Feature"},
	{"geometry":{"coordinates":[-2.216602,52.175345],"type":"Point"},"properties":{"osm_id":"249201607","tag":{"amenity":"recycling","recycling:glass":"yes"}},"type":"Feature"},
	{"geometry":{"coordinates":[-2.204973,52.170592],"type":"Point"},"properties":{"osm_id":"692135021","tag":{"amenity":"recycling"}},"type":"Feature"},
	{"geometry":{"coordinates":[-2.200747,52.185971],"type":"Point"},"properties":{"osm_id":"696540406","ref":"Dog waste bin","tag":{"amenity":"waste_basket","waste":"dog_excrement"}},"type":"Feature"},
	{"geometry":{"coordinates":[-2.229107,52.190014],"type":"Point"},"properties":{"osm_id":"1313522045","tag":{"amenity":"recycling","recycling:cans":"yes","recycling:glass":"yes","recycling:paper":"yes"}},"type":"Feature"},
	{"geometry":{"coordinates":[-2.227063,52.190674],"type":"Point"},"properties":{"osm_id":"1313522052","tag":{"amenity":"recycling","recycling:cans":"yes","recycling:glass":"yes","recycling:paper":"yes"}},"type":"Feature"},
	{"geometry":{"coordinates":[-2.229496,52.189466],"type":"Point"},"properties":{"osm_id":"1313522062","tag":{"amenity":"recycling","recycling:cans":"yes","recycling:glass":"yes","recycling:paper":"yes"}},"type":"Feature"},
	{"geometry":{"coordinates":[-2.214246,52.187228],"type":"Point"},"properties":{"osm_id":"1361076563","tag":{"amenity":"recycling","recycling:glass":"yes"}},"type":"Feature"},
	{"geometry":{"coordinates":[-2.215952,52.197649],"type":"Point"},"properties":{"osm_id":"1650185670","tag":{"amenity":"waste_basket"}},"type":"Feature"},
	{"geometry":{"coordinates":[-2.215961,52.198015],"type":"Point"},"properties":{"osm_id":"1650382123","ref":"dog waste bin","tag":{"amenity":"waste_basket","emergency":"rescue_equipment","rescue_equipment":"lifering","waste":"dog_excrement"}},"type":"Feature"},
	{"geometry":{"coordinates":[-2.22818,52.195694],"type":"Point"},"properties":{"name":"Pitchcroft bottle bank","osm_id":"1666225175","tag":{"amenity":"recycling","recycling_type":"centre"}},"type":"Feature"},
	{"geometry":{"coordinates":[-2.213583,52.211476],"type":"Point"},"properties":{"name":"Bilford (Worcester East) Household Recycling Centre","osm_id":"3049681091","tag":{"addr:city":"Worcester","addr:postcode":"WR3 8PU","addr:street":"Bilford Road","amenity":"recycling","operator":"Severn Waste Services","phone":"+44 1905 453610","recycling:cans":"yes","recycling:clothes":"yes","recycling:glass":"yes","recycling:paper":"yes","recycling_type":"centre","website":"http://www.letswasteless.com/cms/recycling-centres/worcestershire-hrcs/bilford-road1.aspx"}},"type":"Feature"},
	{"geometry":{"coordinates":[-2.240856,52.207149],"type":"Point"},"properties":{"name":"Hallow Road (Worcester West) Household Recycling Centre","osm_id":"3049681092","tag":{"addr:city":"Worcester","addr:postcode":"WR2 6BZ","addr:street":"Horsford Road","amenity":"recycling","operator":"Severn Waste Services","phone":"+44 1905 421116","recycling:cans":"yes","recycling:clothes":"yes","recycling:glass":"yes","recycling:paper":"yes","recycling_type":"centre","website":"http://www.letswasteless.com/cms/recycling-centres/worcestershire-hrcs/hallow-road-1.aspx"}},"type":"Feature"},
	{"geometry":{"coordinates":[-2.217637,52.178798],"type":"Point"},"properties":{"osm_id":"3734336074","ref":"Dog waste bin","tag":{"amenity":"waste_basket","waste":"dog_excrement"}},"type":"Feature"},
	{"geometry":{"coordinates":[-2.21768,52.177672],"type":"Point"},"properties":{"osm_id":"3789033276","ref":"Dog waste bin","tag":{"amenity":"waste_basket","waste":"dog_excrement"}},"type":"Feature"},
	{"geometry":{"coordinates":[-2.219341,52.177592],"type":"Point"},"properties":{"osm_id":"3789033277","ref":"Dog waste bin","tag":{"amenity":"waste_basket","waste":"dog_excrement"}},"type":"Feature"},
	{"geometry":{"coordinates":[-2.216584,52.17541],"type":"Point"},"properties":{"osm_id":"3789033278","ref":"Dog waste bin","tag":{"amenity":"waste_basket","waste":"dog_excrement"}},"type":"Feature"},
	{"geometry":{"coordinates":[-2.234747,52.205839],"type":"Point"},"properties":{"osm_id":"3789033279","ref":"Dog waste bin","tag":{"amenity":"waste_basket","waste":"dog_excrement"}},"type":"Feature"},
	{"geometry":{"coordinates":[-2.234247,52.20681],"type":"Point"},"properties":{"osm_id":"3789033280","ref":"Dog waste bin","tag":{"amenity":"waste_basket","waste":"dog_excrement"}},"type":"Feature"},
	{"geometry":{"coordinates":[-2.23326,52.206629],"type":"Point"},"properties":{"osm_id":"3789033281","ref":"Dog waste bin","tag":{"amenity":"waste_basket","waste":"dog_excrement"}},"type":"Feature"},
	{"geometry":{"coordinates":[-2.233097,52.207794],"type":"Point"},"properties":{"osm_id":"3789033282","ref":"Dog waste bin","tag":{"amenity":"waste_basket","waste":"dog_excrement"}},"type":"Feature"},
	{"geometry":{"coordinates":[-2.231623,52.206961],"type":"Point"},"properties":{"osm_id":"3789033283","ref":"Dog waste bin","tag":{"amenity":"waste_basket","waste":"dog_excrement"}},"type":"Feature"},
	{"geometry":{"coordinates":[-2.227405,52.206849],"type":"Point"},"properties":{"osm_id":"3789033284","ref":"Dog waste bin","tag":{"amenity":"waste_basket","waste":"dog_excrement"}},"type":"Feature"},
	{"geometry":{"coordinates":[-2.227468,52.206064],"type":"Point"},"properties":{"osm_id":"3789033285","ref":"Dog waste bin","tag":{"amenity":"waste_basket","waste":"dog_excrement"}},"type":"Feature"},
	{"geometry":{"coordinates":[-2.22443,52.204567],"type":"Point"},"properties":{"osm_id":"3789033286","ref":"Dog waste bin","tag":{"amenity":"waste_basket","waste":"dog_excrement"}},"type":"Feature"},
	{"geometry":{"coordinates":[-2.223219,52.207635],"type":"Point"},"properties":{"osm_id":"3789033287","ref":"Dog waste bin","tag":{"amenity":"waste_basket","waste":"dog_excrement"}},"type":"Feature"},
	{"geometry":{"coordinates":[-2.22136,52.207592],"type":"Point"},"properties":{"osm_id":"3789033288","ref":"Dog waste bin","tag":{"amenity":"waste_basket","waste":"dog_excrement"}},"type":"Feature"},
	{"geometry":{"coordinates":[-2.221585,52.208012],"type":"Point"},"properties":{"osm_id":"3789033289","ref":"Dog waste bin","tag":{"amenity":"waste_basket","waste":"dog_excrement"}},"type":"Feature"},
	{"geometry":{"coordinates":[-2.220468,52.207275],"type":"Point"},"properties":{"osm_id":"3789033290","ref":"Dog waste bin","tag":{"amenity":"waste_basket","waste":"dog_excrement"}},"type":"Feature"},
	{"geometry":{"coordinates":[-2.216371,52.212742],"type":"Point"},"properties":{"osm_id":"3789033291","ref":"Dog waste bin","tag":{"amenity":"waste_basket","waste":"dog_excrement"}},"type":"Feature"},
	{"geometry":{"coordinates":[-2.210866,52.211673],"type":"Point"},"properties":{"osm_id":"3789033292","ref":"Dog waste bin","tag":{"amenity":"waste_basket","waste":"dog_excrement"}},"type":"Feature"},
	{"geometry":{"coordinates":[-2.203849,52.206329],"type":"Point"},"properties":{"osm_id":"3789033293","ref":"Dog waste bin","tag":{"amenity":"waste_basket","waste":"dog_excrement"}},"type":"Feature"},
	{"geometry":{"coordinates":[-2.204543,52.205598],"type":"Point"},"properties":{"osm_id":"3789033294","ref":"Dog waste bin","tag":{"amenity":"waste_basket","waste":"dog_excrement"}},"type":"Feature"},
	{"geometry":{"coordinates":[-2.198601,52.175392],"type":"Point"},"properties":{"osm_id":"3789033295","ref":"Dog waste bin","tag":{"amenity":"waste_basket","waste":"dog_excrement"}},"type":"Feature"},
	{"geometry":{"coordinates":[-2.216293,52.164264],"type":"Point"},"properties":{"osm_id":"3796796859","ref":"Dog waste bin","tag":{"amenity":"waste_basket","waste":"dog_excrement"}},"type":"Feature"},
	{"geometry":{"coordinates":[-2.253874,52.195569],"type":"Point"},"properties":{"osm_id":"3808715274","ref":"dog waste bin","tag":{"amenity":"waste_basket","waste":"dog_excrement"}},"type":"Feature"},
	{"geometry":{"coordinates":[-2.251761,52.195496],"type":"Point"},"properties":{"osm_id":"3808731115","ref":"dog waste bin","tag":{"amenity":"waste_basket","waste":"dog_excrement"}},"type":"Feature"},
	{"geometry":{"coordinates":[-2.212058,52.204259],"type":"Point"},"properties":{"osm_id":"3808770174","ref":"dog waste bin","tag":{"amenity":"waste_basket","waste":"dog_excrement"}},"type":"Feature"},
	{"geometry":{"coordinates":[-2.213813,52.176838],"type":"Point"},"properties":{"osm_id":"3808781260","ref":"dog waste bin","tag":{"amenity":"waste_basket","waste":"dog_excrement"}},"type":"Feature"},
	{"geometry":{"coordinates":[-2.208185,52.181181],"type":"Point"},"properties":{"osm_id":"3808793187","ref":"dog waste bin","tag":{"amenity":"waste_basket","waste":"dog_excrement"}},"type":"Feature"},
	{"geometry":{"coordinates":[-2.207445,52.182165],"type":"Point"},"properties":{"osm_id":"3808803768","ref":"Dog waste bin","tag":{"amenity":"waste_basket","waste":"dog_excrement"}},"type":"Feature"},
	{"geometry":{"coordinates":[-2.232602,52.187023],"type":"Point"},"properties":{"osm_id":"3808822681","tag":{"amenity":"waste_basket","waste":"dog_excrement"}},"type":"Feature"},
	{"geometry":{"coordinates":[-2.233635,52.176306],"type":"Point"},"properties":{"osm_id":"3808823551","ref":"dog waste bin","tag":{"amenity":"waste_basket","waste":"dog_excrement"}},"type":"Feature"},
	{"geometry":{"coordinates":[-2.231489,52.182902],"type":"Point"},"properties":{"osm_id":"3808825552","ref":"dog waaste bin","tag":{"amenity":"waste_basket","waste":"dog_excrement"}},"type":"Feature"},
	{"geometry":{"coordinates":[-2.254144,52.186491],"type":"Point"},"properties":{"osm_id":"3808841148","ref":"dog waste bin","tag":{"amenity":"waste_basket","waste":"dog_excrement"}},"type":"Feature"},
	{"geometry":{"coordinates":[-2.238417,52.188894],"type":"Point"},"properties":{"osm_id":"3808844576","tag":{"amenity":"waste_basket","waste":"dog_excrement"}},"type":"Feature"},
	{"geometry":{"coordinates":[-2.220365,52.207286],"type":"Point"},"properties":{"osm_id":"3808845375","ref":"dog waste bin","tag":{"amenity":"waste_basket","waste":"dog_excrement"}},"type":"Feature"},
	{"geometry":{"coordinates":[-2.206634,52.166481],"type":"Point"},"properties":{"osm_id":"3808864306","ref":"dog waste bin","tag":{"amenity":"waste_basket","waste":"dog_excrement"}},"type":"Feature"},
	{"geometry":{"coordinates":[-2.229715,52.207421],"type":"Point"},"properties":{"osm_id":"3808872059","ref":"dog waste bin","tag":{"amenity":"waste_basket","waste":"dog_excrement"}},"type":"Feature"},
	{"geometry":{"coordinates":[-2.216909,52.200242],"type":"Point"},"properties":{"osm_id":"3809684009","ref":"dog waste bin","tag":{"amenity":"waste_basket","waste":"dog_excrement"}},"type":"Feature"},
	{"geometry":{"coordinates":[-2.227165,52.190722],"type":"Point"},"properties":{"osm_id":"3809691735","ref":"dog waste bin","tag":{"amenity":"waste_basket","waste":"dog_excrement"}},"type":"Feature"},
	{"geometry":{"coordinates":[-2.243436,52.174518],"type":"Point"},"properties":{"osm_id":"3809693877","ref":"dog waste bin","tag":{"amenity":"waste_basket","waste":"dog_excrement"}},"type":"Feature"},
	{"geometry":{"coordinates":[-2.217233,52.20991],"type":"Point"},"properties":{"osm_id":"3809706713","ref":"Dog waste bin","tag":{"amenity":"waste_basket","waste":"dog_excrement"}},"type":"Feature"},
	{"geometry":{"coordinates":[-2.223782,52.179614],"type":"Point"},"properties":{"osm_id":"3809707257","ref":"Dog waste bin","tag":{"amenity":"waste_basket","waste":"dog_excrement"}},"type":"Feature"},
	{"geometry":{"coordinates":[-2.212283,52.17652],"type":"Point"},"properties":{"osm_id":"3809708501","ref":"Dog waste bin","tag":{"amenity":"waste_basket","waste":"dog_excrement"}},"type":"Feature"},
	{"geometry":{"coordinates":[-2.215993,52.1978],"type":"Point"},"properties":{"osm_id":"3809709116","ref":"dog waste bin","tag":{"amenity":"waste_basket","waste":"dog_excrement"}},"type":"Feature"},
	{"geometry":{"coordinates":[-2.206804,52.192405],"type":"Point"},"properties":{"osm_id":"3809709543","tag":{"amenity":"waste_basket","waste":"dog_excrement"}},"type":"Feature"},
	{"geometry":{"coordinates":[-2.214061,52.187864],"type":"Point"},"properties":{"osm_id":"3809710140","tag":{"amenity":"waste_basket","waste":"dog_excrement"}},"type":"Feature"},
	{"geometry":{"coordinates":[-2.213866,52.187168],"type":"Point"},"properties":{"osm_id":"3809710392","tag":{"amenity":"waste_basket","waste":"dog_excrement"}},"type":"Feature"},
	{"geometry":{"coordinates":[-2.21518,52.188138],"type":"Point"},"properties":{"osm_id":"3809711635","tag":{"amenity":"waste_basket","waste":"dog_excrement"}},"type":"Feature"},
	{"geometry":{"coordinates":[-2.214031,52.186334],"type":"Point"},"properties":{"osm_id":"3809712048","tag":{"amenity":"waste_basket","waste":"dog_excrement"}},"type":"Feature"},
	{"geometry":{"coordinates":[-2.212487,52.205453],"type":"Point"},"properties":{"osm_id":"3809714311","ref":"Dog waste bin","tag":{"amenity":"waste_basket","waste":"dog_excrement"}},"type":"Feature"},
	{"geometry":{"coordinates":[-2.213349,52.198215],"type":"Point"},"properties":{"osm_id":"3809714853","ref":"Dog waste bin","tag":{"amenity":"waste_basket","waste":"dog_excrement"}},"type":"Feature"},
	{"geometry":{"coordinates":[-2.245036,52.208434],"type":"Point"},"properties":{"osm_id":"3809715708","ref":"Dog waste bin","tag":{"amenity":"waste_basket","waste":"dog_excrement"}},"type":"Feature"},
	{"geometry":{"coordinates":[-2.217996,52.201437],"type":"Point"},"properties":{"osm_id":"3809715969","tag":{"amenity":"waste_basket","waste":"dog_excrement"}},"type":"Feature"},
	{"geometry":{"coordinates":[-2.243901,52.205737],"type":"Point"},"properties":{"osm_id":"3809718247","ref":"Dog waste bin","tag":{"amenity":"waste_basket","waste":"dog_excrement"}},"type":"Feature"},
	{"geometry":{"coordinates":[-2.2422,52.174466],"type":"Point"},"properties":{"osm_id":"3809719814","ref":"dog waste bin","tag":{"amenity":"waste_basket","waste":"dog_excrement"}},"type":"Feature"},
	{"geometry":{"coordinates":[-2.244598,52.203144],"type":"Point"},"properties":{"osm_id":"3809720531","ref":"Dog waste bin","tag":{"amenity":"waste_basket","waste":"dog_excrement"}},"type":"Feature"},
	{"geometry":{"coordinates":[-2.229933,52.175971],"type":"Point"},"properties":{"osm_id":"3809720608","ref":"dog waste bin","tag":{"amenity":"waste_basket","waste":"dog_excrement"}},"type":"Feature"},
	{"geometry":{"coordinates":[-2.249007,52.19767],"type":"Point"},"properties":{"osm_id":"3809725775","ref":"Dog waste bin","tag":{"amenity":"waste_basket","waste":"dog_excrement"}},"type":"Feature"},
	{"geometry":{"coordinates":[-2.24209,52.170712],"type":"Point"},"properties":{"osm_id":"3809727571","ref":"Dog waste bin","tag":{"amenity":"waste_basket","waste":"dog_excrement"}},"type":"Feature"},
	{"geometry":{"coordinates":[-2.244822,52.172237],"type":"Point"},"properties":{"osm_id":"3809729240","ref":"Dog waste bin","tag":{"amenity":"waste_basket","waste":"dog_excrement"}},"type":"Feature"},
	{"geometry":{"coordinates":[-2.244842,52.172257],"type":"Point"},"properties":{"osm_id":"3809729241","ref":"Dog waste bin","tag":{"amenity":"waste_basket","waste":"dog_excrement"}},"type":"Feature"},
	{"geometry":{"coordinates":[-2.209158,52.165523],"type":"Point"},"properties":{"osm_id":"3809730799","ref":"dog waste bin","tag":{"amenity":"waste_basket","waste":"dog_excrement"}},"type":"Feature"},
	{"geometry":{"coordinates":[-2.247636,52.193521],"type":"Point"},"properties":{"osm_id":"3809731767","ref":"Dog waste bin","tag":{"amenity":"waste_basket","waste":"dog_excrement"}},"type":"Feature"},
	{"geometry":{"coordinates":[-2.222596,52.18402],"type":"Point"},"properties":{"osm_id":"3809735060","ref":"Dog waste bin","tag":{"amenity":"waste_basket","waste":"dog_excrement"}},"type":"Feature"},
	{"geometry":{"coordinates":[-2.24783,52.192224],"type":"Point"},"properties":{"osm_id":"3809735121","ref":"Dog waste bin","tag":{"amenity":"waste_basket","waste":"dog_excrement"}},"type":"Feature"},
	{"geometry":{"coordinates":[-2.219427,52.195355],"type":"Point"},"properties":{"osm_id":"3809735860","ref":"Dog waste bin","tag":{"amenity":"waste_basket","waste":"dog_excrement"}},"type":"Feature"},
	{"geometry":{"coordinates":[-2.201055,52.170902],"type":"Point"},"properties":{"osm_id":"3809742158","ref":"Dog waste bin","tag":{"amenity":"waste_basket","waste":"dog_excrement"}},"type":"Feature"},
	{"geometry":{"coordinates":[-2.230412,52.187175],"type":"Point"},"properties":{"osm_id":"3809742264","ref":"Dog waste bin","tag":{"amenity":"waste_basket","waste":"dog_excrement"}},"type":"Feature"},
	{"geometry":{"coordinates":[-2.21261,52.164519],"type":"Point"},"properties":{"osm_id":"3809744259","ref":"Dog waste bin","tag":{"amenity":"waste_basket","waste":"dog_excrement"}},"type":"Feature"},
	{"geometry":{"coordinates":[-2.201031,52.17004],"type":"Point"},"properties":{"osm_id":"3809744880","ref":"Dog waste bin","tag":{"amenity":"waste_basket","waste":"dog_excrement"}},"type":"Feature"},
	{"geometry":{"coordinates":[-2.228302,52.202187],"type":"Point"},"properties":{"osm_id":"3809745616","tag":{"amenity":"waste_basket","waste":"dog_excrement"}},"type":"Feature"},
	{"geometry":{"coordinates":[-2.260131,52.189088],"type":"Point"},"properties":{"osm_id":"3809750019","ref":"dog waste bin","tag":{"amenity":"waste_basket","waste":"dog_excrement"}},"type":"Feature"},
	{"geometry":{"coordinates":[-2.235342,52.206088],"type":"Point"},"properties":{"osm_id":"3811038329","ref":"dog waste bin","tag":{"amenity":"waste_basket","waste":"dog_excrement"}},"type":"Feature"},
	{"geometry":{"coordinates":[-2.234198,52.204496],"type":"Point"},"properties":{"osm_id":"3811038330","ref":"dog waste bin","tag":{"amenity":"waste_basket","waste":"dog_excrement"}},"type":"Feature"},
	{"geometry":{"coordinates":[-2.238456,52.202472],"type":"Point"},"properties":{"osm_id":"3811038331","ref":"dog waste bin","tag":{"amenity":"waste_basket","waste":"dog_excrement"}},"type":"Feature"},
	{"geometry":{"coordinates":[-2.200946,52.205195],"type":"Point"},"properties":{"osm_id":"3815296012","ref":"Dog waste bin","tag":{"amenity":"waste_basket","waste":"dog_excrement"}},"type":"Feature"},
	{"geometry":{"coordinates":[-2.198612,52.205168],"type":"Point"},"properties":{"osm_id":"3815296013","ref":"Dog waste bin","tag":{"amenity":"waste_basket","waste":"dog_excrement"}},"type":"Feature"},
	{"geometry":{"coordinates":[-2.198157,52.203744],"type":"Point"},"properties":{"osm_id":"3815296014","ref":"Dog waste bin","tag":{"amenity":"waste_basket","waste":"dog_excrement"}},"type":"Feature"},
	{"geometry":{"coordinates":[-2.202292,52.203517],"type":"Point"},"properties":{"osm_id":"3815296015","ref":"Dog waste bin","tag":{"amenity":"waste_basket","waste":"dog_excrement"}},"type":"Feature"},
	{"geometry":{"coordinates":[-2.200517,52.175547],"type":"Point"},"properties":{"osm_id":"3815296030","ref":"Dog waste bin","tag":{"amenity":"waste_basket","waste":"dog_excrement"}},"type":"Feature"},
	{"geometry":{"coordinates":[-2.200301,52.17472],"type":"Point"},"properties":{"osm_id":"3815296031","ref":"Dog waste bin","tag":{"amenity":"waste_basket","waste":"dog_excrement"}},"type":"Feature"},
	{"geometry":{"coordinates":[-2.203233,52.175189],"type":"Point"},"properties":{"osm_id":"3815296032","ref":"Dog waste bin","tag":{"amenity":"waste_basket","waste":"dog_excrement"}},"type":"Feature"},
	{"geometry":{"coordinates":[-2.216918,52.18831],"type":"Point"},"properties":{"osm_id":"3815346387","ref":"Dog waste bin","tag":{"amenity":"waste_basket","waste":"dog_excrement"}},"type":"Feature"},
	{"geometry":{"coordinates":[-2.207096,52.174464],"type":"Point"},"properties":{"osm_id":"3815346388","ref":"Dog waste bin","tag":{"amenity":"waste_basket","waste":"dog_excrement"}},"type":"Feature"},
	{"geometry":{"coordinates":[-2.224538,52.176921],"type":"Point"},"properties":{"osm_id":"3815584652","ref":"Dog waste bin","tag":{"amenity":"waste_basket","waste":"dog_excrement"}},"type":"Feature"},
	{"geometry":{"coordinates":[-2.214601,52.181245],"type":"Point"},"properties":{"osm_id":"3815584653","ref":"Dog waste bin","tag":{"amenity":"waste_basket","waste":"dog_excrement"}},"type":"Feature"},
	{"geometry":{"coordinates":[-2.202611,52.182087],"type":"Point"},"properties":{"osm_id":"3815584654","ref":"Dog waste bin","tag":{"amenity":"waste_basket","waste":"dog_excrement"}},"type":"Feature"},
	{"geometry":{"coordinates":[-2.198523,52.18092],"type":"Point"},"properties":{"osm_id":"3815584655","tag":{"amenity":"waste_basket","waste":"dog_excrement"}},"type":"Feature"},
	{"geometry":{"coordinates":[-2.198727,52.179851],"type":"Point"},"properties":{"osm_id":"3815584656","tag":{"amenity":"waste_basket","waste":"dog_excrement"}},"type":"Feature"},
	{"geometry":{"coordinates":[-2.200504,52.175549],"type":"Point"},"properties":{"osm_id":"3815584680","ref":"Dog waste bin","tag":{"amenity":"waste_basket","waste":"dog_excrement"}},"type":"Feature"},
	{"geometry":{"coordinates":[-2.208045,52.171888],"type":"Point"},"properties":{"osm_id":"3815584759","ref":"Dog waste bin","tag":{"amenity":"waste_basket","waste":"dog_excrement"}},"type":"Feature"},
	{"geometry":{"coordinates":[-2.209021,52.170597],"type":"Point"},"properties":{"osm_id":"3815584760","ref":"Dog waste bin","tag":{"amenity":"waste_basket","waste":"dog_excrement"}},"type":"Feature"},
	{"geometry":{"coordinates":[-2.20773,52.169946],"type":"Point"},"properties":{"osm_id":"3815584761","ref":"Dog waste bin","tag":{"amenity":"waste_basket","waste":"dog_excrement"}},"type":"Feature"},
	{"geometry":{"coordinates":[-2.205519,52.16855],"type":"Point"},"properties":{"osm_id":"3815584762","ref":"Dog waste bin","tag":{"amenity":"waste_basket","waste":"dog_excrement"}},"type":"Feature"},
	{"geometry":{"coordinates":[-2.213359,52.169243],"type":"Point"},"properties":{"osm_id":"3815584763","ref":"Dog waste bin","tag":{"amenity":"waste_basket","waste":"dog_excrement"}},"type":"Feature"},
	{"geometry":{"coordinates":[-2.225622,52.176636],"type":"Point"},"properties":{"osm_id":"3818537160","ref":"Dog waste bin","tag":{"amenity":"waste_basket","waste":"dog_excrement"}},"type":"Feature"},
	{"geometry":{"coordinates":[-2.225603,52.180592],"type":"Point"},"properties":{"osm_id":"3818537161","ref":"Dog waste bin","tag":{"amenity":"waste_basket","waste":"dog_excrement"}},"type":"Feature"},
	{"geometry":{"coordinates":[-2.223434,52.187781],"type":"Point"},"properties":{"osm_id":"3818537162","ref":"Dog waste bin","tag":{"amenity":"waste_basket","waste":"dog_excrement"}},"type":"Feature"},
	{"geometry":{"coordinates":[-2.247127,52.204807],"type":"Point"},"properties":{"osm_id":"3818736962","ref":"Dog waste bin","tag":{"amenity":"waste_basket","waste":"dog_excrement"}},"type":"Feature"},
	{"geometry":{"coordinates":[-2.248303,52.206306],"type":"Point"},"properties":{"osm_id":"3818736963","ref":"Dog waste bin","tag":{"amenity":"waste_basket","waste":"dog_excrement"}},"type":"Feature"},
	{"geometry":{"coordinates":[-2.248791,52.198863],"type":"Point"},"properties":{"osm_id":"3818736964","ref":"Dog waste bin","tag":{"amenity":"waste_basket","waste":"dog_excrement"}},"type":"Feature"},
	{"geometry":{"coordinates":[-2.260719,52.196282],"type":"Point"},"properties":{"osm_id":"3818736965","ref":"Dog waste bin","tag":{"amenity":"waste_basket","waste":"dog_excrement"}},"type":"Feature"},
	{"geometry":{"coordinates":[-2.261278,52.196509],"type":"Point"},"properties":{"osm_id":"3818736966","ref":"Dog waste bin","tag":{"amenity":"waste_basket","waste":"dog_excrement"}},"type":"Feature"},
	{"geometry":{"coordinates":[-2.261151,52.190384],"type":"Point"},"properties":{"osm_id":"3818736967","ref":"Dog waste bin","tag":{"amenity":"waste_basket","waste":"dog_excrement"}},"type":"Feature"},
	{"geometry":{"coordinates":[-2.257714,52.192322],"type":"Point"},"properties":{"osm_id":"3818736968","ref":"Dog waste bin","tag":{"amenity":"waste_basket","waste":"dog_excrement"}},"type":"Feature"},
	{"geometry":{"coordinates":[-2.24911,52.195075],"type":"Point"},"properties":{"osm_id":"3818736969","ref":"Dog waste bin","tag":{"amenity":"waste_basket","waste":"dog_excrement"}},"type":"Feature"},
	{"geometry":{"coordinates":[-2.248424,52.194892],"type":"Point"},"properties":{"osm_id":"3818736970","ref":"Dog waste bin","tag":{"amenity":"waste_basket","waste":"dog_excrement"}},"type":"Feature"},
	{"geometry":{"coordinates":[-2.246748,52.195204],"type":"Point"},"properties":{"osm_id":"3818736971","ref":"Dog waste bin","tag":{"amenity":"waste_basket","waste":"dog_excrement"}},"type":"Feature"},
	{"geometry":{"coordinates":[-2.243221,52.191153],"type":"Point"},"properties":{"osm_id":"3818736972","ref":"Dog waste bin","tag":{"amenity":"waste_basket","waste":"dog_excrement"}},"type":"Feature"},
	{"geometry":{"coordinates":[-2.243231,52.191165],"type":"Point"},"properties":{"osm_id":"3818736973","ref":"Dog waste bin","tag":{"amenity":"waste_basket","waste":"dog_excrement"}},"type":"Feature"},
	{"geometry":{"coordinates":[-2.230979,52.189148],"type":"Point"},"properties":{"osm_id":"3818736974","ref":"Dog waste bin","tag":{"amenity":"waste_basket","waste":"dog_excrement"}},"type":"Feature"},
	{"geometry":{"coordinates":[-2.229527,52.190949],"type":"Point"},"properties":{"osm_id":"3818736975","ref":"Dog waste bin","tag":{"amenity":"waste_basket","waste":"dog_excrement"}},"type":"Feature"},
	{"geometry":{"coordinates":[-2.23424,52.196186],"type":"Point"},"properties":{"osm_id":"3818736976","ref":"Dog waste bin","tag":{"amenity":"waste_basket","waste":"dog_excrement"}},"type":"Feature"},
	{"geometry":{"coordinates":[-2.24053,52.20178],"type":"Point"},"properties":{"osm_id":"3818736977","ref":"Dog waste bin","tag":{"amenity":"waste_basket","waste":"dog_excrement"}},"type":"Feature"},
	{"geometry":{"coordinates":[-2.243156,52.173892],"type":"Point"},"properties":{"osm_id":"3820631641","ref":"Dog waste bin","tag":{"amenity":"waste_basket","waste":"dog_excrement"}},"type":"Feature"},
	{"geometry":{"coordinates":[-2.239477,52.175494],"type":"Point"},"properties":{"osm_id":"3820631642","ref":"Dog waste bin","tag":{"amenity":"waste_basket","waste":"dog_excrement"}},"type":"Feature"},
	{"geometry":{"coordinates":[-2.236721,52.181706],"type":"Point"},"properties":{"osm_id":"3820631643","ref":"Dog waste bin","tag":{"amenity":"waste_basket","waste":"dog_excrement"}},"type":"Feature"},
	{"geometry":{"coordinates":[-2.236717,52.181728],"type":"Point"},"properties":{"osm_id":"3820631644","ref":"Dog waste bin","tag":{"amenity":"waste_basket","waste":"dog_excrement"}},"type":"Feature"},
	{"geometry":{"coordinates":[-2.237875,52.182329],"type":"Point"},"properties":{"osm_id":"3820631646","ref":"Dog waste bin","tag":{"amenity":"waste_basket","waste":"dog_excrement"}},"type":"Feature"},
	{"geometry":{"coordinates":[-2.242627,52.179137],"type":"Point"},"properties":{"osm_id":"3820631647","tag":{"amenity":"waste_basket","waste":"dog_excrement"}},"type":"Feature"},
	{"geometry":{"coordinates":[-2.244137,52.181773],"type":"Point"},"properties":{"osm_id":"3820631648","ref":"Dog waste bin","tag":{"amenity":"waste_basket","waste":"dog_excrement"}},"type":"Feature"},
	{"geometry":{"coordinates":[-2.235264,52.186257],"type":"Point"},"properties":{"osm_id":"3820631649","tag":{"amenity":"waste_basket","waste":"dog_excrement"}},"type":"Feature"},
	{"geometry":{"coordinates":[-2.222459,52.18786],"type":"Point"},"properties":{"osm_id":"3820757366","ref":"Dog waste bin","tag":{"amenity":"waste_basket","waste":"dog_excrement"}},"type":"Feature"},
	{"geometry":{"coordinates":[-2.216492,52.199325],"type":"Point"},"properties":{"osm_id":"3821033370","ref":"Dog waste bin","tag":{"amenity":"waste_basket","waste":"dog_excrement"}},"type":"Feature"},
	{"geometry":{"coordinates":[-2.21797,52.201466],"type":"Point"},"properties":{"osm_id":"3821033371","tag":{"amenity":"waste_basket","waste":"dog_excrement"}},"type":"Feature"},
	{"geometry":{"coordinates":[-2.221125,52.204845],"type":"Point"},"properties":{"osm_id":"3821033372","ref":"Dog waste bin","tag":{"amenity":"waste_basket","waste":"dog_excrement"}},"type":"Feature"},
	{"geometry":{"coordinates":[-2.199289,52.191553],"type":"Point"},"properties":{"osm_id":"3821033379","ref":"Dog waste bin","tag":{"amenity":"waste_basket","waste":"dog_excrement"}},"type":"Feature"},
	{"geometry":{"coordinates":[-2.201559,52.191387],"type":"Point"},"properties":{"osm_id":"3821033380","ref":"Dog waste bin","tag":{"amenity":"waste_basket","waste":"dog_excrement"}},"type":"Feature"},
	{"geometry":{"coordinates":[-2.198873,52.186006],"type":"Point"},"properties":{"osm_id":"3821033381","ref":"Dog waste bin","tag":{"amenity":"waste_basket","waste":"dog_excrement"}},"type":"Feature"},
	{"geometry":{"coordinates":[-2.213357,52.192053],"type":"Point"},"properties":{"osm_id":"3835960072","tag":{"amenity":"waste_basket","waste":"dog_excrement"}},"type":"Feature"},
	{"geometry":{"coordinates":[-2.212342,52.172816],"type":"Point"},"properties":{"osm_id":"6151511267","tag":{"amenity":"waste_basket","waste":"dog_excrement"}},"type":"Feature"},
	{"geometry":{"coordinates":[-2.248344,52.191809],"type":"Point"},"properties":{"osm_id":"6901255667","tag":{"amenity":"waste_basket","waste":"dog_excrement"}},"type":"Feature"},
	{"geometry":{"coordinates":[-2.222562,52.203347],"type":"Point"},"properties":{"osm_id":"7419902905","tag":{"amenity":"waste_basket","waste":"dog_excrement"}},"type":"Feature"}
]
}
