{
"type": "FeatureCollection",
"features": [
	{"geometry":{"coordinates":[-2.271786,51.679352],"type":"Point"},"properties":{"name":"Pyke Quarry HRC (Horsley)","osm_id":"26953350","tag":{"amenity":"recycling"}},"type":"Feature"},
	{"geometry":{"coordinates":[-2.219208,51.695332],"type":"Point"},"properties":{"osm_id":"502928935","tag":{"amenity":"recycling"}},"type":"Feature"},
	{"geometry":{"coordinates":[-2.247982,51.72319],"type":"Point"},"properties":{"osm_id":"8441137296","tag":{"amenity":"waste_basket","waste":"dog_excrement"}},"type":"Feature"},
	{"geometry":{"coordinates":[-2.249274,51.72262],"type":"Point"},"properties":{"osm_id":"8441207949","tag":{"amenity":"waste_basket","waste":"dog_excrement"}},"type":"Feature"},
	{"geometry":{"coordinates":[-2.277835,51.71029],"type":"Point"},"properties":{"osm_id":"8467807006","tag":{"amenity":"waste_basket","waste":"dog_excrement"}},"type":"Feature"},
	{"geometry":{"coordinates":[-2.210502,51.694474],"type":"Point"},"properties":{"osm_id":"9081878321","tag":{"access":"customers","amenity":"waste_basket","waste":"trash"}},"type":"Feature"},
	{"geometry":{"coordinates":[-2.209129,51.694053],"type":"Point"},"properties":{"osm_id":"9081878323","tag":{"amenity":"waste_basket"}},"type":"Feature"},
	{"geometry":{"coordinates":[-2.210309,51.694409],"type":"Point"},"properties":{"osm_id":"9081878324","tag":{"access":"customers","amenity":"waste_basket","waste":"trash"}},"type":"Feature"}
]
}
