{
"type": "FeatureCollection",
"features": [
	{"geometry":{"coordinates":[-2.213404,47.726914],"type":"Point"},"properties":{"name":"Peillac - Rue de l'Oust - 4","osm_id":"4823352131","tag":{"amenity":"recycling","operator":"Communaut\u00c3\u00a9 de Communes du Pays de Redon","recycling:glass_bottles":"yes","recycling_type":"container"}},"type":"Feature"},
	{"geometry":{"coordinates":[-2.218199,47.713729],"type":"Point"},"properties":{"name":"Peillac - \u00c3\u0089glise - 2","osm_id":"4823352179","tag":{"amenity":"recycling","operator":"Communaut\u00c3\u00a9 de Communes du Pays de Redon","recycling:glass_bottles":"yes","recycling_type":"container"}},"type":"Feature"},
	{"geometry":{"coordinates":[-2.220816,47.71274],"type":"Point"},"properties":{"osm_id":"4823352190","tag":{"amenity":"recycling","operator":"Communaut\u00c3\u00a9 de Communes du Pays de Redon","recycling:glass":"yes","recycling:glass_bottles":"yes","recycling_type":"container"}},"type":"Feature"},
	{"geometry":{"coordinates":[-2.212074,47.739016],"type":"Point"},"properties":{"osm_id":"5153632328","tag":{"amenity":"recycling","opening_hours":"24/7","recycling:glass":"yes","recycling:glass_bottles":"yes","recycling_type":"container","wheelchair":"yes"}},"type":"Feature"},
	{"geometry":{"coordinates":[-2.2121,47.73901],"type":"Point"},"properties":{"osm_id":"5153632329","tag":{"amenity":"recycling","opening_hours":"24/7","recycling:paper":"yes","recycling_type":"container","wheelchair":"yes"}},"type":"Feature"},
	{"geometry":{"coordinates":[-2.218309,47.713041],"type":"Point"},"properties":{"osm_id":"5154884739","tag":{"amenity":"waste_basket"}},"type":"Feature"},
	{"geometry":{"coordinates":[-2.220668,47.714178],"type":"Point"},"properties":{"osm_id":"5154896260","tag":{"amenity":"waste_basket"}},"type":"Feature"},
	{"geometry":{"coordinates":[-2.220538,47.714175],"type":"Point"},"properties":{"osm_id":"5154896262","tag":{"amenity":"waste_basket"}},"type":"Feature"},
	{"geometry":{"coordinates":[-2.208648,47.744224],"type":"Point"},"properties":{"osm_id":"5154927733","tag":{"amenity":"waste_basket"}},"type":"Feature"},
	{"geometry":{"coordinates":[-2.208642,47.744227],"type":"Point"},"properties":{"osm_id":"5154927737","tag":{"amenity":"waste_basket","waste":"cigarette"}},"type":"Feature"},
	{"geometry":{"coordinates":[-2.208647,47.744285],"type":"Point"},"properties":{"osm_id":"5154927738","tag":{"amenity":"waste_basket","waste":"cigarette"}},"type":"Feature"},
	{"geometry":{"coordinates":[-2.209354,47.743571],"type":"Point"},"properties":{"osm_id":"5154949122","tag":{"amenity":"recycling","recycling_type":"container"}},"type":"Feature"},
	{"geometry":{"coordinates":[-2.209313,47.743576],"type":"Point"},"properties":{"osm_id":"5154949123","tag":{"amenity":"recycling","recycling_type":"container"}},"type":"Feature"},
	{"geometry":{"coordinates":[-2.212377,47.738269],"type":"Point"},"properties":{"osm_id":"5155154977","tag":{"amenity":"recycling","operator":"Le Relais","recycling:clothes":"yes","recycling_type":"container"}},"type":"Feature"},
	{"geometry":{"coordinates":[-2.226669,47.71759],"type":"Point"},"properties":{"name":"Peillac - Stade - 3","osm_id":"5155215425","tag":{"amenity":"recycling","operator":"Communaut\u00c3\u00a9 de Communes du Pays de Redon","recycling:cardboard":"yes","recycling:paper":"yes","recycling_type":"container"}},"type":"Feature"},
	{"geometry":{"coordinates":[-2.226631,47.717587],"type":"Point"},"properties":{"name":"Peillac - Stade - 3","osm_id":"5155215426","tag":{"amenity":"recycling","operator":"Communaut\u00c3\u00a9 de Communes du Pays de Redon","recycling:glass_bottles":"yes","recycling_type":"container"}},"type":"Feature"},
	{"geometry":{"coordinates":[-2.22081,47.712712],"type":"Point"},"properties":{"osm_id":"5155260503","tag":{"amenity":"recycling","operator":"Communaut\u00c3\u00a9 de Communes du Pays de Redon","recycling:clothes":"yes","recycling_type":"container"}},"type":"Feature"},
	{"geometry":{"coordinates":[-2.220818,47.712763],"type":"Point"},"properties":{"osm_id":"5155260504","tag":{"amenity":"recycling","operator":"Communaut\u00c3\u00a9 de Communes du Pays de Redon","recycling:cardboard":"yes","recycling:paper":"yes","recycling_type":"container"}},"type":"Feature"},
	{"geometry":{"coordinates":[-2.220388,47.713303],"type":"Point"},"properties":{"osm_id":"5155260508","tag":{"amenity":"waste_basket"}},"type":"Feature"},
	{"geometry":{"coordinates":[-2.21262,47.724956],"type":"Point"},"properties":{"osm_id":"5572212117","tag":{"amenity":"waste_basket"}},"type":"Feature"},
	{"geometry":{"coordinates":[-2.213118,47.725099],"type":"Point"},"properties":{"osm_id":"6786095946","tag":{"amenity":"recycling","recycling:glass_bottles":"yes","recycling_type":"container"}},"type":"Feature"}
]
}
