{
"type": "FeatureCollection",
"features": [
	{"geometry":{"coordinates":[-2.232091,47.667825],"type":"Point"},"properties":{"osm_id":"4335383012","tag":{"amenity":"recycling","recycling:metal":"yes","recycling:paper":"yes","recycling:plastic":"yes"}},"type":"Feature"},
	{"geometry":{"coordinates":[-2.232029,47.667821],"type":"Point"},"properties":{"osm_id":"4335383013","tag":{"amenity":"waste_disposal"}},"type":"Feature"},
	{"geometry":{"coordinates":[-2.235437,47.641052],"type":"Point"},"properties":{"osm_id":"4340397976","tag":{"amenity":"recycling","recycling:paper":"yes"}},"type":"Feature"},
	{"geometry":{"coordinates":[-2.214032,47.683751],"type":"Point"},"properties":{"name":"Saint-Jacut les Pins - Parking la Chataigneraie - 2","osm_id":"4823350683","tag":{"amenity":"recycling","operator":"Communaut\u00c3\u00a9 de Communes du Pays de Redon","recycling:glass_bottles":"yes","recycling_type":"container"}},"type":"Feature"},
	{"geometry":{"coordinates":[-2.232267,47.667846],"type":"Point"},"properties":{"name":"Saint-Jacut Les Pins - Camping Municipal - 1","osm_id":"4823352132","tag":{"amenity":"recycling","operator":"Communaut\u00c3\u00a9 de Communes du Pays de Redon","recycling:glass_bottles":"yes","recycling_type":"container"}},"type":"Feature"},
	{"geometry":{"coordinates":[-2.235411,47.641056],"type":"Point"},"properties":{"name":"Saint-Gorgon - Route de Caden - 1","osm_id":"4823352187","tag":{"amenity":"recycling","operator":"Communaut\u00c3\u00a9 de Communes du Pays de Redon","recycling:glass_bottles":"yes","recycling_type":"container"}},"type":"Feature"},
	{"geometry":{"coordinates":[-2.218052,47.69234],"type":"Point"},"properties":{"osm_id":"6652812154","tag":{"amenity":"recycling","material":"plastic","operator":"Redon Agglo","recycling:glass":"yes","recycling:glass_bottles":"yes","recycling:paper":"yes","recycling_type":"container"}},"type":"Feature"}
]
}
