{
"type": "FeatureCollection",
"features": [
	{"geometry":{"coordinates":[-2.283574,47.576878],"type":"Point"},"properties":{"osm_id":"1491671777","tag":{"amenity":"recycling","recycling:batteries":"yes","recycling:cans":"yes","recycling:car_batteries":"yes","recycling:oil":"yes","recycling:paint":"yes","recycling:paper":"yes","recycling_type":"container"}},"type":"Feature"},
	{"geometry":{"coordinates":[-2.234159,47.584171],"type":"Point"},"properties":{"osm_id":"1491691386","tag":{"amenity":"recycling","recycling_type":"container"}},"type":"Feature"},
	{"geometry":{"coordinates":[-2.283693,47.576864],"type":"Point"},"properties":{"osm_id":"4805836617","tag":{"amenity":"waste_basket"}},"type":"Feature"},
	{"geometry":{"coordinates":[-2.283669,47.576868],"type":"Point"},"properties":{"osm_id":"4805836618","tag":{"amenity":"waste_basket"}},"type":"Feature"},
	{"geometry":{"coordinates":[-2.283627,47.576875],"type":"Point"},"properties":{"osm_id":"4805836619","tag":{"amenity":"waste_basket"}},"type":"Feature"},
	{"geometry":{"coordinates":[-2.283649,47.57687],"type":"Point"},"properties":{"osm_id":"4805836620","tag":{"amenity":"waste_basket"}},"type":"Feature"},
	{"geometry":{"coordinates":[-2.228179,47.610456],"type":"Point"},"properties":{"name":"B\u00c3\u00a9ganne - Croix Martin - 1","osm_id":"4823352137","tag":{"amenity":"recycling","operator":"Communaut\u00c3\u00a9 de Communes du Pays de Redon","recycling:glass_bottles":"yes","recycling_type":"container"}},"type":"Feature"},
	{"geometry":{"coordinates":[-2.242642,47.598288],"type":"Point"},"properties":{"name":"B\u00c3\u00a9ganne - Services Techniques - 3","osm_id":"4823352150","tag":{"amenity":"recycling","operator":"Communaut\u00c3\u00a9 de Communes du Pays de Redon","recycling:glass_bottles":"yes","recycling_type":"container"}},"type":"Feature"},
	{"geometry":{"coordinates":[-2.283538,47.576886],"type":"Point"},"properties":{"name":"B\u00c3\u00a9ganne - Port de Foleux - 2","osm_id":"4823352166","tag":{"amenity":"recycling","operator":"Communaut\u00c3\u00a9 de Communes du Pays de Redon","recycling:glass_bottles":"yes","recycling_type":"container"}},"type":"Feature"}
]
}
