{
"type": "FeatureCollection",
"features": [
	{"geometry":{"coordinates":[-2.220187,47.283671],"type":"Point"},"properties":{"osm_id":"1855982662","tag":{"amenity":"recycling","recycling:glass":"yes","recycling_type":"container"}},"type":"Feature"},
	{"geometry":{"coordinates":[-2.202941,47.284562],"type":"Point"},"properties":{"osm_id":"4333970157","tag":{"amenity":"recycling","recycling:clothes":"yes","recycling_type":"container"}},"type":"Feature"},
	{"geometry":{"coordinates":[-2.202912,47.284563],"type":"Point"},"properties":{"osm_id":"4333970158","tag":{"amenity":"recycling","recycling:glass_bottles":"yes","recycling_type":"container"}},"type":"Feature"},
	{"geometry":{"coordinates":[-2.209614,47.294369],"type":"Point"},"properties":{"osm_id":"4510570330","tag":{"amenity":"waste_basket"}},"type":"Feature"},
	{"geometry":{"coordinates":[-2.217416,47.279293],"type":"Point"},"properties":{"osm_id":"4754931178","tag":{"amenity":"recycling","recycling:glass_bottles":"yes","recycling_type":"container"}},"type":"Feature"},
	{"geometry":{"coordinates":[-2.217267,47.279778],"type":"Point"},"properties":{"osm_id":"4790246452","tag":{"amenity":"waste_basket"}},"type":"Feature"},
	{"geometry":{"coordinates":[-2.21707,47.279428],"type":"Point"},"properties":{"osm_id":"4790246453","tag":{"amenity":"waste_basket"}},"type":"Feature"},
	{"geometry":{"coordinates":[-2.21691,47.27933],"type":"Point"},"properties":{"osm_id":"4790246456","tag":{"amenity":"waste_basket"}},"type":"Feature"},
	{"geometry":{"coordinates":[-2.217389,47.279289],"type":"Point"},"properties":{"osm_id":"4790246459","tag":{"amenity":"recycling","operator":"Le Relais","recycling:clothes":"yes","recycling_type":"container","website":"http://www.lerelais.org"}},"type":"Feature"},
	{"geometry":{"coordinates":[-2.217757,47.279441],"type":"Point"},"properties":{"osm_id":"4790246460","tag":{"amenity":"waste_basket"}},"type":"Feature"},
	{"geometry":{"coordinates":[-2.207608,47.281349],"type":"Point"},"properties":{"osm_id":"5276572198","tag":{"amenity":"recycling","operator":"CARENE","recycling:glass_bottles":"yes","recycling_type":"container"}},"type":"Feature"},
	{"geometry":{"coordinates":[-2.204207,47.280983],"type":"Point"},"properties":{"osm_id":"5277779388","tag":{"amenity":"recycling","operator":"CARENE","recycling:glass_bottles":"yes","recycling_type":"container"}},"type":"Feature"},
	{"geometry":{"coordinates":[-2.200181,47.299795],"type":"Point"},"properties":{"osm_id":"5578306704","tag":{"amenity":"recycling","recycling_type":"container"}},"type":"Feature"},
	{"geometry":{"coordinates":[-2.214183,47.281285],"type":"Point"},"properties":{"name":"Au Bonheur des Bennes","osm_id":"6376673388","tag":{"amenity":"recycling","charity":"yes","contact:city":"Saint-Nazaire","contact:facebook":"https://www.facebook.com/aubonheurdesbennes/","contact:phone":"+33 6 45 07 25 99","contact:postcode":"44600","contact:street":"rue Ren\u00c3\u00a9 Guillouzo","contact:website":"http://www.aubonheurdesbennes.fr","description":"L'association Au bonheur des bennes est \u00c3\u00a0 l'initiative de la cr\u00c3\u00a9ation d'une recyclerie \u00c3\u00a0 Saint-Nazaire et son agglo.","mapillary":"L0LoMUGoAlFRj_Y31pRgEg","opening_hours":"Tu-We Fr 09h30-13h00, Sa 10h00-17h00","operator":"Association Au Bonheur des Bennes","recycling:books":"yes","recycling:cds":"yes","recycling:clothes":"yes","recycling:furniture":"yes","recycling:toys":"yes","recycling_type":"centre","second_hand":"only","shop":"general","vending":"v\u00c3\u00a9lo;mobilier;textile;vaisselle;jouet;pu\u00c3\u00a9riculture;livre;CD;DVD;outillage;mat\u00c3\u00a9riel \u00c3\u00a9lectrique"}},"type":"Feature"},
	{"geometry":{"coordinates":[-2.24672,47.311548],"type":"Point"},"properties":{"name":"D\u00c3\u00a9ch\u00c3\u00a8terie de Cuneix","osm_id":"6960971933","tag":{"amenity":"recycling","opening_hours":"Oct-Mar Mo-Sa 09:00-18:00; Oct-Mar,Apr-Sep Su 09:00-12:15; Apr-Sep Mo-Sa 09:00-19:00","recycling_type":"centre"}},"type":"Feature"},
	{"geometry":{"coordinates":[-2.220042,47.28608],"type":"Point"},"properties":{"osm_id":"7660775917","tag":{"amenity":"recycling","recycling:glass":"yes","recycling_type":"container"}},"type":"Feature"},
	{"geometry":{"coordinates":[-2.22427,47.283367],"type":"Point"},"properties":{"osm_id":"7660776006","tag":{"amenity":"recycling","recycling_type":"container"}},"type":"Feature"},
	{"geometry":{"coordinates":[-2.242642,47.28123],"type":"Point"},"properties":{"osm_id":"7661760794","tag":{"amenity":"waste_basket"}},"type":"Feature"},
	{"geometry":{"coordinates":[-2.24251,47.281178],"type":"Point"},"properties":{"osm_id":"7661760795","tag":{"amenity":"waste_basket"}},"type":"Feature"},
	{"geometry":{"coordinates":[-2.239609,47.282039],"type":"Point"},"properties":{"osm_id":"7661760812","tag":{"amenity":"waste_basket"}},"type":"Feature"},
	{"geometry":{"coordinates":[-2.239327,47.282063],"type":"Point"},"properties":{"osm_id":"7661760813","tag":{"amenity":"waste_basket"}},"type":"Feature"},
	{"geometry":{"coordinates":[-2.234471,47.282998],"type":"Point"},"properties":{"osm_id":"7661760849","tag":{"amenity":"recycling","recycling_type":"container"}},"type":"Feature"},
	{"geometry":{"coordinates":[-2.234097,47.283521],"type":"Point"},"properties":{"osm_id":"7661760850","tag":{"amenity":"recycling","recycling_type":"container"}},"type":"Feature"},
	{"geometry":{"coordinates":[-2.232941,47.28335],"type":"Point"},"properties":{"osm_id":"7661760857","tag":{"amenity":"recycling","recycling_type":"container"}},"type":"Feature"},
	{"geometry":{"coordinates":[-2.231289,47.283079],"type":"Point"},"properties":{"osm_id":"7661760865","tag":{"amenity":"waste_basket"}},"type":"Feature"},
	{"geometry":{"coordinates":[-2.230844,47.283093],"type":"Point"},"properties":{"osm_id":"7661760866","tag":{"amenity":"waste_basket"}},"type":"Feature"},
	{"geometry":{"coordinates":[-2.2268,47.284454],"type":"Point"},"properties":{"osm_id":"7661826319","tag":{"amenity":"waste_basket"}},"type":"Feature"},
	{"geometry":{"coordinates":[-2.226672,47.284535],"type":"Point"},"properties":{"osm_id":"7661826320","tag":{"amenity":"waste_basket"}},"type":"Feature"},
	{"geometry":{"coordinates":[-2.225843,47.285046],"type":"Point"},"properties":{"osm_id":"7661826351","tag":{"amenity":"recycling","recycling_type":"container"}},"type":"Feature"},
	{"geometry":{"coordinates":[-2.20831,47.282553],"type":"Point"},"properties":{"osm_id":"7661859491","tag":{"amenity":"waste_basket"}},"type":"Feature"},
	{"geometry":{"coordinates":[-2.208455,47.282703],"type":"Point"},"properties":{"osm_id":"7661859492","tag":{"amenity":"waste_basket"}},"type":"Feature"},
	{"geometry":{"coordinates":[-2.204223,47.281554],"type":"Point"},"properties":{"osm_id":"7661859512","tag":{"amenity":"waste_basket"}},"type":"Feature"},
	{"geometry":{"coordinates":[-2.204018,47.281631],"type":"Point"},"properties":{"osm_id":"7661859513","tag":{"amenity":"waste_basket"}},"type":"Feature"},
	{"geometry":{"coordinates":[-2.219244,47.289173],"type":"Point"},"properties":{"osm_id":"7678282056","tag":{"amenity":"waste_basket"}},"type":"Feature"},
	{"geometry":{"coordinates":[-2.219078,47.28918],"type":"Point"},"properties":{"osm_id":"7678282057","tag":{"amenity":"waste_basket"}},"type":"Feature"},
	{"geometry":{"coordinates":[-2.220042,47.290772],"type":"Point"},"properties":{"osm_id":"7678282063","tag":{"amenity":"recycling","recycling_type":"container"}},"type":"Feature"},
	{"geometry":{"coordinates":[-2.219874,47.290864],"type":"Point"},"properties":{"osm_id":"7678282064","tag":{"amenity":"recycling","recycling_type":"container"}},"type":"Feature"},
	{"geometry":{"coordinates":[-2.214865,47.295903],"type":"Point"},"properties":{"osm_id":"7678282081","tag":{"amenity":"waste_basket"}},"type":"Feature"},
	{"geometry":{"coordinates":[-2.214649,47.295963],"type":"Point"},"properties":{"osm_id":"7678282082","tag":{"amenity":"waste_basket"}},"type":"Feature"},
	{"geometry":{"coordinates":[-2.210715,47.298029],"type":"Point"},"properties":{"osm_id":"7678296903","tag":{"amenity":"waste_basket"}},"type":"Feature"},
	{"geometry":{"coordinates":[-2.210553,47.298037],"type":"Point"},"properties":{"osm_id":"7678296904","tag":{"amenity":"waste_basket"}},"type":"Feature"},
	{"geometry":{"coordinates":[-2.208082,47.298889],"type":"Point"},"properties":{"osm_id":"7678296935","tag":{"amenity":"waste_basket"}},"type":"Feature"},
	{"geometry":{"coordinates":[-2.207082,47.298786],"type":"Point"},"properties":{"osm_id":"7678296943","tag":{"amenity":"waste_basket"}},"type":"Feature"},
	{"geometry":{"coordinates":[-2.202046,47.299397],"type":"Point"},"properties":{"osm_id":"7680857093","tag":{"amenity":"waste_basket"}},"type":"Feature"},
	{"geometry":{"coordinates":[-2.202085,47.299496],"type":"Point"},"properties":{"osm_id":"7680857094","tag":{"amenity":"waste_basket"}},"type":"Feature"},
	{"geometry":{"coordinates":[-2.201318,47.302021],"type":"Point"},"properties":{"osm_id":"7680857103","tag":{"amenity":"recycling","recycling_type":"container"}},"type":"Feature"},
	{"geometry":{"coordinates":[-2.206586,47.299125],"type":"Point"},"properties":{"osm_id":"7693031344","tag":{"amenity":"waste_basket"}},"type":"Feature"},
	{"geometry":{"coordinates":[-2.246551,47.283726],"type":"Point"},"properties":{"osm_id":"7703144050","tag":{"amenity":"waste_basket"}},"type":"Feature"},
	{"geometry":{"coordinates":[-2.246586,47.283635],"type":"Point"},"properties":{"osm_id":"7703144051","tag":{"amenity":"waste_basket"}},"type":"Feature"},
	{"geometry":{"coordinates":[-2.259595,47.284023],"type":"Point"},"properties":{"osm_id":"7703233815","tag":{"amenity":"waste_basket"}},"type":"Feature"},
	{"geometry":{"coordinates":[-2.259562,47.289245],"type":"Point"},"properties":{"osm_id":"7703233838","tag":{"amenity":"waste_basket"}},"type":"Feature"},
	{"geometry":{"coordinates":[-2.259701,47.289509],"type":"Point"},"properties":{"osm_id":"7703233842","tag":{"amenity":"waste_basket"}},"type":"Feature"},
	{"geometry":{"coordinates":[-2.26182,47.291261],"type":"Point"},"properties":{"osm_id":"7703233850","tag":{"amenity":"waste_basket"}},"type":"Feature"},
	{"geometry":{"coordinates":[-2.211274,47.282668],"type":"Point"},"properties":{"osm_id":"7728815405","tag":{"amenity":"recycling","recycling_type":"container"}},"type":"Feature"},
	{"geometry":{"coordinates":[-2.211014,47.28362],"type":"Point"},"properties":{"osm_id":"7728815406","tag":{"amenity":"recycling","recycling_type":"container"}},"type":"Feature"},
	{"geometry":{"coordinates":[-2.210668,47.284891],"type":"Point"},"properties":{"osm_id":"7728815407","tag":{"amenity":"recycling","recycling_type":"container"}},"type":"Feature"}
]
}
