{
"type": "FeatureCollection",
"features": [
	{"geometry":{"coordinates":[-2.215789,47.271613],"type":"Point"},"properties":{"osm_id":"2079215556","tag":{"amenity":"recycling","recycling:glass_bottles":"yes","recycling_type":"container"}},"type":"Feature"},
	{"geometry":{"coordinates":[-2.2116,47.278389],"type":"Point"},"properties":{"osm_id":"2079715522","tag":{"amenity":"recycling","recycling:glass_bottles":"yes","recycling_type":"container"}},"type":"Feature"},
	{"geometry":{"coordinates":[-2.225971,47.264715],"type":"Point"},"properties":{"osm_id":"2081096648","tag":{"amenity":"recycling","recycling:glass_bottles":"yes","recycling_type":"container"}},"type":"Feature"},
	{"geometry":{"coordinates":[-2.245017,47.271386],"type":"Point"},"properties":{"osm_id":"3066400449","tag":{"amenity":"recycling","recycling:cans":"no","recycling:clothes":"no","recycling:glass":"yes","recycling:paper":"no"}},"type":"Feature"},
	{"geometry":{"coordinates":[-2.26283,47.258543],"type":"Point"},"properties":{"osm_id":"3068085779","tag":{"amenity":"recycling","recycling:clothes":"yes"}},"type":"Feature"},
	{"geometry":{"coordinates":[-2.262814,47.258523],"type":"Point"},"properties":{"osm_id":"3068087258","tag":{"amenity":"recycling","recycling:glass_bottles":"yes"}},"type":"Feature"},
	{"geometry":{"coordinates":[-2.227966,47.274729],"type":"Point"},"properties":{"osm_id":"3123843717","tag":{"amenity":"recycling","recycling:glass_bottles":"yes","recycling_type":"container"}},"type":"Feature"},
	{"geometry":{"coordinates":[-2.240133,47.256201],"type":"Point"},"properties":{"osm_id":"4429348971","tag":{"amenity":"waste_basket"}},"type":"Feature"},
	{"geometry":{"coordinates":[-2.242446,47.256222],"type":"Point"},"properties":{"osm_id":"4429348978","tag":{"amenity":"waste_basket"}},"type":"Feature"},
	{"geometry":{"coordinates":[-2.227687,47.258096],"type":"Point"},"properties":{"osm_id":"4674980359","tag":{"amenity":"recycling","operator":"CARENE","recycling:glass_bottles":"yes","recycling_type":"container"}},"type":"Feature"},
	{"geometry":{"coordinates":[-2.217786,47.276344],"type":"Point"},"properties":{"osm_id":"4790511207","tag":{"amenity":"waste_basket"}},"type":"Feature"},
	{"geometry":{"coordinates":[-2.213065,47.278815],"type":"Point"},"properties":{"osm_id":"4794605141","tag":{"amenity":"recycling","recycling_type":"centre"}},"type":"Feature"},
	{"geometry":{"coordinates":[-2.213263,47.277865],"type":"Point"},"properties":{"osm_id":"4794605142","tag":{"amenity":"recycling","recycling_type":"centre"}},"type":"Feature"},
	{"geometry":{"coordinates":[-2.198915,47.272098],"type":"Point"},"properties":{"osm_id":"5181664831","tag":{"amenity":"waste_basket"}},"type":"Feature"},
	{"geometry":{"coordinates":[-2.203879,47.276999],"type":"Point"},"properties":{"osm_id":"5315847653","tag":{"amenity":"recycling","operator":"CARENE","recycling:glass_bottles":"yes","recycling_type":"container"}},"type":"Feature"},
	{"geometry":{"coordinates":[-2.21242,47.272671],"type":"Point"},"properties":{"osm_id":"5455279016","tag":{"amenity":"waste_basket"}},"type":"Feature"},
	{"geometry":{"coordinates":[-2.211275,47.271528],"type":"Point"},"properties":{"osm_id":"5455279621","tag":{"amenity":"recycling","location":"underground","recycling:glass_bottles":"yes","recycling:paper":"yes","recycling:plastic":"yes","recycling:plastic_bottles":"yes","recycling:waste":"yes","recycling_type":"container"}},"type":"Feature"},
	{"geometry":{"coordinates":[-2.210701,47.270941],"type":"Point"},"properties":{"osm_id":"5455279622","tag":{"amenity":"recycling","location":"underground","recycling:glass_bottles":"yes","recycling:paper":"yes","recycling:plastic":"yes","recycling:plastic_bottles":"yes","recycling:waste":"yes","recycling_type":"container"}},"type":"Feature"},
	{"geometry":{"coordinates":[-2.204382,47.277343],"type":"Point"},"properties":{"osm_id":"5570166389","tag":{"amenity":"waste_basket"}},"type":"Feature"},
	{"geometry":{"coordinates":[-2.204238,47.273496],"type":"Point"},"properties":{"osm_id":"5570166390","tag":{"amenity":"recycling","operator":"CARENE","recycling:glass_bottles":"yes","recycling_type":"container"}},"type":"Feature"},
	{"geometry":{"coordinates":[-2.250672,47.266628],"type":"Point"},"properties":{"osm_id":"5581882163","tag":{"amenity":"recycling","recycling_type":"container"}},"type":"Feature"},
	{"geometry":{"coordinates":[-2.203354,47.274652],"type":"Point"},"properties":{"osm_id":"5607657610","tag":{"amenity":"recycling","operator":"CARENE","recycling:glass_bottles":"yes","recycling_type":"container"}},"type":"Feature"},
	{"geometry":{"coordinates":[-2.278637,47.240204],"type":"Point"},"properties":{"osm_id":"5645482499","tag":{"amenity":"waste_basket"}},"type":"Feature"},
	{"geometry":{"coordinates":[-2.267404,47.241787],"type":"Point"},"properties":{"osm_id":"5733517304","tag":{"amenity":"recycling","recycling:cans":"yes","recycling:cardboard":"yes","recycling:glass_bottles":"yes","recycling:paper":"yes","recycling:plastic_bottles":"yes","recycling:waste":"yes","recycling_type":"container","wheelchair":"limited"}},"type":"Feature"},
	{"geometry":{"coordinates":[-2.269825,47.241268],"type":"Point"},"properties":{"osm_id":"5736199967","tag":{"amenity":"waste_basket","waste":"trash"}},"type":"Feature"},
	{"geometry":{"coordinates":[-2.270747,47.240185],"type":"Point"},"properties":{"osm_id":"5741804399","tag":{"amenity":"recycling","recycling:cans":"yes","recycling:cardboard":"yes","recycling:glass_bottles":"yes","recycling:paper":"yes","recycling:plastic_bottles":"yes","recycling:waste":"yes","recycling_type":"container","waste":"trash","wheelchair":"limited"}},"type":"Feature"},
	{"geometry":{"coordinates":[-2.270432,47.240122],"type":"Point"},"properties":{"osm_id":"5741804400","tag":{"amenity":"recycling","recycling:cans":"yes","recycling:cardboard":"yes","recycling:glass_bottles":"yes","recycling:paper":"yes","recycling:plastic_bottles":"yes","recycling:waste":"yes","recycling_type":"container","waste":"trash","wheelchair":"limited"}},"type":"Feature"},
	{"geometry":{"coordinates":[-2.279774,47.238238],"type":"Point"},"properties":{"osm_id":"5741826750","tag":{"amenity":"recycling","recycling:glass_bottles":"yes","recycling_type":"container","wheelchair":"yes"}},"type":"Feature"},
	{"geometry":{"coordinates":[-2.204646,47.27162],"type":"Point"},"properties":{"osm_id":"5834057562","tag":{"amenity":"waste_basket"}},"type":"Feature"},
	{"geometry":{"coordinates":[-2.205709,47.271303],"type":"Point"},"properties":{"osm_id":"5834058109","tag":{"amenity":"waste_basket"}},"type":"Feature"},
	{"geometry":{"coordinates":[-2.204491,47.277962],"type":"Point"},"properties":{"osm_id":"5838548199","tag":{"amenity":"waste_basket"}},"type":"Feature"},
	{"geometry":{"coordinates":[-2.232164,47.273004],"type":"Point"},"properties":{"osm_id":"6171410243","tag":{"amenity":"waste_basket"}},"type":"Feature"},
	{"geometry":{"coordinates":[-2.231239,47.272794],"type":"Point"},"properties":{"osm_id":"6171410253","tag":{"amenity":"waste_basket"}},"type":"Feature"},
	{"geometry":{"coordinates":[-2.231679,47.272847],"type":"Point"},"properties":{"osm_id":"6171412889","tag":{"amenity":"waste_basket"}},"type":"Feature"},
	{"geometry":{"coordinates":[-2.228916,47.272052],"type":"Point"},"properties":{"osm_id":"6172806023","tag":{"amenity":"waste_basket"}},"type":"Feature"},
	{"geometry":{"coordinates":[-2.230099,47.27239],"type":"Point"},"properties":{"osm_id":"6172806990","tag":{"amenity":"waste_basket"}},"type":"Feature"},
	{"geometry":{"coordinates":[-2.209118,47.276332],"type":"Point"},"properties":{"osm_id":"6190040409","tag":{"amenity":"recycling","recycling:glass":"yes","recycling:paper":"yes","recycling_type":"container"}},"type":"Feature"},
	{"geometry":{"coordinates":[-2.211174,47.276869],"type":"Point"},"properties":{"osm_id":"6190040410","tag":{"amenity":"recycling","recycling_type":"container"}},"type":"Feature"},
	{"geometry":{"coordinates":[-2.272907,47.259702],"type":"Point"},"properties":{"name":"Envie 44 Saint-Nazaire","osm_id":"6580334758","tag":{"amenity":"recycling","charity":"yes","contact:city":"Saint-Nazaire","contact:housenumber":"29","contact:phone":"+33 2 53 35 51 92","contact:postcode":"44600","contact:street":"rue Etoile du Matin, Zone Oc\u00c3\u00a9anis","contact:website":"http://envie-44.envie.org/","description":"Environ 200 appareils en stock. Propose un service de d\u00c3\u00a9pannage pour le gros \u00c3\u00a9lectrom\u00c3\u00a9nager, en atelier uniquement","image":"http://envie-44.envie.org/wp-content/uploads/sites/11/2016/11/P1000883.jpg","opening_hours":"Mo-Sa 10:00-12:00,14:00-19:00","operator":"SCOP Envie 44","recycling:small_electrical_appliances":"yes","second_hand":"only","service:repair":"yes","shop":"home appliance","vending":"lave-linge;r\u00c3\u00a9frig\u00c3\u00a9rateur;\u00c3\u00a9lectro-m\u00c3\u00a9nager"}},"type":"Feature"},
	{"geometry":{"coordinates":[-2.264513,47.249341],"type":"Point"},"properties":{"osm_id":"6611973875","tag":{"amenity":"recycling","recycling:glass_bottles":"yes"}},"type":"Feature"},
	{"geometry":{"coordinates":[-2.214972,47.269113],"type":"Point"},"properties":{"osm_id":"6612829926","tag":{"amenity":"recycling","recycling:glass_bottles":"yes"}},"type":"Feature"},
	{"geometry":{"coordinates":[-2.218756,47.272225],"type":"Point"},"properties":{"osm_id":"7264083766","tag":{"amenity":"waste_basket","waste":"dog_excrement"}},"type":"Feature"},
	{"geometry":{"coordinates":[-2.23619,47.258976],"type":"Point"},"properties":{"osm_id":"7660829815","tag":{"amenity":"recycling","recycling_type":"container"}},"type":"Feature"},
	{"geometry":{"coordinates":[-2.236547,47.259071],"type":"Point"},"properties":{"osm_id":"7660829816","tag":{"amenity":"recycling","recycling_type":"container"}},"type":"Feature"},
	{"geometry":{"coordinates":[-2.236157,47.257237],"type":"Point"},"properties":{"osm_id":"7660829836","tag":{"amenity":"recycling","recycling_type":"container"}},"type":"Feature"},
	{"geometry":{"coordinates":[-2.236957,47.257286],"type":"Point"},"properties":{"osm_id":"7660829837","tag":{"amenity":"recycling","recycling_type":"container"}},"type":"Feature"},
	{"geometry":{"coordinates":[-2.239082,47.258662],"type":"Point"},"properties":{"osm_id":"7660829845","tag":{"amenity":"recycling","recycling_type":"container"}},"type":"Feature"},
	{"geometry":{"coordinates":[-2.239609,47.258254],"type":"Point"},"properties":{"osm_id":"7660829846","tag":{"amenity":"recycling","recycling_type":"container"}},"type":"Feature"},
	{"geometry":{"coordinates":[-2.241065,47.258997],"type":"Point"},"properties":{"osm_id":"7660829849","tag":{"amenity":"recycling","recycling_type":"container"}},"type":"Feature"},
	{"geometry":{"coordinates":[-2.244177,47.258468],"type":"Point"},"properties":{"osm_id":"7660829861","tag":{"amenity":"waste_basket"}},"type":"Feature"},
	{"geometry":{"coordinates":[-2.243995,47.258477],"type":"Point"},"properties":{"osm_id":"7660829863","tag":{"amenity":"waste_basket"}},"type":"Feature"},
	{"geometry":{"coordinates":[-2.259276,47.25693],"type":"Point"},"properties":{"osm_id":"7660889693","tag":{"amenity":"waste_basket"}},"type":"Feature"},
	{"geometry":{"coordinates":[-2.259535,47.256945],"type":"Point"},"properties":{"osm_id":"7660889694","tag":{"amenity":"waste_basket"}},"type":"Feature"},
	{"geometry":{"coordinates":[-2.259649,47.252643],"type":"Point"},"properties":{"osm_id":"7660889716","tag":{"amenity":"waste_basket"}},"type":"Feature"},
	{"geometry":{"coordinates":[-2.259599,47.25273],"type":"Point"},"properties":{"osm_id":"7660889718","tag":{"amenity":"waste_basket"}},"type":"Feature"},
	{"geometry":{"coordinates":[-2.257618,47.256475],"type":"Point"},"properties":{"osm_id":"7660961374","tag":{"amenity":"waste_basket"}},"type":"Feature"},
	{"geometry":{"coordinates":[-2.266995,47.254454],"type":"Point"},"properties":{"osm_id":"7660964772","tag":{"amenity":"waste_basket"}},"type":"Feature"},
	{"geometry":{"coordinates":[-2.266937,47.254548],"type":"Point"},"properties":{"osm_id":"7660964774","tag":{"amenity":"waste_basket"}},"type":"Feature"},
	{"geometry":{"coordinates":[-2.267584,47.264991],"type":"Point"},"properties":{"osm_id":"7660975749","tag":{"amenity":"waste_basket"}},"type":"Feature"},
	{"geometry":{"coordinates":[-2.26349,47.264649],"type":"Point"},"properties":{"osm_id":"7660991491","tag":{"amenity":"waste_basket"}},"type":"Feature"},
	{"geometry":{"coordinates":[-2.25941,47.264496],"type":"Point"},"properties":{"osm_id":"7660991496","tag":{"amenity":"waste_basket"}},"type":"Feature"},
	{"geometry":{"coordinates":[-2.24288,47.278969],"type":"Point"},"properties":{"osm_id":"7661168387","tag":{"amenity":"waste_basket"}},"type":"Feature"},
	{"geometry":{"coordinates":[-2.242664,47.278864],"type":"Point"},"properties":{"osm_id":"7661168388","tag":{"amenity":"waste_basket"}},"type":"Feature"},
	{"geometry":{"coordinates":[-2.242847,47.278969],"type":"Point"},"properties":{"osm_id":"7661168389","tag":{"amenity":"recycling","recycling_type":"container"}},"type":"Feature"},
	{"geometry":{"coordinates":[-2.204896,47.278398],"type":"Point"},"properties":{"osm_id":"7661859521","tag":{"amenity":"waste_basket"}},"type":"Feature"},
	{"geometry":{"coordinates":[-2.205105,47.278245],"type":"Point"},"properties":{"osm_id":"7661859522","tag":{"amenity":"waste_basket"}},"type":"Feature"},
	{"geometry":{"coordinates":[-2.205792,47.275135],"type":"Point"},"properties":{"osm_id":"7661859545","tag":{"amenity":"waste_basket"}},"type":"Feature"},
	{"geometry":{"coordinates":[-2.207676,47.273458],"type":"Point"},"properties":{"osm_id":"7661859558","tag":{"amenity":"waste_basket"}},"type":"Feature"},
	{"geometry":{"coordinates":[-2.208114,47.273628],"type":"Point"},"properties":{"osm_id":"7661859560","tag":{"amenity":"waste_basket"}},"type":"Feature"},
	{"geometry":{"coordinates":[-2.214428,47.27421],"type":"Point"},"properties":{"osm_id":"7671670687","tag":{"amenity":"recycling","recycling_type":"container"}},"type":"Feature"},
	{"geometry":{"coordinates":[-2.228798,47.275109],"type":"Point"},"properties":{"osm_id":"7671723820","tag":{"amenity":"waste_basket"}},"type":"Feature"},
	{"geometry":{"coordinates":[-2.22837,47.274998],"type":"Point"},"properties":{"osm_id":"7671723821","tag":{"amenity":"waste_basket"}},"type":"Feature"},
	{"geometry":{"coordinates":[-2.231798,47.27385],"type":"Point"},"properties":{"osm_id":"7671723835","tag":{"amenity":"waste_basket"}},"type":"Feature"},
	{"geometry":{"coordinates":[-2.232308,47.272838],"type":"Point"},"properties":{"osm_id":"7671723840","tag":{"amenity":"waste_basket"}},"type":"Feature"},
	{"geometry":{"coordinates":[-2.232602,47.272632],"type":"Point"},"properties":{"osm_id":"7671723843","tag":{"amenity":"waste_basket"}},"type":"Feature"},
	{"geometry":{"coordinates":[-2.232817,47.272234],"type":"Point"},"properties":{"osm_id":"7671723847","tag":{"amenity":"waste_basket"}},"type":"Feature"},
	{"geometry":{"coordinates":[-2.232863,47.272127],"type":"Point"},"properties":{"osm_id":"7671723848","tag":{"amenity":"waste_basket"}},"type":"Feature"},
	{"geometry":{"coordinates":[-2.236308,47.2669],"type":"Point"},"properties":{"osm_id":"7671723918","tag":{"amenity":"waste_basket"}},"type":"Feature"},
	{"geometry":{"coordinates":[-2.237016,47.266571],"type":"Point"},"properties":{"osm_id":"7671723924","tag":{"amenity":"waste_basket"}},"type":"Feature"},
	{"geometry":{"coordinates":[-2.240001,47.265143],"type":"Point"},"properties":{"osm_id":"7671766916","tag":{"amenity":"waste_basket"}},"type":"Feature"},
	{"geometry":{"coordinates":[-2.240041,47.26456],"type":"Point"},"properties":{"osm_id":"7671766919","tag":{"amenity":"waste_basket"}},"type":"Feature"},
	{"geometry":{"coordinates":[-2.243827,47.263644],"type":"Point"},"properties":{"osm_id":"7671766938","tag":{"amenity":"waste_basket"}},"type":"Feature"},
	{"geometry":{"coordinates":[-2.244292,47.263421],"type":"Point"},"properties":{"osm_id":"7671766940","tag":{"amenity":"recycling","recycling_type":"container"}},"type":"Feature"},
	{"geometry":{"coordinates":[-2.247299,47.263802],"type":"Point"},"properties":{"osm_id":"7671766946","tag":{"amenity":"waste_basket"}},"type":"Feature"},
	{"geometry":{"coordinates":[-2.24986,47.262831],"type":"Point"},"properties":{"osm_id":"7671766953","tag":{"amenity":"recycling","recycling_type":"container"}},"type":"Feature"},
	{"geometry":{"coordinates":[-2.251552,47.262535],"type":"Point"},"properties":{"osm_id":"7671766958","tag":{"amenity":"waste_basket"}},"type":"Feature"},
	{"geometry":{"coordinates":[-2.255468,47.262061],"type":"Point"},"properties":{"osm_id":"7671927634","tag":{"amenity":"recycling","recycling_type":"container"}},"type":"Feature"},
	{"geometry":{"coordinates":[-2.256179,47.262525],"type":"Point"},"properties":{"osm_id":"7671927635","tag":{"amenity":"recycling","recycling_type":"container"}},"type":"Feature"},
	{"geometry":{"coordinates":[-2.265116,47.256645],"type":"Point"},"properties":{"osm_id":"7671929188","tag":{"amenity":"waste_basket"}},"type":"Feature"},
	{"geometry":{"coordinates":[-2.266876,47.258087],"type":"Point"},"properties":{"osm_id":"7672017702","tag":{"amenity":"waste_basket"}},"type":"Feature"},
	{"geometry":{"coordinates":[-2.266735,47.25802],"type":"Point"},"properties":{"osm_id":"7672017703","tag":{"amenity":"waste_basket"}},"type":"Feature"},
	{"geometry":{"coordinates":[-2.266625,47.258113],"type":"Point"},"properties":{"osm_id":"7672017704","tag":{"amenity":"waste_basket"}},"type":"Feature"},
	{"geometry":{"coordinates":[-2.266756,47.258186],"type":"Point"},"properties":{"osm_id":"7672017705","tag":{"amenity":"waste_basket"}},"type":"Feature"},
	{"geometry":{"coordinates":[-2.270931,47.256026],"type":"Point"},"properties":{"osm_id":"7672017724","tag":{"amenity":"waste_basket"}},"type":"Feature"},
	{"geometry":{"coordinates":[-2.270528,47.256067],"type":"Point"},"properties":{"osm_id":"7672017725","tag":{"amenity":"waste_basket"}},"type":"Feature"},
	{"geometry":{"coordinates":[-2.273755,47.253763],"type":"Point"},"properties":{"osm_id":"7672017751","tag":{"amenity":"waste_basket"}},"type":"Feature"},
	{"geometry":{"coordinates":[-2.273624,47.253104],"type":"Point"},"properties":{"osm_id":"7672017755","tag":{"amenity":"waste_basket"}},"type":"Feature"},
	{"geometry":{"coordinates":[-2.274739,47.250039],"type":"Point"},"properties":{"osm_id":"7672017766","tag":{"amenity":"waste_basket"}},"type":"Feature"},
	{"geometry":{"coordinates":[-2.274946,47.249294],"type":"Point"},"properties":{"osm_id":"7672017774","tag":{"amenity":"waste_basket"}},"type":"Feature"},
	{"geometry":{"coordinates":[-2.283944,47.242381],"type":"Point"},"properties":{"osm_id":"7672044126","tag":{"amenity":"waste_basket"}},"type":"Feature"},
	{"geometry":{"coordinates":[-2.284168,47.242494],"type":"Point"},"properties":{"osm_id":"7672044127","tag":{"amenity":"waste_basket"}},"type":"Feature"},
	{"geometry":{"coordinates":[-2.2645,47.256377],"type":"Point"},"properties":{"osm_id":"7677963913","tag":{"amenity":"waste_basket"}},"type":"Feature"},
	{"geometry":{"coordinates":[-2.248484,47.26149],"type":"Point"},"properties":{"osm_id":"7677963933","tag":{"amenity":"recycling","recycling_type":"container"}},"type":"Feature"},
	{"geometry":{"coordinates":[-2.266107,47.242575],"type":"Point"},"properties":{"osm_id":"7678039281","tag":{"amenity":"waste_basket"}},"type":"Feature"},
	{"geometry":{"coordinates":[-2.265907,47.242553],"type":"Point"},"properties":{"osm_id":"7678039282","tag":{"amenity":"waste_basket"}},"type":"Feature"},
	{"geometry":{"coordinates":[-2.26436,47.249567],"type":"Point"},"properties":{"osm_id":"7678061414","tag":{"amenity":"waste_basket"}},"type":"Feature"},
	{"geometry":{"coordinates":[-2.264135,47.24983],"type":"Point"},"properties":{"osm_id":"7678061418","tag":{"amenity":"waste_basket"}},"type":"Feature"},
	{"geometry":{"coordinates":[-2.233589,47.259098],"type":"Point"},"properties":{"osm_id":"7678114900","tag":{"amenity":"waste_basket"}},"type":"Feature"},
	{"geometry":{"coordinates":[-2.228267,47.258593],"type":"Point"},"properties":{"osm_id":"7678114922","tag":{"amenity":"waste_basket"}},"type":"Feature"},
	{"geometry":{"coordinates":[-2.228354,47.258484],"type":"Point"},"properties":{"osm_id":"7678114923","tag":{"amenity":"waste_basket"}},"type":"Feature"},
	{"geometry":{"coordinates":[-2.224486,47.258243],"type":"Point"},"properties":{"osm_id":"7678114932","tag":{"amenity":"waste_basket"}},"type":"Feature"},
	{"geometry":{"coordinates":[-2.224202,47.258438],"type":"Point"},"properties":{"osm_id":"7678114935","tag":{"amenity":"waste_basket"}},"type":"Feature"},
	{"geometry":{"coordinates":[-2.224599,47.261315],"type":"Point"},"properties":{"osm_id":"7678114940","tag":{"amenity":"waste_basket"}},"type":"Feature"},
	{"geometry":{"coordinates":[-2.221389,47.268309],"type":"Point"},"properties":{"osm_id":"7678114963","tag":{"amenity":"waste_basket"}},"type":"Feature"},
	{"geometry":{"coordinates":[-2.216455,47.270378],"type":"Point"},"properties":{"osm_id":"7678144642","tag":{"amenity":"waste_basket"}},"type":"Feature"},
	{"geometry":{"coordinates":[-2.212096,47.272402],"type":"Point"},"properties":{"osm_id":"7678168886","tag":{"amenity":"recycling","recycling_type":"container"}},"type":"Feature"},
	{"geometry":{"coordinates":[-2.21145,47.272643],"type":"Point"},"properties":{"osm_id":"7678168895","tag":{"amenity":"waste_basket"}},"type":"Feature"},
	{"geometry":{"coordinates":[-2.211371,47.272428],"type":"Point"},"properties":{"osm_id":"7678168896","tag":{"amenity":"waste_basket"}},"type":"Feature"},
	{"geometry":{"coordinates":[-2.217376,47.277366],"type":"Point"},"properties":{"osm_id":"7678168911","tag":{"amenity":"waste_basket"}},"type":"Feature"},
	{"geometry":{"coordinates":[-2.217214,47.277369],"type":"Point"},"properties":{"osm_id":"7678168912","tag":{"amenity":"waste_basket"}},"type":"Feature"},
	{"geometry":{"coordinates":[-2.232421,47.267858],"type":"Point"},"properties":{"osm_id":"7680956758","tag":{"amenity":"recycling","operator":"CARENE","recycling:glass_bottles":"yes","recycling_type":"container"}},"type":"Feature"},
	{"geometry":{"coordinates":[-2.213227,47.278823],"type":"Point"},"properties":{"osm_id":"7692651389","tag":{"amenity":"recycling","recycling_type":"container"}},"type":"Feature"},
	{"geometry":{"coordinates":[-2.203434,47.273026],"type":"Point"},"properties":{"osm_id":"7702925360","tag":{"amenity":"waste_basket"}},"type":"Feature"},
	{"geometry":{"coordinates":[-2.205909,47.277957],"type":"Point"},"properties":{"osm_id":"7702925378","tag":{"amenity":"waste_basket"}},"type":"Feature"},
	{"geometry":{"coordinates":[-2.210186,47.276461],"type":"Point"},"properties":{"osm_id":"7703024337","tag":{"amenity":"waste_basket"}},"type":"Feature"},
	{"geometry":{"coordinates":[-2.219302,47.274956],"type":"Point"},"properties":{"osm_id":"7703126381","tag":{"amenity":"waste_basket"}},"type":"Feature"},
	{"geometry":{"coordinates":[-2.219603,47.275184],"type":"Point"},"properties":{"osm_id":"7703126384","tag":{"amenity":"waste_basket"}},"type":"Feature"},
	{"geometry":{"coordinates":[-2.225353,47.276847],"type":"Point"},"properties":{"osm_id":"7703144006","tag":{"amenity":"waste_basket"}},"type":"Feature"},
	{"geometry":{"coordinates":[-2.239901,47.27848],"type":"Point"},"properties":{"osm_id":"7703144026","tag":{"amenity":"waste_basket"}},"type":"Feature"},
	{"geometry":{"coordinates":[-2.240125,47.278455],"type":"Point"},"properties":{"osm_id":"7703144028","tag":{"amenity":"waste_basket"}},"type":"Feature"},
	{"geometry":{"coordinates":[-2.205829,47.277799],"type":"Point"},"properties":{"osm_id":"7703793726","tag":{"amenity":"waste_basket"}},"type":"Feature"},
	{"geometry":{"coordinates":[-2.255858,47.266019],"type":"Point"},"properties":{"osm_id":"7778376390","tag":{"amenity":"waste_basket"}},"type":"Feature"},
	{"geometry":{"coordinates":[-2.255603,47.266034],"type":"Point"},"properties":{"osm_id":"7778376401","tag":{"amenity":"waste_basket"}},"type":"Feature"},
	{"geometry":{"coordinates":[-2.258459,47.264018],"type":"Point"},"properties":{"osm_id":"7778457033","tag":{"amenity":"waste_basket"}},"type":"Feature"},
	{"geometry":{"coordinates":[-2.258602,47.264083],"type":"Point"},"properties":{"osm_id":"7778457034","tag":{"amenity":"waste_basket"}},"type":"Feature"},
	{"geometry":{"coordinates":[-2.262086,47.261607],"type":"Point"},"properties":{"osm_id":"7778457041","tag":{"amenity":"waste_basket"}},"type":"Feature"},
	{"geometry":{"coordinates":[-2.261943,47.261543],"type":"Point"},"properties":{"osm_id":"7778457043","tag":{"amenity":"waste_basket"}},"type":"Feature"}
]
}
