{
"type": "FeatureCollection",
"features": [
	{"geometry":{"coordinates":[77.190798,28.732346],"type":"Point"},"properties":{"osm_id":"8457599488","tag":{"amenity":"recycling","operator":"Kabaddi Ram milan maurya","recycling:glass_bottles":"yes","recycling:plastic":"yes","recycling_type":"container"}},"type":"Feature"},
	{"geometry":{"coordinates":[77.186068,28.762453],"type":"Point"},"properties":{"osm_id":"8457645380","tag":{"amenity":"recycling","contact:phone":"+919599319576","operator":"Vijay Kabadi","recycling:glass_bottles":"yes","recycling:paper":"yes","recycling:plastic":"yes","recycling_type":"container"}},"type":"Feature"},
	{"geometry":{"coordinates":[77.207003,28.700309],"type":"Point"},"properties":{"osm_id":"8458397474","tag":{"amenity":"recycling","contact:phone":"+919311269222","operator":"Babu Kabadi","recycling:glass_bottles":"yes","recycling:paper":"yes","recycling:plastic":"yes","recycling_type":"container"}},"type":"Feature"},
	{"geometry":{"coordinates":[77.228037,28.71454],"type":"Point"},"properties":{"osm_id":"8458707446","tag":{"amenity":"recycling","contact:phone":"+919229426721","operator":"Billu Kabadi","recycling:glass_bottles":"yes","recycling:plastic":"yes","recycling_type":"container"}},"type":"Feature"},
	{"geometry":{"coordinates":[77.185958,28.697492],"type":"Point"},"properties":{"osm_id":"8458905264","tag":{"amenity":"recycling","contact:phone":"+917827011614","operator":"Firoj Kabadi","recycling:glass_bottles":"yes","recycling:paper":"yes","recycling:plastic":"yes","recycling_type":"container"}},"type":"Feature"}
]
}
