{
"type": "FeatureCollection",
"features": [
	{"geometry":{"coordinates":[77.218759,28.530282],"type":"Point"},"properties":{"osm_id":"2726665528","tag":{"amenity":"waste_basket"}},"type":"Feature"},
	{"geometry":{"coordinates":[77.215934,28.519822],"type":"Point"},"properties":{"osm_id":"5483331197","tag":{"amenity":"waste_disposal"}},"type":"Feature"},
	{"geometry":{"coordinates":[77.21068,28.519015],"type":"Point"},"properties":{"osm_id":"5483331221","tag":{"amenity":"waste_disposal"}},"type":"Feature"},
	{"geometry":{"coordinates":[77.229319,28.514886],"type":"Point"},"properties":{"osm_id":"5561734264","tag":{"amenity":"waste_disposal"}},"type":"Feature"},
	{"geometry":{"coordinates":[77.204196,28.531845],"type":"Point"},"properties":{"osm_id":"5586450404","tag":{"amenity":"waste_disposal"}},"type":"Feature"},
	{"geometry":{"coordinates":[77.179507,28.509611],"type":"Point"},"properties":{"osm_id":"5606766736","tag":{"amenity":"waste_disposal"}},"type":"Feature"},
	{"geometry":{"coordinates":[77.209851,28.528028],"type":"Point"},"properties":{"osm_id":"5630006581","tag":{"amenity":"waste_disposal"}},"type":"Feature"},
	{"geometry":{"coordinates":[77.212869,28.521057],"type":"Point"},"properties":{"osm_id":"5799043065","tag":{"amenity":"waste_disposal"}},"type":"Feature"},
	{"geometry":{"coordinates":[77.214071,28.522652],"type":"Point"},"properties":{"osm_id":"5799044044","tag":{"amenity":"waste_disposal"}},"type":"Feature"},
	{"geometry":{"coordinates":[77.214071,28.522652],"type":"Point"},"properties":{"osm_id":"5799057975","tag":{"amenity":"waste_disposal"}},"type":"Feature"},
	{"geometry":{"coordinates":[77.212869,28.521057],"type":"Point"},"properties":{"osm_id":"5799060132","tag":{"amenity":"waste_disposal"}},"type":"Feature"},
	{"geometry":{"coordinates":[77.207108,28.524198],"type":"Point"},"properties":{"osm_id":"5804017980","tag":{"amenity":"waste_disposal"}},"type":"Feature"},
	{"geometry":{"coordinates":[77.21717,28.53091],"type":"Point"},"properties":{"name":"Wajid","osm_id":"5960737890","tag":{"amenity":"recycling"}},"type":"Feature"},
	{"geometry":{"coordinates":[77.222564,28.522024],"type":"Point"},"properties":{"osm_id":"5964264470","tag":{"amenity":"waste_disposal"}},"type":"Feature"},
	{"geometry":{"coordinates":[77.229492,28.523559],"type":"Point"},"properties":{"osm_id":"6265508688","tag":{"amenity":"waste_disposal"}},"type":"Feature"},
	{"geometry":{"coordinates":[77.197086,28.515396],"type":"Point"},"properties":{"osm_id":"6286535779","tag":{"amenity":"waste_basket"}},"type":"Feature"},
	{"geometry":{"coordinates":[77.191073,28.529334],"type":"Point"},"properties":{"osm_id":"6411010197","tag":{"amenity":"waste_basket"}},"type":"Feature"},
	{"geometry":{"coordinates":[77.223323,28.516464],"type":"Point"},"properties":{"osm_id":"6490310051","tag":{"amenity":"waste_disposal"}},"type":"Feature"},
	{"geometry":{"coordinates":[77.235048,28.523139],"type":"Point"},"properties":{"osm_id":"6490310052","tag":{"amenity":"waste_disposal"}},"type":"Feature"},
	{"geometry":{"coordinates":[77.20537,28.515192],"type":"Point"},"properties":{"osm_id":"6720753129","tag":{"amenity":"waste_disposal"}},"type":"Feature"},
	{"geometry":{"coordinates":[77.207621,28.519298],"type":"Point"},"properties":{"osm_id":"6812482598","tag":{"amenity":"waste_basket"}},"type":"Feature"},
	{"geometry":{"coordinates":[77.16837,28.522222],"type":"Point"},"properties":{"osm_id":"6833896542","tag":{"amenity":"waste_disposal"}},"type":"Feature"},
	{"geometry":{"coordinates":[77.18064,28.522936],"type":"Point"},"properties":{"osm_id":"6834036200","tag":{"amenity":"waste_disposal"}},"type":"Feature"},
	{"geometry":{"coordinates":[77.189941,28.524653],"type":"Point"},"properties":{"osm_id":"7013728993","tag":{"amenity":"waste_basket","waste":"trash"}},"type":"Feature"},
	{"geometry":{"coordinates":[77.190112,28.527148],"type":"Point"},"properties":{"osm_id":"7013728997","tag":{"amenity":"waste_basket","waste":"trash"}},"type":"Feature"},
	{"geometry":{"coordinates":[77.189923,28.525826],"type":"Point"},"properties":{"osm_id":"7013729003","tag":{"amenity":"waste_basket","waste":"trash"}},"type":"Feature"},
	{"geometry":{"coordinates":[77.189909,28.525196],"type":"Point"},"properties":{"osm_id":"7013729008","tag":{"amenity":"waste_basket","waste":"trash"}},"type":"Feature"},
	{"geometry":{"coordinates":[77.189948,28.526394],"type":"Point"},"properties":{"osm_id":"7013729010","tag":{"amenity":"waste_basket","waste":"trash"}},"type":"Feature"},
	{"geometry":{"coordinates":[77.179717,28.516942],"type":"Point"},"properties":{"name":"fulchan scrap","osm_id":"8284509723","tag":{"addr:city":"Delhi","addr:street":"ward no. 8, jain mandir dada badi","amenity":"recycling","contact:phone":"8448012691","recycling:waste":"yes","recycling_type":"container"}},"type":"Feature"},
	{"geometry":{"coordinates":[77.217831,28.533173],"type":"Point"},"properties":{"osm_id":"8339612102","tag":{"amenity":"recycling","operator":"Malik Recycler","recycling:glass_bottles":"yes","recycling:plastic":"yes","recycling:plastic_bottles":"yes","recycling_type":"container"}},"type":"Feature"},
	{"geometry":{"coordinates":[77.218531,28.532861],"type":"Point"},"properties":{"osm_id":"8339647415","tag":{"amenity":"recycling","recycling:glass_bottles":"yes","recycling:paper":"yes","recycling:plastic":"yes","recycling:plastic_bottles":"yes","recycling_type":"container"}},"type":"Feature"},
	{"geometry":{"coordinates":[77.198764,28.505545],"type":"Point"},"properties":{"osm_id":"8426912850","tag":{"addr:street":"370, Neb Sarai","amenity":"recycling","operator":"Monu","phone":"9811697464","recycling:glass_bottles":"yes","recycling:paper":"yes","recycling:plastic_bottles":"yes","recycling_type":"container"}},"type":"Feature"}
]
}
