{
"type": "FeatureCollection",
"features": [
	{"geometry":{"coordinates":[39.788106,64.554953],"type":"Point"},"properties":{"osm_id":"1590768611","tag":{"amenity":"waste_disposal"}},"type":"Feature"},
	{"geometry":{"coordinates":[39.769065,64.553149],"type":"Point"},"properties":{"osm_id":"1945538589","tag":{"amenity":"recycling"}},"type":"Feature"},
	{"geometry":{"coordinates":[39.769764,64.55437],"type":"Point"},"properties":{"osm_id":"1945538882","tag":{"amenity":"recycling"}},"type":"Feature"},
	{"geometry":{"coordinates":[39.778223,64.55816],"type":"Point"},"properties":{"osm_id":"3255428178","tag":{"amenity":"waste_disposal"}},"type":"Feature"},
	{"geometry":{"coordinates":[39.786992,64.55596],"type":"Point"},"properties":{"osm_id":"3255541680","tag":{"amenity":"waste_disposal"}},"type":"Feature"},
	{"geometry":{"coordinates":[39.8009,64.563208],"type":"Point"},"properties":{"osm_id":"3255555696","tag":{"amenity":"waste_disposal"}},"type":"Feature"},
	{"geometry":{"coordinates":[39.795611,64.553149],"type":"Point"},"properties":{"osm_id":"3256630042","tag":{"amenity":"waste_disposal"}},"type":"Feature"},
	{"geometry":{"coordinates":[39.798733,64.553804],"type":"Point"},"properties":{"osm_id":"3256630043","tag":{"amenity":"recycling"}},"type":"Feature"},
	{"geometry":{"coordinates":[39.781278,64.554139],"type":"Point"},"properties":{"osm_id":"3256649065","tag":{"amenity":"recycling"}},"type":"Feature"},
	{"geometry":{"coordinates":[39.803522,64.558113],"type":"Point"},"properties":{"osm_id":"3371930692","tag":{"amenity":"recycling"}},"type":"Feature"},
	{"geometry":{"coordinates":[39.80663,64.557553],"type":"Point"},"properties":{"osm_id":"3387652085","tag":{"amenity":"recycling","recycling_type":"container"}},"type":"Feature"},
	{"geometry":{"coordinates":[39.762062,64.548931],"type":"Point"},"properties":{"osm_id":"3505043427","tag":{"amenity":"recycling","recycling:cans":"yes","recycling:clothes":"yes","recycling:glass":"yes","recycling:paper":"yes"}},"type":"Feature"},
	{"geometry":{"coordinates":[39.79599,64.558099],"type":"Point"},"properties":{"osm_id":"3513605798","tag":{"amenity":"waste_disposal"}},"type":"Feature"},
	{"geometry":{"coordinates":[39.787332,64.562149],"type":"Point"},"properties":{"osm_id":"3513605799","tag":{"amenity":"waste_disposal"}},"type":"Feature"},
	{"geometry":{"coordinates":[39.814043,64.557173],"type":"Point"},"properties":{"osm_id":"3519805081","tag":{"amenity":"waste_disposal"}},"type":"Feature"},
	{"geometry":{"coordinates":[39.75792,64.549789],"type":"Point"},"properties":{"osm_id":"3522402059","tag":{"amenity":"recycling","recycling:cans":"yes","recycling:clothes":"yes","recycling:glass":"yes","recycling:paper":"yes"}},"type":"Feature"},
	{"geometry":{"coordinates":[39.753272,64.548717],"type":"Point"},"properties":{"osm_id":"3523704810","tag":{"amenity":"recycling"}},"type":"Feature"},
	{"geometry":{"coordinates":[39.752275,64.551191],"type":"Point"},"properties":{"osm_id":"3523852554","tag":{"amenity":"recycling","recycling:cans":"yes","recycling:clothes":"yes","recycling:glass":"yes","recycling:paper":"yes"}},"type":"Feature"},
	{"geometry":{"coordinates":[39.81325,64.558159],"type":"Point"},"properties":{"osm_id":"3602069422","tag":{"amenity":"waste_disposal"}},"type":"Feature"},
	{"geometry":{"coordinates":[39.803982,64.557112],"type":"Point"},"properties":{"osm_id":"4330858603","tag":{"amenity":"recycling","recycling_type":"container"}},"type":"Feature"},
	{"geometry":{"coordinates":[39.770606,64.553167],"type":"Point"},"properties":{"osm_id":"5704960476","tag":{"amenity":"waste_basket","waste":"trash"}},"type":"Feature"},
	{"geometry":{"coordinates":[39.770386,64.553418],"type":"Point"},"properties":{"osm_id":"5704960477","tag":{"amenity":"waste_basket","waste":"trash"}},"type":"Feature"},
	{"geometry":{"coordinates":[39.770162,64.553676],"type":"Point"},"properties":{"osm_id":"5704960478","tag":{"amenity":"waste_basket","waste":"trash"}},"type":"Feature"},
	{"geometry":{"coordinates":[39.769915,64.553971],"type":"Point"},"properties":{"osm_id":"5704960479","tag":{"amenity":"waste_basket","waste":"trash"}},"type":"Feature"},
	{"geometry":{"coordinates":[39.793527,64.556205],"type":"Point"},"properties":{"name":"\u00d0\u00ad\u00d0\u00ba\u00d0\u00be\u00d0\u00b1\u00d0\u00be\u00d0\u00ba\u00d1\u0081","osm_id":"6060911259","tag":{"amenity":"recycling","operator":"\u00d0\u009c\u00d0\u00a3\u00d0\u009f \u00c2\u00ab\u00d0\u0096\u00d0\u009a\u00d0\u009a\u00c2\u00bb \u00d0\u00a1\u00d0\u00b5\u00d0\u00b2\u00d0\u00b5\u00d1\u0080\u00d0\u00be\u00d0\u00b4\u00d0\u00b2\u00d0\u00b8\u00d0\u00bd\u00d1\u0081\u00d0\u00ba\u00d0\u00b0","recycling:batteries":"yes","recycling:fluorescent_tubes":"yes","recycling:low_energy_bulbs":"yes","recycling_type":"container"}},"type":"Feature"},
	{"geometry":{"coordinates":[39.813101,64.559272],"type":"Point"},"properties":{"name":"\u00d0\u00ad\u00d0\u00ba\u00d0\u00be\u00d0\u00b1\u00d0\u00be\u00d0\u00ba\u00d1\u0081","osm_id":"6060911268","tag":{"amenity":"recycling","operator":"\u00d0\u00a1\u00d0\u009c\u00d0\u00a3\u00d0\u009f \u00c2\u00ab\u00d0\u0096\u00d0\u009a\u00d0\u00a5\u00c2\u00bb","recycling:batteries":"yes","recycling:fluorescent_tubes":"yes","recycling:low_energy_bulbs":"yes","recycling_type":"container"}},"type":"Feature"},
	{"geometry":{"coordinates":[39.764285,64.548641],"type":"Point"},"properties":{"name":"\u00d0\u00ad\u00d0\u00ba\u00d0\u00be\u00d0\u00b1\u00d0\u00be\u00d0\u00ba\u00d1\u0081","osm_id":"6060911270","tag":{"amenity":"recycling","operator":"\u00d0\u00a1\u00d0\u009c\u00d0\u00a3\u00d0\u009f \u00c2\u00ab\u00d0\u0096\u00d0\u009a\u00d0\u00a5\u00c2\u00bb","recycling:batteries":"yes","recycling:fluorescent_tubes":"yes","recycling:low_energy_bulbs":"yes","recycling_type":"container"}},"type":"Feature"},
	{"geometry":{"coordinates":[39.810388,64.554189],"type":"Point"},"properties":{"name":"\u00d0\u00ad\u00d0\u00ba\u00d0\u00be\u00d0\u00b1\u00d0\u00be\u00d0\u00ba\u00d1\u0081","osm_id":"6060911271","tag":{"amenity":"recycling","operator":"\u00d0\u00a1\u00d0\u009c\u00d0\u00a3\u00d0\u009f \u00c2\u00ab\u00d0\u0096\u00d0\u009a\u00d0\u00a5\u00c2\u00bb","recycling:batteries":"yes","recycling:fluorescent_tubes":"yes","recycling:low_energy_bulbs":"yes","recycling_type":"container"}},"type":"Feature"},
	{"geometry":{"coordinates":[39.77152,64.548561],"type":"Point"},"properties":{"name":"\u00d0\u00ad\u00d0\u00ba\u00d0\u00be\u00d0\u00b1\u00d0\u00be\u00d0\u00ba\u00d1\u0081","osm_id":"6060911273","tag":{"amenity":"recycling","operator":"\u00d0\u009c\u00d0\u009f\u00d0\u0096\u00d0\u00a0\u00d0\u00ad\u00d0\u009f \u00d0\u00a1\u00d0\u00b5\u00d0\u00b2\u00d0\u00b5\u00d1\u0080\u00d0\u00be\u00d0\u00b4\u00d0\u00b2\u00d0\u00b8\u00d0\u00bd\u00d1\u0081\u00d0\u00ba\u00d0\u00b0","recycling:batteries":"yes","recycling:fluorescent_tubes":"yes","recycling:low_energy_bulbs":"yes","recycling_type":"container"}},"type":"Feature"},
	{"geometry":{"coordinates":[39.780861,64.551029],"type":"Point"},"properties":{"name":"\u00d0\u00ad\u00d0\u00ba\u00d0\u00be\u00d0\u00b1\u00d0\u00be\u00d0\u00ba\u00d1\u0081","osm_id":"6060911274","tag":{"amenity":"recycling","operator":"\u00d0\u009c\u00d0\u009f\u00d0\u0096\u00d0\u00a0\u00d0\u00ad\u00d0\u009f \u00d0\u00a1\u00d0\u00b5\u00d0\u00b2\u00d0\u00b5\u00d1\u0080\u00d0\u00be\u00d0\u00b4\u00d0\u00b2\u00d0\u00b8\u00d0\u00bd\u00d1\u0081\u00d0\u00ba\u00d0\u00b0","recycling:batteries":"yes","recycling:fluorescent_tubes":"yes","recycling:low_energy_bulbs":"yes","recycling_type":"container"}},"type":"Feature"},
	{"geometry":{"coordinates":[39.784985,64.560979],"type":"Point"},"properties":{"name":"\u00d0\u00ad\u00d0\u00ba\u00d0\u00be\u00d0\u00b1\u00d0\u00be\u00d0\u00ba\u00d1\u0081","osm_id":"6060911275","tag":{"amenity":"recycling","operator":"\u00d0\u009c\u00d0\u009f\u00d0\u0096\u00d0\u00a0\u00d0\u00ad\u00d0\u009f \u00d0\u00a1\u00d0\u00b5\u00d0\u00b2\u00d0\u00b5\u00d1\u0080\u00d0\u00be\u00d0\u00b4\u00d0\u00b2\u00d0\u00b8\u00d0\u00bd\u00d1\u0081\u00d0\u00ba\u00d0\u00b0","recycling:batteries":"yes","recycling:fluorescent_tubes":"yes","recycling:low_energy_bulbs":"yes","recycling_type":"container"}},"type":"Feature"},
	{"geometry":{"coordinates":[39.773347,64.557317],"type":"Point"},"properties":{"osm_id":"7640191568","tag":{"amenity":"waste_disposal"}},"type":"Feature"},
	{"geometry":{"coordinates":[39.795228,64.559628],"type":"Point"},"properties":{"osm_id":"7726141342","tag":{"amenity":"waste_disposal"}},"type":"Feature"},
	{"geometry":{"coordinates":[39.786926,64.560791],"type":"Point"},"properties":{"osm_id":"7778310343","tag":{"amenity":"waste_disposal"}},"type":"Feature"},
	{"geometry":{"coordinates":[39.779543,64.548864],"type":"Point"},"properties":{"osm_id":"7784981245","tag":{"amenity":"waste_disposal"}},"type":"Feature"},
	{"geometry":{"coordinates":[39.779358,64.548943],"type":"Point"},"properties":{"osm_id":"7784981246","tag":{"amenity":"waste_disposal"}},"type":"Feature"},
	{"geometry":{"coordinates":[39.775444,64.557676],"type":"Point"},"properties":{"osm_id":"7817566005","tag":{"amenity":"waste_disposal"}},"type":"Feature"},
	{"geometry":{"coordinates":[39.79093,64.555441],"type":"Point"},"properties":{"osm_id":"7835475900","tag":{"amenity":"waste_disposal"}},"type":"Feature"},
	{"geometry":{"coordinates":[39.790219,64.55974],"type":"Point"},"properties":{"osm_id":"7837051909","tag":{"amenity":"waste_disposal"}},"type":"Feature"},
	{"geometry":{"coordinates":[39.790986,64.560802],"type":"Point"},"properties":{"osm_id":"7923758783","tag":{"amenity":"waste_disposal"}},"type":"Feature"},
	{"geometry":{"coordinates":[39.750095,64.550789],"type":"Point"},"properties":{"osm_id":"8173359436","tag":{"amenity":"waste_disposal"}},"type":"Feature"},
	{"geometry":{"coordinates":[39.747785,64.549926],"type":"Point"},"properties":{"osm_id":"8972800073","tag":{"amenity":"waste_basket"}},"type":"Feature"},
	{"geometry":{"coordinates":[39.747696,64.550043],"type":"Point"},"properties":{"osm_id":"8972800076","tag":{"amenity":"waste_basket"}},"type":"Feature"},
	{"geometry":{"coordinates":[39.748339,64.550128],"type":"Point"},"properties":{"osm_id":"8972800083","tag":{"amenity":"waste_basket"}},"type":"Feature"},
	{"geometry":{"coordinates":[39.748417,64.550013],"type":"Point"},"properties":{"osm_id":"8972800102","tag":{"amenity":"waste_basket"}},"type":"Feature"},
	{"geometry":{"coordinates":[39.792626,64.559924],"type":"Point"},"properties":{"osm_id":"8990528806","tag":{"amenity":"waste_disposal"}},"type":"Feature"},
	{"geometry":{"coordinates":[39.79111,64.561436],"type":"Point"},"properties":{"osm_id":"8990549320","tag":{"amenity":"waste_disposal"}},"type":"Feature"},
	{"geometry":{"coordinates":[39.786035,64.559044],"type":"Point"},"properties":{"osm_id":"8990570095","tag":{"amenity":"waste_disposal"}},"type":"Feature"},
	{"geometry":{"coordinates":[39.781677,64.559524],"type":"Point"},"properties":{"osm_id":"9008339309","tag":{"amenity":"waste_disposal"}},"type":"Feature"}
]
}
