{
"type": "FeatureCollection",
"features": [
	{"geometry":{"coordinates":[78.516432,17.447423],"type":"Point"},"properties":{"osm_id":"1602532197","tag":{"amenity":"waste_basket"}},"type":"Feature"},
	{"geometry":{"coordinates":[78.488037,17.409753],"type":"Point"},"properties":{"osm_id":"2715274184","tag":{"amenity":"waste_disposal","operator":"sulab international"}},"type":"Feature"},
	{"geometry":{"coordinates":[78.494026,17.423323],"type":"Point"},"properties":{"osm_id":"3200948983","tag":{"amenity":"waste_basket"}},"type":"Feature"},
	{"geometry":{"coordinates":[78.488013,17.409819],"type":"Point"},"properties":{"name":"dump yard","osm_id":"4417123991","tag":{"amenity":"waste_disposal","name:en":"dump yard"}},"type":"Feature"},
	{"geometry":{"coordinates":[78.564041,17.421642],"type":"Point"},"properties":{"osm_id":"6641730788","tag":{"access":"yes","amenity":"waste_disposal"}},"type":"Feature"},
	{"geometry":{"coordinates":[78.564047,17.421635],"type":"Point"},"properties":{"osm_id":"6641730789","tag":{"access":"yes","amenity":"waste_disposal"}},"type":"Feature"},
	{"geometry":{"coordinates":[78.564051,17.421626],"type":"Point"},"properties":{"osm_id":"6641730790","tag":{"access":"yes","amenity":"waste_disposal"}},"type":"Feature"},
	{"geometry":{"coordinates":[78.564056,17.421617],"type":"Point"},"properties":{"osm_id":"6641730791","tag":{"access":"yes","amenity":"waste_disposal"}},"type":"Feature"}
]
}
