{
"type": "FeatureCollection",
"features": [
	{"geometry":{"coordinates":[-0.720042,52.087953],"type":"Point"},"properties":{"osm_id":"2360034835","tag":{"amenity":"waste_basket"}},"type":"Feature"},
	{"geometry":{"coordinates":[-0.719019,52.08801],"type":"Point"},"properties":{"osm_id":"2360034837","tag":{"amenity":"waste_basket"}},"type":"Feature"},
	{"geometry":{"coordinates":[-0.718014,52.06102],"type":"Point"},"properties":{"osm_id":"3688928763","tag":{"amenity":"waste_basket","waste":"dog_excrement"}},"type":"Feature"},
	{"geometry":{"coordinates":[-0.72676,52.057883],"type":"Point"},"properties":{"osm_id":"4573206519","tag":{"amenity":"waste_basket"}},"type":"Feature"},
	{"geometry":{"coordinates":[-0.720225,52.087701],"type":"Point"},"properties":{"osm_id":"5924036889","tag":{"amenity":"waste_basket"}},"type":"Feature"},
	{"geometry":{"coordinates":[-0.767864,52.073412],"type":"Point"},"properties":{"name":"Black Horse Bridge Rubbish Disposal","osm_id":"6145502802","tag":{"access":"permissive","amenity":"waste_disposal","centralkey":"no","operator":"Canal and River Trust","waste":"trash","waterway":"waste_disposal"}},"type":"Feature"}
]
}
