{
"type": "FeatureCollection",
"features": [
	{"geometry":{"coordinates":[-0.727066,52.000519],"type":"Point"},"properties":{"name":"Tesco Car Park","osm_id":"456846940","tag":{"amenity":"recycling"}},"type":"Feature"},
	{"geometry":{"coordinates":[-0.714351,52.000371],"type":"Point"},"properties":{"name":"Fenny Stratford Rubbish Disposal","osm_id":"822769690","tag":{"access":"permissive","amenity":"waste_disposal","centralkey":"no","operator":"Canal and River Trust","waste":"trash","waterway":"waste_disposal"}},"type":"Feature"},
	{"geometry":{"coordinates":[-0.708775,52.024004],"type":"Point"},"properties":{"osm_id":"1145376415","tag":{"amenity":"recycling","recycling:glass":"yes"}},"type":"Feature"},
	{"geometry":{"coordinates":[-0.752782,52.020511],"type":"Point"},"properties":{"name":"Council Domestic Waste Recycling Centre","osm_id":"1897656479","tag":{"amenity":"recycling","recycling_type":"centre"}},"type":"Feature"},
	{"geometry":{"coordinates":[-0.704593,52.014413],"type":"Point"},"properties":{"osm_id":"3698995340","tag":{"amenity":"waste_basket"}},"type":"Feature"},
	{"geometry":{"coordinates":[-0.710894,52.015838],"type":"Point"},"properties":{"osm_id":"3699030385","tag":{"amenity":"waste_basket"}},"type":"Feature"},
	{"geometry":{"coordinates":[-0.71468,52.012828],"type":"Point"},"properties":{"osm_id":"3699487023","tag":{"amenity":"waste_basket"}},"type":"Feature"},
	{"geometry":{"coordinates":[-0.708641,52.011412],"type":"Point"},"properties":{"osm_id":"3699517566","tag":{"amenity":"waste_basket"}},"type":"Feature"},
	{"geometry":{"coordinates":[-0.78764,52.038863],"type":"Point"},"properties":{"name":"Dog Bin","osm_id":"4346989112","tag":{"amenity":"waste_basket"}},"type":"Feature"},
	{"geometry":{"coordinates":[-0.779518,52.003278],"type":"Point"},"properties":{"osm_id":"4478801090","tag":{"amenity":"waste_basket"}},"type":"Feature"},
	{"geometry":{"coordinates":[-0.772002,52.003182],"type":"Point"},"properties":{"osm_id":"4478803591","tag":{"amenity":"waste_basket"}},"type":"Feature"},
	{"geometry":{"coordinates":[-0.775653,52.001928],"type":"Point"},"properties":{"osm_id":"4478826289","tag":{"amenity":"waste_basket"}},"type":"Feature"},
	{"geometry":{"coordinates":[-0.779454,52.002247],"type":"Point"},"properties":{"osm_id":"4485463589","tag":{"amenity":"waste_basket"}},"type":"Feature"},
	{"geometry":{"coordinates":[-0.768645,52.016175],"type":"Point"},"properties":{"osm_id":"4491990890","tag":{"amenity":"waste_basket"}},"type":"Feature"},
	{"geometry":{"coordinates":[-0.768482,52.016059],"type":"Point"},"properties":{"osm_id":"4491993689","tag":{"amenity":"waste_basket"}},"type":"Feature"},
	{"geometry":{"coordinates":[-0.774462,52.007174],"type":"Point"},"properties":{"osm_id":"4492020192","tag":{"amenity":"waste_basket"}},"type":"Feature"},
	{"geometry":{"coordinates":[-0.779762,52.00531],"type":"Point"},"properties":{"osm_id":"4492035892","tag":{"amenity":"waste_basket"}},"type":"Feature"},
	{"geometry":{"coordinates":[-0.789732,52.009616],"type":"Point"},"properties":{"osm_id":"4935386722","tag":{"amenity":"waste_basket"}},"type":"Feature"},
	{"geometry":{"coordinates":[-0.784131,52.011754],"type":"Point"},"properties":{"osm_id":"4935390729","tag":{"amenity":"waste_basket"}},"type":"Feature"},
	{"geometry":{"coordinates":[-0.784104,52.011769],"type":"Point"},"properties":{"osm_id":"4935390730","tag":{"amenity":"waste_basket","waste":"dog_excrement"}},"type":"Feature"},
	{"geometry":{"coordinates":[-0.788995,52.010227],"type":"Point"},"properties":{"osm_id":"4935414221","tag":{"amenity":"waste_basket","waste":"dog_excrement"}},"type":"Feature"},
	{"geometry":{"coordinates":[-0.790444,52.010404],"type":"Point"},"properties":{"osm_id":"4962651523","tag":{"amenity":"waste_basket","waste":"dog_excrement"}},"type":"Feature"},
	{"geometry":{"coordinates":[-0.779275,52.012276],"type":"Point"},"properties":{"osm_id":"4962651525","tag":{"amenity":"waste_basket","waste":"dog_excrement"}},"type":"Feature"},
	{"geometry":{"coordinates":[-0.789516,52.010528],"type":"Point"},"properties":{"osm_id":"4962652521","tag":{"amenity":"waste_basket"}},"type":"Feature"},
	{"geometry":{"coordinates":[-0.708623,52.011375],"type":"Point"},"properties":{"osm_id":"7609698197","tag":{"amenity":"waste_basket","waste":"dog_excrement"}},"type":"Feature"},
	{"geometry":{"coordinates":[-0.767066,52.005953],"type":"Point"},"properties":{"osm_id":"7612649887","tag":{"amenity":"waste_basket","waste":"dog_excrement"}},"type":"Feature"},
	{"geometry":{"coordinates":[-0.763972,52.008258],"type":"Point"},"properties":{"osm_id":"7612649888","tag":{"amenity":"waste_basket","waste":"dog_excrement"}},"type":"Feature"},
	{"geometry":{"coordinates":[-0.772934,52.003039],"type":"Point"},"properties":{"osm_id":"7612649892","tag":{"amenity":"waste_basket","waste":"dog_excrement"}},"type":"Feature"},
	{"geometry":{"coordinates":[-0.76106,52.015263],"type":"Point"},"properties":{"osm_id":"7612649894","tag":{"amenity":"waste_basket","waste":"dog_excrement"}},"type":"Feature"},
	{"geometry":{"coordinates":[-0.770017,52.004018],"type":"Point"},"properties":{"osm_id":"7612649897","tag":{"amenity":"waste_basket","waste":"dog_excrement"}},"type":"Feature"},
	{"geometry":{"coordinates":[-0.761029,52.010854],"type":"Point"},"properties":{"osm_id":"7612649898","tag":{"amenity":"waste_basket","waste":"dog_excrement"}},"type":"Feature"},
	{"geometry":{"coordinates":[-0.763897,52.00853],"type":"Point"},"properties":{"osm_id":"7612649900","tag":{"amenity":"waste_basket","waste":"dog_excrement"}},"type":"Feature"},
	{"geometry":{"coordinates":[-0.760984,52.015272],"type":"Point"},"properties":{"osm_id":"7612649908","tag":{"amenity":"waste_basket"}},"type":"Feature"},
	{"geometry":{"coordinates":[-0.776014,52.001293],"type":"Point"},"properties":{"osm_id":"7612649909","tag":{"amenity":"waste_basket","waste":"dog_excrement"}},"type":"Feature"}
]
}
