{
"type": "FeatureCollection",
"features": [
	{"geometry":{"coordinates":[-0.74273,51.996138],"type":"Point"},"properties":{"osm_id":"426683386","tag":{"amenity":"waste_basket"}},"type":"Feature"},
	{"geometry":{"coordinates":[-0.715102,51.975913],"type":"Point"},"properties":{"osm_id":"822769454","tag":{"amenity":"waste_disposal","operator":"Willowbridge Marina","waste":"excrement"}},"type":"Feature"},
	{"geometry":{"coordinates":[-0.739436,51.991976],"type":"Point"},"properties":{"osm_id":"2342110155","tag":{"amenity":"waste_basket"}},"type":"Feature"},
	{"geometry":{"coordinates":[-0.7407,51.992611],"type":"Point"},"properties":{"osm_id":"2344264258","tag":{"amenity":"waste_basket"}},"type":"Feature"},
	{"geometry":{"coordinates":[-0.753355,51.991274],"type":"Point"},"properties":{"osm_id":"2344306203","tag":{"amenity":"waste_basket"}},"type":"Feature"},
	{"geometry":{"coordinates":[-0.7431,51.992393],"type":"Point"},"properties":{"osm_id":"2349654845","tag":{"amenity":"waste_basket"}},"type":"Feature"},
	{"geometry":{"coordinates":[-0.747079,51.991885],"type":"Point"},"properties":{"osm_id":"2349654862","tag":{"amenity":"waste_basket"}},"type":"Feature"},
	{"geometry":{"coordinates":[-0.748051,51.991712],"type":"Point"},"properties":{"osm_id":"2349654867","tag":{"amenity":"waste_basket"}},"type":"Feature"},
	{"geometry":{"coordinates":[-0.747784,51.991858],"type":"Point"},"properties":{"osm_id":"2349654870","tag":{"amenity":"waste_basket"}},"type":"Feature"},
	{"geometry":{"coordinates":[-0.743412,51.99248],"type":"Point"},"properties":{"osm_id":"2349654874","tag":{"amenity":"waste_basket"}},"type":"Feature"},
	{"geometry":{"coordinates":[-0.753601,51.991199],"type":"Point"},"properties":{"osm_id":"2349654879","tag":{"amenity":"waste_basket"}},"type":"Feature"},
	{"geometry":{"coordinates":[-0.738293,51.991337],"type":"Point"},"properties":{"osm_id":"2349897725","tag":{"amenity":"waste_basket"}},"type":"Feature"},
	{"geometry":{"coordinates":[-0.704262,51.946658],"type":"Point"},"properties":{"name":"Soulbury Three Locks Rubbish Disposal","osm_id":"2507203479","tag":{"access":"permissive","amenity":"waste_disposal","centralkey":"no","operator":"Canal and River Trust","waste":"trash","waterway":"waste_disposal"}},"type":"Feature"},
	{"geometry":{"coordinates":[-0.737606,51.970665],"type":"Point"},"properties":{"osm_id":"4345432673","tag":{"amenity":"waste_basket","waste":"dog_excrement"}},"type":"Feature"},
	{"geometry":{"coordinates":[-0.734385,51.971689],"type":"Point"},"properties":{"osm_id":"4348540755","tag":{"amenity":"waste_basket","waste":"dog_excrement"}},"type":"Feature"},
	{"geometry":{"coordinates":[-0.735323,51.97335],"type":"Point"},"properties":{"osm_id":"4348540756","tag":{"amenity":"waste_basket","waste":"dog_excrement"}},"type":"Feature"},
	{"geometry":{"coordinates":[-0.734098,51.974763],"type":"Point"},"properties":{"osm_id":"4348540757","tag":{"amenity":"waste_basket","waste":"dog_excrement"}},"type":"Feature"},
	{"geometry":{"coordinates":[-0.741498,51.970991],"type":"Point"},"properties":{"osm_id":"4348540758","tag":{"amenity":"waste_basket","waste":"dog_excrement"}},"type":"Feature"},
	{"geometry":{"coordinates":[-0.779207,51.997902],"type":"Point"},"properties":{"osm_id":"7820401157","tag":{"amenity":"waste_basket","waste":"dog_excrement"}},"type":"Feature"}
]
}
