{
"type": "FeatureCollection",
"features": [
	{"geometry":{"coordinates":[-0.717279,51.525118],"type":"Point"},"properties":{"osm_id":"600086234","tag":{"amenity":"recycling"}},"type":"Feature"},
	{"geometry":{"coordinates":[-0.710567,51.523722],"type":"Point"},"properties":{"osm_id":"6821075700","tag":{"amenity":"waste_basket","waste":"trash"}},"type":"Feature"},
	{"geometry":{"coordinates":[-0.734503,51.517131],"type":"Point"},"properties":{"osm_id":"7468219956","tag":{"amenity":"waste_basket","colour":"Dark Green","covered":"yes","operator":"Maidenhead and Windsor Council","waste":"trash"}},"type":"Feature"},
	{"geometry":{"coordinates":[-0.710692,51.523844],"type":"Point"},"properties":{"osm_id":"8327615131","tag":{"amenity":"waste_basket"}},"type":"Feature"},
	{"geometry":{"coordinates":[-0.709519,51.523878],"type":"Point"},"properties":{"osm_id":"9010109983","tag":{"amenity":"waste_basket"}},"type":"Feature"},
	{"geometry":{"coordinates":[-0.705345,51.52661],"type":"Point"},"properties":{"osm_id":"9010501625","tag":{"amenity":"waste_basket","waste":"trash"}},"type":"Feature"}
]
}
