{
"type": "FeatureCollection",
"lastupdate": "2020-08-02T00:00:00Z",
"features": [
	{"geometry":{"coordinates":[-0.740012,51.388016],"type":"Point"},"properties":{"osm_id":"701042132","tag":{"amenity":"recycling","recycling:clothes":"yes","recycling:glass":"yes"}},"type":"Feature"},
	{"geometry":{"coordinates":[-0.729185,51.398123],"type":"Point"},"properties":{"osm_id":"843204824","tag":{"amenity":"recycling"}},"type":"Feature"},
	{"geometry":{"coordinates":[-0.740887,51.393464],"type":"Point"},"properties":{"name":"Sainsburys","osm_id":"1241016693","tag":{"amenity":"recycling","recycling:aluminium":"yes","recycling:books":"yes","recycling:clothes":"yes","recycling:foil":"yes","recycling:glass":"yes","recycling:glass_bottles":"yes","recycling:plastic_bags":"yes"}},"type":"Feature"},
	{"geometry":{"coordinates":[-0.726637,51.345095],"type":"Point"},"properties":{"osm_id":"3819679653","tag":{"amenity":"waste_basket","waste":"dog_excrement"}},"type":"Feature"},
	{"geometry":{"coordinates":[-0.726552,51.345124],"type":"Point"},"properties":{"osm_id":"3819679655","tag":{"amenity":"waste_basket"}},"type":"Feature"},
	{"geometry":{"coordinates":[-0.775905,51.386085],"type":"Point"},"properties":{"osm_id":"6541066877","tag":{"amenity":"waste_basket","waste":"trash"}},"type":"Feature"},
	{"geometry":{"coordinates":[-0.785214,51.379366],"type":"Point"},"properties":{"osm_id":"6541066986","tag":{"amenity":"waste_basket","waste":"trash"}},"type":"Feature"},
	{"geometry":{"coordinates":[-0.788951,51.376301],"type":"Point"},"properties":{"osm_id":"6541067160","tag":{"amenity":"waste_basket","waste":"trash"}},"type":"Feature"},
	{"geometry":{"coordinates":[-0.780307,51.394772],"type":"Point"},"properties":{"osm_id":"6780604267","tag":{"amenity":"waste_basket","waste":"trash"}},"type":"Feature"},
	{"geometry":{"coordinates":[-0.779431,51.396567],"type":"Point"},"properties":{"osm_id":"6780604268","tag":{"amenity":"waste_basket","waste":"trash"}},"type":"Feature"},
	{"geometry":{"coordinates":[-0.780792,51.397482],"type":"Point"},"properties":{"osm_id":"6780604269","tag":{"amenity":"waste_basket","waste":"trash"}},"type":"Feature"},
	{"geometry":{"coordinates":[-0.778056,51.389572],"type":"Point"},"properties":{"osm_id":"6786186861","tag":{"amenity":"waste_basket","waste":"trash"}},"type":"Feature"},
	{"geometry":{"coordinates":[-0.777972,51.388709],"type":"Point"},"properties":{"osm_id":"6786186904","tag":{"amenity":"recycling","recycling_type":"container"}},"type":"Feature"},
	{"geometry":{"coordinates":[-0.777549,51.391764],"type":"Point"},"properties":{"osm_id":"6786186914","tag":{"amenity":"waste_basket","waste":"trash"}},"type":"Feature"},
	{"geometry":{"coordinates":[-0.778844,51.39161],"type":"Point"},"properties":{"osm_id":"6786186916","tag":{"amenity":"waste_basket","waste":"trash"}},"type":"Feature"},
	{"geometry":{"coordinates":[-0.779875,51.392825],"type":"Point"},"properties":{"osm_id":"6786186919","tag":{"amenity":"waste_basket","waste":"trash"}},"type":"Feature"},
	{"geometry":{"coordinates":[-0.725027,51.351385],"type":"Point"},"properties":{"osm_id":"7388747041","tag":{"amenity":"waste_basket","waste":"dog_excrement"}},"type":"Feature"},
	{"geometry":{"coordinates":[-0.736746,51.346295],"type":"Point"},"properties":{"osm_id":"7447265975","tag":{"amenity":"waste_basket"}},"type":"Feature"},
	{"geometry":{"coordinates":[-0.723763,51.348839],"type":"Point"},"properties":{"osm_id":"7539070748","tag":{"amenity":"waste_basket"}},"type":"Feature"},
	{"geometry":{"coordinates":[-0.725802,51.349387],"type":"Point"},"properties":{"osm_id":"7539070749","tag":{"amenity":"waste_basket"}},"type":"Feature"},
	{"geometry":{"coordinates":[-0.722432,51.348135],"type":"Point"},"properties":{"osm_id":"7539070762","tag":{"amenity":"waste_basket"}},"type":"Feature"},
	{"geometry":{"coordinates":[-0.722125,51.347958],"type":"Point"},"properties":{"osm_id":"7539070764","tag":{"amenity":"waste_basket","waste":"dog_excrement"}},"type":"Feature"},
	{"geometry":{"coordinates":[-0.725589,51.349908],"type":"Point"},"properties":{"osm_id":"7539083728","tag":{"amenity":"waste_basket"}},"type":"Feature"},
	{"geometry":{"coordinates":[-0.725422,51.350172],"type":"Point"},"properties":{"osm_id":"7539083729","tag":{"amenity":"waste_basket"}},"type":"Feature"},
	{"geometry":{"coordinates":[-0.724264,51.348419],"type":"Point"},"properties":{"osm_id":"7539083733","tag":{"amenity":"waste_basket"}},"type":"Feature"},
	{"geometry":{"coordinates":[-0.737406,51.345771],"type":"Point"},"properties":{"osm_id":"7539083758","tag":{"amenity":"waste_basket","waste":"dog_excrement"}},"type":"Feature"},
	{"geometry":{"coordinates":[-0.737333,51.345791],"type":"Point"},"properties":{"osm_id":"7539083759","tag":{"amenity":"waste_basket"}},"type":"Feature"}
]
}
