{
"type": "FeatureCollection",
"features": [
	{"geometry":{"coordinates":[-0.760692,51.290563],"type":"Point"},"properties":{"name":"Asda recycling","osm_id":"448282681","tag":{"amenity":"recycling"}},"type":"Feature"},
	{"geometry":{"coordinates":[-0.779945,51.298538],"type":"Point"},"properties":{"name":"Bottle bank","osm_id":"459173283","tag":{"amenity":"recycling"}},"type":"Feature"},
	{"geometry":{"coordinates":[-0.770588,51.298552],"type":"Point"},"properties":{"name":"Bottle bank","osm_id":"459173284","tag":{"amenity":"recycling"}},"type":"Feature"},
	{"geometry":{"coordinates":[-0.741671,51.298513],"type":"Point"},"properties":{"osm_id":"763208722","tag":{"amenity":"recycling","location":"overground","recycling_type":"container"}},"type":"Feature"},
	{"geometry":{"coordinates":[-0.743511,51.301493],"type":"Point"},"properties":{"osm_id":"763208729","tag":{"amenity":"recycling"}},"type":"Feature"},
	{"geometry":{"coordinates":[-0.772422,51.334048],"type":"Point"},"properties":{"osm_id":"775270656","tag":{"amenity":"recycling"}},"type":"Feature"},
	{"geometry":{"coordinates":[-0.776756,51.337435],"type":"Point"},"properties":{"osm_id":"775270664","tag":{"amenity":"recycling"}},"type":"Feature"},
	{"geometry":{"coordinates":[-0.777679,51.339901],"type":"Point"},"properties":{"name":"Aldi","osm_id":"775270671","tag":{"amenity":"recycling","recycling_type":"container"}},"type":"Feature"},
	{"geometry":{"coordinates":[-0.752234,51.308708],"type":"Point"},"properties":{"osm_id":"1279656688","tag":{"amenity":"recycling","recycling:glass":"yes"}},"type":"Feature"},
	{"geometry":{"coordinates":[-0.7795,51.305911],"type":"Point"},"properties":{"osm_id":"1596210632","tag":{"amenity":"recycling"}},"type":"Feature"},
	{"geometry":{"coordinates":[-0.76321,51.322807],"type":"Point"},"properties":{"osm_id":"2122771925","tag":{"amenity":"recycling","location":"overground","recycling_type":"container"}},"type":"Feature"},
	{"geometry":{"coordinates":[-0.774051,51.313367],"type":"Point"},"properties":{"osm_id":"2433744479","tag":{"amenity":"recycling"}},"type":"Feature"},
	{"geometry":{"coordinates":[-0.758023,51.290128],"type":"Point"},"properties":{"osm_id":"5780394983","tag":{"amenity":"waste_basket"}},"type":"Feature"},
	{"geometry":{"coordinates":[-0.757685,51.289674],"type":"Point"},"properties":{"osm_id":"5780394984","tag":{"amenity":"waste_basket"}},"type":"Feature"},
	{"geometry":{"coordinates":[-0.757658,51.289633],"type":"Point"},"properties":{"osm_id":"5780394985","tag":{"amenity":"waste_basket"}},"type":"Feature"},
	{"geometry":{"coordinates":[-0.747673,51.333663],"type":"Point"},"properties":{"osm_id":"6133634962","tag":{"amenity":"waste_basket"}},"type":"Feature"},
	{"geometry":{"coordinates":[-0.746793,51.333799],"type":"Point"},"properties":{"osm_id":"6133634988","tag":{"amenity":"waste_basket"}},"type":"Feature"},
	{"geometry":{"coordinates":[-0.756455,51.325076],"type":"Point"},"properties":{"barrier":"gate","osm_id":"6270322299"},"type":"Feature"},
	{"geometry":{"coordinates":[-0.756443,51.324603],"type":"Point"},"properties":{"osm_id":"6482379783","tag":{"amenity":"recycling"}},"type":"Feature"}
]
}
