{
"type": "FeatureCollection",
"features": [
	{"geometry":{"coordinates":[-0.750026,50.982387],"type":"Point"},"properties":{"name":"Midhurst Household Waste Recycling Site","osm_id":"1057514818","tag":{"amenity":"recycling","recycling_type":"centre"}},"type":"Feature"},
	{"geometry":{"coordinates":[-0.738632,50.987563],"type":"Point"},"properties":{"osm_id":"2383555907","tag":{"amenity":"waste_basket"}},"type":"Feature"},
	{"geometry":{"coordinates":[-0.741615,50.98414],"type":"Point"},"properties":{"osm_id":"2383555909","tag":{"amenity":"waste_basket"}},"type":"Feature"},
	{"geometry":{"coordinates":[-0.761272,50.977327],"type":"Point"},"properties":{"osm_id":"4528538006","tag":{"amenity":"waste_basket"}},"type":"Feature"},
	{"geometry":{"coordinates":[-0.750093,50.985166],"type":"Point"},"properties":{"osm_id":"5256137112","tag":{"amenity":"waste_basket"}},"type":"Feature"},
	{"geometry":{"coordinates":[-0.739136,50.98374],"type":"Point"},"properties":{"osm_id":"6241176577","tag":{"amenity":"waste_basket"}},"type":"Feature"},
	{"geometry":{"coordinates":[-0.738081,50.988465],"type":"Point"},"properties":{"osm_id":"6284555285","tag":{"amenity":"waste_basket"}},"type":"Feature"},
	{"geometry":{"coordinates":[-0.738204,50.988098],"type":"Point"},"properties":{"osm_id":"6284555286","tag":{"amenity":"waste_basket"}},"type":"Feature"},
	{"geometry":{"coordinates":[-0.725798,50.995926],"type":"Point"},"properties":{"osm_id":"6330448197","tag":{"amenity":"waste_basket"}},"type":"Feature"},
	{"geometry":{"coordinates":[-0.732225,50.992204],"type":"Point"},"properties":{"osm_id":"6374352351","tag":{"amenity":"waste_basket"}},"type":"Feature"}
]
}
