{
"type": "FeatureCollection",
"features": [
	{"geometry":{"coordinates":[-0.704166,49.285853],"type":"Point"},"properties":{"osm_id":"2035449536","tag":{"amenity":"recycling","recycling_type":"container"}},"type":"Feature"},
	{"geometry":{"coordinates":[-0.70781,49.280588],"type":"Point"},"properties":{"osm_id":"4468747329","tag":{"amenity":"waste_basket","wheelchair":"no"}},"type":"Feature"},
	{"geometry":{"coordinates":[-0.707436,49.280055],"type":"Point"},"properties":{"osm_id":"4468747330","tag":{"amenity":"waste_disposal","level":"0","wheelchair":"no"}},"type":"Feature"},
	{"geometry":{"coordinates":[-0.710725,49.272478],"type":"Point"},"properties":{"osm_id":"5310613689","tag":{"amenity":"recycling","recycling_type":"container"}},"type":"Feature"},
	{"geometry":{"coordinates":[-0.719864,49.278937],"type":"Point"},"properties":{"osm_id":"8476009478","tag":{"amenity":"waste_disposal"}},"type":"Feature"},
	{"geometry":{"coordinates":[-0.719845,49.278952],"type":"Point"},"properties":{"osm_id":"8476009479","tag":{"amenity":"waste_disposal"}},"type":"Feature"},
	{"geometry":{"coordinates":[-0.71982,49.278968],"type":"Point"},"properties":{"osm_id":"8476009480","tag":{"amenity":"recycling","recycling_type":"container"}},"type":"Feature"},
	{"geometry":{"coordinates":[-0.719796,49.278986],"type":"Point"},"properties":{"osm_id":"8476009481","tag":{"amenity":"recycling","recycling_type":"centre"}},"type":"Feature"},
	{"geometry":{"coordinates":[-0.71978,49.278998],"type":"Point"},"properties":{"osm_id":"8476009482","tag":{"amenity":"recycling","recycling_type":"centre"}},"type":"Feature"},
	{"geometry":{"coordinates":[-0.719756,49.279017],"type":"Point"},"properties":{"osm_id":"8476009483","tag":{"amenity":"recycling","recycling_type":"centre"}},"type":"Feature"},
	{"geometry":{"coordinates":[-0.719728,49.279036],"type":"Point"},"properties":{"osm_id":"8476009484","tag":{"amenity":"recycling","recycling_type":"centre"}},"type":"Feature"},
	{"geometry":{"coordinates":[-0.719709,49.27905],"type":"Point"},"properties":{"osm_id":"8476009485","tag":{"amenity":"recycling","recycling_type":"centre"}},"type":"Feature"},
	{"geometry":{"coordinates":[-0.719693,49.279061],"type":"Point"},"properties":{"osm_id":"8476009486","tag":{"amenity":"recycling","recycling_type":"centre"}},"type":"Feature"},
	{"geometry":{"coordinates":[-0.704351,49.275748],"type":"Point"},"properties":{"osm_id":"9083657995","tag":{"amenity":"waste_basket"}},"type":"Feature"},
	{"geometry":{"coordinates":[-0.704253,49.275855],"type":"Point"},"properties":{"osm_id":"9083657996","tag":{"amenity":"waste_basket"}},"type":"Feature"},
	{"geometry":{"coordinates":[-0.707682,49.276392],"type":"Point"},"properties":{"osm_id":"9083726961","tag":{"amenity":"waste_basket"}},"type":"Feature"},
	{"geometry":{"coordinates":[-0.706703,49.276613],"type":"Point"},"properties":{"osm_id":"9083726962","tag":{"amenity":"waste_basket"}},"type":"Feature"}
]
}
