{
"type": "FeatureCollection",
"lastupdate": "2020-08-03T00:00:00Z",
"features": [
	{"geometry":{"coordinates":[-0.741879,46.92509],"type":"Point"},"properties":{"osm_id":"2080263412","tag":{"amenity":"recycling","recycling:glass":"yes","recycling:paper":"yes","recycling:scrap_metal":"yes","recycling_type":"container"}},"type":"Feature"},
	{"geometry":{"coordinates":[-0.737025,46.921111],"type":"Point"},"properties":{"osm_id":"2080429979","tag":{"amenity":"recycling","recycling:glass":"yes","recycling:paper":"yes","recycling:scrap_metal":"yes","recycling_type":"container"}},"type":"Feature"},
	{"geometry":{"coordinates":[-0.749422,46.923321],"type":"Point"},"properties":{"osm_id":"2483391935","tag":{"amenity":"waste_basket"}},"type":"Feature"},
	{"geometry":{"coordinates":[-0.75107,46.923086],"type":"Point"},"properties":{"osm_id":"2484012917","tag":{"amenity":"waste_basket"}},"type":"Feature"},
	{"geometry":{"coordinates":[-0.752416,46.923204],"type":"Point"},"properties":{"osm_id":"2484056027","tag":{"amenity":"waste_basket"}},"type":"Feature"},
	{"geometry":{"coordinates":[-0.755491,46.923259],"type":"Point"},"properties":{"osm_id":"2484125189","tag":{"amenity":"waste_basket"}},"type":"Feature"},
	{"geometry":{"coordinates":[-0.754307,46.923377],"type":"Point"},"properties":{"osm_id":"2484125204","tag":{"amenity":"waste_basket"}},"type":"Feature"},
	{"geometry":{"coordinates":[-0.749798,46.921936],"type":"Point"},"properties":{"osm_id":"2485608517","tag":{"amenity":"waste_basket"}},"type":"Feature"},
	{"geometry":{"coordinates":[-0.749172,46.923013],"type":"Point"},"properties":{"osm_id":"2485612122","tag":{"amenity":"waste_basket"}},"type":"Feature"},
	{"geometry":{"coordinates":[-0.738354,46.921017],"type":"Point"},"properties":{"osm_id":"2494836692","tag":{"amenity":"recycling","recycling:batteries":"yes","recycling:light_bulbs":"yes","recycling:mobile_phones":"yes","recycling:printer_cartridges":"yes"}},"type":"Feature"},
	{"geometry":{"coordinates":[-0.751358,46.921875],"type":"Point"},"properties":{"osm_id":"2494890725","tag":{"amenity":"waste_basket"}},"type":"Feature"},
	{"geometry":{"coordinates":[-0.742672,46.92234],"type":"Point"},"properties":{"osm_id":"5808580109","tag":{"amenity":"waste_basket","waste":"trash"}},"type":"Feature"}
]
}
