{
"type": "FeatureCollection",
"features": [
	{"geometry":{"coordinates":[-0.715463,44.893154],"type":"Point"},"properties":{"osm_id":"622862935","tag":{"amenity":"recycling","check_date:recycling":"2020-09-15","operator":"Bordeaux M\u00c3\u00a9tropole","recycling:glass_bottles":"yes","recycling_type":"container","ref:FR:CUB":"SM05"}},"type":"Feature"},
	{"geometry":{"coordinates":[-0.717249,44.897002],"type":"Point"},"properties":{"osm_id":"635402894","tag":{"amenity":"recycling","operator":"Bordeaux M\u00c3\u00a9tropole","recycling:glass_bottles":"yes","recycling_type":"container","ref:FR:CUB":"SM31"}},"type":"Feature"},
	{"geometry":{"coordinates":[-0.717664,44.895877],"type":"Point"},"properties":{"osm_id":"769235531","tag":{"amenity":"waste_basket"}},"type":"Feature"},
	{"geometry":{"coordinates":[-0.718372,44.895508],"type":"Point"},"properties":{"osm_id":"772402740","tag":{"amenity":"waste_basket","survey:date":"2020-01-10"}},"type":"Feature"},
	{"geometry":{"coordinates":[-0.709324,44.89673],"type":"Point"},"properties":{"osm_id":"3998731363","tag":{"amenity":"recycling","operator":"AMOS","recycling:clothes":"yes","recycling_type":"container"}},"type":"Feature"},
	{"geometry":{"coordinates":[-0.712552,44.894201],"type":"Point"},"properties":{"osm_id":"3998738057","tag":{"amenity":"recycling","operator":"AMOS","recycling:clothes":"yes","recycling_type":"container"}},"type":"Feature"},
	{"geometry":{"coordinates":[-0.719656,44.892913],"type":"Point"},"properties":{"osm_id":"3998738700","tag":{"amenity":"recycling","operator":"AMOS","recycling:clothes":"yes","recycling:glass_bottles":"no","recycling:paper":"no","recycling:plastic":"no","recycling_type":"container","survey:date":"2020-07-18"}},"type":"Feature"},
	{"geometry":{"coordinates":[-0.721911,44.896793],"type":"Point"},"properties":{"osm_id":"3998747829","tag":{"amenity":"recycling","operator":"AMOS","recycling:clothes":"yes","recycling_type":"container"}},"type":"Feature"},
	{"geometry":{"coordinates":[-0.74413,44.89895],"type":"Point"},"properties":{"osm_id":"3998752821","tag":{"amenity":"recycling","operator":"AMOS","recycling:clothes":"yes","recycling_type":"container"}},"type":"Feature"},
	{"geometry":{"coordinates":[-0.744123,44.898994],"type":"Point"},"properties":{"osm_id":"3998752822","tag":{"amenity":"recycling","recycling:glass_bottles":"yes","recycling_type":"container","ref:FR:CUB":"SM27"}},"type":"Feature"},
	{"geometry":{"coordinates":[-0.758573,44.89508],"type":"Point"},"properties":{"osm_id":"3998765838","tag":{"amenity":"recycling","operator":"AMOS","recycling:clothes":"yes","recycling_type":"container"}},"type":"Feature"},
	{"geometry":{"coordinates":[-0.726332,44.864691],"type":"Point"},"properties":{"osm_id":"3998768883","tag":{"amenity":"recycling","operator":"AMOS","recycling:clothes":"yes","recycling_type":"container"}},"type":"Feature"},
	{"geometry":{"coordinates":[-0.76719,44.846007],"type":"Point"},"properties":{"osm_id":"5001886725","tag":{"amenity":"recycling","operator":"Fringuette","recycling:clothes":"yes","recycling_type":"container"}},"type":"Feature"},
	{"geometry":{"coordinates":[-0.766339,44.846372],"type":"Point"},"properties":{"osm_id":"5001886824","tag":{"amenity":"recycling","operator":"Bordeaux M\u00c3\u00a9tropole","recycling:glass_bottles":"yes","recycling_type":"container","ref:FR:CUB":"MA13"}},"type":"Feature"},
	{"geometry":{"coordinates":[-0.767319,44.841974],"type":"Point"},"properties":{"osm_id":"5657036531","tag":{"amenity":"recycling","opening_hours":"24/7","recycling:glass_bottles":"yes","recycling_type":"container","wheelchair":"yes"}},"type":"Feature"},
	{"geometry":{"coordinates":[-0.741627,44.885926],"type":"Point"},"properties":{"osm_id":"5863327609","tag":{"amenity":"recycling","recycling:clothes":"yes","recycling:glass_bottles":"yes","recycling_type":"container","ref:FR:CUB":"SM41"}},"type":"Feature"},
	{"geometry":{"coordinates":[-0.741647,44.885958],"type":"Point"},"properties":{"osm_id":"5863331273","tag":{"amenity":"recycling","recycling:glass_bottles":"yes","recycling_type":"container","ref:FR:CUB":"SM41"}},"type":"Feature"},
	{"geometry":{"coordinates":[-0.750722,44.891624],"type":"Point"},"properties":{"highway":"crossing","osm_id":"6111122265","tag":{"crossing":"zebra"}},"type":"Feature"},
	{"geometry":{"coordinates":[-0.750647,44.892002],"type":"Point"},"properties":{"highway":"crossing","osm_id":"6111122272","tag":{"crossing":"zebra"}},"type":"Feature"},
	{"geometry":{"coordinates":[-0.71971,44.893143],"type":"Point"},"properties":{"osm_id":"6715909187","tag":{"amenity":"waste_basket"}},"type":"Feature"},
	{"geometry":{"coordinates":[-0.720371,44.893778],"type":"Point"},"properties":{"osm_id":"6716045090","tag":{"amenity":"waste_basket"}},"type":"Feature"},
	{"geometry":{"coordinates":[-0.720688,44.893193],"type":"Point"},"properties":{"osm_id":"6741785185","tag":{"amenity":"waste_basket"}},"type":"Feature"},
	{"geometry":{"coordinates":[-0.726371,44.892392],"type":"Point"},"properties":{"osm_id":"6743741688","tag":{"amenity":"waste_basket"}},"type":"Feature"},
	{"geometry":{"coordinates":[-0.725315,44.892177],"type":"Point"},"properties":{"osm_id":"6743741689","tag":{"amenity":"waste_basket"}},"type":"Feature"},
	{"geometry":{"coordinates":[-0.750962,44.89403],"type":"Point"},"properties":{"osm_id":"6813755787","tag":{"amenity":"recycling","recycling:glass_bottles":"yes","recycling_type":"container","survey:date":"2019-09-21"}},"type":"Feature"},
	{"geometry":{"coordinates":[-0.720467,44.895505],"type":"Point"},"properties":{"osm_id":"6874920185","tag":{"amenity":"recycling","recycling:clothes":"yes","recycling:glass_bottles":"no","recycling:paper":"no","recycling:plastic":"no","recycling_type":"container","survey:date":"2019-10-24"}},"type":"Feature"},
	{"geometry":{"coordinates":[-0.728277,44.866103],"type":"Point"},"properties":{"osm_id":"6987237116","tag":{"amenity":"recycling","recycling:clothes":"yes","recycling:glass_bottles":"yes","recycling_type":"container"}},"type":"Feature"},
	{"geometry":{"coordinates":[-0.717955,44.896881],"type":"Point"},"properties":{"osm_id":"7116193685","tag":{"amenity":"recycling","recycling:clothes":"no","recycling:glass_bottles":"yes","recycling:paper":"no","recycling:plastic":"no","recycling_type":"container","survey:date":"2020-01-08"}},"type":"Feature"},
	{"geometry":{"coordinates":[-0.725103,44.892771],"type":"Point"},"properties":{"osm_id":"7142422397","tag":{"amenity":"recycling","recycling:glass_bottles":"yes","recycling_type":"container","survey:date":"2020-01-19"}},"type":"Feature"},
	{"geometry":{"coordinates":[-0.715611,44.901929],"type":"Point"},"properties":{"osm_id":"7557843786","tag":{"amenity":"recycling","recycling:glass_bottles":"yes","recycling_type":"container","survey:date":"2020-05-25"}},"type":"Feature"},
	{"geometry":{"coordinates":[-0.715672,44.893252],"type":"Point"},"properties":{"osm_id":"7645510285","tag":{"amenity":"waste_basket","survey:date":"2020-06-23"}},"type":"Feature"},
	{"geometry":{"coordinates":[-0.716624,44.893498],"type":"Point"},"properties":{"osm_id":"7645510286","tag":{"amenity":"waste_basket","survey:date":"2020-06-23"}},"type":"Feature"},
	{"geometry":{"coordinates":[-0.719193,44.893885],"type":"Point"},"properties":{"osm_id":"7645510287","tag":{"amenity":"waste_basket","survey:date":"2020-06-23"}},"type":"Feature"},
	{"geometry":{"coordinates":[-0.715922,44.893339],"type":"Point"},"properties":{"osm_id":"7645510385","tag":{"amenity":"waste_basket","survey:date":"2020-06-23"}},"type":"Feature"}
]
}
