{
"type": "FeatureCollection",
"features": [
	{"geometry":{"coordinates":[-0.771116,44.604726],"type":"Point"},"properties":{"osm_id":"1754155648","tag":{"amenity":"recycling","recycling:clothes":"yes","recycling:glass_bottles":"yes","recycling_type":"container"}},"type":"Feature"},
	{"geometry":{"coordinates":[-0.777782,44.605949],"type":"Point"},"properties":{"osm_id":"1754155653","tag":{"amenity":"recycling","recycling:glass_bottles":"yes","recycling_type":"container"}},"type":"Feature"},
	{"geometry":{"coordinates":[-0.757625,44.598867],"type":"Point"},"properties":{"osm_id":"1767945352","tag":{"amenity":"recycling","recycling:glass_bottles":"yes","recycling_type":"container"}},"type":"Feature"},
	{"geometry":{"coordinates":[-0.757427,44.596002],"type":"Point"},"properties":{"osm_id":"2413538075","tag":{"amenity":"recycling","recycling:glass_bottles":"yes","recycling_type":"container"}},"type":"Feature"},
	{"geometry":{"coordinates":[-0.767114,44.606188],"type":"Point"},"properties":{"osm_id":"2527762348","tag":{"amenity":"waste_basket"}},"type":"Feature"},
	{"geometry":{"coordinates":[-0.770788,44.605742],"type":"Point"},"properties":{"osm_id":"2527769338","tag":{"amenity":"waste_basket"}},"type":"Feature"},
	{"geometry":{"coordinates":[-0.757462,44.597086],"type":"Point"},"properties":{"osm_id":"2603566038","tag":{"addr:housenumber":"3","addr:street":"Chemin de la Scierie"}},"type":"Feature"},
	{"geometry":{"coordinates":[-0.767827,44.605853],"type":"Point"},"properties":{"osm_id":"4850296506","tag":{"amenity":"recycling","recycling:clothes":"yes","recycling_type":"container"}},"type":"Feature"},
	{"geometry":{"coordinates":[-0.771138,44.604655],"type":"Point"},"properties":{"osm_id":"6283421875","tag":{"amenity":"recycling","recycling:clothes":"yes","recycling:shoes":"yes","recycling_type":"container"}},"type":"Feature"}
]
}
