{
"type": "FeatureCollection",
"features": [
	{"geometry":{"coordinates":[-0.735693,43.978032],"type":"Point"},"properties":{"osm_id":"8647440833","tag":{"amenity":"recycling"}},"type":"Feature"},
	{"geometry":{"coordinates":[-0.732329,44.000729],"type":"Point"},"properties":{"osm_id":"8647474203","tag":{"amenity":"recycling","operator":"SEDHL","recycling:cartons":"yes","recycling:glass_bottles":"yes","recycling:paper":"yes","recycling:plastic":"yes","recycling:plastic_bottles":"yes","recycling_type":"container"}},"type":"Feature"},
	{"geometry":{"coordinates":[-0.719017,43.974946],"type":"Point"},"properties":{"osm_id":"8647500535","tag":{"amenity":"recycling","operator":"SEDHL","recycling:cartons":"yes","recycling:glass_bottles":"yes","recycling:paper":"yes","recycling:plastic":"yes","recycling:plastic_bottles":"yes","recycling_type":"container"}},"type":"Feature"},
	{"geometry":{"coordinates":[-0.788468,44.002774],"type":"Point"},"properties":{"osm_id":"8650657752","tag":{"amenity":"recycling","operator":"Syndicat d'Elimination des D\u00c3\u00a9chets de la Haute Lande","recycling:cartons":"yes","recycling:glass_bottles":"yes","recycling:paper":"yes","recycling:plastic":"yes","recycling:waste":"yes","recycling_type":"container"}},"type":"Feature"},
	{"geometry":{"coordinates":[-0.782793,43.999378],"type":"Point"},"properties":{"osm_id":"8650782820","tag":{"amenity":"recycling","operator":"Syndicat d'Elimination des D\u00c3\u00a9chets de la Haute Lande","recycling:cartons":"yes","recycling:glass_bottles":"yes","recycling:paper":"yes","recycling:plastic":"yes"}},"type":"Feature"},
	{"geometry":{"coordinates":[-0.736208,43.974834],"type":"Point"},"properties":{"osm_id":"8667814666","tag":{"amenity":"recycling","operator":"Syndicat d'Elimination des D\u00c3\u00a9chets de la Haute Lande","recycling:cartons":"yes","recycling:glass_bottles":"yes","recycling:paper":"yes","recycling:plastic":"yes"}},"type":"Feature"},
	{"geometry":{"coordinates":[-0.78949,43.963625],"type":"Point"},"properties":{"osm_id":"8679138457","tag":{"access":"yes","amenity":"waste_disposal","operator":"Sietom de Chalosse","waste":"trash"}},"type":"Feature"},
	{"geometry":{"coordinates":[-0.770674,43.96838],"type":"Point"},"properties":{"osm_id":"8700893275","tag":{"access":"yes","amenity":"waste_disposal","operator":"Sietom de Chalosse","waste":"trash"}},"type":"Feature"},
	{"geometry":{"coordinates":[-0.777327,43.968334],"type":"Point"},"properties":{"osm_id":"8700907447","tag":{"access":"yes","amenity":"waste_disposal","operator":"Sietom de Chalosse","waste":"trash"}},"type":"Feature"}
]
}
