{
"type": "FeatureCollection",
"features": [
	{"geometry":{"coordinates":[-0.750441,43.748075],"type":"Point"},"properties":{"osm_id":"5032446634","tag":{"amenity":"recycling","recycling:cans":"yes","recycling:plastic_bottles":"yes","recycling:plastic_packaging":"yes","recycling_type":"container"}},"type":"Feature"},
	{"geometry":{"coordinates":[-0.749368,43.751046],"type":"Point"},"properties":{"osm_id":"5239435032","tag":{"amenity":"waste_basket"}},"type":"Feature"},
	{"geometry":{"coordinates":[-0.750423,43.74811],"type":"Point"},"properties":{"osm_id":"7888021451","tag":{"amenity":"recycling","recycling:clothes":"yes","recycling:shoes":"yes","recycling_type":"container"}},"type":"Feature"},
	{"geometry":{"coordinates":[-0.750423,43.748087],"type":"Point"},"properties":{"osm_id":"7888021452","tag":{"amenity":"waste_basket"}},"type":"Feature"},
	{"geometry":{"coordinates":[-0.75043,43.748089],"type":"Point"},"properties":{"osm_id":"7888021453","tag":{"amenity":"recycling","recycling:batteries":"yes","recycling_type":"container"}},"type":"Feature"},
	{"geometry":{"coordinates":[-0.750467,43.748041],"type":"Point"},"properties":{"osm_id":"7888021456","tag":{"amenity":"recycling","recycling:glass_bottles":"yes","recycling_type":"container"}},"type":"Feature"},
	{"geometry":{"coordinates":[-0.750456,43.748057],"type":"Point"},"properties":{"osm_id":"7888021457","tag":{"amenity":"recycling","recycling:beverage_cartons":"yes","recycling:magazines":"yes","recycling:newspaper":"yes","recycling:paper":"yes","recycling:paper_packaging":"yes","recycling_type":"container"}},"type":"Feature"},
	{"geometry":{"coordinates":[-0.750761,43.74799],"type":"Point"},"properties":{"osm_id":"7888021460","tag":{"amenity":"waste_basket"}},"type":"Feature"},
	{"geometry":{"coordinates":[-0.730663,43.757933],"type":"Point"},"properties":{"osm_id":"8196434317","tag":{"amenity":"waste_basket"}},"type":"Feature"},
	{"geometry":{"coordinates":[-0.729835,43.757622],"type":"Point"},"properties":{"osm_id":"8196435618","tag":{"amenity":"recycling","operator":"Sietom de Chalosse","recycling:glass_bottles":"yes","recycling_type":"container"}},"type":"Feature"},
	{"geometry":{"coordinates":[-0.729403,43.758566],"type":"Point"},"properties":{"osm_id":"8196451520","tag":{"amenity":"waste_basket"}},"type":"Feature"},
	{"geometry":{"coordinates":[-0.785964,43.73084],"type":"Point"},"properties":{"osm_id":"8202274743","tag":{"amenity":"recycling","recycling:glass_bottles":"yes","recycling_type":"container"}},"type":"Feature"},
	{"geometry":{"coordinates":[-0.714828,43.767845],"type":"Point"},"properties":{"osm_id":"8440983479","tag":{"amenity":"waste_disposal"}},"type":"Feature"},
	{"geometry":{"coordinates":[-0.7883,43.755831],"type":"Point"},"properties":{"osm_id":"8475494176","tag":{"amenity":"recycling","recycling:cartons":"yes","recycling:glass":"yes","recycling:glass_bottles":"yes","recycling:paper":"yes","recycling:plastic":"yes","recycling:plastic_bottles":"yes","recycling_type":"container"}},"type":"Feature"},
	{"geometry":{"coordinates":[-0.754667,43.749346],"type":"Point"},"properties":{"osm_id":"8475510385","tag":{"amenity":"recycling","recycling_type":"container"}},"type":"Feature"},
	{"geometry":{"coordinates":[-0.744934,43.749275],"type":"Point"},"properties":{"osm_id":"8475542047","tag":{"amenity":"recycling","recycling_type":"container"}},"type":"Feature"},
	{"geometry":{"coordinates":[-0.735033,43.753922],"type":"Point"},"properties":{"osm_id":"8475543252","tag":{"amenity":"recycling","operator":"SIETOM","recycling:cartons":"yes","recycling:glass":"yes","recycling:glass_bottles":"yes","recycling:paper":"yes","recycling:plastic":"yes","recycling:plastic_bottles":"yes","recycling_type":"container"}},"type":"Feature"},
	{"geometry":{"coordinates":[-0.703502,43.711466],"type":"Point"},"properties":{"osm_id":"8475657690","tag":{"amenity":"recycling","recycling_type":"container"}},"type":"Feature"},
	{"geometry":{"coordinates":[-0.739513,43.708684],"type":"Point"},"properties":{"osm_id":"8475993454","tag":{"amenity":"recycling","recycling_type":"container"}},"type":"Feature"},
	{"geometry":{"coordinates":[-0.750744,43.748015],"type":"Point"},"properties":{"osm_id":"8520158405","tag":{"amenity":"waste_basket","material":"wood"}},"type":"Feature"},
	{"geometry":{"coordinates":[-0.752372,43.748478],"type":"Point"},"properties":{"osm_id":"8520169133","tag":{"amenity":"waste_basket","colour":"brown","material":"wood"}},"type":"Feature"},
	{"geometry":{"coordinates":[-0.722587,43.746416],"type":"Point"},"properties":{"osm_id":"8520372099","tag":{"access":"yes","amenity":"waste_disposal"}},"type":"Feature"},
	{"geometry":{"coordinates":[-0.784525,43.768784],"type":"Point"},"properties":{"osm_id":"8559530478","tag":{"amenity":"waste_basket","material":"wood"}},"type":"Feature"},
	{"geometry":{"coordinates":[-0.752285,43.761056],"type":"Point"},"properties":{"osm_id":"8559713051","tag":{"amenity":"waste_basket","material":"concrete"}},"type":"Feature"},
	{"geometry":{"coordinates":[-0.751612,43.761224],"type":"Point"},"properties":{"osm_id":"8559718264","tag":{"amenity":"waste_basket","material":"concrete"}},"type":"Feature"},
	{"geometry":{"coordinates":[-0.752219,43.760943],"type":"Point"},"properties":{"osm_id":"8559719369","tag":{"amenity":"waste_basket","material":"wood"}},"type":"Feature"},
	{"geometry":{"coordinates":[-0.750179,43.760833],"type":"Point"},"properties":{"osm_id":"8559730116","tag":{"amenity":"waste_basket","material":"wood"}},"type":"Feature"},
	{"geometry":{"coordinates":[-0.748864,43.760708],"type":"Point"},"properties":{"osm_id":"8559773450","tag":{"amenity":"waste_basket","material":"wood"}},"type":"Feature"},
	{"geometry":{"coordinates":[-0.731881,43.758856],"type":"Point"},"properties":{"osm_id":"8559832845","tag":{"amenity":"waste_basket","material":"wood"}},"type":"Feature"},
	{"geometry":{"coordinates":[-0.726991,43.757231],"type":"Point"},"properties":{"osm_id":"8559864673","tag":{"amenity":"waste_basket","material":"wood"}},"type":"Feature"},
	{"geometry":{"coordinates":[-0.736266,43.754299],"type":"Point"},"properties":{"osm_id":"8658268224","tag":{"amenity":"waste_basket"}},"type":"Feature"}
]
}
