{
"type": "FeatureCollection",
"features": [
	{"geometry":{"coordinates":[-0.790108,43.593583],"type":"Point"},"properties":{"osm_id":"5014220221","tag":{"amenity":"waste_basket"}},"type":"Feature"},
	{"geometry":{"coordinates":[-0.747694,43.59228],"type":"Point"},"properties":{"osm_id":"5030766921","tag":{"amenity":"waste_basket"}},"type":"Feature"},
	{"geometry":{"coordinates":[-0.748139,43.592323],"type":"Point"},"properties":{"osm_id":"5236469221","tag":{"amenity":"waste_basket"}},"type":"Feature"},
	{"geometry":{"coordinates":[-0.748794,43.591685],"type":"Point"},"properties":{"osm_id":"5236526622","tag":{"amenity":"waste_basket"}},"type":"Feature"},
	{"geometry":{"coordinates":[-0.748083,43.592045],"type":"Point"},"properties":{"name":"Place des Venes","osm_id":"5237540012","tag":{"amenity":"recycling","operator":"SIETOM","recycling_type":"container"}},"type":"Feature"},
	{"geometry":{"coordinates":[-0.739981,43.63977],"type":"Point"},"properties":{"osm_id":"8953557390","tag":{"amenity":"recycling","recycling_type":"container"}},"type":"Feature"}
]
}
