{
"type": "FeatureCollection",
"features": [
	{"geometry":{"coordinates":[-0.790224,38.478904],"type":"Point"},"properties":{"name":"RSU","osm_id":"367634878","ref":"22","tag":{"amenity":"recycling"}},"type":"Feature"},
	{"geometry":{"coordinates":[-0.789727,38.479054],"type":"Point"},"properties":{"name":"RSU","osm_id":"367634890","ref":"23","tag":{"amenity":"recycling"}},"type":"Feature"},
	{"geometry":{"coordinates":[-0.78921,38.479224],"type":"Point"},"properties":{"name":"RSU","osm_id":"367634903","ref":"24","tag":{"amenity":"recycling"}},"type":"Feature"},
	{"geometry":{"coordinates":[-0.790859,38.47877],"type":"Point"},"properties":{"name":"RSU","osm_id":"367634915","ref":"21","tag":{"amenity":"recycling"}},"type":"Feature"},
	{"geometry":{"coordinates":[-0.790851,38.478757],"type":"Point"},"properties":{"name":"Vidrio","osm_id":"367634929","ref":"2","tag":{"amenity":"recycling","recycling:glass":"yes"}},"type":"Feature"},
	{"geometry":{"coordinates":[-0.788671,38.479386],"type":"Point"},"properties":{"name":"RSU","osm_id":"367634942","ref":"25","tag":{"amenity":"recycling"}},"type":"Feature"},
	{"geometry":{"coordinates":[-0.762065,38.477902],"type":"Point"},"properties":{"osm_id":"4184490072","tag":{"amenity":"recycling","recycling:waste":"yes","recycling_type":"container"}},"type":"Feature"},
	{"geometry":{"coordinates":[-0.789591,38.473163],"type":"Point"},"properties":{"osm_id":"4692517326","tag":{"amenity":"recycling","recycling_type":"container"}},"type":"Feature"},
	{"geometry":{"coordinates":[-0.789626,38.473151],"type":"Point"},"properties":{"osm_id":"4692517327","tag":{"amenity":"waste_disposal"}},"type":"Feature"},
	{"geometry":{"coordinates":[-0.785119,38.475991],"type":"Point"},"properties":{"osm_id":"4692517345","tag":{"amenity":"waste_disposal"}},"type":"Feature"},
	{"geometry":{"coordinates":[-0.786112,38.47499],"type":"Point"},"properties":{"osm_id":"4692517350","tag":{"amenity":"waste_disposal"}},"type":"Feature"},
	{"geometry":{"coordinates":[-0.790472,38.476793],"type":"Point"},"properties":{"osm_id":"4692530942","tag":{"amenity":"recycling","operator":"Vidrio, Carton y Plastico","recycling:cardboard":"yes","recycling:glass_bottles":"yes","recycling:plastic":"yes","recycling_type":"container"}},"type":"Feature"},
	{"geometry":{"coordinates":[-0.788518,38.477539],"type":"Point"},"properties":{"osm_id":"4692530944","tag":{"amenity":"recycling","operator":"Vidrio, Carton y Plastico","recycling:cardboard":"yes","recycling:glass_bottles":"yes","recycling:plastic":"yes","recycling_type":"container"}},"type":"Feature"},
	{"geometry":{"coordinates":[-0.787286,38.477892],"type":"Point"},"properties":{"osm_id":"4692530945","tag":{"amenity":"recycling","operator":"Pl\u00c3\u00a1stico y Cart\u00c3\u00b3n","recycling:cardboard":"yes","recycling:plastic":"yes","recycling_type":"container"}},"type":"Feature"},
	{"geometry":{"coordinates":[-0.789013,38.478488],"type":"Point"},"properties":{"osm_id":"4692530947","tag":{"amenity":"recycling","operator":"Vidrio, Carton y Plastico","recycling:cardboard":"yes","recycling:glass_bottles":"yes","recycling:plastic":"yes","recycling_type":"container"}},"type":"Feature"},
	{"geometry":{"coordinates":[-0.789864,38.478201],"type":"Point"},"properties":{"osm_id":"4692530949","tag":{"amenity":"recycling","operator":"Ropas","recycling:clothes":"yes","recycling_type":"container"}},"type":"Feature"},
	{"geometry":{"coordinates":[-0.789684,38.479129],"type":"Point"},"properties":{"osm_id":"4692530968","tag":{"amenity":"recycling","operator":"Vidrio","recycling:glass_bottles":"yes","recycling_type":"container"}},"type":"Feature"},
	{"geometry":{"coordinates":[-0.786401,38.478332],"type":"Point"},"properties":{"osm_id":"4692530970","tag":{"amenity":"recycling","operator":"Vidrio, Cart\u00c3\u00b3n y Pl\u00c3\u00a1stico","recycling:cardboard":"yes","recycling:glass_bottles":"yes","recycling:plastic":"yes","recycling_type":"container"}},"type":"Feature"},
	{"geometry":{"coordinates":[-0.785887,38.478095],"type":"Point"},"properties":{"osm_id":"4692530971","tag":{"amenity":"recycling","operator":"Vidrio","recycling:glass_bottles":"yes","recycling_type":"container"}},"type":"Feature"},
	{"geometry":{"coordinates":[-0.78617,38.47934],"type":"Point"},"properties":{"osm_id":"4692530977","tag":{"amenity":"recycling","operator":"Vidrio, Carton y Plastico","recycling:cardboard":"yes","recycling:glass_bottles":"yes","recycling:plastic":"yes","recycling_type":"container"}},"type":"Feature"},
	{"geometry":{"coordinates":[-0.787526,38.47716],"type":"Point"},"properties":{"osm_id":"4692530988","tag":{"amenity":"recycling","operator":"Vidrio","recycling:glass_bottles":"yes","recycling_type":"container"}},"type":"Feature"},
	{"geometry":{"coordinates":[-0.788523,38.476828],"type":"Point"},"properties":{"osm_id":"4692531494","tag":{"amenity":"recycling","operator":"Vidrio","recycling:glass_bottles":"yes","recycling_type":"container"}},"type":"Feature"},
	{"geometry":{"coordinates":[-0.788801,38.478615],"type":"Point"},"properties":{"osm_id":"4708301255","tag":{"amenity":"waste_basket"}},"type":"Feature"},
	{"geometry":{"coordinates":[-0.788278,38.478688],"type":"Point"},"properties":{"osm_id":"4708301256","tag":{"amenity":"waste_basket"}},"type":"Feature"},
	{"geometry":{"coordinates":[-0.787902,38.478803],"type":"Point"},"properties":{"osm_id":"4708309892","tag":{"amenity":"waste_basket"}},"type":"Feature"}
]
}
