{
"type": "FeatureCollection",
"features": [
	{"geometry":{"coordinates":[-0.710727,37.62746],"type":"Point"},"properties":{"osm_id":"2861273922","tag":{"amenity":"recycling","recycling_type":"container"}},"type":"Feature"},
	{"geometry":{"coordinates":[-0.716104,37.648456],"type":"Point"},"properties":{"osm_id":"3029862062","tag":{"amenity":"recycling"}},"type":"Feature"},
	{"geometry":{"coordinates":[-0.715153,37.646453],"type":"Point"},"properties":{"osm_id":"3060527929","tag":{"amenity":"waste_basket"}},"type":"Feature"},
	{"geometry":{"coordinates":[-0.714878,37.646749],"type":"Point"},"properties":{"osm_id":"3060528345","tag":{"amenity":"waste_basket"}},"type":"Feature"},
	{"geometry":{"coordinates":[-0.715628,37.647391],"type":"Point"},"properties":{"osm_id":"3060528352","tag":{"amenity":"recycling"}},"type":"Feature"},
	{"geometry":{"coordinates":[-0.715803,37.647626],"type":"Point"},"properties":{"osm_id":"3060528358","tag":{"amenity":"waste_basket"}},"type":"Feature"},
	{"geometry":{"coordinates":[-0.715913,37.647897],"type":"Point"},"properties":{"osm_id":"3060528364","tag":{"amenity":"waste_basket"}},"type":"Feature"},
	{"geometry":{"coordinates":[-0.71576,37.648011],"type":"Point"},"properties":{"osm_id":"3060528365","tag":{"amenity":"waste_basket"}},"type":"Feature"},
	{"geometry":{"coordinates":[-0.709597,37.624357],"type":"Point"},"properties":{"osm_id":"4603847442","tag":{"amenity":"waste_disposal"}},"type":"Feature"}
]
}
