{
"type": "FeatureCollection",
"lastupdate": "2020-08-02T00:00:00Z",
"features": [
	{"geometry":{"coordinates":[30.800638,1.158763],"type":"Point"},"properties":{"name":"Urinary Shelter","osm_id":"5995331830","tag":{"addr:block":"Block 45","addr:district":"Hoima","addr:settlement":"Kyangwali","addr:village":"Maratatu B","addr:zone":"Zone E","amenity":"recycling","fee":"no","lit":"yes","lit_operational":"yes","operator:type":"community","recycling_type":"container","source:form":"Sanitation;v3.0.3","start_date":"2018-10-01","waste":"Urine"}},"type":"Feature"},
	{"geometry":{"coordinates":[30.800501,1.158796],"type":"Point"},"properties":{"name":"Urinary Shelter","osm_id":"5995331831","tag":{"addr:block":"Block 45","addr:district":"Hoima","addr:settlement":"Kyangwali","addr:village":"Maratatu B","addr:zone":"Zone E","amenity":"recycling","fee":"no","lit":"yes","lit_operational":"yes","operator:type":"community","recycling_type":"container","source:form":"Sanitation;v3.0.3","start_date":"2018-10-01","waste":"Urinary shelter"}},"type":"Feature"},
	{"geometry":{"coordinates":[30.800768,1.159356],"type":"Point"},"properties":{"name":"Dust Bin","osm_id":"5995331832","tag":{"addr:block":"Block 45","addr:district":"Hoima","addr:settlement":"Kyangwali","addr:village":"Maratatu B","addr:zone":"Zone E","amenity":"waste_basket","fee":"no","lit":"yes","lit_operational":"yes","operator:type":"community","source:form":"Sanitation;v3.0.3","start_date":"2017-10-01","waste":"Plastic"}},"type":"Feature"},
	{"geometry":{"coordinates":[30.800935,1.159326],"type":"Point"},"properties":{"name":"Dust Bin","osm_id":"5995331833","tag":{"addr:block":"Block 45","addr:district":"Hoima","addr:settlement":"Kyangwali","addr:village":"Maratatu B","addr:zone":"Zone E","amenity":"waste_basket","fee":"no","lit":"yes","lit_operational":"yes","operator:type":"community","source:form":"Sanitation;v3.0.3","start_date":"2017-10-01","waste":"Plastic"}},"type":"Feature"},
	{"geometry":{"coordinates":[30.798641,1.151565],"type":"Point"},"properties":{"name":"Urinary Shelter","osm_id":"6004841413","tag":{"addr:block":"Block 37","addr:district":"Hoima","addr:settlement":"Kyangwali","addr:village":"Maratatu B","addr:zone":"Zone E","amenity":"recycling","fee":"no","lit":"no","operator:type":"community","source:form":"Sanitation;v3.0.3","start_date":"2018-08-01","waste":"Urinal"}},"type":"Feature"},
	{"geometry":{"coordinates":[30.799143,1.152288],"type":"Point"},"properties":{"name":"Urinary Shelter","osm_id":"6004841416","tag":{"addr:block":"Block 37","addr:district":"Hoima","addr:settlement":"Kyangwali","addr:village":"Maratatu B","addr:zone":"Zone E","amenity":"recycling","fee":"no","lit":"no","operator:type":"community","recycling_type":"container","source:form":"Sanitation;v3.0.3","start_date":"2018-08-01","waste":"Urinal"}},"type":"Feature"}
]
}
