{
"type": "FeatureCollection",
"features": [
	{"geometry":{"coordinates":[0.333052,46.576958],"type":"Point"},"properties":{"osm_id":"462266372","ref":"007","tag":{"amenity":"recycling","recycling:batteries":"no","recycling:cans":"no","recycling:clothes":"no","recycling:glass":"yes","recycling:paper":"no","recycling:scrap_metal":"no","recycling_type":"container"}},"type":"Feature"},
	{"geometry":{"coordinates":[0.33953,46.581277],"type":"Point"},"properties":{"osm_id":"534124748","tag":{"amenity":"waste_basket"}},"type":"Feature"},
	{"geometry":{"coordinates":[0.340737,46.582003],"type":"Point"},"properties":{"osm_id":"534147223","tag":{"amenity":"waste_basket"}},"type":"Feature"},
	{"geometry":{"coordinates":[0.340667,46.581967],"type":"Point"},"properties":{"osm_id":"534147230","tag":{"amenity":"waste_basket"}},"type":"Feature"},
	{"geometry":{"coordinates":[0.340718,46.580663],"type":"Point"},"properties":{"osm_id":"534152652","tag":{"amenity":"waste_basket"}},"type":"Feature"},
	{"geometry":{"coordinates":[0.341187,46.581602],"type":"Point"},"properties":{"osm_id":"534152657","tag":{"amenity":"waste_basket"}},"type":"Feature"},
	{"geometry":{"coordinates":[0.341269,46.581748],"type":"Point"},"properties":{"osm_id":"534152661","tag":{"amenity":"waste_basket"}},"type":"Feature"},
	{"geometry":{"coordinates":[0.339871,46.581477],"type":"Point"},"properties":{"osm_id":"534171036","tag":{"amenity":"waste_basket"}},"type":"Feature"},
	{"geometry":{"coordinates":[0.340659,46.581946],"type":"Point"},"properties":{"osm_id":"534171050","tag":{"amenity":"waste_basket"}},"type":"Feature"},
	{"geometry":{"coordinates":[0.340268,46.582309],"type":"Point"},"properties":{"osm_id":"534171062","tag":{"amenity":"waste_basket"}},"type":"Feature"},
	{"geometry":{"coordinates":[0.340333,46.580536],"type":"Point"},"properties":{"osm_id":"534181884","tag":{"amenity":"waste_basket"}},"type":"Feature"},
	{"geometry":{"coordinates":[0.339017,46.581221],"type":"Point"},"properties":{"osm_id":"534218397","tag":{"amenity":"waste_basket"}},"type":"Feature"},
	{"geometry":{"coordinates":[0.3394,46.580962],"type":"Point"},"properties":{"osm_id":"534218406","tag":{"amenity":"waste_basket"}},"type":"Feature"},
	{"geometry":{"coordinates":[0.341373,46.581734],"type":"Point"},"properties":{"osm_id":"538327611","tag":{"amenity":"waste_basket"}},"type":"Feature"},
	{"geometry":{"coordinates":[0.346428,46.574695],"type":"Point"},"properties":{"name":"068","osm_id":"648408948","ref":"068","tag":{"amenity":"recycling","recycling:glass":"yes","recycling_type":"container"}},"type":"Feature"},
	{"geometry":{"coordinates":[0.338615,46.572651],"type":"Point"},"properties":{"osm_id":"662319127","ref":"051","tag":{"amenity":"recycling","recycling:clothes":"yes","recycling:glass":"yes","recycling_type":"container"}},"type":"Feature"},
	{"geometry":{"coordinates":[0.275532,46.578563],"type":"Point"},"properties":{"osm_id":"801695296","tag":{"amenity":"recycling","recycling:glass":"yes"}},"type":"Feature"},
	{"geometry":{"coordinates":[0.339523,46.580011],"type":"Point"},"properties":{"osm_id":"835721243","tag":{"amenity":"waste_basket"}},"type":"Feature"},
	{"geometry":{"coordinates":[0.304249,46.576606],"type":"Point"},"properties":{"osm_id":"849592323","tag":{"amenity":"recycling","location":"overground","recycling:glass_bottles":"yes","recycling_type":"container"}},"type":"Feature"},
	{"geometry":{"coordinates":[0.339048,46.576942],"type":"Point"},"properties":{"osm_id":"886554365","ref":"009","tag":{"amenity":"recycling","location":"overground","recycling:glass":"yes","recycling_type":"container"}},"type":"Feature"},
	{"geometry":{"coordinates":[0.328257,46.573027],"type":"Point"},"properties":{"name":"Porte de la Madeleine","osm_id":"889446276","tag":{"amenity":"waste_basket","bench":"yes","public_transport":"platform","shelter":"yes"}},"type":"Feature"},
	{"geometry":{"coordinates":[0.343081,46.589079],"type":"Point"},"properties":{"osm_id":"1012695003","tag":{"amenity":"recycling","recycling:cans":"yes","recycling:glass":"no","recycling:paper":"yes","recycling_type":"container"}},"type":"Feature"},
	{"geometry":{"coordinates":[0.329747,46.57568],"type":"Point"},"properties":{"osm_id":"1030106291","tag":{"amenity":"recycling","recycling:glass":"yes","recycling_type":"container"}},"type":"Feature"},
	{"geometry":{"coordinates":[0.322698,46.572185],"type":"Point"},"properties":{"osm_id":"1156626393","tag":{"amenity":"waste_basket"}},"type":"Feature"},
	{"geometry":{"coordinates":[0.327621,46.572595],"type":"Point"},"properties":{"osm_id":"1156626400","ref":"206","tag":{"amenity":"recycling","recycling:batteries":"no","recycling:cans":"no","recycling:clothes":"no","recycling:glass":"yes","recycling:paper":"no","recycling:scrap_metal":"no","recycling_type":"container"}},"type":"Feature"},
	{"geometry":{"coordinates":[0.328605,46.573483],"type":"Point"},"properties":{"osm_id":"1156626461","tag":{"amenity":"waste_basket"}},"type":"Feature"},
	{"geometry":{"coordinates":[0.323851,46.571214],"type":"Point"},"properties":{"osm_id":"1156626847","ref":"197","tag":{"amenity":"recycling","recycling:batteries":"no","recycling:cans":"no","recycling:clothes":"no","recycling:glass":"yes","recycling:paper":"no","recycling:scrap_metal":"no","recycling_type":"container"}},"type":"Feature"},
	{"geometry":{"coordinates":[0.31601,46.577292],"type":"Point"},"properties":{"osm_id":"1166983961","ref":"163","tag":{"amenity":"recycling","recycling:glass":"yes"}},"type":"Feature"},
	{"geometry":{"coordinates":[0.318804,46.576908],"type":"Point"},"properties":{"osm_id":"1166983965","ref":"168","tag":{"amenity":"recycling","recycling:glass":"yes","recycling_type":"container"}},"type":"Feature"},
	{"geometry":{"coordinates":[0.319884,46.578202],"type":"Point"},"properties":{"osm_id":"1166984025","tag":{"amenity":"waste_basket"}},"type":"Feature"},
	{"geometry":{"coordinates":[0.325691,46.583337],"type":"Point"},"properties":{"osm_id":"1177503260","tag":{"amenity":"recycling","recycling:glass":"yes","recycling_type":"container"}},"type":"Feature"},
	{"geometry":{"coordinates":[0.330356,46.585346],"type":"Point"},"properties":{"osm_id":"1177503402","tag":{"amenity":"waste_basket"}},"type":"Feature"},
	{"geometry":{"coordinates":[0.332192,46.583226],"type":"Point"},"properties":{"osm_id":"1177503528","tag":{"amenity":"waste_basket"}},"type":"Feature"},
	{"geometry":{"coordinates":[0.308732,46.605473],"type":"Point"},"properties":{"barrier":"lift_gate","osm_id":"1196904317"},"type":"Feature"},
	{"geometry":{"coordinates":[0.344613,46.589145],"type":"Point"},"properties":{"osm_id":"1203768595","tag":{"amenity":"waste_basket"}},"type":"Feature"},
	{"geometry":{"coordinates":[0.346196,46.589478],"type":"Point"},"properties":{"osm_id":"1203768802","tag":{"amenity":"waste_basket"}},"type":"Feature"},
	{"geometry":{"coordinates":[0.348904,46.580939],"type":"Point"},"properties":{"osm_id":"1205468273","tag":{"amenity":"waste_basket"}},"type":"Feature"},
	{"geometry":{"coordinates":[0.34951,46.580738],"type":"Point"},"properties":{"osm_id":"1205468279","tag":{"amenity":"waste_basket"}},"type":"Feature"},
	{"geometry":{"coordinates":[0.349528,46.579438],"type":"Point"},"properties":{"osm_id":"1205468287","tag":{"amenity":"recycling","recycling:cans":"yes","recycling:glass":"no","recycling:paper":"yes","recycling:scrap_metal":"no"}},"type":"Feature"},
	{"geometry":{"coordinates":[0.348954,46.580984],"type":"Point"},"properties":{"osm_id":"1205468289","ref":"016","tag":{"amenity":"recycling","recycling:batteries":"no","recycling:cans":"no","recycling:clothes":"no","recycling:glass":"yes","recycling:paper":"no","recycling:scrap_metal":"no","recycling_type":"container"}},"type":"Feature"},
	{"geometry":{"coordinates":[0.349409,46.58062],"type":"Point"},"properties":{"osm_id":"1205468294","tag":{"amenity":"waste_basket"}},"type":"Feature"},
	{"geometry":{"coordinates":[0.348819,46.580825],"type":"Point"},"properties":{"osm_id":"1205468313","tag":{"amenity":"waste_basket"}},"type":"Feature"},
	{"geometry":{"coordinates":[0.341727,46.580782],"type":"Point"},"properties":{"osm_id":"1264515830","tag":{"amenity":"recycling","recycling:batteries":"no","recycling:cans":"no","recycling:clothes":"no","recycling:glass":"yes","recycling:paper":"no","recycling:scrap_metal":"no","recycling_type":"container"}},"type":"Feature"},
	{"geometry":{"coordinates":[0.333236,46.587324],"type":"Point"},"properties":{"osm_id":"1269263751","tag":{"amenity":"waste_basket"}},"type":"Feature"},
	{"geometry":{"coordinates":[0.295508,46.563659],"type":"Point"},"properties":{"osm_id":"1290913616","tag":{"amenity":"recycling","recycling:glass":"yes"}},"type":"Feature"},
	{"geometry":{"coordinates":[0.284998,46.562916],"type":"Point"},"properties":{"osm_id":"1290913622","tag":{"amenity":"recycling","recycling:glass":"yes"}},"type":"Feature"},
	{"geometry":{"coordinates":[0.273466,46.571732],"type":"Point"},"properties":{"osm_id":"1296671668","tag":{"amenity":"recycling","recycling:glass":"yes"}},"type":"Feature"},
	{"geometry":{"coordinates":[0.272762,46.573179],"type":"Point"},"properties":{"osm_id":"1296671838","tag":{"amenity":"waste_basket"}},"type":"Feature"},
	{"geometry":{"coordinates":[0.349371,46.583402],"type":"Point"},"properties":{"osm_id":"1297400252","tag":{"amenity":"waste_basket","recycling:batteries":"no","recycling:cans":"yes","recycling:clothes":"no","recycling:glass":"yes","recycling:paper":"yes","recycling:scrap_metal":"no"}},"type":"Feature"},
	{"geometry":{"coordinates":[0.343282,46.577506],"type":"Point"},"properties":{"osm_id":"1297400501","ref":"008","tag":{"amenity":"recycling","recycling:batteries":"no","recycling:cans":"no","recycling:clothes":"no","recycling:glass":"yes","recycling:paper":"no","recycling:scrap_metal":"no","recycling_type":"container"}},"type":"Feature"},
	{"geometry":{"coordinates":[0.350331,46.578038],"type":"Point"},"properties":{"osm_id":"1297400513","ref":"040","tag":{"amenity":"recycling","recycling:batteries":"no","recycling:cans":"no","recycling:clothes":"no","recycling:glass":"yes","recycling:paper":"no","recycling:scrap_metal":"no"}},"type":"Feature"},
	{"geometry":{"coordinates":[0.347603,46.577499],"type":"Point"},"properties":{"osm_id":"1297400522","tag":{"amenity":"recycling","comment":"n'a pas de num\u00c3\u00a9ro :-(","recycling:batteries":"no","recycling:cans":"no","recycling:clothes":"no","recycling:glass":"yes","recycling:paper":"no","recycling:scrap_metal":"no"}},"type":"Feature"},
	{"geometry":{"coordinates":[0.350591,46.589832],"type":"Point"},"properties":{"osm_id":"1330117417","tag":{"amenity":"waste_basket"}},"type":"Feature"},
	{"geometry":{"coordinates":[0.326441,46.559552],"type":"Point"},"properties":{"osm_id":"1348232803","tag":{"amenity":"waste_basket"}},"type":"Feature"},
	{"geometry":{"coordinates":[0.323486,46.559588],"type":"Point"},"properties":{"osm_id":"1348232816","tag":{"amenity":"waste_basket"}},"type":"Feature"},
	{"geometry":{"coordinates":[0.322589,46.559746],"type":"Point"},"properties":{"osm_id":"1348232831","tag":{"amenity":"waste_basket"}},"type":"Feature"},
	{"geometry":{"coordinates":[0.326668,46.559765],"type":"Point"},"properties":{"osm_id":"1348232836","tag":{"amenity":"waste_basket"}},"type":"Feature"},
	{"geometry":{"coordinates":[0.333766,46.561284],"type":"Point"},"properties":{"osm_id":"1348232908","tag":{"amenity":"recycling","recycling:paper":"yes","recycling_type":"container"}},"type":"Feature"},
	{"geometry":{"coordinates":[0.33376,46.561287],"type":"Point"},"properties":{"osm_id":"1348232909","tag":{"amenity":"waste_basket"}},"type":"Feature"},
	{"geometry":{"coordinates":[0.32231,46.56149],"type":"Point"},"properties":{"osm_id":"1348232924","tag":{"amenity":"waste_basket"}},"type":"Feature"},
	{"geometry":{"coordinates":[0.329538,46.562019],"type":"Point"},"properties":{"osm_id":"1348233001","tag":{"amenity":"waste_basket"}},"type":"Feature"},
	{"geometry":{"coordinates":[0.334072,46.562116],"type":"Point"},"properties":{"osm_id":"1348233007","tag":{"amenity":"waste_basket"}},"type":"Feature"},
	{"geometry":{"coordinates":[0.321655,46.562713],"type":"Point"},"properties":{"osm_id":"1348233052","tag":{"amenity":"waste_basket"}},"type":"Feature"},
	{"geometry":{"coordinates":[0.321488,46.564888],"type":"Point"},"properties":{"osm_id":"1348233136","tag":{"amenity":"waste_basket"}},"type":"Feature"},
	{"geometry":{"coordinates":[0.335397,46.563002],"type":"Point"},"properties":{"osm_id":"1361878661","tag":{"amenity":"recycling","recycling:glass":"yes","recycling_type":"container"}},"type":"Feature"},
	{"geometry":{"coordinates":[0.337839,46.594839],"type":"Point"},"properties":{"osm_id":"1380067097","tag":{"amenity":"waste_basket"}},"type":"Feature"},
	{"geometry":{"coordinates":[0.337283,46.595293],"type":"Point"},"properties":{"osm_id":"1380067177","tag":{"amenity":"waste_basket"}},"type":"Feature"},
	{"geometry":{"coordinates":[0.337428,46.596002],"type":"Point"},"properties":{"osm_id":"1380067207","tag":{"amenity":"waste_basket"}},"type":"Feature"},
	{"geometry":{"coordinates":[0.326306,46.588051],"type":"Point"},"properties":{"osm_id":"1380946482","tag":{"amenity":"recycling","recycling:glass":"yes","recycling_type":"container"}},"type":"Feature"},
	{"geometry":{"coordinates":[0.326472,46.589568],"type":"Point"},"properties":{"osm_id":"1380946508","tag":{"amenity":"waste_basket","recycling:cans":"yes","recycling:glass":"yes","recycling:paper":"yes"}},"type":"Feature"},
	{"geometry":{"coordinates":[0.324974,46.58994],"type":"Point"},"properties":{"osm_id":"1381621425","ref":"146","tag":{"amenity":"recycling","recycling:batteries":"no","recycling:cans":"no","recycling:clothes":"no","recycling:glass":"yes","recycling:paper":"no","recycling:scrap_metal":"no","recycling_type":"container"}},"type":"Feature"},
	{"geometry":{"coordinates":[0.341065,46.588214],"type":"Point"},"properties":{"osm_id":"1387955368","tag":{"amenity":"waste_basket"}},"type":"Feature"},
	{"geometry":{"coordinates":[0.339695,46.590661],"type":"Point"},"properties":{"osm_id":"1392854714","ref":"037","tag":{"amenity":"recycling","recycling:batteries":"no","recycling:cans":"no","recycling:clothes":"no","recycling:glass_bottles":"yes","recycling:paper":"no","recycling:scrap_metal":"no","recycling_type":"container"}},"type":"Feature"},
	{"geometry":{"coordinates":[0.341327,46.583157],"type":"Point"},"properties":{"osm_id":"1399773978","tag":{"amenity":"waste_basket"}},"type":"Feature"},
	{"geometry":{"coordinates":[0.340863,46.583451],"type":"Point"},"properties":{"osm_id":"1399774014","tag":{"amenity":"waste_basket"}},"type":"Feature"},
	{"geometry":{"coordinates":[0.340541,46.583556],"type":"Point"},"properties":{"osm_id":"1399774021","tag":{"amenity":"waste_basket"}},"type":"Feature"},
	{"geometry":{"coordinates":[0.33186,46.584384],"type":"Point"},"properties":{"osm_id":"1399774053","tag":{"amenity":"waste_basket"}},"type":"Feature"},
	{"geometry":{"coordinates":[0.346231,46.575062],"type":"Point"},"properties":{"osm_id":"1400071636","tag":{"amenity":"waste_basket"}},"type":"Feature"},
	{"geometry":{"coordinates":[0.330351,46.588165],"type":"Point"},"properties":{"osm_id":"1408288497","tag":{"amenity":"waste_basket"}},"type":"Feature"},
	{"geometry":{"coordinates":[0.328462,46.592884],"type":"Point"},"properties":{"osm_id":"1408288702","ref":"166","tag":{"amenity":"recycling","recycling:batteries":"no","recycling:cans":"no","recycling:clothes":"no","recycling:glass":"yes","recycling:paper":"no","recycling:scrap_metal":"no","recycling_type":"container"}},"type":"Feature"},
	{"geometry":{"coordinates":[0.332641,46.57704],"type":"Point"},"properties":{"osm_id":"1408754117","tag":{"amenity":"waste_basket"}},"type":"Feature"},
	{"geometry":{"coordinates":[0.351537,46.578581],"type":"Point"},"properties":{"osm_id":"1449094606","tag":{"amenity":"waste_basket"}},"type":"Feature"},
	{"geometry":{"coordinates":[0.351543,46.578706],"type":"Point"},"properties":{"osm_id":"1449094608","tag":{"amenity":"waste_basket"}},"type":"Feature"},
	{"geometry":{"coordinates":[0.350907,46.585021],"type":"Point"},"properties":{"osm_id":"1470045280","tag":{"amenity":"recycling","recycling:batteries":"no","recycling:cans":"yes","recycling:clothes":"no","recycling:paper":"yes","recycling:scrap_metal":"no","recycling_type":"container"}},"type":"Feature"},
	{"geometry":{"coordinates":[0.351185,46.58707],"type":"Point"},"properties":{"osm_id":"1470045612","tag":{"amenity":"waste_basket"}},"type":"Feature"},
	{"geometry":{"coordinates":[0.349616,46.588018],"type":"Point"},"properties":{"osm_id":"1470045828","tag":{"amenity":"waste_basket"}},"type":"Feature"},
	{"geometry":{"coordinates":[0.348889,46.588627],"type":"Point"},"properties":{"osm_id":"1470045924","tag":{"amenity":"waste_basket"}},"type":"Feature"},
	{"geometry":{"coordinates":[0.349458,46.588869],"type":"Point"},"properties":{"osm_id":"1470045988","tag":{"amenity":"waste_basket"}},"type":"Feature"},
	{"geometry":{"coordinates":[0.348858,46.589241],"type":"Point"},"properties":{"osm_id":"1470046059","tag":{"amenity":"waste_basket"}},"type":"Feature"},
	{"geometry":{"coordinates":[0.346951,46.58949],"type":"Point"},"properties":{"osm_id":"1470046236","tag":{"amenity":"waste_basket"}},"type":"Feature"},
	{"geometry":{"coordinates":[0.345443,46.590397],"type":"Point"},"properties":{"osm_id":"1470046504","tag":{"amenity":"waste_basket"}},"type":"Feature"},
	{"geometry":{"coordinates":[0.335109,46.593509],"type":"Point"},"properties":{"osm_id":"1470673269","tag":{"amenity":"waste_basket"}},"type":"Feature"},
	{"geometry":{"coordinates":[0.335154,46.593707],"type":"Point"},"properties":{"osm_id":"1470673271","tag":{"amenity":"waste_basket"}},"type":"Feature"},
	{"geometry":{"coordinates":[0.335107,46.593724],"type":"Point"},"properties":{"osm_id":"1470673272","tag":{"amenity":"waste_basket"}},"type":"Feature"},
	{"geometry":{"coordinates":[0.335074,46.593736],"type":"Point"},"properties":{"osm_id":"1470673273","tag":{"amenity":"waste_basket"}},"type":"Feature"},
	{"geometry":{"coordinates":[0.335085,46.595388],"type":"Point"},"properties":{"osm_id":"1501328877","ref":"149","tag":{"amenity":"recycling","recycling:batteries":"no","recycling:cans":"no","recycling:clothes":"no","recycling:glass":"yes","recycling:paper":"no","recycling:scrap_metal":"no","recycling_type":"container"}},"type":"Feature"},
	{"geometry":{"coordinates":[0.336594,46.595915],"type":"Point"},"properties":{"osm_id":"1501328920","tag":{"amenity":"waste_basket"}},"type":"Feature"},
	{"geometry":{"coordinates":[0.335745,46.5961],"type":"Point"},"properties":{"osm_id":"1501328933","tag":{"amenity":"waste_basket"}},"type":"Feature"},
	{"geometry":{"coordinates":[0.3361,46.596389],"type":"Point"},"properties":{"osm_id":"1501328935","tag":{"amenity":"waste_basket"}},"type":"Feature"},
	{"geometry":{"coordinates":[0.333143,46.587389],"type":"Point"},"properties":{"osm_id":"1512517658","tag":{"amenity":"waste_basket"}},"type":"Feature"},
	{"geometry":{"coordinates":[0.330181,46.587425],"type":"Point"},"properties":{"osm_id":"1512517666","tag":{"amenity":"waste_basket"}},"type":"Feature"},
	{"geometry":{"coordinates":[0.330702,46.587622],"type":"Point"},"properties":{"osm_id":"1512517693","ref":"154","tag":{"amenity":"recycling","recycling:batteries":"no","recycling:cans":"no","recycling:clothes":"no","recycling:glass":"yes","recycling:paper":"no","recycling:scrap_metal":"no","recycling_type":"container"}},"type":"Feature"},
	{"geometry":{"coordinates":[0.334646,46.589176],"type":"Point"},"properties":{"osm_id":"1512518057","tag":{"amenity":"waste_basket"}},"type":"Feature"},
	{"geometry":{"coordinates":[0.334822,46.589194],"type":"Point"},"properties":{"osm_id":"1512518071","ref":"153","tag":{"amenity":"recycling","recycling:batteries":"no","recycling:cans":"no","recycling:clothes":"no","recycling:glass":"yes","recycling:paper":"no","recycling:scrap_metal":"no"}},"type":"Feature"},
	{"geometry":{"coordinates":[0.332474,46.59045],"type":"Point"},"properties":{"osm_id":"1512518277","tag":{"amenity":"waste_basket"}},"type":"Feature"},
	{"geometry":{"coordinates":[0.331855,46.591187],"type":"Point"},"properties":{"osm_id":"1512518350","tag":{"amenity":"waste_basket"}},"type":"Feature"},
	{"geometry":{"coordinates":[0.333648,46.593438],"type":"Point"},"properties":{"osm_id":"1512518419","tag":{"amenity":"waste_basket"}},"type":"Feature"},
	{"geometry":{"coordinates":[0.334942,46.593911],"type":"Point"},"properties":{"osm_id":"1512518422","tag":{"amenity":"waste_basket"}},"type":"Feature"},
	{"geometry":{"coordinates":[0.32891,46.596601],"type":"Point"},"properties":{"osm_id":"1512518456","tag":{"amenity":"waste_basket"}},"type":"Feature"},
	{"geometry":{"coordinates":[0.328871,46.596672],"type":"Point"},"properties":{"osm_id":"1512518457","tag":{"amenity":"waste_basket"}},"type":"Feature"},
	{"geometry":{"coordinates":[0.326795,46.597372],"type":"Point"},"properties":{"osm_id":"1512518461","tag":{"amenity":"waste_basket"}},"type":"Feature"},
	{"geometry":{"coordinates":[0.342072,46.588294],"type":"Point"},"properties":{"osm_id":"1526137107","ref":"018","tag":{"amenity":"recycling","recycling:batteries":"no","recycling:cans":"no","recycling:clothes":"no","recycling:glass":"yes","recycling:paper":"no","recycling:scrap_metal":"no","recycling_type":"container"}},"type":"Feature"},
	{"geometry":{"coordinates":[0.265607,46.571437],"type":"Point"},"properties":{"osm_id":"1526372707","tag":{"amenity":"recycling","recycling:glass":"yes","recycling_type":"container"}},"type":"Feature"},
	{"geometry":{"coordinates":[0.273456,46.578657],"type":"Point"},"properties":{"osm_id":"1526436337","tag":{"amenity":"recycling","recycling_type":"centre"}},"type":"Feature"},
	{"geometry":{"coordinates":[0.338934,46.5749],"type":"Point"},"properties":{"osm_id":"1575982394","ref":"034","tag":{"amenity":"recycling","recycling:batteries":"no","recycling:cans":"no","recycling:clothes":"no","recycling:glass":"yes","recycling:paper":"no","recycling:scrap_metal":"no","recycling_type":"container"}},"type":"Feature"},
	{"geometry":{"coordinates":[0.339631,46.575195],"type":"Point"},"properties":{"osm_id":"1575982410","tag":{"amenity":"waste_basket","recycling:cans":"yes","recycling:clothes":"no","recycling:glass":"yes","recycling:paper":"yes","recycling:scrap_metal":"no","recycling_type":"container"}},"type":"Feature"},
	{"geometry":{"coordinates":[0.340539,46.575795],"type":"Point"},"properties":{"osm_id":"1575982441","tag":{"amenity":"waste_basket"}},"type":"Feature"},
	{"geometry":{"coordinates":[0.343997,46.578997],"type":"Point"},"properties":{"osm_id":"1575982508","ref":"005","tag":{"amenity":"recycling","recycling:batteries":"no","recycling:cans":"no","recycling:clothes":"no","recycling:glass":"yes","recycling:paper":"no","recycling:scrap_metal":"no","recycling_type":"container"}},"type":"Feature"},
	{"geometry":{"coordinates":[0.32945,46.572867],"type":"Point"},"properties":{"osm_id":"1578956363","tag":{"amenity":"waste_basket"}},"type":"Feature"},
	{"geometry":{"coordinates":[0.329272,46.573181],"type":"Point"},"properties":{"osm_id":"1578956369","ref":"035","tag":{"amenity":"recycling","recycling:batteries":"no","recycling:cans":"no","recycling:clothes":"no","recycling:glass":"yes","recycling:paper":"no","recycling:scrap_metal":"no","recycling_type":"container"}},"type":"Feature"},
	{"geometry":{"coordinates":[0.332372,46.574417],"type":"Point"},"properties":{"osm_id":"1578956394","tag":{"amenity":"waste_basket","recycling:batteries":"no","recycling:cans":"yes","recycling:clothes":"no","recycling:glass":"yes","recycling:paper":"yes","recycling:scrap_metal":"no"}},"type":"Feature"},
	{"geometry":{"coordinates":[0.333817,46.574621],"type":"Point"},"properties":{"osm_id":"1578956402","tag":{"amenity":"waste_basket","recycling:batteries":"no","recycling:cans":"yes","recycling:clothes":"no","recycling:glass":"yes","recycling:paper":"yes","recycling:scrap_metal":"no"}},"type":"Feature"},
	{"geometry":{"coordinates":[0.33553,46.575972],"type":"Point"},"properties":{"osm_id":"1578956588","ref":"019","tag":{"amenity":"recycling","recycling:batteries":"no","recycling:cans":"no","recycling:clothes":"no","recycling:glass":"yes","recycling:paper":"no","recycling:scrap_metal":"no","recycling_type":"container"}},"type":"Feature"},
	{"geometry":{"coordinates":[0.329887,46.576142],"type":"Point"},"properties":{"osm_id":"1578956611","ref":"039","tag":{"amenity":"recycling","recycling:batteries":"no","recycling:cans":"no","recycling:clothes":"no","recycling:glass":"yes","recycling:paper":"no","recycling:scrap_metal":"no","recycling_type":"container"}},"type":"Feature"},
	{"geometry":{"coordinates":[0.338542,46.57652],"type":"Point"},"properties":{"osm_id":"1578956678","tag":{"amenity":"waste_basket"}},"type":"Feature"},
	{"geometry":{"coordinates":[0.331932,46.576891],"type":"Point"},"properties":{"osm_id":"1578956739","tag":{"amenity":"waste_basket"}},"type":"Feature"},
	{"geometry":{"coordinates":[0.332689,46.577562],"type":"Point"},"properties":{"osm_id":"1578956794","tag":{"amenity":"waste_basket"}},"type":"Feature"},
	{"geometry":{"coordinates":[0.333074,46.577697],"type":"Point"},"properties":{"osm_id":"1578956796","tag":{"amenity":"waste_basket"}},"type":"Feature"},
	{"geometry":{"coordinates":[0.331748,46.578539],"type":"Point"},"properties":{"osm_id":"1578956813","ref":"029","tag":{"amenity":"recycling","recycling:batteries":"no","recycling:cans":"no","recycling:clothes":"no","recycling:glass":"yes","recycling:paper":"no","recycling:scrap_metal":"no","recycling_type":"container"}},"type":"Feature"},
	{"geometry":{"coordinates":[0.336184,46.580707],"type":"Point"},"properties":{"osm_id":"1578956826","tag":{"amenity":"waste_basket"}},"type":"Feature"},
	{"geometry":{"coordinates":[0.336019,46.581086],"type":"Point"},"properties":{"osm_id":"1578956830","tag":{"amenity":"recycling","recycling:batteries":"no","recycling:cans":"no","recycling:clothes":"no","recycling:glass":"yes","recycling:paper":"no","recycling:scrap_metal":"no","recycling_type":"container"}},"type":"Feature"},
	{"geometry":{"coordinates":[0.333001,46.581191],"type":"Point"},"properties":{"osm_id":"1578956838","tag":{"amenity":"recycling","recycling:batteries":"no","recycling:cans":"yes","recycling:clothes":"no","recycling:glass":"yes","recycling:paper":"yes","recycling:scrap_metal":"no","recycling_type":"container"}},"type":"Feature"},
	{"geometry":{"coordinates":[0.334259,46.581734],"type":"Point"},"properties":{"osm_id":"1578956853","ref":"011","tag":{"amenity":"recycling","recycling:batteries":"no","recycling:cans":"no","recycling:clothes":"no","recycling:glass":"yes","recycling:paper":"no","recycling:scrap_metal":"no","recycling_type":"container"}},"type":"Feature"},
	{"geometry":{"coordinates":[0.338438,46.582125],"type":"Point"},"properties":{"osm_id":"1578956872","ref":"023","tag":{"amenity":"recycling","recycling:batteries":"no","recycling:cans":"no","recycling:clothes":"no","recycling:glass_bottles":"yes","recycling:paper":"no","recycling:scrap_metal":"no","recycling_type":"container","wheelchair":"no"}},"type":"Feature"},
	{"geometry":{"coordinates":[0.34986,46.591457],"type":"Point"},"properties":{"osm_id":"1582789355","ref":"233","tag":{"amenity":"recycling","recycling:batteries":"no","recycling:cans":"no","recycling:clothes":"no","recycling:glass":"yes","recycling:paper":"no","recycling:scrap_metal":"no","recycling_type":"container"}},"type":"Feature"},
	{"geometry":{"coordinates":[0.340388,46.591866],"type":"Point"},"properties":{"osm_id":"1582789383","tag":{"amenity":"waste_basket"}},"type":"Feature"},
	{"geometry":{"coordinates":[0.349354,46.591873],"type":"Point"},"properties":{"osm_id":"1582789389","ref":"235","tag":{"amenity":"recycling","recycling:batteries":"no","recycling:cans":"no","recycling:clothes":"no","recycling:glass":"yes","recycling:paper":"no","recycling:scrap_metal":"no","recycling_type":"container"}},"type":"Feature"},
	{"geometry":{"coordinates":[0.347657,46.592141],"type":"Point"},"properties":{"osm_id":"1582789502","tag":{"amenity":"waste_basket"}},"type":"Feature"},
	{"geometry":{"coordinates":[0.34057,46.592248],"type":"Point"},"properties":{"osm_id":"1582789521","ref":"249","tag":{"amenity":"recycling","recycling:batteries":"no","recycling:cans":"no","recycling:clothes":"no","recycling:glass":"yes","recycling:paper":"no","recycling:scrap_metal":"no","recycling_type":"container"}},"type":"Feature"},
	{"geometry":{"coordinates":[0.347297,46.592256],"type":"Point"},"properties":{"osm_id":"1582789527","tag":{"amenity":"waste_basket"}},"type":"Feature"},
	{"geometry":{"coordinates":[0.344079,46.592328],"type":"Point"},"properties":{"osm_id":"1582789643","tag":{"amenity":"waste_basket"}},"type":"Feature"},
	{"geometry":{"coordinates":[0.348324,46.592494],"type":"Point"},"properties":{"osm_id":"1582789751","ref":"250","tag":{"amenity":"recycling","recycling:batteries":"no","recycling:cans":"no","recycling:clothes":"no","recycling:glass":"yes","recycling:paper":"no","recycling:scrap_metal":"no","recycling_type":"container"}},"type":"Feature"},
	{"geometry":{"coordinates":[0.341649,46.583955],"type":"Point"},"properties":{"osm_id":"1583805957","ref":"012","tag":{"amenity":"recycling","recycling:batteries":"no","recycling:cans":"no","recycling:clothes":"no","recycling:glass":"yes","recycling:paper":"no","recycling:scrap_metal":"no","recycling_type":"container"}},"type":"Feature"},
	{"geometry":{"coordinates":[0.34195,46.584419],"type":"Point"},"properties":{"osm_id":"1583805962","tag":{"amenity":"waste_basket"}},"type":"Feature"},
	{"geometry":{"coordinates":[0.339206,46.584449],"type":"Point"},"properties":{"osm_id":"1583805967","tag":{"amenity":"waste_basket"}},"type":"Feature"},
	{"geometry":{"coordinates":[0.336707,46.584657],"type":"Point"},"properties":{"osm_id":"1583805981","ref":"030","tag":{"amenity":"recycling","recycling:batteries":"no","recycling:cans":"no","recycling:clothes":"no","recycling:glass":"yes","recycling:paper":"no","recycling:scrap_metal":"no","recycling_type":"container"}},"type":"Feature"},
	{"geometry":{"coordinates":[0.348324,46.584924],"type":"Point"},"properties":{"osm_id":"1583805999","ref":"006","tag":{"amenity":"recycling","recycling:batteries":"no","recycling:cans":"no","recycling:clothes":"no","recycling:glass_bottles":"yes","recycling:paper":"no","recycling:scrap_metal":"no","recycling_type":"container"}},"type":"Feature"},
	{"geometry":{"coordinates":[0.343064,46.5856],"type":"Point"},"properties":{"osm_id":"1583806047","ref":"013","tag":{"amenity":"recycling","recycling:glass":"yes","recycling_type":"container"}},"type":"Feature"},
	{"geometry":{"coordinates":[0.339952,46.586509],"type":"Point"},"properties":{"osm_id":"1583806353","ref":"017","tag":{"amenity":"recycling","recycling:batteries":"no","recycling:cans":"no","recycling:clothes":"no","recycling:glass":"yes","recycling:paper":"no","recycling:scrap_metal":"no","recycling_type":"container"}},"type":"Feature"},
	{"geometry":{"coordinates":[0.343833,46.586644],"type":"Point"},"properties":{"osm_id":"1583806382","tag":{"amenity":"waste_basket"}},"type":"Feature"},
	{"geometry":{"coordinates":[0.339262,46.587099],"type":"Point"},"properties":{"osm_id":"1583806607","ref":"038","tag":{"amenity":"recycling","recycling:batteries":"no","recycling:cans":"no","recycling:clothes":"no","recycling:glass":"yes","recycling:paper":"no","recycling:scrap_metal":"no","recycling_type":"container"}},"type":"Feature"},
	{"geometry":{"coordinates":[0.344075,46.587127],"type":"Point"},"properties":{"osm_id":"1583806610","ref":"001","tag":{"amenity":"recycling","recycling:batteries":"no","recycling:cans":"no","recycling:clothes":"no","recycling:glass":"yes","recycling:paper":"no","recycling:scrap_metal":"no","recycling_type":"container"}},"type":"Feature"},
	{"geometry":{"coordinates":[0.348389,46.587896],"type":"Point"},"properties":{"osm_id":"1583806703","tag":{"amenity":"waste_basket","recycling:batteries":"no","recycling:cans":"yes","recycling:clothes":"no","recycling:glass":"yes","recycling:paper":"yes","recycling:scrap_metal":"no"}},"type":"Feature"},
	{"geometry":{"coordinates":[0.340536,46.58795],"type":"Point"},"properties":{"osm_id":"1583806735","ref":"014","tag":{"amenity":"recycling","recycling:batteries":"no","recycling:cans":"no","recycling:clothes":"no","recycling:glass_bottles":"yes","recycling:paper":"no","recycling:scrap_metal":"no","recycling_type":"container"}},"type":"Feature"},
	{"geometry":{"coordinates":[0.340241,46.588093],"type":"Point"},"properties":{"osm_id":"1583806915","tag":{"amenity":"waste_basket"}},"type":"Feature"},
	{"geometry":{"coordinates":[0.348523,46.588105],"type":"Point"},"properties":{"osm_id":"1583806920","ref":"042","tag":{"amenity":"recycling","recycling:batteries":"no","recycling:clothes":"no","recycling:glass_bottles":"yes","recycling:paper":"no","recycling:scrap_metal":"no","recycling_type":"container"}},"type":"Feature"},
	{"geometry":{"coordinates":[0.340007,46.588133],"type":"Point"},"properties":{"osm_id":"1583806971","tag":{"amenity":"waste_basket"}},"type":"Feature"},
	{"geometry":{"coordinates":[0.347366,46.588826],"type":"Point"},"properties":{"osm_id":"1583807216","tag":{"amenity":"waste_basket"}},"type":"Feature"},
	{"geometry":{"coordinates":[0.343397,46.588988],"type":"Point"},"properties":{"osm_id":"1583807245","tag":{"amenity":"waste_basket"}},"type":"Feature"},
	{"geometry":{"coordinates":[0.343064,46.589092],"type":"Point"},"properties":{"osm_id":"1583807283","ref":"020","tag":{"amenity":"recycling","recycling:batteries":"no","recycling:cans":"no","recycling:clothes":"no","recycling:glass":"yes","recycling:paper":"no","recycling:scrap_metal":"no","recycling_type":"container"}},"type":"Feature"},
	{"geometry":{"coordinates":[0.33959,46.589138],"type":"Point"},"properties":{"osm_id":"1583807316","ref":"081","tag":{"amenity":"recycling","recycling:batteries":"no","recycling:cans":"no","recycling:clothes":"no","recycling:glass_bottles":"yes","recycling:paper":"no","recycling:scrap_metal":"no","recycling_type":"container"}},"type":"Feature"},
	{"geometry":{"coordinates":[0.341345,46.590176],"type":"Point"},"properties":{"osm_id":"1583807513","ref":"032","tag":{"amenity":"recycling","recycling:batteries":"no","recycling:cans":"no","recycling:clothes":"no","recycling:glass_bottles":"yes","recycling:paper":"no","recycling:scrap_metal":"no","recycling_type":"container"}},"type":"Feature"},
	{"geometry":{"coordinates":[0.347137,46.583031],"type":"Point"},"properties":{"osm_id":"1584459222","tag":{"amenity":"waste_basket"}},"type":"Feature"},
	{"geometry":{"coordinates":[0.347897,46.583127],"type":"Point"},"properties":{"osm_id":"1584459250","tag":{"amenity":"waste_basket"}},"type":"Feature"},
	{"geometry":{"coordinates":[0.345942,46.584664],"type":"Point"},"properties":{"osm_id":"1584459351","tag":{"amenity":"waste_basket"}},"type":"Feature"},
	{"geometry":{"coordinates":[0.343029,46.585554],"type":"Point"},"properties":{"osm_id":"1584459365","tag":{"amenity":"recycling","recycling:cans":"yes","recycling:glass":"yes","recycling:paper":"yes","recycling_type":"container"}},"type":"Feature"},
	{"geometry":{"coordinates":[0.345512,46.576125],"type":"Point"},"properties":{"osm_id":"1585194458","ref":"036","tag":{"amenity":"recycling","recycling:batteries":"no","recycling:cans":"no","recycling:clothes":"no","recycling:glass":"yes","recycling:paper":"no","recycling:scrap_metal":"no","recycling_type":"container"}},"type":"Feature"},
	{"geometry":{"coordinates":[0.336192,46.577621],"type":"Point"},"properties":{"osm_id":"1585194529","tag":{"amenity":"waste_basket"}},"type":"Feature"},
	{"geometry":{"coordinates":[0.349506,46.579419],"type":"Point"},"properties":{"osm_id":"1585194577","ref":"022","tag":{"amenity":"recycling","recycling:batteries":"no","recycling:cans":"no","recycling:clothes":"no","recycling:glass":"yes","recycling:paper":"no","recycling:scrap_metal":"no","recycling_type":"container"}},"type":"Feature"},
	{"geometry":{"coordinates":[0.338874,46.581382],"type":"Point"},"properties":{"osm_id":"1585194607","ref":"026","tag":{"amenity":"recycling","recycling:batteries":"no","recycling:cans":"no","recycling:clothes":"no","recycling:glass":"yes","recycling:paper":"no","recycling:scrap_metal":"no","recycling_type":"container"}},"type":"Feature"},
	{"geometry":{"coordinates":[0.345445,46.584037],"type":"Point"},"properties":{"osm_id":"1585194661","tag":{"amenity":"waste_basket"}},"type":"Feature"},
	{"geometry":{"coordinates":[0.343593,46.584848],"type":"Point"},"properties":{"osm_id":"1585194717","tag":{"amenity":"waste_basket"}},"type":"Feature"},
	{"geometry":{"coordinates":[0.342625,46.581644],"type":"Point"},"properties":{"osm_id":"1588412571","tag":{"amenity":"waste_basket"}},"type":"Feature"},
	{"geometry":{"coordinates":[0.343312,46.584913],"type":"Point"},"properties":{"osm_id":"1588412676","tag":{"amenity":"waste_basket"}},"type":"Feature"},
	{"geometry":{"coordinates":[0.350917,46.585099],"type":"Point"},"properties":{"osm_id":"1596090288","ref":"043","tag":{"amenity":"recycling","recycling:batteries":"no","recycling:cans":"no","recycling:clothes":"no","recycling:glass_bottles":"yes","recycling:paper":"no","recycling:scrap_metal":"no","recycling_type":"container"}},"type":"Feature"},
	{"geometry":{"coordinates":[0.347747,46.588746],"type":"Point"},"properties":{"osm_id":"1596090300","tag":{"amenity":"waste_basket"}},"type":"Feature"},
	{"geometry":{"coordinates":[0.341388,46.590459],"type":"Point"},"properties":{"osm_id":"1596671422","tag":{"amenity":"waste_basket"}},"type":"Feature"},
	{"geometry":{"coordinates":[0.342822,46.590656],"type":"Point"},"properties":{"osm_id":"1596671439","tag":{"amenity":"waste_basket"}},"type":"Feature"},
	{"geometry":{"coordinates":[0.346371,46.574864],"type":"Point"},"properties":{"osm_id":"1596837965","tag":{"amenity":"waste_basket"}},"type":"Feature"},
	{"geometry":{"coordinates":[0.345103,46.57527],"type":"Point"},"properties":{"osm_id":"1596837975","tag":{"amenity":"waste_basket"}},"type":"Feature"},
	{"geometry":{"coordinates":[0.347139,46.575445],"type":"Point"},"properties":{"osm_id":"1596838008","tag":{"amenity":"waste_basket"}},"type":"Feature"},
	{"geometry":{"coordinates":[0.345628,46.575455],"type":"Point"},"properties":{"osm_id":"1596838009","tag":{"amenity":"waste_basket"}},"type":"Feature"},
	{"geometry":{"coordinates":[0.345505,46.575643],"type":"Point"},"properties":{"osm_id":"1596838034","tag":{"amenity":"waste_basket"}},"type":"Feature"},
	{"geometry":{"coordinates":[0.347731,46.575715],"type":"Point"},"properties":{"osm_id":"1596838038","tag":{"amenity":"waste_basket"}},"type":"Feature"},
	{"geometry":{"coordinates":[0.34917,46.576169],"type":"Point"},"properties":{"osm_id":"1596838048","tag":{"amenity":"waste_basket"}},"type":"Feature"},
	{"geometry":{"coordinates":[0.350686,46.576638],"type":"Point"},"properties":{"osm_id":"1596838062","tag":{"amenity":"waste_basket"}},"type":"Feature"},
	{"geometry":{"coordinates":[0.351487,46.577299],"type":"Point"},"properties":{"osm_id":"1596838065","tag":{"amenity":"waste_basket"}},"type":"Feature"},
	{"geometry":{"coordinates":[0.340279,46.579889],"type":"Point"},"properties":{"osm_id":"1670276305","tag":{"amenity":"waste_basket"}},"type":"Feature"},
	{"geometry":{"coordinates":[0.340158,46.579904],"type":"Point"},"properties":{"osm_id":"1670276308","tag":{"amenity":"waste_basket"}},"type":"Feature"},
	{"geometry":{"coordinates":[0.339396,46.580249],"type":"Point"},"properties":{"osm_id":"1670276332","tag":{"amenity":"waste_basket"}},"type":"Feature"},
	{"geometry":{"coordinates":[0.338411,46.580464],"type":"Point"},"properties":{"osm_id":"1670276376","tag":{"amenity":"waste_basket"}},"type":"Feature"},
	{"geometry":{"coordinates":[0.341311,46.580477],"type":"Point"},"properties":{"osm_id":"1670276378","tag":{"amenity":"waste_basket"}},"type":"Feature"},
	{"geometry":{"coordinates":[0.341022,46.580514],"type":"Point"},"properties":{"osm_id":"1670276394","tag":{"amenity":"waste_basket"}},"type":"Feature"},
	{"geometry":{"coordinates":[0.337759,46.580543],"type":"Point"},"properties":{"osm_id":"1670276414","tag":{"amenity":"waste_basket"}},"type":"Feature"},
	{"geometry":{"coordinates":[0.337813,46.58066],"type":"Point"},"properties":{"osm_id":"1670276418","tag":{"amenity":"waste_basket"}},"type":"Feature"},
	{"geometry":{"coordinates":[0.324713,46.592969],"type":"Point"},"properties":{"osm_id":"1670331580","tag":{"amenity":"waste_basket"}},"type":"Feature"},
	{"geometry":{"coordinates":[0.324477,46.593177],"type":"Point"},"properties":{"osm_id":"1670331606","tag":{"amenity":"waste_basket"}},"type":"Feature"},
	{"geometry":{"coordinates":[0.325924,46.593461],"type":"Point"},"properties":{"osm_id":"1670331655","tag":{"amenity":"waste_basket"}},"type":"Feature"},
	{"geometry":{"coordinates":[0.32592,46.593754],"type":"Point"},"properties":{"osm_id":"1670331707","tag":{"amenity":"waste_basket"}},"type":"Feature"},
	{"geometry":{"coordinates":[0.323562,46.598384],"type":"Point"},"properties":{"osm_id":"1684677803","ref":"155","tag":{"amenity":"recycling","recycling:batteries":"no","recycling:cans":"no","recycling:clothes":"no","recycling:glass":"yes","recycling:paper":"no","recycling:scrap_metal":"no","recycling_type":"container"}},"type":"Feature"},
	{"geometry":{"coordinates":[0.324277,46.599489],"type":"Point"},"properties":{"osm_id":"1684677832","ref":"165","tag":{"amenity":"recycling","recycling:batteries":"no","recycling:cans":"no","recycling:clothes":"no","recycling:glass":"yes","recycling:paper":"no","recycling:scrap_metal":"no","recycling_type":"container"}},"type":"Feature"},
	{"geometry":{"coordinates":[0.3244,46.599731],"type":"Point"},"properties":{"osm_id":"1684677840","tag":{"amenity":"waste_basket"}},"type":"Feature"},
	{"geometry":{"coordinates":[0.324475,46.589921],"type":"Point"},"properties":{"osm_id":"1685210296","tag":{"amenity":"waste_basket"}},"type":"Feature"},
	{"geometry":{"coordinates":[0.326168,46.590793],"type":"Point"},"properties":{"osm_id":"1685210354","tag":{"amenity":"recycling","recycling:batteries":"no","recycling:cans":"yes","recycling:clothes":"no","recycling:glass":"no","recycling:newspaper":"yes","recycling:paper":"yes","recycling:plastic":"yes","recycling:scrap_metal":"no","recycling_type":"container"}},"type":"Feature"},
	{"geometry":{"coordinates":[0.322081,46.591155],"type":"Point"},"properties":{"osm_id":"1685210377","ref":"159","tag":{"amenity":"recycling","recycling:batteries":"no","recycling:cans":"no","recycling:clothes":"no","recycling:glass":"yes","recycling:paper":"no","recycling:scrap_metal":"no","recycling_type":"container"}},"type":"Feature"},
	{"geometry":{"coordinates":[0.323955,46.591253],"type":"Point"},"properties":{"osm_id":"1685210395","tag":{"amenity":"recycling","recycling:batteries":"no","recycling:cans":"yes","recycling:clothes":"no","recycling:glass":"no","recycling:newspaper":"yes","recycling:paper":"yes","recycling:plastic":"yes","recycling:scrap_metal":"no","recycling_type":"container"}},"type":"Feature"},
	{"geometry":{"coordinates":[0.324031,46.591324],"type":"Point"},"properties":{"osm_id":"1685210434","ref":"160","tag":{"amenity":"recycling","recycling:batteries":"no","recycling:cans":"no","recycling:clothes":"no","recycling:glass":"yes","recycling:paper":"no","recycling:scrap_metal":"no","recycling_type":"container"}},"type":"Feature"},
	{"geometry":{"coordinates":[0.320003,46.592823],"type":"Point"},"properties":{"osm_id":"1685210730","ref":"158","tag":{"amenity":"recycling","recycling:batteries":"no","recycling:cans":"no","recycling:clothes":"no","recycling:glass":"yes","recycling:glass_bottles":"yes","recycling:paper":"no","recycling:plastic":"no","recycling:scrap_metal":"no","recycling_type":"container"}},"type":"Feature"},
	{"geometry":{"coordinates":[0.325856,46.589636],"type":"Point"},"properties":{"osm_id":"1685272052","tag":{"amenity":"recycling","recycling:batteries":"no","recycling:cans":"yes","recycling:clothes":"no","recycling:glass":"no","recycling:newspaper":"yes","recycling:paper":"yes","recycling:plastic":"yes","recycling:scrap_metal":"no","recycling_type":"container"}},"type":"Feature"},
	{"geometry":{"coordinates":[0.331143,46.597475],"type":"Point"},"properties":{"osm_id":"1686133730","tag":{"amenity":"waste_basket"}},"type":"Feature"},
	{"geometry":{"coordinates":[0.331912,46.597782],"type":"Point"},"properties":{"osm_id":"1686133733","tag":{"amenity":"waste_basket"}},"type":"Feature"},
	{"geometry":{"coordinates":[0.334825,46.60316],"type":"Point"},"properties":{"osm_id":"1686133792","tag":{"amenity":"recycling","recycling:batteries":"no","recycling:cans":"no","recycling:clothes":"no","recycling:glass":"yes","recycling:paper":"no","recycling:scrap_metal":"no","recycling_type":"container"}},"type":"Feature"},
	{"geometry":{"coordinates":[0.315717,46.614028],"type":"Point"},"properties":{"osm_id":"1686133896","tag":{"amenity":"waste_basket"}},"type":"Feature"},
	{"geometry":{"coordinates":[0.320111,46.576511],"type":"Point"},"properties":{"osm_id":"1700088938","tag":{"amenity":"waste_basket"}},"type":"Feature"},
	{"geometry":{"coordinates":[0.320107,46.576528],"type":"Point"},"properties":{"osm_id":"1700088962","tag":{"amenity":"waste_basket"}},"type":"Feature"},
	{"geometry":{"coordinates":[0.338582,46.601745],"type":"Point"},"properties":{"osm_id":"1700089117","ref":"161","tag":{"amenity":"recycling","recycling:batteries":"no","recycling:cans":"no","recycling:clothes":"no","recycling:glass":"yes","recycling:paper":"no","recycling:scrap_metal":"no","recycling_type":"container"}},"type":"Feature"},
	{"geometry":{"coordinates":[0.336449,46.605597],"type":"Point"},"properties":{"osm_id":"1700089828","ref":"150","tag":{"amenity":"recycling","recycling:batteries":"no","recycling:cans":"no","recycling:clothes":"no","recycling:glass":"yes","recycling:paper":"no","recycling:scrap_metal":"no","recycling_type":"container"}},"type":"Feature"},
	{"geometry":{"coordinates":[0.347525,46.608643],"type":"Point"},"properties":{"osm_id":"1700089875","ref":"145","tag":{"amenity":"recycling","recycling:batteries":"no","recycling:cans":"no","recycling:clothes":"no","recycling:glass":"yes","recycling:paper":"no","recycling:scrap_metal":"no","recycling_type":"container"}},"type":"Feature"},
	{"geometry":{"coordinates":[0.322668,46.577257],"type":"Point"},"properties":{"osm_id":"1701260686","tag":{"amenity":"waste_basket"}},"type":"Feature"},
	{"geometry":{"coordinates":[0.334767,46.595851],"type":"Point"},"properties":{"osm_id":"1701260919","tag":{"amenity":"waste_basket"}},"type":"Feature"},
	{"geometry":{"coordinates":[0.334613,46.595915],"type":"Point"},"properties":{"osm_id":"1701260922","tag":{"amenity":"waste_basket"}},"type":"Feature"},
	{"geometry":{"coordinates":[0.334701,46.596026],"type":"Point"},"properties":{"osm_id":"1701260986","tag":{"amenity":"waste_basket"}},"type":"Feature"},
	{"geometry":{"coordinates":[0.333463,46.598051],"type":"Point"},"properties":{"osm_id":"1701261073","tag":{"amenity":"waste_basket"}},"type":"Feature"},
	{"geometry":{"coordinates":[0.314023,46.57891],"type":"Point"},"properties":{"osm_id":"1732975852","ref":"302","tag":{"amenity":"recycling","recycling:batteries":"no","recycling:cans":"no","recycling:clothes":"no","recycling:glass":"yes","recycling:paper":"no","recycling:scrap_metal":"no","recycling_type":"container"}},"type":"Feature"},
	{"geometry":{"coordinates":[0.315873,46.56991],"type":"Point"},"properties":{"osm_id":"1808696763","tag":{"amenity":"waste_basket"}},"type":"Feature"},
	{"geometry":{"coordinates":[0.316021,46.570004],"type":"Point"},"properties":{"osm_id":"1808696828","ref":"203","tag":{"amenity":"recycling","recycling:batteries":"no","recycling:cans":"no","recycling:clothes":"no","recycling:glass":"yes","recycling:paper":"no","recycling:scrap_metal":"no","recycling_type":"container"}},"type":"Feature"},
	{"geometry":{"coordinates":[0.312595,46.570729],"type":"Point"},"properties":{"osm_id":"1808696875","ref":"208","tag":{"amenity":"recycling","recycling:batteries":"no","recycling:cans":"no","recycling:clothes":"no","recycling:glass":"yes","recycling:paper":"no","recycling:scrap_metal":"no","recycling_type":"container"}},"type":"Feature"},
	{"geometry":{"coordinates":[0.315132,46.572477],"type":"Point"},"properties":{"osm_id":"1808696923","tag":{"amenity":"waste_basket"}},"type":"Feature"},
	{"geometry":{"coordinates":[0.325857,46.574718],"type":"Point"},"properties":{"osm_id":"1808696947","tag":{"amenity":"waste_basket"}},"type":"Feature"},
	{"geometry":{"coordinates":[0.314514,46.56013],"type":"Point"},"properties":{"osm_id":"1818867972","tag":{"amenity":"recycling","note:fr":"r\u00c3\u00a9f\u00c3\u00a9rence inconnues","recycling:batteries":"no","recycling:cans":"no","recycling:clothes":"no","recycling:glass":"yes","recycling:paper":"no","recycling:scrap_metal":"no","recycling_type":"container"}},"type":"Feature"},
	{"geometry":{"coordinates":[0.317982,46.564721],"type":"Point"},"properties":{"osm_id":"1818868023","tag":{"amenity":"waste_basket"}},"type":"Feature"},
	{"geometry":{"coordinates":[0.320567,46.56788],"type":"Point"},"properties":{"osm_id":"1818868056","tag":{"amenity":"waste_basket"}},"type":"Feature"},
	{"geometry":{"coordinates":[0.32638,46.5718],"type":"Point"},"properties":{"osm_id":"1818868064","tag":{"amenity":"waste_basket"}},"type":"Feature"},
	{"geometry":{"coordinates":[0.307384,46.563078],"type":"Point"},"properties":{"osm_id":"1846885839","tag":{"amenity":"waste_basket"}},"type":"Feature"},
	{"geometry":{"coordinates":[0.313241,46.565508],"type":"Point"},"properties":{"osm_id":"1846885849","tag":{"amenity":"waste_basket"}},"type":"Feature"},
	{"geometry":{"coordinates":[0.30571,46.565658],"type":"Point"},"properties":{"osm_id":"1846885851","ref":"497","tag":{"amenity":"recycling","recycling:batteries":"no","recycling:cans":"no","recycling:clothes":"no","recycling:glass":"yes","recycling:paper":"no","recycling:scrap_metal":"no","recycling_type":"container"}},"type":"Feature"},
	{"geometry":{"coordinates":[0.311894,46.565653],"type":"Point"},"properties":{"osm_id":"1846885853","ref":"196","tag":{"amenity":"recycling","recycling:batteries":"no","recycling:cans":"no","recycling:clothes":"no","recycling:glass":"yes","recycling:paper":"no","recycling:scrap_metal":"no","recycling_type":"container"}},"type":"Feature"},
	{"geometry":{"coordinates":[0.31327,46.568007],"type":"Point"},"properties":{"osm_id":"1846885863","ref":"207","tag":{"amenity":"recycling","recycling:batteries":"no","recycling:cans":"no","recycling:clothes":"no","recycling:glass":"yes","recycling:paper":"no","recycling:scrap_metal":"no","recycling_type":"container"}},"type":"Feature"},
	{"geometry":{"coordinates":[0.302156,46.568218],"type":"Point"},"properties":{"osm_id":"1846885864","tag":{"amenity":"waste_basket"}},"type":"Feature"},
	{"geometry":{"coordinates":[0.313563,46.573604],"type":"Point"},"properties":{"osm_id":"1846885882","ref":"306","tag":{"amenity":"recycling","recycling:batteries":"no","recycling:cans":"no","recycling:clothes":"no","recycling:glass":"yes","recycling:paper":"no","recycling:scrap_metal":"no","recycling_type":"container"}},"type":"Feature"},
	{"geometry":{"coordinates":[0.327123,46.577338],"type":"Point"},"properties":{"osm_id":"1846885883","ref":"162","tag":{"amenity":"recycling","recycling:batteries":"no","recycling:cans":"no","recycling:clothes":"no","recycling:glass":"yes","recycling:paper":"no","recycling:scrap_metal":"no","recycling_type":"container"}},"type":"Feature"},
	{"geometry":{"coordinates":[0.351089,46.566779],"type":"Point"},"properties":{"osm_id":"1848516043","ref":"060","tag":{"amenity":"recycling","recycling:batteries":"no","recycling:cans":"no","recycling:clothes":"no","recycling:glass":"yes","recycling:paper":"no","recycling:scrap_metal":"no","recycling_type":"container"}},"type":"Feature"},
	{"geometry":{"coordinates":[0.348197,46.567098],"type":"Point"},"properties":{"osm_id":"1848516144","ref":"053","tag":{"amenity":"recycling","recycling:batteries":"no","recycling:cans":"no","recycling:clothes":"no","recycling:glass":"yes","recycling:paper":"no","recycling:scrap_metal":"no","recycling_type":"container"}},"type":"Feature"},
	{"geometry":{"coordinates":[0.343037,46.569535],"type":"Point"},"properties":{"osm_id":"1848516286","ref":"067","tag":{"amenity":"recycling","recycling:batteries":"no","recycling:cans":"no","recycling:clothes":"no","recycling:glass":"yes","recycling:paper":"no","recycling:scrap_metal":"no","recycling_type":"container"}},"type":"Feature"},
	{"geometry":{"coordinates":[0.34438,46.570878],"type":"Point"},"properties":{"osm_id":"1848516390","ref":"065","tag":{"amenity":"recycling","recycling:batteries":"no","recycling:cans":"no","recycling:clothes":"no","recycling:glass":"yes","recycling:paper":"no","recycling:scrap_metal":"no","recycling_type":"container"}},"type":"Feature"},
	{"geometry":{"coordinates":[0.35029,46.572562],"type":"Point"},"properties":{"osm_id":"1848516436","tag":{"amenity":"waste_basket"}},"type":"Feature"},
	{"geometry":{"coordinates":[0.351179,46.564326],"type":"Point"},"properties":{"osm_id":"1850375076","ref":"056","tag":{"amenity":"recycling","recycling:batteries":"no","recycling:cans":"no","recycling:clothes":"no","recycling:glass":"yes","recycling:paper":"no","recycling:scrap_metal":"no","recycling_type":"container"}},"type":"Feature"},
	{"geometry":{"coordinates":[0.343232,46.558884],"type":"Point"},"properties":{"osm_id":"1853961835","ref":"461","tag":{"amenity":"recycling","recycling:batteries":"no","recycling:cans":"no","recycling:clothes":"no","recycling:glass":"yes","recycling:paper":"no","recycling:scrap_metal":"no","recycling_type":"container"}},"type":"Feature"},
	{"geometry":{"coordinates":[0.342903,46.563441],"type":"Point"},"properties":{"osm_id":"1853962345","ref":"058","tag":{"amenity":"recycling","recycling:batteries":"no","recycling:cans":"no","recycling:clothes":"no","recycling:glass":"yes","recycling:paper":"no","recycling:scrap_metal":"no","recycling_type":"container"}},"type":"Feature"},
	{"geometry":{"coordinates":[0.338126,46.564334],"type":"Point"},"properties":{"osm_id":"1853962689","ref":"054","tag":{"amenity":"recycling","recycling:batteries":"no","recycling:cans":"no","recycling:clothes":"no","recycling:glass":"yes","recycling:paper":"no","recycling:scrap_metal":"no","recycling_type":"container"}},"type":"Feature"},
	{"geometry":{"coordinates":[0.339851,46.56548],"type":"Point"},"properties":{"osm_id":"1853963363","ref":"059","tag":{"amenity":"recycling","recycling:batteries":"no","recycling:cans":"no","recycling:clothes":"no","recycling:glass":"yes","recycling:paper":"no","recycling:scrap_metal":"no","recycling_type":"container"}},"type":"Feature"},
	{"geometry":{"coordinates":[0.340972,46.567448],"type":"Point"},"properties":{"osm_id":"1855302559","ref":"057","tag":{"amenity":"recycling","recycling:batteries":"no","recycling:cans":"no","recycling:clothes":"no","recycling:glass":"yes","recycling:paper":"no","recycling:scrap_metal":"no","recycling_type":"container"}},"type":"Feature"},
	{"geometry":{"coordinates":[0.333269,46.570388],"type":"Point"},"properties":{"osm_id":"1855302668","ref":"069","tag":{"amenity":"recycling","recycling:batteries":"no","recycling:cans":"no","recycling:clothes":"no","recycling:glass":"yes","recycling:paper":"no","recycling:scrap_metal":"no","recycling_type":"container"}},"type":"Feature"},
	{"geometry":{"coordinates":[0.340638,46.573228],"type":"Point"},"properties":{"osm_id":"1855302853","tag":{"amenity":"waste_basket"}},"type":"Feature"},
	{"geometry":{"coordinates":[0.340638,46.5698],"type":"Point"},"properties":{"name":"064","osm_id":"1855302898","tag":{"amenity":"recycling","recycling:glass":"yes","recycling_type":"container"}},"type":"Feature"},
	{"geometry":{"coordinates":[0.330126,46.558861],"type":"Point"},"properties":{"osm_id":"1856027438","ref":"456","tag":{"amenity":"recycling","recycling:batteries":"no","recycling:cans":"no","recycling:clothes":"no","recycling:glass":"yes","recycling:paper":"no","recycling:scrap_metal":"no","recycling_type":"container"}},"type":"Feature"},
	{"geometry":{"coordinates":[0.327111,46.558939],"type":"Point"},"properties":{"osm_id":"1856027457","tag":{"amenity":"waste_basket"}},"type":"Feature"},
	{"geometry":{"coordinates":[0.32973,46.559172],"type":"Point"},"properties":{"osm_id":"1856027556","tag":{"amenity":"waste_basket"}},"type":"Feature"},
	{"geometry":{"coordinates":[0.335182,46.559277],"type":"Point"},"properties":{"osm_id":"1856027590","tag":{"amenity":"waste_basket"}},"type":"Feature"},
	{"geometry":{"coordinates":[0.32823,46.559434],"type":"Point"},"properties":{"osm_id":"1856027629","tag":{"amenity":"waste_basket","recycling:plastic":"yes"}},"type":"Feature"},
	{"geometry":{"coordinates":[0.328233,46.559609],"type":"Point"},"properties":{"osm_id":"1856027661","tag":{"amenity":"waste_basket"}},"type":"Feature"},
	{"geometry":{"coordinates":[0.327667,46.559702],"type":"Point"},"properties":{"osm_id":"1856027666","tag":{"amenity":"waste_basket"}},"type":"Feature"},
	{"geometry":{"coordinates":[0.327705,46.55981],"type":"Point"},"properties":{"osm_id":"1856027692","tag":{"amenity":"waste_basket"}},"type":"Feature"},
	{"geometry":{"coordinates":[0.32814,46.560281],"type":"Point"},"properties":{"osm_id":"1856027701","tag":{"amenity":"waste_basket"}},"type":"Feature"},
	{"geometry":{"coordinates":[0.328555,46.560818],"type":"Point"},"properties":{"osm_id":"1856027739","tag":{"amenity":"waste_basket"}},"type":"Feature"},
	{"geometry":{"coordinates":[0.32874,46.561123],"type":"Point"},"properties":{"osm_id":"1856027752","tag":{"amenity":"waste_basket"}},"type":"Feature"},
	{"geometry":{"coordinates":[0.346032,46.563569],"type":"Point"},"properties":{"osm_id":"1860883011","tag":{"amenity":"waste_basket","recycling:batteries":"no","recycling:cans":"yes","recycling:clothes":"no","recycling:glass":"yes","recycling:paper":"yes","recycling:scrap_metal":"no"}},"type":"Feature"},
	{"geometry":{"coordinates":[0.346661,46.564748],"type":"Point"},"properties":{"osm_id":"1860883462","tag":{"amenity":"waste_basket","recycling:batteries":"no","recycling:cans":"yes","recycling:clothes":"no","recycling:glass":"yes","recycling:paper":"yes","recycling:scrap_metal":"no"}},"type":"Feature"},
	{"geometry":{"coordinates":[0.345078,46.564888],"type":"Point"},"properties":{"osm_id":"1860883558","tag":{"amenity":"waste_basket","recycling:batteries":"no","recycling:cans":"yes","recycling:clothes":"no","recycling:glass":"yes","recycling:paper":"yes","recycling:scrap_metal":"no"}},"type":"Feature"},
	{"geometry":{"coordinates":[0.3445,46.56527],"type":"Point"},"properties":{"osm_id":"1860883644","tag":{"amenity":"waste_basket","recycling:batteries":"no","recycling:cans":"yes","recycling:clothes":"no","recycling:glass":"yes","recycling:paper":"yes","recycling:scrap_metal":"no"}},"type":"Feature"},
	{"geometry":{"coordinates":[0.345328,46.565357],"type":"Point"},"properties":{"osm_id":"1860883668","ref":"305","tag":{"amenity":"recycling","recycling:batteries":"no","recycling:cans":"no","recycling:clothes":"no","recycling:glass":"yes","recycling:paper":"no","recycling:scrap_metal":"no","recycling_type":"container"}},"type":"Feature"},
	{"geometry":{"coordinates":[0.345133,46.565352],"type":"Point"},"properties":{"osm_id":"1860900549","tag":{"amenity":"waste_basket","recycling:batteries":"no","recycling:cans":"yes","recycling:clothes":"no","recycling:glass":"yes","recycling:paper":"yes","recycling:scrap_metal":"no"}},"type":"Feature"},
	{"geometry":{"coordinates":[0.346084,46.59459],"type":"Point"},"properties":{"osm_id":"1884020833","tag":{"amenity":"waste_basket"}},"type":"Feature"},
	{"geometry":{"coordinates":[0.350839,46.597074],"type":"Point"},"properties":{"osm_id":"1884021064","ref":"320","tag":{"amenity":"recycling","recycling:batteries":"no","recycling:cans":"no","recycling:clothes":"no","recycling:glass":"yes","recycling:paper":"no","recycling:scrap_metal":"no","recycling_type":"container"}},"type":"Feature"},
	{"geometry":{"coordinates":[0.350836,46.597076],"type":"Point"},"properties":{"osm_id":"1884021083","ref":"319","tag":{"amenity":"recycling","recycling:batteries":"no","recycling:cans":"no","recycling:clothes":"no","recycling:glass":"yes","recycling:paper":"no","recycling:scrap_metal":"no","recycling_type":"container"}},"type":"Feature"},
	{"geometry":{"coordinates":[0.338432,46.586577],"type":"Point"},"properties":{"osm_id":"1912865203","tag":{"amenity":"recycling","recycling:glass":"yes","recycling_type":"container"}},"type":"Feature"},
	{"geometry":{"coordinates":[0.342002,46.581444],"type":"Point"},"properties":{"osm_id":"1913168626","tag":{"amenity":"waste_basket"}},"type":"Feature"},
	{"geometry":{"coordinates":[0.339675,46.578222],"type":"Point"},"properties":{"osm_id":"1917432059","ref":"025","tag":{"amenity":"recycling","recycling:batteries":"no","recycling:cans":"no","recycling:clothes":"no","recycling:glass":"yes","recycling:paper":"no","recycling:scrap_metal":"no","recycling_type":"container"}},"type":"Feature"},
	{"geometry":{"coordinates":[0.340504,46.579081],"type":"Point"},"properties":{"osm_id":"1917432084","tag":{"amenity":"waste_basket"}},"type":"Feature"},
	{"geometry":{"coordinates":[0.340066,46.579219],"type":"Point"},"properties":{"osm_id":"1917432091","tag":{"amenity":"waste_basket"}},"type":"Feature"},
	{"geometry":{"coordinates":[0.344715,46.583848],"type":"Point"},"properties":{"osm_id":"1917432134","ref":"010","tag":{"amenity":"recycling","recycling:batteries":"no","recycling:cans":"no","recycling:clothes":"no","recycling:glass":"yes","recycling:paper":"no","recycling:scrap_metal":"no","recycling_type":"container"}},"type":"Feature"},
	{"geometry":{"coordinates":[0.335022,46.575165],"type":"Point"},"properties":{"osm_id":"1923378566","tag":{"amenity":"waste_basket","recycling:batteries":"no","recycling:cans":"yes","recycling:clothes":"no","recycling:glass":"yes","recycling:paper":"yes","recycling:scrap_metal":"no"}},"type":"Feature"},
	{"geometry":{"coordinates":[0.340529,46.582674],"type":"Point"},"properties":{"osm_id":"1996998266","tag":{"amenity":"waste_basket"}},"type":"Feature"},
	{"geometry":{"coordinates":[0.313538,46.562278],"type":"Point"},"properties":{"osm_id":"2048784645","tag":{"amenity":"waste_basket"}},"type":"Feature"},
	{"geometry":{"coordinates":[0.312899,46.562724],"type":"Point"},"properties":{"osm_id":"2048784668","tag":{"amenity":"waste_basket"}},"type":"Feature"},
	{"geometry":{"coordinates":[0.312043,46.563098],"type":"Point"},"properties":{"osm_id":"2048784695","tag":{"amenity":"waste_basket"}},"type":"Feature"},
	{"geometry":{"coordinates":[0.314876,46.563554],"type":"Point"},"properties":{"osm_id":"2048784730","ref":"199","tag":{"amenity":"recycling","recycling:batteries":"no","recycling:cans":"no","recycling:clothes":"no","recycling:glass":"yes","recycling:paper":"no","recycling:scrap_metal":"no","recycling_type":"container"}},"type":"Feature"},
	{"geometry":{"coordinates":[0.31272,46.563819],"type":"Point"},"properties":{"osm_id":"2048784746","tag":{"amenity":"waste_basket"}},"type":"Feature"},
	{"geometry":{"coordinates":[0.314358,46.564895],"type":"Point"},"properties":{"osm_id":"2048784858","tag":{"amenity":"waste_basket"}},"type":"Feature"},
	{"geometry":{"coordinates":[0.3152,46.565325],"type":"Point"},"properties":{"osm_id":"2048784875","tag":{"amenity":"waste_basket"}},"type":"Feature"},
	{"geometry":{"coordinates":[0.329256,46.573196],"type":"Point"},"properties":{"osm_id":"2129473982","tag":{"amenity":"recycling","recycling:batteries":"no","recycling:cans":"no","recycling:clothes":"yes","recycling:glass":"no","recycling:paper":"no","recycling:scrap_metal":"no","recycling_type":"container","website":"http://lerelais.org/"}},"type":"Feature"},
	{"geometry":{"coordinates":[0.345434,46.574418],"type":"Point"},"properties":{"osm_id":"2129473983","tag":{"amenity":"recycling","recycling:batteries":"no","recycling:cans":"no","recycling:clothes":"yes","recycling:glass":"no","recycling:paper":"no","recycling:scrap_metal":"no","recycling_type":"container","website":"http://lerelais.org/"}},"type":"Feature"},
	{"geometry":{"coordinates":[0.35112,46.585677],"type":"Point"},"properties":{"osm_id":"2129473985","tag":{"amenity":"recycling","recycling:batteries":"no","recycling:cans":"no","recycling:clothes":"yes","recycling:glass":"no","recycling:paper":"no","recycling:scrap_metal":"no","recycling_type":"container","website":"http://lerelais.org/"}},"type":"Feature"},
	{"geometry":{"coordinates":[0.339714,46.590677],"type":"Point"},"properties":{"osm_id":"2142599298","tag":{"amenity":"recycling","recycling:batteries":"no","recycling:cans":"no","recycling:clothes":"yes","recycling:glass":"no","recycling:paper":"no","recycling:scrap_metal":"no","recycling_type":"container","website":"http://lerelais.org/"}},"type":"Feature"},
	{"geometry":{"coordinates":[0.34409,46.587136],"type":"Point"},"properties":{"osm_id":"2204935110","tag":{"amenity":"recycling","recycling:batteries":"no","recycling:cans":"no","recycling:clothes":"yes","recycling:glass":"no","recycling:paper":"no","recycling:scrap_metal":"no","recycling_type":"container","website":"http://lerelais.org/"}},"type":"Feature"},
	{"geometry":{"coordinates":[0.343045,46.589102],"type":"Point"},"properties":{"osm_id":"2204935126","ref":"25682","tag":{"amenity":"recycling","recycling:batteries":"no","recycling:cans":"no","recycling:clothes":"yes","recycling:glass":"no","recycling:paper":"no","recycling:scrap_metal":"no","recycling_type":"container","website":"http://lerelais.org/"}},"type":"Feature"},
	{"geometry":{"coordinates":[0.323233,46.57875],"type":"Point"},"properties":{"osm_id":"2206970912","ref":"25953","tag":{"amenity":"recycling","recycling:batteries":"no","recycling:cans":"no","recycling:clothes":"yes","recycling:glass":"no","recycling:paper":"no","recycling:scrap_metal":"no","recycling_type":"container","website":"http://lerelais.org/"}},"type":"Feature"},
	{"geometry":{"coordinates":[0.326324,46.587996],"type":"Point"},"properties":{"name":"Le Relais","osm_id":"2206971047","tag":{"amenity":"recycling","recycling:batteries":"no","recycling:cans":"no","recycling:clothes":"yes","recycling:glass":"no","recycling:paper":"no","recycling:scrap_metal":"no","recycling_type":"container","website":"http://lerelais.org/"}},"type":"Feature"},
	{"geometry":{"coordinates":[0.326197,46.59075],"type":"Point"},"properties":{"name":"Le Relais","osm_id":"2206971140","tag":{"amenity":"recycling","recycling:batteries":"no","recycling:cans":"no","recycling:clothes":"yes","recycling:glass":"no","recycling:paper":"no","recycling:scrap_metal":"no","recycling_type":"container","website":"http://lerelais.org/"}},"type":"Feature"},
	{"geometry":{"coordinates":[0.324292,46.599496],"type":"Point"},"properties":{"osm_id":"2206971238","tag":{"amenity":"recycling","recycling:batteries":"no","recycling:cans":"no","recycling:clothes":"yes","recycling:glass":"no","recycling:paper":"no","recycling:scrap_metal":"no","recycling_type":"container","website":"http://lerelais.org/"}},"type":"Feature"},
	{"geometry":{"coordinates":[0.349837,46.56569],"type":"Point"},"properties":{"osm_id":"2207019206","tag":{"amenity":"recycling","recycling:batteries":"no","recycling:cans":"no","recycling:clothes":"yes","recycling:glass":"no","recycling:paper":"no","recycling:scrap_metal":"no","recycling_type":"container","website":"http://lerelais.org/"}},"type":"Feature"},
	{"geometry":{"coordinates":[0.350307,46.578019],"type":"Point"},"properties":{"osm_id":"2207041328","ref":"25689","tag":{"amenity":"recycling","recycling:batteries":"no","recycling:cans":"no","recycling:clothes":"yes","recycling:glass":"no","recycling:paper":"no","recycling:scrap_metal":"no","recycling_type":"container","website":"http://lerelais.org/"}},"type":"Feature"},
	{"geometry":{"coordinates":[0.332966,46.581117],"type":"Point"},"properties":{"osm_id":"2284321865","tag":{"amenity":"waste_basket"}},"type":"Feature"},
	{"geometry":{"coordinates":[0.335643,46.580462],"type":"Point"},"properties":{"osm_id":"2399490964","tag":{"amenity":"waste_basket"}},"type":"Feature"},
	{"geometry":{"coordinates":[0.340007,46.579461],"type":"Point"},"properties":{"osm_id":"2568021836","tag":{"amenity":"waste_basket"}},"type":"Feature"},
	{"geometry":{"coordinates":[0.348381,46.583024],"type":"Point"},"properties":{"osm_id":"2991233550","ref":"002","tag":{"amenity":"recycling","recycling:batteries":"no","recycling:cans":"no","recycling:clothes":"no","recycling:glass_bottles":"yes","recycling:paper":"no","recycling:scrap_metal":"no","recycling_type":"container"}},"type":"Feature"},
	{"geometry":{"coordinates":[0.34303,46.582435],"type":"Point"},"properties":{"osm_id":"4145418852","tag":{"amenity":"waste_basket"}},"type":"Feature"},
	{"geometry":{"coordinates":[0.32576,46.610381],"type":"Point"},"properties":{"osm_id":"4330739916","tag":{"amenity":"recycling","recycling:glass":"yes","recycling:plastic_packaging":"yes","recycling:waste":"yes","recycling_type":"container"}},"type":"Feature"},
	{"geometry":{"coordinates":[0.34082,46.569521],"type":"Point"},"properties":{"osm_id":"4910977847","tag":{"amenity":"waste_basket"}},"type":"Feature"},
	{"geometry":{"coordinates":[0.337976,46.582109],"type":"Point"},"properties":{"osm_id":"5433696225","tag":{"amenity":"waste_basket","wheelchair":"yes"}},"type":"Feature"},
	{"geometry":{"coordinates":[0.338336,46.581986],"type":"Point"},"properties":{"osm_id":"5433696227","tag":{"amenity":"waste_basket","wheelchair":"yes"}},"type":"Feature"},
	{"geometry":{"coordinates":[0.338341,46.582107],"type":"Point"},"properties":{"osm_id":"5433696228","tag":{"amenity":"waste_basket","wheelchair":"yes"}},"type":"Feature"},
	{"geometry":{"coordinates":[0.325915,46.58844],"type":"Point"},"properties":{"osm_id":"5435945420","tag":{"amenity":"waste_basket"}},"type":"Feature"},
	{"geometry":{"coordinates":[0.325411,46.588737],"type":"Point"},"properties":{"osm_id":"5435951721","tag":{"amenity":"waste_basket"}},"type":"Feature"},
	{"geometry":{"coordinates":[0.324745,46.589011],"type":"Point"},"properties":{"osm_id":"5435951722","tag":{"amenity":"waste_basket"}},"type":"Feature"},
	{"geometry":{"coordinates":[0.320922,46.592141],"type":"Point"},"properties":{"osm_id":"5435951726","tag":{"amenity":"waste_basket"}},"type":"Feature"},
	{"geometry":{"coordinates":[0.333011,46.574965],"type":"Point"},"properties":{"osm_id":"5801233854","tag":{"amenity":"recycling","recycling:glass_bottles":"no"}},"type":"Feature"},
	{"geometry":{"coordinates":[0.333373,46.575006],"type":"Point"},"properties":{"osm_id":"5801242757","tag":{"amenity":"recycling","recycling:glass_bottles":"no"}},"type":"Feature"},
	{"geometry":{"coordinates":[0.330924,46.573582],"type":"Point"},"properties":{"osm_id":"5801258453","tag":{"amenity":"recycling","recycling:glass_bottles":"no"}},"type":"Feature"},
	{"geometry":{"coordinates":[0.331914,46.573912],"type":"Point"},"properties":{"osm_id":"5801261953","tag":{"amenity":"recycling","recycling:glass_bottles":"no"}},"type":"Feature"},
	{"geometry":{"coordinates":[0.331579,46.57441],"type":"Point"},"properties":{"osm_id":"5801262754","tag":{"amenity":"recycling","recycling:glass_bottles":"no"}},"type":"Feature"},
	{"geometry":{"coordinates":[0.333773,46.574602],"type":"Point"},"properties":{"osm_id":"5801262756","tag":{"amenity":"recycling","recycling:glass_bottles":"no"}},"type":"Feature"},
	{"geometry":{"coordinates":[0.33521,46.575209],"type":"Point"},"properties":{"osm_id":"5801262757","tag":{"amenity":"recycling","recycling:glass_bottles":"no"}},"type":"Feature"},
	{"geometry":{"coordinates":[0.332359,46.574416],"type":"Point"},"properties":{"osm_id":"5801266853","tag":{"amenity":"recycling","recycling:glass_bottles":"no"}},"type":"Feature"},
	{"geometry":{"coordinates":[0.334982,46.575185],"type":"Point"},"properties":{"osm_id":"5801277053","tag":{"amenity":"recycling","recycling:glass_bottles":"no"}},"type":"Feature"},
	{"geometry":{"coordinates":[0.336834,46.580659],"type":"Point"},"properties":{"osm_id":"5835456955","tag":{"amenity":"waste_basket"}},"type":"Feature"},
	{"geometry":{"coordinates":[0.336912,46.580782],"type":"Point"},"properties":{"osm_id":"5835456956","tag":{"amenity":"waste_basket"}},"type":"Feature"},
	{"geometry":{"coordinates":[0.342247,46.582312],"type":"Point"},"properties":{"osm_id":"5835456957","tag":{"amenity":"waste_basket"}},"type":"Feature"},
	{"geometry":{"coordinates":[0.336031,46.582754],"type":"Point"},"properties":{"osm_id":"5846617195","tag":{"amenity":"recycling","recycling:glass_bottles":"yes","recycling_type":"container","wheelchair":"no"}},"type":"Feature"},
	{"geometry":{"coordinates":[0.347772,46.589156],"type":"Point"},"properties":{"osm_id":"5886718819","tag":{"amenity":"waste_basket"}},"type":"Feature"},
	{"geometry":{"coordinates":[0.348077,46.589191],"type":"Point"},"properties":{"osm_id":"5886718821","tag":{"amenity":"waste_basket"}},"type":"Feature"},
	{"geometry":{"coordinates":[0.341145,46.582328],"type":"Point"},"properties":{"osm_id":"5977563772","tag":{"amenity":"waste_basket","waste":"trash"}},"type":"Feature"},
	{"geometry":{"coordinates":[0.33992,46.580565],"type":"Point"},"properties":{"osm_id":"5977604988","tag":{"amenity":"waste_basket","waste":"trash"}},"type":"Feature"},
	{"geometry":{"coordinates":[0.27391,46.597079],"type":"Point"},"properties":{"osm_id":"6354665224","tag":{"amenity":"recycling","recycling:glass_bottles":"yes","recycling_type":"container","surface":"compacted"}},"type":"Feature"},
	{"geometry":{"coordinates":[0.276196,46.606741],"type":"Point"},"properties":{"osm_id":"6354672961","tag":{"amenity":"recycling","recycling:glass_bottles":"yes","recycling_type":"container","surface":"compacted"}},"type":"Feature"},
	{"geometry":{"coordinates":[0.292887,46.580502],"type":"Point"},"properties":{"osm_id":"6354730172","tag":{"amenity":"recycling","recycling:glass_bottles":"yes","recycling_type":"container","surface":"compacted"}},"type":"Feature"},
	{"geometry":{"coordinates":[0.341549,46.579922],"type":"Point"},"properties":{"osm_id":"6358496485","tag":{"amenity":"waste_basket"}},"type":"Feature"},
	{"geometry":{"coordinates":[0.341723,46.580159],"type":"Point"},"properties":{"osm_id":"6358496488","tag":{"amenity":"waste_basket"}},"type":"Feature"},
	{"geometry":{"coordinates":[0.295345,46.562826],"type":"Point"},"properties":{"osm_id":"6402572809","tag":{"amenity":"recycling","opening_hours":"24/7","recycling:glass_bottles":"yes","recycling_type":"container"}},"type":"Feature"},
	{"geometry":{"coordinates":[0.298323,46.571179],"type":"Point"},"properties":{"osm_id":"6402689028","tag":{"amenity":"recycling","opening_hours":"24/7","recycling:glass_bottles":"yes","recycling_type":"container"}},"type":"Feature"},
	{"geometry":{"coordinates":[0.348261,46.579832],"type":"Point"},"properties":{"osm_id":"6456207512","tag":{"amenity":"waste_basket"}},"type":"Feature"},
	{"geometry":{"coordinates":[0.332673,46.58224],"type":"Point"},"properties":{"osm_id":"7027089088","tag":{"amenity":"waste_basket"}},"type":"Feature"},
	{"geometry":{"coordinates":[0.332212,46.581942],"type":"Point"},"properties":{"osm_id":"7027089990","tag":{"amenity":"waste_basket"}},"type":"Feature"},
	{"geometry":{"coordinates":[0.332338,46.58186],"type":"Point"},"properties":{"osm_id":"7027095285","tag":{"amenity":"waste_basket"}},"type":"Feature"},
	{"geometry":{"coordinates":[0.330437,46.596898],"type":"Point"},"properties":{"osm_id":"7230661255","tag":{"amenity":"recycling","operator":"Le Relais","recycling:clothes":"yes","recycling_type":"container"}},"type":"Feature"},
	{"geometry":{"coordinates":[0.334848,46.57174],"type":"Point"},"properties":{"osm_id":"7230661260","tag":{"amenity":"recycling","operator":"Le Relais","recycling:clothes":"yes","recycling_type":"container"}},"type":"Feature"},
	{"geometry":{"coordinates":[0.334826,46.571736],"type":"Point"},"properties":{"osm_id":"7230661261","tag":{"amenity":"recycling","recycling:glass_bottles":"yes","recycling_type":"container"}},"type":"Feature"},
	{"geometry":{"coordinates":[0.348673,46.570247],"type":"Point"},"properties":{"osm_id":"7230661265","tag":{"amenity":"recycling","recycling:glass_bottles":"yes","recycling_type":"container"}},"type":"Feature"},
	{"geometry":{"coordinates":[0.348714,46.570265],"type":"Point"},"properties":{"osm_id":"7230661266","tag":{"amenity":"recycling","operator":"Le Relais","recycling:clothes":"yes","recycling_type":"container"}},"type":"Feature"}
]
}
