{
"type": "FeatureCollection",
"features": [
	{"geometry":{"coordinates":[0.3296,46.558752],"type":"Point"},"properties":{"osm_id":"1351695429","tag":{"amenity":"waste_basket"}},"type":"Feature"},
	{"geometry":{"coordinates":[0.329579,46.55876],"type":"Point"},"properties":{"osm_id":"1351695440","tag":{"amenity":"recycling","recycling:cans":"yes","recycling:glass":"yes","recycling:paper":"yes"}},"type":"Feature"},
	{"geometry":{"coordinates":[0.33654,46.548724],"type":"Point"},"properties":{"osm_id":"1361878207","tag":{"amenity":"waste_basket"}},"type":"Feature"},
	{"geometry":{"coordinates":[0.335522,46.554293],"type":"Point"},"properties":{"osm_id":"1362193250","tag":{"amenity":"waste_basket"}},"type":"Feature"},
	{"geometry":{"coordinates":[0.341089,46.54915],"type":"Point"},"properties":{"osm_id":"1395156124","tag":{"amenity":"waste_basket"}},"type":"Feature"},
	{"geometry":{"coordinates":[0.339473,46.549187],"type":"Point"},"properties":{"osm_id":"1395156131","tag":{"amenity":"waste_basket"}},"type":"Feature"},
	{"geometry":{"coordinates":[0.340017,46.549371],"type":"Point"},"properties":{"osm_id":"1395156188","tag":{"amenity":"waste_basket"}},"type":"Feature"},
	{"geometry":{"coordinates":[0.341438,46.549535],"type":"Point"},"properties":{"osm_id":"1395156219","tag":{"amenity":"waste_basket"}},"type":"Feature"},
	{"geometry":{"coordinates":[0.342113,46.549836],"type":"Point"},"properties":{"osm_id":"1395156264","tag":{"amenity":"waste_basket"}},"type":"Feature"},
	{"geometry":{"coordinates":[0.342811,46.549851],"type":"Point"},"properties":{"osm_id":"1395156269","tag":{"amenity":"waste_basket"}},"type":"Feature"},
	{"geometry":{"coordinates":[0.341461,46.549977],"type":"Point"},"properties":{"osm_id":"1395156273","tag":{"amenity":"waste_basket"}},"type":"Feature"},
	{"geometry":{"coordinates":[0.335457,46.547735],"type":"Point"},"properties":{"osm_id":"1395167460","tag":{"amenity":"waste_basket"}},"type":"Feature"},
	{"geometry":{"coordinates":[0.335216,46.549642],"type":"Point"},"properties":{"osm_id":"1395167500","tag":{"amenity":"waste_basket"}},"type":"Feature"},
	{"geometry":{"coordinates":[0.338817,46.549666],"type":"Point"},"properties":{"osm_id":"1395167503","tag":{"amenity":"waste_basket"}},"type":"Feature"},
	{"geometry":{"coordinates":[0.335497,46.549775],"type":"Point"},"properties":{"osm_id":"1395167517","tag":{"amenity":"waste_basket"}},"type":"Feature"},
	{"geometry":{"coordinates":[0.337899,46.549781],"type":"Point"},"properties":{"osm_id":"1395167519","tag":{"amenity":"waste_basket"}},"type":"Feature"},
	{"geometry":{"coordinates":[0.334501,46.549802],"type":"Point"},"properties":{"osm_id":"1395167522","tag":{"amenity":"waste_basket"}},"type":"Feature"},
	{"geometry":{"coordinates":[0.335602,46.55001],"type":"Point"},"properties":{"osm_id":"1395167563","tag":{"amenity":"waste_basket"}},"type":"Feature"},
	{"geometry":{"coordinates":[0.338161,46.550022],"type":"Point"},"properties":{"osm_id":"1395167565","tag":{"amenity":"waste_basket"}},"type":"Feature"},
	{"geometry":{"coordinates":[0.337818,46.550055],"type":"Point"},"properties":{"osm_id":"1395167591","tag":{"amenity":"waste_basket"}},"type":"Feature"},
	{"geometry":{"coordinates":[0.337172,46.550128],"type":"Point"},"properties":{"osm_id":"1395167637","tag":{"amenity":"waste_basket"}},"type":"Feature"},
	{"geometry":{"coordinates":[0.335228,46.550135],"type":"Point"},"properties":{"osm_id":"1395167638","tag":{"amenity":"waste_basket"}},"type":"Feature"},
	{"geometry":{"coordinates":[0.336334,46.550153],"type":"Point"},"properties":{"osm_id":"1395167648","tag":{"amenity":"waste_basket"}},"type":"Feature"},
	{"geometry":{"coordinates":[0.336482,46.550209],"type":"Point"},"properties":{"osm_id":"1395167672","tag":{"amenity":"recycling","recycling:glass":"yes"}},"type":"Feature"},
	{"geometry":{"coordinates":[0.336334,46.550476],"type":"Point"},"properties":{"osm_id":"1395167716","tag":{"amenity":"waste_basket"}},"type":"Feature"},
	{"geometry":{"coordinates":[0.33589,46.550654],"type":"Point"},"properties":{"osm_id":"1395167719","tag":{"amenity":"waste_basket"}},"type":"Feature"},
	{"geometry":{"coordinates":[0.342458,46.549907],"type":"Point"},"properties":{"osm_id":"1395171110","tag":{"amenity":"waste_basket"}},"type":"Feature"},
	{"geometry":{"coordinates":[0.342811,46.550016],"type":"Point"},"properties":{"osm_id":"1395171119","tag":{"amenity":"waste_basket"}},"type":"Feature"},
	{"geometry":{"coordinates":[0.299204,46.549595],"type":"Point"},"properties":{"osm_id":"1770658882","tag":{"amenity":"recycling","recycling:batteries":"no","recycling:cans":"yes","recycling:clothes":"no","recycling:glass":"yes","recycling:paper":"yes","recycling:scrap_metal":"no","recycling_type":"container"}},"type":"Feature"},
	{"geometry":{"coordinates":[0.311521,46.558439],"type":"Point"},"properties":{"osm_id":"1818867930","ref":"204","tag":{"amenity":"recycling","recycling:batteries":"no","recycling:cans":"no","recycling:clothes":"no","recycling:glass":"yes","recycling:paper":"no","recycling:scrap_metal":"no","recycling_type":"container"}},"type":"Feature"},
	{"geometry":{"coordinates":[0.322195,46.552055],"type":"Point"},"properties":{"osm_id":"1819021376","ref":"458","tag":{"amenity":"recycling","recycling:batteries":"no","recycling:cans":"no","recycling:clothes":"no","recycling:glass":"yes","recycling:paper":"no","recycling:scrap_metal":"no","recycling_type":"container"}},"type":"Feature"},
	{"geometry":{"coordinates":[0.319737,46.553449],"type":"Point"},"properties":{"osm_id":"1819021475","ref":"457","tag":{"amenity":"recycling","recycling:batteries":"no","recycling:cans":"no","recycling:clothes":"no","recycling:glass":"yes","recycling:paper":"no","recycling:scrap_metal":"no","recycling_type":"container"}},"type":"Feature"},
	{"geometry":{"coordinates":[0.319583,46.553795],"type":"Point"},"properties":{"osm_id":"1819021486","tag":{"amenity":"waste_basket"}},"type":"Feature"},
	{"geometry":{"coordinates":[0.266927,46.533998],"type":"Point"},"properties":{"osm_id":"1845376818","ref":"376","tag":{"amenity":"recycling","recycling:batteries":"no","recycling:cans":"no","recycling:clothes":"no","recycling:glass":"no","recycling:glass_bottles":"yes","recycling:paper":"no","recycling:scrap_metal":"no","recycling_type":"container"}},"type":"Feature"},
	{"geometry":{"coordinates":[0.269817,46.534073],"type":"Point"},"properties":{"osm_id":"1845376821","tag":{"amenity":"waste_basket"}},"type":"Feature"},
	{"geometry":{"coordinates":[0.28924,46.545471],"type":"Point"},"properties":{"osm_id":"1845377053","ref":"370","tag":{"amenity":"recycling","recycling:batteries":"no","recycling:cans":"no","recycling:clothes":"no","recycling:glass":"yes","recycling:paper":"no","recycling:scrap_metal":"no","recycling_type":"container"}},"type":"Feature"},
	{"geometry":{"coordinates":[0.313268,46.551317],"type":"Point"},"properties":{"osm_id":"1845377173","tag":{"amenity":"waste_basket"}},"type":"Feature"},
	{"geometry":{"coordinates":[0.299284,46.549565],"type":"Point"},"properties":{"osm_id":"1846794123","tag":{"amenity":"recycling","comment":"Avec Emma\u00c3\u00bcs","recycling:batteries":"no","recycling:cans":"no","recycling:clothes":"yes","recycling:glass":"no","recycling:paper":"no","recycling:scrap_metal":"no","recycling_type":"container"}},"type":"Feature"},
	{"geometry":{"coordinates":[0.300525,46.552526],"type":"Point"},"properties":{"osm_id":"1846794145","tag":{"amenity":"waste_basket"}},"type":"Feature"},
	{"geometry":{"coordinates":[0.301879,46.552823],"type":"Point"},"properties":{"osm_id":"1846794148","tag":{"amenity":"waste_basket"}},"type":"Feature"},
	{"geometry":{"coordinates":[0.301725,46.55303],"type":"Point"},"properties":{"osm_id":"1846794149","tag":{"amenity":"waste_basket"}},"type":"Feature"},
	{"geometry":{"coordinates":[0.308489,46.553561],"type":"Point"},"properties":{"osm_id":"1846794153","tag":{"amenity":"waste_basket"}},"type":"Feature"},
	{"geometry":{"coordinates":[0.308736,46.553732],"type":"Point"},"properties":{"osm_id":"1846794157","tag":{"amenity":"waste_basket"}},"type":"Feature"},
	{"geometry":{"coordinates":[0.304515,46.556835],"type":"Point"},"properties":{"osm_id":"1846885836","ref":"198","tag":{"amenity":"recycling","recycling:batteries":"no","recycling:cans":"no","recycling:clothes":"no","recycling:glass":"yes","recycling:paper":"no","recycling:scrap_metal":"no","recycling_type":"container"}},"type":"Feature"},
	{"geometry":{"coordinates":[0.320071,46.55363],"type":"Point"},"properties":{"osm_id":"1856026964","tag":{"amenity":"waste_basket"}},"type":"Feature"},
	{"geometry":{"coordinates":[0.332556,46.555552],"type":"Point"},"properties":{"osm_id":"1856026999","ref":"461","tag":{"amenity":"recycling","recycling:batteries":"no","recycling:cans":"no","recycling:clothes":"no","recycling:glass":"yes","recycling:paper":"no","recycling:scrap_metal":"no","recycling_type":"container"}},"type":"Feature"},
	{"geometry":{"coordinates":[0.330014,46.558255],"type":"Point"},"properties":{"osm_id":"1856027369","tag":{"amenity":"waste_basket"}},"type":"Feature"},
	{"geometry":{"coordinates":[0.32929,46.558639],"type":"Point"},"properties":{"osm_id":"1856027396","tag":{"amenity":"waste_basket"}},"type":"Feature"},
	{"geometry":{"coordinates":[0.32928,46.558817],"type":"Point"},"properties":{"osm_id":"1856027433","tag":{"amenity":"waste_basket"}},"type":"Feature"},
	{"geometry":{"coordinates":[0.307526,46.550608],"type":"Point"},"properties":{"barrier":"gate","osm_id":"2068543170"},"type":"Feature"},
	{"geometry":{"coordinates":[0.328494,46.516699],"type":"Point"},"properties":{"osm_id":"2088560037","tag":{"amenity":"recycling","recycling:batteries":"no","recycling:cans":"no","recycling:clothes":"no","recycling:glass":"no","recycling:paper":"yes","recycling:scrap_metal":"no","recycling_type":"container"}},"type":"Feature"},
	{"geometry":{"coordinates":[0.328457,46.516703],"type":"Point"},"properties":{"osm_id":"2088560044","tag":{"amenity":"recycling","recycling:batteries":"no","recycling:cans":"no","recycling:clothes":"no","recycling:glass":"yes","recycling:paper":"no","recycling:scrap_metal":"no","recycling_type":"container"}},"type":"Feature"},
	{"geometry":{"coordinates":[0.321476,46.520413],"type":"Point"},"properties":{"osm_id":"2088560235","tag":{"amenity":"waste_basket"}},"type":"Feature"},
	{"geometry":{"coordinates":[0.341664,46.549751],"type":"Point"},"properties":{"osm_id":"2088560903","tag":{"amenity":"waste_basket"}},"type":"Feature"},
	{"geometry":{"coordinates":[0.34277,46.553331],"type":"Point"},"properties":{"osm_id":"2088560910","tag":{"amenity":"waste_basket"}},"type":"Feature"},
	{"geometry":{"coordinates":[0.342214,46.55368],"type":"Point"},"properties":{"osm_id":"2088560930","tag":{"amenity":"waste_basket"}},"type":"Feature"},
	{"geometry":{"coordinates":[0.296931,46.549139],"type":"Point"},"properties":{"osm_id":"2120109216","tag":{"amenity":"recycling","recycling_type":"container"}},"type":"Feature"},
	{"geometry":{"coordinates":[0.296967,46.549112],"type":"Point"},"properties":{"osm_id":"2120109366","tag":{"amenity":"recycling","recycling_type":"container"}},"type":"Feature"},
	{"geometry":{"coordinates":[0.297011,46.549083],"type":"Point"},"properties":{"osm_id":"2120110007","tag":{"amenity":"recycling"}},"type":"Feature"},
	{"geometry":{"coordinates":[0.28823,46.558377],"type":"Point"},"properties":{"osm_id":"6402525335","tag":{"amenity":"recycling","opening_hours":"24/7","recycling:glass_bottles":"yes","recycling_type":"container","wheelchair":"yes"}},"type":"Feature"},
	{"geometry":{"coordinates":[0.332268,46.532071],"type":"Point"},"properties":{"osm_id":"6690517238","tag":{"amenity":"waste_basket"}},"type":"Feature"}
]
}
