{
"type": "FeatureCollection",
"features": [
	{"geometry":{"coordinates":[-3.96843,48.225371],"type":"Point"},"properties":{"osm_id":"1659620279","tag":{"amenity":"recycling","recycling_type":"container"}},"type":"Feature"},
	{"geometry":{"coordinates":[-3.970803,48.228195],"type":"Point"},"properties":{"osm_id":"3002264837","tag":{"amenity":"recycling","recycling_type":"container"}},"type":"Feature"},
	{"geometry":{"coordinates":[-3.970792,48.228197],"type":"Point"},"properties":{"osm_id":"3002264838","tag":{"amenity":"waste_disposal"}},"type":"Feature"},
	{"geometry":{"coordinates":[-3.970524,48.228959],"type":"Point"},"properties":{"osm_id":"3002292737","tag":{"amenity":"waste_disposal"}},"type":"Feature"},
	{"geometry":{"coordinates":[-3.970348,48.227101],"type":"Point"},"properties":{"osm_id":"3002358577","tag":{"amenity":"waste_disposal"}},"type":"Feature"},
	{"geometry":{"coordinates":[-3.970348,48.22711],"type":"Point"},"properties":{"osm_id":"3002358578","tag":{"amenity":"recycling","recycling_type":"container"}},"type":"Feature"},
	{"geometry":{"coordinates":[-3.971867,48.227731],"type":"Point"},"properties":{"osm_id":"3005121497","tag":{"amenity":"waste_disposal"}},"type":"Feature"},
	{"geometry":{"coordinates":[-3.970637,48.227793],"type":"Point"},"properties":{"osm_id":"3005121498","tag":{"amenity":"waste_basket"}},"type":"Feature"},
	{"geometry":{"coordinates":[-3.972679,48.228056],"type":"Point"},"properties":{"osm_id":"3005121508","tag":{"amenity":"waste_disposal"}},"type":"Feature"},
	{"geometry":{"coordinates":[-3.970567,48.22877],"type":"Point"},"properties":{"osm_id":"3005121514","tag":{"amenity":"waste_basket"}},"type":"Feature"},
	{"geometry":{"coordinates":[-3.970627,48.229411],"type":"Point"},"properties":{"osm_id":"3005121532","tag":{"amenity":"waste_disposal"}},"type":"Feature"},
	{"geometry":{"coordinates":[-3.968261,48.228801],"type":"Point"},"properties":{"osm_id":"3681337549","tag":{"amenity":"waste_basket"}},"type":"Feature"},
	{"geometry":{"coordinates":[-3.967052,48.231949],"type":"Point"},"properties":{"osm_id":"3681337551","tag":{"amenity":"waste_basket"}},"type":"Feature"},
	{"geometry":{"coordinates":[-3.967804,48.229478],"type":"Point"},"properties":{"osm_id":"3704903119","tag":{"amenity":"waste_disposal"}},"type":"Feature"},
	{"geometry":{"coordinates":[-3.964625,48.232668],"type":"Point"},"properties":{"osm_id":"3705304713","tag":{"amenity":"recycling","operator":"Abi29","recycling:clothes":"yes","recycling:shoes":"yes","recycling_type":"container"}},"type":"Feature"},
	{"geometry":{"coordinates":[-3.964596,48.232675],"type":"Point"},"properties":{"osm_id":"3705304714","tag":{"amenity":"waste_disposal"}},"type":"Feature"},
	{"geometry":{"coordinates":[-3.964568,48.232682],"type":"Point"},"properties":{"osm_id":"3705304715","tag":{"amenity":"waste_disposal"}},"type":"Feature"},
	{"geometry":{"coordinates":[-3.96454,48.232688],"type":"Point"},"properties":{"osm_id":"3705304716","tag":{"amenity":"waste_disposal"}},"type":"Feature"},
	{"geometry":{"coordinates":[-3.964512,48.232695],"type":"Point"},"properties":{"osm_id":"3705304717","tag":{"amenity":"waste_disposal"}},"type":"Feature"},
	{"geometry":{"coordinates":[-3.964484,48.232702],"type":"Point"},"properties":{"osm_id":"3705304719","tag":{"amenity":"waste_disposal"}},"type":"Feature"},
	{"geometry":{"coordinates":[-3.964455,48.232708],"type":"Point"},"properties":{"osm_id":"3705304720","tag":{"amenity":"recycling","recycling:cardboard":"yes","recycling:paper":"yes","recycling_type":"container"}},"type":"Feature"},
	{"geometry":{"coordinates":[-3.964427,48.232715],"type":"Point"},"properties":{"osm_id":"3705304722","tag":{"amenity":"recycling","recycling:cardboard":"yes","recycling:paper":"yes","recycling_type":"container"}},"type":"Feature"},
	{"geometry":{"coordinates":[-3.964399,48.232722],"type":"Point"},"properties":{"osm_id":"3705304723","tag":{"amenity":"recycling","recycling:glass":"yes","recycling_type":"container"}},"type":"Feature"},
	{"geometry":{"coordinates":[-3.964371,48.232728],"type":"Point"},"properties":{"osm_id":"3705305125","tag":{"amenity":"recycling","recycling:glass":"yes","recycling_type":"container"}},"type":"Feature"},
	{"geometry":{"coordinates":[-3.964342,48.232735],"type":"Point"},"properties":{"osm_id":"3705305126","tag":{"amenity":"recycling","recycling:plastic_bottles":"yes","recycling_type":"container"}},"type":"Feature"},
	{"geometry":{"coordinates":[-3.96289,48.23293],"type":"Point"},"properties":{"osm_id":"3705305139","tag":{"amenity":"waste_basket"}},"type":"Feature"},
	{"geometry":{"coordinates":[-3.960213,48.224704],"type":"Point"},"properties":{"osm_id":"3705527111","tag":{"amenity":"waste_disposal"}},"type":"Feature"},
	{"geometry":{"coordinates":[-3.96992,48.226439],"type":"Point"},"properties":{"osm_id":"3705927829","tag":{"amenity":"waste_basket"}},"type":"Feature"},
	{"geometry":{"coordinates":[-3.969803,48.22644],"type":"Point"},"properties":{"osm_id":"3705927830","tag":{"amenity":"waste_basket"}},"type":"Feature"},
	{"geometry":{"coordinates":[-3.970622,48.229421],"type":"Point"},"properties":{"osm_id":"4394723391","tag":{"amenity":"recycling","recycling:plastic_bottles":"yes","recycling:plastic_packaging":"no","recycling_type":"container"}},"type":"Feature"},
	{"geometry":{"coordinates":[-3.974144,48.22523],"type":"Point"},"properties":{"osm_id":"4399060991","tag":{"amenity":"waste_disposal"}},"type":"Feature"},
	{"geometry":{"coordinates":[-3.976617,48.225004],"type":"Point"},"properties":{"osm_id":"4410480992","tag":{"amenity":"waste_disposal"}},"type":"Feature"},
	{"geometry":{"coordinates":[-3.976513,48.226036],"type":"Point"},"properties":{"osm_id":"4410495691","tag":{"amenity":"waste_disposal"}},"type":"Feature"},
	{"geometry":{"coordinates":[-4.041838,48.231327],"type":"Point"},"properties":{"name":"D\u00c3\u00a9ch\u00c3\u00a8terie de P\u00c3\u00a9ren","osm_id":"4507197905","tag":{"addr:city":"Ch\u00e2teaulin","addr:street":"P\u00e9ren","amenity":"recycling","recycling_type":"centre"}},"type":"Feature"}
]
}
