{
"type": "FeatureCollection",
"lastupdate": "2020-08-05T00:00:00Z",
"features": [
	{"geometry":{"coordinates":[-4.014766,40.72627],"type":"Point"},"properties":{"osm_id":"2585758865","tag":{"amenity":"recycling","recycling:cans":"yes","recycling:glass_bottles":"yes","recycling:paper":"yes","recycling:plastic_bottles":"yes","recycling_type":"container"}},"type":"Feature"},
	{"geometry":{"coordinates":[-4.017596,40.727784],"type":"Point"},"properties":{"osm_id":"2585758867","tag":{"amenity":"waste_basket"}},"type":"Feature"},
	{"geometry":{"coordinates":[-4.013756,40.72885],"type":"Point"},"properties":{"osm_id":"2585758871","tag":{"addr:city":"Navacerrada","addr:street":"Traves\u00eda de las Huertas","amenity":"recycling","recycling:cans":"yes","recycling:glass_bottles":"yes","recycling:paper":"yes","recycling:plastic_bottles":"yes","recycling_type":"container"}},"type":"Feature"},
	{"geometry":{"coordinates":[-4.003916,40.723148],"type":"Point"},"properties":{"osm_id":"2585781488","tag":{"amenity":"waste_basket"}},"type":"Feature"},
	{"geometry":{"coordinates":[-4.007114,40.723663],"type":"Point"},"properties":{"osm_id":"2585781494","tag":{"amenity":"waste_basket"}},"type":"Feature"},
	{"geometry":{"coordinates":[-4.009824,40.723776],"type":"Point"},"properties":{"osm_id":"2585781495","tag":{"amenity":"waste_basket"}},"type":"Feature"},
	{"geometry":{"coordinates":[-4.011145,40.724014],"type":"Point"},"properties":{"osm_id":"2585781499","tag":{"amenity":"waste_basket"}},"type":"Feature"},
	{"geometry":{"coordinates":[-4.008449,40.724153],"type":"Point"},"properties":{"osm_id":"2585781502","tag":{"amenity":"waste_basket"}},"type":"Feature"},
	{"geometry":{"coordinates":[-4.011093,40.724821],"type":"Point"},"properties":{"osm_id":"2585781506","tag":{"amenity":"waste_basket"}},"type":"Feature"},
	{"geometry":{"coordinates":[-4.010295,40.730175],"type":"Point"},"properties":{"osm_id":"5923042138","tag":{"amenity":"recycling","recycling:glass_bottles":"yes","recycling:paper":"yes","recycling:plastic_packaging":"yes","recycling_type":"container"}},"type":"Feature"}
]
}
