{
"type": "FeatureCollection",
"features": [
	{"geometry":{"coordinates":[-4.017395,40.637024],"type":"Point"},"properties":{"highway":"crossing","osm_id":"439224944","tag":{"crossing":"uncontrolled"}},"type":"Feature"},
	{"geometry":{"coordinates":[-4.029831,40.627671],"type":"Point"},"properties":{"osm_id":"3880206322","tag":{"amenity":"recycling","recycling:cans":"yes","recycling:glass_bottles":"yes","recycling:plastic":"yes","recycling:plastic_bottles":"yes","recycling:plastic_packaging":"yes","recycling_type":"container"}},"type":"Feature"},
	{"geometry":{"coordinates":[-4.029858,40.627677],"type":"Point"},"properties":{"osm_id":"3880206323","tag":{"amenity":"waste_disposal"}},"type":"Feature"},
	{"geometry":{"coordinates":[-4.002855,40.635467],"type":"Point"},"properties":{"osm_id":"4932282523","tag":{"amenity":"waste_disposal"}},"type":"Feature"},
	{"geometry":{"coordinates":[-4.008138,40.626782],"type":"Point"},"properties":{"osm_id":"4932282563","tag":{"amenity":"waste_disposal"}},"type":"Feature"},
	{"geometry":{"coordinates":[-4.003729,40.633844],"type":"Point"},"properties":{"osm_id":"4932282724","tag":{"amenity":"waste_disposal"}},"type":"Feature"},
	{"geometry":{"coordinates":[-4.005819,40.630509],"type":"Point"},"properties":{"osm_id":"4932282746","tag":{"amenity":"waste_disposal"}},"type":"Feature"},
	{"geometry":{"coordinates":[-4.007622,40.62905],"type":"Point"},"properties":{"osm_id":"4932282750","tag":{"amenity":"waste_disposal"}},"type":"Feature"},
	{"geometry":{"coordinates":[-4.003091,40.635582],"type":"Point"},"properties":{"osm_id":"4932295621","tag":{"amenity":"waste_disposal"}},"type":"Feature"},
	{"geometry":{"coordinates":[-3.99845,40.597711],"type":"Point"},"properties":{"osm_id":"5697683357","tag":{"amenity":"waste_disposal"}},"type":"Feature"},
	{"geometry":{"coordinates":[-4.009346,40.629018],"type":"Point"},"properties":{"osm_id":"5697824144","tag":{"amenity":"recycling","recycling:cans":"yes","recycling:plastic":"yes","recycling:plastic_bottles":"yes","recycling:plastic_packaging":"yes","recycling_type":"container"}},"type":"Feature"},
	{"geometry":{"coordinates":[-4.009333,40.629019],"type":"Point"},"properties":{"osm_id":"5697824145","tag":{"amenity":"waste_disposal"}},"type":"Feature"},
	{"geometry":{"coordinates":[-4.009321,40.629019],"type":"Point"},"properties":{"osm_id":"5697824146","tag":{"amenity":"waste_disposal"}},"type":"Feature"},
	{"geometry":{"coordinates":[-4.00931,40.62902],"type":"Point"},"properties":{"osm_id":"5697824147","tag":{"amenity":"waste_disposal"}},"type":"Feature"},
	{"geometry":{"coordinates":[-4.009298,40.629021],"type":"Point"},"properties":{"osm_id":"5697824148","tag":{"amenity":"waste_disposal"}},"type":"Feature"},
	{"geometry":{"coordinates":[-4.009288,40.629022],"type":"Point"},"properties":{"osm_id":"5697824149","tag":{"amenity":"recycling","recycling:glass_bottles":"yes","recycling_type":"container"}},"type":"Feature"},
	{"geometry":{"coordinates":[-4.008089,40.62524],"type":"Point"},"properties":{"osm_id":"5697824172","tag":{"amenity":"recycling","recycling:cans":"yes","recycling:plastic_bottles":"yes","recycling:plastic_packaging":"yes","recycling_type":"container"}},"type":"Feature"},
	{"geometry":{"coordinates":[-4.008095,40.625251],"type":"Point"},"properties":{"osm_id":"5697824173","tag":{"amenity":"waste_disposal"}},"type":"Feature"},
	{"geometry":{"coordinates":[-4.006608,40.620241],"type":"Point"},"properties":{"osm_id":"5697824177","tag":{"amenity":"recycling","recycling:cans":"yes","recycling:plastic_bottles":"yes","recycling:plastic_packaging":"yes","recycling_type":"container"}},"type":"Feature"},
	{"geometry":{"coordinates":[-4.006597,40.620249],"type":"Point"},"properties":{"osm_id":"5697824178","tag":{"amenity":"waste_disposal"}},"type":"Feature"},
	{"geometry":{"coordinates":[-4.006884,40.619536],"type":"Point"},"properties":{"osm_id":"5697824180","tag":{"amenity":"recycling","recycling:cans":"yes","recycling:plastic_bottles":"yes","recycling:plastic_packaging":"yes","recycling_type":"container"}},"type":"Feature"},
	{"geometry":{"coordinates":[-4.006886,40.619552],"type":"Point"},"properties":{"osm_id":"5697824181","tag":{"amenity":"waste_disposal"}},"type":"Feature"},
	{"geometry":{"coordinates":[-4.006887,40.619568],"type":"Point"},"properties":{"osm_id":"5697824182","tag":{"amenity":"recycling","recycling:glass_bottles":"yes","recycling_type":"container"}},"type":"Feature"},
	{"geometry":{"coordinates":[-3.978775,40.592095],"type":"Point"},"properties":{"osm_id":"5706639112","tag":{"amenity":"waste_disposal"}},"type":"Feature"},
	{"geometry":{"coordinates":[-3.978623,40.590457],"type":"Point"},"properties":{"osm_id":"5706639115","tag":{"amenity":"waste_disposal"}},"type":"Feature"},
	{"geometry":{"coordinates":[-3.978378,40.595073],"type":"Point"},"properties":{"osm_id":"5706662782","tag":{"amenity":"recycling","recycling:glass_bottles":"yes","recycling_type":"container"}},"type":"Feature"},
	{"geometry":{"coordinates":[-3.978376,40.595059],"type":"Point"},"properties":{"osm_id":"5706662783","tag":{"amenity":"waste_disposal"}},"type":"Feature"},
	{"geometry":{"coordinates":[-3.984282,40.598766],"type":"Point"},"properties":{"osm_id":"5709486546","tag":{"amenity":"recycling","recycling:glass_bottles":"yes","recycling_type":"container"}},"type":"Feature"},
	{"geometry":{"coordinates":[-3.984276,40.598754],"type":"Point"},"properties":{"osm_id":"5709486547","tag":{"amenity":"recycling","recycling:cans":"yes","recycling:plastic":"yes","recycling:plastic_bottles":"yes","recycling:plastic_packaging":"yes","recycling_type":"container"}},"type":"Feature"},
	{"geometry":{"coordinates":[-3.984269,40.598742],"type":"Point"},"properties":{"osm_id":"5709486548","tag":{"amenity":"waste_disposal"}},"type":"Feature"},
	{"geometry":{"coordinates":[-3.984263,40.598731],"type":"Point"},"properties":{"osm_id":"5709486549","tag":{"amenity":"waste_disposal"}},"type":"Feature"},
	{"geometry":{"coordinates":[-4.006648,40.615842],"type":"Point"},"properties":{"osm_id":"5709813446","tag":{"amenity":"waste_disposal"}},"type":"Feature"},
	{"geometry":{"coordinates":[-3.994029,40.646846],"type":"Point"},"properties":{"osm_id":"5844452362","tag":{"amenity":"waste_disposal"}},"type":"Feature"},
	{"geometry":{"coordinates":[-3.994225,40.582798],"type":"Point"},"properties":{"osm_id":"5909675538","tag":{"amenity":"recycling","recycling:cans":"yes","recycling:plastic":"yes","recycling:plastic_bottles":"yes","recycling:plastic_packaging":"yes","recycling_type":"container"}},"type":"Feature"},
	{"geometry":{"coordinates":[-3.994222,40.582776],"type":"Point"},"properties":{"osm_id":"5909675539","tag":{"amenity":"recycling","recycling:glass_bottles":"yes","recycling_type":"container"}},"type":"Feature"},
	{"geometry":{"coordinates":[-3.994221,40.582759],"type":"Point"},"properties":{"osm_id":"5909675540","tag":{"amenity":"recycling","recycling:cardboard":"yes","recycling:paper":"yes","recycling_type":"container"}},"type":"Feature"},
	{"geometry":{"coordinates":[-3.994215,40.582704],"type":"Point"},"properties":{"osm_id":"5909675541","tag":{"amenity":"waste_disposal"}},"type":"Feature"},
	{"geometry":{"coordinates":[-3.994213,40.582683],"type":"Point"},"properties":{"osm_id":"5909675542","tag":{"amenity":"waste_disposal"}},"type":"Feature"},
	{"geometry":{"coordinates":[-3.99421,40.582663],"type":"Point"},"properties":{"osm_id":"5909675543","tag":{"amenity":"waste_disposal"}},"type":"Feature"},
	{"geometry":{"coordinates":[-3.994208,40.582643],"type":"Point"},"properties":{"osm_id":"5909675544","tag":{"amenity":"waste_disposal"}},"type":"Feature"},
	{"geometry":{"coordinates":[-3.988654,40.589958],"type":"Point"},"properties":{"osm_id":"5909718476","tag":{"amenity":"recycling","recycling:glass_bottles":"yes","recycling_type":"container"}},"type":"Feature"},
	{"geometry":{"coordinates":[-3.988671,40.589943],"type":"Point"},"properties":{"osm_id":"5909718477","tag":{"amenity":"recycling","recycling:cardboard":"yes","recycling:paper":"yes","recycling_type":"container"}},"type":"Feature"},
	{"geometry":{"coordinates":[-3.988695,40.589922],"type":"Point"},"properties":{"osm_id":"5909718478","tag":{"amenity":"recycling","recycling:cans":"yes","recycling:plastic":"yes","recycling:plastic_bottles":"yes","recycling:plastic_packaging":"yes","recycling_type":"container"}},"type":"Feature"},
	{"geometry":{"coordinates":[-3.988711,40.589907],"type":"Point"},"properties":{"osm_id":"5909718479","tag":{"amenity":"waste_disposal"}},"type":"Feature"},
	{"geometry":{"coordinates":[-3.990571,40.587923],"type":"Point"},"properties":{"osm_id":"5909720685","tag":{"amenity":"waste_disposal"}},"type":"Feature"},
	{"geometry":{"coordinates":[-3.989655,40.591111],"type":"Point"},"properties":{"osm_id":"5912463711","tag":{"amenity":"waste_disposal"}},"type":"Feature"},
	{"geometry":{"coordinates":[-3.989632,40.59113],"type":"Point"},"properties":{"osm_id":"5912463712","tag":{"amenity":"recycling","recycling:cans":"yes","recycling:plastic":"yes","recycling:plastic_bottles":"yes","recycling:plastic_packaging":"yes","recycling_type":"container"}},"type":"Feature"},
	{"geometry":{"coordinates":[-3.989613,40.591145],"type":"Point"},"properties":{"osm_id":"5912463713","tag":{"amenity":"recycling","recycling:glass_bottles":"yes","recycling_type":"container"}},"type":"Feature"},
	{"geometry":{"coordinates":[-3.98949,40.591246],"type":"Point"},"properties":{"osm_id":"5912463714","tag":{"amenity":"recycling","recycling:cardboard":"yes","recycling:paper":"yes","recycling_type":"container"}},"type":"Feature"},
	{"geometry":{"coordinates":[-3.996039,40.586192],"type":"Point"},"properties":{"osm_id":"5912480496","tag":{"amenity":"waste_disposal"}},"type":"Feature"},
	{"geometry":{"coordinates":[-4.01708,40.613838],"type":"Point"},"properties":{"osm_id":"5950127992","tag":{"amenity":"waste_disposal"}},"type":"Feature"},
	{"geometry":{"coordinates":[-4.017044,40.613915],"type":"Point"},"properties":{"osm_id":"5950127993","tag":{"amenity":"recycling","recycling:green_waste":"yes","recycling_type":"container"}},"type":"Feature"},
	{"geometry":{"coordinates":[-4.016861,40.61502],"type":"Point"},"properties":{"osm_id":"5950127996","tag":{"amenity":"waste_disposal"}},"type":"Feature"},
	{"geometry":{"coordinates":[-4.016863,40.614979],"type":"Point"},"properties":{"osm_id":"5950127997","tag":{"amenity":"recycling","recycling:glass_bottles":"yes","recycling_type":"container"}},"type":"Feature"},
	{"geometry":{"coordinates":[-4.016866,40.614957],"type":"Point"},"properties":{"osm_id":"5950127998","tag":{"amenity":"recycling","recycling:cardboard":"yes","recycling:paper":"yes","recycling_type":"container"}},"type":"Feature"},
	{"geometry":{"coordinates":[-4.016867,40.614936],"type":"Point"},"properties":{"osm_id":"5950127999","tag":{"amenity":"recycling","recycling:plastic":"yes","recycling:plastic_bottles":"yes","recycling:plastic_packaging":"yes","recycling_type":"container"}},"type":"Feature"},
	{"geometry":{"coordinates":[-4.015221,40.614721],"type":"Point"},"properties":{"osm_id":"5950128000","tag":{"amenity":"waste_disposal"}},"type":"Feature"},
	{"geometry":{"coordinates":[-4.015632,40.616051],"type":"Point"},"properties":{"osm_id":"5950128002","tag":{"amenity":"waste_disposal"}},"type":"Feature"},
	{"geometry":{"coordinates":[-4.013819,40.61465],"type":"Point"},"properties":{"osm_id":"5950128006","tag":{"amenity":"waste_disposal"}},"type":"Feature"},
	{"geometry":{"coordinates":[-4.013548,40.61595],"type":"Point"},"properties":{"osm_id":"5950128007","tag":{"amenity":"recycling","recycling:cardboard":"yes","recycling:paper":"yes","recycling_type":"container"}},"type":"Feature"},
	{"geometry":{"coordinates":[-4.013517,40.615949],"type":"Point"},"properties":{"osm_id":"5950128008","tag":{"amenity":"waste_disposal"}},"type":"Feature"},
	{"geometry":{"coordinates":[-4.012355,40.615889],"type":"Point"},"properties":{"osm_id":"5950128012","tag":{"amenity":"waste_disposal"}},"type":"Feature"},
	{"geometry":{"coordinates":[-4.011535,40.615752],"type":"Point"},"properties":{"osm_id":"5950128013","tag":{"amenity":"recycling","recycling:cardboard":"yes","recycling:paper":"yes","recycling_type":"container"}},"type":"Feature"},
	{"geometry":{"coordinates":[-4.011537,40.615764],"type":"Point"},"properties":{"osm_id":"5950128014","tag":{"amenity":"recycling","recycling:cans":"yes","recycling:plastic":"yes","recycling:plastic_bottles":"yes","recycling:plastic_packaging":"yes","recycling_type":"container"}},"type":"Feature"},
	{"geometry":{"coordinates":[-4.011538,40.615778],"type":"Point"},"properties":{"osm_id":"5950128015","tag":{"amenity":"recycling","recycling:glass_bottles":"yes","recycling_type":"container"}},"type":"Feature"},
	{"geometry":{"coordinates":[-4.011466,40.614953],"type":"Point"},"properties":{"osm_id":"5950128016","tag":{"amenity":"waste_disposal"}},"type":"Feature"},
	{"geometry":{"coordinates":[-4.011217,40.61344],"type":"Point"},"properties":{"osm_id":"5950128017","tag":{"amenity":"waste_disposal"}},"type":"Feature"},
	{"geometry":{"coordinates":[-4.011046,40.612896],"type":"Point"},"properties":{"osm_id":"5950128018","tag":{"amenity":"waste_disposal"}},"type":"Feature"},
	{"geometry":{"coordinates":[-4.009184,40.615965],"type":"Point"},"properties":{"osm_id":"5952667349","tag":{"amenity":"waste_disposal"}},"type":"Feature"},
	{"geometry":{"coordinates":[-4.00781,40.615933],"type":"Point"},"properties":{"osm_id":"5952667361","tag":{"amenity":"waste_disposal"}},"type":"Feature"},
	{"geometry":{"coordinates":[-4.039175,40.625846],"type":"Point"},"properties":{"osm_id":"6044957773","tag":{"amenity":"waste_disposal"}},"type":"Feature"},
	{"geometry":{"coordinates":[-4.037574,40.624681],"type":"Point"},"properties":{"osm_id":"6044957774","tag":{"amenity":"recycling","recycling:glass_bottles":"yes","recycling:paper":"yes","recycling:plastic":"yes","recycling_type":"container"}},"type":"Feature"},
	{"geometry":{"coordinates":[-4.037535,40.624657],"type":"Point"},"properties":{"osm_id":"6044957775","tag":{"amenity":"waste_disposal"}},"type":"Feature"},
	{"geometry":{"coordinates":[-4.036287,40.625467],"type":"Point"},"properties":{"osm_id":"6044957776","tag":{"amenity":"waste_disposal"}},"type":"Feature"},
	{"geometry":{"coordinates":[-4.040407,40.626704],"type":"Point"},"properties":{"osm_id":"6044957777","tag":{"amenity":"waste_disposal"}},"type":"Feature"},
	{"geometry":{"coordinates":[-4.009016,40.581774],"type":"Point"},"properties":{"osm_id":"6269313310","tag":{"amenity":"recycling","recycling:clothes":"yes","recycling:shoes":"yes","recycling_type":"container"}},"type":"Feature"},
	{"geometry":{"coordinates":[-4.000128,40.584604],"type":"Point"},"properties":{"osm_id":"6519207454","tag":{"amenity":"recycling","recycling:cardboard":"yes","recycling:paper":"yes","recycling_type":"container"}},"type":"Feature"},
	{"geometry":{"coordinates":[-4.000153,40.584597],"type":"Point"},"properties":{"osm_id":"6519207455","tag":{"amenity":"recycling","recycling:plastic":"yes","recycling:plastic_bottles":"yes","recycling:plastic_packaging":"yes","recycling_type":"container"}},"type":"Feature"},
	{"geometry":{"coordinates":[-4.000167,40.584585],"type":"Point"},"properties":{"osm_id":"6519207456","tag":{"amenity":"waste_disposal"}},"type":"Feature"},
	{"geometry":{"coordinates":[-3.987771,40.584203],"type":"Point"},"properties":{"osm_id":"6715370408","tag":{"amenity":"waste_disposal"}},"type":"Feature"},
	{"geometry":{"coordinates":[-3.987785,40.584205],"type":"Point"},"properties":{"osm_id":"6715370409","tag":{"amenity":"waste_disposal"}},"type":"Feature"},
	{"geometry":{"coordinates":[-3.987798,40.584206],"type":"Point"},"properties":{"osm_id":"6715370410","tag":{"amenity":"waste_disposal"}},"type":"Feature"},
	{"geometry":{"coordinates":[-3.987811,40.584208],"type":"Point"},"properties":{"osm_id":"6715370411","tag":{"amenity":"waste_disposal"}},"type":"Feature"},
	{"geometry":{"coordinates":[-3.967574,40.597941],"type":"Point"},"properties":{"osm_id":"6813976048","tag":{"amenity":"waste_disposal"}},"type":"Feature"},
	{"geometry":{"coordinates":[-3.970266,40.600898],"type":"Point"},"properties":{"osm_id":"6814244516","tag":{"amenity":"recycling","recycling:glass_bottles":"yes","recycling_type":"container"}},"type":"Feature"},
	{"geometry":{"coordinates":[-3.970261,40.600915],"type":"Point"},"properties":{"osm_id":"6814244517","tag":{"amenity":"recycling","recycling:cardboard":"yes","recycling:paper":"yes","recycling_type":"container"}},"type":"Feature"},
	{"geometry":{"coordinates":[-3.97026,40.600933],"type":"Point"},"properties":{"osm_id":"6814244518","tag":{"amenity":"recycling","recycling:cans":"yes","recycling:plastic":"yes","recycling:plastic_bottles":"yes","recycling:plastic_packaging":"yes","recycling_type":"container"}},"type":"Feature"},
	{"geometry":{"coordinates":[-3.970291,40.600904],"type":"Point"},"properties":{"osm_id":"6814244519","tag":{"amenity":"waste_disposal"}},"type":"Feature"},
	{"geometry":{"coordinates":[-3.970284,40.600921],"type":"Point"},"properties":{"osm_id":"6814244520","tag":{"amenity":"waste_disposal"}},"type":"Feature"},
	{"geometry":{"coordinates":[-4.017068,40.613849],"type":"Point"},"properties":{"osm_id":"6835654683","tag":{"amenity":"waste_disposal"}},"type":"Feature"},
	{"geometry":{"coordinates":[-4.005084,40.606573],"type":"Point"},"properties":{"osm_id":"6842515024","tag":{"amenity":"waste_disposal"}},"type":"Feature"},
	{"geometry":{"coordinates":[-4.005124,40.60658],"type":"Point"},"properties":{"osm_id":"6842515025","tag":{"amenity":"recycling","recycling:cans":"yes","recycling:plastic":"yes","recycling:plastic_bottles":"yes","recycling:plastic_packaging":"yes","recycling_type":"container"}},"type":"Feature"},
	{"geometry":{"coordinates":[-4.011934,40.616781],"type":"Point"},"properties":{"osm_id":"6851836436","tag":{"amenity":"recycling","recycling:cans":"yes","recycling:plastic":"yes","recycling:plastic_bottles":"yes","recycling:plastic_packaging":"yes","recycling_type":"container"}},"type":"Feature"},
	{"geometry":{"coordinates":[-4.011947,40.616783],"type":"Point"},"properties":{"osm_id":"6851836437","tag":{"amenity":"waste_disposal"}},"type":"Feature"},
	{"geometry":{"coordinates":[-4.011969,40.616786],"type":"Point"},"properties":{"osm_id":"6851836438","tag":{"amenity":"recycling","recycling:cardboard":"yes","recycling:paper":"yes","recycling_type":"container"}},"type":"Feature"},
	{"geometry":{"coordinates":[-4.011995,40.616787],"type":"Point"},"properties":{"osm_id":"6851836439","tag":{"amenity":"recycling","recycling:glass_bottles":"yes","recycling_type":"container"}},"type":"Feature"},
	{"geometry":{"coordinates":[-4.003197,40.628031],"type":"Point"},"properties":{"osm_id":"7167537229","tag":{"amenity":"recycling","recycling:clothes":"yes","recycling:shoes":"yes","recycling_type":"container"}},"type":"Feature"},
	{"geometry":{"coordinates":[-4.003215,40.628019],"type":"Point"},"properties":{"osm_id":"7167537230","tag":{"amenity":"recycling","recycling:cardboard":"yes","recycling:paper":"yes","recycling_type":"container"}},"type":"Feature"},
	{"geometry":{"coordinates":[-4.003229,40.62801],"type":"Point"},"properties":{"osm_id":"7167537231","tag":{"amenity":"recycling","recycling:glass_bottles":"yes","recycling_type":"container"}},"type":"Feature"},
	{"geometry":{"coordinates":[-4.004798,40.62915],"type":"Point"},"properties":{"osm_id":"7167537232","tag":{"amenity":"recycling","recycling:cans":"yes","recycling:plastic":"yes","recycling:plastic_bottles":"yes","recycling:plastic_packaging":"yes","recycling_type":"container"}},"type":"Feature"},
	{"geometry":{"coordinates":[-4.003243,40.628],"type":"Point"},"properties":{"osm_id":"7167537233","tag":{"amenity":"recycling","recycling:cans":"yes","recycling:plastic":"yes","recycling:plastic_bottles":"yes","recycling:plastic_packaging":"yes","recycling_type":"container"}},"type":"Feature"},
	{"geometry":{"coordinates":[-4.003259,40.62799],"type":"Point"},"properties":{"osm_id":"7167537234","tag":{"amenity":"recycling","recycling:cans":"yes","recycling:plastic":"yes","recycling:plastic_bottles":"yes","recycling:plastic_packaging":"yes","recycling_type":"container"}},"type":"Feature"},
	{"geometry":{"coordinates":[-4.003276,40.627978],"type":"Point"},"properties":{"osm_id":"7167537235","tag":{"amenity":"waste_disposal"}},"type":"Feature"},
	{"geometry":{"coordinates":[-4.004811,40.629139],"type":"Point"},"properties":{"osm_id":"7167537236","tag":{"amenity":"waste_disposal"}},"type":"Feature"},
	{"geometry":{"coordinates":[-4.004823,40.629131],"type":"Point"},"properties":{"osm_id":"7167537237","tag":{"amenity":"waste_disposal"}},"type":"Feature"},
	{"geometry":{"coordinates":[-4.004833,40.629122],"type":"Point"},"properties":{"osm_id":"7167537238","tag":{"amenity":"waste_disposal"}},"type":"Feature"},
	{"geometry":{"coordinates":[-4.003291,40.627968],"type":"Point"},"properties":{"osm_id":"7167537239","tag":{"amenity":"waste_disposal"}},"type":"Feature"},
	{"geometry":{"coordinates":[-4.003308,40.627957],"type":"Point"},"properties":{"osm_id":"7167537240","tag":{"amenity":"waste_disposal"}},"type":"Feature"},
	{"geometry":{"coordinates":[-3.987552,40.598934],"type":"Point"},"properties":{"osm_id":"7340036687","tag":{"amenity":"recycling","recycling:glass_bottles":"yes","recycling_type":"container"}},"type":"Feature"},
	{"geometry":{"coordinates":[-3.987564,40.59896],"type":"Point"},"properties":{"osm_id":"7340036688","tag":{"amenity":"recycling","recycling:cardboard":"yes","recycling:paper":"yes","recycling_type":"container"}},"type":"Feature"},
	{"geometry":{"coordinates":[-3.987586,40.598968],"type":"Point"},"properties":{"osm_id":"7340036689","tag":{"amenity":"recycling","recycling:cans":"yes","recycling:plastic":"yes","recycling:plastic_bottles":"yes","recycling:plastic_packaging":"yes","recycling_type":"container"}},"type":"Feature"},
	{"geometry":{"coordinates":[-3.987562,40.598919],"type":"Point"},"properties":{"osm_id":"7340036690","tag":{"amenity":"waste_disposal"}},"type":"Feature"},
	{"geometry":{"coordinates":[-3.987581,40.598927],"type":"Point"},"properties":{"osm_id":"7340036691","tag":{"amenity":"waste_disposal"}},"type":"Feature"},
	{"geometry":{"coordinates":[-3.987604,40.59894],"type":"Point"},"properties":{"osm_id":"7340036692","tag":{"amenity":"waste_disposal"}},"type":"Feature"},
	{"geometry":{"coordinates":[-3.990538,40.598816],"type":"Point"},"properties":{"osm_id":"7340117111","tag":{"amenity":"recycling","recycling:glass_bottles":"yes","recycling_type":"container"}},"type":"Feature"},
	{"geometry":{"coordinates":[-3.990492,40.598856],"type":"Point"},"properties":{"osm_id":"7340117112","tag":{"amenity":"recycling","recycling:cardboard":"yes","recycling:paper":"yes","recycling_type":"container"}},"type":"Feature"},
	{"geometry":{"coordinates":[-3.990501,40.598845],"type":"Point"},"properties":{"osm_id":"7340117113","tag":{"amenity":"recycling","recycling:cans":"yes","recycling:plastic":"yes","recycling:plastic_bottles":"yes","recycling:plastic_packaging":"yes","recycling_type":"container"}},"type":"Feature"},
	{"geometry":{"coordinates":[-3.990517,40.598832],"type":"Point"},"properties":{"osm_id":"7340117114","tag":{"amenity":"waste_disposal"}},"type":"Feature"},
	{"geometry":{"coordinates":[-4.029704,40.625795],"type":"Point"},"properties":{"osm_id":"7416714440","tag":{"amenity":"recycling","recycling:cardboard":"yes","recycling:paper":"yes","recycling_type":"container"}},"type":"Feature"},
	{"geometry":{"coordinates":[-4.029724,40.62578],"type":"Point"},"properties":{"osm_id":"7416714441","tag":{"amenity":"recycling","recycling:glass":"yes","recycling:glass_bottles":"yes","recycling_type":"container"}},"type":"Feature"},
	{"geometry":{"coordinates":[-4.029753,40.625748],"type":"Point"},"properties":{"osm_id":"7416714442","tag":{"amenity":"waste_disposal"}},"type":"Feature"},
	{"geometry":{"coordinates":[-4.029766,40.625724],"type":"Point"},"properties":{"osm_id":"7416714443","tag":{"amenity":"recycling","recycling:cans":"yes","recycling:plastic":"yes","recycling:plastic_bottles":"yes","recycling:plastic_packaging":"yes","recycling_type":"container"}},"type":"Feature"},
	{"geometry":{"coordinates":[-3.987885,40.64412],"type":"Point"},"properties":{"osm_id":"7528274006","tag":{"amenity":"recycling","recycling:glass":"yes","recycling:glass_bottles":"yes","recycling_type":"container"}},"type":"Feature"},
	{"geometry":{"coordinates":[-3.987908,40.644105],"type":"Point"},"properties":{"osm_id":"7528274007","tag":{"amenity":"recycling","recycling:cans":"yes","recycling:plastic":"yes","recycling:plastic_bottles":"yes","recycling:plastic_packaging":"yes","recycling_type":"container"}},"type":"Feature"},
	{"geometry":{"coordinates":[-3.987925,40.644089],"type":"Point"},"properties":{"osm_id":"7528274008","tag":{"amenity":"recycling","recycling:cans":"yes","recycling:plastic":"yes","recycling:plastic_bottles":"yes","recycling:plastic_packaging":"yes","recycling_type":"container"}},"type":"Feature"},
	{"geometry":{"coordinates":[-3.987933,40.644074],"type":"Point"},"properties":{"osm_id":"7528274009","tag":{"amenity":"recycling","recycling:cardboard":"yes","recycling:paper":"yes","recycling_type":"container"}},"type":"Feature"},
	{"geometry":{"coordinates":[-3.988284,40.644381],"type":"Point"},"properties":{"osm_id":"7528274010","tag":{"amenity":"recycling","recycling:cardboard":"yes","recycling:paper":"yes","recycling_type":"container"}},"type":"Feature"},
	{"geometry":{"coordinates":[-3.988276,40.644368],"type":"Point"},"properties":{"osm_id":"7528274011","tag":{"amenity":"recycling","recycling:glass":"yes","recycling:glass_bottles":"yes","recycling_type":"container"}},"type":"Feature"},
	{"geometry":{"coordinates":[-3.988402,40.644512],"type":"Point"},"properties":{"osm_id":"7528274012","tag":{"amenity":"recycling","recycling:plastic":"yes","recycling:plastic_bottles":"yes","recycling_type":"container"}},"type":"Feature"},
	{"geometry":{"coordinates":[-3.988392,40.644497],"type":"Point"},"properties":{"osm_id":"7528274013","tag":{"amenity":"waste_disposal"}},"type":"Feature"},
	{"geometry":{"coordinates":[-3.988895,40.644522],"type":"Point"},"properties":{"osm_id":"7528274014","tag":{"amenity":"recycling","recycling:glass":"yes","recycling:glass_bottles":"yes","recycling_type":"container"}},"type":"Feature"},
	{"geometry":{"coordinates":[-3.988912,40.644522],"type":"Point"},"properties":{"osm_id":"7528274015","tag":{"amenity":"recycling","recycling:cans":"yes","recycling:plastic":"yes","recycling:plastic_bottles":"yes","recycling:plastic_packaging":"yes","recycling_type":"container"}},"type":"Feature"},
	{"geometry":{"coordinates":[-3.988928,40.644522],"type":"Point"},"properties":{"osm_id":"7528274016","tag":{"amenity":"waste_disposal"}},"type":"Feature"},
	{"geometry":{"coordinates":[-3.988945,40.644521],"type":"Point"},"properties":{"osm_id":"7528274017","tag":{"amenity":"waste_disposal"}},"type":"Feature"},
	{"geometry":{"coordinates":[-3.981184,40.592121],"type":"Point"},"properties":{"osm_id":"7554590139","tag":{"amenity":"waste_disposal"}},"type":"Feature"},
	{"geometry":{"coordinates":[-3.981214,40.592126],"type":"Point"},"properties":{"osm_id":"7554590140","tag":{"amenity":"recycling","recycling:cans":"yes","recycling:plastic":"yes","recycling:plastic_bottles":"yes","recycling:plastic_packaging":"yes","recycling_type":"container"}},"type":"Feature"},
	{"geometry":{"coordinates":[-3.981243,40.592133],"type":"Point"},"properties":{"osm_id":"7554590141","tag":{"amenity":"recycling","recycling:cardboard":"yes","recycling:paper":"yes","recycling_type":"container"}},"type":"Feature"},
	{"geometry":{"coordinates":[-3.981272,40.592139],"type":"Point"},"properties":{"osm_id":"7554590142","tag":{"amenity":"recycling","recycling:glass":"yes","recycling:glass_bottles":"yes","recycling_type":"container"}},"type":"Feature"},
	{"geometry":{"coordinates":[-4.007266,40.628182],"type":"Point"},"properties":{"osm_id":"7576404592","tag":{"amenity":"recycling","recycling:cardboard":"yes","recycling:paper":"yes","recycling_type":"container"}},"type":"Feature"},
	{"geometry":{"coordinates":[-4.007243,40.628176],"type":"Point"},"properties":{"osm_id":"7576404593","tag":{"amenity":"recycling","recycling:glass":"yes","recycling:glass_bottles":"yes","recycling_type":"container"}},"type":"Feature"},
	{"geometry":{"coordinates":[-4.007283,40.628167],"type":"Point"},"properties":{"osm_id":"7576404594","tag":{"amenity":"recycling","recycling:clothes":"yes","recycling:shoes":"yes","recycling_type":"container"}},"type":"Feature"},
	{"geometry":{"coordinates":[-4.00729,40.628155],"type":"Point"},"properties":{"osm_id":"7576404595","tag":{"amenity":"waste_disposal"}},"type":"Feature"},
	{"geometry":{"coordinates":[-3.973,40.59622],"type":"Point"},"properties":{"osm_id":"7598077446","tag":{"amenity":"waste_disposal"}},"type":"Feature"},
	{"geometry":{"coordinates":[-3.989848,40.641666],"type":"Point"},"properties":{"osm_id":"7726355954","tag":{"amenity":"waste_disposal"}},"type":"Feature"},
	{"geometry":{"coordinates":[-3.989873,40.641656],"type":"Point"},"properties":{"osm_id":"7726355955","tag":{"amenity":"recycling","recycling:books":"yes","recycling:cardboard":"yes","recycling:magazines":"yes","recycling:newspaper":"yes","recycling:paper":"yes","recycling:paper_packaging":"yes","recycling_type":"container"}},"type":"Feature"},
	{"geometry":{"coordinates":[-3.989895,40.641648],"type":"Point"},"properties":{"osm_id":"7726355956","tag":{"amenity":"recycling","recycling:cans":"yes","recycling:plastic":"yes","recycling:plastic_bottles":"yes","recycling_type":"container"}},"type":"Feature"},
	{"geometry":{"coordinates":[-3.989919,40.641637],"type":"Point"},"properties":{"osm_id":"7726355957","tag":{"amenity":"recycling","recycling:glass":"yes","recycling:glass_bottles":"yes","recycling_type":"container"}},"type":"Feature"},
	{"geometry":{"coordinates":[-4.022998,40.624833],"type":"Point"},"properties":{"name":"Chatarras","osm_id":"7765350149","tag":{"amenity":"recycling","recycling:scrap_metal":"yes","recycling_type":"centre"}},"type":"Feature"},
	{"geometry":{"coordinates":[-3.957931,40.580989],"type":"Point"},"properties":{"osm_id":"7916515447","tag":{"amenity":"recycling","recycling:cans":"yes","recycling:plastic_packaging":"yes","recycling_type":"container"}},"type":"Feature"}
]
}
