{
"type": "FeatureCollection",
"features": [
	{"geometry":{"coordinates":[-4.016728,5.391011],"type":"Point"},"properties":{"osm_id":"3607492358","tag":{"amenity":"waste_basket"}},"type":"Feature"},
	{"geometry":{"coordinates":[-4.016521,5.387301],"type":"Point"},"properties":{"osm_id":"3618117735","tag":{"amenity":"waste_basket"}},"type":"Feature"},
	{"geometry":{"coordinates":[-4.016892,5.387656],"type":"Point"},"properties":{"osm_id":"3618166222","tag":{"amenity":"waste_basket"}},"type":"Feature"},
	{"geometry":{"coordinates":[-4.016442,5.387208],"type":"Point"},"properties":{"osm_id":"3647565488","tag":{"amenity":"waste_basket"}},"type":"Feature"},
	{"geometry":{"coordinates":[-4.017136,5.392569],"type":"Point"},"properties":{"osm_id":"4748498343","tag":{"amenity":"waste_basket"}},"type":"Feature"},
	{"geometry":{"coordinates":[-4.000691,5.367081],"type":"Point"},"properties":{"name":"Achat de materiel de recuperation","osm_id":"5923989600","tag":{"amenity":"recycling","recycling_type":"centre"}},"type":"Feature"},
	{"geometry":{"coordinates":[-4.010314,5.373033],"type":"Point"},"properties":{"name":"Point de recuperation de bidon","osm_id":"5929090157","tag":{"amenity":"recycling","recycling_type":"centre"}},"type":"Feature"},
	{"geometry":{"coordinates":[-4.0033,5.354072],"type":"Point"},"properties":{"osm_id":"7066708104","tag":{"amenity":"waste_basket","waste":"trash"}},"type":"Feature"},
	{"geometry":{"coordinates":[-4.004642,5.353883],"type":"Point"},"properties":{"osm_id":"7066725646","tag":{"amenity":"waste_basket","waste":"trash"}},"type":"Feature"},
	{"geometry":{"coordinates":[-3.995965,5.423728],"type":"Point"},"properties":{"name":"Depot bac \u00c3\u00a0 ordures benne","osm_id":"8841921705","tag":{"amenity":"waste_basket","fid":"981","project:opencities_abidjan":"yes","source:date":"2021/03/04"}},"type":"Feature"}
]
}
