{
"type": "FeatureCollection",
"lastupdate": "2020-08-05T00:00:00Z",
"features": [
	{"geometry":{"coordinates":[18.04058,59.262784],"type":"Point"},"properties":{"osm_id":"282291731","tag":{"amenity":"recycling","location":"overground","recycling_type":"container"}},"type":"Feature"},
	{"geometry":{"coordinates":[18.02265,59.243726],"type":"Point"},"properties":{"osm_id":"445847852","tag":{"amenity":"recycling","location":"overground","recycling:batteries":"yes","recycling:cans":"yes","recycling:clothes":"yes","recycling:glass_bottles":"yes","recycling:paper":"yes","recycling:plastic":"no","recycling:plastic_packaging":"yes","recycling:shoes":"yes","recycling_type":"container"}},"type":"Feature"},
	{"geometry":{"coordinates":[18.084774,59.247829],"type":"Point"},"properties":{"osm_id":"1754055693","tag":{"amenity":"recycling"}},"type":"Feature"},
	{"geometry":{"coordinates":[18.080909,59.264482],"type":"Point"},"properties":{"osm_id":"1979615649","tag":{"amenity":"recycling"}},"type":"Feature"},
	{"geometry":{"coordinates":[18.056237,59.2485],"type":"Point"},"properties":{"osm_id":"2112812546","tag":{"amenity":"recycling"}},"type":"Feature"},
	{"geometry":{"coordinates":[18.10025,59.23411],"type":"Point"},"properties":{"osm_id":"2443940455","tag":{"amenity":"waste_basket"}},"type":"Feature"},
	{"geometry":{"coordinates":[18.097567,59.233784],"type":"Point"},"properties":{"osm_id":"2443940456","tag":{"amenity":"waste_basket"}},"type":"Feature"},
	{"geometry":{"coordinates":[18.101661,59.234214],"type":"Point"},"properties":{"osm_id":"2443940457","tag":{"amenity":"waste_basket"}},"type":"Feature"},
	{"geometry":{"coordinates":[18.098887,59.234002],"type":"Point"},"properties":{"osm_id":"2443940458","tag":{"amenity":"waste_basket"}},"type":"Feature"},
	{"geometry":{"coordinates":[18.079159,59.244634],"type":"Point"},"properties":{"osm_id":"2627610565","tag":{"amenity":"recycling","location":"overground","recycling:cans":"yes","recycling:clothes":"yes","recycling:glass_bottles":"yes","recycling:paper":"yes","recycling:plastic":"no","recycling:plastic_packaging":"yes","recycling:shoes":"yes","recycling_type":"container"}},"type":"Feature"},
	{"geometry":{"coordinates":[18.089677,59.263687],"type":"Point"},"properties":{"osm_id":"2656739555","tag":{"amenity":"recycling"}},"type":"Feature"},
	{"geometry":{"coordinates":[18.079837,59.256869],"type":"Point"},"properties":{"osm_id":"2868969132","tag":{"amenity":"recycling","recycling:cans":"yes","recycling:glass_bottles":"yes","recycling:paper":"yes","recycling:scrap_metal":"yes"}},"type":"Feature"},
	{"geometry":{"coordinates":[18.074685,59.263797],"type":"Point"},"properties":{"osm_id":"2868969190","tag":{"amenity":"waste_basket"}},"type":"Feature"},
	{"geometry":{"coordinates":[18.082647,59.254481],"type":"Point"},"properties":{"osm_id":"3175370392","tag":{"amenity":"waste_basket"}},"type":"Feature"},
	{"geometry":{"coordinates":[18.086917,59.236046],"type":"Point"},"properties":{"osm_id":"3424056748","tag":{"amenity":"recycling","location":"overground","recycling:cans":"yes","recycling:clothes":"yes","recycling:glass_bottles":"yes","recycling:paper":"yes","recycling:plastic":"yes","recycling:scrap_metal":"yes","recycling:shoes":"yes","recycling_type":"container"}},"type":"Feature"},
	{"geometry":{"coordinates":[18.036353,59.256262],"type":"Point"},"properties":{"osm_id":"3541395765","tag":{"amenity":"recycling","location":"overground","recycling:batteries":"yes","recycling:cans":"yes","recycling:clothes":"yes","recycling:glass_bottles":"yes","recycling:paper":"yes","recycling:plastic":"no","recycling:plastic_packaging":"yes","recycling:shoes":"yes","recycling_type":"container"}},"type":"Feature"},
	{"geometry":{"coordinates":[18.088541,59.259802],"type":"Point"},"properties":{"osm_id":"4922666578","tag":{"amenity":"waste_basket"}},"type":"Feature"},
	{"geometry":{"coordinates":[18.07725,59.261954],"type":"Point"},"properties":{"osm_id":"5585271736","tag":{"amenity":"waste_basket"}},"type":"Feature"},
	{"geometry":{"coordinates":[18.077667,59.262134],"type":"Point"},"properties":{"osm_id":"5585271737","tag":{"amenity":"waste_basket"}},"type":"Feature"},
	{"geometry":{"coordinates":[18.077751,59.260169],"type":"Point"},"properties":{"osm_id":"5585287871","tag":{"amenity":"waste_basket"}},"type":"Feature"},
	{"geometry":{"coordinates":[18.050169,59.260346],"type":"Point"},"properties":{"osm_id":"5637940006","tag":{"amenity":"waste_basket"}},"type":"Feature"},
	{"geometry":{"coordinates":[18.096627,59.233718],"type":"Point"},"properties":{"osm_id":"5854327616","tag":{"amenity":"recycling","opening_hours":"24/7","recycling:clothes":"yes","recycling_type":"container","website":"http://www.humanbridge.se"}},"type":"Feature"},
	{"geometry":{"coordinates":[18.103225,59.234707],"type":"Point"},"properties":{"osm_id":"5854327617","tag":{"amenity":"recycling","opening_hours":"24/7","recycling:clothes":"yes","recycling_type":"container","website":"http://www.humanbridge.se"}},"type":"Feature"},
	{"geometry":{"coordinates":[18.095574,59.239185],"type":"Point"},"properties":{"osm_id":"5854327619","tag":{"amenity":"recycling","opening_hours":"24/7","recycling:clothes":"yes","recycling_type":"container","website":"http://www.humanbridge.se"}},"type":"Feature"},
	{"geometry":{"coordinates":[18.04147,59.258333],"type":"Point"},"properties":{"osm_id":"6815495882","tag":{"amenity":"waste_basket"}},"type":"Feature"},
	{"geometry":{"coordinates":[18.039669,59.25729],"type":"Point"},"properties":{"osm_id":"6815495884","tag":{"amenity":"waste_basket"}},"type":"Feature"},
	{"geometry":{"coordinates":[18.040192,59.255784],"type":"Point"},"properties":{"osm_id":"6815551688","tag":{"amenity":"waste_basket"}},"type":"Feature"},
	{"geometry":{"coordinates":[18.039066,59.253919],"type":"Point"},"properties":{"osm_id":"6815551691","tag":{"amenity":"waste_basket"}},"type":"Feature"},
	{"geometry":{"coordinates":[18.037573,59.251525],"type":"Point"},"properties":{"osm_id":"6815551701","tag":{"amenity":"waste_basket"}},"type":"Feature"},
	{"geometry":{"coordinates":[18.036124,59.250728],"type":"Point"},"properties":{"osm_id":"6815551702","tag":{"amenity":"waste_basket"}},"type":"Feature"},
	{"geometry":{"coordinates":[18.086211,59.260814],"type":"Point"},"properties":{"osm_id":"7627593161","tag":{"amenity":"waste_basket"}},"type":"Feature"},
	{"geometry":{"coordinates":[18.082854,59.25263],"type":"Point"},"properties":{"osm_id":"7627616692","tag":{"amenity":"recycling","recycling:cardboard":"yes","recycling:clothes":"yes","recycling:glass":"yes","recycling:glass_bottles":"yes","recycling:paper":"yes","recycling:plastic":"yes","recycling:plastic_packaging":"yes","recycling:waste":"no","recycling_type":"container"}},"type":"Feature"},
	{"geometry":{"coordinates":[18.08369,59.237601],"type":"Point"},"properties":{"osm_id":"7638593442","tag":{"amenity":"waste_basket"}},"type":"Feature"},
	{"geometry":{"coordinates":[18.086423,59.236894],"type":"Point"},"properties":{"osm_id":"7638594287","tag":{"amenity":"waste_basket"}},"type":"Feature"},
	{"geometry":{"coordinates":[18.080918,59.23924],"type":"Point"},"properties":{"osm_id":"7638601046","tag":{"amenity":"waste_basket"}},"type":"Feature"},
	{"geometry":{"coordinates":[18.086646,59.236617],"type":"Point"},"properties":{"osm_id":"7638606923","tag":{"amenity":"waste_basket"}},"type":"Feature"},
	{"geometry":{"coordinates":[18.082352,59.237775],"type":"Point"},"properties":{"osm_id":"7638607533","tag":{"amenity":"waste_basket"}},"type":"Feature"},
	{"geometry":{"coordinates":[18.070587,59.238213],"type":"Point"},"properties":{"osm_id":"7638631783","tag":{"amenity":"waste_basket"}},"type":"Feature"},
	{"geometry":{"coordinates":[18.10452,59.225597],"type":"Point"},"properties":{"osm_id":"7638805625","tag":{"amenity":"waste_basket"}},"type":"Feature"},
	{"geometry":{"coordinates":[18.100221,59.225308],"type":"Point"},"properties":{"osm_id":"7638805628","tag":{"amenity":"waste_basket"}},"type":"Feature"},
	{"geometry":{"coordinates":[18.100893,59.225442],"type":"Point"},"properties":{"osm_id":"7638805639","tag":{"amenity":"waste_basket"}},"type":"Feature"},
	{"geometry":{"coordinates":[18.10177,59.224746],"type":"Point"},"properties":{"osm_id":"7638817662","tag":{"amenity":"waste_basket"}},"type":"Feature"},
	{"geometry":{"coordinates":[18.104343,59.255272],"type":"Point"},"properties":{"osm_id":"7650621188","tag":{"amenity":"waste_basket"}},"type":"Feature"},
	{"geometry":{"coordinates":[18.086488,59.241286],"type":"Point"},"properties":{"osm_id":"7683003063","tag":{"amenity":"waste_basket"}},"type":"Feature"},
	{"geometry":{"coordinates":[18.079663,59.257557],"type":"Point"},"properties":{"osm_id":"7706807960","tag":{"amenity":"recycling","recycling:clothes":"yes"}},"type":"Feature"},
	{"geometry":{"coordinates":[18.097198,59.245837],"type":"Point"},"properties":{"osm_id":"7707613186","tag":{"amenity":"recycling","location":"overground","recycling:batteries":"yes","recycling:cans":"yes","recycling:clothes":"yes","recycling:glass_bottles":"yes","recycling:paper":"yes","recycling:plastic":"no","recycling:plastic_packaging":"yes","recycling:shoes":"yes","recycling_type":"container"}},"type":"Feature"},
	{"geometry":{"coordinates":[18.104197,59.234606],"type":"Point"},"properties":{"osm_id":"7717672928","tag":{"amenity":"waste_basket"}},"type":"Feature"}
]
}
