{
"type": "FeatureCollection",
"features": [
	{"geometry":{"coordinates":[18.034659,48.883166],"type":"Point"},"properties":{"osm_id":"1813634848","tag":{"amenity":"recycling"}},"type":"Feature"},
	{"geometry":{"coordinates":[18.035572,48.882367],"type":"Point"},"properties":{"name":"Sklo","osm_id":"1813634849","tag":{"amenity":"recycling"}},"type":"Feature"},
	{"geometry":{"coordinates":[18.046082,48.900252],"type":"Point"},"properties":{"osm_id":"3420343568","tag":{"amenity":"waste_disposal"}},"type":"Feature"},
	{"geometry":{"coordinates":[18.062925,48.881442],"type":"Point"},"properties":{"osm_id":"3422202471","tag":{"amenity":"waste_basket"}},"type":"Feature"},
	{"geometry":{"coordinates":[18.061256,48.897024],"type":"Point"},"properties":{"osm_id":"5380216203","tag":{"amenity":"recycling","recycling:paper":"yes","recycling:plastic":"yes","recycling:waste":"yes","recycling_type":"container"}},"type":"Feature"},
	{"geometry":{"coordinates":[18.060551,48.896779],"type":"Point"},"properties":{"osm_id":"5380216205","tag":{"amenity":"waste_basket"}},"type":"Feature"},
	{"geometry":{"coordinates":[18.024677,48.884326],"type":"Point"},"properties":{"osm_id":"5543117741","tag":{"amenity":"recycling","location":"overground","recycling:glass":"yes","recycling_type":"container"}},"type":"Feature"},
	{"geometry":{"coordinates":[18.02519,48.884099],"type":"Point"},"properties":{"osm_id":"5543117747","tag":{"amenity":"waste_basket"}},"type":"Feature"},
	{"geometry":{"coordinates":[18.025144,48.884089],"type":"Point"},"properties":{"osm_id":"5543117748","tag":{"amenity":"recycling","location":"overground","recycling:paper":"yes","recycling_type":"container"}},"type":"Feature"},
	{"geometry":{"coordinates":[18.02517,48.88411],"type":"Point"},"properties":{"osm_id":"5543117749","tag":{"amenity":"recycling","location":"overground","recycling:plastic":"yes","recycling_type":"container"}},"type":"Feature"},
	{"geometry":{"coordinates":[18.025167,48.884079],"type":"Point"},"properties":{"osm_id":"5543117750","tag":{"amenity":"waste_basket"}},"type":"Feature"},
	{"geometry":{"coordinates":[18.02469,48.884339],"type":"Point"},"properties":{"osm_id":"5543117751","tag":{"amenity":"recycling","location":"overground","recycling:paper":"yes","recycling_type":"container"}},"type":"Feature"},
	{"geometry":{"coordinates":[18.024708,48.884354],"type":"Point"},"properties":{"osm_id":"5543117752","tag":{"amenity":"recycling","location":"overground","recycling:plastic":"yes","recycling_type":"container"}},"type":"Feature"},
	{"geometry":{"coordinates":[18.024692,48.884363],"type":"Point"},"properties":{"osm_id":"5543117753","tag":{"amenity":"waste_basket"}},"type":"Feature"},
	{"geometry":{"coordinates":[18.024671,48.884347],"type":"Point"},"properties":{"osm_id":"5543117754","tag":{"amenity":"waste_basket"}},"type":"Feature"},
	{"geometry":{"coordinates":[18.025311,48.88289],"type":"Point"},"properties":{"osm_id":"5543117755","tag":{"amenity":"recycling","location":"overground","recycling:cardboard":"yes","recycling_type":"container"}},"type":"Feature"},
	{"geometry":{"coordinates":[18.0259,48.883805],"type":"Point"},"properties":{"osm_id":"5543117756","tag":{"amenity":"recycling","location":"overground","recycling:glass":"yes","recycling_type":"container"}},"type":"Feature"},
	{"geometry":{"coordinates":[18.025892,48.883806],"type":"Point"},"properties":{"osm_id":"5543117757","tag":{"amenity":"recycling","location":"overground","recycling:paper":"yes","recycling_type":"container"}},"type":"Feature"},
	{"geometry":{"coordinates":[18.025907,48.883804],"type":"Point"},"properties":{"osm_id":"5543117758","tag":{"amenity":"recycling","location":"overground","recycling:plastic":"yes","recycling_type":"container"}},"type":"Feature"},
	{"geometry":{"coordinates":[18.025915,48.883803],"type":"Point"},"properties":{"osm_id":"5543117759","tag":{"amenity":"waste_basket"}},"type":"Feature"},
	{"geometry":{"coordinates":[18.025312,48.8829],"type":"Point"},"properties":{"osm_id":"5543117760","tag":{"amenity":"waste_basket"}},"type":"Feature"},
	{"geometry":{"coordinates":[18.025308,48.882871],"type":"Point"},"properties":{"osm_id":"5543117761","tag":{"amenity":"recycling","location":"overground","recycling:paper":"yes","recycling_type":"container"}},"type":"Feature"},
	{"geometry":{"coordinates":[18.02531,48.882881],"type":"Point"},"properties":{"osm_id":"5543117762","tag":{"amenity":"recycling","location":"overground","recycling:plastic":"yes","recycling_type":"container"}},"type":"Feature"},
	{"geometry":{"coordinates":[18.025939,48.884922],"type":"Point"},"properties":{"osm_id":"5585899125","tag":{"amenity":"waste_basket"}},"type":"Feature"},
	{"geometry":{"coordinates":[18.025956,48.884956],"type":"Point"},"properties":{"osm_id":"5585904925","tag":{"amenity":"recycling","location":"overground","recycling_type":"container"}},"type":"Feature"},
	{"geometry":{"coordinates":[18.023791,48.884164],"type":"Point"},"properties":{"osm_id":"5585904932","tag":{"amenity":"recycling","location":"overground","recycling_type":"container"}},"type":"Feature"},
	{"geometry":{"coordinates":[18.023785,48.884168],"type":"Point"},"properties":{"osm_id":"5585904933","tag":{"amenity":"waste_basket"}},"type":"Feature"},
	{"geometry":{"coordinates":[18.024244,48.883897],"type":"Point"},"properties":{"osm_id":"5585904934","tag":{"amenity":"waste_basket"}},"type":"Feature"},
	{"geometry":{"coordinates":[18.02428,48.883876],"type":"Point"},"properties":{"osm_id":"5585904935","tag":{"amenity":"recycling","location":"overground","recycling_type":"container"}},"type":"Feature"},
	{"geometry":{"coordinates":[18.024257,48.882886],"type":"Point"},"properties":{"osm_id":"5585904939","tag":{"amenity":"waste_basket"}},"type":"Feature"},
	{"geometry":{"coordinates":[18.024566,48.882554],"type":"Point"},"properties":{"osm_id":"5585904940","tag":{"amenity":"waste_basket"}},"type":"Feature"},
	{"geometry":{"coordinates":[18.025774,48.883747],"type":"Point"},"properties":{"osm_id":"5585920128","tag":{"amenity":"waste_basket"}},"type":"Feature"},
	{"geometry":{"coordinates":[18.021512,48.891789],"type":"Point"},"properties":{"name":"Zbern\u00c3\u00a9 suroviny","osm_id":"5651274379","tag":{"addr:city":"Tren\u00c4\u008d\u00c3\u00adn","addr:housenumber":"27","addr:postcode":"91101","addr:street":"Zlatovsk\u00c3\u00a1","amenity":"recycling","building":"yes","operator":"Zbern\u00c3\u00a9 suroviny \u00c5\u00bdilina a.s.","phone":"+421 915 490 384","recycling_type":"centre","website":"https://www.zsza.sk/"}},"type":"Feature"},
	{"geometry":{"coordinates":[18.031808,48.885324],"type":"Point"},"properties":{"name":"31. Spalov\u00c5\u0088a odpadu","osm_id":"5656474501","tag":{"amenity":"waste_disposal","waste":"drugs"}},"type":"Feature"},
	{"geometry":{"coordinates":[18.037928,48.867812],"type":"Point"},"properties":{"name":"Recykla\u00c4\u008dn\u00c3\u00bd dvor Soblahovsk\u00c3\u00a1","osm_id":"6787602212","tag":{"amenity":"recycling","operator":"Marius Pedersen","recycling_type":"centre"}},"type":"Feature"},
	{"geometry":{"coordinates":[18.020101,48.866053],"type":"Point"},"properties":{"osm_id":"7175343386","tag":{"amenity":"recycling","recycling_type":"container"}},"type":"Feature"}
]
}
