{
"type": "FeatureCollection",
"features": [
	{"geometry":{"coordinates":[18.080628,48.303521],"type":"Point"},"properties":{"osm_id":"6033039117","tag":{"amenity":"waste_basket"}},"type":"Feature"},
	{"geometry":{"coordinates":[18.080998,48.303999],"type":"Point"},"properties":{"osm_id":"6033039118","tag":{"amenity":"waste_basket"}},"type":"Feature"},
	{"geometry":{"coordinates":[18.080743,48.303668],"type":"Point"},"properties":{"osm_id":"6033039119","tag":{"amenity":"waste_basket"}},"type":"Feature"},
	{"geometry":{"coordinates":[18.080866,48.303838],"type":"Point"},"properties":{"osm_id":"6033039120","tag":{"amenity":"waste_basket"}},"type":"Feature"},
	{"geometry":{"coordinates":[18.080409,48.311846],"type":"Point"},"properties":{"osm_id":"6265083585","tag":{"amenity":"waste_basket"}},"type":"Feature"},
	{"geometry":{"coordinates":[18.082514,48.316647],"type":"Point"},"properties":{"osm_id":"6265083586","tag":{"amenity":"waste_basket"}},"type":"Feature"},
	{"geometry":{"coordinates":[18.083986,48.317712],"type":"Point"},"properties":{"osm_id":"6265083587","tag":{"amenity":"waste_basket"}},"type":"Feature"},
	{"geometry":{"coordinates":[18.10354,48.323084],"type":"Point"},"properties":{"name":"Zbern\u00c3\u00bd dvor v are\u00c3\u00a1li Zoborsk\u00c3\u00bdch kas\u00c3\u00a1rn\u00c3\u00ad","osm_id":"6426604607","tag":{"amenity":"recycling","operator":"NKS","recycling:batteries":"yes","recycling:cardboard":"yes","recycling:cartons":"yes","recycling:electrical_appliances":"yes","recycling:glass":"yes","recycling:paper":"yes","recycling:plastic":"yes","recycling:plastic_bottles":"yes","recycling:plastic_packaging":"yes","recycling:waste":"yes","recycling_type":"centre"}},"type":"Feature"},
	{"geometry":{"coordinates":[18.071914,48.307699],"type":"Point"},"properties":{"name":"Zbern\u00c3\u00bd dvor Braneck\u00c3\u00a9ho ul.","osm_id":"6426652536","tag":{"amenity":"recycling","operator":"NKS","recycling:batteries":"yes","recycling:cardboard":"yes","recycling:cartons":"yes","recycling:electrical_appliances":"yes","recycling:glass":"yes","recycling:paper":"yes","recycling:plastic":"yes","recycling:plastic_bottles":"yes","recycling:plastic_packaging":"yes","recycling:waste":"yes","recycling_type":"centre"}},"type":"Feature"},
	{"geometry":{"coordinates":[18.075012,48.29177],"type":"Point"},"properties":{"name":"Zbern\u00c3\u00bd dvor Mestsk\u00c3\u00a9 slu\u00c5\u00beby","osm_id":"6426652548","tag":{"amenity":"recycling","opening_hours":"Tu-Fr 09:00-17:00; Sa 08:00-16:00","operator":"NKS","recycling:batteries":"yes","recycling:cardboard":"yes","recycling:cartons":"yes","recycling:electrical_appliances":"yes","recycling:glass":"yes","recycling:paper":"yes","recycling:plastic":"yes","recycling:plastic_bottles":"yes","recycling:plastic_packaging":"yes","recycling:waste":"yes","recycling_type":"centre"}},"type":"Feature"},
	{"geometry":{"coordinates":[18.096108,48.300598],"type":"Point"},"properties":{"name":"Zbern\u00c3\u00bd dvor NKS","osm_id":"6426652549","tag":{"amenity":"recycling","opening_hours":"Mo-Fr 07:30-17:00; Sa 08:00-16:00","operator":"NKS","recycling:batteries":"yes","recycling:cardboard":"yes","recycling:cartons":"yes","recycling:electrical_appliances":"yes","recycling:glass":"yes","recycling:paper":"yes","recycling:plastic":"yes","recycling:plastic_bottles":"yes","recycling:plastic_packaging":"yes","recycling:waste":"yes","recycling_type":"centre"}},"type":"Feature"},
	{"geometry":{"coordinates":[18.070465,48.296196],"type":"Point"},"properties":{"osm_id":"6639048533","tag":{"amenity":"recycling","recycling_type":"container"}},"type":"Feature"},
	{"geometry":{"coordinates":[18.080521,48.303395],"type":"Point"},"properties":{"osm_id":"6939636536","tag":{"amenity":"waste_basket"}},"type":"Feature"},
	{"geometry":{"coordinates":[18.063883,48.296705],"type":"Point"},"properties":{"osm_id":"7078321876","tag":{"amenity":"recycling","recycling:paper":"yes","recycling:plastic":"yes","recycling:waste":"yes","recycling_type":"container"}},"type":"Feature"},
	{"geometry":{"coordinates":[18.064391,48.296444],"type":"Point"},"properties":{"osm_id":"7108013248","tag":{"amenity":"recycling","recycling_type":"container"}},"type":"Feature"},
	{"geometry":{"coordinates":[18.07212,48.294372],"type":"Point"},"properties":{"osm_id":"7128373361","tag":{"amenity":"recycling","recycling_type":"container"}},"type":"Feature"},
	{"geometry":{"coordinates":[18.066746,48.297418],"type":"Point"},"properties":{"osm_id":"7272431946","tag":{"amenity":"recycling"}},"type":"Feature"},
	{"geometry":{"coordinates":[18.067971,48.296728],"type":"Point"},"properties":{"osm_id":"7272470523","tag":{"amenity":"recycling","location":"overground","recycling:cans":"yes","recycling:glass_bottles":"yes","recycling:paper":"yes","recycling:plastic":"yes","recycling_type":"container"}},"type":"Feature"},
	{"geometry":{"coordinates":[18.062871,48.296936],"type":"Point"},"properties":{"osm_id":"7309795121","tag":{"amenity":"recycling","recycling_type":"container"}},"type":"Feature"},
	{"geometry":{"coordinates":[18.061979,48.296434],"type":"Point"},"properties":{"osm_id":"7309795122","tag":{"amenity":"recycling","recycling_type":"container"}},"type":"Feature"},
	{"geometry":{"coordinates":[18.0586,48.297543],"type":"Point"},"properties":{"osm_id":"7820058904","tag":{"amenity":"recycling","recycling_type":"container"}},"type":"Feature"},
	{"geometry":{"coordinates":[18.064091,48.29577],"type":"Point"},"properties":{"osm_id":"7857967656","tag":{"amenity":"waste_basket"}},"type":"Feature"},
	{"geometry":{"coordinates":[18.059721,48.296956],"type":"Point"},"properties":{"osm_id":"7858004293","tag":{"amenity":"waste_basket"}},"type":"Feature"}
]
}
