{
"type": "FeatureCollection",
"features": [
	{"geometry":{"coordinates":[18.019199,46.86049],"type":"Point"},"properties":{"osm_id":"2921686005","tag":{"amenity":"recycling","recycling:glass":"yes","recycling_type":"container"}},"type":"Feature"},
	{"geometry":{"coordinates":[18.061083,46.908005],"type":"Point"},"properties":{"osm_id":"2934141283","tag":{"amenity":"recycling","recycling:cans":"yes","recycling:glass":"no","recycling:paper":"no"}},"type":"Feature"},
	{"geometry":{"coordinates":[18.028432,46.899775],"type":"Point"},"properties":{"osm_id":"2943843079","tag":{"amenity":"waste_basket"}},"type":"Feature"},
	{"geometry":{"coordinates":[18.03055,46.900312],"type":"Point"},"properties":{"osm_id":"2943843083","tag":{"amenity":"waste_basket"}},"type":"Feature"},
	{"geometry":{"coordinates":[18.022119,46.900967],"type":"Point"},"properties":{"osm_id":"2943843087","tag":{"amenity":"waste_basket"}},"type":"Feature"},
	{"geometry":{"coordinates":[18.022986,46.901122],"type":"Point"},"properties":{"osm_id":"2943843089","tag":{"amenity":"waste_basket"}},"type":"Feature"},
	{"geometry":{"coordinates":[18.020854,46.902039],"type":"Point"},"properties":{"osm_id":"2943843092","tag":{"amenity":"waste_basket"}},"type":"Feature"},
	{"geometry":{"coordinates":[18.020343,46.902511],"type":"Point"},"properties":{"osm_id":"2943843096","tag":{"amenity":"waste_basket"}},"type":"Feature"},
	{"geometry":{"coordinates":[18.020436,46.902522],"type":"Point"},"properties":{"osm_id":"2943843098","tag":{"amenity":"waste_basket"}},"type":"Feature"},
	{"geometry":{"coordinates":[18.019965,46.902625],"type":"Point"},"properties":{"osm_id":"2943843107","tag":{"amenity":"waste_basket"}},"type":"Feature"},
	{"geometry":{"coordinates":[18.019686,46.902675],"type":"Point"},"properties":{"osm_id":"2943843117","tag":{"amenity":"waste_basket"}},"type":"Feature"},
	{"geometry":{"coordinates":[18.019358,46.902721],"type":"Point"},"properties":{"osm_id":"2943843121","tag":{"amenity":"waste_basket"}},"type":"Feature"},
	{"geometry":{"coordinates":[18.018924,46.902779],"type":"Point"},"properties":{"osm_id":"2943843129","tag":{"amenity":"waste_basket"}},"type":"Feature"},
	{"geometry":{"coordinates":[18.018442,46.902841],"type":"Point"},"properties":{"osm_id":"2943843836","tag":{"amenity":"waste_basket"}},"type":"Feature"},
	{"geometry":{"coordinates":[18.018112,46.902859],"type":"Point"},"properties":{"osm_id":"2943843840","tag":{"amenity":"waste_basket"}},"type":"Feature"},
	{"geometry":{"coordinates":[18.01773,46.902868],"type":"Point"},"properties":{"osm_id":"2943843842","tag":{"amenity":"waste_basket"}},"type":"Feature"},
	{"geometry":{"coordinates":[18.022913,46.903366],"type":"Point"},"properties":{"osm_id":"2951226681","tag":{"amenity":"waste_basket"}},"type":"Feature"},
	{"geometry":{"coordinates":[18.023262,46.903481],"type":"Point"},"properties":{"osm_id":"2951226688","tag":{"amenity":"waste_basket"}},"type":"Feature"},
	{"geometry":{"coordinates":[18.023476,46.903623],"type":"Point"},"properties":{"osm_id":"2951226692","tag":{"amenity":"waste_basket"}},"type":"Feature"},
	{"geometry":{"coordinates":[18.023775,46.903778],"type":"Point"},"properties":{"osm_id":"2951226699","tag":{"amenity":"waste_basket"}},"type":"Feature"},
	{"geometry":{"coordinates":[18.023997,46.903897],"type":"Point"},"properties":{"osm_id":"2951226704","tag":{"amenity":"waste_basket"}},"type":"Feature"},
	{"geometry":{"coordinates":[18.027559,46.903999],"type":"Point"},"properties":{"osm_id":"2951226718","tag":{"amenity":"waste_basket"}},"type":"Feature"},
	{"geometry":{"coordinates":[18.024247,46.904011],"type":"Point"},"properties":{"osm_id":"2951226720","tag":{"amenity":"waste_basket"}},"type":"Feature"},
	{"geometry":{"coordinates":[18.027893,46.904074],"type":"Point"},"properties":{"osm_id":"2951226724","tag":{"amenity":"waste_basket"}},"type":"Feature"},
	{"geometry":{"coordinates":[18.024591,46.904103],"type":"Point"},"properties":{"osm_id":"2951226728","tag":{"amenity":"waste_basket"}},"type":"Feature"},
	{"geometry":{"coordinates":[18.027102,46.904169],"type":"Point"},"properties":{"osm_id":"2951228234","tag":{"amenity":"waste_basket"}},"type":"Feature"},
	{"geometry":{"coordinates":[18.028458,46.904196],"type":"Point"},"properties":{"osm_id":"2951228239","tag":{"amenity":"waste_basket"}},"type":"Feature"},
	{"geometry":{"coordinates":[18.024945,46.90421],"type":"Point"},"properties":{"osm_id":"2951228240","tag":{"amenity":"waste_basket"}},"type":"Feature"},
	{"geometry":{"coordinates":[18.02522,46.904265],"type":"Point"},"properties":{"osm_id":"2951228242","tag":{"amenity":"waste_basket"}},"type":"Feature"},
	{"geometry":{"coordinates":[18.026042,46.904314],"type":"Point"},"properties":{"osm_id":"2951228247","tag":{"amenity":"waste_basket"}},"type":"Feature"},
	{"geometry":{"coordinates":[18.02807,46.904327],"type":"Point"},"properties":{"osm_id":"2951228248","tag":{"amenity":"waste_basket"}},"type":"Feature"},
	{"geometry":{"coordinates":[18.026381,46.904388],"type":"Point"},"properties":{"osm_id":"2951228253","tag":{"amenity":"waste_basket"}},"type":"Feature"},
	{"geometry":{"coordinates":[18.026213,46.904565],"type":"Point"},"properties":{"osm_id":"2951228263","tag":{"amenity":"waste_basket"}},"type":"Feature"},
	{"geometry":{"coordinates":[18.02721,46.904762],"type":"Point"},"properties":{"osm_id":"2951228274","tag":{"amenity":"waste_basket"}},"type":"Feature"},
	{"geometry":{"coordinates":[18.018667,46.898261],"type":"Point"},"properties":{"osm_id":"2955832457","tag":{"amenity":"waste_basket"}},"type":"Feature"},
	{"geometry":{"coordinates":[18.018389,46.898295],"type":"Point"},"properties":{"osm_id":"2955832463","tag":{"amenity":"waste_basket"}},"type":"Feature"},
	{"geometry":{"coordinates":[18.018501,46.898352],"type":"Point"},"properties":{"osm_id":"2955832481","tag":{"amenity":"waste_basket"}},"type":"Feature"},
	{"geometry":{"coordinates":[18.018637,46.898383],"type":"Point"},"properties":{"osm_id":"2955832488","tag":{"amenity":"waste_basket"}},"type":"Feature"},
	{"geometry":{"coordinates":[18.018585,46.898393],"type":"Point"},"properties":{"osm_id":"2955832491","tag":{"amenity":"waste_basket"}},"type":"Feature"},
	{"geometry":{"coordinates":[18.017639,46.898454],"type":"Point"},"properties":{"osm_id":"2955832504","tag":{"amenity":"waste_basket"}},"type":"Feature"},
	{"geometry":{"coordinates":[18.017933,46.898601],"type":"Point"},"properties":{"osm_id":"2955832527","tag":{"amenity":"waste_basket"}},"type":"Feature"},
	{"geometry":{"coordinates":[18.01842,46.898638],"type":"Point"},"properties":{"osm_id":"2955832530","tag":{"amenity":"waste_basket"}},"type":"Feature"},
	{"geometry":{"coordinates":[18.018266,46.898659],"type":"Point"},"properties":{"osm_id":"2955832536","tag":{"amenity":"waste_basket"}},"type":"Feature"},
	{"geometry":{"coordinates":[18.028254,46.902477],"type":"Point"},"properties":{"osm_id":"3261467237","tag":{"amenity":"waste_basket"}},"type":"Feature"},
	{"geometry":{"coordinates":[18.028215,46.902277],"type":"Point"},"properties":{"osm_id":"3261467238","tag":{"amenity":"waste_basket"}},"type":"Feature"},
	{"geometry":{"coordinates":[18.017618,46.899909],"type":"Point"},"properties":{"osm_id":"3264882326","tag":{"amenity":"waste_basket"}},"type":"Feature"},
	{"geometry":{"coordinates":[18.017885,46.899966],"type":"Point"},"properties":{"osm_id":"3264882330","tag":{"amenity":"waste_basket"}},"type":"Feature"},
	{"geometry":{"coordinates":[18.0788,46.879267],"type":"Point"},"properties":{"osm_id":"3471815198","tag":{"amenity":"recycling","description":"Szelekt\u00c3\u00adv hullad\u00c3\u00a9klerak\u00c3\u00b3","source:date":"2012-10-14","url":"http://turistautak.hu/poi.php?id=64341"}},"type":"Feature"},
	{"geometry":{"coordinates":[18.04631,46.89338],"type":"Point"},"properties":{"osm_id":"3471815206","tag":{"amenity":"recycling","source:date":"2012-10-22","url":"http://turistautak.hu/poi.php?id=146262"}},"type":"Feature"},
	{"geometry":{"coordinates":[18.038967,46.895648],"type":"Point"},"properties":{"osm_id":"3471815207","tag":{"addr:street":"Nefelejcs u - K\u00c3\u00bcszhegyi u sarok","amenity":"recycling","source:date":"2012-10-14","url":"http://turistautak.hu/poi.php?id=38008"}},"type":"Feature"},
	{"geometry":{"coordinates":[18.042655,46.896295],"type":"Point"},"properties":{"osm_id":"3471815208","tag":{"addr:street":"Koch Robert u - K\u00c3\u00bcszhegyi u sarok","amenity":"recycling","source:date":"2012-10-14","url":"http://turistautak.hu/poi.php?id=38007"}},"type":"Feature"},
	{"geometry":{"coordinates":[18.047487,46.897093],"type":"Point"},"properties":{"osm_id":"3471815210","tag":{"addr:street":"Somogyi u. Reviczky Gy. u. sarok.","amenity":"recycling","source:date":"2012-10-14","url":"http://turistautak.hu/poi.php?id=38061"}},"type":"Feature"},
	{"geometry":{"coordinates":[18.05068,46.90269],"type":"Point"},"properties":{"osm_id":"3471815214","tag":{"amenity":"recycling","source:date":"2012-10-22","url":"http://turistautak.hu/poi.php?id=146259"}},"type":"Feature"},
	{"geometry":{"coordinates":[18.05156,46.90284],"type":"Point"},"properties":{"osm_id":"3471815215","tag":{"amenity":"recycling","source:date":"2012-10-22","url":"http://turistautak.hu/poi.php?id=146260"}},"type":"Feature"},
	{"geometry":{"coordinates":[18.06032,46.90536],"type":"Point"},"properties":{"osm_id":"3471815218","tag":{"amenity":"recycling","source:date":"2012-10-22","url":"http://turistautak.hu/poi.php?id=146261"}},"type":"Feature"},
	{"geometry":{"coordinates":[18.046567,46.908477],"type":"Point"},"properties":{"osm_id":"3471815222","tag":{"addr:city":"Si\u00c3\u00b3fok","addr:street":"Kr\u00c3\u00bady s\u00c3\u00a9t\u00c3\u00a1ny","amenity":"recycling","source:date":"2012-10-14","url":"http://turistautak.hu/poi.php?id=103034"}},"type":"Feature"},
	{"geometry":{"coordinates":[18.105317,46.915333],"type":"Point"},"properties":{"osm_id":"3471815237","tag":{"addr:street":"M7-Szabadi pihen\u00c5\u0091hely","amenity":"recycling","description":"Az M7 aut\u00c3\u00b3p\u00c3\u00a1lya szabadi pihen\u00c5\u0091j\u00c3\u00a9be kihelyezett hullad\u00c3\u00a9kgy\u00c3\u00bcjt\u00c5\u0091 sziget.","source:date":"2012-12-31","url":"http://turistautak.hu/poi.php?id=78252"}},"type":"Feature"}
]
}
