{
"type": "FeatureCollection",
"features": [
	{"geometry":{"coordinates":[7.626915,52.269654],"type":"Point"},"properties":{"osm_id":"2423111893","tag":{"amenity":"recycling","recycling:glass":"yes","recycling_type":"container"}},"type":"Feature"},
	{"geometry":{"coordinates":[7.621547,52.320773],"type":"Point"},"properties":{"name":"Woitzel","osm_id":"5811770775","tag":{"amenity":"recycling","recycling:building_waste":"yes","recycling:electrical_appliances":"yes","recycling:green_waste":"yes","recycling:paper":"yes","recycling:waste":"yes","recycling:wood_waste":"yes","recycling_type":"centre"}},"type":"Feature"},
	{"geometry":{"coordinates":[7.593643,52.276994],"type":"Point"},"properties":{"osm_id":"6434512336","tag":{"amenity":"waste_basket"}},"type":"Feature"},
	{"geometry":{"coordinates":[7.562394,52.295707],"type":"Point"},"properties":{"osm_id":"6638583542","tag":{"amenity":"waste_basket"}},"type":"Feature"},
	{"geometry":{"coordinates":[7.581187,52.278468],"type":"Point"},"properties":{"osm_id":"6638583543","tag":{"amenity":"waste_basket"}},"type":"Feature"},
	{"geometry":{"coordinates":[7.607299,52.279014],"type":"Point"},"properties":{"osm_id":"6653253617","tag":{"amenity":"waste_basket"}},"type":"Feature"},
	{"geometry":{"coordinates":[7.586762,52.275375],"type":"Point"},"properties":{"osm_id":"7572358341","tag":{"amenity":"waste_basket","waste":"trash"}},"type":"Feature"},
	{"geometry":{"coordinates":[7.570263,52.315628],"type":"Point"},"properties":{"osm_id":"8808438044","tag":{"amenity":"waste_basket"}},"type":"Feature"},
	{"geometry":{"coordinates":[7.624794,52.286292],"type":"Point"},"properties":{"osm_id":"8849138556","tag":{"amenity":"waste_basket"}},"type":"Feature"}
]
}
