{
"type": "FeatureCollection",
"features": [
	{"geometry":{"coordinates":[7.645357,52.05999],"type":"Point"},"properties":{"osm_id":"337558346","tag":{"amenity":"recycling","recycling:clothes":"yes","recycling:glass":"yes","recycling:paper":"yes"}},"type":"Feature"},
	{"geometry":{"coordinates":[7.598476,52.090224],"type":"Point"},"properties":{"osm_id":"561072659","tag":{"amenity":"waste_disposal"}},"type":"Feature"},
	{"geometry":{"coordinates":[7.613314,52.083881],"type":"Point"},"properties":{"osm_id":"861278504","tag":{"amenity":"waste_basket"}},"type":"Feature"},
	{"geometry":{"coordinates":[7.615164,52.082926],"type":"Point"},"properties":{"osm_id":"861278526","tag":{"amenity":"waste_basket"}},"type":"Feature"},
	{"geometry":{"coordinates":[7.604516,52.090978],"type":"Point"},"properties":{"osm_id":"861287676","tag":{"amenity":"waste_basket"}},"type":"Feature"},
	{"geometry":{"coordinates":[7.605673,52.088062],"type":"Point"},"properties":{"osm_id":"861287698","tag":{"amenity":"waste_basket"}},"type":"Feature"},
	{"geometry":{"coordinates":[7.610952,52.086006],"type":"Point"},"properties":{"osm_id":"861287710","tag":{"amenity":"waste_basket"}},"type":"Feature"},
	{"geometry":{"coordinates":[7.603731,52.093437],"type":"Point"},"properties":{"osm_id":"861755010","tag":{"amenity":"waste_basket"}},"type":"Feature"},
	{"geometry":{"coordinates":[7.605757,52.102267],"type":"Point"},"properties":{"osm_id":"945128872","tag":{"amenity":"recycling","recycling:glass":"yes","recycling:glass_bottles":"yes","recycling:paper":"yes","recycling_type":"container"}},"type":"Feature"},
	{"geometry":{"coordinates":[7.607275,52.092478],"type":"Point"},"properties":{"osm_id":"1645514661","tag":{"amenity":"recycling","recycling:clothes":"yes","recycling:glass_bottles":"yes","recycling:paper":"yes","recycling_type":"container"}},"type":"Feature"},
	{"geometry":{"coordinates":[7.619702,52.084135],"type":"Point"},"properties":{"osm_id":"3572095806","tag":{"amenity":"recycling","recycling:clothes":"yes","recycling:glass":"yes","recycling:glass_bottles":"yes","recycling:paper":"yes","recycling:shoes":"yes","recycling:small_appliances":"yes","recycling_type":"container"}},"type":"Feature"},
	{"geometry":{"coordinates":[7.619158,52.097451],"type":"Point"},"properties":{"osm_id":"3573119693","tag":{"amenity":"recycling","recycling:clothes":"yes","recycling:glass":"yes","recycling:paper":"yes","recycling:shoes":"yes","recycling:small_appliances":"yes","recycling_type":"container"}},"type":"Feature"},
	{"geometry":{"coordinates":[7.59232,52.093377],"type":"Point"},"properties":{"osm_id":"4104270079","tag":{"amenity":"recycling","operator":"Christliche Arbeiterjugend","recycling:cans":"no","recycling:clothes":"yes","recycling:glass":"no","recycling:glass_bottles":"no","recycling:paper":"no","recycling:plastic":"no","recycling_type":"container"}},"type":"Feature"},
	{"geometry":{"coordinates":[7.645156,52.060303],"type":"Point"},"properties":{"osm_id":"5619732757","tag":{"amenity":"waste_basket","waste":"trash"}},"type":"Feature"},
	{"geometry":{"coordinates":[7.642811,52.06034],"type":"Point"},"properties":{"osm_id":"5619732767","tag":{"amenity":"waste_basket","waste":"trash"}},"type":"Feature"},
	{"geometry":{"coordinates":[7.642947,52.060512],"type":"Point"},"properties":{"osm_id":"5619732789","tag":{"amenity":"waste_basket","waste":"trash"}},"type":"Feature"},
	{"geometry":{"coordinates":[7.586756,52.103533],"type":"Point"},"properties":{"osm_id":"5762158032","tag":{"amenity":"recycling","operator":"Deutsches Rotes Kreuz","recycling:clothes":"yes","recycling_type":"container"}},"type":"Feature"},
	{"geometry":{"coordinates":[7.580854,52.097284],"type":"Point"},"properties":{"osm_id":"5789883265","tag":{"amenity":"recycling","operator":"HMT e. V. Containerservice","recycling:clothes":"yes","recycling:shoes":"yes","recycling_type":"container"}},"type":"Feature"},
	{"geometry":{"coordinates":[7.613277,52.091044],"type":"Point"},"properties":{"osm_id":"7083893978","tag":{"amenity":"waste_basket"}},"type":"Feature"},
	{"geometry":{"coordinates":[7.608154,52.086702],"type":"Point"},"properties":{"osm_id":"7104893233","tag":{"amenity":"waste_basket","waste":"trash"}},"type":"Feature"},
	{"geometry":{"coordinates":[7.604943,52.090057],"type":"Point"},"properties":{"osm_id":"7105097989","tag":{"amenity":"waste_basket","waste":"trash"}},"type":"Feature"},
	{"geometry":{"coordinates":[7.62005,52.083221],"type":"Point"},"properties":{"osm_id":"7577538816","tag":{"amenity":"waste_basket","waste":"trash"}},"type":"Feature"},
	{"geometry":{"coordinates":[7.627884,52.081629],"type":"Point"},"properties":{"osm_id":"7579473143","tag":{"amenity":"waste_basket","waste":"trash"}},"type":"Feature"},
	{"geometry":{"coordinates":[7.623148,52.082668],"type":"Point"},"properties":{"osm_id":"7579494888","tag":{"amenity":"waste_basket","waste":"trash"}},"type":"Feature"},
	{"geometry":{"coordinates":[7.625256,52.082192],"type":"Point"},"properties":{"osm_id":"7579494896","tag":{"amenity":"waste_basket","waste":"trash"}},"type":"Feature"},
	{"geometry":{"coordinates":[7.591577,52.061444],"type":"Point"},"properties":{"osm_id":"7580355281","tag":{"amenity":"waste_basket","waste":"trash"}},"type":"Feature"},
	{"geometry":{"coordinates":[7.61397,52.091415],"type":"Point"},"properties":{"osm_id":"7653919151","tag":{"amenity":"recycling","recycling:glass_bottles":"yes","recycling_type":"container"}},"type":"Feature"},
	{"geometry":{"coordinates":[7.613972,52.091376],"type":"Point"},"properties":{"osm_id":"7653966202","tag":{"amenity":"recycling","operator":"Malteser","recycling:clothes":"yes","recycling_type":"container"}},"type":"Feature"},
	{"geometry":{"coordinates":[7.613973,52.091347],"type":"Point"},"properties":{"osm_id":"7655392306","tag":{"amenity":"recycling","operator":"Deutsches Rotes Kreuz","recycling:clothes":"yes","recycling_type":"container"}},"type":"Feature"},
	{"geometry":{"coordinates":[7.613998,52.091354],"type":"Point"},"properties":{"osm_id":"7658911727","tag":{"amenity":"recycling","operator":"Johanniter","recycling:clothes":"yes","recycling_type":"container"}},"type":"Feature"},
	{"geometry":{"coordinates":[7.623697,52.094221],"type":"Point"},"properties":{"osm_id":"7673299377","tag":{"amenity":"recycling","operator":"Malteser","recycling:clothes":"yes","recycling_type":"container"}},"type":"Feature"}
]
}
