{
"type": "FeatureCollection",
"features": [
	{"geometry":{"coordinates":[7.562281,52.018029],"type":"Point"},"properties":{"osm_id":"948113835","tag":{"amenity":"waste_basket"}},"type":"Feature"},
	{"geometry":{"coordinates":[7.561453,52.022385],"type":"Point"},"properties":{"osm_id":"2722200369","tag":{"amenity":"recycling","mapillary":"7djxLbCBoaMrZefH-I-xxA","recycling:glass_bottles":"yes","recycling_type":"container"}},"type":"Feature"},
	{"geometry":{"coordinates":[7.567011,52.022635],"type":"Point"},"properties":{"osm_id":"2822927430","tag":{"amenity":"waste_basket"}},"type":"Feature"},
	{"geometry":{"coordinates":[7.566913,52.022923],"type":"Point"},"properties":{"osm_id":"2822927454","tag":{"amenity":"waste_basket"}},"type":"Feature"},
	{"geometry":{"coordinates":[7.566273,52.022951],"type":"Point"},"properties":{"osm_id":"2822927456","tag":{"amenity":"waste_basket"}},"type":"Feature"},
	{"geometry":{"coordinates":[7.566618,52.023113],"type":"Point"},"properties":{"osm_id":"2822927461","tag":{"amenity":"waste_basket"}},"type":"Feature"},
	{"geometry":{"coordinates":[7.596036,52.002319],"type":"Point"},"properties":{"osm_id":"3375268969","tag":{"amenity":"waste_basket"}},"type":"Feature"},
	{"geometry":{"coordinates":[7.604453,52.000155],"type":"Point"},"properties":{"barrier":"gate","osm_id":"3383852060"},"type":"Feature"},
	{"geometry":{"coordinates":[7.604567,52.000209],"type":"Point"},"properties":{"osm_id":"3385395836","tag":{"amenity":"recycling","mapillary":"PtJ3FXdajtcFpK3uJ00Z2g","recycling:glass_bottles":"yes","recycling_type":"container","survey:date":"2016-08-25"}},"type":"Feature"},
	{"geometry":{"coordinates":[7.599519,52.001915],"type":"Point"},"properties":{"osm_id":"4299159899","tag":{"amenity":"recycling","mapillary":"qnuBI_UOquEHuPWyyfYM2Q","recycling:clothes":"yes","recycling_type":"container"}},"type":"Feature"},
	{"geometry":{"coordinates":[7.562497,52.021784],"type":"Point"},"properties":{"osm_id":"4448132918","tag":{"amenity":"waste_basket","mapillary":"w46ASr5KcD6wNsTwavyhug"}},"type":"Feature"},
	{"geometry":{"coordinates":[7.562353,52.02195],"type":"Point"},"properties":{"osm_id":"4448132933","tag":{"amenity":"waste_basket","mapillary":"hklTf5eYjTv6qkWdMDgp6g"}},"type":"Feature"},
	{"geometry":{"coordinates":[7.563679,52.021586],"type":"Point"},"properties":{"osm_id":"5136000253","tag":{"amenity":"waste_basket"}},"type":"Feature"},
	{"geometry":{"coordinates":[7.562941,52.021789],"type":"Point"},"properties":{"osm_id":"5136000254","tag":{"amenity":"waste_basket"}},"type":"Feature"},
	{"geometry":{"coordinates":[7.602514,52.032226],"type":"Point"},"properties":{"osm_id":"5140170089","tag":{"amenity":"waste_basket"}},"type":"Feature"},
	{"geometry":{"coordinates":[7.602708,52.03255],"type":"Point"},"properties":{"osm_id":"5140170090","tag":{"amenity":"waste_basket"}},"type":"Feature"},
	{"geometry":{"coordinates":[7.602203,52.032744],"type":"Point"},"properties":{"osm_id":"5140170724","tag":{"amenity":"waste_basket"}},"type":"Feature"},
	{"geometry":{"coordinates":[7.601798,52.032739],"type":"Point"},"properties":{"osm_id":"5140170725","tag":{"amenity":"waste_basket"}},"type":"Feature"},
	{"geometry":{"coordinates":[7.601565,52.032493],"type":"Point"},"properties":{"osm_id":"5140170726","tag":{"amenity":"waste_basket"}},"type":"Feature"},
	{"geometry":{"coordinates":[7.601926,52.032288],"type":"Point"},"properties":{"osm_id":"5140170727","tag":{"amenity":"waste_basket"}},"type":"Feature"},
	{"geometry":{"coordinates":[7.601618,52.03225],"type":"Point"},"properties":{"osm_id":"5140170728","tag":{"amenity":"waste_basket"}},"type":"Feature"},
	{"geometry":{"coordinates":[7.601278,52.03247],"type":"Point"},"properties":{"osm_id":"5140170765","tag":{"amenity":"waste_basket"}},"type":"Feature"},
	{"geometry":{"coordinates":[7.601337,52.032204],"type":"Point"},"properties":{"osm_id":"5140170766","tag":{"amenity":"waste_basket"}},"type":"Feature"},
	{"geometry":{"coordinates":[7.602136,52.032931],"type":"Point"},"properties":{"osm_id":"5140170767","tag":{"amenity":"waste_basket"}},"type":"Feature"},
	{"geometry":{"coordinates":[7.601802,52.032919],"type":"Point"},"properties":{"osm_id":"5140170768","tag":{"amenity":"waste_basket"}},"type":"Feature"},
	{"geometry":{"coordinates":[7.601725,52.032033],"type":"Point"},"properties":{"osm_id":"5140190206","tag":{"amenity":"waste_basket"}},"type":"Feature"},
	{"geometry":{"coordinates":[7.620226,52.041085],"type":"Point"},"properties":{"osm_id":"6231176685","tag":{"amenity":"waste_basket","level":"0"}},"type":"Feature"},
	{"geometry":{"coordinates":[7.620375,52.041206],"type":"Point"},"properties":{"osm_id":"6231176690","tag":{"amenity":"waste_basket","level":"0"}},"type":"Feature"},
	{"geometry":{"coordinates":[7.619725,52.041944],"type":"Point"},"properties":{"osm_id":"6231176691","tag":{"amenity":"waste_basket","level":"0"}},"type":"Feature"},
	{"geometry":{"coordinates":[7.619788,52.041526],"type":"Point"},"properties":{"osm_id":"6231176693","tag":{"amenity":"waste_basket","level":"0"}},"type":"Feature"},
	{"geometry":{"coordinates":[7.59541,51.999929],"type":"Point"},"properties":{"name":"M\u00c3\u00bcllcontainer Killingstra\u00c3\u009fe","osm_id":"6694684348","tag":{"amenity":"waste_disposal"}},"type":"Feature"},
	{"geometry":{"coordinates":[7.594924,52.000429],"type":"Point"},"properties":{"name":"M\u00c3\u00bcllcontainer Killingstra\u00c3\u009fe","osm_id":"6694706085","tag":{"amenity":"waste_disposal"}},"type":"Feature"},
	{"geometry":{"coordinates":[7.611172,52.001053],"type":"Point"},"properties":{"osm_id":"7211439126","tag":{"amenity":"waste_basket","waste":"trash"}},"type":"Feature"},
	{"geometry":{"coordinates":[7.612596,52.000162],"type":"Point"},"properties":{"osm_id":"7211439136","tag":{"amenity":"waste_basket","waste":"trash"}},"type":"Feature"},
	{"geometry":{"coordinates":[7.602413,52.000326],"type":"Point"},"properties":{"osm_id":"7819602852","tag":{"amenity":"waste_basket","waste":"trash"}},"type":"Feature"},
	{"geometry":{"coordinates":[7.603179,51.998427],"type":"Point"},"properties":{"osm_id":"7819614618","tag":{"amenity":"waste_basket","waste":"trash"}},"type":"Feature"},
	{"geometry":{"coordinates":[7.602231,51.99936],"type":"Point"},"properties":{"osm_id":"7819621230","tag":{"amenity":"waste_basket","waste":"trash"}},"type":"Feature"},
	{"geometry":{"coordinates":[7.602215,51.998512],"type":"Point"},"properties":{"osm_id":"7819621231","tag":{"amenity":"waste_basket","waste":"trash"}},"type":"Feature"}
]
}
