{
"type": "FeatureCollection",
"features": [
	{"geometry":{"coordinates":[7.595134,51.553817],"type":"Point"},"properties":{"osm_id":"301630895","tag":{"amenity":"recycling"}},"type":"Feature"},
	{"geometry":{"coordinates":[7.586226,51.558019],"type":"Point"},"properties":{"osm_id":"301634394","tag":{"amenity":"recycling","recycling:glass_bottles":"yes","recycling:newspaper":"yes","recycling:paper":"yes","recycling:paper_packaging":"yes","recycling_type":"container"}},"type":"Feature"},
	{"geometry":{"coordinates":[7.617579,51.541625],"type":"Point"},"properties":{"osm_id":"671516587","tag":{"amenity":"recycling","location":"overground","recycling:glass_bottles":"yes","recycling:paper":"yes","recycling_type":"container"}},"type":"Feature"},
	{"geometry":{"coordinates":[7.619862,51.538584],"type":"Point"},"properties":{"osm_id":"671648731","tag":{"amenity":"recycling","location":"overground","recycling:glass_bottles":"yes","recycling:paper":"yes","recycling_type":"container"}},"type":"Feature"},
	{"geometry":{"coordinates":[7.624475,51.536535],"type":"Point"},"properties":{"osm_id":"680220233","tag":{"amenity":"recycling","recycling:glass_bottles":"yes"}},"type":"Feature"},
	{"geometry":{"coordinates":[7.599347,51.556161],"type":"Point"},"properties":{"osm_id":"704483355","tag":{"amenity":"recycling"}},"type":"Feature"},
	{"geometry":{"coordinates":[7.586735,51.553394],"type":"Point"},"properties":{"osm_id":"705419677","tag":{"amenity":"recycling"}},"type":"Feature"},
	{"geometry":{"coordinates":[7.587472,51.554006],"type":"Point"},"properties":{"osm_id":"705419694","tag":{"amenity":"recycling","recycling_type":"container"}},"type":"Feature"},
	{"geometry":{"coordinates":[7.586949,51.552996],"type":"Point"},"properties":{"osm_id":"705419702","tag":{"amenity":"recycling"}},"type":"Feature"},
	{"geometry":{"coordinates":[7.586873,51.554107],"type":"Point"},"properties":{"osm_id":"705419720","tag":{"amenity":"recycling","recycling_type":"container"}},"type":"Feature"},
	{"geometry":{"coordinates":[7.586572,51.552824],"type":"Point"},"properties":{"osm_id":"705419733","tag":{"amenity":"recycling"}},"type":"Feature"},
	{"geometry":{"coordinates":[7.58798,51.553817],"type":"Point"},"properties":{"osm_id":"705419755","tag":{"amenity":"recycling","recycling_type":"container"}},"type":"Feature"},
	{"geometry":{"coordinates":[7.611463,51.540151],"type":"Point"},"properties":{"osm_id":"706482382","tag":{"amenity":"recycling"}},"type":"Feature"},
	{"geometry":{"coordinates":[7.610458,51.539662],"type":"Point"},"properties":{"osm_id":"706482651","tag":{"amenity":"recycling"}},"type":"Feature"},
	{"geometry":{"coordinates":[7.610094,51.537313],"type":"Point"},"properties":{"osm_id":"706666133","tag":{"amenity":"recycling"}},"type":"Feature"},
	{"geometry":{"coordinates":[7.610558,51.537911],"type":"Point"},"properties":{"osm_id":"706666201","tag":{"amenity":"recycling"}},"type":"Feature"},
	{"geometry":{"coordinates":[7.610363,51.538345],"type":"Point"},"properties":{"osm_id":"706666322","tag":{"amenity":"recycling"}},"type":"Feature"},
	{"geometry":{"coordinates":[7.608825,51.536998],"type":"Point"},"properties":{"osm_id":"707953074","tag":{"amenity":"recycling"}},"type":"Feature"},
	{"geometry":{"coordinates":[7.626379,51.541117],"type":"Point"},"properties":{"osm_id":"715821194","tag":{"amenity":"recycling","recycling:glass_bottles":"yes","recycling:paper":"yes"}},"type":"Feature"},
	{"geometry":{"coordinates":[7.615708,51.538011],"type":"Point"},"properties":{"osm_id":"715840586","tag":{"amenity":"recycling","recycling:glass_bottles":"yes","recycling:paper":"yes"}},"type":"Feature"},
	{"geometry":{"coordinates":[7.593283,51.530609],"type":"Point"},"properties":{"osm_id":"726619572","tag":{"amenity":"recycling","recycling:glass_bottles":"yes","recycling:paper":"yes"}},"type":"Feature"},
	{"geometry":{"coordinates":[7.593538,51.529363],"type":"Point"},"properties":{"osm_id":"726644898","tag":{"amenity":"recycling","recycling:glass_bottles":"yes","recycling:paper":"yes"}},"type":"Feature"},
	{"geometry":{"coordinates":[7.622981,51.561539],"type":"Point"},"properties":{"osm_id":"1132366276","tag":{"amenity":"recycling","recycling:glass_bottles":"yes","recycling:paper":"yes","recycling_type":"container"}},"type":"Feature"},
	{"geometry":{"coordinates":[7.562231,51.522534],"type":"Point"},"properties":{"osm_id":"1261017662","tag":{"amenity":"recycling","location":"overground","recycling:glass_bottles":"yes","recycling_type":"container"}},"type":"Feature"},
	{"geometry":{"coordinates":[7.591508,51.524615],"type":"Point"},"properties":{"osm_id":"1271804506","tag":{"amenity":"recycling"}},"type":"Feature"},
	{"geometry":{"coordinates":[7.582939,51.550601],"type":"Point"},"properties":{"osm_id":"1575972845","tag":{"amenity":"recycling","recycling:glass":"yes","recycling:glass_bottles":"yes","recycling:newspaper":"yes","recycling:paper":"yes","recycling:paper_packaging":"yes","recycling_type":"container"}},"type":"Feature"},
	{"geometry":{"coordinates":[7.595338,51.558956],"type":"Point"},"properties":{"osm_id":"1629379316","tag":{"amenity":"recycling","recycling:cartons":"no","recycling:glass":"yes","recycling:glass_bottles":"yes","recycling:newspaper":"yes","recycling:paper":"yes","recycling:paper_packaging":"yes","recycling_type":"container"}},"type":"Feature"},
	{"geometry":{"coordinates":[7.617442,51.533134],"type":"Point"},"properties":{"osm_id":"1653058710","tag":{"amenity":"recycling","location":"overground","recycling_type":"container"}},"type":"Feature"},
	{"geometry":{"coordinates":[7.587472,51.530669],"type":"Point"},"properties":{"osm_id":"1902621423","tag":{"amenity":"recycling","recycling:glass_bottles":"yes","recycling:paper":"yes"}},"type":"Feature"},
	{"geometry":{"coordinates":[7.607937,51.534557],"type":"Point"},"properties":{"osm_id":"2099414343","tag":{"amenity":"recycling","recycling:glass_bottles":"yes","recycling:paper":"yes","recycling_type":"container"}},"type":"Feature"},
	{"geometry":{"coordinates":[7.562638,51.516995],"type":"Point"},"properties":{"osm_id":"2173206969","tag":{"amenity":"recycling","operator":"Kolpingwerk","recycling:clothes":"yes","recycling_type":"container"}},"type":"Feature"},
	{"geometry":{"coordinates":[7.562553,51.514908],"type":"Point"},"properties":{"osm_id":"2173206970","tag":{"amenity":"recycling","recycling:clothes":"yes","recycling:glass_bottles":"yes","recycling:paper_packaging":"yes","recycling_type":"container"}},"type":"Feature"},
	{"geometry":{"coordinates":[7.572104,51.511838],"type":"Point"},"properties":{"osm_id":"2385075704","tag":{"amenity":"recycling","operator":"Kolping","recycling:clothes":"yes","recycling_type":"container"}},"type":"Feature"},
	{"geometry":{"coordinates":[7.560903,51.509377],"type":"Point"},"properties":{"osm_id":"2385075710","tag":{"amenity":"recycling","operator":"Kolping","recycling:clothes":"yes","recycling_type":"container"}},"type":"Feature"},
	{"geometry":{"coordinates":[7.631699,51.511809],"type":"Point"},"properties":{"highway":"turning_circle","osm_id":"2789994865"},"type":"Feature"},
	{"geometry":{"coordinates":[7.56373,51.515709],"type":"Point"},"properties":{"osm_id":"3353648112","tag":{"addr:city":"Dortmund","addr:housenumber":"4","addr:postcode":"44309","addr:street":"Am Funkturm","amenity":"recycling","recycling:cans":"no","recycling:clothes":"yes","recycling:glass_bottles":"yes","recycling:paper":"yes"}},"type":"Feature"},
	{"geometry":{"coordinates":[7.60741,51.531667],"type":"Point"},"properties":{"osm_id":"3939431635","tag":{"amenity":"recycling","mapillary":"tW1YodNhhQ0gPLANKiX53Q","recycling_type":"container","survey:date":"2017-09-19"}},"type":"Feature"},
	{"geometry":{"coordinates":[7.609413,51.530576],"type":"Point"},"properties":{"osm_id":"4671286382","tag":{"amenity":"recycling","recycling:clothes":"yes","recycling:glass_bottles":"yes","recycling:paper":"yes","recycling_type":"container"}},"type":"Feature"},
	{"geometry":{"coordinates":[7.631988,51.511731],"type":"Point"},"properties":{"name":"Wertstoffhof","osm_id":"5222344937","tag":{"amenity":"recycling","operator":"Gemeinde Holzwickede","recycling_type":"centre"}},"type":"Feature"},
	{"geometry":{"coordinates":[7.564827,51.538059],"type":"Point"},"properties":{"osm_id":"5494022821","tag":{"amenity":"waste_basket"}},"type":"Feature"},
	{"geometry":{"coordinates":[7.564397,51.537914],"type":"Point"},"properties":{"osm_id":"5494022823","tag":{"amenity":"waste_basket"}},"type":"Feature"},
	{"geometry":{"coordinates":[7.562767,51.536368],"type":"Point"},"properties":{"osm_id":"5494022824","tag":{"amenity":"waste_basket"}},"type":"Feature"},
	{"geometry":{"coordinates":[7.562564,51.536199],"type":"Point"},"properties":{"osm_id":"5494026821","tag":{"amenity":"waste_basket"}},"type":"Feature"},
	{"geometry":{"coordinates":[7.587241,51.532644],"type":"Point"},"properties":{"osm_id":"5584803938","tag":{"amenity":"recycling","recycling:glass_bottles":"yes","recycling:paper":"yes","recycling_type":"container"}},"type":"Feature"},
	{"geometry":{"coordinates":[7.585233,51.533118],"type":"Point"},"properties":{"osm_id":"5585900597","tag":{"amenity":"recycling","recycling:clothes":"yes","recycling:shoes":"yes","recycling_type":"container"}},"type":"Feature"},
	{"geometry":{"coordinates":[7.587498,51.530638],"type":"Point"},"properties":{"osm_id":"5585900612","tag":{"amenity":"recycling","recycling:clothes":"yes","recycling:shoes":"yes","recycling_type":"container"}},"type":"Feature"},
	{"geometry":{"coordinates":[7.581516,51.531118],"type":"Point"},"properties":{"osm_id":"5585900617","tag":{"amenity":"recycling","recycling:clothes":"yes","recycling:shoes":"yes","recycling_type":"container"}},"type":"Feature"},
	{"geometry":{"coordinates":[7.586054,51.528381],"type":"Point"},"properties":{"osm_id":"5586107926","tag":{"amenity":"recycling","recycling:clothes":"yes","recycling_type":"container"}},"type":"Feature"},
	{"geometry":{"coordinates":[7.612564,51.53384],"type":"Point"},"properties":{"osm_id":"6282063657","tag":{"amenity":"recycling","recycling_type":"container"}},"type":"Feature"},
	{"geometry":{"coordinates":[7.606407,51.511956],"type":"Point"},"properties":{"osm_id":"6873763016","tag":{"amenity":"waste_basket","waste":"trash"}},"type":"Feature"},
	{"geometry":{"coordinates":[7.606463,51.512003],"type":"Point"},"properties":{"osm_id":"6873763017","tag":{"amenity":"waste_basket","waste":"trash"}},"type":"Feature"},
	{"geometry":{"coordinates":[7.564476,51.512435],"type":"Point"},"properties":{"osm_id":"7453124489","tag":{"amenity":"recycling","recycling_type":"container"}},"type":"Feature"},
	{"geometry":{"coordinates":[7.583962,51.524306],"type":"Point"},"properties":{"osm_id":"7457120548","tag":{"amenity":"recycling","recycling_type":"container"}},"type":"Feature"},
	{"geometry":{"coordinates":[7.588982,51.524584],"type":"Point"},"properties":{"osm_id":"7457120591","tag":{"amenity":"recycling","recycling_type":"container"}},"type":"Feature"},
	{"geometry":{"coordinates":[7.607291,51.524534],"type":"Point"},"properties":{"osm_id":"7462614099","tag":{"amenity":"recycling","recycling_type":"container"}},"type":"Feature"},
	{"geometry":{"coordinates":[7.608367,51.525025],"type":"Point"},"properties":{"osm_id":"7462614224","tag":{"amenity":"recycling","recycling_type":"container"}},"type":"Feature"},
	{"geometry":{"coordinates":[7.60814,51.52643],"type":"Point"},"properties":{"osm_id":"7462614300","tag":{"amenity":"recycling","recycling_type":"container"}},"type":"Feature"},
	{"geometry":{"coordinates":[7.560107,51.533944],"type":"Point"},"properties":{"osm_id":"7597473096","tag":{"amenity":"waste_basket"}},"type":"Feature"}
]
}
