{
"type": "FeatureCollection",
"features": [
	{"geometry":{"coordinates":[7.583873,51.205705],"type":"Point"},"properties":{"osm_id":"348273389","tag":{"amenity":"recycling","recycling:clothes":"yes","recycling_type":"container"}},"type":"Feature"},
	{"geometry":{"coordinates":[7.588732,51.203986],"type":"Point"},"properties":{"osm_id":"348275016","tag":{"amenity":"recycling","recycling:clothes":"yes","recycling:glass":"yes","recycling:paper":"yes","recycling_type":"container"}},"type":"Feature"},
	{"geometry":{"coordinates":[7.61871,51.210634],"type":"Point"},"properties":{"osm_id":"348322810","tag":{"amenity":"recycling","recycling:clothes":"yes","recycling:glass":"yes","recycling:paper":"yes","recycling:scrap_metal":"yes","recycling_type":"container"}},"type":"Feature"},
	{"geometry":{"coordinates":[7.635112,51.228523],"type":"Point"},"properties":{"osm_id":"385147059","tag":{"amenity":"recycling","recycling:clothes":"yes","recycling:glass":"yes","recycling:paper":"yes","recycling_type":"container"}},"type":"Feature"},
	{"geometry":{"coordinates":[7.622162,51.227618],"type":"Point"},"properties":{"name":"STL-Recyclinghof","osm_id":"669084856","tag":{"addr:city":"L\u00c3\u00bcdenscheid","addr:country":"DE","addr:housenumber":"1-5","addr:postcode":"58507","addr:street":"Am Fuhrpark","amenity":"recycling","recycling:batteries":"yes","recycling:books":"yes","recycling:cans":"yes","recycling:cartons":"yes","recycling:clothes":"yes","recycling:electrical_appliances":"yes","recycling:glass":"yes","recycling:glass_bottles":"yes","recycling:green_waste":"yes","recycling:magazines":"yes","recycling:newspaper":"yes","recycling:paper":"yes","recycling:paper_packaging":"yes","recycling:plastic":"yes","recycling:plastic_bottles":"yes","recycling:plastic_packaging":"yes","recycling:scrap_metal":"yes","recycling:small_appliances":"yes","recycling:wood":"yes","recycling_type":"centre"}},"type":"Feature"},
	{"geometry":{"coordinates":[7.593475,51.212127],"type":"Point"},"properties":{"osm_id":"700180949","tag":{"amenity":"recycling","recycling:glass":"yes","recycling:paper":"yes","recycling_type":"container"}},"type":"Feature"},
	{"geometry":{"coordinates":[7.597266,51.219807],"type":"Point"},"properties":{"osm_id":"761571670","tag":{"amenity":"recycling","recycling:glass":"yes","recycling:paper":"yes","recycling_type":"container"}},"type":"Feature"},
	{"geometry":{"coordinates":[7.604947,51.22413],"type":"Point"},"properties":{"osm_id":"1001318714","tag":{"amenity":"recycling","recycling:glass":"yes","recycling:paper":"yes","recycling_type":"container"}},"type":"Feature"},
	{"geometry":{"coordinates":[7.623296,51.23321],"type":"Point"},"properties":{"osm_id":"1233425951","tag":{"amenity":"recycling","recycling:glass":"yes","recycling:paper":"yes","recycling_type":"container"}},"type":"Feature"},
	{"geometry":{"coordinates":[7.643651,51.221999],"type":"Point"},"properties":{"man_made":"surveillance","osm_id":"1241232566","tag":{"amenity":"recycling","recycling:clothes":"yes","recycling:glass":"yes","recycling:paper":"yes","recycling:scrap_metal":"yes","recycling_type":"container","surveillance":"outdoor"}},"type":"Feature"},
	{"geometry":{"coordinates":[7.61008,51.225014],"type":"Point"},"properties":{"osm_id":"1243231101","tag":{"amenity":"recycling","recycling:glass":"no","recycling:glass_bottles":"yes","recycling:paper":"yes","recycling_type":"container"}},"type":"Feature"},
	{"geometry":{"coordinates":[7.612689,51.22252],"type":"Point"},"properties":{"osm_id":"1247225963","tag":{"amenity":"recycling","recycling:glass":"no","recycling:glass_bottles":"yes","recycling:paper":"yes","recycling_type":"container"}},"type":"Feature"},
	{"geometry":{"coordinates":[7.616491,51.220289],"type":"Point"},"properties":{"osm_id":"1247226015","tag":{"amenity":"recycling","recycling:clothes":"yes","recycling:glass":"yes","recycling:paper":"yes","recycling_type":"container"}},"type":"Feature"},
	{"geometry":{"coordinates":[7.602398,51.225465],"type":"Point"},"properties":{"osm_id":"1983069854","tag":{"amenity":"recycling","recycling:glass":"yes","recycling:paper":"yes","recycling_type":"container"}},"type":"Feature"},
	{"geometry":{"coordinates":[7.614905,51.214924],"type":"Point"},"properties":{"name":"Wertstoffsammelstelle Germanenstra\u00c3\u009fe","osm_id":"2352646861","ref":"Germanenstra\u00c3\u009fe 1, 58509 L\u00c3\u00bcdenscheid","tag":{"amenity":"recycling","check_date":"2021-04-17","opening_hours":"Mo-Sa 08:00-19:00; Su,PH off","operator":"Stadtreinigungs-, Transport- und Baubetrieb L\u00c3\u00bcdenscheid","recycling:glass":"yes","recycling:paper":"yes","recycling:shoes":"yes","recycling_type":"container"}},"type":"Feature"},
	{"geometry":{"coordinates":[7.640164,51.230777],"type":"Point"},"properties":{"osm_id":"3437349399","tag":{"amenity":"recycling","recycling:glass":"yes","recycling:paper":"yes","recycling_type":"container"}},"type":"Feature"},
	{"geometry":{"coordinates":[7.641206,51.221735],"type":"Point"},"properties":{"osm_id":"4018018857","tag":{"amenity":"recycling","recycling:glass":"yes","recycling:paper":"yes","recycling_type":"container"}},"type":"Feature"},
	{"geometry":{"coordinates":[7.617331,51.227921],"type":"Point"},"properties":{"osm_id":"4514456698","tag":{"amenity":"recycling","recycling:cartons":"yes","recycling:glass_bottles":"yes","recycling:paper":"yes","recycling_type":"container"}},"type":"Feature"},
	{"geometry":{"coordinates":[7.620445,51.233716],"type":"Point"},"properties":{"osm_id":"4620596949","tag":{"amenity":"waste_basket"}},"type":"Feature"},
	{"geometry":{"coordinates":[7.620176,51.233997],"type":"Point"},"properties":{"osm_id":"4620596971","tag":{"amenity":"waste_basket"}},"type":"Feature"},
	{"geometry":{"coordinates":[7.620475,51.234078],"type":"Point"},"properties":{"osm_id":"4620596983","tag":{"amenity":"waste_basket"}},"type":"Feature"},
	{"geometry":{"coordinates":[7.620807,51.234245],"type":"Point"},"properties":{"osm_id":"4620596986","tag":{"amenity":"waste_basket"}},"type":"Feature"},
	{"geometry":{"coordinates":[7.565909,51.211583],"type":"Point"},"properties":{"osm_id":"5184837356","tag":{"amenity":"recycling","recycling:cardboard":"yes","recycling:clothes":"yes","recycling:glass_bottles":"yes","recycling:paper":"yes","recycling:shoes":"yes","recycling_type":"container"}},"type":"Feature"},
	{"geometry":{"coordinates":[7.606897,51.227795],"type":"Point"},"properties":{"osm_id":"7817860785","tag":{"amenity":"recycling","recycling:clothes":"yes","recycling:glass_bottles":"yes","recycling_type":"container"}},"type":"Feature"},
	{"geometry":{"coordinates":[7.60673,51.227787],"type":"Point"},"properties":{"osm_id":"7817860786","tag":{"amenity":"recycling","recycling:paper":"yes","recycling_type":"container"}},"type":"Feature"},
	{"geometry":{"coordinates":[7.603204,51.207349],"type":"Point"},"properties":{"name":"Wertstoffsammelstelle Eichenweg","osm_id":"8251462674","ref":"Eichenweg, 58509 L\u00c3\u00bcdenscheid","tag":{"amenity":"recycling","check_date":"2021-04-17","opening_hours":"Mo-Sa 08:00-19:00; Su,PH off","operator":"Stadtreinigungs-, Transport- und Baubetrieb L\u00c3\u00bcdenscheid","recycling:glass":"yes","recycling:paper":"yes","recycling_type":"container"}},"type":"Feature"},
	{"geometry":{"coordinates":[7.613892,51.212423],"type":"Point"},"properties":{"name":"Wertstoffsammelstelle Harlingerstra\u00c3\u009fe","osm_id":"8251462675","ref":"Harlinger Stra\u00c3\u009fe 22, 58509 L\u00c3\u00bcdenscheid","tag":{"amenity":"recycling","check_date":"2021-04-17","opening_hours":"Mo-Sa 08:00-19:00; Su,PH off","operator":"Stadtreinigungs-, Transport- und Baubetrieb L\u00c3\u00bcdenscheid","recycling:glass":"yes","recycling:paper":"yes","recycling_type":"container"}},"type":"Feature"},
	{"geometry":{"coordinates":[7.622199,51.21647],"type":"Point"},"properties":{"name":"Wertstoffsammelstelle Lohm\u00c3\u00bchlenstra\u00c3\u009fe","osm_id":"8257605747","ref":"Lohm\u00c3\u00bchlenstra\u00c3\u009fe 6, 58509 L\u00c3\u00bcdenscheid","tag":{"amenity":"recycling","check_date":"2021-04-17","opening_hours":"Mo-Sa 08:00-19:00; Su,PH off","operator":"Stadtreinigungs-, Transport- und Baubetrieb L\u00c3\u00bcdenscheid","recycling:clothes":"yes","recycling:glass":"yes","recycling:paper":"yes","recycling:shoes":"yes","recycling_type":"container"}},"type":"Feature"},
	{"geometry":{"coordinates":[7.618652,51.212169],"type":"Point"},"properties":{"name":"Wertstoffsammelstelle Am Ramsberg","osm_id":"8257639780","ref":"Am Ramsberg 75, 58509 L\u00c3\u00bcdenscheid","tag":{"amenity":"recycling","check_date":"2021-04-17","opening_hours":"Mo-Sa 08:00-19:00; Su,PH off","operator":"Stadtreinigungs-, Transport- und Baubetrieb L\u00c3\u00bcdenscheid","recycling:clothes":"yes","recycling:glass":"yes","recycling:paper":"yes","recycling_type":"container"}},"type":"Feature"},
	{"geometry":{"coordinates":[7.619356,51.216725],"type":"Point"},"properties":{"name":"Wertstoffsammelstelle Wildmecke","osm_id":"8268187830","ref":"Wildmecke 5, 58509 L\u00c3\u00bcdenscheid","tag":{"amenity":"recycling","check_date":"2021-04-17","opening_hours":"Mo-Sa 08:00-19:00; Su,PH off","operator":"Stadtreinigungs-, Transport- und Baubetrieb L\u00c3\u00bcdenscheid","recycling:glass":"yes","recycling:paper":"yes","recycling_type":"container"}},"type":"Feature"},
	{"geometry":{"coordinates":[7.601643,51.21969],"type":"Point"},"properties":{"name":"Wertstoffsammelstelle Mozartstra\u00c3\u009fe","osm_id":"9040111378","ref":"Mozartstra\u00c3\u009fe, 58509 L\u00c3\u00bcdenscheid","tag":{"amenity":"recycling","check_date":"2021-08-25","opening_hours":"Mo-Sa 08:00-19:00; Su,PH off","operator":"Stadtreinigungs-, Transport- und Baubetrieb L\u00c3\u00bcdenscheid","recycling:glass":"yes","recycling:paper":"yes","recycling:shoes":"yes","recycling_type":"container"}},"type":"Feature"}
]
}
