{
"type": "FeatureCollection",
"features": [
	{"geometry":{"coordinates":[7.609796,50.402174],"type":"Point"},"properties":{"osm_id":"298418483","tag":{"amenity":"recycling","recycling:glass":"yes","recycling_type":"container"}},"type":"Feature"},
	{"geometry":{"coordinates":[7.60195,50.410225],"type":"Point"},"properties":{"osm_id":"322072485","tag":{"amenity":"recycling","recycling:clothes":"yes","recycling:glass":"yes"}},"type":"Feature"},
	{"geometry":{"coordinates":[7.604389,50.411197],"type":"Point"},"properties":{"osm_id":"322258719","tag":{"amenity":"waste_basket"}},"type":"Feature"},
	{"geometry":{"coordinates":[7.6208,50.415743],"type":"Point"},"properties":{"osm_id":"363639469","tag":{"amenity":"waste_basket"}},"type":"Feature"},
	{"geometry":{"coordinates":[7.560796,50.408312],"type":"Point"},"properties":{"osm_id":"368211905","tag":{"amenity":"recycling","recycling:glass":"yes","recycling_type":"container"}},"type":"Feature"},
	{"geometry":{"coordinates":[7.570103,50.407241],"type":"Point"},"properties":{"osm_id":"371115827","tag":{"amenity":"recycling","recycling:clothes":"yes","recycling:glass":"yes","recycling_type":"container"}},"type":"Feature"},
	{"geometry":{"coordinates":[7.585086,50.418037],"type":"Point"},"properties":{"osm_id":"390298804","tag":{"amenity":"recycling","recycling:glass":"yes"}},"type":"Feature"},
	{"geometry":{"coordinates":[7.570586,50.423082],"type":"Point"},"properties":{"osm_id":"390307353","tag":{"amenity":"recycling","recycling:glass":"yes"}},"type":"Feature"},
	{"geometry":{"coordinates":[7.566907,50.420489],"type":"Point"},"properties":{"osm_id":"392336190","tag":{"amenity":"recycling","recycling:clothes":"yes"}},"type":"Feature"},
	{"geometry":{"coordinates":[7.581499,50.425585],"type":"Point"},"properties":{"osm_id":"414015261","tag":{"amenity":"recycling","recycling:glass":"yes"}},"type":"Feature"},
	{"geometry":{"coordinates":[7.577088,50.424807],"type":"Point"},"properties":{"osm_id":"415145838","tag":{"amenity":"recycling","recycling:glass":"yes","recycling_type":"container"}},"type":"Feature"},
	{"geometry":{"coordinates":[7.599914,50.414355],"type":"Point"},"properties":{"osm_id":"415939772","tag":{"amenity":"recycling","mapillary":"6g3voi4OCzcDgKbO7cJTLg","recycling:clothes":"yes","recycling_type":"container","survey:date":"2017-05-13"}},"type":"Feature"},
	{"geometry":{"coordinates":[7.61836,50.407896],"type":"Point"},"properties":{"osm_id":"442151232","tag":{"amenity":"recycling","recycling:clothes":"yes","recycling_type":"container"}},"type":"Feature"},
	{"geometry":{"coordinates":[7.644791,50.437365],"type":"Point"},"properties":{"osm_id":"681500735","tag":{"amenity":"waste_basket"}},"type":"Feature"},
	{"geometry":{"coordinates":[7.594071,50.445161],"type":"Point"},"properties":{"osm_id":"740873063","tag":{"amenity":"recycling","location":"overground","recycling:glass":"yes","recycling_type":"container"}},"type":"Feature"},
	{"geometry":{"coordinates":[7.56273,50.420981],"type":"Point"},"properties":{"osm_id":"767398882","tag":{"amenity":"waste_basket"}},"type":"Feature"},
	{"geometry":{"coordinates":[7.564157,50.419714],"type":"Point"},"properties":{"osm_id":"767398888","tag":{"amenity":"waste_basket"}},"type":"Feature"},
	{"geometry":{"coordinates":[7.612989,50.40229],"type":"Point"},"properties":{"osm_id":"768682755","tag":{"amenity":"recycling","recycling:clothes":"yes","recycling:shoes":"yes","recycling_type":"container"}},"type":"Feature"},
	{"geometry":{"coordinates":[7.596077,50.456912],"type":"Point"},"properties":{"osm_id":"808129572","tag":{"amenity":"recycling","recycling_type":"container"}},"type":"Feature"},
	{"geometry":{"coordinates":[7.569691,50.423109],"type":"Point"},"properties":{"osm_id":"938439195","tag":{"amenity":"recycling","recycling:clothes":"yes"}},"type":"Feature"},
	{"geometry":{"coordinates":[7.570283,50.423479],"type":"Point"},"properties":{"osm_id":"938439241","tag":{"amenity":"recycling","recycling:glass":"yes"}},"type":"Feature"},
	{"geometry":{"coordinates":[7.57458,50.438529],"type":"Point"},"properties":{"osm_id":"1243367320","tag":{"amenity":"waste_basket"}},"type":"Feature"},
	{"geometry":{"coordinates":[7.576055,50.438359],"type":"Point"},"properties":{"osm_id":"1243367429","tag":{"amenity":"waste_basket"}},"type":"Feature"},
	{"geometry":{"coordinates":[7.569121,50.425097],"type":"Point"},"properties":{"osm_id":"1356495584","tag":{"amenity":"recycling","recycling:glass":"yes","recycling_type":"container"}},"type":"Feature"},
	{"geometry":{"coordinates":[7.595778,50.444074],"type":"Point"},"properties":{"osm_id":"1380203584","tag":{"amenity":"waste_basket"}},"type":"Feature"},
	{"geometry":{"coordinates":[7.568057,50.438742],"type":"Point"},"properties":{"osm_id":"1388197588","tag":{"amenity":"recycling","recycling:glass_bottles":"yes","recycling_type":"container"}},"type":"Feature"},
	{"geometry":{"coordinates":[7.56231,50.439194],"type":"Point"},"properties":{"osm_id":"1578623426","tag":{"amenity":"recycling","recycling:glass":"yes","recycling_type":"container"}},"type":"Feature"},
	{"geometry":{"coordinates":[7.571557,50.418787],"type":"Point"},"properties":{"osm_id":"1579231114","tag":{"amenity":"recycling","recycling:glass_bottles":"yes","recycling_type":"container"}},"type":"Feature"},
	{"geometry":{"coordinates":[7.567416,50.439712],"type":"Point"},"properties":{"osm_id":"1697794835","tag":{"amenity":"waste_basket"}},"type":"Feature"},
	{"geometry":{"coordinates":[7.567077,50.441278],"type":"Point"},"properties":{"osm_id":"1697795164","tag":{"amenity":"waste_basket"}},"type":"Feature"},
	{"geometry":{"coordinates":[7.57988,50.418281],"type":"Point"},"properties":{"osm_id":"2463392072","tag":{"amenity":"recycling","recycling:glass":"yes","recycling_type":"container"}},"type":"Feature"},
	{"geometry":{"coordinates":[7.561742,50.438836],"type":"Point"},"properties":{"osm_id":"2601560184","tag":{"amenity":"recycling","recycling:clothes":"yes","recycling_type":"container"}},"type":"Feature"},
	{"geometry":{"coordinates":[7.61297,50.40229],"type":"Point"},"properties":{"osm_id":"4629833301","tag":{"amenity":"recycling","recycling:glass":"yes","recycling_type":"container"}},"type":"Feature"},
	{"geometry":{"coordinates":[7.618421,50.408477],"type":"Point"},"properties":{"osm_id":"5212740035","tag":{"amenity":"waste_basket"}},"type":"Feature"},
	{"geometry":{"coordinates":[7.577648,50.439622],"type":"Point"},"properties":{"osm_id":"5849405040","tag":{"amenity":"recycling","recycling:glass":"yes","recycling_type":"container"}},"type":"Feature"}
]
}
