{
"type": "FeatureCollection",
"features": [
	{"geometry":{"coordinates":[7.606336,50.296727],"type":"Point"},"properties":{"osm_id":"299248297","tag":{"amenity":"waste_basket"}},"type":"Feature"},
	{"geometry":{"coordinates":[7.611319,50.329785],"type":"Point"},"properties":{"osm_id":"747493121","tag":{"amenity":"recycling","recycling:clothes":"yes","recycling:glass_bottles":"yes","recycling:paper":"yes","recycling_type":"container"}},"type":"Feature"},
	{"geometry":{"coordinates":[7.603682,50.3022],"type":"Point"},"properties":{"osm_id":"786701598","tag":{"amenity":"recycling"}},"type":"Feature"},
	{"geometry":{"coordinates":[7.605363,50.305639],"type":"Point"},"properties":{"osm_id":"786820286","tag":{"amenity":"recycling","recycling:clothes":"yes","recycling:glass":"yes"}},"type":"Feature"},
	{"geometry":{"coordinates":[7.610996,50.297662],"type":"Point"},"properties":{"osm_id":"807140402","tag":{"amenity":"waste_basket"}},"type":"Feature"},
	{"geometry":{"coordinates":[7.603796,50.311322],"type":"Point"},"properties":{"osm_id":"823781803","tag":{"amenity":"recycling","recycling:clothes":"yes"}},"type":"Feature"},
	{"geometry":{"coordinates":[7.592634,50.305457],"type":"Point"},"properties":{"osm_id":"898973230","tag":{"amenity":"recycling"}},"type":"Feature"},
	{"geometry":{"coordinates":[7.57029,50.338888],"type":"Point"},"properties":{"osm_id":"1503324921","tag":{"amenity":"recycling","recycling:cans":"no","recycling:clothes":"yes","recycling:glass":"yes","recycling:paper":"yes","recycling_type":"container"}},"type":"Feature"},
	{"geometry":{"coordinates":[7.567214,50.341962],"type":"Point"},"properties":{"osm_id":"1539282106","tag":{"amenity":"recycling","recycling:clothes":"yes","recycling:glass_brown":"yes","recycling:glass_green":"yes","recycling:glass_white":"yes","recycling:paper":"yes","recycling_type":"container"}},"type":"Feature"},
	{"geometry":{"coordinates":[7.562755,50.341991],"type":"Point"},"properties":{"osm_id":"1539282127","tag":{"amenity":"recycling","recycling:clothes":"yes","recycling:glass":"yes","recycling_type":"container"}},"type":"Feature"},
	{"geometry":{"coordinates":[7.570194,50.341943],"type":"Point"},"properties":{"osm_id":"1593115676","tag":{"amenity":"recycling","recycling:clothes":"yes","recycling:glass":"yes","recycling_type":"container"}},"type":"Feature"},
	{"geometry":{"coordinates":[7.56748,50.342713],"type":"Point"},"properties":{"osm_id":"2207919810","tag":{"amenity":"recycling","recycling_type":"container"}},"type":"Feature"},
	{"geometry":{"coordinates":[7.606327,50.302976],"type":"Point"},"properties":{"osm_id":"2473244175","tag":{"amenity":"recycling","recycling:glass":"yes"}},"type":"Feature"},
	{"geometry":{"coordinates":[7.613207,50.333357],"type":"Point"},"properties":{"osm_id":"2758738188","tag":{"amenity":"waste_basket"}},"type":"Feature"},
	{"geometry":{"coordinates":[7.612984,50.333203],"type":"Point"},"properties":{"osm_id":"2758738196","tag":{"amenity":"waste_basket"}},"type":"Feature"},
	{"geometry":{"coordinates":[7.617407,50.340553],"type":"Point"},"properties":{"osm_id":"2964741140","tag":{"amenity":"recycling","recycling:paper":"yes","recycling_type":"container"}},"type":"Feature"},
	{"geometry":{"coordinates":[7.617394,50.340573],"type":"Point"},"properties":{"osm_id":"2964741143","tag":{"amenity":"recycling","recycling:clothes":"yes","recycling_type":"container"}},"type":"Feature"},
	{"geometry":{"coordinates":[7.617384,50.340591],"type":"Point"},"properties":{"osm_id":"2964741147","tag":{"amenity":"recycling","recycling:clothes":"yes","recycling_type":"container"}},"type":"Feature"},
	{"geometry":{"coordinates":[7.617363,50.340612],"type":"Point"},"properties":{"osm_id":"2964741149","tag":{"amenity":"recycling","recycling:cans":"yes","recycling:glass_bottles":"yes","recycling_type":"container"}},"type":"Feature"},
	{"geometry":{"coordinates":[7.617366,50.340626],"type":"Point"},"properties":{"osm_id":"2964741150","tag":{"amenity":"recycling","recycling:glass_bottles":"yes","recycling_type":"container"}},"type":"Feature"},
	{"geometry":{"coordinates":[7.617367,50.340645],"type":"Point"},"properties":{"osm_id":"2964741158","tag":{"amenity":"recycling","recycling:glass_bottles":"yes","recycling_type":"container"}},"type":"Feature"},
	{"geometry":{"coordinates":[7.617371,50.340664],"type":"Point"},"properties":{"osm_id":"2964741163","tag":{"amenity":"recycling","recycling:glass:colour":"brown","recycling:glass_bottles":"yes","recycling_type":"container"}},"type":"Feature"},
	{"geometry":{"coordinates":[7.597982,50.332443],"type":"Point"},"properties":{"osm_id":"3070537087","tag":{"amenity":"recycling","operator":"TEXAID","recycling:clothes":"yes","recycling:shoes":"yes","recycling_type":"container"}},"type":"Feature"},
	{"geometry":{"coordinates":[7.59833,50.332886],"type":"Point"},"properties":{"osm_id":"3070537089","tag":{"amenity":"waste_basket"}},"type":"Feature"},
	{"geometry":{"coordinates":[7.598675,50.339249],"type":"Point"},"properties":{"osm_id":"3070537093","tag":{"amenity":"waste_basket"}},"type":"Feature"},
	{"geometry":{"coordinates":[7.604043,50.337327],"type":"Point"},"properties":{"osm_id":"3136586888","tag":{"amenity":"recycling","recycling:cans":"yes","recycling:glass_bottles":"yes","recycling:paper":"yes","recycling_type":"container"}},"type":"Feature"},
	{"geometry":{"coordinates":[7.603036,50.321267],"type":"Point"},"properties":{"osm_id":"3146408534","tag":{"amenity":"recycling","operator":"Deutsches Rotes Kreuz","recycling:clothes":"yes","recycling:shoes":"yes","recycling_type":"container"}},"type":"Feature"},
	{"geometry":{"coordinates":[7.597082,50.330706],"type":"Point"},"properties":{"osm_id":"3146408535","tag":{"amenity":"waste_basket"}},"type":"Feature"},
	{"geometry":{"coordinates":[7.586761,50.341226],"type":"Point"},"properties":{"osm_id":"3146408536","tag":{"amenity":"waste_basket"}},"type":"Feature"},
	{"geometry":{"coordinates":[7.587583,50.343068],"type":"Point"},"properties":{"osm_id":"3146408537","tag":{"amenity":"waste_basket"}},"type":"Feature"},
	{"geometry":{"coordinates":[7.597032,50.323753],"type":"Point"},"properties":{"osm_id":"3146529694","tag":{"amenity":"waste_basket"}},"type":"Feature"},
	{"geometry":{"coordinates":[7.596323,50.324753],"type":"Point"},"properties":{"osm_id":"3146529695","tag":{"amenity":"waste_basket"}},"type":"Feature"},
	{"geometry":{"coordinates":[7.595628,50.326379],"type":"Point"},"properties":{"osm_id":"3146529696","tag":{"amenity":"waste_basket"}},"type":"Feature"},
	{"geometry":{"coordinates":[7.595352,50.326478],"type":"Point"},"properties":{"osm_id":"3146529698","tag":{"amenity":"waste_basket"}},"type":"Feature"},
	{"geometry":{"coordinates":[7.595353,50.326529],"type":"Point"},"properties":{"osm_id":"3146529699","tag":{"amenity":"waste_basket"}},"type":"Feature"},
	{"geometry":{"coordinates":[7.595503,50.326547],"type":"Point"},"properties":{"osm_id":"3146529700","tag":{"amenity":"waste_basket"}},"type":"Feature"},
	{"geometry":{"coordinates":[7.59669,50.327936],"type":"Point"},"properties":{"osm_id":"3146529701","tag":{"amenity":"waste_basket"}},"type":"Feature"},
	{"geometry":{"coordinates":[7.597187,50.328839],"type":"Point"},"properties":{"osm_id":"3146529702","tag":{"amenity":"waste_basket"}},"type":"Feature"},
	{"geometry":{"coordinates":[7.596751,50.329051],"type":"Point"},"properties":{"osm_id":"3146529703","tag":{"amenity":"recycling","recycling:cans":"yes","recycling:glass_bottles":"yes","recycling:paper":"yes","recycling_type":"container"}},"type":"Feature"},
	{"geometry":{"coordinates":[7.597373,50.330105],"type":"Point"},"properties":{"osm_id":"3146529704","tag":{"amenity":"waste_basket"}},"type":"Feature"},
	{"geometry":{"coordinates":[7.597404,50.330293],"type":"Point"},"properties":{"osm_id":"3146529705","tag":{"amenity":"waste_basket"}},"type":"Feature"},
	{"geometry":{"coordinates":[7.602743,50.320638],"type":"Point"},"properties":{"osm_id":"3153736661","tag":{"amenity":"waste_basket"}},"type":"Feature"},
	{"geometry":{"coordinates":[7.603959,50.321044],"type":"Point"},"properties":{"osm_id":"3157416861","tag":{"amenity":"waste_basket"}},"type":"Feature"},
	{"geometry":{"coordinates":[7.593838,50.327644],"type":"Point"},"properties":{"osm_id":"3163468918","tag":{"amenity":"waste_basket"}},"type":"Feature"},
	{"geometry":{"coordinates":[7.599136,50.336504],"type":"Point"},"properties":{"osm_id":"3163468919","tag":{"amenity":"waste_basket"}},"type":"Feature"},
	{"geometry":{"coordinates":[7.611036,50.322625],"type":"Point"},"properties":{"osm_id":"3770328079","tag":{"amenity":"waste_basket"}},"type":"Feature"},
	{"geometry":{"coordinates":[7.607788,50.321837],"type":"Point"},"properties":{"osm_id":"4086497526","tag":{"amenity":"recycling","recycling:clothes":"yes","recycling:shoes":"yes","recycling_type":"container"}},"type":"Feature"},
	{"geometry":{"coordinates":[7.598598,50.320478],"type":"Point"},"properties":{"osm_id":"4105728569","tag":{"amenity":"recycling","recycling:clothes":"yes","recycling:shoes":"yes","recycling_type":"container"}},"type":"Feature"},
	{"geometry":{"coordinates":[7.591541,50.334174],"type":"Point"},"properties":{"osm_id":"4131177688","tag":{"amenity":"recycling","recycling:clothes":"yes","recycling:shoes":"yes","recycling_type":"container"}},"type":"Feature"},
	{"geometry":{"coordinates":[7.591553,50.334189],"type":"Point"},"properties":{"osm_id":"4131177989","tag":{"amenity":"recycling","recycling:glass_bottles":"yes","recycling_type":"container"}},"type":"Feature"},
	{"geometry":{"coordinates":[7.591564,50.334205],"type":"Point"},"properties":{"osm_id":"4131177990","tag":{"amenity":"recycling","recycling:glass_bottles":"yes","recycling_type":"container"}},"type":"Feature"},
	{"geometry":{"coordinates":[7.591576,50.334221],"type":"Point"},"properties":{"osm_id":"4131177991","tag":{"amenity":"recycling","recycling:glass_bottles":"yes","recycling_type":"container"}},"type":"Feature"},
	{"geometry":{"coordinates":[7.591587,50.334237],"type":"Point"},"properties":{"osm_id":"4131177992","tag":{"amenity":"recycling","recycling:paper":"yes","recycling_type":"container"}},"type":"Feature"},
	{"geometry":{"coordinates":[7.586644,50.337602],"type":"Point"},"properties":{"osm_id":"4131178023","tag":{"amenity":"recycling","recycling:clothes":"yes","recycling_type":"container"}},"type":"Feature"},
	{"geometry":{"coordinates":[7.586351,50.337734],"type":"Point"},"properties":{"osm_id":"4131178031","tag":{"amenity":"recycling","operator":"DRK-Kreisverband Koblenz-Stadt e.V.","recycling:clothes":"yes","recycling:shoes":"yes","recycling_type":"container"}},"type":"Feature"},
	{"geometry":{"coordinates":[7.586342,50.337745],"type":"Point"},"properties":{"osm_id":"4131178032","tag":{"amenity":"recycling","recycling:glass_bottles":"yes","recycling:paper":"yes","recycling_type":"container"}},"type":"Feature"},
	{"geometry":{"coordinates":[7.594196,50.340358],"type":"Point"},"properties":{"osm_id":"4131178044","tag":{"amenity":"recycling","recycling:shoes":"yes","recycling_type":"container"}},"type":"Feature"},
	{"geometry":{"coordinates":[7.594206,50.340379],"type":"Point"},"properties":{"osm_id":"4131178045","tag":{"amenity":"recycling","operator":"DRK-Kreisverband Koblenz-Stadt e.V.","recycling:clothes":"yes","recycling:shoes":"yes","recycling_type":"container"}},"type":"Feature"},
	{"geometry":{"coordinates":[7.594215,50.340399],"type":"Point"},"properties":{"osm_id":"4131178046","tag":{"amenity":"recycling","recycling:glass_bottles":"yes","recycling_type":"container"}},"type":"Feature"},
	{"geometry":{"coordinates":[7.594224,50.34042],"type":"Point"},"properties":{"osm_id":"4131178047","tag":{"amenity":"recycling","recycling:paper":"yes","recycling_type":"container"}},"type":"Feature"},
	{"geometry":{"coordinates":[7.6086,50.30545],"type":"Point"},"properties":{"osm_id":"4172234816","tag":{"amenity":"recycling","recycling:glass_bottles":"yes","recycling_type":"container"}},"type":"Feature"},
	{"geometry":{"coordinates":[7.613716,50.338359],"type":"Point"},"properties":{"osm_id":"4240978859","tag":{"amenity":"recycling","recycling:clothes":"yes","recycling:glass":"yes","recycling:paper":"yes","recycling_type":"container"}},"type":"Feature"},
	{"geometry":{"coordinates":[7.615762,50.338567],"type":"Point"},"properties":{"osm_id":"4240981619","tag":{"amenity":"recycling","recycling:clothes":"yes","recycling:glass":"yes","recycling:paper":"yes","recycling_type":"container"}},"type":"Feature"},
	{"geometry":{"coordinates":[7.606775,50.323776],"type":"Point"},"properties":{"osm_id":"4273253443","tag":{"amenity":"recycling","recycling:clothes":"yes","recycling:shoes":"yes","recycling_type":"container"}},"type":"Feature"},
	{"geometry":{"coordinates":[7.615391,50.313795],"type":"Point"},"properties":{"osm_id":"4273253444","tag":{"amenity":"recycling","recycling:clothes":"yes","recycling:glass":"yes","recycling:shoes":"yes","recycling_type":"container"}},"type":"Feature"},
	{"geometry":{"coordinates":[7.603708,50.307776],"type":"Point"},"properties":{"osm_id":"4341481646","tag":{"amenity":"recycling","recycling:clothes":"yes","recycling:shoes":"yes","recycling_type":"container"}},"type":"Feature"},
	{"geometry":{"coordinates":[7.603716,50.30778],"type":"Point"},"properties":{"osm_id":"4341481647","tag":{"amenity":"recycling","recycling:shoes":"yes","recycling_type":"container"}},"type":"Feature"},
	{"geometry":{"coordinates":[7.60915,50.331193],"type":"Point"},"properties":{"osm_id":"4344955222","tag":{"amenity":"recycling","recycling:clothes":"yes","recycling:shoes":"yes","recycling_type":"container"}},"type":"Feature"},
	{"geometry":{"coordinates":[7.609082,50.331251],"type":"Point"},"properties":{"osm_id":"4344955225","tag":{"amenity":"recycling","recycling:glass_bottles":"yes","recycling:paper":"yes","recycling_type":"container"}},"type":"Feature"},
	{"geometry":{"coordinates":[7.600788,50.329828],"type":"Point"},"properties":{"osm_id":"4346144637","tag":{"amenity":"recycling","operator":"Unknown","recycling:clothes":"yes","recycling:shoes":"yes","recycling_type":"container"}},"type":"Feature"},
	{"geometry":{"coordinates":[7.600799,50.329831],"type":"Point"},"properties":{"osm_id":"4346144638","tag":{"amenity":"recycling","operator":"Krebsgesellschaft Rheinland-Pfalz e.V.","recycling:clothes":"yes","recycling:shoes":"yes","recycling_type":"container"}},"type":"Feature"},
	{"geometry":{"coordinates":[7.60081,50.329833],"type":"Point"},"properties":{"osm_id":"4346144639","tag":{"amenity":"recycling","operator":"DRK-Kreisverband Koblenz-Stadt e.V.","recycling:clothes":"yes","recycling:shoes":"yes","recycling_type":"container"}},"type":"Feature"},
	{"geometry":{"coordinates":[7.600863,50.329845],"type":"Point"},"properties":{"osm_id":"4346144644","tag":{"amenity":"recycling","operator":"Stadt Koblenz","recycling:cardboard":"yes","recycling:glass_bottles":"yes","recycling:paper":"yes","recycling_type":"container"}},"type":"Feature"},
	{"geometry":{"coordinates":[7.611701,50.331615],"type":"Point"},"properties":{"osm_id":"4420763922","tag":{"amenity":"recycling","recycling:glass_bottles":"yes","recycling_type":"container"}},"type":"Feature"},
	{"geometry":{"coordinates":[7.611674,50.331625],"type":"Point"},"properties":{"osm_id":"4420763923","tag":{"amenity":"recycling","recycling:glass_bottles":"yes","recycling_type":"container"}},"type":"Feature"},
	{"geometry":{"coordinates":[7.61165,50.331637],"type":"Point"},"properties":{"osm_id":"4420763924","tag":{"amenity":"recycling","recycling:glass_bottles":"yes","recycling_type":"container"}},"type":"Feature"},
	{"geometry":{"coordinates":[7.61163,50.33165],"type":"Point"},"properties":{"osm_id":"4420763925","tag":{"amenity":"recycling","recycling:paper":"yes","recycling_type":"container"}},"type":"Feature"},
	{"geometry":{"coordinates":[7.611607,50.331661],"type":"Point"},"properties":{"osm_id":"4420763926","tag":{"amenity":"recycling","recycling:paper":"yes","recycling_type":"container"}},"type":"Feature"},
	{"geometry":{"coordinates":[7.566888,50.339995],"type":"Point"},"properties":{"osm_id":"4621310229","tag":{"amenity":"waste_disposal"}},"type":"Feature"},
	{"geometry":{"coordinates":[7.605143,50.307767],"type":"Point"},"properties":{"osm_id":"4726680217","tag":{"amenity":"recycling","recycling:clothes":"yes","recycling_type":"container"}},"type":"Feature"},
	{"geometry":{"coordinates":[7.605144,50.307757],"type":"Point"},"properties":{"osm_id":"4726680218","tag":{"amenity":"recycling","recycling:clothes":"yes","recycling_type":"container"}},"type":"Feature"},
	{"geometry":{"coordinates":[7.605141,50.307778],"type":"Point"},"properties":{"osm_id":"4726680219","tag":{"amenity":"recycling","recycling:clothes":"yes","recycling_type":"container"}},"type":"Feature"},
	{"geometry":{"coordinates":[7.60514,50.307788],"type":"Point"},"properties":{"osm_id":"4726680220","tag":{"amenity":"recycling","recycling:shoes":"yes","recycling_type":"container"}},"type":"Feature"},
	{"geometry":{"coordinates":[7.58556,50.340703],"type":"Point"},"properties":{"osm_id":"4732568424","tag":{"amenity":"recycling","recycling:glass_bottles":"brown","recycling_type":"container"}},"type":"Feature"},
	{"geometry":{"coordinates":[7.585525,50.340702],"type":"Point"},"properties":{"osm_id":"4732568425","tag":{"amenity":"recycling","recycling:paper":"yes","recycling_type":"container"}},"type":"Feature"},
	{"geometry":{"coordinates":[7.585555,50.34072],"type":"Point"},"properties":{"osm_id":"4732568426","tag":{"amenity":"recycling","recycling:glass_bottles":"green","recycling_type":"container"}},"type":"Feature"},
	{"geometry":{"coordinates":[7.585517,50.340725],"type":"Point"},"properties":{"osm_id":"4732568427","tag":{"amenity":"recycling","recycling:glass_bottles":"white","recycling_type":"container"}},"type":"Feature"},
	{"geometry":{"coordinates":[7.58552,50.343582],"type":"Point"},"properties":{"osm_id":"4732669309","tag":{"amenity":"recycling","operator":"Kolping","recycling:clothes":"yes","recycling:shoes":"yes","recycling_type":"container"}},"type":"Feature"},
	{"geometry":{"coordinates":[7.600002,50.316833],"type":"Point"},"properties":{"osm_id":"4734760579","tag":{"amenity":"waste_basket"}},"type":"Feature"},
	{"geometry":{"coordinates":[7.60017,50.316891],"type":"Point"},"properties":{"osm_id":"4734760583","tag":{"amenity":"recycling","location":"underground","recycling:glass_bottles":"white","recycling_type":"container"}},"type":"Feature"},
	{"geometry":{"coordinates":[7.600145,50.316873],"type":"Point"},"properties":{"osm_id":"4734760584","tag":{"amenity":"recycling","location":"underground","recycling:glass_bottles":"green","recycling_type":"container"}},"type":"Feature"},
	{"geometry":{"coordinates":[7.600119,50.316855],"type":"Point"},"properties":{"osm_id":"4734760585","tag":{"amenity":"recycling","location":"underground","recycling:glass_bottles":"brown","recycling_type":"container"}},"type":"Feature"},
	{"geometry":{"coordinates":[7.600257,50.316748],"type":"Point"},"properties":{"osm_id":"4734788620","tag":{"amenity":"waste_basket"}},"type":"Feature"},
	{"geometry":{"coordinates":[7.598098,50.321156],"type":"Point"},"properties":{"osm_id":"4734814023","tag":{"amenity":"recycling","operator":"Malteser","recycling:clothes":"yes","recycling:shoes":"yes","recycling_type":"container"}},"type":"Feature"},
	{"geometry":{"coordinates":[7.598123,50.321156],"type":"Point"},"properties":{"osm_id":"4734814024","tag":{"amenity":"recycling","operator":"Malteser","recycling:clothes":"yes","recycling:shoes":"yes","recycling_type":"container"}},"type":"Feature"},
	{"geometry":{"coordinates":[7.59616,50.318068],"type":"Point"},"properties":{"name":"Bauhof Lahnstein","osm_id":"4736698600","tag":{"amenity":"recycling","opening_hours":"Mo 08:00-13:00, Tu 08:00-13:00,14:00-16:00, We 08:00-13:00, Th 08:00-12:00,14:00-18:00, Fr 08:00-12:00","recycling_type":"centre"}},"type":"Feature"},
	{"geometry":{"coordinates":[7.594749,50.319756],"type":"Point"},"properties":{"osm_id":"4736719574","tag":{"amenity":"recycling","operator":"Krebsgesellschaft RLP","recycling:clothes":"yes","recycling:shoes":"yes","recycling_type":"container"}},"type":"Feature"},
	{"geometry":{"coordinates":[7.594732,50.319751],"type":"Point"},"properties":{"osm_id":"4736719575","tag":{"amenity":"recycling","operator":"Deutsches Rotes Kreuz","recycling:clothes":"yes","recycling:shoes":"yes","recycling_type":"container"}},"type":"Feature"},
	{"geometry":{"coordinates":[7.594716,50.319745],"type":"Point"},"properties":{"osm_id":"4736719576","tag":{"amenity":"recycling","operator":"Baliz","recycling:clothes":"yes","recycling:shoes":"yes","recycling_type":"container"}},"type":"Feature"},
	{"geometry":{"coordinates":[7.594699,50.319739],"type":"Point"},"properties":{"osm_id":"4736719577","tag":{"amenity":"recycling","operator":"Baliz","recycling:clothes":"yes","recycling:shoes":"yes","recycling_type":"container"}},"type":"Feature"},
	{"geometry":{"coordinates":[7.594659,50.319728],"type":"Point"},"properties":{"osm_id":"4736719578","tag":{"amenity":"recycling","recycling:glass_bottles":"brown","recycling_type":"container"}},"type":"Feature"},
	{"geometry":{"coordinates":[7.594632,50.319721],"type":"Point"},"properties":{"osm_id":"4736719579","tag":{"amenity":"recycling","recycling:glass_bottles":"white","recycling_type":"container"}},"type":"Feature"},
	{"geometry":{"coordinates":[7.594605,50.319713],"type":"Point"},"properties":{"osm_id":"4736719580","tag":{"amenity":"recycling","recycling:glass_bottles":"green","recycling_type":"container"}},"type":"Feature"},
	{"geometry":{"coordinates":[7.594158,50.326067],"type":"Point"},"properties":{"osm_id":"4736788980","tag":{"amenity":"recycling","recycling:clothes":"yes","recycling:shoes":"yes","recycling_type":"container"}},"type":"Feature"},
	{"geometry":{"coordinates":[7.597602,50.311611],"type":"Point"},"properties":{"osm_id":"4773291947","tag":{"amenity":"recycling","operator":"Krebsgesellschaft RLP","recycling:clothes":"yes","recycling:shoes":"yes","recycling_type":"container"}},"type":"Feature"},
	{"geometry":{"coordinates":[7.597595,50.311626],"type":"Point"},"properties":{"osm_id":"4773291948","tag":{"amenity":"recycling","recycling:glass_bottles":"white","recycling_type":"container"}},"type":"Feature"},
	{"geometry":{"coordinates":[7.597588,50.31164],"type":"Point"},"properties":{"osm_id":"4773291949","tag":{"amenity":"recycling","recycling:glass_bottles":"green","recycling_type":"container"}},"type":"Feature"},
	{"geometry":{"coordinates":[7.597581,50.311655],"type":"Point"},"properties":{"osm_id":"4773291950","tag":{"amenity":"recycling","recycling:glass_bottles":"brown","recycling_type":"container"}},"type":"Feature"},
	{"geometry":{"coordinates":[7.597574,50.31167],"type":"Point"},"properties":{"osm_id":"4773291951","tag":{"amenity":"recycling","operator":"Krebsgesellschaft RLP","recycling:clothes":"yes","recycling:shoes":"yes","recycling_type":"container"}},"type":"Feature"},
	{"geometry":{"coordinates":[7.598015,50.31164],"type":"Point"},"properties":{"osm_id":"4773291952","tag":{"amenity":"waste_basket"}},"type":"Feature"},
	{"geometry":{"coordinates":[7.598528,50.308745],"type":"Point"},"properties":{"osm_id":"4774096231","tag":{"amenity":"waste_disposal"}},"type":"Feature"},
	{"geometry":{"coordinates":[7.605581,50.32466],"type":"Point"},"properties":{"osm_id":"4913312675","tag":{"amenity":"waste_basket"}},"type":"Feature"},
	{"geometry":{"coordinates":[7.60782,50.310825],"type":"Point"},"properties":{"osm_id":"4929300310","tag":{"amenity":"waste_basket"}},"type":"Feature"},
	{"geometry":{"coordinates":[7.611411,50.322513],"type":"Point"},"properties":{"osm_id":"4939055666","tag":{"amenity":"waste_basket"}},"type":"Feature"},
	{"geometry":{"coordinates":[7.573707,50.339845],"type":"Point"},"properties":{"osm_id":"5041807151","tag":{"amenity":"recycling","recycling:cardboard":"yes","recycling:glass":"yes","recycling:glass_bottles":"yes","recycling:paper":"yes","recycling_type":"container"}},"type":"Feature"},
	{"geometry":{"coordinates":[7.615739,50.340807],"type":"Point"},"properties":{"osm_id":"5268672858","tag":{"amenity":"recycling","recycling:clothes":"yes","recycling:shoes":"yes","recycling_type":"container"}},"type":"Feature"},
	{"geometry":{"coordinates":[7.600735,50.294444],"type":"Point"},"properties":{"osm_id":"5580717419","tag":{"amenity":"recycling","recycling:clothes":"yes","recycling:glass":"yes","recycling:paper":"yes","recycling_type":"container"}},"type":"Feature"},
	{"geometry":{"coordinates":[7.606532,50.323901],"type":"Point"},"properties":{"osm_id":"5596209379","tag":{"amenity":"waste_basket"}},"type":"Feature"},
	{"geometry":{"coordinates":[7.563757,50.339776],"type":"Point"},"properties":{"osm_id":"5718675422","tag":{"amenity":"recycling","recycling:cans":"yes","recycling:glass":"yes","recycling:paper":"yes","recycling_type":"container"}},"type":"Feature"},
	{"geometry":{"coordinates":[7.57053,50.340306],"type":"Point"},"properties":{"osm_id":"5720413249","tag":{"amenity":"waste_disposal","waste":"trash"}},"type":"Feature"},
	{"geometry":{"coordinates":[7.613668,50.305338],"type":"Point"},"properties":{"osm_id":"5904403227","tag":{"amenity":"recycling","recycling:glass":"yes","recycling_type":"container"}},"type":"Feature"},
	{"geometry":{"coordinates":[7.570037,50.342268],"type":"Point"},"properties":{"osm_id":"6032495378","tag":{"amenity":"recycling","recycling:paper":"yes","recycling_type":"container"}},"type":"Feature"},
	{"geometry":{"coordinates":[7.570064,50.342289],"type":"Point"},"properties":{"osm_id":"6032495379","tag":{"amenity":"recycling","recycling:paper":"yes","recycling_type":"container"}},"type":"Feature"},
	{"geometry":{"coordinates":[7.57008,50.342317],"type":"Point"},"properties":{"osm_id":"6032495380","tag":{"amenity":"recycling","recycling:cans":"yes","recycling:plastic":"yes","recycling:plastic_bottles":"yes","recycling_type":"container"}},"type":"Feature"},
	{"geometry":{"coordinates":[7.570102,50.342332],"type":"Point"},"properties":{"osm_id":"6032495381","tag":{"amenity":"recycling","recycling:glass_bottles":"yes","recycling_type":"container"}},"type":"Feature"},
	{"geometry":{"coordinates":[7.570116,50.342345],"type":"Point"},"properties":{"osm_id":"6032495382","tag":{"amenity":"recycling","recycling:glass_bottles":"yes","recycling_type":"container"}},"type":"Feature"},
	{"geometry":{"coordinates":[7.570148,50.342332],"type":"Point"},"properties":{"osm_id":"6032495383","tag":{"amenity":"recycling","recycling:glass_bottles":"yes","recycling_type":"container"}},"type":"Feature"},
	{"geometry":{"coordinates":[7.570136,50.342319],"type":"Point"},"properties":{"osm_id":"6032495384","tag":{"amenity":"recycling","recycling:glass_bottles":"yes","recycling_type":"container"}},"type":"Feature"},
	{"geometry":{"coordinates":[7.570179,50.342354],"type":"Point"},"properties":{"osm_id":"6032497685","tag":{"amenity":"recycling","recycling:clothes":"yes","recycling_type":"container"}},"type":"Feature"},
	{"geometry":{"coordinates":[7.570188,50.342363],"type":"Point"},"properties":{"osm_id":"6032497686","tag":{"amenity":"recycling","recycling:clothes":"yes","recycling_type":"container"}},"type":"Feature"},
	{"geometry":{"coordinates":[7.5702,50.342373],"type":"Point"},"properties":{"osm_id":"6032497687","tag":{"amenity":"recycling","recycling:clothes":"yes","recycling_type":"container"}},"type":"Feature"},
	{"geometry":{"coordinates":[7.567803,50.336971],"type":"Point"},"properties":{"osm_id":"6140139315","tag":{"amenity":"recycling","recycling:clothes":"yes","recycling:glass":"yes","recycling:paper":"yes","recycling_type":"container"}},"type":"Feature"},
	{"geometry":{"coordinates":[7.605342,50.341999],"type":"Point"},"properties":{"osm_id":"6165684139","tag":{"amenity":"recycling","recycling:clothes":"yes","recycling:glass_bottles":"yes","recycling:paper":"yes","recycling_type":"container"}},"type":"Feature"},
	{"geometry":{"coordinates":[7.580329,50.340755],"type":"Point"},"properties":{"osm_id":"6197528167","tag":{"amenity":"waste_basket"}},"type":"Feature"},
	{"geometry":{"coordinates":[7.606451,50.303484],"type":"Point"},"properties":{"osm_id":"6377746401","tag":{"amenity":"waste_basket","collection_times":"Every day"}},"type":"Feature"},
	{"geometry":{"coordinates":[7.619081,50.293173],"type":"Point"},"properties":{"osm_id":"6378576635","tag":{"amenity":"waste_basket"}},"type":"Feature"},
	{"geometry":{"coordinates":[7.606598,50.303357],"type":"Point"},"properties":{"osm_id":"6378676490","tag":{"amenity":"waste_basket"}},"type":"Feature"},
	{"geometry":{"coordinates":[7.616655,50.294619],"type":"Point"},"properties":{"osm_id":"6378812161","tag":{"amenity":"waste_basket"}},"type":"Feature"},
	{"geometry":{"coordinates":[7.616257,50.295342],"type":"Point"},"properties":{"osm_id":"6378828234","tag":{"amenity":"recycling","recycling:glass":"yes","recycling:glass_bottles":"yes","recycling_type":"container"}},"type":"Feature"},
	{"geometry":{"coordinates":[7.619606,50.29321],"type":"Point"},"properties":{"osm_id":"6380187734","tag":{"amenity":"waste_basket"}},"type":"Feature"},
	{"geometry":{"coordinates":[7.613344,50.29674],"type":"Point"},"properties":{"name":"M\u00c3\u00bclleimer","osm_id":"6380445265","tag":{"amenity":"waste_basket"}},"type":"Feature"},
	{"geometry":{"coordinates":[7.618552,50.293935],"type":"Point"},"properties":{"name":"M\u00c3\u00bclleimer","osm_id":"6380445274","tag":{"amenity":"waste_basket"}},"type":"Feature"},
	{"geometry":{"coordinates":[7.618667,50.293617],"type":"Point"},"properties":{"name":"M\u00c3\u00bclleimer","osm_id":"6380445276","tag":{"amenity":"waste_basket"}},"type":"Feature"},
	{"geometry":{"coordinates":[7.616675,50.294609],"type":"Point"},"properties":{"osm_id":"6380522088","tag":{"amenity":"waste_basket"}},"type":"Feature"},
	{"geometry":{"coordinates":[7.611395,50.322737],"type":"Point"},"properties":{"osm_id":"6380522206","tag":{"amenity":"waste_basket"}},"type":"Feature"},
	{"geometry":{"coordinates":[7.594172,50.310848],"type":"Point"},"properties":{"osm_id":"6582868072","tag":{"amenity":"waste_basket","check_date":"2019-07-01","material":"metal"}},"type":"Feature"},
	{"geometry":{"coordinates":[7.592655,50.313319],"type":"Point"},"properties":{"osm_id":"6582884697","tag":{"amenity":"waste_basket","check_date":"2019-07-01","material":"metal"}},"type":"Feature"},
	{"geometry":{"coordinates":[7.619734,50.304479],"type":"Point"},"properties":{"osm_id":"6582970424","tag":{"amenity":"waste_basket","check_date":"2019-07-01","waste":"dog_excrement"}},"type":"Feature"},
	{"geometry":{"coordinates":[7.605473,50.314073],"type":"Point"},"properties":{"osm_id":"6587499263","tag":{"amenity":"waste_basket","check_date":"2019-07-02","waste":"dog_excrement"}},"type":"Feature"},
	{"geometry":{"coordinates":[7.606416,50.313395],"type":"Point"},"properties":{"osm_id":"6587509913","tag":{"amenity":"recycling","check_date":"2019-07-03","operator":"DRK Stadtverband Ko","recycling:clothes":"yes","recycling:shoes":"yes","recycling_type":"container"}},"type":"Feature"},
	{"geometry":{"coordinates":[7.606494,50.313373],"type":"Point"},"properties":{"osm_id":"6587509914","tag":{"amenity":"recycling","check_date":"2019-07-03","recycling:glass":"yes","recycling_type":"container"}},"type":"Feature"},
	{"geometry":{"coordinates":[7.61424,50.312359],"type":"Point"},"properties":{"osm_id":"6590474321","tag":{"amenity":"recycling","check_date":"2019-07-04","recycling:glass":"yes","recycling_type":"container"}},"type":"Feature"},
	{"geometry":{"coordinates":[7.619607,50.3045],"type":"Point"},"properties":{"osm_id":"6595322830","tag":{"amenity":"recycling","recycling:glass":"yes","recycling_type":"container"}},"type":"Feature"},
	{"geometry":{"coordinates":[7.619535,50.304514],"type":"Point"},"properties":{"osm_id":"6595322831","tag":{"amenity":"recycling","recycling:clothes":"yes","recycling:shoes":"yes","recycling_type":"container"}},"type":"Feature"},
	{"geometry":{"coordinates":[7.640479,50.303007],"type":"Point"},"properties":{"osm_id":"7214694635","tag":{"amenity":"waste_basket","check_date":"2020-02-15"}},"type":"Feature"},
	{"geometry":{"coordinates":[7.640373,50.302584],"type":"Point"},"properties":{"osm_id":"7214694637","tag":{"amenity":"waste_basket","check_date":"2020-02-15"}},"type":"Feature"},
	{"geometry":{"coordinates":[7.639694,50.302244],"type":"Point"},"properties":{"osm_id":"7214740009","tag":{"amenity":"waste_basket","check_date":"2020-02-15"}},"type":"Feature"},
	{"geometry":{"coordinates":[7.613566,50.306987],"type":"Point"},"properties":{"osm_id":"7228488969","tag":{"amenity":"waste_basket","check_date":"2020-02-19","material":"steel"}},"type":"Feature"},
	{"geometry":{"coordinates":[7.611523,50.306372],"type":"Point"},"properties":{"osm_id":"7228547746","tag":{"amenity":"waste_basket"}},"type":"Feature"},
	{"geometry":{"coordinates":[7.619724,50.31438],"type":"Point"},"properties":{"osm_id":"7273926895","tag":{"amenity":"waste_basket"}},"type":"Feature"},
	{"geometry":{"coordinates":[7.616101,50.31264],"type":"Point"},"properties":{"osm_id":"7314088558","tag":{"amenity":"waste_basket"}},"type":"Feature"},
	{"geometry":{"coordinates":[7.611016,50.322506],"type":"Point"},"properties":{"osm_id":"7473365777","tag":{"amenity":"recycling","opening_hours":"Mo-Sa 07:00-20:00","operator":"REMONDIS Recycling GmbH & Co. KG","recycling:glass_bottles":"yes","recycling_type":"container"}},"type":"Feature"},
	{"geometry":{"coordinates":[7.599018,50.319536],"type":"Point"},"properties":{"osm_id":"7549605810","tag":{"amenity":"waste_basket","check_date":"2020-05-22","material":"steel","waste":"trash"}},"type":"Feature"},
	{"geometry":{"coordinates":[7.605642,50.308707],"type":"Point"},"properties":{"osm_id":"7747594472","tag":{"amenity":"waste_basket","waste":"trash"}},"type":"Feature"},
	{"geometry":{"coordinates":[7.605472,50.308705],"type":"Point"},"properties":{"osm_id":"7747594473","tag":{"amenity":"waste_basket","waste":"trash"}},"type":"Feature"},
	{"geometry":{"coordinates":[7.603859,50.308863],"type":"Point"},"properties":{"osm_id":"7747594475","tag":{"amenity":"waste_basket","waste":"trash"}},"type":"Feature"},
	{"geometry":{"coordinates":[7.602503,50.308554],"type":"Point"},"properties":{"osm_id":"7747602088","tag":{"amenity":"waste_basket","waste":"trash"}},"type":"Feature"},
	{"geometry":{"coordinates":[7.60069,50.308573],"type":"Point"},"properties":{"osm_id":"7747602093","tag":{"amenity":"waste_basket","waste":"trash"}},"type":"Feature"},
	{"geometry":{"coordinates":[7.599133,50.308559],"type":"Point"},"properties":{"osm_id":"7747602096","tag":{"amenity":"waste_basket","waste":"trash"}},"type":"Feature"},
	{"geometry":{"coordinates":[7.598707,50.308507],"type":"Point"},"properties":{"osm_id":"7747602101","tag":{"amenity":"waste_basket","waste":"trash"}},"type":"Feature"},
	{"geometry":{"coordinates":[7.59815,50.308561],"type":"Point"},"properties":{"osm_id":"7747602104","tag":{"amenity":"waste_basket","waste":"trash"}},"type":"Feature"},
	{"geometry":{"coordinates":[7.597873,50.308688],"type":"Point"},"properties":{"osm_id":"7747602109","tag":{"amenity":"waste_basket","waste":"trash"}},"type":"Feature"},
	{"geometry":{"coordinates":[7.597617,50.308724],"type":"Point"},"properties":{"osm_id":"7747602110","tag":{"amenity":"waste_basket","waste":"trash"}},"type":"Feature"},
	{"geometry":{"coordinates":[7.597721,50.308457],"type":"Point"},"properties":{"osm_id":"7747602111","tag":{"amenity":"waste_basket","waste":"trash"}},"type":"Feature"},
	{"geometry":{"coordinates":[7.595551,50.309403],"type":"Point"},"properties":{"osm_id":"7747602120","tag":{"amenity":"waste_basket","waste":"trash"}},"type":"Feature"},
	{"geometry":{"coordinates":[7.595272,50.309787],"type":"Point"},"properties":{"osm_id":"7747602121","tag":{"amenity":"waste_basket","waste":"trash"}},"type":"Feature"},
	{"geometry":{"coordinates":[7.595496,50.309973],"type":"Point"},"properties":{"osm_id":"7747602125","tag":{"amenity":"waste_basket","waste":"trash"}},"type":"Feature"},
	{"geometry":{"coordinates":[7.600336,50.312051],"type":"Point"},"properties":{"osm_id":"7752724608","tag":{"amenity":"waste_basket","waste":"trash"}},"type":"Feature"},
	{"geometry":{"coordinates":[7.59937,50.313065],"type":"Point"},"properties":{"osm_id":"7752724609","tag":{"amenity":"waste_basket","waste":"trash"}},"type":"Feature"},
	{"geometry":{"coordinates":[7.598269,50.315761],"type":"Point"},"properties":{"osm_id":"7752724612","tag":{"amenity":"waste_basket","waste":"trash"}},"type":"Feature"},
	{"geometry":{"coordinates":[7.591962,50.320364],"type":"Point"},"properties":{"osm_id":"7753506180","tag":{"amenity":"waste_basket","waste":"trash"}},"type":"Feature"},
	{"geometry":{"coordinates":[7.591661,50.317939],"type":"Point"},"properties":{"osm_id":"7753553985","tag":{"amenity":"waste_basket","waste":"trash"}},"type":"Feature"},
	{"geometry":{"coordinates":[7.592001,50.316103],"type":"Point"},"properties":{"osm_id":"7753553988","tag":{"amenity":"waste_basket","waste":"trash"}},"type":"Feature"},
	{"geometry":{"coordinates":[7.592602,50.313417],"type":"Point"},"properties":{"osm_id":"7753554001","tag":{"amenity":"waste_basket","material":"metal","waste":"trash"}},"type":"Feature"},
	{"geometry":{"coordinates":[7.59262,50.312924],"type":"Point"},"properties":{"osm_id":"7753554003","tag":{"amenity":"waste_basket","waste":"trash"}},"type":"Feature"},
	{"geometry":{"coordinates":[7.594235,50.31049],"type":"Point"},"properties":{"osm_id":"7753554012","tag":{"amenity":"waste_basket","waste":"trash"}},"type":"Feature"},
	{"geometry":{"coordinates":[7.606185,50.335057],"type":"Point"},"properties":{"osm_id":"7913393167","tag":{"amenity":"waste_basket","colour":"green"}},"type":"Feature"},
	{"geometry":{"coordinates":[7.601946,50.316984],"type":"Point"},"properties":{"osm_id":"7946453150","tag":{"amenity":"waste_basket","material":"steel"}},"type":"Feature"}
]
}
