{
"type": "FeatureCollection",
"features": [
	{"geometry":{"coordinates":[7.608255,49.417266],"type":"Point"},"properties":{"osm_id":"312556424","tag":{"amenity":"recycling","recycling:glass":"yes"}},"type":"Feature"},
	{"geometry":{"coordinates":[7.612779,49.418901],"type":"Point"},"properties":{"osm_id":"312556427","tag":{"amenity":"recycling","recycling:clothes":"yes","recycling:glass_bottles":"yes","recycling_type":"container"}},"type":"Feature"},
	{"geometry":{"coordinates":[7.61076,49.412481],"type":"Point"},"properties":{"osm_id":"317046609","tag":{"amenity":"recycling","recycling:glass":"yes"}},"type":"Feature"},
	{"geometry":{"coordinates":[7.611284,49.39604],"type":"Point"},"properties":{"osm_id":"410828494","tag":{"amenity":"recycling","recycling:clothes":"yes","recycling:glass":"yes","recycling_type":"container"}},"type":"Feature"},
	{"geometry":{"coordinates":[7.608195,49.391858],"type":"Point"},"properties":{"osm_id":"410828705","tag":{"amenity":"recycling","recycling:clothes":"yes","recycling:glass":"yes"}},"type":"Feature"},
	{"geometry":{"coordinates":[7.574557,49.397848],"type":"Point"},"properties":{"osm_id":"469647611","tag":{"amenity":"recycling","recycling:glass":"yes"}},"type":"Feature"},
	{"geometry":{"coordinates":[7.569653,49.399706],"type":"Point"},"properties":{"osm_id":"469647763","tag":{"amenity":"recycling","recycling:glass":"yes"}},"type":"Feature"},
	{"geometry":{"coordinates":[7.568883,49.401203],"type":"Point"},"properties":{"osm_id":"469647793","tag":{"amenity":"recycling","recycling:glass":"yes"}},"type":"Feature"},
	{"geometry":{"coordinates":[7.56425,49.400521],"type":"Point"},"properties":{"osm_id":"469647852","tag":{"amenity":"recycling","recycling:glass":"yes"}},"type":"Feature"},
	{"geometry":{"coordinates":[7.577661,49.397732],"type":"Point"},"properties":{"osm_id":"469647992","tag":{"amenity":"recycling","recycling:clothes":"yes","recycling:glass":"yes","recycling_type":"container"}},"type":"Feature"},
	{"geometry":{"coordinates":[7.598119,49.39317],"type":"Point"},"properties":{"name":"Gr\u00c3\u00bcnabfallsammelstelle Bann","osm_id":"469648038","tag":{"amenity":"recycling","opening_hours":"We, Fr 17:00-19:00; Jan-Dec: Sa 13:00-17:00","recycling:green_waste":"yes","service":"recycling"}},"type":"Feature"},
	{"geometry":{"coordinates":[7.572042,49.405532],"type":"Point"},"properties":{"osm_id":"535076181","tag":{"amenity":"recycling","recycling:glass":"yes"}},"type":"Feature"},
	{"geometry":{"coordinates":[7.570092,49.406642],"type":"Point"},"properties":{"osm_id":"535076244","tag":{"amenity":"recycling","recycling:glass":"yes","recycling_type":"container"}},"type":"Feature"},
	{"geometry":{"coordinates":[7.580076,49.415338],"type":"Point"},"properties":{"osm_id":"535076595","tag":{"amenity":"recycling","recycling:glass":"yes","recycling_type":"container"}},"type":"Feature"},
	{"geometry":{"coordinates":[7.587519,49.412798],"type":"Point"},"properties":{"osm_id":"569039212","tag":{"amenity":"recycling","recycling:glass":"yes","recycling_type":"container"}},"type":"Feature"},
	{"geometry":{"coordinates":[7.589189,49.385419],"type":"Point"},"properties":{"osm_id":"764039903","tag":{"amenity":"recycling","recycling:glass_bottles":"yes","recycling_type":"container"}},"type":"Feature"},
	{"geometry":{"coordinates":[7.602378,49.391768],"type":"Point"},"properties":{"osm_id":"764040163","tag":{"amenity":"waste_basket"}},"type":"Feature"},
	{"geometry":{"coordinates":[7.606088,49.402299],"type":"Point"},"properties":{"osm_id":"2520915308","tag":{"amenity":"waste_basket"}},"type":"Feature"},
	{"geometry":{"coordinates":[7.614415,49.417314],"type":"Point"},"properties":{"osm_id":"2595833562","tag":{"amenity":"recycling","recycling:clothes":"yes","recycling:glass":"yes","recycling_type":"container"}},"type":"Feature"},
	{"geometry":{"coordinates":[7.620341,49.420927],"type":"Point"},"properties":{"name":"Wertstoffhof Kindsbach","osm_id":"2595833621","tag":{"amenity":"recycling","opening_hours":"We-Fr 13:00-17:00; Sa 09:00-13:00","recycling:batteries":"yes","recycling:glass":"yes","recycling:scrap_metal":"yes","recycling_type":"centre"}},"type":"Feature"},
	{"geometry":{"coordinates":[7.570255,49.415838],"type":"Point"},"properties":{"osm_id":"2598409317","tag":{"amenity":"recycling","recycling:clothes":"yes","recycling:glass":"yes","recycling_type":"container"}},"type":"Feature"},
	{"geometry":{"coordinates":[7.568624,49.41589],"type":"Point"},"properties":{"osm_id":"2598409325","tag":{"amenity":"recycling","recycling:clothes":"yes","recycling_type":"container"}},"type":"Feature"},
	{"geometry":{"coordinates":[7.573064,49.413998],"type":"Point"},"properties":{"osm_id":"2848219701","tag":{"amenity":"recycling","recycling:glass":"yes"}},"type":"Feature"},
	{"geometry":{"coordinates":[7.617944,49.421666],"type":"Point"},"properties":{"name":"Gr\u00c3\u00bcnabfallsammelstelle Kindsbach","osm_id":"3085175534","tag":{"amenity":"recycling","opening_hours":"Th-Fr 15:00-17:00; Sa 13:00-17:00","operator":"Landkreis Kaiserslautern","recycling:garden_waste":"yes","recycling:green_waste":"yes","recycling_type":"centre"}},"type":"Feature"},
	{"geometry":{"coordinates":[7.578807,49.417074],"type":"Point"},"properties":{"name":"Gr\u00c3\u00bcnabfallsammelstelle Landstuhl","osm_id":"3085175536","tag":{"amenity":"recycling","opening_hours":"Jan-Dec: Tu 17:00-20:00; Jan-Dec: Fr 14:00-18:00; Jan-Dec: Sa 10:00-17:00","operator":"Landkreis Kaiserslautern","recycling:garden_waste":"yes","recycling:green_waste":"yes","recycling_type":"centre","service":"recycling"}},"type":"Feature"},
	{"geometry":{"coordinates":[7.57364,49.398241],"type":"Point"},"properties":{"osm_id":"4144595693","tag":{"amenity":"waste_disposal"}},"type":"Feature"},
	{"geometry":{"coordinates":[7.574683,49.397896],"type":"Point"},"properties":{"osm_id":"4144596091","tag":{"amenity":"waste_disposal"}},"type":"Feature"},
	{"geometry":{"coordinates":[7.565906,49.41277],"type":"Point"},"properties":{"osm_id":"4144746203","tag":{"amenity":"waste_disposal"}},"type":"Feature"},
	{"geometry":{"coordinates":[7.573877,49.399222],"type":"Point"},"properties":{"osm_id":"7790999872","tag":{"amenity":"waste_basket"}},"type":"Feature"}
]
}
