{
"type": "FeatureCollection",
"features": [
	{"geometry":{"coordinates":[7.640113,49.365997],"type":"Point"},"properties":{"name":"Gr\u00c3\u00bcnabfallsammelstelle Queidersbach","osm_id":"512005787","tag":{"amenity":"recycling","opening_hours":"24/7","operator":"Landkreis Kaiserslautern","recycling:garden_waste":"yes","recycling:green_waste":"yes","recycling_type":"centre"}},"type":"Feature"},
	{"geometry":{"coordinates":[7.629882,49.379069],"type":"Point"},"properties":{"osm_id":"512005855","tag":{"amenity":"recycling","recycling:green_waste":"yes"}},"type":"Feature"},
	{"geometry":{"coordinates":[7.638116,49.374404],"type":"Point"},"properties":{"osm_id":"512006118","tag":{"amenity":"recycling","recycling:clothes":"yes","recycling:glass":"yes","recycling:shoes":"yes"}},"type":"Feature"},
	{"geometry":{"coordinates":[7.634937,49.37085],"type":"Point"},"properties":{"osm_id":"512006126","tag":{"amenity":"recycling","recycling:glass":"yes","recycling_type":"container"}},"type":"Feature"},
	{"geometry":{"coordinates":[7.635799,49.371719],"type":"Point"},"properties":{"osm_id":"512006135","tag":{"amenity":"recycling","recycling:clothes":"yes"}},"type":"Feature"},
	{"geometry":{"coordinates":[7.64062,49.380754],"type":"Point"},"properties":{"osm_id":"512006167","tag":{"amenity":"recycling","recycling:glass":"yes"}},"type":"Feature"},
	{"geometry":{"coordinates":[7.646397,49.333973],"type":"Point"},"properties":{"osm_id":"820260958","tag":{"amenity":"recycling","recycling:clothes":"yes","recycling:glass":"yes"}},"type":"Feature"},
	{"geometry":{"coordinates":[7.579293,49.37824],"type":"Point"},"properties":{"name":"Gr\u00c3\u00bcnabfallsammelstelle Oberarnbach","osm_id":"3085175544","tag":{"amenity":"recycling","opening_hours":"24/7","operator":"Landkreis Kaiserslautern","recycling:garden_waste":"yes","recycling:green_waste":"yes","recycling_type":"centre"}},"type":"Feature"}
]
}
