{
"type": "FeatureCollection",
"features": [
	{"geometry":{"coordinates":[7.625525,47.899256],"type":"Point"},"properties":{"osm_id":"3649361026","tag":{"amenity":"waste_basket"}},"type":"Feature"},
	{"geometry":{"coordinates":[7.625512,47.899295],"type":"Point"},"properties":{"osm_id":"3649361032","tag":{"amenity":"waste_basket"}},"type":"Feature"},
	{"geometry":{"coordinates":[7.625635,47.899302],"type":"Point"},"properties":{"osm_id":"3649361034","tag":{"amenity":"waste_basket"}},"type":"Feature"},
	{"geometry":{"coordinates":[7.644983,47.880078],"type":"Point"},"properties":{"osm_id":"4223847739","tag":{"amenity":"recycling","recycling:clothes":"yes","recycling:shoes":"yes","recycling_type":"container"}},"type":"Feature"},
	{"geometry":{"coordinates":[7.646409,47.88012],"type":"Point"},"properties":{"osm_id":"4223847743","tag":{"amenity":"waste_basket"}},"type":"Feature"},
	{"geometry":{"coordinates":[7.646373,47.880307],"type":"Point"},"properties":{"osm_id":"4223847753","tag":{"amenity":"waste_basket"}},"type":"Feature"},
	{"geometry":{"coordinates":[7.62095,47.892506],"type":"Point"},"properties":{"name":"RAZ Regionales Abfallzentrum Breisgau","osm_id":"7407635473","tag":{"amenity":"recycling","opening_hours":"Mo, Tu 09:00-15:00; Th, Fr 12:00-18:00; Sa 08:00-12:00"}},"type":"Feature"}
]
}
