{
"type": "FeatureCollection",
"features": [
	{"geometry":{"coordinates":[7.573361,47.534809],"type":"Point"},"properties":{"name":"Werkhof","osm_id":"249100336","tag":{"amenity":"recycling"}},"type":"Feature"},
	{"geometry":{"coordinates":[7.616316,47.570817],"type":"Point"},"properties":{"osm_id":"276546524","tag":{"amenity":"recycling","recycling:batteries":"yes","recycling:cans":"yes","recycling:glass_bottles":"yes"}},"type":"Feature"},
	{"geometry":{"coordinates":[7.574237,47.551242],"type":"Point"},"properties":{"osm_id":"293463949","tag":{"amenity":"recycling","recycling:batteries":"yes","recycling:cans":"yes","recycling:glass_bottles":"yes","recycling:green_waste":"yes","recycling_type":"container"}},"type":"Feature"},
	{"geometry":{"coordinates":[7.58567,47.551372],"type":"Point"},"properties":{"osm_id":"296481803","tag":{"amenity":"recycling","recycling:batteries":"yes","recycling:cans":"yes","recycling:glass_bottles":"yes","recycling_type":"container"}},"type":"Feature"},
	{"geometry":{"coordinates":[7.581046,47.54713],"type":"Point"},"properties":{"osm_id":"296481806","tag":{"amenity":"recycling","recycling:batteries":"yes","recycling:cans":"yes","recycling:glass":"yes"}},"type":"Feature"},
	{"geometry":{"coordinates":[7.564813,47.546461],"type":"Point"},"properties":{"name":"Neubadrain","osm_id":"296485399","tag":{"addr:city":"Basel","addr:postcode":"4054","addr:street":"Neubadrain","amenity":"recycling","opening_hours":"Mo-Sa 07:00-12:00, 14:00-20:00; PH Su off","operator":"Tiefbauamt Basel-Stadt","recycling:cans":"yes","recycling:clothes":"no","recycling:glass":"yes","recycling:glass_bottles":"yes","recycling:paper":"no","recycling:plastic":"no","recycling_type":"container"}},"type":"Feature"},
	{"geometry":{"coordinates":[7.574638,47.560714],"type":"Point"},"properties":{"osm_id":"296485405","tag":{"amenity":"recycling","recycling:batteries":"yes","recycling:cans":"yes","recycling:glass":"yes"}},"type":"Feature"},
	{"geometry":{"coordinates":[7.570095,47.5685],"type":"Point"},"properties":{"osm_id":"296865109","tag":{"amenity":"recycling","recycling:batteries":"yes","recycling:cans":"yes","recycling:glass":"yes"}},"type":"Feature"},
	{"geometry":{"coordinates":[7.573495,47.569581],"type":"Point"},"properties":{"osm_id":"296865110","tag":{"amenity":"recycling","location":"underground","recycling:batteries":"yes","recycling:cans":"yes","recycling:glass":"yes","recycling_type":"container"}},"type":"Feature"},
	{"geometry":{"coordinates":[7.582135,47.565756],"type":"Point"},"properties":{"osm_id":"296865112","tag":{"amenity":"recycling","recycling:batteries":"yes","recycling:cans":"yes","recycling:glass_bottles":"yes","recycling_type":"container"}},"type":"Feature"},
	{"geometry":{"coordinates":[7.584387,47.557715],"type":"Point"},"properties":{"osm_id":"296865113","tag":{"amenity":"recycling","location":"overground","recycling:batteries":"yes","recycling:cans":"yes","recycling:glass_bottles":"yes","recycling_type":"container"}},"type":"Feature"},
	{"geometry":{"coordinates":[7.596158,47.55208],"type":"Point"},"properties":{"osm_id":"296865521","tag":{"amenity":"recycling","recycling:batteries":"yes","recycling:cans":"yes","recycling:glass":"yes"}},"type":"Feature"},
	{"geometry":{"coordinates":[7.61434,47.555396],"type":"Point"},"properties":{"osm_id":"296867700","tag":{"amenity":"recycling","recycling:batteries":"yes","recycling:cans":"yes","recycling:glass":"yes","recycling_type":"container"}},"type":"Feature"},
	{"geometry":{"coordinates":[7.618917,47.547429],"type":"Point"},"properties":{"osm_id":"296867705","tag":{"amenity":"recycling","recycling:batteries":"yes","recycling:cans":"yes","recycling:glass":"yes","recycling_type":"container"}},"type":"Feature"},
	{"geometry":{"coordinates":[7.620944,47.551884],"type":"Point"},"properties":{"osm_id":"296867708","tag":{"amenity":"recycling","recycling:batteries":"yes","recycling:cans":"yes","recycling:glass":"yes","recycling_type":"container"}},"type":"Feature"},
	{"geometry":{"coordinates":[7.610192,47.547895],"type":"Point"},"properties":{"osm_id":"296867713","tag":{"amenity":"recycling","location":"underground","recycling:batteries":"yes","recycling:cans":"yes","recycling:glass":"yes","recycling_type":"container"}},"type":"Feature"},
	{"geometry":{"coordinates":[7.605351,47.545903],"type":"Point"},"properties":{"osm_id":"296867716","tag":{"amenity":"recycling","location":"overground","recycling:batteries":"yes","recycling:cans":"yes","recycling:glass":"yes","recycling_type":"container"}},"type":"Feature"},
	{"geometry":{"coordinates":[7.600871,47.548921],"type":"Point"},"properties":{"name":"Recycling Seevogelstrasse","osm_id":"296867719","tag":{"amenity":"recycling","opening_hours":"Mo-Sa 07:00-20:00; PH Su off","recycling:batteries":"yes","recycling:cans":"yes","recycling:glass":"yes","recycling_type":"container"}},"type":"Feature"},
	{"geometry":{"coordinates":[7.598146,47.543598],"type":"Point"},"properties":{"osm_id":"296868201","tag":{"amenity":"recycling","location":"overground","recycling:batteries":"yes","recycling:cans":"yes","recycling:glass":"yes","recycling_type":"container"}},"type":"Feature"},
	{"geometry":{"coordinates":[7.602829,47.539084],"type":"Point"},"properties":{"osm_id":"296868888","tag":{"amenity":"recycling","location":"underground","recycling:batteries":"yes","recycling:cans":"yes","recycling:glass":"yes","recycling_type":"container"}},"type":"Feature"},
	{"geometry":{"coordinates":[7.591792,47.540223],"type":"Point"},"properties":{"osm_id":"296869453","tag":{"amenity":"recycling","location":"overground","recycling:batteries":"yes","recycling:cans":"yes","recycling:glass":"yes","recycling_type":"container"}},"type":"Feature"},
	{"geometry":{"coordinates":[7.612232,47.538575],"type":"Point"},"properties":{"osm_id":"296870053","tag":{"amenity":"recycling","recycling:batteries":"yes","recycling:cans":"yes","recycling:glass":"yes","recycling_type":"container"}},"type":"Feature"},
	{"geometry":{"coordinates":[7.567499,47.559864],"type":"Point"},"properties":{"osm_id":"296872439","tag":{"amenity":"recycling","location":"overground","recycling:batteries":"yes","recycling:cans":"yes","recycling:glass_bottles":"yes","recycling_type":"container"}},"type":"Feature"},
	{"geometry":{"coordinates":[7.562132,47.56588],"type":"Point"},"properties":{"osm_id":"296872649","tag":{"amenity":"recycling","recycling:batteries":"yes","recycling:cans":"yes","recycling:glass":"yes"}},"type":"Feature"},
	{"geometry":{"coordinates":[7.563127,47.567445],"type":"Point"},"properties":{"osm_id":"296872654","tag":{"amenity":"recycling","recycling:batteries":"yes","recycling:cans":"yes","recycling:glass":"yes"}},"type":"Feature"},
	{"geometry":{"coordinates":[7.577243,47.571772],"type":"Point"},"properties":{"osm_id":"296875572","tag":{"amenity":"recycling","recycling:batteries":"yes","recycling:cans":"yes","recycling:glass":"yes"}},"type":"Feature"},
	{"geometry":{"coordinates":[7.579995,47.564395],"type":"Point"},"properties":{"osm_id":"296875752","tag":{"amenity":"recycling","recycling:batteries":"yes","recycling:cans":"yes","recycling:glass":"yes","recycling_type":"container"}},"type":"Feature"},
	{"geometry":{"coordinates":[7.613013,47.522888],"type":"Point"},"properties":{"osm_id":"308930643","tag":{"amenity":"recycling","recycling:cans":"yes","recycling:glass":"yes"}},"type":"Feature"},
	{"geometry":{"coordinates":[7.644144,47.557781],"type":"Point"},"properties":{"osm_id":"310004470","tag":{"amenity":"recycling","recycling:glass":"yes","recycling_type":"container"}},"type":"Feature"},
	{"geometry":{"coordinates":[7.608254,47.521183],"type":"Point"},"properties":{"osm_id":"322851264","tag":{"amenity":"recycling","recycling:aluminium":"yes","recycling:cans":"yes","recycling:clothes":"yes","recycling:glass":"yes","recycling:glass_bottles":"yes"}},"type":"Feature"},
	{"geometry":{"coordinates":[7.644647,47.574149],"type":"Point"},"properties":{"osm_id":"359697797","tag":{"amenity":"recycling","recycling:cans":"yes","recycling:glass":"yes","recycling:scrap_metal":"yes"}},"type":"Feature"},
	{"geometry":{"coordinates":[7.558965,47.542235],"type":"Point"},"properties":{"name":"Bollwerkstrasse","osm_id":"364881457","tag":{"addr:city":"Binningen","addr:postcode":"4102","amenity":"recycling","opening_hours":"Mo-Sa 07:00-12:00, 14:00-20:00; PH Su off","recycling:glass":"yes","recycling:glass_bottles":"yes","recycling_type":"container"}},"type":"Feature"},
	{"geometry":{"coordinates":[7.598024,47.56301],"type":"Point"},"properties":{"osm_id":"586300537","tag":{"amenity":"recycling","location":"overground","recycling:glass":"yes","recycling_type":"container"}},"type":"Feature"},
	{"geometry":{"coordinates":[7.630354,47.572606],"type":"Point"},"properties":{"osm_id":"678895786","tag":{"amenity":"recycling","recycling:clothes":"yes"}},"type":"Feature"},
	{"geometry":{"coordinates":[7.627707,47.535867],"type":"Point"},"properties":{"osm_id":"779666136","tag":{"amenity":"recycling","recycling_type":"container"}},"type":"Feature"},
	{"geometry":{"coordinates":[7.596401,47.568826],"type":"Point"},"properties":{"osm_id":"797076138","tag":{"amenity":"recycling","location":"overground","recycling:cans":"yes","recycling:glass":"no","recycling:glass_bottles":"yes","recycling_type":"container"}},"type":"Feature"},
	{"geometry":{"coordinates":[7.594942,47.567032],"type":"Point"},"properties":{"osm_id":"797076306","tag":{"amenity":"recycling","recycling:batteries":"yes","recycling:cans":"yes","recycling:glass_bottles":"yes","recycling_type":"container"}},"type":"Feature"},
	{"geometry":{"coordinates":[7.633678,47.570561],"type":"Point"},"properties":{"osm_id":"1353746755","tag":{"amenity":"recycling","location":"underground","recycling:glass_bottles":"yes","recycling_type":"container"}},"type":"Feature"},
	{"geometry":{"coordinates":[7.590476,47.570275],"type":"Point"},"properties":{"osm_id":"1516966765","tag":{"amenity":"recycling","location":"underground","recycling:cans":"yes","recycling:glass_bottles":"yes","recycling_type":"container"}},"type":"Feature"},
	{"geometry":{"coordinates":[7.594873,47.542991],"type":"Point"},"properties":{"osm_id":"1598177023","tag":{"amenity":"recycling","recycling:batteries":"yes","recycling:cans":"yes","recycling:clothes":"no","recycling:glass":"yes","recycling:glass_bottles":"yes","recycling:paper":"no","recycling:plastic":"no","recycling_type":"container"}},"type":"Feature"},
	{"geometry":{"coordinates":[7.601054,47.572541],"type":"Point"},"properties":{"osm_id":"1758657968","tag":{"amenity":"waste_basket"}},"type":"Feature"},
	{"geometry":{"coordinates":[7.636763,47.575862],"type":"Point"},"properties":{"osm_id":"1790081092","tag":{"amenity":"recycling","recycling:batteries":"yes","recycling:cans":"yes","recycling:clothes":"yes","recycling:glass":"yes","recycling_type":"container"}},"type":"Feature"},
	{"geometry":{"coordinates":[7.600274,47.559065],"type":"Point"},"properties":{"osm_id":"2273694976","tag":{"amenity":"recycling","location":"overground","recycling_type":"container"}},"type":"Feature"},
	{"geometry":{"coordinates":[7.595682,47.533924],"type":"Point"},"properties":{"name":"TexAid","osm_id":"2372598027","tag":{"amenity":"recycling","recycling:batteries":"no","recycling:cans":"no","recycling:cardboard":"no","recycling:clothes":"yes","recycling:glass":"no","recycling:glass_bottles":"no","recycling:green_waste":"no","recycling:paper":"no","recycling:plastic":"no","recycling:scrap_metal":"no","recycling_type":"container"}},"type":"Feature"},
	{"geometry":{"coordinates":[7.623779,47.555362],"type":"Point"},"properties":{"osm_id":"2392657654","tag":{"amenity":"recycling"}},"type":"Feature"},
	{"geometry":{"coordinates":[7.578201,47.547509],"type":"Point"},"properties":{"osm_id":"2417159134","tag":{"amenity":"waste_basket"}},"type":"Feature"},
	{"geometry":{"coordinates":[7.628159,47.547712],"type":"Point"},"properties":{"osm_id":"2425927637","tag":{"amenity":"recycling"}},"type":"Feature"},
	{"geometry":{"coordinates":[7.622712,47.553683],"type":"Point"},"properties":{"osm_id":"2425927726","tag":{"amenity":"recycling","location":"underground","recycling:cans":"yes","recycling:glass":"yes","recycling_type":"container"}},"type":"Feature"},
	{"geometry":{"coordinates":[7.572014,47.52648],"type":"Point"},"properties":{"osm_id":"2456759429","tag":{"amenity":"recycling","opening_hours":"24/7","recycling:cans":"yes","recycling:glass_bottles":"yes","recycling_type":"container"}},"type":"Feature"},
	{"geometry":{"coordinates":[7.570234,47.55757],"type":"Point"},"properties":{"osm_id":"2482940747","tag":{"amenity":"recycling","opening_hours":"Mo-Sa 08:00-20:00","recycling:batteries":"yes","recycling:cans":"yes","recycling:glass_bottles":"yes","recycling:green_waste":"yes","recycling_type":"container"}},"type":"Feature"},
	{"geometry":{"coordinates":[7.59721,47.533333],"type":"Point"},"properties":{"osm_id":"2564723636","tag":{"amenity":"recycling","recycling:batteries":"yes","recycling:cans":"yes","recycling:cardboard":"no","recycling:clothes":"no","recycling:glass":"yes","recycling:glass_bottles":"yes","recycling:green_waste":"no","recycling:paper":"no","recycling:plastic":"no","recycling:scrap_metal":"no","recycling_type":"container"}},"type":"Feature"},
	{"geometry":{"coordinates":[7.607828,47.539459],"type":"Point"},"properties":{"osm_id":"2817642918","tag":{"amenity":"waste_basket"}},"type":"Feature"},
	{"geometry":{"coordinates":[7.607721,47.539608],"type":"Point"},"properties":{"osm_id":"2817642919","tag":{"amenity":"waste_basket"}},"type":"Feature"},
	{"geometry":{"coordinates":[7.608062,47.539534],"type":"Point"},"properties":{"osm_id":"2817642920","tag":{"amenity":"waste_basket"}},"type":"Feature"},
	{"geometry":{"coordinates":[7.591083,47.549264],"type":"Point"},"properties":{"osm_id":"3151470794","tag":{"amenity":"waste_basket"}},"type":"Feature"},
	{"geometry":{"coordinates":[7.581583,47.558908],"type":"Point"},"properties":{"osm_id":"3443367257","tag":{"amenity":"waste_basket"}},"type":"Feature"},
	{"geometry":{"coordinates":[7.58133,47.558584],"type":"Point"},"properties":{"osm_id":"3443367258","tag":{"amenity":"waste_basket"}},"type":"Feature"},
	{"geometry":{"coordinates":[7.577775,47.545442],"type":"Point"},"properties":{"osm_id":"3801889385","tag":{"amenity":"waste_basket"}},"type":"Feature"},
	{"geometry":{"coordinates":[7.57769,47.545595],"type":"Point"},"properties":{"osm_id":"3801889386","tag":{"amenity":"waste_basket"}},"type":"Feature"},
	{"geometry":{"coordinates":[7.577875,47.545764],"type":"Point"},"properties":{"osm_id":"3801889387","tag":{"amenity":"waste_basket"}},"type":"Feature"},
	{"geometry":{"coordinates":[7.577678,47.546017],"type":"Point"},"properties":{"osm_id":"3801889388","tag":{"amenity":"waste_basket"}},"type":"Feature"},
	{"geometry":{"coordinates":[7.577764,47.546081],"type":"Point"},"properties":{"osm_id":"3801889390","tag":{"amenity":"waste_basket"}},"type":"Feature"},
	{"geometry":{"coordinates":[7.577287,47.546273],"type":"Point"},"properties":{"osm_id":"3801889391","tag":{"amenity":"waste_basket"}},"type":"Feature"},
	{"geometry":{"coordinates":[7.578067,47.546316],"type":"Point"},"properties":{"osm_id":"3801889394","tag":{"amenity":"waste_basket"}},"type":"Feature"},
	{"geometry":{"coordinates":[7.579109,47.54707],"type":"Point"},"properties":{"osm_id":"3801889396","tag":{"amenity":"waste_basket"}},"type":"Feature"},
	{"geometry":{"coordinates":[7.590612,47.532451],"type":"Point"},"properties":{"osm_id":"3809635743","tag":{"amenity":"waste_basket"}},"type":"Feature"},
	{"geometry":{"coordinates":[7.604674,47.55273],"type":"Point"},"properties":{"osm_id":"3809711271","tag":{"amenity":"waste_basket"}},"type":"Feature"},
	{"geometry":{"coordinates":[7.6262,47.562479],"type":"Point"},"properties":{"osm_id":"3813570996","tag":{"amenity":"waste_basket"}},"type":"Feature"},
	{"geometry":{"coordinates":[7.569433,47.548855],"type":"Point"},"properties":{"osm_id":"3813669953","tag":{"amenity":"waste_basket"}},"type":"Feature"},
	{"geometry":{"coordinates":[7.59354,47.532496],"type":"Point"},"properties":{"osm_id":"3815109830","tag":{"amenity":"waste_basket"}},"type":"Feature"},
	{"geometry":{"coordinates":[7.565294,47.552225],"type":"Point"},"properties":{"osm_id":"3816695428","tag":{"amenity":"waste_basket"}},"type":"Feature"},
	{"geometry":{"coordinates":[7.564534,47.561109],"type":"Point"},"properties":{"osm_id":"3820481737","tag":{"amenity":"waste_basket"}},"type":"Feature"},
	{"geometry":{"coordinates":[7.564216,47.561136],"type":"Point"},"properties":{"osm_id":"3820481739","tag":{"amenity":"waste_basket"}},"type":"Feature"},
	{"geometry":{"coordinates":[7.592928,47.542013],"type":"Point"},"properties":{"osm_id":"3826532694","tag":{"amenity":"waste_basket"}},"type":"Feature"},
	{"geometry":{"coordinates":[7.600206,47.568043],"type":"Point"},"properties":{"osm_id":"3826865813","tag":{"amenity":"waste_basket"}},"type":"Feature"},
	{"geometry":{"coordinates":[7.602982,47.569179],"type":"Point"},"properties":{"osm_id":"3830264075","tag":{"amenity":"waste_basket"}},"type":"Feature"},
	{"geometry":{"coordinates":[7.602722,47.569234],"type":"Point"},"properties":{"osm_id":"3830264082","tag":{"amenity":"waste_basket"}},"type":"Feature"},
	{"geometry":{"coordinates":[7.603011,47.569348],"type":"Point"},"properties":{"osm_id":"3830264089","tag":{"amenity":"recycling","recycling:batteries":"yes","recycling:cans":"yes","recycling:glass_bottles":"yes","recycling_type":"container"}},"type":"Feature"},
	{"geometry":{"coordinates":[7.60303,47.569354],"type":"Point"},"properties":{"osm_id":"3830264090","tag":{"amenity":"recycling","recycling_type":"container"}},"type":"Feature"},
	{"geometry":{"coordinates":[7.603048,47.56936],"type":"Point"},"properties":{"osm_id":"3830264091","tag":{"amenity":"recycling","recycling_type":"container"}},"type":"Feature"},
	{"geometry":{"coordinates":[7.603068,47.569366],"type":"Point"},"properties":{"osm_id":"3830264092","tag":{"amenity":"recycling","recycling_type":"container"}},"type":"Feature"},
	{"geometry":{"coordinates":[7.603087,47.569372],"type":"Point"},"properties":{"osm_id":"3830264094","tag":{"amenity":"recycling","recycling_type":"container"}},"type":"Feature"},
	{"geometry":{"coordinates":[7.603107,47.569378],"type":"Point"},"properties":{"osm_id":"3830264097","tag":{"amenity":"recycling","recycling_type":"container"}},"type":"Feature"},
	{"geometry":{"coordinates":[7.620705,47.550567],"type":"Point"},"properties":{"osm_id":"3830273622","tag":{"amenity":"waste_basket"}},"type":"Feature"},
	{"geometry":{"coordinates":[7.621456,47.551463],"type":"Point"},"properties":{"osm_id":"3830273643","tag":{"amenity":"waste_basket"}},"type":"Feature"},
	{"geometry":{"coordinates":[7.591141,47.566095],"type":"Point"},"properties":{"osm_id":"3830314958","tag":{"amenity":"waste_basket"}},"type":"Feature"},
	{"geometry":{"coordinates":[7.591117,47.566156],"type":"Point"},"properties":{"osm_id":"3830314960","tag":{"amenity":"waste_basket"}},"type":"Feature"},
	{"geometry":{"coordinates":[7.5918,47.566312],"type":"Point"},"properties":{"osm_id":"3830314971","tag":{"amenity":"waste_basket"}},"type":"Feature"},
	{"geometry":{"coordinates":[7.591891,47.566329],"type":"Point"},"properties":{"osm_id":"3830314973","tag":{"amenity":"waste_basket"}},"type":"Feature"},
	{"geometry":{"coordinates":[7.59077,47.566688],"type":"Point"},"properties":{"osm_id":"3830314992","tag":{"amenity":"waste_basket"}},"type":"Feature"},
	{"geometry":{"coordinates":[7.568113,47.552685],"type":"Point"},"properties":{"osm_id":"3830395985","tag":{"amenity":"waste_basket"}},"type":"Feature"},
	{"geometry":{"coordinates":[7.606595,47.549527],"type":"Point"},"properties":{"osm_id":"3830588541","tag":{"amenity":"waste_basket"}},"type":"Feature"},
	{"geometry":{"coordinates":[7.620678,47.54418],"type":"Point"},"properties":{"osm_id":"3830665853","tag":{"amenity":"waste_basket"}},"type":"Feature"},
	{"geometry":{"coordinates":[7.618912,47.544485],"type":"Point"},"properties":{"osm_id":"3830666269","tag":{"amenity":"waste_basket"}},"type":"Feature"},
	{"geometry":{"coordinates":[7.594911,47.567027],"type":"Point"},"properties":{"osm_id":"3830738861","tag":{"amenity":"recycling","recycling:batteries":"yes","recycling:cans":"yes","recycling:glass_bottles":"yes","recycling_type":"container"}},"type":"Feature"},
	{"geometry":{"coordinates":[7.594965,47.567036],"type":"Point"},"properties":{"osm_id":"3830738862","tag":{"amenity":"recycling","recycling:glass_bottles":"yes","recycling_type":"container"}},"type":"Feature"},
	{"geometry":{"coordinates":[7.594991,47.56704],"type":"Point"},"properties":{"osm_id":"3830738863","tag":{"amenity":"recycling","recycling:glass_bottles":"yes","recycling_type":"container"}},"type":"Feature"},
	{"geometry":{"coordinates":[7.595014,47.567045],"type":"Point"},"properties":{"osm_id":"3830738864","tag":{"amenity":"recycling","recycling:glass_bottles":"yes","recycling_type":"container"}},"type":"Feature"},
	{"geometry":{"coordinates":[7.59504,47.567049],"type":"Point"},"properties":{"osm_id":"3830738865","tag":{"amenity":"recycling","recycling:cans":"yes","recycling:glass_bottles":"yes","recycling_type":"container"}},"type":"Feature"},
	{"geometry":{"coordinates":[7.618696,47.565795],"type":"Point"},"properties":{"osm_id":"3832285793","tag":{"amenity":"waste_basket"}},"type":"Feature"},
	{"geometry":{"coordinates":[7.619192,47.565879],"type":"Point"},"properties":{"osm_id":"3832285808","tag":{"amenity":"waste_basket"}},"type":"Feature"},
	{"geometry":{"coordinates":[7.60929,47.547919],"type":"Point"},"properties":{"osm_id":"3832435778","tag":{"amenity":"waste_basket"}},"type":"Feature"},
	{"geometry":{"coordinates":[7.633451,47.569499],"type":"Point"},"properties":{"osm_id":"3832724166","tag":{"amenity":"waste_basket"}},"type":"Feature"},
	{"geometry":{"coordinates":[7.633024,47.570303],"type":"Point"},"properties":{"osm_id":"3832724201","tag":{"amenity":"waste_basket"}},"type":"Feature"},
	{"geometry":{"coordinates":[7.632824,47.570329],"type":"Point"},"properties":{"osm_id":"3832724208","tag":{"amenity":"waste_basket"}},"type":"Feature"},
	{"geometry":{"coordinates":[7.609807,47.554126],"type":"Point"},"properties":{"osm_id":"3833797278","tag":{"amenity":"waste_basket"}},"type":"Feature"},
	{"geometry":{"coordinates":[7.6464,47.575192],"type":"Point"},"properties":{"osm_id":"3840925368","tag":{"amenity":"waste_basket"}},"type":"Feature"},
	{"geometry":{"coordinates":[7.634829,47.57587],"type":"Point"},"properties":{"osm_id":"3842152063","tag":{"amenity":"waste_basket"}},"type":"Feature"},
	{"geometry":{"coordinates":[7.636599,47.568417],"type":"Point"},"properties":{"osm_id":"3842186400","tag":{"amenity":"waste_basket"}},"type":"Feature"},
	{"geometry":{"coordinates":[7.637159,47.56852],"type":"Point"},"properties":{"osm_id":"3842186402","tag":{"amenity":"waste_basket"}},"type":"Feature"},
	{"geometry":{"coordinates":[7.63683,47.568713],"type":"Point"},"properties":{"osm_id":"3842186428","tag":{"amenity":"waste_basket"}},"type":"Feature"},
	{"geometry":{"coordinates":[7.57818,47.543636],"type":"Point"},"properties":{"osm_id":"3846251104","tag":{"amenity":"waste_basket"}},"type":"Feature"},
	{"geometry":{"coordinates":[7.578046,47.543647],"type":"Point"},"properties":{"osm_id":"3846251105","tag":{"amenity":"waste_basket"}},"type":"Feature"},
	{"geometry":{"coordinates":[7.606003,47.568106],"type":"Point"},"properties":{"osm_id":"3849772158","tag":{"amenity":"recycling","recycling:batteries":"yes","recycling:cans":"yes","recycling:glass_bottles":"yes","recycling_type":"container"}},"type":"Feature"},
	{"geometry":{"coordinates":[7.645582,47.523438],"type":"Point"},"properties":{"osm_id":"3860518707","tag":{"amenity":"waste_basket"}},"type":"Feature"},
	{"geometry":{"coordinates":[7.61908,47.554609],"type":"Point"},"properties":{"osm_id":"3860685520","tag":{"amenity":"waste_basket"}},"type":"Feature"},
	{"geometry":{"coordinates":[7.628468,47.555015],"type":"Point"},"properties":{"osm_id":"3860705169","tag":{"amenity":"waste_basket"}},"type":"Feature"},
	{"geometry":{"coordinates":[7.622412,47.54775],"type":"Point"},"properties":{"osm_id":"4031360373","tag":{"amenity":"waste_basket"}},"type":"Feature"},
	{"geometry":{"coordinates":[7.589164,47.547145],"type":"Point"},"properties":{"osm_id":"4532883750","tag":{"amenity":"waste_basket","level":"1"}},"type":"Feature"},
	{"geometry":{"coordinates":[7.600309,47.548693],"type":"Point"},"properties":{"name":"Kompostplatz Seevogelstrasse","osm_id":"4796116533","tag":{"amenity":"recycling","opening_hours":"Sa 09:00-10:00","recycling:organic":"yes","recycling_type":"centre"}},"type":"Feature"},
	{"geometry":{"coordinates":[7.560308,47.528881],"type":"Point"},"properties":{"osm_id":"4922827217","tag":{"amenity":"waste_basket"}},"type":"Feature"},
	{"geometry":{"coordinates":[7.561159,47.530053],"type":"Point"},"properties":{"osm_id":"4922827218","tag":{"amenity":"waste_basket"}},"type":"Feature"},
	{"geometry":{"coordinates":[7.559743,47.534736],"type":"Point"},"properties":{"osm_id":"5290427744","tag":{"amenity":"waste_basket"}},"type":"Feature"},
	{"geometry":{"coordinates":[7.590114,47.534697],"type":"Point"},"properties":{"osm_id":"5638345097","tag":{"amenity":"waste_basket","vending":"excrement_bags"}},"type":"Feature"},
	{"geometry":{"coordinates":[7.583359,47.538122],"type":"Point"},"properties":{"osm_id":"5638345098","tag":{"amenity":"waste_basket","backrest":"yes","material":"steel","vending":"excrement_bags"}},"type":"Feature"},
	{"geometry":{"coordinates":[7.609548,47.575811],"type":"Point"},"properties":{"osm_id":"5650144748","tag":{"amenity":"waste_disposal"}},"type":"Feature"},
	{"geometry":{"coordinates":[7.609686,47.575815],"type":"Point"},"properties":{"osm_id":"5650144750","tag":{"amenity":"waste_basket"}},"type":"Feature"},
	{"geometry":{"coordinates":[7.560043,47.560349],"type":"Point"},"properties":{"osm_id":"5658662078","tag":{"amenity":"recycling","recycling:clothes":"yes","recycling_type":"container"}},"type":"Feature"},
	{"geometry":{"coordinates":[7.562565,47.558601],"type":"Point"},"properties":{"osm_id":"5658662079","tag":{"amenity":"waste_basket","waste":"dog_excrement"}},"type":"Feature"},
	{"geometry":{"coordinates":[7.56416,47.556339],"type":"Point"},"properties":{"osm_id":"5658684563","tag":{"amenity":"waste_basket"}},"type":"Feature"},
	{"geometry":{"coordinates":[7.562746,47.554351],"type":"Point"},"properties":{"osm_id":"5658684571","tag":{"amenity":"waste_basket"}},"type":"Feature"},
	{"geometry":{"coordinates":[7.561531,47.551962],"type":"Point"},"properties":{"osm_id":"5658684572","tag":{"amenity":"waste_basket"}},"type":"Feature"},
	{"geometry":{"coordinates":[7.560035,47.548538],"type":"Point"},"properties":{"osm_id":"5658684574","tag":{"amenity":"waste_basket"}},"type":"Feature"},
	{"geometry":{"coordinates":[7.564768,47.539819],"type":"Point"},"properties":{"name":"Neubadrain","osm_id":"5658822424","tag":{"addr:city":"Binningen","addr:postcode":"4102","amenity":"recycling","opening_hours":"Mo-Sa 07:00-12:00, 14:00-20:00; PH Su off","recycling:glass":"yes","recycling:glass_bottles":"yes","recycling_type":"container"}},"type":"Feature"},
	{"geometry":{"coordinates":[7.579349,47.554444],"type":"Point"},"properties":{"osm_id":"5700775713","tag":{"amenity":"waste_basket","waste":"trash"}},"type":"Feature"},
	{"geometry":{"coordinates":[7.581338,47.556124],"type":"Point"},"properties":{"osm_id":"5700775715","tag":{"amenity":"waste_basket","waste":"trash"}},"type":"Feature"},
	{"geometry":{"coordinates":[7.579734,47.554942],"type":"Point"},"properties":{"osm_id":"5700775716","tag":{"amenity":"waste_basket","waste":"trash"}},"type":"Feature"},
	{"geometry":{"coordinates":[7.580936,47.556078],"type":"Point"},"properties":{"osm_id":"5700775719","tag":{"amenity":"waste_basket","waste":"trash"}},"type":"Feature"},
	{"geometry":{"coordinates":[7.579184,47.55466],"type":"Point"},"properties":{"osm_id":"5700775720","tag":{"amenity":"waste_basket","waste":"trash"}},"type":"Feature"},
	{"geometry":{"coordinates":[7.575348,47.553831],"type":"Point"},"properties":{"osm_id":"5700776221","tag":{"amenity":"waste_basket","waste":"trash"}},"type":"Feature"},
	{"geometry":{"coordinates":[7.613967,47.528757],"type":"Point"},"properties":{"osm_id":"5750162658","tag":{"amenity":"waste_basket"}},"type":"Feature"},
	{"geometry":{"coordinates":[7.615038,47.528342],"type":"Point"},"properties":{"osm_id":"5750162662","tag":{"amenity":"waste_basket"}},"type":"Feature"},
	{"geometry":{"coordinates":[7.615463,47.528196],"type":"Point"},"properties":{"osm_id":"5750162666","tag":{"amenity":"waste_basket"}},"type":"Feature"},
	{"geometry":{"coordinates":[7.633794,47.522619],"type":"Point"},"properties":{"osm_id":"5750162680","tag":{"amenity":"waste_basket"}},"type":"Feature"},
	{"geometry":{"coordinates":[7.635293,47.521664],"type":"Point"},"properties":{"osm_id":"5750162682","tag":{"amenity":"waste_basket"}},"type":"Feature"},
	{"geometry":{"coordinates":[7.636525,47.52097],"type":"Point"},"properties":{"osm_id":"5750162683","tag":{"amenity":"waste_basket","waste":"dog_excrement"}},"type":"Feature"},
	{"geometry":{"coordinates":[7.613524,47.51831],"type":"Point"},"properties":{"osm_id":"5793113807","tag":{"amenity":"waste_basket"}},"type":"Feature"},
	{"geometry":{"coordinates":[7.616858,47.519852],"type":"Point"},"properties":{"osm_id":"5793166398","tag":{"amenity":"waste_basket"}},"type":"Feature"},
	{"geometry":{"coordinates":[7.617047,47.519915],"type":"Point"},"properties":{"osm_id":"5793166472","tag":{"amenity":"waste_basket"}},"type":"Feature"},
	{"geometry":{"coordinates":[7.600748,47.519066],"type":"Point"},"properties":{"osm_id":"5793683410","tag":{"amenity":"waste_basket"}},"type":"Feature"},
	{"geometry":{"coordinates":[7.604694,47.525568],"type":"Point"},"properties":{"osm_id":"5793723538","tag":{"amenity":"waste_basket"}},"type":"Feature"},
	{"geometry":{"coordinates":[7.574782,47.543758],"type":"Point"},"properties":{"name":"Kernmattstrasse","osm_id":"5873880495","tag":{"addr:city":"Binningen","addr:postcode":"4102","amenity":"recycling","location":"underground","opening_hours":"Mo-Sa 07:00-12:00, 14:00-20:00; PH Su off","recycling:cans":"yes","recycling:glass":"yes","recycling:glass_bottles":"yes","recycling_type":"container"}},"type":"Feature"},
	{"geometry":{"coordinates":[7.572386,47.532734],"type":"Point"},"properties":{"name":"Gorenmattstrasse","osm_id":"5873889494","tag":{"addr:city":"Binningen","addr:postcode":"4102","amenity":"recycling","location":"underground","opening_hours":"Mo-Sa 07:00-12:00, 14:00-20:00; PH Su off","recycling:cans":"yes","recycling:glass":"yes","recycling:glass_bottles":"yes","recycling_type":"container"}},"type":"Feature"},
	{"geometry":{"coordinates":[7.567172,47.534897],"type":"Point"},"properties":{"name":"Benkenstrasse","osm_id":"5873889495","tag":{"addr:city":"Binningen","addr:postcode":"4102","amenity":"recycling","opening_hours":"Mo-Sa 07:00-12:00, 14:00-20:00; PH Su off","recycling:cans":"yes","recycling:clothes":"yes","recycling:glass":"yes","recycling:glass_bottles":"yes","recycling_type":"container"}},"type":"Feature"},
	{"geometry":{"coordinates":[7.572528,47.53909],"type":"Point"},"properties":{"name":"Weihermattstrasse","osm_id":"5873889496","tag":{"addr:city":"Binningen","addr:postcode":"4102","amenity":"recycling","opening_hours":"Mo-Sa 07:00-12:00, 14:00-20:00; PH Su off","recycling:cans":"yes","recycling:glass":"yes","recycling:glass_bottles":"yes","recycling_type":"container"}},"type":"Feature"},
	{"geometry":{"coordinates":[7.570223,47.530401],"type":"Point"},"properties":{"name":"Lindenstrasse","osm_id":"5873892793","tag":{"addr:city":"Binningen","addr:postcode":"4102","amenity":"recycling","location":"underground","opening_hours":"Mo-Sa 07:00-12:00, 14:00-20:00; PH Su off","recycling:glass":"yes","recycling:glass_bottles":"yes","recycling_type":"container"}},"type":"Feature"},
	{"geometry":{"coordinates":[7.575,47.540742],"type":"Point"},"properties":{"name":"Dorfplatz","osm_id":"5873902997","tag":{"addr:city":"Binningen","addr:postcode":"4102","amenity":"recycling","location":"underground","opening_hours":"Mo-Sa 07:00-12:00, 14:00-20:00; PH Su off","recycling:glass":"yes","recycling:glass_bottles":"yes","recycling_type":"container"}},"type":"Feature"},
	{"geometry":{"coordinates":[7.576197,47.537518],"type":"Point"},"properties":{"name":"Bruderholzstrasse","osm_id":"5873902998","tag":{"addr:city":"Binningen","addr:postcode":"4102","amenity":"recycling","opening_hours":"Mo-Sa 07:00-12:00, 14:00-20:00; PH Su off","recycling:cans":"yes","recycling:glass":"yes","recycling:glass_bottles":"yes","recycling_type":"container"}},"type":"Feature"},
	{"geometry":{"coordinates":[7.573214,47.53506],"type":"Point"},"properties":{"name":"Parkstrasse","osm_id":"5873904555","tag":{"addr:city":"Binningen","addr:postcode":"4102","amenity":"recycling","opening_hours":"Mo-Sa 07:00-12:00, 14:00-20:00; PH Su off","recycling:cans":"yes","recycling:glass":"yes","recycling:glass_bottles":"yes","recycling_type":"container"}},"type":"Feature"},
	{"geometry":{"coordinates":[7.588061,47.555239],"type":"Point"},"properties":{"osm_id":"6139984112","tag":{"amenity":"waste_basket"}},"type":"Feature"},
	{"geometry":{"coordinates":[7.576844,47.526721],"type":"Point"},"properties":{"osm_id":"6296416870","tag":{"amenity":"waste_basket"}},"type":"Feature"},
	{"geometry":{"coordinates":[7.578261,47.52663],"type":"Point"},"properties":{"osm_id":"6297794288","tag":{"amenity":"waste_basket","waste":"trash"}},"type":"Feature"},
	{"geometry":{"coordinates":[7.580934,47.529395],"type":"Point"},"properties":{"osm_id":"6301698016","tag":{"amenity":"waste_basket","waste":"trash"}},"type":"Feature"},
	{"geometry":{"coordinates":[7.580028,47.531055],"type":"Point"},"properties":{"osm_id":"6301698019","tag":{"amenity":"waste_basket","waste":"trash"}},"type":"Feature"},
	{"geometry":{"coordinates":[7.579163,47.532367],"type":"Point"},"properties":{"osm_id":"6301698022","tag":{"amenity":"waste_basket","waste":"trash"}},"type":"Feature"},
	{"geometry":{"coordinates":[7.578464,47.532923],"type":"Point"},"properties":{"osm_id":"6301698024","tag":{"amenity":"waste_basket","waste":"trash"}},"type":"Feature"},
	{"geometry":{"coordinates":[7.583332,47.53809],"type":"Point"},"properties":{"osm_id":"6343141730","tag":{"amenity":"waste_basket"}},"type":"Feature"},
	{"geometry":{"coordinates":[7.581884,47.535576],"type":"Point"},"properties":{"osm_id":"6343141736","tag":{"amenity":"waste_basket"}},"type":"Feature"},
	{"geometry":{"coordinates":[7.581155,47.534832],"type":"Point"},"properties":{"osm_id":"6343141745","tag":{"amenity":"waste_basket"}},"type":"Feature"},
	{"geometry":{"coordinates":[7.58074,47.533167],"type":"Point"},"properties":{"osm_id":"6343141746","tag":{"amenity":"waste_basket","waste":"dog_excrement"}},"type":"Feature"},
	{"geometry":{"coordinates":[7.579563,47.554869],"type":"Point"},"properties":{"osm_id":"6372374386","tag":{"amenity":"waste_basket","waste":"trash"}},"type":"Feature"},
	{"geometry":{"coordinates":[7.579705,47.554607],"type":"Point"},"properties":{"osm_id":"6372374387","tag":{"amenity":"waste_basket","waste":"trash"}},"type":"Feature"},
	{"geometry":{"coordinates":[7.580817,47.55796],"type":"Point"},"properties":{"osm_id":"6372419797","tag":{"amenity":"waste_basket","waste":"trash"}},"type":"Feature"},
	{"geometry":{"coordinates":[7.581274,47.558217],"type":"Point"},"properties":{"osm_id":"6372461432","tag":{"amenity":"waste_basket","waste":"trash"}},"type":"Feature"},
	{"geometry":{"coordinates":[7.58129,47.558079],"type":"Point"},"properties":{"osm_id":"6372461433","tag":{"amenity":"waste_basket","waste":"trash"}},"type":"Feature"},
	{"geometry":{"coordinates":[7.58122,47.557954],"type":"Point"},"properties":{"osm_id":"6372461441","tag":{"amenity":"waste_basket","waste":"trash"}},"type":"Feature"},
	{"geometry":{"coordinates":[7.588019,47.555404],"type":"Point"},"properties":{"osm_id":"6372546374","tag":{"amenity":"waste_basket","waste":"trash"}},"type":"Feature"},
	{"geometry":{"coordinates":[7.58269,47.550315],"type":"Point"},"properties":{"osm_id":"6411847536","tag":{"amenity":"waste_basket"}},"type":"Feature"},
	{"geometry":{"coordinates":[7.582578,47.550346],"type":"Point"},"properties":{"osm_id":"6411847538","tag":{"amenity":"waste_basket"}},"type":"Feature"},
	{"geometry":{"coordinates":[7.585009,47.526478],"type":"Point"},"properties":{"osm_id":"6497811416","tag":{"amenity":"waste_basket"}},"type":"Feature"},
	{"geometry":{"coordinates":[7.575881,47.529187],"type":"Point"},"properties":{"osm_id":"6497819134","tag":{"amenity":"waste_basket"}},"type":"Feature"},
	{"geometry":{"coordinates":[7.583578,47.526284],"type":"Point"},"properties":{"osm_id":"6497821824","tag":{"amenity":"waste_basket"}},"type":"Feature"},
	{"geometry":{"coordinates":[7.583624,47.526395],"type":"Point"},"properties":{"osm_id":"6497823504","tag":{"amenity":"waste_basket"}},"type":"Feature"},
	{"geometry":{"coordinates":[7.587261,47.526522],"type":"Point"},"properties":{"osm_id":"6497824420","tag":{"amenity":"waste_basket"}},"type":"Feature"},
	{"geometry":{"coordinates":[7.589577,47.52426],"type":"Point"},"properties":{"osm_id":"6497826047","tag":{"amenity":"waste_basket"}},"type":"Feature"},
	{"geometry":{"coordinates":[7.589452,47.522315],"type":"Point"},"properties":{"osm_id":"6497829934","tag":{"amenity":"waste_basket"}},"type":"Feature"},
	{"geometry":{"coordinates":[7.643751,47.532791],"type":"Point"},"properties":{"osm_id":"6497894861","tag":{"amenity":"recycling","recycling:cans":"yes","recycling:glass_bottles":"yes","recycling:scrap_metal":"yes","recycling_type":"container"}},"type":"Feature"},
	{"geometry":{"coordinates":[7.57336,47.531755],"type":"Point"},"properties":{"osm_id":"6499605016","tag":{"amenity":"waste_basket","waste":"trash"}},"type":"Feature"},
	{"geometry":{"coordinates":[7.58674,47.521312],"type":"Point"},"properties":{"osm_id":"6516449183","tag":{"amenity":"waste_basket"}},"type":"Feature"},
	{"geometry":{"coordinates":[7.585842,47.521251],"type":"Point"},"properties":{"osm_id":"6516565544","tag":{"amenity":"waste_basket"}},"type":"Feature"},
	{"geometry":{"coordinates":[7.578669,47.521548],"type":"Point"},"properties":{"osm_id":"6516576054","tag":{"amenity":"waste_basket"}},"type":"Feature"},
	{"geometry":{"coordinates":[7.619845,47.557331],"type":"Point"},"properties":{"osm_id":"6685138337","tag":{"amenity":"recycling","recycling_type":"container"}},"type":"Feature"},
	{"geometry":{"coordinates":[7.619645,47.558174],"type":"Point"},"properties":{"osm_id":"6685138357","tag":{"amenity":"waste_basket"}},"type":"Feature"},
	{"geometry":{"coordinates":[7.610275,47.563345],"type":"Point"},"properties":{"osm_id":"6764478571","tag":{"amenity":"waste_basket"}},"type":"Feature"},
	{"geometry":{"coordinates":[7.610781,47.562654],"type":"Point"},"properties":{"osm_id":"6764730930","tag":{"amenity":"waste_basket","material":"metal"}},"type":"Feature"},
	{"geometry":{"coordinates":[7.609325,47.56172],"type":"Point"},"properties":{"osm_id":"6764842376","tag":{"amenity":"waste_basket"}},"type":"Feature"},
	{"geometry":{"coordinates":[7.609599,47.561194],"type":"Point"},"properties":{"osm_id":"6764845989","tag":{"amenity":"waste_basket"}},"type":"Feature"},
	{"geometry":{"coordinates":[7.60956,47.560948],"type":"Point"},"properties":{"osm_id":"6764845995","tag":{"amenity":"waste_basket"}},"type":"Feature"},
	{"geometry":{"coordinates":[7.609632,47.56084],"type":"Point"},"properties":{"osm_id":"6764846003","tag":{"amenity":"waste_basket"}},"type":"Feature"},
	{"geometry":{"coordinates":[7.610111,47.559568],"type":"Point"},"properties":{"osm_id":"6764846021","tag":{"amenity":"waste_basket"}},"type":"Feature"},
	{"geometry":{"coordinates":[7.610359,47.563369],"type":"Point"},"properties":{"osm_id":"6764861989","tag":{"amenity":"waste_basket"}},"type":"Feature"},
	{"geometry":{"coordinates":[7.57444,47.551188],"type":"Point"},"properties":{"osm_id":"6767475379","tag":{"amenity":"waste_basket"}},"type":"Feature"},
	{"geometry":{"coordinates":[7.588072,47.560051],"type":"Point"},"properties":{"osm_id":"6770357466","tag":{"amenity":"waste_basket"}},"type":"Feature"},
	{"geometry":{"coordinates":[7.588919,47.554004],"type":"Point"},"properties":{"osm_id":"6779697939","tag":{"amenity":"waste_basket"}},"type":"Feature"},
	{"geometry":{"coordinates":[7.590068,47.573655],"type":"Point"},"properties":{"osm_id":"6780087334","tag":{"amenity":"waste_basket"}},"type":"Feature"},
	{"geometry":{"coordinates":[7.591461,47.563778],"type":"Point"},"properties":{"osm_id":"6780093402","tag":{"amenity":"waste_basket"}},"type":"Feature"},
	{"geometry":{"coordinates":[7.609193,47.559119],"type":"Point"},"properties":{"osm_id":"6780219490","tag":{"amenity":"waste_basket"}},"type":"Feature"},
	{"geometry":{"coordinates":[7.585851,47.561787],"type":"Point"},"properties":{"osm_id":"6800087753","tag":{"amenity":"waste_basket"}},"type":"Feature"},
	{"geometry":{"coordinates":[7.585649,47.561916],"type":"Point"},"properties":{"osm_id":"6800087759","tag":{"amenity":"waste_basket"}},"type":"Feature"},
	{"geometry":{"coordinates":[7.585506,47.562057],"type":"Point"},"properties":{"osm_id":"6800087761","tag":{"amenity":"waste_basket"}},"type":"Feature"},
	{"geometry":{"coordinates":[7.576224,47.563093],"type":"Point"},"properties":{"osm_id":"6802268728","tag":{"amenity":"waste_basket","indoor":"no","material":"plastic","waste":"trash"}},"type":"Feature"},
	{"geometry":{"coordinates":[7.614316,47.555393],"type":"Point"},"properties":{"osm_id":"6815680930","tag":{"amenity":"recycling","recycling_type":"container"}},"type":"Feature"},
	{"geometry":{"coordinates":[7.614293,47.55539],"type":"Point"},"properties":{"osm_id":"6815680931","tag":{"amenity":"recycling","recycling_type":"container"}},"type":"Feature"},
	{"geometry":{"coordinates":[7.614268,47.555387],"type":"Point"},"properties":{"osm_id":"6815680932","tag":{"amenity":"recycling","recycling_type":"container"}},"type":"Feature"},
	{"geometry":{"coordinates":[7.59984,47.56557],"type":"Point"},"properties":{"osm_id":"6854092818","tag":{"amenity":"waste_basket"}},"type":"Feature"},
	{"geometry":{"coordinates":[7.602959,47.57516],"type":"Point"},"properties":{"osm_id":"6861490912","tag":{"amenity":"waste_basket"}},"type":"Feature"},
	{"geometry":{"coordinates":[7.61271,47.57609],"type":"Point"},"properties":{"osm_id":"6861490922","tag":{"amenity":"waste_basket"}},"type":"Feature"},
	{"geometry":{"coordinates":[7.618828,47.576195],"type":"Point"},"properties":{"osm_id":"6861490943","tag":{"amenity":"waste_basket"}},"type":"Feature"},
	{"geometry":{"coordinates":[7.609762,47.575307],"type":"Point"},"properties":{"osm_id":"6861490953","tag":{"amenity":"waste_basket"}},"type":"Feature"},
	{"geometry":{"coordinates":[7.606541,47.574969],"type":"Point"},"properties":{"osm_id":"6861490955","tag":{"amenity":"waste_basket"}},"type":"Feature"},
	{"geometry":{"coordinates":[7.610333,47.559645],"type":"Point"},"properties":{"osm_id":"6987887703","tag":{"amenity":"waste_basket"}},"type":"Feature"},
	{"geometry":{"coordinates":[7.577299,47.553326],"type":"Point"},"properties":{"osm_id":"7086421597","tag":{"amenity":"waste_basket"}},"type":"Feature"},
	{"geometry":{"coordinates":[7.598053,47.574407],"type":"Point"},"properties":{"osm_id":"7384251996","tag":{"amenity":"waste_basket","waste":"trash"}},"type":"Feature"},
	{"geometry":{"coordinates":[7.58622,47.559226],"type":"Point"},"properties":{"osm_id":"7438234087","tag":{"amenity":"waste_basket","waste":"trash"}},"type":"Feature"},
	{"geometry":{"coordinates":[7.586272,47.559362],"type":"Point"},"properties":{"osm_id":"7438234091","tag":{"amenity":"waste_basket","waste":"trash"}},"type":"Feature"},
	{"geometry":{"coordinates":[7.587534,47.556706],"type":"Point"},"properties":{"osm_id":"7525358093","tag":{"amenity":"waste_basket","material":"metal","waste":"trash"}},"type":"Feature"},
	{"geometry":{"coordinates":[7.570633,47.557334],"type":"Point"},"properties":{"osm_id":"7596191751","tag":{"amenity":"waste_basket","waste":"trash"}},"type":"Feature"},
	{"geometry":{"coordinates":[7.572965,47.557573],"type":"Point"},"properties":{"osm_id":"7598139858","tag":{"amenity":"waste_basket"}},"type":"Feature"},
	{"geometry":{"coordinates":[7.581949,47.523441],"type":"Point"},"properties":{"osm_id":"7598661101","tag":{"amenity":"waste_basket","waste":"dog_excrement"}},"type":"Feature"},
	{"geometry":{"coordinates":[7.582763,47.526479],"type":"Point"},"properties":{"osm_id":"7598698986","tag":{"amenity":"waste_basket","waste":"dog_excrement"}},"type":"Feature"},
	{"geometry":{"coordinates":[7.6051,47.573],"type":"Point"},"properties":{"osm_id":"7727035124","tag":{"amenity":"waste_basket"}},"type":"Feature"},
	{"geometry":{"coordinates":[7.618729,47.560295],"type":"Point"},"properties":{"osm_id":"7770536675","tag":{"amenity":"recycling","recycling:aluminium":"yes","recycling:batteries":"yes","recycling:cans":"yes","recycling:glass_bottles":"yes","recycling:scrap_metal":"yes","recycling_type":"container"}},"type":"Feature"},
	{"geometry":{"coordinates":[7.619307,47.571948],"type":"Point"},"properties":{"osm_id":"7777748319","tag":{"amenity":"waste_basket"}},"type":"Feature"},
	{"geometry":{"coordinates":[7.617991,47.569112],"type":"Point"},"properties":{"osm_id":"7777759290","tag":{"amenity":"waste_basket"}},"type":"Feature"},
	{"geometry":{"coordinates":[7.628956,47.570646],"type":"Point"},"properties":{"osm_id":"7809567281","tag":{"amenity":"waste_basket"}},"type":"Feature"},
	{"geometry":{"coordinates":[7.619815,47.566317],"type":"Point"},"properties":{"osm_id":"7809572989","tag":{"amenity":"waste_basket"}},"type":"Feature"},
	{"geometry":{"coordinates":[7.580768,47.561042],"type":"Point"},"properties":{"osm_id":"7817392578","tag":{"amenity":"waste_basket","material":"steel","waste":"trash"}},"type":"Feature"},
	{"geometry":{"coordinates":[7.581015,47.560726],"type":"Point"},"properties":{"osm_id":"7817392580","tag":{"amenity":"waste_basket","material":"steel","waste":"trash"}},"type":"Feature"},
	{"geometry":{"coordinates":[7.581326,47.560724],"type":"Point"},"properties":{"osm_id":"7817392581","tag":{"amenity":"waste_basket","material":"steel","waste":"trash"}},"type":"Feature"},
	{"geometry":{"coordinates":[7.581311,47.560813],"type":"Point"},"properties":{"osm_id":"7817392582","tag":{"amenity":"waste_basket","material":"steel","waste":"trash"}},"type":"Feature"},
	{"geometry":{"coordinates":[7.575681,47.560795],"type":"Point"},"properties":{"osm_id":"7836998393","tag":{"amenity":"waste_basket","material":"steel","waste":"litter"}},"type":"Feature"},
	{"geometry":{"coordinates":[7.62905,47.558571],"type":"Point"},"properties":{"osm_id":"7837421053","tag":{"amenity":"waste_basket"}},"type":"Feature"},
	{"geometry":{"coordinates":[7.631775,47.558674],"type":"Point"},"properties":{"osm_id":"7837421058","tag":{"amenity":"waste_basket"}},"type":"Feature"},
	{"geometry":{"coordinates":[7.62815,47.558461],"type":"Point"},"properties":{"osm_id":"7837421080","tag":{"amenity":"waste_basket"}},"type":"Feature"},
	{"geometry":{"coordinates":[7.627966,47.558187],"type":"Point"},"properties":{"osm_id":"7837421084","tag":{"amenity":"waste_basket"}},"type":"Feature"},
	{"geometry":{"coordinates":[7.618713,47.560291],"type":"Point"},"properties":{"osm_id":"7837468638","tag":{"amenity":"recycling","recycling:aluminium":"yes","recycling:batteries":"yes","recycling:cans":"yes","recycling:glass_bottles":"yes","recycling:scrap_metal":"yes","recycling_type":"container"}},"type":"Feature"},
	{"geometry":{"coordinates":[7.618698,47.560287],"type":"Point"},"properties":{"osm_id":"7837468639","tag":{"amenity":"recycling","recycling:aluminium":"yes","recycling:batteries":"yes","recycling:cans":"yes","recycling:glass_bottles":"yes","recycling:scrap_metal":"yes","recycling_type":"container"}},"type":"Feature"},
	{"geometry":{"coordinates":[7.618675,47.560281],"type":"Point"},"properties":{"osm_id":"7837468640","tag":{"amenity":"recycling","recycling:aluminium":"yes","recycling:batteries":"yes","recycling:cans":"yes","recycling:glass_bottles":"yes","recycling:scrap_metal":"yes","recycling_type":"container"}},"type":"Feature"},
	{"geometry":{"coordinates":[7.618631,47.560265],"type":"Point"},"properties":{"osm_id":"7837468641","tag":{"amenity":"waste_basket"}},"type":"Feature"},
	{"geometry":{"coordinates":[7.618665,47.560296],"type":"Point"},"properties":{"osm_id":"7837468643","tag":{"amenity":"recycling","recycling_type":"container"}},"type":"Feature"},
	{"geometry":{"coordinates":[7.618686,47.560284],"type":"Point"},"properties":{"osm_id":"7837468644","tag":{"amenity":"recycling","recycling:aluminium":"yes","recycling:batteries":"yes","recycling:cans":"yes","recycling:glass_bottles":"yes","recycling:scrap_metal":"yes","recycling_type":"container"}},"type":"Feature"},
	{"geometry":{"coordinates":[7.620944,47.560991],"type":"Point"},"properties":{"osm_id":"7837468681","tag":{"amenity":"waste_basket"}},"type":"Feature"},
	{"geometry":{"coordinates":[7.628504,47.560189],"type":"Point"},"properties":{"osm_id":"7837649306","tag":{"amenity":"waste_basket"}},"type":"Feature"},
	{"geometry":{"coordinates":[7.62918,47.559249],"type":"Point"},"properties":{"osm_id":"7837649322","tag":{"amenity":"waste_basket"}},"type":"Feature"},
	{"geometry":{"coordinates":[7.629815,47.55938],"type":"Point"},"properties":{"osm_id":"7837649323","tag":{"amenity":"waste_basket"}},"type":"Feature"},
	{"geometry":{"coordinates":[7.631046,47.559376],"type":"Point"},"properties":{"osm_id":"7837649324","tag":{"amenity":"waste_basket"}},"type":"Feature"},
	{"geometry":{"coordinates":[7.589935,47.547407],"type":"Point"},"properties":{"osm_id":"7838087614","tag":{"amenity":"recycling","recycling:aluminium":"yes","recycling:paper":"yes","recycling:pet":"yes","recycling:trash":"yes","recycling_type":"container"}},"type":"Feature"},
	{"geometry":{"coordinates":[7.60451,47.557234],"type":"Point"},"properties":{"osm_id":"7838316314","tag":{"amenity":"waste_basket"}},"type":"Feature"},
	{"geometry":{"coordinates":[7.603094,47.557093],"type":"Point"},"properties":{"osm_id":"7838316315","tag":{"amenity":"waste_basket"}},"type":"Feature"},
	{"geometry":{"coordinates":[7.616746,47.557679],"type":"Point"},"properties":{"osm_id":"7838317188","tag":{"amenity":"waste_basket"}},"type":"Feature"},
	{"geometry":{"coordinates":[7.577555,47.562047],"type":"Point"},"properties":{"osm_id":"7840757187","tag":{"amenity":"waste_basket","waste":"trash"}},"type":"Feature"},
	{"geometry":{"coordinates":[7.57646,47.56291],"type":"Point"},"properties":{"osm_id":"7840775785","tag":{"amenity":"waste_basket"}},"type":"Feature"},
	{"geometry":{"coordinates":[7.60266,47.555183],"type":"Point"},"properties":{"osm_id":"7844376752","tag":{"amenity":"waste_basket"}},"type":"Feature"},
	{"geometry":{"coordinates":[7.583188,47.574961],"type":"Point"},"properties":{"osm_id":"7844482497","tag":{"amenity":"waste_basket"}},"type":"Feature"},
	{"geometry":{"coordinates":[7.583063,47.575797],"type":"Point"},"properties":{"osm_id":"7844482504","tag":{"amenity":"waste_basket"}},"type":"Feature"},
	{"geometry":{"coordinates":[7.582966,47.576103],"type":"Point"},"properties":{"osm_id":"7844482505","tag":{"amenity":"waste_basket"}},"type":"Feature"},
	{"geometry":{"coordinates":[7.610013,47.558314],"type":"Point"},"properties":{"osm_id":"7848117801","tag":{"amenity":"waste_basket"}},"type":"Feature"},
	{"geometry":{"coordinates":[7.582082,47.523557],"type":"Point"},"properties":{"osm_id":"7879004461","tag":{"amenity":"waste_basket","material":"metal","waste":"trash"}},"type":"Feature"},
	{"geometry":{"coordinates":[7.603101,47.564464],"type":"Point"},"properties":{"osm_id":"7936995470","tag":{"amenity":"waste_basket"}},"type":"Feature"}
]
}
