{
"type": "FeatureCollection",
"features": [
	{"geometry":{"coordinates":[7.616498,47.498969],"type":"Point"},"properties":{"osm_id":"308930789","tag":{"amenity":"recycling"}},"type":"Feature"},
	{"geometry":{"coordinates":[7.619628,47.494847],"type":"Point"},"properties":{"osm_id":"308930796","tag":{"amenity":"recycling","recycling:glass":"yes","recycling:metal":"yes"}},"type":"Feature"},
	{"geometry":{"coordinates":[7.61824,47.503728],"type":"Point"},"properties":{"osm_id":"1502783530","tag":{"amenity":"recycling"}},"type":"Feature"},
	{"geometry":{"coordinates":[7.605584,47.490857],"type":"Point"},"properties":{"name":"Feuerstelle, Einschlag","osm_id":"1701762505","tag":{"amenity":"waste_basket","fireplace":"yes","leisure":"playground","tourism":"picnic_site"}},"type":"Feature"},
	{"geometry":{"coordinates":[7.591421,47.49894],"type":"Point"},"properties":{"osm_id":"1720782614","tag":{"amenity":"recycling","recycling:paper":"yes","recycling:scrap_metal":"yes","recycling_type":"container"}},"type":"Feature"},
	{"geometry":{"coordinates":[7.582841,47.46772],"type":"Point"},"properties":{"osm_id":"1751663449","tag":{"amenity":"waste_basket"}},"type":"Feature"},
	{"geometry":{"coordinates":[7.597909,47.511226],"type":"Point"},"properties":{"osm_id":"2439724246","tag":{"amenity":"recycling"}},"type":"Feature"},
	{"geometry":{"coordinates":[7.592791,47.494003],"type":"Point"},"properties":{"osm_id":"2596042868","tag":{"amenity":"waste_basket"}},"type":"Feature"},
	{"geometry":{"coordinates":[7.635403,47.458082],"type":"Point"},"properties":{"osm_id":"2817523639","tag":{"amenity":"waste_basket"}},"type":"Feature"},
	{"geometry":{"coordinates":[7.597368,47.465664],"type":"Point"},"properties":{"osm_id":"3368204602","tag":{"amenity":"recycling","recycling:cans":"yes","recycling:glass_bottles":"yes","recycling_type":"container"}},"type":"Feature"},
	{"geometry":{"coordinates":[7.618139,47.514048],"type":"Point"},"properties":{"osm_id":"3376782502","tag":{"amenity":"recycling","recycling:cans":"no","recycling:clothes":"yes","recycling:glass":"no","recycling:paper":"no"}},"type":"Feature"},
	{"geometry":{"coordinates":[7.591686,47.494113],"type":"Point"},"properties":{"osm_id":"3700338515","tag":{"amenity":"recycling","recycling:glass":"yes","recycling:paper":"yes","recycling:scrap_metal":"yes","recycling_type":"container"}},"type":"Feature"},
	{"geometry":{"coordinates":[7.565997,47.496021],"type":"Point"},"properties":{"osm_id":"3854370378","tag":{"amenity":"waste_basket"}},"type":"Feature"},
	{"geometry":{"coordinates":[7.599694,47.50147],"type":"Point"},"properties":{"osm_id":"3855990078","tag":{"amenity":"waste_basket"}},"type":"Feature"},
	{"geometry":{"coordinates":[7.599869,47.50148],"type":"Point"},"properties":{"osm_id":"3855990080","tag":{"amenity":"waste_basket"}},"type":"Feature"},
	{"geometry":{"coordinates":[7.596906,47.469316],"type":"Point"},"properties":{"osm_id":"3856741435","tag":{"amenity":"waste_basket"}},"type":"Feature"},
	{"geometry":{"coordinates":[7.619395,47.497724],"type":"Point"},"properties":{"osm_id":"3858545682","tag":{"amenity":"waste_basket"}},"type":"Feature"},
	{"geometry":{"coordinates":[7.594385,47.489072],"type":"Point"},"properties":{"name":"Jost Recycling-Park Reinach","osm_id":"3939979376","tag":{"amenity":"recycling","opening_hours":"Mo-Fr 08:00-12:00,13:00-17:00; Sa 10:00-15:00","operator":"Jost","recycling:batteries":"yes","recycling:cans":"yes","recycling:cardboard":"yes","recycling:clothes":"yes","recycling:electrical_appliances":"yes","recycling:glass":"yes","recycling:glass_bottles":"yes","recycling:green_waste":"yes","recycling:paper":"yes","recycling:scrap_metal":"yes","recycling_type":"centre"}},"type":"Feature"},
	{"geometry":{"coordinates":[7.591684,47.505979],"type":"Point"},"properties":{"osm_id":"4338337705","tag":{"amenity":"waste_basket"}},"type":"Feature"},
	{"geometry":{"coordinates":[7.589508,47.459427],"type":"Point"},"properties":{"osm_id":"4959646827","tag":{"amenity":"waste_basket"}},"type":"Feature"},
	{"geometry":{"coordinates":[7.591149,47.458472],"type":"Point"},"properties":{"osm_id":"4959646834","tag":{"amenity":"recycling","recycling:cans":"yes","recycling:clothes":"yes","recycling:glass_bottles":"yes","recycling:oil":"yes","recycling_type":"container"}},"type":"Feature"},
	{"geometry":{"coordinates":[7.596675,47.46142],"type":"Point"},"properties":{"osm_id":"4959646843","tag":{"amenity":"waste_basket"}},"type":"Feature"},
	{"geometry":{"coordinates":[7.599511,47.463262],"type":"Point"},"properties":{"osm_id":"4959712829","tag":{"amenity":"waste_basket"}},"type":"Feature"},
	{"geometry":{"coordinates":[7.595598,47.466413],"type":"Point"},"properties":{"osm_id":"5077291708","tag":{"amenity":"waste_basket"}},"type":"Feature"},
	{"geometry":{"coordinates":[7.594692,47.467206],"type":"Point"},"properties":{"osm_id":"5077291930","tag":{"amenity":"waste_basket"}},"type":"Feature"},
	{"geometry":{"coordinates":[7.5828,47.467977],"type":"Point"},"properties":{"osm_id":"5077307357","tag":{"amenity":"waste_basket"}},"type":"Feature"},
	{"geometry":{"coordinates":[7.587776,47.509735],"type":"Point"},"properties":{"osm_id":"5095516404","tag":{"amenity":"waste_basket"}},"type":"Feature"},
	{"geometry":{"coordinates":[7.590661,47.509403],"type":"Point"},"properties":{"osm_id":"5095535748","tag":{"amenity":"waste_basket"}},"type":"Feature"},
	{"geometry":{"coordinates":[7.597459,47.515425],"type":"Point"},"properties":{"osm_id":"5095563439","tag":{"amenity":"waste_basket"}},"type":"Feature"},
	{"geometry":{"coordinates":[7.570504,47.497016],"type":"Point"},"properties":{"osm_id":"5109148960","tag":{"amenity":"waste_basket"}},"type":"Feature"},
	{"geometry":{"coordinates":[7.576009,47.499441],"type":"Point"},"properties":{"osm_id":"5109148966","tag":{"amenity":"waste_basket"}},"type":"Feature"},
	{"geometry":{"coordinates":[7.570136,47.49996],"type":"Point"},"properties":{"osm_id":"5109148972","tag":{"amenity":"waste_basket"}},"type":"Feature"},
	{"geometry":{"coordinates":[7.596556,47.467111],"type":"Point"},"properties":{"osm_id":"5165872911","tag":{"amenity":"waste_basket"}},"type":"Feature"},
	{"geometry":{"coordinates":[7.588931,47.493093],"type":"Point"},"properties":{"osm_id":"5520380785","tag":{"amenity":"waste_basket"}},"type":"Feature"},
	{"geometry":{"coordinates":[7.589468,47.493273],"type":"Point"},"properties":{"osm_id":"5520380787","tag":{"amenity":"waste_basket"}},"type":"Feature"},
	{"geometry":{"coordinates":[7.588799,47.493254],"type":"Point"},"properties":{"osm_id":"5520380789","tag":{"amenity":"waste_basket"}},"type":"Feature"},
	{"geometry":{"coordinates":[7.578146,47.492531],"type":"Point"},"properties":{"osm_id":"5520409643","tag":{"amenity":"waste_basket"}},"type":"Feature"},
	{"geometry":{"coordinates":[7.57813,47.491506],"type":"Point"},"properties":{"osm_id":"5520409647","tag":{"amenity":"waste_basket"}},"type":"Feature"},
	{"geometry":{"coordinates":[7.572151,47.485029],"type":"Point"},"properties":{"osm_id":"5520409654","tag":{"amenity":"waste_basket"}},"type":"Feature"},
	{"geometry":{"coordinates":[7.56744,47.473477],"type":"Point"},"properties":{"osm_id":"5520544499","tag":{"amenity":"waste_basket","waste":"dog_excrement"}},"type":"Feature"},
	{"geometry":{"coordinates":[7.571901,47.472161],"type":"Point"},"properties":{"osm_id":"5520544519","tag":{"amenity":"waste_basket","waste":"dog_excrement"}},"type":"Feature"},
	{"geometry":{"coordinates":[7.58283,47.468228],"type":"Point"},"properties":{"osm_id":"5520548128","tag":{"amenity":"waste_basket","waste":"dog_excrement"}},"type":"Feature"},
	{"geometry":{"coordinates":[7.589956,47.462655],"type":"Point"},"properties":{"osm_id":"5520560706","tag":{"amenity":"waste_basket","waste":"dog_excrement"}},"type":"Feature"},
	{"geometry":{"coordinates":[7.601306,47.459208],"type":"Point"},"properties":{"osm_id":"5548828589","tag":{"amenity":"waste_basket"}},"type":"Feature"},
	{"geometry":{"coordinates":[7.589098,47.493484],"type":"Point"},"properties":{"osm_id":"5611649753","tag":{"amenity":"recycling","recycling:clothes":"yes","recycling_type":"container"}},"type":"Feature"},
	{"geometry":{"coordinates":[7.623308,47.50227],"type":"Point"},"properties":{"osm_id":"5679454784","tag":{"amenity":"waste_basket","waste":"dog_excrement"}},"type":"Feature"},
	{"geometry":{"coordinates":[7.623872,47.503261],"type":"Point"},"properties":{"osm_id":"5679454800","tag":{"amenity":"waste_basket","waste":"dog_excrement"}},"type":"Feature"},
	{"geometry":{"coordinates":[7.628228,47.498744],"type":"Point"},"properties":{"osm_id":"5679454806","tag":{"amenity":"waste_basket"}},"type":"Feature"},
	{"geometry":{"coordinates":[7.628297,47.491372],"type":"Point"},"properties":{"osm_id":"5694721748","tag":{"amenity":"waste_basket"}},"type":"Feature"},
	{"geometry":{"coordinates":[7.628165,47.488428],"type":"Point"},"properties":{"osm_id":"5694721754","tag":{"amenity":"waste_basket"}},"type":"Feature"},
	{"geometry":{"coordinates":[7.628493,47.480772],"type":"Point"},"properties":{"osm_id":"5694721767","tag":{"amenity":"waste_basket"}},"type":"Feature"},
	{"geometry":{"coordinates":[7.627987,47.480246],"type":"Point"},"properties":{"osm_id":"5694721777","tag":{"amenity":"waste_basket"}},"type":"Feature"},
	{"geometry":{"coordinates":[7.628157,47.480332],"type":"Point"},"properties":{"osm_id":"5694721778","tag":{"amenity":"waste_basket"}},"type":"Feature"},
	{"geometry":{"coordinates":[7.641824,47.51566],"type":"Point"},"properties":{"osm_id":"5750162710","tag":{"amenity":"waste_basket"}},"type":"Feature"},
	{"geometry":{"coordinates":[7.641904,47.515716],"type":"Point"},"properties":{"osm_id":"5750162711","tag":{"amenity":"waste_basket","waste":"dog_excrement"}},"type":"Feature"},
	{"geometry":{"coordinates":[7.642224,47.482245],"type":"Point"},"properties":{"osm_id":"5760200504","tag":{"amenity":"waste_basket","waste":"dog_excrement"}},"type":"Feature"},
	{"geometry":{"coordinates":[7.635738,47.483381],"type":"Point"},"properties":{"osm_id":"5760200509","tag":{"amenity":"waste_basket"}},"type":"Feature"},
	{"geometry":{"coordinates":[7.635744,47.483279],"type":"Point"},"properties":{"osm_id":"5760200511","tag":{"amenity":"waste_basket"}},"type":"Feature"},
	{"geometry":{"coordinates":[7.626567,47.485182],"type":"Point"},"properties":{"osm_id":"5762385473","tag":{"amenity":"waste_basket","waste":"dog_excrement"}},"type":"Feature"},
	{"geometry":{"coordinates":[7.622523,47.487028],"type":"Point"},"properties":{"osm_id":"5762385488","tag":{"amenity":"waste_basket","waste":"dog_excrement"}},"type":"Feature"},
	{"geometry":{"coordinates":[7.617949,47.488537],"type":"Point"},"properties":{"osm_id":"5762385495","tag":{"amenity":"waste_basket","waste":"dog_excrement"}},"type":"Feature"},
	{"geometry":{"coordinates":[7.612444,47.488317],"type":"Point"},"properties":{"osm_id":"5762385507","tag":{"amenity":"waste_basket","waste":"dog_excrement"}},"type":"Feature"},
	{"geometry":{"coordinates":[7.61241,47.488314],"type":"Point"},"properties":{"osm_id":"5762385509","tag":{"amenity":"waste_basket"}},"type":"Feature"},
	{"geometry":{"coordinates":[7.611042,47.489188],"type":"Point"},"properties":{"osm_id":"5762385512","tag":{"amenity":"waste_basket"}},"type":"Feature"},
	{"geometry":{"coordinates":[7.609834,47.470448],"type":"Point"},"properties":{"osm_id":"5766628426","tag":{"amenity":"waste_basket","waste":"dog_excrement"}},"type":"Feature"},
	{"geometry":{"coordinates":[7.606862,47.46681],"type":"Point"},"properties":{"osm_id":"5766628553","tag":{"amenity":"waste_basket"}},"type":"Feature"},
	{"geometry":{"coordinates":[7.605661,47.466825],"type":"Point"},"properties":{"osm_id":"5766628555","tag":{"amenity":"waste_basket","waste":"dog_excrement"}},"type":"Feature"},
	{"geometry":{"coordinates":[7.622088,47.51508],"type":"Point"},"properties":{"osm_id":"5792883467","tag":{"amenity":"waste_basket"}},"type":"Feature"},
	{"geometry":{"coordinates":[7.603344,47.517013],"type":"Point"},"properties":{"osm_id":"5793659500","tag":{"amenity":"waste_basket"}},"type":"Feature"},
	{"geometry":{"coordinates":[7.604973,47.514213],"type":"Point"},"properties":{"osm_id":"5793886500","tag":{"amenity":"waste_basket"}},"type":"Feature"},
	{"geometry":{"coordinates":[7.617899,47.459826],"type":"Point"},"properties":{"osm_id":"5810167850","tag":{"amenity":"waste_basket","waste":"dog_excrement"}},"type":"Feature"},
	{"geometry":{"coordinates":[7.637597,47.496523],"type":"Point"},"properties":{"osm_id":"5844604649","tag":{"amenity":"waste_basket"}},"type":"Feature"},
	{"geometry":{"coordinates":[7.624072,47.491339],"type":"Point"},"properties":{"osm_id":"5844604654","tag":{"amenity":"waste_basket","waste":"dog_excrement"}},"type":"Feature"},
	{"geometry":{"coordinates":[7.618976,47.492996],"type":"Point"},"properties":{"osm_id":"5849828598","tag":{"amenity":"waste_basket"}},"type":"Feature"},
	{"geometry":{"coordinates":[7.619088,47.492841],"type":"Point"},"properties":{"osm_id":"5849828601","tag":{"amenity":"waste_basket"}},"type":"Feature"},
	{"geometry":{"coordinates":[7.618812,47.492731],"type":"Point"},"properties":{"osm_id":"5849828604","tag":{"amenity":"waste_basket"}},"type":"Feature"},
	{"geometry":{"coordinates":[7.619726,47.493363],"type":"Point"},"properties":{"osm_id":"5849828615","tag":{"amenity":"waste_basket"}},"type":"Feature"},
	{"geometry":{"coordinates":[7.620336,47.493641],"type":"Point"},"properties":{"osm_id":"5849828617","tag":{"amenity":"waste_basket"}},"type":"Feature"},
	{"geometry":{"coordinates":[7.620931,47.49354],"type":"Point"},"properties":{"osm_id":"5849828621","tag":{"amenity":"waste_basket"}},"type":"Feature"},
	{"geometry":{"coordinates":[7.619622,47.494058],"type":"Point"},"properties":{"osm_id":"5849828622","tag":{"amenity":"waste_basket"}},"type":"Feature"},
	{"geometry":{"coordinates":[7.619141,47.494328],"type":"Point"},"properties":{"osm_id":"5849828627","tag":{"amenity":"waste_basket"}},"type":"Feature"},
	{"geometry":{"coordinates":[7.618968,47.494361],"type":"Point"},"properties":{"osm_id":"5849828628","tag":{"amenity":"waste_basket"}},"type":"Feature"},
	{"geometry":{"coordinates":[7.619451,47.494767],"type":"Point"},"properties":{"osm_id":"5849828644","tag":{"amenity":"waste_basket"}},"type":"Feature"},
	{"geometry":{"coordinates":[7.619316,47.494558],"type":"Point"},"properties":{"osm_id":"5849828649","tag":{"amenity":"waste_basket"}},"type":"Feature"},
	{"geometry":{"coordinates":[7.617455,47.49344],"type":"Point"},"properties":{"osm_id":"5849828652","tag":{"amenity":"waste_basket"}},"type":"Feature"},
	{"geometry":{"coordinates":[7.571898,47.511932],"type":"Point"},"properties":{"osm_id":"6303155317","tag":{"amenity":"waste_basket","waste":"dog_excrement"}},"type":"Feature"},
	{"geometry":{"coordinates":[7.588623,47.512438],"type":"Point"},"properties":{"osm_id":"6497834912","tag":{"amenity":"waste_basket"}},"type":"Feature"},
	{"geometry":{"coordinates":[7.584838,47.512883],"type":"Point"},"properties":{"osm_id":"6497836316","tag":{"amenity":"waste_basket"}},"type":"Feature"},
	{"geometry":{"coordinates":[7.585647,47.51691],"type":"Point"},"properties":{"osm_id":"6497836883","tag":{"amenity":"waste_basket"}},"type":"Feature"},
	{"geometry":{"coordinates":[7.576378,47.510689],"type":"Point"},"properties":{"osm_id":"6516585725","tag":{"amenity":"waste_basket"}},"type":"Feature"},
	{"geometry":{"coordinates":[7.559518,47.482928],"type":"Point"},"properties":{"osm_id":"6532581368","tag":{"amenity":"waste_basket"}},"type":"Feature"},
	{"geometry":{"coordinates":[7.596462,47.515358],"type":"Point"},"properties":{"osm_id":"6537245437","tag":{"amenity":"waste_basket"}},"type":"Feature"},
	{"geometry":{"coordinates":[7.598072,47.516684],"type":"Point"},"properties":{"osm_id":"6537247236","tag":{"amenity":"waste_basket"}},"type":"Feature"},
	{"geometry":{"coordinates":[7.630324,47.49674],"type":"Point"},"properties":{"osm_id":"6622646805","tag":{"amenity":"waste_basket"}},"type":"Feature"},
	{"geometry":{"coordinates":[7.620146,47.470041],"type":"Point"},"properties":{"osm_id":"6900749442","tag":{"amenity":"waste_basket","material":"metal"}},"type":"Feature"},
	{"geometry":{"coordinates":[7.594097,47.470473],"type":"Point"},"properties":{"osm_id":"7283130780","tag":{"amenity":"recycling","recycling_type":"container"}},"type":"Feature"}
]
}
