{
"type": "FeatureCollection",
"lastupdate": "2020-08-06T00:00:00Z",
"features": [
	{"geometry":{"coordinates":[7.580543,47.197968],"type":"Point"},"properties":{"osm_id":"972510370","tag":{"amenity":"waste_basket"}},"type":"Feature"},
	{"geometry":{"coordinates":[7.570635,47.19363],"type":"Point"},"properties":{"osm_id":"972510381","tag":{"amenity":"waste_basket"}},"type":"Feature"},
	{"geometry":{"coordinates":[7.575441,47.195129],"type":"Point"},"properties":{"osm_id":"972510382","tag":{"amenity":"waste_basket"}},"type":"Feature"},
	{"geometry":{"coordinates":[7.581519,47.19803],"type":"Point"},"properties":{"osm_id":"1007392931","tag":{"amenity":"waste_basket"}},"type":"Feature"},
	{"geometry":{"coordinates":[7.581702,47.19799],"type":"Point"},"properties":{"osm_id":"1007392953","tag":{"amenity":"waste_basket"}},"type":"Feature"},
	{"geometry":{"coordinates":[7.581197,47.19495],"type":"Point"},"properties":{"osm_id":"1007393000","tag":{"amenity":"waste_basket"}},"type":"Feature"},
	{"geometry":{"coordinates":[7.581688,47.198312],"type":"Point"},"properties":{"osm_id":"1007393033","tag":{"amenity":"waste_basket"}},"type":"Feature"},
	{"geometry":{"coordinates":[7.580246,47.193529],"type":"Point"},"properties":{"osm_id":"1007576671","tag":{"amenity":"waste_basket"}},"type":"Feature"},
	{"geometry":{"coordinates":[7.581686,47.190951],"type":"Point"},"properties":{"osm_id":"1007577239","tag":{"amenity":"waste_basket"}},"type":"Feature"},
	{"geometry":{"coordinates":[7.581633,47.196298],"type":"Point"},"properties":{"osm_id":"1007577473","tag":{"amenity":"waste_basket"}},"type":"Feature"},
	{"geometry":{"coordinates":[7.581244,47.191301],"type":"Point"},"properties":{"osm_id":"1007577524","tag":{"amenity":"waste_basket"}},"type":"Feature"},
	{"geometry":{"coordinates":[7.581901,47.191461],"type":"Point"},"properties":{"osm_id":"1007578123","tag":{"amenity":"waste_basket"}},"type":"Feature"},
	{"geometry":{"coordinates":[7.569032,47.19387],"type":"Point"},"properties":{"osm_id":"1069476472","tag":{"amenity":"waste_basket"}},"type":"Feature"},
	{"geometry":{"coordinates":[7.561221,47.214989],"type":"Point"},"properties":{"osm_id":"1333914832","tag":{"amenity":"recycling","recycling:clothes":"yes","recycling:glass":"yes"}},"type":"Feature"},
	{"geometry":{"coordinates":[7.559066,47.171891],"type":"Point"},"properties":{"osm_id":"1446354603","tag":{"amenity":"recycling","recycling_type":"container"}},"type":"Feature"},
	{"geometry":{"coordinates":[7.593917,47.211638],"type":"Point"},"properties":{"osm_id":"2479846551","tag":{"amenity":"waste_basket"}},"type":"Feature"},
	{"geometry":{"coordinates":[7.570866,47.218316],"type":"Point"},"properties":{"osm_id":"3341895364","tag":{"amenity":"waste_basket"}},"type":"Feature"},
	{"geometry":{"coordinates":[7.563243,47.181118],"type":"Point"},"properties":{"osm_id":"3824758694","tag":{"addr:city":"Biberist","addr:postcode":"4562","addr:street":"Bleichemattstrasse","amenity":"recycling","operator":"Gemeinde Biberist","recycling:cans":"yes","recycling:clothes":"no","recycling:glass":"yes","recycling:glass_bottles":"yes","recycling:paper":"no","recycling:plastic":"no","recycling_type":"container"}},"type":"Feature"},
	{"geometry":{"coordinates":[7.583824,47.210992],"type":"Point"},"properties":{"name":"Entsorgungsstelle Gemeinde Luterbach","osm_id":"3851507784","tag":{"amenity":"recycling","recycling:cans":"yes","recycling:glass":"yes","recycling:glass_bottles":"yes"}},"type":"Feature"},
	{"geometry":{"coordinates":[7.593565,47.163446],"type":"Point"},"properties":{"osm_id":"4917719769","tag":{"amenity":"recycling","recycling_type":"container"}},"type":"Feature"},
	{"geometry":{"coordinates":[7.612583,47.196601],"type":"Point"},"properties":{"osm_id":"5896302118","tag":{"amenity":"recycling","operator":"coop","recycling:clothes":"yes","recycling:shoes":"yes","recycling_type":"container"}},"type":"Feature"},
	{"geometry":{"coordinates":[7.599085,47.19889],"type":"Point"},"properties":{"osm_id":"5896330820","tag":{"amenity":"waste_basket"}},"type":"Feature"},
	{"geometry":{"coordinates":[7.599223,47.198767],"type":"Point"},"properties":{"osm_id":"5896330821","tag":{"amenity":"recycling","operator":"coop","recycling:clothes":"yes","recycling:shoes":"yes","recycling_type":"container"}},"type":"Feature"},
	{"geometry":{"coordinates":[7.583821,47.197438],"type":"Point"},"properties":{"osm_id":"5896423658","tag":{"amenity":"recycling","operator":"Migros","recycling:batteries":"yes","recycling:plastic_bottles":"yes","recycling_type":"container"}},"type":"Feature"},
	{"geometry":{"coordinates":[7.593801,47.182382],"type":"Point"},"properties":{"osm_id":"5937545330","tag":{"amenity":"waste_basket"}},"type":"Feature"},
	{"geometry":{"coordinates":[7.559888,47.169369],"type":"Point"},"properties":{"osm_id":"6071285245","tag":{"amenity":"waste_basket"}},"type":"Feature"},
	{"geometry":{"coordinates":[7.561394,47.168104],"type":"Point"},"properties":{"osm_id":"6071285248","tag":{"amenity":"waste_basket"}},"type":"Feature"},
	{"geometry":{"coordinates":[7.622275,47.177818],"type":"Point"},"properties":{"osm_id":"6379225339","tag":{"amenity":"waste_basket"}},"type":"Feature"},
	{"geometry":{"coordinates":[7.583176,47.198274],"type":"Point"},"properties":{"osm_id":"6484414450","tag":{"amenity":"waste_basket"}},"type":"Feature"},
	{"geometry":{"coordinates":[7.645301,47.187471],"type":"Point"},"properties":{"osm_id":"6484415610","tag":{"amenity":"recycling","recycling:cans":"yes","recycling:clothes":"yes","recycling:glass_bottles":"yes","recycling:shoes":"yes","recycling_type":"container"}},"type":"Feature"},
	{"geometry":{"coordinates":[7.617993,47.199471],"type":"Point"},"properties":{"osm_id":"6635746566","tag":{"amenity":"waste_basket"}},"type":"Feature"},
	{"geometry":{"coordinates":[7.616073,47.191607],"type":"Point"},"properties":{"osm_id":"7087074093","tag":{"amenity":"waste_basket"}},"type":"Feature"},
	{"geometry":{"coordinates":[7.612507,47.193475],"type":"Point"},"properties":{"osm_id":"7087074094","tag":{"amenity":"waste_basket"}},"type":"Feature"},
	{"geometry":{"coordinates":[7.580662,47.199479],"type":"Point"},"properties":{"osm_id":"7253102057","tag":{"amenity":"waste_basket","waste":"trash"}},"type":"Feature"},
	{"geometry":{"coordinates":[7.600287,47.176979],"type":"Point"},"properties":{"osm_id":"7603466440","tag":{"amenity":"recycling","opening_hours":"Tu 15:30-17:30;Th 15:30-17:30; Sa 09:30-11:30","recycling_type":"centre"}},"type":"Feature"},
	{"geometry":{"coordinates":[7.600445,47.177057],"type":"Point"},"properties":{"osm_id":"7603466441","tag":{"amenity":"recycling","recycling:clothes":"yes","recycling:coffee_capsules":"yes","recycling:glass_bottles":"yes","recycling_type":"container"}},"type":"Feature"},
	{"geometry":{"coordinates":[7.559637,47.176797],"type":"Point"},"properties":{"osm_id":"7603591719","tag":{"amenity":"waste_basket","waste":"trash"}},"type":"Feature"},
	{"geometry":{"coordinates":[7.558766,47.214687],"type":"Point"},"properties":{"osm_id":"7603696880","tag":{"amenity":"waste_basket","payment:none":"yes","vending":"excrement_bags","waste":"dog_excrement"}},"type":"Feature"},
	{"geometry":{"coordinates":[7.55979,47.201796],"type":"Point"},"properties":{"osm_id":"7603710097","tag":{"amenity":"waste_basket","payment:none":"yes","vending":"excrement_bags","waste":"dog_excrement"}},"type":"Feature"},
	{"geometry":{"coordinates":[7.593915,47.213865],"type":"Point"},"properties":{"osm_id":"7620471684","tag":{"amenity":"waste_basket"}},"type":"Feature"},
	{"geometry":{"coordinates":[7.560312,47.20364],"type":"Point"},"properties":{"osm_id":"7733215093","tag":{"amenity":"recycling","opening_hours":"Mo-Fr 08:00-18:30,Sa 07:30-18:00; PH off","operator":"Migros","recycling:batteries":"yes","recycling:plastic_bottles":"yes","recycling_type":"container"}},"type":"Feature"}
]
}
