{
"type": "FeatureCollection",
"features": [
	{"geometry":{"coordinates":[7.62732,46.732331],"type":"Point"},"properties":{"osm_id":"1200425549","tag":{"amenity":"recycling","location":"underground","recycling:glass":"yes","recycling_type":"container"}},"type":"Feature"},
	{"geometry":{"coordinates":[7.563304,46.738062],"type":"Point"},"properties":{"osm_id":"1275728810","tag":{"amenity":"waste_basket"}},"type":"Feature"},
	{"geometry":{"coordinates":[7.617435,46.736343],"type":"Point"},"properties":{"osm_id":"1335791935","tag":{"amenity":"waste_basket"}},"type":"Feature"},
	{"geometry":{"coordinates":[7.613284,46.738142],"type":"Point"},"properties":{"osm_id":"1348532697","tag":{"amenity":"waste_basket"}},"type":"Feature"},
	{"geometry":{"coordinates":[7.611688,46.734572],"type":"Point"},"properties":{"osm_id":"1358021598","tag":{"amenity":"waste_basket"}},"type":"Feature"},
	{"geometry":{"coordinates":[7.605038,46.72907],"type":"Point"},"properties":{"osm_id":"1358021649","tag":{"amenity":"waste_basket"}},"type":"Feature"},
	{"geometry":{"coordinates":[7.623564,46.696841],"type":"Point"},"properties":{"osm_id":"1411993455","tag":{"amenity":"recycling","recycling:cans":"yes","recycling:clothes":"yes","recycling:glass":"yes","recycling_type":"container"}},"type":"Feature"},
	{"geometry":{"coordinates":[7.636234,46.714217],"type":"Point"},"properties":{"osm_id":"1412347555","tag":{"amenity":"recycling","recycling:cans":"yes","recycling:clothes":"yes","recycling:glass":"yes","recycling_type":"container"}},"type":"Feature"},
	{"geometry":{"coordinates":[7.635684,46.717579],"type":"Point"},"properties":{"osm_id":"1412347563","tag":{"amenity":"waste_basket"}},"type":"Feature"},
	{"geometry":{"coordinates":[7.6279,46.727183],"type":"Point"},"properties":{"osm_id":"1425429623","tag":{"amenity":"recycling","recycling:glass":"yes","recycling_type":"container"}},"type":"Feature"},
	{"geometry":{"coordinates":[7.628945,46.727223],"type":"Point"},"properties":{"osm_id":"1425429645","tag":{"amenity":"waste_basket"}},"type":"Feature"},
	{"geometry":{"coordinates":[7.629239,46.728213],"type":"Point"},"properties":{"osm_id":"1425429673","tag":{"amenity":"waste_basket"}},"type":"Feature"},
	{"geometry":{"coordinates":[7.630341,46.728432],"type":"Point"},"properties":{"osm_id":"1425429703","tag":{"amenity":"waste_basket"}},"type":"Feature"},
	{"geometry":{"coordinates":[7.630141,46.728556],"type":"Point"},"properties":{"osm_id":"1425429718","tag":{"amenity":"waste_basket"}},"type":"Feature"},
	{"geometry":{"coordinates":[7.595727,46.736858],"type":"Point"},"properties":{"osm_id":"1433316989","tag":{"amenity":"waste_basket"}},"type":"Feature"},
	{"geometry":{"coordinates":[7.594942,46.738346],"type":"Point"},"properties":{"osm_id":"1433317013","tag":{"amenity":"waste_basket"}},"type":"Feature"},
	{"geometry":{"coordinates":[7.607381,46.723547],"type":"Point"},"properties":{"name":"Robidog","osm_id":"1456126785","tag":{"amenity":"waste_basket","operator":"Robidog AG","payment:none":"yes","vending":"excrement_bags"}},"type":"Feature"},
	{"geometry":{"coordinates":[7.60279,46.730881],"type":"Point"},"properties":{"name":"Robidog","osm_id":"1458519323","tag":{"amenity":"waste_basket","operator":"Robidog AG","payment:none":"yes","vending":"excrement_bags"}},"type":"Feature"},
	{"geometry":{"coordinates":[7.617538,46.734356],"type":"Point"},"properties":{"osm_id":"1476545199","tag":{"amenity":"waste_basket"}},"type":"Feature"},
	{"geometry":{"coordinates":[7.61998,46.73755],"type":"Point"},"properties":{"name":"Robidog","osm_id":"1476545218","tag":{"amenity":"waste_basket","operator":"Robidog AG","payment:none":"yes","vending":"excrement_bags"}},"type":"Feature"},
	{"geometry":{"coordinates":[7.620837,46.739228],"type":"Point"},"properties":{"osm_id":"1476545252","tag":{"amenity":"waste_basket"}},"type":"Feature"},
	{"geometry":{"coordinates":[7.621148,46.739312],"type":"Point"},"properties":{"osm_id":"1476545254","tag":{"amenity":"waste_basket"}},"type":"Feature"},
	{"geometry":{"coordinates":[7.621207,46.739512],"type":"Point"},"properties":{"osm_id":"1476545259","tag":{"amenity":"waste_basket"}},"type":"Feature"},
	{"geometry":{"coordinates":[7.628211,46.712983],"type":"Point"},"properties":{"osm_id":"1487505047","tag":{"amenity":"waste_basket"}},"type":"Feature"},
	{"geometry":{"coordinates":[7.628651,46.712961],"type":"Point"},"properties":{"osm_id":"1487505055","tag":{"amenity":"waste_basket"}},"type":"Feature"},
	{"geometry":{"coordinates":[7.628002,46.713886],"type":"Point"},"properties":{"name":"Robidog","osm_id":"1505527474","tag":{"amenity":"waste_basket","operator":"Robidog AG","payment:none":"yes","vending":"excrement_bags"}},"type":"Feature"},
	{"geometry":{"coordinates":[7.630496,46.736628],"type":"Point"},"properties":{"name":"Robidog","osm_id":"1508668511","tag":{"amenity":"waste_basket","operator":"Robidog AG","payment:none":"yes","vending":"excrement_bags"}},"type":"Feature"},
	{"geometry":{"coordinates":[7.631513,46.738273],"type":"Point"},"properties":{"osm_id":"1508668576","tag":{"amenity":"waste_basket"}},"type":"Feature"},
	{"geometry":{"coordinates":[7.62737,46.732693],"type":"Point"},"properties":{"osm_id":"1554281261","tag":{"amenity":"waste_basket"}},"type":"Feature"},
	{"geometry":{"coordinates":[7.627508,46.736168],"type":"Point"},"properties":{"osm_id":"1554281276","tag":{"amenity":"waste_basket"}},"type":"Feature"},
	{"geometry":{"coordinates":[7.629118,46.729133],"type":"Point"},"properties":{"osm_id":"1664584866","tag":{"amenity":"waste_basket"}},"type":"Feature"},
	{"geometry":{"coordinates":[7.629673,46.729819],"type":"Point"},"properties":{"osm_id":"1664584873","tag":{"amenity":"waste_basket"}},"type":"Feature"},
	{"geometry":{"coordinates":[7.629708,46.730276],"type":"Point"},"properties":{"osm_id":"1664584875","tag":{"amenity":"waste_basket"}},"type":"Feature"},
	{"geometry":{"coordinates":[7.629473,46.731856],"type":"Point"},"properties":{"osm_id":"1664584900","tag":{"amenity":"waste_basket"}},"type":"Feature"},
	{"geometry":{"coordinates":[7.629725,46.732126],"type":"Point"},"properties":{"osm_id":"1664584908","tag":{"amenity":"waste_basket"}},"type":"Feature"},
	{"geometry":{"coordinates":[7.62966,46.733526],"type":"Point"},"properties":{"osm_id":"1664584921","tag":{"amenity":"waste_basket"}},"type":"Feature"},
	{"geometry":{"coordinates":[7.631632,46.734422],"type":"Point"},"properties":{"osm_id":"1664584929","tag":{"amenity":"waste_basket"}},"type":"Feature"},
	{"geometry":{"coordinates":[7.631063,46.734473],"type":"Point"},"properties":{"osm_id":"1664584938","tag":{"amenity":"waste_basket"}},"type":"Feature"},
	{"geometry":{"coordinates":[7.627853,46.724048],"type":"Point"},"properties":{"osm_id":"1700759921","tag":{"amenity":"waste_basket"}},"type":"Feature"},
	{"geometry":{"coordinates":[7.628296,46.724731],"type":"Point"},"properties":{"osm_id":"1700759947","tag":{"amenity":"waste_basket"}},"type":"Feature"},
	{"geometry":{"coordinates":[7.628828,46.725776],"type":"Point"},"properties":{"osm_id":"1700759968","tag":{"amenity":"waste_basket"}},"type":"Feature"},
	{"geometry":{"coordinates":[7.631928,46.73788],"type":"Point"},"properties":{"osm_id":"1700759973","tag":{"amenity":"waste_basket"}},"type":"Feature"},
	{"geometry":{"coordinates":[7.632448,46.738201],"type":"Point"},"properties":{"osm_id":"1700760008","tag":{"amenity":"waste_basket"}},"type":"Feature"},
	{"geometry":{"coordinates":[7.643871,46.708825],"type":"Point"},"properties":{"osm_id":"1730718152","tag":{"amenity":"waste_basket"}},"type":"Feature"},
	{"geometry":{"coordinates":[7.627747,46.718538],"type":"Point"},"properties":{"osm_id":"1976671001","tag":{"amenity":"recycling","recycling:clothes":"yes","recycling:glass":"yes","recycling_type":"container"}},"type":"Feature"},
	{"geometry":{"coordinates":[7.625314,46.719832],"type":"Point"},"properties":{"osm_id":"1976671003","tag":{"amenity":"waste_basket"}},"type":"Feature"},
	{"geometry":{"coordinates":[7.624067,46.721393],"type":"Point"},"properties":{"osm_id":"1976671004","tag":{"amenity":"waste_basket"}},"type":"Feature"},
	{"geometry":{"coordinates":[7.62567,46.722156],"type":"Point"},"properties":{"osm_id":"1976671005","tag":{"amenity":"waste_basket"}},"type":"Feature"},
	{"geometry":{"coordinates":[7.62621,46.722684],"type":"Point"},"properties":{"osm_id":"1976671007","tag":{"amenity":"waste_basket"}},"type":"Feature"},
	{"geometry":{"coordinates":[7.622154,46.716341],"type":"Point"},"properties":{"osm_id":"1995284281","tag":{"amenity":"waste_basket"}},"type":"Feature"},
	{"geometry":{"coordinates":[7.620266,46.725271],"type":"Point"},"properties":{"osm_id":"2542008444","tag":{"amenity":"waste_basket"}},"type":"Feature"},
	{"geometry":{"coordinates":[7.627013,46.713347],"type":"Point"},"properties":{"osm_id":"2901228976","tag":{"amenity":"waste_basket"}},"type":"Feature"},
	{"geometry":{"coordinates":[7.623637,46.71553],"type":"Point"},"properties":{"osm_id":"2901228981","tag":{"amenity":"waste_basket"}},"type":"Feature"},
	{"geometry":{"coordinates":[7.618538,46.700135],"type":"Point"},"properties":{"osm_id":"3577081701","tag":{"amenity":"waste_basket"}},"type":"Feature"},
	{"geometry":{"coordinates":[7.631625,46.720302],"type":"Point"},"properties":{"osm_id":"5511736966","tag":{"amenity":"waste_basket","waste":"trash"}},"type":"Feature"},
	{"geometry":{"coordinates":[7.617838,46.736379],"type":"Point"},"properties":{"osm_id":"6052895222","tag":{"amenity":"waste_basket"}},"type":"Feature"},
	{"geometry":{"coordinates":[7.607404,46.723421],"type":"Point"},"properties":{"osm_id":"6432816301","tag":{"amenity":"waste_basket"}},"type":"Feature"},
	{"geometry":{"coordinates":[7.608339,46.725528],"type":"Point"},"properties":{"osm_id":"6432816302","tag":{"amenity":"waste_basket"}},"type":"Feature"},
	{"geometry":{"coordinates":[7.611625,46.725544],"type":"Point"},"properties":{"osm_id":"6432816303","tag":{"amenity":"waste_basket"}},"type":"Feature"},
	{"geometry":{"coordinates":[7.612434,46.725183],"type":"Point"},"properties":{"osm_id":"6432816304","tag":{"amenity":"waste_basket"}},"type":"Feature"},
	{"geometry":{"coordinates":[7.618731,46.724841],"type":"Point"},"properties":{"name":"Labdoo Annahmestelle f\u00c3\u00bcr Laptops","osm_id":"6543260514","tag":{"addr:city":"Gwatt (Thun)","addr:housenumber":"19","addr:postcode":"3645","addr:street":"Moosweg","amenity":"recycling","brand":"Labdoo","charity":"yes","description":"Bei Ruchti Aerni AG k\u00c3\u00b6nnen zu den obigen B\u00c3\u00bcrozeiten Laptops an der Rezeption mit dem Hinweis auf Labdoo / Venice Stalder deponiert werden. Zur Terminvereinbarung bitte unter +41 33 336 58 44 Kontakt aufnehmen.","location":"indoor","operator":"Ruchti Aerni AG","phone":"+41 33 336 58 44","recycling:computers":"yes","recycling:mobile_phones":"yes","service_times":"Mo-Fr 08:00-12:00, 13:00-16:30","website":"https://www.labdoo.org/de/hub?h=61019"}},"type":"Feature"},
	{"geometry":{"coordinates":[7.628535,46.727195],"type":"Point"},"properties":{"osm_id":"6805846164","tag":{"amenity":"waste_basket","mapillary":"flL8D0PwceeUBjkDcevxsw"}},"type":"Feature"},
	{"geometry":{"coordinates":[7.612781,46.738388],"type":"Point"},"properties":{"osm_id":"7474154170","tag":{"amenity":"waste_basket","waste":"trash"}},"type":"Feature"}
]
}
