{
"type": "FeatureCollection",
"lastupdate": "2020-08-01T00:00:00Z",
"features": [
	{"geometry":{"coordinates":[7.596396,46.252458],"type":"Point"},"properties":{"osm_id":"2396754159","tag":{"amenity":"recycling","location":"underground","recycling:glass":"yes","recycling:paper":"yes","recycling_type":"container"}},"type":"Feature"},
	{"geometry":{"coordinates":[7.58877,46.214273],"type":"Point"},"properties":{"osm_id":"3401697880","tag":{"amenity":"recycling"}},"type":"Feature"},
	{"geometry":{"coordinates":[7.585937,46.215541],"type":"Point"},"properties":{"osm_id":"3401700822","tag":{"amenity":"recycling"}},"type":"Feature"},
	{"geometry":{"coordinates":[7.586834,46.214093],"type":"Point"},"properties":{"osm_id":"3401700985","tag":{"amenity":"recycling"}},"type":"Feature"},
	{"geometry":{"coordinates":[7.583911,46.216871],"type":"Point"},"properties":{"osm_id":"3401701599","tag":{"amenity":"recycling"}},"type":"Feature"},
	{"geometry":{"coordinates":[7.580867,46.211574],"type":"Point"},"properties":{"osm_id":"3444661849","tag":{"amenity":"recycling"}},"type":"Feature"},
	{"geometry":{"coordinates":[7.569758,46.21994],"type":"Point"},"properties":{"osm_id":"3444688940","tag":{"amenity":"recycling"}},"type":"Feature"},
	{"geometry":{"coordinates":[7.593277,46.225248],"type":"Point"},"properties":{"osm_id":"3450538863","tag":{"amenity":"recycling"}},"type":"Feature"},
	{"geometry":{"coordinates":[7.59579,46.221316],"type":"Point"},"properties":{"osm_id":"3450538865","tag":{"amenity":"recycling"}},"type":"Feature"},
	{"geometry":{"coordinates":[7.592308,46.223683],"type":"Point"},"properties":{"osm_id":"3450538866","tag":{"amenity":"recycling","recycling:cans":"yes","recycling:glass":"yes","recycling:paper":"yes"}},"type":"Feature"},
	{"geometry":{"coordinates":[7.604097,46.248395],"type":"Point"},"properties":{"osm_id":"3450544344","tag":{"amenity":"recycling"}},"type":"Feature"},
	{"geometry":{"coordinates":[7.599937,46.251335],"type":"Point"},"properties":{"osm_id":"3450544345","tag":{"amenity":"recycling"}},"type":"Feature"},
	{"geometry":{"coordinates":[7.590042,46.252875],"type":"Point"},"properties":{"osm_id":"3450544346","tag":{"amenity":"recycling"}},"type":"Feature"},
	{"geometry":{"coordinates":[7.591778,46.223524],"type":"Point"},"properties":{"osm_id":"3463813451","tag":{"amenity":"recycling"}},"type":"Feature"},
	{"geometry":{"coordinates":[7.594026,46.219823],"type":"Point"},"properties":{"osm_id":"3463813454","tag":{"amenity":"recycling"}},"type":"Feature"},
	{"geometry":{"coordinates":[7.589225,46.210571],"type":"Point"},"properties":{"osm_id":"3588336872","tag":{"amenity":"recycling","recycling:cans":"yes","recycling:glass":"yes","recycling:paper":"yes"}},"type":"Feature"},
	{"geometry":{"coordinates":[7.591374,46.196859],"type":"Point"},"properties":{"osm_id":"3588336873","tag":{"amenity":"recycling"}},"type":"Feature"},
	{"geometry":{"coordinates":[7.600408,46.247802],"type":"Point"},"properties":{"osm_id":"3588337194","tag":{"amenity":"recycling","recycling:clothes":"no","recycling:glass":"no","recycling:paper":"no"}},"type":"Feature"},
	{"geometry":{"coordinates":[7.584293,46.220729],"type":"Point"},"properties":{"osm_id":"3683619345","tag":{"amenity":"recycling"}},"type":"Feature"},
	{"geometry":{"coordinates":[7.586348,46.198194],"type":"Point"},"properties":{"osm_id":"7741436677","tag":{"amenity":"recycling"}},"type":"Feature"},
	{"geometry":{"coordinates":[7.583615,46.197301],"type":"Point"},"properties":{"osm_id":"7741451389","tag":{"amenity":"recycling"}},"type":"Feature"},
	{"geometry":{"coordinates":[7.602692,46.219523],"type":"Point"},"properties":{"osm_id":"7741829517","tag":{"amenity":"recycling"}},"type":"Feature"},
	{"geometry":{"coordinates":[7.59253,46.222407],"type":"Point"},"properties":{"osm_id":"7742997652","tag":{"amenity":"recycling"}},"type":"Feature"}
]
}
