{
"type": "FeatureCollection",
"features": [
	{"geometry":{"coordinates":[7.638472,45.082312],"type":"Point"},"properties":{"osm_id":"1432235575","tag":{"amenity":"waste_basket"}},"type":"Feature"},
	{"geometry":{"coordinates":[7.638855,45.083125],"type":"Point"},"properties":{"osm_id":"1432237043","tag":{"amenity":"waste_basket"}},"type":"Feature"},
	{"geometry":{"coordinates":[7.6387,45.082803],"type":"Point"},"properties":{"osm_id":"1432237215","tag":{"amenity":"waste_basket"}},"type":"Feature"},
	{"geometry":{"coordinates":[7.638078,45.081464],"type":"Point"},"properties":{"osm_id":"1432237979","tag":{"amenity":"waste_basket"}},"type":"Feature"},
	{"geometry":{"coordinates":[7.638142,45.081586],"type":"Point"},"properties":{"osm_id":"1432237980","tag":{"amenity":"waste_basket"}},"type":"Feature"},
	{"geometry":{"coordinates":[7.639879,45.079368],"type":"Point"},"properties":{"osm_id":"1432441376","tag":{"amenity":"waste_basket"}},"type":"Feature"},
	{"geometry":{"coordinates":[7.640368,45.079459],"type":"Point"},"properties":{"osm_id":"1432441379","tag":{"amenity":"waste_basket"}},"type":"Feature"},
	{"geometry":{"coordinates":[7.64012,45.079513],"type":"Point"},"properties":{"osm_id":"1432441381","tag":{"amenity":"waste_basket"}},"type":"Feature"},
	{"geometry":{"coordinates":[7.640255,45.079518],"type":"Point"},"properties":{"osm_id":"1432441383","tag":{"amenity":"waste_basket"}},"type":"Feature"},
	{"geometry":{"coordinates":[7.638898,45.083371],"type":"Point"},"properties":{"osm_id":"1432857772","tag":{"amenity":"waste_basket"}},"type":"Feature"},
	{"geometry":{"coordinates":[7.638627,45.082213],"type":"Point"},"properties":{"osm_id":"1433910524","tag":{"amenity":"waste_basket"}},"type":"Feature"},
	{"geometry":{"coordinates":[7.638918,45.082884],"type":"Point"},"properties":{"osm_id":"1433910528","tag":{"amenity":"waste_basket"}},"type":"Feature"},
	{"geometry":{"coordinates":[7.634594,45.072323],"type":"Point"},"properties":{"osm_id":"1446143798","tag":{"amenity":"waste_basket"}},"type":"Feature"},
	{"geometry":{"coordinates":[7.639205,45.0724],"type":"Point"},"properties":{"osm_id":"1446821240","tag":{"amenity":"waste_basket"}},"type":"Feature"},
	{"geometry":{"coordinates":[7.639062,45.072502],"type":"Point"},"properties":{"osm_id":"1446821241","tag":{"amenity":"waste_basket"}},"type":"Feature"},
	{"geometry":{"coordinates":[7.645282,45.066512],"type":"Point"},"properties":{"osm_id":"1449141991","tag":{"amenity":"waste_basket"}},"type":"Feature"},
	{"geometry":{"coordinates":[7.637888,45.072347],"type":"Point"},"properties":{"osm_id":"1456547110","tag":{"amenity":"waste_basket"}},"type":"Feature"},
	{"geometry":{"coordinates":[7.638048,45.072349],"type":"Point"},"properties":{"osm_id":"1456547111","tag":{"amenity":"waste_basket"}},"type":"Feature"},
	{"geometry":{"coordinates":[7.638042,45.072463],"type":"Point"},"properties":{"osm_id":"1456547112","tag":{"amenity":"waste_basket"}},"type":"Feature"},
	{"geometry":{"coordinates":[7.643989,45.067035],"type":"Point"},"properties":{"osm_id":"1464148727","tag":{"amenity":"waste_basket"}},"type":"Feature"},
	{"geometry":{"coordinates":[7.635483,45.068578],"type":"Point"},"properties":{"osm_id":"1470688077","tag":{"amenity":"waste_basket"}},"type":"Feature"},
	{"geometry":{"coordinates":[7.627263,45.06587],"type":"Point"},"properties":{"osm_id":"1788523926","tag":{"amenity":"waste_basket"}},"type":"Feature"},
	{"geometry":{"coordinates":[7.640029,45.040786],"type":"Point"},"properties":{"osm_id":"2320875662","tag":{"amenity":"waste_basket"}},"type":"Feature"},
	{"geometry":{"coordinates":[7.640253,45.040573],"type":"Point"},"properties":{"osm_id":"2320875663","tag":{"amenity":"waste_basket"}},"type":"Feature"},
	{"geometry":{"coordinates":[7.640308,45.04075],"type":"Point"},"properties":{"osm_id":"2320875664","tag":{"amenity":"waste_basket"}},"type":"Feature"},
	{"geometry":{"coordinates":[7.645466,45.051727],"type":"Point"},"properties":{"osm_id":"3582760375","tag":{"amenity":"waste_basket"}},"type":"Feature"},
	{"geometry":{"coordinates":[7.642676,45.041839],"type":"Point"},"properties":{"osm_id":"3741304693","tag":{"amenity":"waste_basket"}},"type":"Feature"},
	{"geometry":{"coordinates":[7.64256,45.041982],"type":"Point"},"properties":{"osm_id":"3741304694","tag":{"amenity":"waste_basket"}},"type":"Feature"},
	{"geometry":{"coordinates":[7.642551,45.042149],"type":"Point"},"properties":{"osm_id":"3741315021","tag":{"amenity":"waste_basket"}},"type":"Feature"},
	{"geometry":{"coordinates":[7.642843,45.042176],"type":"Point"},"properties":{"osm_id":"3741315022","tag":{"amenity":"waste_basket"}},"type":"Feature"},
	{"geometry":{"coordinates":[7.642562,45.041654],"type":"Point"},"properties":{"osm_id":"3741335832","tag":{"amenity":"waste_basket"}},"type":"Feature"},
	{"geometry":{"coordinates":[7.642501,45.041578],"type":"Point"},"properties":{"osm_id":"3741335833","tag":{"amenity":"waste_basket"}},"type":"Feature"},
	{"geometry":{"coordinates":[7.640372,45.040647],"type":"Point"},"properties":{"osm_id":"3741338141","tag":{"amenity":"waste_basket"}},"type":"Feature"},
	{"geometry":{"coordinates":[7.636539,45.075081],"type":"Point"},"properties":{"osm_id":"3986731977","tag":{"amenity":"waste_basket"}},"type":"Feature"},
	{"geometry":{"coordinates":[7.641201,45.080112],"type":"Point"},"properties":{"osm_id":"4212323492","tag":{"amenity":"waste_basket"}},"type":"Feature"},
	{"geometry":{"coordinates":[7.642685,45.079851],"type":"Point"},"properties":{"osm_id":"4212323494","tag":{"amenity":"waste_basket"}},"type":"Feature"},
	{"geometry":{"coordinates":[7.642859,45.079794],"type":"Point"},"properties":{"osm_id":"4212323495","tag":{"amenity":"waste_basket"}},"type":"Feature"},
	{"geometry":{"coordinates":[7.642621,45.080042],"type":"Point"},"properties":{"osm_id":"4212325091","tag":{"amenity":"waste_basket"}},"type":"Feature"},
	{"geometry":{"coordinates":[7.641081,45.079868],"type":"Point"},"properties":{"osm_id":"4212336289","tag":{"amenity":"waste_basket"}},"type":"Feature"},
	{"geometry":{"coordinates":[7.641249,45.080059],"type":"Point"},"properties":{"osm_id":"4212336290","tag":{"amenity":"waste_basket"}},"type":"Feature"},
	{"geometry":{"coordinates":[7.642861,45.079694],"type":"Point"},"properties":{"osm_id":"4212339889","tag":{"amenity":"waste_basket"}},"type":"Feature"},
	{"geometry":{"coordinates":[7.642751,45.081062],"type":"Point"},"properties":{"osm_id":"4213167991","tag":{"amenity":"waste_basket"}},"type":"Feature"},
	{"geometry":{"coordinates":[7.643009,45.081073],"type":"Point"},"properties":{"osm_id":"4213174189","tag":{"amenity":"waste_basket"}},"type":"Feature"},
	{"geometry":{"coordinates":[7.643958,45.081048],"type":"Point"},"properties":{"osm_id":"4213174289","tag":{"amenity":"waste_basket"}},"type":"Feature"},
	{"geometry":{"coordinates":[7.644856,45.081086],"type":"Point"},"properties":{"osm_id":"4213174389","tag":{"amenity":"waste_basket"}},"type":"Feature"},
	{"geometry":{"coordinates":[7.64077,45.079515],"type":"Point"},"properties":{"osm_id":"4213565913","tag":{"amenity":"waste_basket"}},"type":"Feature"},
	{"geometry":{"coordinates":[7.640001,45.078505],"type":"Point"},"properties":{"osm_id":"4213565914","tag":{"amenity":"waste_basket"}},"type":"Feature"},
	{"geometry":{"coordinates":[7.642681,45.079555],"type":"Point"},"properties":{"osm_id":"4213575589","tag":{"amenity":"waste_basket"}},"type":"Feature"},
	{"geometry":{"coordinates":[7.640131,45.07933],"type":"Point"},"properties":{"osm_id":"4213575590","tag":{"amenity":"waste_basket"}},"type":"Feature"},
	{"geometry":{"coordinates":[7.641069,45.079578],"type":"Point"},"properties":{"osm_id":"4213575689","tag":{"amenity":"waste_basket"}},"type":"Feature"},
	{"geometry":{"coordinates":[7.643049,45.081161],"type":"Point"},"properties":{"osm_id":"4215961398","tag":{"amenity":"waste_basket"}},"type":"Feature"},
	{"geometry":{"coordinates":[7.639827,45.078994],"type":"Point"},"properties":{"osm_id":"4218114150","tag":{"amenity":"waste_basket"}},"type":"Feature"},
	{"geometry":{"coordinates":[7.637955,45.042209],"type":"Point"},"properties":{"osm_id":"4226491677","tag":{"amenity":"recycling","recycling:cans":"yes","recycling:glass":"yes","recycling:paper":"yes","recycling:plastic":"yes","recycling_type":"container"}},"type":"Feature"},
	{"geometry":{"coordinates":[7.643544,45.072588],"type":"Point"},"properties":{"osm_id":"4460343922","tag":{"amenity":"waste_basket"}},"type":"Feature"},
	{"geometry":{"coordinates":[7.640575,45.07248],"type":"Point"},"properties":{"osm_id":"4462145884","tag":{"amenity":"waste_basket"}},"type":"Feature"},
	{"geometry":{"coordinates":[7.644649,45.077796],"type":"Point"},"properties":{"osm_id":"4462146726","tag":{"amenity":"waste_basket"}},"type":"Feature"},
	{"geometry":{"coordinates":[7.64624,45.074215],"type":"Point"},"properties":{"osm_id":"4474237947","tag":{"amenity":"waste_basket"}},"type":"Feature"},
	{"geometry":{"coordinates":[7.637603,45.043983],"type":"Point"},"properties":{"osm_id":"4621931723","tag":{"amenity":"waste_basket"}},"type":"Feature"},
	{"geometry":{"coordinates":[7.631961,45.043828],"type":"Point"},"properties":{"osm_id":"4691928080","tag":{"amenity":"waste_basket"}},"type":"Feature"},
	{"geometry":{"coordinates":[7.588659,45.044416],"type":"Point"},"properties":{"name":"Ecocentro di Grugliasco","osm_id":"5144736569","tag":{"addr:city":"Grugliasco","addr:housenumber":"40","addr:street":"Via della Libert\u00e0","amenity":"recycling","phone":"+39.011.41.43.551","recycling_type":"centre","wheelchair":"yes"}},"type":"Feature"},
	{"geometry":{"coordinates":[7.640416,45.04345],"type":"Point"},"properties":{"osm_id":"5548938640","tag":{"amenity":"waste_basket"}},"type":"Feature"},
	{"geometry":{"coordinates":[7.582365,45.028403],"type":"Point"},"properties":{"barrier":"gate","osm_id":"5595926676"},"type":"Feature"},
	{"geometry":{"coordinates":[7.625469,45.051093],"type":"Point"},"properties":{"osm_id":"5702874731","tag":{"amenity":"waste_basket"}},"type":"Feature"},
	{"geometry":{"coordinates":[7.635933,45.072293],"type":"Point"},"properties":{"osm_id":"6029833634","tag":{"amenity":"waste_basket"}},"type":"Feature"},
	{"geometry":{"coordinates":[7.624404,45.036012],"type":"Point"},"properties":{"osm_id":"6118731654","tag":{"amenity":"waste_basket"}},"type":"Feature"},
	{"geometry":{"coordinates":[7.631679,45.041274],"type":"Point"},"properties":{"osm_id":"6305265151","tag":{"amenity":"waste_basket"}},"type":"Feature"},
	{"geometry":{"coordinates":[7.625914,45.050872],"type":"Point"},"properties":{"osm_id":"7059985503","tag":{"amenity":"waste_basket","material":"steel"}},"type":"Feature"},
	{"geometry":{"coordinates":[7.578314,45.072474],"type":"Point"},"properties":{"osm_id":"7139218058","tag":{"amenity":"waste_basket"}},"type":"Feature"},
	{"geometry":{"coordinates":[7.578323,45.072369],"type":"Point"},"properties":{"osm_id":"7139218059","tag":{"amenity":"waste_basket"}},"type":"Feature"},
	{"geometry":{"coordinates":[7.578676,45.072437],"type":"Point"},"properties":{"osm_id":"7139218060","tag":{"amenity":"waste_basket"}},"type":"Feature"},
	{"geometry":{"coordinates":[7.579183,45.072411],"type":"Point"},"properties":{"osm_id":"7139218067","tag":{"amenity":"waste_basket"}},"type":"Feature"},
	{"geometry":{"coordinates":[7.57917,45.072513],"type":"Point"},"properties":{"osm_id":"7139218068","tag":{"amenity":"waste_basket"}},"type":"Feature"},
	{"geometry":{"coordinates":[7.646355,45.059004],"type":"Point"},"properties":{"osm_id":"7635131592","tag":{"amenity":"waste_basket"}},"type":"Feature"},
	{"geometry":{"coordinates":[7.624587,45.070316],"type":"Point"},"properties":{"osm_id":"7782077869","tag":{"amenity":"waste_basket","waste":"trash"}},"type":"Feature"},
	{"geometry":{"coordinates":[7.624817,45.070345],"type":"Point"},"properties":{"osm_id":"7782077870","tag":{"amenity":"waste_basket","waste":"trash"}},"type":"Feature"},
	{"geometry":{"coordinates":[7.624059,45.070365],"type":"Point"},"properties":{"osm_id":"7782077871","tag":{"amenity":"waste_basket","waste":"trash"}},"type":"Feature"},
	{"geometry":{"coordinates":[7.62758,45.068103],"type":"Point"},"properties":{"osm_id":"7782126520","tag":{"amenity":"waste_basket","material":"metal","waste":"trash"}},"type":"Feature"},
	{"geometry":{"coordinates":[7.628022,45.067845],"type":"Point"},"properties":{"osm_id":"7782126526","tag":{"amenity":"waste_basket","waste":"trash"}},"type":"Feature"},
	{"geometry":{"coordinates":[7.628006,45.06768],"type":"Point"},"properties":{"osm_id":"7782126527","tag":{"amenity":"waste_basket","waste":"trash"}},"type":"Feature"},
	{"geometry":{"coordinates":[7.627727,45.070112],"type":"Point"},"properties":{"osm_id":"7782129384","tag":{"amenity":"waste_basket"}},"type":"Feature"},
	{"geometry":{"coordinates":[7.627716,45.070067],"type":"Point"},"properties":{"osm_id":"7782130085","tag":{"amenity":"waste_basket"}},"type":"Feature"},
	{"geometry":{"coordinates":[7.62771,45.070054],"type":"Point"},"properties":{"osm_id":"7782130086","tag":{"amenity":"waste_basket"}},"type":"Feature"},
	{"geometry":{"coordinates":[7.630454,45.061491],"type":"Point"},"properties":{"osm_id":"7782228422","tag":{"amenity":"waste_basket","material":"metal","waste":"trash"}},"type":"Feature"},
	{"geometry":{"coordinates":[7.637447,45.058439],"type":"Point"},"properties":{"osm_id":"7782235152","tag":{"amenity":"recycling","recycling:clothes":"yes","recycling_type":"container"}},"type":"Feature"},
	{"geometry":{"coordinates":[7.636803,45.058715],"type":"Point"},"properties":{"osm_id":"7785067305","tag":{"amenity":"waste_basket","waste":"trash"}},"type":"Feature"},
	{"geometry":{"coordinates":[7.640963,45.058579],"type":"Point"},"properties":{"osm_id":"7785140177","tag":{"amenity":"recycling","recycling:clothes":"yes","recycling_type":"container"}},"type":"Feature"},
	{"geometry":{"coordinates":[7.645693,45.060009],"type":"Point"},"properties":{"osm_id":"7785287034","tag":{"amenity":"waste_basket","waste":"trash"}},"type":"Feature"}
]
}
