{
"type": "FeatureCollection",
"features": [
	{"geometry":{"coordinates":[7.623233,43.786036],"type":"Point"},"properties":{"osm_id":"1894568823","tag":{"amenity":"waste_basket"}},"type":"Feature"},
	{"geometry":{"coordinates":[7.623509,43.78715],"type":"Point"},"properties":{"osm_id":"1894568866","tag":{"amenity":"waste_basket"}},"type":"Feature"},
	{"geometry":{"coordinates":[7.623509,43.787732],"type":"Point"},"properties":{"osm_id":"1894568888","tag":{"amenity":"waste_basket"}},"type":"Feature"},
	{"geometry":{"coordinates":[7.622035,43.788652],"type":"Point"},"properties":{"osm_id":"1894568899","tag":{"amenity":"recycling","recycling:cans":"yes","recycling:glass":"yes","recycling:paper":"yes","recycling_type":"container"}},"type":"Feature"},
	{"geometry":{"coordinates":[7.636495,43.788527],"type":"Point"},"properties":{"osm_id":"2429348829","tag":{"amenity":"recycling","recycling_type":"container"}},"type":"Feature"},
	{"geometry":{"coordinates":[7.638215,43.790022],"type":"Point"},"properties":{"osm_id":"2429348842","tag":{"amenity":"recycling","recycling_type":"container"}},"type":"Feature"},
	{"geometry":{"coordinates":[7.611193,43.787675],"type":"Point"},"properties":{"osm_id":"2430921976","tag":{"amenity":"waste_disposal"}},"type":"Feature"},
	{"geometry":{"coordinates":[7.620625,43.787494],"type":"Point"},"properties":{"osm_id":"2623670233","tag":{"amenity":"recycling","recycling:cans":"yes","recycling:glass_bottles":"yes","recycling:paper":"yes","recycling:plastic":"yes","recycling_type":"container"}},"type":"Feature"},
	{"geometry":{"coordinates":[7.620744,43.788589],"type":"Point"},"properties":{"osm_id":"2623670236","tag":{"amenity":"recycling","recycling:cans":"no","recycling:glass":"no","recycling:paper":"yes","recycling:plastic":"yes","recycling_type":"container"}},"type":"Feature"},
	{"geometry":{"coordinates":[7.639879,43.783753],"type":"Point"},"properties":{"osm_id":"4422893872","tag":{"amenity":"recycling","recycling_type":"container"}},"type":"Feature"},
	{"geometry":{"coordinates":[7.639597,43.784501],"type":"Point"},"properties":{"osm_id":"4422893878","tag":{"amenity":"recycling","recycling_type":"container"}},"type":"Feature"},
	{"geometry":{"coordinates":[7.640127,43.785958],"type":"Point"},"properties":{"osm_id":"5007567497","tag":{"amenity":"waste_basket"}},"type":"Feature"},
	{"geometry":{"coordinates":[7.64006,43.785801],"type":"Point"},"properties":{"osm_id":"5007567498","tag":{"amenity":"waste_basket"}},"type":"Feature"},
	{"geometry":{"coordinates":[7.641113,43.78705],"type":"Point"},"properties":{"osm_id":"5007574823","tag":{"amenity":"waste_basket"}},"type":"Feature"},
	{"geometry":{"coordinates":[7.64171,43.787972],"type":"Point"},"properties":{"osm_id":"5007574843","tag":{"amenity":"waste_basket"}},"type":"Feature"},
	{"geometry":{"coordinates":[7.641836,43.787862],"type":"Point"},"properties":{"osm_id":"5007574844","tag":{"amenity":"recycling","recycling:clothes":"yes","recycling_type":"container"}},"type":"Feature"},
	{"geometry":{"coordinates":[7.642404,43.789343],"type":"Point"},"properties":{"osm_id":"5007574845","tag":{"amenity":"recycling","recycling:clothes":"yes","recycling_type":"container"}},"type":"Feature"},
	{"geometry":{"coordinates":[7.643413,43.789744],"type":"Point"},"properties":{"osm_id":"5007574863","tag":{"amenity":"recycling","recycling:cans":"yes","recycling:glass_bottles":"yes","recycling:paper":"yes","recycling:plastic":"yes","recycling_type":"container"}},"type":"Feature"},
	{"geometry":{"coordinates":[7.634741,43.789237],"type":"Point"},"properties":{"osm_id":"5016050667","tag":{"amenity":"recycling","recycling_type":"container"}},"type":"Feature"},
	{"geometry":{"coordinates":[7.622417,43.785278],"type":"Point"},"properties":{"osm_id":"5904904453","tag":{"amenity":"waste_basket"}},"type":"Feature"},
	{"geometry":{"coordinates":[7.62107,43.785579],"type":"Point"},"properties":{"osm_id":"5906815797","tag":{"amenity":"recycling","recycling:glass":"yes","recycling:organic":"yes","recycling:paper":"yes","recycling:plastic":"yes","recycling_type":"container"}},"type":"Feature"},
	{"geometry":{"coordinates":[7.611216,43.787672],"type":"Point"},"properties":{"osm_id":"5908075012","tag":{"amenity":"recycling","recycling:clothes":"yes","recycling:glass_bottles":"yes","recycling:paper":"yes","recycling:plastic":"yes","recycling_type":"container"}},"type":"Feature"},
	{"geometry":{"coordinates":[7.605767,43.793685],"type":"Point"},"properties":{"osm_id":"5910121087","tag":{"amenity":"recycling","recycling_type":"container"}},"type":"Feature"},
	{"geometry":{"coordinates":[7.598248,43.792452],"type":"Point"},"properties":{"osm_id":"6423616526","tag":{"amenity":"waste_disposal"}},"type":"Feature"},
	{"geometry":{"coordinates":[7.593086,43.792056],"type":"Point"},"properties":{"osm_id":"6454111373","tag":{"amenity":"waste_disposal"}},"type":"Feature"},
	{"geometry":{"coordinates":[7.588178,43.793508],"type":"Point"},"properties":{"osm_id":"6454111384","tag":{"amenity":"waste_disposal"}},"type":"Feature"},
	{"geometry":{"coordinates":[7.58824,43.793466],"type":"Point"},"properties":{"osm_id":"6454113085","tag":{"amenity":"recycling","recycling:glass":"yes","recycling:paper":"yes","recycling:plastic":"yes","recycling_type":"container"}},"type":"Feature"},
	{"geometry":{"coordinates":[7.59515,43.792674],"type":"Point"},"properties":{"osm_id":"6454194531","tag":{"amenity":"waste_disposal"}},"type":"Feature"},
	{"geometry":{"coordinates":[7.613761,43.791672],"type":"Point"},"properties":{"osm_id":"6454406406","tag":{"amenity":"recycling","recycling:glass":"yes","recycling:paper":"yes","recycling:plastic":"yes","recycling_type":"container"}},"type":"Feature"},
	{"geometry":{"coordinates":[7.613649,43.792301],"type":"Point"},"properties":{"osm_id":"6454406407","tag":{"amenity":"recycling","recycling:clothes":"yes","recycling_type":"container"}},"type":"Feature"},
	{"geometry":{"coordinates":[7.586338,43.793464],"type":"Point"},"properties":{"osm_id":"6455980102","tag":{"amenity":"recycling","recycling:glass":"yes","recycling:paper":"yes","recycling:plastic":"yes","recycling_type":"container"}},"type":"Feature"},
	{"geometry":{"coordinates":[7.623185,43.785224],"type":"Point"},"properties":{"osm_id":"6462210841","tag":{"amenity":"recycling","recycling:glass":"yes","recycling:paper":"yes","recycling_type":"container"}},"type":"Feature"},
	{"geometry":{"coordinates":[7.638266,43.787658],"type":"Point"},"properties":{"osm_id":"6484219214","tag":{"amenity":"recycling","recycling:glass":"yes","recycling:paper":"yes","recycling:plastic":"yes","recycling_type":"container"}},"type":"Feature"},
	{"geometry":{"coordinates":[7.610963,43.789546],"type":"Point"},"properties":{"osm_id":"6516724157","tag":{"amenity":"recycling","recycling:glass":"yes","recycling:paper":"yes","recycling:plastic":"yes","recycling_type":"container"}},"type":"Feature"},
	{"geometry":{"coordinates":[7.612502,43.788965],"type":"Point"},"properties":{"osm_id":"6516724158","tag":{"amenity":"recycling","recycling:green_waste":"yes","recycling:paper":"yes","recycling:plastic":"yes","recycling_type":"container"}},"type":"Feature"},
	{"geometry":{"coordinates":[7.643755,43.785863],"type":"Point"},"properties":{"osm_id":"6681513649","tag":{"amenity":"recycling","recycling:glass":"yes","recycling:green_waste":"yes","recycling:plastic":"yes","recycling_type":"container"}},"type":"Feature"},
	{"geometry":{"coordinates":[7.627925,43.787132],"type":"Point"},"properties":{"osm_id":"6843835054","tag":{"amenity":"recycling","recycling:glass_bottles":"yes","recycling:paper":"yes","recycling:plastic":"yes","recycling_type":"container"}},"type":"Feature"},
	{"geometry":{"coordinates":[7.627914,43.787077],"type":"Point"},"properties":{"osm_id":"6843835055","tag":{"amenity":"waste_disposal"}},"type":"Feature"},
	{"geometry":{"coordinates":[7.626027,43.786431],"type":"Point"},"properties":{"osm_id":"6843835057","tag":{"amenity":"recycling","recycling:clothes":"yes","recycling:glass_bottles":"yes","recycling:paper":"yes","recycling:plastic":"yes","recycling_type":"container"}},"type":"Feature"},
	{"geometry":{"coordinates":[7.626002,43.78636],"type":"Point"},"properties":{"osm_id":"6843835058","tag":{"amenity":"waste_disposal"}},"type":"Feature"},
	{"geometry":{"coordinates":[7.605237,43.789255],"type":"Point"},"properties":{"osm_id":"7261227484","tag":{"amenity":"waste_basket","waste":"trash"}},"type":"Feature"},
	{"geometry":{"coordinates":[7.605351,43.790067],"type":"Point"},"properties":{"osm_id":"7261252686","tag":{"amenity":"recycling","recycling:glass_bottles":"yes","recycling_type":"container"}},"type":"Feature"},
	{"geometry":{"coordinates":[7.608197,43.789007],"type":"Point"},"properties":{"osm_id":"7280048883","tag":{"amenity":"waste_basket","waste":"trash"}},"type":"Feature"},
	{"geometry":{"coordinates":[7.608644,43.789154],"type":"Point"},"properties":{"osm_id":"7280084885","tag":{"amenity":"waste_basket","waste":"trash"}},"type":"Feature"},
	{"geometry":{"coordinates":[7.603032,43.790758],"type":"Point"},"properties":{"osm_id":"8914474639","tag":{"amenity":"waste_basket"}},"type":"Feature"},
	{"geometry":{"coordinates":[7.605083,43.789264],"type":"Point"},"properties":{"osm_id":"8917301002","tag":{"amenity":"waste_basket"}},"type":"Feature"},
	{"geometry":{"coordinates":[7.602879,43.789378],"type":"Point"},"properties":{"osm_id":"8917303900","tag":{"amenity":"waste_basket"}},"type":"Feature"},
	{"geometry":{"coordinates":[7.602466,43.789473],"type":"Point"},"properties":{"osm_id":"8917344101","tag":{"amenity":"waste_basket"}},"type":"Feature"},
	{"geometry":{"coordinates":[7.605039,43.790222],"type":"Point"},"properties":{"osm_id":"8919916606","tag":{"amenity":"waste_basket"}},"type":"Feature"},
	{"geometry":{"coordinates":[7.610157,43.790033],"type":"Point"},"properties":{"osm_id":"9023631374","tag":{"amenity":"waste_basket"}},"type":"Feature"},
	{"geometry":{"coordinates":[7.6098,43.791097],"type":"Point"},"properties":{"osm_id":"9025537864","tag":{"amenity":"waste_basket"}},"type":"Feature"},
	{"geometry":{"coordinates":[7.612469,43.787335],"type":"Point"},"properties":{"osm_id":"9035156370","tag":{"amenity":"recycling"}},"type":"Feature"}
]
}
