{
"type": "FeatureCollection",
"features": [
	{"geometry":{"coordinates":[19.154094,44.513683],"type":"Point"},"properties":{"name":"\u00d0\u00a2\u00d1\u0083\u00d0\u00bb\u00d0\u00b8\u00d0\u00bf\u00d0\u00b0\u00d0\u00bd\u00d0\u00be\u00d0\u00b2\u00d0\u00b0\u00d1\u0086","osm_id":"8946964424","tag":{"denotation":"urban","leaf_cycle":"deciduous","leaf_type":"broadleaved","name:en":"Tulip tree","name:sr":"\u00d0\u00a2\u00d1\u0083\u00d0\u00bb\u00d0\u00b8\u00d0\u00bf\u00d0\u00b0\u00d0\u00bd\u00d0\u00be\u00d0\u00b2\u00d0\u00b0\u00d1\u0086","name:sr-Latn":"Tulipanovac","natural":"tree","species":"Liriodendron tulipifera","wikidata":"Q158783","wikipedia":"en:Liriodendron tulipifera","wikipedia:sr":"\u00d0\u009b\u00d0\u00b0\u00d0\u00bb\u00d0\u00b8\u00d0\u00bd\u00d0\u00be_\u00d0\u00b4\u00d1\u0080\u00d0\u00b2\u00d0\u00be"}},"type":"Feature"},
	{"geometry":{"coordinates":[19.156589,44.511543],"type":"Point"},"properties":{"osm_id":"8956893265","tag":{"denotation":"park","leaf_cycle":"deciduous","leaf_type":"needleleaved","natural":"tree","species":"Taxodium ascendens","species:wikidata":"Q759873","species:wikipedia":"en:Taxodium ascendens"}},"type":"Feature"},
	{"geometry":{"coordinates":[19.157679,44.514711],"type":"Point"},"properties":{"name":"\u00d0\u0091\u00d0\u00be\u00d1\u0080 \u00d0\u00ba\u00d1\u0080\u00d0\u00b0\u00d1\u0099\u00d0\u00b0 \u00d0\u009f\u00d0\u00b5\u00d1\u0082\u00d1\u0080\u00d0\u00b0","osm_id":"8957362717","tag":{"denotation":"park","leaf_cycle":"evergreen","leaf_type":"needleleaved","name:en":"King Peter's Pine","name:sr":"\u00d0\u0091\u00d0\u00be\u00d1\u0080 \u00d0\u00ba\u00d1\u0080\u00d0\u00b0\u00d1\u0099\u00d0\u00b0 \u00d0\u009f\u00d0\u00b5\u00d1\u0082\u00d1\u0080\u00d0\u00b0","name:sr_Latn":"Bor kralja Petra","natural":"tree","species":"Pinus nigra","wikidata":"Q145954","wikipedia":"sr:\u00d0\u00a6\u00d1\u0080\u00d0\u00bd\u00d0\u00b8 \u00d0\u00b1\u00d0\u00be\u00d1\u0080"}},"type":"Feature"},
	{"geometry":{"coordinates":[19.156431,44.512668],"type":"Point"},"properties":{"osm_id":"8959295712","tag":{"denotation":"park","leaf_cycle":"deciduous","natural":"tree","specie":"Acer negundo","wikidata":"Q161166","wikipedia":"sr:\u00d0\u009f\u00d0\u00b0\u00d1\u0098\u00d0\u00b0\u00d0\u00b2\u00d0\u00b0\u00d1\u0086","wikipedia:en":"Acer_negundo"}},"type":"Feature"},
	{"geometry":{"coordinates":[19.156346,44.512627],"type":"Point"},"properties":{"osm_id":"8959295713","tag":{"denotation":"park","leaf_cycle":"deciduous","natural":"tree","specie":"Acer negundo","wikidata":"Q161166","wikipedia":"sr:\u00d0\u009f\u00d0\u00b0\u00d1\u0098\u00d0\u00b0\u00d0\u00b2\u00d0\u00b0\u00d1\u0086","wikipedia:en":"Acer_negundo"}},"type":"Feature"},
	{"geometry":{"coordinates":[19.156244,44.512535],"type":"Point"},"properties":{"osm_id":"8959295714","tag":{"denotation":"park","leaf_cycle":"deciduous","natural":"tree","specie":"Acer negundo","wikidata":"Q161166","wikipedia":"sr:\u00d0\u009f\u00d0\u00b0\u00d1\u0098\u00d0\u00b0\u00d0\u00b2\u00d0\u00b0\u00d1\u0086","wikipedia:en":"Acer_negundo"}},"type":"Feature"},
	{"geometry":{"coordinates":[19.156242,44.512462],"type":"Point"},"properties":{"osm_id":"8959295715","tag":{"denotation":"park","leaf_cycle":"deciduous","natural":"tree","specie":"Acer negundo","wikidata":"Q161166","wikipedia":"sr:\u00d0\u009f\u00d0\u00b0\u00d1\u0098\u00d0\u00b0\u00d0\u00b2\u00d0\u00b0\u00d1\u0086","wikipedia:en":"Acer_negundo"}},"type":"Feature"},
	{"geometry":{"coordinates":[19.156264,44.512351],"type":"Point"},"properties":{"osm_id":"8959295716","tag":{"denotation":"park","leaf_cycle":"deciduous","natural":"tree","specie":"Acer negundo","wikidata":"Q161166","wikipedia":"sr:\u00d0\u009f\u00d0\u00b0\u00d1\u0098\u00d0\u00b0\u00d0\u00b2\u00d0\u00b0\u00d1\u0086","wikipedia:en":"Acer_negundo"}},"type":"Feature"},
	{"geometry":{"coordinates":[19.156348,44.512293],"type":"Point"},"properties":{"osm_id":"8959314417","tag":{"denotation":"park","leaf_cycle":"deciduous","natural":"tree","specie":"Acer negundo","wikidata":"Q161166","wikipedia":"sr:\u00d0\u009f\u00d0\u00b0\u00d1\u0098\u00d0\u00b0\u00d0\u00b2\u00d0\u00b0\u00d1\u0086","wikipedia:en":"Acer_negundo"}},"type":"Feature"},
	{"geometry":{"coordinates":[19.1564,44.512265],"type":"Point"},"properties":{"osm_id":"8959314418","tag":{"denotation":"park","leaf_cycle":"deciduous","natural":"tree","specie":"Acer negundo","wikidata":"Q161166","wikipedia":"sr:\u00d0\u009f\u00d0\u00b0\u00d1\u0098\u00d0\u00b0\u00d0\u00b2\u00d0\u00b0\u00d1\u0086","wikipedia:en":"Acer_negundo"}},"type":"Feature"},
	{"geometry":{"coordinates":[19.15646,44.512249],"type":"Point"},"properties":{"osm_id":"8959314419","tag":{"denotation":"park","leaf_cycle":"deciduous","natural":"tree","specie":"Acer negundo","wikidata":"Q161166","wikipedia":"sr:\u00d0\u009f\u00d0\u00b0\u00d1\u0098\u00d0\u00b0\u00d0\u00b2\u00d0\u00b0\u00d1\u0086","wikipedia:en":"Acer_negundo"}},"type":"Feature"},
	{"geometry":{"coordinates":[19.15653,44.512239],"type":"Point"},"properties":{"osm_id":"8959314420","tag":{"denotation":"park","leaf_cycle":"deciduous","natural":"tree","specie":"Acer negundo","wikidata":"Q161166","wikipedia":"sr:\u00d0\u009f\u00d0\u00b0\u00d1\u0098\u00d0\u00b0\u00d0\u00b2\u00d0\u00b0\u00d1\u0086","wikipedia:en":"Acer_negundo"}},"type":"Feature"},
	{"geometry":{"coordinates":[19.156703,44.512256],"type":"Point"},"properties":{"osm_id":"8959314421","tag":{"denotation":"park","leaf_cycle":"deciduous","natural":"tree","specie":"Acer negundo","wikidata":"Q161166","wikipedia":"sr:\u00d0\u009f\u00d0\u00b0\u00d1\u0098\u00d0\u00b0\u00d0\u00b2\u00d0\u00b0\u00d1\u0086","wikipedia:en":"Acer_negundo"}},"type":"Feature"},
	{"geometry":{"coordinates":[19.156767,44.512289],"type":"Point"},"properties":{"osm_id":"8959314422","tag":{"denotation":"park","leaf_cycle":"deciduous","natural":"tree","specie":"Acer negundo","wikidata":"Q161166","wikipedia":"sr:\u00d0\u009f\u00d0\u00b0\u00d1\u0098\u00d0\u00b0\u00d0\u00b2\u00d0\u00b0\u00d1\u0086","wikipedia:en":"Acer_negundo"}},"type":"Feature"},
	{"geometry":{"coordinates":[19.156858,44.512381],"type":"Point"},"properties":{"osm_id":"8959314423","tag":{"denotation":"park","leaf_cycle":"deciduous","natural":"tree","specie":"Acer negundo","wikidata":"Q161166","wikipedia":"sr:\u00d0\u009f\u00d0\u00b0\u00d1\u0098\u00d0\u00b0\u00d0\u00b2\u00d0\u00b0\u00d1\u0086","wikipedia:en":"Acer_negundo"}},"type":"Feature"},
	{"geometry":{"coordinates":[19.156883,44.512439],"type":"Point"},"properties":{"osm_id":"8959314424","tag":{"denotation":"park","leaf_cycle":"deciduous","natural":"tree","specie":"Acer negundo","wikidata":"Q161166","wikipedia":"sr:\u00d0\u009f\u00d0\u00b0\u00d1\u0098\u00d0\u00b0\u00d0\u00b2\u00d0\u00b0\u00d1\u0086","wikipedia:en":"Acer_negundo"}},"type":"Feature"},
	{"geometry":{"coordinates":[19.156869,44.512522],"type":"Point"},"properties":{"osm_id":"8959314425","tag":{"denotation":"park","leaf_cycle":"deciduous","natural":"tree","specie":"Acer negundo","wikidata":"Q161166","wikipedia":"sr:\u00d0\u009f\u00d0\u00b0\u00d1\u0098\u00d0\u00b0\u00d0\u00b2\u00d0\u00b0\u00d1\u0086","wikipedia:en":"Acer_negundo"}},"type":"Feature"},
	{"geometry":{"coordinates":[19.156842,44.512568],"type":"Point"},"properties":{"osm_id":"8959314426","tag":{"denotation":"park","leaf_cycle":"deciduous","natural":"tree","specie":"Acer negundo","wikidata":"Q161166","wikipedia":"sr:\u00d0\u009f\u00d0\u00b0\u00d1\u0098\u00d0\u00b0\u00d0\u00b2\u00d0\u00b0\u00d1\u0086","wikipedia:en":"Acer_negundo"}},"type":"Feature"},
	{"geometry":{"coordinates":[19.156799,44.512616],"type":"Point"},"properties":{"osm_id":"8959314427","tag":{"denotation":"park","leaf_cycle":"deciduous","natural":"tree","specie":"Acer negundo","wikidata":"Q161166","wikipedia":"sr:\u00d0\u009f\u00d0\u00b0\u00d1\u0098\u00d0\u00b0\u00d0\u00b2\u00d0\u00b0\u00d1\u0086","wikipedia:en":"Acer_negundo"}},"type":"Feature"},
	{"geometry":{"coordinates":[19.156746,44.512653],"type":"Point"},"properties":{"osm_id":"8959314428","tag":{"denotation":"park","leaf_cycle":"deciduous","natural":"tree","specie":"Acer negundo","wikidata":"Q161166","wikipedia":"sr:\u00d0\u009f\u00d0\u00b0\u00d1\u0098\u00d0\u00b0\u00d0\u00b2\u00d0\u00b0\u00d1\u0086","wikipedia:en":"Acer_negundo"}},"type":"Feature"},
	{"geometry":{"coordinates":[19.156597,44.512687],"type":"Point"},"properties":{"osm_id":"8959314429","tag":{"denotation":"park","leaf_cycle":"deciduous","natural":"tree","specie":"Acer negundo","wikidata":"Q161166","wikipedia":"sr:\u00d0\u009f\u00d0\u00b0\u00d1\u0098\u00d0\u00b0\u00d0\u00b2\u00d0\u00b0\u00d1\u0086","wikipedia:en":"Acer_negundo"}},"type":"Feature"}
]
}
