{
"type": "FeatureCollection",
"features": [
	{"geometry":{"coordinates":[31.965854,46.979023],"type":"Point"},"properties":{"osm_id":"2810993214","tag":{"amenity":"waste_basket"}},"type":"Feature"},
	{"geometry":{"coordinates":[31.980294,46.955943],"type":"Point"},"properties":{"name":"\u00d0\u009c\u00d0\u00b5\u00d1\u0082\u00d0\u00b0\u00d0\u00bb\u00d0\u00bb\u00d0\u00be\u00d0\u00b1\u00d0\u00b0\u00d0\u00b7\u00d0\u00b0","osm_id":"4305297391","tag":{"amenity":"recycling"}},"type":"Feature"},
	{"geometry":{"coordinates":[31.972034,46.954329],"type":"Point"},"properties":{"name":"\u00d0\u009c\u00d0\u00b5\u00d1\u0082\u00d0\u00b0\u00d0\u00bb\u00d0\u00bb\u00d0\u00be\u00d0\u00b1\u00d0\u00b0\u00d0\u00b7\u00d0\u00b0 \"\u00d0\u009a\u00d1\u0080\u00d0\u00b0\u00d1\u0084\u00d1\u0082\"","osm_id":"4305297392","tag":{"amenity":"recycling"}},"type":"Feature"},
	{"geometry":{"coordinates":[31.977437,46.972642],"type":"Point"},"properties":{"osm_id":"4774649723","tag":{"amenity":"waste_disposal"}},"type":"Feature"},
	{"geometry":{"coordinates":[31.951793,46.947989],"type":"Point"},"properties":{"osm_id":"5671662621","tag":{"amenity":"recycling","name:ru":"\u00d0\u009c\u00d0\u00b5\u00d1\u0082\u00d0\u00b0\u00d0\u00bb\u00d0\u00bb\u00d0\u00be\u00d0\u00bb\u00d0\u00be\u00d0\u00bc \u00d0\u009d\u00d0\u00b8\u00d0\u00ba\u00d0\u00be\u00d0\u00bb\u00d0\u00b0\u00d0\u00b5\u00d0\u00b2","operator":"\u00d0\u009c\u00d0\u00b0\u00d1\u0080\u00d0\u00ba\u00d0\u00b0\u00d1\u0080\u00d0\u00be\u00d0\u00b2. \u00d0\u0090. \u00d0\u00ae","phone":"+380672591746","website":"https://metlom.net.ua/"}},"type":"Feature"},
	{"geometry":{"coordinates":[31.990963,46.954391],"type":"Point"},"properties":{"barrier":"gate","osm_id":"7794175094"},"type":"Feature"},
	{"geometry":{"coordinates":[31.986407,46.959865],"type":"Point"},"properties":{"osm_id":"7794405037","tag":{"amenity":"waste_disposal"}},"type":"Feature"},
	{"geometry":{"coordinates":[31.986403,46.959877],"type":"Point"},"properties":{"osm_id":"7794405038","tag":{"amenity":"waste_disposal"}},"type":"Feature"},
	{"geometry":{"coordinates":[31.986393,46.959887],"type":"Point"},"properties":{"osm_id":"7794405039","tag":{"amenity":"waste_disposal"}},"type":"Feature"},
	{"geometry":{"coordinates":[31.986381,46.959901],"type":"Point"},"properties":{"osm_id":"7794405040","tag":{"amenity":"waste_disposal"}},"type":"Feature"},
	{"geometry":{"coordinates":[31.98771,46.95814],"type":"Point"},"properties":{"osm_id":"7833729452","tag":{"amenity":"waste_disposal"}},"type":"Feature"},
	{"geometry":{"coordinates":[31.989833,46.956694],"type":"Point"},"properties":{"osm_id":"7833736387","tag":{"amenity":"waste_disposal"}},"type":"Feature"},
	{"geometry":{"coordinates":[31.988459,46.958005],"type":"Point"},"properties":{"osm_id":"7834713646","tag":{"amenity":"waste_disposal"}},"type":"Feature"},
	{"geometry":{"coordinates":[31.988457,46.958015],"type":"Point"},"properties":{"osm_id":"7834713647","tag":{"amenity":"waste_disposal"}},"type":"Feature"},
	{"geometry":{"coordinates":[31.985215,46.958661],"type":"Point"},"properties":{"osm_id":"7836104316","tag":{"amenity":"waste_disposal"}},"type":"Feature"},
	{"geometry":{"coordinates":[31.985481,46.957392],"type":"Point"},"properties":{"osm_id":"7837060718","tag":{"amenity":"waste_disposal"}},"type":"Feature"},
	{"geometry":{"coordinates":[31.985478,46.957423],"type":"Point"},"properties":{"osm_id":"7837060719","tag":{"amenity":"waste_disposal"}},"type":"Feature"}
]
}
