{
"type": "FeatureCollection",
"features": [
	{"geometry":{"coordinates":[31.941877,3.29001],"type":"Point"},"properties":{"name":"Waste disposal for Ayilo I market in block C","osm_id":"5772349688","tag":{"addr:block":"Ayilo I market","addr:district":"Adjumani","addr:settlement":"Ayilo_I","amenity":"waste_disposal","fee":"no","lit":"no","operator":"OXFAM","operator:type":"ngo","source:version":"Sanitation;v3.0.2","start_date":"2014-07-01","waste":"Market Waste and polythene bags"}},"type":"Feature"},
	{"geometry":{"coordinates":[31.941008,3.290142],"type":"Point"},"properties":{"name":"Waste disposal for Ayilo I market in block C","osm_id":"5772349690","tag":{"addr:block":"Ayilo 1 market","addr:district":"Adjumani","addr:settlement":"Ayilo_I","amenity":"waste_disposal","fee":"no","lit":"no","operator":"LWF","operator:type":"ngo","source:version":"Sanitation;v3.0.2","start_date":"2015-05-01","waste":"Market waste, polythene bag and etc"}},"type":"Feature"},
	{"geometry":{"coordinates":[31.940363,3.289415],"type":"Point"},"properties":{"name":"Waste disposal for Ayilo 1 market in block D","osm_id":"5772349692","tag":{"addr:block":"Ayilo 1 block C market","addr:district":"Adjumani","addr:settlement":"Ayilo_I","amenity":"waste_disposal","fee":"no","lit":"no","operator":"LWF","operator:type":"ngo","source:version":"Sanitation;v3.0.2","start_date":"2015-12-01","waste":"Commercal Waste, polythene bag , Empty boxes and etc"}},"type":"Feature"},
	{"geometry":{"coordinates":[31.951882,3.284252],"type":"Point"},"properties":{"name":"Metal waste basket","osm_id":"5772349694","tag":{"addr:block":"Ayilo 1 block B Community center","addr:district":"Adjumani","addr:settlement":"Ayilo_I","amenity":"waste_basket","fee":"no","lit":"no","operator":"LWF","operator:type":"ngo","source:version":"Sanitation;v3.0.2","start_date":"2015-06-01","waste":"Polythene bag, plastic bottle and etc"}},"type":"Feature"},
	{"geometry":{"coordinates":[31.951772,3.284545],"type":"Point"},"properties":{"name":"Waste basket","osm_id":"5772349695","tag":{"addr:block":"Ayilo 1 Block B Community Center","addr:district":"Adjumani","addr:settlement":"Ayilo_I","amenity":"waste_basket","fee":"no","lit":"no","operator":"LWF","operator:type":"ngo","source:version":"Sanitation;v3.0.2","start_date":"2015-05-01","waste":"Polythene bag, plastic bottle, empty boxes"}},"type":"Feature"}
]
}
