{
"type": "FeatureCollection",
"features": [
	{"geometry":{"coordinates":[10.132997,54.34134],"type":"Point"},"properties":{"osm_id":"283101669","tag":{"amenity":"recycling","location":"overground","recycling:glass":"yes","recycling_type":"container"}},"type":"Feature"},
	{"geometry":{"coordinates":[10.138146,54.34239],"type":"Point"},"properties":{"osm_id":"283101670","tag":{"amenity":"recycling","location":"underground","recycling:glass_bottles":"yes","recycling_type":"container"}},"type":"Feature"},
	{"geometry":{"coordinates":[10.136894,54.335375],"type":"Point"},"properties":{"osm_id":"283101671","tag":{"amenity":"recycling","operator":"Abfallbeseitigung Kiel","recycling:cans":"no","recycling:clothes":"yes","recycling:glass":"yes","recycling:paper":"no","recycling:shoes":"yes","recycling_type":"container"}},"type":"Feature"},
	{"geometry":{"coordinates":[10.127476,54.321765],"type":"Point"},"properties":{"osm_id":"283122656","tag":{"amenity":"recycling","location":"overground","recycling:glass_bottles":"yes","recycling_type":"container"}},"type":"Feature"},
	{"geometry":{"coordinates":[10.177397,54.319752],"type":"Point"},"properties":{"osm_id":"283402783","tag":{"amenity":"recycling","recycling:glass":"yes","recycling_type":"container"}},"type":"Feature"},
	{"geometry":{"coordinates":[10.12402,54.320027],"type":"Point"},"properties":{"osm_id":"290013108","tag":{"amenity":"recycling","location":"overground","recycling:clothes":"yes","recycling:glass_bottles":"yes","recycling_type":"container"}},"type":"Feature"},
	{"geometry":{"coordinates":[10.193819,54.323084],"type":"Point"},"properties":{"osm_id":"339836724","tag":{"amenity":"recycling","recycling:glass_bottles":"yes","recycling_type":"container"}},"type":"Feature"},
	{"geometry":{"coordinates":[10.193836,54.323134],"type":"Point"},"properties":{"osm_id":"339836735","tag":{"amenity":"recycling","recycling:clothes":"yes","recycling_type":"container"}},"type":"Feature"},
	{"geometry":{"coordinates":[10.132486,54.326491],"type":"Point"},"properties":{"osm_id":"386159653","tag":{"amenity":"recycling","location":"overground","recycling:glass_bottles":"yes","recycling_type":"container"}},"type":"Feature"},
	{"geometry":{"coordinates":[10.185245,54.333264],"type":"Point"},"properties":{"osm_id":"388254365","tag":{"amenity":"recycling","recycling:glass":"yes"}},"type":"Feature"},
	{"geometry":{"coordinates":[10.186981,54.333352],"type":"Point"},"properties":{"osm_id":"388254367","tag":{"amenity":"recycling","recycling:glass":"yes"}},"type":"Feature"},
	{"geometry":{"coordinates":[10.128169,54.344015],"type":"Point"},"properties":{"osm_id":"391276263","tag":{"amenity":"recycling","recycling:glass_bottles":"yes","recycling_type":"container"}},"type":"Feature"},
	{"geometry":{"coordinates":[10.187645,54.33056],"type":"Point"},"properties":{"osm_id":"394898087","tag":{"amenity":"recycling","recycling:glass":"yes"}},"type":"Feature"},
	{"geometry":{"coordinates":[10.187664,54.330601],"type":"Point"},"properties":{"osm_id":"394898089","tag":{"amenity":"recycling","recycling:glass":"yes"}},"type":"Feature"},
	{"geometry":{"coordinates":[10.191727,54.337131],"type":"Point"},"properties":{"osm_id":"394898111","tag":{"amenity":"recycling","recycling:clothes":"yes"}},"type":"Feature"},
	{"geometry":{"coordinates":[10.192877,54.337062],"type":"Point"},"properties":{"osm_id":"404440454","tag":{"amenity":"recycling","recycling:glass":"yes"}},"type":"Feature"},
	{"geometry":{"coordinates":[10.192902,54.337063],"type":"Point"},"properties":{"osm_id":"404440457","tag":{"amenity":"recycling","recycling:glass":"yes"}},"type":"Feature"},
	{"geometry":{"coordinates":[10.192901,54.337044],"type":"Point"},"properties":{"osm_id":"404440461","tag":{"amenity":"recycling","recycling:glass":"yes"}},"type":"Feature"},
	{"geometry":{"coordinates":[10.192875,54.337044],"type":"Point"},"properties":{"osm_id":"404440463","tag":{"amenity":"recycling","recycling:glass":"yes"}},"type":"Feature"},
	{"geometry":{"coordinates":[10.132689,54.349235],"type":"Point"},"properties":{"osm_id":"411802320","tag":{"amenity":"recycling","location":"overground","recycling:glass":"yes","recycling_type":"container"}},"type":"Feature"},
	{"geometry":{"coordinates":[10.136898,54.342317],"type":"Point"},"properties":{"osm_id":"440221610","tag":{"amenity":"recycling","location":"underground","recycling:glass_bottles":"yes","recycling_type":"container"}},"type":"Feature"},
	{"geometry":{"coordinates":[10.187624,54.330514],"type":"Point"},"properties":{"osm_id":"480347037","tag":{"amenity":"recycling","recycling:clothes":"yes"}},"type":"Feature"},
	{"geometry":{"coordinates":[10.186395,54.332258],"type":"Point"},"properties":{"osm_id":"488550231","tag":{"amenity":"recycling","recycling:glass":"yes"}},"type":"Feature"},
	{"geometry":{"coordinates":[10.186384,54.332257],"type":"Point"},"properties":{"osm_id":"488550232","tag":{"amenity":"recycling","recycling:clothes":"yes"}},"type":"Feature"},
	{"geometry":{"coordinates":[10.144162,54.32262],"type":"Point"},"properties":{"osm_id":"525218864","tag":{"amenity":"recycling","recycling:batteries":"no","recycling:cans":"no","recycling:clothes":"no","recycling:glass_bottles":"yes","recycling:paper":"no","recycling:scrap_metal":"no","recycling_type":"container"}},"type":"Feature"},
	{"geometry":{"coordinates":[10.135456,54.331956],"type":"Point"},"properties":{"osm_id":"556392355","tag":{"amenity":"recycling","location":"overground","recycling:glass":"yes","recycling_type":"container"}},"type":"Feature"},
	{"geometry":{"coordinates":[10.12349,54.317393],"type":"Point"},"properties":{"osm_id":"643684382","tag":{"amenity":"recycling","recycling:glass_bottles":"yes","recycling_type":"container"}},"type":"Feature"},
	{"geometry":{"coordinates":[10.11648,54.327186],"type":"Point"},"properties":{"osm_id":"672934048","tag":{"amenity":"recycling","location":"overground","recycling:clothes":"yes","recycling_type":"container"}},"type":"Feature"},
	{"geometry":{"coordinates":[10.119027,54.331772],"type":"Point"},"properties":{"barrier":"gate","osm_id":"698988028","tag":{"access":"customers"}},"type":"Feature"},
	{"geometry":{"coordinates":[10.170517,54.329054],"type":"Point"},"properties":{"osm_id":"821825444","tag":{"amenity":"recycling","recycling:engine_oil":"yes"}},"type":"Feature"},
	{"geometry":{"coordinates":[10.170526,54.329034],"type":"Point"},"properties":{"osm_id":"821825455","tag":{"amenity":"waste_basket"}},"type":"Feature"},
	{"geometry":{"coordinates":[10.171006,54.32881],"type":"Point"},"properties":{"osm_id":"821828468","tag":{"amenity":"recycling","recycling:glass":"yes"}},"type":"Feature"},
	{"geometry":{"coordinates":[10.187139,54.327613],"type":"Point"},"properties":{"osm_id":"846736600","tag":{"amenity":"waste_basket"}},"type":"Feature"},
	{"geometry":{"coordinates":[10.187144,54.327411],"type":"Point"},"properties":{"osm_id":"846736652","tag":{"amenity":"waste_basket"}},"type":"Feature"},
	{"geometry":{"coordinates":[10.187335,54.327418],"type":"Point"},"properties":{"osm_id":"846736673","tag":{"amenity":"waste_basket"}},"type":"Feature"},
	{"geometry":{"coordinates":[10.19311,54.35956],"type":"Point"},"properties":{"osm_id":"927117467","tag":{"amenity":"recycling","recycling:glass":"yes"}},"type":"Feature"},
	{"geometry":{"coordinates":[10.120922,54.338623],"type":"Point"},"properties":{"osm_id":"1016283355","tag":{"amenity":"recycling","description":"Altglascontainer","location":"overground","recycling_type":"container"}},"type":"Feature"},
	{"geometry":{"coordinates":[10.13135,54.334248],"type":"Point"},"properties":{"osm_id":"1016286194","tag":{"amenity":"recycling","location":"overground","recycling:glass_bottles":"yes","recycling_type":"container"}},"type":"Feature"},
	{"geometry":{"coordinates":[10.180782,54.326413],"type":"Point"},"properties":{"osm_id":"1105080305","tag":{"amenity":"recycling","description":"glas recycling","location":"overground","recycling_type":"container"}},"type":"Feature"},
	{"geometry":{"coordinates":[10.147576,54.316553],"type":"Point"},"properties":{"osm_id":"1192150094","tag":{"amenity":"recycling","location":"overground","recycling_type":"container"}},"type":"Feature"},
	{"geometry":{"coordinates":[10.192368,54.33194],"type":"Point"},"properties":{"osm_id":"1194035284","tag":{"amenity":"recycling","recycling:clothes":"yes"}},"type":"Feature"},
	{"geometry":{"coordinates":[10.192336,54.33196],"type":"Point"},"properties":{"osm_id":"1194035388","tag":{"amenity":"recycling","recycling:glass":"yes"}},"type":"Feature"},
	{"geometry":{"coordinates":[10.17501,54.348174],"type":"Point"},"properties":{"osm_id":"1328892941","tag":{"amenity":"waste_basket"}},"type":"Feature"},
	{"geometry":{"coordinates":[10.19176,54.339004],"type":"Point"},"properties":{"osm_id":"1402307558","tag":{"amenity":"recycling","recycling:glass":"yes"}},"type":"Feature"},
	{"geometry":{"coordinates":[10.137011,54.342447],"type":"Point"},"properties":{"osm_id":"1705966526","tag":{"amenity":"recycling","recycling:clothes":"yes","recycling_type":"container"}},"type":"Feature"},
	{"geometry":{"coordinates":[10.12814,54.344953],"type":"Point"},"properties":{"osm_id":"1731940243","tag":{"amenity":"waste_basket"}},"type":"Feature"},
	{"geometry":{"coordinates":[10.135492,54.355707],"type":"Point"},"properties":{"osm_id":"1736630829","tag":{"amenity":"waste_basket"}},"type":"Feature"},
	{"geometry":{"coordinates":[10.135031,54.356581],"type":"Point"},"properties":{"osm_id":"1736630830","tag":{"amenity":"waste_basket"}},"type":"Feature"},
	{"geometry":{"coordinates":[10.136606,54.34138],"type":"Point"},"properties":{"osm_id":"1756256675","tag":{"amenity":"waste_basket"}},"type":"Feature"},
	{"geometry":{"coordinates":[10.137272,54.34249],"type":"Point"},"properties":{"osm_id":"1765575844","tag":{"amenity":"waste_basket"}},"type":"Feature"},
	{"geometry":{"coordinates":[10.1336,54.358242],"type":"Point"},"properties":{"osm_id":"1784679063","tag":{"amenity":"recycling","recycling:clothes":"yes","recycling:glass":"yes","recycling_type":"container"}},"type":"Feature"},
	{"geometry":{"coordinates":[10.130925,54.358713],"type":"Point"},"properties":{"osm_id":"1789877284","tag":{"amenity":"recycling","recycling:glass":"yes","recycling_type":"container"}},"type":"Feature"},
	{"geometry":{"coordinates":[10.139283,54.34783],"type":"Point"},"properties":{"osm_id":"1791450507","tag":{"amenity":"recycling","location":"overground","opening_hours":"Mo-Sa 07:00-20:00; PH,Su closed","recycling:clothes":"yes","recycling:glass_bottles":"yes","recycling_type":"container"}},"type":"Feature"},
	{"geometry":{"coordinates":[10.131222,54.358861],"type":"Point"},"properties":{"osm_id":"1791676503","tag":{"amenity":"recycling","recycling:clothes":"yes","recycling_type":"container"}},"type":"Feature"},
	{"geometry":{"coordinates":[10.119082,54.331803],"type":"Point"},"properties":{"osm_id":"1794609197","tag":{"amenity":"recycling","direction":"NNE","recycling:glass_bottles":"yes","recycling_type":"container"}},"type":"Feature"},
	{"geometry":{"coordinates":[10.133476,54.360164],"type":"Point"},"properties":{"osm_id":"1796116239","tag":{"amenity":"waste_basket"}},"type":"Feature"},
	{"geometry":{"coordinates":[10.133826,54.360185],"type":"Point"},"properties":{"osm_id":"1796116243","tag":{"amenity":"waste_basket"}},"type":"Feature"},
	{"geometry":{"coordinates":[10.13383,54.360206],"type":"Point"},"properties":{"osm_id":"1796116246","tag":{"amenity":"waste_basket"}},"type":"Feature"},
	{"geometry":{"coordinates":[10.1322,54.358751],"type":"Point"},"properties":{"osm_id":"1827449449","tag":{"amenity":"waste_basket"}},"type":"Feature"},
	{"geometry":{"coordinates":[10.135338,54.359602],"type":"Point"},"properties":{"osm_id":"1878358132","tag":{"amenity":"recycling","location":"overground","recycling:clothes":"yes","recycling:glass":"yes","recycling_type":"container"}},"type":"Feature"},
	{"geometry":{"coordinates":[10.137943,54.360517],"type":"Point"},"properties":{"osm_id":"1878358155","tag":{"amenity":"recycling","recycling:clothes":"yes","recycling:glass":"yes","recycling_type":"container"}},"type":"Feature"},
	{"geometry":{"coordinates":[10.139783,54.362954],"type":"Point"},"properties":{"osm_id":"1878358211","tag":{"amenity":"waste_basket"}},"type":"Feature"},
	{"geometry":{"coordinates":[10.140253,54.363277],"type":"Point"},"properties":{"osm_id":"1878358227","tag":{"amenity":"waste_basket"}},"type":"Feature"},
	{"geometry":{"coordinates":[10.141046,54.36357],"type":"Point"},"properties":{"osm_id":"1878358262","tag":{"amenity":"waste_basket"}},"type":"Feature"},
	{"geometry":{"coordinates":[10.140498,54.363717],"type":"Point"},"properties":{"osm_id":"1878358284","tag":{"amenity":"waste_basket"}},"type":"Feature"},
	{"geometry":{"coordinates":[10.130967,54.365927],"type":"Point"},"properties":{"osm_id":"1878358376","tag":{"amenity":"waste_basket"}},"type":"Feature"},
	{"geometry":{"coordinates":[10.135575,54.356572],"type":"Point"},"properties":{"osm_id":"1888351317","tag":{"amenity":"waste_basket"}},"type":"Feature"},
	{"geometry":{"coordinates":[10.131036,54.356037],"type":"Point"},"properties":{"osm_id":"1888546099","tag":{"amenity":"recycling","recycling:clothes":"yes","recycling:glass":"yes","recycling_type":"container"}},"type":"Feature"},
	{"geometry":{"coordinates":[10.130549,54.35691],"type":"Point"},"properties":{"osm_id":"1888546100","tag":{"amenity":"waste_basket"}},"type":"Feature"},
	{"geometry":{"coordinates":[10.130081,54.357024],"type":"Point"},"properties":{"osm_id":"1888546102","tag":{"amenity":"waste_basket"}},"type":"Feature"},
	{"geometry":{"coordinates":[10.13313,54.355373],"type":"Point"},"properties":{"osm_id":"1888868414","tag":{"amenity":"waste_basket"}},"type":"Feature"},
	{"geometry":{"coordinates":[10.136473,54.341434],"type":"Point"},"properties":{"osm_id":"1897726247","tag":{"amenity":"waste_basket"}},"type":"Feature"},
	{"geometry":{"coordinates":[10.135306,54.325959],"type":"Point"},"properties":{"osm_id":"1904086352","tag":{"amenity":"waste_basket"}},"type":"Feature"},
	{"geometry":{"coordinates":[10.110841,54.35785],"type":"Point"},"properties":{"osm_id":"1908005124","tag":{"amenity":"waste_basket"}},"type":"Feature"},
	{"geometry":{"coordinates":[10.108628,54.359024],"type":"Point"},"properties":{"osm_id":"1908005140","tag":{"amenity":"waste_basket"}},"type":"Feature"},
	{"geometry":{"coordinates":[10.108299,54.359048],"type":"Point"},"properties":{"osm_id":"1908005146","tag":{"amenity":"waste_basket"}},"type":"Feature"},
	{"geometry":{"coordinates":[10.108276,54.359091],"type":"Point"},"properties":{"osm_id":"1908005150","tag":{"amenity":"recycling","recycling:clothes":"yes","recycling:glass":"yes","recycling_type":"container"}},"type":"Feature"},
	{"geometry":{"coordinates":[10.140891,54.353154],"type":"Point"},"properties":{"osm_id":"1950752361","tag":{"amenity":"waste_basket"}},"type":"Feature"},
	{"geometry":{"coordinates":[10.124532,54.351239],"type":"Point"},"properties":{"osm_id":"2039847161","tag":{"amenity":"recycling","recycling:clothes":"yes","recycling:glass":"yes","recycling_type":"container"}},"type":"Feature"},
	{"geometry":{"coordinates":[10.162558,54.317458],"type":"Point"},"properties":{"osm_id":"2460677670","tag":{"amenity":"recycling","recycling:glass":"yes","recycling_type":"container"}},"type":"Feature"},
	{"geometry":{"coordinates":[10.126324,54.341866],"type":"Point"},"properties":{"osm_id":"2536929340","tag":{"amenity":"waste_basket"}},"type":"Feature"},
	{"geometry":{"coordinates":[10.126117,54.341492],"type":"Point"},"properties":{"osm_id":"2536929344","tag":{"amenity":"waste_basket"}},"type":"Feature"},
	{"geometry":{"coordinates":[10.126423,54.341484],"type":"Point"},"properties":{"osm_id":"2536929346","tag":{"amenity":"waste_basket"}},"type":"Feature"},
	{"geometry":{"coordinates":[10.131233,54.361022],"type":"Point"},"properties":{"osm_id":"2560587707","tag":{"amenity":"recycling","recycling:clothes":"yes","recycling:glass":"yes","recycling_type":"container"}},"type":"Feature"},
	{"geometry":{"coordinates":[10.13472,54.348667],"type":"Point"},"properties":{"osm_id":"2829865201","tag":{"amenity":"recycling","location":"overground","recycling:glass":"yes","recycling_type":"container"}},"type":"Feature"},
	{"geometry":{"coordinates":[10.133007,54.348796],"type":"Point"},"properties":{"osm_id":"2829878689","tag":{"amenity":"recycling","location":"overground","operator":"Textil Recycling K. & A. Wenkhaus GmbH","recycling:clothes":"yes","recycling_type":"container"}},"type":"Feature"},
	{"geometry":{"coordinates":[10.175434,54.332811],"type":"Point"},"properties":{"osm_id":"2972686930","tag":{"amenity":"recycling"}},"type":"Feature"},
	{"geometry":{"coordinates":[10.133855,54.360763],"type":"Point"},"properties":{"osm_id":"3027981455","tag":{"amenity":"waste_basket"}},"type":"Feature"},
	{"geometry":{"coordinates":[10.133857,54.360784],"type":"Point"},"properties":{"osm_id":"3027981456","tag":{"amenity":"waste_basket"}},"type":"Feature"},
	{"geometry":{"coordinates":[10.138455,54.355081],"type":"Point"},"properties":{"osm_id":"3089258338","tag":{"amenity":"waste_basket"}},"type":"Feature"},
	{"geometry":{"coordinates":[10.156788,54.340679],"type":"Point"},"properties":{"osm_id":"3159236068","tag":{"amenity":"recycling","recycling:paper":"yes","recycling_type":"container"}},"type":"Feature"},
	{"geometry":{"coordinates":[10.111573,54.333048],"type":"Point"},"properties":{"osm_id":"3357583976","tag":{"amenity":"recycling","location":"overground","recycling:clothes":"yes","recycling_type":"container"}},"type":"Feature"},
	{"geometry":{"coordinates":[10.111119,54.331437],"type":"Point"},"properties":{"osm_id":"3357596936","tag":{"amenity":"recycling","location":"overground","recycling:cans":"no","recycling:clothes":"yes","recycling:glass":"yes","recycling:paper":"no","recycling_type":"container"}},"type":"Feature"},
	{"geometry":{"coordinates":[10.14677,54.363868],"type":"Point"},"properties":{"osm_id":"3494536230","tag":{"amenity":"recycling","location":"overground","recycling:glass":"yes","recycling_type":"container"}},"type":"Feature"},
	{"geometry":{"coordinates":[10.146736,54.363873],"type":"Point"},"properties":{"osm_id":"3494536232","tag":{"amenity":"waste_disposal"}},"type":"Feature"},
	{"geometry":{"coordinates":[10.14663,54.363918],"type":"Point"},"properties":{"osm_id":"3494536238","tag":{"amenity":"waste_disposal"}},"type":"Feature"},
	{"geometry":{"coordinates":[10.135318,54.321223],"type":"Point"},"properties":{"osm_id":"3702281253","tag":{"amenity":"waste_basket"}},"type":"Feature"},
	{"geometry":{"coordinates":[10.134861,54.320947],"type":"Point"},"properties":{"osm_id":"3702281254","tag":{"amenity":"waste_basket"}},"type":"Feature"},
	{"geometry":{"coordinates":[10.116582,54.32173],"type":"Point"},"properties":{"osm_id":"3755068623","tag":{"amenity":"recycling","opening_hours":"Mo-Sa 07:00-20:00;PH off","recycling:glass_bottles":"yes","recycling_type":"container"}},"type":"Feature"},
	{"geometry":{"coordinates":[10.12226,54.334066],"type":"Point"},"properties":{"osm_id":"3755068624","tag":{"amenity":"recycling","recycling:clothes":"yes","recycling:glass":"yes","recycling_type":"container"}},"type":"Feature"},
	{"geometry":{"coordinates":[10.127612,54.342784],"type":"Point"},"properties":{"osm_id":"3755068925","tag":{"amenity":"recycling","recycling:glass_bottles":"yes","recycling_type":"container"}},"type":"Feature"},
	{"geometry":{"coordinates":[10.127773,54.321765],"type":"Point"},"properties":{"osm_id":"3764303910","tag":{"amenity":"recycling","recycling:clothes":"yes","recycling_type":"container"}},"type":"Feature"},
	{"geometry":{"coordinates":[10.127728,54.321771],"type":"Point"},"properties":{"osm_id":"3764303911","tag":{"amenity":"recycling","recycling:glass":"yes","recycling_type":"container"}},"type":"Feature"},
	{"geometry":{"coordinates":[10.132231,54.351792],"type":"Point"},"properties":{"osm_id":"3764305974","tag":{"amenity":"recycling","recycling:glass_bottles":"yes","recycling_type":"container"}},"type":"Feature"},
	{"geometry":{"coordinates":[10.121325,54.32042],"type":"Point"},"properties":{"osm_id":"3797130240","tag":{"amenity":"recycling","recycling:clothes":"yes","recycling:glass_bottles":"yes","recycling_type":"container"}},"type":"Feature"},
	{"geometry":{"coordinates":[10.137959,54.332443],"type":"Point"},"properties":{"osm_id":"3799729060","tag":{"amenity":"recycling","recycling:glass":"yes","recycling_type":"container"}},"type":"Feature"},
	{"geometry":{"coordinates":[10.137956,54.332459],"type":"Point"},"properties":{"osm_id":"3799729061","tag":{"amenity":"recycling","operator":"Deutsches Rotes Kreuz","recycling:clothes":"yes","recycling:shoes":"yes","recycling_type":"container"}},"type":"Feature"},
	{"geometry":{"coordinates":[10.189699,54.33622],"type":"Point"},"properties":{"osm_id":"3950183528","tag":{"amenity":"recycling","recycling:glass":"yes","recycling_type":"container"}},"type":"Feature"},
	{"geometry":{"coordinates":[10.149021,54.32984],"type":"Point"},"properties":{"osm_id":"4127981028","tag":{"amenity":"waste_basket"}},"type":"Feature"},
	{"geometry":{"coordinates":[10.12154,54.333809],"type":"Point"},"properties":{"osm_id":"4449144061","tag":{"amenity":"waste_basket"}},"type":"Feature"},
	{"geometry":{"coordinates":[10.152827,54.338241],"type":"Point"},"properties":{"osm_id":"4458773620","tag":{"amenity":"waste_basket"}},"type":"Feature"},
	{"geometry":{"coordinates":[10.153716,54.338698],"type":"Point"},"properties":{"osm_id":"4458773622","tag":{"amenity":"waste_basket"}},"type":"Feature"},
	{"geometry":{"coordinates":[10.152146,54.338],"type":"Point"},"properties":{"osm_id":"4458796673","tag":{"amenity":"waste_basket"}},"type":"Feature"},
	{"geometry":{"coordinates":[10.150325,54.336947],"type":"Point"},"properties":{"osm_id":"4458796680","tag":{"amenity":"waste_basket"}},"type":"Feature"},
	{"geometry":{"coordinates":[10.148574,54.336624],"type":"Point"},"properties":{"osm_id":"4458796682","tag":{"amenity":"waste_basket"}},"type":"Feature"},
	{"geometry":{"coordinates":[10.135931,54.331409],"type":"Point"},"properties":{"osm_id":"4521846713","tag":{"amenity":"waste_basket"}},"type":"Feature"},
	{"geometry":{"coordinates":[10.117583,54.355148],"type":"Point"},"properties":{"osm_id":"4874519654","tag":{"amenity":"recycling","recycling:glass":"yes","recycling:glass_bottles":"yes","recycling_type":"container"}},"type":"Feature"},
	{"geometry":{"coordinates":[10.115456,54.355904],"type":"Point"},"properties":{"osm_id":"4874534706","tag":{"amenity":"recycling","recycling:clothes":"yes","recycling:shoes":"yes","recycling_type":"container"}},"type":"Feature"},
	{"geometry":{"coordinates":[10.133921,54.31785],"type":"Point"},"properties":{"osm_id":"5045134399","tag":{"amenity":"waste_basket"}},"type":"Feature"},
	{"geometry":{"coordinates":[10.137449,54.32307],"type":"Point"},"properties":{"osm_id":"5078685454","tag":{"amenity":"waste_basket"}},"type":"Feature"},
	{"geometry":{"coordinates":[10.182067,54.334734],"type":"Point"},"properties":{"osm_id":"5085274148","tag":{"amenity":"waste_disposal","operator":"Nur Glas!"}},"type":"Feature"},
	{"geometry":{"coordinates":[10.133102,54.320317],"type":"Point"},"properties":{"osm_id":"5120278400","tag":{"amenity":"waste_basket"}},"type":"Feature"},
	{"geometry":{"coordinates":[10.120708,54.31934],"type":"Point"},"properties":{"osm_id":"5204618701","tag":{"amenity":"recycling","recycling:glass_bottles":"yes","recycling_type":"container"}},"type":"Feature"},
	{"geometry":{"coordinates":[10.128394,54.357144],"type":"Point"},"properties":{"osm_id":"5268894839","tag":{"amenity":"waste_basket"}},"type":"Feature"},
	{"geometry":{"coordinates":[10.132627,54.329916],"type":"Point"},"properties":{"osm_id":"5361577700","tag":{"amenity":"waste_basket"}},"type":"Feature"},
	{"geometry":{"coordinates":[10.154147,54.338329],"type":"Point"},"properties":{"osm_id":"5372668301","tag":{"amenity":"waste_basket"}},"type":"Feature"},
	{"geometry":{"coordinates":[10.156241,54.336445],"type":"Point"},"properties":{"osm_id":"5372668302","tag":{"amenity":"waste_basket"}},"type":"Feature"},
	{"geometry":{"coordinates":[10.156957,54.340372],"type":"Point"},"properties":{"osm_id":"5372852580","tag":{"amenity":"waste_basket"}},"type":"Feature"},
	{"geometry":{"coordinates":[10.156972,54.340206],"type":"Point"},"properties":{"osm_id":"5372852581","tag":{"amenity":"waste_basket"}},"type":"Feature"},
	{"geometry":{"coordinates":[10.157053,54.339855],"type":"Point"},"properties":{"osm_id":"5372852582","tag":{"amenity":"waste_basket"}},"type":"Feature"},
	{"geometry":{"coordinates":[10.156929,54.339861],"type":"Point"},"properties":{"osm_id":"5372852583","tag":{"amenity":"recycling","recycling:paper":"yes","recycling_type":"container"}},"type":"Feature"},
	{"geometry":{"coordinates":[10.156303,54.341716],"type":"Point"},"properties":{"osm_id":"5372852585","tag":{"amenity":"waste_basket"}},"type":"Feature"},
	{"geometry":{"coordinates":[10.156344,54.341641],"type":"Point"},"properties":{"osm_id":"5372852586","tag":{"amenity":"waste_basket"}},"type":"Feature"},
	{"geometry":{"coordinates":[10.156173,54.342179],"type":"Point"},"properties":{"osm_id":"5372852589","tag":{"amenity":"waste_basket"}},"type":"Feature"},
	{"geometry":{"coordinates":[10.155637,54.342665],"type":"Point"},"properties":{"osm_id":"5372852590","tag":{"amenity":"waste_basket"}},"type":"Feature"},
	{"geometry":{"coordinates":[10.155691,54.342586],"type":"Point"},"properties":{"osm_id":"5372852591","tag":{"amenity":"waste_basket"}},"type":"Feature"},
	{"geometry":{"coordinates":[10.155489,54.343137],"type":"Point"},"properties":{"osm_id":"5372852596","tag":{"amenity":"waste_basket"}},"type":"Feature"},
	{"geometry":{"coordinates":[10.155025,54.344034],"type":"Point"},"properties":{"osm_id":"5372852599","tag":{"amenity":"waste_basket"}},"type":"Feature"},
	{"geometry":{"coordinates":[10.154297,54.344333],"type":"Point"},"properties":{"osm_id":"5374845591","tag":{"amenity":"waste_basket"}},"type":"Feature"},
	{"geometry":{"coordinates":[10.154329,54.344284],"type":"Point"},"properties":{"osm_id":"5374845592","tag":{"amenity":"waste_basket"}},"type":"Feature"},
	{"geometry":{"coordinates":[10.154098,54.344322],"type":"Point"},"properties":{"osm_id":"5374845593","tag":{"amenity":"waste_basket"}},"type":"Feature"},
	{"geometry":{"coordinates":[10.154192,54.344233],"type":"Point"},"properties":{"osm_id":"5374845594","tag":{"amenity":"waste_basket"}},"type":"Feature"},
	{"geometry":{"coordinates":[10.151006,54.343502],"type":"Point"},"properties":{"osm_id":"5374845598","tag":{"amenity":"waste_basket"}},"type":"Feature"},
	{"geometry":{"coordinates":[10.155049,54.343631],"type":"Point"},"properties":{"osm_id":"5377545068","tag":{"amenity":"waste_basket"}},"type":"Feature"},
	{"geometry":{"coordinates":[10.138104,54.342535],"type":"Point"},"properties":{"osm_id":"5458740697","tag":{"amenity":"waste_basket"}},"type":"Feature"},
	{"geometry":{"coordinates":[10.13747,54.342695],"type":"Point"},"properties":{"osm_id":"5458740700","tag":{"amenity":"waste_basket"}},"type":"Feature"},
	{"geometry":{"coordinates":[10.131515,54.355372],"type":"Point"},"properties":{"osm_id":"5523641480","tag":{"amenity":"waste_basket"}},"type":"Feature"},
	{"geometry":{"coordinates":[10.131177,54.355576],"type":"Point"},"properties":{"osm_id":"5523642855","tag":{"amenity":"waste_basket"}},"type":"Feature"},
	{"geometry":{"coordinates":[10.138718,54.351676],"type":"Point"},"properties":{"osm_id":"5526296795","tag":{"amenity":"waste_basket"}},"type":"Feature"},
	{"geometry":{"coordinates":[10.132422,54.324449],"type":"Point"},"properties":{"osm_id":"5534697081","tag":{"amenity":"waste_basket"}},"type":"Feature"},
	{"geometry":{"coordinates":[10.131435,54.323975],"type":"Point"},"properties":{"osm_id":"5534698621","tag":{"amenity":"waste_basket"}},"type":"Feature"},
	{"geometry":{"coordinates":[10.132843,54.324283],"type":"Point"},"properties":{"osm_id":"5534702365","tag":{"amenity":"waste_basket"}},"type":"Feature"},
	{"geometry":{"coordinates":[10.133084,54.324127],"type":"Point"},"properties":{"osm_id":"5534703721","tag":{"amenity":"waste_basket"}},"type":"Feature"},
	{"geometry":{"coordinates":[10.132937,54.323791],"type":"Point"},"properties":{"osm_id":"5534704030","tag":{"amenity":"waste_basket"}},"type":"Feature"},
	{"geometry":{"coordinates":[10.119929,54.356514],"type":"Point"},"properties":{"osm_id":"5537626376","tag":{"amenity":"waste_basket"}},"type":"Feature"},
	{"geometry":{"coordinates":[10.133234,54.335875],"type":"Point"},"properties":{"osm_id":"5548674196","tag":{"amenity":"waste_basket"}},"type":"Feature"},
	{"geometry":{"coordinates":[10.13326,54.336263],"type":"Point"},"properties":{"osm_id":"5548674906","tag":{"amenity":"waste_basket"}},"type":"Feature"},
	{"geometry":{"coordinates":[10.192228,54.352131],"type":"Point"},"properties":{"osm_id":"5551606142","tag":{"amenity":"recycling","recycling:glass_bottles":"yes","recycling_type":"container"}},"type":"Feature"},
	{"geometry":{"coordinates":[10.193619,54.348688],"type":"Point"},"properties":{"osm_id":"5551606144","tag":{"amenity":"recycling","recycling:glass_bottles":"yes","recycling_type":"container"}},"type":"Feature"},
	{"geometry":{"coordinates":[10.193714,54.348482],"type":"Point"},"properties":{"osm_id":"5551606145","tag":{"amenity":"recycling","recycling:clothes":"yes","recycling:shoes":"yes","recycling_type":"container"}},"type":"Feature"},
	{"geometry":{"coordinates":[10.147994,54.344042],"type":"Point"},"properties":{"osm_id":"5554474650","tag":{"amenity":"waste_basket"}},"type":"Feature"},
	{"geometry":{"coordinates":[10.14862,54.344127],"type":"Point"},"properties":{"osm_id":"5554474651","tag":{"amenity":"waste_basket"}},"type":"Feature"},
	{"geometry":{"coordinates":[10.150411,54.345157],"type":"Point"},"properties":{"osm_id":"5554474655","tag":{"amenity":"waste_basket"}},"type":"Feature"},
	{"geometry":{"coordinates":[10.152385,54.345908],"type":"Point"},"properties":{"osm_id":"5554474659","tag":{"amenity":"waste_basket"}},"type":"Feature"},
	{"geometry":{"coordinates":[10.151745,54.346809],"type":"Point"},"properties":{"osm_id":"5554474662","tag":{"amenity":"waste_basket"}},"type":"Feature"},
	{"geometry":{"coordinates":[10.130501,54.357588],"type":"Point"},"properties":{"osm_id":"5592729376","tag":{"amenity":"waste_basket"}},"type":"Feature"},
	{"geometry":{"coordinates":[10.130216,54.360185],"type":"Point"},"properties":{"osm_id":"5592730480","tag":{"amenity":"waste_basket"}},"type":"Feature"},
	{"geometry":{"coordinates":[10.130228,54.358202],"type":"Point"},"properties":{"osm_id":"5592733380","tag":{"amenity":"waste_basket"}},"type":"Feature"},
	{"geometry":{"coordinates":[10.118444,54.32477],"type":"Point"},"properties":{"osm_id":"5620553035","tag":{"amenity":"recycling","direction":"NW","opening_hours":"Mo-Sa 07:00-20:00; PH closed","operator":"Karl Meyer Umweltdienste","recycling:glass_bottles":"yes","recycling_type":"container","wheelchair":"yes"}},"type":"Feature"},
	{"geometry":{"coordinates":[10.138343,54.360084],"type":"Point"},"properties":{"osm_id":"5696418490","tag":{"amenity":"waste_basket"}},"type":"Feature"},
	{"geometry":{"coordinates":[10.137984,54.360408],"type":"Point"},"properties":{"osm_id":"5696421252","tag":{"amenity":"waste_basket"}},"type":"Feature"},
	{"geometry":{"coordinates":[10.139955,54.346541],"type":"Point"},"properties":{"osm_id":"5726581887","tag":{"amenity":"waste_basket","waste":"trash"}},"type":"Feature"},
	{"geometry":{"coordinates":[10.132091,54.353245],"type":"Point"},"properties":{"osm_id":"5734373892","tag":{"amenity":"waste_basket"}},"type":"Feature"},
	{"geometry":{"coordinates":[10.132668,54.353234],"type":"Point"},"properties":{"osm_id":"5734378367","tag":{"amenity":"waste_basket"}},"type":"Feature"},
	{"geometry":{"coordinates":[10.131566,54.353929],"type":"Point"},"properties":{"osm_id":"5734391200","tag":{"amenity":"waste_basket"}},"type":"Feature"},
	{"geometry":{"coordinates":[10.130768,54.35583],"type":"Point"},"properties":{"osm_id":"5734395848","tag":{"amenity":"waste_basket"}},"type":"Feature"},
	{"geometry":{"coordinates":[10.130187,54.357659],"type":"Point"},"properties":{"osm_id":"5735199250","tag":{"amenity":"waste_basket","waste":"trash"}},"type":"Feature"},
	{"geometry":{"coordinates":[10.130669,54.358429],"type":"Point"},"properties":{"osm_id":"5735199251","tag":{"amenity":"waste_basket","waste":"trash"}},"type":"Feature"},
	{"geometry":{"coordinates":[10.186732,54.328259],"type":"Point"},"properties":{"osm_id":"5745751678","tag":{"amenity":"waste_basket"}},"type":"Feature"},
	{"geometry":{"coordinates":[10.166163,54.319509],"type":"Point"},"properties":{"osm_id":"5745775194","tag":{"amenity":"waste_basket"}},"type":"Feature"},
	{"geometry":{"coordinates":[10.115611,54.327172],"type":"Point"},"properties":{"osm_id":"5747753526","tag":{"amenity":"waste_basket"}},"type":"Feature"},
	{"geometry":{"coordinates":[10.108123,54.3204],"type":"Point"},"properties":{"osm_id":"5752188425","tag":{"amenity":"recycling","recycling:clothes":"yes","recycling:glass_bottles":"yes","recycling:shoes":"yes","recycling_type":"container"}},"type":"Feature"},
	{"geometry":{"coordinates":[10.131984,54.358742],"type":"Point"},"properties":{"osm_id":"5754410182","tag":{"amenity":"waste_basket"}},"type":"Feature"},
	{"geometry":{"coordinates":[10.133299,54.358658],"type":"Point"},"properties":{"osm_id":"5754411819","tag":{"amenity":"waste_basket"}},"type":"Feature"},
	{"geometry":{"coordinates":[10.132001,54.358922],"type":"Point"},"properties":{"osm_id":"5754417227","tag":{"amenity":"waste_basket"}},"type":"Feature"},
	{"geometry":{"coordinates":[10.123161,54.358218],"type":"Point"},"properties":{"osm_id":"5754754277","tag":{"amenity":"waste_basket"}},"type":"Feature"},
	{"geometry":{"coordinates":[10.130081,54.353119],"type":"Point"},"properties":{"osm_id":"5757248547","tag":{"amenity":"waste_basket"}},"type":"Feature"},
	{"geometry":{"coordinates":[10.129686,54.354852],"type":"Point"},"properties":{"osm_id":"5757261084","tag":{"amenity":"waste_basket"}},"type":"Feature"},
	{"geometry":{"coordinates":[10.129694,54.354963],"type":"Point"},"properties":{"osm_id":"5757261626","tag":{"amenity":"waste_basket"}},"type":"Feature"},
	{"geometry":{"coordinates":[10.130527,54.356119],"type":"Point"},"properties":{"osm_id":"5757261950","tag":{"amenity":"waste_basket"}},"type":"Feature"},
	{"geometry":{"coordinates":[10.13028,54.356694],"type":"Point"},"properties":{"osm_id":"5757267923","tag":{"amenity":"waste_basket"}},"type":"Feature"},
	{"geometry":{"coordinates":[10.132725,54.350947],"type":"Point"},"properties":{"osm_id":"5782681119","tag":{"amenity":"waste_basket"}},"type":"Feature"},
	{"geometry":{"coordinates":[10.132478,54.351221],"type":"Point"},"properties":{"osm_id":"5782690158","tag":{"amenity":"waste_basket"}},"type":"Feature"},
	{"geometry":{"coordinates":[10.132749,54.351192],"type":"Point"},"properties":{"osm_id":"5782690165","tag":{"amenity":"waste_basket"}},"type":"Feature"},
	{"geometry":{"coordinates":[10.137933,54.357962],"type":"Point"},"properties":{"osm_id":"5821389805","tag":{"access":"private","amenity":"waste_disposal","description":"unterirdisch"}},"type":"Feature"},
	{"geometry":{"coordinates":[10.138372,54.356898],"type":"Point"},"properties":{"osm_id":"5821389806","tag":{"access":"private","amenity":"waste_disposal","description":"unterirdisch"}},"type":"Feature"},
	{"geometry":{"coordinates":[10.137313,54.357104],"type":"Point"},"properties":{"osm_id":"5821389807","tag":{"access":"private","amenity":"waste_disposal","description":"unterirdisch"}},"type":"Feature"},
	{"geometry":{"coordinates":[10.136459,54.358902],"type":"Point"},"properties":{"osm_id":"5825188821","tag":{"amenity":"waste_disposal"}},"type":"Feature"},
	{"geometry":{"coordinates":[10.135578,54.35836],"type":"Point"},"properties":{"osm_id":"5825188822","tag":{"amenity":"waste_disposal"}},"type":"Feature"},
	{"geometry":{"coordinates":[10.132709,54.335397],"type":"Point"},"properties":{"osm_id":"5844638569","tag":{"amenity":"waste_basket"}},"type":"Feature"},
	{"geometry":{"coordinates":[10.133227,54.335467],"type":"Point"},"properties":{"osm_id":"5844639568","tag":{"amenity":"waste_basket"}},"type":"Feature"},
	{"geometry":{"coordinates":[10.133606,54.335996],"type":"Point"},"properties":{"osm_id":"5844642048","tag":{"amenity":"waste_basket"}},"type":"Feature"},
	{"geometry":{"coordinates":[10.133525,54.335776],"type":"Point"},"properties":{"osm_id":"5844642298","tag":{"amenity":"waste_basket"}},"type":"Feature"},
	{"geometry":{"coordinates":[10.133529,54.335368],"type":"Point"},"properties":{"osm_id":"5844643719","tag":{"amenity":"waste_basket"}},"type":"Feature"},
	{"geometry":{"coordinates":[10.134859,54.321356],"type":"Point"},"properties":{"osm_id":"5905190923","tag":{"amenity":"waste_basket"}},"type":"Feature"},
	{"geometry":{"coordinates":[10.135611,54.322554],"type":"Point"},"properties":{"osm_id":"5905190924","tag":{"amenity":"waste_basket"}},"type":"Feature"},
	{"geometry":{"coordinates":[10.131139,54.355266],"type":"Point"},"properties":{"osm_id":"5905191686","tag":{"amenity":"waste_basket"}},"type":"Feature"},
	{"geometry":{"coordinates":[10.134321,54.327766],"type":"Point"},"properties":{"osm_id":"5905191689","tag":{"amenity":"waste_basket"}},"type":"Feature"},
	{"geometry":{"coordinates":[10.13447,54.322817],"type":"Point"},"properties":{"osm_id":"5905191692","tag":{"amenity":"waste_basket"}},"type":"Feature"},
	{"geometry":{"coordinates":[10.134458,54.321595],"type":"Point"},"properties":{"osm_id":"5905191695","tag":{"amenity":"waste_basket"}},"type":"Feature"},
	{"geometry":{"coordinates":[10.136907,54.358492],"type":"Point"},"properties":{"osm_id":"5907595033","tag":{"amenity":"waste_basket"}},"type":"Feature"},
	{"geometry":{"coordinates":[10.1333,54.358967],"type":"Point"},"properties":{"osm_id":"5907597620","tag":{"amenity":"waste_basket"}},"type":"Feature"},
	{"geometry":{"coordinates":[10.135736,54.357534],"type":"Point"},"properties":{"osm_id":"5907599104","tag":{"amenity":"waste_basket"}},"type":"Feature"},
	{"geometry":{"coordinates":[10.130298,54.359998],"type":"Point"},"properties":{"osm_id":"5909989453","tag":{"amenity":"recycling","opening_hours":"Mo-Sa 07:00-19:00; PH closed","recycling:clothes":"yes","recycling_type":"container"}},"type":"Feature"},
	{"geometry":{"coordinates":[10.133755,54.323112],"type":"Point"},"properties":{"osm_id":"5924588140","tag":{"amenity":"waste_basket"}},"type":"Feature"},
	{"geometry":{"coordinates":[10.134681,54.321152],"type":"Point"},"properties":{"osm_id":"5924588142","tag":{"amenity":"waste_basket"}},"type":"Feature"},
	{"geometry":{"coordinates":[10.133955,54.322131],"type":"Point"},"properties":{"osm_id":"5924588143","tag":{"amenity":"waste_basket"}},"type":"Feature"},
	{"geometry":{"coordinates":[10.133451,54.321837],"type":"Point"},"properties":{"osm_id":"5924588571","tag":{"amenity":"waste_basket"}},"type":"Feature"},
	{"geometry":{"coordinates":[10.133036,54.322787],"type":"Point"},"properties":{"osm_id":"5924588573","tag":{"amenity":"waste_basket"}},"type":"Feature"},
	{"geometry":{"coordinates":[10.132049,54.323037],"type":"Point"},"properties":{"osm_id":"5924588574","tag":{"amenity":"waste_basket"}},"type":"Feature"},
	{"geometry":{"coordinates":[10.133332,54.360298],"type":"Point"},"properties":{"osm_id":"5924588575","tag":{"amenity":"waste_basket"}},"type":"Feature"},
	{"geometry":{"coordinates":[10.133783,54.322336],"type":"Point"},"properties":{"osm_id":"5924588639","tag":{"amenity":"waste_basket"}},"type":"Feature"},
	{"geometry":{"coordinates":[10.13356,54.322317],"type":"Point"},"properties":{"osm_id":"5924588640","tag":{"amenity":"waste_basket"}},"type":"Feature"},
	{"geometry":{"coordinates":[10.133269,54.3228],"type":"Point"},"properties":{"osm_id":"5924588641","tag":{"amenity":"waste_basket"}},"type":"Feature"},
	{"geometry":{"coordinates":[10.132687,54.322652],"type":"Point"},"properties":{"osm_id":"5924588642","tag":{"amenity":"waste_basket"}},"type":"Feature"},
	{"geometry":{"coordinates":[10.132357,54.322861],"type":"Point"},"properties":{"osm_id":"5924588643","tag":{"amenity":"waste_basket"}},"type":"Feature"},
	{"geometry":{"coordinates":[10.133417,54.323773],"type":"Point"},"properties":{"osm_id":"5924588644","tag":{"amenity":"waste_basket"}},"type":"Feature"},
	{"geometry":{"coordinates":[10.13358,54.36029],"type":"Point"},"properties":{"osm_id":"5924588645","tag":{"amenity":"waste_basket"}},"type":"Feature"},
	{"geometry":{"coordinates":[10.132849,54.322559],"type":"Point"},"properties":{"osm_id":"5924588747","tag":{"amenity":"waste_basket"}},"type":"Feature"},
	{"geometry":{"coordinates":[10.123467,54.356702],"type":"Point"},"properties":{"osm_id":"5927492375","tag":{"amenity":"waste_basket"}},"type":"Feature"},
	{"geometry":{"coordinates":[10.138514,54.364691],"type":"Point"},"properties":{"osm_id":"5927492376","tag":{"amenity":"waste_basket"}},"type":"Feature"},
	{"geometry":{"coordinates":[10.128211,54.358632],"type":"Point"},"properties":{"osm_id":"5927493779","tag":{"amenity":"waste_basket"}},"type":"Feature"},
	{"geometry":{"coordinates":[10.123677,54.354729],"type":"Point"},"properties":{"osm_id":"5927493780","tag":{"amenity":"waste_basket"}},"type":"Feature"},
	{"geometry":{"coordinates":[10.115906,54.354295],"type":"Point"},"properties":{"osm_id":"5927493781","tag":{"amenity":"waste_basket"}},"type":"Feature"},
	{"geometry":{"coordinates":[10.115759,54.354003],"type":"Point"},"properties":{"osm_id":"5927493822","tag":{"amenity":"waste_basket"}},"type":"Feature"},
	{"geometry":{"coordinates":[10.134472,54.34901],"type":"Point"},"properties":{"osm_id":"5927493823","tag":{"amenity":"waste_basket"}},"type":"Feature"},
	{"geometry":{"coordinates":[10.115802,54.35403],"type":"Point"},"properties":{"osm_id":"5927494061","tag":{"amenity":"waste_basket"}},"type":"Feature"},
	{"geometry":{"coordinates":[10.12545,54.350249],"type":"Point"},"properties":{"osm_id":"5927494062","tag":{"amenity":"waste_basket"}},"type":"Feature"},
	{"geometry":{"coordinates":[10.138958,54.364633],"type":"Point"},"properties":{"osm_id":"5927494063","tag":{"amenity":"waste_basket"}},"type":"Feature"},
	{"geometry":{"coordinates":[10.123155,54.338108],"type":"Point"},"properties":{"osm_id":"5936077991","tag":{"amenity":"waste_basket"}},"type":"Feature"},
	{"geometry":{"coordinates":[10.12319,54.338103],"type":"Point"},"properties":{"osm_id":"5936078193","tag":{"amenity":"waste_basket"}},"type":"Feature"},
	{"geometry":{"coordinates":[10.114852,54.365131],"type":"Point"},"properties":{"osm_id":"5955311469","tag":{"amenity":"waste_basket"}},"type":"Feature"},
	{"geometry":{"coordinates":[10.121542,54.358719],"type":"Point"},"properties":{"osm_id":"5955313444","tag":{"amenity":"waste_basket"}},"type":"Feature"},
	{"geometry":{"coordinates":[10.114145,54.363307],"type":"Point"},"properties":{"osm_id":"5955313445","tag":{"amenity":"waste_basket"}},"type":"Feature"},
	{"geometry":{"coordinates":[10.143258,54.341692],"type":"Point"},"properties":{"osm_id":"5956556033","tag":{"amenity":"recycling","opening_hours":"24/7","recycling:clothes":"yes","recycling_type":"container","wheelchair":"limited"}},"type":"Feature"},
	{"geometry":{"coordinates":[10.129516,54.354074],"type":"Point"},"properties":{"osm_id":"5960945764","tag":{"amenity":"waste_basket"}},"type":"Feature"},
	{"geometry":{"coordinates":[10.130373,54.351862],"type":"Point"},"properties":{"osm_id":"5960945765","tag":{"amenity":"waste_basket"}},"type":"Feature"},
	{"geometry":{"coordinates":[10.130354,54.354932],"type":"Point"},"properties":{"osm_id":"5960947289","tag":{"amenity":"waste_basket"}},"type":"Feature"},
	{"geometry":{"coordinates":[10.130543,54.354824],"type":"Point"},"properties":{"osm_id":"5960947290","tag":{"amenity":"waste_basket"}},"type":"Feature"},
	{"geometry":{"coordinates":[10.130421,54.349599],"type":"Point"},"properties":{"osm_id":"5960947292","tag":{"amenity":"waste_basket"}},"type":"Feature"},
	{"geometry":{"coordinates":[10.130619,54.352178],"type":"Point"},"properties":{"osm_id":"5960947293","tag":{"amenity":"waste_basket"}},"type":"Feature"},
	{"geometry":{"coordinates":[10.129491,54.354107],"type":"Point"},"properties":{"osm_id":"5960947954","tag":{"amenity":"recycling","location":"overground","recycling_type":"container"}},"type":"Feature"},
	{"geometry":{"coordinates":[10.130145,54.351996],"type":"Point"},"properties":{"osm_id":"5960947955","tag":{"amenity":"waste_basket"}},"type":"Feature"},
	{"geometry":{"coordinates":[10.128786,54.355557],"type":"Point"},"properties":{"osm_id":"5960947956","tag":{"amenity":"waste_basket"}},"type":"Feature"},
	{"geometry":{"coordinates":[10.133705,54.342481],"type":"Point"},"properties":{"osm_id":"5973481283","tag":{"amenity":"waste_basket"}},"type":"Feature"},
	{"geometry":{"coordinates":[10.136702,54.342419],"type":"Point"},"properties":{"osm_id":"5973481934","tag":{"amenity":"waste_basket"}},"type":"Feature"},
	{"geometry":{"coordinates":[10.108059,54.356627],"type":"Point"},"properties":{"osm_id":"5973482086","tag":{"amenity":"waste_basket"}},"type":"Feature"},
	{"geometry":{"coordinates":[10.134159,54.354509],"type":"Point"},"properties":{"osm_id":"5986970361","tag":{"amenity":"waste_basket"}},"type":"Feature"},
	{"geometry":{"coordinates":[10.133555,54.353762],"type":"Point"},"properties":{"osm_id":"5986994824","tag":{"amenity":"waste_basket"}},"type":"Feature"},
	{"geometry":{"coordinates":[10.134069,54.354702],"type":"Point"},"properties":{"osm_id":"5986995004","tag":{"amenity":"waste_basket"}},"type":"Feature"},
	{"geometry":{"coordinates":[10.133987,54.354874],"type":"Point"},"properties":{"osm_id":"5986995431","tag":{"amenity":"waste_basket"}},"type":"Feature"},
	{"geometry":{"coordinates":[10.134239,54.354505],"type":"Point"},"properties":{"osm_id":"5986995434","tag":{"amenity":"waste_basket"}},"type":"Feature"},
	{"geometry":{"coordinates":[10.131175,54.365649],"type":"Point"},"properties":{"osm_id":"6016340948","tag":{"amenity":"waste_basket"}},"type":"Feature"},
	{"geometry":{"coordinates":[10.131655,54.366348],"type":"Point"},"properties":{"osm_id":"6016341502","tag":{"amenity":"waste_basket"}},"type":"Feature"},
	{"geometry":{"coordinates":[10.131578,54.365558],"type":"Point"},"properties":{"osm_id":"6016341511","tag":{"amenity":"waste_basket"}},"type":"Feature"},
	{"geometry":{"coordinates":[10.131626,54.36627],"type":"Point"},"properties":{"osm_id":"6016341631","tag":{"amenity":"waste_basket"}},"type":"Feature"},
	{"geometry":{"coordinates":[10.131419,54.365265],"type":"Point"},"properties":{"osm_id":"6016341638","tag":{"amenity":"waste_basket"}},"type":"Feature"},
	{"geometry":{"coordinates":[10.133319,54.33853],"type":"Point"},"properties":{"osm_id":"6030810582","tag":{"amenity":"waste_basket"}},"type":"Feature"},
	{"geometry":{"coordinates":[10.129362,54.3515],"type":"Point"},"properties":{"osm_id":"6111469373","tag":{"amenity":"waste_basket","waste":"trash"}},"type":"Feature"},
	{"geometry":{"coordinates":[10.12036,54.324294],"type":"Point"},"properties":{"osm_id":"6169398731","tag":{"amenity":"recycling","description":"B\u00c3\u00a4ume d\u00c3\u00bcrfen bereits nach den Feiertagen hier abgelegt werden, werden aber nur im genannten Zeitraum abgeholt.","opening_hours":"Jan 07-Feb 15 00:00-24:00","operator":"Abfallwirtschaftsbetrieb Kiel (ABK)","recycling:christmas_trees":"yes","recycling_type":"dump","website":"https://www.abki.de/abfallentsorgung/Weihnachtsbaeume.php"}},"type":"Feature"},
	{"geometry":{"coordinates":[10.119137,54.331794],"type":"Point"},"properties":{"osm_id":"6180823848","tag":{"amenity":"recycling","direction":"NNE","recycling:clothes":"yes","recycling_type":"container"}},"type":"Feature"},
	{"geometry":{"coordinates":[10.118564,54.325248],"type":"Point"},"properties":{"osm_id":"6217990655","tag":{"amenity":"waste_basket","waste":"trash"}},"type":"Feature"},
	{"geometry":{"coordinates":[10.122076,54.325743],"type":"Point"},"properties":{"osm_id":"6223117536","tag":{"amenity":"recycling","description":"B\u00c3\u00a4ume d\u00c3\u00bcrfen bereits nach den Feiertagen hier abgelegt werden, werden aber nur im genannten Zeitraum abgeholt.","location":"overground","opening_hours":"Jan 07-Feb 15 00:00-24:00","operator":"Abfallwirtschaftsbetrieb Kiel (ABK)","recycling:christmas_trees":"yes","recycling_type":"dump","website":"https://www.abki.de/abfallentsorgung/Weihnachtsbaeume.php"}},"type":"Feature"},
	{"geometry":{"coordinates":[10.125344,54.328205],"type":"Point"},"properties":{"osm_id":"6223192642","tag":{"amenity":"waste_basket","waste":"trash"}},"type":"Feature"},
	{"geometry":{"coordinates":[10.12579,54.327994],"type":"Point"},"properties":{"osm_id":"6223192643","tag":{"amenity":"waste_basket","waste":"trash"}},"type":"Feature"},
	{"geometry":{"coordinates":[10.116773,54.32458],"type":"Point"},"properties":{"osm_id":"6284170676","tag":{"amenity":"waste_basket","waste":"trash"}},"type":"Feature"},
	{"geometry":{"coordinates":[10.116585,54.324531],"type":"Point"},"properties":{"osm_id":"6284170677","tag":{"amenity":"waste_basket","waste":"trash"}},"type":"Feature"},
	{"geometry":{"coordinates":[10.122091,54.325933],"type":"Point"},"properties":{"osm_id":"6299831108","tag":{"amenity":"recycling","operator":"07:00-20:00;PH off","recycling:glass_bottles":"yes","recycling_type":"container"}},"type":"Feature"},
	{"geometry":{"coordinates":[10.118788,54.322736],"type":"Point"},"properties":{"osm_id":"6299909108","tag":{"amenity":"waste_basket","waste":"trash"}},"type":"Feature"},
	{"geometry":{"coordinates":[10.11929,54.322645],"type":"Point"},"properties":{"osm_id":"6299909109","tag":{"amenity":"waste_basket","waste":"trash"}},"type":"Feature"},
	{"geometry":{"coordinates":[10.118935,54.325066],"type":"Point"},"properties":{"osm_id":"6299909114","tag":{"amenity":"waste_basket","waste":"trash"}},"type":"Feature"},
	{"geometry":{"coordinates":[10.129289,54.353424],"type":"Point"},"properties":{"osm_id":"6392024427","tag":{"amenity":"waste_basket","waste":"trash"}},"type":"Feature"},
	{"geometry":{"coordinates":[10.129171,54.353336],"type":"Point"},"properties":{"osm_id":"6392024429","tag":{"amenity":"waste_basket","waste":"trash"}},"type":"Feature"},
	{"geometry":{"coordinates":[10.168545,54.317705],"type":"Point"},"properties":{"osm_id":"6434587939","tag":{"amenity":"waste_basket","waste":"trash"}},"type":"Feature"},
	{"geometry":{"coordinates":[10.168917,54.317316],"type":"Point"},"properties":{"osm_id":"6434590889","tag":{"amenity":"waste_basket","waste":"trash"}},"type":"Feature"},
	{"geometry":{"coordinates":[10.169174,54.316784],"type":"Point"},"properties":{"osm_id":"6434591699","tag":{"amenity":"waste_basket","waste":"trash"}},"type":"Feature"},
	{"geometry":{"coordinates":[10.12406,54.326677],"type":"Point"},"properties":{"osm_id":"6483644332","tag":{"amenity":"waste_basket","ele:msl":"62.0","ele:source":"GPS","waste":"trash"}},"type":"Feature"},
	{"geometry":{"coordinates":[10.124968,54.32754],"type":"Point"},"properties":{"osm_id":"6483644339","tag":{"amenity":"waste_basket","waste":"trash"}},"type":"Feature"},
	{"geometry":{"coordinates":[10.124256,54.329246],"type":"Point"},"properties":{"osm_id":"6483644341","tag":{"amenity":"waste_basket","waste":"ash"}},"type":"Feature"},
	{"geometry":{"coordinates":[10.124904,54.328353],"type":"Point"},"properties":{"osm_id":"6564500261","tag":{"amenity":"waste_basket","waste":"trash"}},"type":"Feature"},
	{"geometry":{"coordinates":[10.121192,54.324833],"type":"Point"},"properties":{"osm_id":"6565492081","tag":{"amenity":"waste_basket","waste":"trash"}},"type":"Feature"},
	{"geometry":{"coordinates":[10.124967,54.329597],"type":"Point"},"properties":{"osm_id":"6624547047","tag":{"amenity":"waste_basket","waste":"ash"}},"type":"Feature"},
	{"geometry":{"coordinates":[10.131416,54.328408],"type":"Point"},"properties":{"osm_id":"6638724638","tag":{"amenity":"waste_basket"}},"type":"Feature"},
	{"geometry":{"coordinates":[10.125009,54.329607],"type":"Point"},"properties":{"osm_id":"6647100772","tag":{"amenity":"waste_basket","waste":"trash"}},"type":"Feature"},
	{"geometry":{"coordinates":[10.125545,54.328594],"type":"Point"},"properties":{"osm_id":"6647100773","tag":{"amenity":"waste_basket","waste":"trash"}},"type":"Feature"},
	{"geometry":{"coordinates":[10.125745,54.329282],"type":"Point"},"properties":{"osm_id":"6647100774","tag":{"amenity":"waste_basket","waste":"trash"}},"type":"Feature"},
	{"geometry":{"coordinates":[10.117829,54.318821],"type":"Point"},"properties":{"osm_id":"6651753244","tag":{"amenity":"waste_basket"}},"type":"Feature"},
	{"geometry":{"coordinates":[10.134874,54.330422],"type":"Point"},"properties":{"osm_id":"6680007689","tag":{"amenity":"waste_basket"}},"type":"Feature"},
	{"geometry":{"coordinates":[10.133993,54.330282],"type":"Point"},"properties":{"osm_id":"6680007690","tag":{"amenity":"waste_basket"}},"type":"Feature"},
	{"geometry":{"coordinates":[10.114116,54.317582],"type":"Point"},"properties":{"osm_id":"6703804223","tag":{"amenity":"waste_basket"}},"type":"Feature"},
	{"geometry":{"coordinates":[10.116751,54.320408],"type":"Point"},"properties":{"osm_id":"6703809706","tag":{"amenity":"waste_basket"}},"type":"Feature"},
	{"geometry":{"coordinates":[10.129155,54.329035],"type":"Point"},"properties":{"osm_id":"6707958451","tag":{"amenity":"waste_basket"}},"type":"Feature"},
	{"geometry":{"coordinates":[10.12169,54.325033],"type":"Point"},"properties":{"osm_id":"6709273437","tag":{"amenity":"waste_basket","waste":"trash"}},"type":"Feature"},
	{"geometry":{"coordinates":[10.121496,54.325284],"type":"Point"},"properties":{"osm_id":"6709273438","tag":{"amenity":"waste_basket","waste":"trash"}},"type":"Feature"},
	{"geometry":{"coordinates":[10.132233,54.351819],"type":"Point"},"properties":{"osm_id":"6718268270","tag":{"amenity":"recycling","recycling:clothes":"yes","recycling_type":"container"}},"type":"Feature"},
	{"geometry":{"coordinates":[10.121707,54.327656],"type":"Point"},"properties":{"osm_id":"6724719354","tag":{"amenity":"waste_basket","waste":"trash"}},"type":"Feature"},
	{"geometry":{"coordinates":[10.137293,54.331718],"type":"Point"},"properties":{"osm_id":"6741717434","tag":{"amenity":"waste_basket"}},"type":"Feature"},
	{"geometry":{"coordinates":[10.125433,54.32993],"type":"Point"},"properties":{"osm_id":"6795222711","tag":{"amenity":"waste_basket","waste":"trash"}},"type":"Feature"},
	{"geometry":{"coordinates":[10.124109,54.32868],"type":"Point"},"properties":{"osm_id":"6795222714","tag":{"amenity":"waste_basket","waste":"trash"}},"type":"Feature"},
	{"geometry":{"coordinates":[10.141112,54.329536],"type":"Point"},"properties":{"osm_id":"6799420252","tag":{"amenity":"waste_basket"}},"type":"Feature"},
	{"geometry":{"coordinates":[10.122275,54.328343],"type":"Point"},"properties":{"osm_id":"6815682049","tag":{"amenity":"waste_basket","waste":"trash"}},"type":"Feature"},
	{"geometry":{"coordinates":[10.12225,54.328136],"type":"Point"},"properties":{"osm_id":"6815682066","tag":{"amenity":"waste_basket","waste":"trash"}},"type":"Feature"},
	{"geometry":{"coordinates":[10.145839,54.331466],"type":"Point"},"properties":{"osm_id":"6850424728","tag":{"amenity":"waste_basket"}},"type":"Feature"},
	{"geometry":{"coordinates":[10.145777,54.331273],"type":"Point"},"properties":{"osm_id":"6850424732","tag":{"amenity":"waste_basket"}},"type":"Feature"},
	{"geometry":{"coordinates":[10.147665,54.331101],"type":"Point"},"properties":{"osm_id":"6850424734","tag":{"amenity":"waste_basket"}},"type":"Feature"},
	{"geometry":{"coordinates":[10.146719,54.331248],"type":"Point"},"properties":{"osm_id":"6850424735","tag":{"amenity":"waste_basket"}},"type":"Feature"},
	{"geometry":{"coordinates":[10.147409,54.330312],"type":"Point"},"properties":{"osm_id":"6850705638","tag":{"amenity":"waste_basket"}},"type":"Feature"},
	{"geometry":{"coordinates":[10.146305,54.330175],"type":"Point"},"properties":{"osm_id":"6850705644","tag":{"amenity":"waste_basket"}},"type":"Feature"},
	{"geometry":{"coordinates":[10.146927,54.329969],"type":"Point"},"properties":{"osm_id":"6850705652","tag":{"amenity":"waste_basket"}},"type":"Feature"},
	{"geometry":{"coordinates":[10.147463,54.336993],"type":"Point"},"properties":{"osm_id":"6850900393","tag":{"amenity":"waste_basket"}},"type":"Feature"},
	{"geometry":{"coordinates":[10.150041,54.338498],"type":"Point"},"properties":{"osm_id":"6850908008","tag":{"amenity":"waste_basket"}},"type":"Feature"},
	{"geometry":{"coordinates":[10.118278,54.336011],"type":"Point"},"properties":{"osm_id":"6861072332","tag":{"amenity":"waste_basket"}},"type":"Feature"},
	{"geometry":{"coordinates":[10.113185,54.316596],"type":"Point"},"properties":{"osm_id":"6875243083","tag":{"amenity":"waste_basket"}},"type":"Feature"},
	{"geometry":{"coordinates":[10.11132,54.318217],"type":"Point"},"properties":{"osm_id":"6875271230","tag":{"amenity":"waste_basket"}},"type":"Feature"},
	{"geometry":{"coordinates":[10.111564,54.320751],"type":"Point"},"properties":{"osm_id":"6875285296","tag":{"amenity":"waste_basket"}},"type":"Feature"},
	{"geometry":{"coordinates":[10.111328,54.31699],"type":"Point"},"properties":{"osm_id":"6875294276","tag":{"amenity":"waste_basket"}},"type":"Feature"},
	{"geometry":{"coordinates":[10.124564,54.319937],"type":"Point"},"properties":{"osm_id":"6897960681","tag":{"amenity":"waste_basket","waste":"trash"}},"type":"Feature"},
	{"geometry":{"coordinates":[10.114515,54.320076],"type":"Point"},"properties":{"osm_id":"6899885348","tag":{"amenity":"waste_basket","waste":"trash"}},"type":"Feature"},
	{"geometry":{"coordinates":[10.125701,54.333741],"type":"Point"},"properties":{"osm_id":"6900138558","tag":{"amenity":"waste_basket"}},"type":"Feature"},
	{"geometry":{"coordinates":[10.154367,54.339115],"type":"Point"},"properties":{"osm_id":"6903452044","tag":{"amenity":"waste_basket"}},"type":"Feature"},
	{"geometry":{"coordinates":[10.118812,54.323349],"type":"Point"},"properties":{"osm_id":"6918303622","tag":{"amenity":"recycling","location":"overground","recycling:glass_bottles":"yes","recycling_type":"container"}},"type":"Feature"},
	{"geometry":{"coordinates":[10.114915,54.321446],"type":"Point"},"properties":{"osm_id":"6918314941","tag":{"amenity":"recycling","recycling:clothes":"yes","recycling_type":"container"}},"type":"Feature"},
	{"geometry":{"coordinates":[10.114814,54.320158],"type":"Point"},"properties":{"osm_id":"6918324151","tag":{"amenity":"waste_basket"}},"type":"Feature"},
	{"geometry":{"coordinates":[10.114021,54.331258],"type":"Point"},"properties":{"osm_id":"6920048764","tag":{"amenity":"waste_basket"}},"type":"Feature"},
	{"geometry":{"coordinates":[10.111963,54.325331],"type":"Point"},"properties":{"osm_id":"6920052810","tag":{"amenity":"recycling","recycling:clothes":"yes","recycling_type":"container"}},"type":"Feature"},
	{"geometry":{"coordinates":[10.109462,54.33291],"type":"Point"},"properties":{"osm_id":"6920073386","tag":{"amenity":"waste_basket"}},"type":"Feature"},
	{"geometry":{"coordinates":[10.116149,54.326915],"type":"Point"},"properties":{"osm_id":"6920074996","tag":{"amenity":"waste_basket"}},"type":"Feature"},
	{"geometry":{"coordinates":[10.122634,54.325733],"type":"Point"},"properties":{"osm_id":"6932249835","tag":{"amenity":"waste_basket"}},"type":"Feature"},
	{"geometry":{"coordinates":[10.125567,54.328927],"type":"Point"},"properties":{"osm_id":"6934149627","tag":{"amenity":"waste_basket","waste":"ash"}},"type":"Feature"},
	{"geometry":{"coordinates":[10.12705,54.323665],"type":"Point"},"properties":{"osm_id":"6937317257","tag":{"amenity":"waste_basket"}},"type":"Feature"},
	{"geometry":{"coordinates":[10.13058,54.317635],"type":"Point"},"properties":{"osm_id":"6937351440","tag":{"amenity":"waste_basket"}},"type":"Feature"},
	{"geometry":{"coordinates":[10.124417,54.318593],"type":"Point"},"properties":{"osm_id":"6937354410","tag":{"amenity":"waste_basket"}},"type":"Feature"},
	{"geometry":{"coordinates":[10.118778,54.324991],"type":"Point"},"properties":{"osm_id":"6938721934","tag":{"amenity":"waste_basket","waste":"trash"}},"type":"Feature"},
	{"geometry":{"coordinates":[10.115361,54.324468],"type":"Point"},"properties":{"osm_id":"6938721941","tag":{"amenity":"waste_basket","waste":"trash"}},"type":"Feature"},
	{"geometry":{"coordinates":[10.119208,54.323672],"type":"Point"},"properties":{"osm_id":"6950544548","tag":{"amenity":"waste_basket"}},"type":"Feature"},
	{"geometry":{"coordinates":[10.139881,54.3226],"type":"Point"},"properties":{"highway":"street_lamp","osm_id":"6952586743","tag":{"amenity":"waste_basket","waste":"trash"}},"type":"Feature"},
	{"geometry":{"coordinates":[10.131974,54.321831],"type":"Point"},"properties":{"osm_id":"6985142615","tag":{"amenity":"recycling","recycling:glass_bottles":"yes","recycling_type":"container"}},"type":"Feature"},
	{"geometry":{"coordinates":[10.132781,54.321331],"type":"Point"},"properties":{"osm_id":"6985142620","tag":{"amenity":"waste_basket"}},"type":"Feature"},
	{"geometry":{"coordinates":[10.145808,54.3452],"type":"Point"},"properties":{"osm_id":"6987967128","tag":{"amenity":"waste_basket"}},"type":"Feature"},
	{"geometry":{"coordinates":[10.12013,54.324267],"type":"Point"},"properties":{"osm_id":"7023491260","tag":{"amenity":"waste_basket","waste":"trash"}},"type":"Feature"},
	{"geometry":{"coordinates":[10.119127,54.326969],"type":"Point"},"properties":{"osm_id":"7037773667","tag":{"amenity":"waste_basket"}},"type":"Feature"},
	{"geometry":{"coordinates":[10.117726,54.325925],"type":"Point"},"properties":{"osm_id":"7037774866","tag":{"amenity":"waste_basket"}},"type":"Feature"},
	{"geometry":{"coordinates":[10.116467,54.325235],"type":"Point"},"properties":{"osm_id":"7037795735","tag":{"amenity":"waste_basket"}},"type":"Feature"},
	{"geometry":{"coordinates":[10.124674,54.324196],"type":"Point"},"properties":{"osm_id":"7056561555","tag":{"amenity":"waste_basket"}},"type":"Feature"},
	{"geometry":{"coordinates":[10.127592,54.330866],"type":"Point"},"properties":{"osm_id":"7079769736","tag":{"amenity":"waste_basket"}},"type":"Feature"},
	{"geometry":{"coordinates":[10.12519,54.324602],"type":"Point"},"properties":{"osm_id":"7079773116","tag":{"amenity":"waste_basket","waste":"trash"}},"type":"Feature"},
	{"geometry":{"coordinates":[10.125227,54.324636],"type":"Point"},"properties":{"osm_id":"7178747781","tag":{"amenity":"waste_basket","waste":"trash"}},"type":"Feature"},
	{"geometry":{"coordinates":[10.12307,54.329082],"type":"Point"},"properties":{"osm_id":"7500275217","tag":{"amenity":"waste_basket","waste":"trash"}},"type":"Feature"},
	{"geometry":{"coordinates":[10.124934,54.330656],"type":"Point"},"properties":{"osm_id":"7500275218","tag":{"amenity":"waste_basket","waste":"trash"}},"type":"Feature"},
	{"geometry":{"coordinates":[10.12615,54.329389],"type":"Point"},"properties":{"osm_id":"7500275220","tag":{"amenity":"waste_basket","waste":"trash"}},"type":"Feature"},
	{"geometry":{"coordinates":[10.124203,54.330018],"type":"Point"},"properties":{"osm_id":"7500275224","tag":{"amenity":"waste_basket","waste":"trash"}},"type":"Feature"},
	{"geometry":{"coordinates":[10.126119,54.328562],"type":"Point"},"properties":{"osm_id":"7500275226","tag":{"amenity":"waste_basket","waste":"trash"}},"type":"Feature"},
	{"geometry":{"coordinates":[10.126005,54.328162],"type":"Point"},"properties":{"osm_id":"7500275227","tag":{"amenity":"waste_basket","waste":"trash"}},"type":"Feature"},
	{"geometry":{"coordinates":[10.124121,54.329936],"type":"Point"},"properties":{"osm_id":"7500275229","tag":{"amenity":"waste_basket","waste":"trash"}},"type":"Feature"},
	{"geometry":{"coordinates":[10.125726,54.329347],"type":"Point"},"properties":{"osm_id":"7500275233","tag":{"amenity":"waste_basket","waste":"trash"}},"type":"Feature"},
	{"geometry":{"coordinates":[10.124902,54.329752],"type":"Point"},"properties":{"osm_id":"7500275235","tag":{"amenity":"waste_basket","waste":"trash"}},"type":"Feature"},
	{"geometry":{"coordinates":[10.122908,54.328987],"type":"Point"},"properties":{"osm_id":"7500275236","tag":{"amenity":"waste_basket","waste":"trash"}},"type":"Feature"},
	{"geometry":{"coordinates":[10.126187,54.329051],"type":"Point"},"properties":{"osm_id":"7500275237","tag":{"amenity":"waste_basket","waste":"trash"}},"type":"Feature"},
	{"geometry":{"coordinates":[10.125961,54.329683],"type":"Point"},"properties":{"osm_id":"7500275238","tag":{"amenity":"waste_basket","waste":"trash"}},"type":"Feature"},
	{"geometry":{"coordinates":[10.125226,54.330131],"type":"Point"},"properties":{"osm_id":"7500275242","tag":{"amenity":"waste_basket","waste":"trash"}},"type":"Feature"},
	{"geometry":{"coordinates":[10.124957,54.328108],"type":"Point"},"properties":{"osm_id":"7500275248","tag":{"amenity":"waste_basket","waste":"trash"}},"type":"Feature"},
	{"geometry":{"coordinates":[10.123467,54.329351],"type":"Point"},"properties":{"osm_id":"7500275249","tag":{"amenity":"waste_basket","waste":"trash"}},"type":"Feature"},
	{"geometry":{"coordinates":[10.124408,54.330285],"type":"Point"},"properties":{"osm_id":"7500275250","tag":{"amenity":"waste_basket","waste":"trash"}},"type":"Feature"},
	{"geometry":{"coordinates":[10.124923,54.328214],"type":"Point"},"properties":{"osm_id":"7500275251","tag":{"amenity":"waste_basket","waste":"trash"}},"type":"Feature"},
	{"geometry":{"coordinates":[10.123793,54.329635],"type":"Point"},"properties":{"osm_id":"7500275255","tag":{"amenity":"waste_basket","waste":"trash"}},"type":"Feature"},
	{"geometry":{"coordinates":[10.123578,54.331754],"type":"Point"},"properties":{"osm_id":"7619922899","tag":{"amenity":"waste_basket","waste":"trash"}},"type":"Feature"},
	{"geometry":{"coordinates":[10.122638,54.327853],"type":"Point"},"properties":{"osm_id":"7817867757","tag":{"amenity":"waste_basket","waste":"trash"}},"type":"Feature"},
	{"geometry":{"coordinates":[10.121342,54.362455],"type":"Point"},"properties":{"osm_id":"7831341865","tag":{"amenity":"waste_basket"}},"type":"Feature"},
	{"geometry":{"coordinates":[10.136743,54.322226],"type":"Point"},"properties":{"osm_id":"7837777954","tag":{"amenity":"waste_basket","waste":"trash"}},"type":"Feature"},
	{"geometry":{"coordinates":[10.124635,54.33118],"type":"Point"},"properties":{"osm_id":"7847448020","tag":{"amenity":"waste_basket","waste":"trash"}},"type":"Feature"},
	{"geometry":{"coordinates":[10.189725,54.339054],"type":"Point"},"properties":{"osm_id":"7856299470","tag":{"amenity":"waste_basket"}},"type":"Feature"},
	{"geometry":{"coordinates":[10.189159,54.340968],"type":"Point"},"properties":{"osm_id":"7856305956","tag":{"amenity":"waste_basket"}},"type":"Feature"},
	{"geometry":{"coordinates":[10.175963,54.343688],"type":"Point"},"properties":{"osm_id":"7856309049","tag":{"amenity":"waste_basket"}},"type":"Feature"},
	{"geometry":{"coordinates":[10.181282,54.343244],"type":"Point"},"properties":{"osm_id":"7856319171","tag":{"amenity":"waste_basket"}},"type":"Feature"},
	{"geometry":{"coordinates":[10.183722,54.342461],"type":"Point"},"properties":{"osm_id":"7856322332","tag":{"amenity":"waste_basket"}},"type":"Feature"},
	{"geometry":{"coordinates":[10.178867,54.343703],"type":"Point"},"properties":{"osm_id":"7856326434","tag":{"amenity":"waste_basket"}},"type":"Feature"},
	{"geometry":{"coordinates":[10.189833,54.339423],"type":"Point"},"properties":{"osm_id":"7856326738","tag":{"amenity":"waste_basket"}},"type":"Feature"},
	{"geometry":{"coordinates":[10.181975,54.343016],"type":"Point"},"properties":{"osm_id":"7856328566","tag":{"amenity":"waste_basket"}},"type":"Feature"},
	{"geometry":{"coordinates":[10.183824,54.337038],"type":"Point"},"properties":{"osm_id":"7856328888","tag":{"amenity":"waste_basket"}},"type":"Feature"},
	{"geometry":{"coordinates":[10.157143,54.33753],"type":"Point"},"properties":{"osm_id":"7856654477","tag":{"amenity":"waste_basket"}},"type":"Feature"},
	{"geometry":{"coordinates":[10.17828,54.351308],"type":"Point"},"properties":{"osm_id":"7858295584","tag":{"amenity":"waste_basket"}},"type":"Feature"},
	{"geometry":{"coordinates":[10.174005,54.346732],"type":"Point"},"properties":{"osm_id":"7858353831","tag":{"amenity":"waste_basket"}},"type":"Feature"},
	{"geometry":{"coordinates":[10.178242,54.351974],"type":"Point"},"properties":{"osm_id":"7858353837","tag":{"amenity":"waste_basket"}},"type":"Feature"},
	{"geometry":{"coordinates":[10.190247,54.364221],"type":"Point"},"properties":{"osm_id":"7858368753","tag":{"amenity":"waste_basket"}},"type":"Feature"},
	{"geometry":{"coordinates":[10.180223,54.36181],"type":"Point"},"properties":{"osm_id":"7858375616","tag":{"amenity":"waste_basket"}},"type":"Feature"},
	{"geometry":{"coordinates":[10.17447,54.347356],"type":"Point"},"properties":{"osm_id":"7858378463","tag":{"amenity":"waste_basket"}},"type":"Feature"},
	{"geometry":{"coordinates":[10.177928,54.350591],"type":"Point"},"properties":{"osm_id":"7858379828","tag":{"amenity":"waste_basket"}},"type":"Feature"},
	{"geometry":{"coordinates":[10.177793,54.354049],"type":"Point"},"properties":{"osm_id":"7858390407","tag":{"amenity":"waste_basket"}},"type":"Feature"},
	{"geometry":{"coordinates":[10.186761,54.36349],"type":"Point"},"properties":{"osm_id":"7858426105","tag":{"amenity":"waste_basket"}},"type":"Feature"},
	{"geometry":{"coordinates":[10.192682,54.364615],"type":"Point"},"properties":{"osm_id":"7858441750","tag":{"amenity":"waste_basket"}},"type":"Feature"},
	{"geometry":{"coordinates":[10.189489,54.364031],"type":"Point"},"properties":{"osm_id":"7858442987","tag":{"amenity":"waste_basket"}},"type":"Feature"},
	{"geometry":{"coordinates":[10.178066,54.354046],"type":"Point"},"properties":{"osm_id":"7859079541","tag":{"amenity":"waste_basket"}},"type":"Feature"},
	{"geometry":{"coordinates":[10.116513,54.327259],"type":"Point"},"properties":{"osm_id":"7899795589","tag":{"amenity":"recycling","location":"overground","recycling:clothes":"yes","recycling_type":"container"}},"type":"Feature"},
	{"geometry":{"coordinates":[10.116074,54.327434],"type":"Point"},"properties":{"osm_id":"7899795590","tag":{"amenity":"waste_basket","waste":"trash"}},"type":"Feature"},
	{"geometry":{"coordinates":[10.116455,54.327188],"type":"Point"},"properties":{"osm_id":"7899795591","tag":{"amenity":"waste_basket","waste":"trash"}},"type":"Feature"},
	{"geometry":{"coordinates":[10.122958,54.323607],"type":"Point"},"properties":{"osm_id":"7913838266","tag":{"amenity":"waste_basket","waste":"trash"}},"type":"Feature"},
	{"geometry":{"coordinates":[10.132289,54.335851],"type":"Point"},"properties":{"osm_id":"7934519674","tag":{"amenity":"waste_basket"}},"type":"Feature"}
]
}
