{
"type": "FeatureCollection",
"features": [
	{"geometry":{"coordinates":[10.147437,53.668788],"type":"Point"},"properties":{"osm_id":"254736417","tag":{"amenity":"recycling","check_date":"2020-05-01","operator":"Stadtreinigung Hamburg","recycling:paper":"yes","recycling:small_appliances":"yes","recycling:small_electrical_appliances":"yes","recycling_type":"container"}},"type":"Feature"},
	{"geometry":{"coordinates":[10.15909,53.653757],"type":"Point"},"properties":{"osm_id":"279139244","tag":{"amenity":"recycling","recycling:glass_bottles":"yes","recycling:paper":"yes","recycling_type":"container"}},"type":"Feature"},
	{"geometry":{"coordinates":[10.13671,53.695197],"type":"Point"},"properties":{"osm_id":"283207515","tag":{"amenity":"recycling","check_date":"2020-05-01","operator":"Stadtreinigung Hamburg","recycling:clothes":"yes","recycling:glass_bottles":"yes","recycling:paper":"yes","recycling:small_appliances":"yes","recycling:small_electrical_appliances":"yes","recycling_type":"container"}},"type":"Feature"},
	{"geometry":{"coordinates":[10.12388,53.673319],"type":"Point"},"properties":{"osm_id":"286605751","tag":{"amenity":"recycling","recycling:glass_bottles":"yes","recycling:paper":"yes","recycling_type":"container"}},"type":"Feature"},
	{"geometry":{"coordinates":[10.17612,53.655728],"type":"Point"},"properties":{"osm_id":"292651034","tag":{"amenity":"recycling","recycling:glass_bottles":"yes","recycling:paper":"yes","recycling_type":"container"}},"type":"Feature"},
	{"geometry":{"coordinates":[10.110494,53.655019],"type":"Point"},"properties":{"osm_id":"296016988","tag":{"amenity":"recycling","check_date":"2020-04-25","operator":"Stadtreinigung Hamburg","recycling:clothes":"yes","recycling:glass_bottles":"yes","recycling:small_appliances":"yes","recycling:small_electrical_appliances":"yes","recycling_type":"container"}},"type":"Feature"},
	{"geometry":{"coordinates":[10.155282,53.676221],"type":"Point"},"properties":{"osm_id":"440137870","tag":{"amenity":"recycling","recycling:clothes":"yes","recycling:glass_bottles":"yes","recycling:paper":"yes","recycling_type":"container"}},"type":"Feature"},
	{"geometry":{"coordinates":[10.158018,53.683278],"type":"Point"},"properties":{"osm_id":"442139391","tag":{"amenity":"recycling","recycling:clothes":"yes","recycling:glass_bottles":"yes","recycling:paper":"yes","recycling_type":"container"}},"type":"Feature"},
	{"geometry":{"coordinates":[10.155542,53.683987],"type":"Point"},"properties":{"osm_id":"449139980","tag":{"amenity":"recycling","recycling:clothes":"yes","recycling:glass_bottles":"yes","recycling_type":"container"}},"type":"Feature"},
	{"geometry":{"coordinates":[10.120243,53.664469],"type":"Point"},"properties":{"osm_id":"611750794","tag":{"amenity":"recycling","recycling:clothes":"yes","recycling_type":"container"}},"type":"Feature"},
	{"geometry":{"coordinates":[10.140941,53.669325],"type":"Point"},"properties":{"osm_id":"1188040435","tag":{"amenity":"recycling","recycling:paper":"yes","recycling_type":"container"}},"type":"Feature"},
	{"geometry":{"coordinates":[10.186539,53.652663],"type":"Point"},"properties":{"osm_id":"1229150850","tag":{"amenity":"recycling","recycling:glass_bottles":"yes","recycling:paper":"yes","recycling_type":"container"}},"type":"Feature"},
	{"geometry":{"coordinates":[10.17459,53.658883],"type":"Point"},"properties":{"osm_id":"1229157427","tag":{"amenity":"recycling","check_date":"2020-05-01","operator":"Stadtreinigung Hamburg","recycling:clothes":"yes","recycling:glass_bottles":"yes","recycling:paper":"yes","recycling:small_appliances":"yes","recycling:small_electrical_appliances":"yes","recycling_type":"container"}},"type":"Feature"},
	{"geometry":{"coordinates":[10.14761,53.677965],"type":"Point"},"properties":{"osm_id":"1337568794","tag":{"amenity":"waste_basket","surface":"metal"}},"type":"Feature"},
	{"geometry":{"coordinates":[10.147805,53.677783],"type":"Point"},"properties":{"osm_id":"1337568795","tag":{"amenity":"waste_basket","surface":"metal"}},"type":"Feature"},
	{"geometry":{"coordinates":[10.147626,53.677972],"type":"Point"},"properties":{"osm_id":"1337568801","tag":{"amenity":"waste_basket","surface":"metal"}},"type":"Feature"},
	{"geometry":{"coordinates":[10.147455,53.678086],"type":"Point"},"properties":{"osm_id":"1337568804","tag":{"amenity":"waste_basket","surface":"metal"}},"type":"Feature"},
	{"geometry":{"coordinates":[10.148851,53.678388],"type":"Point"},"properties":{"osm_id":"1337644677","tag":{"amenity":"waste_basket"}},"type":"Feature"},
	{"geometry":{"coordinates":[10.149624,53.677147],"type":"Point"},"properties":{"osm_id":"1337748702","tag":{"amenity":"recycling","operator":"Abfallwirtschaft S\u00c3\u00bcdholstein (AWSH)","operator:phone":"0180-1174299","recycling:glass_bottles":"yes","recycling:paper":"yes","recycling_type":"container"}},"type":"Feature"},
	{"geometry":{"coordinates":[10.126659,53.670682],"type":"Point"},"properties":{"osm_id":"1340623033","tag":{"amenity":"waste_basket"}},"type":"Feature"},
	{"geometry":{"coordinates":[10.16259,53.649972],"type":"Point"},"properties":{"osm_id":"1340673399","tag":{"amenity":"recycling","recycling:clothes":"yes","recycling_type":"container"}},"type":"Feature"},
	{"geometry":{"coordinates":[10.16238,53.650211],"type":"Point"},"properties":{"osm_id":"1340673408","tag":{"amenity":"waste_basket"}},"type":"Feature"},
	{"geometry":{"coordinates":[10.1632,53.650218],"type":"Point"},"properties":{"osm_id":"1350746510","tag":{"amenity":"waste_basket"}},"type":"Feature"},
	{"geometry":{"coordinates":[10.163452,53.650195],"type":"Point"},"properties":{"osm_id":"1350746513","tag":{"amenity":"waste_basket"}},"type":"Feature"},
	{"geometry":{"coordinates":[10.163762,53.650341],"type":"Point"},"properties":{"osm_id":"1350746517","tag":{"amenity":"waste_basket"}},"type":"Feature"},
	{"geometry":{"coordinates":[10.163423,53.6504],"type":"Point"},"properties":{"osm_id":"1350746526","tag":{"amenity":"waste_basket"}},"type":"Feature"},
	{"geometry":{"coordinates":[10.163181,53.650293],"type":"Point"},"properties":{"osm_id":"1350746529","tag":{"amenity":"waste_basket"}},"type":"Feature"},
	{"geometry":{"coordinates":[10.163289,53.650209],"type":"Point"},"properties":{"osm_id":"1350746532","tag":{"amenity":"waste_basket"}},"type":"Feature"},
	{"geometry":{"coordinates":[10.159062,53.666188],"type":"Point"},"properties":{"osm_id":"1447200607","tag":{"amenity":"recycling","recycling:green_waste":"yes","recycling:plastic":"yes","recycling_type":"container"}},"type":"Feature"},
	{"geometry":{"coordinates":[10.157599,53.666553],"type":"Point"},"properties":{"osm_id":"1447200632","tag":{"amenity":"recycling","recycling:green_waste":"yes","recycling:plastic":"yes","recycling_type":"container"}},"type":"Feature"},
	{"geometry":{"coordinates":[10.159348,53.666705],"type":"Point"},"properties":{"osm_id":"1447200637","tag":{"amenity":"recycling","recycling:green_waste":"yes","recycling:plastic":"yes","recycling_type":"container"}},"type":"Feature"},
	{"geometry":{"coordinates":[10.15817,53.668024],"type":"Point"},"properties":{"osm_id":"1447200660","tag":{"amenity":"recycling","recycling:green_waste":"yes","recycling:plastic":"yes","recycling_type":"container"}},"type":"Feature"},
	{"geometry":{"coordinates":[10.157405,53.668065],"type":"Point"},"properties":{"osm_id":"1447200677","tag":{"amenity":"recycling","recycling:green_waste":"yes","recycling:plastic":"yes","recycling_type":"container"}},"type":"Feature"},
	{"geometry":{"coordinates":[10.156703,53.668289],"type":"Point"},"properties":{"osm_id":"1447200686","tag":{"amenity":"recycling","recycling:green_waste":"yes","recycling:plastic":"yes","recycling_type":"container"}},"type":"Feature"},
	{"geometry":{"coordinates":[10.165734,53.650389],"type":"Point"},"properties":{"osm_id":"1460447500","tag":{"amenity":"waste_basket"}},"type":"Feature"},
	{"geometry":{"coordinates":[10.149833,53.679268],"type":"Point"},"properties":{"osm_id":"1491747995","tag":{"amenity":"waste_basket"}},"type":"Feature"},
	{"geometry":{"coordinates":[10.154975,53.681935],"type":"Point"},"properties":{"osm_id":"1491748004","tag":{"amenity":"waste_basket"}},"type":"Feature"},
	{"geometry":{"coordinates":[10.167953,53.69105],"type":"Point"},"properties":{"osm_id":"1491748036","tag":{"amenity":"waste_basket"}},"type":"Feature"},
	{"geometry":{"coordinates":[10.173116,53.693113],"type":"Point"},"properties":{"osm_id":"1491748046","tag":{"amenity":"waste_basket"}},"type":"Feature"},
	{"geometry":{"coordinates":[10.171887,53.693161],"type":"Point"},"properties":{"osm_id":"1491748047","tag":{"amenity":"waste_basket"}},"type":"Feature"},
	{"geometry":{"coordinates":[10.163678,53.691379],"type":"Point"},"properties":{"osm_id":"1497918190","tag":{"amenity":"recycling","recycling:clothes":"yes","recycling:glass_bottles":"yes","recycling:paper":"yes","recycling_type":"container"}},"type":"Feature"},
	{"geometry":{"coordinates":[10.135581,53.674995],"type":"Point"},"properties":{"osm_id":"1731107676","tag":{"amenity":"recycling","recycling:clothes":"yes","recycling_type":"container"}},"type":"Feature"},
	{"geometry":{"coordinates":[10.137603,53.695023],"type":"Point"},"properties":{"osm_id":"1737387023","tag":{"amenity":"waste_basket"}},"type":"Feature"},
	{"geometry":{"coordinates":[10.137607,53.695054],"type":"Point"},"properties":{"osm_id":"1737387025","tag":{"amenity":"waste_basket"}},"type":"Feature"},
	{"geometry":{"coordinates":[10.161102,53.647622],"type":"Point"},"properties":{"osm_id":"1748371905","tag":{"amenity":"recycling","recycling:glass_bottles":"yes","recycling:paper":"yes","recycling_type":"container"}},"type":"Feature"},
	{"geometry":{"coordinates":[10.176166,53.647762],"type":"Point"},"properties":{"osm_id":"1748380583","tag":{"amenity":"recycling","recycling_type":"container"}},"type":"Feature"},
	{"geometry":{"coordinates":[10.11004,53.65898],"type":"Point"},"properties":{"osm_id":"2542393321","tag":{"amenity":"waste_basket"}},"type":"Feature"},
	{"geometry":{"coordinates":[10.127832,53.696101],"type":"Point"},"properties":{"osm_id":"2851981245","tag":{"amenity":"waste_basket"}},"type":"Feature"},
	{"geometry":{"coordinates":[10.147269,53.668701],"type":"Point"},"properties":{"osm_id":"3616198570","tag":{"amenity":"recycling","check_date":"2020-05-01","operator":"Stadtreinigung Hamburg","recycling:clothes":"yes","recycling:glass_bottles":"yes","recycling_type":"container"}},"type":"Feature"},
	{"geometry":{"coordinates":[10.11046,53.654966],"type":"Point"},"properties":{"osm_id":"3616200720","tag":{"amenity":"recycling","recycling:paper":"yes","recycling_type":"container"}},"type":"Feature"},
	{"geometry":{"coordinates":[10.159041,53.667981],"type":"Point"},"properties":{"osm_id":"3889827525","tag":{"amenity":"recycling","recycling:green_waste":"yes","recycling:plastic":"yes","recycling_type":"container"}},"type":"Feature"},
	{"geometry":{"coordinates":[10.156141,53.668235],"type":"Point"},"properties":{"osm_id":"3889831694","tag":{"amenity":"recycling","recycling:green_waste":"yes","recycling:plastic":"yes","recycling_type":"container"}},"type":"Feature"},
	{"geometry":{"coordinates":[10.15717,53.668786],"type":"Point"},"properties":{"osm_id":"3889831695","tag":{"amenity":"recycling","recycling:green_waste":"yes","recycling:plastic":"yes","recycling_type":"container"}},"type":"Feature"},
	{"geometry":{"coordinates":[10.156506,53.669174],"type":"Point"},"properties":{"osm_id":"3889831696","tag":{"amenity":"recycling","recycling:green_waste":"yes","recycling:plastic":"yes","recycling_type":"container"}},"type":"Feature"},
	{"geometry":{"coordinates":[10.157165,53.669412],"type":"Point"},"properties":{"osm_id":"3889831697","tag":{"amenity":"recycling","recycling:green_waste":"yes","recycling:plastic":"yes","recycling_type":"container"}},"type":"Feature"},
	{"geometry":{"coordinates":[10.157948,53.669436],"type":"Point"},"properties":{"osm_id":"3889831698","tag":{"amenity":"recycling","recycling:green_waste":"yes","recycling:plastic":"yes","recycling_type":"container"}},"type":"Feature"},
	{"geometry":{"coordinates":[10.156906,53.669706],"type":"Point"},"properties":{"osm_id":"3889831699","tag":{"amenity":"recycling","recycling:green_waste":"yes","recycling:plastic":"yes","recycling_type":"container"}},"type":"Feature"},
	{"geometry":{"coordinates":[10.157594,53.669858],"type":"Point"},"properties":{"osm_id":"3889831700","tag":{"amenity":"recycling","recycling:green_waste":"yes","recycling:plastic":"yes","recycling_type":"container"}},"type":"Feature"},
	{"geometry":{"coordinates":[10.156265,53.670016],"type":"Point"},"properties":{"osm_id":"3889831702","tag":{"amenity":"recycling","recycling:green_waste":"yes","recycling:plastic":"yes","recycling_type":"container"}},"type":"Feature"},
	{"geometry":{"coordinates":[10.155249,53.680761],"type":"Point"},"properties":{"osm_id":"3889831705","tag":{"amenity":"recycling","recycling:clothes":"yes","recycling:glass_bottles":"yes","recycling:paper":"yes","recycling_type":"container"}},"type":"Feature"},
	{"geometry":{"coordinates":[10.111735,53.653229],"type":"Point"},"properties":{"osm_id":"4272911000","tag":{"amenity":"waste_basket","wheelchair":"yes"}},"type":"Feature"},
	{"geometry":{"coordinates":[10.145259,53.650953],"type":"Point"},"properties":{"osm_id":"4358681631","tag":{"amenity":"waste_disposal"}},"type":"Feature"},
	{"geometry":{"coordinates":[10.145723,53.652708],"type":"Point"},"properties":{"osm_id":"4358681632","tag":{"amenity":"waste_disposal"}},"type":"Feature"},
	{"geometry":{"coordinates":[10.164708,53.691737],"type":"Point"},"properties":{"osm_id":"4360737961","tag":{"amenity":"waste_basket"}},"type":"Feature"},
	{"geometry":{"coordinates":[10.165917,53.691334],"type":"Point"},"properties":{"osm_id":"4360737979","tag":{"amenity":"waste_basket"}},"type":"Feature"},
	{"geometry":{"coordinates":[10.165888,53.691408],"type":"Point"},"properties":{"osm_id":"4360737980","tag":{"amenity":"waste_basket"}},"type":"Feature"},
	{"geometry":{"coordinates":[10.164894,53.691372],"type":"Point"},"properties":{"osm_id":"4360738591","tag":{"amenity":"waste_basket"}},"type":"Feature"},
	{"geometry":{"coordinates":[10.16244,53.679724],"type":"Point"},"properties":{"osm_id":"4361384376","tag":{"amenity":"waste_basket"}},"type":"Feature"},
	{"geometry":{"coordinates":[10.163287,53.648685],"type":"Point"},"properties":{"osm_id":"5200251430","tag":{"amenity":"waste_disposal"}},"type":"Feature"},
	{"geometry":{"coordinates":[10.163648,53.648606],"type":"Point"},"properties":{"osm_id":"5200252623","tag":{"amenity":"waste_disposal"}},"type":"Feature"},
	{"geometry":{"coordinates":[10.163654,53.648685],"type":"Point"},"properties":{"osm_id":"5200252630","tag":{"amenity":"waste_disposal"}},"type":"Feature"},
	{"geometry":{"coordinates":[10.163701,53.648681],"type":"Point"},"properties":{"osm_id":"5200252631","tag":{"amenity":"waste_disposal"}},"type":"Feature"},
	{"geometry":{"coordinates":[10.181019,53.685273],"type":"Point"},"properties":{"osm_id":"5730162962","tag":{"amenity":"waste_basket","waste":"trash"}},"type":"Feature"},
	{"geometry":{"coordinates":[10.109737,53.661518],"type":"Point"},"properties":{"osm_id":"5832545938","tag":{"amenity":"waste_disposal"}},"type":"Feature"},
	{"geometry":{"coordinates":[10.139371,53.674722],"type":"Point"},"properties":{"osm_id":"6361382985","tag":{"amenity":"recycling","recycling:paper":"yes","recycling_type":"container"}},"type":"Feature"},
	{"geometry":{"coordinates":[10.153361,53.648744],"type":"Point"},"properties":{"osm_id":"6796408386","tag":{"amenity":"waste_basket"}},"type":"Feature"},
	{"geometry":{"coordinates":[10.15269,53.647935],"type":"Point"},"properties":{"osm_id":"6796419285","tag":{"amenity":"waste_basket"}},"type":"Feature"},
	{"geometry":{"coordinates":[10.162665,53.648994],"type":"Point"},"properties":{"osm_id":"7518661232","tag":{"amenity":"waste_disposal","waste":"trash"}},"type":"Feature"},
	{"geometry":{"coordinates":[10.181008,53.650255],"type":"Point"},"properties":{"osm_id":"7817891954","tag":{"amenity":"waste_basket"}},"type":"Feature"}
]
}
