{
"type": "FeatureCollection",
"features": [
	{"geometry":{"coordinates":[10.118312,53.638287],"type":"Point"},"properties":{"osm_id":"251206507","tag":{"amenity":"recycling","recycling:paper":"yes","recycling_type":"container"}},"type":"Feature"},
	{"geometry":{"coordinates":[10.112948,53.641989],"type":"Point"},"properties":{"osm_id":"251209787","tag":{"amenity":"recycling","recycling:paper":"yes","recycling_type":"container"}},"type":"Feature"},
	{"geometry":{"coordinates":[10.121917,53.616333],"type":"Point"},"properties":{"osm_id":"298016858","tag":{"amenity":"recycling","recycling:glass_bottles":"yes","recycling:paper":"yes","recycling_type":"container"}},"type":"Feature"},
	{"geometry":{"coordinates":[10.123083,53.627156],"type":"Point"},"properties":{"osm_id":"303526359","tag":{"amenity":"recycling","recycling:glass_bottles":"yes","recycling:paper":"yes","recycling_type":"container"}},"type":"Feature"},
	{"geometry":{"coordinates":[10.136594,53.622393],"type":"Point"},"properties":{"osm_id":"394801663","tag":{"amenity":"recycling","recycling:paper":"yes","recycling_type":"container"}},"type":"Feature"},
	{"geometry":{"coordinates":[10.143582,53.617806],"type":"Point"},"properties":{"osm_id":"394802370","tag":{"amenity":"recycling","recycling:glass_bottles":"yes","recycling:paper":"yes","recycling_type":"container"}},"type":"Feature"},
	{"geometry":{"coordinates":[10.13476,53.606536],"type":"Point"},"properties":{"osm_id":"423493931","tag":{"amenity":"recycling","check_date":"2020-04-10","operator":"Stadtreinigung Hamburg","recycling:clothes":"yes","recycling:glass_bottles":"yes","recycling:paper":"yes","recycling:small_appliances":"yes","recycling:small_electrical_appliances":"yes","recycling_type":"container"}},"type":"Feature"},
	{"geometry":{"coordinates":[10.127568,53.60232],"type":"Point"},"properties":{"osm_id":"423493934","tag":{"amenity":"recycling","recycling:glass_bottles":"yes","recycling:paper":"yes","recycling_type":"container"}},"type":"Feature"},
	{"geometry":{"coordinates":[10.133619,53.637263],"type":"Point"},"properties":{"highway":"bus_stop","name":"Nektarweg","osm_id":"423493958","tag":{"amenity":"waste_basket","bus":"yes","network":"HVV","public_transport":"platform","shelter":"yes"}},"type":"Feature"},
	{"geometry":{"coordinates":[10.131895,53.631255],"type":"Point"},"properties":{"osm_id":"423493961","tag":{"amenity":"waste_basket"}},"type":"Feature"},
	{"geometry":{"coordinates":[10.112504,53.643457],"type":"Point"},"properties":{"osm_id":"426012812","tag":{"amenity":"waste_basket"}},"type":"Feature"},
	{"geometry":{"coordinates":[10.112862,53.632095],"type":"Point"},"properties":{"osm_id":"436634700","tag":{"amenity":"waste_basket","waste":"trash"}},"type":"Feature"},
	{"geometry":{"coordinates":[10.138483,53.625588],"type":"Point"},"properties":{"osm_id":"436634745","tag":{"amenity":"waste_basket"}},"type":"Feature"},
	{"geometry":{"coordinates":[10.139224,53.626894],"type":"Point"},"properties":{"osm_id":"436634756","tag":{"amenity":"recycling","location":"overground","recycling:clothes":"yes","recycling_type":"container"}},"type":"Feature"},
	{"geometry":{"coordinates":[10.141098,53.629268],"type":"Point"},"properties":{"osm_id":"436634758","tag":{"amenity":"waste_basket"}},"type":"Feature"},
	{"geometry":{"coordinates":[10.14072,53.629428],"type":"Point"},"properties":{"osm_id":"436634761","tag":{"amenity":"waste_basket"}},"type":"Feature"},
	{"geometry":{"coordinates":[10.134212,53.637533],"type":"Point"},"properties":{"osm_id":"436634765","tag":{"amenity":"waste_basket"}},"type":"Feature"},
	{"geometry":{"coordinates":[10.126581,53.612636],"type":"Point"},"properties":{"osm_id":"588902213","tag":{"amenity":"recycling","recycling:glass_bottles":"yes","recycling:paper":"yes","recycling_type":"container"}},"type":"Feature"},
	{"geometry":{"coordinates":[10.156675,53.604085],"type":"Point"},"properties":{"osm_id":"672359864","tag":{"amenity":"recycling","recycling:books":"yes","recycling:cartons":"yes","recycling:glass_bottles":"yes","recycling:newspaper":"yes","recycling:paper":"yes","recycling:paper_packaging":"yes","recycling_type":"container"}},"type":"Feature"},
	{"geometry":{"coordinates":[10.168714,53.595018],"type":"Point"},"properties":{"osm_id":"677186720","tag":{"amenity":"recycling","recycling:clothes":"yes","recycling:glass_bottles":"yes","recycling:paper":"yes","recycling_type":"container"}},"type":"Feature"},
	{"geometry":{"coordinates":[10.174946,53.628857],"type":"Point"},"properties":{"osm_id":"791385372","tag":{"amenity":"recycling","recycling:paper":"yes","recycling_type":"container"}},"type":"Feature"},
	{"geometry":{"coordinates":[10.137312,53.603109],"type":"Point"},"properties":{"osm_id":"938783978","tag":{"amenity":"waste_basket"}},"type":"Feature"},
	{"geometry":{"coordinates":[10.144543,53.617495],"type":"Point"},"properties":{"osm_id":"956310914","tag":{"amenity":"waste_basket"}},"type":"Feature"},
	{"geometry":{"coordinates":[10.110811,53.624118],"type":"Point"},"properties":{"osm_id":"970060162","tag":{"amenity":"recycling","check_date":"2020-04-04","operator":"Stadtreinigung Hamburg","recycling:clothes":"yes","recycling:glass_bottles":"yes","recycling:paper":"yes","recycling_type":"container"}},"type":"Feature"},
	{"geometry":{"coordinates":[10.152306,53.628988],"type":"Point"},"properties":{"osm_id":"983773334","tag":{"amenity":"waste_basket"}},"type":"Feature"},
	{"geometry":{"coordinates":[10.152837,53.628851],"type":"Point"},"properties":{"osm_id":"983773336","tag":{"amenity":"waste_basket"}},"type":"Feature"},
	{"geometry":{"coordinates":[10.177229,53.629716],"type":"Point"},"properties":{"osm_id":"1215872304","tag":{"amenity":"recycling","recycling:paper":"yes","recycling_type":"container"}},"type":"Feature"},
	{"geometry":{"coordinates":[10.156008,53.638691],"type":"Point"},"properties":{"osm_id":"1343976107","tag":{"amenity":"waste_basket","layer":"1","surface":"metal"}},"type":"Feature"},
	{"geometry":{"coordinates":[10.156286,53.638929],"type":"Point"},"properties":{"osm_id":"1343976115","tag":{"amenity":"waste_basket","layer":"1","surface":"metal"}},"type":"Feature"},
	{"geometry":{"coordinates":[10.155989,53.638703],"type":"Point"},"properties":{"osm_id":"1343976122","tag":{"amenity":"waste_basket","layer":"1","surface":"metal"}},"type":"Feature"},
	{"geometry":{"coordinates":[10.175456,53.606731],"type":"Point"},"properties":{"osm_id":"1350087100","tag":{"amenity":"recycling","recycling:cardboard":"yes","recycling:glass_bottles":"yes","recycling:paper":"yes","recycling_type":"container"}},"type":"Feature"},
	{"geometry":{"coordinates":[10.16715,53.628073],"type":"Point"},"properties":{"osm_id":"1686090062","tag":{"amenity":"recycling","recycling:paper":"yes","recycling_type":"container"}},"type":"Feature"},
	{"geometry":{"coordinates":[10.15681,53.639087],"type":"Point"},"properties":{"osm_id":"1795601750","tag":{"amenity":"waste_basket"}},"type":"Feature"},
	{"geometry":{"coordinates":[10.139196,53.626386],"type":"Point"},"properties":{"osm_id":"1799258648","tag":{"amenity":"waste_basket"}},"type":"Feature"},
	{"geometry":{"coordinates":[10.138772,53.626481],"type":"Point"},"properties":{"osm_id":"1799258659","tag":{"amenity":"waste_basket"}},"type":"Feature"},
	{"geometry":{"coordinates":[10.141346,53.628004],"type":"Point"},"properties":{"osm_id":"1799258683","tag":{"amenity":"recycling","recycling:glass_bottles":"yes","recycling:paper":"yes","recycling_type":"container"}},"type":"Feature"},
	{"geometry":{"coordinates":[10.11735,53.606229],"type":"Point"},"properties":{"osm_id":"1807343483","tag":{"amenity":"waste_basket"}},"type":"Feature"},
	{"geometry":{"coordinates":[10.117356,53.606275],"type":"Point"},"properties":{"osm_id":"1807343485","tag":{"amenity":"waste_basket"}},"type":"Feature"},
	{"geometry":{"coordinates":[10.115907,53.5962],"type":"Point"},"properties":{"osm_id":"1856004735","tag":{"amenity":"recycling","recycling:glass_bottles":"yes","recycling:paper":"yes","recycling_type":"container"}},"type":"Feature"},
	{"geometry":{"coordinates":[10.118252,53.600942],"type":"Point"},"properties":{"osm_id":"1856004739","tag":{"amenity":"recycling","recycling:glass_bottles":"yes","recycling:paper":"yes","recycling_type":"container"}},"type":"Feature"},
	{"geometry":{"coordinates":[10.139354,53.626263],"type":"Point"},"properties":{"osm_id":"1993703635","tag":{"amenity":"waste_basket"}},"type":"Feature"},
	{"geometry":{"coordinates":[10.155903,53.613955],"type":"Point"},"properties":{"osm_id":"2310963975","tag":{"amenity":"recycling","recycling:glass_bottles":"yes","recycling:paper":"yes","recycling_type":"container"}},"type":"Feature"},
	{"geometry":{"coordinates":[10.182072,53.601863],"type":"Point"},"properties":{"osm_id":"2388979505","tag":{"amenity":"recycling","check_date":"2020-04-10","operator":"Stadtreinigung Hamburg","recycling:clothes":"yes","recycling:glass_bottles":"yes","recycling:paper":"yes","recycling:small_appliances":"yes","recycling:small_electrical_appliances":"yes","recycling_type":"container"}},"type":"Feature"},
	{"geometry":{"coordinates":[10.179113,53.602215],"type":"Point"},"properties":{"osm_id":"2711729485","tag":{"amenity":"recycling","recycling:glass_bottles":"yes","recycling:paper":"yes","recycling_type":"container"}},"type":"Feature"},
	{"geometry":{"coordinates":[10.150845,53.640059],"type":"Point"},"properties":{"osm_id":"3184796955","tag":{"amenity":"waste_disposal"}},"type":"Feature"},
	{"geometry":{"coordinates":[10.16692,53.628194],"type":"Point"},"properties":{"osm_id":"3383715864","tag":{"amenity":"recycling","check_date":"2020-04-10","operator":"Stadtreinigung Hamburg","recycling:clothes":"yes","recycling:glass_bottles":"yes","recycling:paper":"yes","recycling:small_appliances":"yes","recycling:small_electrical_appliances":"yes","recycling_type":"container"}},"type":"Feature"},
	{"geometry":{"coordinates":[10.150595,53.628201],"type":"Point"},"properties":{"osm_id":"3383715865","tag":{"amenity":"recycling","recycling:clothes":"yes","recycling:glass_bottles":"yes","recycling:paper":"yes","recycling_type":"container"}},"type":"Feature"},
	{"geometry":{"coordinates":[10.145939,53.62973],"type":"Point"},"properties":{"osm_id":"3383715866","tag":{"amenity":"recycling","recycling:glass_bottles":"yes","recycling_type":"container"}},"type":"Feature"},
	{"geometry":{"coordinates":[10.135636,53.594207],"type":"Point"},"properties":{"osm_id":"3594008110","tag":{"amenity":"recycling","check_date":"2020-04-10","operator":"Stadtreinigung Hamburg","recycling:clothes":"yes","recycling:glass_bottles":"yes","recycling:paper":"yes","recycling:small_appliances":"yes","recycling:small_electrical_appliances":"yes","recycling_type":"container"}},"type":"Feature"},
	{"geometry":{"coordinates":[10.116014,53.604364],"type":"Point"},"properties":{"osm_id":"3594084960","tag":{"amenity":"recycling","check_date":"2020-04-25","operator":"Stadtreinigung Hamburg","recycling:clothes":"yes","recycling:glass_bottles":"yes","recycling:paper":"yes","recycling:small_appliances":"yes","recycling:small_electrical_appliances":"yes","recycling_type":"container"}},"type":"Feature"},
	{"geometry":{"coordinates":[10.125156,53.618257],"type":"Point"},"properties":{"osm_id":"4083948698","tag":{"amenity":"recycling","recycling:glass_bottles":"yes","recycling:paper":"yes","recycling_type":"container"}},"type":"Feature"},
	{"geometry":{"coordinates":[10.164698,53.612802],"type":"Point"},"properties":{"osm_id":"4085704759","tag":{"amenity":"recycling","recycling:paper":"yes","recycling_type":"container"}},"type":"Feature"},
	{"geometry":{"coordinates":[10.153727,53.621486],"type":"Point"},"properties":{"osm_id":"4096279751","tag":{"amenity":"recycling","recycling:glass_bottles":"yes","recycling:paper":"yes","recycling_type":"container"}},"type":"Feature"},
	{"geometry":{"coordinates":[10.135675,53.600081],"type":"Point"},"properties":{"osm_id":"4624128840","tag":{"amenity":"recycling","recycling:glass_bottles":"yes","recycling:paper":"yes","recycling_type":"container"}},"type":"Feature"},
	{"geometry":{"coordinates":[10.123807,53.605575],"type":"Point"},"properties":{"osm_id":"4633678976","tag":{"amenity":"waste_basket"}},"type":"Feature"},
	{"geometry":{"coordinates":[10.122598,53.605565],"type":"Point"},"properties":{"osm_id":"4633683697","tag":{"amenity":"waste_basket"}},"type":"Feature"},
	{"geometry":{"coordinates":[10.179278,53.598649],"type":"Point"},"properties":{"osm_id":"4742688184","tag":{"amenity":"recycling","recycling:paper":"yes","recycling_type":"container"}},"type":"Feature"},
	{"geometry":{"coordinates":[10.149254,53.601557],"type":"Point"},"properties":{"osm_id":"5508179890","tag":{"amenity":"recycling","recycling:glass_bottles":"yes","recycling:paper":"yes","recycling_type":"container"}},"type":"Feature"},
	{"geometry":{"coordinates":[10.180526,53.632565],"type":"Point"},"properties":{"osm_id":"5614246798","tag":{"amenity":"recycling","recycling:glass_bottles":"yes","recycling:paper":"yes","recycling_type":"container"}},"type":"Feature"},
	{"geometry":{"coordinates":[10.147587,53.617547],"type":"Point"},"properties":{"osm_id":"5846517763","tag":{"amenity":"waste_basket"}},"type":"Feature"},
	{"geometry":{"coordinates":[10.147568,53.617284],"type":"Point"},"properties":{"osm_id":"5846517772","tag":{"amenity":"waste_basket"}},"type":"Feature"},
	{"geometry":{"coordinates":[10.116583,53.60794],"type":"Point"},"properties":{"osm_id":"5954109226","tag":{"amenity":"waste_basket","waste":"trash"}},"type":"Feature"},
	{"geometry":{"coordinates":[10.120174,53.606405],"type":"Point"},"properties":{"osm_id":"6269987534","tag":{"amenity":"waste_basket"}},"type":"Feature"},
	{"geometry":{"coordinates":[10.112965,53.631112],"type":"Point"},"properties":{"osm_id":"6344890263","tag":{"amenity":"waste_basket","waste":"trash"}},"type":"Feature"},
	{"geometry":{"coordinates":[10.113973,53.630821],"type":"Point"},"properties":{"osm_id":"6344890264","tag":{"amenity":"waste_basket","waste":"trash"}},"type":"Feature"},
	{"geometry":{"coordinates":[10.118318,53.632535],"type":"Point"},"properties":{"osm_id":"6391329504","tag":{"amenity":"waste_basket","waste":"trash"}},"type":"Feature"},
	{"geometry":{"coordinates":[10.117856,53.632804],"type":"Point"},"properties":{"osm_id":"6391329507","tag":{"amenity":"waste_basket","waste":"trash"}},"type":"Feature"},
	{"geometry":{"coordinates":[10.118841,53.632075],"type":"Point"},"properties":{"osm_id":"6391329510","tag":{"amenity":"waste_basket","waste":"trash"}},"type":"Feature"},
	{"geometry":{"coordinates":[10.119797,53.631372],"type":"Point"},"properties":{"osm_id":"6391329513","tag":{"amenity":"waste_basket","waste":"trash"}},"type":"Feature"},
	{"geometry":{"coordinates":[10.120119,53.631111],"type":"Point"},"properties":{"osm_id":"6391329514","tag":{"amenity":"waste_basket","waste":"trash"}},"type":"Feature"},
	{"geometry":{"coordinates":[10.120626,53.631035],"type":"Point"},"properties":{"osm_id":"6391329515","tag":{"amenity":"waste_basket","waste":"trash"}},"type":"Feature"},
	{"geometry":{"coordinates":[10.120636,53.630784],"type":"Point"},"properties":{"osm_id":"6395820535","tag":{"amenity":"waste_basket","waste":"trash"}},"type":"Feature"},
	{"geometry":{"coordinates":[10.120986,53.631116],"type":"Point"},"properties":{"osm_id":"6402203836","tag":{"amenity":"waste_basket","waste":"trash"}},"type":"Feature"},
	{"geometry":{"coordinates":[10.115336,53.607557],"type":"Point"},"properties":{"osm_id":"6418435188","tag":{"amenity":"waste_basket"}},"type":"Feature"},
	{"geometry":{"coordinates":[10.144056,53.640725],"type":"Point"},"properties":{"osm_id":"6796405188","tag":{"amenity":"waste_basket"}},"type":"Feature"},
	{"geometry":{"coordinates":[10.123035,53.621217],"type":"Point"},"properties":{"osm_id":"7008581612","tag":{"amenity":"waste_basket","waste":"trash"}},"type":"Feature"},
	{"geometry":{"coordinates":[10.123363,53.620987],"type":"Point"},"properties":{"osm_id":"7008581614","tag":{"amenity":"waste_basket","waste":"trash"}},"type":"Feature"},
	{"geometry":{"coordinates":[10.150596,53.640794],"type":"Point"},"properties":{"osm_id":"7082466745","tag":{"amenity":"waste_basket"}},"type":"Feature"},
	{"geometry":{"coordinates":[10.169545,53.612708],"type":"Point"},"properties":{"osm_id":"7393541305","tag":{"amenity":"recycling","recycling:paper":"yes","recycling_type":"container"}},"type":"Feature"},
	{"geometry":{"coordinates":[10.150988,53.604177],"type":"Point"},"properties":{"osm_id":"7454591111","tag":{"amenity":"recycling","recycling:clothes":"yes","recycling_type":"container"}},"type":"Feature"},
	{"geometry":{"coordinates":[10.119056,53.61848],"type":"Point"},"properties":{"osm_id":"7500836433","tag":{"amenity":"waste_basket"}},"type":"Feature"},
	{"geometry":{"coordinates":[10.11369,53.631071],"type":"Point"},"properties":{"osm_id":"7674145191","tag":{"amenity":"waste_basket","waste":"trash"}},"type":"Feature"}
]
}
