{
"type": "FeatureCollection",
"features": [
	{"geometry":{"coordinates":[10.152002,51.565773],"type":"Point"},"properties":{"osm_id":"420776028","tag":{"amenity":"recycling","recycling:clothes":"yes","recycling:glass":"yes","recycling_type":"container"}},"type":"Feature"},
	{"geometry":{"coordinates":[10.136215,51.61203],"type":"Point"},"properties":{"osm_id":"1225741847","tag":{"amenity":"waste_basket"}},"type":"Feature"},
	{"geometry":{"coordinates":[10.112442,51.603473],"type":"Point"},"properties":{"osm_id":"1225742243","tag":{"amenity":"waste_basket"}},"type":"Feature"},
	{"geometry":{"coordinates":[10.162311,51.585272],"type":"Point"},"properties":{"osm_id":"1454821924","tag":{"amenity":"recycling","recycling:batteries":"no","recycling:books":"no","recycling:cans":"no","recycling:cardboard":"no","recycling:cartons":"no","recycling:clothes":"no","recycling:electrical_appliances":"no","recycling:glass":"yes","recycling:glass_bottles":"yes","recycling:green_waste":"no","recycling:magazines":"no","recycling:newspaper":"no","recycling:paper":"no","recycling:paper_packaging":"no","recycling:plastic":"no","recycling:plastic_bottles":"no","recycling:plastic_packaging":"no","recycling:scrap_metal":"no","recycling:small_appliances":"no","recycling:waste":"no","recycling:wood":"no","recycling_type":"container"}},"type":"Feature"},
	{"geometry":{"coordinates":[10.153544,51.563544],"type":"Point"},"properties":{"osm_id":"3464782331","tag":{"amenity":"recycling"}},"type":"Feature"},
	{"geometry":{"coordinates":[10.155634,51.568435],"type":"Point"},"properties":{"osm_id":"4340187515","tag":{"amenity":"waste_basket"}},"type":"Feature"},
	{"geometry":{"coordinates":[10.116449,51.573832],"type":"Point"},"properties":{"osm_id":"5676594080","tag":{"amenity":"waste_basket","survey:date":"2018-06-17"}},"type":"Feature"},
	{"geometry":{"coordinates":[10.114021,51.574523],"type":"Point"},"properties":{"osm_id":"5676594242","tag":{"amenity":"waste_basket","survey:date":"2018-06-08"}},"type":"Feature"},
	{"geometry":{"coordinates":[10.111768,51.574118],"type":"Point"},"properties":{"osm_id":"5676594534","tag":{"amenity":"waste_basket","survey:date":"2018-06-08"}},"type":"Feature"},
	{"geometry":{"coordinates":[10.11812,51.588671],"type":"Point"},"properties":{"osm_id":"5697530244","tag":{"amenity":"waste_basket","material":"metal","survey:date":"2020-08-16"}},"type":"Feature"},
	{"geometry":{"coordinates":[10.127536,51.588082],"type":"Point"},"properties":{"osm_id":"5697530253","tag":{"amenity":"waste_basket","survey:date":"2018-06-17"}},"type":"Feature"},
	{"geometry":{"coordinates":[10.123845,51.588037],"type":"Point"},"properties":{"osm_id":"5697530263","tag":{"amenity":"waste_basket","survey:date":"2018-06-17"}},"type":"Feature"},
	{"geometry":{"coordinates":[10.11566,51.573597],"type":"Point"},"properties":{"osm_id":"5697530265","tag":{"amenity":"waste_basket","survey:date":"2018-06-17"}},"type":"Feature"},
	{"geometry":{"coordinates":[10.142084,51.565116],"type":"Point"},"properties":{"osm_id":"5732700977","tag":{"amenity":"waste_basket","survey:date":"2018-07-01"}},"type":"Feature"},
	{"geometry":{"coordinates":[10.141998,51.565182],"type":"Point"},"properties":{"osm_id":"5732700981","tag":{"amenity":"waste_basket","survey:date":"2018-07-01"}},"type":"Feature"},
	{"geometry":{"coordinates":[10.145928,51.565249],"type":"Point"},"properties":{"osm_id":"5732700988","tag":{"amenity":"waste_basket","survey:date":"2018-07-01"}},"type":"Feature"},
	{"geometry":{"coordinates":[10.145765,51.565359],"type":"Point"},"properties":{"osm_id":"5732700992","tag":{"amenity":"waste_basket","survey:date":"2018-07-01"}},"type":"Feature"},
	{"geometry":{"coordinates":[10.164496,51.587274],"type":"Point"},"properties":{"osm_id":"5732704450","tag":{"amenity":"waste_basket"}},"type":"Feature"},
	{"geometry":{"coordinates":[10.160957,51.586673],"type":"Point"},"properties":{"osm_id":"5732704460","tag":{"amenity":"waste_basket","survey:date":"2018-07-01"}},"type":"Feature"},
	{"geometry":{"coordinates":[10.155405,51.599544],"type":"Point"},"properties":{"osm_id":"5872393565","tag":{"amenity":"waste_basket","survey:date":"2018-08-31"}},"type":"Feature"},
	{"geometry":{"coordinates":[10.15519,51.599538],"type":"Point"},"properties":{"osm_id":"5872393568","tag":{"amenity":"waste_basket","survey:date":"2018-08-31"}},"type":"Feature"},
	{"geometry":{"coordinates":[10.158558,51.588158],"type":"Point"},"properties":{"osm_id":"5872393935","tag":{"amenity":"recycling","operator":"ALBA","recycling:clothes":"yes","recycling:shoes":"yes","recycling_type":"container","survey:date":"2018-08-31"}},"type":"Feature"},
	{"geometry":{"coordinates":[10.158545,51.588181],"type":"Point"},"properties":{"osm_id":"5872393936","tag":{"amenity":"recycling","operator":"Fehr","recycling:glass_bottles":"yes","recycling_type":"container","survey:date":"2018-08-31"}},"type":"Feature"},
	{"geometry":{"coordinates":[10.118179,51.588755],"type":"Point"},"properties":{"osm_id":"7827744830","tag":{"amenity":"waste_basket","material":"metal","survey:date":"2020-08-16"}},"type":"Feature"}
]
}
