{
"type": "FeatureCollection",
"features": [
	{"geometry":{"coordinates":[10.114236,50.71677],"type":"Point"},"properties":{"osm_id":"255529832","tag":{"amenity":"recycling"}},"type":"Feature"},
	{"geometry":{"coordinates":[10.111023,50.722523],"type":"Point"},"properties":{"osm_id":"256097565","tag":{"amenity":"recycling"}},"type":"Feature"},
	{"geometry":{"coordinates":[10.117463,50.714531],"type":"Point"},"properties":{"osm_id":"256097664","tag":{"amenity":"recycling"}},"type":"Feature"},
	{"geometry":{"coordinates":[10.123794,50.71525],"type":"Point"},"properties":{"osm_id":"258193160","tag":{"amenity":"recycling"}},"type":"Feature"},
	{"geometry":{"coordinates":[10.165449,50.699868],"type":"Point"},"properties":{"osm_id":"693740697","tag":{"amenity":"recycling","recycling:glass":"yes"}},"type":"Feature"},
	{"geometry":{"coordinates":[10.112328,50.73309],"type":"Point"},"properties":{"name":"Gr\u00c3\u00bcnschnitt-Annahmestelle \"Am Lindig\", Unteralba","osm_id":"7126105558","tag":{"amenity":"recycling","opening_hours":"We,Sa 13:00-17:00","operator":"AZV WAK","recycling_type":"centre"}},"type":"Feature"},
	{"geometry":{"coordinates":[10.116097,50.718047],"type":"Point"},"properties":{"osm_id":"7948453336","tag":{"amenity":"recycling","recycling:clothes":"yes","recycling:shoes":"yes","recycling_type":"container"}},"type":"Feature"},
	{"geometry":{"coordinates":[10.110132,50.726489],"type":"Point"},"properties":{"osm_id":"7948520917","tag":{"amenity":"recycling","recycling:clothes":"yes","recycling_type":"container"}},"type":"Feature"},
	{"geometry":{"coordinates":[10.108756,50.724222],"type":"Point"},"properties":{"osm_id":"7948533793","tag":{"amenity":"recycling","recycling:clothes":"yes","recycling:glass_bottles":"yes","recycling:shoes":"yes","recycling_type":"container"}},"type":"Feature"},
	{"geometry":{"coordinates":[10.115812,50.712209],"type":"Point"},"properties":{"osm_id":"7950464707","tag":{"amenity":"recycling","recycling:glass_bottles":"yes","recycling_type":"container"}},"type":"Feature"}
]
}
