{
"type": "FeatureCollection",
"features": [
	{"geometry":{"coordinates":[10.140522,49.662756],"type":"Point"},"properties":{"osm_id":"268070220","tag":{"amenity":"recycling","recycling:glass_bottles":"yes","recycling_type":"container"}},"type":"Feature"},
	{"geometry":{"coordinates":[10.159959,49.663218],"type":"Point"},"properties":{"osm_id":"362833459","tag":{"amenity":"recycling","recycling:glass":"yes"}},"type":"Feature"},
	{"geometry":{"coordinates":[10.165774,49.655848],"type":"Point"},"properties":{"osm_id":"362854014","tag":{"amenity":"recycling","recycling:glass":"yes"}},"type":"Feature"},
	{"geometry":{"coordinates":[10.173673,49.654263],"type":"Point"},"properties":{"name":"Wertstoffhof Obernbreit","osm_id":"496295448","tag":{"amenity":"recycling"}},"type":"Feature"},
	{"geometry":{"coordinates":[10.156359,49.665258],"type":"Point"},"properties":{"osm_id":"2223463495","tag":{"amenity":"waste_basket"}},"type":"Feature"},
	{"geometry":{"coordinates":[10.156467,49.66526],"type":"Point"},"properties":{"osm_id":"2223463498","tag":{"amenity":"waste_basket"}},"type":"Feature"},
	{"geometry":{"coordinates":[10.156519,49.66527],"type":"Point"},"properties":{"osm_id":"2223463503","tag":{"amenity":"recycling","recycling:shoes":"yes","recycling_type":"container"}},"type":"Feature"},
	{"geometry":{"coordinates":[10.15649,49.665271],"type":"Point"},"properties":{"osm_id":"2223463508","tag":{"amenity":"recycling","recycling:clothes":"yes","recycling_type":"container"}},"type":"Feature"},
	{"geometry":{"coordinates":[10.156443,49.665271],"type":"Point"},"properties":{"osm_id":"2223463514","tag":{"amenity":"recycling","recycling:glass":"yes","recycling_type":"container"}},"type":"Feature"},
	{"geometry":{"coordinates":[10.156414,49.665272],"type":"Point"},"properties":{"osm_id":"2223463519","tag":{"amenity":"recycling","recycling:glass":"yes","recycling_type":"container"}},"type":"Feature"},
	{"geometry":{"coordinates":[10.156387,49.665273],"type":"Point"},"properties":{"osm_id":"2223463524","tag":{"amenity":"recycling","recycling:clothes":"yes","recycling_type":"container"}},"type":"Feature"},
	{"geometry":{"coordinates":[10.156344,49.665274],"type":"Point"},"properties":{"osm_id":"2223463527","tag":{"amenity":"recycling","recycling:clothes":"yes","recycling_type":"container"}},"type":"Feature"},
	{"geometry":{"coordinates":[10.15631,49.665275],"type":"Point"},"properties":{"osm_id":"2223463533","tag":{"amenity":"recycling","recycling_type":"container"}},"type":"Feature"},
	{"geometry":{"coordinates":[10.156276,49.665276],"type":"Point"},"properties":{"osm_id":"2223463535","tag":{"amenity":"recycling","recycling_type":"container"}},"type":"Feature"}
]
}
