{
"type": "FeatureCollection",
"lastupdate": "2020-08-06T00:00:00Z",
"features": [
	{"geometry":{"coordinates":[10.124932,48.59562],"type":"Point"},"properties":{"osm_id":"413575513","tag":{"amenity":"recycling"}},"type":"Feature"},
	{"geometry":{"coordinates":[10.174219,48.617928],"type":"Point"},"properties":{"osm_id":"440860742","tag":{"amenity":"recycling","location":"overground","recycling:cans":"yes","recycling:glass_bottles":"yes","recycling:paper":"yes","recycling_type":"container"}},"type":"Feature"},
	{"geometry":{"coordinates":[10.184549,48.624175],"type":"Point"},"properties":{"name":"Recyclinghof Herbrechtingen","osm_id":"1637924409","tag":{"addr:housenumber":"25","addr:street":"Im Saun","amenity":"recycling","opening_hours":"We, Fr 13:00-17:00","recycling:cans":"yes","recycling:clothes":"yes","recycling:glass":"yes","recycling:paper":"yes","recycling_type":"centre"}},"type":"Feature"},
	{"geometry":{"coordinates":[10.188909,48.628492],"type":"Point"},"properties":{"osm_id":"1646722209","tag":{"amenity":"recycling","location":"overground","recycling:glass_bottles":"yes","recycling_type":"container"}},"type":"Feature"},
	{"geometry":{"coordinates":[10.180526,48.619014],"type":"Point"},"properties":{"osm_id":"2351759557","tag":{"amenity":"recycling","location":"overground","recycling_type":"container"}},"type":"Feature"},
	{"geometry":{"coordinates":[10.178645,48.619494],"type":"Point"},"properties":{"osm_id":"3323215559","tag":{"amenity":"recycling","location":"overground","recycling_type":"container"}},"type":"Feature"},
	{"geometry":{"coordinates":[10.178114,48.628916],"type":"Point"},"properties":{"osm_id":"5146104405","tag":{"amenity":"waste_basket"}},"type":"Feature"},
	{"geometry":{"coordinates":[10.172438,48.625565],"type":"Point"},"properties":{"osm_id":"5267743929","tag":{"amenity":"waste_basket"}},"type":"Feature"},
	{"geometry":{"coordinates":[10.172648,48.625608],"type":"Point"},"properties":{"osm_id":"5272254398","tag":{"amenity":"waste_basket"}},"type":"Feature"},
	{"geometry":{"coordinates":[10.178984,48.629516],"type":"Point"},"properties":{"osm_id":"5272254399","tag":{"amenity":"waste_basket"}},"type":"Feature"},
	{"geometry":{"coordinates":[10.178103,48.608385],"type":"Point"},"properties":{"osm_id":"5732407870","tag":{"amenity":"waste_basket"}},"type":"Feature"},
	{"geometry":{"coordinates":[10.17137,48.629572],"type":"Point"},"properties":{"osm_id":"5752038848","tag":{"amenity":"waste_basket"}},"type":"Feature"},
	{"geometry":{"coordinates":[10.173997,48.630397],"type":"Point"},"properties":{"osm_id":"5752615757","tag":{"amenity":"waste_basket"}},"type":"Feature"},
	{"geometry":{"coordinates":[10.155206,48.631036],"type":"Point"},"properties":{"osm_id":"5835213962","tag":{"amenity":"waste_basket"}},"type":"Feature"},
	{"geometry":{"coordinates":[10.171295,48.622501],"type":"Point"},"properties":{"osm_id":"7272511797","tag":{"amenity":"waste_basket"}},"type":"Feature"}
]
}
