{
"type": "FeatureCollection",
"features": [
	{"geometry":{"coordinates":[10.136049,48.498951],"type":"Point"},"properties":{"name":"Kompostieranlage \"In den Lindeschen\"","osm_id":"263390070","tag":{"amenity":"recycling","recycling:green_waste":"yes","recycling_type":"centre"}},"type":"Feature"},
	{"geometry":{"coordinates":[10.11354,48.490567],"type":"Point"},"properties":{"osm_id":"263977395","tag":{"amenity":"recycling","recycling_type":"container"}},"type":"Feature"},
	{"geometry":{"coordinates":[10.117037,48.494964],"type":"Point"},"properties":{"osm_id":"264142600","tag":{"amenity":"recycling","recycling:glass":"yes","recycling:paper":"yes","recycling_type":"container"}},"type":"Feature"},
	{"geometry":{"coordinates":[10.11293,48.49996],"type":"Point"},"properties":{"osm_id":"265613164","tag":{"amenity":"recycling","recycling_type":"container"}},"type":"Feature"},
	{"geometry":{"coordinates":[10.109688,48.499788],"type":"Point"},"properties":{"osm_id":"265810169","tag":{"amenity":"recycling","recycling_type":"container"}},"type":"Feature"},
	{"geometry":{"coordinates":[10.138177,48.50417],"type":"Point"},"properties":{"osm_id":"418335468","tag":{"amenity":"recycling","recycling:glass":"yes","recycling:paper":"yes","recycling_type":"container"}},"type":"Feature"},
	{"geometry":{"coordinates":[10.121629,48.493853],"type":"Point"},"properties":{"osm_id":"418335474","tag":{"amenity":"recycling","recycling:glass":"yes","recycling:paper":"yes","recycling_type":"container"}},"type":"Feature"},
	{"geometry":{"coordinates":[10.121662,48.493606],"type":"Point"},"properties":{"osm_id":"435619133","tag":{"amenity":"recycling","recycling:clothes":"yes","recycling_type":"container"}},"type":"Feature"},
	{"geometry":{"coordinates":[10.119617,48.492407],"type":"Point"},"properties":{"osm_id":"435619140","tag":{"amenity":"recycling","recycling:clothes":"yes","recycling_type":"container"}},"type":"Feature"},
	{"geometry":{"coordinates":[10.12741,48.501018],"type":"Point"},"properties":{"osm_id":"435846507","tag":{"amenity":"recycling","recycling:glass":"yes","recycling:paper":"yes","recycling_type":"container"}},"type":"Feature"},
	{"geometry":{"coordinates":[10.118727,48.490924],"type":"Point"},"properties":{"osm_id":"438607044","tag":{"amenity":"recycling","recycling:clothes":"yes","recycling:glass":"yes","recycling:paper":"yes","recycling_type":"container"}},"type":"Feature"},
	{"geometry":{"coordinates":[10.121935,48.50205],"type":"Point"},"properties":{"osm_id":"441323673","tag":{"amenity":"recycling","recycling:glass_bottles":"yes","recycling_type":"container"}},"type":"Feature"},
	{"geometry":{"coordinates":[10.173938,48.516108],"type":"Point"},"properties":{"osm_id":"443760741","tag":{"amenity":"recycling","recycling:cans":"yes","recycling:glass":"yes","recycling:paper":"yes"}},"type":"Feature"},
	{"geometry":{"coordinates":[10.127751,48.504944],"type":"Point"},"properties":{"osm_id":"649293751","tag":{"amenity":"recycling","recycling:glass":"yes","recycling:paper":"yes","recycling_type":"container"}},"type":"Feature"},
	{"geometry":{"coordinates":[10.108373,48.461584],"type":"Point"},"properties":{"osm_id":"1944633617","tag":{"amenity":"recycling","recycling:glass_bottles":"yes","recycling:paper":"yes","recycling_type":"container"}},"type":"Feature"},
	{"geometry":{"coordinates":[10.121863,48.507513],"type":"Point"},"properties":{"osm_id":"3044446668","tag":{"amenity":"recycling","recycling:clothes":"yes","recycling:glass":"yes","recycling:paper":"yes","recycling_type":"container"}},"type":"Feature"},
	{"geometry":{"coordinates":[10.118377,48.493798],"type":"Point"},"properties":{"osm_id":"3109938004","tag":{"amenity":"waste_basket"}},"type":"Feature"},
	{"geometry":{"coordinates":[10.118301,48.494427],"type":"Point"},"properties":{"osm_id":"3109938005","tag":{"amenity":"waste_basket"}},"type":"Feature"},
	{"geometry":{"coordinates":[10.134889,48.500109],"type":"Point"},"properties":{"name":"Schrott Schmid","osm_id":"3720274459","tag":{"amenity":"recycling","recycling_type":"centre"}},"type":"Feature"},
	{"geometry":{"coordinates":[10.123377,48.500272],"type":"Point"},"properties":{"osm_id":"3723627634","tag":{"amenity":"recycling","recycling:cardboard":"yes","recycling:glass":"yes","recycling:glass_bottles":"yes","recycling:paper":"yes","recycling_type":"container"}},"type":"Feature"},
	{"geometry":{"coordinates":[10.124888,48.500094],"type":"Point"},"properties":{"osm_id":"5052150052","tag":{"amenity":"waste_basket"}},"type":"Feature"},
	{"geometry":{"coordinates":[10.118252,48.494787],"type":"Point"},"properties":{"osm_id":"6298881616","tag":{"amenity":"waste_basket"}},"type":"Feature"},
	{"geometry":{"coordinates":[10.125078,48.49864],"type":"Point"},"properties":{"osm_id":"6535099704","tag":{"amenity":"waste_basket"}},"type":"Feature"},
	{"geometry":{"coordinates":[10.12381,48.498214],"type":"Point"},"properties":{"osm_id":"6535118530","tag":{"amenity":"waste_basket"}},"type":"Feature"},
	{"geometry":{"coordinates":[10.115383,48.501338],"type":"Point"},"properties":{"osm_id":"7538272916","tag":{"amenity":"waste_basket"}},"type":"Feature"},
	{"geometry":{"coordinates":[10.115439,48.500984],"type":"Point"},"properties":{"osm_id":"7538326683","tag":{"amenity":"waste_basket"}},"type":"Feature"},
	{"geometry":{"coordinates":[10.119453,48.496847],"type":"Point"},"properties":{"osm_id":"7538336211","tag":{"amenity":"waste_basket"}},"type":"Feature"},
	{"geometry":{"coordinates":[10.111725,48.491581],"type":"Point"},"properties":{"osm_id":"8401606176","tag":{"amenity":"waste_basket"}},"type":"Feature"},
	{"geometry":{"coordinates":[10.109954,48.491055],"type":"Point"},"properties":{"osm_id":"8401610537","tag":{"amenity":"waste_basket"}},"type":"Feature"},
	{"geometry":{"coordinates":[10.110275,48.491043],"type":"Point"},"properties":{"osm_id":"8401620623","tag":{"amenity":"waste_basket"}},"type":"Feature"},
	{"geometry":{"coordinates":[10.184645,48.50823],"type":"Point"},"properties":{"osm_id":"8569596868","tag":{"amenity":"waste_basket"}},"type":"Feature"}
]
}
