{
"type": "FeatureCollection",
"features": [
	{"geometry":{"coordinates":[10.190791,48.426515],"type":"Point"},"properties":{"osm_id":"445077632","tag":{"amenity":"recycling","recycling:glass":"yes","recycling_type":"container"}},"type":"Feature"},
	{"geometry":{"coordinates":[10.18581,48.423298],"type":"Point"},"properties":{"osm_id":"445077666","tag":{"amenity":"recycling","recycling_type":"container"}},"type":"Feature"},
	{"geometry":{"coordinates":[10.122897,48.428187],"type":"Point"},"properties":{"osm_id":"942435152","tag":{"amenity":"recycling","recycling:glass":"yes","recycling:glass_bottles":"yes","recycling_type":"container"}},"type":"Feature"},
	{"geometry":{"coordinates":[10.108672,48.400307],"type":"Point"},"properties":{"osm_id":"1546043955","ref":"Steinheim","tag":{"amenity":"recycling","recycling:glass":"yes","recycling:paper":"yes","recycling_type":"container"}},"type":"Feature"},
	{"geometry":{"coordinates":[10.164516,48.428337],"type":"Point"},"properties":{"osm_id":"1709902825","tag":{"amenity":"recycling","recycling_type":"container"}},"type":"Feature"},
	{"geometry":{"coordinates":[10.125519,48.430218],"type":"Point"},"properties":{"osm_id":"1937886421","tag":{"amenity":"recycling","recycling:glass":"yes","recycling:glass_bottles":"yes","recycling:paper":"yes","recycling_type":"container"}},"type":"Feature"},
	{"geometry":{"coordinates":[10.139042,48.41492],"type":"Point"},"properties":{"osm_id":"2156674682","tag":{"amenity":"recycling","location":"overground","recycling:cans":"yes","recycling:glass":"yes","recycling:paper":"yes","recycling_type":"container"}},"type":"Feature"},
	{"geometry":{"coordinates":[10.107469,48.435288],"type":"Point"},"properties":{"osm_id":"2579833869","tag":{"amenity":"recycling","location":"overground","recycling:glass_bottles":"yes","recycling:paper":"yes","recycling_type":"container"}},"type":"Feature"},
	{"geometry":{"coordinates":[10.118001,48.430012],"type":"Point"},"properties":{"osm_id":"2623583052","tag":{"amenity":"waste_basket"}},"type":"Feature"},
	{"geometry":{"coordinates":[10.109284,48.455028],"type":"Point"},"properties":{"osm_id":"2630442137","tag":{"amenity":"recycling","recycling:glass_bottles":"yes","recycling:paper":"yes","recycling_type":"container"}},"type":"Feature"},
	{"geometry":{"coordinates":[10.118283,48.436163],"type":"Point"},"properties":{"osm_id":"3592766500","tag":{"amenity":"waste_basket"}},"type":"Feature"},
	{"geometry":{"coordinates":[10.148323,48.413806],"type":"Point"},"properties":{"osm_id":"4114897216","tag":{"amenity":"recycling","brand":"Aktion Hoffnung","operator":"Aktion Hoffnung","recycling:clothes":"yes","recycling_type":"container"}},"type":"Feature"},
	{"geometry":{"coordinates":[10.153946,48.412817],"type":"Point"},"properties":{"osm_id":"4148643783","tag":{"amenity":"recycling","recycling:paper":"yes","recycling_type":"container"}},"type":"Feature"},
	{"geometry":{"coordinates":[10.153981,48.412822],"type":"Point"},"properties":{"osm_id":"4148643784","tag":{"amenity":"recycling","recycling:glass_bottles":"yes","recycling_type":"container"}},"type":"Feature"},
	{"geometry":{"coordinates":[10.154011,48.412829],"type":"Point"},"properties":{"osm_id":"4148643785","tag":{"amenity":"recycling","brand":"Aktion Hoffnung","operator":"Aktion Hoffnung","recycling:clothes":"yes","recycling_type":"container"}},"type":"Feature"},
	{"geometry":{"coordinates":[10.148371,48.426085],"type":"Point"},"properties":{"osm_id":"4307703046","tag":{"amenity":"recycling","recycling:paper":"yes","recycling_type":"container"}},"type":"Feature"},
	{"geometry":{"coordinates":[10.148362,48.426104],"type":"Point"},"properties":{"osm_id":"4307703047","tag":{"amenity":"recycling","recycling:glass_bottles":"yes","recycling_type":"container"}},"type":"Feature"},
	{"geometry":{"coordinates":[10.160318,48.43327],"type":"Point"},"properties":{"osm_id":"4784325923","tag":{"amenity":"waste_basket"}},"type":"Feature"},
	{"geometry":{"coordinates":[10.160458,48.433383],"type":"Point"},"properties":{"osm_id":"4784325924","tag":{"amenity":"waste_basket"}},"type":"Feature"},
	{"geometry":{"coordinates":[10.121336,48.432766],"type":"Point"},"properties":{"osm_id":"4921326003","tag":{"amenity":"recycling","brand":"aktion hoffnung","operator":"aktion hoffnung, Hilfe f\u00c3\u00bcr die Mission GmbH","recycling:clothes":"yes","recycling_type":"container"}},"type":"Feature"},
	{"geometry":{"coordinates":[10.121376,48.432777],"type":"Point"},"properties":{"osm_id":"4921326005","tag":{"amenity":"recycling","recycling:glass_bottles":"yes","recycling:paper":"yes","recycling_type":"container"}},"type":"Feature"},
	{"geometry":{"coordinates":[10.115464,48.426064],"type":"Point"},"properties":{"osm_id":"5122557002","tag":{"amenity":"recycling","recycling:clothes":"yes","recycling:glass":"yes","recycling:paper":"yes","recycling_type":"container"}},"type":"Feature"},
	{"geometry":{"coordinates":[10.118931,48.42217],"type":"Point"},"properties":{"osm_id":"5124347538","tag":{"amenity":"waste_basket"}},"type":"Feature"},
	{"geometry":{"coordinates":[10.114444,48.42443],"type":"Point"},"properties":{"osm_id":"5124436025","tag":{"amenity":"recycling","operator":"Triglav GmbH Kissing","recycling:clothes":"yes","recycling:shoes":"yes","recycling_type":"container"}},"type":"Feature"},
	{"geometry":{"coordinates":[10.114495,48.424389],"type":"Point"},"properties":{"osm_id":"5124436026","tag":{"amenity":"recycling","operator":"CityGreenPoint","recycling:clothes":"yes","recycling:shoes":"yes","recycling_type":"container"}},"type":"Feature"},
	{"geometry":{"coordinates":[10.152857,48.430981],"type":"Point"},"properties":{"osm_id":"5238314006","tag":{"amenity":"recycling","recycling:glass":"yes","recycling:paper":"yes","recycling_type":"container"}},"type":"Feature"},
	{"geometry":{"coordinates":[10.135206,48.417833],"type":"Point"},"properties":{"osm_id":"5314591233","tag":{"amenity":"waste_basket"}},"type":"Feature"},
	{"geometry":{"coordinates":[10.136729,48.412235],"type":"Point"},"properties":{"osm_id":"5332941675","tag":{"amenity":"waste_basket"}},"type":"Feature"},
	{"geometry":{"coordinates":[10.136186,48.413412],"type":"Point"},"properties":{"osm_id":"5332941676","tag":{"amenity":"waste_basket"}},"type":"Feature"},
	{"geometry":{"coordinates":[10.117443,48.429484],"type":"Point"},"properties":{"osm_id":"5512871212","tag":{"amenity":"recycling","check_date:recycling":"2020-09-24","operator":"Aktion Hoffnung","recycling:clothes":"yes","recycling_type":"container"}},"type":"Feature"},
	{"geometry":{"coordinates":[10.150994,48.430228],"type":"Point"},"properties":{"osm_id":"5740675795","tag":{"amenity":"recycling","recycling:clothes":"yes","recycling:shoes":"yes","recycling_type":"container"}},"type":"Feature"},
	{"geometry":{"coordinates":[10.149298,48.430768],"type":"Point"},"properties":{"osm_id":"5740675796","tag":{"amenity":"recycling","recycling:clothes":"yes","recycling:shoes":"yes","recycling_type":"container"}},"type":"Feature"},
	{"geometry":{"coordinates":[10.190833,48.426518],"type":"Point"},"properties":{"osm_id":"5801150631","tag":{"amenity":"recycling","recycling:paper":"yes","recycling_type":"container"}},"type":"Feature"},
	{"geometry":{"coordinates":[10.19072,48.426514],"type":"Point"},"properties":{"osm_id":"5801150632","tag":{"amenity":"recycling","recycling:glass":"yes","recycling_type":"container"}},"type":"Feature"},
	{"geometry":{"coordinates":[10.190756,48.426516],"type":"Point"},"properties":{"osm_id":"5801150633","tag":{"amenity":"recycling","recycling:glass":"yes","recycling_type":"container"}},"type":"Feature"},
	{"geometry":{"coordinates":[10.190664,48.426506],"type":"Point"},"properties":{"osm_id":"5801150634","tag":{"amenity":"recycling","operator":"Aktion Hoffnung","recycling:clothes":"yes","recycling_type":"container"}},"type":"Feature"},
	{"geometry":{"coordinates":[10.156254,48.415246],"type":"Point"},"properties":{"barrier":"gate","osm_id":"6154218272"},"type":"Feature"},
	{"geometry":{"coordinates":[10.12081,48.41058],"type":"Point"},"properties":{"osm_id":"6421797685","tag":{"amenity":"waste_basket","waste":"trash"}},"type":"Feature"},
	{"geometry":{"coordinates":[10.194663,48.41938],"type":"Point"},"properties":{"osm_id":"6744516099","tag":{"amenity":"waste_basket","waste":"dog_excrement"}},"type":"Feature"},
	{"geometry":{"coordinates":[10.110396,48.429567],"type":"Point"},"properties":{"osm_id":"6912839478","tag":{"amenity":"waste_basket"}},"type":"Feature"}
]
}
