{
"type": "FeatureCollection",
"lastupdate": "2020-08-01T00:00:00Z",
"features": [
	{"geometry":{"coordinates":[10.182475,48.399578],"type":"Point"},"properties":{"osm_id":"2752098908","tag":{"amenity":"recycling","recycling:paper":"yes","recycling_type":"container"}},"type":"Feature"},
	{"geometry":{"coordinates":[10.160546,48.354644],"type":"Point"},"properties":{"osm_id":"4253410655","tag":{"amenity":"waste_basket"}},"type":"Feature"},
	{"geometry":{"coordinates":[10.161204,48.353687],"type":"Point"},"properties":{"osm_id":"4733124942","tag":{"amenity":"recycling","recycling:clothes":"yes","recycling:shoes":"yes","recycling_type":"container"}},"type":"Feature"},
	{"geometry":{"coordinates":[10.155325,48.343087],"type":"Point"},"properties":{"osm_id":"4781939967","tag":{"amenity":"recycling","recycling:clothes":"yes","recycling:glass_bottles":"yes","recycling:paper":"yes","recycling_type":"container"}},"type":"Feature"},
	{"geometry":{"coordinates":[10.157185,48.346713],"type":"Point"},"properties":{"osm_id":"5276096540","tag":{"amenity":"waste_basket"}},"type":"Feature"},
	{"geometry":{"coordinates":[10.157947,48.346527],"type":"Point"},"properties":{"osm_id":"5276097042","tag":{"amenity":"waste_basket"}},"type":"Feature"},
	{"geometry":{"coordinates":[10.161253,48.348538],"type":"Point"},"properties":{"osm_id":"5276127332","tag":{"amenity":"recycling","recycling:glass":"yes","recycling:paper":"yes","recycling_type":"container"}},"type":"Feature"},
	{"geometry":{"coordinates":[10.161133,48.348134],"type":"Point"},"properties":{"osm_id":"5276172625","tag":{"amenity":"recycling","recycling:clothes":"yes","recycling_type":"container"}},"type":"Feature"},
	{"geometry":{"coordinates":[10.150024,48.38194],"type":"Point"},"properties":{"osm_id":"5585624722","tag":{"amenity":"recycling","recycling:glass":"yes","recycling_type":"container"}},"type":"Feature"},
	{"geometry":{"coordinates":[10.182507,48.399558],"type":"Point"},"properties":{"osm_id":"6481330677","tag":{"amenity":"recycling","operator":"Aktion Hoffnung","recycling:clothes":"yes","recycling:shoes":"yes","recycling_type":"container"}},"type":"Feature"},
	{"geometry":{"coordinates":[10.182395,48.399631],"type":"Point"},"properties":{"osm_id":"6481330678","tag":{"amenity":"recycling","operator":"Humanit\u00e4rer Mutter Teresa Verein Ichenhausen e.V.","recycling:clothes":"yes","recycling:shoes":"yes","recycling_type":"container"}},"type":"Feature"},
	{"geometry":{"coordinates":[10.182439,48.399606],"type":"Point"},"properties":{"osm_id":"6481330679","tag":{"amenity":"recycling","recycling:glass":"yes","recycling:glass_bottles":"yes","recycling_type":"container"}},"type":"Feature"},
	{"geometry":{"coordinates":[10.190834,48.396862],"type":"Point"},"properties":{"osm_id":"6483336751","tag":{"amenity":"recycling","recycling:clothes":"yes","recycling:shoes":"yes","recycling_type":"container"}},"type":"Feature"},
	{"geometry":{"coordinates":[10.190819,48.396875],"type":"Point"},"properties":{"osm_id":"6483336752","tag":{"amenity":"recycling","recycling:glass":"yes","recycling:glass_bottles":"yes","recycling_type":"container"}},"type":"Feature"},
	{"geometry":{"coordinates":[10.190804,48.396891],"type":"Point"},"properties":{"osm_id":"6483336753","tag":{"amenity":"recycling","recycling:paper":"yes","recycling_type":"container"}},"type":"Feature"},
	{"geometry":{"coordinates":[10.158477,48.357916],"type":"Point"},"properties":{"osm_id":"6909872218","tag":{"amenity":"recycling","recycling:clothes":"yes","recycling:shoes":"yes","recycling_type":"container"}},"type":"Feature"},
	{"geometry":{"coordinates":[10.192501,48.357106],"type":"Point"},"properties":{"osm_id":"7472114833","tag":{"amenity":"waste_basket"}},"type":"Feature"},
	{"geometry":{"coordinates":[10.159865,48.356959],"type":"Point"},"properties":{"osm_id":"7492076538","tag":{"amenity":"waste_basket"}},"type":"Feature"},
	{"geometry":{"coordinates":[10.159242,48.362238],"type":"Point"},"properties":{"osm_id":"7560859997","tag":{"amenity":"waste_basket","waste":"trash"}},"type":"Feature"},
	{"geometry":{"coordinates":[10.158224,48.362328],"type":"Point"},"properties":{"osm_id":"7560859999","tag":{"entrance":"main"}},"type":"Feature"},
	{"geometry":{"coordinates":[10.158785,48.362426],"type":"Point"},"properties":{"osm_id":"7560860000","tag":{"amenity":"waste_basket","waste":"trash"}},"type":"Feature"},
	{"geometry":{"coordinates":[10.158509,48.362202],"type":"Point"},"properties":{"osm_id":"7560860001","tag":{"amenity":"waste_basket","waste":"trash"}},"type":"Feature"}
]
}
