{
"type": "FeatureCollection",
"features": [
	{"geometry":{"coordinates":[21.250549,48.763698],"type":"Point"},"properties":{"osm_id":"2405451485","tag":{"amenity":"waste_disposal"}},"type":"Feature"},
	{"geometry":{"coordinates":[21.228158,48.750843],"type":"Point"},"properties":{"osm_id":"3841626609","tag":{"amenity":"waste_disposal"}},"type":"Feature"},
	{"geometry":{"coordinates":[21.25948,48.758388],"type":"Point"},"properties":{"osm_id":"5393679322","tag":{"amenity":"waste_basket"}},"type":"Feature"},
	{"geometry":{"coordinates":[21.267166,48.754912],"type":"Point"},"properties":{"osm_id":"5592706331","tag":{"amenity":"waste_basket"}},"type":"Feature"},
	{"geometry":{"coordinates":[21.25574,48.757659],"type":"Point"},"properties":{"osm_id":"5658494969","tag":{"amenity":"waste_basket"}},"type":"Feature"},
	{"geometry":{"coordinates":[21.257928,48.75323],"type":"Point"},"properties":{"name":"Zbern\u00c3\u00bd dvor","osm_id":"5715149551","tag":{"amenity":"recycling","recycling_type":"centre"}},"type":"Feature"},
	{"geometry":{"coordinates":[21.26203,48.76004],"type":"Point"},"properties":{"osm_id":"6119298821","tag":{"amenity":"waste_basket"}},"type":"Feature"},
	{"geometry":{"coordinates":[21.261911,48.759981],"type":"Point"},"properties":{"osm_id":"6119298825","tag":{"amenity":"waste_basket"}},"type":"Feature"},
	{"geometry":{"coordinates":[21.262309,48.759693],"type":"Point"},"properties":{"osm_id":"6119298857","tag":{"amenity":"waste_basket"}},"type":"Feature"},
	{"geometry":{"coordinates":[21.267636,48.757357],"type":"Point"},"properties":{"osm_id":"6282524776","tag":{"amenity":"waste_basket"}},"type":"Feature"},
	{"geometry":{"coordinates":[21.269192,48.752879],"type":"Point"},"properties":{"osm_id":"6284754042","tag":{"amenity":"waste_basket"}},"type":"Feature"},
	{"geometry":{"coordinates":[21.269237,48.752831],"type":"Point"},"properties":{"osm_id":"6284754043","tag":{"amenity":"waste_basket"}},"type":"Feature"},
	{"geometry":{"coordinates":[21.268616,48.753543],"type":"Point"},"properties":{"osm_id":"6284754048","tag":{"amenity":"waste_basket"}},"type":"Feature"},
	{"geometry":{"coordinates":[21.268935,48.753666],"type":"Point"},"properties":{"osm_id":"6284754049","tag":{"amenity":"waste_basket"}},"type":"Feature"},
	{"geometry":{"coordinates":[21.268611,48.759065],"type":"Point"},"properties":{"osm_id":"6376319050","tag":{"amenity":"waste_basket"}},"type":"Feature"},
	{"geometry":{"coordinates":[21.267576,48.760316],"type":"Point"},"properties":{"osm_id":"6376320920","tag":{"amenity":"waste_basket"}},"type":"Feature"},
	{"geometry":{"coordinates":[21.267911,48.75931],"type":"Point"},"properties":{"osm_id":"6376320950","tag":{"amenity":"waste_basket"}},"type":"Feature"},
	{"geometry":{"coordinates":[21.268203,48.759247],"type":"Point"},"properties":{"osm_id":"6376320951","tag":{"amenity":"waste_basket"}},"type":"Feature"},
	{"geometry":{"coordinates":[21.26801,48.759259],"type":"Point"},"properties":{"osm_id":"6376320952","tag":{"amenity":"waste_basket"}},"type":"Feature"},
	{"geometry":{"coordinates":[21.268381,48.760091],"type":"Point"},"properties":{"osm_id":"6376320956","tag":{"amenity":"waste_basket"}},"type":"Feature"},
	{"geometry":{"coordinates":[21.268856,48.761017],"type":"Point"},"properties":{"osm_id":"6381398480","tag":{"amenity":"waste_basket"}},"type":"Feature"},
	{"geometry":{"coordinates":[21.202498,48.780805],"type":"Point"},"properties":{"osm_id":"6618815038","tag":{"amenity":"waste_basket"}},"type":"Feature"},
	{"geometry":{"coordinates":[21.262291,48.759142],"type":"Point"},"properties":{"osm_id":"6869314156","tag":{"amenity":"recycling","colour":"grey","indoor":"no","material":"metal","operator":"Ekocharita","recycling:clothes":"yes","recycling:shoes":"yes","recycling_type":"container"}},"type":"Feature"},
	{"geometry":{"coordinates":[21.26864,48.76065],"type":"Point"},"properties":{"osm_id":"6869314159","tag":{"amenity":"recycling","colour":"grey","indoor":"no","material":"metal","operator":"Ekocharita","recycling:clothes":"yes","recycling:shoes":"yes","recycling_type":"container"}},"type":"Feature"},
	{"geometry":{"coordinates":[21.268881,48.756275],"type":"Point"},"properties":{"osm_id":"6869314160","tag":{"amenity":"recycling","colour":"grey","indoor":"no","material":"metal","operator":"Ekocharita","recycling:clothes":"yes","recycling:shoes":"yes","recycling_type":"container"}},"type":"Feature"},
	{"geometry":{"coordinates":[21.269301,48.759227],"type":"Point"},"properties":{"osm_id":"6869314162","tag":{"amenity":"recycling","colour":"grey","indoor":"no","material":"metal","operator":"Ekocharita","recycling:clothes":"yes","recycling:shoes":"yes","recycling_type":"container"}},"type":"Feature"},
	{"geometry":{"coordinates":[21.264618,48.75932],"type":"Point"},"properties":{"osm_id":"6869314163","tag":{"amenity":"recycling","colour":"grey","indoor":"no","material":"metal","operator":"Ekocharita","recycling:clothes":"yes","recycling:shoes":"yes","recycling_type":"container"}},"type":"Feature"},
	{"geometry":{"coordinates":[21.243893,48.749954],"type":"Point"},"properties":{"osm_id":"7093712862","tag":{"amenity":"recycling","material":"plastic","opening_hours":"24/7","operator":"Kosit, a.s.","recycling:paper":"yes","recycling:plastic":"yes","recycling:waste":"yes","recycling_type":"container"}},"type":"Feature"},
	{"geometry":{"coordinates":[21.243745,48.749668],"type":"Point"},"properties":{"osm_id":"7093712863","tag":{"amenity":"recycling","material":"plastic","opening_hours":"24/7","operator":"Kosit, a.s.","recycling:paper":"yes","recycling:plastic":"yes","recycling:waste":"yes","recycling_type":"container"}},"type":"Feature"},
	{"geometry":{"coordinates":[21.195769,48.75197],"type":"Point"},"properties":{"osm_id":"7201250161","tag":{"amenity":"waste_basket"}},"type":"Feature"},
	{"geometry":{"coordinates":[21.197228,48.786576],"type":"Point"},"properties":{"osm_id":"7807209823","tag":{"amenity":"waste_basket"}},"type":"Feature"},
	{"geometry":{"coordinates":[21.207798,48.773986],"type":"Point"},"properties":{"osm_id":"7825809873","tag":{"amenity":"recycling","opening_hours":"24/7","opening_hours:covid19":"same","operator":"Ekocharita","recycling:clothes":"yes","recycling:shoes":"yes","recycling_type":"container"}},"type":"Feature"},
	{"geometry":{"coordinates":[21.252953,48.756786],"type":"Point"},"properties":{"osm_id":"7857318296","tag":{"amenity":"waste_basket","waste":"dog_excrement"}},"type":"Feature"},
	{"geometry":{"coordinates":[21.252727,48.756816],"type":"Point"},"properties":{"osm_id":"7857318298","tag":{"amenity":"recycling","opening_hours":"24/7","opening_hours:covid19":"same","operator":"Ekocharita","recycling:clothes":"yes","recycling:shoes":"yes","recycling_type":"container"}},"type":"Feature"}
]
}
