{
"type": "FeatureCollection",
"lastupdate": "2020-08-03T00:00:00Z",
"features": [
	{"geometry":{"coordinates":[120.287057,22.655644],"type":"Point"},"properties":{"osm_id":"983101717","tag":{"amenity":"waste_basket"}},"type":"Feature"},
	{"geometry":{"coordinates":[120.309763,22.64485],"type":"Point"},"properties":{"name":"\u00e8\u0087\u00aa\u00e5\u008b\u0095\u00e8\u00b3\u0087\u00e6\u00ba\u0090\u00e5\u009b\u009e\u00e6\u0094\u00b6\u00e6\u00a9\u009f","osm_id":"3950168314","tag":{"amenity":"recycling","name:en":"Automatic Recycling Machine (ARM)","name:zh":"\u81ea\u52d5\u8cc7\u6e90\u56de\u6536\u6a5f"}},"type":"Feature"},
	{"geometry":{"coordinates":[120.318987,22.670824],"type":"Point"},"properties":{"osm_id":"3977522150","tag":{"amenity":"waste_basket","indoor":"yes","level":"-1"}},"type":"Feature"},
	{"geometry":{"coordinates":[120.319272,22.67083],"type":"Point"},"properties":{"osm_id":"3977522152","tag":{"amenity":"waste_basket","indoor":"yes","level":"-1"}},"type":"Feature"},
	{"geometry":{"coordinates":[120.274759,22.634371],"type":"Point"},"properties":{"osm_id":"4016372767","tag":{"amenity":"waste_basket"}},"type":"Feature"},
	{"geometry":{"coordinates":[120.310043,22.613841],"type":"Point"},"properties":{"name":"\u00e8\u00b7\u00b3\u00e8\u009a\u00a4\u00e6\u009c\u00ac\u00e8\u0088\u0096","osm_id":"4551713392","tag":{"amenity":"recycling","name:zh":"\u8df3\u86a4\u672c\u8216"}},"type":"Feature"},
	{"geometry":{"coordinates":[120.27437,22.634012],"type":"Point"},"properties":{"osm_id":"4621614285","tag":{"amenity":"waste_basket"}},"type":"Feature"},
	{"geometry":{"coordinates":[120.273761,22.633391],"type":"Point"},"properties":{"osm_id":"4621619341","tag":{"amenity":"waste_basket"}},"type":"Feature"},
	{"geometry":{"coordinates":[120.273409,22.63354],"type":"Point"},"properties":{"osm_id":"4621655473","tag":{"amenity":"waste_basket"}},"type":"Feature"},
	{"geometry":{"coordinates":[120.274498,22.634487],"type":"Point"},"properties":{"osm_id":"4621678766","tag":{"amenity":"waste_basket"}},"type":"Feature"},
	{"geometry":{"coordinates":[120.274607,22.63426],"type":"Point"},"properties":{"osm_id":"4621678783","tag":{"amenity":"waste_basket"}},"type":"Feature"},
	{"geometry":{"coordinates":[120.274625,22.634309],"type":"Point"},"properties":{"osm_id":"4621678784","tag":{"amenity":"waste_basket"}},"type":"Feature"},
	{"geometry":{"coordinates":[120.274467,22.634097],"type":"Point"},"properties":{"osm_id":"4621678791","tag":{"amenity":"waste_basket"}},"type":"Feature"},
	{"geometry":{"coordinates":[120.274913,22.635113],"type":"Point"},"properties":{"osm_id":"4621692792","tag":{"amenity":"waste_basket"}},"type":"Feature"}
]
}
