{
"type": "FeatureCollection",
"lastupdate": "2020-08-03T00:00:00Z",
"features": [
	{"geometry":{"coordinates":[120.244904,14.857385],"type":"Point"},"properties":{"name":"Leoj JunkShop","osm_id":"2713600693","tag":{"amenity":"recycling"}},"type":"Feature"},
	{"geometry":{"coordinates":[120.244866,14.857228],"type":"Point"},"properties":{"name":"DV JunkShop","osm_id":"2713600973","tag":{"amenity":"recycling"}},"type":"Feature"},
	{"geometry":{"coordinates":[120.250197,14.852898],"type":"Point"},"properties":{"name":"Nino JunkShop","osm_id":"2716464597","tag":{"amenity":"recycling"}},"type":"Feature"},
	{"geometry":{"coordinates":[120.257152,14.859005],"type":"Point"},"properties":{"osm_id":"2794196026","tag":{"amenity":"recycling","recycling_type":"centre"}},"type":"Feature"},
	{"geometry":{"coordinates":[120.257132,14.858319],"type":"Point"},"properties":{"osm_id":"2794217684","tag":{"amenity":"recycling","recycling_type":"centre"}},"type":"Feature"},
	{"geometry":{"coordinates":[120.257395,14.855318],"type":"Point"},"properties":{"name":"JunkShop","osm_id":"2805563434","tag":{"amenity":"recycling"}},"type":"Feature"},
	{"geometry":{"coordinates":[120.255342,14.853718],"type":"Point"},"properties":{"name":"JunkShop","osm_id":"2812544067","tag":{"amenity":"recycling"}},"type":"Feature"},
	{"geometry":{"coordinates":[120.251872,14.852327],"type":"Point"},"properties":{"name":"JQ JunkShop","osm_id":"2900179302","tag":{"amenity":"recycling","recycling:cans":"yes"}},"type":"Feature"},
	{"geometry":{"coordinates":[120.244667,14.856612],"type":"Point"},"properties":{"name":"Leoj JunkShop","osm_id":"2955382977","tag":{"amenity":"recycling","recycling_type":"container"}},"type":"Feature"},
	{"geometry":{"coordinates":[120.252415,14.852226],"type":"Point"},"properties":{"name":"JunkShop","osm_id":"2962155903","tag":{"amenity":"recycling"}},"type":"Feature"},
	{"geometry":{"coordinates":[120.246288,14.853367],"type":"Point"},"properties":{"name":"JunkShop","osm_id":"3784103625","tag":{"amenity":"recycling"}},"type":"Feature"}
]
}
