{
"type": "FeatureCollection",
"features": [
	{"geometry":{"coordinates":[-21.881026,64.140011],"type":"Point"},"properties":{"osm_id":"286078470","tag":{"amenity":"waste_basket","waste":"trash"}},"type":"Feature"},
	{"geometry":{"coordinates":[-21.876606,64.138201],"type":"Point"},"properties":{"osm_id":"286078512","tag":{"amenity":"waste_basket","lukr:_TEGUND_":"3","lukr:_d_TEGUND_":"Fest \u00c3\u00a1 j\u00c3\u00a1rnr\u00c3\u00b6r","waste":"trash"}},"type":"Feature"},
	{"geometry":{"coordinates":[-21.865682,64.132244],"type":"Point"},"properties":{"osm_id":"286078680","tag":{"amenity":"waste_basket","lukr:_TEGUND_":"2","lukr:_d_TEGUND_":"Fest \u00c3\u00a1 j\u00c3\u00a1rnboga","waste":"trash"}},"type":"Feature"},
	{"geometry":{"coordinates":[-21.864167,64.131186],"type":"Point"},"properties":{"osm_id":"286078695","tag":{"amenity":"waste_basket","lukr:_TEGUND_":"2","lukr:_d_TEGUND_":"Fest \u00c3\u00a1 j\u00c3\u00a1rnboga","waste":"trash"}},"type":"Feature"},
	{"geometry":{"coordinates":[-21.868283,64.132627],"type":"Point"},"properties":{"osm_id":"298831573","tag":{"amenity":"waste_disposal","waste":"trash"}},"type":"Feature"},
	{"geometry":{"coordinates":[-21.850218,64.133582],"type":"Point"},"properties":{"osm_id":"317145001","tag":{"amenity":"waste_basket","waste":"trash"}},"type":"Feature"},
	{"geometry":{"coordinates":[-21.85048,64.133924],"type":"Point"},"properties":{"osm_id":"317150337","tag":{"amenity":"waste_disposal","waste":"trash"}},"type":"Feature"},
	{"geometry":{"coordinates":[-21.850559,64.134891],"type":"Point"},"properties":{"osm_id":"317150965","tag":{"amenity":"waste_disposal","waste":"trash"}},"type":"Feature"},
	{"geometry":{"coordinates":[-21.850638,64.136008],"type":"Point"},"properties":{"osm_id":"317150967","tag":{"amenity":"waste_disposal","waste":"trash"}},"type":"Feature"},
	{"geometry":{"coordinates":[-21.851184,64.137049],"type":"Point"},"properties":{"osm_id":"317150969","tag":{"amenity":"waste_disposal","waste":"trash"}},"type":"Feature"},
	{"geometry":{"coordinates":[-21.850702,64.140292],"type":"Point"},"properties":{"osm_id":"317152748","tag":{"amenity":"waste_disposal","waste":"trash"}},"type":"Feature"},
	{"geometry":{"coordinates":[-21.850262,64.141388],"type":"Point"},"properties":{"osm_id":"317155391","tag":{"amenity":"waste_disposal","waste":"trash"}},"type":"Feature"},
	{"geometry":{"coordinates":[-21.837068,64.131264],"type":"Point"},"properties":{"osm_id":"693892350","tag":{"amenity":"waste_basket","waste":"trash"}},"type":"Feature"},
	{"geometry":{"coordinates":[-21.836758,64.130248],"type":"Point"},"properties":{"osm_id":"693892454","tag":{"amenity":"waste_basket","lukr:_TEGUND_":"4","lukr:_d_TEGUND_":"Svartur","waste":"trash"}},"type":"Feature"},
	{"geometry":{"coordinates":[-21.872126,64.144112],"type":"Point"},"properties":{"osm_id":"704493414","tag":{"amenity":"waste_basket","waste":"trash"}},"type":"Feature"},
	{"geometry":{"coordinates":[-21.869337,64.138573],"type":"Point"},"properties":{"osm_id":"704493417","tag":{"amenity":"waste_basket","waste":"trash"}},"type":"Feature"},
	{"geometry":{"coordinates":[-21.868828,64.138697],"type":"Point"},"properties":{"osm_id":"704493422","tag":{"amenity":"waste_basket","waste":"trash"}},"type":"Feature"},
	{"geometry":{"coordinates":[-21.864269,64.13817],"type":"Point"},"properties":{"osm_id":"704493429","tag":{"amenity":"waste_basket","waste":"trash"}},"type":"Feature"},
	{"geometry":{"coordinates":[-21.884118,64.148485],"type":"Point"},"properties":{"osm_id":"1234103314","tag":{"amenity":"recycling","operator":"Sorpa","recycling_type":"container"}},"type":"Feature"},
	{"geometry":{"coordinates":[-21.865318,64.132994],"type":"Point"},"properties":{"osm_id":"2018383097","tag":{"amenity":"recycling","operator":"Sorpa","recycling_type":"container"}},"type":"Feature"},
	{"geometry":{"coordinates":[-21.799265,64.134038],"type":"Point"},"properties":{"osm_id":"2018383110","tag":{"amenity":"recycling","operator":"Sorpa","recycling_type":"container"}},"type":"Feature"},
	{"geometry":{"coordinates":[-21.846556,64.134745],"type":"Point"},"properties":{"osm_id":"2018383114","tag":{"amenity":"recycling","operator":"Sorpa","recycling_type":"container"}},"type":"Feature"},
	{"geometry":{"coordinates":[-21.808147,64.137074],"type":"Point"},"properties":{"osm_id":"2018383130","tag":{"amenity":"recycling","operator":"Sorpa","recycling_type":"container"}},"type":"Feature"},
	{"geometry":{"coordinates":[-21.863399,64.138442],"type":"Point"},"properties":{"osm_id":"2018383134","tag":{"amenity":"recycling","operator":"Sorpa","recycling_type":"container"}},"type":"Feature"},
	{"geometry":{"coordinates":[-21.813076,64.139462],"type":"Point"},"properties":{"osm_id":"2018383140","tag":{"amenity":"recycling","operator":"Sorpa","recycling_type":"container"}},"type":"Feature"},
	{"geometry":{"coordinates":[-21.849924,64.14234],"type":"Point"},"properties":{"osm_id":"2018383145","tag":{"amenity":"recycling","operator":"Sorpa","recycling_type":"container"}},"type":"Feature"},
	{"geometry":{"coordinates":[-21.859118,64.14581],"type":"Point"},"properties":{"osm_id":"2018383155","tag":{"amenity":"recycling","operator":"Sorpa","recycling_type":"container"}},"type":"Feature"},
	{"geometry":{"coordinates":[-21.877874,64.146635],"type":"Point"},"properties":{"osm_id":"2018383156","tag":{"amenity":"recycling","operator":"Sorpa","recycling_type":"container"}},"type":"Feature"},
	{"geometry":{"coordinates":[-21.860565,64.129833],"type":"Point"},"properties":{"osm_id":"2018415380","tag":{"amenity":"waste_basket","lukr:_TEGUND_":"2","lukr:_d_TEGUND_":"Fest \u00c3\u00a1 j\u00c3\u00a1rnboga","waste":"trash"}},"type":"Feature"},
	{"geometry":{"coordinates":[-21.874574,64.1303],"type":"Point"},"properties":{"osm_id":"2018415390","tag":{"amenity":"waste_basket","lukr:_TEGUND_":"2","lukr:_d_TEGUND_":"Fest \u00c3\u00a1 j\u00c3\u00a1rnboga","waste":"trash"}},"type":"Feature"},
	{"geometry":{"coordinates":[-21.874538,64.130323],"type":"Point"},"properties":{"osm_id":"2018415391","tag":{"amenity":"waste_basket","lukr:_TEGUND_":"1","lukr:_d_TEGUND_":"Fest \u00c3\u00a1 lj\u00c3\u00b3sastaur","waste":"trash"}},"type":"Feature"},
	{"geometry":{"coordinates":[-21.87507,64.13047],"type":"Point"},"properties":{"osm_id":"2018415393","tag":{"amenity":"waste_basket","lukr:_TEGUND_":"1","lukr:_d_TEGUND_":"Fest \u00c3\u00a1 lj\u00c3\u00b3sastaur","waste":"trash"}},"type":"Feature"},
	{"geometry":{"coordinates":[-21.839393,64.13055],"type":"Point"},"properties":{"osm_id":"2018415406","tag":{"amenity":"waste_basket","waste":"trash"}},"type":"Feature"},
	{"geometry":{"coordinates":[-21.861082,64.13062],"type":"Point"},"properties":{"osm_id":"2018415417","tag":{"amenity":"waste_basket","lukr:_TEGUND_":"1","lukr:_d_TEGUND_":"Fest \u00c3\u00a1 lj\u00c3\u00b3sastaur","waste":"trash"}},"type":"Feature"},
	{"geometry":{"coordinates":[-21.818104,64.130743],"type":"Point"},"properties":{"osm_id":"2018415441","tag":{"amenity":"waste_basket","waste":"trash"}},"type":"Feature"},
	{"geometry":{"coordinates":[-21.860676,64.131218],"type":"Point"},"properties":{"osm_id":"2018415464","tag":{"amenity":"waste_basket","waste":"trash"}},"type":"Feature"},
	{"geometry":{"coordinates":[-21.861356,64.13127],"type":"Point"},"properties":{"osm_id":"2018415469","tag":{"amenity":"waste_basket","lukr:_TEGUND_":"3","lukr:_d_TEGUND_":"Fest \u00c3\u00a1 j\u00c3\u00a1rnr\u00c3\u00b6r","waste":"trash"}},"type":"Feature"},
	{"geometry":{"coordinates":[-21.815243,64.13136],"type":"Point"},"properties":{"osm_id":"2018415484","tag":{"amenity":"waste_basket","lukr:_TEGUND_":"3","lukr:_d_TEGUND_":"Fest \u00c3\u00a1 j\u00c3\u00a1rnr\u00c3\u00b6r","waste":"trash"}},"type":"Feature"},
	{"geometry":{"coordinates":[-21.815656,64.131363],"type":"Point"},"properties":{"osm_id":"2018415497","tag":{"amenity":"waste_basket","lukr:_TEGUND_":"3","lukr:_d_TEGUND_":"Fest \u00c3\u00a1 j\u00c3\u00a1rnr\u00c3\u00b6r","waste":"trash"}},"type":"Feature"},
	{"geometry":{"coordinates":[-21.882907,64.131393],"type":"Point"},"properties":{"osm_id":"2018415502","tag":{"amenity":"waste_basket","lukr:_TEGUND_":"1","lukr:_d_TEGUND_":"Fest \u00c3\u00a1 lj\u00c3\u00b3sastaur","waste":"trash"}},"type":"Feature"},
	{"geometry":{"coordinates":[-21.883662,64.131528],"type":"Point"},"properties":{"osm_id":"2018415507","tag":{"amenity":"waste_basket","lukr:_TEGUND_":"1","lukr:_d_TEGUND_":"Fest \u00c3\u00a1 lj\u00c3\u00b3sastaur","waste":"trash"}},"type":"Feature"},
	{"geometry":{"coordinates":[-21.821851,64.131592],"type":"Point"},"properties":{"osm_id":"2018415511","tag":{"amenity":"waste_basket","waste":"trash"}},"type":"Feature"},
	{"geometry":{"coordinates":[-21.798379,64.131871],"type":"Point"},"properties":{"osm_id":"2018415523","tag":{"amenity":"waste_basket","lukr:_TEGUND_":"1","lukr:_d_TEGUND_":"Fest \u00c3\u00a1 lj\u00c3\u00b3sastaur","waste":"trash"}},"type":"Feature"},
	{"geometry":{"coordinates":[-21.863676,64.131949],"type":"Point"},"properties":{"osm_id":"2018415526","tag":{"amenity":"waste_basket","lukr:_TEGUND_":"1","lukr:_d_TEGUND_":"Fest \u00c3\u00a1 lj\u00c3\u00b3sastaur","waste":"trash"}},"type":"Feature"},
	{"geometry":{"coordinates":[-21.859217,64.131968],"type":"Point"},"properties":{"osm_id":"2018415528","tag":{"amenity":"waste_basket","lukr:_TEGUND_":"1","lukr:_d_TEGUND_":"Fest \u00c3\u00a1 lj\u00c3\u00b3sastaur","waste":"trash"}},"type":"Feature"},
	{"geometry":{"coordinates":[-21.863396,64.132067],"type":"Point"},"properties":{"osm_id":"2018415538","tag":{"amenity":"waste_basket","waste":"trash"}},"type":"Feature"},
	{"geometry":{"coordinates":[-21.850295,64.132074],"type":"Point"},"properties":{"osm_id":"2018415541","tag":{"amenity":"waste_basket","lukr:_TEGUND_":"2","lukr:_d_TEGUND_":"Fest \u00c3\u00a1 j\u00c3\u00a1rnboga","waste":"trash"}},"type":"Feature"},
	{"geometry":{"coordinates":[-21.815134,64.132418],"type":"Point"},"properties":{"osm_id":"2018415559","tag":{"amenity":"waste_basket","waste":"trash"}},"type":"Feature"},
	{"geometry":{"coordinates":[-21.813343,64.132563],"type":"Point"},"properties":{"osm_id":"2018415562","tag":{"amenity":"waste_basket","waste":"trash"}},"type":"Feature"},
	{"geometry":{"coordinates":[-21.868347,64.132606],"type":"Point"},"properties":{"osm_id":"2018415567","tag":{"amenity":"waste_basket","waste":"trash"}},"type":"Feature"},
	{"geometry":{"coordinates":[-21.804276,64.132723],"type":"Point"},"properties":{"osm_id":"2018415570","tag":{"amenity":"waste_basket","lukr:_TEGUND_":"3","lukr:_d_TEGUND_":"Fest \u00c3\u00a1 j\u00c3\u00a1rnr\u00c3\u00b6r","waste":"trash"}},"type":"Feature"},
	{"geometry":{"coordinates":[-21.884359,64.132829],"type":"Point"},"properties":{"osm_id":"2018415581","tag":{"amenity":"waste_basket","waste":"trash"}},"type":"Feature"},
	{"geometry":{"coordinates":[-21.813589,64.133268],"type":"Point"},"properties":{"osm_id":"2018415586","tag":{"amenity":"waste_basket","waste":"trash"}},"type":"Feature"},
	{"geometry":{"coordinates":[-21.866905,64.133364],"type":"Point"},"properties":{"osm_id":"2018415590","tag":{"amenity":"waste_basket","lukr:_TEGUND_":"2","lukr:_d_TEGUND_":"Fest \u00c3\u00a1 j\u00c3\u00a1rnboga","waste":"trash"}},"type":"Feature"},
	{"geometry":{"coordinates":[-21.867465,64.133397],"type":"Point"},"properties":{"osm_id":"2018415596","tag":{"amenity":"waste_basket","lukr:_TEGUND_":"3","lukr:_d_TEGUND_":"Fest \u00c3\u00a1 j\u00c3\u00a1rnr\u00c3\u00b6r","waste":"trash"}},"type":"Feature"},
	{"geometry":{"coordinates":[-21.8826,64.133422],"type":"Point"},"properties":{"osm_id":"2018415602","tag":{"amenity":"waste_basket","lukr:_TEGUND_":"3","lukr:_d_TEGUND_":"Fest \u00c3\u00a1 j\u00c3\u00a1rnr\u00c3\u00b6r","waste":"trash"}},"type":"Feature"},
	{"geometry":{"coordinates":[-21.868957,64.133449],"type":"Point"},"properties":{"osm_id":"2018415615","tag":{"amenity":"waste_basket","waste":"trash"}},"type":"Feature"},
	{"geometry":{"coordinates":[-21.814275,64.133705],"type":"Point"},"properties":{"osm_id":"2018415641","tag":{"amenity":"waste_basket","waste":"trash"}},"type":"Feature"},
	{"geometry":{"coordinates":[-21.884016,64.133899],"type":"Point"},"properties":{"osm_id":"2018415691","tag":{"amenity":"waste_basket","lukr:_TEGUND_":"3","lukr:_d_TEGUND_":"Fest \u00c3\u00a1 j\u00c3\u00a1rnr\u00c3\u00b6r","waste":"trash"}},"type":"Feature"},
	{"geometry":{"coordinates":[-21.867177,64.133912],"type":"Point"},"properties":{"osm_id":"2018415695","tag":{"amenity":"waste_basket","waste":"trash"}},"type":"Feature"},
	{"geometry":{"coordinates":[-21.850528,64.133912],"type":"Point"},"properties":{"osm_id":"2018415700","tag":{"amenity":"waste_basket","lukr:_TEGUND_":"2","lukr:_d_TEGUND_":"Fest \u00c3\u00a1 j\u00c3\u00a1rnboga","waste":"trash"}},"type":"Feature"},
	{"geometry":{"coordinates":[-21.81012,64.134191],"type":"Point"},"properties":{"osm_id":"2018415736","tag":{"amenity":"waste_basket","lukr:_TEGUND_":"3","lukr:_d_TEGUND_":"Fest \u00c3\u00a1 j\u00c3\u00a1rnr\u00c3\u00b6r","waste":"trash"}},"type":"Feature"},
	{"geometry":{"coordinates":[-21.798559,64.134245],"type":"Point"},"properties":{"osm_id":"2018415744","tag":{"amenity":"waste_basket","lukr:_TEGUND_":"1","lukr:_d_TEGUND_":"Fest \u00c3\u00a1 lj\u00c3\u00b3sastaur","waste":"trash"}},"type":"Feature"},
	{"geometry":{"coordinates":[-21.799633,64.134268],"type":"Point"},"properties":{"osm_id":"2018415749","tag":{"amenity":"waste_basket","waste":"trash"}},"type":"Feature"},
	{"geometry":{"coordinates":[-21.812457,64.134331],"type":"Point"},"properties":{"osm_id":"2018415752","tag":{"amenity":"waste_basket","waste":"trash"}},"type":"Feature"},
	{"geometry":{"coordinates":[-21.798692,64.134389],"type":"Point"},"properties":{"osm_id":"2018415759","tag":{"amenity":"waste_basket","lukr:_TEGUND_":"1","lukr:_d_TEGUND_":"Fest \u00c3\u00a1 lj\u00c3\u00b3sastaur","waste":"trash"}},"type":"Feature"},
	{"geometry":{"coordinates":[-21.799593,64.134428],"type":"Point"},"properties":{"osm_id":"2018415768","tag":{"amenity":"waste_basket","waste":"trash"}},"type":"Feature"},
	{"geometry":{"coordinates":[-21.814097,64.134601],"type":"Point"},"properties":{"osm_id":"2018415782","tag":{"amenity":"waste_basket","waste":"trash"}},"type":"Feature"},
	{"geometry":{"coordinates":[-21.798062,64.134618],"type":"Point"},"properties":{"osm_id":"2018415786","tag":{"amenity":"waste_basket","lukr:_TEGUND_":"1","lukr:_d_TEGUND_":"Fest \u00c3\u00a1 lj\u00c3\u00b3sastaur","waste":"trash"}},"type":"Feature"},
	{"geometry":{"coordinates":[-21.879981,64.134655],"type":"Point"},"properties":{"osm_id":"2018415793","tag":{"amenity":"waste_basket","waste":"trash"}},"type":"Feature"},
	{"geometry":{"coordinates":[-21.814616,64.134899],"type":"Point"},"properties":{"osm_id":"2018415869","tag":{"amenity":"waste_basket","lukr:_TEGUND_":"1","lukr:_d_TEGUND_":"Fest \u00c3\u00a1 lj\u00c3\u00b3sastaur","waste":"trash"}},"type":"Feature"},
	{"geometry":{"coordinates":[-21.799805,64.135117],"type":"Point"},"properties":{"osm_id":"2018415902","tag":{"amenity":"waste_basket","lukr:_TEGUND_":"1","lukr:_d_TEGUND_":"Fest \u00c3\u00a1 lj\u00c3\u00b3sastaur","waste":"trash"}},"type":"Feature"},
	{"geometry":{"coordinates":[-21.811253,64.135146],"type":"Point"},"properties":{"osm_id":"2018415907","tag":{"amenity":"waste_basket","lukr:_TEGUND_":"1","lukr:_d_TEGUND_":"Fest \u00c3\u00a1 lj\u00c3\u00b3sastaur","waste":"trash"}},"type":"Feature"},
	{"geometry":{"coordinates":[-21.880961,64.135491],"type":"Point"},"properties":{"osm_id":"2018415921","tag":{"amenity":"waste_basket","waste":"trash"}},"type":"Feature"},
	{"geometry":{"coordinates":[-21.872223,64.135572],"type":"Point"},"properties":{"osm_id":"2018415938","tag":{"amenity":"waste_basket","lukr:_TEGUND_":"3","lukr:_d_TEGUND_":"Fest \u00c3\u00a1 j\u00c3\u00a1rnr\u00c3\u00b6r","waste":"trash"}},"type":"Feature"},
	{"geometry":{"coordinates":[-21.873509,64.135618],"type":"Point"},"properties":{"osm_id":"2018415947","tag":{"amenity":"waste_basket","lukr:_TEGUND_":"3","lukr:_d_TEGUND_":"Fest \u00c3\u00a1 j\u00c3\u00a1rnr\u00c3\u00b6r","waste":"trash"}},"type":"Feature"},
	{"geometry":{"coordinates":[-21.81248,64.135703],"type":"Point"},"properties":{"osm_id":"2018415973","tag":{"amenity":"waste_basket","lukr:_TEGUND_":"2","lukr:_d_TEGUND_":"Fest \u00c3\u00a1 j\u00c3\u00a1rnboga","waste":"trash"}},"type":"Feature"},
	{"geometry":{"coordinates":[-21.85351,64.135959],"type":"Point"},"properties":{"osm_id":"2018415996","tag":{"amenity":"waste_basket","waste":"trash"}},"type":"Feature"},
	{"geometry":{"coordinates":[-21.815618,64.136031],"type":"Point"},"properties":{"osm_id":"2018416013","tag":{"amenity":"waste_basket","lukr:_TEGUND_":"4","lukr:_d_TEGUND_":"Svartur","waste":"trash"}},"type":"Feature"},
	{"geometry":{"coordinates":[-21.856395,64.136117],"type":"Point"},"properties":{"osm_id":"2018416018","tag":{"amenity":"waste_basket","lukr:_TEGUND_":"3","lukr:_d_TEGUND_":"Fest \u00c3\u00a1 j\u00c3\u00a1rnr\u00c3\u00b6r","waste":"trash"}},"type":"Feature"},
	{"geometry":{"coordinates":[-21.856859,64.136149],"type":"Point"},"properties":{"osm_id":"2018416022","tag":{"amenity":"waste_basket","lukr:_TEGUND_":"3","lukr:_d_TEGUND_":"Fest \u00c3\u00a1 j\u00c3\u00a1rnr\u00c3\u00b6r","waste":"trash"}},"type":"Feature"},
	{"geometry":{"coordinates":[-21.874171,64.136417],"type":"Point"},"properties":{"osm_id":"2018416030","tag":{"amenity":"waste_basket","lukr:_TEGUND_":"3","lukr:_d_TEGUND_":"Fest \u00c3\u00a1 j\u00c3\u00a1rnr\u00c3\u00b6r","waste":"trash"}},"type":"Feature"},
	{"geometry":{"coordinates":[-21.807001,64.136434],"type":"Point"},"properties":{"osm_id":"2018416034","tag":{"amenity":"waste_basket","lukr:_TEGUND_":"1","lukr:_d_TEGUND_":"Fest \u00c3\u00a1 lj\u00c3\u00b3sastaur","waste":"trash"}},"type":"Feature"},
	{"geometry":{"coordinates":[-21.809465,64.136532],"type":"Point"},"properties":{"osm_id":"2018416038","tag":{"amenity":"waste_basket","lukr:_TEGUND_":"2","lukr:_d_TEGUND_":"Fest \u00c3\u00a1 j\u00c3\u00a1rnboga","waste":"trash"}},"type":"Feature"},
	{"geometry":{"coordinates":[-21.801846,64.136725],"type":"Point"},"properties":{"osm_id":"2018416055","tag":{"amenity":"waste_basket","waste":"trash"}},"type":"Feature"},
	{"geometry":{"coordinates":[-21.858958,64.136755],"type":"Point"},"properties":{"osm_id":"2018416056","tag":{"amenity":"waste_basket","lukr:_TEGUND_":"1","lukr:_d_TEGUND_":"Fest \u00c3\u00a1 lj\u00c3\u00b3sastaur","waste":"trash"}},"type":"Feature"},
	{"geometry":{"coordinates":[-21.812864,64.136933],"type":"Point"},"properties":{"osm_id":"2018416057","tag":{"amenity":"waste_basket","lukr:_TEGUND_":"1","lukr:_d_TEGUND_":"Fest \u00c3\u00a1 lj\u00c3\u00b3sastaur","waste":"trash"}},"type":"Feature"},
	{"geometry":{"coordinates":[-21.810379,64.136955],"type":"Point"},"properties":{"osm_id":"2018416058","tag":{"amenity":"waste_basket","waste":"trash"}},"type":"Feature"},
	{"geometry":{"coordinates":[-21.870503,64.13702],"type":"Point"},"properties":{"osm_id":"2018416061","tag":{"amenity":"waste_basket","waste":"trash"}},"type":"Feature"},
	{"geometry":{"coordinates":[-21.819656,64.137131],"type":"Point"},"properties":{"osm_id":"2018416063","tag":{"amenity":"waste_basket","lukr:_TEGUND_":"4","lukr:_d_TEGUND_":"Svartur","waste":"trash"}},"type":"Feature"},
	{"geometry":{"coordinates":[-21.858749,64.137395],"type":"Point"},"properties":{"osm_id":"2018416073","tag":{"amenity":"waste_basket","waste":"trash"}},"type":"Feature"},
	{"geometry":{"coordinates":[-21.869879,64.137508],"type":"Point"},"properties":{"osm_id":"2018416077","tag":{"amenity":"waste_basket","waste":"trash"}},"type":"Feature"},
	{"geometry":{"coordinates":[-21.814922,64.137531],"type":"Point"},"properties":{"osm_id":"2018416078","tag":{"amenity":"waste_basket","waste":"trash"}},"type":"Feature"},
	{"geometry":{"coordinates":[-21.814368,64.137558],"type":"Point"},"properties":{"osm_id":"2018416079","tag":{"amenity":"waste_basket","waste":"trash"}},"type":"Feature"},
	{"geometry":{"coordinates":[-21.801859,64.137564],"type":"Point"},"properties":{"osm_id":"2018416080","tag":{"amenity":"waste_basket","lukr:_TEGUND_":"3","lukr:_d_TEGUND_":"Fest \u00c3\u00a1 j\u00c3\u00a1rnr\u00c3\u00b6r","waste":"trash"}},"type":"Feature"},
	{"geometry":{"coordinates":[-21.821185,64.137784],"type":"Point"},"properties":{"osm_id":"2018416088","tag":{"amenity":"waste_basket","lukr:_TEGUND_":"1","lukr:_d_TEGUND_":"Fest \u00c3\u00a1 lj\u00c3\u00b3sastaur","waste":"trash"}},"type":"Feature"},
	{"geometry":{"coordinates":[-21.869539,64.138008],"type":"Point"},"properties":{"osm_id":"2018416103","tag":{"amenity":"waste_basket","waste":"trash"}},"type":"Feature"},
	{"geometry":{"coordinates":[-21.877778,64.138063],"type":"Point"},"properties":{"osm_id":"2018416109","tag":{"amenity":"waste_basket","lukr:_TEGUND_":"1","lukr:_d_TEGUND_":"Fest \u00c3\u00a1 lj\u00c3\u00b3sastaur","waste":"trash"}},"type":"Feature"},
	{"geometry":{"coordinates":[-21.806907,64.13835],"type":"Point"},"properties":{"osm_id":"2018416129","tag":{"amenity":"waste_basket","lukr:_TEGUND_":"1","lukr:_d_TEGUND_":"Fest \u00c3\u00a1 lj\u00c3\u00b3sastaur","waste":"trash"}},"type":"Feature"},
	{"geometry":{"coordinates":[-21.808494,64.138557],"type":"Point"},"properties":{"osm_id":"2018416140","tag":{"amenity":"waste_basket","lukr:_TEGUND_":"1","lukr:_d_TEGUND_":"Fest \u00c3\u00a1 lj\u00c3\u00b3sastaur","waste":"trash"}},"type":"Feature"},
	{"geometry":{"coordinates":[-21.883299,64.138584],"type":"Point"},"properties":{"osm_id":"2018416142","tag":{"amenity":"waste_basket","lukr:_TEGUND_":"1","lukr:_d_TEGUND_":"Fest \u00c3\u00a1 lj\u00c3\u00b3sastaur","waste":"trash"}},"type":"Feature"},
	{"geometry":{"coordinates":[-21.821999,64.138665],"type":"Point"},"properties":{"osm_id":"2018416152","tag":{"amenity":"waste_basket","lukr:_TEGUND_":"4","lukr:_d_TEGUND_":"Svartur","waste":"trash"}},"type":"Feature"},
	{"geometry":{"coordinates":[-21.867026,64.138733],"type":"Point"},"properties":{"osm_id":"2018416157","tag":{"amenity":"waste_basket","waste":"trash"}},"type":"Feature"},
	{"geometry":{"coordinates":[-21.868434,64.138886],"type":"Point"},"properties":{"osm_id":"2018416163","tag":{"amenity":"waste_basket","waste":"trash"}},"type":"Feature"},
	{"geometry":{"coordinates":[-21.878352,64.139055],"type":"Point"},"properties":{"osm_id":"2018416170","tag":{"amenity":"waste_basket","lukr:_TEGUND_":"3","lukr:_d_TEGUND_":"Fest \u00c3\u00a1 j\u00c3\u00a1rnr\u00c3\u00b6r","waste":"trash"}},"type":"Feature"},
	{"geometry":{"coordinates":[-21.867582,64.139064],"type":"Point"},"properties":{"osm_id":"2018416175","tag":{"amenity":"waste_basket","waste":"trash"}},"type":"Feature"},
	{"geometry":{"coordinates":[-21.879345,64.139165],"type":"Point"},"properties":{"osm_id":"2018416187","tag":{"amenity":"waste_basket","lukr:_TEGUND_":"3","lukr:_d_TEGUND_":"Fest \u00c3\u00a1 j\u00c3\u00a1rnr\u00c3\u00b6r","waste":"trash"}},"type":"Feature"},
	{"geometry":{"coordinates":[-21.801905,64.139216],"type":"Point"},"properties":{"osm_id":"2018416191","tag":{"amenity":"waste_basket","lukr:_TEGUND_":"1","lukr:_d_TEGUND_":"Fest \u00c3\u00a1 lj\u00c3\u00b3sastaur","waste":"trash"}},"type":"Feature"},
	{"geometry":{"coordinates":[-21.81478,64.139354],"type":"Point"},"properties":{"osm_id":"2018416196","tag":{"amenity":"waste_basket","waste":"trash"}},"type":"Feature"},
	{"geometry":{"coordinates":[-21.81449,64.139418],"type":"Point"},"properties":{"osm_id":"2018416197","tag":{"amenity":"waste_basket","lukr:_TEGUND_":"2","lukr:_d_TEGUND_":"Fest \u00c3\u00a1 j\u00c3\u00a1rnboga","waste":"trash"}},"type":"Feature"},
	{"geometry":{"coordinates":[-21.81313,64.139461],"type":"Point"},"properties":{"osm_id":"2018416201","tag":{"amenity":"waste_basket","lukr:_TEGUND_":"1","lukr:_d_TEGUND_":"Fest \u00c3\u00a1 lj\u00c3\u00b3sastaur","waste":"trash"}},"type":"Feature"},
	{"geometry":{"coordinates":[-21.852635,64.139503],"type":"Point"},"properties":{"osm_id":"2018416203","tag":{"amenity":"waste_basket","lukr:_TEGUND_":"3","lukr:_d_TEGUND_":"Fest \u00c3\u00a1 j\u00c3\u00a1rnr\u00c3\u00b6r","waste":"trash"}},"type":"Feature"},
	{"geometry":{"coordinates":[-21.870196,64.139506],"type":"Point"},"properties":{"osm_id":"2018416204","tag":{"amenity":"waste_basket","waste":"trash"}},"type":"Feature"},
	{"geometry":{"coordinates":[-21.805921,64.139677],"type":"Point"},"properties":{"osm_id":"2018416207","tag":{"amenity":"waste_basket","lukr:_TEGUND_":"1","lukr:_d_TEGUND_":"Fest \u00c3\u00a1 lj\u00c3\u00b3sastaur","waste":"trash"}},"type":"Feature"},
	{"geometry":{"coordinates":[-21.818988,64.13977],"type":"Point"},"properties":{"osm_id":"2018416209","tag":{"amenity":"waste_basket","lukr:_TEGUND_":"2","lukr:_d_TEGUND_":"Fest \u00c3\u00a1 j\u00c3\u00a1rnboga","waste":"trash"}},"type":"Feature"},
	{"geometry":{"coordinates":[-21.812091,64.139791],"type":"Point"},"properties":{"osm_id":"2018416210","tag":{"amenity":"waste_basket","lukr:_TEGUND_":"1","lukr:_d_TEGUND_":"Fest \u00c3\u00a1 lj\u00c3\u00b3sastaur","waste":"trash"}},"type":"Feature"},
	{"geometry":{"coordinates":[-21.87261,64.139915],"type":"Point"},"properties":{"osm_id":"2018416215","tag":{"amenity":"waste_basket","waste":"trash"}},"type":"Feature"},
	{"geometry":{"coordinates":[-21.871199,64.140152],"type":"Point"},"properties":{"osm_id":"2018416219","tag":{"amenity":"waste_basket","waste":"trash"}},"type":"Feature"},
	{"geometry":{"coordinates":[-21.871271,64.140217],"type":"Point"},"properties":{"osm_id":"2018416221","tag":{"amenity":"waste_basket","waste":"trash"}},"type":"Feature"},
	{"geometry":{"coordinates":[-21.823301,64.140447],"type":"Point"},"properties":{"osm_id":"2018416228","tag":{"amenity":"waste_basket","lukr:_TEGUND_":"4","lukr:_d_TEGUND_":"Svartur","waste":"trash"}},"type":"Feature"},
	{"geometry":{"coordinates":[-21.871709,64.140455],"type":"Point"},"properties":{"osm_id":"2018416230","tag":{"amenity":"waste_basket","waste":"trash"}},"type":"Feature"},
	{"geometry":{"coordinates":[-21.800495,64.140458],"type":"Point"},"properties":{"osm_id":"2018416231","tag":{"amenity":"waste_basket","lukr:_TEGUND_":"2","lukr:_d_TEGUND_":"Fest \u00c3\u00a1 j\u00c3\u00a1rnboga","waste":"trash"}},"type":"Feature"},
	{"geometry":{"coordinates":[-21.871858,64.140633],"type":"Point"},"properties":{"osm_id":"2018416234","tag":{"amenity":"waste_basket","waste":"trash"}},"type":"Feature"},
	{"geometry":{"coordinates":[-21.817004,64.14064],"type":"Point"},"properties":{"osm_id":"2018416236","tag":{"amenity":"waste_basket","lukr:_TEGUND_":"1","lukr:_d_TEGUND_":"Fest \u00c3\u00a1 lj\u00c3\u00b3sastaur","waste":"trash"}},"type":"Feature"},
	{"geometry":{"coordinates":[-21.861655,64.140655],"type":"Point"},"properties":{"osm_id":"2018416237","tag":{"amenity":"waste_basket","lukr:_TEGUND_":"3","lukr:_d_TEGUND_":"Fest \u00c3\u00a1 j\u00c3\u00a1rnr\u00c3\u00b6r","waste":"trash"}},"type":"Feature"},
	{"geometry":{"coordinates":[-21.853018,64.140664],"type":"Point"},"properties":{"osm_id":"2018416238","tag":{"amenity":"waste_basket","lukr:_TEGUND_":"1","lukr:_d_TEGUND_":"Fest \u00c3\u00a1 lj\u00c3\u00b3sastaur","waste":"trash"}},"type":"Feature"},
	{"geometry":{"coordinates":[-21.805225,64.140759],"type":"Point"},"properties":{"osm_id":"2018416242","tag":{"amenity":"waste_basket","lukr:_TEGUND_":"2","lukr:_d_TEGUND_":"Fest \u00c3\u00a1 j\u00c3\u00a1rnboga","waste":"trash"}},"type":"Feature"},
	{"geometry":{"coordinates":[-21.847963,64.140848],"type":"Point"},"properties":{"osm_id":"2018416244","tag":{"amenity":"waste_basket","lukr:_TEGUND_":"3","lukr:_d_TEGUND_":"Fest \u00c3\u00a1 j\u00c3\u00a1rnr\u00c3\u00b6r","waste":"trash"}},"type":"Feature"},
	{"geometry":{"coordinates":[-21.848431,64.140982],"type":"Point"},"properties":{"osm_id":"2018416247","tag":{"amenity":"waste_basket","lukr:_TEGUND_":"3","lukr:_d_TEGUND_":"Fest \u00c3\u00a1 j\u00c3\u00a1rnr\u00c3\u00b6r","waste":"trash"}},"type":"Feature"},
	{"geometry":{"coordinates":[-21.861104,64.141051],"type":"Point"},"properties":{"osm_id":"2018416248","tag":{"amenity":"waste_basket","lukr:_TEGUND_":"1","lukr:_d_TEGUND_":"Fest \u00c3\u00a1 lj\u00c3\u00b3sastaur","waste":"trash"}},"type":"Feature"},
	{"geometry":{"coordinates":[-21.872592,64.141417],"type":"Point"},"properties":{"osm_id":"2018416260","tag":{"amenity":"waste_basket","waste":"trash"}},"type":"Feature"},
	{"geometry":{"coordinates":[-21.817304,64.141758],"type":"Point"},"properties":{"osm_id":"2018416287","tag":{"amenity":"waste_basket","waste":"trash"}},"type":"Feature"},
	{"geometry":{"coordinates":[-21.875599,64.142288],"type":"Point"},"properties":{"osm_id":"2018416317","tag":{"amenity":"waste_basket","waste":"trash"}},"type":"Feature"},
	{"geometry":{"coordinates":[-21.874398,64.142454],"type":"Point"},"properties":{"osm_id":"2018416325","tag":{"amenity":"waste_basket","waste":"trash"}},"type":"Feature"},
	{"geometry":{"coordinates":[-21.806177,64.14302],"type":"Point"},"properties":{"osm_id":"2018416357","tag":{"amenity":"waste_basket","lukr:_TEGUND_":"2","lukr:_d_TEGUND_":"Fest \u00c3\u00a1 j\u00c3\u00a1rnboga","waste":"trash"}},"type":"Feature"},
	{"geometry":{"coordinates":[-21.79863,64.143881],"type":"Point"},"properties":{"osm_id":"2018416514","tag":{"amenity":"waste_basket","waste":"trash"}},"type":"Feature"},
	{"geometry":{"coordinates":[-21.864607,64.144025],"type":"Point"},"properties":{"osm_id":"2018416522","tag":{"amenity":"waste_basket","lukr:_TEGUND_":"2","lukr:_d_TEGUND_":"Fest \u00c3\u00a1 j\u00c3\u00a1rnboga","waste":"trash"}},"type":"Feature"},
	{"geometry":{"coordinates":[-21.870838,64.144406],"type":"Point"},"properties":{"osm_id":"2018416559","tag":{"amenity":"waste_basket","lukr:_TEGUND_":"1","lukr:_d_TEGUND_":"Fest \u00c3\u00a1 lj\u00c3\u00b3sastaur","waste":"trash"}},"type":"Feature"},
	{"geometry":{"coordinates":[-21.880965,64.1447],"type":"Point"},"properties":{"osm_id":"2018416580","tag":{"amenity":"waste_basket","waste":"trash"}},"type":"Feature"},
	{"geometry":{"coordinates":[-21.874687,64.144815],"type":"Point"},"properties":{"osm_id":"2018416585","tag":{"amenity":"waste_basket","waste":"trash"}},"type":"Feature"},
	{"geometry":{"coordinates":[-21.880908,64.144986],"type":"Point"},"properties":{"osm_id":"2018416597","tag":{"amenity":"waste_basket","waste":"trash"}},"type":"Feature"},
	{"geometry":{"coordinates":[-21.86424,64.145167],"type":"Point"},"properties":{"osm_id":"2018416607","tag":{"amenity":"waste_basket","lukr:_TEGUND_":"2","lukr:_d_TEGUND_":"Fest \u00c3\u00a1 j\u00c3\u00a1rnboga","waste":"trash"}},"type":"Feature"},
	{"geometry":{"coordinates":[-21.857463,64.14519],"type":"Point"},"properties":{"osm_id":"2018416608","tag":{"amenity":"waste_basket","lukr:_TEGUND_":"3","lukr:_d_TEGUND_":"Fest \u00c3\u00a1 j\u00c3\u00a1rnr\u00c3\u00b6r","waste":"trash"}},"type":"Feature"},
	{"geometry":{"coordinates":[-21.880864,64.145405],"type":"Point"},"properties":{"osm_id":"2018416646","tag":{"amenity":"waste_basket","waste":"trash"}},"type":"Feature"},
	{"geometry":{"coordinates":[-21.88089,64.145651],"type":"Point"},"properties":{"osm_id":"2018416692","tag":{"amenity":"waste_basket","waste":"trash"}},"type":"Feature"},
	{"geometry":{"coordinates":[-21.880786,64.145901],"type":"Point"},"properties":{"osm_id":"2018416758","tag":{"amenity":"waste_basket","waste":"trash"}},"type":"Feature"},
	{"geometry":{"coordinates":[-21.798207,64.145975],"type":"Point"},"properties":{"osm_id":"2018416760","tag":{"amenity":"waste_basket","waste":"trash"}},"type":"Feature"},
	{"geometry":{"coordinates":[-21.880555,64.145991],"type":"Point"},"properties":{"osm_id":"2018416761","tag":{"amenity":"waste_basket","waste":"trash"}},"type":"Feature"},
	{"geometry":{"coordinates":[-21.880704,64.146394],"type":"Point"},"properties":{"osm_id":"2018416852","tag":{"amenity":"waste_basket","lukr:_TEGUND_":"1","lukr:_d_TEGUND_":"Fest \u00c3\u00a1 lj\u00c3\u00b3sastaur","waste":"trash"}},"type":"Feature"},
	{"geometry":{"coordinates":[-21.8657,64.146504],"type":"Point"},"properties":{"osm_id":"2018416877","tag":{"amenity":"waste_basket","waste":"trash"}},"type":"Feature"},
	{"geometry":{"coordinates":[-21.866753,64.146579],"type":"Point"},"properties":{"osm_id":"2018416896","tag":{"amenity":"waste_basket","waste":"trash"}},"type":"Feature"},
	{"geometry":{"coordinates":[-21.87992,64.146629],"type":"Point"},"properties":{"osm_id":"2018416909","tag":{"amenity":"waste_basket","lukr:_TEGUND_":"3","lukr:_d_TEGUND_":"Fest \u00c3\u00a1 j\u00c3\u00a1rnr\u00c3\u00b6r","waste":"trash"}},"type":"Feature"},
	{"geometry":{"coordinates":[-21.867117,64.146733],"type":"Point"},"properties":{"osm_id":"2018416930","tag":{"amenity":"waste_basket","waste":"trash"}},"type":"Feature"},
	{"geometry":{"coordinates":[-21.872359,64.146774],"type":"Point"},"properties":{"osm_id":"2018416937","tag":{"amenity":"waste_basket","lukr:_TEGUND_":"3","lukr:_d_TEGUND_":"Fest \u00c3\u00a1 j\u00c3\u00a1rnr\u00c3\u00b6r","waste":"trash"}},"type":"Feature"},
	{"geometry":{"coordinates":[-21.879773,64.146833],"type":"Point"},"properties":{"osm_id":"2018416951","tag":{"amenity":"waste_basket","waste":"trash"}},"type":"Feature"},
	{"geometry":{"coordinates":[-21.801773,64.147318],"type":"Point"},"properties":{"osm_id":"2018417163","tag":{"amenity":"waste_basket","lukr:_TEGUND_":"1","lukr:_d_TEGUND_":"Fest \u00c3\u00a1 lj\u00c3\u00b3sastaur","waste":"trash"}},"type":"Feature"},
	{"geometry":{"coordinates":[-21.88114,64.147522],"type":"Point"},"properties":{"osm_id":"2018417198","tag":{"amenity":"waste_basket","lukr:_TEGUND_":"1","lukr:_d_TEGUND_":"Fest \u00c3\u00a1 lj\u00c3\u00b3sastaur","waste":"trash"}},"type":"Feature"},
	{"geometry":{"coordinates":[-21.874168,64.147978],"type":"Point"},"properties":{"osm_id":"2018417268","tag":{"amenity":"waste_basket","lukr:_TEGUND_":"3","lukr:_d_TEGUND_":"Fest \u00c3\u00a1 j\u00c3\u00a1rnr\u00c3\u00b6r","waste":"trash"}},"type":"Feature"},
	{"geometry":{"coordinates":[-21.804873,64.148239],"type":"Point"},"properties":{"osm_id":"2018417292","tag":{"amenity":"waste_basket","waste":"trash"}},"type":"Feature"},
	{"geometry":{"coordinates":[-21.864817,64.148262],"type":"Point"},"properties":{"osm_id":"2018417294","tag":{"amenity":"waste_basket","lukr:_TEGUND_":"3","lukr:_d_TEGUND_":"Fest \u00c3\u00a1 j\u00c3\u00a1rnr\u00c3\u00b6r","waste":"trash"}},"type":"Feature"},
	{"geometry":{"coordinates":[-21.884146,64.148488],"type":"Point"},"properties":{"osm_id":"2018417305","tag":{"amenity":"waste_basket","lukr:_TEGUND_":"1","lukr:_d_TEGUND_":"Fest \u00c3\u00a1 lj\u00c3\u00b3sastaur","waste":"trash"}},"type":"Feature"},
	{"geometry":{"coordinates":[-21.865999,64.148867],"type":"Point"},"properties":{"osm_id":"2018417324","tag":{"amenity":"waste_basket","lukr:_TEGUND_":"3","lukr:_d_TEGUND_":"Fest \u00c3\u00a1 j\u00c3\u00a1rnr\u00c3\u00b6r","waste":"trash"}},"type":"Feature"},
	{"geometry":{"coordinates":[-21.872979,64.148967],"type":"Point"},"properties":{"osm_id":"2018417333","tag":{"amenity":"waste_basket","lukr:_TEGUND_":"3","lukr:_d_TEGUND_":"Fest \u00c3\u00a1 j\u00c3\u00a1rnr\u00c3\u00b6r","waste":"trash"}},"type":"Feature"},
	{"geometry":{"coordinates":[-21.878374,64.149075],"type":"Point"},"properties":{"osm_id":"2018417337","tag":{"amenity":"waste_basket","waste":"trash"}},"type":"Feature"},
	{"geometry":{"coordinates":[-21.801702,64.149266],"type":"Point"},"properties":{"osm_id":"2018417356","tag":{"amenity":"waste_basket","lukr:_TEGUND_":"1","lukr:_d_TEGUND_":"Fest \u00c3\u00a1 lj\u00c3\u00b3sastaur","waste":"trash"}},"type":"Feature"},
	{"geometry":{"coordinates":[-21.872518,64.149268],"type":"Point"},"properties":{"osm_id":"2018417359","tag":{"amenity":"waste_basket","waste":"trash"}},"type":"Feature"},
	{"geometry":{"coordinates":[-21.872881,64.150195],"type":"Point"},"properties":{"osm_id":"2018417389","tag":{"amenity":"waste_basket","lukr:_TEGUND_":"3","lukr:_d_TEGUND_":"Fest \u00c3\u00a1 j\u00c3\u00a1rnr\u00c3\u00b6r","waste":"trash"}},"type":"Feature"},
	{"geometry":{"coordinates":[-21.872732,64.150421],"type":"Point"},"properties":{"osm_id":"2018417403","tag":{"amenity":"waste_basket","lukr:_TEGUND_":"3","lukr:_d_TEGUND_":"Fest \u00c3\u00a1 j\u00c3\u00a1rnr\u00c3\u00b6r","waste":"trash"}},"type":"Feature"},
	{"geometry":{"coordinates":[-21.865104,64.150541],"type":"Point"},"properties":{"osm_id":"2018417409","tag":{"amenity":"waste_basket","waste":"trash"}},"type":"Feature"},
	{"geometry":{"coordinates":[-21.801598,64.152034],"type":"Point"},"properties":{"osm_id":"2018417438","tag":{"amenity":"waste_basket","waste":"trash"}},"type":"Feature"},
	{"geometry":{"coordinates":[-21.85889,64.152492],"type":"Point"},"properties":{"osm_id":"2018417443","tag":{"amenity":"waste_basket","lukr:_TEGUND_":"1","lukr:_d_TEGUND_":"Fest \u00c3\u00a1 lj\u00c3\u00b3sastaur","waste":"trash"}},"type":"Feature"},
	{"geometry":{"coordinates":[-21.800356,64.153909],"type":"Point"},"properties":{"osm_id":"2018417458","tag":{"amenity":"waste_basket","lukr:_TEGUND_":"3","lukr:_d_TEGUND_":"Fest \u00c3\u00a1 j\u00c3\u00a1rnr\u00c3\u00b6r","waste":"trash"}},"type":"Feature"},
	{"geometry":{"coordinates":[-21.798769,64.155072],"type":"Point"},"properties":{"osm_id":"2018417464","tag":{"amenity":"waste_basket","lukr:_TEGUND_":"3","lukr:_d_TEGUND_":"Fest \u00c3\u00a1 j\u00c3\u00a1rnr\u00c3\u00b6r","waste":"trash"}},"type":"Feature"},
	{"geometry":{"coordinates":[-21.877987,64.146513],"type":"Point"},"properties":{"osm_id":"3520885168","tag":{"amenity":"recycling","recycling:cardboard":"yes","recycling:glass":"yes","recycling:newspaper":"yes","recycling:paper":"yes","recycling:paper_packaging":"yes","recycling:plastic_packaging":"yes","recycling_type":"container","website":"https://reykjavik.is/frettir/tilraun-hafin-i-sofnun-glers-grenndarstodvum"}},"type":"Feature"},
	{"geometry":{"coordinates":[-21.832339,64.131095],"type":"Point"},"properties":{"name":"S\u00c3\u00a6varh\u00c3\u00b6f\u00c3\u00b0i","osm_id":"3520923308","tag":{"amenity":"recycling","recycling:batteries":"yes","recycling:cardboard":"yes","recycling:cartons":"yes","recycling:clothes":"yes","recycling:paper":"yes","recycling_type":"centre"}},"type":"Feature"},
	{"geometry":{"coordinates":[-21.883216,64.133611],"type":"Point"},"properties":{"osm_id":"3878796180","tag":{"amenity":"recycling","recycling:cans":"yes","recycling:clothes":"yes","recycling:glass":"yes","recycling:paper":"yes","recycling:plastic":"yes","recycling_type":"container"}},"type":"Feature"},
	{"geometry":{"coordinates":[-21.801958,64.152687],"type":"Point"},"properties":{"osm_id":"4354587276","tag":{"amenity":"waste_basket"}},"type":"Feature"},
	{"geometry":{"coordinates":[-21.864277,64.136373],"type":"Point"},"properties":{"osm_id":"6241778441","tag":{"amenity":"waste_basket"}},"type":"Feature"},
	{"geometry":{"coordinates":[-21.865434,64.135317],"type":"Point"},"properties":{"osm_id":"6241778443","tag":{"amenity":"waste_basket"}},"type":"Feature"},
	{"geometry":{"coordinates":[-21.862913,64.137173],"type":"Point"},"properties":{"osm_id":"6241778446","tag":{"amenity":"waste_basket"}},"type":"Feature"},
	{"geometry":{"coordinates":[-21.80487,64.148072],"type":"Point"},"properties":{"osm_id":"6411868685","tag":{"amenity":"waste_basket"}},"type":"Feature"},
	{"geometry":{"coordinates":[-21.848278,64.145064],"type":"Point"},"properties":{"osm_id":"7817765361","tag":{"amenity":"waste_basket"}},"type":"Feature"},
	{"geometry":{"coordinates":[-21.850541,64.14695],"type":"Point"},"properties":{"osm_id":"7817765365","tag":{"amenity":"waste_basket"}},"type":"Feature"},
	{"geometry":{"coordinates":[-21.86332,64.150264],"type":"Point"},"properties":{"osm_id":"7821312375","tag":{"amenity":"waste_basket"}},"type":"Feature"},
	{"geometry":{"coordinates":[-21.865537,64.150459],"type":"Point"},"properties":{"osm_id":"7821383406","tag":{"amenity":"waste_basket"}},"type":"Feature"}
]
}
