{
"type": "FeatureCollection",
"features": [
	{"geometry":{"coordinates":[-76.155342,43.047586],"type":"Point"},"properties":{"osm_id":"1755549604","tag":{"amenity":"waste_basket"}},"type":"Feature"},
	{"geometry":{"coordinates":[-76.155628,43.047617],"type":"Point"},"properties":{"osm_id":"1755549605","tag":{"amenity":"waste_basket"}},"type":"Feature"},
	{"geometry":{"coordinates":[-76.155702,43.047923],"type":"Point"},"properties":{"osm_id":"1755549632","tag":{"amenity":"waste_basket"}},"type":"Feature"},
	{"geometry":{"coordinates":[-76.155372,43.04793],"type":"Point"},"properties":{"osm_id":"1755549634","tag":{"amenity":"waste_basket"}},"type":"Feature"},
	{"geometry":{"coordinates":[-76.155414,43.048038],"type":"Point"},"properties":{"osm_id":"1755549635","tag":{"amenity":"waste_basket"}},"type":"Feature"},
	{"geometry":{"coordinates":[-76.155702,43.048039],"type":"Point"},"properties":{"osm_id":"1755549636","tag":{"amenity":"waste_basket"}},"type":"Feature"},
	{"geometry":{"coordinates":[-76.156413,43.047932],"type":"Point"},"properties":{"osm_id":"1755565585","tag":{"amenity":"waste_basket"}},"type":"Feature"},
	{"geometry":{"coordinates":[-76.156544,43.048048],"type":"Point"},"properties":{"osm_id":"1755565587","tag":{"amenity":"waste_basket"}},"type":"Feature"},
	{"geometry":{"coordinates":[-76.152355,43.046968],"type":"Point"},"properties":{"osm_id":"1755595187","tag":{"amenity":"waste_basket"}},"type":"Feature"},
	{"geometry":{"coordinates":[-76.119026,43.041484],"type":"Point"},"properties":{"osm_id":"1774022493","tag":{"amenity":"waste_basket"}},"type":"Feature"},
	{"geometry":{"coordinates":[-76.151145,43.042329],"type":"Point"},"properties":{"osm_id":"1939738515","tag":{"amenity":"waste_basket"}},"type":"Feature"},
	{"geometry":{"coordinates":[-76.151108,43.042443],"type":"Point"},"properties":{"osm_id":"1939738525","tag":{"amenity":"waste_basket"}},"type":"Feature"},
	{"geometry":{"coordinates":[-76.196591,43.004915],"type":"Point"},"properties":{"osm_id":"2206647975","tag":{"amenity":"waste_basket"}},"type":"Feature"},
	{"geometry":{"coordinates":[-76.178604,43.06108],"type":"Point"},"properties":{"name":"Roth Steel Corporation","osm_id":"2289759589","tag":{"amenity":"recycling","recycling:scrap_metal":"yes","recycling_type":"centre"}},"type":"Feature"},
	{"geometry":{"coordinates":[-76.193369,43.032672],"type":"Point"},"properties":{"name":"Bottle Return","osm_id":"2319082157","tag":{"amenity":"recycling","recycling_type":"centre"}},"type":"Feature"},
	{"geometry":{"coordinates":[-76.149253,43.047948],"type":"Point"},"properties":{"osm_id":"2353983045","tag":{"amenity":"waste_basket"}},"type":"Feature"},
	{"geometry":{"coordinates":[-76.140685,43.047049],"type":"Point"},"properties":{"osm_id":"2362144501","tag":{"amenity":"waste_basket"}},"type":"Feature"},
	{"geometry":{"coordinates":[-76.141097,43.047053],"type":"Point"},"properties":{"osm_id":"2362144502","tag":{"amenity":"waste_basket"}},"type":"Feature"},
	{"geometry":{"coordinates":[-76.141936,43.047284],"type":"Point"},"properties":{"osm_id":"2362144530","tag":{"amenity":"waste_basket"}},"type":"Feature"},
	{"geometry":{"coordinates":[-76.141045,43.047304],"type":"Point"},"properties":{"osm_id":"2362144531","tag":{"amenity":"waste_basket"}},"type":"Feature"},
	{"geometry":{"coordinates":[-76.141097,43.047054],"type":"Point"},"properties":{"osm_id":"3323924141","tag":{"amenity":"recycling","recycling_type":"container"}},"type":"Feature"},
	{"geometry":{"coordinates":[-76.141935,43.047282],"type":"Point"},"properties":{"osm_id":"3323924888","tag":{"amenity":"recycling","recycling_type":"container"}},"type":"Feature"},
	{"geometry":{"coordinates":[-76.141045,43.047303],"type":"Point"},"properties":{"osm_id":"3323924890","tag":{"amenity":"recycling","recycling_type":"container"}},"type":"Feature"},
	{"geometry":{"coordinates":[-76.152132,43.048129],"type":"Point"},"properties":{"osm_id":"3323924900","tag":{"amenity":"waste_basket"}},"type":"Feature"},
	{"geometry":{"coordinates":[-76.165709,43.034118],"type":"Point"},"properties":{"osm_id":"3499762208","tag":{"amenity":"waste_disposal"}},"type":"Feature"},
	{"geometry":{"coordinates":[-76.153663,43.047236],"type":"Point"},"properties":{"osm_id":"3630185068","tag":{"amenity":"waste_basket"}},"type":"Feature"},
	{"geometry":{"coordinates":[-76.152355,43.048802],"type":"Point"},"properties":{"osm_id":"3630185073","tag":{"amenity":"waste_basket"}},"type":"Feature"},
	{"geometry":{"coordinates":[-76.121524,43.048251],"type":"Point"},"properties":{"osm_id":"3634364833","tag":{"amenity":"waste_basket"}},"type":"Feature"},
	{"geometry":{"coordinates":[-76.142198,43.052153],"type":"Point"},"properties":{"osm_id":"3634364870","tag":{"amenity":"waste_basket"}},"type":"Feature"},
	{"geometry":{"coordinates":[-76.14176,43.053501],"type":"Point"},"properties":{"osm_id":"3634364872","tag":{"amenity":"waste_basket"}},"type":"Feature"},
	{"geometry":{"coordinates":[-76.151558,43.048626],"type":"Point"},"properties":{"osm_id":"3754917309","tag":{"amenity":"waste_basket"}},"type":"Feature"},
	{"geometry":{"coordinates":[-76.150696,43.050433],"type":"Point"},"properties":{"osm_id":"3754917311","tag":{"amenity":"waste_basket"}},"type":"Feature"},
	{"geometry":{"coordinates":[-76.144528,43.062387],"type":"Point"},"properties":{"name":"Butternut Bottle & Can Return","osm_id":"3786836160","tag":{"amenity":"recycling","recycling:cans":"yes","recycling:glass_bottles":"yes","recycling_type":"centre"}},"type":"Feature"},
	{"geometry":{"coordinates":[-76.151764,43.065876],"type":"Point"},"properties":{"osm_id":"3786836172","tag":{"amenity":"recycling","recycling:cans":"yes","recycling:glass_bottles":"yes","recycling_type":"centre"}},"type":"Feature"},
	{"geometry":{"coordinates":[-76.121121,43.021782],"type":"Point"},"properties":{"osm_id":"3801456068","tag":{"amenity":"waste_basket"}},"type":"Feature"},
	{"geometry":{"coordinates":[-76.138432,43.042047],"type":"Point"},"properties":{"osm_id":"3812848700","tag":{"amenity":"waste_basket"}},"type":"Feature"},
	{"geometry":{"coordinates":[-76.139144,43.042601],"type":"Point"},"properties":{"osm_id":"3812848704","tag":{"amenity":"waste_basket"}},"type":"Feature"},
	{"geometry":{"coordinates":[-76.144741,43.024682],"type":"Point"},"properties":{"name":"Smart Bottle Return","osm_id":"4350354692","tag":{"addr:city":"Syracuse","addr:country":"US","addr:housenumber":"2309","addr:state":"NY","addr:street":"South Salina Street","amenity":"recycling","recycling:deposit_bottles":"yes","recycling:deposit_cans":"yes","recycling_type":"centre"}},"type":"Feature"},
	{"geometry":{"coordinates":[-76.132718,43.042714],"type":"Point"},"properties":{"osm_id":"6432820352","tag":{"amenity":"waste_basket"}},"type":"Feature"},
	{"geometry":{"coordinates":[-76.132349,43.04271],"type":"Point"},"properties":{"osm_id":"6432820353","tag":{"amenity":"waste_basket"}},"type":"Feature"},
	{"geometry":{"coordinates":[-76.132349,43.04258],"type":"Point"},"properties":{"osm_id":"6432820354","tag":{"amenity":"waste_basket"}},"type":"Feature"},
	{"geometry":{"coordinates":[-76.132718,43.042582],"type":"Point"},"properties":{"osm_id":"6432820355","tag":{"amenity":"waste_basket"}},"type":"Feature"}
]
}
