{
"type": "FeatureCollection",
"features": [
	{"geometry":{"coordinates":[176.919367,-39.500113],"type":"Point"},"properties":{"osm_id":"988628684","tag":{"amenity":"waste_basket"}},"type":"Feature"},
	{"geometry":{"coordinates":[176.919743,-39.494339],"type":"Point"},"properties":{"osm_id":"988629044","tag":{"amenity":"waste_basket"}},"type":"Feature"},
	{"geometry":{"coordinates":[176.920474,-39.486609],"type":"Point"},"properties":{"osm_id":"1009867635","tag":{"amenity":"waste_basket"}},"type":"Feature"},
	{"geometry":{"coordinates":[176.920451,-39.48693],"type":"Point"},"properties":{"osm_id":"1009867717","tag":{"amenity":"waste_basket"}},"type":"Feature"},
	{"geometry":{"coordinates":[176.9203,-39.48575],"type":"Point"},"properties":{"osm_id":"1009867944","tag":{"amenity":"waste_basket"}},"type":"Feature"},
	{"geometry":{"coordinates":[176.919961,-39.490162],"type":"Point"},"properties":{"osm_id":"1009869545","tag":{"amenity":"waste_basket"}},"type":"Feature"},
	{"geometry":{"coordinates":[176.919851,-39.489861],"type":"Point"},"properties":{"osm_id":"1009869557","tag":{"amenity":"waste_basket"}},"type":"Feature"},
	{"geometry":{"coordinates":[176.920173,-39.488788],"type":"Point"},"properties":{"osm_id":"1009870125","tag":{"amenity":"waste_basket","waste":"dog"}},"type":"Feature"},
	{"geometry":{"coordinates":[176.901388,-39.488812],"type":"Point"},"properties":{"osm_id":"1014308366","tag":{"amenity":"waste_basket"}},"type":"Feature"},
	{"geometry":{"coordinates":[176.919228,-39.501354],"type":"Point"},"properties":{"osm_id":"1035301143","tag":{"amenity":"waste_basket","waste":"dog_excrement"}},"type":"Feature"},
	{"geometry":{"coordinates":[176.917361,-39.493939],"type":"Point"},"properties":{"osm_id":"1037984390","tag":{"amenity":"waste_basket"}},"type":"Feature"},
	{"geometry":{"coordinates":[176.918958,-39.496335],"type":"Point"},"properties":{"osm_id":"1037984393","tag":{"amenity":"waste_basket"}},"type":"Feature"},
	{"geometry":{"coordinates":[176.91869,-39.500677],"type":"Point"},"properties":{"osm_id":"1037984394","tag":{"amenity":"waste_basket"}},"type":"Feature"},
	{"geometry":{"coordinates":[176.902783,-39.499213],"type":"Point"},"properties":{"osm_id":"1040735405","tag":{"amenity":"waste_basket"}},"type":"Feature"},
	{"geometry":{"coordinates":[176.89926,-39.498379],"type":"Point"},"properties":{"osm_id":"1040735937","tag":{"amenity":"waste_basket","waste":"dog_excrement"}},"type":"Feature"},
	{"geometry":{"coordinates":[176.90263,-39.499178],"type":"Point"},"properties":{"osm_id":"1040768012","tag":{"amenity":"waste_basket"}},"type":"Feature"},
	{"geometry":{"coordinates":[176.894525,-39.496825],"type":"Point"},"properties":{"osm_id":"1040768258","tag":{"amenity":"waste_basket"}},"type":"Feature"},
	{"geometry":{"coordinates":[176.894878,-39.497663],"type":"Point"},"properties":{"osm_id":"1040768284","tag":{"amenity":"waste_basket","waste":"dog_excrement"}},"type":"Feature"},
	{"geometry":{"coordinates":[176.872264,-39.466472],"type":"Point"},"properties":{"osm_id":"1042297799","tag":{"amenity":"waste_basket"}},"type":"Feature"},
	{"geometry":{"coordinates":[176.909256,-39.499007],"type":"Point"},"properties":{"osm_id":"1044342144","tag":{"amenity":"waste_basket"}},"type":"Feature"},
	{"geometry":{"coordinates":[176.91103,-39.499758],"type":"Point"},"properties":{"osm_id":"1044342145","tag":{"amenity":"waste_basket"}},"type":"Feature"},
	{"geometry":{"coordinates":[176.909054,-39.490535],"type":"Point"},"properties":{"osm_id":"1044342152","tag":{"amenity":"waste_basket"}},"type":"Feature"},
	{"geometry":{"coordinates":[176.907282,-39.479553],"type":"Point"},"properties":{"osm_id":"1044342179","tag":{"amenity":"recycling","recycling:clothes":"yes"}},"type":"Feature"},
	{"geometry":{"coordinates":[176.918482,-39.503916],"type":"Point"},"properties":{"osm_id":"1047098347","tag":{"amenity":"waste_basket"}},"type":"Feature"},
	{"geometry":{"coordinates":[176.918512,-39.503467],"type":"Point"},"properties":{"osm_id":"1047099141","tag":{"amenity":"waste_basket"}},"type":"Feature"},
	{"geometry":{"coordinates":[176.919224,-39.501378],"type":"Point"},"properties":{"osm_id":"1047099228","tag":{"amenity":"waste_basket"}},"type":"Feature"},
	{"geometry":{"coordinates":[176.91773,-39.478777],"type":"Point"},"properties":{"osm_id":"1090495385","tag":{"amenity":"waste_basket"}},"type":"Feature"},
	{"geometry":{"coordinates":[176.887872,-39.486288],"type":"Point"},"properties":{"osm_id":"1101757129","tag":{"amenity":"waste_basket"}},"type":"Feature"},
	{"geometry":{"coordinates":[176.887633,-39.486219],"type":"Point"},"properties":{"osm_id":"1101757294","tag":{"amenity":"waste_basket"}},"type":"Feature"},
	{"geometry":{"coordinates":[176.887468,-39.486273],"type":"Point"},"properties":{"osm_id":"1101757444","tag":{"amenity":"waste_basket","waste":"dog_excrement"}},"type":"Feature"},
	{"geometry":{"coordinates":[176.88747,-39.486413],"type":"Point"},"properties":{"osm_id":"1101757486","tag":{"amenity":"waste_basket"}},"type":"Feature"},
	{"geometry":{"coordinates":[176.884628,-39.481148],"type":"Point"},"properties":{"osm_id":"1101761156","tag":{"amenity":"waste_basket"}},"type":"Feature"},
	{"geometry":{"coordinates":[176.884628,-39.481128],"type":"Point"},"properties":{"osm_id":"1101761177","tag":{"amenity":"waste_basket","waste":"dog_excrement"}},"type":"Feature"},
	{"geometry":{"coordinates":[176.892955,-39.485391],"type":"Point"},"properties":{"osm_id":"1111327269","tag":{"amenity":"waste_basket"}},"type":"Feature"},
	{"geometry":{"coordinates":[176.89361,-39.484028],"type":"Point"},"properties":{"osm_id":"1114715075","tag":{"amenity":"waste_disposal"}},"type":"Feature"},
	{"geometry":{"coordinates":[176.894543,-39.48235],"type":"Point"},"properties":{"osm_id":"1114715143","tag":{"amenity":"waste_disposal"}},"type":"Feature"},
	{"geometry":{"coordinates":[176.894475,-39.482167],"type":"Point"},"properties":{"osm_id":"1114715311","tag":{"amenity":"waste_basket"}},"type":"Feature"},
	{"geometry":{"coordinates":[176.894667,-39.481679],"type":"Point"},"properties":{"osm_id":"1114715332","tag":{"amenity":"waste_basket"}},"type":"Feature"},
	{"geometry":{"coordinates":[176.894727,-39.481813],"type":"Point"},"properties":{"osm_id":"1114715355","tag":{"amenity":"waste_basket"}},"type":"Feature"},
	{"geometry":{"coordinates":[176.895993,-39.481645],"type":"Point"},"properties":{"osm_id":"1114715453","tag":{"amenity":"waste_disposal"}},"type":"Feature"},
	{"geometry":{"coordinates":[176.896453,-39.481167],"type":"Point"},"properties":{"osm_id":"1114715640","tag":{"amenity":"waste_disposal"}},"type":"Feature"},
	{"geometry":{"coordinates":[176.895985,-39.48113],"type":"Point"},"properties":{"osm_id":"1114715660","tag":{"amenity":"waste_disposal"}},"type":"Feature"},
	{"geometry":{"coordinates":[176.895388,-39.480155],"type":"Point"},"properties":{"osm_id":"1114715735","tag":{"amenity":"waste_basket"}},"type":"Feature"},
	{"geometry":{"coordinates":[176.89646,-39.481988],"type":"Point"},"properties":{"osm_id":"1114715895","tag":{"amenity":"waste_basket"}},"type":"Feature"},
	{"geometry":{"coordinates":[176.881555,-39.477366],"type":"Point"},"properties":{"osm_id":"1129232579","tag":{"amenity":"waste_basket"}},"type":"Feature"},
	{"geometry":{"coordinates":[176.881836,-39.477491],"type":"Point"},"properties":{"osm_id":"1129232695","tag":{"amenity":"waste_basket"}},"type":"Feature"},
	{"geometry":{"coordinates":[176.875168,-39.463433],"type":"Point"},"properties":{"osm_id":"1825014511","tag":{"amenity":"waste_basket"}},"type":"Feature"},
	{"geometry":{"coordinates":[176.876763,-39.466641],"type":"Point"},"properties":{"osm_id":"1825714131","tag":{"amenity":"waste_basket"}},"type":"Feature"},
	{"geometry":{"coordinates":[176.877533,-39.468245],"type":"Point"},"properties":{"osm_id":"1825779288","tag":{"amenity":"waste_basket","type":"dog"}},"type":"Feature"},
	{"geometry":{"coordinates":[176.900174,-39.479279],"type":"Point"},"properties":{"osm_id":"2450072044","tag":{"amenity":"waste_basket"}},"type":"Feature"},
	{"geometry":{"coordinates":[176.899937,-39.479088],"type":"Point"},"properties":{"osm_id":"2450072045","tag":{"amenity":"waste_basket"}},"type":"Feature"},
	{"geometry":{"coordinates":[176.899666,-39.479363],"type":"Point"},"properties":{"osm_id":"2450072046","tag":{"amenity":"waste_basket"}},"type":"Feature"},
	{"geometry":{"coordinates":[176.89995,-39.479321],"type":"Point"},"properties":{"osm_id":"2450072047","tag":{"amenity":"waste_basket"}},"type":"Feature"},
	{"geometry":{"coordinates":[176.900453,-39.479265],"type":"Point"},"properties":{"osm_id":"2450072048","tag":{"amenity":"waste_basket"}},"type":"Feature"},
	{"geometry":{"coordinates":[176.900571,-39.479019],"type":"Point"},"properties":{"osm_id":"2450072049","tag":{"amenity":"waste_basket"}},"type":"Feature"},
	{"geometry":{"coordinates":[176.898093,-39.480689],"type":"Point"},"properties":{"osm_id":"4581927859","tag":{"amenity":"waste_basket"}},"type":"Feature"},
	{"geometry":{"coordinates":[176.881178,-39.500436],"type":"Point"},"properties":{"name":"Waste Management Recycling","osm_id":"5245136021","tag":{"amenity":"recycling"}},"type":"Feature"},
	{"geometry":{"coordinates":[176.899554,-39.479133],"type":"Point"},"properties":{"osm_id":"6157883736","tag":{"amenity":"waste_basket"}},"type":"Feature"},
	{"geometry":{"coordinates":[176.917543,-39.488475],"type":"Point"},"properties":{"osm_id":"6590307580","tag":{"amenity":"waste_basket","colour":"black","material":"steel"}},"type":"Feature"},
	{"geometry":{"coordinates":[176.917663,-39.488357],"type":"Point"},"properties":{"osm_id":"6590307581","tag":{"amenity":"waste_basket","colour":"black","material":"steel"}},"type":"Feature"},
	{"geometry":{"coordinates":[176.917798,-39.488599],"type":"Point"},"properties":{"osm_id":"6591256558","tag":{"amenity":"waste_basket","colour":"black","material":"steel"}},"type":"Feature"},
	{"geometry":{"coordinates":[176.917643,-39.488613],"type":"Point"},"properties":{"osm_id":"6591270648","tag":{"amenity":"waste_basket","colour":"black","material":"steel"}},"type":"Feature"}
]
}
