{
"type": "FeatureCollection",
"features": [
	{"geometry":{"coordinates":[176.890348,-39.543545],"type":"Point"},"properties":{"osm_id":"990918759","tag":{"amenity":"recycling","clothing":"yes"}},"type":"Feature"},
	{"geometry":{"coordinates":[176.918576,-39.512852],"type":"Point"},"properties":{"osm_id":"995850508","tag":{"amenity":"waste_basket"}},"type":"Feature"},
	{"geometry":{"coordinates":[176.918617,-39.513176],"type":"Point"},"properties":{"osm_id":"995850539","tag":{"amenity":"waste_basket"}},"type":"Feature"},
	{"geometry":{"coordinates":[176.91823,-39.5092],"type":"Point"},"properties":{"osm_id":"1007000006","tag":{"amenity":"waste_basket"}},"type":"Feature"},
	{"geometry":{"coordinates":[176.918425,-39.509208],"type":"Point"},"properties":{"osm_id":"1007000035","tag":{"amenity":"waste_basket"}},"type":"Feature"},
	{"geometry":{"coordinates":[176.918497,-39.509503],"type":"Point"},"properties":{"osm_id":"1007000295","tag":{"amenity":"waste_basket"}},"type":"Feature"},
	{"geometry":{"coordinates":[176.918466,-39.509849],"type":"Point"},"properties":{"osm_id":"1007000375","tag":{"amenity":"waste_basket"}},"type":"Feature"},
	{"geometry":{"coordinates":[176.918282,-39.509939],"type":"Point"},"properties":{"osm_id":"1007000487","tag":{"amenity":"waste_disposal","waste":"dog_excrement"}},"type":"Feature"},
	{"geometry":{"coordinates":[176.9183,-39.509835],"type":"Point"},"properties":{"highway":"street_lamp","osm_id":"1007000531","tag":{"amenity":"waste_basket","lit":"yes"}},"type":"Feature"},
	{"geometry":{"coordinates":[176.918498,-39.508759],"type":"Point"},"properties":{"osm_id":"1007000663","tag":{"amenity":"waste_basket","waste":"dog"}},"type":"Feature"},
	{"geometry":{"coordinates":[176.923364,-39.556697],"type":"Point"},"properties":{"osm_id":"1015494452","tag":{"amenity":"waste_basket"}},"type":"Feature"},
	{"geometry":{"coordinates":[176.92354,-39.557402],"type":"Point"},"properties":{"osm_id":"1015494542","tag":{"amenity":"waste_basket"}},"type":"Feature"},
	{"geometry":{"coordinates":[176.912104,-39.506839],"type":"Point"},"properties":{"osm_id":"1042122841","tag":{"amenity":"waste_basket","waste":"dog_excrement"}},"type":"Feature"},
	{"geometry":{"coordinates":[176.917107,-39.506453],"type":"Point"},"properties":{"osm_id":"1042122906","tag":{"amenity":"waste_basket"}},"type":"Feature"},
	{"geometry":{"coordinates":[176.918265,-39.510194],"type":"Point"},"properties":{"osm_id":"1047099648","tag":{"amenity":"waste_basket"}},"type":"Feature"},
	{"geometry":{"coordinates":[176.918264,-39.510601],"type":"Point"},"properties":{"osm_id":"1047099738","tag":{"amenity":"waste_basket"}},"type":"Feature"},
	{"geometry":{"coordinates":[176.918598,-39.527288],"type":"Point"},"properties":{"osm_id":"1047166819","tag":{"amenity":"waste_basket"}},"type":"Feature"},
	{"geometry":{"coordinates":[176.918529,-39.526964],"type":"Point"},"properties":{"osm_id":"1047167285","tag":{"amenity":"waste_basket"}},"type":"Feature"},
	{"geometry":{"coordinates":[176.848236,-39.536792],"type":"Point"},"properties":{"osm_id":"1058288986","tag":{"amenity":"waste_basket"}},"type":"Feature"},
	{"geometry":{"coordinates":[176.848315,-39.536465],"type":"Point"},"properties":{"osm_id":"1058289024","tag":{"amenity":"waste_basket"}},"type":"Feature"},
	{"geometry":{"coordinates":[176.848473,-39.536172],"type":"Point"},"properties":{"osm_id":"1058289057","tag":{"amenity":"waste_basket"}},"type":"Feature"},
	{"geometry":{"coordinates":[176.84852,-39.53584],"type":"Point"},"properties":{"osm_id":"1058289087","tag":{"amenity":"waste_basket"}},"type":"Feature"},
	{"geometry":{"coordinates":[176.848639,-39.535469],"type":"Point"},"properties":{"osm_id":"1058289124","tag":{"amenity":"waste_basket"}},"type":"Feature"},
	{"geometry":{"coordinates":[176.848694,-39.535276],"type":"Point"},"properties":{"osm_id":"1058289144","tag":{"amenity":"waste_basket"}},"type":"Feature"},
	{"geometry":{"coordinates":[176.848808,-39.53493],"type":"Point"},"properties":{"osm_id":"1060655700","tag":{"amenity":"waste_basket"}},"type":"Feature"},
	{"geometry":{"coordinates":[176.849034,-39.534416],"type":"Point"},"properties":{"osm_id":"1060655705","tag":{"amenity":"waste_basket"}},"type":"Feature"},
	{"geometry":{"coordinates":[176.849343,-39.534162],"type":"Point"},"properties":{"osm_id":"1060655727","tag":{"amenity":"waste_basket"}},"type":"Feature"},
	{"geometry":{"coordinates":[176.919513,-39.536696],"type":"Point"},"properties":{"osm_id":"1090495498","tag":{"amenity":"waste_basket"}},"type":"Feature"},
	{"geometry":{"coordinates":[176.919511,-39.536505],"type":"Point"},"properties":{"osm_id":"1090495507","tag":{"amenity":"waste_basket"}},"type":"Feature"},
	{"geometry":{"coordinates":[176.911323,-39.515971],"type":"Point"},"properties":{"osm_id":"1095880040","tag":{"amenity":"waste_basket","waste":"dog_excrement"}},"type":"Feature"},
	{"geometry":{"coordinates":[176.918538,-39.526561],"type":"Point"},"properties":{"osm_id":"1127582688","tag":{"amenity":"waste_basket"}},"type":"Feature"},
	{"geometry":{"coordinates":[176.849417,-39.537392],"type":"Point"},"properties":{"osm_id":"1130754278","tag":{"amenity":"waste_basket"}},"type":"Feature"},
	{"geometry":{"coordinates":[176.848,-39.536813],"type":"Point"},"properties":{"osm_id":"1130754304","tag":{"amenity":"waste_basket"}},"type":"Feature"},
	{"geometry":{"coordinates":[176.848108,-39.536495],"type":"Point"},"properties":{"osm_id":"1130754330","tag":{"amenity":"waste_basket"}},"type":"Feature"},
	{"geometry":{"coordinates":[176.848232,-39.536208],"type":"Point"},"properties":{"osm_id":"1130754347","tag":{"amenity":"waste_basket"}},"type":"Feature"},
	{"geometry":{"coordinates":[176.848322,-39.535857],"type":"Point"},"properties":{"osm_id":"1130754384","tag":{"amenity":"waste_basket"}},"type":"Feature"},
	{"geometry":{"coordinates":[176.848461,-39.5354],"type":"Point"},"properties":{"osm_id":"1130754408","tag":{"amenity":"waste_basket"}},"type":"Feature"},
	{"geometry":{"coordinates":[176.848531,-39.535137],"type":"Point"},"properties":{"osm_id":"1130754488","tag":{"amenity":"waste_basket"}},"type":"Feature"},
	{"geometry":{"coordinates":[176.848596,-39.534911],"type":"Point"},"properties":{"osm_id":"1130754500","tag":{"amenity":"waste_basket"}},"type":"Feature"},
	{"geometry":{"coordinates":[176.848652,-39.534711],"type":"Point"},"properties":{"osm_id":"1130754515","tag":{"amenity":"waste_basket"}},"type":"Feature"},
	{"geometry":{"coordinates":[176.84872,-39.534488],"type":"Point"},"properties":{"osm_id":"1130754639","tag":{"amenity":"waste_basket"}},"type":"Feature"},
	{"geometry":{"coordinates":[176.846155,-39.546852],"type":"Point"},"properties":{"osm_id":"2752853488","tag":{"amenity":"waste_basket"}},"type":"Feature"},
	{"geometry":{"coordinates":[176.861559,-39.526697],"type":"Point"},"properties":{"osm_id":"2798463410","tag":{"amenity":"recycling","recycling:cans":"no","recycling:clothes":"yes","recycling:glass":"no","recycling:paper":"no"}},"type":"Feature"},
	{"geometry":{"coordinates":[176.880087,-39.510711],"type":"Point"},"properties":{"osm_id":"4415933807","tag":{"amenity":"waste_basket"}},"type":"Feature"},
	{"geometry":{"coordinates":[176.879996,-39.510892],"type":"Point"},"properties":{"osm_id":"4415933820","tag":{"amenity":"waste_basket"}},"type":"Feature"}
]
}
