{
"type": "FeatureCollection",
"features": [
	{"geometry":{"coordinates":[29.779394,59.904441],"type":"Point"},"properties":{"osm_id":"1109336520","tag":{"amenity":"waste_disposal"}},"type":"Feature"},
	{"geometry":{"coordinates":[29.774138,59.9091],"type":"Point"},"properties":{"osm_id":"1109336521","tag":{"amenity":"waste_disposal"}},"type":"Feature"},
	{"geometry":{"coordinates":[29.776865,59.908977],"type":"Point"},"properties":{"osm_id":"1109336523","tag":{"amenity":"waste_disposal"}},"type":"Feature"},
	{"geometry":{"coordinates":[29.774557,59.903649],"type":"Point"},"properties":{"osm_id":"1109336543","tag":{"amenity":"waste_disposal"}},"type":"Feature"},
	{"geometry":{"coordinates":[29.772333,59.903211],"type":"Point"},"properties":{"osm_id":"1109336551","tag":{"amenity":"waste_disposal"}},"type":"Feature"},
	{"geometry":{"coordinates":[29.774287,59.911546],"type":"Point"},"properties":{"osm_id":"1109336561","tag":{"amenity":"waste_disposal"}},"type":"Feature"},
	{"geometry":{"coordinates":[29.770036,59.897124],"type":"Point"},"properties":{"osm_id":"1109336563","tag":{"amenity":"waste_disposal"}},"type":"Feature"},
	{"geometry":{"coordinates":[29.770479,59.909275],"type":"Point"},"properties":{"osm_id":"1109336574","tag":{"amenity":"waste_disposal"}},"type":"Feature"},
	{"geometry":{"coordinates":[29.768568,59.895446],"type":"Point"},"properties":{"osm_id":"1109336578","tag":{"amenity":"waste_disposal"}},"type":"Feature"},
	{"geometry":{"coordinates":[29.769258,59.916094],"type":"Point"},"properties":{"osm_id":"1109336582","tag":{"amenity":"waste_disposal"}},"type":"Feature"},
	{"geometry":{"coordinates":[29.775355,59.89815],"type":"Point"},"properties":{"osm_id":"1109336587","tag":{"amenity":"waste_disposal"}},"type":"Feature"},
	{"geometry":{"coordinates":[29.780729,59.905384],"type":"Point"},"properties":{"osm_id":"1109336603","tag":{"amenity":"waste_disposal"}},"type":"Feature"},
	{"geometry":{"coordinates":[29.772406,59.907371],"type":"Point"},"properties":{"osm_id":"1109336609","tag":{"amenity":"waste_disposal"}},"type":"Feature"},
	{"geometry":{"coordinates":[29.773389,59.905081],"type":"Point"},"properties":{"osm_id":"1109336611","tag":{"amenity":"waste_disposal"}},"type":"Feature"},
	{"geometry":{"coordinates":[29.773263,59.915737],"type":"Point"},"properties":{"osm_id":"1110266024","tag":{"amenity":"waste_disposal"}},"type":"Feature"},
	{"geometry":{"coordinates":[29.768144,59.905307],"type":"Point"},"properties":{"osm_id":"1293788068","tag":{"amenity":"waste_disposal"}},"type":"Feature"},
	{"geometry":{"coordinates":[29.778936,59.904157],"type":"Point"},"properties":{"osm_id":"2145479784","tag":{"amenity":"waste_disposal"}},"type":"Feature"},
	{"geometry":{"coordinates":[29.775783,59.915552],"type":"Point"},"properties":{"osm_id":"2152082101","tag":{"amenity":"waste_disposal"}},"type":"Feature"},
	{"geometry":{"coordinates":[29.76315,59.915572],"type":"Point"},"properties":{"osm_id":"2329220348","tag":{"amenity":"waste_basket"}},"type":"Feature"},
	{"geometry":{"coordinates":[29.760832,59.915419],"type":"Point"},"properties":{"osm_id":"2329307694","tag":{"amenity":"waste_disposal"}},"type":"Feature"},
	{"geometry":{"coordinates":[29.783023,59.910982],"type":"Point"},"properties":{"osm_id":"2335526857","tag":{"amenity":"waste_disposal"}},"type":"Feature"},
	{"geometry":{"coordinates":[29.780263,59.908243],"type":"Point"},"properties":{"osm_id":"2920463211","tag":{"amenity":"waste_disposal"}},"type":"Feature"},
	{"geometry":{"coordinates":[29.770883,59.895684],"type":"Point"},"properties":{"osm_id":"2922375811","tag":{"amenity":"waste_disposal"}},"type":"Feature"},
	{"geometry":{"coordinates":[29.774393,59.901506],"type":"Point"},"properties":{"osm_id":"2922375877","tag":{"amenity":"waste_disposal"}},"type":"Feature"},
	{"geometry":{"coordinates":[29.762555,59.911168],"type":"Point"},"properties":{"name":"\u00d0\u00ad\u00d0\u00ba\u00d0\u00be\u00d0\u00b1\u00d0\u00be\u00d0\u00ba\u00d1\u0081","osm_id":"2930085401","tag":{"amenity":"recycling","recycling:batteries":"yes","recycling_type":"container"}},"type":"Feature"},
	{"geometry":{"coordinates":[29.767383,59.915387],"type":"Point"},"properties":{"name":"\u00d0\u00ad\u00d0\u00ba\u00d0\u00be\u00d0\u00b1\u00d0\u00be\u00d0\u00ba\u00d1\u0081","osm_id":"2930085501","tag":{"amenity":"recycling","recycling:batteries":"yes","recycling:fluorescent_tubes":"yes","recycling:hazardous_waste":"yes","recycling:hydrargyrum":"yes","recycling:low_energy_bulbs":"yes","recycling_type":"container"}},"type":"Feature"},
	{"geometry":{"coordinates":[29.775772,59.907067],"type":"Point"},"properties":{"osm_id":"3771148197","tag":{"amenity":"waste_disposal"}},"type":"Feature"},
	{"geometry":{"coordinates":[29.760667,59.913586],"type":"Point"},"properties":{"osm_id":"3773222189","tag":{"amenity":"waste_disposal"}},"type":"Feature"},
	{"geometry":{"coordinates":[29.764457,59.901711],"type":"Point"},"properties":{"osm_id":"4483579655","tag":{"amenity":"waste_disposal"}},"type":"Feature"},
	{"geometry":{"coordinates":[29.777069,59.905059],"type":"Point"},"properties":{"osm_id":"4483889887","tag":{"amenity":"waste_disposal"}},"type":"Feature"},
	{"geometry":{"coordinates":[29.775315,59.913246],"type":"Point"},"properties":{"osm_id":"4483891492","tag":{"amenity":"waste_disposal"}},"type":"Feature"},
	{"geometry":{"coordinates":[29.768179,59.907041],"type":"Point"},"properties":{"osm_id":"4485170004","tag":{"amenity":"waste_disposal"}},"type":"Feature"},
	{"geometry":{"coordinates":[29.768511,59.903744],"type":"Point"},"properties":{"osm_id":"4946831992","tag":{"amenity":"waste_disposal"}},"type":"Feature"},
	{"geometry":{"coordinates":[29.743295,59.908863],"type":"Point"},"properties":{"osm_id":"5630578123","tag":{"amenity":"waste_basket"}},"type":"Feature"},
	{"geometry":{"coordinates":[29.742711,59.908963],"type":"Point"},"properties":{"osm_id":"5630581221","tag":{"amenity":"waste_basket"}},"type":"Feature"},
	{"geometry":{"coordinates":[29.744712,59.910034],"type":"Point"},"properties":{"osm_id":"5630608622","tag":{"amenity":"waste_basket"}},"type":"Feature"},
	{"geometry":{"coordinates":[29.743536,59.910014],"type":"Point"},"properties":{"osm_id":"5630611121","tag":{"amenity":"waste_basket"}},"type":"Feature"},
	{"geometry":{"coordinates":[29.744813,59.910037],"type":"Point"},"properties":{"osm_id":"5630616221","tag":{"amenity":"waste_basket"}},"type":"Feature"},
	{"geometry":{"coordinates":[29.744236,59.912461],"type":"Point"},"properties":{"osm_id":"5630627922","tag":{"amenity":"waste_basket"}},"type":"Feature"},
	{"geometry":{"coordinates":[29.744032,59.911816],"type":"Point"},"properties":{"osm_id":"5630646949","tag":{"amenity":"waste_basket"}},"type":"Feature"},
	{"geometry":{"coordinates":[29.74506,59.913873],"type":"Point"},"properties":{"osm_id":"5630646953","tag":{"amenity":"waste_basket"}},"type":"Feature"},
	{"geometry":{"coordinates":[29.745657,59.914953],"type":"Point"},"properties":{"osm_id":"5630646958","tag":{"amenity":"waste_basket"}},"type":"Feature"},
	{"geometry":{"coordinates":[29.744976,59.915121],"type":"Point"},"properties":{"osm_id":"5630647055","tag":{"amenity":"waste_basket"}},"type":"Feature"},
	{"geometry":{"coordinates":[29.747616,59.915316],"type":"Point"},"properties":{"osm_id":"5630647122","tag":{"amenity":"waste_basket"}},"type":"Feature"},
	{"geometry":{"coordinates":[29.74495,59.913987],"type":"Point"},"properties":{"osm_id":"5630647428","tag":{"amenity":"waste_basket"}},"type":"Feature"},
	{"geometry":{"coordinates":[29.745133,59.914007],"type":"Point"},"properties":{"osm_id":"5630647429","tag":{"amenity":"waste_basket"}},"type":"Feature"},
	{"geometry":{"coordinates":[29.746849,59.914847],"type":"Point"},"properties":{"osm_id":"5630647430","tag":{"amenity":"waste_basket"}},"type":"Feature"},
	{"geometry":{"coordinates":[29.747853,59.914707],"type":"Point"},"properties":{"osm_id":"5630648823","tag":{"amenity":"waste_basket"}},"type":"Feature"},
	{"geometry":{"coordinates":[29.747687,59.9163],"type":"Point"},"properties":{"osm_id":"5630674727","tag":{"amenity":"waste_basket"}},"type":"Feature"},
	{"geometry":{"coordinates":[29.748473,59.916193],"type":"Point"},"properties":{"osm_id":"5630674730","tag":{"amenity":"waste_basket"}},"type":"Feature"},
	{"geometry":{"coordinates":[29.748231,59.915955],"type":"Point"},"properties":{"osm_id":"5630674731","tag":{"amenity":"waste_basket"}},"type":"Feature"},
	{"geometry":{"coordinates":[29.747581,59.916066],"type":"Point"},"properties":{"osm_id":"5630674732","tag":{"amenity":"waste_basket"}},"type":"Feature"},
	{"geometry":{"coordinates":[29.743896,59.916398],"type":"Point"},"properties":{"osm_id":"5630696923","tag":{"amenity":"waste_basket"}},"type":"Feature"},
	{"geometry":{"coordinates":[29.750265,59.915709],"type":"Point"},"properties":{"osm_id":"5630726633","tag":{"amenity":"waste_basket"}},"type":"Feature"},
	{"geometry":{"coordinates":[29.745157,59.91635],"type":"Point"},"properties":{"osm_id":"5630728721","tag":{"amenity":"waste_basket"}},"type":"Feature"},
	{"geometry":{"coordinates":[29.753295,59.914909],"type":"Point"},"properties":{"osm_id":"5630728726","tag":{"amenity":"waste_basket"}},"type":"Feature"},
	{"geometry":{"coordinates":[29.750727,59.915613],"type":"Point"},"properties":{"osm_id":"5630728822","tag":{"amenity":"waste_basket"}},"type":"Feature"},
	{"geometry":{"coordinates":[29.753395,59.914851],"type":"Point"},"properties":{"osm_id":"5630740724","tag":{"amenity":"waste_basket"}},"type":"Feature"},
	{"geometry":{"coordinates":[29.746627,59.911131],"type":"Point"},"properties":{"osm_id":"5630767439","tag":{"amenity":"waste_basket"}},"type":"Feature"},
	{"geometry":{"coordinates":[29.752715,59.913522],"type":"Point"},"properties":{"osm_id":"5630771721","tag":{"amenity":"waste_basket"}},"type":"Feature"},
	{"geometry":{"coordinates":[29.752294,59.913669],"type":"Point"},"properties":{"osm_id":"5630771821","tag":{"amenity":"waste_basket"}},"type":"Feature"},
	{"geometry":{"coordinates":[29.75151,59.91336],"type":"Point"},"properties":{"osm_id":"5630783621","tag":{"amenity":"waste_basket"}},"type":"Feature"},
	{"geometry":{"coordinates":[29.746935,59.910413],"type":"Point"},"properties":{"osm_id":"5630793157","tag":{"amenity":"waste_basket"}},"type":"Feature"},
	{"geometry":{"coordinates":[29.747291,59.910361],"type":"Point"},"properties":{"osm_id":"5630793247","tag":{"amenity":"waste_basket"}},"type":"Feature"},
	{"geometry":{"coordinates":[29.74697,59.911621],"type":"Point"},"properties":{"osm_id":"5630794124","tag":{"amenity":"waste_basket"}},"type":"Feature"},
	{"geometry":{"coordinates":[29.747406,59.910343],"type":"Point"},"properties":{"osm_id":"5835020638","tag":{"amenity":"waste_basket"}},"type":"Feature"},
	{"geometry":{"coordinates":[29.754717,59.910473],"type":"Point"},"properties":{"osm_id":"5835020652","tag":{"amenity":"waste_basket"}},"type":"Feature"},
	{"geometry":{"coordinates":[29.752828,59.911738],"type":"Point"},"properties":{"osm_id":"5835020658","tag":{"amenity":"waste_basket"}},"type":"Feature"},
	{"geometry":{"coordinates":[29.758592,59.910006],"type":"Point"},"properties":{"osm_id":"5835020684","tag":{"amenity":"waste_disposal"}},"type":"Feature"},
	{"geometry":{"coordinates":[29.747041,59.910392],"type":"Point"},"properties":{"osm_id":"5835020738","tag":{"amenity":"waste_basket"}},"type":"Feature"},
	{"geometry":{"coordinates":[29.761697,59.911847],"type":"Point"},"properties":{"osm_id":"6835379113","tag":{"amenity":"waste_disposal"}},"type":"Feature"},
	{"geometry":{"coordinates":[29.767826,59.909348],"type":"Point"},"properties":{"osm_id":"6835384786","tag":{"amenity":"waste_disposal"}},"type":"Feature"},
	{"geometry":{"coordinates":[29.760718,59.908144],"type":"Point"},"properties":{"osm_id":"6835603392","tag":{"amenity":"waste_disposal"}},"type":"Feature"},
	{"geometry":{"coordinates":[29.761223,59.904846],"type":"Point"},"properties":{"osm_id":"6835610377","tag":{"amenity":"waste_disposal"}},"type":"Feature"},
	{"geometry":{"coordinates":[29.774077,59.894052],"type":"Point"},"properties":{"osm_id":"6855147167","tag":{"amenity":"waste_disposal"}},"type":"Feature"},
	{"geometry":{"coordinates":[29.7769,59.901693],"type":"Point"},"properties":{"osm_id":"6873138624","tag":{"amenity":"waste_disposal"}},"type":"Feature"},
	{"geometry":{"coordinates":[29.777154,59.902798],"type":"Point"},"properties":{"name":"\u00d0\u00ad\u00d0\u00ba\u00d0\u00be\u00d0\u00b1\u00d0\u00be\u00d0\u00ba\u00d1\u0081","osm_id":"6906493637","tag":{"amenity":"recycling","recycling:batteries":"yes","recycling:fluorescent_tubes":"yes","recycling:low_energy_bulbs":"yes","recycling_type":"container"}},"type":"Feature"},
	{"geometry":{"coordinates":[29.762588,59.909859],"type":"Point"},"properties":{"name":"\u00d0\u00ad\u00d0\u00ba\u00d0\u00be\u00d0\u00b1\u00d0\u00be\u00d0\u00ba\u00d1\u0081","osm_id":"6912334592","tag":{"amenity":"recycling","recycling:batteries":"yes","recycling:fluorescent_tubes":"yes","recycling:low_energy_bulbs":"yes","recycling_type":"container"}},"type":"Feature"},
	{"geometry":{"coordinates":[29.769382,59.906422],"type":"Point"},"properties":{"name":"\u00d0\u00ad\u00d0\u00ba\u00d0\u00be\u00d0\u00b1\u00d0\u00be\u00d0\u00ba\u00d1\u0081","osm_id":"7074913070","tag":{"amenity":"recycling","recycling:batteries":"yes","recycling:fluorescent_tubes":"yes","recycling:low_energy_bulbs":"yes","recycling_type":"container"}},"type":"Feature"},
	{"geometry":{"coordinates":[29.769693,59.914533],"type":"Point"},"properties":{"osm_id":"7858488056","tag":{"amenity":"waste_disposal"}},"type":"Feature"},
	{"geometry":{"coordinates":[29.768473,59.911015],"type":"Point"},"properties":{"osm_id":"7858540646","tag":{"amenity":"waste_disposal"}},"type":"Feature"},
	{"geometry":{"coordinates":[29.784849,59.910759],"type":"Point"},"properties":{"osm_id":"7865303666","tag":{"amenity":"waste_disposal"}},"type":"Feature"}
]
}
