{
"type": "FeatureCollection",
"features": [
	{"geometry":{"coordinates":[29.77523,-0.407994],"type":"Point"},"properties":{"name":"Composite Pit","osm_id":"6735340257","tag":{"addr:county":"Rujumbura","addr:district":"Rukungiri","addr:parish":"Rwenshama","addr:subcounty":"Bwambara","addr:village":"Rwebinyonyi","amenity":"waste_disposal","fee":"no","lit":"no","operator":"community","start_date":"2010-11-01","waste":"Domestic"}},"type":"Feature"},
	{"geometry":{"coordinates":[29.77512,-0.407965],"type":"Point"},"properties":{"name":"Composit Pit","osm_id":"6735340259","tag":{"addr:county":"Rujumbura","addr:district":"Rukungiri","addr:parish":"Rwenshama","addr:subcounty":"Bwambara","addr:village":"Rwebinyonyi","amenity":"waste_disposal","fee":"no","lit":"no","operator":"community","start_date":"2016-07-01","waste":"Domestic"}},"type":"Feature"},
	{"geometry":{"coordinates":[29.775146,-0.409347],"type":"Point"},"properties":{"name":"Composit Pit","osm_id":"6735340262","tag":{"addr:county":"Rujumbura","addr:district":"Rukungiri","addr:parish":"Rwenshama","addr:subcounty":"Bwambara","addr:village":"Rwebinyonyi","amenity":"waste_disposal","fee":"no","lit":"no","operator":"community","start_date":"2019-05-01","waste":"Domestic"}},"type":"Feature"},
	{"geometry":{"coordinates":[29.775455,-0.408288],"type":"Point"},"properties":{"name":"Composit Pit","osm_id":"6735340263","tag":{"addr:county":"Rujumbura","addr:district":"Rukungiri","addr:parish":"Rwenshama","addr:subcounty":"Bwambara","addr:village":"Rwebinyonyi","amenity":"waste_disposal","fee":"no","lit":"no","operator":"community","start_date":"2002-09-01","waste":"Domestic"}},"type":"Feature"},
	{"geometry":{"coordinates":[29.776115,-0.411273],"type":"Point"},"properties":{"name":"Waste Product","osm_id":"6735356085","tag":{"addr:county":"Rujumbura","addr:district":"Rukungiri","addr:parish":"Rwenshama","addr:subcounty":"Bwambara","addr:village":"Rwenshama","amenity":"waste_disposal","fee":"no","lit":"no","operator":"community","start_date":"2012-10-01","waste":"Domestic"}},"type":"Feature"},
	{"geometry":{"coordinates":[29.775004,-0.407468],"type":"Point"},"properties":{"name":"Compost Pit","osm_id":"6735356126","tag":{"addr:county":"Rujumbura","addr:district":"Rukungiri","addr:parish":"Rwenshama","addr:subcounty":"Bwambara","addr:village":"Rwebinyonyi","amenity":"waste_disposal","fee":"no","lit":"no","operator":"community","start_date":"2016-07-01","waste":"Domestic"}},"type":"Feature"},
	{"geometry":{"coordinates":[29.775405,-0.408718],"type":"Point"},"properties":{"name":"Dust Bin","osm_id":"6735356128","tag":{"addr:county":"Rujumbura","addr:district":"Rukungiri","addr:parish":"Rwenshama","addr:subcounty":"Bwambara","addr:village":"Rwebinyonyi","amenity":"waste_disposal","fee":"no","lit":"yes","lit_operational":"yes","operator":"community","start_date":"2018-05-01","waste":"Medical"}},"type":"Feature"}
]
}
