{
"type": "FeatureCollection",
"features": [
	{"geometry":{"coordinates":[29.739983,-1.341256],"type":"Point"},"properties":{"name":"Chanika Migrations Office Compost Pit","osm_id":"6759525811","tag":{"addr:county":"Bufumbira","addr:district":"Kisoro","addr:parish":"Rutare","addr:subcounty":"Chahi","addr:village":"Gahuru","amenity":"waste_disposal","fee":"no","lit":"no","operator":"ngo","start_date":"2015-07-01","waste":"compost pit"}},"type":"Feature"},
	{"geometry":{"coordinates":[29.738936,-1.336651],"type":"Point"},"properties":{"name":"Katarara Primary School","osm_id":"6759525835","tag":{"addr:county":"Bufumbira","addr:district":"Kisoro","addr:parish":"Nyakabingo","addr:subcounty":"Chahi","addr:village":"Rukoro","amenity":"waste_disposal","fee":"no","lit":"no","operator":"government","start_date":"2019-01-01","waste":"rubbish pit"}},"type":"Feature"},
	{"geometry":{"coordinates":[29.752126,-1.335665],"type":"Point"},"properties":{"name":"Rukoro Primary School","osm_id":"6759525838","tag":{"addr:county":"Bufumbira","addr:district":"Kisoro","addr:parish":"Nyakabingo","addr:subcounty":"Chahi","addr:village":"Rukoro","amenity":"waste_disposal","fee":"no","lit":"no","operator":"government","start_date":"2019-01-01","waste":"rubbish pit"}},"type":"Feature"},
	{"geometry":{"coordinates":[29.777516,-1.357815],"type":"Point"},"properties":{"name":"Compost Pit","osm_id":"6759525847","tag":{"addr:county":"Bufumbira","addr:district":"Kisoro","addr:parish":"Chahafi","addr:subcounty":"Murora","addr:village":"Kabingo","amenity":"waste_disposal","fee":"no","lit":"no","operator":"government","start_date":"2016-01-01","waste":"compost pit"}},"type":"Feature"},
	{"geometry":{"coordinates":[29.77752,-1.357848],"type":"Point"},"properties":{"name":"Kabingo Primary Compost Pit","osm_id":"6759525849","tag":{"addr:county":"Bufumbira","addr:district":"Kisoro","addr:parish":"Chahafi","addr:subcounty":"Murora","addr:village":"Gicuzi","amenity":"waste_disposal","fee":"no","lit":"no","operator":"community","start_date":"2013-03-01","waste":"compost pit"}},"type":"Feature"},
	{"geometry":{"coordinates":[29.736406,-1.335683],"type":"Point"},"properties":{"name":"Clare Nsenga Healthy Centre Placenta Pit","osm_id":"6759525855","tag":{"addr:county":"Bufumbira","addr:district":"Kisoro","addr:parish":"Rutare","addr:subcounty":"Chahi","addr:village":"Gahuru","amenity":"waste_disposal","fee":"no","lit":"no","operator":"ngo","start_date":"2018-03-01","waste":"placenta pit"}},"type":"Feature"},
	{"geometry":{"coordinates":[29.736411,-1.335743],"type":"Point"},"properties":{"name":"Clare Nsenga Recycling Facility","osm_id":"6759525856","tag":{"addr:county":"Bufumbira","addr:district":"Kisoro","addr:parish":"Rutare","addr:subcounty":"Chahi","addr:village":"Gahuru","amenity":"recycling","fee":"no","lit":"no","operator":"ngo","recycling_type":"container","start_date":"2018-01-01","waste":"insinirator"}},"type":"Feature"},
	{"geometry":{"coordinates":[29.736818,-1.335763],"type":"Point"},"properties":{"name":"None","osm_id":"6759525857","tag":{"addr:county":"Bufumbira","addr:district":"Kisoro","addr:parish":"Rutare","addr:subcounty":"Chahi","addr:village":"Gahuru","amenity":"waste_basket","fee":"no","lit":"no","operator":"ngo","start_date":"2019-02-01","waste":"medical waste"}},"type":"Feature"},
	{"geometry":{"coordinates":[29.760695,-1.341723],"type":"Point"},"properties":{"name":"Compost Pit","osm_id":"6759525862","tag":{"addr:county":"Bufumbira","addr:district":"Kisoro","addr:parish":"Chahafi","addr:subcounty":"Murora","addr:village":"Rwabara","amenity":"waste_disposal","fee":"no","lit":"no","operator":"government","start_date":"2018-01-01","waste":"compost pit"}},"type":"Feature"},
	{"geometry":{"coordinates":[29.717313,-1.336393],"type":"Point"},"properties":{"name":"School Composite","osm_id":"6759525867","tag":{"addr:county":"Bufumbira","addr:district":"Kisoro","addr:parish":"Runtare","addr:subcounty":"Chahi","addr:village":"Nyamugenda","amenity":"waste_disposal","fee":"no","lit":"no","operator":"community","start_date":"2019-04-01","waste":"composite pit"}},"type":"Feature"}
]
}
