{
"type": "FeatureCollection",
"features": [
	{"geometry":{"coordinates":[-123.128514,49.226001],"type":"Point"},"properties":{"osm_id":"1684232477","tag":{"amenity":"waste_basket"}},"type":"Feature"},
	{"geometry":{"coordinates":[-123.129894,49.214678],"type":"Point"},"properties":{"osm_id":"1702310753","tag":{"amenity":"waste_basket"}},"type":"Feature"},
	{"geometry":{"coordinates":[-123.063416,49.254879],"type":"Point"},"properties":{"osm_id":"2399940837","tag":{"amenity":"waste_basket"}},"type":"Feature"},
	{"geometry":{"coordinates":[-123.061365,49.253776],"type":"Point"},"properties":{"osm_id":"2399954813","tag":{"amenity":"waste_basket"}},"type":"Feature"},
	{"geometry":{"coordinates":[-123.091259,49.262094],"type":"Point"},"properties":{"osm_id":"3761781813","tag":{"amenity":"recycling","recycling:cans":"no","recycling_type":"centre"}},"type":"Feature"},
	{"geometry":{"coordinates":[-123.105053,49.243205],"type":"Point"},"properties":{"osm_id":"4805274737","tag":{"amenity":"waste_basket"}},"type":"Feature"},
	{"geometry":{"coordinates":[-123.104245,49.243196],"type":"Point"},"properties":{"osm_id":"4805274739","tag":{"amenity":"waste_basket"}},"type":"Feature"},
	{"geometry":{"coordinates":[-123.100344,49.264137],"type":"Point"},"properties":{"osm_id":"4831840927","tag":{"amenity":"waste_basket"}},"type":"Feature"},
	{"geometry":{"coordinates":[-123.099867,49.263731],"type":"Point"},"properties":{"osm_id":"4831840929","tag":{"amenity":"waste_basket"}},"type":"Feature"},
	{"geometry":{"coordinates":[-123.051454,49.239159],"type":"Point"},"properties":{"name":"Vancouver Central Return-It Depot","osm_id":"5005564642","tag":{"addr:city":"Vancouver","addr:housenumber":"2639","addr:street":"Kingsway","amenity":"recycling","recycling_type":"centre"}},"type":"Feature"},
	{"geometry":{"coordinates":[-123.060457,49.256597],"type":"Point"},"properties":{"osm_id":"5052006551","tag":{"amenity":"waste_basket"}},"type":"Feature"},
	{"geometry":{"coordinates":[-123.069611,49.265172],"type":"Point"},"properties":{"osm_id":"5093503326","tag":{"amenity":"waste_basket"}},"type":"Feature"},
	{"geometry":{"coordinates":[-123.069641,49.264238],"type":"Point"},"properties":{"osm_id":"5093503327","tag":{"amenity":"waste_basket"}},"type":"Feature"},
	{"geometry":{"coordinates":[-123.114692,49.262115],"type":"Point"},"properties":{"osm_id":"5125125221","tag":{"amenity":"waste_basket"}},"type":"Feature"},
	{"geometry":{"coordinates":[-123.090483,49.233547],"type":"Point"},"properties":{"osm_id":"5127253526","tag":{"amenity":"waste_basket"}},"type":"Feature"},
	{"geometry":{"coordinates":[-123.048926,49.237728],"type":"Point"},"properties":{"osm_id":"5195388235","tag":{"amenity":"waste_basket"}},"type":"Feature"},
	{"geometry":{"coordinates":[-123.056804,49.248795],"type":"Point"},"properties":{"osm_id":"5388438779","tag":{"amenity":"waste_basket"}},"type":"Feature"},
	{"geometry":{"coordinates":[-123.129731,49.23913],"type":"Point"},"properties":{"osm_id":"5410296418","tag":{"amenity":"waste_basket"}},"type":"Feature"},
	{"geometry":{"coordinates":[-123.101211,49.247916],"type":"Point"},"properties":{"osm_id":"5463432385","tag":{"amenity":"waste_basket","material":"metal"}},"type":"Feature"},
	{"geometry":{"coordinates":[-123.101008,49.248685],"type":"Point"},"properties":{"osm_id":"5463434727","tag":{"amenity":"waste_basket","material":"metal"}},"type":"Feature"},
	{"geometry":{"coordinates":[-123.049479,49.25092],"type":"Point"},"properties":{"osm_id":"5692008978","tag":{"amenity":"recycling","location":"overground","operator":"inclusionBC","recycling:clothes":"yes","recycling_type":"container"}},"type":"Feature"},
	{"geometry":{"coordinates":[-123.049482,49.250842],"type":"Point"},"properties":{"osm_id":"5692009502","tag":{"amenity":"recycling","location":"overground","operator":"Big Brothers of Greater Vancouver Clothing Donations","recycling:clothes":"yes","recycling_type":"container"}},"type":"Feature"},
	{"geometry":{"coordinates":[-123.109587,49.257051],"type":"Point"},"properties":{"osm_id":"5828088026","tag":{"amenity":"recycling","colour":"lime","description":"In bags please","operator":"Big Brothers of Greater Vancouver Clothing Donation","recycling:clothes":"yes","recycling:hazardous_waste":"no","recycling:shoes":"yes","recycling_type":"container"}},"type":"Feature"},
	{"geometry":{"coordinates":[-123.117944,49.243526],"type":"Point"},"properties":{"osm_id":"5828089372","tag":{"amenity":"recycling","colour":"blue","operator":"Cerebral Palsy Association of BC","recycling:clothes":"yes","recycling_type":"container"}},"type":"Feature"},
	{"geometry":{"coordinates":[-123.103232,49.260123],"type":"Point"},"properties":{"osm_id":"5828090546","tag":{"amenity":"recycling","colour":"red","description":"In bags please","operator":"Vancouver Firefighter Charities","recycling:clothes":"yes","recycling:shoes":"yes","recycling_type":"container","wheelchair":"limited"}},"type":"Feature"},
	{"geometry":{"coordinates":[-123.116312,49.237359],"type":"Point"},"properties":{"osm_id":"5828090763","tag":{"amenity":"recycling","colour":"blue","operator":"Cerebral Palsy Association of BC","recycling:clothes":"yes","recycling_type":"container"}},"type":"Feature"},
	{"geometry":{"coordinates":[-123.109585,49.257036],"type":"Point"},"properties":{"osm_id":"5828090769","tag":{"amenity":"recycling","colour":"purple","description":"For clothing, shoes, accessories, bedding and towels","direction":"270","operator":"inclusionBC","recycling:clothes":"yes","recycling:shoes":"yes"}},"type":"Feature"},
	{"geometry":{"coordinates":[-123.056871,49.24907],"type":"Point"},"properties":{"osm_id":"5984372473","tag":{"amenity":"recycling","colour":"green","direction":"90","location":"overground","operator":"Big Brothers of Greater Vancouver Clothing Donation","recycling:clothes":"yes","recycling:shoes":"yes","recycling_type":"container"}},"type":"Feature"},
	{"geometry":{"coordinates":[-123.080741,49.265108],"type":"Point"},"properties":{"osm_id":"6417266992","tag":{"amenity":"recycling","colour":"green","direction":"0","operator":"Green Inspiration BC","recycling:clothes":"yes","recycling:shoes":"yes"}},"type":"Feature"},
	{"geometry":{"coordinates":[-123.090606,49.225347],"type":"Point"},"properties":{"osm_id":"6551338914","tag":{"amenity":"waste_basket"}},"type":"Feature"},
	{"geometry":{"coordinates":[-123.070116,49.262216],"type":"Point"},"properties":{"osm_id":"6846095797","tag":{"amenity":"waste_basket"}},"type":"Feature"},
	{"geometry":{"coordinates":[-123.069879,49.26247],"type":"Point"},"properties":{"osm_id":"6846097129","tag":{"amenity":"waste_basket"}},"type":"Feature"},
	{"geometry":{"coordinates":[-123.12,49.262287],"type":"Point"},"properties":{"osm_id":"6945928842","tag":{"amenity":"waste_basket"}},"type":"Feature"},
	{"geometry":{"coordinates":[-123.133839,49.264313],"type":"Point"},"properties":{"osm_id":"7214606713","tag":{"amenity":"waste_basket","waste":"trash"}},"type":"Feature"},
	{"geometry":{"coordinates":[-123.090874,49.262796],"type":"Point"},"properties":{"osm_id":"7275053998","tag":{"amenity":"waste_basket","colour":"black","material":"steel","waste":"trash"}},"type":"Feature"},
	{"geometry":{"coordinates":[-123.104546,49.265021],"type":"Point"},"properties":{"name":"Return-It","osm_id":"7473571690","tag":{"amenity":"recycling"}},"type":"Feature"}
]
}
