{
"type": "FeatureCollection",
"features": [
	{"geometry":{"coordinates":[-123.116117,49.192161],"type":"Point"},"properties":{"osm_id":"3464046558","tag":{"amenity":"waste_basket"}},"type":"Feature"},
	{"geometry":{"coordinates":[-123.078009,49.195864],"type":"Point"},"properties":{"name":"Regional Recycling","osm_id":"4019024301","tag":{"addr:city":"Richmond","addr:housenumber":"13300","addr:postcode":"V6V 1K2","addr:street":"Vulcan Way","amenity":"recycling","phone":"+1-855-701-7171"}},"type":"Feature"},
	{"geometry":{"coordinates":[-123.110794,49.184549],"type":"Point"},"properties":{"osm_id":"5860356783","tag":{"amenity":"waste_basket"}},"type":"Feature"},
	{"geometry":{"coordinates":[-123.114854,49.208548],"type":"Point"},"properties":{"name":"Vancouver Zero Waste Centre","osm_id":"6744747285","tag":{"amenity":"recycling"}},"type":"Feature"},
	{"geometry":{"coordinates":[-123.113388,49.184566],"type":"Point"},"properties":{"osm_id":"6914345551","tag":{"amenity":"waste_basket"}},"type":"Feature"},
	{"geometry":{"coordinates":[-123.120076,49.172739],"type":"Point"},"properties":{"osm_id":"7650425886","tag":{"amenity":"waste_basket"}},"type":"Feature"}
]
}
