{
"type": "FeatureCollection",
"features": [
	{"geometry":{"coordinates":[-123.1265,44.094507],"type":"Point"},"properties":{"osm_id":"5840229251","tag":{"amenity":"waste_basket","description":"Public Garbage Receptacle"}},"type":"Feature"},
	{"geometry":{"coordinates":[-123.063526,44.092137],"type":"Point"},"properties":{"osm_id":"7134454186","tag":{"amenity":"waste_disposal"}},"type":"Feature"},
	{"geometry":{"coordinates":[-123.063414,44.092174],"type":"Point"},"properties":{"osm_id":"7134454187","tag":{"amenity":"waste_basket"}},"type":"Feature"},
	{"geometry":{"coordinates":[-123.129621,44.096278],"type":"Point"},"properties":{"osm_id":"7178379695","tag":{"access":"private","amenity":"waste_disposal"}},"type":"Feature"},
	{"geometry":{"coordinates":[-123.053577,44.111099],"type":"Point"},"properties":{"osm_id":"8122432486","tag":{"amenity":"waste_disposal"}},"type":"Feature"},
	{"geometry":{"coordinates":[-123.053569,44.111976],"type":"Point"},"properties":{"osm_id":"8122432487","tag":{"amenity":"waste_disposal"}},"type":"Feature"},
	{"geometry":{"coordinates":[-123.052259,44.111692],"type":"Point"},"properties":{"osm_id":"8122432488","tag":{"amenity":"waste_disposal"}},"type":"Feature"},
	{"geometry":{"coordinates":[-123.053393,44.095031],"type":"Point"},"properties":{"osm_id":"8123117185","tag":{"amenity":"waste_basket"}},"type":"Feature"}
]
}
