{
"type": "FeatureCollection",
"features": [
	{"geometry":{"coordinates":[-21.993711,64.158059],"type":"Point"},"properties":{"osm_id":"290144044","tag":{"amenity":"waste_disposal","waste":"trash"}},"type":"Feature"},
	{"geometry":{"coordinates":[-21.988044,64.157095],"type":"Point"},"properties":{"osm_id":"290144050","tag":{"amenity":"waste_disposal","waste":"trash"}},"type":"Feature"},
	{"geometry":{"coordinates":[-21.986624,64.156206],"type":"Point"},"properties":{"osm_id":"290144052","tag":{"amenity":"waste_disposal","waste":"trash"}},"type":"Feature"},
	{"geometry":{"coordinates":[-21.976191,64.150116],"type":"Point"},"properties":{"osm_id":"290172594","tag":{"amenity":"waste_disposal","waste":"trash"}},"type":"Feature"},
	{"geometry":{"coordinates":[-21.980276,64.150639],"type":"Point"},"properties":{"osm_id":"290172601","tag":{"amenity":"waste_disposal","waste":"trash"}},"type":"Feature"},
	{"geometry":{"coordinates":[-21.985594,64.153157],"type":"Point"},"properties":{"osm_id":"290172604","tag":{"amenity":"waste_disposal","waste":"trash"}},"type":"Feature"},
	{"geometry":{"coordinates":[-21.976537,64.149845],"type":"Point"},"properties":{"osm_id":"2018417379","tag":{"amenity":"waste_basket","lukr:_TEGUND_":"3","lukr:_d_TEGUND_":"Fest \u00c3\u00a1 j\u00c3\u00a1rnr\u00c3\u00b6r","waste":"trash"}},"type":"Feature"},
	{"geometry":{"coordinates":[-21.976058,64.150099],"type":"Point"},"properties":{"osm_id":"2018417384","tag":{"amenity":"waste_basket","lukr:_TEGUND_":"3","lukr:_d_TEGUND_":"Fest \u00c3\u00a1 j\u00c3\u00a1rnr\u00c3\u00b6r","waste":"trash"}},"type":"Feature"},
	{"geometry":{"coordinates":[-21.981635,64.150564],"type":"Point"},"properties":{"osm_id":"2018417413","tag":{"amenity":"waste_basket","lukr:_TEGUND_":"3","lukr:_d_TEGUND_":"Fest \u00c3\u00a1 j\u00c3\u00a1rnr\u00c3\u00b6r","waste":"trash"}},"type":"Feature"},
	{"geometry":{"coordinates":[-21.980208,64.150586],"type":"Point"},"properties":{"osm_id":"2018417414","tag":{"amenity":"waste_basket","lukr:_TEGUND_":"3","lukr:_d_TEGUND_":"Fest \u00c3\u00a1 j\u00c3\u00a1rnr\u00c3\u00b6r","waste":"trash"}},"type":"Feature"},
	{"geometry":{"coordinates":[-22.015753,64.16286],"type":"Point"},"properties":{"osm_id":"5016592924","tag":{"amenity":"waste_basket"}},"type":"Feature"},
	{"geometry":{"coordinates":[-22.013954,64.162591],"type":"Point"},"properties":{"osm_id":"5016592925","tag":{"amenity":"waste_basket"}},"type":"Feature"},
	{"geometry":{"coordinates":[-22.014112,64.162485],"type":"Point"},"properties":{"osm_id":"5016593321","tag":{"amenity":"waste_basket"}},"type":"Feature"},
	{"geometry":{"coordinates":[-21.998824,64.149915],"type":"Point"},"properties":{"osm_id":"6804245663","tag":{"amenity":"waste_basket"}},"type":"Feature"},
	{"geometry":{"coordinates":[-22.021717,64.155308],"type":"Point"},"properties":{"osm_id":"7216624572","tag":{"amenity":"waste_basket"}},"type":"Feature"},
	{"geometry":{"coordinates":[-22.006546,64.15777],"type":"Point"},"properties":{"osm_id":"7371510353","tag":{"amenity":"waste_basket","waste":"trash"}},"type":"Feature"}
]
}
