{
"type": "FeatureCollection",
"features": [
	{"geometry":{"coordinates":[12.691447,53.511104],"type":"Point"},"properties":{"osm_id":"418832713","tag":{"amenity":"recycling","location":"underground","recycling_type":"container"}},"type":"Feature"},
	{"geometry":{"coordinates":[12.700004,53.507312],"type":"Point"},"properties":{"osm_id":"460368069","tag":{"amenity":"recycling","recycling_type":"container"}},"type":"Feature"},
	{"geometry":{"coordinates":[12.703636,53.508905],"type":"Point"},"properties":{"osm_id":"460368070","tag":{"amenity":"recycling","recycling_type":"container"}},"type":"Feature"},
	{"geometry":{"coordinates":[12.711554,53.512315],"type":"Point"},"properties":{"osm_id":"469722863","tag":{"amenity":"recycling","recycling_type":"container"}},"type":"Feature"},
	{"geometry":{"coordinates":[12.690513,53.512773],"type":"Point"},"properties":{"osm_id":"488648516","tag":{"amenity":"recycling","recycling:glass":"yes","recycling_type":"container"}},"type":"Feature"},
	{"geometry":{"coordinates":[12.681926,53.52083],"type":"Point"},"properties":{"osm_id":"725212004","tag":{"amenity":"recycling","location":"overground","recycling:glass":"yes","recycling:paper":"yes","recycling_type":"container"}},"type":"Feature"},
	{"geometry":{"coordinates":[12.663871,53.497843],"type":"Point"},"properties":{"osm_id":"853780678","tag":{"amenity":"waste_disposal"}},"type":"Feature"},
	{"geometry":{"coordinates":[12.683203,53.516306],"type":"Point"},"properties":{"osm_id":"888984151","tag":{"amenity":"waste_basket"}},"type":"Feature"},
	{"geometry":{"coordinates":[12.684597,53.515492],"type":"Point"},"properties":{"osm_id":"888984182","tag":{"amenity":"waste_basket"}},"type":"Feature"},
	{"geometry":{"coordinates":[12.680309,53.516343],"type":"Point"},"properties":{"osm_id":"888984291","tag":{"amenity":"waste_basket"}},"type":"Feature"},
	{"geometry":{"coordinates":[12.680488,53.516883],"type":"Point"},"properties":{"osm_id":"888984327","tag":{"amenity":"recycling","location":"overground","recycling:clothes":"yes","recycling:glass_bottles":"yes","recycling:paper":"yes","recycling:shoes":"yes","recycling_type":"container"}},"type":"Feature"},
	{"geometry":{"coordinates":[12.682563,53.515668],"type":"Point"},"properties":{"osm_id":"888990098","tag":{"amenity":"waste_basket"}},"type":"Feature"},
	{"geometry":{"coordinates":[12.682437,53.526605],"type":"Point"},"properties":{"osm_id":"2260399865","tag":{"amenity":"recycling","recycling:clothes":"yes","recycling:glass":"yes","recycling:paper":"yes","recycling_type":"container"}},"type":"Feature"},
	{"geometry":{"coordinates":[12.693865,53.5133],"type":"Point"},"properties":{"osm_id":"2401198070","tag":{"amenity":"waste_disposal"}},"type":"Feature"},
	{"geometry":{"coordinates":[12.697023,53.515907],"type":"Point"},"properties":{"osm_id":"2891520253","tag":{"amenity":"recycling","recycling_type":"container"}},"type":"Feature"},
	{"geometry":{"coordinates":[12.668196,53.52175],"type":"Point"},"properties":{"osm_id":"2964071186","tag":{"amenity":"recycling","location":"overground","recycling:clothes":"yes","recycling:glass":"yes","recycling_type":"container"}},"type":"Feature"},
	{"geometry":{"coordinates":[12.716425,53.519805],"type":"Point"},"properties":{"osm_id":"4299916818","tag":{"amenity":"recycling","operator":"Familia","recycling:clothes":"yes","recycling:shoes":"yes","recycling_type":"container"}},"type":"Feature"},
	{"geometry":{"coordinates":[12.663687,53.498177],"type":"Point"},"properties":{"osm_id":"4832495790","tag":{"amenity":"waste_basket"}},"type":"Feature"},
	{"geometry":{"coordinates":[12.678067,53.529875],"type":"Point"},"properties":{"osm_id":"4934875074","tag":{"amenity":"recycling","recycling:cardboard":"yes","recycling:glass":"yes","recycling_type":"container"}},"type":"Feature"},
	{"geometry":{"coordinates":[12.685208,53.512244],"type":"Point"},"properties":{"osm_id":"5961467168","tag":{"amenity":"waste_basket"}},"type":"Feature"},
	{"geometry":{"coordinates":[12.672734,53.501085],"type":"Point"},"properties":{"osm_id":"6353255950","tag":{"amenity":"waste_basket"}},"type":"Feature"},
	{"geometry":{"coordinates":[12.690209,53.50782],"type":"Point"},"properties":{"osm_id":"6823768348","tag":{"amenity":"waste_basket"}},"type":"Feature"},
	{"geometry":{"coordinates":[12.693058,53.513718],"type":"Point"},"properties":{"osm_id":"7632787183","tag":{"amenity":"waste_basket"}},"type":"Feature"}
]
}
