{
"type": "FeatureCollection",
"features": [
	{"geometry":{"coordinates":[12.733278,53.304665],"type":"Point"},"properties":{"osm_id":"1819593835","tag":{"amenity":"recycling","opening_hours":"\"nur Fusion Festival\"","recycling_type":"centre"}},"type":"Feature"},
	{"geometry":{"coordinates":[12.743209,53.307132],"type":"Point"},"properties":{"osm_id":"1819593837","tag":{"amenity":"recycling","opening_hours":"\"nur Fusion Festival\"","recycling_type":"centre"}},"type":"Feature"},
	{"geometry":{"coordinates":[12.7411,53.309447],"type":"Point"},"properties":{"osm_id":"1819593838","tag":{"amenity":"recycling","opening_hours":"\"nur Fusion Festival\"","recycling_type":"centre"}},"type":"Feature"},
	{"geometry":{"coordinates":[12.733222,53.304652],"type":"Point"},"properties":{"osm_id":"5739602356","tag":{"amenity":"waste_disposal","description":"M\u00c3\u00bcllpfandstation"}},"type":"Feature"},
	{"geometry":{"coordinates":[12.719904,53.329666],"type":"Point"},"properties":{"osm_id":"7051590393","tag":{"amenity":"recycling","recycling:glass_bottles":"yes","recycling:paper":"yes","recycling_type":"container"}},"type":"Feature"},
	{"geometry":{"coordinates":[12.716252,53.328316],"type":"Point"},"properties":{"osm_id":"7734371037","tag":{"amenity":"waste_basket","waste":"trash"}},"type":"Feature"},
	{"geometry":{"coordinates":[12.720921,53.328337],"type":"Point"},"properties":{"osm_id":"7734589908","tag":{"amenity":"recycling","recycling:clothes":"yes","recycling_type":"container","wheelchair":"limited"}},"type":"Feature"},
	{"geometry":{"coordinates":[12.72432,53.329052],"type":"Point"},"properties":{"osm_id":"7734770120","tag":{"amenity":"recycling","recycling:glass_bottles":"yes","recycling_type":"container"}},"type":"Feature"},
	{"geometry":{"coordinates":[12.724295,53.329059],"type":"Point"},"properties":{"osm_id":"7734770121","tag":{"amenity":"recycling","recycling:glass_bottles":"yes","recycling_type":"container"}},"type":"Feature"}
]
}
