{
"type": "FeatureCollection",
"features": [
	{"geometry":{"coordinates":[12.667667,51.465306],"type":"Point"},"properties":{"osm_id":"357493586","tag":{"amenity":"recycling","recycling:clothes":"yes","recycling:glass":"yes"}},"type":"Feature"},
	{"geometry":{"coordinates":[12.662705,51.467797],"type":"Point"},"properties":{"osm_id":"357496575","tag":{"amenity":"recycling","recycling:clothes":"yes","recycling:glass":"yes"}},"type":"Feature"},
	{"geometry":{"coordinates":[12.743688,51.4991],"type":"Point"},"properties":{"osm_id":"1528086261","tag":{"amenity":"recycling"}},"type":"Feature"},
	{"geometry":{"coordinates":[12.671242,51.473667],"type":"Point"},"properties":{"osm_id":"1676878847","tag":{"amenity":"recycling","recycling:glass":"yes"}},"type":"Feature"},
	{"geometry":{"coordinates":[12.667308,51.463165],"type":"Point"},"properties":{"osm_id":"3882656998","tag":{"amenity":"waste_basket","operator":"DB Station&Service AG"}},"type":"Feature"},
	{"geometry":{"coordinates":[12.678572,51.46703],"type":"Point"},"properties":{"osm_id":"4407425357","tag":{"amenity":"recycling","recycling:clothes":"yes","recycling_type":"container"}},"type":"Feature"},
	{"geometry":{"coordinates":[12.680272,51.471043],"type":"Point"},"properties":{"osm_id":"6466773361","tag":{"amenity":"recycling","recycling:glass":"yes","recycling:glass_bottles":"yes","recycling_type":"container"}},"type":"Feature"}
]
}
