{
"type": "FeatureCollection",
"lastupdate": "2020-08-06T00:00:00Z",
"features": [
	{"geometry":{"coordinates":[12.7093,50.798245],"type":"Point"},"properties":{"osm_id":"339383032","tag":{"amenity":"recycling","recycling:glass":"yes","recycling_type":"container"}},"type":"Feature"},
	{"geometry":{"coordinates":[12.702587,50.796826],"type":"Point"},"properties":{"osm_id":"351603960","tag":{"amenity":"recycling","recycling:clothes":"yes","recycling:glass":"yes"}},"type":"Feature"},
	{"geometry":{"coordinates":[12.697923,50.798688],"type":"Point"},"properties":{"osm_id":"351640727","tag":{"amenity":"recycling","recycling:clothes":"yes","recycling:glass":"yes","recycling_type":"container"}},"type":"Feature"},
	{"geometry":{"coordinates":[12.701607,50.803981],"type":"Point"},"properties":{"osm_id":"364462155","tag":{"amenity":"recycling","mapillary":"ORz_KUItOGrGD4K0Q9C9qg","recycling:glass":"yes","recycling_type":"container","survey:date":"2017-12-06"}},"type":"Feature"},
	{"geometry":{"coordinates":[12.679685,50.804686],"type":"Point"},"properties":{"osm_id":"365377563","tag":{"amenity":"recycling","recycling:clothes":"yes","recycling:glass":"yes"}},"type":"Feature"},
	{"geometry":{"coordinates":[12.724233,50.800449],"type":"Point"},"properties":{"osm_id":"527868812","tag":{"amenity":"recycling","recycling:clothes":"yes","recycling:glass":"yes","recycling:glass_bottles":"yes"}},"type":"Feature"},
	{"geometry":{"coordinates":[12.727649,50.79952],"type":"Point"},"properties":{"osm_id":"563314219","tag":{"amenity":"recycling","recycling:glass_bottles":"yes"}},"type":"Feature"},
	{"geometry":{"coordinates":[12.70632,50.799653],"type":"Point"},"properties":{"osm_id":"696791186","tag":{"amenity":"recycling","recycling:clothes":"yes","recycling:glass":"yes"}},"type":"Feature"},
	{"geometry":{"coordinates":[12.691692,50.840716],"type":"Point"},"properties":{"osm_id":"1523718754","tag":{"amenity":"recycling","mapillary":"i8RzhbfeJYb8Zxo3GifvXw","recycling_type":"container","survey:date":"2018-04-10"}},"type":"Feature"},
	{"geometry":{"coordinates":[12.70721,50.833249],"type":"Point"},"properties":{"osm_id":"2445454999","tag":{"amenity":"recycling"}},"type":"Feature"},
	{"geometry":{"coordinates":[12.704283,50.799481],"type":"Point"},"properties":{"osm_id":"2457941190","tag":{"amenity":"recycling","recycling:glass":"yes","recycling_type":"container"}},"type":"Feature"},
	{"geometry":{"coordinates":[12.698017,50.798676],"type":"Point"},"properties":{"osm_id":"2457975165","tag":{"amenity":"waste_basket","waste":"dog_excrement"}},"type":"Feature"},
	{"geometry":{"coordinates":[12.700131,50.799264],"type":"Point"},"properties":{"osm_id":"2457975169","tag":{"amenity":"waste_basket","waste":"dog_excrement"}},"type":"Feature"},
	{"geometry":{"coordinates":[12.693607,50.797631],"type":"Point"},"properties":{"osm_id":"2459683161","tag":{"amenity":"recycling","recycling:clothes":"yes","recycling:glass":"yes","recycling_type":"container"}},"type":"Feature"},
	{"geometry":{"coordinates":[12.707345,50.802596],"type":"Point"},"properties":{"osm_id":"2459759991","tag":{"amenity":"recycling","recycling:glass":"yes","recycling_type":"container"}},"type":"Feature"},
	{"geometry":{"coordinates":[12.68483,50.80222],"type":"Point"},"properties":{"osm_id":"5554555882","tag":{"amenity":"recycling","recycling_type":"container"}},"type":"Feature"},
	{"geometry":{"coordinates":[12.707086,50.801848],"type":"Point"},"properties":{"osm_id":"6043690572","tag":{"amenity":"waste_basket"}},"type":"Feature"},
	{"geometry":{"coordinates":[12.706715,50.802216],"type":"Point"},"properties":{"osm_id":"6043690577","tag":{"amenity":"waste_basket"}},"type":"Feature"},
	{"geometry":{"coordinates":[12.706828,50.801806],"type":"Point"},"properties":{"osm_id":"6043690584","tag":{"amenity":"waste_basket"}},"type":"Feature"},
	{"geometry":{"coordinates":[12.707555,50.801934],"type":"Point"},"properties":{"osm_id":"6043690585","tag":{"amenity":"waste_basket"}},"type":"Feature"},
	{"geometry":{"coordinates":[12.707316,50.801886],"type":"Point"},"properties":{"osm_id":"6043690593","tag":{"amenity":"waste_basket"}},"type":"Feature"},
	{"geometry":{"coordinates":[12.691595,50.800913],"type":"Point"},"properties":{"osm_id":"6582218100","tag":{"amenity":"recycling","recycling_type":"container"}},"type":"Feature"},
	{"geometry":{"coordinates":[12.721132,50.799124],"type":"Point"},"properties":{"osm_id":"7021619877","tag":{"amenity":"waste_basket"}},"type":"Feature"},
	{"geometry":{"coordinates":[12.720101,50.799524],"type":"Point"},"properties":{"osm_id":"7021630916","tag":{"amenity":"waste_basket","waste":"dog_excrement"}},"type":"Feature"},
	{"geometry":{"coordinates":[12.721563,50.799122],"type":"Point"},"properties":{"osm_id":"7021630923","tag":{"amenity":"waste_basket"}},"type":"Feature"},
	{"geometry":{"coordinates":[12.720335,50.799066],"type":"Point"},"properties":{"osm_id":"7021630925","tag":{"amenity":"waste_basket"}},"type":"Feature"},
	{"geometry":{"coordinates":[12.715723,50.803654],"type":"Point"},"properties":{"osm_id":"7594975837","tag":{"amenity":"waste_basket","waste":"dog_excrement"}},"type":"Feature"}
]
}
