{
"type": "FeatureCollection",
"features": [
	{"geometry":{"coordinates":[12.669753,50.599307],"type":"Point"},"properties":{"osm_id":"446136710","tag":{"amenity":"recycling","recycling:clothes":"yes","recycling:glass":"yes"}},"type":"Feature"},
	{"geometry":{"coordinates":[12.72877,50.617348],"type":"Point"},"properties":{"osm_id":"508091021","tag":{"amenity":"recycling"}},"type":"Feature"},
	{"geometry":{"coordinates":[12.697394,50.590877],"type":"Point"},"properties":{"osm_id":"535085100","tag":{"amenity":"recycling"}},"type":"Feature"},
	{"geometry":{"coordinates":[12.681045,50.580368],"type":"Point"},"properties":{"osm_id":"557166825","tag":{"amenity":"recycling","recycling:glass":"yes"}},"type":"Feature"},
	{"geometry":{"coordinates":[12.664278,50.600295],"type":"Point"},"properties":{"osm_id":"606890458","tag":{"amenity":"waste_basket"}},"type":"Feature"},
	{"geometry":{"coordinates":[12.667041,50.601],"type":"Point"},"properties":{"osm_id":"606909853","tag":{"amenity":"waste_basket"}},"type":"Feature"},
	{"geometry":{"coordinates":[12.718646,50.590021],"type":"Point"},"properties":{"osm_id":"663785418","tag":{"amenity":"recycling"}},"type":"Feature"},
	{"geometry":{"coordinates":[12.724182,50.614082],"type":"Point"},"properties":{"osm_id":"672240648","tag":{"amenity":"recycling","recycling:glass_bottles":"yes","recycling:paper":"yes"}},"type":"Feature"},
	{"geometry":{"coordinates":[12.689488,50.582317],"type":"Point"},"properties":{"osm_id":"719044979","tag":{"amenity":"recycling"}},"type":"Feature"},
	{"geometry":{"coordinates":[12.705171,50.589795],"type":"Point"},"properties":{"osm_id":"736939792","tag":{"amenity":"recycling"}},"type":"Feature"},
	{"geometry":{"coordinates":[12.704694,50.586626],"type":"Point"},"properties":{"osm_id":"882319787","tag":{"amenity":"recycling","recycling:glass_bottles":"yes","recycling:paper":"yes"}},"type":"Feature"},
	{"geometry":{"coordinates":[12.70527,50.592957],"type":"Point"},"properties":{"osm_id":"882343605","tag":{"amenity":"recycling"}},"type":"Feature"},
	{"geometry":{"coordinates":[12.712413,50.58832],"type":"Point"},"properties":{"osm_id":"1273657137","tag":{"amenity":"recycling","recycling:clothes":"yes","recycling:glass_bottles":"yes"}},"type":"Feature"},
	{"geometry":{"coordinates":[12.742443,50.588988],"type":"Point"},"properties":{"osm_id":"1297832251","tag":{"amenity":"recycling","recycling:clothes":"yes","recycling:glass_bottles":"yes","recycling:paper":"yes","recycling_type":"container"}},"type":"Feature"},
	{"geometry":{"coordinates":[12.696933,50.596874],"type":"Point"},"properties":{"osm_id":"1312328259","tag":{"amenity":"recycling","recycling:glass_bottles":"yes"}},"type":"Feature"},
	{"geometry":{"coordinates":[12.689509,50.595164],"type":"Point"},"properties":{"osm_id":"1312672432","tag":{"amenity":"recycling"}},"type":"Feature"},
	{"geometry":{"coordinates":[12.719997,50.591961],"type":"Point"},"properties":{"osm_id":"1422585705","tag":{"amenity":"recycling","recycling:clothes":"yes"}},"type":"Feature"},
	{"geometry":{"coordinates":[12.712922,50.584936],"type":"Point"},"properties":{"osm_id":"1431355919","tag":{"amenity":"recycling","recycling:clothes":"yes","recycling:glass_bottles":"yes","recycling:paper":"yes"}},"type":"Feature"},
	{"geometry":{"coordinates":[12.712433,50.581963],"type":"Point"},"properties":{"osm_id":"1455877484","tag":{"amenity":"recycling","location":"overground","recycling:clothes":"yes","recycling:glass_bottles":"yes","recycling:paper":"yes","recycling_type":"container"}},"type":"Feature"},
	{"geometry":{"coordinates":[12.719983,50.572674],"type":"Point"},"properties":{"osm_id":"1461355292","tag":{"amenity":"recycling","operator":"Zweckverband Abfallwirtschaft S\u00c3\u00bcdwestsachsen","recycling:computers":"yes","recycling:electrical_items":"yes","recycling:tv_monitor":"yes","recycling_type":"centre","website":"http://www.za-sws.de"}},"type":"Feature"},
	{"geometry":{"coordinates":[12.704936,50.615683],"type":"Point"},"properties":{"osm_id":"1461355397","tag":{"amenity":"recycling","operator":"SITA Entsorgung Erzgebirge GmbH","recycling_type":"centre","website":"http://www.sita-deutschland.de"}},"type":"Feature"},
	{"geometry":{"coordinates":[12.696964,50.583528],"type":"Point"},"properties":{"osm_id":"2468511490","tag":{"amenity":"recycling"}},"type":"Feature"},
	{"geometry":{"coordinates":[12.697052,50.57357],"type":"Point"},"properties":{"osm_id":"2599336979","tag":{"amenity":"recycling"}},"type":"Feature"},
	{"geometry":{"coordinates":[12.679238,50.596391],"type":"Point"},"properties":{"osm_id":"3759376521","tag":{"amenity":"recycling","recycling_type":"container"}},"type":"Feature"},
	{"geometry":{"coordinates":[12.733496,50.620273],"type":"Point"},"properties":{"osm_id":"4425380915","tag":{"amenity":"recycling","recycling:clothes":"yes","recycling:glass_bottles":"yes","recycling_type":"container"}},"type":"Feature"},
	{"geometry":{"coordinates":[12.700123,50.585936],"type":"Point"},"properties":{"osm_id":"4461408721","tag":{"amenity":"recycling","location":"wall","recycling:glass_bottles":"yes","recycling:plastic_bottles":"yes","recycling_type":"deposit_machine"}},"type":"Feature"},
	{"geometry":{"coordinates":[12.731104,50.603186],"type":"Point"},"properties":{"osm_id":"5539955482","tag":{"amenity":"waste_basket"}},"type":"Feature"},
	{"geometry":{"coordinates":[12.713665,50.592213],"type":"Point"},"properties":{"osm_id":"5645677721","tag":{"amenity":"waste_basket"}},"type":"Feature"},
	{"geometry":{"coordinates":[12.714891,50.609921],"type":"Point"},"properties":{"osm_id":"6592141178","tag":{"amenity":"recycling","recycling_type":"container"}},"type":"Feature"},
	{"geometry":{"coordinates":[12.714938,50.609919],"type":"Point"},"properties":{"osm_id":"6592141179","tag":{"amenity":"recycling","recycling_type":"container"}},"type":"Feature"},
	{"geometry":{"coordinates":[12.714982,50.609918],"type":"Point"},"properties":{"osm_id":"6592141180","tag":{"amenity":"recycling","recycling_type":"container"}},"type":"Feature"},
	{"geometry":{"coordinates":[12.7336,50.620519],"type":"Point"},"properties":{"osm_id":"7195102618","tag":{"amenity":"waste_basket"}},"type":"Feature"}
]
}
