{
"type": "FeatureCollection",
"features": [
	{"geometry":{"coordinates":[12.703405,49.978065],"type":"Point"},"properties":{"osm_id":"2275727035","tag":{"amenity":"waste_basket"}},"type":"Feature"},
	{"geometry":{"coordinates":[12.703403,49.977606],"type":"Point"},"properties":{"osm_id":"2275728898","tag":{"amenity":"waste_basket"}},"type":"Feature"},
	{"geometry":{"coordinates":[12.703349,49.977199],"type":"Point"},"properties":{"osm_id":"2275735759","tag":{"amenity":"waste_basket"}},"type":"Feature"},
	{"geometry":{"coordinates":[12.703312,49.975432],"type":"Point"},"properties":{"osm_id":"2275782171","tag":{"amenity":"waste_basket"}},"type":"Feature"},
	{"geometry":{"coordinates":[12.701736,49.966618],"type":"Point"},"properties":{"osm_id":"4955292105","tag":{"amenity":"waste_basket"}},"type":"Feature"},
	{"geometry":{"coordinates":[12.701637,49.965987],"type":"Point"},"properties":{"osm_id":"4955297689","tag":{"amenity":"waste_basket"}},"type":"Feature"},
	{"geometry":{"coordinates":[12.701527,49.965555],"type":"Point"},"properties":{"osm_id":"4955368554","tag":{"amenity":"waste_basket"}},"type":"Feature"},
	{"geometry":{"coordinates":[12.703102,49.963259],"type":"Point"},"properties":{"osm_id":"5548574677","tag":{"amenity":"recycling","recycling_type":"container"}},"type":"Feature"},
	{"geometry":{"coordinates":[12.696308,49.960674],"type":"Point"},"properties":{"osm_id":"5554543715","tag":{"amenity":"recycling","recycling_type":"container"}},"type":"Feature"},
	{"geometry":{"coordinates":[12.711841,49.953983],"type":"Point"},"properties":{"osm_id":"5554622213","tag":{"amenity":"recycling","recycling_type":"container"}},"type":"Feature"},
	{"geometry":{"coordinates":[12.693594,49.960237],"type":"Point"},"properties":{"osm_id":"5554685544","tag":{"amenity":"recycling","recycling_type":"container"}},"type":"Feature"},
	{"geometry":{"coordinates":[12.698948,49.96333],"type":"Point"},"properties":{"osm_id":"5554996190","tag":{"amenity":"recycling","recycling_type":"container"}},"type":"Feature"},
	{"geometry":{"coordinates":[12.701462,49.972724],"type":"Point"},"properties":{"osm_id":"5555127849","tag":{"amenity":"recycling","recycling_type":"container"}},"type":"Feature"},
	{"geometry":{"coordinates":[12.714149,49.952163],"type":"Point"},"properties":{"osm_id":"5557632018","tag":{"amenity":"recycling","recycling_type":"container"}},"type":"Feature"},
	{"geometry":{"coordinates":[12.712868,49.952171],"type":"Point"},"properties":{"osm_id":"5557638275","tag":{"amenity":"recycling","recycling_type":"container"}},"type":"Feature"},
	{"geometry":{"coordinates":[12.704291,49.957523],"type":"Point"},"properties":{"osm_id":"5565176509","tag":{"amenity":"recycling","recycling_type":"container"}},"type":"Feature"},
	{"geometry":{"coordinates":[12.702395,49.956223],"type":"Point"},"properties":{"osm_id":"5565311567","tag":{"amenity":"recycling","recycling_type":"container"}},"type":"Feature"},
	{"geometry":{"coordinates":[12.690833,49.962413],"type":"Point"},"properties":{"osm_id":"5764236594","tag":{"amenity":"recycling","recycling_type":"container"}},"type":"Feature"},
	{"geometry":{"coordinates":[12.697865,49.952878],"type":"Point"},"properties":{"osm_id":"7114634542","tag":{"amenity":"recycling","recycling:cardboard":"yes","recycling:glass":"yes","recycling:glass_bottles":"yes","recycling:paper":"yes","recycling:plastic":"yes","recycling:plastic_bottles":"yes","recycling:plastic_packaging":"yes","recycling_type":"container"}},"type":"Feature"},
	{"geometry":{"coordinates":[12.685083,49.951823],"type":"Point"},"properties":{"osm_id":"7508602391","tag":{"access":"yes","amenity":"recycling","recycling:batteries":"yes","recycling_type":"container","waste":"plastic"}},"type":"Feature"},
	{"geometry":{"coordinates":[12.685066,49.951824],"type":"Point"},"properties":{"osm_id":"7508602392","tag":{"amenity":"recycling","recycling:glass":"yes","recycling_type":"container"}},"type":"Feature"},
	{"geometry":{"coordinates":[12.685052,49.951816],"type":"Point"},"properties":{"osm_id":"7508602393","tag":{"amenity":"recycling","recycling:plastic":"yes","recycling_type":"container"}},"type":"Feature"},
	{"geometry":{"coordinates":[12.685043,49.951804],"type":"Point"},"properties":{"osm_id":"7508602394","tag":{"amenity":"recycling","recycling:paper":"yes","recycling_type":"container"}},"type":"Feature"},
	{"geometry":{"coordinates":[12.685039,49.951781],"type":"Point"},"properties":{"name":"Sb\u00c4\u009brn\u00c3\u00a1 n\u00c3\u00a1doba","osm_id":"7508602395","tag":{"amenity":"recycling","recycling:clothes":"yes","recycling_type":"container"}},"type":"Feature"},
	{"geometry":{"coordinates":[12.68504,49.951791],"type":"Point"},"properties":{"osm_id":"7508602396","tag":{"amenity":"recycling","recycling:green_waste":"yes","recycling_type":"container"}},"type":"Feature"},
	{"geometry":{"coordinates":[12.703187,49.971799],"type":"Point"},"properties":{"osm_id":"7711259502","tag":{"amenity":"waste_basket"}},"type":"Feature"}
]
}
