{
"type": "FeatureCollection",
"lastupdate": "2020-08-05T00:00:00Z",
"features": [
	{"geometry":{"coordinates":[12.667512,48.151145],"type":"Point"},"properties":{"osm_id":"438047087","tag":{"amenity":"recycling","opening_hours":"Tu, Th 17:00-19:00; Sa 13:00-15:00","operator":"Gemeinde Burgkirchen","recycling:batteries":"yes","recycling:glass_bottles":"yes","recycling:green_waste":"yes","recycling_type":"centre"}},"type":"Feature"},
	{"geometry":{"coordinates":[12.737826,48.155797],"type":"Point"},"properties":{"name":"Kompost Burgkirchen OHG","osm_id":"921337438","tag":{"amenity":"recycling","opening_hours":"Nov 01-Mar 01 Mo-Fr 08:00-12:00,13:00-17:00; Nov 01-Mar 01 Sa 09:00-12:00; Apr 01-Oct 31 Mo-Th 08:00-12:00,13:00-17:00; Apr 01-Oct 31 Fr 08:00-12:00,13:00-18:00; Apr 01-Oct 31 Sa 08:00-13:00; PH off; Jan-Feb Sa off","recycling:green_waste":"yes","recycling_type":"centre","website":"https://kompost-burgkirchen.de/"}},"type":"Feature"},
	{"geometry":{"coordinates":[12.728,48.162585],"type":"Point"},"properties":{"osm_id":"1694219666","tag":{"amenity":"recycling","opening_hours":"07:00-19:00","recycling:clothes":"yes","recycling:glass":"yes","recycling_type":"container"}},"type":"Feature"}
]
}
