{
"type": "FeatureCollection",
"features": [
	{"geometry":{"coordinates":[12.66933,45.513312],"type":"Point"},"properties":{"osm_id":"5617649073","tag":{"amenity":"recycling","operator":"Alisea S.p.A.","recycling:drugs":"yes","recycling_type":"container","website":"http://www.alisea2000.it"}},"type":"Feature"},
	{"geometry":{"coordinates":[12.679389,45.516644],"type":"Point"},"properties":{"osm_id":"5617649074","tag":{"amenity":"recycling","operator":"Alisea S.p.A.","recycling:drugs":"yes","recycling_type":"container","website":"http://www.alisea2000.it"}},"type":"Feature"},
	{"geometry":{"coordinates":[12.68287,45.518163],"type":"Point"},"properties":{"osm_id":"5617649075","tag":{"amenity":"recycling","operator":"Alisea S.p.A.","recycling:drugs":"yes","recycling_type":"container","website":"http://www.alisea2000.it"}},"type":"Feature"},
	{"geometry":{"coordinates":[12.672226,45.51542],"type":"Point"},"properties":{"osm_id":"5652061460","tag":{"amenity":"recycling","operator":"Alisea S.p.A.","recycling:batteries":"yes","recycling_type":"container","website":"http://www.alisea2000.it"}},"type":"Feature"},
	{"geometry":{"coordinates":[12.681662,45.518301],"type":"Point"},"properties":{"osm_id":"5652061461","tag":{"amenity":"recycling","operator":"Alisea S.p.A.","recycling:batteries":"yes","recycling_type":"container","website":"http://www.alisea2000.it"}},"type":"Feature"},
	{"geometry":{"coordinates":[12.693468,45.521638],"type":"Point"},"properties":{"osm_id":"5652061474","tag":{"amenity":"recycling","operator":"Alisea S.p.A.","recycling:batteries":"yes","recycling_type":"container","website":"http://www.alisea2000.it"}},"type":"Feature"},
	{"geometry":{"coordinates":[12.693692,45.521732],"type":"Point"},"properties":{"osm_id":"5652061475","tag":{"amenity":"recycling","operator":"Alisea S.p.A.","recycling:batteries":"yes","recycling_type":"container","website":"http://www.alisea2000.it"}},"type":"Feature"},
	{"geometry":{"coordinates":[12.684617,45.51849],"type":"Point"},"properties":{"osm_id":"5652061476","tag":{"amenity":"recycling","operator":"Alisea S.p.A.","recycling:batteries":"yes","recycling_type":"container","website":"http://www.alisea2000.it"}},"type":"Feature"},
	{"geometry":{"coordinates":[12.679181,45.516488],"type":"Point"},"properties":{"osm_id":"5652061477","tag":{"amenity":"recycling","operator":"Alisea S.p.A.","recycling:batteries":"yes","recycling_type":"container","website":"http://www.alisea2000.it"}},"type":"Feature"},
	{"geometry":{"coordinates":[12.67404,45.516081],"type":"Point"},"properties":{"osm_id":"5652061488","tag":{"amenity":"recycling","operator":"Alisea S.p.A.","recycling:batteries":"yes","recycling_type":"container","website":"http://www.alisea2000.it"}},"type":"Feature"},
	{"geometry":{"coordinates":[12.672837,45.514695],"type":"Point"},"properties":{"osm_id":"5652061489","tag":{"amenity":"recycling","operator":"Alisea S.p.A.","recycling:batteries":"yes","recycling_type":"container","website":"http://www.alisea2000.it"}},"type":"Feature"},
	{"geometry":{"coordinates":[12.671007,45.514972],"type":"Point"},"properties":{"osm_id":"5652061490","tag":{"amenity":"recycling","operator":"Alisea S.p.A.","recycling:batteries":"yes","recycling_type":"container","website":"http://www.alisea2000.it"}},"type":"Feature"},
	{"geometry":{"coordinates":[12.670579,45.515075],"type":"Point"},"properties":{"osm_id":"5652061491","tag":{"amenity":"recycling","operator":"Alisea S.p.A.","recycling:batteries":"yes","recycling_type":"container","website":"http://www.alisea2000.it"}},"type":"Feature"},
	{"geometry":{"coordinates":[12.657265,45.509512],"type":"Point"},"properties":{"osm_id":"5652061492","tag":{"amenity":"recycling","operator":"Alisea S.p.A.","recycling:batteries":"yes","recycling_type":"container","website":"http://www.alisea2000.it"}},"type":"Feature"},
	{"geometry":{"coordinates":[12.659871,45.510338],"type":"Point"},"properties":{"osm_id":"5652061493","tag":{"amenity":"recycling","operator":"Alisea S.p.A.","recycling:batteries":"yes","recycling_type":"container","website":"http://www.alisea2000.it"}},"type":"Feature"},
	{"geometry":{"coordinates":[12.671406,45.515472],"type":"Point"},"properties":{"osm_id":"5652061516","tag":{"amenity":"recycling","operator":"Alisea S.p.A.","recycling:batteries":"yes","recycling_type":"container","website":"http://www.alisea2000.it"}},"type":"Feature"},
	{"geometry":{"coordinates":[12.693381,45.521392],"type":"Point"},"properties":{"osm_id":"5652061517","tag":{"amenity":"recycling","operator":"Alisea S.p.A.","recycling:batteries":"yes","recycling_type":"container","website":"http://www.alisea2000.it"}},"type":"Feature"},
	{"geometry":{"coordinates":[12.684823,45.518219],"type":"Point"},"properties":{"osm_id":"5652061518","tag":{"amenity":"recycling","operator":"Alisea S.p.A.","recycling:batteries":"yes","recycling_type":"container","website":"http://www.alisea2000.it"}},"type":"Feature"},
	{"geometry":{"coordinates":[12.680233,45.516926],"type":"Point"},"properties":{"osm_id":"5652061519","tag":{"amenity":"recycling","operator":"Alisea S.p.A.","recycling:batteries":"yes","recycling_type":"container","website":"http://www.alisea2000.it"}},"type":"Feature"},
	{"geometry":{"coordinates":[12.680093,45.51688],"type":"Point"},"properties":{"osm_id":"5652061520","tag":{"amenity":"recycling","operator":"Alisea S.p.A.","recycling:batteries":"yes","recycling_type":"container","website":"http://www.alisea2000.it"}},"type":"Feature"},
	{"geometry":{"coordinates":[12.678384,45.516216],"type":"Point"},"properties":{"osm_id":"5652062321","tag":{"amenity":"recycling","operator":"Alisea S.p.A.","recycling:batteries":"yes","recycling_type":"container","website":"http://www.alisea2000.it"}},"type":"Feature"},
	{"geometry":{"coordinates":[12.675995,45.515411],"type":"Point"},"properties":{"osm_id":"5652062322","tag":{"amenity":"recycling","operator":"Alisea S.p.A.","recycling:batteries":"yes","recycling_type":"container","website":"http://www.alisea2000.it"}},"type":"Feature"},
	{"geometry":{"coordinates":[12.671905,45.513946],"type":"Point"},"properties":{"osm_id":"5652062323","tag":{"amenity":"recycling","operator":"Alisea S.p.A.","recycling:batteries":"yes","recycling_type":"container","website":"http://www.alisea2000.it"}},"type":"Feature"},
	{"geometry":{"coordinates":[12.671159,45.514745],"type":"Point"},"properties":{"osm_id":"5652062324","tag":{"amenity":"recycling","operator":"Alisea S.p.A.","recycling:batteries":"yes","recycling_type":"container","website":"http://www.alisea2000.it"}},"type":"Feature"},
	{"geometry":{"coordinates":[12.671025,45.514473],"type":"Point"},"properties":{"osm_id":"5652062325","tag":{"amenity":"recycling","operator":"Alisea S.p.A.","recycling:batteries":"yes","recycling_type":"container","website":"http://www.alisea2000.it"}},"type":"Feature"},
	{"geometry":{"coordinates":[12.660935,45.512936],"type":"Point"},"properties":{"osm_id":"5652062326","tag":{"amenity":"recycling","operator":"Alisea S.p.A.","recycling:batteries":"yes","recycling_type":"container","website":"http://www.alisea2000.it"}},"type":"Feature"},
	{"geometry":{"coordinates":[12.667103,45.51265],"type":"Point"},"properties":{"osm_id":"5652062327","tag":{"amenity":"recycling","operator":"Alisea S.p.A.","recycling:batteries":"yes","recycling_type":"container","website":"http://www.alisea2000.it"}},"type":"Feature"}
]
}
