{
"type": "FeatureCollection",
"features": [
	{"geometry":{"coordinates":[12.661332,43.992943],"type":"Point"},"properties":{"osm_id":"4369669765","tag":{"amenity":"waste_basket"}},"type":"Feature"},
	{"geometry":{"coordinates":[12.661167,43.992657],"type":"Point"},"properties":{"osm_id":"6448535167","tag":{"amenity":"waste_basket"}},"type":"Feature"},
	{"geometry":{"coordinates":[12.672319,43.987797],"type":"Point"},"properties":{"osm_id":"6448607692","tag":{"amenity":"waste_basket"}},"type":"Feature"},
	{"geometry":{"coordinates":[12.671952,43.988013],"type":"Point"},"properties":{"osm_id":"6448607694","tag":{"amenity":"waste_basket"}},"type":"Feature"},
	{"geometry":{"coordinates":[12.671677,43.988014],"type":"Point"},"properties":{"osm_id":"6448607695","tag":{"amenity":"waste_basket"}},"type":"Feature"},
	{"geometry":{"coordinates":[12.663024,43.992456],"type":"Point"},"properties":{"osm_id":"6448607713","tag":{"amenity":"waste_basket"}},"type":"Feature"},
	{"geometry":{"coordinates":[12.706141,43.963406],"type":"Point"},"properties":{"osm_id":"6560693123","tag":{"amenity":"waste_basket"}},"type":"Feature"},
	{"geometry":{"coordinates":[12.709732,43.964255],"type":"Point"},"properties":{"osm_id":"6560731513","tag":{"amenity":"waste_basket"}},"type":"Feature"},
	{"geometry":{"coordinates":[12.673776,43.983574],"type":"Point"},"properties":{"osm_id":"7922949387","tag":{"amenity":"waste_disposal","waste":"cloth"}},"type":"Feature"},
	{"geometry":{"coordinates":[12.658081,43.994584],"type":"Point"},"properties":{"osm_id":"7924220780","tag":{"amenity":"waste_disposal","waste":"cloth"}},"type":"Feature"},
	{"geometry":{"coordinates":[12.660534,43.995026],"type":"Point"},"properties":{"osm_id":"7924220783","tag":{"amenity":"waste_basket"}},"type":"Feature"},
	{"geometry":{"coordinates":[12.660952,43.994559],"type":"Point"},"properties":{"osm_id":"7924232387","tag":{"amenity":"waste_basket"}},"type":"Feature"}
]
}
