{
"type": "FeatureCollection",
"features": [
	{"geometry":{"coordinates":[2.690146,51.120682],"type":"Point"},"properties":{"osm_id":"1440102583","tag":{"amenity":"recycling","recycling:glass_bottles":"yes","recycling_type":"container"}},"type":"Feature"},
	{"geometry":{"coordinates":[2.657056,51.101906],"type":"Point"},"properties":{"name":"Milieupark (containerpark)","osm_id":"5173031663","tag":{"addr:city":"Koksijde","addr:postcode":"8670","amenity":"recycling","recycling_type":"centre"}},"type":"Feature"},
	{"geometry":{"coordinates":[2.66097,51.073105],"type":"Point"},"properties":{"osm_id":"5492007244","tag":{"amenity":"waste_basket"}},"type":"Feature"},
	{"geometry":{"coordinates":[2.636818,51.120308],"type":"Point"},"properties":{"osm_id":"5913833359","tag":{"amenity":"recycling","recycling:glass_bottles":"yes","recycling_type":"container"}},"type":"Feature"},
	{"geometry":{"coordinates":[2.642321,51.122552],"type":"Point"},"properties":{"osm_id":"5918604886","tag":{"amenity":"recycling","recycling:waste":"yes","recycling_type":"container","waste":"trash"}},"type":"Feature"},
	{"geometry":{"coordinates":[2.640536,51.122589],"type":"Point"},"properties":{"osm_id":"5918606637","tag":{"amenity":"recycling","recycling:waste":"yes","recycling_type":"container","waste":"trash"}},"type":"Feature"},
	{"geometry":{"coordinates":[2.69928,51.100774],"type":"Point"},"properties":{"osm_id":"6415139240","tag":{"amenity":"waste_basket","indoor":"no"}},"type":"Feature"},
	{"geometry":{"coordinates":[2.684914,51.116447],"type":"Point"},"properties":{"osm_id":"6603534323","tag":{"amenity":"waste_basket"}},"type":"Feature"},
	{"geometry":{"coordinates":[2.685563,51.116499],"type":"Point"},"properties":{"osm_id":"6603557778","tag":{"amenity":"waste_basket"}},"type":"Feature"},
	{"geometry":{"coordinates":[2.639128,51.115161],"type":"Point"},"properties":{"osm_id":"7838379281","tag":{"amenity":"recycling","recycling:glass_bottles":"yes","recycling_type":"container"}},"type":"Feature"}
]
}
