{
"type": "FeatureCollection",
"features": [
	{"geometry":{"coordinates":[2.721175,49.356591],"type":"Point"},"properties":{"osm_id":"4911415219","tag":{"amenity":"recycling","recycling:clothes":"yes","recycling:glass_bottles":"yes","recycling:paper":"yes","recycling_type":"container"}},"type":"Feature"},
	{"geometry":{"coordinates":[2.721014,49.350518],"type":"Point"},"properties":{"osm_id":"4915339243","tag":{"amenity":"recycling","recycling:cartons":"yes","recycling:glass_bottles":"yes","recycling:paper":"yes","recycling_type":"container"}},"type":"Feature"},
	{"geometry":{"coordinates":[2.720658,49.35048],"type":"Point"},"properties":{"osm_id":"4915339250","tag":{"amenity":"waste_basket"}},"type":"Feature"},
	{"geometry":{"coordinates":[2.720769,49.354278],"type":"Point"},"properties":{"osm_id":"4915339318","tag":{"amenity":"waste_basket"}},"type":"Feature"},
	{"geometry":{"coordinates":[2.697796,49.373367],"type":"Point"},"properties":{"osm_id":"7472296393","tag":{"amenity":"waste_basket","waste":"trash"}},"type":"Feature"},
	{"geometry":{"coordinates":[2.702639,49.369861],"type":"Point"},"properties":{"osm_id":"7472296418","tag":{"amenity":"recycling","recycling:glass_bottles":"yes","recycling_type":"container"}},"type":"Feature"},
	{"geometry":{"coordinates":[2.721161,49.357546],"type":"Point"},"properties":{"osm_id":"7473676302","tag":{"amenity":"waste_basket","waste":"trash"}},"type":"Feature"},
	{"geometry":{"coordinates":[2.721129,49.356777],"type":"Point"},"properties":{"osm_id":"7473676312","tag":{"amenity":"waste_basket","waste":"trash"}},"type":"Feature"},
	{"geometry":{"coordinates":[2.721164,49.356618],"type":"Point"},"properties":{"osm_id":"7473676318","tag":{"amenity":"recycling","recycling:clothes":"yes","recycling:shoes":"yes","recycling_type":"container"}},"type":"Feature"},
	{"geometry":{"coordinates":[2.714117,49.366],"type":"Point"},"properties":{"osm_id":"7473676415","tag":{"amenity":"waste_basket","waste":"trash"}},"type":"Feature"},
	{"geometry":{"coordinates":[2.712763,49.370214],"type":"Point"},"properties":{"osm_id":"7473676419","tag":{"amenity":"recycling","recycling:glass_bottles":"yes","recycling_type":"container"}},"type":"Feature"},
	{"geometry":{"coordinates":[2.713488,49.355625],"type":"Point"},"properties":{"osm_id":"7473826464","tag":{"amenity":"recycling","recycling:glass_bottles":"yes","recycling_type":"container"}},"type":"Feature"},
	{"geometry":{"coordinates":[2.698532,49.342731],"type":"Point"},"properties":{"osm_id":"7866228558","tag":{"amenity":"waste_disposal"}},"type":"Feature"},
	{"geometry":{"coordinates":[2.698455,49.343987],"type":"Point"},"properties":{"osm_id":"7866228559","tag":{"amenity":"waste_disposal"}},"type":"Feature"},
	{"geometry":{"coordinates":[2.698777,49.342026],"type":"Point"},"properties":{"osm_id":"7866240905","tag":{"amenity":"waste_disposal"}},"type":"Feature"},
	{"geometry":{"coordinates":[2.698041,49.341833],"type":"Point"},"properties":{"osm_id":"7866240906","tag":{"amenity":"waste_disposal"}},"type":"Feature"},
	{"geometry":{"coordinates":[2.698675,49.343619],"type":"Point"},"properties":{"osm_id":"7866240914","tag":{"amenity":"waste_disposal"}},"type":"Feature"},
	{"geometry":{"coordinates":[2.698556,49.343305],"type":"Point"},"properties":{"osm_id":"7866240915","tag":{"amenity":"waste_disposal"}},"type":"Feature"},
	{"geometry":{"coordinates":[2.699057,49.342719],"type":"Point"},"properties":{"osm_id":"7866240945","tag":{"amenity":"waste_disposal"}},"type":"Feature"},
	{"geometry":{"coordinates":[2.698302,49.342743],"type":"Point"},"properties":{"osm_id":"7866240947","tag":{"amenity":"waste_disposal"}},"type":"Feature"},
	{"geometry":{"coordinates":[2.700762,49.353441],"type":"Point"},"properties":{"osm_id":"7866264086","tag":{"amenity":"waste_disposal"}},"type":"Feature"},
	{"geometry":{"coordinates":[2.701034,49.353239],"type":"Point"},"properties":{"osm_id":"7866264088","tag":{"amenity":"waste_disposal"}},"type":"Feature"},
	{"geometry":{"coordinates":[2.70075,49.352816],"type":"Point"},"properties":{"osm_id":"7866264092","tag":{"amenity":"waste_disposal"}},"type":"Feature"}
]
}
