{
"type": "FeatureCollection",
"features": [
	{"geometry":{"coordinates":[2.688985,48.945555],"type":"Point"},"properties":{"osm_id":"1248988838","tag":{"amenity":"recycling","recycling:glass":"yes","recycling_type":"container"}},"type":"Feature"},
	{"geometry":{"coordinates":[2.698844,48.945433],"type":"Point"},"properties":{"osm_id":"1248988853","tag":{"amenity":"recycling","recycling:glass":"yes"}},"type":"Feature"},
	{"geometry":{"coordinates":[2.693295,48.967444],"type":"Point"},"properties":{"osm_id":"1589731957","tag":{"amenity":"recycling","recycling:glass_bottles":"yes","recycling_type":"container"}},"type":"Feature"},
	{"geometry":{"coordinates":[2.671187,48.93599],"type":"Point"},"properties":{"highway":"crossing","osm_id":"2682192703","tag":{"bicycle":"designated","crossing":"marked"}},"type":"Feature"},
	{"geometry":{"coordinates":[2.671227,48.936001],"type":"Point"},"properties":{"highway":"crossing","osm_id":"2682192834","tag":{"crossing":"uncontrolled","crossing_ref":"zebra"}},"type":"Feature"},
	{"geometry":{"coordinates":[2.640978,48.974791],"type":"Point"},"properties":{"osm_id":"2775226818","tag":{"amenity":"waste_basket"}},"type":"Feature"},
	{"geometry":{"coordinates":[2.641657,48.975427],"type":"Point"},"properties":{"osm_id":"2775226840","tag":{"amenity":"waste_basket"}},"type":"Feature"},
	{"geometry":{"coordinates":[2.642966,48.97574],"type":"Point"},"properties":{"osm_id":"2775226912","tag":{"amenity":"waste_basket"}},"type":"Feature"},
	{"geometry":{"coordinates":[2.642498,48.975749],"type":"Point"},"properties":{"osm_id":"2775226914","tag":{"amenity":"waste_basket"}},"type":"Feature"},
	{"geometry":{"coordinates":[2.642165,48.975781],"type":"Point"},"properties":{"osm_id":"2775226931","tag":{"amenity":"waste_basket"}},"type":"Feature"},
	{"geometry":{"coordinates":[2.643063,48.975782],"type":"Point"},"properties":{"osm_id":"2775226934","tag":{"amenity":"waste_basket"}},"type":"Feature"},
	{"geometry":{"coordinates":[2.643095,48.975844],"type":"Point"},"properties":{"osm_id":"2775226950","tag":{"amenity":"waste_basket"}},"type":"Feature"},
	{"geometry":{"coordinates":[2.642784,48.97588],"type":"Point"},"properties":{"osm_id":"2775226961","tag":{"amenity":"waste_basket"}},"type":"Feature"},
	{"geometry":{"coordinates":[2.643167,48.975893],"type":"Point"},"properties":{"osm_id":"2775226968","tag":{"amenity":"waste_basket"}},"type":"Feature"},
	{"geometry":{"coordinates":[2.642171,48.975945],"type":"Point"},"properties":{"osm_id":"2775226973","tag":{"amenity":"waste_basket"}},"type":"Feature"},
	{"geometry":{"coordinates":[2.643242,48.975956],"type":"Point"},"properties":{"osm_id":"2775226975","tag":{"amenity":"waste_basket"}},"type":"Feature"},
	{"geometry":{"coordinates":[2.642712,48.975973],"type":"Point"},"properties":{"osm_id":"2775226980","tag":{"amenity":"waste_basket"}},"type":"Feature"},
	{"geometry":{"coordinates":[2.643315,48.975996],"type":"Point"},"properties":{"osm_id":"2775226982","tag":{"amenity":"waste_basket"}},"type":"Feature"},
	{"geometry":{"coordinates":[2.643042,48.976381],"type":"Point"},"properties":{"osm_id":"2775227002","tag":{"amenity":"waste_basket"}},"type":"Feature"},
	{"geometry":{"coordinates":[2.642811,48.976382],"type":"Point"},"properties":{"osm_id":"2775227004","tag":{"amenity":"waste_basket"}},"type":"Feature"},
	{"geometry":{"coordinates":[2.64305,48.976544],"type":"Point"},"properties":{"osm_id":"2775227012","tag":{"amenity":"waste_basket"}},"type":"Feature"},
	{"geometry":{"coordinates":[2.643285,48.976547],"type":"Point"},"properties":{"osm_id":"2775227014","tag":{"amenity":"waste_basket"}},"type":"Feature"},
	{"geometry":{"coordinates":[2.643196,48.97664],"type":"Point"},"properties":{"osm_id":"2775227019","tag":{"amenity":"waste_basket"}},"type":"Feature"},
	{"geometry":{"coordinates":[2.686462,48.948114],"type":"Point"},"properties":{"osm_id":"4929326350","tag":{"amenity":"recycling","recycling:glass":"yes"}},"type":"Feature"},
	{"geometry":{"coordinates":[2.696245,48.966833],"type":"Point"},"properties":{"osm_id":"6723954345","tag":{"amenity":"waste_basket"}},"type":"Feature"},
	{"geometry":{"coordinates":[2.696221,48.967143],"type":"Point"},"properties":{"osm_id":"6723954347","tag":{"amenity":"waste_basket"}},"type":"Feature"},
	{"geometry":{"coordinates":[2.696007,48.966952],"type":"Point"},"properties":{"osm_id":"6723954353","tag":{"amenity":"waste_basket"}},"type":"Feature"},
	{"geometry":{"coordinates":[2.698947,48.967007],"type":"Point"},"properties":{"osm_id":"6725768706","tag":{"amenity":"waste_basket"}},"type":"Feature"},
	{"geometry":{"coordinates":[2.701721,48.965201],"type":"Point"},"properties":{"osm_id":"6725854508","tag":{"amenity":"recycling","recycling:glass":"yes","recycling_type":"container"}},"type":"Feature"},
	{"geometry":{"coordinates":[2.693241,48.967684],"type":"Point"},"properties":{"osm_id":"6725882125","tag":{"amenity":"waste_basket"}},"type":"Feature"},
	{"geometry":{"coordinates":[2.693192,48.967453],"type":"Point"},"properties":{"osm_id":"6725882126","tag":{"amenity":"recycling","recycling:clothes":"yes","recycling_type":"container"}},"type":"Feature"},
	{"geometry":{"coordinates":[2.700071,48.966662],"type":"Point"},"properties":{"osm_id":"6738376068","tag":{"amenity":"waste_basket"}},"type":"Feature"},
	{"geometry":{"coordinates":[2.704093,48.966468],"type":"Point"},"properties":{"osm_id":"7752497113","tag":{"amenity":"recycling","recycling:glass_bottles":"yes","recycling_type":"container"}},"type":"Feature"}
]
}
