{
"type": "FeatureCollection",
"features": [
	{"geometry":{"coordinates":[2.712381,48.33455],"type":"Point"},"properties":{"name":"D\u00c3\u00a9chetterie de Bourron-Marlotte","osm_id":"797814980","tag":{"amenity":"recycling","recycling_type":"centre","survey:date":"2020-08-04"}},"type":"Feature"},
	{"geometry":{"coordinates":[2.692301,48.332664],"type":"Point"},"properties":{"osm_id":"2681909881","tag":{"amenity":"waste_basket"}},"type":"Feature"},
	{"geometry":{"coordinates":[2.692668,48.332665],"type":"Point"},"properties":{"osm_id":"2681909882","tag":{"amenity":"waste_basket"}},"type":"Feature"},
	{"geometry":{"coordinates":[2.692652,48.332844],"type":"Point"},"properties":{"osm_id":"2681909900","tag":{"amenity":"waste_basket"}},"type":"Feature"},
	{"geometry":{"coordinates":[2.696258,48.319628],"type":"Point"},"properties":{"osm_id":"4715101136","tag":{"amenity":"recycling","recycling_type":"container"}},"type":"Feature"},
	{"geometry":{"coordinates":[2.652549,48.314398],"type":"Point"},"properties":{"osm_id":"8265080163","tag":{"amenity":"waste_basket"}},"type":"Feature"},
	{"geometry":{"coordinates":[2.647362,48.317157],"type":"Point"},"properties":{"osm_id":"8265081163","tag":{"amenity":"waste_basket"}},"type":"Feature"},
	{"geometry":{"coordinates":[2.653085,48.31851],"type":"Point"},"properties":{"osm_id":"8265081164","tag":{"amenity":"waste_basket"}},"type":"Feature"},
	{"geometry":{"coordinates":[2.648203,48.316922],"type":"Point"},"properties":{"osm_id":"8265093331","tag":{"amenity":"waste_basket"}},"type":"Feature"},
	{"geometry":{"coordinates":[2.654079,48.318256],"type":"Point"},"properties":{"osm_id":"8265095959","tag":{"amenity":"waste_basket"}},"type":"Feature"},
	{"geometry":{"coordinates":[2.648446,48.316673],"type":"Point"},"properties":{"osm_id":"8265112811","tag":{"amenity":"waste_basket"}},"type":"Feature"},
	{"geometry":{"coordinates":[2.652527,48.314153],"type":"Point"},"properties":{"osm_id":"8265116763","tag":{"amenity":"waste_basket"}},"type":"Feature"},
	{"geometry":{"coordinates":[2.647649,48.320097],"type":"Point"},"properties":{"osm_id":"8265118342","tag":{"amenity":"waste_basket"}},"type":"Feature"},
	{"geometry":{"coordinates":[2.646987,48.320658],"type":"Point"},"properties":{"osm_id":"8265118469","tag":{"amenity":"waste_basket"}},"type":"Feature"},
	{"geometry":{"coordinates":[2.648029,48.316732],"type":"Point"},"properties":{"osm_id":"8265120383","tag":{"amenity":"waste_basket"}},"type":"Feature"},
	{"geometry":{"coordinates":[2.651776,48.315002],"type":"Point"},"properties":{"osm_id":"8265120384","tag":{"amenity":"waste_basket"}},"type":"Feature"},
	{"geometry":{"coordinates":[2.654469,48.318206],"type":"Point"},"properties":{"osm_id":"8265120385","tag":{"amenity":"waste_basket"}},"type":"Feature"},
	{"geometry":{"coordinates":[2.652176,48.316824],"type":"Point"},"properties":{"osm_id":"8292997262","tag":{"amenity":"recycling","recycling:green_waste":"yes","recycling_type":"container"}},"type":"Feature"},
	{"geometry":{"coordinates":[2.648574,48.317085],"type":"Point"},"properties":{"osm_id":"8300429156","tag":{"amenity":"waste_basket","colour":"green","material":"metal"}},"type":"Feature"}
]
}
