{
"type": "FeatureCollection",
"features": [
	{"geometry":{"coordinates":[2.703519,44.397],"type":"Point"},"properties":{"osm_id":"2006440962","tag":{"amenity":"recycling","location":"underground","recycling:glass_bottles":"yes","recycling:paper":"yes","recycling_type":"container"}},"type":"Feature"},
	{"geometry":{"coordinates":[2.650667,44.372588],"type":"Point"},"properties":{"osm_id":"3446755008","tag":{"amenity":"waste_basket"}},"type":"Feature"},
	{"geometry":{"coordinates":[2.676193,44.355836],"type":"Point"},"properties":{"osm_id":"4676858274","tag":{"amenity":"recycling","recycling_type":"container"}},"type":"Feature"},
	{"geometry":{"coordinates":[2.66458,44.381391],"type":"Point"},"properties":{"osm_id":"5370694336","tag":{"amenity":"recycling","recycling_type":"container"}},"type":"Feature"},
	{"geometry":{"coordinates":[2.703411,44.397025],"type":"Point"},"properties":{"osm_id":"5554674135","tag":{"amenity":"waste_disposal"}},"type":"Feature"},
	{"geometry":{"coordinates":[2.695006,44.39742],"type":"Point"},"properties":{"osm_id":"5555955392","tag":{"amenity":"waste_disposal"}},"type":"Feature"},
	{"geometry":{"coordinates":[2.653526,44.364037],"type":"Point"},"properties":{"osm_id":"5637875160","tag":{"amenity":"recycling","recycling_type":"container"}},"type":"Feature"},
	{"geometry":{"coordinates":[2.666487,44.369479],"type":"Point"},"properties":{"osm_id":"5637902969","tag":{"amenity":"recycling","recycling_type":"container"}},"type":"Feature"},
	{"geometry":{"coordinates":[2.680539,44.357755],"type":"Point"},"properties":{"osm_id":"8165720224","tag":{"amenity":"waste_basket","colour":"green","material":"plastic","support":"pole"}},"type":"Feature"},
	{"geometry":{"coordinates":[2.681644,44.360182],"type":"Point"},"properties":{"osm_id":"9125066048","tag":{"amenity":"recycling","recycling:glass_bottles":"yes","recycling_type":"container"}},"type":"Feature"},
	{"geometry":{"coordinates":[2.681634,44.360173],"type":"Point"},"properties":{"osm_id":"9125066049","tag":{"amenity":"recycling","recycling:clothes":"yes","recycling:leather_goods":"yes","recycling:shoes":"yes","recycling_type":"container"}},"type":"Feature"}
]
}
