{
"type": "FeatureCollection",
"lastupdate": "2020-07-31T00:00:00Z",
"features": [
	{"geometry":{"coordinates":[2.638717,41.952762],"type":"Point"},"properties":{"osm_id":"6749564595","tag":{"amenity":"recycling","recycling:plastic":"yes","recycling_type":"container"}},"type":"Feature"},
	{"geometry":{"coordinates":[2.638721,41.952744],"type":"Point"},"properties":{"osm_id":"6749564596","tag":{"amenity":"recycling","material":"wood","recycling_type":"container"}},"type":"Feature"},
	{"geometry":{"coordinates":[2.687179,41.951267],"type":"Point"},"properties":{"osm_id":"6783136851","tag":{"amenity":"recycling","recycling_type":"container"}},"type":"Feature"},
	{"geometry":{"coordinates":[2.684788,41.948557],"type":"Point"},"properties":{"osm_id":"6783144196","tag":{"amenity":"recycling","recycling_type":"container"}},"type":"Feature"},
	{"geometry":{"coordinates":[2.685747,41.903908],"type":"Point"},"properties":{"osm_id":"6792682591","tag":{"amenity":"recycling","recycling_type":"container"}},"type":"Feature"},
	{"geometry":{"coordinates":[2.637582,41.953571],"type":"Point"},"properties":{"osm_id":"6902708607","tag":{"amenity":"waste_basket"}},"type":"Feature"},
	{"geometry":{"coordinates":[2.637199,41.953387],"type":"Point"},"properties":{"osm_id":"6902708766","tag":{"amenity":"recycling","recycling:plastic":"yes","recycling_type":"container"}},"type":"Feature"},
	{"geometry":{"coordinates":[2.637182,41.9534],"type":"Point"},"properties":{"osm_id":"6902708768","tag":{"amenity":"recycling","operator":"Roba Amiga","recycling:clothes":"yes","recycling_type":"container"}},"type":"Feature"},
	{"geometry":{"coordinates":[2.636897,41.952532],"type":"Point"},"properties":{"osm_id":"6902708852","tag":{"amenity":"recycling","recycling:glass_bottles":"yes","recycling_type":"container"}},"type":"Feature"},
	{"geometry":{"coordinates":[2.637017,41.952459],"type":"Point"},"properties":{"osm_id":"6902708853","tag":{"amenity":"waste_basket"}},"type":"Feature"},
	{"geometry":{"coordinates":[2.686078,41.905204],"type":"Point"},"properties":{"osm_id":"6975926840","tag":{"amenity":"recycling","recycling:organic":"yes","recycling_type":"container"}},"type":"Feature"},
	{"geometry":{"coordinates":[2.63762,41.952412],"type":"Point"},"properties":{"osm_id":"7230242847","tag":{"amenity":"waste_basket"}},"type":"Feature"},
	{"geometry":{"coordinates":[2.637242,41.952462],"type":"Point"},"properties":{"osm_id":"7230242848","tag":{"amenity":"waste_basket"}},"type":"Feature"},
	{"geometry":{"coordinates":[2.686065,41.9325],"type":"Point"},"properties":{"osm_id":"7503974348","tag":{"amenity":"recycling","opening_hours":"24/7","operator":"Ajuntament de Brunyola","recycling:cardboard":"yes","recycling:glass_bottles":"yes","recycling:newspaper":"yes","recycling:paper":"yes","recycling:plastic":"yes","recycling_type":"container"}},"type":"Feature"},
	{"geometry":{"coordinates":[2.652985,41.923726],"type":"Point"},"properties":{"osm_id":"7503974349","tag":{"amenity":"recycling","opening_hours":"24/7","operator":"Ajuntament de Brunyola","recycling:cardboard":"yes","recycling:glass_bottles":"yes","recycling:paper":"yes","recycling:plastic":"yes","recycling:plastic_packaging":"yes","recycling_type":"container"}},"type":"Feature"}
]
}
