{
"type": "FeatureCollection",
"features": [
	{"geometry":{"coordinates":[6.283397,58.34249],"type":"Point"},"properties":{"osm_id":"5555193991","tag":{"amenity":"recycling","description":"Rimi, Sokndal","recycling:glass_bottles":"yes","recycling_type":"container","ref:sortere":"122"}},"type":"Feature"},
	{"geometry":{"coordinates":[6.290737,58.342262],"type":"Point"},"properties":{"osm_id":"5555193993","tag":{"amenity":"recycling","description":"Coop Prix, Sokndal","recycling:glass_bottles":"yes","recycling_type":"container","ref:sortere":"121"}},"type":"Feature"},
	{"geometry":{"coordinates":[6.290168,58.34248],"type":"Point"},"properties":{"osm_id":"5782272012","tag":{"amenity":"waste_basket"}},"type":"Feature"},
	{"geometry":{"coordinates":[6.2888,58.342404],"type":"Point"},"properties":{"osm_id":"5782272013","tag":{"amenity":"waste_basket"}},"type":"Feature"},
	{"geometry":{"coordinates":[6.287737,58.342157],"type":"Point"},"properties":{"osm_id":"5782272014","tag":{"amenity":"waste_basket"}},"type":"Feature"},
	{"geometry":{"coordinates":[6.288267,58.342032],"type":"Point"},"properties":{"osm_id":"5782272015","tag":{"amenity":"waste_basket"}},"type":"Feature"},
	{"geometry":{"coordinates":[6.29434,58.345865],"type":"Point"},"properties":{"osm_id":"5782272016","tag":{"amenity":"waste_basket"}},"type":"Feature"},
	{"geometry":{"coordinates":[6.294869,58.345018],"type":"Point"},"properties":{"osm_id":"5782272017","tag":{"amenity":"waste_basket"}},"type":"Feature"},
	{"geometry":{"coordinates":[6.283883,58.325475],"type":"Point"},"properties":{"osm_id":"5839440265","tag":{"amenity":"waste_basket"}},"type":"Feature"},
	{"geometry":{"coordinates":[6.283881,58.325464],"type":"Point"},"properties":{"osm_id":"5839440266","tag":{"amenity":"waste_basket"}},"type":"Feature"},
	{"geometry":{"coordinates":[6.292656,58.341823],"type":"Point"},"properties":{"osm_id":"5839462034","tag":{"amenity":"waste_basket"}},"type":"Feature"},
	{"geometry":{"coordinates":[6.283895,58.325456],"type":"Point"},"properties":{"osm_id":"5846770715","tag":{"amenity":"waste_basket"}},"type":"Feature"},
	{"geometry":{"coordinates":[6.283916,58.325455],"type":"Point"},"properties":{"osm_id":"5846770716","tag":{"amenity":"waste_basket"}},"type":"Feature"},
	{"geometry":{"coordinates":[6.283934,58.325455],"type":"Point"},"properties":{"osm_id":"5846770717","tag":{"amenity":"waste_basket"}},"type":"Feature"},
	{"geometry":{"coordinates":[6.28759,58.342224],"type":"Point"},"properties":{"osm_id":"5878872108","tag":{"amenity":"waste_basket"}},"type":"Feature"},
	{"geometry":{"coordinates":[6.30767,58.352784],"type":"Point"},"properties":{"osm_id":"6316753536","tag":{"amenity":"waste_basket"}},"type":"Feature"}
]
}
