{
"type": "FeatureCollection",
"features": [
	{"geometry":{"coordinates":[6.315634,52.10265],"type":"Point"},"properties":{"osm_id":"2523332134","tag":{"amenity":"recycling","recycling:cartons":"yes","recycling:clothes":"yes","recycling:glass":"yes","recycling:magazines":"yes","recycling:plastic":"yes","recycling:waste":"yes","recycling_type":"container"}},"type":"Feature"},
	{"geometry":{"coordinates":[6.327122,52.091871],"type":"Point"},"properties":{"osm_id":"2557004095","tag":{"amenity":"waste_basket"}},"type":"Feature"},
	{"geometry":{"coordinates":[6.320407,52.093297],"type":"Point"},"properties":{"osm_id":"2557004104","tag":{"amenity":"waste_basket"}},"type":"Feature"},
	{"geometry":{"coordinates":[6.320644,52.094347],"type":"Point"},"properties":{"osm_id":"2557004110","tag":{"amenity":"waste_basket"}},"type":"Feature"},
	{"geometry":{"coordinates":[6.315188,52.096387],"type":"Point"},"properties":{"osm_id":"2557004122","tag":{"amenity":"waste_basket"}},"type":"Feature"},
	{"geometry":{"coordinates":[6.259018,52.090483],"type":"Point"},"properties":{"osm_id":"3342637119","tag":{"amenity":"recycling","recycling:cartons":"yes","recycling:glass":"yes","recycling:plastic":"yes","recycling:waste":"yes","recycling_type":"container"}},"type":"Feature"},
	{"geometry":{"coordinates":[6.306192,52.105579],"type":"Point"},"properties":{"osm_id":"3342637123","tag":{"amenity":"recycling","recycling:cartons":"yes","recycling:clothes":"yes","recycling:magazines":"yes","recycling:plastic":"yes","recycling:waste":"yes","recycling_type":"container"}},"type":"Feature"},
	{"geometry":{"coordinates":[6.313834,52.054884],"type":"Point"},"properties":{"osm_id":"3343266072","tag":{"amenity":"recycling","recycling:cartons":"yes","recycling:clothes":"yes","recycling:glass":"yes","recycling:magazines":"yes","recycling:plastic":"yes","recycling:waste":"yes","recycling_type":"container"}},"type":"Feature"},
	{"geometry":{"coordinates":[6.255132,52.092103],"type":"Point"},"properties":{"osm_id":"3646645454","tag":{"amenity":"waste_basket"}},"type":"Feature"},
	{"geometry":{"coordinates":[6.258858,52.090464],"type":"Point"},"properties":{"osm_id":"3646999182","tag":{"amenity":"waste_basket"}},"type":"Feature"},
	{"geometry":{"coordinates":[6.241025,52.078237],"type":"Point"},"properties":{"osm_id":"3647035547","tag":{"amenity":"waste_basket"}},"type":"Feature"},
	{"geometry":{"coordinates":[6.291982,52.06245],"type":"Point"},"properties":{"osm_id":"3647239921","tag":{"amenity":"waste_basket"}},"type":"Feature"},
	{"geometry":{"coordinates":[6.250021,52.064855],"type":"Point"},"properties":{"osm_id":"3647239942","tag":{"amenity":"waste_basket"}},"type":"Feature"},
	{"geometry":{"coordinates":[6.262615,52.064834],"type":"Point"},"properties":{"osm_id":"3647239943","tag":{"amenity":"waste_basket"}},"type":"Feature"},
	{"geometry":{"coordinates":[6.289732,52.082651],"type":"Point"},"properties":{"osm_id":"3647366383","tag":{"amenity":"waste_basket"}},"type":"Feature"},
	{"geometry":{"coordinates":[6.275553,52.061913],"type":"Point"},"properties":{"osm_id":"3689718295","tag":{"amenity":"waste_basket"}},"type":"Feature"},
	{"geometry":{"coordinates":[6.261206,52.087873],"type":"Point"},"properties":{"osm_id":"3803813478","tag":{"amenity":"waste_basket"}},"type":"Feature"},
	{"geometry":{"coordinates":[6.304178,52.105692],"type":"Point"},"properties":{"osm_id":"4167840195","tag":{"amenity":"waste_basket"}},"type":"Feature"},
	{"geometry":{"coordinates":[6.298356,52.103806],"type":"Point"},"properties":{"osm_id":"4338881279","tag":{"amenity":"waste_basket"}},"type":"Feature"},
	{"geometry":{"coordinates":[6.284433,52.090722],"type":"Point"},"properties":{"osm_id":"5176829186","tag":{"amenity":"waste_basket"}},"type":"Feature"},
	{"geometry":{"coordinates":[6.30957,52.10587],"type":"Point"},"properties":{"osm_id":"5548284740","tag":{"amenity":"waste_basket","waste":"trash"}},"type":"Feature"},
	{"geometry":{"coordinates":[6.262886,52.089242],"type":"Point"},"properties":{"osm_id":"5571502388","tag":{"amenity":"waste_basket"}},"type":"Feature"},
	{"geometry":{"coordinates":[6.291141,52.084275],"type":"Point"},"properties":{"osm_id":"5960802831","tag":{"amenity":"waste_basket","waste":"trash"}},"type":"Feature"},
	{"geometry":{"coordinates":[6.306457,52.099544],"type":"Point"},"properties":{"osm_id":"6228289406","tag":{"amenity":"waste_disposal","location":"underground"}},"type":"Feature"}
]
}
