{
"type": "FeatureCollection",
"features": [
	{"geometry":{"coordinates":[6.248324,51.581592],"type":"Point"},"properties":{"osm_id":"6795523403","tag":{"amenity":"waste_basket"}},"type":"Feature"},
	{"geometry":{"coordinates":[6.244829,51.583802],"type":"Point"},"properties":{"osm_id":"6795538626","tag":{"amenity":"waste_basket"}},"type":"Feature"},
	{"geometry":{"coordinates":[6.245968,51.583144],"type":"Point"},"properties":{"osm_id":"6795551182","tag":{"amenity":"waste_basket"}},"type":"Feature"},
	{"geometry":{"coordinates":[6.245068,51.583632],"type":"Point"},"properties":{"osm_id":"6795554136","tag":{"amenity":"waste_basket"}},"type":"Feature"},
	{"geometry":{"coordinates":[6.24458,51.581574],"type":"Point"},"properties":{"osm_id":"6795649663","tag":{"amenity":"waste_basket"}},"type":"Feature"},
	{"geometry":{"coordinates":[6.245816,51.583765],"type":"Point"},"properties":{"osm_id":"6916240022","tag":{"amenity":"waste_basket"}},"type":"Feature"},
	{"geometry":{"coordinates":[6.318634,51.594337],"type":"Point"},"properties":{"osm_id":"7861689702","tag":{"denotation":"avenue","leaf_cycle":"deciduous","leaf_type":"broadleaved","natural":"tree"}},"type":"Feature"}
]
}
