{
"type": "FeatureCollection",
"features": [
	{"geometry":{"coordinates":[6.317743,51.08621],"type":"Point"},"properties":{"osm_id":"321210519","tag":{"amenity":"recycling","recycling:clothes":"yes","recycling_type":"container"}},"type":"Feature"},
	{"geometry":{"coordinates":[6.305939,51.082385],"type":"Point"},"properties":{"osm_id":"710683929","tag":{"amenity":"waste_basket"}},"type":"Feature"},
	{"geometry":{"coordinates":[6.305362,51.079238],"type":"Point"},"properties":{"osm_id":"710683950","tag":{"amenity":"waste_basket"}},"type":"Feature"},
	{"geometry":{"coordinates":[6.322064,51.082826],"type":"Point"},"properties":{"osm_id":"860222868","tag":{"amenity":"waste_basket"}},"type":"Feature"},
	{"geometry":{"coordinates":[6.318804,51.084366],"type":"Point"},"properties":{"osm_id":"1096138432","tag":{"amenity":"waste_basket"}},"type":"Feature"},
	{"geometry":{"coordinates":[6.317229,51.081694],"type":"Point"},"properties":{"osm_id":"2764261059","tag":{"amenity":"recycling","operator":"Deutsches Rotes Kreuz","recycling:clothes":"yes","recycling_type":"container"}},"type":"Feature"},
	{"geometry":{"coordinates":[6.242841,51.08186],"type":"Point"},"properties":{"osm_id":"3416652135","tag":{"amenity":"waste_basket"}},"type":"Feature"},
	{"geometry":{"coordinates":[6.243951,51.082376],"type":"Point"},"properties":{"osm_id":"3416652137","tag":{"amenity":"waste_basket"}},"type":"Feature"},
	{"geometry":{"coordinates":[6.246522,51.08304],"type":"Point"},"properties":{"osm_id":"3416652139","tag":{"amenity":"waste_basket"}},"type":"Feature"},
	{"geometry":{"coordinates":[6.244527,51.083448],"type":"Point"},"properties":{"osm_id":"3416652144","tag":{"amenity":"waste_basket","mapillary":"SiH-B7BBSJben8YJ7jiHGg"}},"type":"Feature"},
	{"geometry":{"coordinates":[6.245458,51.084565],"type":"Point"},"properties":{"osm_id":"3416652148","tag":{"amenity":"waste_basket"}},"type":"Feature"},
	{"geometry":{"coordinates":[6.245163,51.084692],"type":"Point"},"properties":{"osm_id":"3416652150","tag":{"amenity":"waste_basket"}},"type":"Feature"},
	{"geometry":{"coordinates":[6.277138,51.102411],"type":"Point"},"properties":{"osm_id":"4774142133","tag":{"amenity":"waste_basket"}},"type":"Feature"},
	{"geometry":{"coordinates":[6.277302,51.102166],"type":"Point"},"properties":{"osm_id":"4774142134","tag":{"amenity":"waste_basket"}},"type":"Feature"},
	{"geometry":{"coordinates":[6.274773,51.102099],"type":"Point"},"properties":{"osm_id":"4774142138","tag":{"amenity":"waste_basket"}},"type":"Feature"},
	{"geometry":{"coordinates":[6.311254,51.092869],"type":"Point"},"properties":{"osm_id":"4782884074","tag":{"amenity":"waste_basket"}},"type":"Feature"},
	{"geometry":{"coordinates":[6.317996,51.08117],"type":"Point"},"properties":{"osm_id":"5380185678","tag":{"amenity":"waste_basket"}},"type":"Feature"},
	{"geometry":{"coordinates":[6.31811,51.081248],"type":"Point"},"properties":{"osm_id":"5380185680","tag":{"amenity":"waste_basket"}},"type":"Feature"},
	{"geometry":{"coordinates":[6.317136,51.081806],"type":"Point"},"properties":{"osm_id":"5727957533","tag":{"amenity":"waste_basket","waste":"trash"}},"type":"Feature"},
	{"geometry":{"coordinates":[6.316971,51.081499],"type":"Point"},"properties":{"osm_id":"5727957534","tag":{"amenity":"waste_basket","waste":"trash"}},"type":"Feature"},
	{"geometry":{"coordinates":[6.313852,51.083875],"type":"Point"},"properties":{"osm_id":"6084530532","tag":{"amenity":"recycling","recycling:clothes":"yes","recycling_type":"container"}},"type":"Feature"},
	{"geometry":{"coordinates":[6.24904,51.070928],"type":"Point"},"properties":{"osm_id":"7903926509","tag":{"amenity":"waste_basket"}},"type":"Feature"}
]
}
