{
"type": "FeatureCollection",
"features": [
	{"geometry":{"coordinates":[6.295645,50.809703],"type":"Point"},"properties":{"osm_id":"318351482","tag":{"amenity":"recycling","recycling:glass":"yes","recycling_type":"container"}},"type":"Feature"},
	{"geometry":{"coordinates":[6.276245,50.816615],"type":"Point"},"properties":{"osm_id":"318710379","tag":{"amenity":"recycling","recycling:clothes":"yes","recycling:glass":"yes","recycling_type":"container"}},"type":"Feature"},
	{"geometry":{"coordinates":[6.278791,50.814399],"type":"Point"},"properties":{"osm_id":"318710382","tag":{"amenity":"recycling","recycling:clothes":"yes","recycling:glass":"yes","recycling_type":"container"}},"type":"Feature"},
	{"geometry":{"coordinates":[6.249044,50.810523],"type":"Point"},"properties":{"osm_id":"325836333","tag":{"amenity":"recycling","recycling:glass":"yes","recycling_type":"container"}},"type":"Feature"},
	{"geometry":{"coordinates":[6.281783,50.821555],"type":"Point"},"properties":{"osm_id":"327382955","tag":{"amenity":"recycling","recycling:glass":"yes","recycling_type":"container"}},"type":"Feature"},
	{"geometry":{"coordinates":[6.259279,50.81205],"type":"Point"},"properties":{"osm_id":"340356398","tag":{"amenity":"recycling","recycling:clothes":"yes","recycling:glass":"yes","recycling_type":"container"}},"type":"Feature"},
	{"geometry":{"coordinates":[6.261973,50.814802],"type":"Point"},"properties":{"osm_id":"340356419","tag":{"amenity":"recycling","recycling:glass":"yes","recycling_type":"container"}},"type":"Feature"},
	{"geometry":{"coordinates":[6.259549,50.813164],"type":"Point"},"properties":{"osm_id":"344416631","tag":{"amenity":"recycling","recycling:clothes":"yes","recycling_type":"container"}},"type":"Feature"},
	{"geometry":{"coordinates":[6.250731,50.815405],"type":"Point"},"properties":{"osm_id":"345584738","tag":{"amenity":"recycling","recycling:glass":"yes","recycling_type":"container"}},"type":"Feature"},
	{"geometry":{"coordinates":[6.270654,50.817448],"type":"Point"},"properties":{"osm_id":"348341902","tag":{"amenity":"recycling"}},"type":"Feature"},
	{"geometry":{"coordinates":[6.288101,50.80974],"type":"Point"},"properties":{"osm_id":"348350469","tag":{"amenity":"recycling","recycling:glass_bottles":"yes","recycling_type":"container"}},"type":"Feature"},
	{"geometry":{"coordinates":[6.262062,50.809607],"type":"Point"},"properties":{"osm_id":"349080497","tag":{"amenity":"recycling","recycling:clothes":"yes","recycling:glass":"yes"}},"type":"Feature"},
	{"geometry":{"coordinates":[6.274316,50.807464],"type":"Point"},"properties":{"osm_id":"350176004","tag":{"amenity":"recycling","recycling:glass":"yes"}},"type":"Feature"},
	{"geometry":{"coordinates":[6.253117,50.819999],"type":"Point"},"properties":{"osm_id":"352763377","tag":{"amenity":"recycling","recycling_type":"container"}},"type":"Feature"},
	{"geometry":{"coordinates":[6.324553,50.820313],"type":"Point"},"properties":{"osm_id":"353021773","tag":{"amenity":"recycling","recycling:glass_bottles":"yes","recycling_type":"container"}},"type":"Feature"},
	{"geometry":{"coordinates":[6.315258,50.826021],"type":"Point"},"properties":{"osm_id":"353027889","tag":{"amenity":"recycling","recycling:glass":"yes","recycling_type":"container"}},"type":"Feature"},
	{"geometry":{"coordinates":[6.278515,50.820781],"type":"Point"},"properties":{"osm_id":"353180502","tag":{"amenity":"recycling","recycling:clothes":"yes","recycling:glass":"yes","recycling_type":"container"}},"type":"Feature"},
	{"geometry":{"coordinates":[6.263731,50.822561],"type":"Point"},"properties":{"osm_id":"354885819","tag":{"amenity":"recycling","location":"overground","recycling_type":"container"}},"type":"Feature"},
	{"geometry":{"coordinates":[6.282342,50.798479],"type":"Point"},"properties":{"osm_id":"362316518","tag":{"amenity":"recycling","recycling:glass_bottles":"yes","recycling_type":"container"}},"type":"Feature"},
	{"geometry":{"coordinates":[6.248482,50.806338],"type":"Point"},"properties":{"osm_id":"367917822","tag":{"amenity":"recycling","recycling:clothes":"yes","recycling:glass":"yes"}},"type":"Feature"},
	{"geometry":{"coordinates":[6.265252,50.824405],"type":"Point"},"properties":{"osm_id":"368980318","tag":{"amenity":"recycling","recycling:glass_bottles":"yes","recycling_type":"container"}},"type":"Feature"},
	{"geometry":{"coordinates":[6.259769,50.821204],"type":"Point"},"properties":{"osm_id":"370522899","tag":{"amenity":"recycling","recycling_type":"container"}},"type":"Feature"},
	{"geometry":{"coordinates":[6.279314,50.823581],"type":"Point"},"properties":{"osm_id":"371187733","tag":{"amenity":"recycling","recycling_type":"container"}},"type":"Feature"},
	{"geometry":{"coordinates":[6.282314,50.817772],"type":"Point"},"properties":{"osm_id":"371204301","tag":{"amenity":"recycling","recycling_type":"container"}},"type":"Feature"},
	{"geometry":{"coordinates":[6.243913,50.838707],"type":"Point"},"properties":{"osm_id":"379912048","tag":{"amenity":"recycling"}},"type":"Feature"},
	{"geometry":{"coordinates":[6.316019,50.827335],"type":"Point"},"properties":{"osm_id":"386006822","tag":{"amenity":"recycling","recycling:glass_bottles":"yes","recycling_type":"container"}},"type":"Feature"},
	{"geometry":{"coordinates":[6.322554,50.830037],"type":"Point"},"properties":{"osm_id":"387696230","tag":{"amenity":"recycling","recycling:glass_bottles":"yes","recycling_type":"container"}},"type":"Feature"},
	{"geometry":{"coordinates":[6.270073,50.810495],"type":"Point"},"properties":{"osm_id":"390954151","tag":{"amenity":"recycling","recycling_type":"container"}},"type":"Feature"},
	{"geometry":{"coordinates":[6.312466,50.818882],"type":"Point"},"properties":{"osm_id":"391266992","tag":{"amenity":"recycling","recycling:glass_bottles":"yes","recycling_type":"container"}},"type":"Feature"},
	{"geometry":{"coordinates":[6.288191,50.792261],"type":"Point"},"properties":{"osm_id":"392639848","tag":{"amenity":"recycling","recycling:clothes":"yes","recycling:glass_bottles":"yes","recycling_type":"container"}},"type":"Feature"},
	{"geometry":{"coordinates":[6.243779,50.803923],"type":"Point"},"properties":{"osm_id":"405659539","tag":{"amenity":"recycling"}},"type":"Feature"},
	{"geometry":{"coordinates":[6.245565,50.795399],"type":"Point"},"properties":{"osm_id":"411286184","tag":{"amenity":"recycling","recycling:glass_bottles":"yes","recycling_type":"container"}},"type":"Feature"},
	{"geometry":{"coordinates":[6.273435,50.835512],"type":"Point"},"properties":{"osm_id":"412279846","tag":{"amenity":"recycling","recycling_type":"container"}},"type":"Feature"},
	{"geometry":{"coordinates":[6.275529,50.838521],"type":"Point"},"properties":{"osm_id":"412752949","tag":{"amenity":"recycling","recycling_type":"container"}},"type":"Feature"},
	{"geometry":{"coordinates":[6.294879,50.820254],"type":"Point"},"properties":{"osm_id":"420531818","tag":{"amenity":"recycling","location":"overground","recycling:clothes":"yes","recycling_type":"container"}},"type":"Feature"},
	{"geometry":{"coordinates":[6.284144,50.804447],"type":"Point"},"properties":{"osm_id":"427912824","tag":{"amenity":"recycling","recycling:clothes":"yes","recycling:glass_bottles":"yes","recycling_type":"container"}},"type":"Feature"},
	{"geometry":{"coordinates":[6.265763,50.816923],"type":"Point"},"properties":{"osm_id":"436578145","tag":{"amenity":"waste_basket"}},"type":"Feature"},
	{"geometry":{"coordinates":[6.241007,50.803568],"type":"Point"},"properties":{"osm_id":"495290539","tag":{"amenity":"recycling","recycling:clothes":"yes","recycling_type":"container"}},"type":"Feature"},
	{"geometry":{"coordinates":[6.287489,50.807202],"type":"Point"},"properties":{"osm_id":"517777895","tag":{"amenity":"recycling","recycling:clothes":"yes","recycling_type":"container"}},"type":"Feature"},
	{"geometry":{"coordinates":[6.258372,50.818203],"type":"Point"},"properties":{"osm_id":"526239743","tag":{"amenity":"recycling","recycling:clothes":"yes","recycling_type":"container"}},"type":"Feature"},
	{"geometry":{"coordinates":[6.27033,50.819267],"type":"Point"},"properties":{"osm_id":"603854340","tag":{"amenity":"waste_basket"}},"type":"Feature"},
	{"geometry":{"coordinates":[6.324824,50.819926],"type":"Point"},"properties":{"osm_id":"606958921","tag":{"amenity":"recycling","recycling:clothes":"yes","recycling_type":"container"}},"type":"Feature"},
	{"geometry":{"coordinates":[6.269043,50.792747],"type":"Point"},"properties":{"osm_id":"701727008","tag":{"amenity":"waste_basket"}},"type":"Feature"},
	{"geometry":{"coordinates":[6.274263,50.792999],"type":"Point"},"properties":{"osm_id":"701727019","tag":{"amenity":"waste_basket"}},"type":"Feature"},
	{"geometry":{"coordinates":[6.274274,50.792889],"type":"Point"},"properties":{"osm_id":"701727023","tag":{"amenity":"waste_basket"}},"type":"Feature"},
	{"geometry":{"coordinates":[6.25592,50.799655],"type":"Point"},"properties":{"osm_id":"715824718","tag":{"amenity":"waste_basket"}},"type":"Feature"},
	{"geometry":{"coordinates":[6.256147,50.799666],"type":"Point"},"properties":{"osm_id":"715824730","tag":{"amenity":"waste_basket"}},"type":"Feature"},
	{"geometry":{"coordinates":[6.25623,50.799431],"type":"Point"},"properties":{"osm_id":"715824741","tag":{"amenity":"waste_basket"}},"type":"Feature"},
	{"geometry":{"coordinates":[6.303761,50.795903],"type":"Point"},"properties":{"osm_id":"737843079","tag":{"amenity":"waste_basket"}},"type":"Feature"},
	{"geometry":{"coordinates":[6.265571,50.814502],"type":"Point"},"properties":{"osm_id":"746269502","tag":{"amenity":"waste_basket"}},"type":"Feature"},
	{"geometry":{"coordinates":[6.264846,50.815069],"type":"Point"},"properties":{"osm_id":"746269503","tag":{"amenity":"waste_basket"}},"type":"Feature"},
	{"geometry":{"coordinates":[6.270573,50.8127],"type":"Point"},"properties":{"osm_id":"746269513","tag":{"amenity":"recycling","recycling:clothes":"yes","recycling_type":"container"}},"type":"Feature"},
	{"geometry":{"coordinates":[6.29572,50.809922],"type":"Point"},"properties":{"osm_id":"746269514","tag":{"amenity":"recycling","recycling:clothes":"yes","recycling_type":"container"}},"type":"Feature"},
	{"geometry":{"coordinates":[6.26508,50.815445],"type":"Point"},"properties":{"osm_id":"746269519","tag":{"amenity":"waste_basket"}},"type":"Feature"},
	{"geometry":{"coordinates":[6.260297,50.820899],"type":"Point"},"properties":{"osm_id":"748170440","tag":{"amenity":"recycling","recycling:glass":"yes","recycling_type":"container"}},"type":"Feature"},
	{"geometry":{"coordinates":[6.28138,50.821472],"type":"Point"},"properties":{"osm_id":"755829515","tag":{"amenity":"recycling","recycling:glass":"yes","recycling_type":"container"}},"type":"Feature"},
	{"geometry":{"coordinates":[6.257513,50.820505],"type":"Point"},"properties":{"osm_id":"766753699","tag":{"amenity":"recycling","recycling:clothes":"yes","recycling:glass":"yes","recycling_type":"container"}},"type":"Feature"},
	{"geometry":{"coordinates":[6.264344,50.814913],"type":"Point"},"properties":{"osm_id":"769826130","tag":{"amenity":"waste_basket"}},"type":"Feature"},
	{"geometry":{"coordinates":[6.264989,50.815488],"type":"Point"},"properties":{"osm_id":"769826132","tag":{"amenity":"waste_basket"}},"type":"Feature"},
	{"geometry":{"coordinates":[6.264282,50.81481],"type":"Point"},"properties":{"osm_id":"769826141","tag":{"amenity":"waste_basket"}},"type":"Feature"},
	{"geometry":{"coordinates":[6.259733,50.820985],"type":"Point"},"properties":{"osm_id":"774003851","tag":{"amenity":"waste_basket"}},"type":"Feature"},
	{"geometry":{"coordinates":[6.267377,50.814054],"type":"Point"},"properties":{"osm_id":"786875022","tag":{"amenity":"recycling","recycling:glass":"yes","recycling_type":"container"}},"type":"Feature"},
	{"geometry":{"coordinates":[6.264191,50.817407],"type":"Point"},"properties":{"osm_id":"885960562","tag":{"amenity":"waste_basket"}},"type":"Feature"},
	{"geometry":{"coordinates":[6.264244,50.817276],"type":"Point"},"properties":{"osm_id":"885960594","tag":{"amenity":"waste_basket"}},"type":"Feature"},
	{"geometry":{"coordinates":[6.250352,50.794223],"type":"Point"},"properties":{"osm_id":"917040640","tag":{"amenity":"waste_basket"}},"type":"Feature"},
	{"geometry":{"coordinates":[6.268186,50.843086],"type":"Point"},"properties":{"osm_id":"922650982","tag":{"amenity":"waste_basket"}},"type":"Feature"},
	{"geometry":{"coordinates":[6.276268,50.844991],"type":"Point"},"properties":{"osm_id":"922651107","tag":{"amenity":"waste_basket","waste":"trash"}},"type":"Feature"},
	{"geometry":{"coordinates":[6.276307,50.845348],"type":"Point"},"properties":{"osm_id":"922651307","tag":{"amenity":"waste_basket","waste":"trash"}},"type":"Feature"},
	{"geometry":{"coordinates":[6.269898,50.840587],"type":"Point"},"properties":{"osm_id":"922657011","tag":{"amenity":"recycling","recycling:glass":"yes","recycling_type":"container"}},"type":"Feature"},
	{"geometry":{"coordinates":[6.25636,50.798437],"type":"Point"},"properties":{"osm_id":"937848349","tag":{"amenity":"waste_basket"}},"type":"Feature"},
	{"geometry":{"coordinates":[6.257463,50.797643],"type":"Point"},"properties":{"osm_id":"937848439","tag":{"amenity":"waste_basket"}},"type":"Feature"},
	{"geometry":{"coordinates":[6.276159,50.841224],"type":"Point"},"properties":{"osm_id":"945182177","tag":{"amenity":"waste_basket"}},"type":"Feature"},
	{"geometry":{"coordinates":[6.27533,50.841139],"type":"Point"},"properties":{"osm_id":"945182183","tag":{"amenity":"waste_basket"}},"type":"Feature"},
	{"geometry":{"coordinates":[6.275198,50.841126],"type":"Point"},"properties":{"osm_id":"945182197","tag":{"amenity":"waste_basket"}},"type":"Feature"},
	{"geometry":{"coordinates":[6.265341,50.817394],"type":"Point"},"properties":{"osm_id":"945182199","tag":{"amenity":"waste_basket"}},"type":"Feature"},
	{"geometry":{"coordinates":[6.25209,50.793114],"type":"Point"},"properties":{"osm_id":"955874615","tag":{"amenity":"waste_basket"}},"type":"Feature"},
	{"geometry":{"coordinates":[6.251847,50.793528],"type":"Point"},"properties":{"osm_id":"955874665","tag":{"amenity":"waste_basket"}},"type":"Feature"},
	{"geometry":{"coordinates":[6.265332,50.817307],"type":"Point"},"properties":{"osm_id":"960376176","tag":{"amenity":"waste_basket"}},"type":"Feature"},
	{"geometry":{"coordinates":[6.265727,50.817396],"type":"Point"},"properties":{"osm_id":"1024585013","tag":{"amenity":"waste_basket"}},"type":"Feature"},
	{"geometry":{"coordinates":[6.265718,50.817309],"type":"Point"},"properties":{"osm_id":"1024585014","tag":{"amenity":"waste_basket"}},"type":"Feature"},
	{"geometry":{"coordinates":[6.279875,50.834422],"type":"Point"},"properties":{"osm_id":"1577879534","tag":{"amenity":"recycling","recycling:batteries":"no","recycling:books":"no","recycling:cans":"no","recycling:cardboard":"no","recycling:cartons":"no","recycling:electrical_appliances":"no","recycling:glass":"yes","recycling:glass_bottles":"yes","recycling:green_waste":"no","recycling:magazines":"no","recycling:newspaper":"no","recycling:paper":"no","recycling:paper_packaging":"no","recycling:plastic":"no","recycling:plastic_bottles":"no","recycling:plastic_packaging":"no","recycling:scrap_metal":"no","recycling:small_appliances":"no","recycling:waste":"no","recycling:wood":"no","recycling_type":"container"}},"type":"Feature"},
	{"geometry":{"coordinates":[6.251941,50.81763],"type":"Point"},"properties":{"osm_id":"4241008537","tag":{"amenity":"waste_basket"}},"type":"Feature"},
	{"geometry":{"coordinates":[6.251727,50.817686],"type":"Point"},"properties":{"osm_id":"4241008540","tag":{"amenity":"waste_basket","level":"0"}},"type":"Feature"},
	{"geometry":{"coordinates":[6.292991,50.812637],"type":"Point"},"properties":{"osm_id":"4826021048","tag":{"amenity":"recycling","recycling:clothes":"yes","recycling:shoes":"yes","recycling_type":"container"}},"type":"Feature"},
	{"geometry":{"coordinates":[6.293774,50.812786],"type":"Point"},"properties":{"osm_id":"4826044672","tag":{"amenity":"waste_basket","level":"0"}},"type":"Feature"},
	{"geometry":{"coordinates":[6.25212,50.817519],"type":"Point"},"properties":{"osm_id":"4830832188","tag":{"amenity":"recycling","recycling:clothes":"yes","recycling:shoes":"yes","recycling_type":"container"}},"type":"Feature"},
	{"geometry":{"coordinates":[6.321093,50.824807],"type":"Point"},"properties":{"osm_id":"5001976773","tag":{"amenity":"recycling","recycling:clothes":"yes","recycling:shoes":"yes","recycling_type":"container"}},"type":"Feature"},
	{"geometry":{"coordinates":[6.262752,50.820028],"type":"Point"},"properties":{"osm_id":"5016816686","tag":{"amenity":"waste_basket"}},"type":"Feature"},
	{"geometry":{"coordinates":[6.261905,50.819895],"type":"Point"},"properties":{"osm_id":"5016816687","tag":{"amenity":"waste_basket"}},"type":"Feature"},
	{"geometry":{"coordinates":[6.319906,50.823862],"type":"Point"},"properties":{"osm_id":"5066436840","tag":{"amenity":"waste_basket"}},"type":"Feature"},
	{"geometry":{"coordinates":[6.319559,50.823604],"type":"Point"},"properties":{"osm_id":"5066436848","tag":{"amenity":"waste_basket"}},"type":"Feature"},
	{"geometry":{"coordinates":[6.252744,50.813575],"type":"Point"},"properties":{"osm_id":"5147932624","tag":{"amenity":"recycling","mapillary":"lI2uGhihLniC6AhsAdNhZA","recycling:clothes":"yes","recycling:shoes":"yes","recycling_type":"container"}},"type":"Feature"},
	{"geometry":{"coordinates":[6.27755,50.844681],"type":"Point"},"properties":{"osm_id":"7757206729","tag":{"amenity":"waste_basket","waste":"trash"}},"type":"Feature"},
	{"geometry":{"coordinates":[6.277089,50.844557],"type":"Point"},"properties":{"osm_id":"7757206730","tag":{"amenity":"waste_basket","waste":"trash"}},"type":"Feature"},
	{"geometry":{"coordinates":[6.27832,50.844484],"type":"Point"},"properties":{"osm_id":"7757206731","tag":{"amenity":"waste_basket","waste":"trash"}},"type":"Feature"},
	{"geometry":{"coordinates":[6.277612,50.844339],"type":"Point"},"properties":{"osm_id":"7757206732","tag":{"amenity":"waste_basket","waste":"trash"}},"type":"Feature"},
	{"geometry":{"coordinates":[6.278286,50.844243],"type":"Point"},"properties":{"osm_id":"7757206733","tag":{"amenity":"waste_basket","waste":"trash"}},"type":"Feature"},
	{"geometry":{"coordinates":[6.276439,50.844459],"type":"Point"},"properties":{"osm_id":"7757206734","tag":{"amenity":"waste_basket","waste":"trash"}},"type":"Feature"},
	{"geometry":{"coordinates":[6.277226,50.844944],"type":"Point"},"properties":{"osm_id":"7757206735","tag":{"amenity":"waste_basket","waste":"trash"}},"type":"Feature"},
	{"geometry":{"coordinates":[6.276527,50.845152],"type":"Point"},"properties":{"osm_id":"7757206736","tag":{"amenity":"waste_basket","waste":"trash"}},"type":"Feature"},
	{"geometry":{"coordinates":[6.278349,50.844776],"type":"Point"},"properties":{"osm_id":"7757206737","tag":{"amenity":"waste_basket","waste":"trash"}},"type":"Feature"},
	{"geometry":{"coordinates":[6.276267,50.845555],"type":"Point"},"properties":{"osm_id":"7757206738","tag":{"amenity":"waste_basket","waste":"trash"}},"type":"Feature"},
	{"geometry":{"coordinates":[6.280979,50.844083],"type":"Point"},"properties":{"osm_id":"7757206739","tag":{"amenity":"waste_basket","waste":"trash"}},"type":"Feature"},
	{"geometry":{"coordinates":[6.260663,50.820372],"type":"Point"},"properties":{"osm_id":"7914337337","tag":{"amenity":"recycling","recycling:glass":"yes","recycling_type":"container"}},"type":"Feature"},
	{"geometry":{"coordinates":[6.265372,50.82447],"type":"Point"},"properties":{"osm_id":"7914378895","tag":{"amenity":"recycling","recycling:clothes":"yes","recycling_type":"container"}},"type":"Feature"},
	{"geometry":{"coordinates":[6.272453,50.815126],"type":"Point"},"properties":{"osm_id":"7926263676","tag":{"amenity":"waste_basket"}},"type":"Feature"}
]
}
