{
"type": "FeatureCollection",
"features": [
	{"geometry":{"coordinates":[6.280314,49.110017],"type":"Point"},"properties":{"osm_id":"452238961","tag":{"amenity":"recycling","description":"Point d'apport volontaire du verre","operator":"SIVOM de Pange et environs","recycling:glass_bottles":"yes","recycling_type":"container"}},"type":"Feature"},
	{"geometry":{"coordinates":[6.285126,49.112666],"type":"Point"},"properties":{"osm_id":"452238962","tag":{"addr:city":"Coincy","addr:postcode":"57530","amenity":"recycling","description":"Point d'apport volontaire du verre","operator":"SIVOM de Pange et environs","recycling:glass_bottles":"yes","recycling_type":"container"}},"type":"Feature"},
	{"geometry":{"coordinates":[6.245598,49.106737],"type":"Point"},"properties":{"name":"D\u00c3\u00a9chetterie de Metz-Borny","osm_id":"1720401315","tag":{"amenity":"recycling","opening_hours":"Mo 14:00-18:30; Tu-We 09:30-18:30; Th 14:00-18:30; Fr-Sa 09:30-18:30; Su 09:30-12:30","opening_hours:covid19":"Mo,Th 14:00-18:30; Tu,We,Fr,Sa 09:30-18:30; Su 09:30-12:30","recycling:batteries":"yes","recycling:cartons":"yes","recycling:electrical_appliances":"yes","recycling:glass_bottles":"yes","recycling:green_waste":"yes","recycling:magazines":"yes","recycling:newspaper":"yes","recycling:paper":"yes","recycling:plastic":"yes","recycling:plastic_bottles":"yes","recycling:wood":"yes","recycling_type":"centre"}},"type":"Feature"},
	{"geometry":{"coordinates":[6.280307,49.109999],"type":"Point"},"properties":{"osm_id":"3662002069","tag":{"amenity":"waste_basket"}},"type":"Feature"},
	{"geometry":{"coordinates":[6.297046,49.098727],"type":"Point"},"properties":{"osm_id":"4042895926","tag":{"amenity":"recycling","recycling:glass":"yes","recycling_type":"container"}},"type":"Feature"},
	{"geometry":{"coordinates":[6.307564,49.135773],"type":"Point"},"properties":{"osm_id":"4062774176","tag":{"amenity":"recycling","recycling:glass_bottles":"yes","recycling_type":"container"}},"type":"Feature"},
	{"geometry":{"coordinates":[6.304093,49.134627],"type":"Point"},"properties":{"osm_id":"4063567590","tag":{"amenity":"waste_basket"}},"type":"Feature"},
	{"geometry":{"coordinates":[6.28017,49.121115],"type":"Point"},"properties":{"osm_id":"4136241229","tag":{"amenity":"waste_basket"}},"type":"Feature"},
	{"geometry":{"coordinates":[6.24143,49.098759],"type":"Point"},"properties":{"osm_id":"6399660639","tag":{"amenity":"recycling","location":"underground","recycling_type":"container"}},"type":"Feature"},
	{"geometry":{"coordinates":[6.301592,49.149288],"type":"Point"},"properties":{"osm_id":"7015078272","tag":{"amenity":"recycling","recycling:paper":"yes","recycling_type":"container"}},"type":"Feature"},
	{"geometry":{"coordinates":[6.301579,49.149303],"type":"Point"},"properties":{"osm_id":"7015078273","tag":{"amenity":"recycling","recycling:glass_bottles":"yes","recycling_type":"container"}},"type":"Feature"},
	{"geometry":{"coordinates":[6.246986,49.110268],"type":"Point"},"properties":{"name":"Recyclage des mat\u00c3\u00a9riaux du b\u00c3\u00a2timent","osm_id":"7727531697","tag":{"amenity":"recycling","recycling_type":"centre","ref:FR:NAF":"3832Z","ref:FR:SIREN":"441241569","ref:FR:SIRET":"44124156900017"}},"type":"Feature"},
	{"geometry":{"coordinates":[6.273869,49.115844],"type":"Point"},"properties":{"osm_id":"7734934256","tag":{"amenity":"recycling","recycling_type":"container"}},"type":"Feature"},
	{"geometry":{"coordinates":[6.284477,49.110663],"type":"Point"},"properties":{"osm_id":"7734982681","tag":{"amenity":"waste_basket","waste":"trash"}},"type":"Feature"},
	{"geometry":{"coordinates":[6.300078,49.137525],"type":"Point"},"properties":{"osm_id":"8043121795","tag":{"amenity":"recycling","recycling:glass_bottles":"yes","recycling_type":"container"}},"type":"Feature"},
	{"geometry":{"coordinates":[6.307084,49.134584],"type":"Point"},"properties":{"osm_id":"8043121809","tag":{"amenity":"recycling","recycling:glass_bottles":"yes","recycling_type":"container"}},"type":"Feature"}
]
}
