{
"type": "FeatureCollection",
"features": [
	{"geometry":{"coordinates":[6.317868,48.634773],"type":"Point"},"properties":{"osm_id":"1320938141","tag":{"amenity":"recycling","mapillary":"jKZ5ji_7Gp8kH4xEyFh8Og","recycling:glass_bottles":"yes","recycling_type":"container","survey:date":"2017-07-27"}},"type":"Feature"},
	{"geometry":{"coordinates":[6.244379,48.688307],"type":"Point"},"properties":{"osm_id":"2551793429","tag":{"amenity":"recycling","recycling:glass_bottles":"yes","recycling_type":"container"}},"type":"Feature"},
	{"geometry":{"coordinates":[6.2444,48.688314],"type":"Point"},"properties":{"osm_id":"2551793433","tag":{"amenity":"recycling","recycling:glass_bottles":"yes","recycling_type":"container"}},"type":"Feature"},
	{"geometry":{"coordinates":[6.244423,48.688328],"type":"Point"},"properties":{"osm_id":"2551793437","tag":{"amenity":"recycling","recycling:paper":"yes","recycling_type":"container"}},"type":"Feature"},
	{"geometry":{"coordinates":[6.244443,48.688336],"type":"Point"},"properties":{"osm_id":"2551793440","tag":{"amenity":"recycling","recycling:paper":"yes","recycling_type":"container"}},"type":"Feature"},
	{"geometry":{"coordinates":[6.24124,48.685162],"type":"Point"},"properties":{"osm_id":"3064081339","tag":{"amenity":"recycling","recycling:glass_bottles":"yes","recycling_type":"container"}},"type":"Feature"},
	{"geometry":{"coordinates":[6.241266,48.685169],"type":"Point"},"properties":{"osm_id":"3064081340","tag":{"amenity":"recycling","recycling:paper":"yes","recycling_type":"container"}},"type":"Feature"},
	{"geometry":{"coordinates":[6.246534,48.670016],"type":"Point"},"properties":{"osm_id":"3213150091","tag":{"amenity":"recycling","recycling:paper":"yes","recycling_type":"container"}},"type":"Feature"},
	{"geometry":{"coordinates":[6.246518,48.670032],"type":"Point"},"properties":{"osm_id":"3213150092","tag":{"amenity":"recycling","recycling:paper":"yes","recycling_type":"container"}},"type":"Feature"},
	{"geometry":{"coordinates":[6.246596,48.670089],"type":"Point"},"properties":{"osm_id":"3213150093","tag":{"amenity":"recycling","recycling:clothes":"yes","recycling:shoes":"yes","recycling_type":"container"}},"type":"Feature"},
	{"geometry":{"coordinates":[6.246618,48.670103],"type":"Point"},"properties":{"osm_id":"3213150094","tag":{"amenity":"recycling","recycling:glass_bottles":"yes","recycling_type":"container"}},"type":"Feature"},
	{"geometry":{"coordinates":[6.266985,48.652425],"type":"Point"},"properties":{"osm_id":"3221492359","tag":{"amenity":"recycling","recycling:glass_bottles":"yes","recycling_type":"container"}},"type":"Feature"},
	{"geometry":{"coordinates":[6.266962,48.65243],"type":"Point"},"properties":{"osm_id":"3221492360","tag":{"amenity":"recycling","recycling:paper":"yes","recycling_type":"container"}},"type":"Feature"},
	{"geometry":{"coordinates":[6.270098,48.659238],"type":"Point"},"properties":{"osm_id":"3221715439","tag":{"amenity":"recycling","recycling:clothes":"yes","recycling:shoes":"yes","recycling_type":"container"}},"type":"Feature"},
	{"geometry":{"coordinates":[6.27008,48.659298],"type":"Point"},"properties":{"osm_id":"3221715440","tag":{"amenity":"recycling","recycling:paper":"yes","recycling_type":"container"}},"type":"Feature"},
	{"geometry":{"coordinates":[6.270076,48.659314],"type":"Point"},"properties":{"osm_id":"3221715441","tag":{"amenity":"recycling","recycling:glass_bottles":"yes","recycling_type":"container"}},"type":"Feature"},
	{"geometry":{"coordinates":[6.241803,48.675539],"type":"Point"},"properties":{"osm_id":"4395359298","tag":{"amenity":"recycling","recycling:clothes":"yes","recycling:shoes":"yes","recycling_type":"container"}},"type":"Feature"},
	{"geometry":{"coordinates":[6.241995,48.675544],"type":"Point"},"properties":{"osm_id":"4395359299","tag":{"amenity":"recycling","recycling:paper":"yes","recycling_type":"container"}},"type":"Feature"},
	{"geometry":{"coordinates":[6.241805,48.675552],"type":"Point"},"properties":{"osm_id":"4395359301","tag":{"amenity":"recycling","recycling:clothes":"yes","recycling:shoes":"yes","recycling_type":"container"}},"type":"Feature"},
	{"geometry":{"coordinates":[6.241996,48.67556],"type":"Point"},"properties":{"osm_id":"4395359302","tag":{"amenity":"recycling","recycling:glass_bottles":"yes","recycling_type":"container"}},"type":"Feature"},
	{"geometry":{"coordinates":[6.245201,48.676155],"type":"Point"},"properties":{"osm_id":"4395831814","tag":{"amenity":"waste_disposal","waste":"trash"}},"type":"Feature"},
	{"geometry":{"coordinates":[6.245546,48.676187],"type":"Point"},"properties":{"osm_id":"4395831815","tag":{"amenity":"recycling","recycling:paper":"yes","recycling_type":"container"}},"type":"Feature"},
	{"geometry":{"coordinates":[6.245658,48.676201],"type":"Point"},"properties":{"osm_id":"4395831816","tag":{"amenity":"recycling","recycling:glass_bottles":"yes","recycling_type":"container"}},"type":"Feature"},
	{"geometry":{"coordinates":[6.266779,48.655997],"type":"Point"},"properties":{"osm_id":"4784420708","tag":{"amenity":"waste_basket"}},"type":"Feature"},
	{"geometry":{"coordinates":[6.267914,48.655544],"type":"Point"},"properties":{"osm_id":"4784420715","tag":{"amenity":"waste_basket"}},"type":"Feature"},
	{"geometry":{"coordinates":[6.242075,48.647541],"type":"Point"},"properties":{"osm_id":"4922725188","tag":{"amenity":"recycling","recycling:glass_bottles":"yes","recycling_type":"container"}},"type":"Feature"},
	{"geometry":{"coordinates":[6.242056,48.647552],"type":"Point"},"properties":{"osm_id":"4922725189","tag":{"amenity":"recycling","recycling:glass_bottles":"yes","recycling_type":"container"}},"type":"Feature"},
	{"geometry":{"coordinates":[6.242006,48.647636],"type":"Point"},"properties":{"osm_id":"4922725190","tag":{"amenity":"recycling","recycling:paper":"yes","recycling_type":"container"}},"type":"Feature"},
	{"geometry":{"coordinates":[6.241983,48.647647],"type":"Point"},"properties":{"osm_id":"4922725191","tag":{"amenity":"recycling","recycling:clothes":"yes","recycling:shoes":"yes","recycling_type":"container"}},"type":"Feature"},
	{"geometry":{"coordinates":[6.241963,48.647656],"type":"Point"},"properties":{"osm_id":"4922725192","tag":{"amenity":"recycling","recycling:clothes":"yes","recycling:shoes":"yes","recycling_type":"container"}},"type":"Feature"},
	{"geometry":{"coordinates":[6.260096,48.64124],"type":"Point"},"properties":{"osm_id":"4922738753","tag":{"amenity":"recycling","recycling:glass_bottles":"yes","recycling_type":"container"}},"type":"Feature"},
	{"geometry":{"coordinates":[6.260105,48.641259],"type":"Point"},"properties":{"osm_id":"4922738754","tag":{"amenity":"recycling","recycling:paper":"yes","recycling_type":"container"}},"type":"Feature"},
	{"geometry":{"coordinates":[6.251485,48.643829],"type":"Point"},"properties":{"osm_id":"4922738772","tag":{"amenity":"waste_basket"}},"type":"Feature"},
	{"geometry":{"coordinates":[6.269826,48.639481],"type":"Point"},"properties":{"osm_id":"4922764666","tag":{"amenity":"recycling","recycling:glass_bottles":"yes","recycling_type":"container"}},"type":"Feature"},
	{"geometry":{"coordinates":[6.269793,48.639483],"type":"Point"},"properties":{"osm_id":"4922764667","tag":{"amenity":"recycling","recycling:paper":"yes","recycling_type":"container"}},"type":"Feature"},
	{"geometry":{"coordinates":[6.243181,48.682529],"type":"Point"},"properties":{"osm_id":"5015332856","tag":{"amenity":"recycling","recycling:clothes":"yes","recycling:shoes":"yes","recycling_type":"container"}},"type":"Feature"},
	{"geometry":{"coordinates":[6.243157,48.682522],"type":"Point"},"properties":{"osm_id":"5015332857","tag":{"amenity":"recycling","recycling:glass_bottles":"yes","recycling_type":"container"}},"type":"Feature"},
	{"geometry":{"coordinates":[6.243136,48.682514],"type":"Point"},"properties":{"osm_id":"5015332858","tag":{"amenity":"recycling","recycling:paper":"yes","recycling_type":"container"}},"type":"Feature"},
	{"geometry":{"coordinates":[6.244597,48.688377],"type":"Point"},"properties":{"osm_id":"5015370752","tag":{"amenity":"recycling","recycling:clothes":"yes","recycling:shoes":"yes","recycling_type":"container"}},"type":"Feature"},
	{"geometry":{"coordinates":[6.244612,48.688384],"type":"Point"},"properties":{"osm_id":"5015370753","tag":{"amenity":"recycling","recycling:clothes":"yes","recycling:shoes":"yes","recycling_type":"container"}},"type":"Feature"},
	{"geometry":{"coordinates":[6.2708,48.654987],"type":"Point"},"properties":{"osm_id":"5177090447","tag":{"amenity":"recycling","opening_hours":"24/7","recycling_type":"container","wheelchair":"yes"}},"type":"Feature"},
	{"geometry":{"coordinates":[6.270813,48.655005],"type":"Point"},"properties":{"osm_id":"5177090448","tag":{"amenity":"recycling","opening_hours":"24/7","recycling_type":"container","wheelchair":"yes"}},"type":"Feature"},
	{"geometry":{"coordinates":[6.26884,48.655619],"type":"Point"},"properties":{"osm_id":"5177090486","tag":{"amenity":"recycling","opening_hours":"24/7","recycling_type":"container","wheelchair":"yes"}},"type":"Feature"},
	{"geometry":{"coordinates":[6.268831,48.655637],"type":"Point"},"properties":{"osm_id":"5177090487","tag":{"amenity":"recycling","opening_hours":"24/7","recycling_type":"container","wheelchair":"yes"}},"type":"Feature"},
	{"geometry":{"coordinates":[6.271994,48.655373],"type":"Point"},"properties":{"osm_id":"5177090488","tag":{"amenity":"recycling","opening_hours":"24/7","recycling_type":"container","wheelchair":"yes"}},"type":"Feature"},
	{"geometry":{"coordinates":[6.272007,48.655399],"type":"Point"},"properties":{"osm_id":"5177090489","tag":{"amenity":"recycling","opening_hours":"24/7","recycling_type":"container","wheelchair":"yes"}},"type":"Feature"},
	{"geometry":{"coordinates":[6.269666,48.654597],"type":"Point"},"properties":{"osm_id":"5177090499","tag":{"amenity":"recycling","opening_hours":"24/7","recycling_type":"container","wheelchair":"yes"}},"type":"Feature"},
	{"geometry":{"coordinates":[6.269635,48.654587],"type":"Point"},"properties":{"osm_id":"5177090500","tag":{"amenity":"recycling","opening_hours":"24/7","recycling_type":"container","wheelchair":"yes"}},"type":"Feature"},
	{"geometry":{"coordinates":[6.269646,48.65462],"type":"Point"},"properties":{"osm_id":"5177090501","tag":{"amenity":"recycling","opening_hours":"24/7","recycling_type":"container","wheelchair":"yes"}},"type":"Feature"},
	{"geometry":{"coordinates":[6.269613,48.654608],"type":"Point"},"properties":{"osm_id":"5177090502","tag":{"amenity":"recycling","opening_hours":"24/7","recycling_type":"container","wheelchair":"yes"}},"type":"Feature"},
	{"geometry":{"coordinates":[6.26852,48.654119],"type":"Point"},"properties":{"osm_id":"5177090503","tag":{"amenity":"recycling","opening_hours":"24/7","recycling_type":"container","wheelchair":"yes"}},"type":"Feature"},
	{"geometry":{"coordinates":[6.268491,48.654105],"type":"Point"},"properties":{"osm_id":"5177090504","tag":{"amenity":"recycling","opening_hours":"24/7","recycling_type":"container","wheelchair":"yes"}},"type":"Feature"},
	{"geometry":{"coordinates":[6.267973,48.655],"type":"Point"},"properties":{"osm_id":"5177090514","tag":{"amenity":"recycling","opening_hours":"24/7","recycling_type":"container","wheelchair":"yes"}},"type":"Feature"},
	{"geometry":{"coordinates":[6.267952,48.65502],"type":"Point"},"properties":{"osm_id":"5177090515","tag":{"amenity":"recycling","opening_hours":"24/7","recycling_type":"container","wheelchair":"yes"}},"type":"Feature"},
	{"geometry":{"coordinates":[6.248539,48.690562],"type":"Point"},"properties":{"osm_id":"6130736817","tag":{"amenity":"waste_disposal"}},"type":"Feature"},
	{"geometry":{"coordinates":[6.248539,48.690541],"type":"Point"},"properties":{"osm_id":"6130736818","tag":{"amenity":"recycling","recycling:beverage_cartons":"yes","recycling:cans":"yes","recycling:cartons":"yes","recycling:plastic":"yes","recycling:plastic_packaging":"yes","recycling_type":"container"}},"type":"Feature"},
	{"geometry":{"coordinates":[6.248694,48.689454],"type":"Point"},"properties":{"osm_id":"6453203005","tag":{"amenity":"recycling","recycling:paper":"yes","recycling_type":"container"}},"type":"Feature"},
	{"geometry":{"coordinates":[6.248665,48.689464],"type":"Point"},"properties":{"osm_id":"6453203006","tag":{"amenity":"recycling","recycling:glass_bottles":"yes","recycling_type":"container"}},"type":"Feature"},
	{"geometry":{"coordinates":[6.248641,48.68947],"type":"Point"},"properties":{"osm_id":"6453203007","tag":{"amenity":"recycling","recycling:beverage_cartons":"yes","recycling:cans":"yes","recycling:cartons":"yes","recycling:plastic":"yes","recycling:plastic_packaging":"yes","recycling_type":"container"}},"type":"Feature"},
	{"geometry":{"coordinates":[6.248614,48.689476],"type":"Point"},"properties":{"osm_id":"6453203008","tag":{"amenity":"waste_disposal"}},"type":"Feature"},
	{"geometry":{"coordinates":[6.248589,48.689481],"type":"Point"},"properties":{"osm_id":"6453203009","tag":{"amenity":"waste_disposal"}},"type":"Feature"}
]
}
