{
"type": "FeatureCollection",
"features": [
	{"geometry":{"coordinates":[6.25181,46.744018],"type":"Point"},"properties":{"osm_id":"1874979281","tag":{"amenity":"recycling"}},"type":"Feature"},
	{"geometry":{"coordinates":[6.307762,46.750335],"type":"Point"},"properties":{"osm_id":"6483807490","tag":{"amenity":"recycling","recycling_type":"container"}},"type":"Feature"},
	{"geometry":{"coordinates":[6.275381,46.771729],"type":"Point"},"properties":{"osm_id":"7070277573","tag":{"access":"yes","amenity":"waste_disposal","waste":"glass"}},"type":"Feature"},
	{"geometry":{"coordinates":[6.273584,46.771098],"type":"Point"},"properties":{"osm_id":"7075572910","tag":{"amenity":"recycling","recycling_type":"container"}},"type":"Feature"},
	{"geometry":{"coordinates":[6.27042,46.770457],"type":"Point"},"properties":{"osm_id":"7075572911","tag":{"amenity":"recycling","recycling_type":"container"}},"type":"Feature"},
	{"geometry":{"coordinates":[6.26981,46.770725],"type":"Point"},"properties":{"osm_id":"7075572912","tag":{"amenity":"recycling","recycling_type":"container"}},"type":"Feature"},
	{"geometry":{"coordinates":[6.26991,46.770172],"type":"Point"},"properties":{"osm_id":"7075572913","tag":{"amenity":"recycling","recycling_type":"container"}},"type":"Feature"},
	{"geometry":{"coordinates":[6.295912,46.781371],"type":"Point"},"properties":{"highway":"street_lamp","osm_id":"7122215960","tag":{"light:lit":"dusk-dawn","light_source":"lantern","support":"pole"}},"type":"Feature"},
	{"geometry":{"coordinates":[6.280393,46.773689],"type":"Point"},"properties":{"osm_id":"7347514592","tag":{"amenity":"waste_basket","colour":"gray","material":"plastic","operator":"Mairie de Labergement Ste Marie","waste":"mixed"}},"type":"Feature"},
	{"geometry":{"coordinates":[6.282192,46.774339],"type":"Point"},"properties":{"osm_id":"7356431747","tag":{"amenity":"recycling","operator":"Mairie de Labergement Ste Marie","recycling:batteries":"yes","recycling_type":"container"}},"type":"Feature"},
	{"geometry":{"coordinates":[6.276298,46.771605],"type":"Point"},"properties":{"osm_id":"7363347397","tag":{"amenity":"waste_basket","colour":"green","material":"plastic","operator":"Mairie de Labergement Ste Marie","waste":"mixed"}},"type":"Feature"},
	{"geometry":{"coordinates":[6.276679,46.771763],"type":"Point"},"properties":{"osm_id":"7363535628","tag":{"amenity":"waste_basket","colour":"Beige","material":"wood","operator":"Mairie de Labergement Ste Marie","waste":"mixed"}},"type":"Feature"},
	{"geometry":{"coordinates":[6.296019,46.79286],"type":"Point"},"properties":{"osm_id":"7383344818","tag":{"amenity":"recycling","recycling_type":"container"}},"type":"Feature"},
	{"geometry":{"coordinates":[6.295991,46.792847],"type":"Point"},"properties":{"osm_id":"7383344819","tag":{"amenity":"recycling","recycling_type":"container"}},"type":"Feature"},
	{"geometry":{"coordinates":[6.295963,46.792834],"type":"Point"},"properties":{"osm_id":"7383344820","tag":{"amenity":"recycling","recycling_type":"container"}},"type":"Feature"},
	{"geometry":{"coordinates":[6.280292,46.772653],"type":"Point"},"properties":{"osm_id":"7406405620","tag":{"amenity":"waste_basket","colour":"Beige","material":"wood","operator":"Mairie de Labergement Ste Marie","waste":"mixed"}},"type":"Feature"},
	{"geometry":{"coordinates":[6.295858,46.781252],"type":"Point"},"properties":{"name":"Cartouches d'encre","osm_id":"7425039976","tag":{"amenity":"waste_disposal","waste":"iink_cartridges"}},"type":"Feature"},
	{"geometry":{"coordinates":[6.295843,46.78125],"type":"Point"},"properties":{"name":"Cartouches d'encre","osm_id":"7425039977","tag":{"amenity":"waste_disposal","waste":"iink_cartridges"}},"type":"Feature"},
	{"geometry":{"coordinates":[6.295827,46.781249],"type":"Point"},"properties":{"name":"Cartouches d'encre","osm_id":"7425039978","tag":{"amenity":"waste_disposal","waste":"iink_cartridges"}},"type":"Feature"},
	{"geometry":{"coordinates":[6.278284,46.789946],"type":"Point"},"properties":{"osm_id":"7468246440","tag":{"amenity":"waste_basket","material":"wood","waste":"mixed"}},"type":"Feature"},
	{"geometry":{"coordinates":[6.2556,46.755739],"type":"Point"},"properties":{"osm_id":"7486680506","tag":{"amenity":"waste_basket"}},"type":"Feature"},
	{"geometry":{"coordinates":[6.253223,46.755624],"type":"Point"},"properties":{"osm_id":"7486680508","tag":{"amenity":"waste_basket"}},"type":"Feature"},
	{"geometry":{"coordinates":[6.252809,46.755717],"type":"Point"},"properties":{"osm_id":"7486680509","tag":{"amenity":"waste_basket"}},"type":"Feature"},
	{"geometry":{"coordinates":[6.272977,46.767445],"type":"Point"},"properties":{"osm_id":"7588597631","tag":{"amenity":"waste_basket","waste":"mixed"}},"type":"Feature"},
	{"geometry":{"coordinates":[6.27266,46.771396],"type":"Point"},"properties":{"osm_id":"7588597657","tag":{"amenity":"waste_basket","waste":"mixed"}},"type":"Feature"},
	{"geometry":{"coordinates":[6.272944,46.767447],"type":"Point"},"properties":{"osm_id":"7743898285","tag":{"amenity":"waste_basket"}},"type":"Feature"},
	{"geometry":{"coordinates":[6.293999,46.792343],"type":"Point"},"properties":{"osm_id":"7743898386","tag":{"amenity":"recycling","recycling:cans":"yes","recycling:glass":"yes","recycling:paper":"yes","recycling_type":"container"}},"type":"Feature"}
]
}
