{
"type": "FeatureCollection",
"features": [
	{"geometry":{"coordinates":[6.310183,46.225851],"type":"Point"},"properties":{"osm_id":"918681104","tag":{"amenity":"recycling","recycling:glass_bottles":"yes","recycling:paper":"yes","recycling_type":"container"}},"type":"Feature"},
	{"geometry":{"coordinates":[6.316754,46.234529],"type":"Point"},"properties":{"osm_id":"918878112","tag":{"amenity":"recycling","recycling:glass_bottles":"yes","recycling:paper":"yes","recycling_type":"container"}},"type":"Feature"},
	{"geometry":{"coordinates":[6.250613,46.200996],"type":"Point"},"properties":{"osm_id":"1439756030","tag":{"amenity":"recycling","location":"underground","operator":"Sidefage","recycling_type":"container"}},"type":"Feature"},
	{"geometry":{"coordinates":[6.312061,46.235071],"type":"Point"},"properties":{"barrier":"gate","osm_id":"2884335466"},"type":"Feature"},
	{"geometry":{"coordinates":[6.31237,46.235496],"type":"Point"},"properties":{"barrier":"gate","osm_id":"2884335503"},"type":"Feature"},
	{"geometry":{"coordinates":[6.249229,46.203331],"type":"Point"},"properties":{"osm_id":"4113625833","tag":{"amenity":"waste_basket","waste":"trash"}},"type":"Feature"},
	{"geometry":{"coordinates":[6.254013,46.206852],"type":"Point"},"properties":{"osm_id":"4118757615","tag":{"amenity":"waste_basket"}},"type":"Feature"},
	{"geometry":{"coordinates":[6.249425,46.203665],"type":"Point"},"properties":{"osm_id":"4127025704","tag":{"amenity":"waste_basket"}},"type":"Feature"},
	{"geometry":{"coordinates":[6.248697,46.203272],"type":"Point"},"properties":{"osm_id":"4127025706","tag":{"amenity":"waste_basket"}},"type":"Feature"},
	{"geometry":{"coordinates":[6.24817,46.203168],"type":"Point"},"properties":{"osm_id":"4127025707","tag":{"amenity":"waste_basket"}},"type":"Feature"},
	{"geometry":{"coordinates":[6.244561,46.203489],"type":"Point"},"properties":{"osm_id":"4127031876","tag":{"amenity":"waste_basket"}},"type":"Feature"},
	{"geometry":{"coordinates":[6.247288,46.203439],"type":"Point"},"properties":{"osm_id":"4127032353","tag":{"amenity":"waste_basket"}},"type":"Feature"},
	{"geometry":{"coordinates":[6.249421,46.204304],"type":"Point"},"properties":{"osm_id":"4127036693","tag":{"amenity":"waste_basket"}},"type":"Feature"},
	{"geometry":{"coordinates":[6.253399,46.196928],"type":"Point"},"properties":{"osm_id":"4565386957","tag":{"amenity":"waste_basket","colour":"green"}},"type":"Feature"},
	{"geometry":{"coordinates":[6.252741,46.203892],"type":"Point"},"properties":{"osm_id":"4673690347","tag":{"amenity":"waste_basket"}},"type":"Feature"},
	{"geometry":{"coordinates":[6.243983,46.195394],"type":"Point"},"properties":{"osm_id":"4695552520","tag":{"amenity":"recycling","location":"underground","opening_hours":"24/7","operator":"Sidefage","recycling:glass_bottles":"yes","recycling:paper":"yes","recycling_type":"container"}},"type":"Feature"},
	{"geometry":{"coordinates":[6.244172,46.200147],"type":"Point"},"properties":{"osm_id":"4712008681","tag":{"amenity":"waste_basket"}},"type":"Feature"},
	{"geometry":{"coordinates":[6.240624,46.199353],"type":"Point"},"properties":{"osm_id":"4712272495","tag":{"amenity":"waste_basket"}},"type":"Feature"},
	{"geometry":{"coordinates":[6.241207,46.196703],"type":"Point"},"properties":{"osm_id":"4712970339","tag":{"amenity":"waste_basket","colour":"orange","waste":"trash"}},"type":"Feature"},
	{"geometry":{"coordinates":[6.244203,46.202269],"type":"Point"},"properties":{"osm_id":"4718229637","tag":{"amenity":"waste_basket"}},"type":"Feature"},
	{"geometry":{"coordinates":[6.244122,46.202281],"type":"Point"},"properties":{"osm_id":"4718229638","tag":{"amenity":"waste_basket"}},"type":"Feature"},
	{"geometry":{"coordinates":[6.243848,46.201136],"type":"Point"},"properties":{"osm_id":"4718235278","tag":{"amenity":"waste_basket"}},"type":"Feature"},
	{"geometry":{"coordinates":[6.24375,46.201155],"type":"Point"},"properties":{"osm_id":"4718235280","tag":{"amenity":"waste_basket"}},"type":"Feature"},
	{"geometry":{"coordinates":[6.240428,46.199515],"type":"Point"},"properties":{"osm_id":"4719373972","tag":{"amenity":"waste_basket"}},"type":"Feature"},
	{"geometry":{"coordinates":[6.240875,46.200885],"type":"Point"},"properties":{"osm_id":"4719374264","tag":{"amenity":"waste_basket"}},"type":"Feature"},
	{"geometry":{"coordinates":[6.247793,46.202362],"type":"Point"},"properties":{"osm_id":"4720792739","tag":{"amenity":"waste_basket"}},"type":"Feature"},
	{"geometry":{"coordinates":[6.247948,46.202463],"type":"Point"},"properties":{"osm_id":"4720792742","tag":{"amenity":"waste_basket"}},"type":"Feature"},
	{"geometry":{"coordinates":[6.246996,46.199908],"type":"Point"},"properties":{"osm_id":"4727692770","tag":{"amenity":"waste_basket"}},"type":"Feature"},
	{"geometry":{"coordinates":[6.247127,46.199924],"type":"Point"},"properties":{"osm_id":"4727692775","tag":{"amenity":"waste_basket"}},"type":"Feature"},
	{"geometry":{"coordinates":[6.246821,46.198951],"type":"Point"},"properties":{"osm_id":"4728374574","tag":{"amenity":"waste_basket"}},"type":"Feature"},
	{"geometry":{"coordinates":[6.24977,46.196152],"type":"Point"},"properties":{"osm_id":"4743872663","tag":{"amenity":"recycling","opening_hours":"24/7","operator":"Sidefage","recycling:glass_bottles":"yes","recycling_type":"container"}},"type":"Feature"},
	{"geometry":{"coordinates":[6.24036,46.200897],"type":"Point"},"properties":{"osm_id":"4975982595","tag":{"amenity":"waste_basket"}},"type":"Feature"},
	{"geometry":{"coordinates":[6.313668,46.236717],"type":"Point"},"properties":{"osm_id":"4986408008","tag":{"amenity":"recycling","location":"underground","operator":"Sidefage","recycling_type":"container"}},"type":"Feature"},
	{"geometry":{"coordinates":[6.24968,46.200389],"type":"Point"},"properties":{"osm_id":"5089461612","tag":{"amenity":"waste_basket"}},"type":"Feature"},
	{"geometry":{"coordinates":[6.251564,46.199568],"type":"Point"},"properties":{"osm_id":"5089488691","tag":{"amenity":"waste_basket"}},"type":"Feature"},
	{"geometry":{"coordinates":[6.242168,46.196259],"type":"Point"},"properties":{"osm_id":"5323697123","tag":{"amenity":"waste_basket","colour":"orange","waste":"trash"}},"type":"Feature"},
	{"geometry":{"coordinates":[6.247013,46.20152],"type":"Point"},"properties":{"osm_id":"5552723297","tag":{"amenity":"waste_basket"}},"type":"Feature"},
	{"geometry":{"coordinates":[6.249901,46.201578],"type":"Point"},"properties":{"osm_id":"5594249711","tag":{"amenity":"waste_basket"}},"type":"Feature"},
	{"geometry":{"coordinates":[6.253474,46.196843],"type":"Point"},"properties":{"osm_id":"5799833158","tag":{"amenity":"waste_basket","waste":"trash"}},"type":"Feature"},
	{"geometry":{"coordinates":[6.304014,46.249417],"type":"Point"},"properties":{"osm_id":"6308076509","tag":{"amenity":"waste_basket"}},"type":"Feature"},
	{"geometry":{"coordinates":[6.297226,46.219313],"type":"Point"},"properties":{"osm_id":"6478329918","tag":{"amenity":"recycling","operator":"Sidefage","recycling:glass_bottles":"yes","recycling:paper":"yes","recycling:plastic_bottles":"yes","recycling:scrap_metal":"yes","recycling_type":"container"}},"type":"Feature"},
	{"geometry":{"coordinates":[6.302448,46.224872],"type":"Point"},"properties":{"osm_id":"6481596784","tag":{"amenity":"recycling","recycling_type":"container"}},"type":"Feature"},
	{"geometry":{"coordinates":[6.241377,46.199877],"type":"Point"},"properties":{"osm_id":"6483531278","tag":{"amenity":"waste_basket"}},"type":"Feature"},
	{"geometry":{"coordinates":[6.249333,46.203665],"type":"Point"},"properties":{"osm_id":"6489443558","tag":{"amenity":"waste_basket"}},"type":"Feature"},
	{"geometry":{"coordinates":[6.24929,46.203482],"type":"Point"},"properties":{"osm_id":"6489443572","tag":{"amenity":"waste_basket"}},"type":"Feature"},
	{"geometry":{"coordinates":[6.24353,46.197482],"type":"Point"},"properties":{"osm_id":"6489460304","tag":{"amenity":"waste_basket"}},"type":"Feature"},
	{"geometry":{"coordinates":[6.249503,46.204068],"type":"Point"},"properties":{"osm_id":"6497553993","tag":{"amenity":"waste_basket"}},"type":"Feature"},
	{"geometry":{"coordinates":[6.262406,46.223765],"type":"Point"},"properties":{"osm_id":"6508672896","tag":{"amenity":"waste_basket"}},"type":"Feature"},
	{"geometry":{"coordinates":[6.249752,46.203578],"type":"Point"},"properties":{"osm_id":"6518898974","tag":{"amenity":"waste_basket"}},"type":"Feature"},
	{"geometry":{"coordinates":[6.3076,46.24427],"type":"Point"},"properties":{"osm_id":"6544485651","tag":{"amenity":"waste_basket"}},"type":"Feature"},
	{"geometry":{"coordinates":[6.251618,46.199452],"type":"Point"},"properties":{"osm_id":"6578319051","tag":{"amenity":"recycling","opening_hours":"24/7","operator":"Sidefage","recycling:glass_bottles":"yes","recycling_type":"container"}},"type":"Feature"},
	{"geometry":{"coordinates":[6.252033,46.197105],"type":"Point"},"properties":{"osm_id":"6579634241","tag":{"amenity":"waste_basket"}},"type":"Feature"},
	{"geometry":{"coordinates":[6.243967,46.195542],"type":"Point"},"properties":{"osm_id":"6579723248","tag":{"amenity":"waste_basket","waste":"trash"}},"type":"Feature"},
	{"geometry":{"coordinates":[6.246098,46.196274],"type":"Point"},"properties":{"osm_id":"6579723249","tag":{"amenity":"waste_basket","waste":"trash"}},"type":"Feature"},
	{"geometry":{"coordinates":[6.246636,46.196483],"type":"Point"},"properties":{"osm_id":"6579723252","tag":{"amenity":"waste_basket"}},"type":"Feature"},
	{"geometry":{"coordinates":[6.246877,46.196581],"type":"Point"},"properties":{"osm_id":"6579723253","tag":{"amenity":"waste_basket"}},"type":"Feature"},
	{"geometry":{"coordinates":[6.252349,46.197374],"type":"Point"},"properties":{"osm_id":"6591808192","tag":{"amenity":"waste_basket","colour":"green"}},"type":"Feature"},
	{"geometry":{"coordinates":[6.281125,46.214867],"type":"Point"},"properties":{"osm_id":"6594302750","tag":{"amenity":"recycling","location":"underground","opening_hours":"24/7","operator":"Sidefage","recycling:glass_bottles":"yes","recycling_type":"container"}},"type":"Feature"},
	{"geometry":{"coordinates":[6.249687,46.202089],"type":"Point"},"properties":{"osm_id":"6602401116","tag":{"amenity":"waste_basket"}},"type":"Feature"},
	{"geometry":{"coordinates":[6.248451,46.202378],"type":"Point"},"properties":{"osm_id":"6602401120","tag":{"amenity":"waste_basket","waste":"trash"}},"type":"Feature"},
	{"geometry":{"coordinates":[6.249298,46.201968],"type":"Point"},"properties":{"osm_id":"6602401125","tag":{"amenity":"waste_basket","waste":"trash"}},"type":"Feature"},
	{"geometry":{"coordinates":[6.249926,46.202554],"type":"Point"},"properties":{"osm_id":"6602401128","tag":{"amenity":"waste_basket"}},"type":"Feature"},
	{"geometry":{"coordinates":[6.249929,46.202787],"type":"Point"},"properties":{"osm_id":"6602401129","tag":{"amenity":"waste_basket"}},"type":"Feature"},
	{"geometry":{"coordinates":[6.249335,46.202932],"type":"Point"},"properties":{"osm_id":"6602401130","tag":{"amenity":"waste_basket"}},"type":"Feature"},
	{"geometry":{"coordinates":[6.248874,46.202756],"type":"Point"},"properties":{"osm_id":"6602401131","tag":{"amenity":"waste_basket","colour":"green"}},"type":"Feature"},
	{"geometry":{"coordinates":[6.249729,46.204048],"type":"Point"},"properties":{"osm_id":"6602401144","tag":{"amenity":"waste_basket"}},"type":"Feature"},
	{"geometry":{"coordinates":[6.252831,46.202578],"type":"Point"},"properties":{"osm_id":"6611456578","tag":{"access":"private","amenity":"waste_disposal"}},"type":"Feature"},
	{"geometry":{"coordinates":[6.25348,46.202523],"type":"Point"},"properties":{"osm_id":"6611456579","tag":{"access":"private","amenity":"waste_disposal"}},"type":"Feature"},
	{"geometry":{"coordinates":[6.242817,46.197261],"type":"Point"},"properties":{"osm_id":"6611497597","tag":{"amenity":"waste_basket","waste":"trash"}},"type":"Feature"},
	{"geometry":{"coordinates":[6.255217,46.202446],"type":"Point"},"properties":{"osm_id":"6611556655","tag":{"access":"private","amenity":"waste_disposal"}},"type":"Feature"},
	{"geometry":{"coordinates":[6.254767,46.202474],"type":"Point"},"properties":{"osm_id":"6611556656","tag":{"access":"private","amenity":"waste_disposal"}},"type":"Feature"},
	{"geometry":{"coordinates":[6.257876,46.202452],"type":"Point"},"properties":{"osm_id":"6611601797","tag":{"amenity":"waste_basket"}},"type":"Feature"},
	{"geometry":{"coordinates":[6.258759,46.20273],"type":"Point"},"properties":{"osm_id":"6611601804","tag":{"amenity":"recycling","opening_hours":"24/7","operator":"Sidefage","recycling:glass_bottles":"yes","recycling_type":"container"}},"type":"Feature"},
	{"geometry":{"coordinates":[6.260565,46.203851],"type":"Point"},"properties":{"osm_id":"6611601814","tag":{"amenity":"waste_basket"}},"type":"Feature"},
	{"geometry":{"coordinates":[6.261689,46.205092],"type":"Point"},"properties":{"osm_id":"6611601818","tag":{"amenity":"waste_basket"}},"type":"Feature"},
	{"geometry":{"coordinates":[6.260661,46.205449],"type":"Point"},"properties":{"osm_id":"6611601820","tag":{"amenity":"waste_basket"}},"type":"Feature"},
	{"geometry":{"coordinates":[6.262218,46.205655],"type":"Point"},"properties":{"osm_id":"6611703347","tag":{"amenity":"waste_basket"}},"type":"Feature"},
	{"geometry":{"coordinates":[6.25976,46.207289],"type":"Point"},"properties":{"osm_id":"6611703348","tag":{"amenity":"waste_basket"}},"type":"Feature"},
	{"geometry":{"coordinates":[6.260657,46.204549],"type":"Point"},"properties":{"osm_id":"6611703351","tag":{"amenity":"waste_basket"}},"type":"Feature"},
	{"geometry":{"coordinates":[6.258487,46.204141],"type":"Point"},"properties":{"osm_id":"6611703353","tag":{"amenity":"waste_basket"}},"type":"Feature"},
	{"geometry":{"coordinates":[6.252227,46.203753],"type":"Point"},"properties":{"osm_id":"6611708080","tag":{"amenity":"waste_basket"}},"type":"Feature"},
	{"geometry":{"coordinates":[6.256257,46.204908],"type":"Point"},"properties":{"osm_id":"6611727985","tag":{"amenity":"waste_basket"}},"type":"Feature"},
	{"geometry":{"coordinates":[6.256238,46.204744],"type":"Point"},"properties":{"osm_id":"6611727986","tag":{"amenity":"waste_basket"}},"type":"Feature"},
	{"geometry":{"coordinates":[6.246503,46.196133],"type":"Point"},"properties":{"osm_id":"6633155345","tag":{"amenity":"waste_basket"}},"type":"Feature"},
	{"geometry":{"coordinates":[6.296969,46.21929],"type":"Point"},"properties":{"osm_id":"6637058541","tag":{"amenity":"waste_basket"}},"type":"Feature"},
	{"geometry":{"coordinates":[6.261813,46.198409],"type":"Point"},"properties":{"osm_id":"6644542713","tag":{"amenity":"recycling","opening_hours":"24/7","operator":"Sidefage","recycling:glass_bottles":"yes","recycling_type":"container"}},"type":"Feature"},
	{"geometry":{"coordinates":[6.257785,46.200652],"type":"Point"},"properties":{"osm_id":"6644542714","tag":{"amenity":"recycling","opening_hours":"24/7","operator":"Sidefage","recycling:glass_bottles":"yes","recycling_type":"container"}},"type":"Feature"},
	{"geometry":{"coordinates":[6.249091,46.203219],"type":"Point"},"properties":{"osm_id":"6644542715","tag":{"amenity":"recycling","opening_hours":"24/7","operator":"Sidefage","recycling:glass_bottles":"yes","recycling_type":"container"}},"type":"Feature"},
	{"geometry":{"coordinates":[6.24703,46.198253],"type":"Point"},"properties":{"osm_id":"6644542716","tag":{"amenity":"recycling","operator":"Sidefage","recycling_type":"container"}},"type":"Feature"},
	{"geometry":{"coordinates":[6.244042,46.195419],"type":"Point"},"properties":{"osm_id":"6644542717","tag":{"amenity":"waste_basket","waste":"trash"}},"type":"Feature"},
	{"geometry":{"coordinates":[6.282522,46.218663],"type":"Point"},"properties":{"osm_id":"6681261126","tag":{"amenity":"recycling","opening_hours":"24/7","operator":"Sidefage","recycling:cans":"yes","recycling:glass_bottles":"yes","recycling:paper":"yes","recycling:plastic_bottles":"yes","recycling_type":"container"}},"type":"Feature"},
	{"geometry":{"coordinates":[6.244472,46.201227],"type":"Point"},"properties":{"osm_id":"6681261127","tag":{"amenity":"recycling","opening_hours":"24/7","operator":"Sidefage","recycling:cans":"yes","recycling:cardboard":"yes","recycling:glass_bottles":"yes","recycling:paper":"yes","recycling:plastic_bottles":"yes","recycling_type":"container"}},"type":"Feature"},
	{"geometry":{"coordinates":[6.283083,46.218091],"type":"Point"},"properties":{"osm_id":"6968953428","tag":{"amenity":"waste_basket"}},"type":"Feature"},
	{"geometry":{"coordinates":[6.294155,46.221339],"type":"Point"},"properties":{"osm_id":"6968953433","tag":{"amenity":"waste_basket"}},"type":"Feature"},
	{"geometry":{"coordinates":[6.288513,46.196735],"type":"Point"},"properties":{"osm_id":"6982394320","tag":{"amenity":"waste_basket"}},"type":"Feature"},
	{"geometry":{"coordinates":[6.241082,46.195415],"type":"Point"},"properties":{"osm_id":"7006947593","tag":{"amenity":"waste_basket","colour":"red","waste":"trash"}},"type":"Feature"},
	{"geometry":{"coordinates":[6.241149,46.195499],"type":"Point"},"properties":{"osm_id":"7006947594","tag":{"amenity":"waste_basket","waste":"trash"}},"type":"Feature"},
	{"geometry":{"coordinates":[6.277984,46.20653],"type":"Point"},"properties":{"osm_id":"7049356727","tag":{"amenity":"waste_disposal"}},"type":"Feature"},
	{"geometry":{"coordinates":[6.277129,46.20346],"type":"Point"},"properties":{"osm_id":"7090595920","tag":{"amenity":"waste_basket","waste":"trash"}},"type":"Feature"},
	{"geometry":{"coordinates":[6.250326,46.201438],"type":"Point"},"properties":{"osm_id":"7096034782","tag":{"amenity":"waste_basket","colour":"green","waste":"trash"}},"type":"Feature"},
	{"geometry":{"coordinates":[6.273276,46.209984],"type":"Point"},"properties":{"osm_id":"7106720994","tag":{"amenity":"waste_disposal"}},"type":"Feature"},
	{"geometry":{"coordinates":[6.275232,46.205505],"type":"Point"},"properties":{"osm_id":"7131448934","tag":{"amenity":"waste_disposal"}},"type":"Feature"},
	{"geometry":{"coordinates":[6.249428,46.201884],"type":"Point"},"properties":{"osm_id":"7190863568","tag":{"amenity":"waste_basket","waste":"dog_excrement"}},"type":"Feature"},
	{"geometry":{"coordinates":[6.297194,46.219329],"type":"Point"},"properties":{"osm_id":"7237207734","tag":{"amenity":"recycling","operator":"Le Relais","recycling:clothes":"yes","recycling_type":"container"}},"type":"Feature"},
	{"geometry":{"coordinates":[6.28835,46.200449],"type":"Point"},"properties":{"osm_id":"7375735249","tag":{"amenity":"recycling","recycling_type":"container"}},"type":"Feature"},
	{"geometry":{"coordinates":[6.259733,46.251944],"type":"Point"},"properties":{"osm_id":"7636080692","tag":{"amenity":"recycling","recycling_type":"container"}},"type":"Feature"},
	{"geometry":{"coordinates":[6.277355,46.203152],"type":"Point"},"properties":{"osm_id":"7776370569","tag":{"amenity":"waste_basket","waste":"trash"}},"type":"Feature"},
	{"geometry":{"coordinates":[6.312391,46.23552],"type":"Point"},"properties":{"barrier":"gate","osm_id":"7900514018"},"type":"Feature"},
	{"geometry":{"coordinates":[6.255193,46.196607],"type":"Point"},"properties":{"osm_id":"7925044308","tag":{"amenity":"waste_basket","colour":"red","waste":"trash"}},"type":"Feature"}
]
}
