{
"type": "FeatureCollection",
"features": [
	{"geometry":{"coordinates":[6.302355,45.898189],"type":"Point"},"properties":{"osm_id":"3689739029","tag":{"amenity":"recycling"}},"type":"Feature"},
	{"geometry":{"coordinates":[6.291668,45.899678],"type":"Point"},"properties":{"osm_id":"3691260828","tag":{"amenity":"recycling"}},"type":"Feature"},
	{"geometry":{"coordinates":[6.305754,45.894242],"type":"Point"},"properties":{"osm_id":"4457187878","tag":{"amenity":"recycling"}},"type":"Feature"},
	{"geometry":{"coordinates":[6.247119,45.892512],"type":"Point"},"properties":{"name":"Recyclerie de la Tournette","osm_id":"7319626291","tag":{"addr:city":"Alex","addr:postcode":"74290","addr:street":"ZA de la Verrerie","amenity":"recycling","contact:email":"impact74000@gmail.com","contact:phone":"+33 6 35 94 26 08","contact:website":"https://recyclerie74.com/","operator":"Impact Environnement Social","recycling_type":"centre","ref:FR:SIRET":"80922829900016","shop":"second_hand"}},"type":"Feature"}
]
}
