{
"type": "FeatureCollection",
"features": [
	{"geometry":{"coordinates":[25.294262,53.905804],"type":"Point"},"properties":{"osm_id":"3205731873","tag":{"amenity":"recycling","recycling:batteries":"yes","recycling_type":"container"}},"type":"Feature"},
	{"geometry":{"coordinates":[25.253244,53.934849],"type":"Point"},"properties":{"osm_id":"3711970034","tag":{"amenity":"recycling","recycling:mercury":"yes","recycling_type":"container"}},"type":"Feature"},
	{"geometry":{"coordinates":[25.271274,53.936702],"type":"Point"},"properties":{"osm_id":"3713123636","tag":{"amenity":"recycling","recycling:glass":"yes","recycling:paper":"yes","recycling:plastic":"yes","recycling_type":"centre"}},"type":"Feature"},
	{"geometry":{"coordinates":[25.250705,53.905015],"type":"Point"},"properties":{"osm_id":"4434430483","tag":{"amenity":"waste_disposal"}},"type":"Feature"},
	{"geometry":{"coordinates":[25.256423,53.905141],"type":"Point"},"properties":{"osm_id":"4434430484","tag":{"amenity":"waste_disposal"}},"type":"Feature"},
	{"geometry":{"coordinates":[25.255112,53.905563],"type":"Point"},"properties":{"osm_id":"4434430485","tag":{"amenity":"waste_disposal"}},"type":"Feature"},
	{"geometry":{"coordinates":[25.253092,53.906369],"type":"Point"},"properties":{"osm_id":"4434430486","tag":{"amenity":"waste_disposal"}},"type":"Feature"},
	{"geometry":{"coordinates":[25.234745,53.914971],"type":"Point"},"properties":{"osm_id":"4851664164","tag":{"amenity":"waste_disposal"}},"type":"Feature"},
	{"geometry":{"coordinates":[25.251976,53.906288],"type":"Point"},"properties":{"osm_id":"5549775464","tag":{"amenity":"waste_basket"}},"type":"Feature"},
	{"geometry":{"coordinates":[25.251998,53.906289],"type":"Point"},"properties":{"osm_id":"5549775465","tag":{"amenity":"waste_basket"}},"type":"Feature"},
	{"geometry":{"coordinates":[25.25202,53.90629],"type":"Point"},"properties":{"osm_id":"5549775466","tag":{"amenity":"waste_basket"}},"type":"Feature"},
	{"geometry":{"coordinates":[25.245597,53.911822],"type":"Point"},"properties":{"osm_id":"5568116702","tag":{"amenity":"waste_disposal"}},"type":"Feature"},
	{"geometry":{"coordinates":[25.242271,53.912499],"type":"Point"},"properties":{"osm_id":"5568116703","tag":{"amenity":"waste_disposal"}},"type":"Feature"},
	{"geometry":{"coordinates":[25.253314,53.904488],"type":"Point"},"properties":{"osm_id":"5621325327","tag":{"amenity":"waste_basket"}},"type":"Feature"},
	{"geometry":{"coordinates":[25.269429,53.927007],"type":"Point"},"properties":{"osm_id":"5660517397","tag":{"amenity":"waste_disposal"}},"type":"Feature"},
	{"geometry":{"coordinates":[25.269906,53.93507],"type":"Point"},"properties":{"osm_id":"6033483088","tag":{"amenity":"waste_disposal"}},"type":"Feature"},
	{"geometry":{"coordinates":[25.269987,53.933987],"type":"Point"},"properties":{"osm_id":"6033483089","tag":{"amenity":"waste_disposal"}},"type":"Feature"},
	{"geometry":{"coordinates":[25.268747,53.931527],"type":"Point"},"properties":{"osm_id":"6033483090","tag":{"amenity":"waste_disposal"}},"type":"Feature"},
	{"geometry":{"coordinates":[25.264775,53.936367],"type":"Point"},"properties":{"osm_id":"6483321080","tag":{"amenity":"waste_disposal"}},"type":"Feature"}
]
}
