{
"type": "FeatureCollection",
"features": [
	{"geometry":{"coordinates":[25.302384,53.884771],"type":"Point"},"properties":{"osm_id":"3205731870","tag":{"amenity":"recycling","recycling:batteries":"yes","recycling_type":"container"}},"type":"Feature"},
	{"geometry":{"coordinates":[25.302522,53.890819],"type":"Point"},"properties":{"osm_id":"3205731871","tag":{"amenity":"recycling","recycling:batteries":"yes","recycling_type":"container"}},"type":"Feature"},
	{"geometry":{"coordinates":[25.260771,53.899238],"type":"Point"},"properties":{"osm_id":"3205731872","tag":{"amenity":"recycling","recycling:batteries":"yes","recycling_type":"container"}},"type":"Feature"},
	{"geometry":{"coordinates":[25.257487,53.889917],"type":"Point"},"properties":{"name":"\u00d0\u009f\u00d1\u0083\u00d0\u00bd\u00d0\u00ba\u00d1\u0082 \u00d0\u00bf\u00d1\u0080\u00d0\u00b8\u00d0\u00b5\u00d0\u00bc\u00d0\u00b0 \u00d0\u00be\u00d1\u0082\u00d1\u0080\u00d0\u00b0\u00d0\u00b1\u00d0\u00be\u00d1\u0082\u00d0\u00b0\u00d0\u00b2\u00d1\u0088\u00d0\u00b5\u00d0\u00b9 \u00d0\u00b1\u00d1\u008b\u00d1\u0082\u00d0\u00be\u00d0\u00b2\u00d0\u00be\u00d0\u00b9 \u00d1\u0082\u00d0\u00b5\u00d1\u0085\u00d0\u00bd\u00d0\u00b8\u00d0\u00ba\u00d0\u00b8","osm_id":"3205750906","tag":{"amenity":"recycling","phone":"+375 154 579540","recycling:electrical_items":"yes","recycling_type":"centre"}},"type":"Feature"},
	{"geometry":{"coordinates":[25.290197,53.871427],"type":"Point"},"properties":{"osm_id":"3711970025","tag":{"amenity":"recycling","recycling:glass":"yes","recycling:paper":"yes","recycling:plastic":"yes","recycling_type":"centre"}},"type":"Feature"},
	{"geometry":{"coordinates":[25.279281,53.878951],"type":"Point"},"properties":{"osm_id":"3711970027","tag":{"amenity":"recycling","recycling:glass":"yes","recycling_type":"centre"}},"type":"Feature"},
	{"geometry":{"coordinates":[25.286704,53.890869],"type":"Point"},"properties":{"osm_id":"3711970028","tag":{"amenity":"recycling","recycling:glass":"yes","recycling_type":"centre"}},"type":"Feature"},
	{"geometry":{"coordinates":[25.300771,53.891236],"type":"Point"},"properties":{"osm_id":"3711970029","tag":{"amenity":"recycling","recycling:glass":"yes","recycling:plastic":"yes","recycling_type":"centre"}},"type":"Feature"},
	{"geometry":{"coordinates":[25.295477,53.892539],"type":"Point"},"properties":{"osm_id":"3711970030","tag":{"amenity":"recycling","recycling:glass":"yes","recycling_type":"centre"}},"type":"Feature"},
	{"geometry":{"coordinates":[25.273257,53.892706],"type":"Point"},"properties":{"osm_id":"3711970031","tag":{"amenity":"recycling","recycling:glass":"yes","recycling:paper":"yes","recycling:plastic":"yes","recycling_type":"centre"}},"type":"Feature"},
	{"geometry":{"coordinates":[25.29504,53.896568],"type":"Point"},"properties":{"osm_id":"3711970032","tag":{"amenity":"recycling","recycling:mercury":"yes","recycling_type":"container"}},"type":"Feature"},
	{"geometry":{"coordinates":[25.260875,53.899029],"type":"Point"},"properties":{"osm_id":"3711970033","tag":{"amenity":"recycling","recycling:glass":"yes","recycling:paper":"yes","recycling:plastic":"yes","recycling_type":"centre"}},"type":"Feature"},
	{"geometry":{"coordinates":[25.25689,53.891615],"type":"Point"},"properties":{"osm_id":"3713122103","tag":{"amenity":"recycling","recycling:batteries":"yes","recycling_type":"container"}},"type":"Feature"},
	{"geometry":{"coordinates":[25.297636,53.872987],"type":"Point"},"properties":{"osm_id":"3713122106","tag":{"amenity":"recycling","recycling:scrap_metal":"yes","recycling_type":"centre"}},"type":"Feature"},
	{"geometry":{"coordinates":[25.287806,53.889158],"type":"Point"},"properties":{"osm_id":"3713122112","tag":{"amenity":"recycling","recycling:glass":"yes","recycling:paper":"yes","recycling:plastic":"yes","recycling_type":"centre"}},"type":"Feature"},
	{"geometry":{"coordinates":[25.274961,53.889743],"type":"Point"},"properties":{"osm_id":"3713122113","tag":{"amenity":"recycling","recycling:glass":"yes","recycling:paper":"yes","recycling:plastic":"yes","recycling_type":"centre"}},"type":"Feature"},
	{"geometry":{"coordinates":[25.300149,53.890577],"type":"Point"},"properties":{"osm_id":"3713122114","tag":{"amenity":"recycling","recycling:books":"yes","recycling_type":"centre"}},"type":"Feature"},
	{"geometry":{"coordinates":[25.29579,53.891642],"type":"Point"},"properties":{"osm_id":"3713122115","tag":{"amenity":"recycling","recycling:books":"yes","recycling_type":"centre"}},"type":"Feature"},
	{"geometry":{"coordinates":[25.306632,53.893043],"type":"Point"},"properties":{"osm_id":"3713122116","tag":{"amenity":"recycling","recycling:glass":"yes","recycling:paper":"yes","recycling:plastic":"yes","recycling_type":"centre"}},"type":"Feature"},
	{"geometry":{"coordinates":[25.264623,53.897164],"type":"Point"},"properties":{"osm_id":"3713122117","tag":{"amenity":"recycling","recycling:glass":"yes","recycling:paper":"yes","recycling:plastic":"yes","recycling_type":"centre"}},"type":"Feature"},
	{"geometry":{"coordinates":[25.296358,53.899512],"type":"Point"},"properties":{"osm_id":"3713122118","tag":{"amenity":"recycling","recycling:glass":"yes","recycling:paper":"yes","recycling:plastic":"yes","recycling_type":"centre"}},"type":"Feature"},
	{"geometry":{"coordinates":[25.30928,53.896771],"type":"Point"},"properties":{"osm_id":"4519211491","tag":{"amenity":"waste_disposal","operator":"\u00d0\u00b6\u00d0\u00ba\u00d1\u0085 2"}},"type":"Feature"},
	{"geometry":{"coordinates":[25.284291,53.869898],"type":"Point"},"properties":{"osm_id":"4851406436","tag":{"amenity":"waste_disposal"}},"type":"Feature"},
	{"geometry":{"coordinates":[25.283682,53.871767],"type":"Point"},"properties":{"osm_id":"4851406437","tag":{"amenity":"waste_disposal"}},"type":"Feature"},
	{"geometry":{"coordinates":[25.282829,53.873539],"type":"Point"},"properties":{"osm_id":"4851406438","tag":{"amenity":"waste_disposal"}},"type":"Feature"},
	{"geometry":{"coordinates":[25.282137,53.875216],"type":"Point"},"properties":{"osm_id":"4851406439","tag":{"amenity":"waste_disposal"}},"type":"Feature"},
	{"geometry":{"coordinates":[25.281295,53.87709],"type":"Point"},"properties":{"osm_id":"4851406440","tag":{"amenity":"waste_disposal"}},"type":"Feature"},
	{"geometry":{"coordinates":[25.25608,53.902195],"type":"Point"},"properties":{"osm_id":"4851421221","tag":{"amenity":"waste_disposal"}},"type":"Feature"},
	{"geometry":{"coordinates":[25.255334,53.902309],"type":"Point"},"properties":{"osm_id":"4851421222","tag":{"amenity":"waste_disposal"}},"type":"Feature"},
	{"geometry":{"coordinates":[25.25593,53.902911],"type":"Point"},"properties":{"osm_id":"4851421223","tag":{"amenity":"waste_disposal"}},"type":"Feature"},
	{"geometry":{"coordinates":[25.257039,53.9034],"type":"Point"},"properties":{"osm_id":"4851421229","tag":{"amenity":"waste_disposal"}},"type":"Feature"},
	{"geometry":{"coordinates":[25.258031,53.90314],"type":"Point"},"properties":{"osm_id":"4851421230","tag":{"amenity":"waste_disposal"}},"type":"Feature"},
	{"geometry":{"coordinates":[25.259846,53.902671],"type":"Point"},"properties":{"osm_id":"4851421231","tag":{"amenity":"waste_disposal"}},"type":"Feature"},
	{"geometry":{"coordinates":[25.259948,53.902077],"type":"Point"},"properties":{"osm_id":"4851421236","tag":{"amenity":"waste_disposal"}},"type":"Feature"},
	{"geometry":{"coordinates":[25.260033,53.901421],"type":"Point"},"properties":{"osm_id":"4851421237","tag":{"amenity":"waste_disposal"}},"type":"Feature"},
	{"geometry":{"coordinates":[25.258866,53.90046],"type":"Point"},"properties":{"osm_id":"4851421238","tag":{"amenity":"waste_disposal"}},"type":"Feature"},
	{"geometry":{"coordinates":[25.256155,53.900621],"type":"Point"},"properties":{"osm_id":"4851421239","tag":{"amenity":"waste_disposal"}},"type":"Feature"},
	{"geometry":{"coordinates":[25.254363,53.901445],"type":"Point"},"properties":{"osm_id":"4851421241","tag":{"amenity":"waste_disposal"}},"type":"Feature"},
	{"geometry":{"coordinates":[25.252421,53.899348],"type":"Point"},"properties":{"osm_id":"4851421242","tag":{"amenity":"waste_disposal"}},"type":"Feature"},
	{"geometry":{"coordinates":[25.251625,53.899634],"type":"Point"},"properties":{"osm_id":"4851421243","tag":{"amenity":"waste_disposal"}},"type":"Feature"},
	{"geometry":{"coordinates":[25.251499,53.900628],"type":"Point"},"properties":{"osm_id":"4851421244","tag":{"amenity":"waste_disposal"}},"type":"Feature"},
	{"geometry":{"coordinates":[25.251147,53.902569],"type":"Point"},"properties":{"osm_id":"4851421245","tag":{"amenity":"waste_disposal"}},"type":"Feature"},
	{"geometry":{"coordinates":[25.305609,53.888217],"type":"Point"},"properties":{"osm_id":"4851601849","tag":{"amenity":"waste_disposal"}},"type":"Feature"},
	{"geometry":{"coordinates":[25.311921,53.892947],"type":"Point"},"properties":{"osm_id":"4851601851","tag":{"amenity":"waste_disposal"}},"type":"Feature"},
	{"geometry":{"coordinates":[25.311172,53.897249],"type":"Point"},"properties":{"osm_id":"4851601852","tag":{"amenity":"waste_disposal"}},"type":"Feature"},
	{"geometry":{"coordinates":[25.31125,53.897751],"type":"Point"},"properties":{"osm_id":"4851601853","tag":{"amenity":"waste_disposal"}},"type":"Feature"},
	{"geometry":{"coordinates":[25.276094,53.895648],"type":"Point"},"properties":{"osm_id":"4851624555","tag":{"amenity":"waste_disposal"}},"type":"Feature"},
	{"geometry":{"coordinates":[25.277221,53.892297],"type":"Point"},"properties":{"osm_id":"4851624556","tag":{"amenity":"waste_disposal"}},"type":"Feature"},
	{"geometry":{"coordinates":[25.283087,53.895521],"type":"Point"},"properties":{"osm_id":"4851624557","tag":{"amenity":"waste_disposal"}},"type":"Feature"},
	{"geometry":{"coordinates":[25.286319,53.895924],"type":"Point"},"properties":{"osm_id":"4851624558","tag":{"amenity":"waste_disposal"}},"type":"Feature"},
	{"geometry":{"coordinates":[25.289916,53.895201],"type":"Point"},"properties":{"osm_id":"4851624562","tag":{"amenity":"waste_disposal"}},"type":"Feature"},
	{"geometry":{"coordinates":[25.286863,53.893611],"type":"Point"},"properties":{"osm_id":"4851624563","tag":{"amenity":"waste_disposal"}},"type":"Feature"},
	{"geometry":{"coordinates":[25.285249,53.892748],"type":"Point"},"properties":{"osm_id":"4851624564","tag":{"amenity":"waste_disposal"}},"type":"Feature"},
	{"geometry":{"coordinates":[25.287049,53.892352],"type":"Point"},"properties":{"osm_id":"4851624565","tag":{"amenity":"waste_disposal"}},"type":"Feature"},
	{"geometry":{"coordinates":[25.286338,53.89148],"type":"Point"},"properties":{"osm_id":"4851624567","tag":{"amenity":"waste_disposal"}},"type":"Feature"},
	{"geometry":{"coordinates":[25.287132,53.891086],"type":"Point"},"properties":{"osm_id":"4851624568","tag":{"amenity":"waste_disposal"}},"type":"Feature"},
	{"geometry":{"coordinates":[25.28869,53.890797],"type":"Point"},"properties":{"osm_id":"4851624570","tag":{"amenity":"waste_disposal"}},"type":"Feature"},
	{"geometry":{"coordinates":[25.288744,53.889139],"type":"Point"},"properties":{"osm_id":"4851624571","tag":{"amenity":"waste_disposal"}},"type":"Feature"},
	{"geometry":{"coordinates":[25.292259,53.890252],"type":"Point"},"properties":{"osm_id":"4851624572","tag":{"amenity":"waste_disposal"}},"type":"Feature"},
	{"geometry":{"coordinates":[25.294496,53.890148],"type":"Point"},"properties":{"osm_id":"4851624573","tag":{"amenity":"waste_disposal"}},"type":"Feature"},
	{"geometry":{"coordinates":[25.294478,53.890194],"type":"Point"},"properties":{"osm_id":"4851624574","tag":{"amenity":"waste_disposal"}},"type":"Feature"},
	{"geometry":{"coordinates":[25.294108,53.891342],"type":"Point"},"properties":{"osm_id":"4851624575","tag":{"amenity":"waste_disposal"}},"type":"Feature"},
	{"geometry":{"coordinates":[25.292882,53.892337],"type":"Point"},"properties":{"osm_id":"4851624576","tag":{"amenity":"waste_disposal"}},"type":"Feature"},
	{"geometry":{"coordinates":[25.294159,53.89385],"type":"Point"},"properties":{"osm_id":"4851624577","tag":{"amenity":"waste_disposal"}},"type":"Feature"},
	{"geometry":{"coordinates":[25.296049,53.890148],"type":"Point"},"properties":{"osm_id":"4851624578","tag":{"amenity":"waste_disposal"}},"type":"Feature"},
	{"geometry":{"coordinates":[25.297308,53.894711],"type":"Point"},"properties":{"osm_id":"4851624579","tag":{"amenity":"waste_disposal"}},"type":"Feature"},
	{"geometry":{"coordinates":[25.29789,53.894152],"type":"Point"},"properties":{"osm_id":"4851624580","tag":{"amenity":"waste_disposal"}},"type":"Feature"},
	{"geometry":{"coordinates":[25.297905,53.893986],"type":"Point"},"properties":{"osm_id":"4851624581","tag":{"amenity":"waste_disposal"}},"type":"Feature"},
	{"geometry":{"coordinates":[25.298587,53.892675],"type":"Point"},"properties":{"osm_id":"4851624582","tag":{"amenity":"waste_disposal"}},"type":"Feature"},
	{"geometry":{"coordinates":[25.29945,53.892478],"type":"Point"},"properties":{"osm_id":"4851624583","tag":{"amenity":"waste_disposal"}},"type":"Feature"},
	{"geometry":{"coordinates":[25.298821,53.891149],"type":"Point"},"properties":{"osm_id":"4851624584","tag":{"amenity":"waste_disposal"}},"type":"Feature"},
	{"geometry":{"coordinates":[25.300417,53.889205],"type":"Point"},"properties":{"osm_id":"4851624585","tag":{"amenity":"waste_disposal"}},"type":"Feature"},
	{"geometry":{"coordinates":[25.302068,53.889008],"type":"Point"},"properties":{"osm_id":"4851624586","tag":{"amenity":"waste_disposal"}},"type":"Feature"},
	{"geometry":{"coordinates":[25.255927,53.897492],"type":"Point"},"properties":{"osm_id":"4851664140","tag":{"amenity":"waste_disposal"}},"type":"Feature"},
	{"geometry":{"coordinates":[25.258888,53.897582],"type":"Point"},"properties":{"osm_id":"4851664141","tag":{"amenity":"waste_disposal"}},"type":"Feature"},
	{"geometry":{"coordinates":[25.258832,53.897589],"type":"Point"},"properties":{"osm_id":"4851664142","tag":{"amenity":"waste_disposal"}},"type":"Feature"},
	{"geometry":{"coordinates":[25.258766,53.897604],"type":"Point"},"properties":{"osm_id":"4851664143","tag":{"amenity":"waste_disposal"}},"type":"Feature"},
	{"geometry":{"coordinates":[25.259104,53.897503],"type":"Point"},"properties":{"osm_id":"4851664144","tag":{"amenity":"waste_disposal"}},"type":"Feature"},
	{"geometry":{"coordinates":[25.260124,53.896209],"type":"Point"},"properties":{"osm_id":"4851664145","tag":{"amenity":"waste_disposal"}},"type":"Feature"},
	{"geometry":{"coordinates":[25.259934,53.896176],"type":"Point"},"properties":{"osm_id":"4851664146","tag":{"amenity":"waste_disposal"}},"type":"Feature"},
	{"geometry":{"coordinates":[25.262665,53.899616],"type":"Point"},"properties":{"osm_id":"4851664147","tag":{"amenity":"waste_disposal"}},"type":"Feature"},
	{"geometry":{"coordinates":[25.263593,53.896773],"type":"Point"},"properties":{"osm_id":"4851664148","tag":{"amenity":"waste_disposal"}},"type":"Feature"},
	{"geometry":{"coordinates":[25.264711,53.897886],"type":"Point"},"properties":{"osm_id":"4851664149","tag":{"amenity":"waste_disposal"}},"type":"Feature"},
	{"geometry":{"coordinates":[25.267377,53.89716],"type":"Point"},"properties":{"osm_id":"4851664150","tag":{"amenity":"waste_disposal"}},"type":"Feature"},
	{"geometry":{"coordinates":[25.26734,53.898984],"type":"Point"},"properties":{"osm_id":"4851664151","tag":{"amenity":"waste_disposal"}},"type":"Feature"},
	{"geometry":{"coordinates":[25.270639,53.897808],"type":"Point"},"properties":{"osm_id":"4851664152","tag":{"amenity":"waste_disposal"}},"type":"Feature"},
	{"geometry":{"coordinates":[25.270679,53.896659],"type":"Point"},"properties":{"osm_id":"4851664153","tag":{"amenity":"waste_disposal"}},"type":"Feature"},
	{"geometry":{"coordinates":[25.265331,53.89545],"type":"Point"},"properties":{"osm_id":"4851664154","tag":{"amenity":"waste_disposal"}},"type":"Feature"},
	{"geometry":{"coordinates":[25.262119,53.89521],"type":"Point"},"properties":{"osm_id":"4851664155","tag":{"amenity":"waste_disposal"}},"type":"Feature"},
	{"geometry":{"coordinates":[25.261468,53.894603],"type":"Point"},"properties":{"osm_id":"4851664157","tag":{"amenity":"waste_disposal"}},"type":"Feature"},
	{"geometry":{"coordinates":[25.259805,53.894396],"type":"Point"},"properties":{"osm_id":"4851664158","tag":{"amenity":"waste_disposal"}},"type":"Feature"},
	{"geometry":{"coordinates":[25.256474,53.893857],"type":"Point"},"properties":{"osm_id":"4851664159","tag":{"amenity":"waste_disposal"}},"type":"Feature"},
	{"geometry":{"coordinates":[25.254945,53.894284],"type":"Point"},"properties":{"osm_id":"4851664160","tag":{"amenity":"waste_disposal"}},"type":"Feature"},
	{"geometry":{"coordinates":[25.252416,53.893411],"type":"Point"},"properties":{"osm_id":"4851664161","tag":{"amenity":"waste_disposal"}},"type":"Feature"},
	{"geometry":{"coordinates":[25.252215,53.895213],"type":"Point"},"properties":{"osm_id":"4851664162","tag":{"amenity":"waste_disposal"}},"type":"Feature"},
	{"geometry":{"coordinates":[25.252362,53.896817],"type":"Point"},"properties":{"osm_id":"4851664163","tag":{"amenity":"waste_disposal"}},"type":"Feature"},
	{"geometry":{"coordinates":[25.28132,53.877825],"type":"Point"},"properties":{"osm_id":"4859407807","tag":{"amenity":"waste_disposal"}},"type":"Feature"},
	{"geometry":{"coordinates":[25.286665,53.875164],"type":"Point"},"properties":{"osm_id":"4868135116","tag":{"amenity":"waste_disposal"}},"type":"Feature"},
	{"geometry":{"coordinates":[25.280686,53.88122],"type":"Point"},"properties":{"osm_id":"4868135117","tag":{"amenity":"waste_disposal"}},"type":"Feature"},
	{"geometry":{"coordinates":[25.311938,53.894779],"type":"Point"},"properties":{"osm_id":"4947268144","tag":{"amenity":"waste_disposal"}},"type":"Feature"},
	{"geometry":{"coordinates":[25.310637,53.894248],"type":"Point"},"properties":{"osm_id":"4947268145","tag":{"amenity":"waste_disposal"}},"type":"Feature"},
	{"geometry":{"coordinates":[25.299438,53.888478],"type":"Point"},"properties":{"osm_id":"5250973785","tag":{"amenity":"waste_disposal"}},"type":"Feature"},
	{"geometry":{"coordinates":[25.254438,53.896622],"type":"Point"},"properties":{"osm_id":"5263441721","tag":{"amenity":"waste_disposal"}},"type":"Feature"},
	{"geometry":{"coordinates":[25.29661,53.88297],"type":"Point"},"properties":{"osm_id":"5430634121","tag":{"amenity":"waste_disposal"}},"type":"Feature"},
	{"geometry":{"coordinates":[25.284667,53.877172],"type":"Point"},"properties":{"osm_id":"5568116696","tag":{"amenity":"waste_disposal"}},"type":"Feature"},
	{"geometry":{"coordinates":[25.276408,53.895524],"type":"Point"},"properties":{"osm_id":"5568116697","tag":{"amenity":"waste_disposal"}},"type":"Feature"},
	{"geometry":{"coordinates":[25.260921,53.893622],"type":"Point"},"properties":{"osm_id":"5568116698","tag":{"amenity":"waste_disposal"}},"type":"Feature"},
	{"geometry":{"coordinates":[25.271115,53.896643],"type":"Point"},"properties":{"osm_id":"5568116699","tag":{"amenity":"waste_disposal"}},"type":"Feature"},
	{"geometry":{"coordinates":[25.267597,53.896968],"type":"Point"},"properties":{"osm_id":"5568116700","tag":{"amenity":"waste_disposal"}},"type":"Feature"},
	{"geometry":{"coordinates":[25.254253,53.896655],"type":"Point"},"properties":{"osm_id":"5568116701","tag":{"amenity":"waste_disposal"}},"type":"Feature"},
	{"geometry":{"coordinates":[25.294859,53.898783],"type":"Point"},"properties":{"osm_id":"5575203128","tag":{"amenity":"waste_disposal"}},"type":"Feature"},
	{"geometry":{"coordinates":[25.288183,53.895057],"type":"Point"},"properties":{"osm_id":"5577792057","tag":{"amenity":"waste_disposal"}},"type":"Feature"},
	{"geometry":{"coordinates":[25.288773,53.895156],"type":"Point"},"properties":{"osm_id":"5577792083","tag":{"amenity":"waste_basket"}},"type":"Feature"},
	{"geometry":{"coordinates":[25.288894,53.89502],"type":"Point"},"properties":{"osm_id":"5577792084","tag":{"amenity":"waste_basket"}},"type":"Feature"},
	{"geometry":{"coordinates":[25.289165,53.895013],"type":"Point"},"properties":{"osm_id":"5577792086","tag":{"amenity":"waste_basket"}},"type":"Feature"},
	{"geometry":{"coordinates":[25.289119,53.894729],"type":"Point"},"properties":{"osm_id":"5577792087","tag":{"amenity":"waste_basket"}},"type":"Feature"},
	{"geometry":{"coordinates":[25.290134,53.89482],"type":"Point"},"properties":{"osm_id":"5577792088","tag":{"amenity":"waste_basket"}},"type":"Feature"},
	{"geometry":{"coordinates":[25.289294,53.894675],"type":"Point"},"properties":{"osm_id":"5579782256","tag":{"amenity":"waste_basket"}},"type":"Feature"},
	{"geometry":{"coordinates":[25.289613,53.89471],"type":"Point"},"properties":{"osm_id":"5579782258","tag":{"amenity":"waste_basket"}},"type":"Feature"},
	{"geometry":{"coordinates":[25.289457,53.89508],"type":"Point"},"properties":{"osm_id":"5579782260","tag":{"amenity":"waste_basket"}},"type":"Feature"},
	{"geometry":{"coordinates":[25.302571,53.890494],"type":"Point"},"properties":{"osm_id":"5587460152","tag":{"amenity":"waste_basket"}},"type":"Feature"},
	{"geometry":{"coordinates":[25.301856,53.890103],"type":"Point"},"properties":{"osm_id":"5587460155","tag":{"amenity":"waste_basket"}},"type":"Feature"},
	{"geometry":{"coordinates":[25.302011,53.890102],"type":"Point"},"properties":{"osm_id":"5587460156","tag":{"amenity":"waste_basket"}},"type":"Feature"},
	{"geometry":{"coordinates":[25.302186,53.8901],"type":"Point"},"properties":{"osm_id":"5587460157","tag":{"amenity":"waste_basket"}},"type":"Feature"},
	{"geometry":{"coordinates":[25.254584,53.904118],"type":"Point"},"properties":{"osm_id":"5589758021","tag":{"amenity":"waste_basket"}},"type":"Feature"},
	{"geometry":{"coordinates":[25.25445,53.904156],"type":"Point"},"properties":{"osm_id":"5589758023","tag":{"amenity":"waste_basket"}},"type":"Feature"},
	{"geometry":{"coordinates":[25.254135,53.904242],"type":"Point"},"properties":{"osm_id":"5589758024","tag":{"amenity":"waste_basket"}},"type":"Feature"},
	{"geometry":{"coordinates":[25.254271,53.904208],"type":"Point"},"properties":{"osm_id":"5589758026","tag":{"amenity":"waste_basket"}},"type":"Feature"},
	{"geometry":{"coordinates":[25.304401,53.887025],"type":"Point"},"properties":{"osm_id":"5608526717","tag":{"amenity":"waste_basket"}},"type":"Feature"},
	{"geometry":{"coordinates":[25.303992,53.887461],"type":"Point"},"properties":{"osm_id":"5608526718","tag":{"amenity":"waste_basket"}},"type":"Feature"},
	{"geometry":{"coordinates":[25.304403,53.887239],"type":"Point"},"properties":{"osm_id":"5608526720","tag":{"amenity":"waste_basket"}},"type":"Feature"},
	{"geometry":{"coordinates":[25.304165,53.887298],"type":"Point"},"properties":{"osm_id":"5608529024","tag":{"amenity":"waste_basket"}},"type":"Feature"},
	{"geometry":{"coordinates":[25.304064,53.886751],"type":"Point"},"properties":{"osm_id":"5608529073","tag":{"amenity":"waste_basket"}},"type":"Feature"},
	{"geometry":{"coordinates":[25.304369,53.8868],"type":"Point"},"properties":{"osm_id":"5608529074","tag":{"amenity":"waste_basket"}},"type":"Feature"},
	{"geometry":{"coordinates":[25.304657,53.886872],"type":"Point"},"properties":{"osm_id":"5608529075","tag":{"amenity":"waste_basket"}},"type":"Feature"},
	{"geometry":{"coordinates":[25.304744,53.886957],"type":"Point"},"properties":{"osm_id":"5608529082","tag":{"amenity":"waste_basket"}},"type":"Feature"},
	{"geometry":{"coordinates":[25.304558,53.886933],"type":"Point"},"properties":{"osm_id":"5608529083","tag":{"amenity":"waste_basket"}},"type":"Feature"},
	{"geometry":{"coordinates":[25.304246,53.886892],"type":"Point"},"properties":{"osm_id":"5608529084","tag":{"amenity":"waste_basket"}},"type":"Feature"},
	{"geometry":{"coordinates":[25.303946,53.886851],"type":"Point"},"properties":{"osm_id":"5608529085","tag":{"amenity":"waste_basket"}},"type":"Feature"},
	{"geometry":{"coordinates":[25.303985,53.887296],"type":"Point"},"properties":{"osm_id":"5608529095","tag":{"amenity":"waste_basket"}},"type":"Feature"},
	{"geometry":{"coordinates":[25.304047,53.887149],"type":"Point"},"properties":{"osm_id":"5608529098","tag":{"amenity":"waste_basket"}},"type":"Feature"},
	{"geometry":{"coordinates":[25.303935,53.887066],"type":"Point"},"properties":{"osm_id":"5608529100","tag":{"amenity":"waste_basket"}},"type":"Feature"},
	{"geometry":{"coordinates":[25.303811,53.886974],"type":"Point"},"properties":{"osm_id":"5608529102","tag":{"amenity":"waste_basket"}},"type":"Feature"},
	{"geometry":{"coordinates":[25.303955,53.887622],"type":"Point"},"properties":{"osm_id":"5610782688","tag":{"amenity":"waste_basket"}},"type":"Feature"},
	{"geometry":{"coordinates":[25.303918,53.887604],"type":"Point"},"properties":{"osm_id":"5610782689","tag":{"amenity":"waste_basket"}},"type":"Feature"},
	{"geometry":{"coordinates":[25.303885,53.887697],"type":"Point"},"properties":{"osm_id":"5610782690","tag":{"amenity":"waste_basket"}},"type":"Feature"},
	{"geometry":{"coordinates":[25.303836,53.887683],"type":"Point"},"properties":{"osm_id":"5610782691","tag":{"amenity":"waste_basket"}},"type":"Feature"},
	{"geometry":{"coordinates":[25.302686,53.886518],"type":"Point"},"properties":{"osm_id":"5610782717","tag":{"amenity":"waste_basket"}},"type":"Feature"},
	{"geometry":{"coordinates":[25.302686,53.886554],"type":"Point"},"properties":{"osm_id":"5610782718","tag":{"amenity":"waste_basket"}},"type":"Feature"},
	{"geometry":{"coordinates":[25.302553,53.88651],"type":"Point"},"properties":{"osm_id":"5610782719","tag":{"amenity":"waste_basket"}},"type":"Feature"},
	{"geometry":{"coordinates":[25.302556,53.88656],"type":"Point"},"properties":{"osm_id":"5610782720","tag":{"amenity":"waste_basket"}},"type":"Feature"},
	{"geometry":{"coordinates":[25.30281,53.886483],"type":"Point"},"properties":{"osm_id":"5610783637","tag":{"amenity":"waste_basket"}},"type":"Feature"},
	{"geometry":{"coordinates":[25.303636,53.886817],"type":"Point"},"properties":{"osm_id":"5610783651","tag":{"amenity":"waste_basket"}},"type":"Feature"},
	{"geometry":{"coordinates":[25.3036,53.886795],"type":"Point"},"properties":{"osm_id":"5610783652","tag":{"amenity":"waste_basket"}},"type":"Feature"},
	{"geometry":{"coordinates":[25.303731,53.886776],"type":"Point"},"properties":{"osm_id":"5610783653","tag":{"amenity":"waste_basket"}},"type":"Feature"},
	{"geometry":{"coordinates":[25.303692,53.886749],"type":"Point"},"properties":{"osm_id":"5610783654","tag":{"amenity":"waste_basket"}},"type":"Feature"},
	{"geometry":{"coordinates":[25.271714,53.895171],"type":"Point"},"properties":{"osm_id":"5614498611","tag":{"amenity":"waste_disposal"}},"type":"Feature"},
	{"geometry":{"coordinates":[25.303875,53.888871],"type":"Point"},"properties":{"osm_id":"5616566356","tag":{"amenity":"waste_basket"}},"type":"Feature"},
	{"geometry":{"coordinates":[25.303438,53.889019],"type":"Point"},"properties":{"osm_id":"5616566359","tag":{"amenity":"waste_basket"}},"type":"Feature"},
	{"geometry":{"coordinates":[25.303639,53.889019],"type":"Point"},"properties":{"osm_id":"5616566361","tag":{"amenity":"waste_basket"}},"type":"Feature"},
	{"geometry":{"coordinates":[25.303715,53.888578],"type":"Point"},"properties":{"osm_id":"5616566368","tag":{"amenity":"waste_basket"}},"type":"Feature"},
	{"geometry":{"coordinates":[25.30371,53.888482],"type":"Point"},"properties":{"osm_id":"5616566376","tag":{"amenity":"waste_basket"}},"type":"Feature"},
	{"geometry":{"coordinates":[25.303131,53.888536],"type":"Point"},"properties":{"osm_id":"5616566384","tag":{"amenity":"waste_basket"}},"type":"Feature"},
	{"geometry":{"coordinates":[25.302929,53.888379],"type":"Point"},"properties":{"osm_id":"5616566392","tag":{"amenity":"waste_basket"}},"type":"Feature"},
	{"geometry":{"coordinates":[25.302925,53.888526],"type":"Point"},"properties":{"osm_id":"5616566393","tag":{"amenity":"waste_basket"}},"type":"Feature"},
	{"geometry":{"coordinates":[25.303278,53.888233],"type":"Point"},"properties":{"osm_id":"5616566399","tag":{"amenity":"waste_basket"}},"type":"Feature"},
	{"geometry":{"coordinates":[25.303127,53.88821],"type":"Point"},"properties":{"osm_id":"5616566404","tag":{"amenity":"waste_basket"}},"type":"Feature"},
	{"geometry":{"coordinates":[25.303002,53.88817],"type":"Point"},"properties":{"osm_id":"5616566409","tag":{"amenity":"waste_basket"}},"type":"Feature"},
	{"geometry":{"coordinates":[25.302854,53.88812],"type":"Point"},"properties":{"osm_id":"5616566412","tag":{"amenity":"waste_basket"}},"type":"Feature"},
	{"geometry":{"coordinates":[25.302523,53.887938],"type":"Point"},"properties":{"osm_id":"5616566414","tag":{"amenity":"waste_basket"}},"type":"Feature"},
	{"geometry":{"coordinates":[25.302692,53.888088],"type":"Point"},"properties":{"osm_id":"5616566416","tag":{"amenity":"waste_basket"}},"type":"Feature"},
	{"geometry":{"coordinates":[25.302615,53.888013],"type":"Point"},"properties":{"osm_id":"5616566418","tag":{"amenity":"waste_basket"}},"type":"Feature"},
	{"geometry":{"coordinates":[25.302485,53.887863],"type":"Point"},"properties":{"osm_id":"5616567325","tag":{"amenity":"waste_basket"}},"type":"Feature"},
	{"geometry":{"coordinates":[25.302683,53.887937],"type":"Point"},"properties":{"osm_id":"5616567327","tag":{"amenity":"waste_basket"}},"type":"Feature"},
	{"geometry":{"coordinates":[25.302888,53.887932],"type":"Point"},"properties":{"osm_id":"5616567329","tag":{"amenity":"waste_basket"}},"type":"Feature"},
	{"geometry":{"coordinates":[25.303137,53.887935],"type":"Point"},"properties":{"osm_id":"5616567331","tag":{"amenity":"waste_basket"}},"type":"Feature"},
	{"geometry":{"coordinates":[25.303326,53.887937],"type":"Point"},"properties":{"osm_id":"5616567333","tag":{"amenity":"waste_basket"}},"type":"Feature"},
	{"geometry":{"coordinates":[25.255804,53.903482],"type":"Point"},"properties":{"osm_id":"5621323569","tag":{"amenity":"waste_basket"}},"type":"Feature"},
	{"geometry":{"coordinates":[25.255602,53.903545],"type":"Point"},"properties":{"osm_id":"5621323570","tag":{"amenity":"waste_basket"}},"type":"Feature"},
	{"geometry":{"coordinates":[25.255506,53.903704],"type":"Point"},"properties":{"osm_id":"5621323578","tag":{"amenity":"waste_basket"}},"type":"Feature"},
	{"geometry":{"coordinates":[25.255443,53.903686],"type":"Point"},"properties":{"osm_id":"5621323579","tag":{"amenity":"waste_basket"}},"type":"Feature"},
	{"geometry":{"coordinates":[25.25536,53.903961],"type":"Point"},"properties":{"osm_id":"5621323609","tag":{"amenity":"waste_basket"}},"type":"Feature"},
	{"geometry":{"coordinates":[25.255177,53.904],"type":"Point"},"properties":{"osm_id":"5621323610","tag":{"amenity":"waste_basket"}},"type":"Feature"},
	{"geometry":{"coordinates":[25.255089,53.903548],"type":"Point"},"properties":{"osm_id":"5621323612","tag":{"amenity":"waste_basket"}},"type":"Feature"},
	{"geometry":{"coordinates":[25.255321,53.903606],"type":"Point"},"properties":{"osm_id":"5621323613","tag":{"amenity":"waste_basket"}},"type":"Feature"},
	{"geometry":{"coordinates":[25.255171,53.903854],"type":"Point"},"properties":{"osm_id":"5621323616","tag":{"amenity":"waste_basket"}},"type":"Feature"},
	{"geometry":{"coordinates":[25.255009,53.903797],"type":"Point"},"properties":{"osm_id":"5621323617","tag":{"amenity":"waste_basket"}},"type":"Feature"},
	{"geometry":{"coordinates":[25.255015,53.903865],"type":"Point"},"properties":{"osm_id":"5621323618","tag":{"amenity":"waste_basket"}},"type":"Feature"},
	{"geometry":{"coordinates":[25.255103,53.904124],"type":"Point"},"properties":{"osm_id":"5621325322","tag":{"amenity":"waste_basket"}},"type":"Feature"},
	{"geometry":{"coordinates":[25.254914,53.904091],"type":"Point"},"properties":{"osm_id":"5621325323","tag":{"amenity":"waste_basket"}},"type":"Feature"},
	{"geometry":{"coordinates":[25.254866,53.904303],"type":"Point"},"properties":{"osm_id":"5621325324","tag":{"amenity":"waste_basket"}},"type":"Feature"},
	{"geometry":{"coordinates":[25.254496,53.904143],"type":"Point"},"properties":{"osm_id":"5621325325","tag":{"amenity":"waste_basket"}},"type":"Feature"},
	{"geometry":{"coordinates":[25.254031,53.904277],"type":"Point"},"properties":{"osm_id":"5621325326","tag":{"amenity":"waste_basket"}},"type":"Feature"},
	{"geometry":{"coordinates":[25.255286,53.903409],"type":"Point"},"properties":{"osm_id":"5623704244","tag":{"amenity":"waste_basket"}},"type":"Feature"},
	{"geometry":{"coordinates":[25.255495,53.90346],"type":"Point"},"properties":{"osm_id":"5623704246","tag":{"amenity":"waste_basket"}},"type":"Feature"},
	{"geometry":{"coordinates":[25.255123,53.903381],"type":"Point"},"properties":{"osm_id":"5623704247","tag":{"amenity":"waste_basket"}},"type":"Feature"},
	{"geometry":{"coordinates":[25.25491,53.903352],"type":"Point"},"properties":{"osm_id":"5623704250","tag":{"amenity":"waste_basket"}},"type":"Feature"},
	{"geometry":{"coordinates":[25.259116,53.899429],"type":"Point"},"properties":{"osm_id":"5623704261","tag":{"amenity":"waste_basket"}},"type":"Feature"},
	{"geometry":{"coordinates":[25.259227,53.899932],"type":"Point"},"properties":{"osm_id":"5623704262","tag":{"amenity":"waste_basket"}},"type":"Feature"},
	{"geometry":{"coordinates":[25.258856,53.899912],"type":"Point"},"properties":{"osm_id":"5623704263","tag":{"amenity":"waste_basket"}},"type":"Feature"},
	{"geometry":{"coordinates":[25.258875,53.899869],"type":"Point"},"properties":{"osm_id":"5623704264","tag":{"amenity":"waste_basket"}},"type":"Feature"},
	{"geometry":{"coordinates":[25.258892,53.899832],"type":"Point"},"properties":{"osm_id":"5623704265","tag":{"amenity":"waste_basket"}},"type":"Feature"},
	{"geometry":{"coordinates":[25.255818,53.891866],"type":"Point"},"properties":{"osm_id":"5629855128","tag":{"amenity":"waste_basket"}},"type":"Feature"},
	{"geometry":{"coordinates":[25.258266,53.899474],"type":"Point"},"properties":{"osm_id":"5629855132","tag":{"amenity":"waste_basket"}},"type":"Feature"},
	{"geometry":{"coordinates":[25.258248,53.899512],"type":"Point"},"properties":{"osm_id":"5629855133","tag":{"amenity":"waste_basket"}},"type":"Feature"},
	{"geometry":{"coordinates":[25.29702,53.888038],"type":"Point"},"properties":{"osm_id":"5643068971","tag":{"amenity":"waste_disposal"}},"type":"Feature"},
	{"geometry":{"coordinates":[25.294738,53.888064],"type":"Point"},"properties":{"osm_id":"5643068977","tag":{"amenity":"waste_disposal"}},"type":"Feature"},
	{"geometry":{"coordinates":[25.294301,53.894203],"type":"Point"},"properties":{"osm_id":"5643068990","tag":{"amenity":"waste_disposal"}},"type":"Feature"},
	{"geometry":{"coordinates":[25.283533,53.892821],"type":"Point"},"properties":{"osm_id":"5643068995","tag":{"amenity":"waste_basket"}},"type":"Feature"},
	{"geometry":{"coordinates":[25.306433,53.891848],"type":"Point"},"properties":{"osm_id":"5657971998","tag":{"amenity":"waste_disposal"}},"type":"Feature"},
	{"geometry":{"coordinates":[25.301809,53.892797],"type":"Point"},"properties":{"osm_id":"5657971999","tag":{"amenity":"waste_disposal"}},"type":"Feature"},
	{"geometry":{"coordinates":[25.301557,53.894293],"type":"Point"},"properties":{"osm_id":"5657972000","tag":{"amenity":"waste_disposal"}},"type":"Feature"},
	{"geometry":{"coordinates":[25.300319,53.895845],"type":"Point"},"properties":{"osm_id":"5657972009","tag":{"amenity":"waste_disposal"}},"type":"Feature"},
	{"geometry":{"coordinates":[25.302176,53.898148],"type":"Point"},"properties":{"osm_id":"5657972012","tag":{"amenity":"waste_disposal"}},"type":"Feature"},
	{"geometry":{"coordinates":[25.295503,53.89739],"type":"Point"},"properties":{"osm_id":"5657972014","tag":{"amenity":"waste_disposal"}},"type":"Feature"},
	{"geometry":{"coordinates":[25.295693,53.89946],"type":"Point"},"properties":{"osm_id":"5657972015","tag":{"amenity":"waste_disposal"}},"type":"Feature"},
	{"geometry":{"coordinates":[25.299352,53.884876],"type":"Point"},"properties":{"osm_id":"5660517400","tag":{"amenity":"waste_disposal"}},"type":"Feature"},
	{"geometry":{"coordinates":[25.299106,53.884629],"type":"Point"},"properties":{"osm_id":"5660517401","tag":{"amenity":"waste_disposal"}},"type":"Feature"},
	{"geometry":{"coordinates":[25.284334,53.896237],"type":"Point"},"properties":{"osm_id":"5733396802","tag":{"amenity":"waste_basket"}},"type":"Feature"},
	{"geometry":{"coordinates":[25.276648,53.891493],"type":"Point"},"properties":{"osm_id":"5746383951","tag":{"amenity":"waste_disposal"}},"type":"Feature"},
	{"geometry":{"coordinates":[25.256514,53.894554],"type":"Point"},"properties":{"osm_id":"5793387320","tag":{"amenity":"waste_basket"}},"type":"Feature"},
	{"geometry":{"coordinates":[25.302222,53.895872],"type":"Point"},"properties":{"osm_id":"5810011612","tag":{"amenity":"waste_disposal"}},"type":"Feature"},
	{"geometry":{"coordinates":[25.2548,53.894195],"type":"Point"},"properties":{"osm_id":"5841249686","tag":{"amenity":"waste_basket"}},"type":"Feature"},
	{"geometry":{"coordinates":[25.25467,53.894614],"type":"Point"},"properties":{"osm_id":"5841249688","tag":{"amenity":"waste_basket"}},"type":"Feature"},
	{"geometry":{"coordinates":[25.254471,53.894402],"type":"Point"},"properties":{"osm_id":"5841249689","tag":{"amenity":"waste_basket"}},"type":"Feature"},
	{"geometry":{"coordinates":[25.25434,53.894508],"type":"Point"},"properties":{"osm_id":"5841249690","tag":{"amenity":"waste_basket"}},"type":"Feature"},
	{"geometry":{"coordinates":[25.30342,53.894281],"type":"Point"},"properties":{"osm_id":"5907544490","tag":{"amenity":"waste_disposal"}},"type":"Feature"},
	{"geometry":{"coordinates":[25.298469,53.882249],"type":"Point"},"properties":{"osm_id":"6017201219","tag":{"amenity":"waste_disposal"}},"type":"Feature"},
	{"geometry":{"coordinates":[25.29421,53.896375],"type":"Point"},"properties":{"osm_id":"6017201270","tag":{"amenity":"waste_disposal"}},"type":"Feature"},
	{"geometry":{"coordinates":[25.293668,53.897252],"type":"Point"},"properties":{"osm_id":"6017201271","tag":{"amenity":"waste_disposal"}},"type":"Feature"},
	{"geometry":{"coordinates":[25.27581,53.877079],"type":"Point"},"properties":{"osm_id":"6033483096","tag":{"amenity":"waste_disposal"}},"type":"Feature"},
	{"geometry":{"coordinates":[25.297772,53.897685],"type":"Point"},"properties":{"osm_id":"6189307193","tag":{"amenity":"waste_disposal"}},"type":"Feature"},
	{"geometry":{"coordinates":[25.27309,53.897614],"type":"Point"},"properties":{"osm_id":"6283828933","tag":{"amenity":"waste_disposal"}},"type":"Feature"},
	{"geometry":{"coordinates":[25.274916,53.897603],"type":"Point"},"properties":{"osm_id":"6283828984","tag":{"amenity":"waste_disposal"}},"type":"Feature"},
	{"geometry":{"coordinates":[25.302192,53.889177],"type":"Point"},"properties":{"osm_id":"6371610149","tag":{"amenity":"waste_disposal"}},"type":"Feature"},
	{"geometry":{"coordinates":[25.309091,53.874331],"type":"Point"},"properties":{"osm_id":"6401768215","tag":{"amenity":"waste_disposal"}},"type":"Feature"},
	{"geometry":{"coordinates":[25.278799,53.877023],"type":"Point"},"properties":{"osm_id":"6483321081","tag":{"amenity":"waste_disposal"}},"type":"Feature"},
	{"geometry":{"coordinates":[25.264923,53.894328],"type":"Point"},"properties":{"osm_id":"6548793076","tag":{"amenity":"waste_disposal"}},"type":"Feature"},
	{"geometry":{"coordinates":[25.271739,53.894456],"type":"Point"},"properties":{"osm_id":"6550669441","tag":{"amenity":"waste_disposal"}},"type":"Feature"},
	{"geometry":{"coordinates":[25.287582,53.890035],"type":"Point"},"properties":{"osm_id":"6565478390","tag":{"amenity":"waste_basket"}},"type":"Feature"},
	{"geometry":{"coordinates":[25.27909,53.892757],"type":"Point"},"properties":{"osm_id":"6780337403","tag":{"amenity":"waste_disposal"}},"type":"Feature"}
]
}
