{
"type": "FeatureCollection",
"features": [
	{"geometry":{"coordinates":[25.309559,50.718351],"type":"Point"},"properties":{"osm_id":"6533926823","tag":{"amenity":"waste_disposal"}},"type":"Feature"},
	{"geometry":{"coordinates":[25.31089,50.719894],"type":"Point"},"properties":{"osm_id":"6533926865","tag":{"amenity":"waste_disposal","waste":"trash"}},"type":"Feature"},
	{"geometry":{"coordinates":[25.305668,50.724679],"type":"Point"},"properties":{"osm_id":"6535003115","tag":{"amenity":"waste_disposal"}},"type":"Feature"},
	{"geometry":{"coordinates":[25.3076,50.723613],"type":"Point"},"properties":{"osm_id":"6535003116","tag":{"amenity":"waste_disposal"}},"type":"Feature"},
	{"geometry":{"coordinates":[25.311239,50.723031],"type":"Point"},"properties":{"osm_id":"6535003117","tag":{"amenity":"waste_disposal"}},"type":"Feature"},
	{"geometry":{"coordinates":[25.309147,50.71749],"type":"Point"},"properties":{"osm_id":"6535003135","tag":{"amenity":"waste_disposal"}},"type":"Feature"},
	{"geometry":{"coordinates":[25.31245,50.718558],"type":"Point"},"properties":{"osm_id":"6535003163","tag":{"amenity":"waste_disposal"}},"type":"Feature"},
	{"geometry":{"coordinates":[25.312466,50.719453],"type":"Point"},"properties":{"osm_id":"6535196101","tag":{"amenity":"waste_disposal"}},"type":"Feature"},
	{"geometry":{"coordinates":[25.310879,50.719869],"type":"Point"},"properties":{"osm_id":"6535196151","tag":{"amenity":"recycling","recycling:plastic":"yes","recycling:plastic_bottles":"yes","recycling_type":"container"}},"type":"Feature"},
	{"geometry":{"coordinates":[25.306301,50.72664],"type":"Point"},"properties":{"osm_id":"6537562621","tag":{"amenity":"waste_disposal"}},"type":"Feature"},
	{"geometry":{"coordinates":[25.306006,50.716536],"type":"Point"},"properties":{"osm_id":"6562409056","tag":{"amenity":"waste_disposal"}},"type":"Feature"},
	{"geometry":{"coordinates":[25.310437,50.717923],"type":"Point"},"properties":{"osm_id":"6562409089","tag":{"amenity":"waste_disposal"}},"type":"Feature"},
	{"geometry":{"coordinates":[25.3109,50.719919],"type":"Point"},"properties":{"osm_id":"7594582889","tag":{"amenity":"recycling","recycling:beverage_cartons":"yes","recycling:cans":"yes","recycling:glass":"yes","recycling:glass_bottles":"yes","recycling:plastic":"no","recycling:plastic_bottles":"no","recycling:small_appliances":"yes","recycling_type":"container","wheelchair":"yes"}},"type":"Feature"},
	{"geometry":{"coordinates":[25.312025,50.71799],"type":"Point"},"properties":{"osm_id":"7807398252","tag":{"amenity":"recycling","recycling:plastic":"yes","recycling:plastic_bottles":"yes","recycling_type":"container"}},"type":"Feature"},
	{"geometry":{"coordinates":[25.312035,50.718015],"type":"Point"},"properties":{"osm_id":"7807398253","tag":{"amenity":"waste_disposal","waste":"trash"}},"type":"Feature"},
	{"geometry":{"coordinates":[25.312046,50.718041],"type":"Point"},"properties":{"osm_id":"7807398254","tag":{"amenity":"recycling","recycling:beverage_cartons":"yes","recycling:cans":"yes","recycling:glass":"yes","recycling:glass_bottles":"yes","recycling:plastic":"no","recycling:plastic_bottles":"no","recycling:small_appliances":"yes","recycling_type":"container","wheelchair":"yes"}},"type":"Feature"},
	{"geometry":{"coordinates":[25.296177,50.729915],"type":"Point"},"properties":{"osm_id":"7928568412","tag":{"amenity":"waste_disposal"}},"type":"Feature"},
	{"geometry":{"coordinates":[25.296235,50.729883],"type":"Point"},"properties":{"osm_id":"7928568413","tag":{"amenity":"waste_disposal"}},"type":"Feature"},
	{"geometry":{"coordinates":[25.296281,50.729856],"type":"Point"},"properties":{"osm_id":"7928568414","tag":{"amenity":"waste_disposal"}},"type":"Feature"},
	{"geometry":{"coordinates":[25.296334,50.729824],"type":"Point"},"properties":{"osm_id":"7928568415","tag":{"amenity":"waste_disposal"}},"type":"Feature"}
]
}
