{
"type": "FeatureCollection",
"features": [
	{"geometry":{"coordinates":[33.681944,31.091389],"type":"Point"},"properties":{"is_in":"Egypt, \u00d8\u00ac\u00d9\u0085\u00d9\u0087\u00d9\u0088\u00d8\u00b1\u00d9\u008a\u00d8\u00a9 \u00d9\u0085\u00d8\u00b5\u00d8\u00b1 \u00d8\u00a7\u00d9\u0084\u00d8\u00b9\u00d8\u00b1\u00d8\u00a8\u00d9\u008a\u00d8\u00a9","name":"\u00d8\u00a7\u00d9\u0084\u00d8\u00b4\u00d8\u00b1\u00d9\u008a\u00d9\u0081","osm_id":"768597370","place":"locality","tag":{"alt_name":"\u00d8\u00a7\u00d9\u0084\u00d8\u00b4\u00d8\u00b1\u00d9\u008a\u00d9\u0081","int_name":"El-Sher\u00c3\u00aef, Al Sherif","name:ar":"\u00d8\u00a7\u00d9\u0084\u00d8\u00b4\u00d8\u00b1\u00d9\u008a\u00d9\u0081","name:ar1":"\u00d8\u00a7\u00d9\u0084\u00d8\u00b4\u00d8\u00b1\u00d9\u008a\u00d9\u0081","name:de":"Al Sherif","name:en":"Al Sherif","name:fr":"Al Sherif","natural":"tree"}},"type":"Feature"},
	{"geometry":{"coordinates":[33.662778,31.100833],"type":"Point"},"properties":{"is_in":"Egypt, \u00d8\u00ac\u00d9\u0085\u00d9\u0087\u00d9\u0088\u00d8\u00b1\u00d9\u008a\u00d8\u00a9 \u00d9\u0085\u00d8\u00b5\u00d8\u00b1 \u00d8\u00a7\u00d9\u0084\u00d8\u00b9\u00d8\u00b1\u00d8\u00a8\u00d9\u008a\u00d8\u00a9","name":"\u00d8\u00a3\u00d8\u00a8\u00d9\u0088 \u00d8\u00b9\u00d9\u0088\u00d9\u008a\u00d8\u00af\u00d8\u00a7\u00d8\u00aa","osm_id":"768597773","place":"locality","tag":{"alt_name":"\u00d8\u00a3\u00d8\u00a8\u00d9\u0088 \u00d8\u00b9\u00d9\u0088\u00d9\u008a\u00d8\u00af\u00d8\u00a7\u00d8\u00aa","int_name":"Abu Aweidat, Abu Aweidat","name:ar":"\u00d8\u00a3\u00d8\u00a8\u00d9\u0088 \u00d8\u00b9\u00d9\u0088\u00d9\u008a\u00d8\u00af\u00d8\u00a7\u00d8\u00aa","name:ar1":"\u00d8\u00a3\u00d8\u00a8\u00d9\u0088 \u00d8\u00b9\u00d9\u0088\u00d9\u008a\u00d8\u00af\u00d8\u00a7\u00d8\u00aa","name:de":"Abu Aweidat","name:en":"Abu Aweidat","name:fr":"Abu Aweidat","natural":"tree"}},"type":"Feature"}
]
}
