{
"type": "FeatureCollection",
"features": [
	{"geometry":{"coordinates":[149.15363,-35.28933],"type":"Point"},"properties":{"name":"Charity clothes recycling (various)","osm_id":"602927334","tag":{"amenity":"recycling"}},"type":"Feature"},
	{"geometry":{"coordinates":[149.150851,-35.279927],"type":"Point"},"properties":{"osm_id":"7042541291","tag":{"amenity":"waste_basket"}},"type":"Feature"},
	{"geometry":{"coordinates":[149.15092,-35.279326],"type":"Point"},"properties":{"osm_id":"7042587491","tag":{"amenity":"waste_basket"}},"type":"Feature"},
	{"geometry":{"coordinates":[149.187795,-35.298658],"type":"Point"},"properties":{"osm_id":"7235883585","tag":{"amenity":"waste_basket"}},"type":"Feature"},
	{"geometry":{"coordinates":[149.187114,-35.298773],"type":"Point"},"properties":{"osm_id":"7235883586","tag":{"amenity":"waste_basket"}},"type":"Feature"},
	{"geometry":{"coordinates":[149.186842,-35.298733],"type":"Point"},"properties":{"osm_id":"7235883589","tag":{"amenity":"waste_basket"}},"type":"Feature"},
	{"geometry":{"coordinates":[149.186777,-35.298629],"type":"Point"},"properties":{"osm_id":"7235883590","tag":{"amenity":"waste_basket"}},"type":"Feature"},
	{"geometry":{"coordinates":[149.18694,-35.298477],"type":"Point"},"properties":{"osm_id":"7235883591","tag":{"amenity":"waste_basket"}},"type":"Feature"},
	{"geometry":{"coordinates":[149.186835,-35.298544],"type":"Point"},"properties":{"osm_id":"7235883592","tag":{"amenity":"waste_basket"}},"type":"Feature"}
]
}
