{
"type": "FeatureCollection",
"features": [
	{"geometry":{"coordinates":[149.151466,-35.396006],"type":"Point"},"properties":{"name":"ACT Materials Recovery Facility","osm_id":"694093134","tag":{"amenity":"recycling"}},"type":"Feature"},
	{"geometry":{"coordinates":[149.237936,-35.416984],"type":"Point"},"properties":{"osm_id":"5245299057","tag":{"amenity":"waste_basket"}},"type":"Feature"},
	{"geometry":{"coordinates":[149.236778,-35.427975],"type":"Point"},"properties":{"osm_id":"5245374921","tag":{"amenity":"waste_basket"}},"type":"Feature"},
	{"geometry":{"coordinates":[149.230133,-35.420306],"type":"Point"},"properties":{"osm_id":"5245374926","tag":{"amenity":"waste_basket"}},"type":"Feature"},
	{"geometry":{"coordinates":[149.233202,-35.416811],"type":"Point"},"properties":{"osm_id":"5245374940","tag":{"amenity":"waste_basket"}},"type":"Feature"},
	{"geometry":{"coordinates":[149.230092,-35.420061],"type":"Point"},"properties":{"osm_id":"5245374942","tag":{"amenity":"waste_basket"}},"type":"Feature"},
	{"geometry":{"coordinates":[149.233385,-35.41786],"type":"Point"},"properties":{"osm_id":"5245374944","tag":{"amenity":"waste_basket"}},"type":"Feature"},
	{"geometry":{"coordinates":[149.233271,-35.41786],"type":"Point"},"properties":{"osm_id":"5245374945","tag":{"amenity":"waste_basket"}},"type":"Feature"},
	{"geometry":{"coordinates":[149.237354,-35.419388],"type":"Point"},"properties":{"osm_id":"5245375018","tag":{"amenity":"waste_basket"}},"type":"Feature"},
	{"geometry":{"coordinates":[149.237697,-35.421801],"type":"Point"},"properties":{"osm_id":"5245375025","tag":{"amenity":"waste_basket"}},"type":"Feature"},
	{"geometry":{"coordinates":[149.236917,-35.423145],"type":"Point"},"properties":{"osm_id":"5824611767","tag":{"amenity":"waste_basket"}},"type":"Feature"},
	{"geometry":{"coordinates":[149.236516,-35.422774],"type":"Point"},"properties":{"osm_id":"5824611774","tag":{"amenity":"waste_basket"}},"type":"Feature"},
	{"geometry":{"coordinates":[149.236552,-35.422083],"type":"Point"},"properties":{"osm_id":"5824611779","tag":{"amenity":"waste_basket"}},"type":"Feature"}
]
}
