{
"type": "FeatureCollection",
"features": [
	{"geometry":{"coordinates":[-122.349019,49.044576],"type":"Point"},"properties":{"name":"R & T Recyclables","osm_id":"3791874758","tag":{"addr:unit":"23","amenity":"recycling","opening_hours":"Mo-Sa 09:00-17:30; Su 10:00-16:00","opening_hours:url":"http://www.rtrecyclingcentre.com","operator":"Encorp Return-It Depot","phone":"+1-604-996-1076","recycling:cardboard":"yes","recycling:electronics":"yes","recycling:glass":"yes","recycling:paint":"yes","recycling_type":"centre","website":"http://www.rtrecyclingcentre.com"}},"type":"Feature"},
	{"geometry":{"coordinates":[-122.430749,49.06339],"type":"Point"},"properties":{"osm_id":"4339361963","tag":{"amenity":"waste_basket"}},"type":"Feature"},
	{"geometry":{"coordinates":[-122.344881,49.058229],"type":"Point"},"properties":{"osm_id":"4571186693","tag":{"amenity":"waste_basket"}},"type":"Feature"},
	{"geometry":{"coordinates":[-122.350423,49.055382],"type":"Point"},"properties":{"osm_id":"4571207293","tag":{"amenity":"waste_basket"}},"type":"Feature"},
	{"geometry":{"coordinates":[-122.34908,49.057931],"type":"Point"},"properties":{"osm_id":"4571251690","tag":{"amenity":"waste_basket"}},"type":"Feature"},
	{"geometry":{"coordinates":[-122.354066,49.053074],"type":"Point"},"properties":{"osm_id":"4595556494","tag":{"amenity":"waste_basket"}},"type":"Feature"},
	{"geometry":{"coordinates":[-122.352469,49.052843],"type":"Point"},"properties":{"osm_id":"4595557107","tag":{"amenity":"waste_basket"}},"type":"Feature"},
	{"geometry":{"coordinates":[-122.377104,49.057594],"type":"Point"},"properties":{"osm_id":"4693035690","tag":{"amenity":"waste_basket"}},"type":"Feature"},
	{"geometry":{"coordinates":[-122.358091,49.054406],"type":"Point"},"properties":{"osm_id":"4908080621","tag":{"amenity":"waste_disposal"}},"type":"Feature"},
	{"geometry":{"coordinates":[-122.366521,49.057199],"type":"Point"},"properties":{"osm_id":"4939720797","tag":{"amenity":"waste_basket"}},"type":"Feature"},
	{"geometry":{"coordinates":[-122.352481,49.060459],"type":"Point"},"properties":{"osm_id":"5176810329","tag":{"amenity":"waste_basket","amenity:recycling":"yes"}},"type":"Feature"},
	{"geometry":{"coordinates":[-122.349096,49.065795],"type":"Point"},"properties":{"osm_id":"5176856922","tag":{"amenity":"waste_basket"}},"type":"Feature"},
	{"geometry":{"coordinates":[-122.365301,49.051936],"type":"Point"},"properties":{"osm_id":"5519410231","tag":{"amenity":"waste_basket"}},"type":"Feature"},
	{"geometry":{"coordinates":[-122.36457,49.0527],"type":"Point"},"properties":{"osm_id":"5519417223","tag":{"amenity":"waste_basket"}},"type":"Feature"},
	{"geometry":{"coordinates":[-122.354077,49.057315],"type":"Point"},"properties":{"osm_id":"5519777947","tag":{"amenity":"waste_basket"}},"type":"Feature"},
	{"geometry":{"coordinates":[-122.353941,49.057318],"type":"Point"},"properties":{"osm_id":"5519777948","tag":{"amenity":"recycling","recycling_type":"container"}},"type":"Feature"},
	{"geometry":{"coordinates":[-122.353214,49.05787],"type":"Point"},"properties":{"osm_id":"5519988023","tag":{"amenity":"waste_basket"}},"type":"Feature"},
	{"geometry":{"coordinates":[-122.354872,49.057534],"type":"Point"},"properties":{"osm_id":"5519999922","tag":{"amenity":"waste_basket"}},"type":"Feature"},
	{"geometry":{"coordinates":[-122.353715,49.057351],"type":"Point"},"properties":{"osm_id":"5520541525","tag":{"amenity":"waste_basket"}},"type":"Feature"},
	{"geometry":{"coordinates":[-122.365161,49.051884],"type":"Point"},"properties":{"osm_id":"5520773750","tag":{"amenity":"recycling","recycling_type":"container"}},"type":"Feature"},
	{"geometry":{"coordinates":[-122.365177,49.05188],"type":"Point"},"properties":{"osm_id":"5520773751","tag":{"amenity":"waste_basket"}},"type":"Feature"},
	{"geometry":{"coordinates":[-122.364725,49.051943],"type":"Point"},"properties":{"osm_id":"5520774139","tag":{"amenity":"waste_basket"}},"type":"Feature"},
	{"geometry":{"coordinates":[-122.36401,49.051592],"type":"Point"},"properties":{"osm_id":"5520838605","tag":{"amenity":"waste_basket"}},"type":"Feature"},
	{"geometry":{"coordinates":[-122.363616,49.051285],"type":"Point"},"properties":{"osm_id":"5520838606","tag":{"amenity":"waste_basket"}},"type":"Feature"},
	{"geometry":{"coordinates":[-122.363345,49.050989],"type":"Point"},"properties":{"osm_id":"5520838607","tag":{"amenity":"waste_basket"}},"type":"Feature"},
	{"geometry":{"coordinates":[-122.354406,49.052165],"type":"Point"},"properties":{"osm_id":"5520839761","tag":{"amenity":"waste_basket"}},"type":"Feature"},
	{"geometry":{"coordinates":[-122.363062,49.050862],"type":"Point"},"properties":{"osm_id":"5520870525","tag":{"amenity":"recycling","recycling_type":"container"}},"type":"Feature"},
	{"geometry":{"coordinates":[-122.354802,49.051972],"type":"Point"},"properties":{"osm_id":"5520870526","tag":{"amenity":"waste_basket"}},"type":"Feature"},
	{"geometry":{"coordinates":[-122.359915,49.049496],"type":"Point"},"properties":{"osm_id":"5520884321","tag":{"amenity":"waste_basket"}},"type":"Feature"},
	{"geometry":{"coordinates":[-122.379091,49.06234],"type":"Point"},"properties":{"osm_id":"5597467553","tag":{"amenity":"recycling","recycling_type":"container"}},"type":"Feature"},
	{"geometry":{"coordinates":[-122.379149,49.062342],"type":"Point"},"properties":{"osm_id":"5597467554","tag":{"amenity":"waste_disposal"}},"type":"Feature"},
	{"geometry":{"coordinates":[-122.355141,49.069281],"type":"Point"},"properties":{"osm_id":"5952585963","tag":{"amenity":"waste_basket"}},"type":"Feature"},
	{"geometry":{"coordinates":[-122.376101,49.058168],"type":"Point"},"properties":{"osm_id":"6433131681","tag":{"amenity":"waste_basket"}},"type":"Feature"},
	{"geometry":{"coordinates":[-122.366735,49.0574],"type":"Point"},"properties":{"osm_id":"7714631597","tag":{"amenity":"waste_basket"}},"type":"Feature"},
	{"geometry":{"coordinates":[-122.366821,49.057824],"type":"Point"},"properties":{"osm_id":"7714631598","tag":{"amenity":"waste_basket"}},"type":"Feature"},
	{"geometry":{"coordinates":[-122.371673,49.054588],"type":"Point"},"properties":{"osm_id":"8356037117","tag":{"amenity":"waste_disposal"}},"type":"Feature"},
	{"geometry":{"coordinates":[-122.382905,49.06008],"type":"Point"},"properties":{"osm_id":"8851855156","tag":{"amenity":"waste_disposal"}},"type":"Feature"},
	{"geometry":{"coordinates":[-122.382871,49.060056],"type":"Point"},"properties":{"osm_id":"8851855157","tag":{"amenity":"waste_disposal"}},"type":"Feature"},
	{"geometry":{"coordinates":[-122.382897,49.060044],"type":"Point"},"properties":{"osm_id":"8851855158","tag":{"amenity":"waste_disposal"}},"type":"Feature"},
	{"geometry":{"coordinates":[-122.375209,49.052697],"type":"Point"},"properties":{"osm_id":"8914912882","tag":{"amenity":"waste_disposal"}},"type":"Feature"},
	{"geometry":{"coordinates":[-122.375172,49.052282],"type":"Point"},"properties":{"osm_id":"8914912887","tag":{"amenity":"waste_disposal"}},"type":"Feature"},
	{"geometry":{"coordinates":[-122.375108,49.052281],"type":"Point"},"properties":{"osm_id":"8914912893","tag":{"amenity":"waste_disposal"}},"type":"Feature"}
]
}
