{
"type": "FeatureCollection",
"features": [
	{"geometry":{"coordinates":[-122.366344,47.751437],"type":"Point"},"properties":{"osm_id":"3743736104","tag":{"amenity":"waste_basket"}},"type":"Feature"},
	{"geometry":{"coordinates":[-122.345466,47.738621],"type":"Point"},"properties":{"osm_id":"4560500764","tag":{"amenity":"waste_basket"}},"type":"Feature"},
	{"geometry":{"coordinates":[-122.355707,47.719801],"type":"Point"},"properties":{"osm_id":"4560552237","tag":{"amenity":"waste_basket"}},"type":"Feature"},
	{"geometry":{"coordinates":[-122.364412,47.700877],"type":"Point"},"properties":{"osm_id":"4769820099","tag":{"amenity":"waste_basket"}},"type":"Feature"},
	{"geometry":{"coordinates":[-122.364483,47.701354],"type":"Point"},"properties":{"osm_id":"4769820100","tag":{"amenity":"waste_basket"}},"type":"Feature"},
	{"geometry":{"coordinates":[-122.364478,47.701174],"type":"Point"},"properties":{"osm_id":"4769820101","tag":{"amenity":"waste_basket"}},"type":"Feature"},
	{"geometry":{"coordinates":[-122.36387,47.70155],"type":"Point"},"properties":{"osm_id":"4769869924","tag":{"amenity":"waste_basket"}},"type":"Feature"},
	{"geometry":{"coordinates":[-122.363992,47.701497],"type":"Point"},"properties":{"osm_id":"4769869925","tag":{"amenity":"waste_basket"}},"type":"Feature"},
	{"geometry":{"coordinates":[-122.362665,47.701869],"type":"Point"},"properties":{"osm_id":"4769869926","tag":{"amenity":"waste_basket"}},"type":"Feature"},
	{"geometry":{"coordinates":[-122.363195,47.701807],"type":"Point"},"properties":{"osm_id":"4769869929","tag":{"amenity":"waste_basket"}},"type":"Feature"},
	{"geometry":{"coordinates":[-122.363407,47.701687],"type":"Point"},"properties":{"osm_id":"4769869930","tag":{"amenity":"waste_basket"}},"type":"Feature"},
	{"geometry":{"coordinates":[-122.364174,47.701982],"type":"Point"},"properties":{"osm_id":"4769906811","tag":{"amenity":"waste_basket"}},"type":"Feature"},
	{"geometry":{"coordinates":[-122.363838,47.702163],"type":"Point"},"properties":{"osm_id":"4769906812","tag":{"amenity":"waste_basket"}},"type":"Feature"},
	{"geometry":{"coordinates":[-122.363634,47.702542],"type":"Point"},"properties":{"osm_id":"4769906814","tag":{"amenity":"waste_basket"}},"type":"Feature"},
	{"geometry":{"coordinates":[-122.363479,47.702615],"type":"Point"},"properties":{"osm_id":"4769906815","tag":{"amenity":"waste_basket"}},"type":"Feature"},
	{"geometry":{"coordinates":[-122.345723,47.74331],"type":"Point"},"properties":{"osm_id":"5298885094","tag":{"amenity":"waste_basket"}},"type":"Feature"},
	{"geometry":{"coordinates":[-122.345685,47.741687],"type":"Point"},"properties":{"osm_id":"5298885095","tag":{"amenity":"waste_basket"}},"type":"Feature"},
	{"geometry":{"coordinates":[-122.344383,47.748175],"type":"Point"},"properties":{"osm_id":"5305582700","tag":{"amenity":"waste_basket"}},"type":"Feature"},
	{"geometry":{"coordinates":[-122.366146,47.752356],"type":"Point"},"properties":{"osm_id":"5315614575","tag":{"amenity":"waste_basket"}},"type":"Feature"},
	{"geometry":{"coordinates":[-122.377035,47.695837],"type":"Point"},"properties":{"osm_id":"5579607924","tag":{"amenity":"waste_basket"}},"type":"Feature"},
	{"geometry":{"coordinates":[-122.380289,47.695691],"type":"Point"},"properties":{"osm_id":"5579607927","tag":{"amenity":"waste_basket"}},"type":"Feature"},
	{"geometry":{"coordinates":[-122.378442,47.697122],"type":"Point"},"properties":{"osm_id":"5579607935","tag":{"amenity":"waste_basket"}},"type":"Feature"},
	{"geometry":{"coordinates":[-122.377456,47.695835],"type":"Point"},"properties":{"osm_id":"5579607937","tag":{"amenity":"recycling","recycling_type":"container"}},"type":"Feature"},
	{"geometry":{"coordinates":[-122.377031,47.695111],"type":"Point"},"properties":{"osm_id":"5579607939","tag":{"amenity":"waste_basket"}},"type":"Feature"},
	{"geometry":{"coordinates":[-122.380067,47.695485],"type":"Point"},"properties":{"osm_id":"5579607940","tag":{"amenity":"waste_basket"}},"type":"Feature"},
	{"geometry":{"coordinates":[-122.380066,47.695243],"type":"Point"},"properties":{"osm_id":"5579607947","tag":{"amenity":"waste_basket"}},"type":"Feature"},
	{"geometry":{"coordinates":[-122.380404,47.69519],"type":"Point"},"properties":{"osm_id":"5579607949","tag":{"amenity":"waste_basket"}},"type":"Feature"},
	{"geometry":{"coordinates":[-122.37744,47.695835],"type":"Point"},"properties":{"osm_id":"5579607950","tag":{"amenity":"waste_basket"}},"type":"Feature"},
	{"geometry":{"coordinates":[-122.376992,47.695576],"type":"Point"},"properties":{"osm_id":"5579607952","tag":{"amenity":"recycling","recycling_type":"container"}},"type":"Feature"},
	{"geometry":{"coordinates":[-122.380082,47.695243],"type":"Point"},"properties":{"osm_id":"5579607959","tag":{"amenity":"recycling","recycling_type":"container"}},"type":"Feature"},
	{"geometry":{"coordinates":[-122.380248,47.695111],"type":"Point"},"properties":{"osm_id":"5579607960","tag":{"amenity":"waste_basket"}},"type":"Feature"},
	{"geometry":{"coordinates":[-122.377303,47.695868],"type":"Point"},"properties":{"osm_id":"5579607961","tag":{"amenity":"waste_basket"}},"type":"Feature"},
	{"geometry":{"coordinates":[-122.376992,47.695594],"type":"Point"},"properties":{"osm_id":"5579607963","tag":{"amenity":"waste_basket"}},"type":"Feature"},
	{"geometry":{"coordinates":[-122.380707,47.695245],"type":"Point"},"properties":{"osm_id":"5579607964","tag":{"amenity":"waste_basket"}},"type":"Feature"},
	{"geometry":{"coordinates":[-122.377275,47.695861],"type":"Point"},"properties":{"osm_id":"5579607972","tag":{"amenity":"recycling","recycling_type":"container"}},"type":"Feature"},
	{"geometry":{"coordinates":[-122.376913,47.695681],"type":"Point"},"properties":{"osm_id":"5579607974","tag":{"amenity":"waste_basket"}},"type":"Feature"},
	{"geometry":{"coordinates":[-122.378278,47.695115],"type":"Point"},"properties":{"osm_id":"5579607978","tag":{"amenity":"recycling","recycling_type":"container"}},"type":"Feature"},
	{"geometry":{"coordinates":[-122.377744,47.696063],"type":"Point"},"properties":{"osm_id":"5579607986","tag":{"amenity":"waste_basket"}},"type":"Feature"},
	{"geometry":{"coordinates":[-122.377016,47.695815],"type":"Point"},"properties":{"osm_id":"5579607988","tag":{"amenity":"recycling","recycling_type":"container"}},"type":"Feature"},
	{"geometry":{"coordinates":[-122.378243,47.695076],"type":"Point"},"properties":{"osm_id":"5579607991","tag":{"amenity":"waste_basket"}},"type":"Feature"},
	{"geometry":{"coordinates":[-122.378401,47.69639],"type":"Point"},"properties":{"osm_id":"5579607997","tag":{"amenity":"waste_basket"}},"type":"Feature"},
	{"geometry":{"coordinates":[-122.377252,47.700282],"type":"Point"},"properties":{"osm_id":"5614353171","tag":{"amenity":"waste_basket"}},"type":"Feature"},
	{"geometry":{"coordinates":[-122.354908,47.705177],"type":"Point"},"properties":{"osm_id":"5697414389","tag":{"amenity":"waste_basket"}},"type":"Feature"},
	{"geometry":{"coordinates":[-122.355578,47.704395],"type":"Point"},"properties":{"osm_id":"5707188052","tag":{"amenity":"waste_basket"}},"type":"Feature"},
	{"geometry":{"coordinates":[-122.355533,47.695676],"type":"Point"},"properties":{"osm_id":"5712521229","tag":{"amenity":"waste_basket"}},"type":"Feature"},
	{"geometry":{"coordinates":[-122.35529,47.699918],"type":"Point"},"properties":{"osm_id":"5712521231","tag":{"amenity":"waste_basket"}},"type":"Feature"},
	{"geometry":{"coordinates":[-122.355243,47.696414],"type":"Point"},"properties":{"osm_id":"5712521232","tag":{"amenity":"waste_basket"}},"type":"Feature"},
	{"geometry":{"coordinates":[-122.363585,47.701926],"type":"Point"},"properties":{"name":"QFC Pharmacy #872","osm_id":"6290129985","tag":{"amenity":"waste_basket","waste_disposal":"medicine"}},"type":"Feature"},
	{"geometry":{"coordinates":[-122.371806,47.711156],"type":"Point"},"properties":{"osm_id":"6768230424","tag":{"amenity":"waste_basket"}},"type":"Feature"},
	{"geometry":{"coordinates":[-122.378938,47.712463],"type":"Point"},"properties":{"osm_id":"6768230426","tag":{"amenity":"waste_basket"}},"type":"Feature"},
	{"geometry":{"coordinates":[-122.378027,47.713083],"type":"Point"},"properties":{"osm_id":"7131948950","tag":{"amenity":"waste_disposal"}},"type":"Feature"}
]
}
