{
"type": "FeatureCollection",
"lastupdate": "2020-08-01T00:00:00Z",
"features": [
	{"geometry":{"coordinates":[-122.415613,40.573076],"type":"Point"},"properties":{"osm_id":"1646620652","tag":{"amenity":"recycling","recycling:cans":"yes","recycling:glass_bottles":"yes","recycling:plastic":"no","recycling:plastic_bottles":"yes","recycling_type":"centre"}},"type":"Feature"},
	{"geometry":{"coordinates":[-122.382743,40.521717],"type":"Point"},"properties":{"name":"Jolly Giant Recycling","osm_id":"2291828920","tag":{"amenity":"recycling","recycling_type":"centre"}},"type":"Feature"},
	{"geometry":{"coordinates":[-122.353604,40.56328],"type":"Point"},"properties":{"osm_id":"6326334334","tag":{"amenity":"waste_basket"}},"type":"Feature"},
	{"geometry":{"coordinates":[-122.353606,40.563257],"type":"Point"},"properties":{"osm_id":"6326335708","tag":{"amenity":"waste_basket"}},"type":"Feature"},
	{"geometry":{"coordinates":[-122.385139,40.574739],"type":"Point"},"properties":{"osm_id":"6700455191","tag":{"amenity":"waste_basket"}},"type":"Feature"},
	{"geometry":{"coordinates":[-122.353977,40.561672],"type":"Point"},"properties":{"osm_id":"7244311071","tag":{"amenity":"waste_basket"}},"type":"Feature"},
	{"geometry":{"coordinates":[-122.415962,40.574073],"type":"Point"},"properties":{"osm_id":"7262587466","tag":{"amenity":"waste_basket"}},"type":"Feature"}
]
}
