{
"type": "FeatureCollection",
"lastupdate": "2020-07-31T00:00:00Z",
"features": [
	{"geometry":{"coordinates":[-122.431037,37.767677],"type":"Point"},"properties":{"osm_id":"1355604401","tag":{"amenity":"waste_basket"}},"type":"Feature"},
	{"geometry":{"coordinates":[-122.392516,37.768293],"type":"Point"},"properties":{"osm_id":"2337337341","tag":{"amenity":"waste_basket"}},"type":"Feature"},
	{"geometry":{"coordinates":[-122.393376,37.768578],"type":"Point"},"properties":{"osm_id":"2338523336","tag":{"amenity":"waste_basket"}},"type":"Feature"},
	{"geometry":{"coordinates":[-122.393324,37.76861],"type":"Point"},"properties":{"osm_id":"2338524067","tag":{"amenity":"recycling","recycling:cans":"yes","recycling:glass_bottles":"yes","recycling_type":"container"}},"type":"Feature"},
	{"geometry":{"coordinates":[-122.395003,37.77663],"type":"Point"},"properties":{"osm_id":"4096812395","tag":{"amenity":"waste_basket"}},"type":"Feature"},
	{"geometry":{"coordinates":[-122.394846,37.776433],"type":"Point"},"properties":{"osm_id":"4096812396","tag":{"amenity":"waste_basket"}},"type":"Feature"},
	{"geometry":{"coordinates":[-122.406044,37.738816],"type":"Point"},"properties":{"name":"Recycling center","osm_id":"4245258292","tag":{"amenity":"recycling"}},"type":"Feature"},
	{"geometry":{"coordinates":[-122.420334,37.721751],"type":"Point"},"properties":{"osm_id":"4293345003","tag":{"amenity":"waste_basket"}},"type":"Feature"},
	{"geometry":{"coordinates":[-122.425464,37.720088],"type":"Point"},"properties":{"osm_id":"4293365205","tag":{"amenity":"waste_basket"}},"type":"Feature"},
	{"geometry":{"coordinates":[-122.418654,37.722893],"type":"Point"},"properties":{"osm_id":"4293365801","tag":{"amenity":"waste_basket"}},"type":"Feature"},
	{"geometry":{"coordinates":[-122.423104,37.723687],"type":"Point"},"properties":{"osm_id":"4293370298","tag":{"amenity":"waste_basket"}},"type":"Feature"},
	{"geometry":{"coordinates":[-122.413903,37.721783],"type":"Point"},"properties":{"osm_id":"4293387609","tag":{"amenity":"waste_basket"}},"type":"Feature"},
	{"geometry":{"coordinates":[-122.413755,37.721793],"type":"Point"},"properties":{"osm_id":"4293388421","tag":{"amenity":"waste_basket"}},"type":"Feature"},
	{"geometry":{"coordinates":[-122.420917,37.722649],"type":"Point"},"properties":{"osm_id":"4293390498","tag":{"amenity":"waste_basket"}},"type":"Feature"},
	{"geometry":{"coordinates":[-122.420209,37.721736],"type":"Point"},"properties":{"osm_id":"4293393196","tag":{"amenity":"waste_basket"}},"type":"Feature"},
	{"geometry":{"coordinates":[-122.423008,37.722248],"type":"Point"},"properties":{"osm_id":"4293393395","tag":{"amenity":"waste_basket"}},"type":"Feature"},
	{"geometry":{"coordinates":[-122.420746,37.721878],"type":"Point"},"properties":{"osm_id":"4293423390","tag":{"amenity":"waste_basket"}},"type":"Feature"},
	{"geometry":{"coordinates":[-122.414255,37.722363],"type":"Point"},"properties":{"osm_id":"4293425891","tag":{"amenity":"waste_basket"}},"type":"Feature"},
	{"geometry":{"coordinates":[-122.414282,37.722142],"type":"Point"},"properties":{"osm_id":"4293454193","tag":{"amenity":"waste_basket"}},"type":"Feature"},
	{"geometry":{"coordinates":[-122.413455,37.722155],"type":"Point"},"properties":{"osm_id":"4293454414","tag":{"amenity":"waste_basket"}},"type":"Feature"},
	{"geometry":{"coordinates":[-122.414019,37.72207],"type":"Point"},"properties":{"osm_id":"4293454498","tag":{"amenity":"waste_basket"}},"type":"Feature"},
	{"geometry":{"coordinates":[-122.412675,37.72015],"type":"Point"},"properties":{"osm_id":"4293457690","tag":{"amenity":"waste_basket"}},"type":"Feature"},
	{"geometry":{"coordinates":[-122.424425,37.719849],"type":"Point"},"properties":{"osm_id":"4293460248","tag":{"amenity":"waste_basket"}},"type":"Feature"},
	{"geometry":{"coordinates":[-122.424201,37.719802],"type":"Point"},"properties":{"osm_id":"4293473625","tag":{"amenity":"waste_basket"}},"type":"Feature"},
	{"geometry":{"coordinates":[-122.397684,37.772295],"type":"Point"},"properties":{"osm_id":"5184539666","tag":{"amenity":"waste_basket"}},"type":"Feature"},
	{"geometry":{"coordinates":[-122.395808,37.773781],"type":"Point"},"properties":{"osm_id":"5184540051","tag":{"amenity":"waste_basket"}},"type":"Feature"},
	{"geometry":{"coordinates":[-122.395515,37.773731],"type":"Point"},"properties":{"osm_id":"5184540052","tag":{"amenity":"waste_basket"}},"type":"Feature"},
	{"geometry":{"coordinates":[-122.395174,37.773409],"type":"Point"},"properties":{"osm_id":"5184540053","tag":{"amenity":"waste_basket"}},"type":"Feature"},
	{"geometry":{"coordinates":[-122.39298,37.77513],"type":"Point"},"properties":{"osm_id":"5184540084","tag":{"amenity":"waste_basket"}},"type":"Feature"},
	{"geometry":{"coordinates":[-122.393179,37.773576],"type":"Point"},"properties":{"osm_id":"5184540248","tag":{"amenity":"waste_basket"}},"type":"Feature"},
	{"geometry":{"coordinates":[-122.393044,37.773602],"type":"Point"},"properties":{"osm_id":"5184540250","tag":{"amenity":"waste_basket"}},"type":"Feature"},
	{"geometry":{"coordinates":[-122.393491,37.773413],"type":"Point"},"properties":{"osm_id":"5184540258","tag":{"amenity":"waste_basket"}},"type":"Feature"},
	{"geometry":{"coordinates":[-122.392275,37.774313],"type":"Point"},"properties":{"osm_id":"5184722774","tag":{"amenity":"waste_basket"}},"type":"Feature"},
	{"geometry":{"coordinates":[-122.392083,37.774332],"type":"Point"},"properties":{"osm_id":"5184722775","tag":{"amenity":"waste_basket"}},"type":"Feature"},
	{"geometry":{"coordinates":[-122.406024,37.776855],"type":"Point"},"properties":{"osm_id":"5878388351","tag":{"amenity":"waste_basket"}},"type":"Feature"},
	{"geometry":{"coordinates":[-122.417899,37.765038],"type":"Point"},"properties":{"name":"eWasteSF","osm_id":"5992714950","tag":{"amenity":"recycling","recycling:electrical_appliances":"yes","recycling:small_appliances":"yes","recycling_type":"centre","website":"https://www.ewastesf.com/"}},"type":"Feature"},
	{"geometry":{"coordinates":[-122.390446,37.768805],"type":"Point"},"properties":{"osm_id":"6337146016","tag":{"amenity":"waste_basket"}},"type":"Feature"},
	{"geometry":{"coordinates":[-122.389893,37.768838],"type":"Point"},"properties":{"osm_id":"6337146034","tag":{"amenity":"waste_basket"}},"type":"Feature"},
	{"geometry":{"coordinates":[-122.403677,37.785329],"type":"Point"},"properties":{"osm_id":"6489341652","tag":{"amenity":"waste_basket"}},"type":"Feature"},
	{"geometry":{"coordinates":[-122.40409,37.785592],"type":"Point"},"properties":{"osm_id":"6489341653","tag":{"amenity":"waste_basket"}},"type":"Feature"},
	{"geometry":{"coordinates":[-122.411994,37.781269],"type":"Point"},"properties":{"osm_id":"6564052379","tag":{"amenity":"waste_basket"}},"type":"Feature"},
	{"geometry":{"coordinates":[-122.417607,37.776318],"type":"Point"},"properties":{"osm_id":"6604012618","tag":{"amenity":"waste_basket"}},"type":"Feature"},
	{"geometry":{"coordinates":[-122.416891,37.779356],"type":"Point"},"properties":{"osm_id":"6612383951","tag":{"amenity":"waste_basket"}},"type":"Feature"},
	{"geometry":{"coordinates":[-122.416789,37.778835],"type":"Point"},"properties":{"osm_id":"6612383955","tag":{"amenity":"waste_basket"}},"type":"Feature"},
	{"geometry":{"coordinates":[-122.417043,37.779773],"type":"Point"},"properties":{"osm_id":"6612383956","tag":{"amenity":"waste_basket"}},"type":"Feature"}
]
}
