{
"type": "FeatureCollection",
"features": [
	{"geometry":{"coordinates":[-122.399613,37.708009],"type":"Point"},"properties":{"name":"San Francisco Dump","osm_id":"361100877","tag":{"amenity":"recycling"}},"type":"Feature"},
	{"geometry":{"coordinates":[-122.427328,37.715322],"type":"Point"},"properties":{"osm_id":"4265260145","tag":{"amenity":"waste_basket"}},"type":"Feature"},
	{"geometry":{"coordinates":[-122.425603,37.717748],"type":"Point"},"properties":{"osm_id":"4294905889","tag":{"amenity":"waste_basket"}},"type":"Feature"},
	{"geometry":{"coordinates":[-122.42748,37.714513],"type":"Point"},"properties":{"osm_id":"4294923989","tag":{"amenity":"waste_basket"}},"type":"Feature"},
	{"geometry":{"coordinates":[-122.427685,37.71389],"type":"Point"},"properties":{"osm_id":"4295112722","tag":{"amenity":"waste_basket"}},"type":"Feature"},
	{"geometry":{"coordinates":[-122.427867,37.714193],"type":"Point"},"properties":{"osm_id":"4295112724","tag":{"amenity":"waste_basket"}},"type":"Feature"},
	{"geometry":{"coordinates":[-122.42863,37.714357],"type":"Point"},"properties":{"osm_id":"4295112725","tag":{"amenity":"waste_basket"}},"type":"Feature"},
	{"geometry":{"coordinates":[-122.410444,37.712217],"type":"Point"},"properties":{"osm_id":"5790837333","tag":{"amenity":"waste_basket"}},"type":"Feature"},
	{"geometry":{"coordinates":[-122.403941,37.711238],"type":"Point"},"properties":{"osm_id":"5790966640","tag":{"amenity":"waste_basket"}},"type":"Feature"}
]
}
