{
"type": "FeatureCollection",
"features": [
	{"geometry":{"coordinates":[-75.48874,45.472715],"type":"Point"},"properties":{"osm_id":"965963023","tag":{"amenity":"waste_basket"}},"type":"Feature"},
	{"geometry":{"coordinates":[-75.490308,45.471779],"type":"Point"},"properties":{"osm_id":"965963024","tag":{"amenity":"waste_basket"}},"type":"Feature"},
	{"geometry":{"coordinates":[-75.488175,45.475444],"type":"Point"},"properties":{"osm_id":"965963025","tag":{"amenity":"waste_basket"}},"type":"Feature"},
	{"geometry":{"coordinates":[-75.47306,45.482517],"type":"Point"},"properties":{"osm_id":"966114830","tag":{"amenity":"waste_basket"}},"type":"Feature"},
	{"geometry":{"coordinates":[-75.474409,45.480987],"type":"Point"},"properties":{"osm_id":"966114835","tag":{"amenity":"waste_basket"}},"type":"Feature"},
	{"geometry":{"coordinates":[-75.473887,45.481814],"type":"Point"},"properties":{"osm_id":"966114841","tag":{"amenity":"waste_basket"}},"type":"Feature"},
	{"geometry":{"coordinates":[-75.476342,45.481119],"type":"Point"},"properties":{"osm_id":"966114842","tag":{"amenity":"waste_basket"}},"type":"Feature"},
	{"geometry":{"coordinates":[-75.490933,45.469541],"type":"Point"},"properties":{"osm_id":"967336098","tag":{"amenity":"waste_basket"}},"type":"Feature"},
	{"geometry":{"coordinates":[-75.492875,45.471334],"type":"Point"},"properties":{"osm_id":"974580559","tag":{"amenity":"waste_basket"}},"type":"Feature"},
	{"geometry":{"coordinates":[-75.493057,45.471269],"type":"Point"},"properties":{"osm_id":"974580771","tag":{"amenity":"waste_basket"}},"type":"Feature"},
	{"geometry":{"coordinates":[-75.446813,45.464733],"type":"Point"},"properties":{"osm_id":"4937329593","tag":{"amenity":"waste_basket"}},"type":"Feature"},
	{"geometry":{"coordinates":[-75.446748,45.464623],"type":"Point"},"properties":{"osm_id":"4937329594","tag":{"amenity":"waste_basket"}},"type":"Feature"},
	{"geometry":{"coordinates":[-75.446682,45.474241],"type":"Point"},"properties":{"osm_id":"6632498583","tag":{"amenity":"waste_basket"}},"type":"Feature"},
	{"geometry":{"coordinates":[-75.44702,45.474352],"type":"Point"},"properties":{"osm_id":"6632498584","tag":{"amenity":"waste_basket"}},"type":"Feature"},
	{"geometry":{"coordinates":[-75.479998,45.487343],"type":"Point"},"properties":{"osm_id":"6632614005","tag":{"amenity":"waste_basket"}},"type":"Feature"},
	{"geometry":{"coordinates":[-75.473781,45.461934],"type":"Point"},"properties":{"osm_id":"6632614691","tag":{"amenity":"waste_basket"}},"type":"Feature"},
	{"geometry":{"coordinates":[-75.494753,45.490658],"type":"Point"},"properties":{"osm_id":"6633660449","tag":{"amenity":"waste_basket"}},"type":"Feature"},
	{"geometry":{"coordinates":[-75.495484,45.490675],"type":"Point"},"properties":{"osm_id":"6633660460","tag":{"amenity":"waste_basket"}},"type":"Feature"},
	{"geometry":{"coordinates":[-75.465564,45.4811],"type":"Point"},"properties":{"osm_id":"6637744756","tag":{"amenity":"waste_basket"}},"type":"Feature"},
	{"geometry":{"coordinates":[-75.477499,45.461522],"type":"Point"},"properties":{"osm_id":"6637744788","tag":{"amenity":"waste_basket"}},"type":"Feature"},
	{"geometry":{"coordinates":[-75.478599,45.460622],"type":"Point"},"properties":{"osm_id":"6637744789","tag":{"amenity":"waste_basket"}},"type":"Feature"},
	{"geometry":{"coordinates":[-75.476374,45.488629],"type":"Point"},"properties":{"osm_id":"6638700558","tag":{"amenity":"waste_basket"}},"type":"Feature"},
	{"geometry":{"coordinates":[-75.4668,45.475559],"type":"Point"},"properties":{"osm_id":"6639325947","tag":{"amenity":"waste_basket"}},"type":"Feature"},
	{"geometry":{"coordinates":[-75.460089,45.478157],"type":"Point"},"properties":{"osm_id":"6647636793","tag":{"amenity":"waste_basket"}},"type":"Feature"},
	{"geometry":{"coordinates":[-75.459406,45.478222],"type":"Point"},"properties":{"osm_id":"6647636794","tag":{"amenity":"waste_basket"}},"type":"Feature"},
	{"geometry":{"coordinates":[-75.460351,45.477917],"type":"Point"},"properties":{"osm_id":"6647636796","tag":{"amenity":"waste_basket"}},"type":"Feature"},
	{"geometry":{"coordinates":[-75.458782,45.477884],"type":"Point"},"properties":{"osm_id":"6647636797","tag":{"amenity":"waste_basket"}},"type":"Feature"},
	{"geometry":{"coordinates":[-75.459412,45.478412],"type":"Point"},"properties":{"osm_id":"6647636798","tag":{"amenity":"waste_basket"}},"type":"Feature"},
	{"geometry":{"coordinates":[-75.459249,45.478311],"type":"Point"},"properties":{"osm_id":"6647636799","tag":{"amenity":"waste_basket"}},"type":"Feature"},
	{"geometry":{"coordinates":[-75.461608,45.463999],"type":"Point"},"properties":{"osm_id":"6696325148","tag":{"amenity":"waste_basket"}},"type":"Feature"},
	{"geometry":{"coordinates":[-75.4598,45.464465],"type":"Point"},"properties":{"osm_id":"6696325226","tag":{"amenity":"waste_basket"}},"type":"Feature"},
	{"geometry":{"coordinates":[-75.460906,45.464055],"type":"Point"},"properties":{"osm_id":"6696325256","tag":{"amenity":"waste_basket"}},"type":"Feature"},
	{"geometry":{"coordinates":[-75.446271,45.466131],"type":"Point"},"properties":{"osm_id":"7373195920","tag":{"amenity":"waste_basket"}},"type":"Feature"},
	{"geometry":{"coordinates":[-75.446597,45.465992],"type":"Point"},"properties":{"osm_id":"7373268473","tag":{"amenity":"waste_basket","mapillary":"m436cbVRdkORUYE6D5YD_Q"}},"type":"Feature"},
	{"geometry":{"coordinates":[-75.44643,45.465833],"type":"Point"},"properties":{"osm_id":"7373268477","tag":{"amenity":"waste_basket","mapillary":"QOUJpVNIPQS_CokKlCTmgA"}},"type":"Feature"},
	{"geometry":{"coordinates":[-75.487594,45.481058],"type":"Point"},"properties":{"osm_id":"7393276219","tag":{"amenity":"waste_disposal"}},"type":"Feature"},
	{"geometry":{"coordinates":[-75.48106,45.474206],"type":"Point"},"properties":{"osm_id":"7393521834","tag":{"amenity":"waste_disposal"}},"type":"Feature"},
	{"geometry":{"coordinates":[-75.485783,45.465971],"type":"Point"},"properties":{"osm_id":"7393541912","tag":{"amenity":"waste_disposal"}},"type":"Feature"},
	{"geometry":{"coordinates":[-75.475248,45.469406],"type":"Point"},"properties":{"osm_id":"7393657159","tag":{"amenity":"waste_disposal"}},"type":"Feature"},
	{"geometry":{"coordinates":[-75.470905,45.471829],"type":"Point"},"properties":{"osm_id":"7398903559","tag":{"amenity":"waste_disposal"}},"type":"Feature"},
	{"geometry":{"coordinates":[-75.462334,45.471242],"type":"Point"},"properties":{"osm_id":"7398978707","tag":{"amenity":"waste_disposal"}},"type":"Feature"}
]
}
