{
"type": "FeatureCollection",
"features": [
	{"geometry":{"coordinates":[39.63727,54.664092],"type":"Point"},"properties":{"osm_id":"1351830169","tag":{"amenity":"waste_disposal"}},"type":"Feature"},
	{"geometry":{"coordinates":[39.636454,54.659829],"type":"Point"},"properties":{"osm_id":"1351832007","tag":{"amenity":"waste_disposal"}},"type":"Feature"},
	{"geometry":{"coordinates":[39.637357,54.664131],"type":"Point"},"properties":{"osm_id":"1351832203","tag":{"amenity":"waste_disposal"}},"type":"Feature"},
	{"geometry":{"coordinates":[39.631681,54.660847],"type":"Point"},"properties":{"osm_id":"1351832218","tag":{"amenity":"waste_disposal"}},"type":"Feature"},
	{"geometry":{"coordinates":[39.637901,54.662328],"type":"Point"},"properties":{"osm_id":"1351832271","tag":{"amenity":"waste_disposal"}},"type":"Feature"},
	{"geometry":{"coordinates":[39.633939,54.659178],"type":"Point"},"properties":{"osm_id":"4357237265","tag":{"amenity":"waste_disposal"}},"type":"Feature"},
	{"geometry":{"coordinates":[39.623063,54.669915],"type":"Point"},"properties":{"name":"\u00d0\u00bf\u00d0\u00ba\u00d0\u00bf\"\u00d0\u00ba\u00d1\u0083\u00d1\u0080\u00d1\u0081\"","osm_id":"4376876239","tag":{"amenity":"recycling","name:ru":"\u00d0\u00bf\u00d0\u00ba\u00d0\u00bf\"\u00d0\u00ba\u00d1\u0083\u00d1\u0080\u00d1\u0081\""}},"type":"Feature"},
	{"geometry":{"coordinates":[39.592737,54.657119],"type":"Point"},"properties":{"osm_id":"8296430941","tag":{"amenity":"waste_disposal"}},"type":"Feature"}
]
}
