{
"type": "FeatureCollection",
"features": [
	{"geometry":{"coordinates":[-1.678174,54.946051],"type":"Point"},"properties":{"osm_id":"1031170301","tag":{"amenity":"recycling"}},"type":"Feature"},
	{"geometry":{"coordinates":[-1.680374,54.946362],"type":"Point"},"properties":{"osm_id":"1031170312","tag":{"amenity":"recycling"}},"type":"Feature"},
	{"geometry":{"coordinates":[-1.700859,54.959232],"type":"Point"},"properties":{"osm_id":"3921073649","tag":{"amenity":"waste_basket"}},"type":"Feature"},
	{"geometry":{"coordinates":[-1.67193,54.960288],"type":"Point"},"properties":{"osm_id":"4419000715","tag":{"amenity":"recycling"}},"type":"Feature"},
	{"geometry":{"coordinates":[-1.686267,54.953428],"type":"Point"},"properties":{"osm_id":"4421869174","tag":{"amenity":"recycling"}},"type":"Feature"},
	{"geometry":{"coordinates":[-1.684459,54.954407],"type":"Point"},"properties":{"osm_id":"4422051914","tag":{"amenity":"waste_basket"}},"type":"Feature"},
	{"geometry":{"coordinates":[-1.681664,54.945626],"type":"Point"},"properties":{"osm_id":"4423639590","tag":{"amenity":"waste_basket"}},"type":"Feature"},
	{"geometry":{"coordinates":[-1.680931,54.945721],"type":"Point"},"properties":{"osm_id":"4423639598","tag":{"amenity":"waste_basket"}},"type":"Feature"},
	{"geometry":{"coordinates":[-1.680989,54.945829],"type":"Point"},"properties":{"osm_id":"4423639606","tag":{"amenity":"recycling"}},"type":"Feature"},
	{"geometry":{"coordinates":[-1.681318,54.945674],"type":"Point"},"properties":{"osm_id":"4423639607","tag":{"amenity":"waste_basket"}},"type":"Feature"},
	{"geometry":{"coordinates":[-1.677955,54.945946],"type":"Point"},"properties":{"osm_id":"4423655731","tag":{"amenity":"waste_basket"}},"type":"Feature"},
	{"geometry":{"coordinates":[-1.678071,54.946133],"type":"Point"},"properties":{"osm_id":"4423655734","tag":{"amenity":"waste_basket"}},"type":"Feature"},
	{"geometry":{"coordinates":[-1.675016,54.945738],"type":"Point"},"properties":{"osm_id":"4423680003","tag":{"amenity":"waste_basket"}},"type":"Feature"},
	{"geometry":{"coordinates":[-1.674041,54.945956],"type":"Point"},"properties":{"osm_id":"4423693452","tag":{"amenity":"waste_basket"}},"type":"Feature"},
	{"geometry":{"coordinates":[-1.70483,54.964851],"type":"Point"},"properties":{"name":"J & J Stanley Ltd Recycling","osm_id":"4432390876","tag":{"addr:city":"Blaydon On Tyne","addr:street":"Cowen Road","amenity":"recycling","phone":"+44 191 488 7387"}},"type":"Feature"},
	{"geometry":{"coordinates":[-1.724946,54.950365],"type":"Point"},"properties":{"osm_id":"4453586492","tag":{"amenity":"recycling","recycling:clothes":"yes"}},"type":"Feature"},
	{"geometry":{"coordinates":[-1.727046,54.954599],"type":"Point"},"properties":{"osm_id":"4454884916","tag":{"amenity":"recycling"}},"type":"Feature"},
	{"geometry":{"coordinates":[-1.727378,54.954522],"type":"Point"},"properties":{"osm_id":"4454884920","tag":{"amenity":"waste_basket"}},"type":"Feature"},
	{"geometry":{"coordinates":[-1.726699,54.954623],"type":"Point"},"properties":{"osm_id":"4455037762","tag":{"amenity":"recycling"}},"type":"Feature"},
	{"geometry":{"coordinates":[-1.747904,54.92753],"type":"Point"},"properties":{"osm_id":"4455198317","tag":{"amenity":"waste_basket"}},"type":"Feature"},
	{"geometry":{"coordinates":[-1.757451,54.968378],"type":"Point"},"properties":{"osm_id":"4466302147","tag":{"amenity":"waste_basket"}},"type":"Feature"},
	{"geometry":{"coordinates":[-1.673781,54.958735],"type":"Point"},"properties":{"osm_id":"6150114206","tag":{"amenity":"waste_basket"}},"type":"Feature"},
	{"geometry":{"coordinates":[-1.67685,54.960094],"type":"Point"},"properties":{"osm_id":"6150114208","tag":{"amenity":"waste_basket"}},"type":"Feature"},
	{"geometry":{"coordinates":[-1.673887,54.958541],"type":"Point"},"properties":{"osm_id":"6150114211","tag":{"amenity":"waste_basket"}},"type":"Feature"},
	{"geometry":{"coordinates":[-1.675227,54.958758],"type":"Point"},"properties":{"osm_id":"6150114233","tag":{"amenity":"waste_basket"}},"type":"Feature"},
	{"geometry":{"coordinates":[-1.675701,54.958902],"type":"Point"},"properties":{"osm_id":"6150114236","tag":{"amenity":"waste_basket"}},"type":"Feature"}
]
}
