{
"type": "FeatureCollection",
"features": [
	{"geometry":{"coordinates":[-1.684357,54.638558],"type":"Point"},"properties":{"name":"Romanway Household Waste and Recycling Centre","osm_id":"1716115678","tag":{"amenity":"recycling","recycling:cans":"yes","recycling:clothes":"yes","recycling:glass":"yes","recycling:paper":"yes","recycling_type":"centre"}},"type":"Feature"},
	{"geometry":{"coordinates":[-1.71292,54.635153],"type":"Point"},"properties":{"osm_id":"1716421459","tag":{"amenity":"waste_basket"}},"type":"Feature"},
	{"geometry":{"coordinates":[-1.704047,54.63712],"type":"Point"},"properties":{"osm_id":"1716421474","tag":{"amenity":"waste_basket"}},"type":"Feature"},
	{"geometry":{"coordinates":[-1.683382,54.665008],"type":"Point"},"properties":{"osm_id":"3815580946","tag":{"amenity":"waste_basket"}},"type":"Feature"},
	{"geometry":{"coordinates":[-1.677465,54.657877],"type":"Point"},"properties":{"osm_id":"3815682845","tag":{"amenity":"waste_basket"}},"type":"Feature"},
	{"geometry":{"coordinates":[-1.677136,54.656013],"type":"Point"},"properties":{"osm_id":"3815715311","tag":{"amenity":"waste_basket"}},"type":"Feature"},
	{"geometry":{"coordinates":[-1.677745,54.653981],"type":"Point"},"properties":{"osm_id":"3815802311","tag":{"amenity":"waste_basket"}},"type":"Feature"},
	{"geometry":{"coordinates":[-1.67792,54.653635],"type":"Point"},"properties":{"osm_id":"3815802322","tag":{"amenity":"waste_basket"}},"type":"Feature"},
	{"geometry":{"coordinates":[-1.673747,54.666095],"type":"Point"},"properties":{"osm_id":"3816800630","tag":{"amenity":"waste_basket"}},"type":"Feature"},
	{"geometry":{"coordinates":[-1.673824,54.66562],"type":"Point"},"properties":{"osm_id":"3817114677","tag":{"amenity":"waste_basket"}},"type":"Feature"},
	{"geometry":{"coordinates":[-1.672962,54.665635],"type":"Point"},"properties":{"osm_id":"3817116062","tag":{"amenity":"waste_basket"}},"type":"Feature"},
	{"geometry":{"coordinates":[-1.67447,54.665358],"type":"Point"},"properties":{"osm_id":"3817160089","tag":{"amenity":"waste_basket"}},"type":"Feature"},
	{"geometry":{"coordinates":[-1.674619,54.664841],"type":"Point"},"properties":{"osm_id":"3817160096","tag":{"amenity":"waste_basket"}},"type":"Feature"},
	{"geometry":{"coordinates":[-1.677416,54.665175],"type":"Point"},"properties":{"osm_id":"3817257145","tag":{"amenity":"waste_basket"}},"type":"Feature"},
	{"geometry":{"coordinates":[-1.67553,54.665419],"type":"Point"},"properties":{"osm_id":"3817349792","tag":{"amenity":"waste_basket"}},"type":"Feature"},
	{"geometry":{"coordinates":[-1.674625,54.664414],"type":"Point"},"properties":{"osm_id":"3817395725","tag":{"amenity":"waste_basket"}},"type":"Feature"},
	{"geometry":{"coordinates":[-1.674686,54.664043],"type":"Point"},"properties":{"osm_id":"3817395730","tag":{"amenity":"waste_basket"}},"type":"Feature"},
	{"geometry":{"coordinates":[-1.673965,54.664027],"type":"Point"},"properties":{"osm_id":"3817395736","tag":{"amenity":"waste_basket"}},"type":"Feature"},
	{"geometry":{"coordinates":[-1.674808,54.663532],"type":"Point"},"properties":{"osm_id":"3817406983","tag":{"amenity":"waste_basket"}},"type":"Feature"},
	{"geometry":{"coordinates":[-1.675176,54.662081],"type":"Point"},"properties":{"osm_id":"3817458920","tag":{"amenity":"waste_basket"}},"type":"Feature"},
	{"geometry":{"coordinates":[-1.675314,54.661613],"type":"Point"},"properties":{"osm_id":"3817458932","tag":{"amenity":"waste_basket"}},"type":"Feature"},
	{"geometry":{"coordinates":[-1.675602,54.661589],"type":"Point"},"properties":{"osm_id":"3817458935","tag":{"amenity":"waste_basket"}},"type":"Feature"},
	{"geometry":{"coordinates":[-1.675293,54.662156],"type":"Point"},"properties":{"osm_id":"3818427875","tag":{"amenity":"waste_basket"}},"type":"Feature"},
	{"geometry":{"coordinates":[-1.675206,54.662436],"type":"Point"},"properties":{"osm_id":"3818427880","tag":{"amenity":"waste_basket"}},"type":"Feature"},
	{"geometry":{"coordinates":[-1.675053,54.66265],"type":"Point"},"properties":{"osm_id":"3818427883","tag":{"amenity":"waste_basket"}},"type":"Feature"},
	{"geometry":{"coordinates":[-1.675127,54.662695],"type":"Point"},"properties":{"osm_id":"3818427886","tag":{"amenity":"waste_basket"}},"type":"Feature"},
	{"geometry":{"coordinates":[-1.675042,54.66316],"type":"Point"},"properties":{"osm_id":"3818433691","tag":{"amenity":"waste_basket"}},"type":"Feature"},
	{"geometry":{"coordinates":[-1.674986,54.663361],"type":"Point"},"properties":{"osm_id":"3818433696","tag":{"amenity":"waste_basket"}},"type":"Feature"},
	{"geometry":{"coordinates":[-1.67482,54.663942],"type":"Point"},"properties":{"osm_id":"3818443765","tag":{"amenity":"waste_basket"}},"type":"Feature"},
	{"geometry":{"coordinates":[-1.675829,54.659483],"type":"Point"},"properties":{"osm_id":"3818679447","tag":{"amenity":"waste_basket"}},"type":"Feature"},
	{"geometry":{"coordinates":[-1.67624,54.658312],"type":"Point"},"properties":{"osm_id":"3818700690","tag":{"amenity":"waste_basket"}},"type":"Feature"},
	{"geometry":{"coordinates":[-1.675715,54.660477],"type":"Point"},"properties":{"osm_id":"3826851504","tag":{"amenity":"waste_basket"}},"type":"Feature"},
	{"geometry":{"coordinates":[-1.675775,54.661432],"type":"Point"},"properties":{"osm_id":"3828278857","tag":{"amenity":"waste_basket"}},"type":"Feature"},
	{"geometry":{"coordinates":[-1.681772,54.64951],"type":"Point"},"properties":{"osm_id":"3828458322","tag":{"amenity":"recycling"}},"type":"Feature"},
	{"geometry":{"coordinates":[-1.692722,54.641369],"type":"Point"},"properties":{"osm_id":"3828861312","tag":{"amenity":"waste_basket"}},"type":"Feature"},
	{"geometry":{"coordinates":[-1.702817,54.647623],"type":"Point"},"properties":{"osm_id":"3830618843","tag":{"amenity":"waste_basket"}},"type":"Feature"},
	{"geometry":{"coordinates":[-1.678881,54.65083],"type":"Point"},"properties":{"osm_id":"3830762849","tag":{"amenity":"waste_basket"}},"type":"Feature"},
	{"geometry":{"coordinates":[-1.678526,54.651146],"type":"Point"},"properties":{"osm_id":"3832418388","tag":{"amenity":"waste_basket"}},"type":"Feature"},
	{"geometry":{"coordinates":[-1.711526,54.635408],"type":"Point"},"properties":{"osm_id":"4825695625","tag":{"amenity":"waste_basket"}},"type":"Feature"},
	{"geometry":{"coordinates":[-1.699939,54.63806],"type":"Point"},"properties":{"osm_id":"4826568321","tag":{"amenity":"waste_basket","waste":"dog_excrement"}},"type":"Feature"},
	{"geometry":{"coordinates":[-1.700838,54.638002],"type":"Point"},"properties":{"osm_id":"4839682525","tag":{"amenity":"waste_basket"}},"type":"Feature"},
	{"geometry":{"coordinates":[-1.697397,54.638772],"type":"Point"},"properties":{"osm_id":"4840155820","tag":{"amenity":"waste_basket"}},"type":"Feature"},
	{"geometry":{"coordinates":[-1.679487,54.649833],"type":"Point"},"properties":{"osm_id":"6432349410","tag":{"amenity":"waste_basket"}},"type":"Feature"}
]
}
