{
"type": "FeatureCollection",
"features": [
	{"geometry":{"coordinates":[-1.68356,52.612072],"type":"Point"},"properties":{"osm_id":"1276120038","tag":{"amenity":"recycling","recycling:clothes":"yes"}},"type":"Feature"},
	{"geometry":{"coordinates":[-1.695009,52.633044],"type":"Point"},"properties":{"osm_id":"1281369584","tag":{"amenity":"waste_basket"}},"type":"Feature"},
	{"geometry":{"coordinates":[-1.694868,52.632829],"type":"Point"},"properties":{"osm_id":"1281369640","tag":{"amenity":"waste_basket"}},"type":"Feature"},
	{"geometry":{"coordinates":[-1.694197,52.632961],"type":"Point"},"properties":{"osm_id":"1281717399","tag":{"amenity":"waste_basket"}},"type":"Feature"},
	{"geometry":{"coordinates":[-1.692624,52.6333],"type":"Point"},"properties":{"osm_id":"1281717435","tag":{"amenity":"waste_basket"}},"type":"Feature"},
	{"geometry":{"coordinates":[-1.69308,52.633141],"type":"Point"},"properties":{"osm_id":"1281717475","tag":{"amenity":"waste_basket"}},"type":"Feature"},
	{"geometry":{"coordinates":[-1.692906,52.633205],"type":"Point"},"properties":{"osm_id":"1281717559","tag":{"amenity":"waste_basket"}},"type":"Feature"},
	{"geometry":{"coordinates":[-1.69355,52.633025],"type":"Point"},"properties":{"osm_id":"1281717585","tag":{"amenity":"waste_basket"}},"type":"Feature"},
	{"geometry":{"coordinates":[-1.693949,52.632972],"type":"Point"},"properties":{"osm_id":"1281717586","tag":{"amenity":"waste_basket"}},"type":"Feature"},
	{"geometry":{"coordinates":[-1.694885,52.633642],"type":"Point"},"properties":{"osm_id":"1288398920","tag":{"amenity":"waste_basket"}},"type":"Feature"},
	{"geometry":{"coordinates":[-1.694308,52.633928],"type":"Point"},"properties":{"osm_id":"1288398935","tag":{"amenity":"waste_basket"}},"type":"Feature"},
	{"geometry":{"coordinates":[-1.694923,52.633328],"type":"Point"},"properties":{"osm_id":"1288398942","tag":{"amenity":"waste_basket"}},"type":"Feature"},
	{"geometry":{"coordinates":[-1.694631,52.633945],"type":"Point"},"properties":{"osm_id":"1288398961","tag":{"amenity":"waste_basket"}},"type":"Feature"},
	{"geometry":{"coordinates":[-1.695792,52.63384],"type":"Point"},"properties":{"osm_id":"1288398969","tag":{"amenity":"waste_basket"}},"type":"Feature"},
	{"geometry":{"coordinates":[-1.705436,52.628651],"type":"Point"},"properties":{"osm_id":"1560779017","tag":{"amenity":"recycling","recycling:cans":"yes","recycling:clothes":"yes","recycling:glass_bottles":"yes","recycling:paper":"yes","recycling_type":"container"}},"type":"Feature"},
	{"geometry":{"coordinates":[-1.703346,52.616216],"type":"Point"},"properties":{"osm_id":"1969040906","tag":{"amenity":"recycling"}},"type":"Feature"},
	{"geometry":{"coordinates":[-1.670898,52.628269],"type":"Point"},"properties":{"osm_id":"3879022567","tag":{"amenity":"waste_basket","waste":"dog_excrement"}},"type":"Feature"},
	{"geometry":{"coordinates":[-1.671927,52.632458],"type":"Point"},"properties":{"osm_id":"3883319045","tag":{"addr:postcode":"B77 3EW","addr:street":"Argyle Street","amenity":"recycling","recycling:cans":"no","recycling:clothes":"yes","recycling:glass":"no","recycling:glass_bottles":"no","recycling:paper":"no","recycling:plastic":"no","recycling:shoes":"yes","recycling_type":"container"}},"type":"Feature"},
	{"geometry":{"coordinates":[-1.696554,52.634666],"type":"Point"},"properties":{"osm_id":"3892895062","tag":{"amenity":"recycling","recycling:cans":"no","recycling:clothes":"yes","recycling:glass":"no","recycling:glass_bottles":"yes","recycling:paper":"no","recycling:plastic":"no","recycling_type":"container"}},"type":"Feature"},
	{"geometry":{"coordinates":[-1.695138,52.629844],"type":"Point"},"properties":{"osm_id":"3914786991","tag":{"amenity":"recycling","recycling:cans":"no","recycling:clothes":"no","recycling:glass":"no","recycling:glass_bottles":"yes","recycling:paper":"no","recycling:plastic":"no","recycling_type":"container"}},"type":"Feature"},
	{"geometry":{"coordinates":[-1.677023,52.633036],"type":"Point"},"properties":{"osm_id":"3914787003","tag":{"amenity":"recycling","recycling:cans":"no","recycling:clothes":"yes","recycling:glass":"no","recycling:glass_bottles":"yes","recycling:paper":"no","recycling_type":"container"}},"type":"Feature"},
	{"geometry":{"coordinates":[-1.692957,52.633958],"type":"Point"},"properties":{"osm_id":"3922799386","tag":{"amenity":"waste_basket"}},"type":"Feature"},
	{"geometry":{"coordinates":[-1.692821,52.633918],"type":"Point"},"properties":{"osm_id":"3922799387","tag":{"amenity":"waste_basket"}},"type":"Feature"},
	{"geometry":{"coordinates":[-1.69271,52.633636],"type":"Point"},"properties":{"osm_id":"3922799406","tag":{"amenity":"waste_basket"}},"type":"Feature"},
	{"geometry":{"coordinates":[-1.692606,52.633665],"type":"Point"},"properties":{"osm_id":"3922799407","tag":{"amenity":"waste_basket"}},"type":"Feature"},
	{"geometry":{"coordinates":[-1.696033,52.632229],"type":"Point"},"properties":{"osm_id":"3923764660","tag":{"amenity":"waste_basket"}},"type":"Feature"},
	{"geometry":{"coordinates":[-1.695846,52.632267],"type":"Point"},"properties":{"osm_id":"3923764661","tag":{"amenity":"waste_basket"}},"type":"Feature"},
	{"geometry":{"coordinates":[-1.695585,52.632699],"type":"Point"},"properties":{"osm_id":"3923764662","tag":{"amenity":"waste_basket"}},"type":"Feature"},
	{"geometry":{"coordinates":[-1.695629,52.632667],"type":"Point"},"properties":{"osm_id":"3923764663","tag":{"amenity":"waste_basket"}},"type":"Feature"},
	{"geometry":{"coordinates":[-1.695491,52.632549],"type":"Point"},"properties":{"osm_id":"3923764664","tag":{"amenity":"waste_basket"}},"type":"Feature"},
	{"geometry":{"coordinates":[-1.695884,52.632495],"type":"Point"},"properties":{"osm_id":"3923764666","tag":{"amenity":"waste_basket"}},"type":"Feature"},
	{"geometry":{"coordinates":[-1.694747,52.632034],"type":"Point"},"properties":{"osm_id":"3923764667","tag":{"amenity":"waste_basket"}},"type":"Feature"},
	{"geometry":{"coordinates":[-1.694896,52.632226],"type":"Point"},"properties":{"osm_id":"3923764668","tag":{"amenity":"waste_basket"}},"type":"Feature"},
	{"geometry":{"coordinates":[-1.691615,52.633042],"type":"Point"},"properties":{"osm_id":"3925292801","tag":{"amenity":"waste_basket"}},"type":"Feature"},
	{"geometry":{"coordinates":[-1.692098,52.633644],"type":"Point"},"properties":{"osm_id":"3925292802","tag":{"amenity":"waste_basket"}},"type":"Feature"},
	{"geometry":{"coordinates":[-1.691863,52.633723],"type":"Point"},"properties":{"osm_id":"3925292803","tag":{"amenity":"waste_basket"}},"type":"Feature"},
	{"geometry":{"coordinates":[-1.691541,52.633875],"type":"Point"},"properties":{"osm_id":"3925292804","tag":{"amenity":"waste_basket"}},"type":"Feature"},
	{"geometry":{"coordinates":[-1.690763,52.633121],"type":"Point"},"properties":{"osm_id":"3925703902","tag":{"amenity":"waste_basket"}},"type":"Feature"},
	{"geometry":{"coordinates":[-1.693516,52.634854],"type":"Point"},"properties":{"osm_id":"3936227326","tag":{"amenity":"waste_basket"}},"type":"Feature"},
	{"geometry":{"coordinates":[-1.693352,52.634862],"type":"Point"},"properties":{"osm_id":"3936227340","tag":{"amenity":"waste_basket"}},"type":"Feature"},
	{"geometry":{"coordinates":[-1.69305,52.634162],"type":"Point"},"properties":{"osm_id":"3936293608","tag":{"amenity":"waste_basket"}},"type":"Feature"},
	{"geometry":{"coordinates":[-1.694135,52.633782],"type":"Point"},"properties":{"osm_id":"3936980068","tag":{"amenity":"waste_basket"}},"type":"Feature"},
	{"geometry":{"coordinates":[-1.694112,52.633554],"type":"Point"},"properties":{"osm_id":"3936980069","tag":{"amenity":"waste_basket"}},"type":"Feature"},
	{"geometry":{"coordinates":[-1.695264,52.634171],"type":"Point"},"properties":{"osm_id":"3937900368","tag":{"amenity":"recycling","recycling:cans":"no","recycling:clothes":"yes","recycling:glass_bottles":"no","recycling:paper":"no","recycling:plastic":"no","recycling_type":"container"}},"type":"Feature"},
	{"geometry":{"coordinates":[-1.695003,52.633733],"type":"Point"},"properties":{"osm_id":"3937908934","tag":{"amenity":"waste_basket"}},"type":"Feature"},
	{"geometry":{"coordinates":[-1.694892,52.632927],"type":"Point"},"properties":{"osm_id":"3938284469","tag":{"amenity":"waste_basket"}},"type":"Feature"},
	{"geometry":{"coordinates":[-1.694099,52.633003],"type":"Point"},"properties":{"osm_id":"3938284483","tag":{"amenity":"waste_basket"}},"type":"Feature"},
	{"geometry":{"coordinates":[-1.69508,52.632989],"type":"Point"},"properties":{"osm_id":"3938284501","tag":{"amenity":"waste_basket"}},"type":"Feature"},
	{"geometry":{"coordinates":[-1.693857,52.632858],"type":"Point"},"properties":{"osm_id":"3944691087","tag":{"amenity":"waste_basket"}},"type":"Feature"},
	{"geometry":{"coordinates":[-1.693604,52.635221],"type":"Point"},"properties":{"osm_id":"3948840214","tag":{"amenity":"waste_basket"}},"type":"Feature"},
	{"geometry":{"coordinates":[-1.694116,52.63468],"type":"Point"},"properties":{"osm_id":"3950049067","tag":{"amenity":"waste_basket"}},"type":"Feature"},
	{"geometry":{"coordinates":[-1.694874,52.634382],"type":"Point"},"properties":{"osm_id":"3950236826","tag":{"amenity":"waste_basket"}},"type":"Feature"},
	{"geometry":{"coordinates":[-1.694526,52.635981],"type":"Point"},"properties":{"osm_id":"3950979593","tag":{"amenity":"waste_basket"}},"type":"Feature"},
	{"geometry":{"coordinates":[-1.694798,52.636001],"type":"Point"},"properties":{"osm_id":"3951036515","tag":{"amenity":"waste_basket"}},"type":"Feature"},
	{"geometry":{"coordinates":[-1.694112,52.636048],"type":"Point"},"properties":{"osm_id":"3951036722","tag":{"amenity":"waste_basket"}},"type":"Feature"},
	{"geometry":{"coordinates":[-1.695982,52.633129],"type":"Point"},"properties":{"osm_id":"3952228000","tag":{"amenity":"waste_basket"}},"type":"Feature"},
	{"geometry":{"coordinates":[-1.695921,52.635245],"type":"Point"},"properties":{"osm_id":"3952300557","tag":{"amenity":"waste_basket"}},"type":"Feature"},
	{"geometry":{"coordinates":[-1.697105,52.633231],"type":"Point"},"properties":{"osm_id":"3961810859","tag":{"amenity":"waste_basket"}},"type":"Feature"},
	{"geometry":{"coordinates":[-1.696322,52.633158],"type":"Point"},"properties":{"osm_id":"3961810860","tag":{"amenity":"waste_basket"}},"type":"Feature"},
	{"geometry":{"coordinates":[-1.695279,52.636355],"type":"Point"},"properties":{"osm_id":"3961947226","tag":{"amenity":"waste_basket"}},"type":"Feature"},
	{"geometry":{"coordinates":[-1.696499,52.634714],"type":"Point"},"properties":{"osm_id":"3962802684","tag":{"amenity":"waste_basket"}},"type":"Feature"},
	{"geometry":{"coordinates":[-1.696577,52.634568],"type":"Point"},"properties":{"osm_id":"3962802696","tag":{"amenity":"waste_basket"}},"type":"Feature"},
	{"geometry":{"coordinates":[-1.696464,52.63498],"type":"Point"},"properties":{"osm_id":"3962802753","tag":{"amenity":"waste_basket"}},"type":"Feature"},
	{"geometry":{"coordinates":[-1.695464,52.636248],"type":"Point"},"properties":{"osm_id":"3964890847","tag":{"amenity":"waste_basket"}},"type":"Feature"},
	{"geometry":{"coordinates":[-1.695437,52.636268],"type":"Point"},"properties":{"osm_id":"3964890848","tag":{"amenity":"waste_basket"}},"type":"Feature"},
	{"geometry":{"coordinates":[-1.692079,52.635123],"type":"Point"},"properties":{"osm_id":"3964893460","tag":{"amenity":"recycling","recycling:cans":"no","recycling:clothes":"yes","recycling:glass":"no","recycling:glass_bottles":"yes","recycling:paper":"no","recycling:plastic":"no","recycling_type":"container"}},"type":"Feature"},
	{"geometry":{"coordinates":[-1.691982,52.635001],"type":"Point"},"properties":{"osm_id":"3964893462","tag":{"amenity":"waste_basket"}},"type":"Feature"},
	{"geometry":{"coordinates":[-1.692342,52.635576],"type":"Point"},"properties":{"osm_id":"3964893492","tag":{"amenity":"waste_basket"}},"type":"Feature"},
	{"geometry":{"coordinates":[-1.69375,52.635523],"type":"Point"},"properties":{"osm_id":"3966886072","tag":{"amenity":"waste_basket"}},"type":"Feature"},
	{"geometry":{"coordinates":[-1.696706,52.633203],"type":"Point"},"properties":{"osm_id":"3966917785","tag":{"amenity":"waste_basket"}},"type":"Feature"},
	{"geometry":{"coordinates":[-1.696433,52.633863],"type":"Point"},"properties":{"osm_id":"3969238225","tag":{"amenity":"waste_basket"}},"type":"Feature"},
	{"geometry":{"coordinates":[-1.696023,52.634373],"type":"Point"},"properties":{"osm_id":"3974743823","tag":{"amenity":"waste_basket"}},"type":"Feature"},
	{"geometry":{"coordinates":[-1.698344,52.634886],"type":"Point"},"properties":{"osm_id":"3977248478","tag":{"amenity":"waste_basket"}},"type":"Feature"},
	{"geometry":{"coordinates":[-1.685228,52.630032],"type":"Point"},"properties":{"osm_id":"3978845641","tag":{"amenity":"waste_basket"}},"type":"Feature"},
	{"geometry":{"coordinates":[-1.697253,52.6322],"type":"Point"},"properties":{"osm_id":"3978847857","tag":{"amenity":"waste_basket"}},"type":"Feature"},
	{"geometry":{"coordinates":[-1.698274,52.634022],"type":"Point"},"properties":{"osm_id":"3978847947","tag":{"amenity":"waste_basket"}},"type":"Feature"},
	{"geometry":{"coordinates":[-1.697145,52.634897],"type":"Point"},"properties":{"osm_id":"3978847988","tag":{"amenity":"waste_basket"}},"type":"Feature"},
	{"geometry":{"coordinates":[-1.697851,52.633999],"type":"Point"},"properties":{"osm_id":"3978885007","tag":{"amenity":"waste_basket"}},"type":"Feature"},
	{"geometry":{"coordinates":[-1.696181,52.631516],"type":"Point"},"properties":{"osm_id":"3978885008","tag":{"amenity":"waste_basket"}},"type":"Feature"},
	{"geometry":{"coordinates":[-1.696837,52.631348],"type":"Point"},"properties":{"osm_id":"3978885009","tag":{"amenity":"waste_basket"}},"type":"Feature"},
	{"geometry":{"coordinates":[-1.69625,52.631243],"type":"Point"},"properties":{"osm_id":"3978885010","tag":{"amenity":"waste_basket"}},"type":"Feature"},
	{"geometry":{"coordinates":[-1.697583,52.629586],"type":"Point"},"properties":{"osm_id":"3978885011","tag":{"amenity":"waste_basket"}},"type":"Feature"},
	{"geometry":{"coordinates":[-1.697994,52.628923],"type":"Point"},"properties":{"osm_id":"3978885406","tag":{"amenity":"waste_basket"}},"type":"Feature"},
	{"geometry":{"coordinates":[-1.697733,52.628047],"type":"Point"},"properties":{"osm_id":"3978885475","tag":{"amenity":"waste_basket"}},"type":"Feature"},
	{"geometry":{"coordinates":[-1.697779,52.627429],"type":"Point"},"properties":{"osm_id":"3978885476","tag":{"amenity":"waste_basket"}},"type":"Feature"},
	{"geometry":{"coordinates":[-1.738015,52.642125],"type":"Point"},"properties":{"osm_id":"3994214261","tag":{"amenity":"waste_basket"}},"type":"Feature"},
	{"geometry":{"coordinates":[-1.690668,52.634394],"type":"Point"},"properties":{"osm_id":"3994260157","tag":{"amenity":"waste_basket"}},"type":"Feature"},
	{"geometry":{"coordinates":[-1.691142,52.634047],"type":"Point"},"properties":{"osm_id":"3994260196","tag":{"amenity":"waste_basket"}},"type":"Feature"},
	{"geometry":{"coordinates":[-1.697853,52.633786],"type":"Point"},"properties":{"osm_id":"3996226710","tag":{"amenity":"waste_basket"}},"type":"Feature"},
	{"geometry":{"coordinates":[-1.700439,52.633639],"type":"Point"},"properties":{"osm_id":"3999802643","tag":{"amenity":"waste_basket"}},"type":"Feature"},
	{"geometry":{"coordinates":[-1.701148,52.633964],"type":"Point"},"properties":{"osm_id":"4001455257","tag":{"amenity":"waste_basket"}},"type":"Feature"},
	{"geometry":{"coordinates":[-1.698241,52.633292],"type":"Point"},"properties":{"osm_id":"4004526214","tag":{"amenity":"waste_basket"}},"type":"Feature"},
	{"geometry":{"coordinates":[-1.698958,52.633003],"type":"Point"},"properties":{"osm_id":"4004526234","tag":{"amenity":"waste_basket"}},"type":"Feature"},
	{"geometry":{"coordinates":[-1.701645,52.632392],"type":"Point"},"properties":{"osm_id":"4004903360","tag":{"amenity":"waste_basket"}},"type":"Feature"},
	{"geometry":{"coordinates":[-1.70115,52.634052],"type":"Point"},"properties":{"osm_id":"4006293238","tag":{"amenity":"waste_basket"}},"type":"Feature"},
	{"geometry":{"coordinates":[-1.692722,52.636947],"type":"Point"},"properties":{"osm_id":"4018481162","tag":{"amenity":"recycling","recycling:cans":"no","recycling:clothes":"yes","recycling:glass":"no","recycling:glass_bottles":"no","recycling:paper":"no","recycling:plastic":"no","recycling_type":"container"}},"type":"Feature"},
	{"geometry":{"coordinates":[-1.677871,52.610722],"type":"Point"},"properties":{"osm_id":"4199959756","tag":{"amenity":"waste_basket"}},"type":"Feature"},
	{"geometry":{"coordinates":[-1.671557,52.627678],"type":"Point"},"properties":{"osm_id":"7363669557","tag":{"amenity":"waste_basket"}},"type":"Feature"},
	{"geometry":{"coordinates":[-1.674638,52.629648],"type":"Point"},"properties":{"osm_id":"7363669568","tag":{"amenity":"waste_basket"}},"type":"Feature"},
	{"geometry":{"coordinates":[-1.67039,52.63169],"type":"Point"},"properties":{"osm_id":"7366171937","tag":{"amenity":"waste_basket"}},"type":"Feature"},
	{"geometry":{"coordinates":[-1.670384,52.631579],"type":"Point"},"properties":{"osm_id":"7366171938","tag":{"amenity":"waste_basket"}},"type":"Feature"},
	{"geometry":{"coordinates":[-1.670118,52.631694],"type":"Point"},"properties":{"osm_id":"7366171939","tag":{"amenity":"waste_basket"}},"type":"Feature"},
	{"geometry":{"coordinates":[-1.670106,52.631576],"type":"Point"},"properties":{"osm_id":"7366171942","tag":{"amenity":"waste_basket"}},"type":"Feature"},
	{"geometry":{"coordinates":[-1.672105,52.632163],"type":"Point"},"properties":{"osm_id":"7368566813","tag":{"amenity":"recycling","recycling:clothes":"yes","recycling_type":"container"}},"type":"Feature"},
	{"geometry":{"coordinates":[-1.671905,52.633399],"type":"Point"},"properties":{"osm_id":"7368638016","tag":{"amenity":"waste_basket"}},"type":"Feature"},
	{"geometry":{"coordinates":[-1.675982,52.633118],"type":"Point"},"properties":{"osm_id":"7368638023","tag":{"amenity":"waste_basket"}},"type":"Feature"},
	{"geometry":{"coordinates":[-1.677092,52.632983],"type":"Point"},"properties":{"osm_id":"7368638024","tag":{"amenity":"waste_basket"}},"type":"Feature"},
	{"geometry":{"coordinates":[-1.677397,52.632944],"type":"Point"},"properties":{"osm_id":"7368638025","tag":{"amenity":"waste_basket"}},"type":"Feature"},
	{"geometry":{"coordinates":[-1.677959,52.632914],"type":"Point"},"properties":{"osm_id":"7368638026","tag":{"amenity":"waste_basket"}},"type":"Feature"},
	{"geometry":{"coordinates":[-1.6766,52.63183],"type":"Point"},"properties":{"osm_id":"7368638040","tag":{"amenity":"waste_basket","waste":"dog_excrement"}},"type":"Feature"},
	{"geometry":{"coordinates":[-1.679369,52.628768],"type":"Point"},"properties":{"osm_id":"7368657649","tag":{"amenity":"waste_basket"}},"type":"Feature"},
	{"geometry":{"coordinates":[-1.677974,52.629003],"type":"Point"},"properties":{"osm_id":"7368657650","tag":{"amenity":"waste_basket","waste":"dog_excrement"}},"type":"Feature"},
	{"geometry":{"coordinates":[-1.677993,52.628854],"type":"Point"},"properties":{"osm_id":"7368657651","tag":{"amenity":"waste_basket"}},"type":"Feature"},
	{"geometry":{"coordinates":[-1.676985,52.628558],"type":"Point"},"properties":{"osm_id":"7368657652","tag":{"amenity":"waste_basket"}},"type":"Feature"},
	{"geometry":{"coordinates":[-1.675604,52.628438],"type":"Point"},"properties":{"osm_id":"7368657672","tag":{"amenity":"waste_basket"}},"type":"Feature"},
	{"geometry":{"coordinates":[-1.675991,52.628807],"type":"Point"},"properties":{"osm_id":"7368657673","tag":{"amenity":"waste_basket"}},"type":"Feature"},
	{"geometry":{"coordinates":[-1.674244,52.633364],"type":"Point"},"properties":{"osm_id":"7379501686","tag":{"amenity":"waste_basket"}},"type":"Feature"},
	{"geometry":{"coordinates":[-1.673104,52.63348],"type":"Point"},"properties":{"osm_id":"7379501687","tag":{"amenity":"waste_basket","waste":"dog_excrement"}},"type":"Feature"},
	{"geometry":{"coordinates":[-1.677165,52.628744],"type":"Point"},"properties":{"osm_id":"7389150674","tag":{"amenity":"waste_basket"}},"type":"Feature"},
	{"geometry":{"coordinates":[-1.677486,52.628635],"type":"Point"},"properties":{"osm_id":"7389150705","tag":{"amenity":"waste_basket"}},"type":"Feature"},
	{"geometry":{"coordinates":[-1.680376,52.629053],"type":"Point"},"properties":{"osm_id":"7389505115","tag":{"amenity":"waste_basket"}},"type":"Feature"},
	{"geometry":{"coordinates":[-1.681232,52.629299],"type":"Point"},"properties":{"osm_id":"7389505121","tag":{"amenity":"waste_basket"}},"type":"Feature"},
	{"geometry":{"coordinates":[-1.677696,52.632798],"type":"Point"},"properties":{"osm_id":"7389505159","tag":{"amenity":"waste_basket"}},"type":"Feature"},
	{"geometry":{"coordinates":[-1.686558,52.61884],"type":"Point"},"properties":{"osm_id":"7427424026","tag":{"amenity":"recycling","recycling:clothes":"yes","recycling:shoes":"yes","recycling_type":"container"}},"type":"Feature"},
	{"geometry":{"coordinates":[-1.686096,52.618735],"type":"Point"},"properties":{"osm_id":"7427424027","tag":{"amenity":"waste_basket","waste":"dog_excrement"}},"type":"Feature"},
	{"geometry":{"coordinates":[-1.688383,52.633554],"type":"Point"},"properties":{"osm_id":"7449796393","tag":{"amenity":"waste_basket"}},"type":"Feature"},
	{"geometry":{"coordinates":[-1.69975,52.636308],"type":"Point"},"properties":{"osm_id":"7480818484","tag":{"amenity":"waste_basket","waste":"dog_excrement"}},"type":"Feature"},
	{"geometry":{"coordinates":[-1.69931,52.636221],"type":"Point"},"properties":{"osm_id":"7480832785","tag":{"amenity":"waste_basket"}},"type":"Feature"},
	{"geometry":{"coordinates":[-1.699371,52.632113],"type":"Point"},"properties":{"osm_id":"7619743117","tag":{"amenity":"waste_basket"}},"type":"Feature"},
	{"geometry":{"coordinates":[-1.705683,52.632834],"type":"Point"},"properties":{"osm_id":"7619749191","tag":{"amenity":"waste_basket"}},"type":"Feature"},
	{"geometry":{"coordinates":[-1.670287,52.630202],"type":"Point"},"properties":{"osm_id":"7728832341","tag":{"amenity":"waste_basket"}},"type":"Feature"},
	{"geometry":{"coordinates":[-1.67552,52.634091],"type":"Point"},"properties":{"osm_id":"7728832343","tag":{"amenity":"waste_basket","waste":"dog_excrement"}},"type":"Feature"},
	{"geometry":{"coordinates":[-1.678675,52.637272],"type":"Point"},"properties":{"osm_id":"7728832344","tag":{"amenity":"waste_basket"}},"type":"Feature"}
]
}
