{
"type": "FeatureCollection",
"lastupdate": "2020-08-06T00:00:00Z",
"features": [
	{"geometry":{"coordinates":[-1.720578,48.553597],"type":"Point"},"properties":{"osm_id":"1646304719","tag":{"amenity":"recycling","recycling_type":"container"}},"type":"Feature"},
	{"geometry":{"coordinates":[-1.750316,48.543183],"type":"Point"},"properties":{"osm_id":"4995059626","tag":{"amenity":"waste_basket"}},"type":"Feature"},
	{"geometry":{"coordinates":[-1.750186,48.543534],"type":"Point"},"properties":{"osm_id":"4995059630","tag":{"amenity":"waste_basket"}},"type":"Feature"},
	{"geometry":{"coordinates":[-1.75013,48.543751],"type":"Point"},"properties":{"osm_id":"4995059633","tag":{"amenity":"waste_basket"}},"type":"Feature"},
	{"geometry":{"coordinates":[-1.750315,48.543901],"type":"Point"},"properties":{"osm_id":"4995059651","tag":{"amenity":"waste_basket"}},"type":"Feature"},
	{"geometry":{"coordinates":[-1.750433,48.543983],"type":"Point"},"properties":{"osm_id":"4995059666","tag":{"amenity":"waste_basket"}},"type":"Feature"},
	{"geometry":{"coordinates":[-1.750225,48.544143],"type":"Point"},"properties":{"osm_id":"4995059684","tag":{"amenity":"waste_basket"}},"type":"Feature"},
	{"geometry":{"coordinates":[-1.750294,48.544208],"type":"Point"},"properties":{"osm_id":"4995059695","tag":{"amenity":"waste_basket"}},"type":"Feature"},
	{"geometry":{"coordinates":[-1.750221,48.544243],"type":"Point"},"properties":{"osm_id":"4995059703","tag":{"amenity":"waste_basket"}},"type":"Feature"},
	{"geometry":{"coordinates":[-1.749952,48.544362],"type":"Point"},"properties":{"osm_id":"4995059708","tag":{"amenity":"waste_basket"}},"type":"Feature"},
	{"geometry":{"coordinates":[-1.750302,48.544389],"type":"Point"},"properties":{"osm_id":"4995059709","tag":{"amenity":"waste_basket"}},"type":"Feature"},
	{"geometry":{"coordinates":[-1.749883,48.544574],"type":"Point"},"properties":{"osm_id":"4995059716","tag":{"amenity":"waste_basket"}},"type":"Feature"},
	{"geometry":{"coordinates":[-1.750224,48.544067],"type":"Point"},"properties":{"osm_id":"4996570673","tag":{"amenity":"waste_basket","level":"-1"}},"type":"Feature"},
	{"geometry":{"coordinates":[-1.749613,48.54413],"type":"Point"},"properties":{"osm_id":"4996570680","tag":{"amenity":"waste_basket"}},"type":"Feature"},
	{"geometry":{"coordinates":[-1.750024,48.544045],"type":"Point"},"properties":{"osm_id":"4996635244","tag":{"amenity":"waste_basket","level":"-1"}},"type":"Feature"},
	{"geometry":{"coordinates":[-1.750389,48.544155],"type":"Point"},"properties":{"osm_id":"4999235363","tag":{"amenity":"waste_basket"}},"type":"Feature"},
	{"geometry":{"coordinates":[-1.750639,48.54418],"type":"Point"},"properties":{"osm_id":"4999294788","tag":{"amenity":"waste_basket"}},"type":"Feature"},
	{"geometry":{"coordinates":[-1.75016,48.544434],"type":"Point"},"properties":{"osm_id":"4999294790","tag":{"amenity":"waste_basket"}},"type":"Feature"},
	{"geometry":{"coordinates":[-1.754492,48.551824],"type":"Point"},"properties":{"osm_id":"5196324923","tag":{"amenity":"waste_basket"}},"type":"Feature"},
	{"geometry":{"coordinates":[-1.756909,48.549684],"type":"Point"},"properties":{"osm_id":"5197770736","tag":{"amenity":"waste_basket"}},"type":"Feature"},
	{"geometry":{"coordinates":[-1.754004,48.539565],"type":"Point"},"properties":{"osm_id":"5741333218","tag":{"amenity":"waste_basket","waste":"trash"}},"type":"Feature"},
	{"geometry":{"coordinates":[-1.752388,48.549509],"type":"Point"},"properties":{"name":"La Petite Recyclerie","osm_id":"6953768687","tag":{"amenity":"recycling","phone":"+33 7 66 57 31 32","website":"https://diplt.org"}},"type":"Feature"}
]
}
