{
"type": "FeatureCollection",
"features": [
	{"geometry":{"coordinates":[-1.691827,48.096548],"type":"Point"},"properties":{"osm_id":"32157843","tag":{"access":"permissive","amenity":"recycling","fee":"no","operator":"Rennes M\u00c3\u00a9tropole","recycling:glass_bottles":"yes","recycling:glass_jars":"yes","recycling_type":"container","wheelchair":"no"}},"type":"Feature"},
	{"geometry":{"coordinates":[-1.679185,48.096828],"type":"Point"},"properties":{"osm_id":"269181465","tag":{"access":"permissive","amenity":"recycling","fee":"no","operator":"Rennes M\u00c3\u00a9tropole","recycling:glass_bottles":"yes","recycling:glass_jars":"yes","recycling_type":"container","wheelchair":"no"}},"type":"Feature"},
	{"geometry":{"coordinates":[-1.677106,48.091857],"type":"Point"},"properties":{"osm_id":"269185534","tag":{"access":"permissive","amenity":"recycling","fee":"no","operator":"Rennes M\u00c3\u00a9tropole","recycling:cans":"yes","recycling:cartons":"yes","recycling:clothes":"no","recycling:glass":"no","recycling:glass_bottles":"no","recycling:paper":"yes","recycling:plastic":"yes","recycling_type":"container","wheelchair":"yes"}},"type":"Feature"},
	{"geometry":{"coordinates":[-1.67704,48.089793],"type":"Point"},"properties":{"osm_id":"269185543","tag":{"amenity":"recycling","level":"0","operator":"Rennes M\u00c3\u00a9tropole","recycling:beverage_cartons":"yes","recycling:books":"yes","recycling:cans":"yes","recycling:cardboard":"yes","recycling:cartons":"yes","recycling:clothes":"no","recycling:glass":"no","recycling:glass_bottles":"no","recycling:magazines":"yes","recycling:newspaper":"yes","recycling:paper":"yes","recycling:paper_packaging":"yes","recycling:plastic":"yes","recycling:plastic_bottles":"yes","recycling:plastic_packaging":"yes","recycling_type":"container","wheelchair":"yes"}},"type":"Feature"},
	{"geometry":{"coordinates":[-1.677424,48.089098],"type":"Point"},"properties":{"osm_id":"269185545","tag":{"access":"yes","amenity":"recycling","fee":"no","operator":"Rennes M\u00c3\u00a9tropole","recycling:cans":"yes","recycling:cardboard":"yes","recycling:clothes":"no","recycling:glass":"no","recycling:glass_bottles":"no","recycling:paper":"yes","recycling:plastic":"yes","recycling_type":"container","wheelchair":"yes"}},"type":"Feature"},
	{"geometry":{"coordinates":[-1.681255,48.090192],"type":"Point"},"properties":{"osm_id":"269185553","tag":{"access":"permissive","amenity":"recycling","fee":"no","operator":"Rennes M\u00c3\u00a9tropole","recycling:cans":"no","recycling:clothes":"no","recycling:glass_bottles":"yes","recycling:glass_jars":"yes","recycling:paper":"no","recycling:plastic":"no","recycling_type":"container","wheelchair":"yes"}},"type":"Feature"},
	{"geometry":{"coordinates":[-1.678678,48.091345],"type":"Point"},"properties":{"osm_id":"269185555","tag":{"access":"permissive","amenity":"recycling","fee":"no","operator":"Rennes M\u00c3\u00a9tropole","recycling:cans":"yes","recycling:cartons":"yes","recycling:clothes":"no","recycling:glass":"no","recycling:glass_bottles":"no","recycling:paper":"yes","recycling:plastic":"yes","recycling_type":"container","wheelchair":"yes"}},"type":"Feature"},
	{"geometry":{"coordinates":[-1.67913,48.091106],"type":"Point"},"properties":{"osm_id":"269186193","tag":{"access":"permissive","amenity":"recycling","fee":"no","operator":"Rennes M\u00c3\u00a9tropole","recycling:cans":"yes","recycling:cartons":"yes","recycling:clothes":"no","recycling:glass":"no","recycling:glass_bottles":"no","recycling:paper":"yes","recycling:plastic":"yes","recycling_type":"container","wheelchair":"yes"}},"type":"Feature"},
	{"geometry":{"coordinates":[-1.672643,48.093179],"type":"Point"},"properties":{"osm_id":"269188705","tag":{"amenity":"recycling","recycling_type":"container"}},"type":"Feature"},
	{"geometry":{"coordinates":[-1.702082,48.085493],"type":"Point"},"properties":{"osm_id":"310504285","tag":{"amenity":"recycling","recycling:glass_bottles":"yes","recycling_type":"container"}},"type":"Feature"},
	{"geometry":{"coordinates":[-1.711359,48.08142],"type":"Point"},"properties":{"osm_id":"310504344","tag":{"amenity":"recycling","recycling:glass_bottles":"yes","recycling_type":"container"}},"type":"Feature"},
	{"geometry":{"coordinates":[-1.70657,48.07215],"type":"Point"},"properties":{"osm_id":"310504447","tag":{"amenity":"recycling","recycling:glass_bottles":"yes","recycling_type":"container"}},"type":"Feature"},
	{"geometry":{"coordinates":[-1.709722,48.086753],"type":"Point"},"properties":{"osm_id":"329891564","tag":{"amenity":"recycling","recycling:glass_bottles":"yes","recycling_type":"container"}},"type":"Feature"},
	{"geometry":{"coordinates":[-1.73927,48.0548],"type":"Point"},"properties":{"osm_id":"330320147","tag":{"amenity":"recycling","recycling:glass_bottles":"yes","recycling_type":"container"}},"type":"Feature"},
	{"geometry":{"coordinates":[-1.717375,48.067636],"type":"Point"},"properties":{"osm_id":"330780916","tag":{"amenity":"recycling","recycling:glass_bottles":"yes","recycling_type":"container"}},"type":"Feature"},
	{"geometry":{"coordinates":[-1.72471,48.061811],"type":"Point"},"properties":{"osm_id":"331382153","tag":{"amenity":"recycling","recycling:glass_bottles":"yes","recycling_type":"container"}},"type":"Feature"},
	{"geometry":{"coordinates":[-1.727137,48.050788],"type":"Point"},"properties":{"osm_id":"413799193","tag":{"amenity":"recycling","recycling:glass_bottles":"yes","recycling_type":"container"}},"type":"Feature"},
	{"geometry":{"coordinates":[-1.680399,48.099045],"type":"Point"},"properties":{"osm_id":"443359761","tag":{"access":"yes","amenity":"recycling","fee":"no","operator":"Rennes M\u00c3\u00a9tropole","recycling:cans":"no","recycling:clothes":"no","recycling:glass_bottles":"yes","recycling:paper":"no","recycling:plastic":"no","recycling_type":"container","wheelchair":"no"}},"type":"Feature"},
	{"geometry":{"coordinates":[-1.686608,48.106697],"type":"Point"},"properties":{"osm_id":"458409429","tag":{"access":"permissive","amenity":"recycling","fee":"no","operator":"Rennes M\u00c3\u00a9tropole","recycling:glass_bottles":"yes","recycling:glass_jars":"yes","recycling_type":"container","wheelchair":"no"}},"type":"Feature"},
	{"geometry":{"coordinates":[-1.70578,48.100518],"type":"Point"},"properties":{"osm_id":"526926442","tag":{"amenity":"recycling","recycling_type":"container"}},"type":"Feature"},
	{"geometry":{"coordinates":[-1.700799,48.100917],"type":"Point"},"properties":{"osm_id":"526926460","tag":{"amenity":"recycling","recycling:glass_bottles":"yes","recycling_type":"container"}},"type":"Feature"},
	{"geometry":{"coordinates":[-1.69801,48.105256],"type":"Point"},"properties":{"osm_id":"526927158","tag":{"amenity":"recycling","recycling:glass_bottles":"yes","recycling:glass_jars":"yes","recycling_type":"container"}},"type":"Feature"},
	{"geometry":{"coordinates":[-1.698539,48.100369],"type":"Point"},"properties":{"osm_id":"632681959","tag":{"amenity":"recycling","recycling:glass_bottles":"yes","recycling:paper":"yes","recycling_type":"container"}},"type":"Feature"},
	{"geometry":{"coordinates":[-1.688941,48.098439],"type":"Point"},"properties":{"osm_id":"663595417","tag":{"amenity":"recycling","recycling_type":"container"}},"type":"Feature"},
	{"geometry":{"coordinates":[-1.694082,48.095795],"type":"Point"},"properties":{"osm_id":"672216104","tag":{"access":"permissive","amenity":"recycling","fee":"no","operator":"Rennes M\u00c3\u00a9tropole","recycling:glass_bottles":"yes","recycling:glass_jars":"yes","recycling_type":"container","wheelchair":"no"}},"type":"Feature"},
	{"geometry":{"coordinates":[-1.686522,48.09949],"type":"Point"},"properties":{"osm_id":"672216107","tag":{"access":"yes","amenity":"recycling","fee":"no","operator":"Rennes M\u00c3\u00a9tropole","recycling:glass_bottles":"yes","recycling_type":"container","wheelchair":"no"}},"type":"Feature"},
	{"geometry":{"coordinates":[-1.71208,48.101699],"type":"Point"},"properties":{"osm_id":"925521565","tag":{"amenity":"recycling","recycling:glass_bottles":"yes","recycling_type":"container"}},"type":"Feature"},
	{"geometry":{"coordinates":[-1.710274,48.103679],"type":"Point"},"properties":{"osm_id":"926229985","tag":{"access":"permissive","amenity":"recycling","fee":"no","operator":"Rennes M\u00c3\u00a9tropole","recycling:glass_bottles":"yes","recycling:glass_jars":"yes","recycling_type":"container","wheelchair":"no"}},"type":"Feature"},
	{"geometry":{"coordinates":[-1.708934,48.101629],"type":"Point"},"properties":{"osm_id":"927333382","tag":{"amenity":"recycling","recycling:glass_bottles":"yes","recycling_type":"container"}},"type":"Feature"},
	{"geometry":{"coordinates":[-1.703994,48.102474],"type":"Point"},"properties":{"osm_id":"944365682","tag":{"amenity":"recycling","recycling:glass_bottles":"yes","recycling_type":"container"}},"type":"Feature"},
	{"geometry":{"coordinates":[-1.684312,48.105214],"type":"Point"},"properties":{"osm_id":"946241600","tag":{"access":"yes","amenity":"recycling","fee":"no","operator":"Rennes M\u00c3\u00a9tropole","recycling:glass_bottles":"yes","recycling:glass_jars":"yes","recycling_type":"container","wheelchair":"no"}},"type":"Feature"},
	{"geometry":{"coordinates":[-1.678787,48.106283],"type":"Point"},"properties":{"osm_id":"955287093","tag":{"access":"yes","amenity":"recycling","fee":"no","operator":"Rennes M\u00c3\u00a9tropole","recycling:glass_bottles":"yes","recycling:glass_jars":"yes","recycling_type":"container","wheelchair":"no"}},"type":"Feature"},
	{"geometry":{"coordinates":[-1.683082,48.103687],"type":"Point"},"properties":{"osm_id":"955287373","tag":{"amenity":"recycling","recycling:glass_bottles":"yes","recycling_type":"container"}},"type":"Feature"},
	{"geometry":{"coordinates":[-1.681768,48.10385],"type":"Point"},"properties":{"osm_id":"955287423","tag":{"amenity":"recycling","recycling:glass_bottles":"yes","recycling_type":"container"}},"type":"Feature"},
	{"geometry":{"coordinates":[-1.683947,48.101985],"type":"Point"},"properties":{"osm_id":"955287558","tag":{"access":"yes","amenity":"recycling","fee":"no","operator":"Rennes M\u00c3\u00a9tropole","recycling:glass_bottles":"yes","recycling:glass_jars":"yes","recycling_type":"container","wheelchair":"no"}},"type":"Feature"},
	{"geometry":{"coordinates":[-1.673254,48.107281],"type":"Point"},"properties":{"osm_id":"955287561","tag":{"amenity":"recycling","recycling:glass_bottles":"yes","recycling_type":"container"}},"type":"Feature"},
	{"geometry":{"coordinates":[-1.688152,48.10619],"type":"Point"},"properties":{"osm_id":"963938546","tag":{"access":"permissive","amenity":"recycling","fee":"no","operator":"Rennes M\u00c3\u00a9tropole","recycling:glass_bottles":"yes","recycling:glass_jars":"yes","recycling_type":"container","wheelchair":"no"}},"type":"Feature"},
	{"geometry":{"coordinates":[-1.680706,48.086987],"type":"Point"},"properties":{"osm_id":"973840857","tag":{"access":"permissive","amenity":"recycling","fee":"no","operator":"Rennes M\u00c3\u00a9tropole","recycling:cans":"yes","recycling:cartons":"yes","recycling:clothes":"no","recycling:paper":"yes","recycling:plastic":"yes","recycling_type":"container","wheelchair":"yes"}},"type":"Feature"},
	{"geometry":{"coordinates":[-1.676511,48.088863],"type":"Point"},"properties":{"osm_id":"973840863","tag":{"access":"yes","amenity":"recycling","fee":"no","operator":"Rennes M\u00c3\u00a9tropole","recycling:cans":"yes","recycling:cardboard":"yes","recycling:paper":"yes","recycling:plastic":"yes","recycling_type":"container","wheelchair":"yes"}},"type":"Feature"},
	{"geometry":{"coordinates":[-1.684159,48.089465],"type":"Point"},"properties":{"osm_id":"973840880","tag":{"amenity":"recycling","recycling:cans":"yes","recycling:paper":"yes","recycling_type":"container"}},"type":"Feature"},
	{"geometry":{"coordinates":[-1.677623,48.089733],"type":"Point"},"properties":{"osm_id":"973840882","tag":{"amenity":"waste_basket","level":"0","wheelchair":"yes"}},"type":"Feature"},
	{"geometry":{"coordinates":[-1.677644,48.088909],"type":"Point"},"properties":{"osm_id":"973840900","tag":{"access":"yes","amenity":"recycling","fee":"no","operator":"Rennes M\u00c3\u00a9tropole","recycling:cans":"no","recycling:clothes":"no","recycling:glass_bottles":"yes","recycling:paper":"no","recycling:plastic":"no","recycling_type":"container","wheelchair":"yes"}},"type":"Feature"},
	{"geometry":{"coordinates":[-1.68248,48.08744],"type":"Point"},"properties":{"osm_id":"973840919","tag":{"amenity":"recycling","operator":"Rennes M\u00c3\u00a9tropole","recycling:glass_bottles":"yes","recycling_type":"container","wheelchair":"no"}},"type":"Feature"},
	{"geometry":{"coordinates":[-1.682583,48.083177],"type":"Point"},"properties":{"osm_id":"973840931","tag":{"access":"yes","amenity":"recycling","fee":"no","operator":"Rennes M\u00c3\u00a9tropole","recycling:cans":"yes","recycling:cardboard":"yes","recycling:paper":"yes","recycling:plastic":"yes","recycling_type":"container","wheelchair":"yes"}},"type":"Feature"},
	{"geometry":{"coordinates":[-1.678507,48.088925],"type":"Point"},"properties":{"osm_id":"973840956","tag":{"access":"yes","amenity":"recycling","fee":"no","operator":"Rennes M\u00c3\u00a9tropole","recycling:cans":"yes","recycling:cardboard":"yes","recycling:clothes":"no","recycling:glass":"no","recycling:glass_bottles":"no","recycling:paper":"yes","recycling:plastic":"yes","recycling_type":"container","wheelchair":"yes"}},"type":"Feature"},
	{"geometry":{"coordinates":[-1.678775,48.086988],"type":"Point"},"properties":{"osm_id":"973840959","tag":{"amenity":"recycling","recycling:cans":"yes","recycling:glass_bottles":"yes","recycling:paper":"yes","recycling_type":"container"}},"type":"Feature"},
	{"geometry":{"coordinates":[-1.677093,48.090486],"type":"Point"},"properties":{"osm_id":"973841016","tag":{"amenity":"waste_basket","level":"0","wheelchair":"yes"}},"type":"Feature"},
	{"geometry":{"coordinates":[-1.681505,48.089471],"type":"Point"},"properties":{"osm_id":"973841022","tag":{"access":"permissive","amenity":"recycling","fee":"no","operator":"Rennes M\u00c3\u00a9tropole","recycling:cans":"yes","recycling:cartons":"yes","recycling:paper":"yes","recycling:plastic":"yes","recycling_type":"container"}},"type":"Feature"},
	{"geometry":{"coordinates":[-1.684689,48.089552],"type":"Point"},"properties":{"osm_id":"973841026","tag":{"amenity":"recycling","recycling:glass_bottles":"yes","recycling_type":"container"}},"type":"Feature"},
	{"geometry":{"coordinates":[-1.694221,48.093451],"type":"Point"},"properties":{"osm_id":"1094672144","tag":{"amenity":"recycling","recycling:glass_bottles":"yes","recycling_type":"container"}},"type":"Feature"},
	{"geometry":{"coordinates":[-1.73726,48.04871],"type":"Point"},"properties":{"osm_id":"1127815210","tag":{"amenity":"waste_basket"}},"type":"Feature"},
	{"geometry":{"coordinates":[-1.736511,48.049293],"type":"Point"},"properties":{"osm_id":"1127815242","tag":{"amenity":"waste_basket"}},"type":"Feature"},
	{"geometry":{"coordinates":[-1.741074,48.049076],"type":"Point"},"properties":{"osm_id":"1128201045","tag":{"amenity":"waste_basket"}},"type":"Feature"},
	{"geometry":{"coordinates":[-1.73789,48.048818],"type":"Point"},"properties":{"osm_id":"1128201197","tag":{"amenity":"waste_basket"}},"type":"Feature"},
	{"geometry":{"coordinates":[-1.737611,48.048779],"type":"Point"},"properties":{"osm_id":"1128201314","tag":{"amenity":"waste_basket"}},"type":"Feature"},
	{"geometry":{"coordinates":[-1.74034,48.049025],"type":"Point"},"properties":{"osm_id":"1128201475","tag":{"amenity":"waste_basket"}},"type":"Feature"},
	{"geometry":{"coordinates":[-1.738531,48.052633],"type":"Point"},"properties":{"osm_id":"1128201559","tag":{"amenity":"waste_basket"}},"type":"Feature"},
	{"geometry":{"coordinates":[-1.680584,48.086412],"type":"Point"},"properties":{"osm_id":"1289133612","tag":{"amenity":"recycling","recycling_type":"container"}},"type":"Feature"},
	{"geometry":{"coordinates":[-1.672213,48.087997],"type":"Point"},"properties":{"osm_id":"1388480648","tag":{"access":"yes","amenity":"recycling","operator":"Le Relais","recycling:cans":"no","recycling:clothes":"yes","recycling:glass":"no","recycling:glass_bottles":"no","recycling:paper":"no","recycling:plastic":"no","recycling:shoes":"yes","recycling:textiles":"yes","recycling_type":"container","wheelchair":"no"}},"type":"Feature"},
	{"geometry":{"coordinates":[-1.697933,48.087244],"type":"Point"},"properties":{"osm_id":"1487938875","tag":{"amenity":"recycling","location":"underground","recycling:glass_bottles":"yes","recycling_type":"container"}},"type":"Feature"},
	{"geometry":{"coordinates":[-1.697611,48.087241],"type":"Point"},"properties":{"osm_id":"1487938876","tag":{"amenity":"waste_basket"}},"type":"Feature"},
	{"geometry":{"coordinates":[-1.706686,48.097696],"type":"Point"},"properties":{"osm_id":"1539845632","tag":{"amenity":"recycling","recycling:glass_bottles":"yes","recycling_type":"container"}},"type":"Feature"},
	{"geometry":{"coordinates":[-1.711053,48.098543],"type":"Point"},"properties":{"osm_id":"1539845658","tag":{"amenity":"recycling","recycling:glass_bottles":"yes","recycling_type":"container"}},"type":"Feature"},
	{"geometry":{"coordinates":[-1.707219,48.098786],"type":"Point"},"properties":{"osm_id":"1539845664","tag":{"access":"permissive","amenity":"recycling","fee":"no","operator":"Rennes M\u00c3\u00a9tropole","recycling:glass_bottles":"yes","recycling:glass_jars":"yes","recycling_type":"container","wheelchair":"no"}},"type":"Feature"},
	{"geometry":{"coordinates":[-1.70717,48.101162],"type":"Point"},"properties":{"osm_id":"1539845688","tag":{"access":"yes","amenity":"recycling","fee":"no","operator":"Rennes M\u00c3\u00a9tropole","recycling:cans":"no","recycling:clothes":"no","recycling:glass_bottles":"yes","recycling:glass_jars":"yes","recycling:paper":"no","recycling:plastic":"no","recycling_type":"container","wheelchair":"no"}},"type":"Feature"},
	{"geometry":{"coordinates":[-1.691153,48.103311],"type":"Point"},"properties":{"osm_id":"1539845736","tag":{"amenity":"recycling","recycling:glass_bottles":"yes","recycling_type":"container"}},"type":"Feature"},
	{"geometry":{"coordinates":[-1.697321,48.103644],"type":"Point"},"properties":{"osm_id":"1539845871","tag":{"amenity":"recycling","recycling:glass_bottles":"yes","recycling_type":"container"}},"type":"Feature"},
	{"geometry":{"coordinates":[-1.699556,48.105289],"type":"Point"},"properties":{"osm_id":"1539846028","tag":{"amenity":"recycling","recycling:glass_bottles":"yes","recycling_type":"container"}},"type":"Feature"},
	{"geometry":{"coordinates":[-1.694886,48.105643],"type":"Point"},"properties":{"osm_id":"1539846052","tag":{"amenity":"recycling","recycling:glass_bottles":"yes","recycling_type":"container"}},"type":"Feature"},
	{"geometry":{"coordinates":[-1.706801,48.0937],"type":"Point"},"properties":{"osm_id":"1582944370","tag":{"amenity":"recycling","recycling:cans":"yes","recycling:glass_bottles":"yes","recycling:paper":"yes","recycling_type":"underfloor-container"}},"type":"Feature"},
	{"geometry":{"coordinates":[-1.713232,48.103568],"type":"Point"},"properties":{"osm_id":"1582944561","tag":{"access":"yes","amenity":"recycling","fee":"no","operator":"Le Relais","recycling:clothes":"yes","recycling:shoes":"yes","recycling:textiles":"yes","recycling_type":"container","wheelchair":"no"}},"type":"Feature"},
	{"geometry":{"coordinates":[-1.713726,48.103865],"type":"Point"},"properties":{"osm_id":"1582944674","tag":{"access":"yes","amenity":"recycling","fee":"no","recycling:glass_bottles":"yes","recycling_type":"container"}},"type":"Feature"},
	{"geometry":{"coordinates":[-1.714785,48.104216],"type":"Point"},"properties":{"osm_id":"1582944980","tag":{"amenity":"waste_basket"}},"type":"Feature"},
	{"geometry":{"coordinates":[-1.714873,48.104216],"type":"Point"},"properties":{"osm_id":"1582945001","tag":{"amenity":"waste_basket"}},"type":"Feature"},
	{"geometry":{"coordinates":[-1.715382,48.104741],"type":"Point"},"properties":{"osm_id":"1582945364","tag":{"amenity":"waste_basket"}},"type":"Feature"},
	{"geometry":{"coordinates":[-1.724966,48.09569],"type":"Point"},"properties":{"osm_id":"1591184911","tag":{"amenity":"waste_basket"}},"type":"Feature"},
	{"geometry":{"coordinates":[-1.71817,48.097793],"type":"Point"},"properties":{"osm_id":"1591184979","tag":{"amenity":"waste_basket"}},"type":"Feature"},
	{"geometry":{"coordinates":[-1.718176,48.097807],"type":"Point"},"properties":{"osm_id":"1591184981","tag":{"amenity":"waste_basket"}},"type":"Feature"},
	{"geometry":{"coordinates":[-1.706292,48.098309],"type":"Point"},"properties":{"osm_id":"1591185034","tag":{"amenity":"waste_basket"}},"type":"Feature"},
	{"geometry":{"coordinates":[-1.708186,48.100471],"type":"Point"},"properties":{"osm_id":"1591185169","tag":{"amenity":"waste_basket"}},"type":"Feature"},
	{"geometry":{"coordinates":[-1.732621,48.103467],"type":"Point"},"properties":{"barrier":"gate","osm_id":"1651557885"},"type":"Feature"},
	{"geometry":{"coordinates":[-1.670394,48.106871],"type":"Point"},"properties":{"osm_id":"1691232332","tag":{"access":"yes","amenity":"recycling","fee":"no","operator":"Rennes M\u00c3\u00a9tropole","recycling:cans":"no","recycling:clothes":"no","recycling:glass_bottles":"yes","recycling:paper":"no","recycling:plastic":"no","recycling_type":"container","wheelchair":"no"}},"type":"Feature"},
	{"geometry":{"coordinates":[-1.676021,48.101661],"type":"Point"},"properties":{"osm_id":"1713069109","tag":{"access":"yes","amenity":"recycling","fee":"no","operator":"Rennes M\u00c3\u00a9tropole","recycling:batteries":"no","recycling:cans":"no","recycling:clothes":"no","recycling:glass_bottles":"yes","recycling:glass_jars":"yes","recycling:paper":"no","recycling:plastic":"no","recycling_type":"container","wheelchair":"no"}},"type":"Feature"},
	{"geometry":{"coordinates":[-1.682825,48.089382],"type":"Point"},"properties":{"osm_id":"1892782729","tag":{"amenity":"recycling","recycling:glass_bottles":"yes","recycling_type":"container"}},"type":"Feature"},
	{"geometry":{"coordinates":[-1.713119,48.077108],"type":"Point"},"properties":{"osm_id":"2143119250","tag":{"amenity":"recycling","recycling:cans":"yes","recycling:clothes":"no","recycling:glass":"no","recycling:paper":"yes","recycling_type":"container"}},"type":"Feature"},
	{"geometry":{"coordinates":[-1.715008,48.077163],"type":"Point"},"properties":{"osm_id":"2143120548","tag":{"amenity":"recycling","recycling:cans":"yes","recycling:clothes":"no","recycling:glass":"no","recycling:paper":"yes","recycling_type":"container"}},"type":"Feature"},
	{"geometry":{"coordinates":[-1.707182,48.101205],"type":"Point"},"properties":{"osm_id":"2525562336","tag":{"access":"yes","amenity":"recycling","fee":"no","operator":"Le Relais","recycling:cans":"no","recycling:clothes":"yes","recycling:glass":"no","recycling:glass_bottles":"no","recycling:paper":"no","recycling:plastic":"no","recycling:shoes":"yes","recycling:textiles":"yes","recycling_type":"container","wheelchair":"no"}},"type":"Feature"},
	{"geometry":{"coordinates":[-1.733575,48.101307],"type":"Point"},"properties":{"barrier":"gate","osm_id":"2704174546","tag":{"access":"customers","entrance":"main"}},"type":"Feature"},
	{"geometry":{"coordinates":[-1.732826,48.101497],"type":"Point"},"properties":{"barrier":"gate","osm_id":"2704174549"},"type":"Feature"},
	{"geometry":{"coordinates":[-1.736304,48.106129],"type":"Point"},"properties":{"osm_id":"2727381239","tag":{"amenity":"recycling","recycling:glass_bottles":"yes","recycling_type":"container"}},"type":"Feature"},
	{"geometry":{"coordinates":[-1.670408,48.080332],"type":"Point"},"properties":{"barrier":"gate","osm_id":"2775093846","tag":{"bicycle":"yes","foot":"yes"}},"type":"Feature"},
	{"geometry":{"coordinates":[-1.684388,48.051241],"type":"Point"},"properties":{"osm_id":"2793128331","tag":{"amenity":"recycling","recycling:glass_bottles":"yes","recycling_type":"container"}},"type":"Feature"},
	{"geometry":{"coordinates":[-1.720417,48.066282],"type":"Point"},"properties":{"osm_id":"2793128353","tag":{"amenity":"recycling","recycling:glass_bottles":"yes","recycling_type":"container"}},"type":"Feature"},
	{"geometry":{"coordinates":[-1.717317,48.067592],"type":"Point"},"properties":{"osm_id":"2793128357","tag":{"amenity":"recycling","recycling:glass_bottles":"yes","recycling_type":"container"}},"type":"Feature"},
	{"geometry":{"coordinates":[-1.720614,48.068195],"type":"Point"},"properties":{"osm_id":"2793128366","tag":{"amenity":"recycling","recycling:glass_bottles":"yes","recycling_type":"container"}},"type":"Feature"},
	{"geometry":{"coordinates":[-1.69651,48.069725],"type":"Point"},"properties":{"osm_id":"2793128381","tag":{"amenity":"recycling","recycling:glass_bottles":"yes","recycling_type":"container"}},"type":"Feature"},
	{"geometry":{"coordinates":[-1.7151,48.07717],"type":"Point"},"properties":{"osm_id":"2793128431","tag":{"amenity":"waste_disposal"}},"type":"Feature"},
	{"geometry":{"coordinates":[-1.7165,48.077225],"type":"Point"},"properties":{"osm_id":"2793128433","tag":{"amenity":"waste_disposal"}},"type":"Feature"},
	{"geometry":{"coordinates":[-1.717192,48.077252],"type":"Point"},"properties":{"osm_id":"2793128436","tag":{"amenity":"waste_disposal"}},"type":"Feature"},
	{"geometry":{"coordinates":[-1.717722,48.077423],"type":"Point"},"properties":{"osm_id":"2793128438","tag":{"amenity":"recycling","recycling:glass_bottles":"yes","recycling_type":"container"}},"type":"Feature"},
	{"geometry":{"coordinates":[-1.713118,48.078283],"type":"Point"},"properties":{"osm_id":"2793128446","tag":{"amenity":"waste_disposal"}},"type":"Feature"},
	{"geometry":{"coordinates":[-1.71407,48.078299],"type":"Point"},"properties":{"osm_id":"2793128448","tag":{"amenity":"waste_disposal"}},"type":"Feature"},
	{"geometry":{"coordinates":[-1.715516,48.07836],"type":"Point"},"properties":{"osm_id":"2793128451","tag":{"amenity":"recycling","recycling:glass_bottles":"yes","recycling_type":"container"}},"type":"Feature"},
	{"geometry":{"coordinates":[-1.716102,48.078404],"type":"Point"},"properties":{"osm_id":"2793128458","tag":{"amenity":"waste_disposal"}},"type":"Feature"},
	{"geometry":{"coordinates":[-1.71738,48.078447],"type":"Point"},"properties":{"osm_id":"2793128460","tag":{"amenity":"waste_disposal"}},"type":"Feature"},
	{"geometry":{"coordinates":[-1.71399,48.08233],"type":"Point"},"properties":{"osm_id":"2793128467","tag":{"amenity":"recycling","recycling:glass_bottles":"yes","recycling_type":"container"}},"type":"Feature"},
	{"geometry":{"coordinates":[-1.698388,48.099501],"type":"Point"},"properties":{"osm_id":"2845552717","tag":{"amenity":"recycling","recycling_type":"container"}},"type":"Feature"},
	{"geometry":{"coordinates":[-1.698404,48.101446],"type":"Point"},"properties":{"osm_id":"2845552722","tag":{"amenity":"recycling","recycling_type":"container"}},"type":"Feature"},
	{"geometry":{"coordinates":[-1.695581,48.098836],"type":"Point"},"properties":{"osm_id":"2845552723","tag":{"access":"yes","amenity":"recycling","fee":"no","operator":"Rennes M\u00c3\u00a9tropole","recycling:glass_bottles":"yes","recycling_type":"container","wheelchair":"yes"}},"type":"Feature"},
	{"geometry":{"coordinates":[-1.705055,48.093713],"type":"Point"},"properties":{"osm_id":"3226171170","tag":{"amenity":"waste_basket"}},"type":"Feature"},
	{"geometry":{"coordinates":[-1.682242,48.090844],"type":"Point"},"properties":{"osm_id":"3269332035","tag":{"access":"yes","amenity":"recycling","fee":"no","operator":"Rennes M\u00c3\u00a9tropole","recycling:cans":"yes","recycling:cardboard":"yes","recycling:paper":"yes","recycling:plastic":"yes","recycling_type":"container","wheelchair":"yes"}},"type":"Feature"},
	{"geometry":{"coordinates":[-1.714439,48.077148],"type":"Point"},"properties":{"osm_id":"3523102259","tag":{"amenity":"recycling","recycling:cans":"no","recycling:clothes":"no","recycling:glass_bottles":"yes","recycling:paper":"no","recycling_type":"container"}},"type":"Feature"},
	{"geometry":{"coordinates":[-1.711349,48.081436],"type":"Point"},"properties":{"osm_id":"3523102260","tag":{"amenity":"recycling","recycling:cans":"no","recycling:clothes":"yes","recycling:glass":"no","recycling:paper":"no","recycling_type":"container"}},"type":"Feature"},
	{"geometry":{"coordinates":[-1.711154,48.08554],"type":"Point"},"properties":{"osm_id":"3566862044","tag":{"amenity":"recycling","recycling:cans":"no","recycling:clothes":"no","recycling:glass_bottles":"yes","recycling:paper":"no","recycling_type":"container"}},"type":"Feature"},
	{"geometry":{"coordinates":[-1.679067,48.107229],"type":"Point"},"properties":{"osm_id":"3778122160","tag":{"access":"yes","amenity":"recycling","fee":"no","operator":"Rennes M\u00c3\u00a9tropole","recycling:glass_bottles":"yes","recycling:glass_jars":"yes","recycling_type":"container","wheelchair":"no"}},"type":"Feature"},
	{"geometry":{"coordinates":[-1.678532,48.101597],"type":"Point"},"properties":{"osm_id":"3870698772","tag":{"access":"yes","amenity":"recycling","fee":"no","operator":"Rennes M\u00c3\u00a9tropole","recycling:cans":"no","recycling:clothes":"no","recycling:glass_bottles":"yes","recycling:paper":"no","recycling:plastic":"no","recycling_type":"container","wheelchair":"no"}},"type":"Feature"},
	{"geometry":{"coordinates":[-1.675451,48.097403],"type":"Point"},"properties":{"osm_id":"3878443037","tag":{"amenity":"waste_basket","wheelchair":"yes"}},"type":"Feature"},
	{"geometry":{"coordinates":[-1.675313,48.097408],"type":"Point"},"properties":{"osm_id":"3878443038","tag":{"amenity":"waste_basket","wheelchair":"yes"}},"type":"Feature"},
	{"geometry":{"coordinates":[-1.67171,48.083806],"type":"Point"},"properties":{"osm_id":"3977753628","tag":{"amenity":"recycling","recycling:glass_bottles":"yes","recycling:waste":"yes","recycling_type":"container"}},"type":"Feature"},
	{"geometry":{"coordinates":[-1.673162,48.085545],"type":"Point"},"properties":{"osm_id":"3982380469","tag":{"amenity":"recycling","recycling:cardboard":"yes","recycling:plastic":"yes","recycling:waste":"yes","recycling_type":"container"}},"type":"Feature"},
	{"geometry":{"coordinates":[-1.672166,48.107397],"type":"Point"},"properties":{"osm_id":"3991710771","tag":{"amenity":"waste_basket","wheelchair":"yes"}},"type":"Feature"},
	{"geometry":{"coordinates":[-1.672039,48.08654],"type":"Point"},"properties":{"osm_id":"3992157703","tag":{"access":"yes","amenity":"recycling","fee":"no","operator":"Rennes M\u00c3\u00a9tropole","recycling:glass_bottles":"yes","recycling_type":"container","wheelchair":"yes"}},"type":"Feature"},
	{"geometry":{"coordinates":[-1.672077,48.08654],"type":"Point"},"properties":{"osm_id":"3992157704","tag":{"access":"yes","amenity":"recycling","fee":"no","operator":"Rennes M\u00c3\u00a9tropole","recycling:cans":"yes","recycling:cardboard":"yes","recycling:paper":"yes","recycling:plastic":"yes","recycling_type":"container","wheelchair":"yes"}},"type":"Feature"},
	{"geometry":{"coordinates":[-1.675021,48.089022],"type":"Point"},"properties":{"osm_id":"3992157707","tag":{"amenity":"waste_basket"}},"type":"Feature"},
	{"geometry":{"coordinates":[-1.674915,48.092025],"type":"Point"},"properties":{"osm_id":"3992157712","tag":{"amenity":"waste_basket","wheelchair":"yes"}},"type":"Feature"},
	{"geometry":{"coordinates":[-1.675001,48.092317],"type":"Point"},"properties":{"osm_id":"3992157713","tag":{"amenity":"waste_basket","wheelchair":"yes"}},"type":"Feature"},
	{"geometry":{"coordinates":[-1.678446,48.105658],"type":"Point"},"properties":{"osm_id":"4001619077","tag":{"access":"permissive","amenity":"recycling","fee":"no","operator":"R\u00c3\u00a9cylum","recycling:cans":"no","recycling:clothes":"no","recycling:electrical_appliances":"yes","recycling:glass":"no","recycling:glass_bottles":"no","recycling:paper":"no","recycling:plastic":"no","recycling:small_appliances":"yes","recycling_type":"container","wheelchair":"yes"}},"type":"Feature"},
	{"geometry":{"coordinates":[-1.678488,48.105653],"type":"Point"},"properties":{"osm_id":"4001619078","tag":{"access":"permissive","amenity":"recycling","fee":"no","operator":"R\u00c3\u00a9cylum","recycling:cans":"no","recycling:clothes":"no","recycling:glass":"no","recycling:glass_bottles":"no","recycling:light_bulbs":"yes","recycling:paper":"no","recycling:plastic":"no","recycling_type":"container","wheelchair":"yes"}},"type":"Feature"},
	{"geometry":{"coordinates":[-1.675588,48.099254],"type":"Point"},"properties":{"osm_id":"4009705869","tag":{"access":"yes","amenity":"recycling","fee":"no","operator":"Rennes M\u00c3\u00a9tropole","recycling:cans":"no","recycling:clothes":"no","recycling:glass_bottles":"yes","recycling:paper":"no","recycling:plastic":"no","recycling_type":"container","wheelchair":"yes"}},"type":"Feature"},
	{"geometry":{"coordinates":[-1.682703,48.08145],"type":"Point"},"properties":{"osm_id":"4020555133","tag":{"amenity":"waste_basket"}},"type":"Feature"},
	{"geometry":{"coordinates":[-1.675239,48.083831],"type":"Point"},"properties":{"osm_id":"4020555136","tag":{"amenity":"waste_basket"}},"type":"Feature"},
	{"geometry":{"coordinates":[-1.695247,48.087233],"type":"Point"},"properties":{"osm_id":"4020750122","ref":"_CMP 0001","tag":{"amenity":"recycling","recycling:operator":"Rennes M\u00c3\u00a9tropole","recycling:organic":"yes","recycling_type":"container"}},"type":"Feature"},
	{"geometry":{"coordinates":[-1.693954,48.094982],"type":"Point"},"properties":{"osm_id":"4020750126","ref":"_CMP 0005","tag":{"amenity":"recycling","recycling:operator":"Rennes M\u00c3\u00a9tropole","recycling:organic":"yes","recycling_type":"container"}},"type":"Feature"},
	{"geometry":{"coordinates":[-1.671252,48.105575],"type":"Point"},"properties":{"osm_id":"4020750132","ref":"_CMP 0011","tag":{"amenity":"recycling","recycling:operator":"Rennes M\u00c3\u00a9tropole","recycling:organic":"yes","recycling_type":"container"}},"type":"Feature"},
	{"geometry":{"coordinates":[-1.67634,48.090605],"type":"Point"},"properties":{"osm_id":"4020750135","ref":"_CMP 0014","tag":{"amenity":"recycling","recycling:operator":"Rennes M\u00c3\u00a9tropole","recycling:organic":"yes","recycling_type":"container"}},"type":"Feature"},
	{"geometry":{"coordinates":[-1.6724,48.105891],"type":"Point"},"properties":{"osm_id":"4020750141","ref":"_CMP 0020","tag":{"amenity":"recycling","recycling:operator":"Rennes M\u00c3\u00a9tropole","recycling:organic":"yes","recycling_type":"container"}},"type":"Feature"},
	{"geometry":{"coordinates":[-1.694781,48.096052],"type":"Point"},"properties":{"osm_id":"4020750144","ref":"_CMP 0023","tag":{"amenity":"recycling","recycling:operator":"Rennes M\u00c3\u00a9tropole","recycling:organic":"yes","recycling_type":"container"}},"type":"Feature"},
	{"geometry":{"coordinates":[-1.699507,48.103717],"type":"Point"},"properties":{"osm_id":"4020750145","ref":"_CMP 0024","tag":{"amenity":"recycling","recycling:operator":"Rennes M\u00c3\u00a9tropole","recycling:organic":"yes","recycling_type":"container"}},"type":"Feature"},
	{"geometry":{"coordinates":[-1.702967,48.101932],"type":"Point"},"properties":{"osm_id":"4020750146","ref":"_CMP 0025","tag":{"amenity":"recycling","recycling:operator":"Rennes M\u00c3\u00a9tropole","recycling:organic":"yes","recycling_type":"container"}},"type":"Feature"},
	{"geometry":{"coordinates":[-1.675376,48.096332],"type":"Point"},"properties":{"osm_id":"4020750153","ref":"_CMP 0032","tag":{"amenity":"recycling","operator":"Rennes M\u00c3\u00a9tropole","recycling:cans":"no","recycling:clothes":"no","recycling:glass":"no","recycling:glass_bottles":"no","recycling:organic":"yes","recycling:paper":"no","recycling:plastic":"no","recycling_type":"container","wheelchair":"yes"}},"type":"Feature"},
	{"geometry":{"coordinates":[-1.689963,48.10442],"type":"Point"},"properties":{"osm_id":"4020750154","ref":"_CMP 0033","tag":{"amenity":"recycling","recycling:operator":"Rennes M\u00c3\u00a9tropole","recycling:organic":"yes","recycling_type":"container"}},"type":"Feature"},
	{"geometry":{"coordinates":[-1.683818,48.099344],"type":"Point"},"properties":{"osm_id":"4020750157","ref":"_CMP 0036","tag":{"access":"private","amenity":"recycling","recycling:operator":"Rennes M\u00c3\u00a9tropole","recycling:organic":"yes","recycling_type":"container"}},"type":"Feature"},
	{"geometry":{"coordinates":[-1.697674,48.105437],"type":"Point"},"properties":{"osm_id":"4020750168","ref":"_CMP 0047","tag":{"amenity":"recycling","recycling:operator":"Rennes M\u00c3\u00a9tropole","recycling:organic":"yes","recycling_type":"container"}},"type":"Feature"},
	{"geometry":{"coordinates":[-1.711668,48.099045],"type":"Point"},"properties":{"osm_id":"4020750169","ref":"_CMP 0048","tag":{"amenity":"recycling","recycling:operator":"Rennes M\u00c3\u00a9tropole","recycling:organic":"yes","recycling_type":"container"}},"type":"Feature"},
	{"geometry":{"coordinates":[-1.670791,48.093897],"type":"Point"},"properties":{"osm_id":"4020750170","ref":"_CMP 0049","tag":{"amenity":"recycling","recycling:operator":"Rennes M\u00c3\u00a9tropole","recycling:organic":"yes","recycling_type":"container"}},"type":"Feature"},
	{"geometry":{"coordinates":[-1.694939,48.091095],"type":"Point"},"properties":{"osm_id":"4020750171","ref":"_CMP 0050","tag":{"amenity":"recycling","recycling:operator":"Rennes M\u00c3\u00a9tropole","recycling:organic":"yes","recycling_type":"container"}},"type":"Feature"},
	{"geometry":{"coordinates":[-1.672833,48.09114],"type":"Point"},"properties":{"osm_id":"4020750173","ref":"_CMP 0052","tag":{"amenity":"recycling","recycling:operator":"Rennes M\u00c3\u00a9tropole","recycling:organic":"yes","recycling_type":"container"}},"type":"Feature"},
	{"geometry":{"coordinates":[-1.685009,48.103439],"type":"Point"},"properties":{"osm_id":"4020750181","ref":"_CMP 0060","tag":{"amenity":"recycling","recycling:operator":"Rennes M\u00c3\u00a9tropole","recycling:organic":"yes","recycling_type":"container"}},"type":"Feature"},
	{"geometry":{"coordinates":[-1.687577,48.096844],"type":"Point"},"properties":{"osm_id":"4020750186","ref":"_CMP 0064","tag":{"amenity":"recycling","recycling:operator":"Rennes M\u00c3\u00a9tropole","recycling:organic":"yes","recycling_type":"container"}},"type":"Feature"},
	{"geometry":{"coordinates":[-1.710486,48.099126],"type":"Point"},"properties":{"osm_id":"4020750187","ref":"_CMP 0065","tag":{"amenity":"recycling","recycling:operator":"Rennes M\u00c3\u00a9tropole","recycling:organic":"yes","recycling_type":"container"}},"type":"Feature"},
	{"geometry":{"coordinates":[-1.677686,48.098828],"type":"Point"},"properties":{"osm_id":"4020750188","ref":"_CMP 0066","tag":{"amenity":"recycling","recycling:cans":"no","recycling:clothes":"no","recycling:glass":"no","recycling:glass_bottles":"no","recycling:operator":"Rennes M\u00c3\u00a9tropole","recycling:organic":"yes","recycling:paper":"no","recycling:plastic":"no","recycling_type":"container"}},"type":"Feature"},
	{"geometry":{"coordinates":[-1.698414,48.099163],"type":"Point"},"properties":{"osm_id":"4020752217","ref":"_CMP 0096","tag":{"amenity":"recycling","recycling:operator":"Rennes M\u00c3\u00a9tropole","recycling:organic":"yes","recycling_type":"container"}},"type":"Feature"},
	{"geometry":{"coordinates":[-1.695561,48.107362],"type":"Point"},"properties":{"osm_id":"4020752231","ref":"_CMP 0110","tag":{"amenity":"recycling","recycling:operator":"Rennes M\u00c3\u00a9tropole","recycling:organic":"yes","recycling_type":"container"}},"type":"Feature"},
	{"geometry":{"coordinates":[-1.683881,48.086914],"type":"Point"},"properties":{"name":"Composteur collectif","osm_id":"4020752232","ref":"_CMP 0111","tag":{"amenity":"recycling","recycling:operator":"Rennes M\u00c3\u00a9tropole","recycling:organic":"yes","recycling_type":"container"}},"type":"Feature"},
	{"geometry":{"coordinates":[-1.682099,48.092614],"type":"Point"},"properties":{"osm_id":"4020752235","ref":"_CMP 0114","tag":{"amenity":"recycling","recycling:operator":"Rennes M\u00c3\u00a9tropole","recycling:organic":"yes","recycling_type":"container"}},"type":"Feature"},
	{"geometry":{"coordinates":[-1.680731,48.103408],"type":"Point"},"properties":{"osm_id":"4020752245","ref":"_CMP 0124","tag":{"access":"yes","amenity":"recycling","fee":"no","recycling:operator":"Rennes M\u00c3\u00a9tropole","recycling:organic":"yes","recycling_type":"container","wheelchair":"no"}},"type":"Feature"},
	{"geometry":{"coordinates":[-1.687051,48.091656],"type":"Point"},"properties":{"osm_id":"4020752276","ref":"_CMP 0155","tag":{"amenity":"recycling","recycling:operator":"Rennes M\u00c3\u00a9tropole","recycling:organic":"yes","recycling_type":"container"}},"type":"Feature"},
	{"geometry":{"coordinates":[-1.694298,48.089517],"type":"Point"},"properties":{"osm_id":"4020752997","ref":"_CMP 0176","tag":{"amenity":"recycling","recycling:operator":"Rennes M\u00c3\u00a9tropole","recycling:organic":"yes","recycling_type":"container"}},"type":"Feature"},
	{"geometry":{"coordinates":[-1.680345,48.106248],"type":"Point"},"properties":{"osm_id":"4020752999","ref":"_CMP 0178","tag":{"amenity":"recycling","recycling:operator":"Rennes M\u00c3\u00a9tropole","recycling:organic":"yes","recycling_type":"container"}},"type":"Feature"},
	{"geometry":{"coordinates":[-1.672189,48.092794],"type":"Point"},"properties":{"osm_id":"4020753015","ref":"_CMP 0194","tag":{"amenity":"recycling","recycling:operator":"Rennes M\u00c3\u00a9tropole","recycling:organic":"yes","recycling_type":"container"}},"type":"Feature"},
	{"geometry":{"coordinates":[-1.705418,48.101569],"type":"Point"},"properties":{"osm_id":"4020753016","ref":"_CMP 0195","tag":{"amenity":"recycling","recycling:operator":"Rennes M\u00c3\u00a9tropole","recycling:organic":"yes","recycling_type":"container"}},"type":"Feature"},
	{"geometry":{"coordinates":[-1.701476,48.100969],"type":"Point"},"properties":{"osm_id":"4020753028","ref":"_CMP 0207","tag":{"amenity":"recycling","recycling:operator":"Rennes M\u00c3\u00a9tropole","recycling:organic":"yes","recycling_type":"container"}},"type":"Feature"},
	{"geometry":{"coordinates":[-1.679663,48.088761],"type":"Point"},"properties":{"osm_id":"4020753032","ref":"_CMP 0211","tag":{"access":"permissive","amenity":"recycling","fee":"no","operator":"Rennes M\u00c3\u00a9tropole","recycling:organic":"yes","recycling_type":"container","wheelchair":"no"}},"type":"Feature"},
	{"geometry":{"coordinates":[-1.69637,48.090019],"type":"Point"},"properties":{"osm_id":"4020753037","ref":"_CMP 0216","tag":{"amenity":"recycling","recycling:operator":"Rennes M\u00c3\u00a9tropole","recycling:organic":"yes","recycling_type":"container"}},"type":"Feature"},
	{"geometry":{"coordinates":[-1.682474,48.103325],"type":"Point"},"properties":{"osm_id":"4020753041","ref":"_CMP 0220","tag":{"amenity":"recycling","recycling:operator":"Rennes M\u00c3\u00a9tropole","recycling:organic":"yes","recycling_type":"container"}},"type":"Feature"},
	{"geometry":{"coordinates":[-1.711205,48.102293],"type":"Point"},"properties":{"osm_id":"4020753045","ref":"_CMP 0224","tag":{"amenity":"recycling","recycling:operator":"Rennes M\u00c3\u00a9tropole","recycling:organic":"yes","recycling_type":"container"}},"type":"Feature"},
	{"geometry":{"coordinates":[-1.679158,48.086217],"type":"Point"},"properties":{"osm_id":"4020753047","ref":"_CMP 0226","tag":{"amenity":"recycling","recycling:operator":"Rennes M\u00c3\u00a9tropole","recycling:organic":"yes","recycling_type":"container"}},"type":"Feature"},
	{"geometry":{"coordinates":[-1.682011,48.106655],"type":"Point"},"properties":{"osm_id":"4020753051","ref":"_CMP 0230","tag":{"amenity":"recycling","recycling:operator":"Rennes M\u00c3\u00a9tropole","recycling:organic":"yes","recycling_type":"container"}},"type":"Feature"},
	{"geometry":{"coordinates":[-1.709953,48.101944],"type":"Point"},"properties":{"osm_id":"4020753063","ref":"_CMP 0242","tag":{"amenity":"recycling","recycling:operator":"Rennes M\u00c3\u00a9tropole","recycling:organic":"yes","recycling_type":"container"}},"type":"Feature"},
	{"geometry":{"coordinates":[-1.671833,48.100749],"type":"Point"},"properties":{"osm_id":"4020753078","ref":"_CMP 0257","tag":{"amenity":"recycling","recycling:operator":"Rennes M\u00c3\u00a9tropole","recycling:organic":"yes","recycling_type":"container"}},"type":"Feature"},
	{"geometry":{"coordinates":[-1.692848,48.088908],"type":"Point"},"properties":{"osm_id":"4020753389","ref":"_CMP 0268","tag":{"amenity":"recycling","recycling:operator":"Rennes M\u00c3\u00a9tropole","recycling:organic":"yes","recycling_type":"container"}},"type":"Feature"},
	{"geometry":{"coordinates":[-1.681523,48.086108],"type":"Point"},"properties":{"osm_id":"4020753410","ref":"_CMP 0289","tag":{"amenity":"recycling","recycling:operator":"Rennes M\u00c3\u00a9tropole","recycling:organic":"yes","recycling_type":"container"}},"type":"Feature"},
	{"geometry":{"coordinates":[-1.69422,48.104681],"type":"Point"},"properties":{"osm_id":"4020753413","ref":"_CMP 0292","tag":{"amenity":"recycling","recycling:operator":"Rennes M\u00c3\u00a9tropole","recycling:organic":"yes","recycling_type":"container"}},"type":"Feature"},
	{"geometry":{"coordinates":[-1.670557,48.088599],"type":"Point"},"properties":{"osm_id":"4020753414","ref":"_CMP 0293","tag":{"amenity":"recycling","recycling:operator":"Rennes M\u00c3\u00a9tropole","recycling:organic":"yes","recycling_type":"container"}},"type":"Feature"},
	{"geometry":{"coordinates":[-1.683449,48.100894],"type":"Point"},"properties":{"osm_id":"4020753418","ref":"_CMP 0297","tag":{"amenity":"recycling","recycling:cans":"no","recycling:clothes":"no","recycling:glass":"no","recycling:glass_bottles":"no","recycling:operator":"Rennes M\u00c3\u00a9tropole","recycling:organic":"yes","recycling:paper":"no","recycling:plastic":"no","recycling_type":"container"}},"type":"Feature"},
	{"geometry":{"coordinates":[-1.70162,48.100021],"type":"Point"},"properties":{"osm_id":"4020753429","ref":"_CMP 0308","tag":{"amenity":"recycling","recycling:operator":"Rennes M\u00c3\u00a9tropole","recycling:organic":"yes","recycling_type":"container"}},"type":"Feature"},
	{"geometry":{"coordinates":[-1.692069,48.096061],"type":"Point"},"properties":{"osm_id":"4020753430","ref":"_CMP 0309","tag":{"amenity":"recycling","recycling:operator":"Rennes M\u00c3\u00a9tropole","recycling:organic":"yes","recycling_type":"container"}},"type":"Feature"},
	{"geometry":{"coordinates":[-1.697994,48.102033],"type":"Point"},"properties":{"osm_id":"4020753435","ref":"_CMP 0314","tag":{"amenity":"recycling","recycling:operator":"Rennes M\u00c3\u00a9tropole","recycling:organic":"yes","recycling_type":"container"}},"type":"Feature"},
	{"geometry":{"coordinates":[-1.714326,48.079912],"type":"Point"},"properties":{"osm_id":"4020753438","ref":"_CMP 0317","tag":{"amenity":"recycling","recycling:operator":"Rennes M\u00c3\u00a9tropole","recycling:organic":"yes","recycling_type":"container"}},"type":"Feature"},
	{"geometry":{"coordinates":[-1.683468,48.104863],"type":"Point"},"properties":{"osm_id":"4020753440","ref":"_CMP 0319","tag":{"amenity":"recycling","recycling:operator":"Rennes M\u00c3\u00a9tropole","recycling:organic":"yes","recycling_type":"container"}},"type":"Feature"},
	{"geometry":{"coordinates":[-1.698439,48.106754],"type":"Point"},"properties":{"osm_id":"4020753441","ref":"_CMP 0320","tag":{"amenity":"recycling","recycling:operator":"Rennes M\u00c3\u00a9tropole","recycling:organic":"yes","recycling_type":"container"}},"type":"Feature"},
	{"geometry":{"coordinates":[-1.676622,48.093001],"type":"Point"},"properties":{"osm_id":"4020753443","ref":"_CMP 0322","tag":{"amenity":"recycling","recycling:cans":"no","recycling:clothes":"no","recycling:glass":"no","recycling:glass_bottles":"no","recycling:operator":"Rennes M\u00c3\u00a9tropole","recycling:organic":"yes","recycling:paper":"no","recycling:plastic":"no","recycling_type":"container"}},"type":"Feature"},
	{"geometry":{"coordinates":[-1.68337,48.083863],"type":"Point"},"properties":{"osm_id":"4020753445","ref":"_CMP 0324","tag":{"amenity":"recycling","recycling:operator":"Rennes M\u00c3\u00a9tropole","recycling:organic":"yes","recycling_type":"container"}},"type":"Feature"},
	{"geometry":{"coordinates":[-1.697806,48.100693],"type":"Point"},"properties":{"osm_id":"4020753446","ref":"_CMP 0325","tag":{"amenity":"recycling","recycling:operator":"Rennes M\u00c3\u00a9tropole","recycling:organic":"yes","recycling_type":"container"}},"type":"Feature"},
	{"geometry":{"coordinates":[-1.69779,48.100262],"type":"Point"},"properties":{"osm_id":"4020753447","ref":"_CMP 0326","tag":{"amenity":"recycling","recycling:operator":"Rennes M\u00c3\u00a9tropole","recycling:organic":"yes","recycling_type":"container"}},"type":"Feature"},
	{"geometry":{"coordinates":[-1.713264,48.07818],"type":"Point"},"properties":{"osm_id":"4020753450","ref":"_CMP 0330","tag":{"amenity":"recycling","recycling:operator":"Rennes M\u00c3\u00a9tropole","recycling:organic":"yes","recycling_type":"container"}},"type":"Feature"},
	{"geometry":{"coordinates":[-1.715949,48.081308],"type":"Point"},"properties":{"osm_id":"4020753451","ref":"_CMP 0331","tag":{"amenity":"recycling","recycling:operator":"Rennes M\u00c3\u00a9tropole","recycling:organic":"yes","recycling_type":"container"}},"type":"Feature"},
	{"geometry":{"coordinates":[-1.713619,48.085366],"type":"Point"},"properties":{"osm_id":"4020753454","ref":"_CMP 0334","tag":{"amenity":"recycling","recycling:operator":"Rennes M\u00c3\u00a9tropole","recycling:organic":"yes","recycling_type":"container"}},"type":"Feature"},
	{"geometry":{"coordinates":[-1.695403,48.08544],"type":"Point"},"properties":{"osm_id":"4020753455","ref":"_CMP 0335","tag":{"amenity":"recycling","recycling:operator":"Rennes M\u00c3\u00a9tropole","recycling:organic":"yes","recycling_type":"container"}},"type":"Feature"},
	{"geometry":{"coordinates":[-1.677688,48.08759],"type":"Point"},"properties":{"osm_id":"4020753462","ref":"_CMP 0342","tag":{"amenity":"recycling","recycling:operator":"Rennes M\u00c3\u00a9tropole","recycling:organic":"yes","recycling_type":"container"}},"type":"Feature"},
	{"geometry":{"coordinates":[-1.700912,48.104389],"type":"Point"},"properties":{"osm_id":"4020753463","ref":"_CMP 0343","tag":{"amenity":"recycling","recycling:operator":"Rennes M\u00c3\u00a9tropole","recycling:organic":"yes","recycling_type":"container"}},"type":"Feature"},
	{"geometry":{"coordinates":[-1.698619,48.08544],"type":"Point"},"properties":{"osm_id":"4020753464","ref":"_CMP 0344","tag":{"amenity":"recycling","recycling:operator":"Rennes M\u00c3\u00a9tropole","recycling:organic":"yes","recycling_type":"container"}},"type":"Feature"},
	{"geometry":{"coordinates":[-1.67516,48.09483],"type":"Point"},"properties":{"osm_id":"4020753465","ref":"_CMP 0345","tag":{"amenity":"recycling","operator":"Rennes M\u00c3\u00a9tropole","recycling:cans":"no","recycling:clothes":"no","recycling:glass":"no","recycling:glass_bottles":"no","recycling:organic":"yes","recycling:paper":"no","recycling:plastic":"no","recycling_type":"container","wheelchair":"yes"}},"type":"Feature"},
	{"geometry":{"coordinates":[-1.683773,48.102914],"type":"Point"},"properties":{"osm_id":"4020753468","ref":"_CMP 0348","tag":{"amenity":"recycling","recycling:operator":"Rennes M\u00c3\u00a9tropole","recycling:organic":"yes","recycling_type":"container"}},"type":"Feature"},
	{"geometry":{"coordinates":[-1.684553,48.099219],"type":"Point"},"properties":{"osm_id":"4020753469","ref":"_CMP 0349","tag":{"access":"private","amenity":"recycling","recycling:operator":"Rennes M\u00c3\u00a9tropole","recycling:organic":"yes","recycling_type":"container"}},"type":"Feature"},
	{"geometry":{"coordinates":[-1.701533,48.103445],"type":"Point"},"properties":{"osm_id":"4020753470","ref":"_CMP 0350","tag":{"amenity":"recycling","recycling:operator":"Rennes M\u00c3\u00a9tropole","recycling:organic":"yes","recycling_type":"container"}},"type":"Feature"},
	{"geometry":{"coordinates":[-1.691452,48.105767],"type":"Point"},"properties":{"osm_id":"4020753473","ref":"_CMP 0353","tag":{"amenity":"recycling","recycling:operator":"Rennes M\u00c3\u00a9tropole","recycling:organic":"yes","recycling_type":"container"}},"type":"Feature"},
	{"geometry":{"coordinates":[-1.715983,48.07959],"type":"Point"},"properties":{"osm_id":"4020753478","ref":"_CMP 0358","tag":{"amenity":"recycling","recycling:operator":"Rennes M\u00c3\u00a9tropole","recycling:organic":"yes","recycling_type":"container"}},"type":"Feature"},
	{"geometry":{"coordinates":[-1.674143,48.104787],"type":"Point"},"properties":{"osm_id":"4020753507","ref":"_CMP 0387","tag":{"amenity":"recycling","recycling:operator":"Rennes M\u00c3\u00a9tropole","recycling:organic":"yes","recycling_type":"container"}},"type":"Feature"},
	{"geometry":{"coordinates":[-1.676201,48.10483],"type":"Point"},"properties":{"osm_id":"4020753511","ref":"_CMP 0391","tag":{"amenity":"recycling","recycling:operator":"Rennes M\u00c3\u00a9tropole","recycling:organic":"yes","recycling_type":"container"}},"type":"Feature"},
	{"geometry":{"coordinates":[-1.675965,48.093742],"type":"Point"},"properties":{"osm_id":"4040644460","tag":{"amenity":"recycling","operator":"Rennes M\u00c3\u00a9tropole","recycling:glass_bottles":"yes","recycling_type":"container","wheelchair":"no"}},"type":"Feature"},
	{"geometry":{"coordinates":[-1.678318,48.092016],"type":"Point"},"properties":{"osm_id":"4040708795","tag":{"access":"yes","amenity":"recycling","fee":"no","operator":"Le Relais","recycling:cans":"no","recycling:clothes":"yes","recycling:glass":"no","recycling:glass_bottles":"no","recycling:paper":"no","recycling:plastic":"no","recycling:shoes":"yes","recycling:textiles":"yes","recycling_type":"container","wheelchair":"no"}},"type":"Feature"},
	{"geometry":{"coordinates":[-1.678622,48.091344],"type":"Point"},"properties":{"osm_id":"4040708796","tag":{"access":"permissive","amenity":"recycling","fee":"no","operator":"Rennes M\u00c3\u00a9tropole","recycling:cans":"no","recycling:clothes":"no","recycling:glass_bottles":"yes","recycling:glass_jars":"yes","recycling:paper":"no","recycling:plastic":"no","recycling_type":"container","wheelchair":"yes"}},"type":"Feature"},
	{"geometry":{"coordinates":[-1.678515,48.090968],"type":"Point"},"properties":{"osm_id":"4040708798","tag":{"amenity":"waste_basket","wheelchair":"yes"}},"type":"Feature"},
	{"geometry":{"coordinates":[-1.681183,48.090191],"type":"Point"},"properties":{"osm_id":"4040708799","tag":{"access":"permissive","amenity":"recycling","fee":"no","operator":"Rennes M\u00c3\u00a9tropole","recycling:cans":"yes","recycling:cartons":"yes","recycling:clothes":"no","recycling:glass":"no","recycling:glass_bottles":"no","recycling:paper":"yes","recycling:plastic":"yes","recycling_type":"container","wheelchair":"yes"}},"type":"Feature"},
	{"geometry":{"coordinates":[-1.680621,48.090854],"type":"Point"},"properties":{"osm_id":"4040708801","tag":{"access":"yes","amenity":"recycling","fee":"no","operator":"Rennes M\u00c3\u00a9tropole","recycling:cans":"no","recycling:clothes":"no","recycling:glass_bottles":"yes","recycling:paper":"no","recycling:plastic":"no","recycling_type":"container","wheelchair":"yes"}},"type":"Feature"},
	{"geometry":{"coordinates":[-1.67225,48.087996],"type":"Point"},"properties":{"osm_id":"4040708804","tag":{"access":"yes","amenity":"recycling","operator":"Le Relais","recycling:cans":"no","recycling:clothes":"yes","recycling:glass":"no","recycling:glass_bottles":"no","recycling:paper":"no","recycling:plastic":"no","recycling:shoes":"yes","recycling:textiles":"yes","recycling_type":"container","wheelchair":"no"}},"type":"Feature"},
	{"geometry":{"coordinates":[-1.678495,48.101591],"type":"Point"},"properties":{"osm_id":"4041069970","tag":{"amenity":"waste_basket","wheelchair":"yes"}},"type":"Feature"},
	{"geometry":{"coordinates":[-1.670437,48.106889],"type":"Point"},"properties":{"osm_id":"4044671437","tag":{"amenity":"waste_basket","wheelchair":"yes"}},"type":"Feature"},
	{"geometry":{"coordinates":[-1.670491,48.106998],"type":"Point"},"properties":{"osm_id":"4044671438","tag":{"amenity":"waste_basket","wheelchair":"yes"}},"type":"Feature"},
	{"geometry":{"coordinates":[-1.670716,48.106884],"type":"Point"},"properties":{"osm_id":"4044671439","tag":{"amenity":"waste_basket","level":"0","wheelchair":"yes"}},"type":"Feature"},
	{"geometry":{"coordinates":[-1.669978,48.106925],"type":"Point"},"properties":{"osm_id":"4044671442","tag":{"amenity":"waste_basket","wheelchair":"yes"}},"type":"Feature"},
	{"geometry":{"coordinates":[-1.678607,48.0922],"type":"Point"},"properties":{"osm_id":"4050897495","tag":{"access":"yes","amenity":"recycling","fee":"no","operator":"Rennes M\u00c3\u00a9tropole","recycling:cans":"no","recycling:clothes":"no","recycling:glass_bottles":"yes","recycling:paper":"no","recycling:plastic":"no","recycling_type":"container","wheelchair":"no"}},"type":"Feature"},
	{"geometry":{"coordinates":[-1.677861,48.106544],"type":"Point"},"properties":{"osm_id":"4053760835","tag":{"amenity":"waste_basket","wheelchair":"yes"}},"type":"Feature"},
	{"geometry":{"coordinates":[-1.676539,48.102959],"type":"Point"},"properties":{"osm_id":"4054784906","tag":{"access":"yes","amenity":"recycling","fee":"no","operator":"Rennes M\u00c3\u00a9tropole","recycling:cans":"no","recycling:clothes":"no","recycling:glass_bottles":"yes","recycling:paper":"no","recycling:plastic":"no","recycling_type":"container","wheelchair":"no"}},"type":"Feature"},
	{"geometry":{"coordinates":[-1.67709,48.103564],"type":"Point"},"properties":{"osm_id":"4054784907","tag":{"amenity":"waste_basket","wheelchair":"yes"}},"type":"Feature"},
	{"geometry":{"coordinates":[-1.676892,48.103664],"type":"Point"},"properties":{"osm_id":"4054784909","tag":{"amenity":"waste_basket","wheelchair":"yes"}},"type":"Feature"},
	{"geometry":{"coordinates":[-1.677991,48.104288],"type":"Point"},"properties":{"osm_id":"4054784910","tag":{"access":"yes","amenity":"recycling","fee":"no","operator":"Rennes M\u00c3\u00a9tropole","recycling:cans":"no","recycling:clothes":"no","recycling:glass_bottles":"yes","recycling:paper":"no","recycling:plastic":"no","recycling_type":"container","wheelchair":"no"}},"type":"Feature"},
	{"geometry":{"coordinates":[-1.677618,48.104979],"type":"Point"},"properties":{"osm_id":"4054784911","tag":{"amenity":"waste_basket","wheelchair":"yes"}},"type":"Feature"},
	{"geometry":{"coordinates":[-1.677363,48.105086],"type":"Point"},"properties":{"osm_id":"4054784912","tag":{"amenity":"waste_basket","wheelchair":"yes"}},"type":"Feature"},
	{"geometry":{"coordinates":[-1.677672,48.105229],"type":"Point"},"properties":{"osm_id":"4054784914","tag":{"amenity":"waste_basket","wheelchair":"yes"}},"type":"Feature"},
	{"geometry":{"coordinates":[-1.677425,48.105258],"type":"Point"},"properties":{"osm_id":"4054784915","tag":{"amenity":"waste_basket","wheelchair":"yes"}},"type":"Feature"},
	{"geometry":{"coordinates":[-1.677809,48.105889],"type":"Point"},"properties":{"osm_id":"4054784917","tag":{"amenity":"waste_basket","wheelchair":"yes"}},"type":"Feature"},
	{"geometry":{"coordinates":[-1.67754,48.105903],"type":"Point"},"properties":{"osm_id":"4054784918","tag":{"amenity":"waste_basket","wheelchair":"yes"}},"type":"Feature"},
	{"geometry":{"coordinates":[-1.677829,48.106256],"type":"Point"},"properties":{"osm_id":"4054784919","tag":{"amenity":"waste_basket","wheelchair":"yes"}},"type":"Feature"},
	{"geometry":{"coordinates":[-1.677601,48.106263],"type":"Point"},"properties":{"osm_id":"4054784920","tag":{"amenity":"waste_basket","level":"0","wheelchair":"yes"}},"type":"Feature"},
	{"geometry":{"coordinates":[-1.679653,48.088544],"type":"Point"},"properties":{"osm_id":"4060909247","tag":{"amenity":"waste_basket","wheelchair":"yes"}},"type":"Feature"},
	{"geometry":{"coordinates":[-1.679394,48.088514],"type":"Point"},"properties":{"osm_id":"4060909249","tag":{"amenity":"waste_basket","wheelchair":"yes"}},"type":"Feature"},
	{"geometry":{"coordinates":[-1.679364,48.091954],"type":"Point"},"properties":{"osm_id":"4064314762","tag":{"access":"permissive","amenity":"recycling","fee":"no","operator":"R\u00c3\u00a9cyclum","recycling:cans":"no","recycling:clothes":"no","recycling:glass":"no","recycling:glass_bottles":"no","recycling:light_bulbs":"yes","recycling:paper":"no","recycling:plastic":"no","recycling_type":"container","wheelchair":"yes"}},"type":"Feature"},
	{"geometry":{"coordinates":[-1.679369,48.091922],"type":"Point"},"properties":{"osm_id":"4064314763","tag":{"access":"permissive","amenity":"recycling","fee":"no","operator":"R\u00c3\u00a9cyclum","recycling:cans":"no","recycling:clothes":"no","recycling:electrical_appliances":"yes","recycling:glass":"no","recycling:glass_bottles":"no","recycling:paper":"no","recycling:plastic":"no","recycling:small_appliances":"yes","recycling_type":"container","wheelchair":"yes"}},"type":"Feature"},
	{"geometry":{"coordinates":[-1.679373,48.091891],"type":"Point"},"properties":{"osm_id":"4064314764","tag":{"access":"permissive","amenity":"recycling","fee":"no","operator":"R\u00c3\u00a9cyclum","recycling:batteries":"yes","recycling:cans":"no","recycling:clothes":"no","recycling:glass":"no","recycling:glass_bottles":"no","recycling:paper":"no","recycling:plastic":"no","recycling_type":"container","wheelchair":"yes"}},"type":"Feature"},
	{"geometry":{"coordinates":[-1.679359,48.092004],"type":"Point"},"properties":{"osm_id":"4064314765","tag":{"access":"permissive","amenity":"recycling","fee":"no","operator":"Solidarit\u00c3\u00a9 Bouchons","recycling:cans":"no","recycling:clothes":"no","recycling:glass":"no","recycling:glass_bottles":"no","recycling:paper":"no","recycling:plastic":"no","recycling:plastic_corks":"yes","recycling_type":"container","wheelchair":"yes"}},"type":"Feature"},
	{"geometry":{"coordinates":[-1.692475,48.090973],"type":"Point"},"properties":{"osm_id":"4065246076","tag":{"amenity":"waste_basket","wheelchair":"yes"}},"type":"Feature"},
	{"geometry":{"coordinates":[-1.692654,48.090191],"type":"Point"},"properties":{"osm_id":"4065263411","tag":{"access":"yes","amenity":"recycling","fee":"no","operator":"Rennes M\u00c3\u00a9tropole","recycling:cans":"no","recycling:clothes":"no","recycling:glass_bottles":"yes","recycling:glass_jars":"yes","recycling:paper":"no","recycling:plastic":"no","recycling_type":"container","wheelchair":"no"}},"type":"Feature"},
	{"geometry":{"coordinates":[-1.692899,48.090392],"type":"Point"},"properties":{"osm_id":"4065263412","tag":{"amenity":"waste_basket","wheelchair":"yes"}},"type":"Feature"},
	{"geometry":{"coordinates":[-1.695115,48.086619],"type":"Point"},"properties":{"osm_id":"4065523826","tag":{"amenity":"waste_basket","wheelchair":"yes"}},"type":"Feature"},
	{"geometry":{"coordinates":[-1.685362,48.094595],"type":"Point"},"properties":{"osm_id":"4067783895","tag":{"amenity":"waste_basket","waste":"trash","wheelchair":"yes"}},"type":"Feature"},
	{"geometry":{"coordinates":[-1.674509,48.093652],"type":"Point"},"properties":{"osm_id":"4071045052","tag":{"amenity":"waste_basket","wheelchair":"yes"}},"type":"Feature"},
	{"geometry":{"coordinates":[-1.674633,48.105675],"type":"Point"},"properties":{"osm_id":"4092086763","tag":{"amenity":"waste_basket","wheelchair":"yes"}},"type":"Feature"},
	{"geometry":{"coordinates":[-1.674844,48.105547],"type":"Point"},"properties":{"osm_id":"4092086764","tag":{"amenity":"waste_basket","level":"0","wheelchair":"yes"}},"type":"Feature"},
	{"geometry":{"coordinates":[-1.674892,48.10547],"type":"Point"},"properties":{"osm_id":"4092086765","tag":{"amenity":"waste_basket","wheelchair":"yes"}},"type":"Feature"},
	{"geometry":{"coordinates":[-1.674039,48.105562],"type":"Point"},"properties":{"osm_id":"4092086766","tag":{"amenity":"waste_basket","wheelchair":"yes"}},"type":"Feature"},
	{"geometry":{"coordinates":[-1.674069,48.105734],"type":"Point"},"properties":{"osm_id":"4092086767","tag":{"amenity":"waste_basket","level":"0","wheelchair":"yes"}},"type":"Feature"},
	{"geometry":{"coordinates":[-1.681988,48.091384],"type":"Point"},"properties":{"osm_id":"4105179674","tag":{"amenity":"waste_basket","wheelchair":"yes"}},"type":"Feature"},
	{"geometry":{"coordinates":[-1.6811,48.091829],"type":"Point"},"properties":{"osm_id":"4105419988","tag":{"amenity":"waste_basket","wheelchair":"yes"}},"type":"Feature"},
	{"geometry":{"coordinates":[-1.717139,48.082596],"type":"Point"},"properties":{"osm_id":"4109552254","tag":{"amenity":"waste_basket"}},"type":"Feature"},
	{"geometry":{"coordinates":[-1.717391,48.082698],"type":"Point"},"properties":{"osm_id":"4109552255","tag":{"amenity":"waste_basket"}},"type":"Feature"},
	{"geometry":{"coordinates":[-1.717937,48.082764],"type":"Point"},"properties":{"osm_id":"4109552256","tag":{"amenity":"waste_basket"}},"type":"Feature"},
	{"geometry":{"coordinates":[-1.717102,48.082914],"type":"Point"},"properties":{"osm_id":"4109552257","tag":{"amenity":"waste_basket"}},"type":"Feature"},
	{"geometry":{"coordinates":[-1.717569,48.083185],"type":"Point"},"properties":{"osm_id":"4109552258","tag":{"amenity":"waste_basket"}},"type":"Feature"},
	{"geometry":{"coordinates":[-1.717823,48.083228],"type":"Point"},"properties":{"osm_id":"4109552259","tag":{"amenity":"waste_basket"}},"type":"Feature"},
	{"geometry":{"coordinates":[-1.715607,48.08424],"type":"Point"},"properties":{"osm_id":"4109552260","tag":{"amenity":"waste_basket"}},"type":"Feature"},
	{"geometry":{"coordinates":[-1.713539,48.084317],"type":"Point"},"properties":{"osm_id":"4109552261","tag":{"amenity":"waste_basket"}},"type":"Feature"},
	{"geometry":{"coordinates":[-1.677597,48.088909],"type":"Point"},"properties":{"osm_id":"4119603389","tag":{"access":"yes","amenity":"recycling","fee":"no","operator":"Rennes M\u00c3\u00a9tropole","recycling:cans":"yes","recycling:cardboard":"yes","recycling:clothes":"no","recycling:glass":"no","recycling:glass_bottles":"no","recycling:paper":"yes","recycling:plastic":"yes","recycling_type":"container","wheelchair":"yes"}},"type":"Feature"},
	{"geometry":{"coordinates":[-1.677096,48.0899],"type":"Point"},"properties":{"osm_id":"4119603391","tag":{"amenity":"waste_basket","level":"0","wheelchair":"yes"}},"type":"Feature"},
	{"geometry":{"coordinates":[-1.676511,48.09054],"type":"Point"},"properties":{"osm_id":"4119603392","tag":{"amenity":"recycling","level":"0","operator":"Rennes M\u00c3\u00a9tropole","recycling:cans":"no","recycling:clothes":"no","recycling:glass_bottles":"yes","recycling:paper":"no","recycling:plastic":"no","recycling_type":"container","wheelchair":"yes"}},"type":"Feature"},
	{"geometry":{"coordinates":[-1.676511,48.090506],"type":"Point"},"properties":{"osm_id":"4119603393","tag":{"amenity":"recycling","level":"0","operator":"Rennes M\u00c3\u00a9tropole","recycling:beverage_cartons":"yes","recycling:books":"yes","recycling:cans":"yes","recycling:cardboard":"yes","recycling:cartons":"yes","recycling:clothes":"no","recycling:glass":"no","recycling:glass_bottles":"no","recycling:magazines":"yes","recycling:newspaper":"yes","recycling:paper":"yes","recycling:paper_packaging":"yes","recycling:plastic":"yes","recycling:plastic_bottles":"yes","recycling_type":"container","wheelchair":"yes"}},"type":"Feature"},
	{"geometry":{"coordinates":[-1.676513,48.090479],"type":"Point"},"properties":{"osm_id":"4119603394","tag":{"amenity":"waste_disposal","level":"0","wheelchair":"yes"}},"type":"Feature"},
	{"geometry":{"coordinates":[-1.677014,48.091877],"type":"Point"},"properties":{"osm_id":"4119603395","tag":{"access":"permissive","amenity":"recycling","fee":"no","operator":"Rennes M\u00c3\u00a9tropole","recycling:cans":"yes","recycling:cartons":"yes","recycling:clothes":"no","recycling:glass":"no","recycling:glass_bottles":"no","recycling:paper":"yes","recycling:plastic":"yes","recycling_type":"container","wheelchair":"yes"}},"type":"Feature"},
	{"geometry":{"coordinates":[-1.671291,48.093686],"type":"Point"},"properties":{"osm_id":"4128105795","tag":{"amenity":"waste_basket","wheelchair":"yes"}},"type":"Feature"},
	{"geometry":{"coordinates":[-1.672227,48.093614],"type":"Point"},"properties":{"osm_id":"4128105801","tag":{"amenity":"waste_basket","wheelchair":"yes"}},"type":"Feature"},
	{"geometry":{"coordinates":[-1.709114,48.100777],"type":"Point"},"properties":{"osm_id":"4134258663","tag":{"amenity":"waste_basket","wheelchair":"yes"}},"type":"Feature"},
	{"geometry":{"coordinates":[-1.708953,48.100537],"type":"Point"},"properties":{"osm_id":"4134258664","tag":{"access":"yes","amenity":"recycling","fee":"no","operator":"Rennes M\u00c3\u00a9tropole","recycling:cans":"no","recycling:clothes":"no","recycling:glass_bottles":"yes","recycling:glass_jars":"yes","recycling:paper":"no","recycling:plastic":"no","recycling_type":"container","wheelchair":"no"}},"type":"Feature"},
	{"geometry":{"coordinates":[-1.707074,48.100519],"type":"Point"},"properties":{"osm_id":"4136863290","tag":{"amenity":"waste_basket","level":"0","wheelchair":"yes"}},"type":"Feature"},
	{"geometry":{"coordinates":[-1.672945,48.093633],"type":"Point"},"properties":{"osm_id":"4143243752","tag":{"access":"yes","amenity":"recycling","fee":"no","operator":"Rennes M\u00c3\u00a9tropole","recycling:cans":"yes","recycling:cardboard":"yes","recycling:clothes":"no","recycling:paper":"yes","recycling:plastic":"yes","recycling_type":"container","wheelchair":"no"}},"type":"Feature"},
	{"geometry":{"coordinates":[-1.674541,48.09237],"type":"Point"},"properties":{"osm_id":"4143345668","tag":{"amenity":"waste_basket","wheelchair":"yes"}},"type":"Feature"},
	{"geometry":{"coordinates":[-1.674183,48.092342],"type":"Point"},"properties":{"osm_id":"4143345669","tag":{"amenity":"waste_basket","wheelchair":"yes"}},"type":"Feature"},
	{"geometry":{"coordinates":[-1.674044,48.093666],"type":"Point"},"properties":{"osm_id":"4143352628","tag":{"amenity":"waste_basket","wheelchair":"yes"}},"type":"Feature"},
	{"geometry":{"coordinates":[-1.674117,48.09195],"type":"Point"},"properties":{"osm_id":"4143352629","tag":{"access":"yes","amenity":"recycling","fee":"no","operator":"Rennes M\u00c3\u00a9tropole","recycling:cans":"no","recycling:clothes":"no","recycling:glass_bottles":"yes","recycling:paper":"no","recycling:plastic":"no","recycling_type":"container","wheelchair":"yes"}},"type":"Feature"},
	{"geometry":{"coordinates":[-1.674105,48.092014],"type":"Point"},"properties":{"osm_id":"4143352630","tag":{"amenity":"waste_basket","level":"0","wheelchair":"yes"}},"type":"Feature"},
	{"geometry":{"coordinates":[-1.677025,48.104391],"type":"Point"},"properties":{"osm_id":"4198903002","tag":{"amenity":"waste_basket","wheelchair":"no"}},"type":"Feature"},
	{"geometry":{"coordinates":[-1.678678,48.091311],"type":"Point"},"properties":{"osm_id":"4200515023","tag":{"access":"permissive","amenity":"waste_disposal","fee":"no","operator":"Rennes M\u00c3\u00a9tropole","wheelchair":"yes"}},"type":"Feature"},
	{"geometry":{"coordinates":[-1.678624,48.091308],"type":"Point"},"properties":{"osm_id":"4200515024","tag":{"access":"permissive","amenity":"waste_disposal","fee":"no","operator":"Rennes M\u00c3\u00a9tropole","wheelchair":"yes"}},"type":"Feature"},
	{"geometry":{"coordinates":[-1.680385,48.092298],"type":"Point"},"properties":{"osm_id":"4200557849","tag":{"access":"permissive","amenity":"waste_disposal","fee":"no","operator":"Rennes M\u00c3\u00a9tropole","waste":"trash","wheelchair":"yes"}},"type":"Feature"},
	{"geometry":{"coordinates":[-1.680388,48.092268],"type":"Point"},"properties":{"osm_id":"4200557850","tag":{"access":"yes","amenity":"waste_disposal","fee":"no","operator":"Rennes M\u00c3\u00a9tropole","waste":"trash","wheelchair":"yes"}},"type":"Feature"},
	{"geometry":{"coordinates":[-1.680392,48.092243],"type":"Point"},"properties":{"osm_id":"4200557851","tag":{"access":"yes","amenity":"recycling","fee":"no","operator":"Rennes M\u00c3\u00a9tropole","recycling:cans":"yes","recycling:cardboard":"yes","recycling:paper":"yes","recycling:plastic":"yes","recycling_type":"container","wheelchair":"yes"}},"type":"Feature"},
	{"geometry":{"coordinates":[-1.680396,48.092215],"type":"Point"},"properties":{"osm_id":"4200557852","tag":{"access":"yes","amenity":"recycling","fee":"no","operator":"Rennes M\u00c3\u00a9tropole","recycling:cans":"yes","recycling:cardboard":"yes","recycling:paper":"yes","recycling:plastic":"yes","recycling_type":"container","wheelchair":"yes"}},"type":"Feature"},
	{"geometry":{"coordinates":[-1.68039,48.09295],"type":"Point"},"properties":{"osm_id":"4200557854","tag":{"access":"yes","amenity":"recycling","fee":"no","operator":"Rennes M\u00c3\u00a9tropole","recycling:cans":"yes","recycling:cardboard":"yes","recycling:paper":"yes","recycling:plastic":"yes","recycling_type":"container","wheelchair":"yes"}},"type":"Feature"},
	{"geometry":{"coordinates":[-1.680392,48.092917],"type":"Point"},"properties":{"osm_id":"4200557855","tag":{"access":"yes","amenity":"waste_disposal","fee":"no","operator":"Rennes M\u00c3\u00a9tropole","waste":"trash","wheelchair":"yes"}},"type":"Feature"},
	{"geometry":{"coordinates":[-1.68015,48.093887],"type":"Point"},"properties":{"osm_id":"4200557856","tag":{"amenity":"waste_basket","wheelchair":"yes"}},"type":"Feature"},
	{"geometry":{"coordinates":[-1.680188,48.093838],"type":"Point"},"properties":{"osm_id":"4200557858","tag":{"access":"yes","amenity":"recycling","fee":"no","operator":"Rennes M\u00c3\u00a9tropole","recycling:cans":"yes","recycling:cardboard":"yes","recycling:paper":"yes","recycling:plastic":"yes","recycling_type":"container","wheelchair":"yes"}},"type":"Feature"},
	{"geometry":{"coordinates":[-1.680185,48.093879],"type":"Point"},"properties":{"osm_id":"4200557859","tag":{"access":"yes","amenity":"recycling","fee":"no","operator":"Rennes M\u00c3\u00a9tropole","recycling:cans":"yes","recycling:cardboard":"yes","recycling:paper":"yes","recycling:plastic":"yes","recycling_type":"container","wheelchair":"yes"}},"type":"Feature"},
	{"geometry":{"coordinates":[-1.680228,48.093881],"type":"Point"},"properties":{"osm_id":"4200557860","tag":{"access":"yes","amenity":"waste_disposal","fee":"no","operator":"Rennes M\u00c3\u00a9tropole","waste":"trash","wheelchair":"yes"}},"type":"Feature"},
	{"geometry":{"coordinates":[-1.680234,48.093841],"type":"Point"},"properties":{"osm_id":"4200557861","tag":{"access":"yes","amenity":"waste_disposal","fee":"no","operator":"Rennes M\u00c3\u00a9tropole","waste":"trash","wheelchair":"yes"}},"type":"Feature"},
	{"geometry":{"coordinates":[-1.681247,48.094131],"type":"Point"},"properties":{"osm_id":"4200557862","tag":{"access":"yes","amenity":"recycling","fee":"yes","operator":"Rennes M\u00c3\u00a9tropole","recycling:cans":"yes","recycling:cardboard":"yes","recycling:paper":"yes","recycling:plastic":"yes","recycling_type":"container","wheelchair":"yes"}},"type":"Feature"},
	{"geometry":{"coordinates":[-1.681293,48.094134],"type":"Point"},"properties":{"osm_id":"4200557863","tag":{"access":"yes","amenity":"waste_disposal","fee":"no","operator":"Rennes M\u00c3\u00a9tropole","waste":"trash","wheelchair":"yes"}},"type":"Feature"},
	{"geometry":{"coordinates":[-1.680548,48.090885],"type":"Point"},"properties":{"osm_id":"4200564769","tag":{"access":"yes","amenity":"recycling","fee":"no","operator":"Le Relais","recycling:clothes":"yes","recycling:shoes":"yes","recycling:textiles":"yes","recycling_type":"container","wheelchair":"no"}},"type":"Feature"},
	{"geometry":{"coordinates":[-1.680659,48.090856],"type":"Point"},"properties":{"osm_id":"4200564770","tag":{"access":"yes","amenity":"recycling","fee":"no","operator":"Rennes M\u00c3\u00a9tropole","recycling:cans":"yes","recycling:cardboard":"yes","recycling:paper":"yes","recycling:plastic":"yes","recycling_type":"container","wheelchair":"yes"}},"type":"Feature"},
	{"geometry":{"coordinates":[-1.680701,48.090857],"type":"Point"},"properties":{"osm_id":"4200564771","tag":{"access":"permissive","amenity":"recycling","fee":"no","operator":"Rennes M\u00c3\u00a9tropole","recycling:cans":"yes","recycling:cardboard":"yes","recycling:paper":"yes","recycling:plastic":"yes","recycling_type":"container","wheelchair":"yes"}},"type":"Feature"},
	{"geometry":{"coordinates":[-1.6807,48.090898],"type":"Point"},"properties":{"osm_id":"4200564772","tag":{"access":"yes","amenity":"waste_disposal","fee":"no","operator":"Rennes M\u00c3\u00a9tropole","waste":"trash","wheelchair":"yes"}},"type":"Feature"},
	{"geometry":{"coordinates":[-1.68066,48.090896],"type":"Point"},"properties":{"osm_id":"4200564773","tag":{"access":"yes","amenity":"waste_disposal","fee":"no","operator":"Rennes M\u00c3\u00a9tropole","waste":"trash","wheelchair":"yes"}},"type":"Feature"},
	{"geometry":{"coordinates":[-1.680619,48.090895],"type":"Point"},"properties":{"osm_id":"4200564774","tag":{"access":"yes","amenity":"waste_disposal","fee":"no","operator":"Rennes M\u00c3\u00a9tropole","waste":"trash","wheelchair":"yes"}},"type":"Feature"},
	{"geometry":{"coordinates":[-1.680367,48.090613],"type":"Point"},"properties":{"osm_id":"4200564775","tag":{"access":"permissive","amenity":"recycling","fee":"no","operator":"Rennes M\u00c3\u00a9tropole","recycling:cans":"yes","recycling:cartons":"yes","recycling:paper":"yes","recycling:plastic":"yes","recycling_type":"container","wheelchair":"yes"}},"type":"Feature"},
	{"geometry":{"coordinates":[-1.680369,48.090573],"type":"Point"},"properties":{"osm_id":"4200564776","tag":{"access":"permissive","amenity":"waste_disposal","fee":"no","operator":"Rennes M\u00c3\u00a9tropole","wheelchair":"yes"}},"type":"Feature"},
	{"geometry":{"coordinates":[-1.680971,48.090871],"type":"Point"},"properties":{"osm_id":"4200564777","tag":{"amenity":"waste_basket","wheelchair":"yes"}},"type":"Feature"},
	{"geometry":{"coordinates":[-1.69121,48.093104],"type":"Point"},"properties":{"osm_id":"4212621665","tag":{"access":"yes","amenity":"recycling","fee":"no","operator":"Rennes M\u00c3\u00a9tropole","recycling:glass_bottles":"yes","recycling_type":"container","wheelchair":"no"}},"type":"Feature"},
	{"geometry":{"coordinates":[-1.691036,48.092827],"type":"Point"},"properties":{"osm_id":"4212621666","tag":{"access":"yes","amenity":"recycling","fee":"no","operator":"Le Relais","recycling:clothes":"yes","recycling:shoes":"yes","recycling:textiles":"yes","recycling_type":"container","wheelchair":"no"}},"type":"Feature"},
	{"geometry":{"coordinates":[-1.671468,48.103949],"type":"Point"},"properties":{"osm_id":"4214331812","tag":{"amenity":"waste_basket","wheelchair":"yes"}},"type":"Feature"},
	{"geometry":{"coordinates":[-1.67137,48.104095],"type":"Point"},"properties":{"osm_id":"4214331813","tag":{"amenity":"waste_basket","wheelchair":"yes"}},"type":"Feature"},
	{"geometry":{"coordinates":[-1.673396,48.104222],"type":"Point"},"properties":{"osm_id":"4214354224","tag":{"access":"yes","amenity":"recycling","fee":"no","operator":"Rennes M\u00c3\u00a9tropole","recycling:cans":"yes","recycling:cardboard":"yes","recycling:paper":"yes","recycling:plastic":"yes","recycling_type":"container","wheelchair":"no"}},"type":"Feature"},
	{"geometry":{"coordinates":[-1.680236,48.099036],"type":"Point"},"properties":{"osm_id":"4226745865","tag":{"amenity":"waste_basket","wheelchair":"yes"}},"type":"Feature"},
	{"geometry":{"coordinates":[-1.680904,48.09903],"type":"Point"},"properties":{"osm_id":"4226745868","tag":{"amenity":"waste_basket","wheelchair":"yes"}},"type":"Feature"},
	{"geometry":{"coordinates":[-1.67578,48.099318],"type":"Point"},"properties":{"osm_id":"4227398767","tag":{"amenity":"waste_basket","wheelchair":"yes"}},"type":"Feature"},
	{"geometry":{"coordinates":[-1.678958,48.107359],"type":"Point"},"properties":{"osm_id":"4237664191","tag":{"amenity":"waste_basket","wheelchair":"yes"}},"type":"Feature"},
	{"geometry":{"coordinates":[-1.68054,48.107405],"type":"Point"},"properties":{"osm_id":"4237664192","tag":{"amenity":"waste_basket","wheelchair":"yes"}},"type":"Feature"},
	{"geometry":{"coordinates":[-1.675118,48.08659],"type":"Point"},"properties":{"osm_id":"4253157197","tag":{"amenity":"waste_basket","wheelchair":"yes"}},"type":"Feature"},
	{"geometry":{"coordinates":[-1.676158,48.086611],"type":"Point"},"properties":{"osm_id":"4253157200","tag":{"access":"permissive","amenity":"waste_disposal","fee":"no","operator":"Rennes M\u00c3\u00a9tropole","waste":"trash","wheelchair":"no"}},"type":"Feature"},
	{"geometry":{"coordinates":[-1.676184,48.086612],"type":"Point"},"properties":{"osm_id":"4253157201","tag":{"access":"permissive","amenity":"waste_disposal","fee":"no","operator":"Rennes M\u00c3\u00a9tropole","waste":"trash","wheelchair":"no"}},"type":"Feature"},
	{"geometry":{"coordinates":[-1.676139,48.086759],"type":"Point"},"properties":{"osm_id":"4253157202","tag":{"access":"permissive","amenity":"recycling","fee":"no","operator":"Rennes M\u00c3\u00a9tropole","recycling:glass_bottles":"yes","recycling:glass_jars":"yes","recycling_type":"container","wheelchair":"no"}},"type":"Feature"},
	{"geometry":{"coordinates":[-1.680281,48.094271],"type":"Point"},"properties":{"osm_id":"4293278241","tag":{"amenity":"waste_basket","wheelchair":"yes"}},"type":"Feature"},
	{"geometry":{"coordinates":[-1.67504,48.105629],"type":"Point"},"properties":{"osm_id":"4309831445","tag":{"amenity":"waste_basket","wheelchair":"yes"}},"type":"Feature"},
	{"geometry":{"coordinates":[-1.675713,48.105351],"type":"Point"},"properties":{"osm_id":"4309831446","tag":{"amenity":"waste_basket","level":"0","wheelchair":"yes"}},"type":"Feature"},
	{"geometry":{"coordinates":[-1.684405,48.101948],"type":"Point"},"properties":{"osm_id":"4313364178","tag":{"amenity":"waste_basket","wheelchair":"yes"}},"type":"Feature"},
	{"geometry":{"coordinates":[-1.684191,48.102678],"type":"Point"},"properties":{"osm_id":"4313364179","tag":{"amenity":"waste_basket","wheelchair":"yes"}},"type":"Feature"},
	{"geometry":{"coordinates":[-1.684279,48.104444],"type":"Point"},"properties":{"osm_id":"4313364181","tag":{"amenity":"waste_basket","wheelchair":"yes"}},"type":"Feature"},
	{"geometry":{"coordinates":[-1.684372,48.106391],"type":"Point"},"properties":{"osm_id":"4313364184","tag":{"amenity":"recycling","operator":"Rennes M\u00c3\u00a9tropole","recycling:glass_bottles":"yes","recycling_type":"container","wheelchair":"no"}},"type":"Feature"},
	{"geometry":{"coordinates":[-1.673403,48.104251],"type":"Point"},"properties":{"osm_id":"4317298559","tag":{"access":"yes","amenity":"waste_disposal","fee":"no","operator":"Rennes M\u00c3\u00a9tropole","wheelchair":"no"}},"type":"Feature"},
	{"geometry":{"coordinates":[-1.673412,48.104278],"type":"Point"},"properties":{"osm_id":"4317298560","tag":{"access":"yes","amenity":"waste_disposal","fee":"no","operator":"Rennes M\u00c3\u00a9tropole","wheelchair":"no"}},"type":"Feature"},
	{"geometry":{"coordinates":[-1.676656,48.103442],"type":"Point"},"properties":{"osm_id":"4329820210","tag":{"amenity":"waste_basket","wheelchair":"yes"}},"type":"Feature"},
	{"geometry":{"coordinates":[-1.673685,48.103793],"type":"Point"},"properties":{"osm_id":"4344729367","tag":{"amenity":"waste_basket","wheelchair":"yes"}},"type":"Feature"},
	{"geometry":{"coordinates":[-1.685003,48.086707],"type":"Point"},"properties":{"osm_id":"4350012223","tag":{"amenity":"recycling","recycling:waste":"yes","recycling_type":"container","wheelchair":"yes"}},"type":"Feature"},
	{"geometry":{"coordinates":[-1.684968,48.086712],"type":"Point"},"properties":{"osm_id":"4350012224","tag":{"amenity":"recycling","operator":"Rennes M\u00c3\u00a9tropole","recycling:beverage_cartons":"yes","recycling:books":"yes","recycling:cans":"yes","recycling:cardboard":"yes","recycling:cartons":"yes","recycling:magazines":"yes","recycling:newspaper":"yes","recycling:paper":"yes","recycling:paper_packaging":"yes","recycling:plastic":"yes","recycling:plastic_bottles":"yes","recycling:plastic_packaging":"yes","recycling_type":"container","wheelchair":"yes"}},"type":"Feature"},
	{"geometry":{"coordinates":[-1.685661,48.087167],"type":"Point"},"properties":{"osm_id":"4350012225","tag":{"amenity":"recycling","operator":"Rennes M\u00c3\u00a9tropole","recycling:glass_bottles":"yes","recycling_type":"container","wheelchair":"no"}},"type":"Feature"},
	{"geometry":{"coordinates":[-1.68193,48.087626],"type":"Point"},"properties":{"osm_id":"4350036128","tag":{"amenity":"recycling","level":"0","recycling:waste":"yes","recycling_type":"container","wheelchair":"yes"}},"type":"Feature"},
	{"geometry":{"coordinates":[-1.681889,48.087624],"type":"Point"},"properties":{"osm_id":"4350036129","tag":{"amenity":"recycling","operator":"Rennes M\u00c3\u00a9tropole","recycling:beverage_cartons":"yes","recycling:books":"yes","recycling:cans":"yes","recycling:cardboard":"yes","recycling:cartons":"yes","recycling:magazines":"yes","recycling:newspaper":"yes","recycling:paper":"yes","recycling:paper_packaging":"yes","recycling:plastic":"yes","recycling:plastic_bottles":"yes","recycling:plastic_packaging":"yes","recycling_type":"container","wheelchair":"yes"}},"type":"Feature"},
	{"geometry":{"coordinates":[-1.682097,48.088678],"type":"Point"},"properties":{"osm_id":"4350036131","tag":{"amenity":"recycling","operator":"Rennes M\u00c3\u00a9tropole","recycling:glass_bottles":"yes","recycling_type":"container","wheelchair":"yes"}},"type":"Feature"},
	{"geometry":{"coordinates":[-1.682069,48.088678],"type":"Point"},"properties":{"osm_id":"4350036132","tag":{"amenity":"recycling","level":"0","recycling:waste":"yes","recycling_type":"container","wheelchair":"yes"}},"type":"Feature"},
	{"geometry":{"coordinates":[-1.68207,48.088659],"type":"Point"},"properties":{"osm_id":"4350036133","tag":{"amenity":"recycling","operator":"Rennes M\u00c3\u00a9tropole","recycling:beverage_cartons":"yes","recycling:books":"yes","recycling:cans":"yes","recycling:cardboard":"yes","recycling:cartons":"yes","recycling:magazines":"yes","recycling:newspaper":"yes","recycling:paper":"yes","recycling:paper_packaging":"yes","recycling:plastic":"yes","recycling:plastic_bottles":"yes","recycling:plastic_packaging":"yes","recycling_type":"container","wheelchair":"yes"}},"type":"Feature"},
	{"geometry":{"coordinates":[-1.68207,48.088642],"type":"Point"},"properties":{"osm_id":"4350036134","tag":{"amenity":"recycling","level":"0","recycling:waste":"yes","recycling_type":"container","wheelchair":"yes"}},"type":"Feature"},
	{"geometry":{"coordinates":[-1.682096,48.088644],"type":"Point"},"properties":{"osm_id":"4350036135","tag":{"amenity":"recycling","operator":"Rennes M\u00c3\u00a9tropole","recycling:beverage_cartons":"yes","recycling:books":"yes","recycling:cans":"yes","recycling:cardboard":"yes","recycling:cartons":"yes","recycling:magazines":"yes","recycling:newspaper":"yes","recycling:paper":"yes","recycling:paper_packaging":"yes","recycling:plastic":"yes","recycling:plastic_bottles":"yes","recycling:plastic_packaging":"yes","recycling_type":"container","wheelchair":"yes"}},"type":"Feature"},
	{"geometry":{"coordinates":[-1.678557,48.088927],"type":"Point"},"properties":{"osm_id":"4350239452","tag":{"access":"yes","amenity":"waste_disposal","fee":"no","operator":"Rennes M\u00c3\u00a9tropole","waste":"trash","wheelchair":"yes"}},"type":"Feature"},
	{"geometry":{"coordinates":[-1.677426,48.089063],"type":"Point"},"properties":{"osm_id":"4350244134","tag":{"access":"yes","amenity":"waste_disposal","fee":"no","operator":"Rennes M\u00c3\u00a9tropole","waste":"trash","wheelchair":"yes"}},"type":"Feature"},
	{"geometry":{"coordinates":[-1.677054,48.089778],"type":"Point"},"properties":{"osm_id":"4350244135","tag":{"amenity":"waste_disposal","level":"0","wheelchair":"yes"}},"type":"Feature"},
	{"geometry":{"coordinates":[-1.676513,48.090455],"type":"Point"},"properties":{"osm_id":"4350244137","tag":{"amenity":"waste_disposal","level":"0","wheelchair":"yes"}},"type":"Feature"},
	{"geometry":{"coordinates":[-1.677114,48.098403],"type":"Point"},"properties":{"osm_id":"4368181391","tag":{"amenity":"waste_basket","wheelchair":"yes"}},"type":"Feature"},
	{"geometry":{"coordinates":[-1.676842,48.098257],"type":"Point"},"properties":{"osm_id":"4368181392","tag":{"amenity":"waste_basket","level":"0","wheelchair":"yes"}},"type":"Feature"},
	{"geometry":{"coordinates":[-1.676442,48.09823],"type":"Point"},"properties":{"osm_id":"4368181393","tag":{"amenity":"waste_basket","level":"0","wheelchair":"yes"}},"type":"Feature"},
	{"geometry":{"coordinates":[-1.675548,48.099382],"type":"Point"},"properties":{"osm_id":"4368213126","tag":{"amenity":"waste_basket","wheelchair":"yes"}},"type":"Feature"},
	{"geometry":{"coordinates":[-1.675348,48.107339],"type":"Point"},"properties":{"osm_id":"4397892525","tag":{"amenity":"waste_basket","level":"0","wheelchair":"yes"}},"type":"Feature"},
	{"geometry":{"coordinates":[-1.673534,48.107404],"type":"Point"},"properties":{"osm_id":"4397892531","tag":{"amenity":"waste_basket","level":"0","wheelchair":"yes"}},"type":"Feature"},
	{"geometry":{"coordinates":[-1.674361,48.107396],"type":"Point"},"properties":{"osm_id":"4399268731","tag":{"amenity":"waste_basket","level":"0","wheelchair":"yes"}},"type":"Feature"},
	{"geometry":{"coordinates":[-1.713272,48.103567],"type":"Point"},"properties":{"osm_id":"4410400764","tag":{"access":"yes","amenity":"recycling","fee":"no","operator":"Le Relais","recycling:clothes":"yes","recycling:shoes":"yes","recycling:textiles":"yes","recycling_type":"container","wheelchair":"no"}},"type":"Feature"},
	{"geometry":{"coordinates":[-1.713188,48.103568],"type":"Point"},"properties":{"osm_id":"4410400765","tag":{"access":"yes","amenity":"recycling","fee":"no","operator":"Le Relais","recycling:clothes":"yes","recycling:shoes":"yes","recycling:textiles":"yes","recycling_type":"container","wheelchair":"no"}},"type":"Feature"},
	{"geometry":{"coordinates":[-1.671837,48.107411],"type":"Point"},"properties":{"osm_id":"4417718773","tag":{"amenity":"waste_basket","wheelchair":"yes"}},"type":"Feature"},
	{"geometry":{"coordinates":[-1.680455,48.082803],"type":"Point"},"properties":{"osm_id":"4442293623","tag":{"amenity":"recycling","operator":"Recyclum","recycling:electrical_appliances":"yes","recycling_type":"container","wheelchair":"yes"}},"type":"Feature"},
	{"geometry":{"coordinates":[-1.680454,48.082828],"type":"Point"},"properties":{"osm_id":"4442293624","tag":{"amenity":"recycling","operator":"Recyclum","recycling:light_bulbs":"yes","recycling_type":"container","wheelchair":"yes"}},"type":"Feature"},
	{"geometry":{"coordinates":[-1.680454,48.082851],"type":"Point"},"properties":{"osm_id":"4442293625","tag":{"amenity":"recycling","operator":"Solidarit\u00c3\u00a9 Bouchons 35","recycling:corks":"yes","recycling_type":"container","wheelchair":"yes"}},"type":"Feature"},
	{"geometry":{"coordinates":[-1.680463,48.082631],"type":"Point"},"properties":{"osm_id":"4442293626","tag":{"amenity":"recycling","operator":"Recyclum","recycling:electrical_appliances":"yes","recycling_type":"container","wheelchair":"yes"}},"type":"Feature"},
	{"geometry":{"coordinates":[-1.680462,48.082658],"type":"Point"},"properties":{"osm_id":"4442293627","tag":{"amenity":"recycling","operator":"Recyclum","recycling:printer_cartridges":"yes","recycling_type":"container","wheelchair":"yes"}},"type":"Feature"},
	{"geometry":{"coordinates":[-1.680461,48.082683],"type":"Point"},"properties":{"osm_id":"4442293628","tag":{"amenity":"recycling","operator":"Recyclum","recycling_type":"container","wheelchair":"yes"}},"type":"Feature"},
	{"geometry":{"coordinates":[-1.67117,48.105079],"type":"Point"},"properties":{"osm_id":"4448456294","tag":{"access":"yes","amenity":"recycling","fee":"no","operator":"Rennes M\u00c3\u00a9tropole","recycling:glass_bottles":"yes","recycling_type":"container","wheelchair":"yes"}},"type":"Feature"},
	{"geometry":{"coordinates":[-1.672511,48.104802],"type":"Point"},"properties":{"osm_id":"4449679337","tag":{"access":"yes","amenity":"recycling","fee":"no","operator":"Rennes M\u00c3\u00a9tropole","recycling:glass_bottles":"yes","recycling:glass_jars":"yes","recycling_type":"container","wheelchair":"no"}},"type":"Feature"},
	{"geometry":{"coordinates":[-1.672448,48.104748],"type":"Point"},"properties":{"osm_id":"4449679339","tag":{"amenity":"waste_basket","wheelchair":"yes"}},"type":"Feature"},
	{"geometry":{"coordinates":[-1.672831,48.105772],"type":"Point"},"properties":{"osm_id":"4450403692","tag":{"access":"yes","amenity":"recycling","fee":"no","operator":"Rennes M\u00c3\u00a9tropole","recycling:glass_bottles":"yes","recycling:glass_jars":"yes","recycling_type":"container","wheelchair":"no"}},"type":"Feature"},
	{"geometry":{"coordinates":[-1.682299,48.090872],"type":"Point"},"properties":{"osm_id":"4450736952","tag":{"access":"yes","amenity":"waste_disposal","fee":"no","operator":"Rennes M\u00c3\u00a9tropole","waste":"trash","wheelchair":"yes"}},"type":"Feature"},
	{"geometry":{"coordinates":[-1.682304,48.090846],"type":"Point"},"properties":{"osm_id":"4450736953","tag":{"access":"yes","amenity":"waste_disposal","fee":"no","operator":"Rennes M\u00c3\u00a9tropole","waste":"trash","wheelchair":"yes"}},"type":"Feature"},
	{"geometry":{"coordinates":[-1.682307,48.090819],"type":"Point"},"properties":{"osm_id":"4450736954","tag":{"access":"yes","amenity":"waste_disposal","fee":"no","operator":"Rennes M\u00c3\u00a9tropole","waste":"trash","wheelchair":"yes"}},"type":"Feature"},
	{"geometry":{"coordinates":[-1.682239,48.090869],"type":"Point"},"properties":{"osm_id":"4450736956","tag":{"access":"yes","amenity":"recycling","fee":"no","operator":"Rennes M\u00c3\u00a9tropole","recycling:cans":"yes","recycling:cardboard":"yes","recycling:paper":"yes","recycling:plastic":"yes","recycling_type":"container","wheelchair":"yes"}},"type":"Feature"},
	{"geometry":{"coordinates":[-1.682245,48.090816],"type":"Point"},"properties":{"osm_id":"4450736957","tag":{"access":"yes","amenity":"recycling","fee":"no","operator":"Rennes M\u00c3\u00a9tropole","recycling:glass_bottles":"yes","recycling_type":"container","wheelchair":"yes"}},"type":"Feature"},
	{"geometry":{"coordinates":[-1.672936,48.105355],"type":"Point"},"properties":{"osm_id":"4452462493","tag":{"amenity":"waste_basket","wheelchair":"yes"}},"type":"Feature"},
	{"geometry":{"coordinates":[-1.672951,48.106325],"type":"Point"},"properties":{"osm_id":"4452535573","tag":{"amenity":"waste_basket","wheelchair":"yes"}},"type":"Feature"},
	{"geometry":{"coordinates":[-1.675228,48.097457],"type":"Point"},"properties":{"osm_id":"4465424576","tag":{"amenity":"waste_basket","wheelchair":"yes"}},"type":"Feature"},
	{"geometry":{"coordinates":[-1.675086,48.097481],"type":"Point"},"properties":{"osm_id":"4465424577","tag":{"amenity":"waste_basket","wheelchair":"yes"}},"type":"Feature"},
	{"geometry":{"coordinates":[-1.676908,48.097737],"type":"Point"},"properties":{"osm_id":"4465424582","tag":{"amenity":"waste_basket","wheelchair":"yes"}},"type":"Feature"},
	{"geometry":{"coordinates":[-1.678185,48.104298],"type":"Point"},"properties":{"osm_id":"4469402592","tag":{"amenity":"waste_basket","wheelchair":"yes"}},"type":"Feature"},
	{"geometry":{"coordinates":[-1.677811,48.103579],"type":"Point"},"properties":{"osm_id":"4469402604","tag":{"amenity":"waste_basket","wheelchair":"yes"}},"type":"Feature"},
	{"geometry":{"coordinates":[-1.678873,48.103154],"type":"Point"},"properties":{"osm_id":"4469419787","tag":{"access":"permissive","amenity":"recycling","fee":"no","operator":"Rennes M\u00c3\u00a9tropole","recycling:glass_bottles":"yes","recycling_type":"container","wheelchair":"no"}},"type":"Feature"},
	{"geometry":{"coordinates":[-1.679043,48.102638],"type":"Point"},"properties":{"osm_id":"4469434833","tag":{"amenity":"waste_basket","wheelchair":"yes"}},"type":"Feature"},
	{"geometry":{"coordinates":[-1.673256,48.102156],"type":"Point"},"properties":{"osm_id":"4522132568","tag":{"amenity":"waste_basket","wheelchair":"yes"}},"type":"Feature"},
	{"geometry":{"coordinates":[-1.710236,48.103686],"type":"Point"},"properties":{"osm_id":"4523363892","tag":{"amenity":"waste_basket","wheelchair":"yes"}},"type":"Feature"},
	{"geometry":{"coordinates":[-1.679234,48.096821],"type":"Point"},"properties":{"osm_id":"4566820525","tag":{"amenity":"waste_basket","wheelchair":"yes"}},"type":"Feature"},
	{"geometry":{"coordinates":[-1.686651,48.106697],"type":"Point"},"properties":{"osm_id":"4632201639","tag":{"access":"permissive","amenity":"recycling","fee":"no","operator":"Le Relais","recycling:clothes":"yes","recycling:shoes":"yes","recycling:textiles":"yes","recycling_type":"container","wheelchair":"no"}},"type":"Feature"},
	{"geometry":{"coordinates":[-1.688188,48.106169],"type":"Point"},"properties":{"osm_id":"4632253241","tag":{"amenity":"waste_basket","wheelchair":"yes"}},"type":"Feature"},
	{"geometry":{"coordinates":[-1.682629,48.09737],"type":"Point"},"properties":{"osm_id":"4674978286","tag":{"amenity":"waste_basket","wheelchair":"yes"}},"type":"Feature"},
	{"geometry":{"coordinates":[-1.683405,48.098296],"type":"Point"},"properties":{"osm_id":"4674978591","tag":{"amenity":"waste_basket","wheelchair":"yes"}},"type":"Feature"},
	{"geometry":{"coordinates":[-1.677964,48.095175],"type":"Point"},"properties":{"osm_id":"4696964274","tag":{"access":"private","amenity":"recycling","fee":"no","operator":"Rennes M\u00c3\u00a9tropole","recycling:glass_bottles":"yes","recycling_type":"container","wheelchair":"no"}},"type":"Feature"},
	{"geometry":{"coordinates":[-1.677613,48.10729],"type":"Point"},"properties":{"osm_id":"4700326182","tag":{"amenity":"waste_basket","wheelchair":"yes"}},"type":"Feature"},
	{"geometry":{"coordinates":[-1.67731,48.105881],"type":"Point"},"properties":{"osm_id":"4700326183","tag":{"amenity":"waste_basket","wheelchair":"yes"}},"type":"Feature"},
	{"geometry":{"coordinates":[-1.678637,48.107327],"type":"Point"},"properties":{"osm_id":"4745477423","tag":{"amenity":"waste_basket","wheelchair":"yes"}},"type":"Feature"},
	{"geometry":{"coordinates":[-1.678258,48.105842],"type":"Point"},"properties":{"osm_id":"4745899854","tag":{"amenity":"waste_basket","wheelchair":"yes"}},"type":"Feature"},
	{"geometry":{"coordinates":[-1.679404,48.091957],"type":"Point"},"properties":{"osm_id":"4747629032","tag":{"access":"permissive","amenity":"recycling","fee":"no","operator":"R\u00c3\u00a9cyclum","recycling:cans":"no","recycling:clothes":"no","recycling:glass":"no","recycling:glass_bottles":"no","recycling:paper":"no","recycling:plastic":"no","recycling:printer_cartridges":"yes","recycling_type":"container","wheelchair":"yes"}},"type":"Feature"},
	{"geometry":{"coordinates":[-1.679408,48.091925],"type":"Point"},"properties":{"osm_id":"4747629033","tag":{"access":"permissive","amenity":"recycling","fee":"no","operator":"R\u00c3\u00a9cyclum","recycling:cans":"no","recycling:clothes":"no","recycling:glass":"no","recycling:glass_bottles":"no","recycling:paper":"no","recycling:phones":"yes","recycling:plastic":"no","recycling_type":"container","wheelchair":"yes"}},"type":"Feature"},
	{"geometry":{"coordinates":[-1.690234,48.095005],"type":"Point"},"properties":{"osm_id":"4755009081","tag":{"amenity":"waste_basket","waste":"trash","wheelchair":"yes"}},"type":"Feature"},
	{"geometry":{"coordinates":[-1.691514,48.092587],"type":"Point"},"properties":{"osm_id":"4755126525","tag":{"amenity":"waste_basket","wheelchair":"yes"}},"type":"Feature"},
	{"geometry":{"coordinates":[-1.689042,48.097176],"type":"Point"},"properties":{"osm_id":"4758125037","tag":{"access":"yes","amenity":"recycling","fee":"no","operator":"Le Relais","recycling:clothes":"yes","recycling:shoes":"yes","recycling:textiles":"yes","recycling_type":"container","wheelchair":"no"}},"type":"Feature"},
	{"geometry":{"coordinates":[-1.685038,48.096888],"type":"Point"},"properties":{"osm_id":"4758178726","tag":{"access":"yes","amenity":"recycling","fee":"no","operator":"Rennes M\u00c3\u00a9tropole","recycling:glass_bottles":"yes","recycling_type":"container","wheelchair":"no"}},"type":"Feature"},
	{"geometry":{"coordinates":[-1.69223,48.092886],"type":"Point"},"properties":{"osm_id":"4758178727","tag":{"access":"yes","amenity":"recycling","fee":"no","operator":"R\u00c3\u00a9cyclum","recycling:batteries":"yes","recycling_type":"container","wheelchair":"yes"}},"type":"Feature"},
	{"geometry":{"coordinates":[-1.692191,48.092884],"type":"Point"},"properties":{"osm_id":"4758178728","tag":{"access":"permissive","amenity":"recycling","fee":"no","operator":"R\u00c3\u00a9cyclum","recycling:printer_cartridges":"yes","recycling_type":"container","wheelchair":"yes"}},"type":"Feature"},
	{"geometry":{"coordinates":[-1.692145,48.092881],"type":"Point"},"properties":{"osm_id":"4773132359","tag":{"access":"permissive","amenity":"recycling","fee":"no","operator":"R\u00c3\u00a9cyclum","recycling:light_bulbs":"yes","recycling_type":"container","wheelchair":"yes"}},"type":"Feature"},
	{"geometry":{"coordinates":[-1.672112,48.086541],"type":"Point"},"properties":{"osm_id":"4782846292","tag":{"access":"yes","amenity":"waste_disposal","fee":"no","operator":"Rennes M\u00c3\u00a9tropole","waste":"trash","wheelchair":"yes"}},"type":"Feature"},
	{"geometry":{"coordinates":[-1.685087,48.096911],"type":"Point"},"properties":{"osm_id":"4783125027","tag":{"amenity":"waste_basket","wheelchair":"yes"}},"type":"Feature"},
	{"geometry":{"coordinates":[-1.683878,48.097],"type":"Point"},"properties":{"osm_id":"4783125030","tag":{"amenity":"waste_basket","wheelchair":"yes"}},"type":"Feature"},
	{"geometry":{"coordinates":[-1.687733,48.096613],"type":"Point"},"properties":{"osm_id":"4783343748","tag":{"amenity":"waste_basket","wheelchair":"no"}},"type":"Feature"},
	{"geometry":{"coordinates":[-1.694109,48.100932],"type":"Point"},"properties":{"osm_id":"4788713010","tag":{"amenity":"recycling","recycling_type":"container"}},"type":"Feature"},
	{"geometry":{"coordinates":[-1.68474,48.105125],"type":"Point"},"properties":{"osm_id":"4790009756","tag":{"amenity":"waste_basket","wheelchair":"yes"}},"type":"Feature"},
	{"geometry":{"coordinates":[-1.6843,48.105173],"type":"Point"},"properties":{"osm_id":"4790009757","tag":{"amenity":"waste_basket"}},"type":"Feature"},
	{"geometry":{"coordinates":[-1.680577,48.106604],"type":"Point"},"properties":{"osm_id":"4790009771","tag":{"amenity":"waste_basket","wheelchair":"yes"}},"type":"Feature"},
	{"geometry":{"coordinates":[-1.680108,48.107354],"type":"Point"},"properties":{"osm_id":"4795968709","tag":{"amenity":"waste_basket","wheelchair":"yes"}},"type":"Feature"},
	{"geometry":{"coordinates":[-1.691765,48.09281],"type":"Point"},"properties":{"osm_id":"4810470243","tag":{"amenity":"waste_basket","wheelchair":"yes"}},"type":"Feature"},
	{"geometry":{"coordinates":[-1.680708,48.086963],"type":"Point"},"properties":{"osm_id":"4823793421","tag":{"access":"permissive","amenity":"recycling","fee":"no","operator":"Rennes M\u00c3\u00a9tropole","recycling:cans":"yes","recycling:cartons":"yes","recycling:clothes":"no","recycling:paper":"yes","recycling:plastic":"yes","recycling_type":"container","wheelchair":"yes"}},"type":"Feature"},
	{"geometry":{"coordinates":[-1.680676,48.086986],"type":"Point"},"properties":{"osm_id":"4823793422","tag":{"access":"permissive","amenity":"recycling","fee":"no","operator":"Rennes M\u00c3\u00a9tropole","recycling:clothes":"no","recycling:glass_bottles":"yes","recycling:glass_jars":"yes","recycling_type":"container","wheelchair":"yes"}},"type":"Feature"},
	{"geometry":{"coordinates":[-1.680678,48.086964],"type":"Point"},"properties":{"osm_id":"4823793423","tag":{"access":"permissive","amenity":"recycling","fee":"no","operator":"Rennes M\u00c3\u00a9tropole","recycling:waste":"yes","recycling_type":"container","wheelchair":"yes"}},"type":"Feature"},
	{"geometry":{"coordinates":[-1.680709,48.086939],"type":"Point"},"properties":{"osm_id":"4823793424","tag":{"access":"permissive","amenity":"recycling","fee":"no","operator":"Rennes M\u00c3\u00a9tropole","recycling:waste":"yes","recycling_type":"container","wheelchair":"yes"}},"type":"Feature"},
	{"geometry":{"coordinates":[-1.68068,48.086939],"type":"Point"},"properties":{"osm_id":"4823793425","tag":{"access":"permissive","amenity":"recycling","fee":"no","operator":"Rennes M\u00c3\u00a9tropole","recycling:waste":"yes","recycling_type":"container","wheelchair":"yes"}},"type":"Feature"},
	{"geometry":{"coordinates":[-1.70725,48.098813],"type":"Point"},"properties":{"osm_id":"4840420702","tag":{"amenity":"waste_basket","wheelchair":"yes"}},"type":"Feature"},
	{"geometry":{"coordinates":[-1.678532,48.105648],"type":"Point"},"properties":{"osm_id":"4850680506","tag":{"access":"permissive","amenity":"recycling","fee":"no","operator":"R\u00c3\u00a9cylum","recycling:batteries":"yes","recycling:cans":"no","recycling:clothes":"no","recycling:glass":"no","recycling:glass_bottles":"no","recycling:paper":"no","recycling:plastic":"no","recycling_type":"container","wheelchair":"yes"}},"type":"Feature"},
	{"geometry":{"coordinates":[-1.693901,48.088653],"type":"Point"},"properties":{"osm_id":"4852437384","tag":{"amenity":"waste_basket","wheelchair":"yes"}},"type":"Feature"},
	{"geometry":{"coordinates":[-1.674482,48.106904],"type":"Point"},"properties":{"osm_id":"4853352576","tag":{"amenity":"waste_basket","wheelchair":"yes"}},"type":"Feature"},
	{"geometry":{"coordinates":[-1.698825,48.086281],"type":"Point"},"properties":{"osm_id":"4866309906","tag":{"access":"permissive","amenity":"recycling","fee":"no","operator":"Rennes M\u00c3\u00a9tropole","recycling:glass_bottles":"yes","recycling:glass_jars":"yes","recycling_type":"container","wheelchair":"no"}},"type":"Feature"},
	{"geometry":{"coordinates":[-1.678718,48.106166],"type":"Point"},"properties":{"osm_id":"4909389034","tag":{"amenity":"waste_basket","wheelchair":"yes"}},"type":"Feature"},
	{"geometry":{"coordinates":[-1.675961,48.093783],"type":"Point"},"properties":{"osm_id":"4915384520","tag":{"amenity":"waste_basket","wheelchair":"yes"}},"type":"Feature"},
	{"geometry":{"coordinates":[-1.675742,48.093805],"type":"Point"},"properties":{"osm_id":"4915385421","tag":{"amenity":"waste_basket","wheelchair":"yes"}},"type":"Feature"},
	{"geometry":{"coordinates":[-1.692382,48.092966],"type":"Point"},"properties":{"osm_id":"4945774359","tag":{"amenity":"waste_basket","wheelchair":"no"}},"type":"Feature"},
	{"geometry":{"coordinates":[-1.680943,48.103281],"type":"Point"},"properties":{"osm_id":"4945798477","tag":{"access":"yes","amenity":"recycling","fee":"no","operator":"Rennes M\u00c3\u00a9tropole","recycling:glass_bottles":"yes","recycling:glass_jars":"yes","recycling_type":"container","wheelchair":"no"}},"type":"Feature"},
	{"geometry":{"coordinates":[-1.680983,48.103266],"type":"Point"},"properties":{"osm_id":"4945798478","tag":{"amenity":"waste_basket","wheelchair":"yes"}},"type":"Feature"},
	{"geometry":{"coordinates":[-1.68072,48.098689],"type":"Point"},"properties":{"osm_id":"4960166176","tag":{"amenity":"waste_basket","wheelchair":"yes"}},"type":"Feature"},
	{"geometry":{"coordinates":[-1.691063,48.094738],"type":"Point"},"properties":{"osm_id":"4986951795","tag":{"access":"yes","amenity":"recycling","fee":"no","operator":"Rennes M\u00c3\u00a9tropole","recycling:glass_bottles":"yes","recycling_type":"container","wheelchair":"no"}},"type":"Feature"},
	{"geometry":{"coordinates":[-1.700679,48.105234],"type":"Point"},"properties":{"osm_id":"5001193731","tag":{"amenity":"waste_basket","wheelchair":"yes"}},"type":"Feature"},
	{"geometry":{"coordinates":[-1.700151,48.105236],"type":"Point"},"properties":{"osm_id":"5001193732","tag":{"amenity":"waste_basket","wheelchair":"yes"}},"type":"Feature"},
	{"geometry":{"coordinates":[-1.697273,48.095531],"type":"Point"},"properties":{"osm_id":"5018426950","tag":{"amenity":"recycling","location":"underground","recycling:glass_bottles":"yes","recycling_type":"container"}},"type":"Feature"},
	{"geometry":{"coordinates":[-1.682581,48.083205],"type":"Point"},"properties":{"osm_id":"5116072312","tag":{"access":"yes","amenity":"recycling","fee":"no","operator":"Rennes M\u00c3\u00a9tropole","recycling:glass_bottles":"yes","recycling:glass_jars":"yes","recycling_type":"container","wheelchair":"yes"}},"type":"Feature"},
	{"geometry":{"coordinates":[-1.682583,48.083151],"type":"Point"},"properties":{"osm_id":"5116072313","tag":{"access":"yes","amenity":"waste_disposal","fee":"no","operator":"Rennes M\u00c3\u00a9tropole","wheelchair":"yes"}},"type":"Feature"},
	{"geometry":{"coordinates":[-1.682747,48.084603],"type":"Point"},"properties":{"osm_id":"5116075275","tag":{"amenity":"waste_basket","wheelchair":"yes"}},"type":"Feature"},
	{"geometry":{"coordinates":[-1.682703,48.084786],"type":"Point"},"properties":{"osm_id":"5116075280","tag":{"amenity":"waste_basket","wheelchair":"yes"}},"type":"Feature"},
	{"geometry":{"coordinates":[-1.678645,48.084323],"type":"Point"},"properties":{"osm_id":"5124466573","tag":{"amenity":"waste_basket","wheelchair":"yes"}},"type":"Feature"},
	{"geometry":{"coordinates":[-1.678678,48.083949],"type":"Point"},"properties":{"osm_id":"5124466574","tag":{"access":"yes","amenity":"recycling","fee":"no","recycling:light_bulbs":"yes","recycling_type":"container","wheelchair":"yes"}},"type":"Feature"},
	{"geometry":{"coordinates":[-1.678678,48.083923],"type":"Point"},"properties":{"osm_id":"5124466575","tag":{"access":"yes","amenity":"recycling","fee":"no","recycling:printer_cartridges":"yes","recycling_type":"container","wheelchair":"yes"}},"type":"Feature"},
	{"geometry":{"coordinates":[-1.678679,48.083895],"type":"Point"},"properties":{"osm_id":"5124466576","tag":{"amenity":"recycling","recycling:batteries":"yes","recycling_type":"container","wheelchair":"yes"}},"type":"Feature"},
	{"geometry":{"coordinates":[-1.674904,48.096637],"type":"Point"},"properties":{"osm_id":"5129002965","tag":{"access":"yes","amenity":"recycling","fee":"no","operator":"Rennes M\u00c3\u00a9tropole","recycling:glass_bottles":"yes","recycling_type":"container","wheelchair":"yes"}},"type":"Feature"},
	{"geometry":{"coordinates":[-1.682414,48.098953],"type":"Point"},"properties":{"osm_id":"5211130605","tag":{"amenity":"waste_basket","wheelchair":"yes"}},"type":"Feature"},
	{"geometry":{"coordinates":[-1.690353,48.094109],"type":"Point"},"properties":{"osm_id":"5225475392","tag":{"access":"yes","amenity":"recycling","fee":"no","recycling:corks":"yes","recycling_type":"container","wheelchair":"yes"}},"type":"Feature"},
	{"geometry":{"coordinates":[-1.674476,48.094304],"type":"Point"},"properties":{"osm_id":"5233412092","tag":{"access":"yes","amenity":"recycling","fee":"no","operator":"Rennes M\u00c3\u00a9tropole","recycling:glass_bottles":"yes","recycling_type":"container","wheelchair":"yes"}},"type":"Feature"},
	{"geometry":{"coordinates":[-1.674522,48.095476],"type":"Point"},"properties":{"osm_id":"5324994141","tag":{"amenity":"waste_basket","wheelchair":"yes"}},"type":"Feature"},
	{"geometry":{"coordinates":[-1.689204,48.084301],"type":"Point"},"properties":{"osm_id":"5352446565","tag":{"amenity":"waste_basket"}},"type":"Feature"},
	{"geometry":{"coordinates":[-1.689186,48.084582],"type":"Point"},"properties":{"osm_id":"5352446566","tag":{"amenity":"waste_basket"}},"type":"Feature"},
	{"geometry":{"coordinates":[-1.689364,48.084119],"type":"Point"},"properties":{"osm_id":"5352446567","tag":{"amenity":"waste_basket"}},"type":"Feature"},
	{"geometry":{"coordinates":[-1.685185,48.099015],"type":"Point"},"properties":{"osm_id":"5366266304","tag":{"amenity":"waste_basket","wheelchair":"yes"}},"type":"Feature"},
	{"geometry":{"coordinates":[-1.686546,48.099253],"type":"Point"},"properties":{"osm_id":"5366833185","tag":{"access":"yes","amenity":"recycling","fee":"no","operator":"Rennes M\u00c3\u00a9tropole","recycling:clothes":"yes","recycling:shoes":"yes","recycling:textiles":"yes","recycling_type":"container","wheelchair":"no"}},"type":"Feature"},
	{"geometry":{"coordinates":[-1.670955,48.086027],"type":"Point"},"properties":{"osm_id":"5420188917","tag":{"amenity":"recycling","recycling:organic":"yes","recycling_type":"container"}},"type":"Feature"},
	{"geometry":{"coordinates":[-1.676229,48.093977],"type":"Point"},"properties":{"osm_id":"5445451698","tag":{"access":"yes","amenity":"recycling","fee":"no","operator":"Le Relais","recycling:clothes":"yes","recycling:shoes":"yes","recycling:textiles":"yes","recycling_type":"container","wheelchair":"no"}},"type":"Feature"},
	{"geometry":{"coordinates":[-1.674679,48.09319],"type":"Point"},"properties":{"osm_id":"5445520501","tag":{"amenity":"waste_basket","wheelchair":"yes"}},"type":"Feature"},
	{"geometry":{"coordinates":[-1.682129,48.090182],"type":"Point"},"properties":{"osm_id":"5445662255","tag":{"amenity":"waste_basket","wheelchair":"yes"}},"type":"Feature"},
	{"geometry":{"coordinates":[-1.682376,48.0999],"type":"Point"},"properties":{"osm_id":"5451564760","tag":{"access":"yes","amenity":"recycling","fee":"no","recycling:organic":"yes","recycling_type":"container","wheelchair":"yes"}},"type":"Feature"},
	{"geometry":{"coordinates":[-1.69554,48.098837],"type":"Point"},"properties":{"osm_id":"5451929800","tag":{"access":"yes","amenity":"recycling","fee":"no","operator":"Rennes M\u00c3\u00a9tropole","recycling:cans":"yes","recycling:cardboard":"yes","recycling:paper":"yes","recycling:plastic":"yes","recycling_type":"container","wheelchair":"yes"}},"type":"Feature"},
	{"geometry":{"coordinates":[-1.695498,48.098838],"type":"Point"},"properties":{"osm_id":"5451929801","tag":{"access":"yes","amenity":"recycling","fee":"no","operator":"Rennes M\u00c3\u00a9tropole","recycling:cans":"yes","recycling:cardboard":"yes","recycling:paper":"yes","recycling:plastic":"yes","recycling_type":"container","wheelchair":"yes"}},"type":"Feature"},
	{"geometry":{"coordinates":[-1.695458,48.098839],"type":"Point"},"properties":{"osm_id":"5451929802","tag":{"access":"yes","amenity":"waste_disposal","fee":"yes","operator":"Rennes M\u00c3\u00a9tropole","waste":"trash","wheelchair":"yes"}},"type":"Feature"},
	{"geometry":{"coordinates":[-1.695421,48.098839],"type":"Point"},"properties":{"osm_id":"5451929803","tag":{"access":"yes","amenity":"waste_disposal","fee":"yes","operator":"Rennes M\u00c3\u00a9tropole","waste":"trash","wheelchair":"yes"}},"type":"Feature"},
	{"geometry":{"coordinates":[-1.695096,48.098634],"type":"Point"},"properties":{"osm_id":"5451941065","tag":{"amenity":"waste_basket","wheelchair":"yes"}},"type":"Feature"},
	{"geometry":{"coordinates":[-1.69351,48.098848],"type":"Point"},"properties":{"osm_id":"5451941066","tag":{"access":"yes","amenity":"recycling","fee":"no","operator":"Rennes M\u00c3\u00a9tropole","recycling:cans":"yes","recycling:cardboard":"yes","recycling:paper":"yes","recycling:plastic":"yes","recycling_type":"container","wheelchair":"yes"}},"type":"Feature"},
	{"geometry":{"coordinates":[-1.693478,48.098862],"type":"Point"},"properties":{"osm_id":"5451941067","tag":{"access":"yes","amenity":"waste_disposal","fee":"no","operator":"Rennes M\u00c3\u00a9tropole","waste":"trash","wheelchair":"yes"}},"type":"Feature"},
	{"geometry":{"coordinates":[-1.69345,48.098877],"type":"Point"},"properties":{"osm_id":"5451941068","tag":{"access":"yes","amenity":"waste_disposal","fee":"no","operator":"Rennes M\u00c3\u00a9tropole","waste":"trash","wheelchair":"yes"}},"type":"Feature"},
	{"geometry":{"coordinates":[-1.682618,48.094756],"type":"Point"},"properties":{"osm_id":"5469469128","tag":{"access":"yes","amenity":"recycling","fee":"no","operator":"Rennes M\u00c3\u00a9tropole","recycling_type":"container","wheelchair":"no"}},"type":"Feature"},
	{"geometry":{"coordinates":[-1.682571,48.094755],"type":"Point"},"properties":{"osm_id":"5469469129","tag":{"access":"yes","amenity":"recycling","fee":"no","operator":"Rennes M\u00c3\u00a9tropole","recycling_type":"container","wheelchair":"no"}},"type":"Feature"},
	{"geometry":{"coordinates":[-1.682545,48.09479],"type":"Point"},"properties":{"osm_id":"5469469130","tag":{"access":"yes","amenity":"recycling","fee":"no","operator":"Rennes M\u00c3\u00a9tropole","recycling_type":"container","wheelchair":"no"}},"type":"Feature"},
	{"geometry":{"coordinates":[-1.682635,48.094793],"type":"Point"},"properties":{"osm_id":"5469469131","tag":{"access":"yes","amenity":"waste_disposal","fee":"no","operator":"Rennes M\u00c3\u00a9tropole","waste":"trash","wheelchair":"no"}},"type":"Feature"},
	{"geometry":{"coordinates":[-1.682588,48.094791],"type":"Point"},"properties":{"osm_id":"5469469132","tag":{"access":"yes","amenity":"waste_disposal","fee":"no","operator":"Rennes M\u00c3\u00a9tropole","waste":"trash","wheelchair":"no"}},"type":"Feature"},
	{"geometry":{"coordinates":[-1.687994,48.081047],"type":"Point"},"properties":{"osm_id":"5471019290","tag":{"amenity":"waste_basket"}},"type":"Feature"},
	{"geometry":{"coordinates":[-1.685097,48.082642],"type":"Point"},"properties":{"osm_id":"5471019540","tag":{"amenity":"waste_basket"}},"type":"Feature"},
	{"geometry":{"coordinates":[-1.674468,48.104607],"type":"Point"},"properties":{"osm_id":"5477626034","tag":{"amenity":"waste_basket"}},"type":"Feature"},
	{"geometry":{"coordinates":[-1.674555,48.104649],"type":"Point"},"properties":{"osm_id":"5488980949","tag":{"amenity":"waste_basket"}},"type":"Feature"},
	{"geometry":{"coordinates":[-1.681645,48.093324],"type":"Point"},"properties":{"osm_id":"5536517674","tag":{"access":"yes","amenity":"recycling","fee":"no","operator":"Rennes M\u00c3\u00a9tropole","recycling:glass_bottles":"yes","recycling_type":"container","wheelchair":"yes"}},"type":"Feature"},
	{"geometry":{"coordinates":[-1.681681,48.093325],"type":"Point"},"properties":{"osm_id":"5536517675","tag":{"access":"yes","amenity":"waste_disposal","fee":"no","operator":"Rennes M\u00c3\u00a9tropole","waste":"trash","wheelchair":"yes"}},"type":"Feature"},
	{"geometry":{"coordinates":[-1.681685,48.093299],"type":"Point"},"properties":{"osm_id":"5536517676","tag":{"access":"yes","amenity":"recycling","fee":"no","operator":"Rennes M\u00c3\u00a9tropole","recycling:cans":"yes","recycling:cardboard":"yes","recycling:paper":"yes","recycling:plastic":"yes","recycling_type":"container","wheelchair":"yes"}},"type":"Feature"},
	{"geometry":{"coordinates":[-1.681647,48.093296],"type":"Point"},"properties":{"osm_id":"5536517677","tag":{"access":"yes","amenity":"recycling","fee":"no","operator":"Rennes M\u00c3\u00a9tropole","recycling:cans":"yes","recycling:cardboard":"yes","recycling:paper":"yes","recycling:plastic":"yes","recycling_type":"container","wheelchair":"yes"}},"type":"Feature"},
	{"geometry":{"coordinates":[-1.682028,48.092688],"type":"Point"},"properties":{"osm_id":"5536517678","tag":{"access":"yes","amenity":"waste_disposal","fee":"no","operator":"Rennes M\u00c3\u00a9tropole","waste":"trash","wheelchair":"yes"}},"type":"Feature"},
	{"geometry":{"coordinates":[-1.681992,48.092688],"type":"Point"},"properties":{"osm_id":"5536517679","tag":{"access":"yes","amenity":"recycling","fee":"no","operator":"Rennes M\u00c3\u00a9tropole","recycling:cans":"yes","recycling:cardboard":"yes","recycling:paper":"yes","recycling:plastic":"yes","recycling_type":"container","wheelchair":"yes"}},"type":"Feature"},
	{"geometry":{"coordinates":[-1.681801,48.0926],"type":"Point"},"properties":{"osm_id":"5536517680","tag":{"access":"yes","amenity":"recycling","fee":"no","operator":"Rennes M\u00c3\u00a9tropole","recycling:cans":"yes","recycling:cardboard":"yes","recycling:paper":"yes","recycling:plastic":"yes","recycling_type":"container","wheelchair":"yes"}},"type":"Feature"},
	{"geometry":{"coordinates":[-1.681761,48.092599],"type":"Point"},"properties":{"osm_id":"5536517681","tag":{"access":"yes","amenity":"waste_disposal","fee":"no","operator":"Rennes M\u00c3\u00a9tropole","waste":"trash","wheelchair":"yes"}},"type":"Feature"},
	{"geometry":{"coordinates":[-1.698333,48.105065],"type":"Point"},"properties":{"osm_id":"5554154539","tag":{"amenity":"waste_basket"}},"type":"Feature"},
	{"geometry":{"coordinates":[-1.676962,48.097805],"type":"Point"},"properties":{"osm_id":"5584824665","tag":{"amenity":"waste_basket","wheelchair":"yes"}},"type":"Feature"},
	{"geometry":{"coordinates":[-1.670124,48.087436],"type":"Point"},"properties":{"osm_id":"5625444932","tag":{"amenity":"waste_basket","wheelchair":"yes"}},"type":"Feature"},
	{"geometry":{"coordinates":[-1.6742,48.08676],"type":"Point"},"properties":{"osm_id":"5696324418","tag":{"amenity":"waste_basket","wheelchair":"yes"}},"type":"Feature"},
	{"geometry":{"coordinates":[-1.677824,48.105825],"type":"Point"},"properties":{"osm_id":"5820688206","tag":{"access":"yes","amenity":"waste_disposal","fee":"no","operator":"Rennes M\u00c3\u00a9tropole","waste":"trash","wheelchair":"no"}},"type":"Feature"},
	{"geometry":{"coordinates":[-1.682027,48.097329],"type":"Point"},"properties":{"osm_id":"5825476444","tag":{"amenity":"waste_basket","wheelchair":"yes"}},"type":"Feature"},
	{"geometry":{"coordinates":[-1.674519,48.092914],"type":"Point"},"properties":{"osm_id":"5829599092","tag":{"amenity":"waste_basket","wheelchair":"yes"}},"type":"Feature"},
	{"geometry":{"coordinates":[-1.676511,48.088837],"type":"Point"},"properties":{"osm_id":"5829705635","tag":{"access":"yes","amenity":"waste_disposal","fee":"no","operator":"Rennes M\u00c3\u00a9tropole","waste":"trash","wheelchair":"yes"}},"type":"Feature"},
	{"geometry":{"coordinates":[-1.677551,48.088909],"type":"Point"},"properties":{"osm_id":"5829705638","tag":{"access":"yes","amenity":"waste_disposal","fee":"no","operator":"Rennes M\u00c3\u00a9tropole","waste":"trash","wheelchair":"yes"}},"type":"Feature"},
	{"geometry":{"coordinates":[-1.677699,48.088921],"type":"Point"},"properties":{"osm_id":"5829705639","tag":{"access":"yes","amenity":"recycling","fee":"no","operator":"Le Relais","recycling:clothes":"yes","recycling:shoes":"yes","recycling:textiles":"yes","recycling_type":"container","wheelchair":"no"}},"type":"Feature"},
	{"geometry":{"coordinates":[-1.681995,48.098064],"type":"Point"},"properties":{"osm_id":"5832526572","tag":{"amenity":"waste_basket","wheelchair":"yes"}},"type":"Feature"},
	{"geometry":{"coordinates":[-1.682991,48.098454],"type":"Point"},"properties":{"osm_id":"5834812325","tag":{"amenity":"waste_basket","wheelchair":"yes"}},"type":"Feature"},
	{"geometry":{"coordinates":[-1.71592,48.07695],"type":"Point"},"properties":{"osm_id":"5839046904","tag":{"amenity":"waste_basket"}},"type":"Feature"},
	{"geometry":{"coordinates":[-1.695445,48.090694],"type":"Point"},"properties":{"osm_id":"5841713433","tag":{"access":"yes","amenity":"recycling","fee":"no","operator":"Rennes M\u00c3\u00a9tropole","recycling:glass_bottles":"yes","recycling_type":"container","wheelchair":"no"}},"type":"Feature"},
	{"geometry":{"coordinates":[-1.696953,48.091146],"type":"Point"},"properties":{"osm_id":"5841713443","tag":{"amenity":"waste_basket","wheelchair":"yes"}},"type":"Feature"},
	{"geometry":{"coordinates":[-1.697156,48.103382],"type":"Point"},"properties":{"osm_id":"5901341078","tag":{"amenity":"waste_basket"}},"type":"Feature"},
	{"geometry":{"coordinates":[-1.696102,48.102837],"type":"Point"},"properties":{"osm_id":"5901341083","tag":{"amenity":"recycling","operator":"Rennes M\u00c3\u00a9tropole","recycling:glass_bottles":"yes","recycling:glass_jars":"yes","recycling_type":"container"}},"type":"Feature"},
	{"geometry":{"coordinates":[-1.696101,48.102815],"type":"Point"},"properties":{"osm_id":"5901341084","tag":{"amenity":"recycling","operator":"Rennes M\u00c3\u00a9tropole","recycling:cans":"yes","recycling:cartons":"yes","recycling:paper":"yes","recycling:plastic":"yes","recycling_type":"container"}},"type":"Feature"},
	{"geometry":{"coordinates":[-1.6961,48.102793],"type":"Point"},"properties":{"osm_id":"5901341385","tag":{"amenity":"waste_disposal","operator":"Rennes M\u00c3\u00a9tropole"}},"type":"Feature"},
	{"geometry":{"coordinates":[-1.694875,48.105746],"type":"Point"},"properties":{"osm_id":"5906916592","tag":{"amenity":"waste_basket"}},"type":"Feature"},
	{"geometry":{"coordinates":[-1.742317,48.105609],"type":"Point"},"properties":{"osm_id":"5963875990","tag":{"amenity":"recycling","recycling:glass_bottles":"yes","recycling_type":"container"}},"type":"Feature"},
	{"geometry":{"coordinates":[-1.695294,48.098006],"type":"Point"},"properties":{"osm_id":"6044511155","tag":{"amenity":"waste_disposal"}},"type":"Feature"},
	{"geometry":{"coordinates":[-1.695267,48.098049],"type":"Point"},"properties":{"osm_id":"6044511156","tag":{"amenity":"recycling","recycling:aluminium":"yes","recycling:paper":"yes","recycling:plastic":"yes","recycling_type":"container"}},"type":"Feature"},
	{"geometry":{"coordinates":[-1.675816,48.08487],"type":"Point"},"properties":{"osm_id":"6123844343","tag":{"amenity":"waste_basket","wheelchair":"yes"}},"type":"Feature"},
	{"geometry":{"coordinates":[-1.675957,48.084754],"type":"Point"},"properties":{"osm_id":"6123844344","tag":{"amenity":"waste_basket","wheelchair":"yes"}},"type":"Feature"},
	{"geometry":{"coordinates":[-1.694612,48.087027],"type":"Point"},"properties":{"osm_id":"6312757954","tag":{"amenity":"waste_basket"}},"type":"Feature"},
	{"geometry":{"coordinates":[-1.695623,48.08668],"type":"Point"},"properties":{"osm_id":"6314011026","tag":{"amenity":"waste_basket"}},"type":"Feature"},
	{"geometry":{"coordinates":[-1.694162,48.085882],"type":"Point"},"properties":{"osm_id":"6314021049","tag":{"access":"private","amenity":"recycling","recycling:glass_bottles":"yes","recycling_type":"container"}},"type":"Feature"},
	{"geometry":{"coordinates":[-1.693964,48.085805],"type":"Point"},"properties":{"osm_id":"6314021050","tag":{"amenity":"waste_basket"}},"type":"Feature"},
	{"geometry":{"coordinates":[-1.693944,48.085712],"type":"Point"},"properties":{"osm_id":"6314021051","tag":{"amenity":"waste_basket"}},"type":"Feature"},
	{"geometry":{"coordinates":[-1.694228,48.087295],"type":"Point"},"properties":{"osm_id":"6314098503","tag":{"amenity":"recycling","recycling:organic_waste":"yes","recycling_type":"container"}},"type":"Feature"},
	{"geometry":{"coordinates":[-1.692025,48.085532],"type":"Point"},"properties":{"osm_id":"6314110446","tag":{"amenity":"recycling","operator":"Le Relais","recycling:clothes":"yes","recycling:shoes":"yes","recycling:textiles":"yes","recycling_type":"container"}},"type":"Feature"},
	{"geometry":{"coordinates":[-1.692039,48.085538],"type":"Point"},"properties":{"osm_id":"6314110447","tag":{"amenity":"recycling","location":"underground","recycling:glass_bottles":"yes","recycling_type":"container"}},"type":"Feature"},
	{"geometry":{"coordinates":[-1.692039,48.088526],"type":"Point"},"properties":{"osm_id":"6314110448","tag":{"amenity":"waste_disposal"}},"type":"Feature"},
	{"geometry":{"coordinates":[-1.72104,48.083306],"type":"Point"},"properties":{"osm_id":"6368151948","tag":{"amenity":"waste_basket","colour":"grey","waste":"trash"}},"type":"Feature"},
	{"geometry":{"coordinates":[-1.719796,48.081858],"type":"Point"},"properties":{"osm_id":"6368278317","tag":{"amenity":"waste_basket","colour":"black","waste":"trash"}},"type":"Feature"},
	{"geometry":{"coordinates":[-1.719812,48.081021],"type":"Point"},"properties":{"osm_id":"6368315868","tag":{"amenity":"waste_basket","colour":"grey","waste":"trash"}},"type":"Feature"},
	{"geometry":{"coordinates":[-1.71979,48.077063],"type":"Point"},"properties":{"osm_id":"6368483109","tag":{"amenity":"waste_basket","colour":"grey","waste":"trash"}},"type":"Feature"},
	{"geometry":{"coordinates":[-1.715281,48.082536],"type":"Point"},"properties":{"osm_id":"6368875801","tag":{"amenity":"waste_basket","waste":"trash"}},"type":"Feature"},
	{"geometry":{"coordinates":[-1.715442,48.082521],"type":"Point"},"properties":{"osm_id":"6369981009","tag":{"amenity":"waste_basket","waste":"trash"}},"type":"Feature"},
	{"geometry":{"coordinates":[-1.712829,48.104178],"type":"Point"},"properties":{"osm_id":"6391908503","tag":{"amenity":"waste_basket","waste":"trash"}},"type":"Feature"},
	{"geometry":{"coordinates":[-1.672991,48.093639],"type":"Point"},"properties":{"osm_id":"6399509813","tag":{"access":"yes","amenity":"waste_disposal","fee":"no","operator":"Rennes M\u00c3\u00a9tropole","waste":"trash","wheelchair":"no"}},"type":"Feature"},
	{"geometry":{"coordinates":[-1.706767,48.093745],"type":"Point"},"properties":{"osm_id":"6486612799","tag":{"amenity":"recycling","recycling:clothes":"yes","recycling_type":"container"}},"type":"Feature"},
	{"geometry":{"coordinates":[-1.705884,48.093737],"type":"Point"},"properties":{"osm_id":"6486612851","tag":{"amenity":"recycling","recycling_type":"underfloor-container"}},"type":"Feature"},
	{"geometry":{"coordinates":[-1.740037,48.097067],"type":"Point"},"properties":{"osm_id":"6653132649","tag":{"amenity":"waste_basket"}},"type":"Feature"},
	{"geometry":{"coordinates":[-1.741276,48.097833],"type":"Point"},"properties":{"osm_id":"6653132722","tag":{"amenity":"waste_basket"}},"type":"Feature"},
	{"geometry":{"coordinates":[-1.744888,48.093169],"type":"Point"},"properties":{"osm_id":"6653132947","tag":{"amenity":"waste_basket"}},"type":"Feature"},
	{"geometry":{"coordinates":[-1.744594,48.093004],"type":"Point"},"properties":{"osm_id":"6653139516","tag":{"amenity":"waste_basket"}},"type":"Feature"},
	{"geometry":{"coordinates":[-1.739535,48.096789],"type":"Point"},"properties":{"osm_id":"6653139728","tag":{"amenity":"waste_basket"}},"type":"Feature"},
	{"geometry":{"coordinates":[-1.740785,48.097605],"type":"Point"},"properties":{"osm_id":"6653139729","tag":{"amenity":"waste_basket"}},"type":"Feature"},
	{"geometry":{"coordinates":[-1.743772,48.093701],"type":"Point"},"properties":{"osm_id":"6653147778","tag":{"amenity":"waste_basket"}},"type":"Feature"},
	{"geometry":{"coordinates":[-1.740554,48.09725],"type":"Point"},"properties":{"osm_id":"6653148455","tag":{"amenity":"waste_basket"}},"type":"Feature"},
	{"geometry":{"coordinates":[-1.744384,48.096175],"type":"Point"},"properties":{"osm_id":"6653148457","tag":{"amenity":"waste_basket"}},"type":"Feature"},
	{"geometry":{"coordinates":[-1.741777,48.097751],"type":"Point"},"properties":{"osm_id":"6653154598","tag":{"amenity":"waste_basket"}},"type":"Feature"},
	{"geometry":{"coordinates":[-1.745715,48.093621],"type":"Point"},"properties":{"osm_id":"6653154600","tag":{"amenity":"waste_basket"}},"type":"Feature"},
	{"geometry":{"coordinates":[-1.745286,48.09435],"type":"Point"},"properties":{"osm_id":"6653156605","tag":{"amenity":"waste_basket"}},"type":"Feature"},
	{"geometry":{"coordinates":[-1.725447,48.095628],"type":"Point"},"properties":{"osm_id":"6653157594","tag":{"amenity":"waste_basket"}},"type":"Feature"},
	{"geometry":{"coordinates":[-1.742431,48.097987],"type":"Point"},"properties":{"osm_id":"6653160679","tag":{"amenity":"waste_basket"}},"type":"Feature"},
	{"geometry":{"coordinates":[-1.744096,48.0959],"type":"Point"},"properties":{"osm_id":"6653162290","tag":{"amenity":"waste_basket"}},"type":"Feature"},
	{"geometry":{"coordinates":[-1.739774,48.092298],"type":"Point"},"properties":{"osm_id":"6653165521","tag":{"amenity":"waste_basket"}},"type":"Feature"},
	{"geometry":{"coordinates":[-1.725382,48.095692],"type":"Point"},"properties":{"osm_id":"6653169712","tag":{"amenity":"waste_basket"}},"type":"Feature"},
	{"geometry":{"coordinates":[-1.741285,48.097568],"type":"Point"},"properties":{"osm_id":"6657399885","tag":{"amenity":"waste_basket"}},"type":"Feature"},
	{"geometry":{"coordinates":[-1.676463,48.105232],"type":"Point"},"properties":{"osm_id":"6738788391","tag":{"amenity":"waste_basket"}},"type":"Feature"},
	{"geometry":{"coordinates":[-1.678669,48.104925],"type":"Point"},"properties":{"osm_id":"6738788392","tag":{"amenity":"waste_basket"}},"type":"Feature"},
	{"geometry":{"coordinates":[-1.675195,48.098272],"type":"Point"},"properties":{"osm_id":"6742505535","tag":{"amenity":"waste_basket","wheelchair":"yes"}},"type":"Feature"},
	{"geometry":{"coordinates":[-1.68287,48.104133],"type":"Point"},"properties":{"osm_id":"6917860780","tag":{"amenity":"recycling","recycling:glass_bottles":"yes","recycling_type":"container"}},"type":"Feature"},
	{"geometry":{"coordinates":[-1.694458,48.103491],"type":"Point"},"properties":{"osm_id":"6917971644","tag":{"amenity":"recycling","recycling_type":"container"}},"type":"Feature"},
	{"geometry":{"coordinates":[-1.682503,48.086326],"type":"Point"},"properties":{"osm_id":"7031197773","tag":{"amenity":"recycling","recycling:glass_bottles":"yes","recycling_type":"container"}},"type":"Feature"},
	{"geometry":{"coordinates":[-1.682503,48.086306],"type":"Point"},"properties":{"osm_id":"7031197774","tag":{"amenity":"recycling","recycling:waste":"yes","recycling_type":"container"}},"type":"Feature"},
	{"geometry":{"coordinates":[-1.682501,48.086283],"type":"Point"},"properties":{"osm_id":"7031197775","tag":{"amenity":"recycling","recycling:aluminium":"yes","recycling:cans":"yes","recycling:cardboard":"yes","recycling:magazines":"yes","recycling:newspaper":"yes","recycling:paper":"yes","recycling:paper_packaging":"yes","recycling:plastic":"yes","recycling:plastic_bottles":"yes","recycling:plastic_packaging":"yes","recycling_type":"container"}},"type":"Feature"},
	{"geometry":{"coordinates":[-1.682535,48.085291],"type":"Point"},"properties":{"osm_id":"7031633716","tag":{"amenity":"recycling","recycling:waste":"yes","recycling_type":"container"}},"type":"Feature"},
	{"geometry":{"coordinates":[-1.682535,48.085268],"type":"Point"},"properties":{"osm_id":"7031633717","tag":{"amenity":"recycling","recycling:waste":"yes","recycling_type":"container"}},"type":"Feature"},
	{"geometry":{"coordinates":[-1.682533,48.085336],"type":"Point"},"properties":{"osm_id":"7031633718","tag":{"amenity":"recycling","recycling:aluminium":"yes","recycling:cans":"yes","recycling:cardboard":"yes","recycling:magazines":"yes","recycling:newspaper":"yes","recycling:paper":"yes","recycling:paper_packaging":"yes","recycling:plastic":"yes","recycling:plastic_bottles":"yes","recycling:plastic_packaging":"yes","recycling_type":"container"}},"type":"Feature"},
	{"geometry":{"coordinates":[-1.682534,48.085314],"type":"Point"},"properties":{"osm_id":"7031633719","tag":{"amenity":"recycling","recycling:aluminium":"yes","recycling:cans":"yes","recycling:cardboard":"yes","recycling:magazines":"yes","recycling:newspaper":"yes","recycling:paper":"yes","recycling:paper_packaging":"yes","recycling:plastic":"yes","recycling:plastic_bottles":"yes","recycling:plastic_packaging":"yes","recycling_type":"container"}},"type":"Feature"},
	{"geometry":{"coordinates":[-1.682521,48.085376],"type":"Point"},"properties":{"osm_id":"7031633720","tag":{"amenity":"recycling","operator":"Le Relais","recycling:clothes":"yes","recycling:shoes":"yes","recycling_type":"container"}},"type":"Feature"},
	{"geometry":{"coordinates":[-1.682536,48.085243],"type":"Point"},"properties":{"osm_id":"7031633721","tag":{"amenity":"recycling","recycling:glass_bottles":"yes","recycling_type":"container"}},"type":"Feature"},
	{"geometry":{"coordinates":[-1.684472,48.085504],"type":"Point"},"properties":{"osm_id":"7038425614","tag":{"amenity":"waste_basket"}},"type":"Feature"},
	{"geometry":{"coordinates":[-1.684204,48.085491],"type":"Point"},"properties":{"osm_id":"7038425616","tag":{"amenity":"waste_basket"}},"type":"Feature"},
	{"geometry":{"coordinates":[-1.682473,48.087503],"type":"Point"},"properties":{"osm_id":"7038826033","tag":{"amenity":"recycling","operator":"Le Relais","recycling:clothes":"yes","recycling:shoes":"yes","recycling_type":"container"}},"type":"Feature"},
	{"geometry":{"coordinates":[-1.680805,48.087041],"type":"Point"},"properties":{"osm_id":"7038849712","tag":{"amenity":"waste_basket"}},"type":"Feature"},
	{"geometry":{"coordinates":[-1.678873,48.086644],"type":"Point"},"properties":{"osm_id":"7044117426","tag":{"amenity":"recycling","recycling:aluminium":"yes","recycling:cans":"yes","recycling:cardboard":"yes","recycling:cartons":"yes","recycling:magazines":"yes","recycling:newspaper":"yes","recycling:paper":"yes","recycling:plastic":"yes","recycling:plastic_bottles":"yes","recycling:plastic_packaging":"yes","recycling_type":"container"}},"type":"Feature"},
	{"geometry":{"coordinates":[-1.678847,48.086644],"type":"Point"},"properties":{"osm_id":"7044117427","tag":{"amenity":"recycling","recycling:waste":"yes","recycling_type":"container"}},"type":"Feature"},
	{"geometry":{"coordinates":[-1.676212,48.086612],"type":"Point"},"properties":{"osm_id":"7044291138","tag":{"amenity":"waste_disposal","waste":"cardboard"}},"type":"Feature"},
	{"geometry":{"coordinates":[-1.679404,48.08583],"type":"Point"},"properties":{"osm_id":"7069286445","tag":{"amenity":"waste_basket"}},"type":"Feature"},
	{"geometry":{"coordinates":[-1.681952,48.081357],"type":"Point"},"properties":{"osm_id":"7069753392","tag":{"amenity":"waste_basket"}},"type":"Feature"},
	{"geometry":{"coordinates":[-1.681681,48.081444],"type":"Point"},"properties":{"osm_id":"7069753393","tag":{"amenity":"waste_basket"}},"type":"Feature"},
	{"geometry":{"coordinates":[-1.68397,48.087883],"type":"Point"},"properties":{"osm_id":"7072081178","tag":{"amenity":"recycling","recycling:aluminium":"yes","recycling:beverage_cartons":"yes","recycling:cans":"yes","recycling:cardboard":"yes","recycling:cartons":"yes","recycling:magazines":"yes","recycling:newspaper":"yes","recycling:paper":"yes","recycling:plastic":"yes","recycling:plastic_bottles":"yes","recycling:plastic_packaging":"yes","recycling_type":"container"}},"type":"Feature"},
	{"geometry":{"coordinates":[-1.683937,48.087883],"type":"Point"},"properties":{"osm_id":"7072081179","tag":{"amenity":"recycling","recycling:aluminium":"yes","recycling:beverage_cartons":"yes","recycling:cans":"yes","recycling:cardboard":"yes","recycling:cartons":"yes","recycling:magazines":"yes","recycling:newspaper":"yes","recycling:paper":"yes","recycling:plastic":"yes","recycling:plastic_bottles":"yes","recycling:plastic_packaging":"yes","recycling_type":"container"}},"type":"Feature"},
	{"geometry":{"coordinates":[-1.683936,48.087854],"type":"Point"},"properties":{"osm_id":"7072081180","tag":{"amenity":"recycling","recycling:aluminium":"yes","recycling:beverage_cartons":"yes","recycling:cans":"yes","recycling:cardboard":"yes","recycling:cartons":"yes","recycling:magazines":"yes","recycling:newspaper":"yes","recycling:paper":"yes","recycling:plastic":"yes","recycling:plastic_bottles":"yes","recycling:plastic_packaging":"yes","recycling_type":"container"}},"type":"Feature"},
	{"geometry":{"coordinates":[-1.683905,48.087883],"type":"Point"},"properties":{"osm_id":"7072081181","tag":{"amenity":"recycling","recycling:waste":"yes","recycling_type":"container"}},"type":"Feature"},
	{"geometry":{"coordinates":[-1.683902,48.087854],"type":"Point"},"properties":{"osm_id":"7072081182","tag":{"amenity":"recycling","recycling:waste":"yes","recycling_type":"container"}},"type":"Feature"},
	{"geometry":{"coordinates":[-1.683871,48.087854],"type":"Point"},"properties":{"osm_id":"7072081183","tag":{"amenity":"recycling","recycling:waste":"yes","recycling_type":"container"}},"type":"Feature"},
	{"geometry":{"coordinates":[-1.741321,48.104253],"type":"Point"},"properties":{"osm_id":"7073876513","tag":{"amenity":"waste_basket"}},"type":"Feature"},
	{"geometry":{"coordinates":[-1.741248,48.104298],"type":"Point"},"properties":{"osm_id":"7073876514","tag":{"amenity":"waste_basket"}},"type":"Feature"},
	{"geometry":{"coordinates":[-1.739629,48.104153],"type":"Point"},"properties":{"osm_id":"7073876516","tag":{"amenity":"waste_basket"}},"type":"Feature"},
	{"geometry":{"coordinates":[-1.672637,48.093194],"type":"Point"},"properties":{"osm_id":"7182541704","tag":{"access":"yes","amenity":"waste_disposal","waste":"trash"}},"type":"Feature"},
	{"geometry":{"coordinates":[-1.688158,48.093437],"type":"Point"},"properties":{"osm_id":"7184287550","tag":{"amenity":"waste_basket","waste":"trash"}},"type":"Feature"},
	{"geometry":{"coordinates":[-1.688153,48.092822],"type":"Point"},"properties":{"osm_id":"7184385980","tag":{"amenity":"waste_basket","waste":"trash"}},"type":"Feature"},
	{"geometry":{"coordinates":[-1.673092,48.093159],"type":"Point"},"properties":{"osm_id":"7185101960","tag":{"amenity":"waste_basket","waste":"trash"}},"type":"Feature"},
	{"geometry":{"coordinates":[-1.673226,48.092972],"type":"Point"},"properties":{"osm_id":"7193697575","tag":{"amenity":"waste_basket"}},"type":"Feature"},
	{"geometry":{"coordinates":[-1.672664,48.092797],"type":"Point"},"properties":{"osm_id":"7193697576","tag":{"amenity":"waste_basket"}},"type":"Feature"},
	{"geometry":{"coordinates":[-1.673937,48.093443],"type":"Point"},"properties":{"osm_id":"7193697577","tag":{"amenity":"waste_basket"}},"type":"Feature"},
	{"geometry":{"coordinates":[-1.672873,48.092314],"type":"Point"},"properties":{"osm_id":"7223511099","tag":{"amenity":"waste_basket"}},"type":"Feature"}
]
}
