{
"type": "FeatureCollection",
"features": [
	{"geometry":{"coordinates":[-1.744841,48.024958],"type":"Point"},"properties":{"osm_id":"290320342","tag":{"amenity":"recycling","recycling:glass_bottles":"yes","recycling_type":"container"}},"type":"Feature"},
	{"geometry":{"coordinates":[-1.735241,48.030194],"type":"Point"},"properties":{"osm_id":"290320343","tag":{"amenity":"recycling","recycling:glass_bottles":"yes","recycling_type":"container"}},"type":"Feature"},
	{"geometry":{"coordinates":[-1.74512,48.026505],"type":"Point"},"properties":{"osm_id":"290469308","tag":{"amenity":"recycling","recycling:glass_bottles":"yes","recycling_type":"container"}},"type":"Feature"},
	{"geometry":{"coordinates":[-1.752279,48.021756],"type":"Point"},"properties":{"osm_id":"290477007","tag":{"amenity":"recycling","recycling:glass_bottles":"yes","recycling_type":"container"}},"type":"Feature"},
	{"geometry":{"coordinates":[-1.74629,48.031845],"type":"Point"},"properties":{"osm_id":"290584464","tag":{"amenity":"recycling","recycling:glass_bottles":"yes","recycling_type":"container"}},"type":"Feature"},
	{"geometry":{"coordinates":[-1.744923,48.022191],"type":"Point"},"properties":{"osm_id":"290605964","tag":{"amenity":"recycling","recycling:glass_bottles":"yes","recycling_type":"container"}},"type":"Feature"},
	{"geometry":{"coordinates":[-1.751106,48.025098],"type":"Point"},"properties":{"osm_id":"290629375","tag":{"amenity":"recycling","recycling:clothes":"yes","recycling:glass_bottles":"yes","recycling_type":"container"}},"type":"Feature"},
	{"geometry":{"coordinates":[-1.753864,48.02525],"type":"Point"},"properties":{"osm_id":"290629376","tag":{"amenity":"recycling","recycling:glass_bottles":"yes","recycling_type":"container"}},"type":"Feature"},
	{"geometry":{"coordinates":[-1.719403,48.029137],"type":"Point"},"properties":{"osm_id":"291825238","tag":{"amenity":"recycling","recycling:glass_bottles":"yes","recycling_type":"container"}},"type":"Feature"},
	{"geometry":{"coordinates":[-1.751229,48.02856],"type":"Point"},"properties":{"osm_id":"292064568","tag":{"access":"yes","amenity":"recycling","fee":"no","operator":"Rennes M\u00c3\u00a9tropole","recycling:glass_bottles":"yes","recycling:glass_jars":"yes","recycling_type":"container","wheelchair":"no"}},"type":"Feature"},
	{"geometry":{"coordinates":[-1.744932,48.028526],"type":"Point"},"properties":{"osm_id":"292064571","tag":{"amenity":"recycling","recycling:glass_bottles":"yes","recycling_type":"container"}},"type":"Feature"},
	{"geometry":{"coordinates":[-1.752206,48.030323],"type":"Point"},"properties":{"osm_id":"294805605","tag":{"amenity":"recycling","recycling:glass_bottles":"yes","recycling_type":"container"}},"type":"Feature"},
	{"geometry":{"coordinates":[-1.754523,48.038549],"type":"Point"},"properties":{"osm_id":"294805862","tag":{"amenity":"recycling","recycling:glass_bottles":"yes","recycling_type":"container"}},"type":"Feature"},
	{"geometry":{"coordinates":[-1.738692,48.026401],"type":"Point"},"properties":{"osm_id":"294880114","tag":{"amenity":"recycling","recycling:clothes":"yes","recycling:glass_bottles":"yes","recycling_type":"container"}},"type":"Feature"},
	{"geometry":{"coordinates":[-1.751489,48.004084],"type":"Point"},"properties":{"barrier":"gate","osm_id":"296414939"},"type":"Feature"},
	{"geometry":{"coordinates":[-1.750476,48.004151],"type":"Point"},"properties":{"barrier":"gate","osm_id":"296414941"},"type":"Feature"},
	{"geometry":{"coordinates":[-1.714471,48.01787],"type":"Point"},"properties":{"osm_id":"296415013","tag":{"amenity":"recycling","recycling:clothes":"yes","recycling:glass_bottles":"yes","recycling_type":"container"}},"type":"Feature"},
	{"geometry":{"coordinates":[-1.728958,48.025233],"type":"Point"},"properties":{"osm_id":"298849894","tag":{"amenity":"recycling","recycling:glass_bottles":"yes","recycling_type":"container"}},"type":"Feature"},
	{"geometry":{"coordinates":[-1.74043,48.029219],"type":"Point"},"properties":{"osm_id":"308205267","tag":{"amenity":"recycling","recycling:glass_bottles":"yes","recycling_type":"container"}},"type":"Feature"},
	{"geometry":{"coordinates":[-1.707237,48.033063],"type":"Point"},"properties":{"osm_id":"314050722","tag":{"amenity":"recycling","recycling:glass_bottles":"yes","recycling_type":"container"}},"type":"Feature"},
	{"geometry":{"coordinates":[-1.706889,48.036086],"type":"Point"},"properties":{"osm_id":"314059889","tag":{"amenity":"recycling","recycling:glass_bottles":"yes","recycling_type":"container"}},"type":"Feature"},
	{"geometry":{"coordinates":[-1.708447,48.041506],"type":"Point"},"properties":{"osm_id":"314074929","tag":{"amenity":"recycling","operator":"Rennes M\u00c3\u00a9tropole","recycling:cans":"yes","recycling:glass_bottles":"yes","recycling:paper":"yes","recycling:plastic_bottles":"yes","recycling:plastic_packaging":"yes","recycling:waste":"yes","recycling_type":"container"}},"type":"Feature"},
	{"geometry":{"coordinates":[-1.708052,48.041521],"type":"Point"},"properties":{"osm_id":"316550123","tag":{"amenity":"recycling","recycling:plastic_bottles":"yes","recycling_type":"container"}},"type":"Feature"},
	{"geometry":{"coordinates":[-1.701534,48.035754],"type":"Point"},"properties":{"osm_id":"316733042","tag":{"amenity":"recycling","recycling:glass_bottles":"yes","recycling_type":"container"}},"type":"Feature"},
	{"geometry":{"coordinates":[-1.694359,48.041091],"type":"Point"},"properties":{"osm_id":"316734643","tag":{"access":"yes","amenity":"recycling","fee":"no","operator":"Rennes M\u00c3\u00a9tropole","recycling:glass_bottles":"yes","recycling:glass_jars":"yes","recycling_type":"container","wheelchair":"no"}},"type":"Feature"},
	{"geometry":{"coordinates":[-1.750002,48.028517],"type":"Point"},"properties":{"osm_id":"320414176","tag":{"amenity":"recycling","recycling:glass_bottles":"yes","recycling_type":"container"}},"type":"Feature"},
	{"geometry":{"coordinates":[-1.713462,48.041499],"type":"Point"},"properties":{"osm_id":"320620777","tag":{"amenity":"recycling","recycling:plastic_bottles":"yes","recycling_type":"container"}},"type":"Feature"},
	{"geometry":{"coordinates":[-1.713993,48.046988],"type":"Point"},"properties":{"osm_id":"320620973","tag":{"amenity":"recycling","recycling:glass_bottles":"yes","recycling_type":"container"}},"type":"Feature"},
	{"geometry":{"coordinates":[-1.714199,48.043709],"type":"Point"},"properties":{"osm_id":"320620975","tag":{"amenity":"recycling","recycling:glass_bottles":"yes","recycling_type":"container"}},"type":"Feature"},
	{"geometry":{"coordinates":[-1.705961,48.043871],"type":"Point"},"properties":{"osm_id":"320819208","tag":{"amenity":"recycling","recycling:glass_bottles":"yes","recycling_type":"container"}},"type":"Feature"},
	{"geometry":{"coordinates":[-1.711224,48.042845],"type":"Point"},"properties":{"osm_id":"320827261","tag":{"amenity":"recycling","recycling:plastic_bottles":"yes","recycling_type":"container"}},"type":"Feature"},
	{"geometry":{"coordinates":[-1.711713,48.042009],"type":"Point"},"properties":{"osm_id":"320827264","tag":{"amenity":"recycling","recycling:glass_bottles":"yes","recycling_type":"container"}},"type":"Feature"},
	{"geometry":{"coordinates":[-1.702166,48.042336],"type":"Point"},"properties":{"osm_id":"322746032","tag":{"amenity":"recycling","recycling:glass_bottles":"yes","recycling_type":"container"}},"type":"Feature"},
	{"geometry":{"coordinates":[-1.70657,48.040714],"type":"Point"},"properties":{"osm_id":"325903184","tag":{"amenity":"recycling","recycling:glass_bottles":"yes","recycling:plastic_bottles":"yes","recycling_type":"container"}},"type":"Feature"},
	{"geometry":{"coordinates":[-1.697306,48.035866],"type":"Point"},"properties":{"osm_id":"326059823","tag":{"amenity":"recycling","recycling:glass_bottles":"yes","recycling_type":"container"}},"type":"Feature"},
	{"geometry":{"coordinates":[-1.704712,48.04146],"type":"Point"},"properties":{"osm_id":"328415017","tag":{"amenity":"recycling","recycling:glass_bottles":"yes","recycling:plastic_bottles":"yes","recycling_type":"container"}},"type":"Feature"},
	{"geometry":{"coordinates":[-1.704922,48.03436],"type":"Point"},"properties":{"osm_id":"333536761","tag":{"amenity":"recycling","recycling:glass_bottles":"yes","recycling_type":"container"}},"type":"Feature"},
	{"geometry":{"coordinates":[-1.704671,48.035119],"type":"Point"},"properties":{"osm_id":"333536822","tag":{"amenity":"recycling","recycling:glass_bottles":"yes","recycling_type":"container"}},"type":"Feature"},
	{"geometry":{"coordinates":[-1.703788,48.034244],"type":"Point"},"properties":{"name":"D\u00c3\u00a9ch\u00c3\u00a8terie","osm_id":"333536829","tag":{"amenity":"recycling","recycling_type":"centre"}},"type":"Feature"},
	{"geometry":{"coordinates":[-1.707791,48.016013],"type":"Point"},"properties":{"osm_id":"349597538","tag":{"amenity":"recycling","recycling:glass_bottles":"yes","recycling_type":"container"}},"type":"Feature"},
	{"geometry":{"coordinates":[-1.708696,48.013797],"type":"Point"},"properties":{"osm_id":"351094021","tag":{"amenity":"recycling","recycling:glass_bottles":"yes","recycling_type":"container"}},"type":"Feature"},
	{"geometry":{"coordinates":[-1.706495,48.018367],"type":"Point"},"properties":{"osm_id":"355467189","tag":{"amenity":"recycling","recycling:glass_bottles":"yes","recycling_type":"container"}},"type":"Feature"},
	{"geometry":{"coordinates":[-1.701014,48.004529],"type":"Point"},"properties":{"osm_id":"361018337","tag":{"amenity":"recycling","recycling:glass_bottles":"yes","recycling_type":"container"}},"type":"Feature"},
	{"geometry":{"coordinates":[-1.69757,47.999513],"type":"Point"},"properties":{"osm_id":"361018380","tag":{"amenity":"recycling","recycling:glass_bottles":"yes","recycling_type":"container"}},"type":"Feature"},
	{"geometry":{"coordinates":[-1.755888,47.99241],"type":"Point"},"properties":{"osm_id":"479374123","tag":{"amenity":"recycling","recycling:glass":"yes"}},"type":"Feature"},
	{"geometry":{"coordinates":[-1.740836,48.044378],"type":"Point"},"properties":{"osm_id":"517768256","tag":{"amenity":"recycling","recycling:cans":"yes","recycling:glass_bottles":"yes","recycling_type":"container"}},"type":"Feature"},
	{"geometry":{"coordinates":[-1.730088,48.023109],"type":"Point"},"properties":{"osm_id":"540186085","tag":{"amenity":"recycling","recycling:glass_bottles":"yes","recycling_type":"container"}},"type":"Feature"},
	{"geometry":{"coordinates":[-1.67171,48.038335],"type":"Point"},"properties":{"osm_id":"540306978","tag":{"amenity":"recycling","recycling:glass_bottles":"yes","recycling_type":"container"}},"type":"Feature"},
	{"geometry":{"coordinates":[-1.671035,48.038531],"type":"Point"},"properties":{"osm_id":"540306996","tag":{"amenity":"recycling","recycling:glass_bottles":"yes","recycling_type":"container"}},"type":"Feature"},
	{"geometry":{"coordinates":[-1.752084,48.023012],"type":"Point"},"properties":{"osm_id":"823494986","tag":{"amenity":"waste_basket"}},"type":"Feature"},
	{"geometry":{"coordinates":[-1.74494,48.025172],"type":"Point"},"properties":{"osm_id":"823494993","tag":{"amenity":"waste_basket"}},"type":"Feature"},
	{"geometry":{"coordinates":[-1.753696,48.027635],"type":"Point"},"properties":{"osm_id":"1094824399","tag":{"amenity":"recycling","recycling:glass_bottles":"yes","recycling_type":"container"}},"type":"Feature"},
	{"geometry":{"coordinates":[-1.753707,48.02761],"type":"Point"},"properties":{"osm_id":"1094824416","tag":{"amenity":"waste_basket"}},"type":"Feature"},
	{"geometry":{"coordinates":[-1.757803,48.027257],"type":"Point"},"properties":{"osm_id":"1095960547","tag":{"amenity":"recycling","recycling:glass_bottles":"yes","recycling_type":"container"}},"type":"Feature"},
	{"geometry":{"coordinates":[-1.751764,48.028491],"type":"Point"},"properties":{"osm_id":"1116468063","tag":{"amenity":"waste_basket"}},"type":"Feature"},
	{"geometry":{"coordinates":[-1.742588,48.027388],"type":"Point"},"properties":{"osm_id":"1116468072","tag":{"amenity":"waste_basket"}},"type":"Feature"},
	{"geometry":{"coordinates":[-1.74562,48.028365],"type":"Point"},"properties":{"osm_id":"1116468078","tag":{"amenity":"waste_basket"}},"type":"Feature"},
	{"geometry":{"coordinates":[-1.746624,48.024401],"type":"Point"},"properties":{"osm_id":"1116468093","tag":{"amenity":"waste_basket"}},"type":"Feature"},
	{"geometry":{"coordinates":[-1.75752,48.024163],"type":"Point"},"properties":{"osm_id":"1116468111","tag":{"amenity":"waste_basket"}},"type":"Feature"},
	{"geometry":{"coordinates":[-1.739401,48.027688],"type":"Point"},"properties":{"osm_id":"1116468124","tag":{"amenity":"waste_basket"}},"type":"Feature"},
	{"geometry":{"coordinates":[-1.743516,48.027407],"type":"Point"},"properties":{"osm_id":"1116468129","tag":{"amenity":"waste_basket"}},"type":"Feature"},
	{"geometry":{"coordinates":[-1.744482,48.025583],"type":"Point"},"properties":{"osm_id":"1116468131","tag":{"amenity":"waste_basket"}},"type":"Feature"},
	{"geometry":{"coordinates":[-1.750087,48.023719],"type":"Point"},"properties":{"osm_id":"1116468133","tag":{"amenity":"waste_basket"}},"type":"Feature"},
	{"geometry":{"coordinates":[-1.740892,48.0275],"type":"Point"},"properties":{"osm_id":"1116468144","tag":{"amenity":"waste_basket"}},"type":"Feature"},
	{"geometry":{"coordinates":[-1.746783,48.024504],"type":"Point"},"properties":{"osm_id":"1116468151","tag":{"amenity":"waste_basket"}},"type":"Feature"},
	{"geometry":{"coordinates":[-1.751918,48.028632],"type":"Point"},"properties":{"osm_id":"1116468160","tag":{"amenity":"waste_basket"}},"type":"Feature"},
	{"geometry":{"coordinates":[-1.743416,48.043906],"type":"Point"},"properties":{"osm_id":"1117046087","tag":{"amenity":"waste_basket"}},"type":"Feature"},
	{"geometry":{"coordinates":[-1.742348,48.044394],"type":"Point"},"properties":{"osm_id":"1117046649","tag":{"amenity":"waste_basket"}},"type":"Feature"},
	{"geometry":{"coordinates":[-1.744305,48.022065],"type":"Point"},"properties":{"osm_id":"1125920598","tag":{"amenity":"waste_basket"}},"type":"Feature"},
	{"geometry":{"coordinates":[-1.746079,48.024369],"type":"Point"},"properties":{"osm_id":"1125920599","tag":{"amenity":"waste_basket"}},"type":"Feature"},
	{"geometry":{"coordinates":[-1.743118,48.022396],"type":"Point"},"properties":{"osm_id":"1125920600","tag":{"amenity":"waste_basket"}},"type":"Feature"},
	{"geometry":{"coordinates":[-1.744249,48.022543],"type":"Point"},"properties":{"osm_id":"1125920601","tag":{"amenity":"waste_basket"}},"type":"Feature"},
	{"geometry":{"coordinates":[-1.736116,48.031419],"type":"Point"},"properties":{"osm_id":"1125920611","tag":{"amenity":"waste_basket"}},"type":"Feature"},
	{"geometry":{"coordinates":[-1.74415,48.021639],"type":"Point"},"properties":{"osm_id":"1125920622","tag":{"amenity":"waste_basket"}},"type":"Feature"},
	{"geometry":{"coordinates":[-1.743119,48.022556],"type":"Point"},"properties":{"osm_id":"1125920623","tag":{"amenity":"waste_basket"}},"type":"Feature"},
	{"geometry":{"coordinates":[-1.736153,48.031658],"type":"Point"},"properties":{"osm_id":"1125920628","tag":{"amenity":"waste_basket"}},"type":"Feature"},
	{"geometry":{"coordinates":[-1.745073,48.026718],"type":"Point"},"properties":{"osm_id":"1126228268","tag":{"amenity":"waste_basket"}},"type":"Feature"},
	{"geometry":{"coordinates":[-1.73998,48.030301],"type":"Point"},"properties":{"osm_id":"1126251403","tag":{"amenity":"waste_basket"}},"type":"Feature"},
	{"geometry":{"coordinates":[-1.741329,48.03007],"type":"Point"},"properties":{"osm_id":"1126251411","tag":{"amenity":"waste_basket"}},"type":"Feature"},
	{"geometry":{"coordinates":[-1.739377,48.046743],"type":"Point"},"properties":{"osm_id":"1127815159","tag":{"amenity":"waste_basket"}},"type":"Feature"},
	{"geometry":{"coordinates":[-1.739206,48.045847],"type":"Point"},"properties":{"osm_id":"1127815166","tag":{"amenity":"waste_basket"}},"type":"Feature"},
	{"geometry":{"coordinates":[-1.729126,48.02553],"type":"Point"},"properties":{"osm_id":"1127815187","tag":{"amenity":"waste_basket"}},"type":"Feature"},
	{"geometry":{"coordinates":[-1.741469,48.046872],"type":"Point"},"properties":{"osm_id":"1127815190","tag":{"amenity":"waste_basket"}},"type":"Feature"},
	{"geometry":{"coordinates":[-1.737137,48.048705],"type":"Point"},"properties":{"osm_id":"1127815200","tag":{"amenity":"waste_basket"}},"type":"Feature"},
	{"geometry":{"coordinates":[-1.739668,48.046994],"type":"Point"},"properties":{"osm_id":"1127815220","tag":{"amenity":"waste_basket"}},"type":"Feature"},
	{"geometry":{"coordinates":[-1.728887,48.026695],"type":"Point"},"properties":{"osm_id":"1127815240","tag":{"amenity":"waste_basket"}},"type":"Feature"},
	{"geometry":{"coordinates":[-1.739428,48.046354],"type":"Point"},"properties":{"osm_id":"1127815246","tag":{"amenity":"waste_basket"}},"type":"Feature"},
	{"geometry":{"coordinates":[-1.755186,48.040382],"type":"Point"},"properties":{"osm_id":"1152372646","tag":{"amenity":"waste_basket"}},"type":"Feature"},
	{"geometry":{"coordinates":[-1.751602,48.032614],"type":"Point"},"properties":{"osm_id":"1152372660","tag":{"amenity":"waste_basket"}},"type":"Feature"},
	{"geometry":{"coordinates":[-1.736197,48.027892],"type":"Point"},"properties":{"osm_id":"1152372663","tag":{"amenity":"waste_basket"}},"type":"Feature"},
	{"geometry":{"coordinates":[-1.748561,48.021982],"type":"Point"},"properties":{"osm_id":"1724979687","tag":{"amenity":"recycling","operator":"Rennes M\u00c3\u00a9tropole","recycling:wood":"yes","recycling_type":"container"}},"type":"Feature"},
	{"geometry":{"coordinates":[-1.748799,48.022472],"type":"Point"},"properties":{"osm_id":"1725165868","tag":{"amenity":"recycling","recycling:glass_bottles":"yes","recycling_type":"container"}},"type":"Feature"},
	{"geometry":{"coordinates":[-1.730674,48.030047],"type":"Point"},"properties":{"osm_id":"1746787796","tag":{"amenity":"recycling","operator":"Rennes M\u00c3\u00a9tropole","recycling:wood":"yes","recycling_type":"container"}},"type":"Feature"},
	{"geometry":{"coordinates":[-1.737713,48.026597],"type":"Point"},"properties":{"osm_id":"1796683226","tag":{"amenity":"waste_basket"}},"type":"Feature"},
	{"geometry":{"coordinates":[-1.711656,48.013583],"type":"Point"},"properties":{"osm_id":"1799667572","tag":{"amenity":"recycling","recycling:glass_bottles":"yes","recycling_type":"container"}},"type":"Feature"},
	{"geometry":{"coordinates":[-1.707621,48.013327],"type":"Point"},"properties":{"osm_id":"2727381184","tag":{"amenity":"recycling","recycling:glass_bottles":"yes","recycling_type":"container"}},"type":"Feature"},
	{"geometry":{"coordinates":[-1.704567,48.017093],"type":"Point"},"properties":{"osm_id":"2727381189","tag":{"amenity":"recycling","recycling:glass_bottles":"yes","recycling_type":"container"}},"type":"Feature"},
	{"geometry":{"coordinates":[-1.671248,47.998978],"type":"Point"},"properties":{"osm_id":"2793128010","tag":{"amenity":"recycling","recycling:glass_bottles":"yes","recycling_type":"container"}},"type":"Feature"},
	{"geometry":{"coordinates":[-1.742633,48.02765],"type":"Point"},"properties":{"osm_id":"2793128126","tag":{"amenity":"recycling","recycling:glass_bottles":"yes","recycling_type":"container"}},"type":"Feature"},
	{"geometry":{"coordinates":[-1.754262,48.029433],"type":"Point"},"properties":{"osm_id":"2793128150","tag":{"amenity":"recycling","recycling:glass_bottles":"yes","recycling_type":"container"}},"type":"Feature"},
	{"geometry":{"coordinates":[-1.718663,48.033553],"type":"Point"},"properties":{"osm_id":"2793128187","tag":{"amenity":"recycling","recycling:glass_bottles":"yes","recycling_type":"container"}},"type":"Feature"},
	{"geometry":{"coordinates":[-1.704762,48.034467],"type":"Point"},"properties":{"osm_id":"2793128198","tag":{"amenity":"waste_disposal"}},"type":"Feature"},
	{"geometry":{"coordinates":[-1.710702,48.035487],"type":"Point"},"properties":{"osm_id":"2793128208","tag":{"amenity":"recycling","recycling:glass_bottles":"yes","recycling_type":"container"}},"type":"Feature"},
	{"geometry":{"coordinates":[-1.67216,48.037665],"type":"Point"},"properties":{"osm_id":"2793128220","tag":{"amenity":"waste_disposal"}},"type":"Feature"},
	{"geometry":{"coordinates":[-1.671278,48.037983],"type":"Point"},"properties":{"osm_id":"2793128226","tag":{"amenity":"recycling","recycling:glass_bottles":"yes","recycling_type":"container"}},"type":"Feature"},
	{"geometry":{"coordinates":[-1.670532,48.038543],"type":"Point"},"properties":{"osm_id":"2793128233","tag":{"amenity":"waste_disposal"}},"type":"Feature"},
	{"geometry":{"coordinates":[-1.676983,48.039741],"type":"Point"},"properties":{"osm_id":"2793128238","tag":{"amenity":"recycling","recycling:glass_bottles":"yes","recycling_type":"container"}},"type":"Feature"},
	{"geometry":{"coordinates":[-1.704689,48.041069],"type":"Point"},"properties":{"osm_id":"2793128259","tag":{"amenity":"waste_disposal"}},"type":"Feature"},
	{"geometry":{"coordinates":[-1.714204,48.043663],"type":"Point"},"properties":{"osm_id":"2793128295","tag":{"amenity":"recycling","recycling:glass_bottles":"yes","recycling_type":"container"}},"type":"Feature"},
	{"geometry":{"coordinates":[-1.741383,48.045161],"type":"Point"},"properties":{"osm_id":"2793128303","tag":{"amenity":"recycling","recycling:glass_bottles":"yes","recycling_type":"container"}},"type":"Feature"},
	{"geometry":{"coordinates":[-1.741947,48.047091],"type":"Point"},"properties":{"osm_id":"2793128318","tag":{"amenity":"recycling","recycling:glass_bottles":"yes","recycling_type":"container"}},"type":"Feature"},
	{"geometry":{"coordinates":[-1.67366,48.038996],"type":"Point"},"properties":{"osm_id":"4020752243","ref":"_CMP 0122","tag":{"amenity":"recycling","recycling:operator":"Rennes M\u00c3\u00a9tropole","recycling:organic":"yes","recycling_type":"container"}},"type":"Feature"},
	{"geometry":{"coordinates":[-1.748637,48.021907],"type":"Point"},"properties":{"osm_id":"4020752283","ref":"_CMP 0162","tag":{"amenity":"recycling","recycling:operator":"Rennes M\u00c3\u00a9tropole","recycling:organic":"yes","recycling_type":"container"}},"type":"Feature"},
	{"geometry":{"coordinates":[-1.730861,48.029984],"type":"Point"},"properties":{"osm_id":"4020753030","ref":"_CMP 0209","tag":{"amenity":"recycling","recycling:operator":"Rennes M\u00c3\u00a9tropole","recycling:organic":"yes","recycling_type":"container"}},"type":"Feature"},
	{"geometry":{"coordinates":[-1.743194,48.045122],"type":"Point"},"properties":{"osm_id":"4020753033","ref":"_CMP 0212","tag":{"amenity":"recycling","recycling:operator":"Rennes M\u00c3\u00a9tropole","recycling:organic":"yes","recycling_type":"container"}},"type":"Feature"},
	{"geometry":{"coordinates":[-1.755407,48.02486],"type":"Point"},"properties":{"osm_id":"4020753061","ref":"_CMP 0240","tag":{"amenity":"recycling","recycling:operator":"Rennes M\u00c3\u00a9tropole","recycling:organic":"yes","recycling_type":"container"}},"type":"Feature"},
	{"geometry":{"coordinates":[-1.67301,48.003189],"type":"Point"},"properties":{"osm_id":"4020753083","ref":"_CMP 0262","tag":{"amenity":"recycling","recycling:operator":"Rennes M\u00c3\u00a9tropole","recycling:organic":"yes","recycling_type":"container"}},"type":"Feature"},
	{"geometry":{"coordinates":[-1.737419,48.024968],"type":"Point"},"properties":{"osm_id":"4020753405","ref":"_CMP 0284","tag":{"amenity":"recycling","recycling:operator":"Rennes M\u00c3\u00a9tropole","recycling:organic":"yes","recycling_type":"container"}},"type":"Feature"},
	{"geometry":{"coordinates":[-1.670126,48.037527],"type":"Point"},"properties":{"osm_id":"4020753417","ref":"_CMP 0296","tag":{"amenity":"recycling","recycling:operator":"Rennes M\u00c3\u00a9tropole","recycling:organic":"yes","recycling_type":"container"}},"type":"Feature"},
	{"geometry":{"coordinates":[-1.735663,48.023997],"type":"Point"},"properties":{"osm_id":"4020753426","ref":"_CMP 0305","tag":{"amenity":"recycling","recycling:operator":"Rennes M\u00c3\u00a9tropole","recycling:organic":"yes","recycling_type":"container"}},"type":"Feature"},
	{"geometry":{"coordinates":[-1.701038,48.012156],"type":"Point"},"properties":{"osm_id":"4020753434","ref":"_CMP 0313","tag":{"amenity":"recycling","recycling:operator":"Rennes M\u00c3\u00a9tropole","recycling:organic":"yes","recycling_type":"container"}},"type":"Feature"},
	{"geometry":{"coordinates":[-1.670855,48.002846],"type":"Point"},"properties":{"osm_id":"4020753448","ref":"_CMP 0327","tag":{"amenity":"recycling","recycling:operator":"Rennes M\u00c3\u00a9tropole","recycling:organic":"yes","recycling_type":"container"}},"type":"Feature"},
	{"geometry":{"coordinates":[-1.757394,48.025318],"type":"Point"},"properties":{"osm_id":"4020753453","ref":"_CMP 0333","tag":{"amenity":"recycling","recycling:operator":"Rennes M\u00c3\u00a9tropole","recycling:organic":"yes","recycling_type":"container"}},"type":"Feature"},
	{"geometry":{"coordinates":[-1.74587,48.022845],"type":"Point"},"properties":{"osm_id":"4020753487","ref":"_CMP 0367","tag":{"amenity":"recycling","recycling:operator":"Rennes M\u00c3\u00a9tropole","recycling:organic":"yes","recycling_type":"container"}},"type":"Feature"},
	{"geometry":{"coordinates":[-1.702617,48.01154],"type":"Point"},"properties":{"osm_id":"4020753499","ref":"_CMP 0379","tag":{"amenity":"recycling","recycling:operator":"Rennes M\u00c3\u00a9tropole","recycling:organic":"yes","recycling_type":"container"}},"type":"Feature"},
	{"geometry":{"coordinates":[-1.70324,48.012901],"type":"Point"},"properties":{"osm_id":"4311435342","tag":{"amenity":"recycling","recycling:glass_bottles":"yes","recycling_type":"container"}},"type":"Feature"},
	{"geometry":{"coordinates":[-1.670516,47.994263],"type":"Point"},"properties":{"osm_id":"4836398409","tag":{"amenity":"recycling","recycling:glass_bottles":"yes","recycling_type":"container"}},"type":"Feature"},
	{"geometry":{"coordinates":[-1.703156,48.011729],"type":"Point"},"properties":{"osm_id":"5584416451","tag":{"amenity":"recycling","recycling:organic":"yes","recycling_type":"container"}},"type":"Feature"},
	{"geometry":{"coordinates":[-1.7514,47.994415],"type":"Point"},"properties":{"osm_id":"5630674269","tag":{"amenity":"waste_basket"}},"type":"Feature"},
	{"geometry":{"coordinates":[-1.753852,47.992682],"type":"Point"},"properties":{"osm_id":"5630674537","tag":{"amenity":"waste_basket"}},"type":"Feature"},
	{"geometry":{"coordinates":[-1.753178,47.993473],"type":"Point"},"properties":{"osm_id":"5630674538","tag":{"amenity":"waste_basket"}},"type":"Feature"},
	{"geometry":{"coordinates":[-1.751455,47.9945],"type":"Point"},"properties":{"osm_id":"5630674560","tag":{"amenity":"waste_basket"}},"type":"Feature"},
	{"geometry":{"coordinates":[-1.751005,48.025095],"type":"Point"},"properties":{"osm_id":"5868632489","tag":{"amenity":"recycling","recycling:clothes":"yes","recycling:glass_bottles":"yes","recycling_type":"container"}},"type":"Feature"},
	{"geometry":{"coordinates":[-1.738566,48.023331],"type":"Point"},"properties":{"osm_id":"6268807941","tag":{"amenity":"waste_basket","wheelchair":"yes"}},"type":"Feature"},
	{"geometry":{"coordinates":[-1.698563,48.010353],"type":"Point"},"properties":{"osm_id":"6356226408","tag":{"amenity":"waste_basket","waste":"trash"}},"type":"Feature"},
	{"geometry":{"coordinates":[-1.757281,48.035986],"type":"Point"},"properties":{"osm_id":"6790017845","tag":{"amenity":"recycling","recycling_type":"container"}},"type":"Feature"},
	{"geometry":{"coordinates":[-1.703034,48.013035],"type":"Point"},"properties":{"osm_id":"7641058806","tag":{"amenity":"recycling","operator":"Le Relais","recycling:clothes":"yes","recycling_type":"container"}},"type":"Feature"},
	{"geometry":{"coordinates":[-1.711663,48.042007],"type":"Point"},"properties":{"osm_id":"7645965447","tag":{"amenity":"recycling","operator":"Le Relais","recycling:clothes":"yes","recycling:shoes":"yes","recycling_type":"container"}},"type":"Feature"}
]
}
