{
"type": "FeatureCollection",
"features": [
	{"geometry":{"coordinates":[-1.738396,47.92894],"type":"Point"},"properties":{"osm_id":"741916639","tag":{"amenity":"recycling","recycling:glass":"yes","recycling_type":"container"}},"type":"Feature"},
	{"geometry":{"coordinates":[-1.736759,47.929125],"type":"Point"},"properties":{"osm_id":"742958164","tag":{"access":"yes","amenity":"recycling","fee":"no","operator":"Syndicat mixte intercommunal de collecte et de traitement des ordures m\u00c3\u00a9nag\u00c3\u00a8res des pays de Vilaine","recycling:clothes":"no","recycling:glass":"yes","recycling_type":"container","wheelchair":"no"}},"type":"Feature"},
	{"geometry":{"coordinates":[-1.749817,47.928245],"type":"Point"},"properties":{"osm_id":"833660253","tag":{"amenity":"recycling","recycling:glass":"yes","recycling:paper":"yes","recycling_type":"container"}},"type":"Feature"},
	{"geometry":{"coordinates":[-1.741059,47.925441],"type":"Point"},"properties":{"osm_id":"842954300","tag":{"amenity":"waste_basket"}},"type":"Feature"},
	{"geometry":{"coordinates":[-1.742896,47.930257],"type":"Point"},"properties":{"osm_id":"846194914","tag":{"access":"yes","amenity":"recycling","fee":"no","operator":"Syndicat mixte intercommunal de collecte et de traitement des ordures m\u00c3\u00a9nag\u00c3\u00a8res des Pays de Vilaine","recycling:cans":"no","recycling:glass":"yes","recycling_type":"container","wheelchair":"no"}},"type":"Feature"},
	{"geometry":{"coordinates":[-1.743919,47.898777],"type":"Point"},"properties":{"osm_id":"3370433055","tag":{"amenity":"recycling","recycling:glass":"yes","recycling:magazines":"yes","recycling:paper":"yes","recycling_type":"container"}},"type":"Feature"},
	{"geometry":{"coordinates":[-1.749554,47.893843],"type":"Point"},"properties":{"osm_id":"5178843367","tag":{"amenity":"waste_basket","wheelchair":"yes"}},"type":"Feature"},
	{"geometry":{"coordinates":[-1.685339,47.89174],"type":"Point"},"properties":{"osm_id":"5796664853","tag":{"access":"yes","amenity":"recycling","fee":"no","operator":"Syndicat mixte intercommunal de collecte et de traitement des ordures m\u00c3\u00a9nag\u00c3\u00a8res des pays de Vilaine","recycling:paper":"yes","recycling_type":"container","wheelchair":"no"}},"type":"Feature"},
	{"geometry":{"coordinates":[-1.685343,47.891774],"type":"Point"},"properties":{"osm_id":"5796664854","tag":{"access":"yes","amenity":"recycling","fee":"no","operator":"Syndicat mixte intercommunal de collecte et de traitement des ordures m\u00c3\u00a9nag\u00c3\u00a8res des pays de Vilaine","recycling:glass":"yes","recycling_type":"container","wheelchair":"no"}},"type":"Feature"},
	{"geometry":{"coordinates":[-1.685348,47.891808],"type":"Point"},"properties":{"osm_id":"5796664855","tag":{"access":"yes","amenity":"recycling","fee":"no","operator":"Syndicat mixte intercommunal de collecte et de traitement des ordures m\u00c3\u00a9nag\u00c3\u00a8res des pays de Vilaine","recycling:glass":"yes","recycling_type":"container","wheelchair":"no"}},"type":"Feature"},
	{"geometry":{"coordinates":[-1.736842,47.929125],"type":"Point"},"properties":{"osm_id":"5854211869","tag":{"access":"yes","amenity":"recycling","fee":"no","operator":"Syndicat mixte intercommunal de collecte et de traitement des ordures m\u00c3\u00a9nag\u00c3\u00a8res des pays de Vilaine","recycling:clothes":"no","recycling:paper":"yes","recycling_type":"container","wheelchair":"no"}},"type":"Feature"},
	{"geometry":{"coordinates":[-1.736799,47.929126],"type":"Point"},"properties":{"osm_id":"5854211870","tag":{"access":"yes","amenity":"recycling","fee":"no","operator":"Le Relais","recycling:clothes":"yes","recycling:shoes":"yes","recycling:textiles":"yes","recycling_type":"container","wheelchair":"no"}},"type":"Feature"},
	{"geometry":{"coordinates":[-1.736719,47.929139],"type":"Point"},"properties":{"osm_id":"5854211872","tag":{"amenity":"waste_basket","wheelchair":"yes"}},"type":"Feature"},
	{"geometry":{"coordinates":[-1.736948,47.928683],"type":"Point"},"properties":{"osm_id":"5854296343","tag":{"amenity":"waste_basket","wheelchair":"yes"}},"type":"Feature"},
	{"geometry":{"coordinates":[-1.7492,47.894478],"type":"Point"},"properties":{"osm_id":"6402532203","tag":{"access":"yes","amenity":"recycling","fee":"no","recycling:clothes":"yes","recycling:shoes":"yes","recycling:textiles":"yes","recycling_type":"container","wheelchair":"no"}},"type":"Feature"},
	{"geometry":{"coordinates":[-1.742853,47.930247],"type":"Point"},"properties":{"osm_id":"6448249397","tag":{"access":"yes","amenity":"recycling","fee":"no","operator":"Syndicat mixte intercommunal de collecte et de traitement des ordures m\u00c3\u00a9nag\u00c3\u00a8res des Pays de Vilaine","recycling:cans":"no","recycling:paper":"yes","recycling_type":"container","wheelchair":"no"}},"type":"Feature"},
	{"geometry":{"coordinates":[-1.742956,47.930277],"type":"Point"},"properties":{"osm_id":"6448249398","tag":{"access":"yes","amenity":"recycling","fee":"no","operator":"Le Relais","recycling:cans":"no","recycling:clothes":"yes","recycling:shoes":"yes","recycling:textiles":"yes","recycling_type":"container","wheelchair":"no"}},"type":"Feature"},
	{"geometry":{"coordinates":[-1.742932,47.93025],"type":"Point"},"properties":{"osm_id":"6448249399","tag":{"amenity":"waste_basket","wheelchair":"yes"}},"type":"Feature"},
	{"geometry":{"coordinates":[-1.747011,47.926368],"type":"Point"},"properties":{"osm_id":"6501894686","tag":{"amenity":"waste_basket"}},"type":"Feature"}
]
}
