{
"type": "FeatureCollection",
"lastupdate": "2020-08-06T00:00:00Z",
"features": [
	{"geometry":{"coordinates":[-1.683413,47.841911],"type":"Point"},"properties":{"osm_id":"5121805205","tag":{"amenity":"waste_basket","wheelchair":"yes"}},"type":"Feature"},
	{"geometry":{"coordinates":[-1.683312,47.842696],"type":"Point"},"properties":{"osm_id":"5121819416","tag":{"amenity":"waste_basket","wheelchair":"yes"}},"type":"Feature"},
	{"geometry":{"coordinates":[-1.682892,47.841925],"type":"Point"},"properties":{"osm_id":"5121854609","tag":{"amenity":"waste_basket","waste":"trash","wheelchair":"yes"}},"type":"Feature"},
	{"geometry":{"coordinates":[-1.682002,47.842047],"type":"Point"},"properties":{"osm_id":"5121879154","tag":{"amenity":"waste_basket","waste":"trash","wheelchair":"yes"}},"type":"Feature"},
	{"geometry":{"coordinates":[-1.680212,47.843186],"type":"Point"},"properties":{"osm_id":"5121928869","tag":{"access":"yes","amenity":"recycling","fee":"no","operator":"Syndicat mixte intercommunal de collecte et de traitement des ordures m\u00e9nag\u00e8res des Pays de Vilaine","recycling:cans":"yes","recycling:cardboard":"yes","recycling:plastic":"yes","recycling_type":"container","wheelchair":"no"}},"type":"Feature"},
	{"geometry":{"coordinates":[-1.680507,47.84253],"type":"Point"},"properties":{"osm_id":"5122184602","tag":{"amenity":"waste_basket","waste":"trash","wheelchair":"yes"}},"type":"Feature"},
	{"geometry":{"coordinates":[-1.681012,47.842334],"type":"Point"},"properties":{"osm_id":"5122184605","tag":{"amenity":"waste_basket","waste":"trash","wheelchair":"yes"}},"type":"Feature"},
	{"geometry":{"coordinates":[-1.688603,47.843485],"type":"Point"},"properties":{"osm_id":"5122849253","tag":{"amenity":"waste_basket","wheelchair":"yes"}},"type":"Feature"},
	{"geometry":{"coordinates":[-1.688616,47.843662],"type":"Point"},"properties":{"osm_id":"5122849255","tag":{"amenity":"waste_basket","waste":"trash","wheelchair":"yes"}},"type":"Feature"},
	{"geometry":{"coordinates":[-1.688306,47.843992],"type":"Point"},"properties":{"osm_id":"5122849256","tag":{"amenity":"waste_basket","wheelchair":"yes"}},"type":"Feature"},
	{"geometry":{"coordinates":[-1.688318,47.843798],"type":"Point"},"properties":{"osm_id":"5122849267","tag":{"amenity":"waste_basket","wheelchair":"yes"}},"type":"Feature"},
	{"geometry":{"coordinates":[-1.679811,47.843267],"type":"Point"},"properties":{"osm_id":"5122991637","tag":{"amenity":"waste_basket","wheelchair":"yes"}},"type":"Feature"},
	{"geometry":{"coordinates":[-1.680258,47.843185],"type":"Point"},"properties":{"osm_id":"5122991726","tag":{"access":"yes","amenity":"recycling","fee":"no","operator":"Syndicat mixte intercommunal de collecte et de traitement des ordures m\u00e9nag\u00e8res des Pays de Vilaine","recycling:cans":"yes","recycling:cardboard":"yes","recycling:paper":"yes","recycling:plastic":"yes","recycling_type":"container","wheelchair":"no"}},"type":"Feature"},
	{"geometry":{"coordinates":[-1.680387,47.841425],"type":"Point"},"properties":{"osm_id":"5125343918","tag":{"amenity":"waste_basket","wheelchair":"yes"}},"type":"Feature"},
	{"geometry":{"coordinates":[-1.686562,47.843836],"type":"Point"},"properties":{"osm_id":"5125393821","tag":{"access":"yes","amenity":"recycling","fee":"no","operator":"Syndicat mixte intercommunal de collecte et de traitement des ordures m\u00e9nag\u00e8res des Pays de Vilaine","recycling:cans":"yes","recycling:cardboard":"yes","recycling:plastic":"yes","recycling_type":"container","wheelchair":"no"}},"type":"Feature"},
	{"geometry":{"coordinates":[-1.686561,47.843873],"type":"Point"},"properties":{"osm_id":"5125393822","tag":{"access":"yes","amenity":"recycling","fee":"no","operator":"Syndicat mixte intercommunal de collecte et de traitement des ordures m\u00e9nag\u00e8res des Pays de Vilaine","recycling:glass":"yes","recycling_type":"container","wheelchair":"no"}},"type":"Feature"},
	{"geometry":{"coordinates":[-1.680041,47.842722],"type":"Point"},"properties":{"osm_id":"5126500687","tag":{"amenity":"waste_basket","wheelchair":"yes"}},"type":"Feature"},
	{"geometry":{"coordinates":[-1.679942,47.854031],"type":"Point"},"properties":{"osm_id":"5131690742","tag":{"access":"yes","amenity":"recycling","fee":"no","operator":"Syndicat mixte intercommunal de collecte et de traitement des ordures m\u00e9nag\u00e8res des Pays de Vilaine","recycling:glass":"yes","recycling_type":"container","wheelchair":"no"}},"type":"Feature"},
	{"geometry":{"coordinates":[-1.6799,47.854024],"type":"Point"},"properties":{"osm_id":"5131690743","tag":{"access":"yes","amenity":"recycling","fee":"no","operator":"Syndicat mixte intercommunal de collecte et de traitement des ordures m\u00e9nag\u00e8res des Pays de Vilaine","recycling:paper":"yes","recycling_type":"container","wheelchair":"no"}},"type":"Feature"},
	{"geometry":{"coordinates":[-1.68136,47.84307],"type":"Point"},"properties":{"osm_id":"5135805893","tag":{"amenity":"waste_basket","wheelchair":"yes"}},"type":"Feature"},
	{"geometry":{"coordinates":[-1.681272,47.841046],"type":"Point"},"properties":{"osm_id":"5138475519","tag":{"amenity":"waste_basket","wheelchair":"yes"}},"type":"Feature"},
	{"geometry":{"coordinates":[-1.681426,47.840775],"type":"Point"},"properties":{"osm_id":"5138477521","tag":{"amenity":"waste_basket","wheelchair":"yes"}},"type":"Feature"},
	{"geometry":{"coordinates":[-1.681499,47.840765],"type":"Point"},"properties":{"osm_id":"5138477523","tag":{"access":"yes","amenity":"recycling","fee":"no","operator":"Syndicat mixte intercommunal de collecte et de traitement des ordures m\u00e9nag\u00e8res des Pays de Vilaine","recycling:cans":"yes","recycling:cardboard":"yes","recycling:plastic":"yes","recycling_type":"container","wheelchair":"no"}},"type":"Feature"},
	{"geometry":{"coordinates":[-1.681114,47.841404],"type":"Point"},"properties":{"osm_id":"5138501920","tag":{"amenity":"waste_basket","wheelchair":"yes"}},"type":"Feature"},
	{"geometry":{"coordinates":[-1.688222,47.844758],"type":"Point"},"properties":{"osm_id":"5139866200","tag":{"amenity":"waste_basket","waste":"trash","wheelchair":"yes"}},"type":"Feature"},
	{"geometry":{"coordinates":[-1.680165,47.841829],"type":"Point"},"properties":{"osm_id":"5141347570","tag":{"amenity":"waste_basket","waste":"trash","wheelchair":"yes"}},"type":"Feature"},
	{"geometry":{"coordinates":[-1.689681,47.85336],"type":"Point"},"properties":{"osm_id":"5141470784","tag":{"amenity":"waste_basket","wheelchair":"yes"}},"type":"Feature"},
	{"geometry":{"coordinates":[-1.68978,47.853226],"type":"Point"},"properties":{"osm_id":"5141470786","tag":{"amenity":"waste_basket","wheelchair":"yes"}},"type":"Feature"},
	{"geometry":{"coordinates":[-1.68382,47.842694],"type":"Point"},"properties":{"osm_id":"5143590854","tag":{"amenity":"waste_basket","wheelchair":"yes"}},"type":"Feature"},
	{"geometry":{"coordinates":[-1.687113,47.8434],"type":"Point"},"properties":{"osm_id":"5161263290","tag":{"amenity":"waste_basket","waste":"trash","wheelchair":"no"}},"type":"Feature"},
	{"geometry":{"coordinates":[-1.681016,47.851018],"type":"Point"},"properties":{"osm_id":"5163731849","tag":{"access":"yes","amenity":"recycling","fee":"no","operator":"Le Relais","recycling:clothes":"yes","recycling:shoes":"yes","recycling:textiles":"yes","recycling_type":"container","wheelchair":"no"}},"type":"Feature"},
	{"geometry":{"coordinates":[-1.685971,47.83292],"type":"Point"},"properties":{"osm_id":"5175241514","tag":{"access":"yes","amenity":"recycling","fee":"no","operator":"Syndicat mixte intercommunal de collecte et de traitement des ordures m\u00e9nag\u00e8res des Pays de Vilaine","recycling:glass":"yes","recycling_type":"container","wheelchair":"no"}},"type":"Feature"},
	{"geometry":{"coordinates":[-1.681522,47.839649],"type":"Point"},"properties":{"osm_id":"5186584984","tag":{"access":"yes","amenity":"recycling","fee":"no","operator":"Syndicat mixte intercommunal de collecte et de traitement des ordures m\u00e9nag\u00e8res des Pays de Vilaine","recycling:glass":"yes","recycling_type":"container","wheelchair":"no"}},"type":"Feature"},
	{"geometry":{"coordinates":[-1.680275,47.843078],"type":"Point"},"properties":{"osm_id":"5222097378","tag":{"amenity":"waste_basket","wheelchair":"yes"}},"type":"Feature"},
	{"geometry":{"coordinates":[-1.683607,47.84527],"type":"Point"},"properties":{"osm_id":"5244886668","tag":{"access":"yes","amenity":"recycling","fee":"no","operator":"Syndicat mixte intercommunal de collecte et de traitement des ordures m\u00e9nag\u00e8res des Pays de Vilaine","recycling:glass_bottles":"yes","recycling:glass_jars":"yes","recycling_type":"container","wheelchair":"no"}},"type":"Feature"},
	{"geometry":{"coordinates":[-1.683628,47.845303],"type":"Point"},"properties":{"osm_id":"5244886669","tag":{"access":"yes","amenity":"recycling","fee":"no","operator":"Syndicat mixte intercommunal de collecte et de traitement des ordures m\u00e9nag\u00e8res des Pays de Vilaine","recycling:cans":"yes","recycling:cardboard":"yes","recycling:paper":"yes","recycling:plastic":"yes","recycling_type":"container","wheelchair":"no"}},"type":"Feature"},
	{"geometry":{"coordinates":[-1.683648,47.845338],"type":"Point"},"properties":{"osm_id":"5244886670","tag":{"access":"yes","amenity":"recycling","fee":"no","operator":"Syndicat mixte intercommunal de collecte et de traitement des ordures m\u00e9nag\u00e8res des Pays de Vilaine","recycling:cans":"yes","recycling:cardboard":"yes","recycling:paper":"yes","recycling:plastic":"yes","recycling_type":"container","wheelchair":"no"}},"type":"Feature"},
	{"geometry":{"coordinates":[-1.683667,47.845368],"type":"Point"},"properties":{"osm_id":"5244886671","tag":{"access":"yes","amenity":"recycling","fee":"no","operator":"Le Relais","recycling:clothes":"yes","recycling:shoes":"yes","recycling:textiles":"yes","recycling_type":"container","wheelchair":"no"}},"type":"Feature"},
	{"geometry":{"coordinates":[-1.683685,47.845419],"type":"Point"},"properties":{"osm_id":"5244886672","tag":{"amenity":"waste_basket","wheelchair":"yes"}},"type":"Feature"},
	{"geometry":{"coordinates":[-1.682063,47.842734],"type":"Point"},"properties":{"osm_id":"5402348311","tag":{"amenity":"waste_basket","wheelchair":"yes"}},"type":"Feature"},
	{"geometry":{"coordinates":[-1.680976,47.851049],"type":"Point"},"properties":{"osm_id":"5457550105","tag":{"access":"yes","amenity":"recycling","fee":"no","operator":"Syndicat mixte intercommunal de collecte et de traitement des ordures m\u00e9nag\u00e8res des Pays de Vilaine","recycling:glass":"yes","recycling_type":"container","wheelchair":"no"}},"type":"Feature"},
	{"geometry":{"coordinates":[-1.680975,47.85108],"type":"Point"},"properties":{"osm_id":"5457550106","tag":{"access":"yes","amenity":"recycling","fee":"no","operator":"Syndicat mixte intercommunal de collecte et de traitement des ordures m\u00e9nag\u00e8res des Pays de Vilaine","recycling:paper":"yes","recycling_type":"container","wheelchair":"no"}},"type":"Feature"},
	{"geometry":{"coordinates":[-1.68256,47.842767],"type":"Point"},"properties":{"osm_id":"5562486841","tag":{"amenity":"waste_basket","waste":"trash","wheelchair":"yes"}},"type":"Feature"},
	{"geometry":{"coordinates":[-1.682471,47.842028],"type":"Point"},"properties":{"osm_id":"5567334303","tag":{"access":"yes","amenity":"recycling","fee":"no","operator":"Syndicat mixte intercommunal de collecte et de traitement des ordures m\u00e9nag\u00e8res des Pays de Vilaine","recycling:glass":"yes","recycling_type":"container","wheelchair":"yes"}},"type":"Feature"},
	{"geometry":{"coordinates":[-1.682432,47.842033],"type":"Point"},"properties":{"osm_id":"5567334304","tag":{"access":"yes","amenity":"recycling","fee":"no","operator":"Syndicat mixte intercommunal de collecte et de traitement des ordures m\u00e9nag\u00e8res des Pays de Vilaine","recycling:paper":"yes","recycling_type":"container","wheelchair":"yes"}},"type":"Feature"},
	{"geometry":{"coordinates":[-1.680211,47.837788],"type":"Point"},"properties":{"osm_id":"5711930633","tag":{"access":"yes","amenity":"recycling","fee":"no","operator":"Syndicat mixte intercommunal de collecte et de traitement des ordures m\u00e9nag\u00e8res des Pays de Vilaine","recycling:glass":"yes","recycling_type":"container","wheelchair":"no"}},"type":"Feature"},
	{"geometry":{"coordinates":[-1.680251,47.837793],"type":"Point"},"properties":{"osm_id":"5711930634","tag":{"access":"yes","amenity":"recycling","fee":"no","operator":"Syndicat mixte intercommunal de collecte et de traitement des ordures m\u00e9nag\u00e8res des Pays de Vilaine","recycling:paper":"yes","recycling_type":"container","wheelchair":"no"}},"type":"Feature"},
	{"geometry":{"coordinates":[-1.690376,47.84161],"type":"Point"},"properties":{"osm_id":"5773746436","tag":{"access":"yes","amenity":"recycling","fee":"no","recycling_type":"container","wheelchair":"no"}},"type":"Feature"},
	{"geometry":{"coordinates":[-1.690378,47.841577],"type":"Point"},"properties":{"osm_id":"5773746437","tag":{"access":"yes","amenity":"recycling","fee":"no","recycling:glass":"yes","recycling_type":"container","wheelchair":"no"}},"type":"Feature"},
	{"geometry":{"coordinates":[-1.68106,47.85102],"type":"Point"},"properties":{"osm_id":"5836719444","tag":{"access":"yes","amenity":"recycling","fee":"no","operator":"Le Relais","recycling:clothes":"yes","recycling:shoes":"yes","recycling:textiles":"yes","recycling_type":"container","wheelchair":"no"}},"type":"Feature"},
	{"geometry":{"coordinates":[-1.682425,47.842001],"type":"Point"},"properties":{"osm_id":"5852035688","tag":{"access":"yes","amenity":"recycling","fee":"no","operator":"Syndicat mixte intercommunal de collecte et de traitement des ordures m\u00e9nag\u00e8res des Pays de Vilaine","recycling:cans":"yes","recycling:cardboard":"yes","recycling:plastic":"yes","recycling_type":"container","wheelchair":"yes"}},"type":"Feature"},
	{"geometry":{"coordinates":[-1.686605,47.843852],"type":"Point"},"properties":{"osm_id":"5854647370","tag":{"access":"yes","amenity":"recycling","fee":"no","operator":"Le Relais","recycling:clothes":"yes","recycling:shoes":"yes","recycling:textiles":"yes","recycling_type":"container","wheelchair":"no"}},"type":"Feature"},
	{"geometry":{"coordinates":[-1.686649,47.843867],"type":"Point"},"properties":{"osm_id":"5854647371","tag":{"access":"yes","amenity":"recycling","fee":"no","operator":"Le Relais","recycling:clothes":"yes","recycling:shoes":"yes","recycling:textiles":"yes","recycling_type":"container","wheelchair":"no"}},"type":"Feature"},
	{"geometry":{"coordinates":[-1.682839,47.842659],"type":"Point"},"properties":{"osm_id":"6321663278","tag":{"amenity":"waste_basket","waste":"trash","wheelchair":"yes"}},"type":"Feature"},
	{"geometry":{"coordinates":[-1.682244,47.838187],"type":"Point"},"properties":{"osm_id":"6328700497","tag":{"amenity":"waste_basket","wheelchair":"yes"}},"type":"Feature"},
	{"geometry":{"coordinates":[-1.682381,47.838292],"type":"Point"},"properties":{"osm_id":"6328700502","tag":{"amenity":"waste_basket","wheelchair":"yes"}},"type":"Feature"},
	{"geometry":{"coordinates":[-1.687999,47.852635],"type":"Point"},"properties":{"osm_id":"6418231416","tag":{"amenity":"waste_basket","wheelchair":"no"}},"type":"Feature"},
	{"geometry":{"coordinates":[-1.691761,47.851724],"type":"Point"},"properties":{"osm_id":"7527266186","tag":{"amenity":"waste_basket","waste":"trash","wheelchair":"yes"}},"type":"Feature"},
	{"geometry":{"coordinates":[-1.691533,47.851963],"type":"Point"},"properties":{"osm_id":"7527266190","tag":{"amenity":"waste_basket","waste":"trash","wheelchair":"yes"}},"type":"Feature"},
	{"geometry":{"coordinates":[-1.694965,47.844346],"type":"Point"},"properties":{"osm_id":"7637986126","tag":{"amenity":"recycling","recycling:clothes":"yes","recycling:glass":"yes","recycling:paper":"yes","recycling:shoes":"yes","recycling_type":"container"}},"type":"Feature"},
	{"geometry":{"coordinates":[-1.68085,47.842466],"type":"Point"},"properties":{"osm_id":"7716325080","tag":{"access":"yes","amenity":"recycling","fee":"no","operator":"Syndicat mixte intercommunal de collecte et de traitement des ordures m\u00e9nag\u00e8res des Pays de Vilaine","recycling:glass":"yes","recycling_type":"container","wheelchair":"yes"}},"type":"Feature"},
	{"geometry":{"coordinates":[-1.680851,47.842493],"type":"Point"},"properties":{"osm_id":"7716325081","tag":{"access":"yes","amenity":"recycling","fee":"no","operator":"Syndicat mixte intercommunal de collecte et de traitement des ordures m\u00e9nag\u00e8res des Pays de Vilaine","recycling:paper":"yes","recycling_type":"container","wheelchair":"yes"}},"type":"Feature"},
	{"geometry":{"coordinates":[-1.680813,47.842495],"type":"Point"},"properties":{"osm_id":"7716325082","tag":{"access":"yes","amenity":"recycling","fee":"no","operator":"Syndicat mixte intercommunal de collecte et de traitement des ordures m\u00e9nag\u00e8res des Pays de Vilaine","recycling:cans":"yes","recycling:plastic":"yes","recycling_type":"container","wheelchair":"yes"}},"type":"Feature"}
]
}
