{
"type": "FeatureCollection",
"lastupdate": "2020-08-04T00:00:00Z",
"features": [
	{"geometry":{"coordinates":[-1.710342,47.74731],"type":"Point"},"properties":{"name":"D\u00c3\u00a9chetterie intercommunale","osm_id":"3629402392","tag":{"addr:city":"Grand-Fougeray","addr:postcode":"35390","addr:street":"Route de la Dominelais","amenity":"recycling","operator":"Syndicat mixte intercommunal de collecte et de traitement des ordures m\u00e9nag\u00e8res des Pays de Vilaine","recycling:batteries":"yes","recycling:cans":"yes","recycling:cardboard":"yes","recycling:cooking_oil":"yes","recycling:electrical_appliances":"yes","recycling:glass_bottles":"yes","recycling:green_waste":"yes","recycling:paper":"yes","recycling:plastic":"yes","recycling:scrap_metal":"yes","recycling:small_appliances":"yes","recycling:wood":"yes","recycling_type":"centre"}},"type":"Feature"},
	{"geometry":{"coordinates":[-1.71919,47.745731],"type":"Point"},"properties":{"osm_id":"6439631675","tag":{"amenity":"waste_basket","waste":"trash"}},"type":"Feature"},
	{"geometry":{"coordinates":[-1.733008,47.718979],"type":"Point"},"properties":{"osm_id":"6481427412","tag":{"amenity":"waste_basket","wheelchair":"yes"}},"type":"Feature"}
]
}
