{
"type": "FeatureCollection",
"lastupdate": "2020-08-04T00:00:00Z",
"features": [
	{"geometry":{"coordinates":[-1.675008,47.667132],"type":"Point"},"properties":{"name":"Point d'apport volontaire","osm_id":"4060023016","tag":{"addr:city":"Derval","addr:postcode":"44590","addr:street":"Place de la Gr\u00e9e","amenity":"recycling","operator":"Communaut\u00e9 de Communes du secteur de Derval","recycling:clothes":"no","recycling:glass":"no","recycling:glass_bottles":"no","recycling:paper":"yes","recycling:plastic":"no","recycling_type":"container"}},"type":"Feature"},
	{"geometry":{"coordinates":[-1.757122,47.665102],"type":"Point"},"properties":{"name":"Conquereuil - Br\u00c3\u00a9hain - 3","osm_id":"4823350694","tag":{"amenity":"recycling","operator":"Communaut\u00e9 de Communes du Pays de Redon","recycling:glass_bottles":"yes","recycling_type":"container"}},"type":"Feature"},
	{"geometry":{"coordinates":[-1.735507,47.688088],"type":"Point"},"properties":{"name":"Pierric - Le Bourg 2 - Vers Grand-Fougeray - 4","osm_id":"4823350712","tag":{"amenity":"recycling","operator":"Communaut\u00e9 de Communes du Pays de Redon","recycling:glass_bottles":"yes","recycling_type":"container"}},"type":"Feature"},
	{"geometry":{"coordinates":[-1.735413,47.678536],"type":"Point"},"properties":{"osm_id":"6740052527","tag":{"amenity":"recycling","recycling:paper":"yes","recycling_type":"container"}},"type":"Feature"},
	{"geometry":{"coordinates":[-1.735362,47.678563],"type":"Point"},"properties":{"osm_id":"6740052528","tag":{"amenity":"recycling","recycling:glass_bottles":"yes","recycling_type":"container"}},"type":"Feature"}
]
}
