{
"type": "FeatureCollection",
"features": [
	{"geometry":{"coordinates":[-1.676975,47.596925],"type":"Point"},"properties":{"name":"Point d'apport volontaire","osm_id":"4060036006","tag":{"addr:city":"Marsac-sur-Don","addr:postcode":"44170","addr:street":"Rue du Prieur\u00c3\u00a9","amenity":"recycling","operator":"Communaut\u00c3\u00a9 de Communes du secteur de Derval","recycling_type":"container"}},"type":"Feature"},
	{"geometry":{"coordinates":[-1.745276,47.607834],"type":"Point"},"properties":{"osm_id":"4318530737","tag":{"amenity":"waste_basket"}},"type":"Feature"},
	{"geometry":{"coordinates":[-1.678801,47.596999],"type":"Point"},"properties":{"osm_id":"4442677153","tag":{"amenity":"waste_basket"}},"type":"Feature"},
	{"geometry":{"coordinates":[-1.679175,47.599032],"type":"Point"},"properties":{"osm_id":"4442677321","tag":{"amenity":"waste_basket"}},"type":"Feature"},
	{"geometry":{"coordinates":[-1.684362,47.602036],"type":"Point"},"properties":{"osm_id":"4442677367","tag":{"amenity":"waste_basket"}},"type":"Feature"},
	{"geometry":{"coordinates":[-1.718357,47.597114],"type":"Point"},"properties":{"osm_id":"4442709897","tag":{"amenity":"waste_basket"}},"type":"Feature"},
	{"geometry":{"coordinates":[-1.718335,47.597544],"type":"Point"},"properties":{"osm_id":"4442709898","tag":{"amenity":"waste_basket"}},"type":"Feature"},
	{"geometry":{"coordinates":[-1.74515,47.608468],"type":"Point"},"properties":{"osm_id":"4442742161","tag":{"amenity":"waste_basket"}},"type":"Feature"},
	{"geometry":{"coordinates":[-1.718946,47.595993],"type":"Point"},"properties":{"osm_id":"4442742163","tag":{"amenity":"waste_basket"}},"type":"Feature"},
	{"geometry":{"coordinates":[-1.719422,47.595323],"type":"Point"},"properties":{"osm_id":"4442742164","tag":{"amenity":"waste_basket"}},"type":"Feature"},
	{"geometry":{"coordinates":[-1.752169,47.627001],"type":"Point"},"properties":{"name":"Conquereuil - Caserne Sapeurs-Pompiers - 2","osm_id":"4823350690","tag":{"amenity":"recycling","operator":"Communaut\u00c3\u00a9 de Communes du Pays de Redon","recycling:glass_bottles":"yes","recycling_type":"container"}},"type":"Feature"},
	{"geometry":{"coordinates":[-1.751382,47.589454],"type":"Point"},"properties":{"name":"Gu\u00c3\u00a9m\u00c3\u00a9n\u00c3\u00a9 Penfao - Guenouvry - Dastres - 3","osm_id":"4823350695","tag":{"amenity":"recycling","operator":"Communaut\u00c3\u00a9 de Communes du Pays de Redon","recycling:glass_bottles":"yes","recycling_type":"container"}},"type":"Feature"},
	{"geometry":{"coordinates":[-1.731811,47.623089],"type":"Point"},"properties":{"name":"Conquereuil - Couaveix - 1","osm_id":"4823350706","tag":{"amenity":"recycling","operator":"Communaut\u00c3\u00a9 de Communes du Pays de Redon","recycling:glass_bottles":"yes","recycling_type":"container"}},"type":"Feature"},
	{"geometry":{"coordinates":[-1.75066,47.62471],"type":"Point"},"properties":{"name":"Recycle et Dons","osm_id":"6580198486","tag":{"amenity":"recycling","brand":"Ressourcerie","charity":"yes","charity:description":"L\u00e2\u0080\u0099association a pour but de promouvoir le r\u00c3\u00a9emploi et \u00c5\u0093uvre \u00c3\u00a0 la r\u00c3\u00a9duction des d\u00c3\u00a9chets et au d\u00c3\u00a9veloppement de l\u00e2\u0080\u0099\u00c3\u00a9conomie sociale et solidaire.","collection_times":"Mo, Th, Sa","contact:city":"Conquereuil","contact:email":"recycletdon@gmail.com","contact:facebook":"www.facebook.com/recycletdon/","contact:housenumber":"2","contact:phone":"+33 2 40 87 91 90","contact:postcode":"44290","contact:street":"rue de la Mairie","contact:website":"https://recycledon.wordpress.com/boutique/","description":"Recycle & Don est une recyclerie associative bas\u00c3\u00a9e sur la commune de Conquereuil. L\u00e2\u0080\u0099association a pour but de promouvoir le r\u00c3\u00a9emploi et \u00c5\u0093uvre \u00c3\u00a0 la r\u00c3\u00a9duction des d\u00c3\u00a9chets et au d\u00c3\u00a9veloppement de l\u00e2\u0080\u0099\u00c3\u00a9conomie sociale et solidaire.","image":"https://media.ouest-france.fr/v1/pictures/dc5ef2a520cba08654165bab9befb7c3-conquereuil-recycle-et-don-prepare-le-grand-debarras-de-samedi_0.jpg","opening_hours":"Mo,Th,Sa 09:30-12:30","operator":"Association Recycle et Dons","recycling:bicycles":"yes","recycling:books":"yes","recycling:clothes":"yes","recycling:computers":"yes","recycling:dishes":"yes","recycling:furniture":"yes","recycling:interior_decoration":"yes","recycling:shoes":"yes","recycling:small_electrical_appliances":"yes","recycling:toys":"yes","recycling_type":"centre","ref:FR:SIRET":"51271602800026","second_hand":"only","shop":"second_hand","vending":"vaisselle;v\u00c3\u00aatement;chaussure;linge;bibelot;livre;BD;vinyle;meuble;canap\u00c3\u00a9;\u00c3\u00a9lectrom\u00c3\u00a9nager;v\u00c3\u00a9lo;article de saison"}},"type":"Feature"},
	{"geometry":{"coordinates":[-1.755124,47.617624],"type":"Point"},"properties":{"osm_id":"7801619929","tag":{"amenity":"waste_basket"}},"type":"Feature"}
]
}
