{
"type": "FeatureCollection",
"features": [
	{"geometry":{"coordinates":[-1.735509,47.212571],"type":"Point"},"properties":{"osm_id":"364166657","tag":{"addr:city":"Cou\u00c3\u00abron","addr:housenumber":"81","addr:postcode":"44220","addr:street":"Boulevard Francois Blancho","amenity":"recycling","recycling:glass_bottles":"yes","recycling_type":"container"}},"type":"Feature"},
	{"geometry":{"coordinates":[-1.730772,47.21662],"type":"Point"},"properties":{"osm_id":"401319008","tag":{"amenity":"recycling","recycling:glass":"yes","recycling_type":"container"}},"type":"Feature"},
	{"geometry":{"coordinates":[-1.676002,47.199287],"type":"Point"},"properties":{"osm_id":"606574522","tag":{"amenity":"recycling","location":"underground","recycling:beverage_carton":"yes","recycling:cans":"yes","recycling:cardboard":"yes","recycling:paper":"yes","recycling:plastic":"yes","recycling_type":"container"}},"type":"Feature"},
	{"geometry":{"coordinates":[-1.727693,47.214103],"type":"Point"},"properties":{"osm_id":"959355986","tag":{"amenity":"recycling"}},"type":"Feature"},
	{"geometry":{"coordinates":[-1.744395,47.213047],"type":"Point"},"properties":{"osm_id":"1035719176","tag":{"amenity":"recycling","recycling:glass":"yes"}},"type":"Feature"},
	{"geometry":{"coordinates":[-1.672204,47.200821],"type":"Point"},"properties":{"osm_id":"1657414035","tag":{"amenity":"recycling","recycling:cartons":"yes","recycling:magazines":"yes","recycling:newspaper":"yes","recycling:paper":"yes","recycling:plastic":"yes","recycling:plastic_bottles":"yes","recycling:plastic_packaging":"yes","recycling:scrap_metal":"yes","recycling_type":"container","ref:FR:NM":"DS0001"}},"type":"Feature"},
	{"geometry":{"coordinates":[-1.670722,47.182966],"type":"Point"},"properties":{"osm_id":"1732405455","tag":{"amenity":"recycling","recycling:glass":"yes"}},"type":"Feature"},
	{"geometry":{"coordinates":[-1.727405,47.210894],"type":"Point"},"properties":{"osm_id":"1968185161","tag":{"amenity":"waste_basket"}},"type":"Feature"},
	{"geometry":{"coordinates":[-1.72691,47.211942],"type":"Point"},"properties":{"osm_id":"1968185197","tag":{"amenity":"waste_basket"}},"type":"Feature"},
	{"geometry":{"coordinates":[-1.727333,47.212201],"type":"Point"},"properties":{"osm_id":"1968185227","tag":{"amenity":"waste_basket"}},"type":"Feature"},
	{"geometry":{"coordinates":[-1.730132,47.216316],"type":"Point"},"properties":{"osm_id":"1968185474","tag":{"amenity":"waste_basket"}},"type":"Feature"},
	{"geometry":{"coordinates":[-1.729895,47.2165],"type":"Point"},"properties":{"osm_id":"1968185503","tag":{"amenity":"waste_basket"}},"type":"Feature"},
	{"geometry":{"coordinates":[-1.725572,47.199298],"type":"Point"},"properties":{"osm_id":"2403893608","tag":{"amenity":"waste_basket"}},"type":"Feature"},
	{"geometry":{"coordinates":[-1.739542,47.199541],"type":"Point"},"properties":{"osm_id":"2403893615","tag":{"amenity":"recycling","recycling:glass":"yes"}},"type":"Feature"},
	{"geometry":{"coordinates":[-1.735817,47.200596],"type":"Point"},"properties":{"osm_id":"2403893647","tag":{"amenity":"waste_basket"}},"type":"Feature"},
	{"geometry":{"coordinates":[-1.733806,47.200627],"type":"Point"},"properties":{"osm_id":"2403893650","tag":{"amenity":"waste_basket"}},"type":"Feature"},
	{"geometry":{"coordinates":[-1.680248,47.194615],"type":"Point"},"properties":{"osm_id":"2405356920","tag":{"amenity":"recycling","recycling:glass":"yes"}},"type":"Feature"},
	{"geometry":{"coordinates":[-1.671396,47.197185],"type":"Point"},"properties":{"osm_id":"4360649084","tag":{"amenity":"recycling","location":"underground","recycling:waste":"yes","recycling_type":"container"}},"type":"Feature"},
	{"geometry":{"coordinates":[-1.671423,47.197197],"type":"Point"},"properties":{"osm_id":"4360649085","tag":{"amenity":"recycling","location":"underground","recycling:beverage_carton":"yes","recycling:cans":"yes","recycling:cardboard":"yes","recycling:paper":"yes","recycling:plastic":"yes","recycling_type":"container"}},"type":"Feature"},
	{"geometry":{"coordinates":[-1.671446,47.197209],"type":"Point"},"properties":{"osm_id":"4360649086","tag":{"amenity":"recycling","location":"underground","recycling:glass":"no","recycling:glass_bottles":"yes","recycling_type":"container"}},"type":"Feature"},
	{"geometry":{"coordinates":[-1.671472,47.19722],"type":"Point"},"properties":{"osm_id":"4360649087","tag":{"amenity":"recycling","location":"underground","recycling:glass":"no","recycling:glass_bottles":"yes","recycling_type":"container"}},"type":"Feature"},
	{"geometry":{"coordinates":[-1.676037,47.199254],"type":"Point"},"properties":{"osm_id":"4360649095","tag":{"amenity":"recycling","location":"underground","recycling:glass":"no","recycling:glass_bottles":"yes","recycling_type":"container"}},"type":"Feature"},
	{"geometry":{"coordinates":[-1.676019,47.199271],"type":"Point"},"properties":{"osm_id":"4360649096","tag":{"amenity":"recycling","location":"underground","recycling:glass":"no","recycling:glass_bottles":"yes","recycling_type":"container"}},"type":"Feature"},
	{"geometry":{"coordinates":[-1.675983,47.199305],"type":"Point"},"properties":{"osm_id":"4360649098","tag":{"amenity":"recycling","location":"underground","recycling:beverage_carton":"yes","recycling:cans":"yes","recycling:cardboard":"yes","recycling:paper":"yes","recycling:plastic":"yes","recycling_type":"container"}},"type":"Feature"},
	{"geometry":{"coordinates":[-1.675964,47.199322],"type":"Point"},"properties":{"osm_id":"4360649099","tag":{"amenity":"recycling","location":"underground","recycling:waste":"yes","recycling_type":"container"}},"type":"Feature"},
	{"geometry":{"coordinates":[-1.672245,47.200799],"type":"Point"},"properties":{"osm_id":"4360649121","tag":{"amenity":"recycling","recycling:glass":"no","recycling:glass_bottles":"yes","recycling_type":"container","ref:FR:NM":"VE0164"}},"type":"Feature"},
	{"geometry":{"coordinates":[-1.672224,47.20081],"type":"Point"},"properties":{"osm_id":"4360649122","tag":{"amenity":"recycling","recycling:glass":"no","recycling:glass_bottles":"yes","recycling_type":"container","ref:FR:NM":"VE0165"}},"type":"Feature"},
	{"geometry":{"coordinates":[-1.679331,47.201239],"type":"Point"},"properties":{"osm_id":"4360649132","tag":{"amenity":"recycling","recycling:glass":"no","recycling:glass_bottles":"yes","recycling_type":"container","ref:FR:NM":"VE0170"}},"type":"Feature"},
	{"geometry":{"coordinates":[-1.71319,47.212476],"type":"Point"},"properties":{"osm_id":"4360649134","tag":{"amenity":"recycling","recycling:glass":"no","recycling:glass_bottles":"yes","recycling_type":"container","ref:FR:NM":"VE0142"}},"type":"Feature"},
	{"geometry":{"coordinates":[-1.708284,47.212981],"type":"Point"},"properties":{"osm_id":"4360649139","tag":{"amenity":"recycling","recycling:glass":"no","recycling:glass_bottles":"yes","recycling_type":"container","ref:FR:NM":"VE0143"}},"type":"Feature"},
	{"geometry":{"coordinates":[-1.720554,47.216655],"type":"Point"},"properties":{"osm_id":"4807921721","tag":{"amenity":"recycling","recycling:glass_bottles":"yes","recycling_type":"container","ref:FR:NM":"VE0135"}},"type":"Feature"},
	{"geometry":{"coordinates":[-1.726394,47.214253],"type":"Point"},"properties":{"osm_id":"4807921751","tag":{"amenity":"recycling","recycling:glass_bottles":"yes","recycling_type":"container","ref:FR:NM":"VE0136"}},"type":"Feature"},
	{"geometry":{"coordinates":[-1.755572,47.203128],"type":"Point"},"properties":{"osm_id":"5024305003","tag":{"amenity":"waste_basket"}},"type":"Feature"},
	{"geometry":{"coordinates":[-1.698167,47.196711],"type":"Point"},"properties":{"osm_id":"5217967122","tag":{"amenity":"waste_basket"}},"type":"Feature"},
	{"geometry":{"coordinates":[-1.75526,47.2005],"type":"Point"},"properties":{"name":"Le R\u00c3\u00a9servoir (anciennement \u00e2\u0080\u009cL\u00e2\u0080\u0099atelier du Retz Emploi\u00e2\u0080\u009d)","osm_id":"6580379186","tag":{"amenity":"recycling","charity":"yes","contact:city":"Le Pellerin","contact:email":"pellerin@atelierduretzemploi.org","contact:housenumber":"18","contact:phone":"+33 6 77 63 83 04","contact:postcode":"44640","contact:street":"rue du docteur Sourdille","contact:website":"http://www.atelierduretzemploi.org","description":"Collecte, revente \u00c3\u00a0 petit prix de ce qui est r\u00c3\u00a9cup\u00c3\u00a9rable, tri en vue de recyclage : vaisselle, jouets, livres, disques, \u00c3\u00a9lectrom\u00c3\u00a9nager en \u00c3\u00a9tat de fonctionnement, outils, v\u00c3\u00aatements, chaussures, bibelots, meubles...","image":"http://www.atelierduretzemploi.org/images/2017-actu/Photos/Pellerin.png","office":"association","opening_hours":"We,Sa 10:00-13:00,14:00-18:00","operator":"Association \u00e2\u0080\u009cLe R\u00c3\u00a9servoir\u00e2\u0080\u009d (ancien nom \u00e2\u0080\u009cL\u00e2\u0080\u0099atelier du Retz Emploi\u00e2\u0080\u009d)","recycling:bicycles":"yes","recycling:books":"yes","recycling:clothes":"yes","recycling:computers":"yes","recycling:dishes":"yes","recycling:furniture":"yes","recycling:interior_decoration":"yes","recycling:shoes":"yes","recycling:small_electrical_appliances":"yes","recycling:toys":"yes","recycling_type":"centre","ref:FR:SIRET":"48887428000040","second_hand":"only","shop":"general","vending":"v\u00c3\u00a9lo;mobilier;textile;vaisselle;jouet;pu\u00c3\u00a9riculture;livre;CD;DVD;outillage;mat\u00c3\u00a9riel \u00c3\u00a9lectrique"}},"type":"Feature"},
	{"geometry":{"coordinates":[-1.755319,47.202927],"type":"Point"},"properties":{"osm_id":"6926599380","tag":{"amenity":"waste_basket"}},"type":"Feature"},
	{"geometry":{"coordinates":[-1.755314,47.203072],"type":"Point"},"properties":{"osm_id":"6926630129","tag":{"amenity":"waste_basket"}},"type":"Feature"},
	{"geometry":{"coordinates":[-1.698647,47.188736],"type":"Point"},"properties":{"osm_id":"6985543900","tag":{"amenity":"recycling","collection_times":"24/24 7/7","operator":"commune de Saint Jean de boiseau","recycling:glass":"yes","recycling_type":"container"}},"type":"Feature"},
	{"geometry":{"coordinates":[-1.69005,47.188438],"type":"Point"},"properties":{"osm_id":"7099427386","tag":{"amenity":"recycling","mapillary":"clWUSE79_ZSXf_K87yWHYg","recycling:glass_bottles":"yes","recycling_type":"container","ref:FR:NM":"VE0225","survey:date":"2017-07-19"}},"type":"Feature"},
	{"geometry":{"coordinates":[-1.720072,47.168638],"type":"Point"},"properties":{"osm_id":"7139624980","tag":{"amenity":"waste_basket"}},"type":"Feature"},
	{"geometry":{"coordinates":[-1.720079,47.168606],"type":"Point"},"properties":{"osm_id":"7139624981","tag":{"amenity":"recycling","recycling:glass":"yes","recycling_type":"container"}},"type":"Feature"},
	{"geometry":{"coordinates":[-1.719915,47.168613],"type":"Point"},"properties":{"osm_id":"7139624982","tag":{"amenity":"recycling","operator":"Le Relais","recycling:clothes":"yes","recycling_type":"container"}},"type":"Feature"},
	{"geometry":{"coordinates":[-1.722966,47.169396],"type":"Point"},"properties":{"osm_id":"7139627355","tag":{"amenity":"recycling","recycling:glass":"yes","recycling_type":"container"}},"type":"Feature"},
	{"geometry":{"coordinates":[-1.754307,47.199556],"type":"Point"},"properties":{"osm_id":"7199761217","tag":{"amenity":"waste_basket"}},"type":"Feature"},
	{"geometry":{"coordinates":[-1.753331,47.198172],"type":"Point"},"properties":{"osm_id":"7199761273","tag":{"amenity":"recycling","recycling:glass":"yes","recycling_type":"container"}},"type":"Feature"},
	{"geometry":{"coordinates":[-1.753295,47.198175],"type":"Point"},"properties":{"osm_id":"7199761274","tag":{"amenity":"recycling","operator":"Le Relais","recycling:clothes":"yes","recycling_type":"container"}},"type":"Feature"},
	{"geometry":{"coordinates":[-1.749895,47.198094],"type":"Point"},"properties":{"osm_id":"7199761284","tag":{"amenity":"waste_basket"}},"type":"Feature"},
	{"geometry":{"coordinates":[-1.754846,47.202938],"type":"Point"},"properties":{"osm_id":"7199773698","tag":{"amenity":"waste_basket"}},"type":"Feature"},
	{"geometry":{"coordinates":[-1.754919,47.202991],"type":"Point"},"properties":{"osm_id":"7199773699","tag":{"amenity":"waste_basket"}},"type":"Feature"},
	{"geometry":{"coordinates":[-1.754502,47.202513],"type":"Point"},"properties":{"osm_id":"7199773704","tag":{"amenity":"waste_basket"}},"type":"Feature"},
	{"geometry":{"coordinates":[-1.722398,47.16956],"type":"Point"},"properties":{"osm_id":"7199815774","tag":{"amenity":"waste_basket"}},"type":"Feature"},
	{"geometry":{"coordinates":[-1.737161,47.197205],"type":"Point"},"properties":{"osm_id":"7200756558","tag":{"amenity":"recycling","recycling_type":"container"}},"type":"Feature"},
	{"geometry":{"coordinates":[-1.703166,47.185281],"type":"Point"},"properties":{"osm_id":"7200756574","tag":{"amenity":"recycling","recycling_type":"container"}},"type":"Feature"},
	{"geometry":{"coordinates":[-1.749472,47.201626],"type":"Point"},"properties":{"osm_id":"7238797569","tag":{"amenity":"waste_basket"}},"type":"Feature"},
	{"geometry":{"coordinates":[-1.749116,47.201534],"type":"Point"},"properties":{"osm_id":"7238797574","tag":{"amenity":"waste_basket"}},"type":"Feature"},
	{"geometry":{"coordinates":[-1.695804,47.219183],"type":"Point"},"properties":{"osm_id":"7243300142","tag":{"addr:city":"Cou\u00c3\u00abron","addr:housenumber":"19","addr:postcode":"44220","addr:street":"Avenue du Chevalier de Beaulieu","amenity":"recycling","recycling:glass_bottles":"yes","recycling_type":"container"}},"type":"Feature"},
	{"geometry":{"coordinates":[-1.671945,47.18515],"type":"Point"},"properties":{"osm_id":"7430013024","tag":{"amenity":"recycling","recycling_type":"container"}},"type":"Feature"},
	{"geometry":{"coordinates":[-1.740349,47.217069],"type":"Point"},"properties":{"osm_id":"8158113217","tag":{"addr:city":"Cou\u00c3\u00abron","addr:housenumber":"38","addr:postcode":"44220","addr:street":"Rue Jean-Claude Maisonneuve","amenity":"recycling","fee":"no","recycling:glass_bottles":"yes","recycling_type":"container"}},"type":"Feature"},
	{"geometry":{"coordinates":[-1.72734,47.212343],"type":"Point"},"properties":{"osm_id":"8163454301","tag":{"addr:city":"Cou\u00c3\u00abron","addr:housenumber":"4","addr:postcode":"44220","addr:street":"Rue Jos\u00c3\u00a9phine \u00c3\u0089ven","amenity":"recycling","fee":"no","recycling:glass_bottles":"yes","recycling_type":"container"}},"type":"Feature"},
	{"geometry":{"coordinates":[-1.735497,47.212586],"type":"Point"},"properties":{"osm_id":"8163480128","tag":{"amenity":"recycling","operator":"Le Relais","recycling:clothes":"yes","recycling_type":"container"}},"type":"Feature"},
	{"geometry":{"coordinates":[-1.70193,47.2137],"type":"Point"},"properties":{"osm_id":"8163593533","tag":{"addr:city":"Cou\u00c3\u00abron","addr:housenumber":"164","addr:postcode":"44220","addr:street":"Boulevard de la Lib\u00c3\u00a9ration","amenity":"recycling","recycling:glass_bottles":"yes","recycling_type":"container"}},"type":"Feature"},
	{"geometry":{"coordinates":[-1.684984,47.216295],"type":"Point"},"properties":{"osm_id":"8163614162","tag":{"addr:city":"Cou\u00c3\u00abron","addr:housenumber":"9","addr:postcode":"44220","addr:street":"Rue de la Corbardi\u00c3\u00a8re","amenity":"recycling","recycling:glass_bottles":"yes","recycling_type":"container"}},"type":"Feature"},
	{"geometry":{"coordinates":[-1.731558,47.209601],"type":"Point"},"properties":{"osm_id":"8163996051","tag":{"addr:city":"Cou\u00c3\u00abron","addr:housenumber":"4","addr:postcode":"44220","addr:street":"QuaCommandant Lucas","amenity":"recycling","recycling:glass_bottles":"yes","recycling_type":"container"}},"type":"Feature"},
	{"geometry":{"coordinates":[-1.723876,47.211834],"type":"Point"},"properties":{"osm_id":"8169675549","tag":{"addr:city":"Cou\u00c3\u00abron","addr:housenumber":"1","addr:postcode":"44220","addr:street":"Rue Pierre Mend\u00c3\u00a8s France","amenity":"recycling","recycling:glass_bottles":"yes","recycling_type":"container"}},"type":"Feature"},
	{"geometry":{"coordinates":[-1.713129,47.211665],"type":"Point"},"properties":{"osm_id":"8169690385","tag":{"addr:city":"Cou\u00c3\u00abron","addr:housenumber":"2","addr:postcode":"44220","addr:street":"Place Marin Poirier","amenity":"recycling","recycling:glass_bottles":"yes","recycling_type":"container"}},"type":"Feature"},
	{"geometry":{"coordinates":[-1.719838,47.211093],"type":"Point"},"properties":{"osm_id":"8169705117","tag":{"addr:city":"Cou\u00c3\u00abron","addr:housenumber":"1 A","addr:postcode":"44220","addr:street":"All\u00c3\u00a9e Marcel Burban","amenity":"recycling","recycling:glass_bottles":"yes","recycling_type":"container"}},"type":"Feature"},
	{"geometry":{"coordinates":[-1.710306,47.216961],"type":"Point"},"properties":{"osm_id":"8169724782","tag":{"addr:city":"Cou\u00c3\u00abron","addr:housenumber":"38","addr:postcode":"44220","addr:street":"Rue du Marais","amenity":"recycling","recycling:glass_bottles":"yes","recycling_type":"container"}},"type":"Feature"},
	{"geometry":{"coordinates":[-1.743717,47.20989],"type":"Point"},"properties":{"osm_id":"8170759955","tag":{"addr:city":"Cou\u00c3\u00abron","addr:housenumber":"13","addr:postcode":"44220","addr:street":"Boulevard de l'Oc\u00c3\u00a9an","amenity":"recycling","recycling:glass_bottles":"yes","recycling_type":"container"}},"type":"Feature"},
	{"geometry":{"coordinates":[-1.699892,47.217864],"type":"Point"},"properties":{"osm_id":"8180017346","tag":{"addr:city":"Cou\u00c3\u00abron","addr:postcode":"44220","addr:street":"Rue de Trevellec","amenity":"recycling","recycling:glass_bottles":"yes","recycling_type":"container"}},"type":"Feature"},
	{"geometry":{"coordinates":[-1.679246,47.215189],"type":"Point"},"properties":{"osm_id":"8180057912","tag":{"addr:city":"Cou\u00c3\u00abron","addr:housenumber":"38","addr:postcode":"44220","addr:street":"Rue d'Envalira","amenity":"recycling","recycling:glass_bottles":"yes","recycling_type":"container"}},"type":"Feature"},
	{"geometry":{"coordinates":[-1.682826,47.214393],"type":"Point"},"properties":{"osm_id":"8180078744","tag":{"addr:city":"Cou\u00c3\u00abron","addr:housenumber":"45","addr:postcode":"44220","addr:street":"Rue du Premier Mai","amenity":"recycling","recycling:glass_bottles":"yes","recycling_type":"container"}},"type":"Feature"},
	{"geometry":{"coordinates":[-1.724013,47.213816],"type":"Point"},"properties":{"osm_id":"8210222984","tag":{"addr:city":"Cou\u00c3\u00abron","addr:housenumber":"27","addr:postcode":"44220","addr:street":"Boulevard Paul Langevin","amenity":"recycling","recycling:glass":"yes","recycling:glass_bottles":"yes","recycling_type":"container","waste":"glass"}},"type":"Feature"},
	{"geometry":{"coordinates":[-1.74919,47.20114],"type":"Point"},"properties":{"osm_id":"8367618215","tag":{"amenity":"recycling","recycling:glass_bottles":"yes","recycling_type":"container"}},"type":"Feature"},
	{"geometry":{"coordinates":[-1.675768,47.182446],"type":"Point"},"properties":{"osm_id":"8572548648","tag":{"amenity":"recycling","recycling_type":"container"}},"type":"Feature"},
	{"geometry":{"coordinates":[-1.686766,47.191198],"type":"Point"},"properties":{"osm_id":"8572852329","tag":{"amenity":"recycling","recycling_type":"container"}},"type":"Feature"},
	{"geometry":{"coordinates":[-1.690132,47.193381],"type":"Point"},"properties":{"osm_id":"8572852336","tag":{"amenity":"waste_basket"}},"type":"Feature"},
	{"geometry":{"coordinates":[-1.69835,47.196825],"type":"Point"},"properties":{"osm_id":"8572852343","tag":{"amenity":"waste_basket"}},"type":"Feature"},
	{"geometry":{"coordinates":[-1.708567,47.212913],"type":"Point"},"properties":{"osm_id":"8648719702","tag":{"amenity":"waste_basket"}},"type":"Feature"},
	{"geometry":{"coordinates":[-1.708513,47.212806],"type":"Point"},"properties":{"osm_id":"8648719708","tag":{"amenity":"waste_basket"}},"type":"Feature"},
	{"geometry":{"coordinates":[-1.702545,47.21376],"type":"Point"},"properties":{"osm_id":"8648720819","tag":{"amenity":"waste_basket"}},"type":"Feature"},
	{"geometry":{"coordinates":[-1.702374,47.213629],"type":"Point"},"properties":{"osm_id":"8648720822","tag":{"amenity":"recycling","recycling_type":"container"}},"type":"Feature"},
	{"geometry":{"coordinates":[-1.702101,47.213678],"type":"Point"},"properties":{"osm_id":"8648720828","tag":{"amenity":"waste_basket"}},"type":"Feature"},
	{"geometry":{"coordinates":[-1.699294,47.213979],"type":"Point"},"properties":{"osm_id":"8648720836","tag":{"amenity":"waste_basket"}},"type":"Feature"},
	{"geometry":{"coordinates":[-1.698428,47.213795],"type":"Point"},"properties":{"osm_id":"8648720841","tag":{"amenity":"waste_basket"}},"type":"Feature"},
	{"geometry":{"coordinates":[-1.693247,47.213466],"type":"Point"},"properties":{"osm_id":"8648720858","tag":{"amenity":"waste_basket","operator":"Abri Services"}},"type":"Feature"},
	{"geometry":{"coordinates":[-1.689718,47.214097],"type":"Point"},"properties":{"osm_id":"8648720878","tag":{"amenity":"waste_basket","operator":"Abri Services"}},"type":"Feature"},
	{"geometry":{"coordinates":[-1.689104,47.214386],"type":"Point"},"properties":{"osm_id":"8648720886","tag":{"amenity":"waste_basket","operator":"Abri Services"}},"type":"Feature"},
	{"geometry":{"coordinates":[-1.689748,47.215308],"type":"Point"},"properties":{"osm_id":"8648720898","tag":{"amenity":"recycling","recycling_type":"container"}},"type":"Feature"},
	{"geometry":{"coordinates":[-1.682418,47.215506],"type":"Point"},"properties":{"osm_id":"8648884928","tag":{"amenity":"waste_basket","operator":"Abri Services"}},"type":"Feature"},
	{"geometry":{"coordinates":[-1.682132,47.215306],"type":"Point"},"properties":{"osm_id":"8648884934","tag":{"amenity":"waste_basket","operator":"Abri Services"}},"type":"Feature"},
	{"geometry":{"coordinates":[-1.678628,47.215643],"type":"Point"},"properties":{"osm_id":"8648884948","tag":{"amenity":"waste_basket","operator":"Abri Services"}},"type":"Feature"},
	{"geometry":{"coordinates":[-1.678342,47.215792],"type":"Point"},"properties":{"osm_id":"8648884955","tag":{"amenity":"waste_basket","operator":"Abri Services"}},"type":"Feature"},
	{"geometry":{"coordinates":[-1.71241,47.212438],"type":"Point"},"properties":{"osm_id":"8796531756","tag":{"amenity":"waste_basket","operator":"Abri Services"}},"type":"Feature"},
	{"geometry":{"coordinates":[-1.723027,47.213908],"type":"Point"},"properties":{"osm_id":"8796531766","tag":{"amenity":"waste_basket"}},"type":"Feature"},
	{"geometry":{"coordinates":[-1.723162,47.21406],"type":"Point"},"properties":{"osm_id":"8796531771","tag":{"amenity":"waste_basket"}},"type":"Feature"}
]
}
