{
"type": "FeatureCollection",
"features": [
	{"geometry":{"coordinates":[-1.68289,47.155429],"type":"Point"},"properties":{"osm_id":"1781280973","tag":{"amenity":"recycling","recycling:glass":"yes","recycling_type":"container"}},"type":"Feature"},
	{"geometry":{"coordinates":[-1.704917,47.141859],"type":"Point"},"properties":{"osm_id":"4486876063","tag":{"amenity":"recycling","recycling:glass":"no","recycling:glass_bottles":"yes","recycling_type":"container","ref:FR:NM":"VE0747"}},"type":"Feature"},
	{"geometry":{"coordinates":[-1.692908,47.142911],"type":"Point"},"properties":{"osm_id":"7199976773","tag":{"amenity":"recycling","recycling:glass":"yes","recycling_type":"container"}},"type":"Feature"},
	{"geometry":{"coordinates":[-1.693132,47.143223],"type":"Point"},"properties":{"osm_id":"7199976774","tag":{"amenity":"recycling","operator":"Le Relais","recycling:clothes":"yes","recycling_type":"container"}},"type":"Feature"},
	{"geometry":{"coordinates":[-1.705026,47.141837],"type":"Point"},"properties":{"osm_id":"8870658503","tag":{"amenity":"waste_basket"}},"type":"Feature"},
	{"geometry":{"coordinates":[-1.685461,47.143896],"type":"Point"},"properties":{"osm_id":"8870713172","tag":{"amenity":"waste_basket","colour":"lightgrey","operator":"Abri Services"}},"type":"Feature"},
	{"geometry":{"coordinates":[-1.682704,47.143753],"type":"Point"},"properties":{"osm_id":"8870713189","tag":{"amenity":"waste_basket"}},"type":"Feature"},
	{"geometry":{"coordinates":[-1.679359,47.143591],"type":"Point"},"properties":{"osm_id":"8870713207","tag":{"amenity":"waste_basket","colour":"lightgrey","operator":"Abri Services"}},"type":"Feature"},
	{"geometry":{"coordinates":[-1.679335,47.143726],"type":"Point"},"properties":{"osm_id":"8870713216","tag":{"amenity":"waste_basket","colour":"lightgrey","operator":"Abri Services"}},"type":"Feature"}
]
}
