{
"type": "FeatureCollection",
"features": [
	{"geometry":{"coordinates":[-1.750517,46.661437],"type":"Point"},"properties":{"osm_id":"1308182686","tag":{"amenity":"waste_basket","check_date":"2021-05-14"}},"type":"Feature"},
	{"geometry":{"coordinates":[-1.754456,46.660516],"type":"Point"},"properties":{"osm_id":"1308186825","tag":{"amenity":"waste_basket","check_date":"2021-05-14"}},"type":"Feature"},
	{"geometry":{"coordinates":[-1.678251,46.677816],"type":"Point"},"properties":{"osm_id":"6758773454","tag":{"amenity":"waste_basket","waste":"trash"}},"type":"Feature"},
	{"geometry":{"coordinates":[-1.753441,46.660555],"type":"Point"},"properties":{"osm_id":"8857867982","tag":{"amenity":"waste_basket"}},"type":"Feature"},
	{"geometry":{"coordinates":[-1.672103,46.67624],"type":"Point"},"properties":{"name":"D\u00c3\u00a9ch\u00c3\u00a8terie de Martinet","osm_id":"9201955079","tag":{"addr:city":"Martinet","addr:postcode":"85150","addr:street":"ZA Les Echoignes","amenity":"recycling","recycling_type":"centre"}},"type":"Feature"}
]
}
