{
"type": "FeatureCollection",
"features": [
	{"geometry":{"coordinates":[-1.673517,43.131533],"type":"Point"},"properties":{"osm_id":"3104387055","tag":{"LOCALIDAD":"Doneztebe / Santesteban","addr:city":"Doneztebe/Santesteban","addr:municipality":"San Pedro eliza /Iglesia de San Pedro","amenity":"recycling","postal_code":"31740"}},"type":"Feature"},
	{"geometry":{"coordinates":[-1.673567,43.132597],"type":"Point"},"properties":{"osm_id":"3104512380","tag":{"LOCALIDAD":"Doneztebe / Santesteban","addr:city:simc":"Doneztebe/Santesteban","addr:municipality":"Doneztebe / Santesteban","amenity":"recycling","postal_code":"31740"}},"type":"Feature"},
	{"geometry":{"coordinates":[-1.673551,43.132595],"type":"Point"},"properties":{"osm_id":"7617919067","tag":{"amenity":"recycling","recycling_type":"container"}},"type":"Feature"},
	{"geometry":{"coordinates":[-1.673526,43.132587],"type":"Point"},"properties":{"osm_id":"7617919068","tag":{"amenity":"recycling","recycling_type":"container"}},"type":"Feature"},
	{"geometry":{"coordinates":[-1.673509,43.13258],"type":"Point"},"properties":{"osm_id":"7617919069","tag":{"amenity":"recycling","recycling_type":"container"}},"type":"Feature"},
	{"geometry":{"coordinates":[-1.673515,43.132563],"type":"Point"},"properties":{"osm_id":"7617919070","tag":{"amenity":"recycling","recycling_type":"container"}},"type":"Feature"},
	{"geometry":{"coordinates":[-1.673523,43.132551],"type":"Point"},"properties":{"osm_id":"7617919071","tag":{"amenity":"recycling","recycling_type":"container"}},"type":"Feature"},
	{"geometry":{"coordinates":[-1.673527,43.132536],"type":"Point"},"properties":{"osm_id":"7617919072","tag":{"amenity":"recycling","recycling_type":"container"}},"type":"Feature"},
	{"geometry":{"coordinates":[-1.673537,43.132519],"type":"Point"},"properties":{"osm_id":"7617919073","tag":{"amenity":"recycling","recycling_type":"container"}},"type":"Feature"}
]
}
