{
"type": "FeatureCollection",
"features": [
	{"geometry":{"coordinates":[-1.705175,42.792426],"type":"Point"},"properties":{"osm_id":"3030475005","tag":{"amenity":"recycling","recycling:cans":"yes","recycling:glass_bottles":"yes","recycling:paper":"yes","recycling_type":"container"}},"type":"Feature"},
	{"geometry":{"coordinates":[-1.703186,42.792552],"type":"Point"},"properties":{"osm_id":"3030475006","tag":{"amenity":"recycling","recycling:cans":"yes","recycling:glass_bottles":"yes","recycling:paper":"yes","recycling_type":"container"}},"type":"Feature"},
	{"geometry":{"coordinates":[-1.701308,42.792679],"type":"Point"},"properties":{"osm_id":"3030475007","tag":{"amenity":"recycling","recycling:cans":"yes","recycling:glass_bottles":"yes","recycling:paper":"yes","recycling_type":"container"}},"type":"Feature"},
	{"geometry":{"coordinates":[-1.699408,42.79279],"type":"Point"},"properties":{"osm_id":"3030475008","tag":{"amenity":"recycling","recycling:cans":"yes","recycling:glass_bottles":"yes","recycling:paper":"yes","recycling_type":"container"}},"type":"Feature"},
	{"geometry":{"coordinates":[-1.683186,42.790741],"type":"Point"},"properties":{"osm_id":"6724827682","tag":{"amenity":"recycling","recycling_type":"container"}},"type":"Feature"},
	{"geometry":{"coordinates":[-1.683171,42.790788],"type":"Point"},"properties":{"osm_id":"6724827683","tag":{"amenity":"waste_disposal"}},"type":"Feature"},
	{"geometry":{"coordinates":[-1.683559,42.789882],"type":"Point"},"properties":{"osm_id":"6729062446","tag":{"amenity":"recycling","operator":"Mancomunidad Comarca de Pamplona","recycling:plastic":"yes","recycling_type":"container"}},"type":"Feature"},
	{"geometry":{"coordinates":[-1.683566,42.789862],"type":"Point"},"properties":{"osm_id":"6729062447","tag":{"amenity":"recycling","operator":"Mancomunidad Comarca de Pamplona","recycling:cartons":"yes","recycling:paper":"yes","recycling_type":"container"}},"type":"Feature"},
	{"geometry":{"coordinates":[-1.683514,42.789888],"type":"Point"},"properties":{"osm_id":"6729062448","tag":{"amenity":"recycling","operator":"Mancomunidad Comarca de Pamplona","recycling:glass_bottles":"yes","recycling_type":"container","website":"https://www.mcp.es/"}},"type":"Feature"},
	{"geometry":{"coordinates":[-1.683573,42.789841],"type":"Point"},"properties":{"osm_id":"6729062449","tag":{"amenity":"waste_disposal"}},"type":"Feature"},
	{"geometry":{"coordinates":[-1.679175,42.80308],"type":"Point"},"properties":{"osm_id":"7548395441","tag":{"amenity":"recycling","recycling_type":"container"}},"type":"Feature"},
	{"geometry":{"coordinates":[-1.679152,42.803087],"type":"Point"},"properties":{"osm_id":"7548395442","tag":{"amenity":"recycling","recycling:green_waste":"yes","recycling_type":"container"}},"type":"Feature"}
]
}
