{
"type": "FeatureCollection",
"features": [
	{"geometry":{"coordinates":[84.011885,28.212098],"type":"Point"},"properties":{"osm_id":"1241658288","tag":{"natural":"tree"}},"type":"Feature"},
	{"geometry":{"coordinates":[83.969897,28.201576],"type":"Point"},"properties":{"name":"Pipal","osm_id":"2139800741","tag":{"name:ne":"\u00e0\u00a4\u00aa\u00e0\u00a5\u0080\u00e0\u00a4\u00aa\u00e0\u00a4\u00b2","natural":"tree","species":"Ficus Religiosa"}},"type":"Feature"},
	{"geometry":{"coordinates":[83.969734,28.197645],"type":"Point"},"properties":{"osm_id":"2142193528","tag":{"natural":"tree"}},"type":"Feature"},
	{"geometry":{"coordinates":[83.95538,28.212424],"type":"Point"},"properties":{"osm_id":"3166138583","tag":{"natural":"tree"}},"type":"Feature"},
	{"geometry":{"coordinates":[83.951039,28.198817],"type":"Point"},"properties":{"osm_id":"3166147767","tag":{"natural":"tree"}},"type":"Feature"},
	{"geometry":{"coordinates":[83.96573,28.207072],"type":"Point"},"properties":{"name":"flower tree","osm_id":"3404903242","tag":{"name:ne":"yellow flowered tree","natural":"tree"}},"type":"Feature"},
	{"geometry":{"coordinates":[83.957127,28.210716],"type":"Point"},"properties":{"osm_id":"3634990924","tag":{"natural":"tree"}},"type":"Feature"},
	{"geometry":{"coordinates":[83.957169,28.211847],"type":"Point"},"properties":{"osm_id":"3634990925","tag":{"leaf_cycle":"semi_evergreen","leaf_type":"broadleaved","natural":"tree"}},"type":"Feature"},
	{"geometry":{"coordinates":[83.957136,28.210358],"type":"Point"},"properties":{"osm_id":"3635819243","tag":{"natural":"tree"}},"type":"Feature"},
	{"geometry":{"coordinates":[83.957309,28.20794],"type":"Point"},"properties":{"osm_id":"3637654270","tag":{"natural":"tree"}},"type":"Feature"},
	{"geometry":{"coordinates":[83.957203,28.209197],"type":"Point"},"properties":{"osm_id":"3637654271","tag":{"natural":"tree"}},"type":"Feature"},
	{"geometry":{"coordinates":[83.965274,28.206484],"type":"Point"},"properties":{"name":"parijat","osm_id":"3706519251","tag":{"natural":"tree","species":"flower"}},"type":"Feature"},
	{"geometry":{"coordinates":[83.963885,28.20436],"type":"Point"},"properties":{"name":"Ammat","osm_id":"3725823653","tag":{"natural":"tree"}},"type":"Feature"},
	{"geometry":{"coordinates":[83.963597,28.205864],"type":"Point"},"properties":{"osm_id":"3730042999","tag":{"natural":"tree"}},"type":"Feature"},
	{"geometry":{"coordinates":[83.956789,28.207677],"type":"Point"},"properties":{"osm_id":"3730146401","tag":{"natural":"tree"}},"type":"Feature"},
	{"geometry":{"coordinates":[83.956979,28.207636],"type":"Point"},"properties":{"osm_id":"3730146402","tag":{"natural":"tree"}},"type":"Feature"},
	{"geometry":{"coordinates":[83.956527,28.207416],"type":"Point"},"properties":{"osm_id":"3730146403","tag":{"natural":"tree"}},"type":"Feature"},
	{"geometry":{"coordinates":[83.957301,28.207212],"type":"Point"},"properties":{"osm_id":"3730146404","tag":{"natural":"tree"}},"type":"Feature"},
	{"geometry":{"coordinates":[83.956926,28.206896],"type":"Point"},"properties":{"osm_id":"3730146405","tag":{"natural":"tree"}},"type":"Feature"},
	{"geometry":{"coordinates":[83.958184,28.206388],"type":"Point"},"properties":{"osm_id":"3730146406","tag":{"natural":"tree"}},"type":"Feature"},
	{"geometry":{"coordinates":[83.958152,28.206272],"type":"Point"},"properties":{"osm_id":"3730146407","tag":{"natural":"tree"}},"type":"Feature"},
	{"geometry":{"coordinates":[83.956087,28.208744],"type":"Point"},"properties":{"osm_id":"3730146408","tag":{"natural":"tree"}},"type":"Feature"},
	{"geometry":{"coordinates":[83.956078,28.208878],"type":"Point"},"properties":{"osm_id":"3730146409","tag":{"natural":"tree"}},"type":"Feature"},
	{"geometry":{"coordinates":[83.957338,28.208389],"type":"Point"},"properties":{"osm_id":"3730219539","tag":{"natural":"tree"}},"type":"Feature"},
	{"geometry":{"coordinates":[83.985701,28.211994],"type":"Point"},"properties":{"osm_id":"3802999335","tag":{"natural":"tree"}},"type":"Feature"},
	{"geometry":{"coordinates":[83.965578,28.203842],"type":"Point"},"properties":{"osm_id":"4061845195","tag":{"natural":"tree"}},"type":"Feature"},
	{"geometry":{"coordinates":[83.96324,28.204275],"type":"Point"},"properties":{"osm_id":"4061845197","tag":{"natural":"tree"}},"type":"Feature"},
	{"geometry":{"coordinates":[84.014939,28.166918],"type":"Point"},"properties":{"name":"Bachibaduwa, Pipal Bot Chautari","osm_id":"4063252083","tag":{"name:ne":"\u00e0\u00a4\u00aa\u00e0\u00a4\u00bf\u00e0\u00a4\u00aa\u00e0\u00a4\u00b2 \u00e0\u00a4\u00ac\u00e0\u00a5\u008b\u00e0\u00a4\u009f \u00e0\u00a4\u009a\u00e0\u00a5\u008c\u00e0\u00a4\u00a4\u00e0\u00a4\u00be\u00e0\u00a4\u00b0\u00e0\u00a5\u0080, \u00e0\u00a4\u00ac\u00e0\u00a4\u00be\u00e0\u00a4\u009b\u00e0\u00a4\u00bf\u00e0\u00a4\u00ac\u00e0\u00a4\u00a2\u00e0\u00a5\u0081\u00e0\u00a4\u00b5\u00e0\u00a4\u00be","natural":"tree"}},"type":"Feature"},
	{"geometry":{"coordinates":[83.981927,28.214298],"type":"Point"},"properties":{"osm_id":"4068343404","tag":{"natural":"tree"}},"type":"Feature"},
	{"geometry":{"coordinates":[83.982091,28.214714],"type":"Point"},"properties":{"osm_id":"4068343405","tag":{"natural":"tree"}},"type":"Feature"},
	{"geometry":{"coordinates":[83.982566,28.215766],"type":"Point"},"properties":{"osm_id":"4068343406","tag":{"natural":"tree"}},"type":"Feature"},
	{"geometry":{"coordinates":[83.983099,28.216966],"type":"Point"},"properties":{"osm_id":"4068343407","tag":{"natural":"tree"}},"type":"Feature"},
	{"geometry":{"coordinates":[83.983303,28.217425],"type":"Point"},"properties":{"osm_id":"4068343408","tag":{"natural":"tree"}},"type":"Feature"},
	{"geometry":{"coordinates":[83.983518,28.217907],"type":"Point"},"properties":{"osm_id":"4068343409","tag":{"natural":"tree"}},"type":"Feature"},
	{"geometry":{"coordinates":[83.982877,28.216378],"type":"Point"},"properties":{"osm_id":"4068343410","tag":{"natural":"tree"}},"type":"Feature"},
	{"geometry":{"coordinates":[83.981812,28.214005],"type":"Point"},"properties":{"osm_id":"4068343411","tag":{"natural":"tree"}},"type":"Feature"},
	{"geometry":{"coordinates":[83.981675,28.213769],"type":"Point"},"properties":{"osm_id":"4068343412","tag":{"natural":"tree"}},"type":"Feature"},
	{"geometry":{"coordinates":[83.98122,28.21225],"type":"Point"},"properties":{"osm_id":"4068343413","tag":{"natural":"tree"}},"type":"Feature"},
	{"geometry":{"coordinates":[83.950699,28.195961],"type":"Point"},"properties":{"name":"resting tree","osm_id":"4158677036","tag":{"height":"around 10ft","name:ne":"\u00e0\u00a4\u00b0\u00e0\u00a5\u0087\u00e0\u00a4\u00b8\u00e0\u00a4\u009f\u00e0\u00a4\u00bf\u00e0\u00a4\u0082\u00e0\u00a4\u0097 \u00e0\u00a4\u009f\u00e0\u00a5\u008d\u00e0\u00a4\u00b0\u00e0\u00a5\u0080","natural":"tree"}},"type":"Feature"},
	{"geometry":{"coordinates":[83.994521,28.208817],"type":"Point"},"properties":{"osm_id":"4160616735","tag":{"leaf_cycle":"semi_evergreen","leaf_type":"broadleaved","natural":"tree"}},"type":"Feature"},
	{"geometry":{"coordinates":[83.987868,28.223827],"type":"Point"},"properties":{"osm_id":"4165365733","tag":{"natural":"tree"}},"type":"Feature"},
	{"geometry":{"coordinates":[83.979679,28.20983],"type":"Point"},"properties":{"osm_id":"4172655794","tag":{"natural":"tree"}},"type":"Feature"},
	{"geometry":{"coordinates":[83.976459,28.218002],"type":"Point"},"properties":{"osm_id":"4180053257","tag":{"natural":"tree"}},"type":"Feature"},
	{"geometry":{"coordinates":[83.976904,28.21827],"type":"Point"},"properties":{"osm_id":"4180053274","tag":{"natural":"tree"}},"type":"Feature"},
	{"geometry":{"coordinates":[83.976951,28.218334],"type":"Point"},"properties":{"osm_id":"4180053276","tag":{"natural":"tree"}},"type":"Feature"},
	{"geometry":{"coordinates":[83.977007,28.218436],"type":"Point"},"properties":{"osm_id":"4180053281","tag":{"natural":"tree"}},"type":"Feature"},
	{"geometry":{"coordinates":[83.977025,28.218474],"type":"Point"},"properties":{"osm_id":"4180053284","tag":{"natural":"tree"}},"type":"Feature"},
	{"geometry":{"coordinates":[83.977048,28.21854],"type":"Point"},"properties":{"osm_id":"4180078592","tag":{"natural":"tree"}},"type":"Feature"},
	{"geometry":{"coordinates":[83.97707,28.218594],"type":"Point"},"properties":{"osm_id":"4180078596","tag":{"natural":"tree"}},"type":"Feature"},
	{"geometry":{"coordinates":[83.977082,28.218644],"type":"Point"},"properties":{"osm_id":"4180078597","tag":{"natural":"tree"}},"type":"Feature"},
	{"geometry":{"coordinates":[83.978562,28.21911],"type":"Point"},"properties":{"osm_id":"4180613580","tag":{"natural":"tree"}},"type":"Feature"},
	{"geometry":{"coordinates":[84.002257,28.20843],"type":"Point"},"properties":{"osm_id":"4199833466","tag":{"natural":"tree"}},"type":"Feature"},
	{"geometry":{"coordinates":[84.002094,28.206621],"type":"Point"},"properties":{"osm_id":"4218906000","tag":{"natural":"tree"}},"type":"Feature"},
	{"geometry":{"coordinates":[83.994434,28.210418],"type":"Point"},"properties":{"name":"Peepal Tree","osm_id":"4225212574","tag":{"name:ne":"\u00e0\u00a4\u00aa\u00e0\u00a4\u00bf\u00e0\u00a4\u00aa\u00e0\u00a4\u00b2 \u00e0\u00a4\u0095\u00e0\u00a5\u008b \u00e0\u00a4\u00ac\u00e0\u00a5\u008b\u00e0\u00a4\u009f","natural":"tree"}},"type":"Feature"},
	{"geometry":{"coordinates":[83.999834,28.186301],"type":"Point"},"properties":{"osm_id":"4228041731","tag":{"natural":"tree"}},"type":"Feature"},
	{"geometry":{"coordinates":[84.000238,28.184968],"type":"Point"},"properties":{"osm_id":"4228041800","tag":{"natural":"tree"}},"type":"Feature"},
	{"geometry":{"coordinates":[84.002524,28.184601],"type":"Point"},"properties":{"osm_id":"4232956142","tag":{"natural":"tree"}},"type":"Feature"},
	{"geometry":{"coordinates":[83.995296,28.211816],"type":"Point"},"properties":{"osm_id":"4242360830","tag":{"natural":"tree"}},"type":"Feature"},
	{"geometry":{"coordinates":[84.018473,28.179579],"type":"Point"},"properties":{"osm_id":"4308875971","tag":{"natural":"tree"}},"type":"Feature"},
	{"geometry":{"coordinates":[84.018148,28.179799],"type":"Point"},"properties":{"osm_id":"4308875972","tag":{"natural":"tree"}},"type":"Feature"},
	{"geometry":{"coordinates":[84.018299,28.179723],"type":"Point"},"properties":{"osm_id":"4308875973","tag":{"natural":"tree"}},"type":"Feature"},
	{"geometry":{"coordinates":[84.01865,28.179482],"type":"Point"},"properties":{"osm_id":"4308875974","tag":{"natural":"tree"}},"type":"Feature"},
	{"geometry":{"coordinates":[84.018712,28.179355],"type":"Point"},"properties":{"osm_id":"4308875975","tag":{"natural":"tree"}},"type":"Feature"},
	{"geometry":{"coordinates":[84.019414,28.17843],"type":"Point"},"properties":{"osm_id":"4308903125","tag":{"natural":"tree"}},"type":"Feature"},
	{"geometry":{"coordinates":[84.01924,28.178603],"type":"Point"},"properties":{"osm_id":"4308903126","tag":{"natural":"tree"}},"type":"Feature"},
	{"geometry":{"coordinates":[83.954503,28.156798],"type":"Point"},"properties":{"name":"Chautari","osm_id":"4367788093","tag":{"natural":"tree"}},"type":"Feature"},
	{"geometry":{"coordinates":[83.965592,28.203865],"type":"Point"},"properties":{"osm_id":"4625570653","tag":{"natural":"tree"}},"type":"Feature"},
	{"geometry":{"coordinates":[83.992183,28.176423],"type":"Point"},"properties":{"osm_id":"4912217711","tag":{"name:ne":"\u00e0\u00a4\u009a\u00e0\u00a5\u008c\u00e0\u00a4\u00a4\u00e0\u00a4\u00be\u00e0\u00a4\u00b0\u00e0\u00a5\u0080","natural":"tree"}},"type":"Feature"},
	{"geometry":{"coordinates":[83.981955,28.225596],"type":"Point"},"properties":{"osm_id":"4916015259","tag":{"natural":"tree"}},"type":"Feature"},
	{"geometry":{"coordinates":[83.982079,28.197714],"type":"Point"},"properties":{"name":"Pipal Tree","osm_id":"5025590551","tag":{"addr:city":"Pokhara Lekhanath Metropolitan City","addr:place":"Radha Krishna Chowk Gharipatan","height":"20 meter","leaf_cycle":"semi_evergreen","leaf_type":"leafless","natural":"tree"}},"type":"Feature"},
	{"geometry":{"coordinates":[83.972889,28.214842],"type":"Point"},"properties":{"name":"Pipal Tree","osm_id":"5026230526","tag":{"addr:city":"Pokhara Lekhanath Metropolitan City","addr:place":"Santinagar","amenity":"Tree","leaf_type":"broadleaved","natural":"tree"}},"type":"Feature"},
	{"geometry":{"coordinates":[83.952305,28.191601],"type":"Point"},"properties":{"osm_id":"5040575640","tag":{"natural":"tree"}},"type":"Feature"},
	{"geometry":{"coordinates":[83.99576,28.186349],"type":"Point"},"properties":{"osm_id":"5096668185","tag":{"natural":"tree"}},"type":"Feature"},
	{"geometry":{"coordinates":[84.017206,28.177703],"type":"Point"},"properties":{"osm_id":"5230127907","tag":{"natural":"tree"}},"type":"Feature"},
	{"geometry":{"coordinates":[84.015828,28.177934],"type":"Point"},"properties":{"osm_id":"5230127908","tag":{"natural":"tree"}},"type":"Feature"},
	{"geometry":{"coordinates":[84.017008,28.177977],"type":"Point"},"properties":{"osm_id":"5230127909","tag":{"natural":"tree"}},"type":"Feature"},
	{"geometry":{"coordinates":[84.015779,28.178256],"type":"Point"},"properties":{"osm_id":"5230127910","tag":{"natural":"tree"}},"type":"Feature"},
	{"geometry":{"coordinates":[84.016809,28.178261],"type":"Point"},"properties":{"osm_id":"5230127911","tag":{"natural":"tree"}},"type":"Feature"},
	{"geometry":{"coordinates":[84.017668,28.178317],"type":"Point"},"properties":{"osm_id":"5230127912","tag":{"natural":"tree"}},"type":"Feature"},
	{"geometry":{"coordinates":[84.017936,28.178521],"type":"Point"},"properties":{"osm_id":"5230127913","tag":{"natural":"tree"}},"type":"Feature"},
	{"geometry":{"coordinates":[84.01652,28.178932],"type":"Point"},"properties":{"osm_id":"5230127914","tag":{"natural":"tree"}},"type":"Feature"},
	{"geometry":{"coordinates":[84.016423,28.179017],"type":"Point"},"properties":{"osm_id":"5230127915","tag":{"natural":"tree"}},"type":"Feature"},
	{"geometry":{"coordinates":[83.98818,28.215448],"type":"Point"},"properties":{"osm_id":"5239051185","tag":{"natural":"tree"}},"type":"Feature"},
	{"geometry":{"coordinates":[83.987263,28.215701],"type":"Point"},"properties":{"osm_id":"5239051186","tag":{"natural":"tree"}},"type":"Feature"},
	{"geometry":{"coordinates":[83.987105,28.216006],"type":"Point"},"properties":{"osm_id":"5239051187","tag":{"natural":"tree"}},"type":"Feature"},
	{"geometry":{"coordinates":[83.987488,28.216146],"type":"Point"},"properties":{"osm_id":"5239051188","tag":{"natural":"tree"}},"type":"Feature"},
	{"geometry":{"coordinates":[83.97773,28.223361],"type":"Point"},"properties":{"osm_id":"5239103329","tag":{"natural":"tree"}},"type":"Feature"},
	{"geometry":{"coordinates":[83.977538,28.223399],"type":"Point"},"properties":{"osm_id":"5239103331","tag":{"natural":"tree"}},"type":"Feature"},
	{"geometry":{"coordinates":[83.977301,28.22355],"type":"Point"},"properties":{"osm_id":"5239103337","tag":{"natural":"tree"}},"type":"Feature"},
	{"geometry":{"coordinates":[83.976206,28.225689],"type":"Point"},"properties":{"osm_id":"5239105029","tag":{"natural":"tree"}},"type":"Feature"},
	{"geometry":{"coordinates":[84.018237,28.224354],"type":"Point"},"properties":{"osm_id":"5263068037","tag":{"natural":"tree"}},"type":"Feature"},
	{"geometry":{"coordinates":[84.016992,28.22443],"type":"Point"},"properties":{"osm_id":"5263068038","tag":{"natural":"tree"}},"type":"Feature"},
	{"geometry":{"coordinates":[84.014085,28.226769],"type":"Point"},"properties":{"osm_id":"5263068039","tag":{"natural":"tree"}},"type":"Feature"},
	{"geometry":{"coordinates":[84.011649,28.223206],"type":"Point"},"properties":{"osm_id":"5263069947","tag":{"natural":"tree"}},"type":"Feature"},
	{"geometry":{"coordinates":[84.011778,28.225172],"type":"Point"},"properties":{"osm_id":"5263069948","tag":{"natural":"tree"}},"type":"Feature"},
	{"geometry":{"coordinates":[84.013151,28.22521],"type":"Point"},"properties":{"osm_id":"5263069949","tag":{"natural":"tree"}},"type":"Feature"},
	{"geometry":{"coordinates":[84.005842,28.226622],"type":"Point"},"properties":{"osm_id":"5263070857","tag":{"natural":"tree"}},"type":"Feature"},
	{"geometry":{"coordinates":[84.005094,28.226735],"type":"Point"},"properties":{"osm_id":"5263070858","tag":{"natural":"tree"}},"type":"Feature"},
	{"geometry":{"coordinates":[83.982619,28.223025],"type":"Point"},"properties":{"osm_id":"5263076781","tag":{"natural":"tree"}},"type":"Feature"},
	{"geometry":{"coordinates":[83.982195,28.223746],"type":"Point"},"properties":{"osm_id":"5263076782","tag":{"natural":"tree"}},"type":"Feature"},
	{"geometry":{"coordinates":[83.982933,28.223902],"type":"Point"},"properties":{"osm_id":"5263076783","tag":{"natural":"tree"}},"type":"Feature"},
	{"geometry":{"coordinates":[83.988007,28.217045],"type":"Point"},"properties":{"osm_id":"5263093371","tag":{"natural":"tree"}},"type":"Feature"},
	{"geometry":{"coordinates":[83.983622,28.216234],"type":"Point"},"properties":{"osm_id":"5263135235","tag":{"natural":"tree"}},"type":"Feature"},
	{"geometry":{"coordinates":[83.980414,28.217548],"type":"Point"},"properties":{"osm_id":"5263135236","tag":{"natural":"tree"}},"type":"Feature"},
	{"geometry":{"coordinates":[83.97947,28.22091],"type":"Point"},"properties":{"osm_id":"5263135237","tag":{"natural":"tree"}},"type":"Feature"},
	{"geometry":{"coordinates":[83.989828,28.225195],"type":"Point"},"properties":{"osm_id":"5263135238","tag":{"natural":"tree"}},"type":"Feature"},
	{"geometry":{"coordinates":[84.000553,28.211967],"type":"Point"},"properties":{"osm_id":"5263136233","tag":{"natural":"tree"}},"type":"Feature"},
	{"geometry":{"coordinates":[84.000926,28.212177],"type":"Point"},"properties":{"osm_id":"5263136234","tag":{"natural":"tree"}},"type":"Feature"},
	{"geometry":{"coordinates":[84.001317,28.211114],"type":"Point"},"properties":{"osm_id":"5263137399","tag":{"natural":"tree"}},"type":"Feature"},
	{"geometry":{"coordinates":[83.995963,28.214224],"type":"Point"},"properties":{"osm_id":"5263137400","tag":{"natural":"tree"}},"type":"Feature"},
	{"geometry":{"coordinates":[84.002028,28.202679],"type":"Point"},"properties":{"osm_id":"5263199522","tag":{"natural":"tree"}},"type":"Feature"},
	{"geometry":{"coordinates":[84.023175,28.20558],"type":"Point"},"properties":{"osm_id":"5263207358","tag":{"natural":"tree"}},"type":"Feature"},
	{"geometry":{"coordinates":[83.988975,28.195638],"type":"Point"},"properties":{"osm_id":"5263391810","tag":{"natural":"tree"}},"type":"Feature"},
	{"geometry":{"coordinates":[83.973376,28.218525],"type":"Point"},"properties":{"osm_id":"5271280278","tag":{"natural":"tree"}},"type":"Feature"},
	{"geometry":{"coordinates":[83.970369,28.220151],"type":"Point"},"properties":{"osm_id":"5271280279","tag":{"natural":"tree"}},"type":"Feature"},
	{"geometry":{"coordinates":[83.970053,28.213508],"type":"Point"},"properties":{"osm_id":"5271286460","tag":{"natural":"tree"}},"type":"Feature"},
	{"geometry":{"coordinates":[83.967945,28.210155],"type":"Point"},"properties":{"osm_id":"5271433537","tag":{"natural":"tree"}},"type":"Feature"},
	{"geometry":{"coordinates":[83.972194,28.208394],"type":"Point"},"properties":{"osm_id":"5271434034","tag":{"natural":"tree"}},"type":"Feature"},
	{"geometry":{"coordinates":[83.973109,28.209119],"type":"Point"},"properties":{"osm_id":"5357244788","tag":{"addr:city":"Pokhara Lekhanath Metropolitan City","leaf_cycle":"evergreen","natural":"tree"}},"type":"Feature"},
	{"geometry":{"coordinates":[83.966437,28.209293],"type":"Point"},"properties":{"name":"Pipal Tree","osm_id":"5437320570","tag":{"height":"20 m","leaf_cycle":"mixed","leaf_type":"mixed","natural":"tree"}},"type":"Feature"},
	{"geometry":{"coordinates":[83.965205,28.204135],"type":"Point"},"properties":{"name":"pipal tree","osm_id":"5456209332","tag":{"genus":"pipal_neplese","height":"20","leaf_cycle":"semi_deciduous","leaf_type":"complex","natural":"tree"}},"type":"Feature"},
	{"geometry":{"coordinates":[83.96528,28.206838],"type":"Point"},"properties":{"name":"Mango Tree","osm_id":"5458641703","tag":{"height":"3.5 m","natural":"tree"}},"type":"Feature"},
	{"geometry":{"coordinates":[83.952316,28.191602],"type":"Point"},"properties":{"name":"Tree","osm_id":"5461845325","tag":{"natural":"tree","species":"Pipal"}},"type":"Feature"},
	{"geometry":{"coordinates":[83.95642,28.186569],"type":"Point"},"properties":{"name":"Chautari","osm_id":"5462090269","tag":{"natural":"tree"}},"type":"Feature"},
	{"geometry":{"coordinates":[83.980859,28.198274],"type":"Point"},"properties":{"name":"Ashoka Tree","osm_id":"5464252706","tag":{"height":"15","leaf_cycle":"semi_evergreen","leaf_type":"mixed","natural":"tree"}},"type":"Feature"},
	{"geometry":{"coordinates":[83.977391,28.191196],"type":"Point"},"properties":{"osm_id":"5470393628","tag":{"natural":"tree"}},"type":"Feature"},
	{"geometry":{"coordinates":[83.983174,28.189424],"type":"Point"},"properties":{"osm_id":"5472092559","tag":{"natural":"tree"}},"type":"Feature"},
	{"geometry":{"coordinates":[83.988075,28.179207],"type":"Point"},"properties":{"name":"Bar Pipal Chautari","osm_id":"5472132066","tag":{"natural":"tree"}},"type":"Feature"},
	{"geometry":{"coordinates":[83.988046,28.178547],"type":"Point"},"properties":{"name":"Ramghate Chautari","osm_id":"5472132075","tag":{"natural":"tree"}},"type":"Feature"},
	{"geometry":{"coordinates":[83.992422,28.175927],"type":"Point"},"properties":{"osm_id":"5472132085","tag":{"natural":"tree"}},"type":"Feature"},
	{"geometry":{"coordinates":[83.990273,28.178104],"type":"Point"},"properties":{"osm_id":"5472155126","tag":{"natural":"tree"}},"type":"Feature"},
	{"geometry":{"coordinates":[83.969463,28.19306],"type":"Point"},"properties":{"osm_id":"5472209315","tag":{"natural":"tree"}},"type":"Feature"},
	{"geometry":{"coordinates":[83.969772,28.192227],"type":"Point"},"properties":{"osm_id":"5472209317","tag":{"natural":"tree"}},"type":"Feature"},
	{"geometry":{"coordinates":[83.977674,28.226883],"type":"Point"},"properties":{"name":"Pipal Tree","osm_id":"5504193917","tag":{"natural":"tree"}},"type":"Feature"},
	{"geometry":{"coordinates":[84.009597,28.208842],"type":"Point"},"properties":{"name":"maula Patan Chautari","osm_id":"5533208222","tag":{"addr:city":"Pokhara Lekhnath Metropolitian City","addr:country":"NP","addr:place":"Miya Patan","addr:street":"Boudhan Marga","natural":"tree"}},"type":"Feature"},
	{"geometry":{"coordinates":[83.956927,28.172254],"type":"Point"},"properties":{"osm_id":"5550449910","tag":{"natural":"tree"}},"type":"Feature"},
	{"geometry":{"coordinates":[83.956691,28.167591],"type":"Point"},"properties":{"osm_id":"5550449917","tag":{"natural":"tree"}},"type":"Feature"},
	{"geometry":{"coordinates":[83.954163,28.156918],"type":"Point"},"properties":{"osm_id":"5550547034","tag":{"bench":"yes","natural":"tree"}},"type":"Feature"},
	{"geometry":{"coordinates":[83.953691,28.156608],"type":"Point"},"properties":{"osm_id":"5550547041","tag":{"natural":"tree"}},"type":"Feature"},
	{"geometry":{"coordinates":[83.953477,28.159011],"type":"Point"},"properties":{"osm_id":"5550586360","tag":{"natural":"tree"}},"type":"Feature"},
	{"geometry":{"coordinates":[83.983513,28.158947],"type":"Point"},"properties":{"name":"Chautari","osm_id":"5550675435","tag":{"natural":"tree"}},"type":"Feature"},
	{"geometry":{"coordinates":[84.010013,28.15952],"type":"Point"},"properties":{"name":"Chautari","osm_id":"5556787476","tag":{"natural":"tree"}},"type":"Feature"},
	{"geometry":{"coordinates":[84.011369,28.213897],"type":"Point"},"properties":{"osm_id":"5598345054","tag":{"natural":"tree"}},"type":"Feature"},
	{"geometry":{"coordinates":[84.01821,28.212057],"type":"Point"},"properties":{"osm_id":"5598345091","tag":{"natural":"tree"}},"type":"Feature"},
	{"geometry":{"coordinates":[84.016863,28.211763],"type":"Point"},"properties":{"name":"Chautari","osm_id":"5598345093","tag":{"natural":"tree"}},"type":"Feature"},
	{"geometry":{"coordinates":[84.01203,28.211918],"type":"Point"},"properties":{"osm_id":"5598345117","tag":{"natural":"tree"}},"type":"Feature"},
	{"geometry":{"coordinates":[84.011583,28.210284],"type":"Point"},"properties":{"name":"Golo Sami ko chautari , Kundahar Chautara","osm_id":"5598345126","tag":{"leaf_type":"broadleaved","natural":"tree"}},"type":"Feature"},
	{"geometry":{"coordinates":[84.011635,28.210798],"type":"Point"},"properties":{"name":"Chautari","osm_id":"5598345132","tag":{"natural":"tree"}},"type":"Feature"},
	{"geometry":{"coordinates":[84.007968,28.210014],"type":"Point"},"properties":{"osm_id":"5598608594","tag":{"natural":"tree"}},"type":"Feature"},
	{"geometry":{"coordinates":[84.019489,28.215874],"type":"Point"},"properties":{"osm_id":"5598609635","tag":{"natural":"tree"}},"type":"Feature"},
	{"geometry":{"coordinates":[84.013108,28.219584],"type":"Point"},"properties":{"name":"Chautari","osm_id":"5598609663","tag":{"natural":"tree"}},"type":"Feature"},
	{"geometry":{"coordinates":[84.019862,28.21684],"type":"Point"},"properties":{"osm_id":"5598643487","tag":{"natural":"tree"}},"type":"Feature"},
	{"geometry":{"coordinates":[84.001887,28.18457],"type":"Point"},"properties":{"name":"Chautaari","osm_id":"5608424436","tag":{"natural":"tree"}},"type":"Feature"},
	{"geometry":{"coordinates":[83.999111,28.221967],"type":"Point"},"properties":{"name":"Chautari","osm_id":"5612877351","tag":{"natural":"tree"}},"type":"Feature"},
	{"geometry":{"coordinates":[83.993769,28.218259],"type":"Point"},"properties":{"osm_id":"5616651946","tag":{"natural":"tree"}},"type":"Feature"},
	{"geometry":{"coordinates":[84.011035,28.224694],"type":"Point"},"properties":{"name":"Chautaari","osm_id":"5618869092","tag":{"natural":"tree"}},"type":"Feature"},
	{"geometry":{"coordinates":[84.008237,28.22235],"type":"Point"},"properties":{"name":"Chautaari","osm_id":"5618869101","tag":{"natural":"tree"}},"type":"Feature"},
	{"geometry":{"coordinates":[83.999414,28.218926],"type":"Point"},"properties":{"name":"Chautaari","osm_id":"5618890833","tag":{"natural":"tree"}},"type":"Feature"},
	{"geometry":{"coordinates":[84.006025,28.2165],"type":"Point"},"properties":{"name":"Chautaari","osm_id":"5618890843","tag":{"natural":"tree"}},"type":"Feature"},
	{"geometry":{"coordinates":[83.98639,28.208987],"type":"Point"},"properties":{"osm_id":"5686974794","tag":{"natural":"tree"}},"type":"Feature"},
	{"geometry":{"coordinates":[83.986485,28.208939],"type":"Point"},"properties":{"osm_id":"5686976978","tag":{"natural":"tree"}},"type":"Feature"},
	{"geometry":{"coordinates":[83.988161,28.208503],"type":"Point"},"properties":{"osm_id":"5687103944","tag":{"natural":"tree"}},"type":"Feature"},
	{"geometry":{"coordinates":[83.987929,28.208367],"type":"Point"},"properties":{"osm_id":"5687105617","tag":{"natural":"tree"}},"type":"Feature"},
	{"geometry":{"coordinates":[83.982765,28.206877],"type":"Point"},"properties":{"osm_id":"5689558522","tag":{"natural":"tree"}},"type":"Feature"},
	{"geometry":{"coordinates":[83.984918,28.211329],"type":"Point"},"properties":{"osm_id":"5692735704","tag":{"natural":"tree"}},"type":"Feature"},
	{"geometry":{"coordinates":[83.957271,28.216136],"type":"Point"},"properties":{"osm_id":"6024894502","tag":{"natural":"tree"}},"type":"Feature"},
	{"geometry":{"coordinates":[83.956051,28.208456],"type":"Point"},"properties":{"osm_id":"6024960691","tag":{"natural":"tree"}},"type":"Feature"},
	{"geometry":{"coordinates":[83.973211,28.216498],"type":"Point"},"properties":{"osm_id":"6522619865","tag":{"natural":"tree"}},"type":"Feature"},
	{"geometry":{"coordinates":[83.966473,28.211553],"type":"Point"},"properties":{"osm_id":"7203792967","tag":{"denotation":"religious","leaf_cycle":"evergreen","leaf_type":"broadleaved","natural":"tree","species":"Ficus religiosa","species:en":"sacred fig","species:ne":"\u00e0\u00a4\u00aa\u00e0\u00a4\u00bf\u00e0\u00a4\u00aa\u00e0\u00a4\u00b2"}},"type":"Feature"},
	{"geometry":{"coordinates":[83.966358,28.211537],"type":"Point"},"properties":{"osm_id":"7203792968","tag":{"denotation":"religious","leaf_cycle":"evergreen","leaf_type":"broadleaved","natural":"tree","species":"Ficus benghalensis","species:en":"banyan","species:ne":"\u00e0\u00a4\u00ac\u00e0\u00a4\u00b0"}},"type":"Feature"},
	{"geometry":{"coordinates":[83.96406,28.211717],"type":"Point"},"properties":{"osm_id":"7205200578","tag":{"leaf_cycle":"evergreen","leaf_type":"broadleaved","natural":"tree"}},"type":"Feature"},
	{"geometry":{"coordinates":[83.963873,28.211823],"type":"Point"},"properties":{"osm_id":"7205200580","tag":{"leaf_cycle":"evergreen","leaf_type":"broadleaved","natural":"tree"}},"type":"Feature"},
	{"geometry":{"coordinates":[83.963714,28.211807],"type":"Point"},"properties":{"osm_id":"7205200581","tag":{"leaf_cycle":"deciduous","leaf_type":"broadleaved","natural":"tree","species":"Bauhinia variegata","species:en":"mountain ebony","species:ne":"\u00e0\u00a4\u0095\u00e0\u00a5\u008b\u00e0\u00a4\u0087\u00e0\u00a4\u00b0\u00e0\u00a4\u00be\u00e0\u00a4\u00b2\u00e0\u00a5\u008b"}},"type":"Feature"},
	{"geometry":{"coordinates":[83.960686,28.213772],"type":"Point"},"properties":{"osm_id":"7206181124","tag":{"leaf_cycle":"evergreen","leaf_type":"broadleaved","natural":"tree","species":"Ficus benghalensis","species:en":"banyan","species:ne":"\u00e0\u00a4\u00ac\u00e0\u00a4\u00b0"}},"type":"Feature"},
	{"geometry":{"coordinates":[83.960649,28.213913],"type":"Point"},"properties":{"osm_id":"7206181125","tag":{"denotation":"religious","leaf_cycle":"evergreen","leaf_type":"broadleaved","natural":"tree","species":"Ficus benghalensis","species:en":"banyan","species:ne":"\u00e0\u00a4\u00ac\u00e0\u00a4\u00b0"}},"type":"Feature"},
	{"geometry":{"coordinates":[83.960638,28.214064],"type":"Point"},"properties":{"osm_id":"7206181126","tag":{"denotation":"religious","leaf_cycle":"evergreen","leaf_type":"broadleaved","natural":"tree","species":"Ficus religiosa","species:en":"sacred fig","species:ne":"\u00e0\u00a4\u00aa\u00e0\u00a4\u00bf\u00e0\u00a4\u00aa\u00e0\u00a4\u00b2"}},"type":"Feature"},
	{"geometry":{"coordinates":[83.960665,28.214249],"type":"Point"},"properties":{"osm_id":"7206181127","tag":{"leaf_cycle":"evergreen","leaf_type":"broadleaved","natural":"tree","species":"Ficus benjamina","species:en":"weeping fig","species:ne":"\u00e0\u00a4\u00b8\u00e0\u00a4\u00ae\u00e0\u00a5\u0080"}},"type":"Feature"},
	{"geometry":{"coordinates":[83.960667,28.214387],"type":"Point"},"properties":{"osm_id":"7206181128","tag":{"leaf_cycle":"evergreen","leaf_type":"broadleaved","natural":"tree","species":"Ficus benjamina","species:en":"weeping fig","species:ne":"\u00e0\u00a4\u00b8\u00e0\u00a4\u00ae\u00e0\u00a5\u0080"}},"type":"Feature"},
	{"geometry":{"coordinates":[83.97644,28.203027],"type":"Point"},"properties":{"osm_id":"7780805977","tag":{"natural":"tree"}},"type":"Feature"},
	{"geometry":{"coordinates":[83.968295,28.210178],"type":"Point"},"properties":{"osm_id":"7780814331","tag":{"natural":"tree"}},"type":"Feature"},
	{"geometry":{"coordinates":[83.975543,28.205331],"type":"Point"},"properties":{"osm_id":"7796975555","tag":{"natural":"tree"}},"type":"Feature"},
	{"geometry":{"coordinates":[83.975458,28.205369],"type":"Point"},"properties":{"osm_id":"7796975556","tag":{"natural":"tree"}},"type":"Feature"},
	{"geometry":{"coordinates":[83.975409,28.2054],"type":"Point"},"properties":{"osm_id":"7796975557","tag":{"natural":"tree"}},"type":"Feature"},
	{"geometry":{"coordinates":[83.97524,28.205441],"type":"Point"},"properties":{"osm_id":"7796975558","tag":{"natural":"tree"}},"type":"Feature"},
	{"geometry":{"coordinates":[83.97031,28.2141],"type":"Point"},"properties":{"osm_id":"7826052851","tag":{"natural":"tree"}},"type":"Feature"},
	{"geometry":{"coordinates":[83.968788,28.213048],"type":"Point"},"properties":{"osm_id":"7826089349","tag":{"natural":"tree"}},"type":"Feature"}
]
}
