{
"type": "FeatureCollection",
"features": [
	{"geometry":{"coordinates":[-122.816563,49.250812],"type":"Point"},"properties":{"osm_id":"1383976160","tag":{"amenity":"recycling","recycling:cans":"yes","recycling:glass":"yes","recycling:paper":"yes","recycling_type":"container"}},"type":"Feature"},
	{"geometry":{"coordinates":[-122.839907,49.227602],"type":"Point"},"properties":{"highway":"bus_stop","name":"Schooner St (SB) at United Blvd","osm_id":"1736854437","tag":{"amenity":"waste_basket","bench":"no","bus":"yes","network":"Translink","operator":"Coast Mountain Bus Company","public_transport":"platform","shelter":"no"}},"type":"Feature"},
	{"geometry":{"coordinates":[-122.866987,49.236067],"type":"Point"},"properties":{"name":"Return-It","osm_id":"1741290853","tag":{"amenity":"recycling"}},"type":"Feature"},
	{"geometry":{"coordinates":[-122.79586,49.228074],"type":"Point"},"properties":{"osm_id":"4341928024","tag":{"amenity":"waste_basket"}},"type":"Feature"},
	{"geometry":{"coordinates":[-122.792106,49.257932],"type":"Point"},"properties":{"osm_id":"4351908668","tag":{"amenity":"waste_basket"}},"type":"Feature"},
	{"geometry":{"coordinates":[-122.799571,49.243303],"type":"Point"},"properties":{"osm_id":"4351961004","tag":{"amenity":"waste_basket"}},"type":"Feature"},
	{"geometry":{"coordinates":[-122.800385,49.236498],"type":"Point"},"properties":{"osm_id":"4351961009","tag":{"amenity":"waste_basket"}},"type":"Feature"},
	{"geometry":{"coordinates":[-122.803563,49.231598],"type":"Point"},"properties":{"osm_id":"4351961015","tag":{"amenity":"waste_basket"}},"type":"Feature"},
	{"geometry":{"coordinates":[-122.807902,49.230824],"type":"Point"},"properties":{"osm_id":"4351961026","tag":{"amenity":"waste_basket"}},"type":"Feature"},
	{"geometry":{"coordinates":[-122.847138,49.263522],"type":"Point"},"properties":{"osm_id":"4882723421","tag":{"amenity":"waste_basket"}},"type":"Feature"},
	{"geometry":{"coordinates":[-122.816509,49.223952],"type":"Point"},"properties":{"osm_id":"5040051584","tag":{"amenity":"waste_basket"}},"type":"Feature"},
	{"geometry":{"coordinates":[-122.817808,49.223737],"type":"Point"},"properties":{"osm_id":"5059239325","tag":{"amenity":"waste_basket"}},"type":"Feature"},
	{"geometry":{"coordinates":[-122.86549,49.249093],"type":"Point"},"properties":{"osm_id":"5063150222","tag":{"amenity":"waste_basket"}},"type":"Feature"},
	{"geometry":{"coordinates":[-122.862204,49.249038],"type":"Point"},"properties":{"osm_id":"5063150223","tag":{"amenity":"waste_basket"}},"type":"Feature"},
	{"geometry":{"coordinates":[-122.862095,49.249044],"type":"Point"},"properties":{"osm_id":"5063155821","tag":{"amenity":"waste_basket"}},"type":"Feature"},
	{"geometry":{"coordinates":[-122.850248,49.22892],"type":"Point"},"properties":{"osm_id":"5453157081","tag":{"amenity":"waste_basket"}},"type":"Feature"},
	{"geometry":{"coordinates":[-122.815325,49.229153],"type":"Point"},"properties":{"osm_id":"6476786510","tag":{"amenity":"waste_basket"}},"type":"Feature"},
	{"geometry":{"coordinates":[-122.85022,49.210568],"type":"Point"},"properties":{"osm_id":"6992016024","tag":{"amenity":"waste_basket"}},"type":"Feature"},
	{"geometry":{"coordinates":[-122.850223,49.210559],"type":"Point"},"properties":{"osm_id":"6992016025","tag":{"amenity":"waste_basket"}},"type":"Feature"},
	{"geometry":{"coordinates":[-122.850814,49.210521],"type":"Point"},"properties":{"osm_id":"6992016027","tag":{"amenity":"waste_basket"}},"type":"Feature"},
	{"geometry":{"coordinates":[-122.851313,49.210429],"type":"Point"},"properties":{"osm_id":"6992016028","tag":{"amenity":"waste_basket"}},"type":"Feature"},
	{"geometry":{"coordinates":[-122.80004,49.250259],"type":"Point"},"properties":{"osm_id":"7443495246","tag":{"amenity":"waste_basket"}},"type":"Feature"},
	{"geometry":{"coordinates":[-122.80759,49.240726],"type":"Point"},"properties":{"osm_id":"7443495251","tag":{"amenity":"waste_basket"}},"type":"Feature"},
	{"geometry":{"coordinates":[-122.817012,49.211199],"type":"Point"},"properties":{"highway":"street_lamp","osm_id":"7567862327"},"type":"Feature"}
]
}
