{
"type": "FeatureCollection",
"features": [
	{"geometry":{"coordinates":[-122.825112,49.194636],"type":"Point"},"properties":{"osm_id":"4470886315","tag":{"amenity":"waste_basket"}},"type":"Feature"},
	{"geometry":{"coordinates":[-122.826521,49.194149],"type":"Point"},"properties":{"osm_id":"4470889062","tag":{"amenity":"waste_basket"}},"type":"Feature"},
	{"geometry":{"coordinates":[-122.828175,49.198713],"type":"Point"},"properties":{"osm_id":"4470891712","tag":{"amenity":"waste_basket"}},"type":"Feature"},
	{"geometry":{"coordinates":[-122.828827,49.19891],"type":"Point"},"properties":{"osm_id":"4470891713","tag":{"amenity":"waste_basket"}},"type":"Feature"},
	{"geometry":{"coordinates":[-122.826823,49.194317],"type":"Point"},"properties":{"osm_id":"4470907100","tag":{"amenity":"waste_basket"}},"type":"Feature"},
	{"geometry":{"coordinates":[-122.793633,49.187407],"type":"Point"},"properties":{"osm_id":"4493474660","tag":{"amenity":"waste_basket"}},"type":"Feature"},
	{"geometry":{"coordinates":[-122.793216,49.187936],"type":"Point"},"properties":{"osm_id":"4493474661","tag":{"amenity":"waste_basket"}},"type":"Feature"},
	{"geometry":{"coordinates":[-122.79485,49.188481],"type":"Point"},"properties":{"osm_id":"4493474662","tag":{"amenity":"waste_basket"}},"type":"Feature"},
	{"geometry":{"coordinates":[-122.8269,49.193354],"type":"Point"},"properties":{"osm_id":"4502020274","tag":{"amenity":"waste_basket"}},"type":"Feature"},
	{"geometry":{"coordinates":[-122.81457,49.199445],"type":"Point"},"properties":{"name":"Bottle Return Depot","osm_id":"4518459246","tag":{"addr:city":"Surrey","addr:housenumber":"14727","addr:street":"108 Avenue","addr:unit":"100","amenity":"recycling","opening_hours":"Mo-Su 09:00-18:00","phone":"+1-604-588-4489","recycling:beverage_cartons":"yes","recycling:cans":"yes","recycling:glass_bottles":"yes","recycling:plastic_bottles":"yes","recycling_type":"centre","website":"http://www.bcbottledepot.com/","wheelchair":"yes"}},"type":"Feature"},
	{"geometry":{"coordinates":[-122.802969,49.189156],"type":"Point"},"properties":{"osm_id":"4746263327","tag":{"amenity":"waste_disposal"}},"type":"Feature"},
	{"geometry":{"coordinates":[-122.803688,49.189158],"type":"Point"},"properties":{"osm_id":"4746263336","tag":{"amenity":"waste_disposal"}},"type":"Feature"},
	{"geometry":{"coordinates":[-122.803831,49.189842],"type":"Point"},"properties":{"osm_id":"4746263349","tag":{"amenity":"waste_disposal"}},"type":"Feature"},
	{"geometry":{"coordinates":[-122.802774,49.18984],"type":"Point"},"properties":{"osm_id":"4746263358","tag":{"amenity":"waste_disposal"}},"type":"Feature"},
	{"geometry":{"coordinates":[-122.802177,49.189837],"type":"Point"},"properties":{"osm_id":"4746263366","tag":{"amenity":"waste_disposal"}},"type":"Feature"},
	{"geometry":{"coordinates":[-122.804823,49.190089],"type":"Point"},"properties":{"osm_id":"4746263388","tag":{"amenity":"waste_disposal"}},"type":"Feature"},
	{"geometry":{"coordinates":[-122.802301,49.189558],"type":"Point"},"properties":{"osm_id":"4746263401","tag":{"amenity":"waste_disposal"}},"type":"Feature"},
	{"geometry":{"coordinates":[-122.802045,49.189812],"type":"Point"},"properties":{"osm_id":"4746284734","tag":{"amenity":"waste_disposal"}},"type":"Feature"},
	{"geometry":{"coordinates":[-122.803256,49.189424],"type":"Point"},"properties":{"osm_id":"4746284736","tag":{"amenity":"waste_disposal"}},"type":"Feature"},
	{"geometry":{"coordinates":[-122.802774,49.189248],"type":"Point"},"properties":{"osm_id":"4746284739","tag":{"amenity":"waste_disposal"}},"type":"Feature"},
	{"geometry":{"coordinates":[-122.803713,49.189952],"type":"Point"},"properties":{"osm_id":"4746285041","tag":{"amenity":"waste_disposal"}},"type":"Feature"},
	{"geometry":{"coordinates":[-122.803031,49.189053],"type":"Point"},"properties":{"osm_id":"4746285053","tag":{"amenity":"waste_disposal"}},"type":"Feature"},
	{"geometry":{"coordinates":[-122.804211,49.189816],"type":"Point"},"properties":{"osm_id":"4746285058","tag":{"amenity":"waste_disposal"}},"type":"Feature"},
	{"geometry":{"coordinates":[-122.803139,49.189158],"type":"Point"},"properties":{"osm_id":"4746285622","tag":{"amenity":"waste_disposal"}},"type":"Feature"},
	{"geometry":{"coordinates":[-122.798879,49.184675],"type":"Point"},"properties":{"osm_id":"5254530631","tag":{"amenity":"waste_basket","amenity:recycling":"yes","recycling_type":"container"}},"type":"Feature"},
	{"geometry":{"coordinates":[-122.798877,49.184778],"type":"Point"},"properties":{"osm_id":"5254530632","tag":{"amenity":"waste_basket","amenity:recycling":"yes","recycling_type":"container"}},"type":"Feature"},
	{"geometry":{"coordinates":[-122.799155,49.184626],"type":"Point"},"properties":{"osm_id":"5254539827","tag":{"amenity":"waste_basket","amenity:recycling":"yes","covered":"yes","recycling_type":"container"}},"type":"Feature"},
	{"geometry":{"coordinates":[-122.817778,49.198847],"type":"Point"},"properties":{"osm_id":"5692012802","tag":{"amenity":"waste_basket"}},"type":"Feature"},
	{"geometry":{"coordinates":[-122.817046,49.198646],"type":"Point"},"properties":{"osm_id":"5692012804","tag":{"amenity":"waste_basket"}},"type":"Feature"},
	{"geometry":{"coordinates":[-122.789966,49.183951],"type":"Point"},"properties":{"osm_id":"5729461560","tag":{"amenity":"waste_basket"}},"type":"Feature"},
	{"geometry":{"coordinates":[-122.835492,49.185422],"type":"Point"},"properties":{"osm_id":"5924954549","tag":{"amenity":"waste_basket"}},"type":"Feature"},
	{"geometry":{"coordinates":[-122.829071,49.19161],"type":"Point"},"properties":{"osm_id":"5924983975","tag":{"amenity":"waste_basket"}},"type":"Feature"},
	{"geometry":{"coordinates":[-122.798432,49.184934],"type":"Point"},"properties":{"osm_id":"6301148910","tag":{"amenity":"waste_disposal"}},"type":"Feature"},
	{"geometry":{"coordinates":[-122.798379,49.18552],"type":"Point"},"properties":{"osm_id":"6301148912","tag":{"amenity":"waste_disposal"}},"type":"Feature"},
	{"geometry":{"coordinates":[-122.853036,49.196281],"type":"Point"},"properties":{"osm_id":"6796104013","tag":{"amenity":"waste_basket"}},"type":"Feature"},
	{"geometry":{"coordinates":[-122.851417,49.196135],"type":"Point"},"properties":{"osm_id":"6796104029","tag":{"amenity":"waste_basket"}},"type":"Feature"},
	{"geometry":{"coordinates":[-122.851423,49.195386],"type":"Point"},"properties":{"osm_id":"6796104030","tag":{"amenity":"waste_basket"}},"type":"Feature"},
	{"geometry":{"coordinates":[-122.851435,49.194638],"type":"Point"},"properties":{"osm_id":"6796104031","tag":{"amenity":"waste_basket"}},"type":"Feature"},
	{"geometry":{"coordinates":[-122.853231,49.196092],"type":"Point"},"properties":{"osm_id":"6796132590","tag":{"amenity":"waste_basket"}},"type":"Feature"},
	{"geometry":{"coordinates":[-122.853619,49.197258],"type":"Point"},"properties":{"osm_id":"6796132591","tag":{"amenity":"waste_basket"}},"type":"Feature"},
	{"geometry":{"coordinates":[-122.853541,49.197306],"type":"Point"},"properties":{"osm_id":"6796132592","tag":{"amenity":"waste_basket"}},"type":"Feature"},
	{"geometry":{"coordinates":[-122.851203,49.196749],"type":"Point"},"properties":{"osm_id":"6796132593","tag":{"amenity":"waste_basket"}},"type":"Feature"},
	{"geometry":{"coordinates":[-122.860951,49.192513],"type":"Point"},"properties":{"osm_id":"6796184134","tag":{"amenity":"waste_basket"}},"type":"Feature"},
	{"geometry":{"coordinates":[-122.86083,49.192398],"type":"Point"},"properties":{"osm_id":"6796184135","tag":{"amenity":"waste_basket"}},"type":"Feature"},
	{"geometry":{"coordinates":[-122.862213,49.195002],"type":"Point"},"properties":{"osm_id":"6796184136","tag":{"amenity":"waste_basket"}},"type":"Feature"},
	{"geometry":{"coordinates":[-122.861796,49.195053],"type":"Point"},"properties":{"osm_id":"6796184137","tag":{"amenity":"waste_basket"}},"type":"Feature"},
	{"geometry":{"coordinates":[-122.859577,49.204808],"type":"Point"},"properties":{"osm_id":"6796248122","tag":{"amenity":"waste_basket"}},"type":"Feature"},
	{"geometry":{"coordinates":[-122.850636,49.210419],"type":"Point"},"properties":{"osm_id":"6992016026","tag":{"amenity":"waste_basket"}},"type":"Feature"},
	{"geometry":{"coordinates":[-122.862982,49.191948],"type":"Point"},"properties":{"osm_id":"7180664693","tag":{"amenity":"waste_basket"}},"type":"Feature"},
	{"geometry":{"coordinates":[-122.870826,49.183907],"type":"Point"},"properties":{"osm_id":"7252045815","tag":{"amenity":"waste_basket"}},"type":"Feature"},
	{"geometry":{"coordinates":[-122.847494,49.191027],"type":"Point"},"properties":{"osm_id":"7412736818","tag":{"amenity":"waste_basket","waste":"trash"}},"type":"Feature"},
	{"geometry":{"coordinates":[-122.847541,49.189052],"type":"Point"},"properties":{"osm_id":"7412736819","tag":{"amenity":"waste_basket","waste":"trash"}},"type":"Feature"},
	{"geometry":{"coordinates":[-122.847557,49.18915],"type":"Point"},"properties":{"osm_id":"7412736820","tag":{"amenity":"waste_basket","waste":"trash"}},"type":"Feature"},
	{"geometry":{"coordinates":[-122.848142,49.188891],"type":"Point"},"properties":{"osm_id":"7412736821","tag":{"amenity":"waste_basket","waste":"trash"}},"type":"Feature"},
	{"geometry":{"coordinates":[-122.84956,49.188883],"type":"Point"},"properties":{"osm_id":"7412736822","tag":{"amenity":"waste_basket","waste":"trash"}},"type":"Feature"},
	{"geometry":{"coordinates":[-122.845581,49.190559],"type":"Point"},"properties":{"osm_id":"7412743994","tag":{"amenity":"waste_basket","waste":"trash"}},"type":"Feature"},
	{"geometry":{"coordinates":[-122.845187,49.19063],"type":"Point"},"properties":{"osm_id":"7412743995","tag":{"amenity":"waste_basket","waste":"trash"}},"type":"Feature"},
	{"geometry":{"coordinates":[-122.845204,49.189476],"type":"Point"},"properties":{"osm_id":"7412743996","tag":{"amenity":"waste_basket","waste":"trash"}},"type":"Feature"},
	{"geometry":{"coordinates":[-122.848554,49.19087],"type":"Point"},"properties":{"osm_id":"7412746974","tag":{"amenity":"waste_basket","waste":"trash"}},"type":"Feature"},
	{"geometry":{"coordinates":[-122.848554,49.190604],"type":"Point"},"properties":{"osm_id":"7412746975","tag":{"amenity":"waste_basket","waste":"trash"}},"type":"Feature"},
	{"geometry":{"coordinates":[-122.845593,49.189493],"type":"Point"},"properties":{"osm_id":"7412779895","tag":{"amenity":"waste_basket","waste":"trash"}},"type":"Feature"},
	{"geometry":{"coordinates":[-122.850049,49.191517],"type":"Point"},"properties":{"osm_id":"7412790527","tag":{"amenity":"waste_basket","waste":"trash"}},"type":"Feature"},
	{"geometry":{"coordinates":[-122.8355,49.160847],"type":"Point"},"properties":{"osm_id":"7524657764","tag":{"amenity":"waste_basket"}},"type":"Feature"},
	{"geometry":{"coordinates":[-122.835691,49.161043],"type":"Point"},"properties":{"osm_id":"7524715365","tag":{"amenity":"waste_basket"}},"type":"Feature"},
	{"geometry":{"coordinates":[-122.82348,49.198885],"type":"Point"},"properties":{"osm_id":"7640540778","tag":{"amenity":"waste_basket"}},"type":"Feature"},
	{"geometry":{"coordinates":[-122.822561,49.198699],"type":"Point"},"properties":{"osm_id":"7640540779","tag":{"amenity":"waste_basket"}},"type":"Feature"},
	{"geometry":{"coordinates":[-122.822591,49.198533],"type":"Point"},"properties":{"osm_id":"7640540780","tag":{"amenity":"waste_basket"}},"type":"Feature"},
	{"geometry":{"coordinates":[-122.813031,49.198833],"type":"Point"},"properties":{"osm_id":"7640542465","tag":{"amenity":"waste_basket"}},"type":"Feature"},
	{"geometry":{"coordinates":[-122.812142,49.198628],"type":"Point"},"properties":{"osm_id":"7640542466","tag":{"amenity":"waste_basket"}},"type":"Feature"},
	{"geometry":{"coordinates":[-122.808576,49.191068],"type":"Point"},"properties":{"osm_id":"7684043413","tag":{"amenity":"waste_disposal"}},"type":"Feature"}
]
}
