{
"type": "FeatureCollection",
"features": [
	{"geometry":{"coordinates":[-2.60575,51.52767],"type":"Point"},"properties":{"osm_id":"33529236","tag":{"amenity":"recycling"}},"type":"Feature"},
	{"geometry":{"coordinates":[-2.551324,51.536794],"type":"Point"},"properties":{"osm_id":"259993698","tag":{"amenity":"recycling","recycling:cans":"yes","recycling:clothes":"yes","recycling:glass":"yes"}},"type":"Feature"},
	{"geometry":{"coordinates":[-2.555922,51.529418],"type":"Point"},"properties":{"osm_id":"991920864","tag":{"amenity":"recycling","recycling:clothes":"yes"}},"type":"Feature"},
	{"geometry":{"coordinates":[-2.595005,51.531009],"type":"Point"},"properties":{"osm_id":"1601719268","tag":{"amenity":"recycling","recycling:glass":"yes"}},"type":"Feature"},
	{"geometry":{"coordinates":[-2.573586,51.509839],"type":"Point"},"properties":{"osm_id":"1666625664","tag":{"amenity":"waste_basket","check_date":"2021-03-16"}},"type":"Feature"},
	{"geometry":{"coordinates":[-2.572524,51.510179],"type":"Point"},"properties":{"osm_id":"1666625666","tag":{"amenity":"waste_basket","check_date":"2021-03-16"}},"type":"Feature"},
	{"geometry":{"coordinates":[-2.550537,51.51022],"type":"Point"},"properties":{"osm_id":"1999305814","tag":{"amenity":"waste_basket"}},"type":"Feature"},
	{"geometry":{"coordinates":[-2.57066,51.532755],"type":"Point"},"properties":{"osm_id":"2315240499","tag":{"amenity":"recycling","recycling:clothes":"yes"}},"type":"Feature"},
	{"geometry":{"coordinates":[-2.567309,51.536682],"type":"Point"},"properties":{"osm_id":"2315240544","tag":{"amenity":"waste_basket"}},"type":"Feature"},
	{"geometry":{"coordinates":[-2.570137,51.528469],"type":"Point"},"properties":{"osm_id":"2540351008","tag":{"amenity":"waste_basket"}},"type":"Feature"},
	{"geometry":{"coordinates":[-2.629602,51.511238],"type":"Point"},"properties":{"osm_id":"2807671394","tag":{"amenity":"recycling","recycling:clothes":"yes"}},"type":"Feature"},
	{"geometry":{"coordinates":[-2.62953,51.511417],"type":"Point"},"properties":{"osm_id":"2807671399","tag":{"amenity":"waste_basket"}},"type":"Feature"},
	{"geometry":{"coordinates":[-2.572926,51.543861],"type":"Point"},"properties":{"osm_id":"3091557220","tag":{"amenity":"waste_basket"}},"type":"Feature"},
	{"geometry":{"coordinates":[-2.575395,51.539869],"type":"Point"},"properties":{"osm_id":"3092884618","tag":{"amenity":"waste_basket"}},"type":"Feature"},
	{"geometry":{"coordinates":[-2.575314,51.540121],"type":"Point"},"properties":{"osm_id":"3092884626","tag":{"amenity":"waste_basket"}},"type":"Feature"},
	{"geometry":{"coordinates":[-2.572183,51.541242],"type":"Point"},"properties":{"osm_id":"3092999151","tag":{"amenity":"waste_basket"}},"type":"Feature"},
	{"geometry":{"coordinates":[-2.583282,51.535383],"type":"Point"},"properties":{"osm_id":"3094793007","tag":{"amenity":"waste_basket"}},"type":"Feature"},
	{"geometry":{"coordinates":[-2.576611,51.53798],"type":"Point"},"properties":{"osm_id":"3096445079","tag":{"amenity":"waste_basket"}},"type":"Feature"},
	{"geometry":{"coordinates":[-2.56433,51.533879],"type":"Point"},"properties":{"osm_id":"3096571427","tag":{"amenity":"waste_basket"}},"type":"Feature"},
	{"geometry":{"coordinates":[-2.562568,51.534639],"type":"Point"},"properties":{"osm_id":"3096571463","tag":{"amenity":"waste_basket"}},"type":"Feature"},
	{"geometry":{"coordinates":[-2.563108,51.539263],"type":"Point"},"properties":{"osm_id":"3098017796","tag":{"amenity":"waste_basket"}},"type":"Feature"},
	{"geometry":{"coordinates":[-2.562142,51.541214],"type":"Point"},"properties":{"osm_id":"3098017903","tag":{"amenity":"waste_basket"}},"type":"Feature"},
	{"geometry":{"coordinates":[-2.561587,51.543001],"type":"Point"},"properties":{"osm_id":"3098017967","tag":{"amenity":"waste_basket"}},"type":"Feature"},
	{"geometry":{"coordinates":[-2.560594,51.546078],"type":"Point"},"properties":{"osm_id":"3104486937","tag":{"amenity":"waste_basket"}},"type":"Feature"},
	{"geometry":{"coordinates":[-2.559882,51.546222],"type":"Point"},"properties":{"osm_id":"3104486944","tag":{"amenity":"waste_basket"}},"type":"Feature"},
	{"geometry":{"coordinates":[-2.552932,51.546278],"type":"Point"},"properties":{"osm_id":"3104486945","tag":{"amenity":"waste_basket"}},"type":"Feature"},
	{"geometry":{"coordinates":[-2.573935,51.541968],"type":"Point"},"properties":{"osm_id":"3110360453","tag":{"amenity":"waste_basket"}},"type":"Feature"},
	{"geometry":{"coordinates":[-2.56654,51.54206],"type":"Point"},"properties":{"osm_id":"3110790262","tag":{"amenity":"waste_basket"}},"type":"Feature"},
	{"geometry":{"coordinates":[-2.566264,51.539239],"type":"Point"},"properties":{"osm_id":"3115649080","tag":{"amenity":"waste_basket"}},"type":"Feature"},
	{"geometry":{"coordinates":[-2.566277,51.540044],"type":"Point"},"properties":{"osm_id":"3115651531","tag":{"amenity":"waste_basket"}},"type":"Feature"},
	{"geometry":{"coordinates":[-2.55855,51.54259],"type":"Point"},"properties":{"osm_id":"3115651612","tag":{"amenity":"waste_basket","check_date":"2021-02-11"}},"type":"Feature"},
	{"geometry":{"coordinates":[-2.557985,51.543792],"type":"Point"},"properties":{"osm_id":"3115651632","tag":{"amenity":"waste_basket"}},"type":"Feature"},
	{"geometry":{"coordinates":[-2.562988,51.544497],"type":"Point"},"properties":{"osm_id":"3115651642","tag":{"amenity":"waste_basket"}},"type":"Feature"},
	{"geometry":{"coordinates":[-2.562275,51.545192],"type":"Point"},"properties":{"osm_id":"3115651649","tag":{"amenity":"waste_basket"}},"type":"Feature"},
	{"geometry":{"coordinates":[-2.556014,51.546611],"type":"Point"},"properties":{"osm_id":"3117397576","tag":{"amenity":"waste_basket"}},"type":"Feature"},
	{"geometry":{"coordinates":[-2.561239,51.54052],"type":"Point"},"properties":{"osm_id":"3119325787","tag":{"amenity":"waste_basket"}},"type":"Feature"},
	{"geometry":{"coordinates":[-2.561655,51.540962],"type":"Point"},"properties":{"osm_id":"3119325796","tag":{"amenity":"waste_basket"}},"type":"Feature"},
	{"geometry":{"coordinates":[-2.572213,51.552186],"type":"Point"},"properties":{"osm_id":"3121397262","tag":{"amenity":"waste_basket"}},"type":"Feature"},
	{"geometry":{"coordinates":[-2.570168,51.552205],"type":"Point"},"properties":{"osm_id":"3121397264","tag":{"amenity":"waste_basket"}},"type":"Feature"},
	{"geometry":{"coordinates":[-2.570022,51.549683],"type":"Point"},"properties":{"osm_id":"3126923343","tag":{"amenity":"waste_basket"}},"type":"Feature"},
	{"geometry":{"coordinates":[-2.576463,51.550254],"type":"Point"},"properties":{"osm_id":"3126923366","tag":{"amenity":"waste_basket"}},"type":"Feature"},
	{"geometry":{"coordinates":[-2.580343,51.529822],"type":"Point"},"properties":{"osm_id":"3130306745","tag":{"amenity":"waste_basket"}},"type":"Feature"},
	{"geometry":{"coordinates":[-2.570804,51.532332],"type":"Point"},"properties":{"osm_id":"3134269597","tag":{"amenity":"waste_basket"}},"type":"Feature"},
	{"geometry":{"coordinates":[-2.571515,51.533449],"type":"Point"},"properties":{"osm_id":"3134269620","tag":{"amenity":"waste_basket"}},"type":"Feature"},
	{"geometry":{"coordinates":[-2.569653,51.53286],"type":"Point"},"properties":{"osm_id":"3140548637","tag":{"amenity":"waste_basket"}},"type":"Feature"},
	{"geometry":{"coordinates":[-2.576088,51.533519],"type":"Point"},"properties":{"osm_id":"3140548645","tag":{"amenity":"waste_basket"}},"type":"Feature"},
	{"geometry":{"coordinates":[-2.576593,51.534252],"type":"Point"},"properties":{"osm_id":"3140548694","tag":{"amenity":"waste_basket"}},"type":"Feature"},
	{"geometry":{"coordinates":[-2.577663,51.534752],"type":"Point"},"properties":{"osm_id":"3140548747","tag":{"amenity":"waste_basket"}},"type":"Feature"},
	{"geometry":{"coordinates":[-2.577995,51.535003],"type":"Point"},"properties":{"osm_id":"3140548791","tag":{"amenity":"waste_basket"}},"type":"Feature"},
	{"geometry":{"coordinates":[-2.564583,51.556393],"type":"Point"},"properties":{"osm_id":"3146604311","tag":{"amenity":"waste_basket"}},"type":"Feature"},
	{"geometry":{"coordinates":[-2.560099,51.559431],"type":"Point"},"properties":{"osm_id":"3160386011","tag":{"amenity":"waste_basket"}},"type":"Feature"},
	{"geometry":{"coordinates":[-2.564004,51.55704],"type":"Point"},"properties":{"osm_id":"3160405542","tag":{"amenity":"waste_basket"}},"type":"Feature"},
	{"geometry":{"coordinates":[-2.573081,51.554697],"type":"Point"},"properties":{"osm_id":"3165782124","tag":{"amenity":"recycling"}},"type":"Feature"},
	{"geometry":{"coordinates":[-2.573955,51.554739],"type":"Point"},"properties":{"osm_id":"3165782128","tag":{"amenity":"waste_basket"}},"type":"Feature"},
	{"geometry":{"coordinates":[-2.569544,51.555663],"type":"Point"},"properties":{"osm_id":"3165782235","tag":{"amenity":"waste_basket"}},"type":"Feature"},
	{"geometry":{"coordinates":[-2.577243,51.535656],"type":"Point"},"properties":{"osm_id":"3167444593","tag":{"amenity":"waste_basket"}},"type":"Feature"},
	{"geometry":{"coordinates":[-2.569705,51.5313],"type":"Point"},"properties":{"osm_id":"3173724875","tag":{"amenity":"waste_basket"}},"type":"Feature"},
	{"geometry":{"coordinates":[-2.555583,51.533303],"type":"Point"},"properties":{"osm_id":"3216669929","tag":{"amenity":"waste_basket"}},"type":"Feature"},
	{"geometry":{"coordinates":[-2.554136,51.533528],"type":"Point"},"properties":{"osm_id":"3216669950","tag":{"amenity":"waste_basket"}},"type":"Feature"},
	{"geometry":{"coordinates":[-2.55269,51.5336],"type":"Point"},"properties":{"osm_id":"3216669956","tag":{"amenity":"waste_basket"}},"type":"Feature"},
	{"geometry":{"coordinates":[-2.555231,51.536508],"type":"Point"},"properties":{"osm_id":"3216670130","tag":{"amenity":"waste_basket"}},"type":"Feature"},
	{"geometry":{"coordinates":[-2.563676,51.52883],"type":"Point"},"properties":{"barrier":"gate","osm_id":"3315484648","tag":{"bicycle":"yes","foot":"yes"}},"type":"Feature"},
	{"geometry":{"coordinates":[-2.559926,51.523422],"type":"Point"},"properties":{"osm_id":"3317653993","tag":{"amenity":"recycling"}},"type":"Feature"},
	{"geometry":{"coordinates":[-2.559535,51.523468],"type":"Point"},"properties":{"osm_id":"3317679771","tag":{"amenity":"waste_basket"}},"type":"Feature"},
	{"geometry":{"coordinates":[-2.559801,51.523532],"type":"Point"},"properties":{"osm_id":"3317679773","tag":{"amenity":"waste_basket"}},"type":"Feature"},
	{"geometry":{"coordinates":[-2.560068,51.523539],"type":"Point"},"properties":{"osm_id":"3317679775","tag":{"amenity":"waste_basket"}},"type":"Feature"},
	{"geometry":{"coordinates":[-2.585672,51.533149],"type":"Point"},"properties":{"osm_id":"3335205689","tag":{"amenity":"waste_basket"}},"type":"Feature"},
	{"geometry":{"coordinates":[-2.557717,51.539178],"type":"Point"},"properties":{"osm_id":"3378719636","tag":{"amenity":"waste_basket"}},"type":"Feature"},
	{"geometry":{"coordinates":[-2.615973,51.540147],"type":"Point"},"properties":{"osm_id":"3470423913","tag":{"amenity":"waste_basket"}},"type":"Feature"},
	{"geometry":{"coordinates":[-2.615474,51.54041],"type":"Point"},"properties":{"osm_id":"3470423925","tag":{"amenity":"waste_basket"}},"type":"Feature"},
	{"geometry":{"coordinates":[-2.581318,51.53376],"type":"Point"},"properties":{"osm_id":"3498164539","tag":{"amenity":"waste_basket"}},"type":"Feature"},
	{"geometry":{"coordinates":[-2.578087,51.531485],"type":"Point"},"properties":{"osm_id":"3518278823","tag":{"amenity":"recycling"}},"type":"Feature"},
	{"geometry":{"coordinates":[-2.569794,51.511642],"type":"Point"},"properties":{"osm_id":"3544001889","tag":{"amenity":"waste_basket","check_date":"2021-03-16"}},"type":"Feature"},
	{"geometry":{"coordinates":[-2.55887,51.528659],"type":"Point"},"properties":{"osm_id":"3590790095","tag":{"amenity":"waste_basket"}},"type":"Feature"},
	{"geometry":{"coordinates":[-2.550706,51.531437],"type":"Point"},"properties":{"osm_id":"3590790511","tag":{"amenity":"waste_basket"}},"type":"Feature"},
	{"geometry":{"coordinates":[-2.552773,51.534801],"type":"Point"},"properties":{"osm_id":"3590790530","tag":{"amenity":"waste_basket"}},"type":"Feature"},
	{"geometry":{"coordinates":[-2.567871,51.54007],"type":"Point"},"properties":{"osm_id":"3590790641","tag":{"amenity":"waste_basket"}},"type":"Feature"},
	{"geometry":{"coordinates":[-2.5603,51.529939],"type":"Point"},"properties":{"osm_id":"3590823898","tag":{"amenity":"waste_basket"}},"type":"Feature"},
	{"geometry":{"coordinates":[-2.562508,51.530208],"type":"Point"},"properties":{"osm_id":"3590823910","tag":{"amenity":"waste_basket"}},"type":"Feature"},
	{"geometry":{"coordinates":[-2.555737,51.533681],"type":"Point"},"properties":{"osm_id":"3595240059","tag":{"amenity":"recycling"}},"type":"Feature"},
	{"geometry":{"coordinates":[-2.566731,51.5396],"type":"Point"},"properties":{"osm_id":"3595240201","tag":{"amenity":"waste_basket"}},"type":"Feature"},
	{"geometry":{"coordinates":[-2.550126,51.538826],"type":"Point"},"properties":{"osm_id":"3595386342","tag":{"amenity":"waste_basket","check_date":"2021-01-30"}},"type":"Feature"},
	{"geometry":{"coordinates":[-2.551629,51.539408],"type":"Point"},"properties":{"osm_id":"3595386373","tag":{"amenity":"waste_basket"}},"type":"Feature"},
	{"geometry":{"coordinates":[-2.575193,51.538866],"type":"Point"},"properties":{"osm_id":"3603414590","tag":{"amenity":"waste_basket"}},"type":"Feature"},
	{"geometry":{"coordinates":[-2.575909,51.558742],"type":"Point"},"properties":{"osm_id":"3603863034","tag":{"amenity":"waste_basket"}},"type":"Feature"},
	{"geometry":{"coordinates":[-2.594933,51.523163],"type":"Point"},"properties":{"osm_id":"3638036391","tag":{"amenity":"waste_basket"}},"type":"Feature"},
	{"geometry":{"coordinates":[-2.595126,51.52349],"type":"Point"},"properties":{"osm_id":"3638043694","tag":{"amenity":"waste_basket"}},"type":"Feature"},
	{"geometry":{"coordinates":[-2.59531,51.523842],"type":"Point"},"properties":{"osm_id":"3638043712","tag":{"amenity":"waste_basket"}},"type":"Feature"},
	{"geometry":{"coordinates":[-2.59533,51.523907],"type":"Point"},"properties":{"osm_id":"3638043714","tag":{"amenity":"waste_basket"}},"type":"Feature"},
	{"geometry":{"coordinates":[-2.595502,51.524382],"type":"Point"},"properties":{"osm_id":"3638043728","tag":{"amenity":"waste_basket"}},"type":"Feature"},
	{"geometry":{"coordinates":[-2.595712,51.52459],"type":"Point"},"properties":{"osm_id":"3638043742","tag":{"amenity":"waste_basket"}},"type":"Feature"},
	{"geometry":{"coordinates":[-2.596538,51.525058],"type":"Point"},"properties":{"osm_id":"3638043762","tag":{"amenity":"waste_basket"}},"type":"Feature"},
	{"geometry":{"coordinates":[-2.596874,51.525454],"type":"Point"},"properties":{"osm_id":"3638043788","tag":{"amenity":"waste_basket"}},"type":"Feature"},
	{"geometry":{"coordinates":[-2.575449,51.509008],"type":"Point"},"properties":{"osm_id":"3662409028","tag":{"amenity":"waste_basket","check_date":"2021-03-16"}},"type":"Feature"},
	{"geometry":{"coordinates":[-2.571209,51.514721],"type":"Point"},"properties":{"osm_id":"3662409149","tag":{"amenity":"waste_basket","check_date":"2021-03-16"}},"type":"Feature"},
	{"geometry":{"coordinates":[-2.597444,51.525527],"type":"Point"},"properties":{"osm_id":"3709216667","tag":{"amenity":"waste_basket","check_date":"2021-10-21"}},"type":"Feature"},
	{"geometry":{"coordinates":[-2.598444,51.526442],"type":"Point"},"properties":{"osm_id":"3709216838","tag":{"amenity":"waste_basket"}},"type":"Feature"},
	{"geometry":{"coordinates":[-2.628675,51.511791],"type":"Point"},"properties":{"osm_id":"3749937207","tag":{"amenity":"waste_basket"}},"type":"Feature"},
	{"geometry":{"coordinates":[-2.625323,51.511837],"type":"Point"},"properties":{"osm_id":"3749937227","tag":{"amenity":"waste_basket"}},"type":"Feature"},
	{"geometry":{"coordinates":[-2.632762,51.50914],"type":"Point"},"properties":{"osm_id":"3796249075","tag":{"amenity":"recycling","recycling:clothes":"yes","recycling:shoes":"yes","recycling_type":"container"}},"type":"Feature"},
	{"geometry":{"coordinates":[-2.567022,51.513139],"type":"Point"},"properties":{"osm_id":"3841882703","tag":{"amenity":"waste_basket","check_date":"2021-03-16"}},"type":"Feature"},
	{"geometry":{"coordinates":[-2.582822,51.535614],"type":"Point"},"properties":{"osm_id":"3843053779","tag":{"amenity":"waste_basket"}},"type":"Feature"},
	{"geometry":{"coordinates":[-2.550925,51.509721],"type":"Point"},"properties":{"osm_id":"3926148968","tag":{"amenity":"waste_basket"}},"type":"Feature"},
	{"geometry":{"coordinates":[-2.552424,51.536288],"type":"Point"},"properties":{"osm_id":"3969591768","tag":{"amenity":"waste_basket"}},"type":"Feature"},
	{"geometry":{"coordinates":[-2.560052,51.543604],"type":"Point"},"properties":{"osm_id":"3985071221","tag":{"amenity":"waste_basket","check_date":"2020-12-08"}},"type":"Feature"},
	{"geometry":{"coordinates":[-2.594579,51.52574],"type":"Point"},"properties":{"osm_id":"4020535010","tag":{"amenity":"waste_basket"}},"type":"Feature"},
	{"geometry":{"coordinates":[-2.596696,51.526418],"type":"Point"},"properties":{"osm_id":"4065904706","tag":{"amenity":"waste_basket"}},"type":"Feature"},
	{"geometry":{"coordinates":[-2.600761,51.526592],"type":"Point"},"properties":{"osm_id":"4124670112","tag":{"amenity":"waste_basket"}},"type":"Feature"},
	{"geometry":{"coordinates":[-2.55509,51.540604],"type":"Point"},"properties":{"osm_id":"4334617603","tag":{"amenity":"waste_basket"}},"type":"Feature"},
	{"geometry":{"coordinates":[-2.5596,51.525953],"type":"Point"},"properties":{"osm_id":"4386346133","tag":{"amenity":"waste_basket"}},"type":"Feature"},
	{"geometry":{"coordinates":[-2.558185,51.526443],"type":"Point"},"properties":{"osm_id":"4386346180","tag":{"amenity":"waste_basket"}},"type":"Feature"},
	{"geometry":{"coordinates":[-2.564845,51.533714],"type":"Point"},"properties":{"osm_id":"4409712381","tag":{"amenity":"waste_basket"}},"type":"Feature"},
	{"geometry":{"coordinates":[-2.564352,51.533899],"type":"Point"},"properties":{"osm_id":"4409712500","tag":{"amenity":"recycling","recycling:clothes":"yes","recycling_type":"container"}},"type":"Feature"},
	{"geometry":{"coordinates":[-2.562565,51.531887],"type":"Point"},"properties":{"osm_id":"4409763179","tag":{"amenity":"waste_basket"}},"type":"Feature"},
	{"geometry":{"coordinates":[-2.566776,51.531723],"type":"Point"},"properties":{"osm_id":"4426763890","tag":{"amenity":"waste_basket"}},"type":"Feature"},
	{"geometry":{"coordinates":[-2.568019,51.533576],"type":"Point"},"properties":{"osm_id":"4426763893","tag":{"amenity":"waste_basket"}},"type":"Feature"},
	{"geometry":{"coordinates":[-2.570239,51.528163],"type":"Point"},"properties":{"osm_id":"4426949979","tag":{"amenity":"waste_basket"}},"type":"Feature"},
	{"geometry":{"coordinates":[-2.569501,51.530504],"type":"Point"},"properties":{"osm_id":"4426950039","tag":{"amenity":"waste_basket"}},"type":"Feature"},
	{"geometry":{"coordinates":[-2.618237,51.510099],"type":"Point"},"properties":{"osm_id":"4554644038","tag":{"amenity":"waste_basket"}},"type":"Feature"},
	{"geometry":{"coordinates":[-2.572789,51.528325],"type":"Point"},"properties":{"osm_id":"4751813102","tag":{"amenity":"waste_basket"}},"type":"Feature"},
	{"geometry":{"coordinates":[-2.569714,51.550323],"type":"Point"},"properties":{"osm_id":"4804779307","tag":{"amenity":"waste_basket"}},"type":"Feature"},
	{"geometry":{"coordinates":[-2.572537,51.543999],"type":"Point"},"properties":{"osm_id":"4804779312","tag":{"amenity":"waste_basket"}},"type":"Feature"},
	{"geometry":{"coordinates":[-2.555368,51.540509],"type":"Point"},"properties":{"osm_id":"4958925085","tag":{"amenity":"waste_basket"}},"type":"Feature"},
	{"geometry":{"coordinates":[-2.556905,51.542023],"type":"Point"},"properties":{"osm_id":"4958971297","tag":{"amenity":"waste_basket"}},"type":"Feature"},
	{"geometry":{"coordinates":[-2.57258,51.54159],"type":"Point"},"properties":{"osm_id":"5250868120","tag":{"amenity":"waste_basket"}},"type":"Feature"},
	{"geometry":{"coordinates":[-2.560552,51.540572],"type":"Point"},"properties":{"osm_id":"5430232826","tag":{"amenity":"waste_basket"}},"type":"Feature"},
	{"geometry":{"coordinates":[-2.557365,51.54152],"type":"Point"},"properties":{"osm_id":"5430232830","tag":{"amenity":"waste_basket","check_date":"2020-12-17"}},"type":"Feature"},
	{"geometry":{"coordinates":[-2.564602,51.546505],"type":"Point"},"properties":{"osm_id":"5448360838","tag":{"amenity":"waste_basket"}},"type":"Feature"},
	{"geometry":{"coordinates":[-2.565716,51.5458],"type":"Point"},"properties":{"osm_id":"5448360857","tag":{"amenity":"waste_basket"}},"type":"Feature"},
	{"geometry":{"coordinates":[-2.572006,51.541314],"type":"Point"},"properties":{"osm_id":"5449331271","tag":{"amenity":"waste_basket"}},"type":"Feature"},
	{"geometry":{"coordinates":[-2.599644,51.510037],"type":"Point"},"properties":{"osm_id":"5452214849","tag":{"amenity":"waste_basket"}},"type":"Feature"},
	{"geometry":{"coordinates":[-2.605991,51.511239],"type":"Point"},"properties":{"osm_id":"5457927444","tag":{"amenity":"waste_basket"}},"type":"Feature"},
	{"geometry":{"coordinates":[-2.605418,51.51137],"type":"Point"},"properties":{"osm_id":"5457927445","tag":{"amenity":"waste_basket"}},"type":"Feature"},
	{"geometry":{"coordinates":[-2.602982,51.511635],"type":"Point"},"properties":{"osm_id":"5457927495","tag":{"amenity":"waste_basket"}},"type":"Feature"},
	{"geometry":{"coordinates":[-2.604806,51.510463],"type":"Point"},"properties":{"osm_id":"5457960308","tag":{"amenity":"waste_basket"}},"type":"Feature"},
	{"geometry":{"coordinates":[-2.563135,51.522689],"type":"Point"},"properties":{"osm_id":"5579423480","tag":{"amenity":"waste_basket"}},"type":"Feature"},
	{"geometry":{"coordinates":[-2.625325,51.558277],"type":"Point"},"properties":{"osm_id":"5703054253","tag":{"amenity":"recycling","recycling:clothes":"yes","recycling_type":"container"}},"type":"Feature"},
	{"geometry":{"coordinates":[-2.576678,51.537783],"type":"Point"},"properties":{"osm_id":"5735167731","tag":{"amenity":"waste_basket"}},"type":"Feature"},
	{"geometry":{"coordinates":[-2.620237,51.509401],"type":"Point"},"properties":{"osm_id":"5847308946","tag":{"amenity":"waste_basket"}},"type":"Feature"},
	{"geometry":{"coordinates":[-2.569208,51.552736],"type":"Point"},"properties":{"osm_id":"5872448207","tag":{"amenity":"waste_basket"}},"type":"Feature"},
	{"geometry":{"coordinates":[-2.569581,51.552777],"type":"Point"},"properties":{"osm_id":"5872448208","tag":{"amenity":"waste_basket"}},"type":"Feature"},
	{"geometry":{"coordinates":[-2.573391,51.534056],"type":"Point"},"properties":{"osm_id":"5910477366","tag":{"amenity":"waste_basket"}},"type":"Feature"},
	{"geometry":{"coordinates":[-2.55759,51.541681],"type":"Point"},"properties":{"osm_id":"6032838504","tag":{"amenity":"waste_basket","check_date":"2020-12-17"}},"type":"Feature"},
	{"geometry":{"coordinates":[-2.554352,51.529513],"type":"Point"},"properties":{"osm_id":"6035098956","tag":{"amenity":"waste_basket"}},"type":"Feature"},
	{"geometry":{"coordinates":[-2.604115,51.52359],"type":"Point"},"properties":{"osm_id":"6069191554","tag":{"amenity":"waste_basket"}},"type":"Feature"},
	{"geometry":{"coordinates":[-2.603982,51.523399],"type":"Point"},"properties":{"osm_id":"6069191555","tag":{"amenity":"waste_basket"}},"type":"Feature"},
	{"geometry":{"coordinates":[-2.551913,51.533591],"type":"Point"},"properties":{"osm_id":"6069330631","tag":{"amenity":"waste_basket"}},"type":"Feature"},
	{"geometry":{"coordinates":[-2.622043,51.508971],"type":"Point"},"properties":{"osm_id":"6146099930","tag":{"amenity":"waste_basket"}},"type":"Feature"},
	{"geometry":{"coordinates":[-2.574416,51.531001],"type":"Point"},"properties":{"osm_id":"6148637560","tag":{"amenity":"waste_basket"}},"type":"Feature"},
	{"geometry":{"coordinates":[-2.575516,51.530982],"type":"Point"},"properties":{"osm_id":"6148637579","tag":{"amenity":"waste_basket"}},"type":"Feature"},
	{"geometry":{"coordinates":[-2.599017,51.528853],"type":"Point"},"properties":{"osm_id":"6148680734","tag":{"amenity":"waste_basket"}},"type":"Feature"},
	{"geometry":{"coordinates":[-2.583089,51.528608],"type":"Point"},"properties":{"osm_id":"6150491263","tag":{"amenity":"waste_basket"}},"type":"Feature"},
	{"geometry":{"coordinates":[-2.552176,51.536316],"type":"Point"},"properties":{"osm_id":"6150644102","tag":{"amenity":"waste_basket"}},"type":"Feature"},
	{"geometry":{"coordinates":[-2.57128,51.521697],"type":"Point"},"properties":{"osm_id":"6171628665","tag":{"amenity":"waste_basket"}},"type":"Feature"},
	{"geometry":{"coordinates":[-2.573577,51.509992],"type":"Point"},"properties":{"osm_id":"6176651097","tag":{"amenity":"waste_basket"}},"type":"Feature"},
	{"geometry":{"coordinates":[-2.566669,51.512899],"type":"Point"},"properties":{"osm_id":"6176907505","tag":{"amenity":"waste_basket"}},"type":"Feature"},
	{"geometry":{"coordinates":[-2.56016,51.54079],"type":"Point"},"properties":{"osm_id":"6177132265","tag":{"amenity":"waste_basket"}},"type":"Feature"},
	{"geometry":{"coordinates":[-2.567006,51.513069],"type":"Point"},"properties":{"osm_id":"6284891834","tag":{"amenity":"recycling","recycling:clothes":"yes","recycling_type":"container"}},"type":"Feature"},
	{"geometry":{"coordinates":[-2.555685,51.546471],"type":"Point"},"properties":{"osm_id":"6357268858","tag":{"amenity":"waste_basket"}},"type":"Feature"},
	{"geometry":{"coordinates":[-2.583238,51.528684],"type":"Point"},"properties":{"osm_id":"6373189530","tag":{"amenity":"waste_basket"}},"type":"Feature"},
	{"geometry":{"coordinates":[-2.565036,51.543117],"type":"Point"},"properties":{"osm_id":"6389714700","tag":{"amenity":"waste_basket"}},"type":"Feature"},
	{"geometry":{"coordinates":[-2.560446,51.546218],"type":"Point"},"properties":{"osm_id":"6405243631","tag":{"amenity":"waste_basket"}},"type":"Feature"},
	{"geometry":{"coordinates":[-2.574478,51.508962],"type":"Point"},"properties":{"osm_id":"6412772180","tag":{"amenity":"waste_basket"}},"type":"Feature"},
	{"geometry":{"coordinates":[-2.572563,51.508926],"type":"Point"},"properties":{"osm_id":"6412774985","tag":{"amenity":"waste_basket"}},"type":"Feature"},
	{"geometry":{"coordinates":[-2.576112,51.541147],"type":"Point"},"properties":{"osm_id":"6417069737","tag":{"amenity":"waste_basket"}},"type":"Feature"},
	{"geometry":{"coordinates":[-2.576175,51.541125],"type":"Point"},"properties":{"osm_id":"6417069738","tag":{"amenity":"waste_basket"}},"type":"Feature"},
	{"geometry":{"coordinates":[-2.583218,51.538458],"type":"Point"},"properties":{"osm_id":"6421862258","tag":{"amenity":"recycling","recycling:clothes":"yes","recycling:shoes":"yes","recycling_type":"container"}},"type":"Feature"},
	{"geometry":{"coordinates":[-2.583134,51.538322],"type":"Point"},"properties":{"osm_id":"6421862259","tag":{"amenity":"waste_basket"}},"type":"Feature"},
	{"geometry":{"coordinates":[-2.563599,51.543266],"type":"Point"},"properties":{"osm_id":"6437271508","tag":{"amenity":"waste_basket"}},"type":"Feature"},
	{"geometry":{"coordinates":[-2.621033,51.516579],"type":"Point"},"properties":{"osm_id":"6762247001","tag":{"amenity":"waste_basket"}},"type":"Feature"},
	{"geometry":{"coordinates":[-2.587859,51.537466],"type":"Point"},"properties":{"osm_id":"6867848146","tag":{"amenity":"waste_basket"}},"type":"Feature"},
	{"geometry":{"coordinates":[-2.557459,51.527503],"type":"Point"},"properties":{"osm_id":"6901186261","tag":{"amenity":"waste_basket"}},"type":"Feature"},
	{"geometry":{"coordinates":[-2.559525,51.532301],"type":"Point"},"properties":{"osm_id":"6938500078","tag":{"amenity":"waste_basket"}},"type":"Feature"},
	{"geometry":{"coordinates":[-2.570797,51.532911],"type":"Point"},"properties":{"osm_id":"6939456263","tag":{"amenity":"waste_basket"}},"type":"Feature"},
	{"geometry":{"coordinates":[-2.553412,51.546242],"type":"Point"},"properties":{"osm_id":"6993938548","tag":{"amenity":"waste_basket"}},"type":"Feature"},
	{"geometry":{"coordinates":[-2.621749,51.519468],"type":"Point"},"properties":{"osm_id":"7045274571","tag":{"amenity":"waste_basket"}},"type":"Feature"},
	{"geometry":{"coordinates":[-2.621399,51.519314],"type":"Point"},"properties":{"osm_id":"7045274572","tag":{"amenity":"waste_basket"}},"type":"Feature"},
	{"geometry":{"coordinates":[-2.627632,51.513327],"type":"Point"},"properties":{"osm_id":"7047853643","tag":{"amenity":"waste_basket"}},"type":"Feature"},
	{"geometry":{"coordinates":[-2.619836,51.513202],"type":"Point"},"properties":{"osm_id":"7073910171","tag":{"amenity":"waste_basket"}},"type":"Feature"},
	{"geometry":{"coordinates":[-2.618468,51.539509],"type":"Point"},"properties":{"osm_id":"7076374822","tag":{"amenity":"waste_basket"}},"type":"Feature"},
	{"geometry":{"coordinates":[-2.619914,51.540221],"type":"Point"},"properties":{"osm_id":"7076555124","tag":{"amenity":"waste_basket"}},"type":"Feature"},
	{"geometry":{"coordinates":[-2.617203,51.538729],"type":"Point"},"properties":{"osm_id":"7089382117","tag":{"amenity":"waste_basket"}},"type":"Feature"},
	{"geometry":{"coordinates":[-2.601412,51.522538],"type":"Point"},"properties":{"osm_id":"7141895925","tag":{"amenity":"waste_basket"}},"type":"Feature"},
	{"geometry":{"coordinates":[-2.601395,51.523172],"type":"Point"},"properties":{"osm_id":"7161401297","tag":{"amenity":"waste_basket"}},"type":"Feature"},
	{"geometry":{"coordinates":[-2.600897,51.52288],"type":"Point"},"properties":{"osm_id":"7161401319","tag":{"amenity":"waste_basket"}},"type":"Feature"},
	{"geometry":{"coordinates":[-2.616506,51.539587],"type":"Point"},"properties":{"osm_id":"7196333592","tag":{"amenity":"waste_basket"}},"type":"Feature"},
	{"geometry":{"coordinates":[-2.617439,51.546915],"type":"Point"},"properties":{"osm_id":"7198903495","tag":{"amenity":"waste_basket"}},"type":"Feature"}
]
}
