{
"type": "FeatureCollection",
"features": [
	{"geometry":{"coordinates":[-2.577176,51.505519],"type":"Point"},"properties":{"osm_id":"19877547","tag":{"amenity":"waste_basket"}},"type":"Feature"},
	{"geometry":{"coordinates":[-2.612457,51.464547],"type":"Point"},"properties":{"osm_id":"26168166","tag":{"amenity":"recycling","recycling:plastic":"yes"}},"type":"Feature"},
	{"geometry":{"coordinates":[-2.595819,51.486758],"type":"Point"},"properties":{"osm_id":"224309831","tag":{"amenity":"recycling"}},"type":"Feature"},
	{"geometry":{"coordinates":[-2.551229,51.460309],"type":"Point"},"properties":{"osm_id":"291582357","tag":{"amenity":"recycling","location":"overground","recycling_type":"container"}},"type":"Feature"},
	{"geometry":{"coordinates":[-2.563503,51.454656],"type":"Point"},"properties":{"osm_id":"291582360","tag":{"amenity":"recycling"}},"type":"Feature"},
	{"geometry":{"coordinates":[-2.612976,51.4632],"type":"Point"},"properties":{"osm_id":"833216515","tag":{"amenity":"waste_basket"}},"type":"Feature"},
	{"geometry":{"coordinates":[-2.563018,51.505396],"type":"Point"},"properties":{"osm_id":"834321315","tag":{"amenity":"waste_basket"}},"type":"Feature"},
	{"geometry":{"coordinates":[-2.614464,51.45531],"type":"Point"},"properties":{"osm_id":"843596706","tag":{"access":"private","amenity":"recycling","recycling:plastic":"yes"}},"type":"Feature"},
	{"geometry":{"coordinates":[-2.620498,51.45719],"type":"Point"},"properties":{"osm_id":"844357182","tag":{"amenity":"waste_basket"}},"type":"Feature"},
	{"geometry":{"coordinates":[-2.621792,51.456568],"type":"Point"},"properties":{"osm_id":"844357183","tag":{"amenity":"waste_basket"}},"type":"Feature"},
	{"geometry":{"coordinates":[-2.623959,51.462763],"type":"Point"},"properties":{"osm_id":"852055157","tag":{"amenity":"recycling","recycling:plastic":"yes"}},"type":"Feature"},
	{"geometry":{"coordinates":[-2.610059,51.464864],"type":"Point"},"properties":{"osm_id":"869220357","tag":{"amenity":"recycling","recycling:cans":"yes","recycling:paper":"yes"}},"type":"Feature"},
	{"geometry":{"coordinates":[-2.600131,51.45415],"type":"Point"},"properties":{"osm_id":"963961977","tag":{"amenity":"waste_basket"}},"type":"Feature"},
	{"geometry":{"coordinates":[-2.610278,51.465369],"type":"Point"},"properties":{"osm_id":"989058649","tag":{"amenity":"waste_basket"}},"type":"Feature"},
	{"geometry":{"coordinates":[-2.62614,51.456563],"type":"Point"},"properties":{"osm_id":"1200850361","tag":{"amenity":"waste_basket"}},"type":"Feature"},
	{"geometry":{"coordinates":[-2.626848,51.458472],"type":"Point"},"properties":{"osm_id":"1200850781","tag":{"amenity":"waste_basket"}},"type":"Feature"},
	{"geometry":{"coordinates":[-2.626871,51.458685],"type":"Point"},"properties":{"osm_id":"1200851134","tag":{"amenity":"waste_basket"}},"type":"Feature"},
	{"geometry":{"coordinates":[-2.606685,51.463277],"type":"Point"},"properties":{"osm_id":"1215448119","tag":{"amenity":"waste_basket"}},"type":"Feature"},
	{"geometry":{"coordinates":[-2.610068,51.464871],"type":"Point"},"properties":{"osm_id":"1243214484","tag":{"amenity":"waste_basket"}},"type":"Feature"},
	{"geometry":{"coordinates":[-2.552985,51.50654],"type":"Point"},"properties":{"osm_id":"1586671973","tag":{"amenity":"recycling","recycling:cans":"yes","recycling:glass":"yes","recycling:paper":"yes","recycling_type":"container"}},"type":"Feature"},
	{"geometry":{"coordinates":[-2.625,51.488299],"type":"Point"},"properties":{"osm_id":"1593948643","tag":{"amenity":"waste_basket"}},"type":"Feature"},
	{"geometry":{"coordinates":[-2.624906,51.488439],"type":"Point"},"properties":{"osm_id":"1593948644","tag":{"amenity":"waste_basket"}},"type":"Feature"},
	{"geometry":{"coordinates":[-2.624602,51.488592],"type":"Point"},"properties":{"osm_id":"1593948645","tag":{"amenity":"waste_basket"}},"type":"Feature"},
	{"geometry":{"coordinates":[-2.549163,51.505083],"type":"Point"},"properties":{"osm_id":"1604273941","tag":{"amenity":"waste_basket"}},"type":"Feature"},
	{"geometry":{"coordinates":[-2.593829,51.470542],"type":"Point"},"properties":{"osm_id":"1650984917","tag":{"amenity":"waste_basket"}},"type":"Feature"},
	{"geometry":{"coordinates":[-2.612771,51.482404],"type":"Point"},"properties":{"osm_id":"1650984947","tag":{"amenity":"waste_basket"}},"type":"Feature"},
	{"geometry":{"coordinates":[-2.578265,51.469232],"type":"Point"},"properties":{"osm_id":"1651546243","tag":{"amenity":"recycling"}},"type":"Feature"},
	{"geometry":{"coordinates":[-2.62716,51.455178],"type":"Point"},"properties":{"osm_id":"1652213629","tag":{"amenity":"waste_basket"}},"type":"Feature"},
	{"geometry":{"coordinates":[-2.623308,51.480922],"type":"Point"},"properties":{"osm_id":"1652213849","tag":{"amenity":"waste_basket"}},"type":"Feature"},
	{"geometry":{"coordinates":[-2.625116,51.482257],"type":"Point"},"properties":{"osm_id":"1652213854","tag":{"amenity":"waste_basket"}},"type":"Feature"},
	{"geometry":{"coordinates":[-2.625073,51.482372],"type":"Point"},"properties":{"osm_id":"1652213863","tag":{"amenity":"waste_basket"}},"type":"Feature"},
	{"geometry":{"coordinates":[-2.561247,51.507688],"type":"Point"},"properties":{"osm_id":"1655286003","tag":{"amenity":"waste_basket"}},"type":"Feature"},
	{"geometry":{"coordinates":[-2.557306,51.506801],"type":"Point"},"properties":{"osm_id":"1666625609","tag":{"amenity":"waste_basket"}},"type":"Feature"},
	{"geometry":{"coordinates":[-2.574479,51.507541],"type":"Point"},"properties":{"osm_id":"1666673086","tag":{"amenity":"waste_basket"}},"type":"Feature"},
	{"geometry":{"coordinates":[-2.574908,51.50788],"type":"Point"},"properties":{"osm_id":"1666673092","tag":{"amenity":"waste_basket"}},"type":"Feature"},
	{"geometry":{"coordinates":[-2.573685,51.507928],"type":"Point"},"properties":{"osm_id":"1666673095","tag":{"amenity":"waste_basket"}},"type":"Feature"},
	{"geometry":{"coordinates":[-2.609282,51.463925],"type":"Point"},"properties":{"osm_id":"1773884218","tag":{"amenity":"waste_basket"}},"type":"Feature"},
	{"geometry":{"coordinates":[-2.609366,51.464106],"type":"Point"},"properties":{"osm_id":"1773884220","tag":{"amenity":"waste_basket"}},"type":"Feature"},
	{"geometry":{"coordinates":[-2.615142,51.470709],"type":"Point"},"properties":{"osm_id":"1775435874","tag":{"amenity":"waste_basket"}},"type":"Feature"},
	{"geometry":{"coordinates":[-2.621651,51.480209],"type":"Point"},"properties":{"osm_id":"1775435938","tag":{"amenity":"waste_basket"}},"type":"Feature"},
	{"geometry":{"coordinates":[-2.58092,51.506107],"type":"Point"},"properties":{"osm_id":"1820986377","tag":{"amenity":"waste_basket","designation":"Animal Waste"}},"type":"Feature"},
	{"geometry":{"coordinates":[-2.578231,51.505987],"type":"Point"},"properties":{"osm_id":"1820986382","tag":{"amenity":"waste_basket"}},"type":"Feature"},
	{"geometry":{"coordinates":[-2.558022,51.507418],"type":"Point"},"properties":{"osm_id":"1838199968","tag":{"amenity":"waste_basket"}},"type":"Feature"},
	{"geometry":{"coordinates":[-2.598722,51.467182],"type":"Point"},"properties":{"osm_id":"1852014086","tag":{"amenity":"waste_basket"}},"type":"Feature"},
	{"geometry":{"coordinates":[-2.599917,51.468455],"type":"Point"},"properties":{"osm_id":"1852014105","tag":{"amenity":"waste_basket"}},"type":"Feature"},
	{"geometry":{"coordinates":[-2.596458,51.455416],"type":"Point"},"properties":{"osm_id":"1867994969","tag":{"amenity":"waste_basket"}},"type":"Feature"},
	{"geometry":{"coordinates":[-2.616468,51.483319],"type":"Point"},"properties":{"osm_id":"1867994973","tag":{"amenity":"waste_basket"}},"type":"Feature"},
	{"geometry":{"coordinates":[-2.614682,51.493683],"type":"Point"},"properties":{"osm_id":"1876866276","tag":{"amenity":"waste_basket"}},"type":"Feature"},
	{"geometry":{"coordinates":[-2.60395,51.498998],"type":"Point"},"properties":{"osm_id":"1876866422","tag":{"amenity":"waste_basket"}},"type":"Feature"},
	{"geometry":{"coordinates":[-2.607539,51.496597],"type":"Point"},"properties":{"osm_id":"1878484569","tag":{"amenity":"waste_basket"}},"type":"Feature"},
	{"geometry":{"coordinates":[-2.606609,51.473119],"type":"Point"},"properties":{"osm_id":"1880065368","tag":{"amenity":"waste_basket"}},"type":"Feature"},
	{"geometry":{"coordinates":[-2.606775,51.47355],"type":"Point"},"properties":{"osm_id":"1880065370","tag":{"amenity":"waste_basket"}},"type":"Feature"},
	{"geometry":{"coordinates":[-2.606726,51.471699],"type":"Point"},"properties":{"osm_id":"1881469665","tag":{"amenity":"waste_basket"}},"type":"Feature"},
	{"geometry":{"coordinates":[-2.585905,51.456185],"type":"Point"},"properties":{"osm_id":"1881624856","tag":{"amenity":"waste_basket"}},"type":"Feature"},
	{"geometry":{"coordinates":[-2.634558,51.480775],"type":"Point"},"properties":{"osm_id":"1885042193","tag":{"amenity":"waste_basket"}},"type":"Feature"},
	{"geometry":{"coordinates":[-2.634269,51.480995],"type":"Point"},"properties":{"osm_id":"1885042228","tag":{"amenity":"waste_basket"}},"type":"Feature"},
	{"geometry":{"coordinates":[-2.625859,51.455709],"type":"Point"},"properties":{"osm_id":"1885100914","tag":{"amenity":"waste_basket"}},"type":"Feature"},
	{"geometry":{"coordinates":[-2.556206,51.454311],"type":"Point"},"properties":{"osm_id":"1885710180","tag":{"amenity":"waste_basket"}},"type":"Feature"},
	{"geometry":{"coordinates":[-2.597501,51.456199],"type":"Point"},"properties":{"osm_id":"1894276993","tag":{"amenity":"waste_basket"}},"type":"Feature"},
	{"geometry":{"coordinates":[-2.597681,51.456251],"type":"Point"},"properties":{"osm_id":"1894277004","tag":{"amenity":"waste_basket"}},"type":"Feature"},
	{"geometry":{"coordinates":[-2.617535,51.479433],"type":"Point"},"properties":{"osm_id":"1897087933","tag":{"amenity":"waste_basket"}},"type":"Feature"},
	{"geometry":{"coordinates":[-2.61296,51.479586],"type":"Point"},"properties":{"osm_id":"1897087935","tag":{"amenity":"waste_basket"}},"type":"Feature"},
	{"geometry":{"coordinates":[-2.612506,51.480157],"type":"Point"},"properties":{"osm_id":"1897088024","tag":{"amenity":"recycling"}},"type":"Feature"},
	{"geometry":{"coordinates":[-2.616153,51.470514],"type":"Point"},"properties":{"osm_id":"1909103391","tag":{"amenity":"waste_basket"}},"type":"Feature"},
	{"geometry":{"coordinates":[-2.608067,51.45579],"type":"Point"},"properties":{"osm_id":"1909195918","tag":{"amenity":"waste_basket"}},"type":"Feature"},
	{"geometry":{"coordinates":[-2.608487,51.461721],"type":"Point"},"properties":{"osm_id":"1909195971","tag":{"amenity":"waste_basket"}},"type":"Feature"},
	{"geometry":{"coordinates":[-2.60849,51.461887],"type":"Point"},"properties":{"osm_id":"1909195986","tag":{"amenity":"waste_basket"}},"type":"Feature"},
	{"geometry":{"coordinates":[-2.557661,51.498093],"type":"Point"},"properties":{"osm_id":"1931182603","tag":{"amenity":"waste_basket"}},"type":"Feature"},
	{"geometry":{"coordinates":[-2.552541,51.498149],"type":"Point"},"properties":{"osm_id":"1931182613","tag":{"amenity":"waste_basket"}},"type":"Feature"},
	{"geometry":{"coordinates":[-2.552875,51.498171],"type":"Point"},"properties":{"osm_id":"1931182622","tag":{"amenity":"waste_basket"}},"type":"Feature"},
	{"geometry":{"coordinates":[-2.558669,51.498556],"type":"Point"},"properties":{"osm_id":"1931182639","tag":{"amenity":"waste_basket"}},"type":"Feature"},
	{"geometry":{"coordinates":[-2.618765,51.471046],"type":"Point"},"properties":{"osm_id":"1975737420","tag":{"amenity":"waste_basket"}},"type":"Feature"},
	{"geometry":{"coordinates":[-2.634133,51.479547],"type":"Point"},"properties":{"osm_id":"1986127914","tag":{"amenity":"waste_basket"}},"type":"Feature"},
	{"geometry":{"coordinates":[-2.63221,51.477161],"type":"Point"},"properties":{"osm_id":"1986197730","tag":{"amenity":"waste_basket"}},"type":"Feature"},
	{"geometry":{"coordinates":[-2.619526,51.493129],"type":"Point"},"properties":{"osm_id":"2007375500","tag":{"amenity":"waste_basket"}},"type":"Feature"},
	{"geometry":{"coordinates":[-2.620522,51.496354],"type":"Point"},"properties":{"osm_id":"2007381401","tag":{"amenity":"waste_basket"}},"type":"Feature"},
	{"geometry":{"coordinates":[-2.618482,51.493607],"type":"Point"},"properties":{"osm_id":"2009794089","tag":{"amenity":"waste_basket"}},"type":"Feature"},
	{"geometry":{"coordinates":[-2.614847,51.469403],"type":"Point"},"properties":{"osm_id":"2033459702","tag":{"amenity":"waste_basket"}},"type":"Feature"},
	{"geometry":{"coordinates":[-2.610529,51.465201],"type":"Point"},"properties":{"osm_id":"2046779238","tag":{"amenity":"waste_basket"}},"type":"Feature"},
	{"geometry":{"coordinates":[-2.611738,51.466592],"type":"Point"},"properties":{"osm_id":"2046779245","tag":{"amenity":"waste_basket"}},"type":"Feature"},
	{"geometry":{"coordinates":[-2.612121,51.46727],"type":"Point"},"properties":{"osm_id":"2046779253","tag":{"amenity":"waste_basket"}},"type":"Feature"},
	{"geometry":{"coordinates":[-2.589564,51.455678],"type":"Point"},"properties":{"osm_id":"2059744990","tag":{"amenity":"recycling","recycling:glass":"yes","recycling_type":"container"}},"type":"Feature"},
	{"geometry":{"coordinates":[-2.553403,51.507618],"type":"Point"},"properties":{"osm_id":"2068561898","tag":{"amenity":"waste_basket"}},"type":"Feature"},
	{"geometry":{"coordinates":[-2.55384,51.50787],"type":"Point"},"properties":{"osm_id":"2068561904","tag":{"amenity":"waste_basket"}},"type":"Feature"},
	{"geometry":{"coordinates":[-2.61606,51.470817],"type":"Point"},"properties":{"osm_id":"2093911791","tag":{"amenity":"waste_basket"}},"type":"Feature"},
	{"geometry":{"coordinates":[-2.611708,51.499747],"type":"Point"},"properties":{"osm_id":"2291910249","tag":{"amenity":"recycling","recycling:clothes":"yes"}},"type":"Feature"},
	{"geometry":{"coordinates":[-2.610327,51.486088],"type":"Point"},"properties":{"osm_id":"2315335087","tag":{"amenity":"waste_basket"}},"type":"Feature"},
	{"geometry":{"coordinates":[-2.573185,51.454923],"type":"Point"},"properties":{"osm_id":"2388342870","tag":{"entrance":"exit"}},"type":"Feature"},
	{"geometry":{"coordinates":[-2.571776,51.454924],"type":"Point"},"properties":{"osm_id":"2388342871","tag":{"entrance":"yes"}},"type":"Feature"},
	{"geometry":{"coordinates":[-2.603949,51.458588],"type":"Point"},"properties":{"osm_id":"2420194426","tag":{"amenity":"waste_basket"}},"type":"Feature"},
	{"geometry":{"coordinates":[-2.59767,51.461279],"type":"Point"},"properties":{"osm_id":"2460332315","tag":{"amenity":"waste_basket"}},"type":"Feature"},
	{"geometry":{"coordinates":[-2.57761,51.504068],"type":"Point"},"properties":{"osm_id":"2538831876","tag":{"amenity":"waste_basket"}},"type":"Feature"},
	{"geometry":{"coordinates":[-2.592802,51.458453],"type":"Point"},"properties":{"osm_id":"2571603911","tag":{"amenity":"waste_basket"}},"type":"Feature"},
	{"geometry":{"coordinates":[-2.592598,51.458478],"type":"Point"},"properties":{"osm_id":"2571603914","tag":{"amenity":"waste_basket"}},"type":"Feature"},
	{"geometry":{"coordinates":[-2.588507,51.472348],"type":"Point"},"properties":{"osm_id":"2571788398","tag":{"amenity":"waste_basket","waste":"trash"}},"type":"Feature"},
	{"geometry":{"coordinates":[-2.606481,51.456102],"type":"Point"},"properties":{"osm_id":"2589824186","tag":{"amenity":"waste_basket"}},"type":"Feature"},
	{"geometry":{"coordinates":[-2.552755,51.475777],"type":"Point"},"properties":{"osm_id":"2601302914","tag":{"amenity":"waste_basket"}},"type":"Feature"},
	{"geometry":{"coordinates":[-2.617428,51.492746],"type":"Point"},"properties":{"osm_id":"2622824317","tag":{"amenity":"waste_basket"}},"type":"Feature"},
	{"geometry":{"coordinates":[-2.56451,51.507738],"type":"Point"},"properties":{"osm_id":"2626437268","tag":{"amenity":"waste_basket"}},"type":"Feature"},
	{"geometry":{"coordinates":[-2.613703,51.468748],"type":"Point"},"properties":{"osm_id":"2691772600","tag":{"amenity":"waste_basket"}},"type":"Feature"},
	{"geometry":{"coordinates":[-2.582127,51.494077],"type":"Point"},"properties":{"osm_id":"2696226478","tag":{"amenity":"recycling","recycling:clothes":"yes","recycling:shoes":"yes","recycling_type":"container"}},"type":"Feature"},
	{"geometry":{"coordinates":[-2.605171,51.492356],"type":"Point"},"properties":{"osm_id":"2698973965","tag":{"amenity":"waste_basket"}},"type":"Feature"},
	{"geometry":{"coordinates":[-2.606157,51.492522],"type":"Point"},"properties":{"osm_id":"2698974005","tag":{"amenity":"waste_basket"}},"type":"Feature"},
	{"geometry":{"coordinates":[-2.593705,51.470521],"type":"Point"},"properties":{"osm_id":"2700664464","tag":{"amenity":"waste_basket"}},"type":"Feature"},
	{"geometry":{"coordinates":[-2.611228,51.485673],"type":"Point"},"properties":{"osm_id":"2727873060","tag":{"amenity":"waste_basket"}},"type":"Feature"},
	{"geometry":{"coordinates":[-2.612317,51.484565],"type":"Point"},"properties":{"osm_id":"2727931483","tag":{"amenity":"waste_basket"}},"type":"Feature"},
	{"geometry":{"coordinates":[-2.611808,51.485046],"type":"Point"},"properties":{"osm_id":"2727931530","tag":{"amenity":"recycling"}},"type":"Feature"},
	{"geometry":{"coordinates":[-2.607975,51.491172],"type":"Point"},"properties":{"osm_id":"2735240263","tag":{"amenity":"waste_basket"}},"type":"Feature"},
	{"geometry":{"coordinates":[-2.619177,51.454893],"type":"Point"},"properties":{"osm_id":"2757541789","tag":{"amenity":"waste_basket"}},"type":"Feature"},
	{"geometry":{"coordinates":[-2.606354,51.46272],"type":"Point"},"properties":{"osm_id":"2757541866","tag":{"amenity":"waste_basket"}},"type":"Feature"},
	{"geometry":{"coordinates":[-2.596015,51.491551],"type":"Point"},"properties":{"osm_id":"2778479752","tag":{"amenity":"waste_basket"}},"type":"Feature"},
	{"geometry":{"coordinates":[-2.618528,51.493388],"type":"Point"},"properties":{"osm_id":"2793606981","tag":{"amenity":"waste_basket"}},"type":"Feature"},
	{"geometry":{"coordinates":[-2.59759,51.496988],"type":"Point"},"properties":{"osm_id":"2793807640","tag":{"amenity":"waste_basket"}},"type":"Feature"},
	{"geometry":{"coordinates":[-2.597944,51.49766],"type":"Point"},"properties":{"osm_id":"2793807696","tag":{"amenity":"waste_basket"}},"type":"Feature"},
	{"geometry":{"coordinates":[-2.579145,51.466553],"type":"Point"},"properties":{"osm_id":"2797871020","tag":{"amenity":"waste_basket"}},"type":"Feature"},
	{"geometry":{"coordinates":[-2.609025,51.462606],"type":"Point"},"properties":{"osm_id":"2800113211","tag":{"amenity":"waste_basket"}},"type":"Feature"},
	{"geometry":{"coordinates":[-2.631027,51.50783],"type":"Point"},"properties":{"osm_id":"2807671333","tag":{"amenity":"waste_basket"}},"type":"Feature"},
	{"geometry":{"coordinates":[-2.60931,51.497942],"type":"Point"},"properties":{"osm_id":"2837478259","tag":{"amenity":"waste_basket"}},"type":"Feature"},
	{"geometry":{"coordinates":[-2.570534,51.505413],"type":"Point"},"properties":{"osm_id":"2856807252","tag":{"amenity":"waste_basket"}},"type":"Feature"},
	{"geometry":{"coordinates":[-2.573646,51.49547],"type":"Point"},"properties":{"osm_id":"2864480822","tag":{"amenity":"waste_basket"}},"type":"Feature"},
	{"geometry":{"coordinates":[-2.57909,51.500431],"type":"Point"},"properties":{"osm_id":"2864480919","tag":{"amenity":"recycling","recycling:gas_bottles":"yes"}},"type":"Feature"},
	{"geometry":{"coordinates":[-2.597351,51.504703],"type":"Point"},"properties":{"osm_id":"2864637862","tag":{"amenity":"waste_basket"}},"type":"Feature"},
	{"geometry":{"coordinates":[-2.603702,51.455793],"type":"Point"},"properties":{"osm_id":"2869357841","tag":{"amenity":"waste_basket"}},"type":"Feature"},
	{"geometry":{"coordinates":[-2.603713,51.456014],"type":"Point"},"properties":{"osm_id":"2869357843","tag":{"amenity":"waste_basket"}},"type":"Feature"},
	{"geometry":{"coordinates":[-2.608141,51.471885],"type":"Point"},"properties":{"osm_id":"2882341582","tag":{"amenity":"waste_basket"}},"type":"Feature"},
	{"geometry":{"coordinates":[-2.611274,51.459537],"type":"Point"},"properties":{"osm_id":"2882717822","tag":{"amenity":"waste_basket"}},"type":"Feature"},
	{"geometry":{"coordinates":[-2.568562,51.489298],"type":"Point"},"properties":{"osm_id":"2889954655","tag":{"amenity":"recycling","recycling:clothes":"yes"}},"type":"Feature"},
	{"geometry":{"coordinates":[-2.609516,51.463587],"type":"Point"},"properties":{"osm_id":"2892455964","tag":{"amenity":"waste_basket","recycling:clothes":"yes"}},"type":"Feature"},
	{"geometry":{"coordinates":[-2.60184,51.459255],"type":"Point"},"properties":{"osm_id":"2892521973","tag":{"amenity":"recycling","recycling:clothes":"yes"}},"type":"Feature"},
	{"geometry":{"coordinates":[-2.597241,51.456158],"type":"Point"},"properties":{"osm_id":"2986983460","tag":{"amenity":"waste_basket"}},"type":"Feature"},
	{"geometry":{"coordinates":[-2.595315,51.45987],"type":"Point"},"properties":{"osm_id":"2988644826","tag":{"amenity":"waste_basket"}},"type":"Feature"},
	{"geometry":{"coordinates":[-2.616764,51.490597],"type":"Point"},"properties":{"osm_id":"3137549739","tag":{"amenity":"waste_basket"}},"type":"Feature"},
	{"geometry":{"coordinates":[-2.616785,51.487031],"type":"Point"},"properties":{"osm_id":"3137595793","tag":{"amenity":"waste_basket"}},"type":"Feature"},
	{"geometry":{"coordinates":[-2.585112,51.491339],"type":"Point"},"properties":{"osm_id":"3179844601","tag":{"amenity":"waste_basket"}},"type":"Feature"},
	{"geometry":{"coordinates":[-2.602591,51.457271],"type":"Point"},"properties":{"osm_id":"3429467233","tag":{"amenity":"recycling","operator":"University of Bristol"}},"type":"Feature"},
	{"geometry":{"coordinates":[-2.604636,51.460311],"type":"Point"},"properties":{"osm_id":"3429467236","tag":{"amenity":"recycling","location":"overground","operator":"University of Bristol","recycling_type":"container"}},"type":"Feature"},
	{"geometry":{"coordinates":[-2.61664,51.499491],"type":"Point"},"properties":{"osm_id":"3443747343","tag":{"amenity":"waste_basket"}},"type":"Feature"},
	{"geometry":{"coordinates":[-2.615639,51.502972],"type":"Point"},"properties":{"osm_id":"3443747992","tag":{"amenity":"waste_basket"}},"type":"Feature"},
	{"geometry":{"coordinates":[-2.616413,51.507013],"type":"Point"},"properties":{"osm_id":"3451182497","tag":{"amenity":"waste_basket"}},"type":"Feature"},
	{"geometry":{"coordinates":[-2.617185,51.508488],"type":"Point"},"properties":{"osm_id":"3451182628","tag":{"amenity":"waste_basket"}},"type":"Feature"},
	{"geometry":{"coordinates":[-2.623107,51.508408],"type":"Point"},"properties":{"osm_id":"3451286966","tag":{"amenity":"waste_basket"}},"type":"Feature"},
	{"geometry":{"coordinates":[-2.623188,51.508671],"type":"Point"},"properties":{"osm_id":"3451286996","tag":{"amenity":"waste_basket"}},"type":"Feature"},
	{"geometry":{"coordinates":[-2.631787,51.489645],"type":"Point"},"properties":{"osm_id":"3473974842","tag":{"amenity":"waste_basket"}},"type":"Feature"},
	{"geometry":{"coordinates":[-2.591923,51.472149],"type":"Point"},"properties":{"name":"Bin","osm_id":"3509402710","tag":{"amenity":"waste_basket"}},"type":"Feature"},
	{"geometry":{"coordinates":[-2.607775,51.457118],"type":"Point"},"properties":{"osm_id":"3521729300","tag":{"amenity":"waste_basket"}},"type":"Feature"},
	{"geometry":{"coordinates":[-2.608006,51.456952],"type":"Point"},"properties":{"osm_id":"3521729301","tag":{"amenity":"waste_basket"}},"type":"Feature"},
	{"geometry":{"coordinates":[-2.606871,51.456518],"type":"Point"},"properties":{"osm_id":"3521729499","tag":{"amenity":"waste_basket"}},"type":"Feature"},
	{"geometry":{"coordinates":[-2.605742,51.454687],"type":"Point"},"properties":{"osm_id":"3521749995","tag":{"amenity":"waste_basket"}},"type":"Feature"},
	{"geometry":{"coordinates":[-2.606345,51.455813],"type":"Point"},"properties":{"osm_id":"3521750000","tag":{"amenity":"waste_basket"}},"type":"Feature"},
	{"geometry":{"coordinates":[-2.606712,51.454503],"type":"Point"},"properties":{"osm_id":"3521750595","tag":{"amenity":"waste_basket"}},"type":"Feature"},
	{"geometry":{"coordinates":[-2.607391,51.454706],"type":"Point"},"properties":{"osm_id":"3521751093","tag":{"amenity":"waste_basket"}},"type":"Feature"},
	{"geometry":{"coordinates":[-2.606327,51.45626],"type":"Point"},"properties":{"osm_id":"3521751095","tag":{"amenity":"waste_basket"}},"type":"Feature"},
	{"geometry":{"coordinates":[-2.606383,51.456085],"type":"Point"},"properties":{"osm_id":"3521751393","tag":{"amenity":"waste_basket"}},"type":"Feature"},
	{"geometry":{"coordinates":[-2.604758,51.455973],"type":"Point"},"properties":{"osm_id":"3521751394","tag":{"amenity":"waste_basket"}},"type":"Feature"},
	{"geometry":{"coordinates":[-2.606231,51.456367],"type":"Point"},"properties":{"osm_id":"3521751395","tag":{"amenity":"waste_basket"}},"type":"Feature"},
	{"geometry":{"coordinates":[-2.60474,51.456019],"type":"Point"},"properties":{"osm_id":"3521751693","tag":{"amenity":"waste_basket"}},"type":"Feature"},
	{"geometry":{"coordinates":[-2.608181,51.491977],"type":"Point"},"properties":{"osm_id":"3524389053","tag":{"amenity":"waste_basket"}},"type":"Feature"},
	{"geometry":{"coordinates":[-2.562192,51.508674],"type":"Point"},"properties":{"osm_id":"3542495967","tag":{"amenity":"waste_basket"}},"type":"Feature"},
	{"geometry":{"coordinates":[-2.601053,51.455358],"type":"Point"},"properties":{"osm_id":"3545129194","tag":{"amenity":"waste_basket"}},"type":"Feature"},
	{"geometry":{"coordinates":[-2.602266,51.455309],"type":"Point"},"properties":{"osm_id":"3545136193","tag":{"amenity":"waste_basket"}},"type":"Feature"},
	{"geometry":{"coordinates":[-2.59437,51.458498],"type":"Point"},"properties":{"osm_id":"3546995193","tag":{"amenity":"waste_basket"}},"type":"Feature"},
	{"geometry":{"coordinates":[-2.593681,51.458336],"type":"Point"},"properties":{"osm_id":"3546995293","tag":{"amenity":"waste_basket"}},"type":"Feature"},
	{"geometry":{"coordinates":[-2.592647,51.457868],"type":"Point"},"properties":{"osm_id":"3546995493","tag":{"amenity":"waste_basket"}},"type":"Feature"},
	{"geometry":{"coordinates":[-2.591742,51.457415],"type":"Point"},"properties":{"osm_id":"3546995593","tag":{"amenity":"waste_basket"}},"type":"Feature"},
	{"geometry":{"coordinates":[-2.624137,51.463614],"type":"Point"},"properties":{"osm_id":"3554669993","tag":{"amenity":"waste_basket"}},"type":"Feature"},
	{"geometry":{"coordinates":[-2.621015,51.457033],"type":"Point"},"properties":{"osm_id":"3554670094","tag":{"amenity":"waste_basket"}},"type":"Feature"},
	{"geometry":{"coordinates":[-2.619062,51.454835],"type":"Point"},"properties":{"osm_id":"3554670296","tag":{"amenity":"waste_basket"}},"type":"Feature"},
	{"geometry":{"coordinates":[-2.611339,51.466471],"type":"Point"},"properties":{"osm_id":"3558465393","tag":{"amenity":"waste_basket"}},"type":"Feature"},
	{"geometry":{"coordinates":[-2.611071,51.473825],"type":"Point"},"properties":{"osm_id":"3559185193","tag":{"amenity":"waste_basket"}},"type":"Feature"},
	{"geometry":{"coordinates":[-2.61078,51.482342],"type":"Point"},"properties":{"osm_id":"3578946406","tag":{"amenity":"waste_basket"}},"type":"Feature"},
	{"geometry":{"coordinates":[-2.569424,51.465626],"type":"Point"},"properties":{"osm_id":"3601328149","tag":{"amenity":"waste_basket"}},"type":"Feature"},
	{"geometry":{"coordinates":[-2.562976,51.463214],"type":"Point"},"properties":{"osm_id":"3605915847","tag":{"amenity":"waste_basket"}},"type":"Feature"},
	{"geometry":{"coordinates":[-2.574263,51.46066],"type":"Point"},"properties":{"osm_id":"3606095807","tag":{"amenity":"waste_basket"}},"type":"Feature"},
	{"geometry":{"coordinates":[-2.565538,51.461868],"type":"Point"},"properties":{"osm_id":"3606095900","tag":{"amenity":"waste_basket"}},"type":"Feature"},
	{"geometry":{"coordinates":[-2.602594,51.503482],"type":"Point"},"properties":{"osm_id":"3622026147","tag":{"amenity":"waste_basket"}},"type":"Feature"},
	{"geometry":{"coordinates":[-2.600047,51.455484],"type":"Point"},"properties":{"osm_id":"3639908286","tag":{"amenity":"waste_basket"}},"type":"Feature"},
	{"geometry":{"coordinates":[-2.597136,51.497494],"type":"Point"},"properties":{"osm_id":"3660842703","tag":{"amenity":"waste_basket"}},"type":"Feature"},
	{"geometry":{"coordinates":[-2.5922,51.454192],"type":"Point"},"properties":{"osm_id":"3690529767","tag":{"amenity":"waste_basket"}},"type":"Feature"},
	{"geometry":{"coordinates":[-2.602264,51.458055],"type":"Point"},"properties":{"osm_id":"3690529797","tag":{"amenity":"waste_basket"}},"type":"Feature"},
	{"geometry":{"coordinates":[-2.601958,51.458158],"type":"Point"},"properties":{"osm_id":"3690529807","tag":{"amenity":"waste_basket"}},"type":"Feature"},
	{"geometry":{"coordinates":[-2.590725,51.460353],"type":"Point"},"properties":{"osm_id":"3696173722","tag":{"amenity":"waste_basket"}},"type":"Feature"},
	{"geometry":{"coordinates":[-2.599333,51.455616],"type":"Point"},"properties":{"osm_id":"3702080734","tag":{"amenity":"waste_basket"}},"type":"Feature"},
	{"geometry":{"coordinates":[-2.623664,51.455829],"type":"Point"},"properties":{"osm_id":"3705807413","tag":{"amenity":"waste_basket"}},"type":"Feature"},
	{"geometry":{"coordinates":[-2.593581,51.484282],"type":"Point"},"properties":{"osm_id":"3722183075","tag":{"amenity":"waste_basket"}},"type":"Feature"},
	{"geometry":{"coordinates":[-2.584688,51.495476],"type":"Point"},"properties":{"osm_id":"3729785051","tag":{"amenity":"waste_basket"}},"type":"Feature"},
	{"geometry":{"coordinates":[-2.577046,51.500403],"type":"Point"},"properties":{"osm_id":"3729785426","tag":{"amenity":"recycling","recycling:clothes":"yes","recycling_type":"container"}},"type":"Feature"},
	{"geometry":{"coordinates":[-2.579955,51.501636],"type":"Point"},"properties":{"osm_id":"3729785492","tag":{"amenity":"waste_basket"}},"type":"Feature"},
	{"geometry":{"coordinates":[-2.602466,51.493895],"type":"Point"},"properties":{"osm_id":"3735245489","tag":{"amenity":"recycling","recycling:clothes":"yes","recycling:shoes":"yes","recycling_type":"container"}},"type":"Feature"},
	{"geometry":{"coordinates":[-2.626682,51.507506],"type":"Point"},"properties":{"osm_id":"3749936669","tag":{"amenity":"waste_basket"}},"type":"Feature"},
	{"geometry":{"coordinates":[-2.616068,51.506909],"type":"Point"},"properties":{"osm_id":"3769735615","tag":{"amenity":"waste_basket"}},"type":"Feature"},
	{"geometry":{"coordinates":[-2.632911,51.468863],"type":"Point"},"properties":{"osm_id":"3805295756","tag":{"amenity":"waste_basket"}},"type":"Feature"},
	{"geometry":{"coordinates":[-2.630269,51.469372],"type":"Point"},"properties":{"osm_id":"3805295961","tag":{"amenity":"waste_basket"}},"type":"Feature"},
	{"geometry":{"coordinates":[-2.630138,51.454145],"type":"Point"},"properties":{"osm_id":"3836370298","tag":{"amenity":"waste_basket"}},"type":"Feature"},
	{"geometry":{"coordinates":[-2.616146,51.474827],"type":"Point"},"properties":{"osm_id":"3926148960","tag":{"amenity":"waste_basket"}},"type":"Feature"},
	{"geometry":{"coordinates":[-2.576197,51.479013],"type":"Point"},"properties":{"osm_id":"3980723097","tag":{"amenity":"waste_basket"}},"type":"Feature"},
	{"geometry":{"coordinates":[-2.559707,51.478602],"type":"Point"},"properties":{"osm_id":"4016406531","tag":{"amenity":"waste_basket"}},"type":"Feature"},
	{"geometry":{"coordinates":[-2.555508,51.481267],"type":"Point"},"properties":{"osm_id":"4016406585","tag":{"amenity":"waste_basket"}},"type":"Feature"},
	{"geometry":{"coordinates":[-2.570201,51.464407],"type":"Point"},"properties":{"osm_id":"4033937202","tag":{"amenity":"waste_basket"}},"type":"Feature"},
	{"geometry":{"coordinates":[-2.569954,51.464561],"type":"Point"},"properties":{"osm_id":"4033937210","tag":{"amenity":"waste_basket"}},"type":"Feature"},
	{"geometry":{"coordinates":[-2.557589,51.464414],"type":"Point"},"properties":{"osm_id":"4035611925","tag":{"amenity":"waste_basket"}},"type":"Feature"},
	{"geometry":{"coordinates":[-2.567196,51.467455],"type":"Point"},"properties":{"osm_id":"4035612009","tag":{"amenity":"waste_basket"}},"type":"Feature"},
	{"geometry":{"coordinates":[-2.561518,51.454835],"type":"Point"},"properties":{"osm_id":"4076049231","tag":{"amenity":"waste_basket"}},"type":"Feature"},
	{"geometry":{"coordinates":[-2.608582,51.488662],"type":"Point"},"properties":{"osm_id":"4134416049","tag":{"amenity":"waste_basket"}},"type":"Feature"},
	{"geometry":{"coordinates":[-2.60585,51.45623],"type":"Point"},"properties":{"osm_id":"4218233652","tag":{"amenity":"waste_basket"}},"type":"Feature"},
	{"geometry":{"coordinates":[-2.608523,51.457754],"type":"Point"},"properties":{"osm_id":"4307987361","tag":{"amenity":"waste_basket"}},"type":"Feature"},
	{"geometry":{"coordinates":[-2.608618,51.457802],"type":"Point"},"properties":{"osm_id":"4307987363","tag":{"amenity":"waste_basket"}},"type":"Feature"},
	{"geometry":{"coordinates":[-2.60262,51.454287],"type":"Point"},"properties":{"osm_id":"4330074688","tag":{"amenity":"waste_basket"}},"type":"Feature"},
	{"geometry":{"coordinates":[-2.60192,51.457855],"type":"Point"},"properties":{"osm_id":"4330084995","tag":{"amenity":"waste_basket"}},"type":"Feature"},
	{"geometry":{"coordinates":[-2.601626,51.45805],"type":"Point"},"properties":{"osm_id":"4330084997","tag":{"amenity":"waste_basket"}},"type":"Feature"},
	{"geometry":{"coordinates":[-2.612894,51.471056],"type":"Point"},"properties":{"osm_id":"4376325510","tag":{"amenity":"waste_basket"}},"type":"Feature"},
	{"geometry":{"coordinates":[-2.615323,51.495791],"type":"Point"},"properties":{"osm_id":"4415757439","tag":{"amenity":"waste_basket"}},"type":"Feature"},
	{"geometry":{"coordinates":[-2.601804,51.502895],"type":"Point"},"properties":{"osm_id":"4467993258","tag":{"amenity":"waste_basket"}},"type":"Feature"},
	{"geometry":{"coordinates":[-2.579287,51.501701],"type":"Point"},"properties":{"osm_id":"4473923277","tag":{"amenity":"waste_basket"}},"type":"Feature"},
	{"geometry":{"coordinates":[-2.634369,51.484117],"type":"Point"},"properties":{"osm_id":"4477878136","tag":{"amenity":"waste_basket"}},"type":"Feature"},
	{"geometry":{"coordinates":[-2.608409,51.461115],"type":"Point"},"properties":{"osm_id":"4484476626","tag":{"amenity":"waste_basket"}},"type":"Feature"},
	{"geometry":{"coordinates":[-2.603357,51.462427],"type":"Point"},"properties":{"osm_id":"4484608612","tag":{"amenity":"waste_basket"}},"type":"Feature"},
	{"geometry":{"coordinates":[-2.617806,51.495007],"type":"Point"},"properties":{"osm_id":"4499384129","tag":{"amenity":"waste_basket"}},"type":"Feature"},
	{"geometry":{"coordinates":[-2.597863,51.456509],"type":"Point"},"properties":{"osm_id":"4536703629","tag":{"amenity":"waste_basket"}},"type":"Feature"},
	{"geometry":{"coordinates":[-2.602168,51.460933],"type":"Point"},"properties":{"osm_id":"4536703646","tag":{"amenity":"recycling","recycling_type":"container"}},"type":"Feature"},
	{"geometry":{"coordinates":[-2.602141,51.460941],"type":"Point"},"properties":{"osm_id":"4536703647","tag":{"amenity":"recycling","recycling_type":"container"}},"type":"Feature"},
	{"geometry":{"coordinates":[-2.624968,51.507552],"type":"Point"},"properties":{"osm_id":"4554644041","tag":{"amenity":"waste_basket"}},"type":"Feature"},
	{"geometry":{"coordinates":[-2.628178,51.506774],"type":"Point"},"properties":{"osm_id":"4554644047","tag":{"amenity":"waste_basket"}},"type":"Feature"},
	{"geometry":{"coordinates":[-2.626125,51.462031],"type":"Point"},"properties":{"osm_id":"4562626429","tag":{"amenity":"waste_basket"}},"type":"Feature"},
	{"geometry":{"coordinates":[-2.615963,51.461153],"type":"Point"},"properties":{"osm_id":"4565770356","tag":{"amenity":"waste_basket"}},"type":"Feature"},
	{"geometry":{"coordinates":[-2.582794,51.455942],"type":"Point"},"properties":{"osm_id":"4661094411","tag":{"amenity":"waste_basket"}},"type":"Feature"},
	{"geometry":{"coordinates":[-2.59275,51.468936],"type":"Point"},"properties":{"osm_id":"4677234378","tag":{"amenity":"waste_basket"}},"type":"Feature"},
	{"geometry":{"coordinates":[-2.587633,51.467584],"type":"Point"},"properties":{"osm_id":"4677359386","tag":{"amenity":"waste_basket"}},"type":"Feature"},
	{"geometry":{"coordinates":[-2.588355,51.468076],"type":"Point"},"properties":{"osm_id":"4677359387","tag":{"amenity":"waste_basket"}},"type":"Feature"},
	{"geometry":{"coordinates":[-2.59415,51.470323],"type":"Point"},"properties":{"osm_id":"4682574732","tag":{"amenity":"waste_basket"}},"type":"Feature"},
	{"geometry":{"coordinates":[-2.597851,51.469205],"type":"Point"},"properties":{"osm_id":"4682576944","tag":{"amenity":"waste_basket"}},"type":"Feature"},
	{"geometry":{"coordinates":[-2.60301,51.470161],"type":"Point"},"properties":{"osm_id":"4760687198","tag":{"amenity":"waste_basket"}},"type":"Feature"},
	{"geometry":{"coordinates":[-2.603162,51.492484],"type":"Point"},"properties":{"osm_id":"4833539725","tag":{"amenity":"waste_basket"}},"type":"Feature"},
	{"geometry":{"coordinates":[-2.590841,51.454312],"type":"Point"},"properties":{"osm_id":"4862726104","tag":{"amenity":"waste_basket"}},"type":"Feature"},
	{"geometry":{"coordinates":[-2.590783,51.454416],"type":"Point"},"properties":{"osm_id":"4862726105","tag":{"amenity":"waste_basket"}},"type":"Feature"},
	{"geometry":{"coordinates":[-2.588658,51.455219],"type":"Point"},"properties":{"osm_id":"4870661891","tag":{"amenity":"waste_basket"}},"type":"Feature"},
	{"geometry":{"coordinates":[-2.589006,51.455175],"type":"Point"},"properties":{"osm_id":"4870661892","tag":{"amenity":"waste_basket"}},"type":"Feature"},
	{"geometry":{"coordinates":[-2.589175,51.455434],"type":"Point"},"properties":{"osm_id":"4870661893","tag":{"amenity":"waste_basket"}},"type":"Feature"},
	{"geometry":{"coordinates":[-2.58935,51.454994],"type":"Point"},"properties":{"osm_id":"4870661897","tag":{"amenity":"waste_basket"}},"type":"Feature"},
	{"geometry":{"coordinates":[-2.589948,51.455202],"type":"Point"},"properties":{"osm_id":"4870661910","tag":{"amenity":"waste_basket"}},"type":"Feature"},
	{"geometry":{"coordinates":[-2.590174,51.45469],"type":"Point"},"properties":{"osm_id":"4870661911","tag":{"amenity":"waste_basket"}},"type":"Feature"},
	{"geometry":{"coordinates":[-2.566819,51.458028],"type":"Point"},"properties":{"osm_id":"4881345848","tag":{"amenity":"waste_basket"}},"type":"Feature"},
	{"geometry":{"coordinates":[-2.562804,51.457799],"type":"Point"},"properties":{"osm_id":"4883321679","tag":{"amenity":"waste_basket"}},"type":"Feature"},
	{"geometry":{"coordinates":[-2.564893,51.457894],"type":"Point"},"properties":{"osm_id":"4883322437","tag":{"amenity":"waste_basket"}},"type":"Feature"},
	{"geometry":{"coordinates":[-2.557523,51.458771],"type":"Point"},"properties":{"osm_id":"4883377701","tag":{"amenity":"waste_basket"}},"type":"Feature"},
	{"geometry":{"coordinates":[-2.558286,51.458618],"type":"Point"},"properties":{"osm_id":"4883377703","tag":{"amenity":"waste_basket"}},"type":"Feature"},
	{"geometry":{"coordinates":[-2.553765,51.459539],"type":"Point"},"properties":{"osm_id":"4883663225","tag":{"amenity":"waste_basket"}},"type":"Feature"},
	{"geometry":{"coordinates":[-2.551158,51.459732],"type":"Point"},"properties":{"osm_id":"4883724677","tag":{"amenity":"waste_basket"}},"type":"Feature"},
	{"geometry":{"coordinates":[-2.548897,51.459417],"type":"Point"},"properties":{"osm_id":"4883771375","tag":{"amenity":"waste_basket"}},"type":"Feature"},
	{"geometry":{"coordinates":[-2.582023,51.457368],"type":"Point"},"properties":{"osm_id":"4900158324","tag":{"amenity":"waste_basket"}},"type":"Feature"},
	{"geometry":{"coordinates":[-2.580321,51.501456],"type":"Point"},"properties":{"osm_id":"4904969774","tag":{"amenity":"waste_basket"}},"type":"Feature"},
	{"geometry":{"coordinates":[-2.57939,51.501244],"type":"Point"},"properties":{"osm_id":"4904969776","tag":{"amenity":"waste_basket"}},"type":"Feature"},
	{"geometry":{"coordinates":[-2.579208,51.500733],"type":"Point"},"properties":{"osm_id":"4904969782","tag":{"amenity":"waste_basket"}},"type":"Feature"},
	{"geometry":{"coordinates":[-2.577149,51.499658],"type":"Point"},"properties":{"osm_id":"4906478359","tag":{"amenity":"waste_basket"}},"type":"Feature"},
	{"geometry":{"coordinates":[-2.611204,51.457338],"type":"Point"},"properties":{"osm_id":"4949781740","tag":{"amenity":"waste_basket"}},"type":"Feature"},
	{"geometry":{"coordinates":[-2.599633,51.464468],"type":"Point"},"properties":{"osm_id":"4953554749","tag":{"amenity":"waste_basket"}},"type":"Feature"},
	{"geometry":{"coordinates":[-2.599482,51.464292],"type":"Point"},"properties":{"osm_id":"4953554750","tag":{"amenity":"waste_basket"}},"type":"Feature"},
	{"geometry":{"coordinates":[-2.634434,51.481129],"type":"Point"},"properties":{"osm_id":"5005846018","tag":{"amenity":"waste_basket"}},"type":"Feature"},
	{"geometry":{"coordinates":[-2.560577,51.454803],"type":"Point"},"properties":{"osm_id":"5035615216","tag":{"amenity":"waste_basket"}},"type":"Feature"},
	{"geometry":{"coordinates":[-2.583576,51.465267],"type":"Point"},"properties":{"osm_id":"5037798920","tag":{"amenity":"waste_basket"}},"type":"Feature"},
	{"geometry":{"coordinates":[-2.583215,51.454885],"type":"Point"},"properties":{"osm_id":"5057131013","tag":{"amenity":"waste_basket"}},"type":"Feature"},
	{"geometry":{"coordinates":[-2.582546,51.458334],"type":"Point"},"properties":{"osm_id":"5061067318","tag":{"amenity":"waste_basket"}},"type":"Feature"},
	{"geometry":{"coordinates":[-2.595319,51.458992],"type":"Point"},"properties":{"osm_id":"5065033598","tag":{"amenity":"waste_basket"}},"type":"Feature"},
	{"geometry":{"coordinates":[-2.591436,51.459241],"type":"Point"},"properties":{"osm_id":"5065034039","tag":{"amenity":"waste_basket"}},"type":"Feature"},
	{"geometry":{"coordinates":[-2.597988,51.456407],"type":"Point"},"properties":{"osm_id":"5065076007","tag":{"amenity":"waste_basket"}},"type":"Feature"},
	{"geometry":{"coordinates":[-2.587949,51.481602],"type":"Point"},"properties":{"osm_id":"5104076874","tag":{"amenity":"waste_basket"}},"type":"Feature"},
	{"geometry":{"coordinates":[-2.589726,51.487521],"type":"Point"},"properties":{"osm_id":"5110046108","tag":{"amenity":"waste_basket"}},"type":"Feature"},
	{"geometry":{"coordinates":[-2.581872,51.488464],"type":"Point"},"properties":{"osm_id":"5116222663","tag":{"amenity":"waste_basket"}},"type":"Feature"},
	{"geometry":{"coordinates":[-2.583028,51.488744],"type":"Point"},"properties":{"osm_id":"5116222702","tag":{"amenity":"waste_basket"}},"type":"Feature"},
	{"geometry":{"coordinates":[-2.583689,51.489223],"type":"Point"},"properties":{"osm_id":"5116223054","tag":{"amenity":"waste_basket"}},"type":"Feature"},
	{"geometry":{"coordinates":[-2.579069,51.482558],"type":"Point"},"properties":{"osm_id":"5126458001","tag":{"amenity":"waste_basket"}},"type":"Feature"},
	{"geometry":{"coordinates":[-2.579561,51.483373],"type":"Point"},"properties":{"osm_id":"5126458134","tag":{"amenity":"waste_basket"}},"type":"Feature"},
	{"geometry":{"coordinates":[-2.579445,51.484692],"type":"Point"},"properties":{"osm_id":"5126458218","tag":{"amenity":"waste_basket"}},"type":"Feature"},
	{"geometry":{"coordinates":[-2.572352,51.477783],"type":"Point"},"properties":{"osm_id":"5127178916","tag":{"amenity":"waste_basket"}},"type":"Feature"},
	{"geometry":{"coordinates":[-2.573001,51.478344],"type":"Point"},"properties":{"osm_id":"5127178919","tag":{"amenity":"waste_basket"}},"type":"Feature"},
	{"geometry":{"coordinates":[-2.562528,51.475174],"type":"Point"},"properties":{"osm_id":"5129339134","tag":{"amenity":"waste_basket"}},"type":"Feature"},
	{"geometry":{"coordinates":[-2.55738,51.473346],"type":"Point"},"properties":{"osm_id":"5129446375","tag":{"amenity":"waste_basket"}},"type":"Feature"},
	{"geometry":{"coordinates":[-2.556941,51.47344],"type":"Point"},"properties":{"osm_id":"5129446376","tag":{"amenity":"waste_basket"}},"type":"Feature"},
	{"geometry":{"coordinates":[-2.556586,51.47385],"type":"Point"},"properties":{"osm_id":"5129446377","tag":{"amenity":"waste_basket"}},"type":"Feature"},
	{"geometry":{"coordinates":[-2.557235,51.474064],"type":"Point"},"properties":{"osm_id":"5129446400","tag":{"amenity":"waste_basket"}},"type":"Feature"},
	{"geometry":{"coordinates":[-2.574062,51.460601],"type":"Point"},"properties":{"osm_id":"5141926680","tag":{"amenity":"waste_basket"}},"type":"Feature"},
	{"geometry":{"coordinates":[-2.573967,51.460672],"type":"Point"},"properties":{"osm_id":"5141926717","tag":{"amenity":"waste_basket"}},"type":"Feature"},
	{"geometry":{"coordinates":[-2.572495,51.461943],"type":"Point"},"properties":{"osm_id":"5141928431","tag":{"amenity":"waste_basket"}},"type":"Feature"},
	{"geometry":{"coordinates":[-2.617879,51.4978],"type":"Point"},"properties":{"osm_id":"5256605269","tag":{"amenity":"waste_basket"}},"type":"Feature"},
	{"geometry":{"coordinates":[-2.624293,51.477115],"type":"Point"},"properties":{"osm_id":"5264807533","tag":{"amenity":"waste_basket"}},"type":"Feature"},
	{"geometry":{"coordinates":[-2.613888,51.458137],"type":"Point"},"properties":{"osm_id":"5397123739","tag":{"amenity":"waste_basket"}},"type":"Feature"},
	{"geometry":{"coordinates":[-2.596047,51.455147],"type":"Point"},"properties":{"osm_id":"5409904696","tag":{"amenity":"waste_basket"}},"type":"Feature"},
	{"geometry":{"coordinates":[-2.595857,51.455404],"type":"Point"},"properties":{"osm_id":"5410028372","tag":{"amenity":"waste_basket"}},"type":"Feature"},
	{"geometry":{"coordinates":[-2.564575,51.475251],"type":"Point"},"properties":{"osm_id":"5414228141","tag":{"amenity":"waste_basket"}},"type":"Feature"},
	{"geometry":{"coordinates":[-2.566936,51.471681],"type":"Point"},"properties":{"osm_id":"5414328491","tag":{"amenity":"waste_basket"}},"type":"Feature"},
	{"geometry":{"coordinates":[-2.561534,51.467948],"type":"Point"},"properties":{"osm_id":"5415082867","tag":{"amenity":"waste_basket"}},"type":"Feature"},
	{"geometry":{"coordinates":[-2.560715,51.467902],"type":"Point"},"properties":{"osm_id":"5415082878","tag":{"amenity":"waste_basket"}},"type":"Feature"},
	{"geometry":{"coordinates":[-2.564539,51.46799],"type":"Point"},"properties":{"osm_id":"5415216051","tag":{"amenity":"waste_basket"}},"type":"Feature"},
	{"geometry":{"coordinates":[-2.576488,51.466322],"type":"Point"},"properties":{"osm_id":"5419196239","tag":{"amenity":"waste_basket"}},"type":"Feature"},
	{"geometry":{"coordinates":[-2.579276,51.466618],"type":"Point"},"properties":{"osm_id":"5421324819","tag":{"amenity":"waste_basket"}},"type":"Feature"},
	{"geometry":{"coordinates":[-2.581469,51.465288],"type":"Point"},"properties":{"osm_id":"5421418155","tag":{"amenity":"waste_basket"}},"type":"Feature"},
	{"geometry":{"coordinates":[-2.580939,51.458622],"type":"Point"},"properties":{"osm_id":"5425642962","tag":{"amenity":"waste_basket"}},"type":"Feature"},
	{"geometry":{"coordinates":[-2.58212,51.457815],"type":"Point"},"properties":{"osm_id":"5425642971","tag":{"amenity":"waste_basket"}},"type":"Feature"},
	{"geometry":{"coordinates":[-2.583253,51.458277],"type":"Point"},"properties":{"osm_id":"5425642973","tag":{"amenity":"waste_basket"}},"type":"Feature"},
	{"geometry":{"coordinates":[-2.609875,51.464913],"type":"Point"},"properties":{"osm_id":"5433890882","tag":{"amenity":"waste_basket"}},"type":"Feature"},
	{"geometry":{"coordinates":[-2.584491,51.456553],"type":"Point"},"properties":{"osm_id":"5435157720","tag":{"amenity":"waste_basket"}},"type":"Feature"},
	{"geometry":{"coordinates":[-2.584443,51.456369],"type":"Point"},"properties":{"osm_id":"5435157722","tag":{"amenity":"waste_basket"}},"type":"Feature"},
	{"geometry":{"coordinates":[-2.582007,51.46475],"type":"Point"},"properties":{"osm_id":"5438533990","tag":{"amenity":"waste_basket"}},"type":"Feature"},
	{"geometry":{"coordinates":[-2.58063,51.471107],"type":"Point"},"properties":{"osm_id":"5438666287","tag":{"amenity":"waste_basket"}},"type":"Feature"},
	{"geometry":{"coordinates":[-2.580973,51.479718],"type":"Point"},"properties":{"osm_id":"5443929723","tag":{"amenity":"waste_basket"}},"type":"Feature"},
	{"geometry":{"coordinates":[-2.57975,51.478334],"type":"Point"},"properties":{"osm_id":"5443929786","tag":{"amenity":"waste_basket"}},"type":"Feature"},
	{"geometry":{"coordinates":[-2.579925,51.477484],"type":"Point"},"properties":{"osm_id":"5443929788","tag":{"amenity":"waste_basket"}},"type":"Feature"},
	{"geometry":{"coordinates":[-2.604449,51.466749],"type":"Point"},"properties":{"osm_id":"5448678705","tag":{"amenity":"waste_basket"}},"type":"Feature"},
	{"geometry":{"coordinates":[-2.596006,51.508389],"type":"Point"},"properties":{"osm_id":"5452214859","tag":{"amenity":"waste_basket"}},"type":"Feature"},
	{"geometry":{"coordinates":[-2.602775,51.504014],"type":"Point"},"properties":{"osm_id":"5460527945","tag":{"amenity":"waste_basket"}},"type":"Feature"},
	{"geometry":{"coordinates":[-2.633656,51.50628],"type":"Point"},"properties":{"osm_id":"5468295604","tag":{"amenity":"waste_basket"}},"type":"Feature"},
	{"geometry":{"coordinates":[-2.549735,51.503955],"type":"Point"},"properties":{"osm_id":"5557724671","tag":{"amenity":"waste_basket"}},"type":"Feature"},
	{"geometry":{"coordinates":[-2.551025,51.499144],"type":"Point"},"properties":{"osm_id":"5559716923","tag":{"amenity":"waste_basket"}},"type":"Feature"},
	{"geometry":{"coordinates":[-2.55121,51.498814],"type":"Point"},"properties":{"osm_id":"5560695744","tag":{"access":"residents","amenity":"waste_disposal"}},"type":"Feature"},
	{"geometry":{"coordinates":[-2.551186,51.498818],"type":"Point"},"properties":{"osm_id":"5560695745","tag":{"access":"residents","amenity":"recycling","recycling_type":"container"}},"type":"Feature"},
	{"geometry":{"coordinates":[-2.550182,51.499371],"type":"Point"},"properties":{"osm_id":"5560695746","tag":{"access":"residents","amenity":"waste_disposal"}},"type":"Feature"},
	{"geometry":{"coordinates":[-2.550303,51.498894],"type":"Point"},"properties":{"osm_id":"5560695747","tag":{"access":"residents","amenity":"recycling","recycling:cans":"yes","recycling:food":"yes","recycling:glass":"yes","recycling:paper":"yes","recycling:plastic":"yes","recycling_type":"container"}},"type":"Feature"},
	{"geometry":{"coordinates":[-2.550565,51.498834],"type":"Point"},"properties":{"osm_id":"5560704437","tag":{"access":"residents","amenity":"waste_disposal"}},"type":"Feature"},
	{"geometry":{"coordinates":[-2.550539,51.498826],"type":"Point"},"properties":{"osm_id":"5560704438","tag":{"access":"residents","amenity":"recycling","recycling_type":"container"}},"type":"Feature"},
	{"geometry":{"coordinates":[-2.550083,51.498911],"type":"Point"},"properties":{"osm_id":"5565173719","tag":{"amenity":"waste_basket"}},"type":"Feature"},
	{"geometry":{"coordinates":[-2.591054,51.473216],"type":"Point"},"properties":{"osm_id":"5569848714","tag":{"amenity":"waste_basket"}},"type":"Feature"},
	{"geometry":{"coordinates":[-2.549587,51.499281],"type":"Point"},"properties":{"osm_id":"5573259261","tag":{"amenity":"waste_basket"}},"type":"Feature"},
	{"geometry":{"coordinates":[-2.600932,51.494911],"type":"Point"},"properties":{"osm_id":"5577122872","tag":{"amenity":"waste_basket"}},"type":"Feature"},
	{"geometry":{"coordinates":[-2.598194,51.496654],"type":"Point"},"properties":{"osm_id":"5577293890","tag":{"amenity":"waste_basket"}},"type":"Feature"},
	{"geometry":{"coordinates":[-2.595032,51.499118],"type":"Point"},"properties":{"osm_id":"5581485403","tag":{"amenity":"waste_basket"}},"type":"Feature"},
	{"geometry":{"coordinates":[-2.581699,51.495161],"type":"Point"},"properties":{"osm_id":"5587057773","tag":{"amenity":"waste_basket"}},"type":"Feature"},
	{"geometry":{"coordinates":[-2.598151,51.460573],"type":"Point"},"properties":{"osm_id":"5599268414","tag":{"amenity":"waste_basket"}},"type":"Feature"},
	{"geometry":{"coordinates":[-2.604216,51.459064],"type":"Point"},"properties":{"osm_id":"5744546930","tag":{"access":"private","amenity":"recycling","recycling_type":"container"}},"type":"Feature"},
	{"geometry":{"coordinates":[-2.580939,51.465881],"type":"Point"},"properties":{"osm_id":"5765728192","tag":{"amenity":"waste_basket"}},"type":"Feature"},
	{"geometry":{"coordinates":[-2.589223,51.480285],"type":"Point"},"properties":{"osm_id":"5775495490","tag":{"amenity":"waste_basket"}},"type":"Feature"},
	{"geometry":{"coordinates":[-2.589287,51.480241],"type":"Point"},"properties":{"osm_id":"5775495491","tag":{"amenity":"waste_basket"}},"type":"Feature"},
	{"geometry":{"coordinates":[-2.593181,51.471003],"type":"Point"},"properties":{"osm_id":"5821365691","tag":{"amenity":"waste_basket"}},"type":"Feature"},
	{"geometry":{"coordinates":[-2.593466,51.47083],"type":"Point"},"properties":{"osm_id":"5821365698","tag":{"amenity":"waste_basket"}},"type":"Feature"},
	{"geometry":{"coordinates":[-2.588764,51.455673],"type":"Point"},"properties":{"osm_id":"5822625967","tag":{"amenity":"waste_basket"}},"type":"Feature"},
	{"geometry":{"coordinates":[-2.588758,51.455631],"type":"Point"},"properties":{"osm_id":"5822625968","tag":{"amenity":"waste_basket"}},"type":"Feature"},
	{"geometry":{"coordinates":[-2.587184,51.455506],"type":"Point"},"properties":{"osm_id":"5822625971","tag":{"amenity":"waste_basket"}},"type":"Feature"},
	{"geometry":{"coordinates":[-2.586873,51.455524],"type":"Point"},"properties":{"osm_id":"5822625977","tag":{"amenity":"waste_basket"}},"type":"Feature"},
	{"geometry":{"coordinates":[-2.586524,51.455533],"type":"Point"},"properties":{"osm_id":"5822626015","tag":{"amenity":"waste_basket"}},"type":"Feature"},
	{"geometry":{"coordinates":[-2.58676,51.455706],"type":"Point"},"properties":{"osm_id":"5822626016","tag":{"amenity":"waste_basket"}},"type":"Feature"},
	{"geometry":{"coordinates":[-2.586084,51.456939],"type":"Point"},"properties":{"osm_id":"5822644391","tag":{"amenity":"waste_basket"}},"type":"Feature"},
	{"geometry":{"coordinates":[-2.579076,51.465262],"type":"Point"},"properties":{"osm_id":"5823111506","tag":{"amenity":"waste_basket"}},"type":"Feature"},
	{"geometry":{"coordinates":[-2.5784,51.465125],"type":"Point"},"properties":{"osm_id":"5823111510","tag":{"amenity":"waste_basket"}},"type":"Feature"},
	{"geometry":{"coordinates":[-2.579779,51.465019],"type":"Point"},"properties":{"osm_id":"5823111551","tag":{"amenity":"waste_basket"}},"type":"Feature"},
	{"geometry":{"coordinates":[-2.578384,51.465017],"type":"Point"},"properties":{"osm_id":"5823112430","tag":{"amenity":"waste_basket"}},"type":"Feature"},
	{"geometry":{"coordinates":[-2.572188,51.462526],"type":"Point"},"properties":{"osm_id":"5823777409","tag":{"amenity":"waste_basket"}},"type":"Feature"},
	{"geometry":{"coordinates":[-2.572188,51.463103],"type":"Point"},"properties":{"osm_id":"5823777410","tag":{"amenity":"waste_basket"}},"type":"Feature"},
	{"geometry":{"coordinates":[-2.572242,51.463031],"type":"Point"},"properties":{"osm_id":"5823777411","tag":{"amenity":"waste_basket"}},"type":"Feature"},
	{"geometry":{"coordinates":[-2.573321,51.463095],"type":"Point"},"properties":{"osm_id":"5823777502","tag":{"amenity":"waste_basket"}},"type":"Feature"},
	{"geometry":{"coordinates":[-2.593802,51.456564],"type":"Point"},"properties":{"osm_id":"5825893167","tag":{"amenity":"waste_basket"}},"type":"Feature"},
	{"geometry":{"coordinates":[-2.608782,51.462678],"type":"Point"},"properties":{"osm_id":"5825992859","tag":{"amenity":"waste_basket"}},"type":"Feature"},
	{"geometry":{"coordinates":[-2.620469,51.454563],"type":"Point"},"properties":{"osm_id":"5827939094","tag":{"amenity":"waste_basket"}},"type":"Feature"},
	{"geometry":{"coordinates":[-2.578331,51.462343],"type":"Point"},"properties":{"osm_id":"5832538443","tag":{"amenity":"waste_basket"}},"type":"Feature"},
	{"geometry":{"coordinates":[-2.578499,51.462042],"type":"Point"},"properties":{"osm_id":"5832538444","tag":{"amenity":"waste_basket"}},"type":"Feature"},
	{"geometry":{"coordinates":[-2.578103,51.462282],"type":"Point"},"properties":{"osm_id":"5832538445","tag":{"amenity":"waste_basket"}},"type":"Feature"},
	{"geometry":{"coordinates":[-2.577099,51.463782],"type":"Point"},"properties":{"osm_id":"5832538448","tag":{"amenity":"waste_basket"}},"type":"Feature"},
	{"geometry":{"coordinates":[-2.575532,51.465084],"type":"Point"},"properties":{"osm_id":"5832538450","tag":{"amenity":"waste_basket"}},"type":"Feature"},
	{"geometry":{"coordinates":[-2.576798,51.463281],"type":"Point"},"properties":{"osm_id":"5832538600","tag":{"amenity":"waste_basket"}},"type":"Feature"},
	{"geometry":{"coordinates":[-2.562724,51.490608],"type":"Point"},"properties":{"osm_id":"5834363064","tag":{"amenity":"waste_basket"}},"type":"Feature"},
	{"geometry":{"coordinates":[-2.563083,51.489969],"type":"Point"},"properties":{"osm_id":"5834363067","tag":{"amenity":"waste_basket"}},"type":"Feature"},
	{"geometry":{"coordinates":[-2.564128,51.490231],"type":"Point"},"properties":{"osm_id":"5834363070","tag":{"amenity":"waste_basket"}},"type":"Feature"},
	{"geometry":{"coordinates":[-2.563591,51.490913],"type":"Point"},"properties":{"osm_id":"5834363072","tag":{"amenity":"waste_basket"}},"type":"Feature"},
	{"geometry":{"coordinates":[-2.563013,51.490073],"type":"Point"},"properties":{"osm_id":"5834363590","tag":{"amenity":"waste_basket"}},"type":"Feature"},
	{"geometry":{"coordinates":[-2.582647,51.456878],"type":"Point"},"properties":{"osm_id":"5834930820","tag":{"amenity":"waste_basket"}},"type":"Feature"},
	{"geometry":{"coordinates":[-2.582948,51.457707],"type":"Point"},"properties":{"osm_id":"5834930849","tag":{"amenity":"waste_basket"}},"type":"Feature"},
	{"geometry":{"coordinates":[-2.582457,51.457381],"type":"Point"},"properties":{"osm_id":"5834930859","tag":{"amenity":"waste_basket"}},"type":"Feature"},
	{"geometry":{"coordinates":[-2.574048,51.462273],"type":"Point"},"properties":{"osm_id":"5836509028","tag":{"amenity":"waste_basket","waste":"trash"}},"type":"Feature"},
	{"geometry":{"coordinates":[-2.621971,51.508612],"type":"Point"},"properties":{"osm_id":"5847308945","tag":{"amenity":"waste_basket"}},"type":"Feature"},
	{"geometry":{"coordinates":[-2.566204,51.464926],"type":"Point"},"properties":{"osm_id":"5859623998","tag":{"amenity":"waste_basket"}},"type":"Feature"},
	{"geometry":{"coordinates":[-2.566173,51.464817],"type":"Point"},"properties":{"osm_id":"5859623999","tag":{"amenity":"waste_basket","waste":"dog_excrement"}},"type":"Feature"},
	{"geometry":{"coordinates":[-2.566166,51.464796],"type":"Point"},"properties":{"osm_id":"5859624000","tag":{"amenity":"waste_basket"}},"type":"Feature"},
	{"geometry":{"coordinates":[-2.56441,51.460879],"type":"Point"},"properties":{"osm_id":"5859624525","tag":{"amenity":"waste_basket"}},"type":"Feature"},
	{"geometry":{"coordinates":[-2.565131,51.462598],"type":"Point"},"properties":{"osm_id":"5859624575","tag":{"amenity":"waste_basket"}},"type":"Feature"},
	{"geometry":{"coordinates":[-2.590404,51.47317],"type":"Point"},"properties":{"osm_id":"5866268437","tag":{"amenity":"waste_basket","waste":"trash"}},"type":"Feature"},
	{"geometry":{"coordinates":[-2.588632,51.473093],"type":"Point"},"properties":{"osm_id":"5866268438","tag":{"amenity":"waste_basket","waste":"trash"}},"type":"Feature"},
	{"geometry":{"coordinates":[-2.588274,51.473135],"type":"Point"},"properties":{"osm_id":"5866268439","tag":{"amenity":"waste_basket","waste":"trash"}},"type":"Feature"},
	{"geometry":{"coordinates":[-2.588018,51.473076],"type":"Point"},"properties":{"osm_id":"5866268440","tag":{"amenity":"waste_basket","waste":"trash"}},"type":"Feature"},
	{"geometry":{"coordinates":[-2.586604,51.473091],"type":"Point"},"properties":{"osm_id":"5866268441","tag":{"amenity":"waste_basket","waste":"trash"}},"type":"Feature"},
	{"geometry":{"coordinates":[-2.585573,51.472978],"type":"Point"},"properties":{"osm_id":"5866268442","tag":{"amenity":"waste_basket","waste":"trash"}},"type":"Feature"},
	{"geometry":{"coordinates":[-2.585863,51.472914],"type":"Point"},"properties":{"osm_id":"5866268443","tag":{"amenity":"waste_basket","waste":"trash"}},"type":"Feature"},
	{"geometry":{"coordinates":[-2.584941,51.473177],"type":"Point"},"properties":{"osm_id":"5866268444","tag":{"amenity":"waste_basket","waste":"trash"}},"type":"Feature"},
	{"geometry":{"coordinates":[-2.586071,51.472629],"type":"Point"},"properties":{"osm_id":"5866318016","tag":{"amenity":"waste_basket","waste":"trash"}},"type":"Feature"},
	{"geometry":{"coordinates":[-2.615923,51.462081],"type":"Point"},"properties":{"osm_id":"5869437906","tag":{"amenity":"waste_basket"}},"type":"Feature"},
	{"geometry":{"coordinates":[-2.580578,51.45812],"type":"Point"},"properties":{"osm_id":"5882242020","tag":{"amenity":"waste_basket"}},"type":"Feature"},
	{"geometry":{"coordinates":[-2.589922,51.471147],"type":"Point"},"properties":{"osm_id":"5900141274","tag":{"amenity":"waste_basket"}},"type":"Feature"},
	{"geometry":{"coordinates":[-2.595216,51.469817],"type":"Point"},"properties":{"osm_id":"5902334726","tag":{"amenity":"waste_basket"}},"type":"Feature"},
	{"geometry":{"coordinates":[-2.593428,51.470154],"type":"Point"},"properties":{"osm_id":"5902334741","tag":{"amenity":"waste_basket"}},"type":"Feature"},
	{"geometry":{"coordinates":[-2.59274,51.471429],"type":"Point"},"properties":{"osm_id":"5902334744","tag":{"amenity":"waste_basket"}},"type":"Feature"},
	{"geometry":{"coordinates":[-2.592304,51.471831],"type":"Point"},"properties":{"osm_id":"5902334754","tag":{"amenity":"waste_basket"}},"type":"Feature"},
	{"geometry":{"coordinates":[-2.584109,51.463394],"type":"Point"},"properties":{"osm_id":"5906108594","tag":{"amenity":"waste_basket"}},"type":"Feature"},
	{"geometry":{"coordinates":[-2.5837,51.463671],"type":"Point"},"properties":{"osm_id":"5906212646","tag":{"amenity":"waste_basket"}},"type":"Feature"},
	{"geometry":{"coordinates":[-2.575418,51.469404],"type":"Point"},"properties":{"osm_id":"5906756247","tag":{"amenity":"waste_basket"}},"type":"Feature"},
	{"geometry":{"coordinates":[-2.569234,51.465876],"type":"Point"},"properties":{"osm_id":"5907064939","tag":{"amenity":"waste_basket"}},"type":"Feature"},
	{"geometry":{"coordinates":[-2.565163,51.461651],"type":"Point"},"properties":{"osm_id":"5907317324","tag":{"amenity":"waste_basket"}},"type":"Feature"},
	{"geometry":{"coordinates":[-2.562994,51.461694],"type":"Point"},"properties":{"osm_id":"5907317604","tag":{"amenity":"waste_basket"}},"type":"Feature"},
	{"geometry":{"coordinates":[-2.563176,51.464099],"type":"Point"},"properties":{"osm_id":"5907317677","tag":{"amenity":"waste_basket"}},"type":"Feature"},
	{"geometry":{"coordinates":[-2.576805,51.458704],"type":"Point"},"properties":{"osm_id":"5908506796","tag":{"amenity":"waste_basket"}},"type":"Feature"},
	{"geometry":{"coordinates":[-2.572998,51.458693],"type":"Point"},"properties":{"osm_id":"5908769346","tag":{"amenity":"waste_basket"}},"type":"Feature"},
	{"geometry":{"coordinates":[-2.580907,51.45614],"type":"Point"},"properties":{"osm_id":"5908845993","tag":{"amenity":"waste_basket"}},"type":"Feature"},
	{"geometry":{"coordinates":[-2.57771,51.457046],"type":"Point"},"properties":{"osm_id":"5908845994","tag":{"amenity":"waste_basket"}},"type":"Feature"},
	{"geometry":{"coordinates":[-2.611734,51.479715],"type":"Point"},"properties":{"osm_id":"5912641698","tag":{"amenity":"waste_basket"}},"type":"Feature"},
	{"geometry":{"coordinates":[-2.632889,51.485298],"type":"Point"},"properties":{"osm_id":"5940499345","tag":{"amenity":"waste_basket"}},"type":"Feature"},
	{"geometry":{"coordinates":[-2.634991,51.486685],"type":"Point"},"properties":{"osm_id":"5940499348","tag":{"amenity":"waste_basket"}},"type":"Feature"},
	{"geometry":{"coordinates":[-2.585161,51.461014],"type":"Point"},"properties":{"osm_id":"5941055957","tag":{"amenity":"waste_basket"}},"type":"Feature"},
	{"geometry":{"coordinates":[-2.550613,51.473589],"type":"Point"},"properties":{"osm_id":"5976401855","tag":{"amenity":"waste_basket"}},"type":"Feature"},
	{"geometry":{"coordinates":[-2.588043,51.467373],"type":"Point"},"properties":{"osm_id":"6018189932","tag":{"amenity":"waste_basket"}},"type":"Feature"},
	{"geometry":{"coordinates":[-2.586696,51.456698],"type":"Point"},"properties":{"osm_id":"6018494701","tag":{"amenity":"waste_basket"}},"type":"Feature"},
	{"geometry":{"coordinates":[-2.587032,51.45673],"type":"Point"},"properties":{"osm_id":"6018494702","tag":{"amenity":"waste_basket"}},"type":"Feature"},
	{"geometry":{"coordinates":[-2.591659,51.455431],"type":"Point"},"properties":{"osm_id":"6018494711","tag":{"amenity":"waste_basket"}},"type":"Feature"},
	{"geometry":{"coordinates":[-2.60015,51.459085],"type":"Point"},"properties":{"osm_id":"6026011112","tag":{"amenity":"waste_basket"}},"type":"Feature"},
	{"geometry":{"coordinates":[-2.587843,51.460188],"type":"Point"},"properties":{"osm_id":"6047276784","tag":{"amenity":"waste_basket"}},"type":"Feature"},
	{"geometry":{"coordinates":[-2.588017,51.460248],"type":"Point"},"properties":{"osm_id":"6047277285","tag":{"amenity":"waste_basket"}},"type":"Feature"},
	{"geometry":{"coordinates":[-2.587997,51.460089],"type":"Point"},"properties":{"osm_id":"6047277292","tag":{"amenity":"waste_basket"}},"type":"Feature"},
	{"geometry":{"coordinates":[-2.583553,51.456125],"type":"Point"},"properties":{"osm_id":"6056056695","tag":{"amenity":"waste_basket"}},"type":"Feature"},
	{"geometry":{"coordinates":[-2.581011,51.454192],"type":"Point"},"properties":{"osm_id":"6056056709","tag":{"amenity":"waste_basket"}},"type":"Feature"},
	{"geometry":{"coordinates":[-2.580877,51.454284],"type":"Point"},"properties":{"osm_id":"6056056713","tag":{"amenity":"waste_basket"}},"type":"Feature"},
	{"geometry":{"coordinates":[-2.593083,51.456543],"type":"Point"},"properties":{"osm_id":"6056100146","tag":{"amenity":"waste_basket"}},"type":"Feature"},
	{"geometry":{"coordinates":[-2.591758,51.457578],"type":"Point"},"properties":{"osm_id":"6056100148","tag":{"amenity":"waste_basket"}},"type":"Feature"},
	{"geometry":{"coordinates":[-2.591961,51.45766],"type":"Point"},"properties":{"osm_id":"6056100149","tag":{"amenity":"waste_basket"}},"type":"Feature"},
	{"geometry":{"coordinates":[-2.608377,51.457576],"type":"Point"},"properties":{"osm_id":"6058290560","tag":{"amenity":"waste_basket"}},"type":"Feature"},
	{"geometry":{"coordinates":[-2.576168,51.471204],"type":"Point"},"properties":{"osm_id":"6064928240","tag":{"amenity":"waste_basket"}},"type":"Feature"},
	{"geometry":{"coordinates":[-2.574198,51.470438],"type":"Point"},"properties":{"osm_id":"6064998722","tag":{"amenity":"waste_basket"}},"type":"Feature"},
	{"geometry":{"coordinates":[-2.566926,51.461685],"type":"Point"},"properties":{"osm_id":"6067209989","tag":{"amenity":"waste_basket"}},"type":"Feature"},
	{"geometry":{"coordinates":[-2.625121,51.456036],"type":"Point"},"properties":{"osm_id":"6067570677","tag":{"amenity":"waste_basket"}},"type":"Feature"},
	{"geometry":{"coordinates":[-2.619315,51.492982],"type":"Point"},"properties":{"osm_id":"6096911949","tag":{"amenity":"waste_basket"}},"type":"Feature"},
	{"geometry":{"coordinates":[-2.63118,51.489239],"type":"Point"},"properties":{"osm_id":"6120189170","tag":{"amenity":"waste_basket"}},"type":"Feature"},
	{"geometry":{"coordinates":[-2.591828,51.459855],"type":"Point"},"properties":{"osm_id":"6129504413","tag":{"amenity":"waste_basket"}},"type":"Feature"},
	{"geometry":{"coordinates":[-2.5902,51.45924],"type":"Point"},"properties":{"osm_id":"6133654978","tag":{"amenity":"waste_basket"}},"type":"Feature"},
	{"geometry":{"coordinates":[-2.609657,51.475175],"type":"Point"},"properties":{"osm_id":"6133704779","tag":{"amenity":"waste_basket"}},"type":"Feature"},
	{"geometry":{"coordinates":[-2.604504,51.472878],"type":"Point"},"properties":{"osm_id":"6138250927","tag":{"amenity":"waste_basket"}},"type":"Feature"},
	{"geometry":{"coordinates":[-2.604401,51.473343],"type":"Point"},"properties":{"osm_id":"6138277555","tag":{"amenity":"waste_basket"}},"type":"Feature"},
	{"geometry":{"coordinates":[-2.601039,51.469866],"type":"Point"},"properties":{"osm_id":"6139263093","tag":{"amenity":"waste_basket"}},"type":"Feature"},
	{"geometry":{"coordinates":[-2.56646,51.462985],"type":"Point"},"properties":{"osm_id":"6140127120","tag":{"amenity":"waste_basket"}},"type":"Feature"},
	{"geometry":{"coordinates":[-2.566436,51.468347],"type":"Point"},"properties":{"osm_id":"6141346026","tag":{"amenity":"waste_basket"}},"type":"Feature"},
	{"geometry":{"coordinates":[-2.612311,51.46786],"type":"Point"},"properties":{"osm_id":"6146484454","tag":{"amenity":"waste_basket"}},"type":"Feature"},
	{"geometry":{"coordinates":[-2.62557,51.502665],"type":"Point"},"properties":{"osm_id":"6160094111","tag":{"amenity":"waste_basket"}},"type":"Feature"},
	{"geometry":{"coordinates":[-2.585979,51.492174],"type":"Point"},"properties":{"osm_id":"6169549619","tag":{"amenity":"waste_basket"}},"type":"Feature"},
	{"geometry":{"coordinates":[-2.611212,51.492541],"type":"Point"},"properties":{"osm_id":"6177428860","tag":{"amenity":"waste_basket"}},"type":"Feature"},
	{"geometry":{"coordinates":[-2.617174,51.497873],"type":"Point"},"properties":{"osm_id":"6186345687","tag":{"amenity":"waste_basket"}},"type":"Feature"},
	{"geometry":{"coordinates":[-2.581121,51.459422],"type":"Point"},"properties":{"osm_id":"6209098726","tag":{"amenity":"waste_basket"}},"type":"Feature"},
	{"geometry":{"coordinates":[-2.590762,51.455617],"type":"Point"},"properties":{"osm_id":"6225815033","tag":{"amenity":"waste_basket"}},"type":"Feature"},
	{"geometry":{"coordinates":[-2.592832,51.454953],"type":"Point"},"properties":{"osm_id":"6225815034","tag":{"amenity":"waste_basket"}},"type":"Feature"},
	{"geometry":{"coordinates":[-2.609193,51.463047],"type":"Point"},"properties":{"osm_id":"6238563787","tag":{"amenity":"waste_basket"}},"type":"Feature"},
	{"geometry":{"coordinates":[-2.571911,51.462389],"type":"Point"},"properties":{"osm_id":"6239533483","tag":{"amenity":"waste_basket"}},"type":"Feature"},
	{"geometry":{"coordinates":[-2.579533,51.478348],"type":"Point"},"properties":{"osm_id":"6252540893","tag":{"amenity":"waste_basket"}},"type":"Feature"},
	{"geometry":{"coordinates":[-2.579828,51.477079],"type":"Point"},"properties":{"osm_id":"6252625751","tag":{"amenity":"waste_basket"}},"type":"Feature"},
	{"geometry":{"coordinates":[-2.575488,51.469558],"type":"Point"},"properties":{"osm_id":"6254330718","tag":{"amenity":"waste_basket"}},"type":"Feature"},
	{"geometry":{"coordinates":[-2.583284,51.466829],"type":"Point"},"properties":{"osm_id":"6262713389","tag":{"amenity":"waste_basket"}},"type":"Feature"},
	{"geometry":{"coordinates":[-2.582696,51.467174],"type":"Point"},"properties":{"osm_id":"6262713391","tag":{"amenity":"waste_basket"}},"type":"Feature"},
	{"geometry":{"coordinates":[-2.582629,51.467209],"type":"Point"},"properties":{"osm_id":"6262713392","tag":{"amenity":"waste_basket"}},"type":"Feature"},
	{"geometry":{"coordinates":[-2.583107,51.464711],"type":"Point"},"properties":{"osm_id":"6327939710","tag":{"amenity":"waste_basket"}},"type":"Feature"},
	{"geometry":{"coordinates":[-2.572926,51.465852],"type":"Point"},"properties":{"osm_id":"6334243821","tag":{"amenity":"waste_basket"}},"type":"Feature"},
	{"geometry":{"coordinates":[-2.57306,51.46581],"type":"Point"},"properties":{"osm_id":"6334243822","tag":{"amenity":"waste_basket"}},"type":"Feature"},
	{"geometry":{"coordinates":[-2.573482,51.465911],"type":"Point"},"properties":{"osm_id":"6334243827","tag":{"amenity":"waste_basket"}},"type":"Feature"},
	{"geometry":{"coordinates":[-2.573856,51.466161],"type":"Point"},"properties":{"osm_id":"6334243830","tag":{"amenity":"waste_basket"}},"type":"Feature"},
	{"geometry":{"coordinates":[-2.57488,51.465494],"type":"Point"},"properties":{"osm_id":"6334270287","tag":{"amenity":"waste_basket"}},"type":"Feature"},
	{"geometry":{"coordinates":[-2.597129,51.454388],"type":"Point"},"properties":{"osm_id":"6348418721","tag":{"amenity":"waste_basket"}},"type":"Feature"},
	{"geometry":{"coordinates":[-2.571673,51.475449],"type":"Point"},"properties":{"osm_id":"6353142995","tag":{"amenity":"waste_basket"}},"type":"Feature"},
	{"geometry":{"coordinates":[-2.571459,51.475739],"type":"Point"},"properties":{"osm_id":"6353143296","tag":{"amenity":"waste_basket"}},"type":"Feature"},
	{"geometry":{"coordinates":[-2.570879,51.474998],"type":"Point"},"properties":{"osm_id":"6353216728","tag":{"amenity":"waste_basket"}},"type":"Feature"},
	{"geometry":{"coordinates":[-2.624744,51.494474],"type":"Point"},"properties":{"osm_id":"6369147450","tag":{"amenity":"waste_basket"}},"type":"Feature"},
	{"geometry":{"coordinates":[-2.578591,51.458161],"type":"Point"},"properties":{"osm_id":"6396595545","tag":{"amenity":"waste_basket"}},"type":"Feature"},
	{"geometry":{"coordinates":[-2.578955,51.458137],"type":"Point"},"properties":{"osm_id":"6396595546","tag":{"amenity":"waste_basket"}},"type":"Feature"},
	{"geometry":{"coordinates":[-2.579272,51.457549],"type":"Point"},"properties":{"osm_id":"6396595548","tag":{"amenity":"waste_basket"}},"type":"Feature"},
	{"geometry":{"coordinates":[-2.579185,51.457539],"type":"Point"},"properties":{"osm_id":"6396595549","tag":{"amenity":"waste_basket"}},"type":"Feature"},
	{"geometry":{"coordinates":[-2.578931,51.45789],"type":"Point"},"properties":{"osm_id":"6396595551","tag":{"amenity":"waste_basket"}},"type":"Feature"},
	{"geometry":{"coordinates":[-2.577411,51.460008],"type":"Point"},"properties":{"osm_id":"6407359830","tag":{"amenity":"waste_basket"}},"type":"Feature"},
	{"geometry":{"coordinates":[-2.574451,51.46236],"type":"Point"},"properties":{"osm_id":"6407769786","tag":{"amenity":"waste_basket"}},"type":"Feature"},
	{"geometry":{"coordinates":[-2.575604,51.461555],"type":"Point"},"properties":{"osm_id":"6407769804","tag":{"amenity":"waste_basket"}},"type":"Feature"},
	{"geometry":{"coordinates":[-2.575165,51.461996],"type":"Point"},"properties":{"osm_id":"6407769805","tag":{"amenity":"waste_basket"}},"type":"Feature"},
	{"geometry":{"coordinates":[-2.57671,51.461184],"type":"Point"},"properties":{"osm_id":"6407769859","tag":{"amenity":"waste_basket"}},"type":"Feature"},
	{"geometry":{"coordinates":[-2.573365,51.461111],"type":"Point"},"properties":{"osm_id":"6409940611","tag":{"amenity":"waste_basket"}},"type":"Feature"},
	{"geometry":{"coordinates":[-2.571741,51.462032],"type":"Point"},"properties":{"osm_id":"6409940616","tag":{"amenity":"waste_basket"}},"type":"Feature"},
	{"geometry":{"coordinates":[-2.571437,51.462041],"type":"Point"},"properties":{"osm_id":"6409940617","tag":{"amenity":"waste_basket","waste":"dog_excrement"}},"type":"Feature"},
	{"geometry":{"coordinates":[-2.573897,51.508626],"type":"Point"},"properties":{"osm_id":"6412772184","tag":{"amenity":"waste_basket"}},"type":"Feature"},
	{"geometry":{"coordinates":[-2.57479,51.460295],"type":"Point"},"properties":{"osm_id":"6419672782","tag":{"amenity":"waste_basket"}},"type":"Feature"},
	{"geometry":{"coordinates":[-2.572716,51.461787],"type":"Point"},"properties":{"osm_id":"6421199264","tag":{"amenity":"waste_basket"}},"type":"Feature"},
	{"geometry":{"coordinates":[-2.570225,51.463973],"type":"Point"},"properties":{"osm_id":"6431801835","tag":{"amenity":"waste_basket"}},"type":"Feature"},
	{"geometry":{"coordinates":[-2.556379,51.48298],"type":"Point"},"properties":{"osm_id":"6432924006","tag":{"amenity":"waste_basket"}},"type":"Feature"},
	{"geometry":{"coordinates":[-2.561793,51.473636],"type":"Point"},"properties":{"osm_id":"6434025309","tag":{"amenity":"recycling","recycling:clothes":"yes","recycling_type":"container"}},"type":"Feature"},
	{"geometry":{"coordinates":[-2.561807,51.473618],"type":"Point"},"properties":{"osm_id":"6434025310","tag":{"amenity":"recycling","recycling_type":"container"}},"type":"Feature"},
	{"geometry":{"coordinates":[-2.56182,51.473601],"type":"Point"},"properties":{"osm_id":"6434025311","tag":{"amenity":"recycling","recycling_type":"container"}},"type":"Feature"},
	{"geometry":{"coordinates":[-2.562709,51.49081],"type":"Point"},"properties":{"osm_id":"6434619848","tag":{"amenity":"waste_basket"}},"type":"Feature"},
	{"geometry":{"coordinates":[-2.563437,51.490987],"type":"Point"},"properties":{"osm_id":"6434619850","tag":{"amenity":"waste_basket"}},"type":"Feature"},
	{"geometry":{"coordinates":[-2.6325,51.504914],"type":"Point"},"properties":{"osm_id":"6434632234","tag":{"amenity":"waste_basket"}},"type":"Feature"},
	{"geometry":{"coordinates":[-2.569953,51.463489],"type":"Point"},"properties":{"osm_id":"6446689291","tag":{"amenity":"waste_basket"}},"type":"Feature"},
	{"geometry":{"coordinates":[-2.570137,51.466575],"type":"Point"},"properties":{"osm_id":"6448035239","tag":{"amenity":"waste_basket"}},"type":"Feature"},
	{"geometry":{"coordinates":[-2.569025,51.463624],"type":"Point"},"properties":{"osm_id":"6448636316","tag":{"amenity":"waste_basket"}},"type":"Feature"},
	{"geometry":{"coordinates":[-2.569151,51.465751],"type":"Point"},"properties":{"osm_id":"6450836632","tag":{"amenity":"waste_basket"}},"type":"Feature"},
	{"geometry":{"coordinates":[-2.601532,51.48405],"type":"Point"},"properties":{"osm_id":"6453109596","tag":{"amenity":"waste_basket"}},"type":"Feature"},
	{"geometry":{"coordinates":[-2.56665,51.464422],"type":"Point"},"properties":{"osm_id":"6453158007","tag":{"amenity":"waste_basket"}},"type":"Feature"},
	{"geometry":{"coordinates":[-2.590022,51.462695],"type":"Point"},"properties":{"osm_id":"6474021381","tag":{"amenity":"waste_basket"}},"type":"Feature"},
	{"geometry":{"coordinates":[-2.593874,51.455338],"type":"Point"},"properties":{"osm_id":"6496198104","tag":{"amenity":"waste_basket"}},"type":"Feature"},
	{"geometry":{"coordinates":[-2.621073,51.50428],"type":"Point"},"properties":{"osm_id":"6606581882","tag":{"amenity":"waste_basket"}},"type":"Feature"},
	{"geometry":{"coordinates":[-2.603682,51.503009],"type":"Point"},"properties":{"osm_id":"6699375732","tag":{"amenity":"waste_basket"}},"type":"Feature"},
	{"geometry":{"coordinates":[-2.587299,51.459509],"type":"Point"},"properties":{"osm_id":"6720006995","tag":{"amenity":"waste_basket"}},"type":"Feature"},
	{"geometry":{"coordinates":[-2.616004,51.486226],"type":"Point"},"properties":{"osm_id":"6786813126","tag":{"amenity":"waste_basket"}},"type":"Feature"},
	{"geometry":{"coordinates":[-2.616874,51.489687],"type":"Point"},"properties":{"osm_id":"6786813127","tag":{"amenity":"waste_basket"}},"type":"Feature"},
	{"geometry":{"coordinates":[-2.5965,51.454416],"type":"Point"},"properties":{"osm_id":"6791564045","tag":{"amenity":"waste_basket"}},"type":"Feature"},
	{"geometry":{"coordinates":[-2.596744,51.454262],"type":"Point"},"properties":{"osm_id":"6791564046","tag":{"amenity":"waste_basket"}},"type":"Feature"},
	{"geometry":{"coordinates":[-2.612923,51.468108],"type":"Point"},"properties":{"osm_id":"6791571131","tag":{"amenity":"waste_basket"}},"type":"Feature"},
	{"geometry":{"coordinates":[-2.613127,51.467985],"type":"Point"},"properties":{"osm_id":"6791571132","tag":{"amenity":"waste_basket"}},"type":"Feature"},
	{"geometry":{"coordinates":[-2.615983,51.471272],"type":"Point"},"properties":{"osm_id":"6791571133","tag":{"amenity":"waste_basket"}},"type":"Feature"},
	{"geometry":{"coordinates":[-2.616233,51.474264],"type":"Point"},"properties":{"osm_id":"6791571134","tag":{"amenity":"waste_basket"}},"type":"Feature"},
	{"geometry":{"coordinates":[-2.616735,51.47897],"type":"Point"},"properties":{"osm_id":"6791571138","tag":{"amenity":"waste_basket"}},"type":"Feature"},
	{"geometry":{"coordinates":[-2.579171,51.501199],"type":"Point"},"properties":{"osm_id":"6794032271","tag":{"amenity":"waste_basket"}},"type":"Feature"},
	{"geometry":{"coordinates":[-2.579493,51.502396],"type":"Point"},"properties":{"osm_id":"6794043020","tag":{"amenity":"recycling","recycling:clothes":"yes","recycling:shoes":"yes","recycling_type":"container"}},"type":"Feature"},
	{"geometry":{"coordinates":[-2.579366,51.502058],"type":"Point"},"properties":{"osm_id":"6794043021","tag":{"amenity":"waste_basket"}},"type":"Feature"},
	{"geometry":{"coordinates":[-2.591155,51.455479],"type":"Point"},"properties":{"osm_id":"6797583333","tag":{"amenity":"waste_basket"}},"type":"Feature"},
	{"geometry":{"coordinates":[-2.592762,51.456726],"type":"Point"},"properties":{"osm_id":"6797583341","tag":{"amenity":"waste_basket"}},"type":"Feature"},
	{"geometry":{"coordinates":[-2.569438,51.501931],"type":"Point"},"properties":{"osm_id":"6800563943","tag":{"amenity":"waste_basket"}},"type":"Feature"},
	{"geometry":{"coordinates":[-2.594313,51.457647],"type":"Point"},"properties":{"osm_id":"6818475788","tag":{"amenity":"waste_basket"}},"type":"Feature"},
	{"geometry":{"coordinates":[-2.584612,51.456718],"type":"Point"},"properties":{"osm_id":"6824060859","tag":{"amenity":"waste_basket"}},"type":"Feature"},
	{"geometry":{"coordinates":[-2.586226,51.457659],"type":"Point"},"properties":{"osm_id":"6824060881","tag":{"amenity":"waste_basket"}},"type":"Feature"},
	{"geometry":{"coordinates":[-2.600225,51.461175],"type":"Point"},"properties":{"osm_id":"6831372636","tag":{"amenity":"waste_basket"}},"type":"Feature"},
	{"geometry":{"coordinates":[-2.591657,51.459757],"type":"Point"},"properties":{"osm_id":"6831733128","tag":{"amenity":"waste_basket"}},"type":"Feature"},
	{"geometry":{"coordinates":[-2.590837,51.45617],"type":"Point"},"properties":{"osm_id":"6840486908","tag":{"amenity":"waste_basket"}},"type":"Feature"},
	{"geometry":{"coordinates":[-2.59068,51.455892],"type":"Point"},"properties":{"osm_id":"6840486909","tag":{"amenity":"waste_basket"}},"type":"Feature"},
	{"geometry":{"coordinates":[-2.590928,51.456158],"type":"Point"},"properties":{"osm_id":"6840486910","tag":{"amenity":"waste_basket"}},"type":"Feature"},
	{"geometry":{"coordinates":[-2.591088,51.457065],"type":"Point"},"properties":{"osm_id":"6840501082","tag":{"amenity":"waste_basket"}},"type":"Feature"},
	{"geometry":{"coordinates":[-2.591948,51.456832],"type":"Point"},"properties":{"osm_id":"6840735281","tag":{"amenity":"waste_basket"}},"type":"Feature"},
	{"geometry":{"coordinates":[-2.592607,51.456656],"type":"Point"},"properties":{"osm_id":"6840735283","tag":{"amenity":"waste_basket"}},"type":"Feature"},
	{"geometry":{"coordinates":[-2.594976,51.456263],"type":"Point"},"properties":{"osm_id":"6840875569","tag":{"amenity":"waste_basket"}},"type":"Feature"},
	{"geometry":{"coordinates":[-2.582658,51.481096],"type":"Point"},"properties":{"osm_id":"6845425197","tag":{"amenity":"waste_basket"}},"type":"Feature"},
	{"geometry":{"coordinates":[-2.575457,51.466119],"type":"Point"},"properties":{"osm_id":"6848841750","tag":{"amenity":"waste_basket"}},"type":"Feature"},
	{"geometry":{"coordinates":[-2.564566,51.463816],"type":"Point"},"properties":{"osm_id":"6854053416","tag":{"amenity":"waste_basket"}},"type":"Feature"},
	{"geometry":{"coordinates":[-2.564638,51.464465],"type":"Point"},"properties":{"osm_id":"6854053437","tag":{"amenity":"waste_basket"}},"type":"Feature"},
	{"geometry":{"coordinates":[-2.593402,51.485265],"type":"Point"},"properties":{"osm_id":"6858764633","tag":{"amenity":"waste_basket"}},"type":"Feature"},
	{"geometry":{"coordinates":[-2.596044,51.486096],"type":"Point"},"properties":{"osm_id":"6871079945","tag":{"amenity":"waste_basket"}},"type":"Feature"},
	{"geometry":{"coordinates":[-2.590201,51.484912],"type":"Point"},"properties":{"osm_id":"6871175348","tag":{"amenity":"waste_basket"}},"type":"Feature"},
	{"geometry":{"coordinates":[-2.592705,51.488921],"type":"Point"},"properties":{"osm_id":"6874148154","tag":{"amenity":"waste_basket"}},"type":"Feature"},
	{"geometry":{"coordinates":[-2.59165,51.488359],"type":"Point"},"properties":{"osm_id":"6874148155","tag":{"amenity":"waste_basket"}},"type":"Feature"},
	{"geometry":{"coordinates":[-2.602554,51.502669],"type":"Point"},"properties":{"osm_id":"6903873023","tag":{"amenity":"waste_basket"}},"type":"Feature"},
	{"geometry":{"coordinates":[-2.602727,51.502913],"type":"Point"},"properties":{"osm_id":"6903873024","tag":{"amenity":"waste_basket"}},"type":"Feature"},
	{"geometry":{"coordinates":[-2.597947,51.49768],"type":"Point"},"properties":{"osm_id":"6904006374","tag":{"amenity":"waste_basket"}},"type":"Feature"},
	{"geometry":{"coordinates":[-2.595256,51.495385],"type":"Point"},"properties":{"osm_id":"6907152017","tag":{"amenity":"waste_basket"}},"type":"Feature"},
	{"geometry":{"coordinates":[-2.584748,51.48718],"type":"Point"},"properties":{"osm_id":"6918824282","tag":{"amenity":"waste_basket"}},"type":"Feature"},
	{"geometry":{"coordinates":[-2.588199,51.456609],"type":"Point"},"properties":{"osm_id":"6937841126","tag":{"amenity":"waste_basket"}},"type":"Feature"},
	{"geometry":{"coordinates":[-2.588524,51.457056],"type":"Point"},"properties":{"osm_id":"6937841130","tag":{"amenity":"waste_basket"}},"type":"Feature"},
	{"geometry":{"coordinates":[-2.56395,51.456263],"type":"Point"},"properties":{"osm_id":"7003216532","tag":{"amenity":"waste_basket"}},"type":"Feature"},
	{"geometry":{"coordinates":[-2.59244,51.497082],"type":"Point"},"properties":{"osm_id":"7076096642","tag":{"amenity":"waste_basket"}},"type":"Feature"},
	{"geometry":{"coordinates":[-2.632813,51.508639],"type":"Point"},"properties":{"osm_id":"7099853802","tag":{"amenity":"waste_basket"}},"type":"Feature"},
	{"geometry":{"coordinates":[-2.633433,51.502196],"type":"Point"},"properties":{"osm_id":"7099880002","tag":{"amenity":"waste_basket"}},"type":"Feature"},
	{"geometry":{"coordinates":[-2.634788,51.506042],"type":"Point"},"properties":{"osm_id":"7099918889","tag":{"amenity":"waste_basket"}},"type":"Feature"},
	{"geometry":{"coordinates":[-2.616871,51.480024],"type":"Point"},"properties":{"osm_id":"7108242518","tag":{"amenity":"waste_basket"}},"type":"Feature"},
	{"geometry":{"coordinates":[-2.576643,51.508201],"type":"Point"},"properties":{"osm_id":"7241057597","tag":{"amenity":"waste_basket"}},"type":"Feature"},
	{"geometry":{"coordinates":[-2.577087,51.505263],"type":"Point"},"properties":{"osm_id":"7241155803","tag":{"amenity":"waste_basket"}},"type":"Feature"},
	{"geometry":{"coordinates":[-2.573776,51.505562],"type":"Point"},"properties":{"osm_id":"7281160285","tag":{"amenity":"waste_basket"}},"type":"Feature"},
	{"geometry":{"coordinates":[-2.573875,51.506103],"type":"Point"},"properties":{"osm_id":"7281160294","tag":{"amenity":"waste_basket"}},"type":"Feature"},
	{"geometry":{"coordinates":[-2.573805,51.506756],"type":"Point"},"properties":{"osm_id":"7281160295","tag":{"amenity":"waste_basket"}},"type":"Feature"},
	{"geometry":{"coordinates":[-2.574095,51.507391],"type":"Point"},"properties":{"osm_id":"7281160301","tag":{"amenity":"waste_basket"}},"type":"Feature"},
	{"geometry":{"coordinates":[-2.573809,51.507553],"type":"Point"},"properties":{"osm_id":"7281160336","tag":{"amenity":"waste_basket"}},"type":"Feature"},
	{"geometry":{"coordinates":[-2.585407,51.501827],"type":"Point"},"properties":{"osm_id":"7293417016","tag":{"amenity":"waste_basket"}},"type":"Feature"},
	{"geometry":{"coordinates":[-2.585162,51.499875],"type":"Point"},"properties":{"osm_id":"7295191012","tag":{"amenity":"waste_basket"}},"type":"Feature"},
	{"geometry":{"coordinates":[-2.584091,51.49866],"type":"Point"},"properties":{"osm_id":"7297795187","tag":{"amenity":"recycling","recycling:clothes":"yes","recycling:shoes":"yes","recycling_type":"container"}},"type":"Feature"},
	{"geometry":{"coordinates":[-2.574874,51.507235],"type":"Point"},"properties":{"osm_id":"7304625587","tag":{"amenity":"recycling","recycling:clothes":"yes","recycling:shoes":"yes","recycling_type":"container"}},"type":"Feature"},
	{"geometry":{"coordinates":[-2.574311,51.503576],"type":"Point"},"properties":{"osm_id":"7307122744","tag":{"amenity":"waste_basket"}},"type":"Feature"},
	{"geometry":{"coordinates":[-2.576197,51.503061],"type":"Point"},"properties":{"osm_id":"7307406024","tag":{"amenity":"waste_basket"}},"type":"Feature"},
	{"geometry":{"coordinates":[-2.57936,51.498592],"type":"Point"},"properties":{"osm_id":"7310528464","tag":{"amenity":"waste_basket"}},"type":"Feature"},
	{"geometry":{"coordinates":[-2.579636,51.498749],"type":"Point"},"properties":{"osm_id":"7310528466","tag":{"amenity":"waste_basket"}},"type":"Feature"},
	{"geometry":{"coordinates":[-2.61801,51.494919],"type":"Point"},"properties":{"osm_id":"7841219687","tag":{"amenity":"waste_basket"}},"type":"Feature"}
]
}
