{
"type": "FeatureCollection",
"features": [
	{"geometry":{"coordinates":[-73.993931,40.690265],"type":"Point"},"properties":{"osm_id":"419366080","tag":{"amenity":"recycling","level":"0","operator":"Key Food","recycling":"deposit_redemption","recycling:cans":"yes","recycling:glass_bottles":"yes","recycling:plastic_bottles":"yes","recycling_type":"machine"}},"type":"Feature"},
	{"geometry":{"coordinates":[-73.983984,40.668167],"type":"Point"},"properties":{"osm_id":"1236129663","tag":{"amenity":"waste_basket"}},"type":"Feature"},
	{"geometry":{"coordinates":[-73.924748,40.704843],"type":"Point"},"properties":{"osm_id":"2568666381","tag":{"amenity":"waste_basket"}},"type":"Feature"},
	{"geometry":{"coordinates":[-73.924659,40.70494],"type":"Point"},"properties":{"osm_id":"2568669178","tag":{"amenity":"waste_basket"}},"type":"Feature"},
	{"geometry":{"coordinates":[-73.97211,40.670022],"type":"Point"},"properties":{"osm_id":"2568788725","tag":{"amenity":"waste_basket"}},"type":"Feature"},
	{"geometry":{"coordinates":[-73.971996,40.669639],"type":"Point"},"properties":{"osm_id":"2568788727","tag":{"amenity":"waste_basket"}},"type":"Feature"},
	{"geometry":{"coordinates":[-73.972381,40.669157],"type":"Point"},"properties":{"osm_id":"2568788730","tag":{"amenity":"waste_basket"}},"type":"Feature"},
	{"geometry":{"coordinates":[-73.964337,40.690143],"type":"Point"},"properties":{"osm_id":"3449902747","tag":{"amenity":"waste_basket"}},"type":"Feature"},
	{"geometry":{"coordinates":[-73.964413,40.690509],"type":"Point"},"properties":{"osm_id":"3449902748","tag":{"amenity":"waste_basket"}},"type":"Feature"},
	{"geometry":{"coordinates":[-73.96504,40.69066],"type":"Point"},"properties":{"osm_id":"3450512554","tag":{"amenity":"waste_basket"}},"type":"Feature"},
	{"geometry":{"coordinates":[-73.960364,40.710385],"type":"Point"},"properties":{"osm_id":"4939162622","tag":{"amenity":"waste_basket"}},"type":"Feature"},
	{"geometry":{"coordinates":[-73.930028,40.686393],"type":"Point"},"properties":{"osm_id":"5201921570","tag":{"amenity":"recycling"}},"type":"Feature"},
	{"geometry":{"coordinates":[-73.962254,40.693818],"type":"Point"},"properties":{"osm_id":"5206195258","tag":{"amenity":"recycling"}},"type":"Feature"},
	{"geometry":{"coordinates":[-73.991725,40.685298],"type":"Point"},"properties":{"osm_id":"6177318449","tag":{"amenity":"recycling","level":"0","recycling":"deposit_redemption","recycling:cans":"yes","recycling:glass_bottles":"yes","recycling:plastic_bottles":"yes","recycling_type":"machine"}},"type":"Feature"},
	{"geometry":{"coordinates":[-73.986981,40.660953],"type":"Point"},"properties":{"osm_id":"6302348029","tag":{"amenity":"waste_basket"}},"type":"Feature"},
	{"geometry":{"coordinates":[-73.987591,40.678472],"type":"Point"},"properties":{"name":"Reuse Store","osm_id":"6317061692","tag":{"entrance":"yes"}},"type":"Feature"},
	{"geometry":{"coordinates":[-73.987471,40.678426],"type":"Point"},"properties":{"name":"Drop Off","osm_id":"6317061693","tag":{"entrance":"yes"}},"type":"Feature"},
	{"geometry":{"coordinates":[-73.968635,40.661812],"type":"Point"},"properties":{"osm_id":"6578782520","tag":{"amenity":"waste_basket"}},"type":"Feature"},
	{"geometry":{"coordinates":[-73.967527,40.661714],"type":"Point"},"properties":{"osm_id":"6582415345","tag":{"amenity":"waste_disposal"}},"type":"Feature"},
	{"geometry":{"coordinates":[-73.968435,40.669161],"type":"Point"},"properties":{"osm_id":"6587510622","tag":{"amenity":"waste_basket"}},"type":"Feature"},
	{"geometry":{"coordinates":[-73.967218,40.668599],"type":"Point"},"properties":{"osm_id":"6587631428","tag":{"amenity":"waste_basket"}},"type":"Feature"},
	{"geometry":{"coordinates":[-73.97659,40.660851],"type":"Point"},"properties":{"osm_id":"6593780581","tag":{"amenity":"waste_basket"}},"type":"Feature"},
	{"geometry":{"coordinates":[-73.971955,40.662992],"type":"Point"},"properties":{"osm_id":"6594900792","tag":{"amenity":"waste_basket"}},"type":"Feature"},
	{"geometry":{"coordinates":[-73.973665,40.660844],"type":"Point"},"properties":{"osm_id":"6594954208","tag":{"amenity":"waste_basket"}},"type":"Feature"},
	{"geometry":{"coordinates":[-73.971956,40.662634],"type":"Point"},"properties":{"osm_id":"6594954210","tag":{"amenity":"waste_basket"}},"type":"Feature"},
	{"geometry":{"coordinates":[-73.963771,40.657518],"type":"Point"},"properties":{"osm_id":"6595166505","tag":{"amenity":"waste_disposal","layer":"2","level":"1"}},"type":"Feature"},
	{"geometry":{"coordinates":[-73.961073,40.655347],"type":"Point"},"properties":{"osm_id":"6595255510","tag":{"amenity":"recycling","recycling":"deposit_redemption","recycling:cans":"yes","recycling:glass_bottles":"yes","recycling:plastic_bottles":"yes","recycling_type":"machine"}},"type":"Feature"},
	{"geometry":{"coordinates":[-73.964502,40.660958],"type":"Point"},"properties":{"osm_id":"6680429202","tag":{"amenity":"waste_basket"}},"type":"Feature"},
	{"geometry":{"coordinates":[-73.964348,40.663807],"type":"Point"},"properties":{"osm_id":"6680470327","tag":{"amenity":"waste_basket"}},"type":"Feature"},
	{"geometry":{"coordinates":[-73.964093,40.663927],"type":"Point"},"properties":{"osm_id":"6680472971","tag":{"amenity":"waste_basket"}},"type":"Feature"},
	{"geometry":{"coordinates":[-73.963925,40.663854],"type":"Point"},"properties":{"osm_id":"6680472972","tag":{"amenity":"waste_basket"}},"type":"Feature"},
	{"geometry":{"coordinates":[-73.964022,40.663776],"type":"Point"},"properties":{"osm_id":"6680472973","tag":{"amenity":"waste_basket"}},"type":"Feature"},
	{"geometry":{"coordinates":[-73.983647,40.688914],"type":"Point"},"properties":{"osm_id":"6681823627","tag":{"amenity":"recycling","recycling_type":"container"}},"type":"Feature"},
	{"geometry":{"coordinates":[-73.983661,40.688914],"type":"Point"},"properties":{"osm_id":"6681823628","tag":{"amenity":"waste_basket"}},"type":"Feature"},
	{"geometry":{"coordinates":[-73.97365,40.682876],"type":"Point"},"properties":{"osm_id":"6909319743","tag":{"amenity":"recycling","recycling_type":"container"}},"type":"Feature"},
	{"geometry":{"coordinates":[-73.97876,40.686171],"type":"Point"},"properties":{"osm_id":"6909362032","tag":{"amenity":"recycling","recycling_type":"container"}},"type":"Feature"},
	{"geometry":{"coordinates":[-73.979282,40.686814],"type":"Point"},"properties":{"osm_id":"6909362034","tag":{"amenity":"recycling","recycling_type":"container"}},"type":"Feature"},
	{"geometry":{"coordinates":[-73.978765,40.686184],"type":"Point"},"properties":{"osm_id":"6909362035","tag":{"amenity":"waste_basket"}},"type":"Feature"},
	{"geometry":{"coordinates":[-73.979274,40.686804],"type":"Point"},"properties":{"osm_id":"6909362037","tag":{"amenity":"waste_basket"}},"type":"Feature"},
	{"geometry":{"coordinates":[-73.978626,40.685958],"type":"Point"},"properties":{"osm_id":"6909362038","tag":{"amenity":"waste_basket"}},"type":"Feature"},
	{"geometry":{"coordinates":[-73.979796,40.68678],"type":"Point"},"properties":{"osm_id":"6909362039","tag":{"amenity":"waste_basket"}},"type":"Feature"},
	{"geometry":{"coordinates":[-73.978641,40.685976],"type":"Point"},"properties":{"osm_id":"6909362040","tag":{"amenity":"recycling","recycling_type":"container"}},"type":"Feature"},
	{"geometry":{"coordinates":[-73.979584,40.686759],"type":"Point"},"properties":{"osm_id":"6909362044","tag":{"amenity":"recycling","recycling_type":"container"}},"type":"Feature"},
	{"geometry":{"coordinates":[-73.979593,40.686778],"type":"Point"},"properties":{"osm_id":"6909362045","tag":{"amenity":"waste_basket"}},"type":"Feature"},
	{"geometry":{"coordinates":[-73.979376,40.686464],"type":"Point"},"properties":{"osm_id":"6909362047","tag":{"amenity":"waste_basket"}},"type":"Feature"},
	{"geometry":{"coordinates":[-73.979384,40.686482],"type":"Point"},"properties":{"osm_id":"6909362050","tag":{"amenity":"recycling","recycling_type":"container"}},"type":"Feature"},
	{"geometry":{"coordinates":[-73.982895,40.689909],"type":"Point"},"properties":{"osm_id":"6909389503","tag":{"amenity":"recycling","recycling_type":"container"}},"type":"Feature"},
	{"geometry":{"coordinates":[-73.981692,40.689871],"type":"Point"},"properties":{"osm_id":"6909389504","tag":{"amenity":"waste_basket"}},"type":"Feature"},
	{"geometry":{"coordinates":[-73.982888,40.689923],"type":"Point"},"properties":{"osm_id":"6909389505","tag":{"amenity":"waste_basket"}},"type":"Feature"},
	{"geometry":{"coordinates":[-73.981708,40.689877],"type":"Point"},"properties":{"osm_id":"6909389506","tag":{"amenity":"recycling","recycling_type":"container"}},"type":"Feature"},
	{"geometry":{"coordinates":[-73.981729,40.690067],"type":"Point"},"properties":{"osm_id":"6909389508","tag":{"amenity":"recycling","recycling_type":"container"}},"type":"Feature"},
	{"geometry":{"coordinates":[-73.981727,40.690051],"type":"Point"},"properties":{"osm_id":"6909389510","tag":{"amenity":"waste_basket"}},"type":"Feature"},
	{"geometry":{"coordinates":[-73.949087,40.695325],"type":"Point"},"properties":{"osm_id":"6952817069","tag":{"amenity":"waste_basket"}},"type":"Feature"},
	{"geometry":{"coordinates":[-73.989743,40.663135],"type":"Point"},"properties":{"osm_id":"7073239408","tag":{"amenity":"waste_basket"}},"type":"Feature"},
	{"geometry":{"coordinates":[-73.989756,40.66307],"type":"Point"},"properties":{"osm_id":"7073239416","tag":{"amenity":"waste_basket"}},"type":"Feature"},
	{"geometry":{"coordinates":[-73.965653,40.693042],"type":"Point"},"properties":{"osm_id":"7124840466","tag":{"amenity":"recycling","level":"0","recycling":"deposit_redemption","recycling:cans":"yes","recycling:glass_bottles":"yes","recycling:plastic_bottles":"yes","recycling_type":"machine"}},"type":"Feature"},
	{"geometry":{"coordinates":[-73.98993,40.713577],"type":"Point"},"properties":{"osm_id":"7633814606","tag":{"amenity":"waste_basket"}},"type":"Feature"},
	{"geometry":{"coordinates":[-73.958543,40.676304],"type":"Point"},"properties":{"osm_id":"7658885284","tag":{"amenity":"recycling","recycling":"deposit_redemption","recycling:cans":"yes","recycling:glass_bottles":"yes","recycling:plastic_bottles":"yes","recycling_type":"machine"}},"type":"Feature"},
	{"geometry":{"coordinates":[-73.979106,40.679322],"type":"Point"},"properties":{"osm_id":"7833883703","tag":{"amenity":"recycling","location":"outdoor","operator":"Key Food","recycling":"deposit_redemption","recycling:cans":"yes","recycling:glass_bottles":"yes","recycling:plastic_bottles":"yes","recycling_type":"machine"}},"type":"Feature"}
]
}
