{
"type": "FeatureCollection",
"lastupdate": "2020-07-31T00:00:00Z",
"features": [
	{"geometry":{"coordinates":[-73.932717,-13.879004],"type":"Point"},"properties":{"osm_id":"4087153587","tag":{"amenity":"waste_basket"}},"type":"Feature"},
	{"geometry":{"coordinates":[-73.932455,-13.879083],"type":"Point"},"properties":{"osm_id":"4087155793","tag":{"amenity":"waste_basket"}},"type":"Feature"},
	{"geometry":{"coordinates":[-73.932817,-13.879274],"type":"Point"},"properties":{"osm_id":"4087155806","tag":{"amenity":"waste_basket"}},"type":"Feature"},
	{"geometry":{"coordinates":[-73.93258,-13.87934],"type":"Point"},"properties":{"osm_id":"4087155812","tag":{"amenity":"waste_basket"}},"type":"Feature"},
	{"geometry":{"coordinates":[-73.937812,-13.876929],"type":"Point"},"properties":{"osm_id":"4091561207","tag":{"amenity":"waste_basket"}},"type":"Feature"},
	{"geometry":{"coordinates":[-73.951039,-13.863586],"type":"Point"},"properties":{"name":"Centro de reciclaje Milli","osm_id":"6025592299","tag":{"amenity":"recycling","operator":"Municipalidad distrital de Hualla","recycling_type":"container"}},"type":"Feature"},
	{"geometry":{"coordinates":[-73.948593,-13.848886],"type":"Point"},"properties":{"osm_id":"7464404880","tag":{"amenity":"waste_basket"}},"type":"Feature"},
	{"geometry":{"coordinates":[-73.948503,-13.849143],"type":"Point"},"properties":{"osm_id":"7464404881","tag":{"amenity":"waste_basket"}},"type":"Feature"},
	{"geometry":{"coordinates":[-73.948416,-13.849099],"type":"Point"},"properties":{"osm_id":"7464404882","tag":{"amenity":"waste_basket"}},"type":"Feature"},
	{"geometry":{"coordinates":[-73.948717,-13.848567],"type":"Point"},"properties":{"osm_id":"7464404883","tag":{"amenity":"waste_basket"}},"type":"Feature"}
]
}
