{
"type": "FeatureCollection",
"features": [
	{"geometry":{"coordinates":[-0.467813,51.755306],"type":"Point"},"properties":{"osm_id":"26468027","tag":{"amenity":"recycling"}},"type":"Feature"},
	{"geometry":{"coordinates":[-0.449999,51.780272],"type":"Point"},"properties":{"osm_id":"26983925","tag":{"amenity":"recycling","location":"overground","recycling_type":"container"}},"type":"Feature"},
	{"geometry":{"coordinates":[-0.45159,51.773954],"type":"Point"},"properties":{"osm_id":"26984027","tag":{"amenity":"recycling"}},"type":"Feature"},
	{"geometry":{"coordinates":[-0.452354,51.774017],"type":"Point"},"properties":{"osm_id":"26984028","tag":{"amenity":"recycling"}},"type":"Feature"},
	{"geometry":{"coordinates":[-0.455556,51.774476],"type":"Point"},"properties":{"osm_id":"26984038","tag":{"amenity":"recycling"}},"type":"Feature"},
	{"geometry":{"coordinates":[-0.464842,51.774648],"type":"Point"},"properties":{"osm_id":"26984114","tag":{"amenity":"recycling"}},"type":"Feature"},
	{"geometry":{"coordinates":[-0.439872,51.778532],"type":"Point"},"properties":{"osm_id":"30860406","tag":{"amenity":"recycling"}},"type":"Feature"},
	{"geometry":{"coordinates":[-0.441549,51.777866],"type":"Point"},"properties":{"osm_id":"30860408","tag":{"amenity":"recycling"}},"type":"Feature"},
	{"geometry":{"coordinates":[-0.445986,51.769727],"type":"Point"},"properties":{"name":"Hemel Hempstead Household Waste Recycling Centre","osm_id":"30871369","tag":{"amenity":"recycling","recycling_type":"centre"}},"type":"Feature"},
	{"geometry":{"coordinates":[-0.460847,51.760196],"type":"Point"},"properties":{"osm_id":"260071771","tag":{"amenity":"recycling"}},"type":"Feature"},
	{"geometry":{"coordinates":[-0.45976,51.76038],"type":"Point"},"properties":{"osm_id":"260071774","tag":{"amenity":"recycling"}},"type":"Feature"},
	{"geometry":{"coordinates":[-0.482321,51.764209],"type":"Point"},"properties":{"osm_id":"262708100","tag":{"amenity":"recycling"}},"type":"Feature"},
	{"geometry":{"coordinates":[-0.48254,51.764664],"type":"Point"},"properties":{"osm_id":"262708101","tag":{"amenity":"recycling"}},"type":"Feature"},
	{"geometry":{"coordinates":[-0.449678,51.766104],"type":"Point"},"properties":{"osm_id":"267785969","tag":{"amenity":"recycling"}},"type":"Feature"},
	{"geometry":{"coordinates":[-0.489404,51.765448],"type":"Point"},"properties":{"osm_id":"268147099","tag":{"amenity":"recycling"}},"type":"Feature"},
	{"geometry":{"coordinates":[-0.500591,51.749524],"type":"Point"},"properties":{"osm_id":"270615080","tag":{"amenity":"recycling"}},"type":"Feature"},
	{"geometry":{"coordinates":[-0.471236,51.754298],"type":"Point"},"properties":{"osm_id":"1658171264","tag":{"amenity":"recycling"}},"type":"Feature"},
	{"geometry":{"coordinates":[-0.465809,51.735013],"type":"Point"},"properties":{"name":"Sainsbury Recycling","osm_id":"1778162434","tag":{"amenity":"recycling"}},"type":"Feature"},
	{"geometry":{"coordinates":[-0.480489,51.74424],"type":"Point"},"properties":{"osm_id":"5372329548","tag":{"amenity":"waste_basket","waste":"dog_excrement"}},"type":"Feature"},
	{"geometry":{"coordinates":[-0.485473,51.745286],"type":"Point"},"properties":{"osm_id":"5372329721","tag":{"amenity":"waste_basket","waste":"dog_excrement"}},"type":"Feature"},
	{"geometry":{"coordinates":[-0.481353,51.745603],"type":"Point"},"properties":{"osm_id":"5372330673","tag":{"amenity":"waste_basket","waste":"dog_excrement"}},"type":"Feature"},
	{"geometry":{"coordinates":[-0.484367,51.745595],"type":"Point"},"properties":{"osm_id":"5466569021","tag":{"amenity":"waste_basket","waste":"dog_excrement"}},"type":"Feature"},
	{"geometry":{"coordinates":[-0.474314,51.751855],"type":"Point"},"properties":{"osm_id":"5866463357","tag":{"amenity":"waste_basket","waste":"trash"}},"type":"Feature"},
	{"geometry":{"coordinates":[-0.474368,51.752371],"type":"Point"},"properties":{"osm_id":"5866463358","tag":{"amenity":"waste_basket","waste":"trash"}},"type":"Feature"},
	{"geometry":{"coordinates":[-0.474343,51.752636],"type":"Point"},"properties":{"osm_id":"5866463359","tag":{"amenity":"waste_basket","waste":"trash"}},"type":"Feature"},
	{"geometry":{"coordinates":[-0.473299,51.75843],"type":"Point"},"properties":{"osm_id":"5866464468","tag":{"amenity":"waste_basket","waste":"trash"}},"type":"Feature"},
	{"geometry":{"coordinates":[-0.472931,51.758479],"type":"Point"},"properties":{"osm_id":"5866464471","tag":{"amenity":"waste_basket","waste":"trash"}},"type":"Feature"},
	{"geometry":{"coordinates":[-0.473067,51.758521],"type":"Point"},"properties":{"osm_id":"5866464474","tag":{"amenity":"waste_basket","waste":"trash"}},"type":"Feature"},
	{"geometry":{"coordinates":[-0.474785,51.758091],"type":"Point"},"properties":{"osm_id":"5866464580","tag":{"amenity":"waste_basket","waste":"trash"}},"type":"Feature"},
	{"geometry":{"coordinates":[-0.471996,51.759072],"type":"Point"},"properties":{"osm_id":"5866464684","tag":{"amenity":"waste_basket","waste":"trash"}},"type":"Feature"},
	{"geometry":{"coordinates":[-0.472713,51.759323],"type":"Point"},"properties":{"osm_id":"5866464738","tag":{"amenity":"waste_basket","waste":"trash"}},"type":"Feature"},
	{"geometry":{"coordinates":[-0.472774,51.758842],"type":"Point"},"properties":{"osm_id":"5866464767","tag":{"amenity":"waste_basket","waste":"trash"}},"type":"Feature"},
	{"geometry":{"coordinates":[-0.472279,51.759278],"type":"Point"},"properties":{"osm_id":"5866464795","tag":{"amenity":"waste_basket","waste":"trash"}},"type":"Feature"},
	{"geometry":{"coordinates":[-0.46821,51.758426],"type":"Point"},"properties":{"osm_id":"5866464852","tag":{"amenity":"waste_basket","waste":"trash"}},"type":"Feature"},
	{"geometry":{"coordinates":[-0.471577,51.757723],"type":"Point"},"properties":{"osm_id":"5866464922","tag":{"amenity":"waste_basket","waste":"trash"}},"type":"Feature"},
	{"geometry":{"coordinates":[-0.474442,51.748436],"type":"Point"},"properties":{"osm_id":"5866465171","tag":{"amenity":"waste_basket","waste":"trash"}},"type":"Feature"},
	{"geometry":{"coordinates":[-0.474306,51.748725],"type":"Point"},"properties":{"osm_id":"5866465174","tag":{"amenity":"waste_basket","waste":"trash"}},"type":"Feature"},
	{"geometry":{"coordinates":[-0.474391,51.749054],"type":"Point"},"properties":{"osm_id":"5866465184","tag":{"amenity":"waste_basket","waste":"trash"}},"type":"Feature"},
	{"geometry":{"coordinates":[-0.474314,51.749723],"type":"Point"},"properties":{"osm_id":"5866465224","tag":{"amenity":"waste_basket","waste":"trash"}},"type":"Feature"},
	{"geometry":{"coordinates":[-0.474314,51.749246],"type":"Point"},"properties":{"osm_id":"5866465225","tag":{"amenity":"waste_basket","waste":"trash"}},"type":"Feature"},
	{"geometry":{"coordinates":[-0.474492,51.749579],"type":"Point"},"properties":{"osm_id":"5866465227","tag":{"amenity":"waste_basket","waste":"trash"}},"type":"Feature"},
	{"geometry":{"coordinates":[-0.474379,51.749462],"type":"Point"},"properties":{"osm_id":"5866465230","tag":{"amenity":"waste_basket","waste":"trash"}},"type":"Feature"},
	{"geometry":{"coordinates":[-0.474635,51.749462],"type":"Point"},"properties":{"osm_id":"5866465235","tag":{"amenity":"waste_basket","waste":"trash"}},"type":"Feature"},
	{"geometry":{"coordinates":[-0.474739,51.749579],"type":"Point"},"properties":{"osm_id":"5866465238","tag":{"amenity":"waste_basket","waste":"trash"}},"type":"Feature"},
	{"geometry":{"coordinates":[-0.473895,51.750906],"type":"Point"},"properties":{"osm_id":"5866465335","tag":{"amenity":"waste_basket","waste":"trash"}},"type":"Feature"},
	{"geometry":{"coordinates":[-0.474802,51.750922],"type":"Point"},"properties":{"osm_id":"5866465361","tag":{"amenity":"recycling","recycling:cans":"yes","recycling:clothes":"yes","recycling:plastic_bottles":"yes","recycling_type":"centre"}},"type":"Feature"},
	{"geometry":{"coordinates":[-0.47421,51.753281],"type":"Point"},"properties":{"osm_id":"5866465451","tag":{"amenity":"waste_basket","waste":"trash"}},"type":"Feature"},
	{"geometry":{"coordinates":[-0.474112,51.753224],"type":"Point"},"properties":{"osm_id":"5866465453","tag":{"amenity":"waste_basket","waste":"trash"}},"type":"Feature"},
	{"geometry":{"coordinates":[-0.474665,51.753334],"type":"Point"},"properties":{"osm_id":"5866465454","tag":{"amenity":"waste_basket","waste":"trash"}},"type":"Feature"},
	{"geometry":{"coordinates":[-0.474693,51.753478],"type":"Point"},"properties":{"osm_id":"5866465472","tag":{"amenity":"waste_basket","waste":"trash"}},"type":"Feature"},
	{"geometry":{"coordinates":[-0.473576,51.747388],"type":"Point"},"properties":{"osm_id":"5866465706","tag":{"amenity":"waste_basket","waste":"trash"}},"type":"Feature"},
	{"geometry":{"coordinates":[-0.473727,51.745243],"type":"Point"},"properties":{"osm_id":"5866465813","tag":{"amenity":"waste_basket","waste":"trash"}},"type":"Feature"},
	{"geometry":{"coordinates":[-0.473842,51.744111],"type":"Point"},"properties":{"osm_id":"5866465818","tag":{"amenity":"waste_basket","waste":"trash"}},"type":"Feature"},
	{"geometry":{"coordinates":[-0.474095,51.744601],"type":"Point"},"properties":{"osm_id":"5866465823","tag":{"amenity":"waste_basket","waste":"trash"}},"type":"Feature"},
	{"geometry":{"coordinates":[-0.474901,51.744678],"type":"Point"},"properties":{"osm_id":"5866465831","tag":{"amenity":"waste_basket","waste":"trash"}},"type":"Feature"},
	{"geometry":{"coordinates":[-0.477339,51.744402],"type":"Point"},"properties":{"osm_id":"5866465906","tag":{"amenity":"waste_basket","waste":"trash"}},"type":"Feature"},
	{"geometry":{"coordinates":[-0.479623,51.74448],"type":"Point"},"properties":{"osm_id":"5866465924","tag":{"amenity":"waste_basket","waste":"trash"}},"type":"Feature"},
	{"geometry":{"coordinates":[-0.482111,51.743951],"type":"Point"},"properties":{"osm_id":"5866465929","tag":{"amenity":"waste_basket","waste":"dog_excrement"}},"type":"Feature"},
	{"geometry":{"coordinates":[-0.491471,51.743708],"type":"Point"},"properties":{"osm_id":"5866465962","tag":{"amenity":"waste_basket","waste":"trash"}},"type":"Feature"},
	{"geometry":{"coordinates":[-0.495464,51.746756],"type":"Point"},"properties":{"osm_id":"5866465977","tag":{"amenity":"waste_basket","waste":"rubbish bin"}},"type":"Feature"},
	{"geometry":{"coordinates":[-0.491735,51.741335],"type":"Point"},"properties":{"osm_id":"5866466076","tag":{"amenity":"waste_basket","waste":"trash"}},"type":"Feature"},
	{"geometry":{"coordinates":[-0.472953,51.760853],"type":"Point"},"properties":{"osm_id":"5891232035","tag":{"amenity":"waste_basket","waste":"trash"}},"type":"Feature"},
	{"geometry":{"coordinates":[-0.472038,51.757881],"type":"Point"},"properties":{"osm_id":"5891232039","tag":{"amenity":"waste_basket","waste":"trash"}},"type":"Feature"},
	{"geometry":{"coordinates":[-0.47199,51.758121],"type":"Point"},"properties":{"osm_id":"5891232040","tag":{"amenity":"waste_basket","waste":"trash"}},"type":"Feature"},
	{"geometry":{"coordinates":[-0.500634,51.749487],"type":"Point"},"properties":{"osm_id":"6025360049","tag":{"amenity":"recycling"}},"type":"Feature"},
	{"geometry":{"coordinates":[-0.447795,51.764731],"type":"Point"},"properties":{"osm_id":"6429278854","tag":{"amenity":"waste_basket"}},"type":"Feature"},
	{"geometry":{"coordinates":[-0.463805,51.73667],"type":"Point"},"properties":{"name":"Apsley Services Rubbish Disposal","osm_id":"7415825985","tag":{"access":"permissive","amenity":"waste_disposal","centralkey":"no","operator":"Canal and River Trust","waste":"trash","waterway":"waste_disposal"}},"type":"Feature"},
	{"geometry":{"coordinates":[-0.491258,51.744303],"type":"Point"},"properties":{"name":"Fishery Lock Rubbish Disposal","osm_id":"7415825986","tag":{"access":"permissive","amenity":"waste_disposal","centralkey":"no","operator":"Canal and River Trust","waste":"trash","waterway":"waste_disposal"}},"type":"Feature"},
	{"geometry":{"coordinates":[-0.456639,51.748819],"type":"Point"},"properties":{"osm_id":"7879624440","tag":{"amenity":"recycling","recycling_type":"container"}},"type":"Feature"},
	{"geometry":{"coordinates":[-0.45661,51.74883],"type":"Point"},"properties":{"osm_id":"7879624441","tag":{"amenity":"recycling","recycling_type":"container"}},"type":"Feature"},
	{"geometry":{"coordinates":[-0.456667,51.748804],"type":"Point"},"properties":{"osm_id":"7879624442","tag":{"amenity":"recycling","recycling_type":"container"}},"type":"Feature"},
	{"geometry":{"coordinates":[-0.456693,51.748792],"type":"Point"},"properties":{"osm_id":"7879624443","tag":{"amenity":"recycling","recycling_type":"container"}},"type":"Feature"},
	{"geometry":{"coordinates":[-0.456718,51.74878],"type":"Point"},"properties":{"osm_id":"7879624444","tag":{"amenity":"recycling","recycling_type":"container"}},"type":"Feature"}
]
}
