{
"type": "FeatureCollection",
"features": [
	{"geometry":{"coordinates":[-0.491502,51.518911],"type":"Point"},"properties":{"osm_id":"544328413","tag":{"amenity":"waste_basket"}},"type":"Feature"},
	{"geometry":{"coordinates":[-0.490298,51.520634],"type":"Point"},"properties":{"osm_id":"544328436","tag":{"amenity":"waste_basket"}},"type":"Feature"},
	{"geometry":{"coordinates":[-0.48587,51.54445],"type":"Point"},"properties":{"osm_id":"766150774","tag":{"amenity":"waste_basket"}},"type":"Feature"},
	{"geometry":{"coordinates":[-0.518192,51.536819],"type":"Point"},"properties":{"osm_id":"766150781","tag":{"amenity":"waste_basket"}},"type":"Feature"},
	{"geometry":{"coordinates":[-0.485043,51.543083],"type":"Point"},"properties":{"osm_id":"849527727","tag":{"amenity":"waste_basket"}},"type":"Feature"},
	{"geometry":{"coordinates":[-0.460991,51.51815],"type":"Point"},"properties":{"osm_id":"1100580790","tag":{"amenity":"waste_basket"}},"type":"Feature"},
	{"geometry":{"coordinates":[-0.460868,51.51818],"type":"Point"},"properties":{"osm_id":"1100580792","tag":{"amenity":"recycling"}},"type":"Feature"},
	{"geometry":{"coordinates":[-0.485783,51.530114],"type":"Point"},"properties":{"name":"Cowley Lock Rubbish Disposal","osm_id":"2510494531","tag":{"access":"customers","amenity":"waste_disposal","centralkey":"crt_watermate","operator":"Canal and River Trust","waste":"trash","waterway":"waste_disposal"}},"type":"Feature"},
	{"geometry":{"coordinates":[-0.44014,51.560474],"type":"Point"},"properties":{"osm_id":"4325029770","tag":{"amenity":"waste_basket"}},"type":"Feature"},
	{"geometry":{"coordinates":[-0.451223,51.562795],"type":"Point"},"properties":{"osm_id":"6515948606","tag":{"amenity":"waste_basket","waste":"dog_excrement"}},"type":"Feature"}
]
}
