{
"type": "FeatureCollection",
"features": [
	{"geometry":{"coordinates":[-0.467496,49.101615],"type":"Point"},"properties":{"osm_id":"628899626","tag":{"amenity":"recycling","recycling:cans":"yes","recycling:glass_bottles":"yes","recycling:paper":"yes","recycling_type":"container"}},"type":"Feature"},
	{"geometry":{"coordinates":[-0.441073,49.110572],"type":"Point"},"properties":{"osm_id":"4926320389","tag":{"amenity":"recycling","recycling:glass_bottles":"yes","recycling_type":"container"}},"type":"Feature"},
	{"geometry":{"coordinates":[-0.476022,49.135251],"type":"Point"},"properties":{"osm_id":"6534374446","tag":{"amenity":"waste_basket"}},"type":"Feature"},
	{"geometry":{"coordinates":[-0.45764,49.14183],"type":"Point"},"properties":{"osm_id":"6534415474","tag":{"amenity":"recycling","recycling:glass":"yes","recycling_type":"container"}},"type":"Feature"},
	{"geometry":{"coordinates":[-0.48039,49.133071],"type":"Point"},"properties":{"osm_id":"8262228615","tag":{"amenity":"recycling","recycling:glass":"yes","recycling_type":"container"}},"type":"Feature"},
	{"geometry":{"coordinates":[-0.510025,49.096718],"type":"Point"},"properties":{"osm_id":"8331064033","tag":{"amenity":"waste_basket","operator":"Ville d'\u00c3\u0089vrecy","waste":"trash"}},"type":"Feature"},
	{"geometry":{"coordinates":[-0.504088,49.100819],"type":"Point"},"properties":{"osm_id":"8333878622","tag":{"amenity":"waste_basket","colour":"black","material":"steel","operator":"Ville d'\u00c3\u0089vrecy","waste":"cigarettes"}},"type":"Feature"},
	{"geometry":{"coordinates":[-0.507134,49.100122],"type":"Point"},"properties":{"osm_id":"8334268376","tag":{"amenity":"waste_basket","material":"wood","operator":"Ville d'\u00c3\u0089vrecy","waste":"trash"}},"type":"Feature"},
	{"geometry":{"coordinates":[-0.506947,49.100208],"type":"Point"},"properties":{"osm_id":"8334268377","tag":{"amenity":"waste_basket","material":"wood","operator":"Ville d'\u00c3\u0089vrecy","waste":"trash"}},"type":"Feature"},
	{"geometry":{"coordinates":[-0.506762,49.099473],"type":"Point"},"properties":{"osm_id":"8334418865","tag":{"amenity":"waste_basket","colour":"grey","material":"steel","operator":"Communaut\u00c3\u00a9 de communes Vall\u00c3\u00a9es de l'Orne et de l'Odon","waste":"trash"}},"type":"Feature"},
	{"geometry":{"coordinates":[-0.502379,49.098524],"type":"Point"},"properties":{"osm_id":"8541566927","tag":{"amenity":"recycling","opening_hours":"24/7","operator":"BACER","recycling:clothes":"yes","recycling_type":"container"}},"type":"Feature"},
	{"geometry":{"coordinates":[-0.502413,49.09851],"type":"Point"},"properties":{"osm_id":"8541566928","tag":{"amenity":"recycling","opening_hours":"24/7","recycling:glass_bottles":"yes","recycling_type":"container"}},"type":"Feature"},
	{"geometry":{"coordinates":[-0.502631,49.098743],"type":"Point"},"properties":{"osm_id":"8541566930","tag":{"amenity":"waste_basket","colour":"red","material":"wood","operator":"Ville d'\u00c3\u0089vrecy","waste":"trash"}},"type":"Feature"},
	{"geometry":{"coordinates":[-0.494716,49.106105],"type":"Point"},"properties":{"osm_id":"8542448653","tag":{"amenity":"recycling","opening_hours":"24/7","operator":"BACER","recycling:clothes":"yes","recycling_type":"container"}},"type":"Feature"},
	{"geometry":{"coordinates":[-0.494701,49.106098],"type":"Point"},"properties":{"osm_id":"8542448654","tag":{"amenity":"recycling","opening_hours":"24/7","operator":"BACER","recycling:clothes":"yes","recycling_type":"container"}},"type":"Feature"},
	{"geometry":{"coordinates":[-0.496956,49.102588],"type":"Point"},"properties":{"osm_id":"8542453529","tag":{"amenity":"waste_basket","colour":"brown","material":"wood","operator":"Ville d'\u00c3\u0089vrecy","waste":"trash"}},"type":"Feature"}
]
}
