{
"type": "FeatureCollection",
"features": [
	{"geometry":{"coordinates":[-0.474107,48.982262],"type":"Point"},"properties":{"osm_id":"6163545883","tag":{"amenity":"recycling","recycling_type":"container"}},"type":"Feature"},
	{"geometry":{"coordinates":[-0.486237,48.994636],"type":"Point"},"properties":{"osm_id":"6435763809","tag":{"amenity":"waste_basket","tourism":"picnic_site"}},"type":"Feature"},
	{"geometry":{"coordinates":[-0.448047,49.031263],"type":"Point"},"properties":{"osm_id":"6768776149","tag":{"amenity":"recycling","recycling:paper":"yes","recycling_type":"container"}},"type":"Feature"},
	{"geometry":{"coordinates":[-0.448047,49.031183],"type":"Point"},"properties":{"osm_id":"6768794092","tag":{"amenity":"recycling","recycling:glass":"yes","recycling_type":"container"}},"type":"Feature"},
	{"geometry":{"coordinates":[-0.491682,49.023049],"type":"Point"},"properties":{"osm_id":"6779051051","tag":{"amenity":"recycling","recycling:glass":"yes","recycling_type":"container"}},"type":"Feature"},
	{"geometry":{"coordinates":[-0.491647,49.023058],"type":"Point"},"properties":{"osm_id":"6779051052","tag":{"amenity":"recycling","recycling:paper":"yes","recycling_type":"container"}},"type":"Feature"}
]
}
