{
"type": "FeatureCollection",
"features": [
	{"geometry":{"coordinates":[-0.441036,46.988535],"type":"Point"},"properties":{"osm_id":"3545306219","tag":{"amenity":"recycling"}},"type":"Feature"},
	{"geometry":{"coordinates":[-0.44325,46.988177],"type":"Point"},"properties":{"osm_id":"3545306224","tag":{"amenity":"waste_basket"}},"type":"Feature"},
	{"geometry":{"coordinates":[-0.44645,46.987997],"type":"Point"},"properties":{"osm_id":"3545306226","tag":{"amenity":"waste_basket"}},"type":"Feature"},
	{"geometry":{"coordinates":[-0.448067,46.984559],"type":"Point"},"properties":{"osm_id":"4212165348","tag":{"amenity":"waste_basket"}},"type":"Feature"},
	{"geometry":{"coordinates":[-0.446305,46.984282],"type":"Point"},"properties":{"osm_id":"4212341232","tag":{"amenity":"waste_basket"}},"type":"Feature"},
	{"geometry":{"coordinates":[-0.445139,46.985367],"type":"Point"},"properties":{"osm_id":"4212495732","tag":{"amenity":"waste_basket"}},"type":"Feature"},
	{"geometry":{"coordinates":[-0.44525,46.985329],"type":"Point"},"properties":{"osm_id":"6169560175","tag":{"amenity":"recycling","recycling:cartons":"yes","recycling:glass_bottles":"yes","recycling:paper":"yes","recycling:plastic_bottles":"yes","recycling:waste":"yes","recycling_type":"container"}},"type":"Feature"},
	{"geometry":{"coordinates":[-0.449917,46.985289],"type":"Point"},"properties":{"osm_id":"6178952463","tag":{"amenity":"waste_basket","waste":"trash"}},"type":"Feature"},
	{"geometry":{"coordinates":[-0.451943,46.987865],"type":"Point"},"properties":{"osm_id":"7814993721","tag":{"amenity":"recycling","recycling_type":"container"}},"type":"Feature"},
	{"geometry":{"coordinates":[-0.454181,46.985036],"type":"Point"},"properties":{"osm_id":"7820066650","tag":{"amenity":"waste_disposal"}},"type":"Feature"},
	{"geometry":{"coordinates":[-0.454238,46.985031],"type":"Point"},"properties":{"osm_id":"7820066651","tag":{"amenity":"recycling","recycling:paper":"yes","recycling_type":"container"}},"type":"Feature"},
	{"geometry":{"coordinates":[-0.454205,46.985035],"type":"Point"},"properties":{"osm_id":"7820066652","tag":{"amenity":"recycling","recycling:glass_bottles":"yes","recycling_type":"container"}},"type":"Feature"}
]
}
