{
"type": "FeatureCollection",
"features": [
	{"geometry":{"coordinates":[-0.460741,46.850625],"type":"Point"},"properties":{"osm_id":"1751242869","tag":{"addr:housenumber":"21","addr:street":"Rue Lavoisier"}},"type":"Feature"},
	{"geometry":{"coordinates":[-0.499497,46.840672],"type":"Point"},"properties":{"osm_id":"1851342599","tag":{"amenity":"recycling","recycling:glass":"yes","recycling_type":"container"}},"type":"Feature"},
	{"geometry":{"coordinates":[-0.50939,46.842606],"type":"Point"},"properties":{"name":"Point Propre","osm_id":"1851342602","tag":{"amenity":"recycling","recycling:glass":"yes","recycling:paper":"yes","recycling:plastic_bottles":"yes","recycling_type":"container"}},"type":"Feature"},
	{"geometry":{"coordinates":[-0.490079,46.841869],"type":"Point"},"properties":{"osm_id":"1873106189","tag":{"amenity":"recycling","recycling:glass":"yes"}},"type":"Feature"},
	{"geometry":{"coordinates":[-0.490775,46.841916],"type":"Point"},"properties":{"name":"Croix Rouge Fran\u00c3\u00a7aise","osm_id":"1873106191","tag":{"amenity":"recycling","recycling:clothes":"yes","recycling_type":"container"}},"type":"Feature"},
	{"geometry":{"coordinates":[-0.490765,46.842108],"type":"Point"},"properties":{"osm_id":"1873106203","tag":{"amenity":"waste_basket"}},"type":"Feature"},
	{"geometry":{"coordinates":[-0.493248,46.842104],"type":"Point"},"properties":{"osm_id":"1917603716","tag":{"amenity":"waste_basket","payment:none":"yes","vending":"excrement_bags"}},"type":"Feature"},
	{"geometry":{"coordinates":[-0.493333,46.839407],"type":"Point"},"properties":{"osm_id":"1937328748","tag":{"amenity":"waste_basket","payment:none":"yes","vending":"excrement_bags"}},"type":"Feature"},
	{"geometry":{"coordinates":[-0.495119,46.83817],"type":"Point"},"properties":{"osm_id":"1987476231","tag":{"amenity":"waste_basket","payment:none":"yes","vending":"excrement_bags"}},"type":"Feature"},
	{"geometry":{"coordinates":[-0.495145,46.838201],"type":"Point"},"properties":{"osm_id":"1987476236","tag":{"amenity":"waste_basket"}},"type":"Feature"},
	{"geometry":{"coordinates":[-0.495133,46.838374],"type":"Point"},"properties":{"osm_id":"1987476237","tag":{"amenity":"waste_basket"}},"type":"Feature"},
	{"geometry":{"coordinates":[-0.495684,46.838435],"type":"Point"},"properties":{"osm_id":"1987476239","tag":{"amenity":"waste_basket"}},"type":"Feature"},
	{"geometry":{"coordinates":[-0.490426,46.837965],"type":"Point"},"properties":{"osm_id":"2091349570","tag":{"amenity":"waste_basket"}},"type":"Feature"},
	{"geometry":{"coordinates":[-0.490506,46.83801],"type":"Point"},"properties":{"osm_id":"2091349572","tag":{"amenity":"waste_basket"}},"type":"Feature"},
	{"geometry":{"coordinates":[-0.492561,46.839075],"type":"Point"},"properties":{"osm_id":"2168751457","tag":{"amenity":"waste_basket"}},"type":"Feature"},
	{"geometry":{"coordinates":[-0.492582,46.839088],"type":"Point"},"properties":{"osm_id":"2168751460","tag":{"amenity":"recycling","recycling:paper":"yes"}},"type":"Feature"},
	{"geometry":{"coordinates":[-0.49462,46.837728],"type":"Point"},"properties":{"osm_id":"2352523043","tag":{"amenity":"recycling","recycling:glass":"yes","recycling:paper":"yes"}},"type":"Feature"},
	{"geometry":{"coordinates":[-0.494335,46.83883],"type":"Point"},"properties":{"osm_id":"2357677268","tag":{"amenity":"waste_basket"}},"type":"Feature"},
	{"geometry":{"coordinates":[-0.494322,46.838835],"type":"Point"},"properties":{"osm_id":"2357677271","tag":{"amenity":"recycling","recycling:glass":"yes","recycling_type":"container"}},"type":"Feature"},
	{"geometry":{"coordinates":[-0.493839,46.839084],"type":"Point"},"properties":{"osm_id":"2357677274","tag":{"amenity":"waste_basket"}},"type":"Feature"},
	{"geometry":{"coordinates":[-0.45224,46.854955],"type":"Point"},"properties":{"osm_id":"2412424385","tag":{"amenity":"waste_basket"}},"type":"Feature"},
	{"geometry":{"coordinates":[-0.490261,46.839654],"type":"Point"},"properties":{"osm_id":"2413695184","tag":{"amenity":"recycling","recycling:glass":"yes","recycling_type":"container"}},"type":"Feature"},
	{"geometry":{"coordinates":[-0.490258,46.839667],"type":"Point"},"properties":{"osm_id":"2413695185","tag":{"amenity":"waste_basket"}},"type":"Feature"},
	{"geometry":{"coordinates":[-0.49053,46.84014],"type":"Point"},"properties":{"osm_id":"2413695187","tag":{"amenity":"waste_basket"}},"type":"Feature"},
	{"geometry":{"coordinates":[-0.498111,46.842042],"type":"Point"},"properties":{"osm_id":"2413695210","tag":{"amenity":"waste_basket"}},"type":"Feature"},
	{"geometry":{"coordinates":[-0.497479,46.844614],"type":"Point"},"properties":{"osm_id":"2457120638","tag":{"amenity":"waste_basket"}},"type":"Feature"},
	{"geometry":{"coordinates":[-0.497463,46.844642],"type":"Point"},"properties":{"osm_id":"2457120641","tag":{"amenity":"recycling","recycling:glass":"yes","recycling:paper":"yes","recycling:plastic_bottles":"yes","recycling_type":"container"}},"type":"Feature"},
	{"geometry":{"coordinates":[-0.497107,46.845072],"type":"Point"},"properties":{"osm_id":"2457120646","tag":{"amenity":"waste_basket"}},"type":"Feature"},
	{"geometry":{"coordinates":[-0.490459,46.840437],"type":"Point"},"properties":{"osm_id":"2485143548","tag":{"amenity":"waste_basket"}},"type":"Feature"},
	{"geometry":{"coordinates":[-0.490425,46.840474],"type":"Point"},"properties":{"osm_id":"2485143549","tag":{"amenity":"waste_basket","payment:none":"yes","vending":"excrement_bags"}},"type":"Feature"},
	{"geometry":{"coordinates":[-0.490567,46.840547],"type":"Point"},"properties":{"osm_id":"2485143550","tag":{"amenity":"waste_basket"}},"type":"Feature"},
	{"geometry":{"coordinates":[-0.490371,46.840903],"type":"Point"},"properties":{"osm_id":"2485143554","tag":{"amenity":"waste_basket","payment:none":"yes","vending":"excrement_bags"}},"type":"Feature"},
	{"geometry":{"coordinates":[-0.506001,46.803277],"type":"Point"},"properties":{"osm_id":"2709614353","tag":{"amenity":"recycling","recycling:cans":"no","recycling:clothes":"yes","recycling:glass":"yes","recycling:paper":"yes","recycling_type":"container"}},"type":"Feature"},
	{"geometry":{"coordinates":[-0.508947,46.805155],"type":"Point"},"properties":{"osm_id":"2709614394","tag":{"amenity":"waste_basket"}},"type":"Feature"},
	{"geometry":{"coordinates":[-0.460455,46.850819],"type":"Point"},"properties":{"name":"Point Propre","osm_id":"3020541109","tag":{"amenity":"recycling","recycling:glass":"yes","recycling:paper":"yes","recycling:plastic_bottles":"yes","recycling_type":"container"}},"type":"Feature"},
	{"geometry":{"coordinates":[-0.490413,46.843985],"type":"Point"},"properties":{"osm_id":"3282659463","tag":{"amenity":"waste_basket"}},"type":"Feature"},
	{"geometry":{"coordinates":[-0.491611,46.844413],"type":"Point"},"properties":{"osm_id":"3282659466","tag":{"amenity":"recycling","recycling:paper":"yes"}},"type":"Feature"},
	{"geometry":{"coordinates":[-0.491599,46.844426],"type":"Point"},"properties":{"osm_id":"3282659467","tag":{"amenity":"recycling","recycling:glass":"yes"}},"type":"Feature"},
	{"geometry":{"coordinates":[-0.491585,46.844439],"type":"Point"},"properties":{"osm_id":"3282659468","tag":{"amenity":"waste_disposal"}},"type":"Feature"},
	{"geometry":{"coordinates":[-0.491566,46.844457],"type":"Point"},"properties":{"osm_id":"3282659469","tag":{"amenity":"waste_basket","waste":"excrement"}},"type":"Feature"},
	{"geometry":{"coordinates":[-0.492414,46.833842],"type":"Point"},"properties":{"osm_id":"3578177354","tag":{"amenity":"waste_basket"}},"type":"Feature"},
	{"geometry":{"coordinates":[-0.492229,46.83443],"type":"Point"},"properties":{"osm_id":"3578177361","tag":{"amenity":"waste_basket"}},"type":"Feature"},
	{"geometry":{"coordinates":[-0.491919,46.835132],"type":"Point"},"properties":{"osm_id":"3578177375","tag":{"amenity":"waste_basket"}},"type":"Feature"},
	{"geometry":{"coordinates":[-0.491514,46.833617],"type":"Point"},"properties":{"osm_id":"3578321932","tag":{"amenity":"waste_basket"}},"type":"Feature"},
	{"geometry":{"coordinates":[-0.49197,46.835125],"type":"Point"},"properties":{"osm_id":"4596526601","tag":{"amenity":"waste_basket"}},"type":"Feature"},
	{"geometry":{"coordinates":[-0.491942,46.835383],"type":"Point"},"properties":{"osm_id":"4596534989","tag":{"amenity":"waste_basket"}},"type":"Feature"},
	{"geometry":{"coordinates":[-0.502361,46.833514],"type":"Point"},"properties":{"osm_id":"4637972938","tag":{"amenity":"waste_basket"}},"type":"Feature"},
	{"geometry":{"coordinates":[-0.503189,46.835017],"type":"Point"},"properties":{"osm_id":"4637972946","tag":{"amenity":"waste_basket"}},"type":"Feature"},
	{"geometry":{"coordinates":[-0.491739,46.834767],"type":"Point"},"properties":{"osm_id":"5443518021","tag":{"amenity":"waste_basket"}},"type":"Feature"},
	{"geometry":{"coordinates":[-0.495706,46.83809],"type":"Point"},"properties":{"osm_id":"6173822547","tag":{"amenity":"waste_basket","waste":"trash"}},"type":"Feature"},
	{"geometry":{"coordinates":[-0.485778,46.841509],"type":"Point"},"properties":{"osm_id":"6173822551","tag":{"amenity":"waste_basket","waste":"trash"}},"type":"Feature"},
	{"geometry":{"coordinates":[-0.485574,46.841402],"type":"Point"},"properties":{"osm_id":"6173822552","tag":{"amenity":"waste_basket","waste":"trash"}},"type":"Feature"},
	{"geometry":{"coordinates":[-0.493307,46.842963],"type":"Point"},"properties":{"osm_id":"6917443410","tag":{"amenity":"recycling","recycling:glass":"yes","recycling:plastic_bottles":"yes","recycling_type":"container"}},"type":"Feature"},
	{"geometry":{"coordinates":[-0.491381,46.842681],"type":"Point"},"properties":{"osm_id":"6917443416","tag":{"amenity":"waste_basket","waste":"trash"}},"type":"Feature"}
]
}
