{
"type": "FeatureCollection",
"features": [
	{"geometry":{"coordinates":[-0.519211,46.328226],"type":"Point"},"properties":{"osm_id":"842292291","tag":{"amenity":"waste_basket"}},"type":"Feature"},
	{"geometry":{"coordinates":[-0.508484,46.333226],"type":"Point"},"properties":{"osm_id":"842292294","tag":{"amenity":"recycling","recycling:glass":"yes"}},"type":"Feature"},
	{"geometry":{"coordinates":[-0.508808,46.333071],"type":"Point"},"properties":{"osm_id":"842292320","tag":{"amenity":"recycling","recycling:glass":"yes"}},"type":"Feature"},
	{"geometry":{"coordinates":[-0.512777,46.325012],"type":"Point"},"properties":{"osm_id":"842292331","tag":{"amenity":"waste_basket"}},"type":"Feature"},
	{"geometry":{"coordinates":[-0.508868,46.332056],"type":"Point"},"properties":{"osm_id":"842292348","tag":{"amenity":"waste_basket"}},"type":"Feature"},
	{"geometry":{"coordinates":[-0.508473,46.333231],"type":"Point"},"properties":{"osm_id":"842292350","tag":{"amenity":"waste_basket"}},"type":"Feature"},
	{"geometry":{"coordinates":[-0.512603,46.325944],"type":"Point"},"properties":{"osm_id":"842292362","tag":{"amenity":"waste_basket"}},"type":"Feature"},
	{"geometry":{"coordinates":[-0.509421,46.333562],"type":"Point"},"properties":{"osm_id":"842292385","tag":{"amenity":"recycling","recycling:glass":"yes"}},"type":"Feature"},
	{"geometry":{"coordinates":[-0.519592,46.328247],"type":"Point"},"properties":{"osm_id":"842292389","tag":{"amenity":"waste_basket"}},"type":"Feature"},
	{"geometry":{"coordinates":[-0.512497,46.325187],"type":"Point"},"properties":{"osm_id":"842292393","tag":{"amenity":"waste_basket"}},"type":"Feature"},
	{"geometry":{"coordinates":[-0.512554,46.325379],"type":"Point"},"properties":{"osm_id":"842292398","tag":{"amenity":"waste_basket"}},"type":"Feature"},
	{"geometry":{"coordinates":[-0.508797,46.333077],"type":"Point"},"properties":{"osm_id":"842292406","tag":{"amenity":"waste_basket"}},"type":"Feature"},
	{"geometry":{"coordinates":[-0.511896,46.322807],"type":"Point"},"properties":{"osm_id":"842292412","tag":{"amenity":"waste_basket"}},"type":"Feature"},
	{"geometry":{"coordinates":[-0.512505,46.325589],"type":"Point"},"properties":{"osm_id":"842292415","tag":{"amenity":"waste_basket"}},"type":"Feature"},
	{"geometry":{"coordinates":[-0.50941,46.333568],"type":"Point"},"properties":{"osm_id":"842292442","tag":{"amenity":"waste_basket"}},"type":"Feature"},
	{"geometry":{"coordinates":[-0.508853,46.331796],"type":"Point"},"properties":{"osm_id":"842292443","tag":{"amenity":"waste_basket"}},"type":"Feature"},
	{"geometry":{"coordinates":[-0.465162,46.321451],"type":"Point"},"properties":{"osm_id":"1339085802","tag":{"amenity":"waste_basket"}},"type":"Feature"},
	{"geometry":{"coordinates":[-0.465386,46.321458],"type":"Point"},"properties":{"osm_id":"1339085838","tag":{"amenity":"waste_basket"}},"type":"Feature"},
	{"geometry":{"coordinates":[-0.517513,46.350757],"type":"Point"},"properties":{"osm_id":"1671279770","tag":{"amenity":"waste_basket"}},"type":"Feature"},
	{"geometry":{"coordinates":[-0.51816,46.350784],"type":"Point"},"properties":{"osm_id":"1671279774","tag":{"amenity":"waste_basket"}},"type":"Feature"},
	{"geometry":{"coordinates":[-0.51792,46.350892],"type":"Point"},"properties":{"osm_id":"1671279793","tag":{"amenity":"waste_basket"}},"type":"Feature"},
	{"geometry":{"coordinates":[-0.518473,46.350895],"type":"Point"},"properties":{"osm_id":"1671279800","tag":{"amenity":"waste_basket"}},"type":"Feature"},
	{"geometry":{"coordinates":[-0.475991,46.31682],"type":"Point"},"properties":{"osm_id":"1710547917","tag":{"amenity":"recycling","location":"overground","recycling:cans":"yes","recycling:glass_bottles":"yes","recycling:paper":"yes","recycling:plastic":"yes","recycling_type":"container"}},"type":"Feature"},
	{"geometry":{"coordinates":[-0.454812,46.319717],"type":"Point"},"properties":{"osm_id":"1809431312","tag":{"amenity":"waste_basket"}},"type":"Feature"},
	{"geometry":{"coordinates":[-0.46034,46.328992],"type":"Point"},"properties":{"osm_id":"2212133324","tag":{"amenity":"recycling","recycling:glass_bottles":"yes","recycling_type":"container"}},"type":"Feature"},
	{"geometry":{"coordinates":[-0.456913,46.32242],"type":"Point"},"properties":{"osm_id":"2571399609","tag":{"amenity":"waste_basket"}},"type":"Feature"},
	{"geometry":{"coordinates":[-0.456503,46.322909],"type":"Point"},"properties":{"osm_id":"2571399655","tag":{"amenity":"waste_basket"}},"type":"Feature"},
	{"geometry":{"coordinates":[-0.45668,46.323105],"type":"Point"},"properties":{"osm_id":"2571399664","tag":{"amenity":"waste_basket"}},"type":"Feature"},
	{"geometry":{"coordinates":[-0.457271,46.323398],"type":"Point"},"properties":{"osm_id":"2571399670","tag":{"amenity":"waste_basket"}},"type":"Feature"},
	{"geometry":{"coordinates":[-0.457471,46.323494],"type":"Point"},"properties":{"osm_id":"2571399678","tag":{"amenity":"waste_basket"}},"type":"Feature"},
	{"geometry":{"coordinates":[-0.458342,46.323956],"type":"Point"},"properties":{"osm_id":"2571468099","tag":{"amenity":"waste_basket"}},"type":"Feature"},
	{"geometry":{"coordinates":[-0.469318,46.330846],"type":"Point"},"properties":{"osm_id":"3778487638","tag":{"amenity":"recycling","recycling:cans":"no","recycling:clothes":"no","recycling:glass":"yes","recycling:glass_bottles":"yes","recycling:paper":"yes","recycling:plastic":"no","recycling_type":"container"}},"type":"Feature"},
	{"geometry":{"coordinates":[-0.455233,46.319071],"type":"Point"},"properties":{"osm_id":"4408855040","tag":{"amenity":"recycling","recycling:cans":"yes","recycling:cardboard":"yes","recycling:glass_bottles":"yes","recycling:paper":"yes","recycling:plastic_bottles":"yes","recycling_type":"container"}},"type":"Feature"},
	{"geometry":{"coordinates":[-0.461444,46.324127],"type":"Point"},"properties":{"osm_id":"4799554393","tag":{"amenity":"waste_basket"}},"type":"Feature"},
	{"geometry":{"coordinates":[-0.461803,46.324381],"type":"Point"},"properties":{"osm_id":"4799554394","tag":{"amenity":"waste_basket","fee":"no","mapillary":"g7fNdvK9uqSU6E4BrRh_1Q","vending":"excrement_bags","waste":"dog_excrement"}},"type":"Feature"},
	{"geometry":{"coordinates":[-0.461909,46.324504],"type":"Point"},"properties":{"osm_id":"4799554397","tag":{"amenity":"waste_basket"}},"type":"Feature"},
	{"geometry":{"coordinates":[-0.462197,46.330906],"type":"Point"},"properties":{"osm_id":"4799554403","tag":{"amenity":"waste_basket","fee":"no","mapillary":"SCisnUCOFSMF_i4tOJu2GA","vending":"excrement_bags","waste":"dog_excrement"}},"type":"Feature"},
	{"geometry":{"coordinates":[-0.462661,46.330932],"type":"Point"},"properties":{"osm_id":"4799554409","tag":{"amenity":"waste_basket"}},"type":"Feature"},
	{"geometry":{"coordinates":[-0.464484,46.327594],"type":"Point"},"properties":{"osm_id":"4799554415","tag":{"amenity":"waste_basket","mapillary":"KyHddl2TsWZDLJ4H2vqQOw"}},"type":"Feature"},
	{"geometry":{"coordinates":[-0.464536,46.327591],"type":"Point"},"properties":{"osm_id":"4799554416","tag":{"amenity":"waste_basket","fee":"no","mapillary":"KyHddl2TsWZDLJ4H2vqQOw","vending":"excrement_bags","waste":"dog_excrement"}},"type":"Feature"},
	{"geometry":{"coordinates":[-0.466611,46.32639],"type":"Point"},"properties":{"osm_id":"4799554417","tag":{"amenity":"waste_basket","mapillary":"-VA5X4Zt9kV0gAIUGqJgQQ"}},"type":"Feature"},
	{"geometry":{"coordinates":[-0.466777,46.326295],"type":"Point"},"properties":{"osm_id":"4799554418","tag":{"amenity":"waste_basket"}},"type":"Feature"},
	{"geometry":{"coordinates":[-0.46649,46.32545],"type":"Point"},"properties":{"osm_id":"4799559624","tag":{"amenity":"waste_basket","mapillary":"2OQtj2V3cG4-yoleb2oIMA"}},"type":"Feature"},
	{"geometry":{"coordinates":[-0.466435,46.325496],"type":"Point"},"properties":{"osm_id":"4799559625","tag":{"amenity":"waste_basket","fee":"no","mapillary":"woloRf2hb2VZCfJ2JkklIg","vending":"excrement_bags","waste":"dog_excrement"}},"type":"Feature"},
	{"geometry":{"coordinates":[-0.465838,46.325303],"type":"Point"},"properties":{"osm_id":"4799559630","tag":{"amenity":"waste_basket"}},"type":"Feature"},
	{"geometry":{"coordinates":[-0.465442,46.325608],"type":"Point"},"properties":{"osm_id":"4799559636","tag":{"amenity":"recycling","recycling:glass_bottles":"yes","recycling_type":"container"}},"type":"Feature"},
	{"geometry":{"coordinates":[-0.464869,46.325769],"type":"Point"},"properties":{"osm_id":"4799559643","tag":{"amenity":"waste_basket","mapillary":"cazJuzThcLu4uy0geZ74cw"}},"type":"Feature"},
	{"geometry":{"coordinates":[-0.465026,46.324906],"type":"Point"},"properties":{"osm_id":"4799559655","tag":{"amenity":"waste_basket","mapillary":"4zAIEJhUArkqMKQWWNxHkA"}},"type":"Feature"},
	{"geometry":{"coordinates":[-0.464065,46.323927],"type":"Point"},"properties":{"osm_id":"4799559671","tag":{"amenity":"waste_basket","mapillary":"t0m9I_L8z_tWxBCrFHD0ug"}},"type":"Feature"},
	{"geometry":{"coordinates":[-0.466612,46.32582],"type":"Point"},"properties":{"osm_id":"4828467409","tag":{"amenity":"waste_basket"}},"type":"Feature"},
	{"geometry":{"coordinates":[-0.466667,46.3259],"type":"Point"},"properties":{"osm_id":"4828467417","tag":{"amenity":"waste_basket"}},"type":"Feature"},
	{"geometry":{"coordinates":[-0.459817,46.322765],"type":"Point"},"properties":{"osm_id":"5826590825","tag":{"amenity":"waste_basket"}},"type":"Feature"},
	{"geometry":{"coordinates":[-0.459746,46.322847],"type":"Point"},"properties":{"osm_id":"5826590830","tag":{"amenity":"waste_basket"}},"type":"Feature"},
	{"geometry":{"coordinates":[-0.458278,46.323715],"type":"Point"},"properties":{"osm_id":"5826590840","tag":{"amenity":"waste_basket"}},"type":"Feature"},
	{"geometry":{"coordinates":[-0.469229,46.331097],"type":"Point"},"properties":{"osm_id":"6175270986","tag":{"amenity":"waste_basket","waste":"trash"}},"type":"Feature"},
	{"geometry":{"coordinates":[-0.468891,46.331158],"type":"Point"},"properties":{"osm_id":"6175270987","tag":{"amenity":"waste_basket","waste":"trash"}},"type":"Feature"},
	{"geometry":{"coordinates":[-0.492757,46.332804],"type":"Point"},"properties":{"osm_id":"6539611030","tag":{"amenity":"recycling","recycling:glass":"yes","recycling:paper":"yes","recycling:plastic":"yes","recycling_type":"container"}},"type":"Feature"},
	{"geometry":{"coordinates":[-0.45968,46.323159],"type":"Point"},"properties":{"osm_id":"6875052820","tag":{"amenity":"waste_basket"}},"type":"Feature"},
	{"geometry":{"coordinates":[-0.459953,46.322837],"type":"Point"},"properties":{"osm_id":"6875052821","tag":{"amenity":"waste_basket"}},"type":"Feature"},
	{"geometry":{"coordinates":[-0.459892,46.322911],"type":"Point"},"properties":{"osm_id":"6875052822","tag":{"amenity":"waste_basket"}},"type":"Feature"},
	{"geometry":{"coordinates":[-0.45982,46.322996],"type":"Point"},"properties":{"osm_id":"6875052823","tag":{"amenity":"waste_basket"}},"type":"Feature"},
	{"geometry":{"coordinates":[-0.459747,46.323083],"type":"Point"},"properties":{"osm_id":"6875052824","tag":{"amenity":"waste_basket"}},"type":"Feature"},
	{"geometry":{"coordinates":[-0.45966,46.322937],"type":"Point"},"properties":{"osm_id":"6875052825","tag":{"amenity":"waste_basket"}},"type":"Feature"},
	{"geometry":{"coordinates":[-0.459571,46.323036],"type":"Point"},"properties":{"osm_id":"6875052826","tag":{"amenity":"waste_basket"}},"type":"Feature"},
	{"geometry":{"coordinates":[-0.45952,46.323101],"type":"Point"},"properties":{"osm_id":"6875052827","tag":{"amenity":"waste_basket"}},"type":"Feature"},
	{"geometry":{"coordinates":[-0.458931,46.322264],"type":"Point"},"properties":{"osm_id":"6875131655","tag":{"amenity":"waste_basket"}},"type":"Feature"},
	{"geometry":{"coordinates":[-0.459078,46.32232],"type":"Point"},"properties":{"osm_id":"6875131656","tag":{"amenity":"waste_basket"}},"type":"Feature"},
	{"geometry":{"coordinates":[-0.459324,46.322396],"type":"Point"},"properties":{"osm_id":"6875131657","tag":{"amenity":"waste_basket"}},"type":"Feature"},
	{"geometry":{"coordinates":[-0.459512,46.322443],"type":"Point"},"properties":{"osm_id":"6875131658","tag":{"amenity":"waste_basket"}},"type":"Feature"},
	{"geometry":{"coordinates":[-0.459599,46.32251],"type":"Point"},"properties":{"osm_id":"6875131659","tag":{"amenity":"waste_basket"}},"type":"Feature"},
	{"geometry":{"coordinates":[-0.458525,46.322343],"type":"Point"},"properties":{"osm_id":"6875177157","tag":{"amenity":"waste_basket"}},"type":"Feature"},
	{"geometry":{"coordinates":[-0.459007,46.322505],"type":"Point"},"properties":{"osm_id":"6875177158","tag":{"amenity":"waste_basket"}},"type":"Feature"},
	{"geometry":{"coordinates":[-0.459451,46.322664],"type":"Point"},"properties":{"osm_id":"6875177159","tag":{"amenity":"waste_basket"}},"type":"Feature"},
	{"geometry":{"coordinates":[-0.458227,46.322891],"type":"Point"},"properties":{"osm_id":"6875177183","tag":{"amenity":"waste_basket"}},"type":"Feature"},
	{"geometry":{"coordinates":[-0.458345,46.323092],"type":"Point"},"properties":{"osm_id":"6875185185","tag":{"amenity":"waste_basket"}},"type":"Feature"},
	{"geometry":{"coordinates":[-0.459265,46.323207],"type":"Point"},"properties":{"osm_id":"6875185186","tag":{"amenity":"waste_basket"}},"type":"Feature"},
	{"geometry":{"coordinates":[-0.492395,46.355732],"type":"Point"},"properties":{"name":"D\u00c3\u00a9ch\u00c3\u00a8terie\u00c2\u00a0de\u00c2\u00a0Niort\u00c2\u00a0Vallon\u00c2\u00a0d'Arty","osm_id":"6960408977","tag":{"amenity":"recycling","operator":"Communaut\u00c3\u00a9\u00c2\u00a0d'Agglom\u00c3\u00a9ration\u00c2\u00a0du\u00c2\u00a0Niortais","phone":"+33 5 49 73 97 89","recycling_type":"centre","ref:FR:SINOE":"5272","start_date":"1990"}},"type":"Feature"},
	{"geometry":{"coordinates":[-0.465047,46.321397],"type":"Point"},"properties":{"osm_id":"6964146496","tag":{"amenity":"waste_basket"}},"type":"Feature"},
	{"geometry":{"coordinates":[-0.462286,46.325017],"type":"Point"},"properties":{"osm_id":"6964146497","tag":{"amenity":"waste_basket"}},"type":"Feature"},
	{"geometry":{"coordinates":[-0.461322,46.323319],"type":"Point"},"properties":{"osm_id":"6964146498","tag":{"amenity":"waste_basket"}},"type":"Feature"},
	{"geometry":{"coordinates":[-0.462928,46.324403],"type":"Point"},"properties":{"osm_id":"6964146500","tag":{"amenity":"waste_basket"}},"type":"Feature"},
	{"geometry":{"coordinates":[-0.46264,46.325221],"type":"Point"},"properties":{"osm_id":"6964146512","tag":{"amenity":"waste_basket","fee":"no","mapillary":"g7fNdvK9uqSU6E4BrRh_1Q","vending":"excrement_bags"}},"type":"Feature"},
	{"geometry":{"coordinates":[-0.46482,46.321557],"type":"Point"},"properties":{"osm_id":"6964146515","tag":{"amenity":"waste_basket"}},"type":"Feature"},
	{"geometry":{"coordinates":[-0.463256,46.323773],"type":"Point"},"properties":{"osm_id":"6964146518","tag":{"amenity":"waste_basket"}},"type":"Feature"},
	{"geometry":{"coordinates":[-0.464896,46.32143],"type":"Point"},"properties":{"osm_id":"6964146522","tag":{"amenity":"waste_basket"}},"type":"Feature"},
	{"geometry":{"coordinates":[-0.46313,46.324748],"type":"Point"},"properties":{"osm_id":"6964146525","tag":{"amenity":"waste_basket"}},"type":"Feature"},
	{"geometry":{"coordinates":[-0.460359,46.323746],"type":"Point"},"properties":{"osm_id":"6964146526","tag":{"amenity":"waste_basket"}},"type":"Feature"},
	{"geometry":{"coordinates":[-0.468045,46.317758],"type":"Point"},"properties":{"osm_id":"6964146533","tag":{"amenity":"recycling","recycling:paper":"yes","recycling_type":"container"}},"type":"Feature"},
	{"geometry":{"coordinates":[-0.460273,46.323597],"type":"Point"},"properties":{"osm_id":"6964146538","tag":{"amenity":"waste_basket"}},"type":"Feature"},
	{"geometry":{"coordinates":[-0.464912,46.321568],"type":"Point"},"properties":{"osm_id":"6964146542","tag":{"amenity":"waste_basket"}},"type":"Feature"},
	{"geometry":{"coordinates":[-0.460985,46.323988],"type":"Point"},"properties":{"osm_id":"6964146547","tag":{"amenity":"waste_basket"}},"type":"Feature"},
	{"geometry":{"coordinates":[-0.463471,46.325472],"type":"Point"},"properties":{"osm_id":"6964146557","tag":{"amenity":"waste_basket"}},"type":"Feature"},
	{"geometry":{"coordinates":[-0.468059,46.317778],"type":"Point"},"properties":{"osm_id":"6964146564","tag":{"amenity":"recycling","recycling:glass":"yes","recycling:glass_bottles":"yes","recycling_type":"container"}},"type":"Feature"},
	{"geometry":{"coordinates":[-0.461664,46.324313],"type":"Point"},"properties":{"osm_id":"6964146565","tag":{"amenity":"waste_basket"}},"type":"Feature"},
	{"geometry":{"coordinates":[-0.462541,46.32406],"type":"Point"},"properties":{"osm_id":"6964146566","tag":{"amenity":"waste_basket"}},"type":"Feature"},
	{"geometry":{"coordinates":[-0.462582,46.325244],"type":"Point"},"properties":{"osm_id":"6964146567","tag":{"amenity":"waste_basket","fee":"no","mapillary":"g7fNdvK9uqSU6E4BrRh_1Q","vending":"excrement_bags","waste":"dog_excrement"}},"type":"Feature"},
	{"geometry":{"coordinates":[-0.460711,46.323409],"type":"Point"},"properties":{"osm_id":"6964146568","tag":{"amenity":"waste_basket"}},"type":"Feature"},
	{"geometry":{"coordinates":[-0.465801,46.320323],"type":"Point"},"properties":{"osm_id":"6964176496","tag":{"amenity":"waste_basket","waste":"dog_excrement"}},"type":"Feature"},
	{"geometry":{"coordinates":[-0.486261,46.325999],"type":"Point"},"properties":{"osm_id":"7837517521","tag":{"natural":"tree"}},"type":"Feature"}
]
}
