{
"type": "FeatureCollection",
"features": [
	{"geometry":{"coordinates":[-0.445918,44.995665],"type":"Point"},"properties":{"osm_id":"6571997685","tag":{"access":"yes","amenity":"waste_disposal"}},"type":"Feature"},
	{"geometry":{"coordinates":[-0.445958,44.995669],"type":"Point"},"properties":{"osm_id":"6572567061","tag":{"amenity":"recycling","colour":"yellow","recycling:aluminium":"yes","recycling:beverage_cartons":"yes","recycling:cans":"yes","recycling:cartons":"yes","recycling:magazines":"yes","recycling:newspaper":"yes","recycling:paper":"yes","recycling:plastic":"yes","recycling:plastic_bottles":"yes","recycling:plastic_packaging":"yes","recycling_type":"container"}},"type":"Feature"},
	{"geometry":{"coordinates":[-0.447521,45.011025],"type":"Point"},"properties":{"osm_id":"6990847757","tag":{"amenity":"waste_basket"}},"type":"Feature"},
	{"geometry":{"coordinates":[-0.44736,45.010706],"type":"Point"},"properties":{"osm_id":"6990847758","tag":{"amenity":"waste_basket"}},"type":"Feature"},
	{"geometry":{"coordinates":[-0.447391,45.011802],"type":"Point"},"properties":{"osm_id":"6990847759","tag":{"amenity":"waste_basket"}},"type":"Feature"},
	{"geometry":{"coordinates":[-0.446453,45.011612],"type":"Point"},"properties":{"osm_id":"6990847760","tag":{"amenity":"waste_basket"}},"type":"Feature"},
	{"geometry":{"coordinates":[-0.44744,45.009856],"type":"Point"},"properties":{"osm_id":"6990847763","tag":{"amenity":"waste_basket"}},"type":"Feature"},
	{"geometry":{"coordinates":[-0.447422,45.009586],"type":"Point"},"properties":{"osm_id":"6990847764","tag":{"amenity":"waste_basket"}},"type":"Feature"},
	{"geometry":{"coordinates":[-0.446013,45.010096],"type":"Point"},"properties":{"osm_id":"6990847766","tag":{"amenity":"waste_basket"}},"type":"Feature"},
	{"geometry":{"coordinates":[-0.446561,45.011002],"type":"Point"},"properties":{"osm_id":"6990847767","tag":{"amenity":"waste_basket"}},"type":"Feature"},
	{"geometry":{"coordinates":[-0.446208,45.010779],"type":"Point"},"properties":{"osm_id":"6990847768","tag":{"amenity":"waste_basket"}},"type":"Feature"},
	{"geometry":{"coordinates":[-0.445709,45.01079],"type":"Point"},"properties":{"osm_id":"6990847769","tag":{"amenity":"waste_basket"}},"type":"Feature"},
	{"geometry":{"coordinates":[-0.44503,45.009459],"type":"Point"},"properties":{"osm_id":"6990847770","tag":{"amenity":"waste_basket"}},"type":"Feature"}
]
}
