{
"type": "FeatureCollection",
"features": [
	{"geometry":{"coordinates":[-0.526068,44.89239],"type":"Point"},"properties":{"osm_id":"923908162","tag":{"amenity":"recycling"}},"type":"Feature"},
	{"geometry":{"coordinates":[-0.521783,44.842361],"type":"Point"},"properties":{"osm_id":"1191677252","tag":{"amenity":"recycling","operator":"Bordeaux M\u00c3\u00a9tropole","recycling:cans":"yes","recycling:clothes":"no","recycling:glass_bottles":"yes","recycling:paper":"yes","recycling_type":"container","ref:FR:CUB":"FL11"}},"type":"Feature"},
	{"geometry":{"coordinates":[-0.512042,44.841573],"type":"Point"},"properties":{"osm_id":"1202377203","tag":{"amenity":"recycling","operator":"Bordeaux M\u00c3\u00a9tropole","recycling:glass_bottles":"yes","recycling_type":"container","ref:FR:CUB":"FL07"}},"type":"Feature"},
	{"geometry":{"coordinates":[-0.510113,44.841429],"type":"Point"},"properties":{"osm_id":"1323805862","tag":{"amenity":"recycling","operator":"Bordeaux M\u00c3\u00a9tropole","recycling:glass_bottles":"yes","recycling_type":"container","ref:FR:CUB":"FL24"}},"type":"Feature"},
	{"geometry":{"coordinates":[-0.509571,44.870116],"type":"Point"},"properties":{"osm_id":"3499101591","tag":{"amenity":"recycling","operator":"veolia","recycling:cans":"yes","recycling:clothes":"no","recycling:glass":"no","recycling:glass_bottles":"yes","recycling:paper":"yes","recycling_type":"container","ref:FR:CUB":"LO18","waste":"trash"}},"type":"Feature"},
	{"geometry":{"coordinates":[-0.476939,44.844725],"type":"Point"},"properties":{"osm_id":"4044780189","tag":{"amenity":"recycling","clothes":"yes","type":"container"}},"type":"Feature"},
	{"geometry":{"coordinates":[-0.523843,44.859444],"type":"Point"},"properties":{"osm_id":"4165957706","tag":{"amenity":"recycling","glass":"yes","recycling:glass_bottles":"yes","recycling_type":"container","ref:FR:CUB":"CE36"}},"type":"Feature"},
	{"geometry":{"coordinates":[-0.513251,44.870458],"type":"Point"},"properties":{"osm_id":"4231649391","tag":{"amenity":"recycling","recycling:glass_bottles":"yes","recycling_type":"container","ref:FR:CUB":"LO03"}},"type":"Feature"},
	{"geometry":{"coordinates":[-0.516034,44.871225],"type":"Point"},"properties":{"osm_id":"4231676904","tag":{"amenity":"recycling","recycling_type":"container"}},"type":"Feature"},
	{"geometry":{"coordinates":[-0.51489,44.870819],"type":"Point"},"properties":{"osm_id":"4231685092","tag":{"amenity":"recycling","recycling_type":"container"}},"type":"Feature"},
	{"geometry":{"coordinates":[-0.514799,44.870836],"type":"Point"},"properties":{"osm_id":"4231689691","tag":{"amenity":"recycling","recycling_type":"container"}},"type":"Feature"},
	{"geometry":{"coordinates":[-0.515946,44.871212],"type":"Point"},"properties":{"osm_id":"4231709789","tag":{"amenity":"recycling","recycling_type":"container"}},"type":"Feature"},
	{"geometry":{"coordinates":[-0.494553,44.841282],"type":"Point"},"properties":{"osm_id":"4451789089","tag":{"amenity":"recycling","operator":"SEMOCTOM","recycling:glass_bottles":"yes","recycling_type":"container"}},"type":"Feature"},
	{"geometry":{"coordinates":[-0.465267,44.847017],"type":"Point"},"properties":{"osm_id":"4455103158","tag":{"amenity":"recycling","operator":"SEMOCTOM","recycling:clothes":"yes","recycling_type":"container"}},"type":"Feature"},
	{"geometry":{"coordinates":[-0.498215,44.896281],"type":"Point"},"properties":{"osm_id":"5180908456","tag":{"access":"yes","amenity":"recycling","fee":"no","operator":"Le Relais","recycling:clothes":"yes","recycling:shoes":"yes","recycling:textiles":"yes","recycling_type":"container","wheelchair":"no"}},"type":"Feature"},
	{"geometry":{"coordinates":[-0.498176,44.896269],"type":"Point"},"properties":{"osm_id":"5180908457","tag":{"access":"yes","amenity":"recycling","fee":"no","operator":"Le Relais","recycling:clothes":"yes","recycling:shoes":"yes","recycling:textiles":"yes","recycling_type":"container","wheelchair":"no"}},"type":"Feature"},
	{"geometry":{"coordinates":[-0.519038,44.872754],"type":"Point"},"properties":{"osm_id":"5790725553","tag":{"amenity":"recycling","recycling:batteries":"no","recycling:cans":"yes","recycling:cardboard":"yes","recycling:clothes":"no","recycling:electrical_appliances":"no","recycling:glass":"no","recycling:glass_bottles":"yes","recycling:green_waste":"no","recycling:paper":"yes","recycling:plastic":"yes","recycling:plastic_bottles":"yes","recycling:plastic_packaging":"yes","recycling:scrap_metal":"no","recycling:shoes":"no","recycling:small_appliances":"no","recycling:waste":"no","recycling_type":"container","ref:FR:CUB":"LO17"}},"type":"Feature"},
	{"geometry":{"coordinates":[-0.519059,44.872757],"type":"Point"},"properties":{"osm_id":"5790729253","tag":{"amenity":"recycling","recycling:batteries":"no","recycling:cans":"no","recycling:cardboard":"no","recycling:clothes":"no","recycling:electrical_appliances":"no","recycling:glass_bottles":"yes","recycling:green_waste":"no","recycling:paper":"no","recycling:plastic":"no","recycling:plastic_bottles":"no","recycling:plastic_packaging":"no","recycling:scrap_metal":"no","recycling:shoes":"no","recycling:small_appliances":"no","recycling:waste":"no","recycling_type":"container","ref:FR:CUB":"LO17"}},"type":"Feature"},
	{"geometry":{"coordinates":[-0.519733,44.876423],"type":"Point"},"properties":{"osm_id":"6311060254","tag":{"amenity":"recycling","recycling_type":"container"}},"type":"Feature"},
	{"geometry":{"coordinates":[-0.479126,44.852179],"type":"Point"},"properties":{"osm_id":"6853777891","tag":{"amenity":"waste_basket"}},"type":"Feature"},
	{"geometry":{"coordinates":[-0.479433,44.851947],"type":"Point"},"properties":{"osm_id":"6853777892","tag":{"amenity":"waste_basket"}},"type":"Feature"},
	{"geometry":{"coordinates":[-0.479949,44.853032],"type":"Point"},"properties":{"osm_id":"6853777893","tag":{"amenity":"waste_basket"}},"type":"Feature"},
	{"geometry":{"coordinates":[-0.523721,44.861943],"type":"Point"},"properties":{"osm_id":"6989896186","tag":{"amenity":"waste_basket"}},"type":"Feature"},
	{"geometry":{"coordinates":[-0.523597,44.862171],"type":"Point"},"properties":{"osm_id":"6989896187","tag":{"amenity":"waste_basket"}},"type":"Feature"},
	{"geometry":{"coordinates":[-0.523435,44.862175],"type":"Point"},"properties":{"osm_id":"6989896188","tag":{"amenity":"waste_basket"}},"type":"Feature"},
	{"geometry":{"coordinates":[-0.523432,44.861943],"type":"Point"},"properties":{"osm_id":"6989896189","tag":{"amenity":"waste_basket"}},"type":"Feature"},
	{"geometry":{"coordinates":[-0.523761,44.861759],"type":"Point"},"properties":{"osm_id":"6989896190","tag":{"amenity":"waste_basket"}},"type":"Feature"},
	{"geometry":{"coordinates":[-0.524787,44.861768],"type":"Point"},"properties":{"osm_id":"6989896192","tag":{"amenity":"waste_basket"}},"type":"Feature"},
	{"geometry":{"coordinates":[-0.52604,44.861402],"type":"Point"},"properties":{"osm_id":"6989896193","tag":{"amenity":"waste_basket"}},"type":"Feature"},
	{"geometry":{"coordinates":[-0.525242,44.861084],"type":"Point"},"properties":{"osm_id":"6989896194","tag":{"amenity":"waste_basket"}},"type":"Feature"},
	{"geometry":{"coordinates":[-0.525258,44.860753],"type":"Point"},"properties":{"osm_id":"6989896195","tag":{"amenity":"waste_basket"}},"type":"Feature"},
	{"geometry":{"coordinates":[-0.524443,44.861473],"type":"Point"},"properties":{"osm_id":"6989896231","tag":{"amenity":"waste_basket"}},"type":"Feature"},
	{"geometry":{"coordinates":[-0.524309,44.861364],"type":"Point"},"properties":{"osm_id":"6989896232","tag":{"amenity":"waste_basket"}},"type":"Feature"},
	{"geometry":{"coordinates":[-0.524321,44.861319],"type":"Point"},"properties":{"osm_id":"6989896233","tag":{"amenity":"waste_basket"}},"type":"Feature"},
	{"geometry":{"coordinates":[-0.526932,44.858753],"type":"Point"},"properties":{"osm_id":"6989896282","tag":{"amenity":"waste_basket"}},"type":"Feature"},
	{"geometry":{"coordinates":[-0.523993,44.859731],"type":"Point"},"properties":{"osm_id":"6989896283","tag":{"amenity":"waste_basket"}},"type":"Feature"},
	{"geometry":{"coordinates":[-0.523942,44.859743],"type":"Point"},"properties":{"osm_id":"6989896284","tag":{"amenity":"waste_basket"}},"type":"Feature"},
	{"geometry":{"coordinates":[-0.523827,44.859701],"type":"Point"},"properties":{"osm_id":"6989896285","tag":{"amenity":"waste_basket"}},"type":"Feature"},
	{"geometry":{"coordinates":[-0.526638,44.859741],"type":"Point"},"properties":{"osm_id":"6989896286","tag":{"amenity":"waste_basket"}},"type":"Feature"},
	{"geometry":{"coordinates":[-0.526798,44.859769],"type":"Point"},"properties":{"osm_id":"6989896287","tag":{"amenity":"waste_basket"}},"type":"Feature"},
	{"geometry":{"coordinates":[-0.526571,44.860287],"type":"Point"},"properties":{"osm_id":"6989896289","tag":{"amenity":"waste_basket"}},"type":"Feature"},
	{"geometry":{"coordinates":[-0.526977,44.860319],"type":"Point"},"properties":{"osm_id":"6989896290","tag":{"amenity":"waste_basket"}},"type":"Feature"},
	{"geometry":{"coordinates":[-0.525191,44.861714],"type":"Point"},"properties":{"osm_id":"6989896291","tag":{"amenity":"waste_basket"}},"type":"Feature"},
	{"geometry":{"coordinates":[-0.524547,44.861033],"type":"Point"},"properties":{"osm_id":"6989896292","tag":{"amenity":"waste_basket"}},"type":"Feature"},
	{"geometry":{"coordinates":[-0.524684,44.860628],"type":"Point"},"properties":{"osm_id":"6989896293","tag":{"amenity":"waste_basket"}},"type":"Feature"},
	{"geometry":{"coordinates":[-0.524954,44.860527],"type":"Point"},"properties":{"osm_id":"6989896294","tag":{"amenity":"waste_basket"}},"type":"Feature"},
	{"geometry":{"coordinates":[-0.523443,44.86152],"type":"Point"},"properties":{"osm_id":"6989896375","tag":{"amenity":"waste_basket"}},"type":"Feature"},
	{"geometry":{"coordinates":[-0.523237,44.861615],"type":"Point"},"properties":{"osm_id":"6989896376","tag":{"amenity":"waste_basket"}},"type":"Feature"},
	{"geometry":{"coordinates":[-0.514927,44.90187],"type":"Point"},"properties":{"osm_id":"7058020225","tag":{"amenity":"recycling","recycling:glass_bottles":"yes","recycling_type":"container"}},"type":"Feature"},
	{"geometry":{"coordinates":[-0.525311,44.86956],"type":"Point"},"properties":{"osm_id":"7169620813","tag":{"amenity":"recycling","recycling_type":"container"}},"type":"Feature"},
	{"geometry":{"coordinates":[-0.522726,44.869866],"type":"Point"},"properties":{"osm_id":"7169777475","tag":{"amenity":"recycling","recycling_type":"container"}},"type":"Feature"},
	{"geometry":{"coordinates":[-0.522642,44.870247],"type":"Point"},"properties":{"osm_id":"7169777484","tag":{"amenity":"recycling","recycling_type":"container"}},"type":"Feature"},
	{"geometry":{"coordinates":[-0.523413,44.870584],"type":"Point"},"properties":{"name":"La Composterie de Lormont","osm_id":"7212028128","tag":{"amenity":"recycling","operator:type":"public","recycling:organic":"yes","recycling_type":"centre"}},"type":"Feature"},
	{"geometry":{"coordinates":[-0.516648,44.877382],"type":"Point"},"properties":{"osm_id":"7941688219","tag":{"amenity":"recycling","recycling:glass":"yes","recycling:glass_bottles":"yes","recycling:glass_jars":"yes","recycling_type":"container"}},"type":"Feature"},
	{"geometry":{"coordinates":[-0.515934,44.873034],"type":"Point"},"properties":{"osm_id":"8633212131","tag":{"amenity":"recycling","recycling:glass":"yes","recycling:glass_bottles":"yes","recycling_type":"container"}},"type":"Feature"},
	{"geometry":{"coordinates":[-0.512571,44.874127],"type":"Point"},"properties":{"osm_id":"8634581135","tag":{"amenity":"recycling","recycling:cardboard":"yes","recycling:recyclable":"yes","recycling_type":"container"}},"type":"Feature"},
	{"geometry":{"coordinates":[-0.512575,44.874102],"type":"Point"},"properties":{"osm_id":"8634581136","tag":{"amenity":"waste_disposal"}},"type":"Feature"},
	{"geometry":{"coordinates":[-0.519822,44.860758],"type":"Point"},"properties":{"name":"Atelier du R\u00c3\u00a9emploi et de la Qualification de Cenon","osm_id":"8635414937","tag":{"alt_name":"ARQC Ressourcerie","amenity":"recycling","brand":"Ressourcerie","contact:email":"arqcenon@orange.fr","contact:phone":"+33 5 57 77 24 10","contact:website":"http://www.regie-quartier-cenon.fr/arqc-la-ressourcerie-cenon-fr/la-ressourcerie-cenon-palmer/presentation-la-ressourcerie-cenon-palmer.html","network":"R\u00c3\u00a9seau national des ressourceries","recycling_type":"centre","ref:FR:SIRET":"38040358400044","shop":"second_hand"}},"type":"Feature"},
	{"geometry":{"coordinates":[-0.521032,44.876385],"type":"Point"},"properties":{"osm_id":"8736625467","tag":{"amenity":"recycling","recycling_type":"container"}},"type":"Feature"},
	{"geometry":{"coordinates":[-0.521035,44.876231],"type":"Point"},"properties":{"osm_id":"8736625468","tag":{"amenity":"recycling","recycling_type":"container"}},"type":"Feature"},
	{"geometry":{"coordinates":[-0.518619,44.881243],"type":"Point"},"properties":{"osm_id":"9029109898","tag":{"amenity":"recycling","recycling_type":"container"}},"type":"Feature"},
	{"geometry":{"coordinates":[-0.518637,44.881226],"type":"Point"},"properties":{"osm_id":"9029109899","tag":{"amenity":"recycling","recycling_type":"container"}},"type":"Feature"},
	{"geometry":{"coordinates":[-0.518659,44.881208],"type":"Point"},"properties":{"osm_id":"9029109900","tag":{"amenity":"recycling","recycling_type":"container"}},"type":"Feature"},
	{"geometry":{"coordinates":[-0.518673,44.88119],"type":"Point"},"properties":{"osm_id":"9029109901","tag":{"amenity":"recycling","recycling_type":"container"}},"type":"Feature"},
	{"geometry":{"coordinates":[-0.518693,44.881175],"type":"Point"},"properties":{"osm_id":"9029109902","tag":{"amenity":"recycling","recycling_type":"container"}},"type":"Feature"}
]
}
