{
"type": "FeatureCollection",
"features": [
	{"geometry":{"coordinates":[-0.517993,43.895887],"type":"Point"},"properties":{"osm_id":"276981957","tag":{"amenity":"recycling","recycling:glass":"yes"}},"type":"Feature"},
	{"geometry":{"coordinates":[-0.496618,43.891244],"type":"Point"},"properties":{"osm_id":"276997667","tag":{"amenity":"recycling","recycling:glass":"yes","recycling_type":"container"}},"type":"Feature"},
	{"geometry":{"coordinates":[-0.526485,43.894903],"type":"Point"},"properties":{"osm_id":"277024352","tag":{"amenity":"recycling","recycling:glass":"yes"}},"type":"Feature"},
	{"geometry":{"coordinates":[-0.503179,43.893294],"type":"Point"},"properties":{"osm_id":"277835070","tag":{"amenity":"recycling","recycling:glass":"yes","recycling_type":"container"}},"type":"Feature"},
	{"geometry":{"coordinates":[-0.455446,43.889779],"type":"Point"},"properties":{"name":"D\u00c3\u00a9ch\u00c3\u00a8terie du Battan","osm_id":"565538329","tag":{"amenity":"recycling","recycling_type":"centre"}},"type":"Feature"},
	{"geometry":{"coordinates":[-0.499634,43.889389],"type":"Point"},"properties":{"osm_id":"582855902","tag":{"amenity":"recycling","recycling_type":"container"}},"type":"Feature"},
	{"geometry":{"coordinates":[-0.474103,43.892708],"type":"Point"},"properties":{"name":"Conteneur Verre Vincent Auriol","osm_id":"654359494","tag":{"amenity":"recycling"}},"type":"Feature"},
	{"geometry":{"coordinates":[-0.511171,43.895294],"type":"Point"},"properties":{"name":"Verre","osm_id":"1051316104","tag":{"amenity":"recycling"}},"type":"Feature"},
	{"geometry":{"coordinates":[-0.500507,43.888254],"type":"Point"},"properties":{"osm_id":"1394651297","tag":{"amenity":"recycling","capacity":"3","recycling_type":"container"}},"type":"Feature"},
	{"geometry":{"coordinates":[-0.501428,43.890284],"type":"Point"},"properties":{"osm_id":"1401851033","tag":{"amenity":"recycling","capacity":"3","recycling_type":"container"}},"type":"Feature"},
	{"geometry":{"coordinates":[-0.508624,43.887953],"type":"Point"},"properties":{"osm_id":"1402122547","tag":{"amenity":"recycling","recycling:glass_bottles":"yes","recycling:paper":"yes","recycling_type":"container"}},"type":"Feature"},
	{"geometry":{"coordinates":[-0.502593,43.889232],"type":"Point"},"properties":{"osm_id":"1814890236","tag":{"amenity":"recycling","location":"underground","recycling_type":"container"}},"type":"Feature"},
	{"geometry":{"coordinates":[-0.503372,43.889706],"type":"Point"},"properties":{"osm_id":"1814890237","tag":{"amenity":"recycling","recycling_type":"container"}},"type":"Feature"},
	{"geometry":{"coordinates":[-0.501155,43.891204],"type":"Point"},"properties":{"osm_id":"1814890238","tag":{"amenity":"recycling","recycling_type":"container"}},"type":"Feature"},
	{"geometry":{"coordinates":[-0.500577,43.892164],"type":"Point"},"properties":{"osm_id":"1820384717","tag":{"amenity":"recycling","capacity":"3","recycling_type":"container","wheelchair":"yes"}},"type":"Feature"},
	{"geometry":{"coordinates":[-0.504462,43.888647],"type":"Point"},"properties":{"osm_id":"1937008458","tag":{"amenity":"recycling","location":"overground","recycling_type":"container"}},"type":"Feature"},
	{"geometry":{"coordinates":[-0.505756,43.891744],"type":"Point"},"properties":{"osm_id":"1969966013","tag":{"amenity":"waste_basket"}},"type":"Feature"},
	{"geometry":{"coordinates":[-0.515544,43.863117],"type":"Point"},"properties":{"osm_id":"2085492889","tag":{"amenity":"recycling","recycling_type":"container"}},"type":"Feature"},
	{"geometry":{"coordinates":[-0.468344,43.889287],"type":"Point"},"properties":{"osm_id":"2482243380","tag":{"amenity":"recycling","location":"overground","recycling:glass_bottles":"yes","recycling:paper":"yes","recycling_type":"container"}},"type":"Feature"},
	{"geometry":{"coordinates":[-0.502931,43.892892],"type":"Point"},"properties":{"osm_id":"2614581950","tag":{"amenity":"recycling","recycling_type":"container","wheelchair":"yes"}},"type":"Feature"},
	{"geometry":{"coordinates":[-0.502905,43.892903],"type":"Point"},"properties":{"osm_id":"2614581951","tag":{"amenity":"recycling","recycling_type":"container","wheelchair":"yes"}},"type":"Feature"},
	{"geometry":{"coordinates":[-0.502943,43.892913],"type":"Point"},"properties":{"osm_id":"2614581952","tag":{"amenity":"recycling","recycling_type":"container","wheelchair":"yes"}},"type":"Feature"},
	{"geometry":{"coordinates":[-0.502914,43.89292],"type":"Point"},"properties":{"osm_id":"2614581953","tag":{"amenity":"recycling","recycling_type":"container","wheelchair":"yes"}},"type":"Feature"},
	{"geometry":{"coordinates":[-0.496419,43.885984],"type":"Point"},"properties":{"osm_id":"2615986816","tag":{"amenity":"waste_basket"}},"type":"Feature"},
	{"geometry":{"coordinates":[-0.502627,43.889233],"type":"Point"},"properties":{"osm_id":"2617041848","tag":{"amenity":"recycling","location":"underground","recycling_type":"container"}},"type":"Feature"},
	{"geometry":{"coordinates":[-0.502601,43.88925],"type":"Point"},"properties":{"osm_id":"2617041849","tag":{"amenity":"recycling","location":"underground","recycling_type":"container"}},"type":"Feature"},
	{"geometry":{"coordinates":[-0.503345,43.889685],"type":"Point"},"properties":{"osm_id":"2617041853","tag":{"amenity":"recycling","recycling_type":"container"}},"type":"Feature"},
	{"geometry":{"coordinates":[-0.503304,43.889695],"type":"Point"},"properties":{"osm_id":"2617041855","tag":{"amenity":"recycling","recycling_type":"container"}},"type":"Feature"},
	{"geometry":{"coordinates":[-0.503327,43.889716],"type":"Point"},"properties":{"osm_id":"2617041856","tag":{"amenity":"recycling","recycling_type":"container"}},"type":"Feature"},
	{"geometry":{"coordinates":[-0.50041,43.890414],"type":"Point"},"properties":{"osm_id":"2617217089","tag":{"amenity":"waste_basket"}},"type":"Feature"},
	{"geometry":{"coordinates":[-0.464391,43.896186],"type":"Point"},"properties":{"osm_id":"2667312974","tag":{"amenity":"waste_basket"}},"type":"Feature"},
	{"geometry":{"coordinates":[-0.495913,43.893664],"type":"Point"},"properties":{"osm_id":"2668490608","tag":{"amenity":"waste_basket"}},"type":"Feature"},
	{"geometry":{"coordinates":[-0.491675,43.896006],"type":"Point"},"properties":{"osm_id":"2668490618","tag":{"amenity":"waste_basket"}},"type":"Feature"},
	{"geometry":{"coordinates":[-0.491326,43.896333],"type":"Point"},"properties":{"osm_id":"2668490624","tag":{"amenity":"waste_basket"}},"type":"Feature"},
	{"geometry":{"coordinates":[-0.483718,43.885781],"type":"Point"},"properties":{"osm_id":"2668570562","tag":{"amenity":"waste_basket"}},"type":"Feature"},
	{"geometry":{"coordinates":[-0.464701,43.880624],"type":"Point"},"properties":{"osm_id":"2668684366","tag":{"amenity":"waste_basket"}},"type":"Feature"},
	{"geometry":{"coordinates":[-0.454722,43.887899],"type":"Point"},"properties":{"osm_id":"2668684368","tag":{"amenity":"waste_basket"}},"type":"Feature"},
	{"geometry":{"coordinates":[-0.492558,43.874498],"type":"Point"},"properties":{"osm_id":"2670095415","tag":{"amenity":"waste_basket"}},"type":"Feature"},
	{"geometry":{"coordinates":[-0.501597,43.887067],"type":"Point"},"properties":{"osm_id":"2670128505","tag":{"amenity":"waste_basket"}},"type":"Feature"},
	{"geometry":{"coordinates":[-0.466475,43.891785],"type":"Point"},"properties":{"osm_id":"2671047716","tag":{"amenity":"waste_basket"}},"type":"Feature"},
	{"geometry":{"coordinates":[-0.487898,43.882409],"type":"Point"},"properties":{"osm_id":"2671051128","tag":{"amenity":"waste_basket"}},"type":"Feature"},
	{"geometry":{"coordinates":[-0.500499,43.888217],"type":"Point"},"properties":{"osm_id":"2874105674","tag":{"amenity":"recycling","capacity":"3","recycling_type":"container"}},"type":"Feature"},
	{"geometry":{"coordinates":[-0.500502,43.888236],"type":"Point"},"properties":{"osm_id":"2874105675","tag":{"amenity":"recycling","capacity":"3","recycling_type":"container"}},"type":"Feature"},
	{"geometry":{"coordinates":[-0.515428,43.862849],"type":"Point"},"properties":{"osm_id":"3442435148","tag":{"amenity":"recycling","recycling_type":"container"}},"type":"Feature"},
	{"geometry":{"coordinates":[-0.51535,43.862872],"type":"Point"},"properties":{"osm_id":"3442435151","tag":{"amenity":"recycling","recycling_type":"container"}},"type":"Feature"},
	{"geometry":{"coordinates":[-0.515269,43.862902],"type":"Point"},"properties":{"osm_id":"3442435152","tag":{"amenity":"recycling","recycling_type":"container"}},"type":"Feature"},
	{"geometry":{"coordinates":[-0.515467,43.862904],"type":"Point"},"properties":{"osm_id":"3442435154","tag":{"amenity":"recycling","recycling_type":"container"}},"type":"Feature"},
	{"geometry":{"coordinates":[-0.515494,43.862957],"type":"Point"},"properties":{"osm_id":"3442435164","tag":{"amenity":"recycling","recycling_type":"container"}},"type":"Feature"},
	{"geometry":{"coordinates":[-0.515521,43.863018],"type":"Point"},"properties":{"osm_id":"3442435172","tag":{"amenity":"recycling","recycling_type":"container"}},"type":"Feature"},
	{"geometry":{"coordinates":[-0.515507,43.863093],"type":"Point"},"properties":{"osm_id":"3442435185","tag":{"amenity":"recycling","recycling_type":"container"}},"type":"Feature"},
	{"geometry":{"coordinates":[-0.502612,43.887292],"type":"Point"},"properties":{"name":"Cartridge World","osm_id":"3450521739","tag":{"addr:city":"Mont-de-Marsan","addr:housenumber":"204","addr:postcode":"40000","addr:street":"Boulevard de la R\u00c3\u00a9publique","amenity":"recycling","recycling:printer_cartridges":"yes","recycling_type":"container"}},"type":"Feature"},
	{"geometry":{"coordinates":[-0.499697,43.888804],"type":"Point"},"properties":{"osm_id":"4869851575","tag":{"amenity":"recycling","recycling_type":"container"}},"type":"Feature"},
	{"geometry":{"coordinates":[-0.499671,43.888801],"type":"Point"},"properties":{"osm_id":"4869851576","tag":{"amenity":"recycling","recycling_type":"container"}},"type":"Feature"},
	{"geometry":{"coordinates":[-0.499666,43.888821],"type":"Point"},"properties":{"osm_id":"4869851577","tag":{"amenity":"recycling","recycling_type":"container"}},"type":"Feature"},
	{"geometry":{"coordinates":[-0.499692,43.888823],"type":"Point"},"properties":{"osm_id":"4869851578","tag":{"amenity":"recycling","recycling_type":"container"}},"type":"Feature"},
	{"geometry":{"coordinates":[-0.499585,43.889395],"type":"Point"},"properties":{"osm_id":"4869851579","tag":{"amenity":"recycling","recycling_type":"container"}},"type":"Feature"},
	{"geometry":{"coordinates":[-0.49961,43.889392],"type":"Point"},"properties":{"osm_id":"4869851580","tag":{"amenity":"recycling","recycling_type":"container"}},"type":"Feature"},
	{"geometry":{"coordinates":[-0.500181,43.889406],"type":"Point"},"properties":{"osm_id":"4910840707","tag":{"amenity":"waste_basket"}},"type":"Feature"},
	{"geometry":{"coordinates":[-0.49842,43.887437],"type":"Point"},"properties":{"osm_id":"4994371219","tag":{"amenity":"recycling","recycling_type":"container"}},"type":"Feature"},
	{"geometry":{"coordinates":[-0.498414,43.88746],"type":"Point"},"properties":{"osm_id":"4994371221","tag":{"amenity":"recycling","recycling_type":"container"}},"type":"Feature"},
	{"geometry":{"coordinates":[-0.505845,43.892911],"type":"Point"},"properties":{"osm_id":"4999450635","tag":{"amenity":"recycling","recycling_type":"container"}},"type":"Feature"},
	{"geometry":{"coordinates":[-0.505824,43.892913],"type":"Point"},"properties":{"osm_id":"4999450636","tag":{"amenity":"recycling","recycling_type":"container"}},"type":"Feature"},
	{"geometry":{"coordinates":[-0.505866,43.892909],"type":"Point"},"properties":{"osm_id":"4999450637","tag":{"amenity":"recycling","recycling_type":"container"}},"type":"Feature"},
	{"geometry":{"coordinates":[-0.502067,43.886971],"type":"Point"},"properties":{"osm_id":"5041470669","tag":{"amenity":"recycling","recycling:cardboard":"yes","recycling:glass_bottles":"yes","recycling:paper":"yes","recycling:plastic":"yes","recycling:plastic_bottles":"yes","recycling:plastic_packaging":"yes","recycling_type":"container"}},"type":"Feature"},
	{"geometry":{"coordinates":[-0.504052,43.886306],"type":"Point"},"properties":{"osm_id":"5041470670","tag":{"amenity":"recycling","recycling:cardboard":"yes","recycling:glass_bottles":"yes","recycling:paper":"yes","recycling:plastic":"yes","recycling:plastic_bottles":"yes","recycling:plastic_packaging":"yes","recycling_type":"container"}},"type":"Feature"},
	{"geometry":{"coordinates":[-0.500979,43.838619],"type":"Point"},"properties":{"osm_id":"5205809207","tag":{"amenity":"waste_disposal"}},"type":"Feature"},
	{"geometry":{"coordinates":[-0.497916,43.835704],"type":"Point"},"properties":{"osm_id":"5205809867","tag":{"amenity":"waste_disposal"}},"type":"Feature"},
	{"geometry":{"coordinates":[-0.515286,43.863266],"type":"Point"},"properties":{"name":"d\u00c3\u00a9chetterie St Pierre du Mont","osm_id":"5205813496","tag":{"addr:city":"Saint-Pierre-du-Mont","addr:postcode":"40280","amenity":"recycling","recycling:cans":"yes","recycling:clothes":"yes","recycling:glass":"yes","recycling:plastic_bottles":"yes","recycling_type":"centre"}},"type":"Feature"},
	{"geometry":{"coordinates":[-0.500968,43.838606],"type":"Point"},"properties":{"osm_id":"5205815756","tag":{"amenity":"recycling","recycling:cans":"yes","recycling:plastic":"yes","recycling:plastic_bottles":"yes","recycling:plastic_packaging":"yes","recycling_type":"container"}},"type":"Feature"},
	{"geometry":{"coordinates":[-0.4979,43.83572],"type":"Point"},"properties":{"osm_id":"5205820566","tag":{"amenity":"recycling","recycling:cans":"yes","recycling:glass_bottles":"yes","recycling:plastic":"yes","recycling:plastic_bottles":"yes","recycling:plastic_packaging":"yes","recycling_type":"container"}},"type":"Feature"},
	{"geometry":{"coordinates":[-0.500501,43.835545],"type":"Point"},"properties":{"osm_id":"5205824385","tag":{"amenity":"recycling","recycling:glass_bottles":"yes","recycling_type":"container"}},"type":"Feature"},
	{"geometry":{"coordinates":[-0.508327,43.893106],"type":"Point"},"properties":{"osm_id":"7444856255","tag":{"amenity":"recycling","recycling_type":"container"}},"type":"Feature"},
	{"geometry":{"coordinates":[-0.489482,43.890249],"type":"Point"},"properties":{"osm_id":"7470152255","tag":{"amenity":"waste_basket"}},"type":"Feature"},
	{"geometry":{"coordinates":[-0.490427,43.890065],"type":"Point"},"properties":{"osm_id":"7470152256","tag":{"amenity":"waste_basket"}},"type":"Feature"},
	{"geometry":{"coordinates":[-0.494575,43.889519],"type":"Point"},"properties":{"osm_id":"7470152257","tag":{"amenity":"waste_basket"}},"type":"Feature"},
	{"geometry":{"coordinates":[-0.49684,43.889866],"type":"Point"},"properties":{"osm_id":"7470152258","tag":{"amenity":"waste_basket"}},"type":"Feature"},
	{"geometry":{"coordinates":[-0.487362,43.890682],"type":"Point"},"properties":{"osm_id":"7470152260","tag":{"amenity":"waste_basket"}},"type":"Feature"},
	{"geometry":{"coordinates":[-0.485576,43.891115],"type":"Point"},"properties":{"osm_id":"7470152262","tag":{"amenity":"waste_basket"}},"type":"Feature"},
	{"geometry":{"coordinates":[-0.483824,43.89128],"type":"Point"},"properties":{"osm_id":"7470152264","tag":{"amenity":"waste_basket"}},"type":"Feature"},
	{"geometry":{"coordinates":[-0.499993,43.887537],"type":"Point"},"properties":{"osm_id":"7470192658","tag":{"amenity":"waste_basket"}},"type":"Feature"},
	{"geometry":{"coordinates":[-0.500281,43.888384],"type":"Point"},"properties":{"osm_id":"7470192659","tag":{"amenity":"waste_basket"}},"type":"Feature"},
	{"geometry":{"coordinates":[-0.500545,43.888209],"type":"Point"},"properties":{"osm_id":"7470192660","tag":{"amenity":"waste_basket"}},"type":"Feature"},
	{"geometry":{"coordinates":[-0.500349,43.887608],"type":"Point"},"properties":{"osm_id":"7470192661","tag":{"amenity":"waste_basket"}},"type":"Feature"},
	{"geometry":{"coordinates":[-0.500741,43.888804],"type":"Point"},"properties":{"osm_id":"7470195794","tag":{"amenity":"waste_basket"}},"type":"Feature"},
	{"geometry":{"coordinates":[-0.500827,43.889112],"type":"Point"},"properties":{"osm_id":"7470195795","tag":{"amenity":"recycling","recycling_type":"container"}},"type":"Feature"},
	{"geometry":{"coordinates":[-0.50117,43.890784],"type":"Point"},"properties":{"osm_id":"7470218376","tag":{"amenity":"waste_basket"}},"type":"Feature"},
	{"geometry":{"coordinates":[-0.500994,43.889435],"type":"Point"},"properties":{"osm_id":"7470235651","tag":{"amenity":"waste_basket"}},"type":"Feature"},
	{"geometry":{"coordinates":[-0.499037,43.886739],"type":"Point"},"properties":{"osm_id":"7503974608","tag":{"amenity":"waste_basket"}},"type":"Feature"},
	{"geometry":{"coordinates":[-0.488732,43.886734],"type":"Point"},"properties":{"osm_id":"7503982393","tag":{"amenity":"waste_basket"}},"type":"Feature"},
	{"geometry":{"coordinates":[-0.504697,43.887468],"type":"Point"},"properties":{"osm_id":"7504034676","tag":{"amenity":"waste_basket"}},"type":"Feature"},
	{"geometry":{"coordinates":[-0.506682,43.88823],"type":"Point"},"properties":{"osm_id":"7504034679","tag":{"amenity":"waste_basket"}},"type":"Feature"},
	{"geometry":{"coordinates":[-0.506894,43.888198],"type":"Point"},"properties":{"osm_id":"7504034680","tag":{"amenity":"waste_basket"}},"type":"Feature"},
	{"geometry":{"coordinates":[-0.49951,43.887027],"type":"Point"},"properties":{"osm_id":"7515536543","tag":{"amenity":"waste_basket"}},"type":"Feature"},
	{"geometry":{"coordinates":[-0.499752,43.887415],"type":"Point"},"properties":{"osm_id":"7515536544","tag":{"amenity":"waste_basket"}},"type":"Feature"},
	{"geometry":{"coordinates":[-0.49946,43.889092],"type":"Point"},"properties":{"osm_id":"7515536546","tag":{"amenity":"waste_basket"}},"type":"Feature"},
	{"geometry":{"coordinates":[-0.499178,43.889442],"type":"Point"},"properties":{"osm_id":"7515536548","tag":{"amenity":"waste_basket"}},"type":"Feature"},
	{"geometry":{"coordinates":[-0.499074,43.889576],"type":"Point"},"properties":{"osm_id":"7515536550","tag":{"amenity":"waste_basket"}},"type":"Feature"},
	{"geometry":{"coordinates":[-0.497959,43.889715],"type":"Point"},"properties":{"osm_id":"7515536551","tag":{"amenity":"waste_basket"}},"type":"Feature"},
	{"geometry":{"coordinates":[-0.497808,43.889713],"type":"Point"},"properties":{"osm_id":"7515536552","tag":{"amenity":"recycling","recycling_type":"container"}},"type":"Feature"},
	{"geometry":{"coordinates":[-0.497781,43.889717],"type":"Point"},"properties":{"osm_id":"7515536553","tag":{"amenity":"recycling","recycling_type":"container"}},"type":"Feature"},
	{"geometry":{"coordinates":[-0.497757,43.88972],"type":"Point"},"properties":{"osm_id":"7515536554","tag":{"amenity":"recycling","recycling_type":"container"}},"type":"Feature"},
	{"geometry":{"coordinates":[-0.497132,43.889791],"type":"Point"},"properties":{"osm_id":"7515611756","tag":{"amenity":"waste_basket"}},"type":"Feature"},
	{"geometry":{"coordinates":[-0.518609,43.88633],"type":"Point"},"properties":{"osm_id":"7523069376","tag":{"amenity":"waste_basket"}},"type":"Feature"},
	{"geometry":{"coordinates":[-0.518173,43.886295],"type":"Point"},"properties":{"osm_id":"7523069377","tag":{"amenity":"waste_basket"}},"type":"Feature"},
	{"geometry":{"coordinates":[-0.521546,43.885858],"type":"Point"},"properties":{"osm_id":"7523069379","tag":{"amenity":"waste_basket"}},"type":"Feature"},
	{"geometry":{"coordinates":[-0.523012,43.885552],"type":"Point"},"properties":{"osm_id":"7523069382","tag":{"amenity":"waste_basket"}},"type":"Feature"},
	{"geometry":{"coordinates":[-0.515337,43.886829],"type":"Point"},"properties":{"osm_id":"7523191319","tag":{"amenity":"waste_basket"}},"type":"Feature"},
	{"geometry":{"coordinates":[-0.512465,43.88727],"type":"Point"},"properties":{"osm_id":"7523191322","tag":{"amenity":"waste_basket"}},"type":"Feature"},
	{"geometry":{"coordinates":[-0.513831,43.887068],"type":"Point"},"properties":{"osm_id":"7523191324","tag":{"amenity":"waste_basket"}},"type":"Feature"},
	{"geometry":{"coordinates":[-0.513045,43.887201],"type":"Point"},"properties":{"osm_id":"7523191331","tag":{"amenity":"waste_basket"}},"type":"Feature"},
	{"geometry":{"coordinates":[-0.511555,43.887312],"type":"Point"},"properties":{"osm_id":"7523247780","tag":{"amenity":"waste_basket"}},"type":"Feature"},
	{"geometry":{"coordinates":[-0.510662,43.887567],"type":"Point"},"properties":{"osm_id":"7523247782","tag":{"amenity":"waste_basket"}},"type":"Feature"},
	{"geometry":{"coordinates":[-0.510444,43.887598],"type":"Point"},"properties":{"osm_id":"7523261785","tag":{"amenity":"waste_basket"}},"type":"Feature"},
	{"geometry":{"coordinates":[-0.509413,43.887753],"type":"Point"},"properties":{"osm_id":"7523261791","tag":{"amenity":"waste_basket"}},"type":"Feature"},
	{"geometry":{"coordinates":[-0.509017,43.887814],"type":"Point"},"properties":{"osm_id":"7523261792","tag":{"amenity":"waste_basket"}},"type":"Feature"},
	{"geometry":{"coordinates":[-0.505947,43.888199],"type":"Point"},"properties":{"osm_id":"7523286638","tag":{"amenity":"waste_basket"}},"type":"Feature"},
	{"geometry":{"coordinates":[-0.504373,43.887511],"type":"Point"},"properties":{"osm_id":"7523286652","tag":{"amenity":"waste_basket"}},"type":"Feature"},
	{"geometry":{"coordinates":[-0.503106,43.88729],"type":"Point"},"properties":{"osm_id":"7523286653","tag":{"amenity":"waste_basket"}},"type":"Feature"},
	{"geometry":{"coordinates":[-0.502194,43.887231],"type":"Point"},"properties":{"osm_id":"7523286654","tag":{"amenity":"waste_basket"}},"type":"Feature"},
	{"geometry":{"coordinates":[-0.501619,43.891495],"type":"Point"},"properties":{"osm_id":"7523341426","tag":{"amenity":"waste_basket"}},"type":"Feature"},
	{"geometry":{"coordinates":[-0.501621,43.891789],"type":"Point"},"properties":{"osm_id":"7523341427","tag":{"amenity":"waste_basket"}},"type":"Feature"},
	{"geometry":{"coordinates":[-0.50188,43.891878],"type":"Point"},"properties":{"osm_id":"7523341429","tag":{"amenity":"waste_basket"}},"type":"Feature"},
	{"geometry":{"coordinates":[-0.502046,43.892171],"type":"Point"},"properties":{"osm_id":"7523341430","tag":{"amenity":"waste_basket"}},"type":"Feature"},
	{"geometry":{"coordinates":[-0.502322,43.892364],"type":"Point"},"properties":{"osm_id":"7523341432","tag":{"amenity":"waste_basket"}},"type":"Feature"},
	{"geometry":{"coordinates":[-0.502557,43.892536],"type":"Point"},"properties":{"osm_id":"7523341433","tag":{"amenity":"waste_basket"}},"type":"Feature"},
	{"geometry":{"coordinates":[-0.50263,43.892747],"type":"Point"},"properties":{"osm_id":"7523341434","tag":{"amenity":"waste_basket"}},"type":"Feature"},
	{"geometry":{"coordinates":[-0.489195,43.888452],"type":"Point"},"properties":{"osm_id":"7525934873","tag":{"amenity":"recycling","recycling_type":"container"}},"type":"Feature"},
	{"geometry":{"coordinates":[-0.489187,43.888366],"type":"Point"},"properties":{"osm_id":"7525934875","tag":{"amenity":"waste_basket"}},"type":"Feature"},
	{"geometry":{"coordinates":[-0.502505,43.896017],"type":"Point"},"properties":{"osm_id":"7529521071","tag":{"amenity":"recycling","recycling_type":"container"}},"type":"Feature"},
	{"geometry":{"coordinates":[-0.519234,43.881695],"type":"Point"},"properties":{"osm_id":"7553420165","tag":{"amenity":"recycling","recycling_type":"container"}},"type":"Feature"},
	{"geometry":{"coordinates":[-0.499452,43.89044],"type":"Point"},"properties":{"osm_id":"7590460847","tag":{"amenity":"waste_basket"}},"type":"Feature"},
	{"geometry":{"coordinates":[-0.5042,43.890113],"type":"Point"},"properties":{"osm_id":"7593363393","tag":{"amenity":"waste_basket"}},"type":"Feature"},
	{"geometry":{"coordinates":[-0.504524,43.889836],"type":"Point"},"properties":{"osm_id":"7593363394","tag":{"amenity":"waste_basket"}},"type":"Feature"},
	{"geometry":{"coordinates":[-0.503744,43.89037],"type":"Point"},"properties":{"osm_id":"7593363399","tag":{"amenity":"waste_basket"}},"type":"Feature"},
	{"geometry":{"coordinates":[-0.501827,43.89228],"type":"Point"},"properties":{"osm_id":"7593363408","tag":{"amenity":"waste_basket"}},"type":"Feature"},
	{"geometry":{"coordinates":[-0.501681,43.892367],"type":"Point"},"properties":{"osm_id":"7593363409","tag":{"amenity":"waste_basket"}},"type":"Feature"},
	{"geometry":{"coordinates":[-0.501452,43.891191],"type":"Point"},"properties":{"osm_id":"7593363410","tag":{"amenity":"waste_basket"}},"type":"Feature"},
	{"geometry":{"coordinates":[-0.499925,43.891188],"type":"Point"},"properties":{"osm_id":"7593363413","tag":{"amenity":"waste_basket"}},"type":"Feature"},
	{"geometry":{"coordinates":[-0.500015,43.8914],"type":"Point"},"properties":{"osm_id":"7593363414","tag":{"amenity":"waste_basket"}},"type":"Feature"},
	{"geometry":{"coordinates":[-0.499426,43.89121],"type":"Point"},"properties":{"osm_id":"7593363434","tag":{"amenity":"waste_basket"}},"type":"Feature"},
	{"geometry":{"coordinates":[-0.499347,43.890726],"type":"Point"},"properties":{"osm_id":"7593363443","tag":{"amenity":"waste_basket"}},"type":"Feature"},
	{"geometry":{"coordinates":[-0.507329,43.888784],"type":"Point"},"properties":{"osm_id":"7595653146","tag":{"amenity":"recycling","recycling_type":"container"}},"type":"Feature"},
	{"geometry":{"coordinates":[-0.503803,43.887749],"type":"Point"},"properties":{"osm_id":"7595716824","tag":{"amenity":"recycling","recycling_type":"container"}},"type":"Feature"},
	{"geometry":{"coordinates":[-0.504414,43.889506],"type":"Point"},"properties":{"osm_id":"7596149924","tag":{"amenity":"waste_basket"}},"type":"Feature"},
	{"geometry":{"coordinates":[-0.504711,43.889141],"type":"Point"},"properties":{"osm_id":"7596149925","tag":{"amenity":"waste_basket"}},"type":"Feature"},
	{"geometry":{"coordinates":[-0.503634,43.888043],"type":"Point"},"properties":{"osm_id":"7596153390","tag":{"amenity":"waste_basket"}},"type":"Feature"},
	{"geometry":{"coordinates":[-0.503381,43.888178],"type":"Point"},"properties":{"osm_id":"7596153394","tag":{"amenity":"waste_basket"}},"type":"Feature"},
	{"geometry":{"coordinates":[-0.503007,43.888637],"type":"Point"},"properties":{"osm_id":"7596153397","tag":{"amenity":"waste_basket"}},"type":"Feature"},
	{"geometry":{"coordinates":[-0.506722,43.888845],"type":"Point"},"properties":{"osm_id":"7596156439","tag":{"amenity":"waste_basket"}},"type":"Feature"},
	{"geometry":{"coordinates":[-0.504787,43.889769],"type":"Point"},"properties":{"osm_id":"7596156443","tag":{"amenity":"waste_basket"}},"type":"Feature"},
	{"geometry":{"coordinates":[-0.504217,43.890193],"type":"Point"},"properties":{"osm_id":"7596156444","tag":{"amenity":"waste_basket"}},"type":"Feature"},
	{"geometry":{"coordinates":[-0.508597,43.889313],"type":"Point"},"properties":{"osm_id":"7596156446","tag":{"amenity":"waste_basket"}},"type":"Feature"},
	{"geometry":{"coordinates":[-0.502404,43.889312],"type":"Point"},"properties":{"osm_id":"7596160660","tag":{"amenity":"waste_basket"}},"type":"Feature"},
	{"geometry":{"coordinates":[-0.502662,43.88904],"type":"Point"},"properties":{"osm_id":"7596160662","tag":{"amenity":"waste_basket"}},"type":"Feature"},
	{"geometry":{"coordinates":[-0.502702,43.88956],"type":"Point"},"properties":{"osm_id":"7596160663","tag":{"amenity":"waste_basket"}},"type":"Feature"},
	{"geometry":{"coordinates":[-0.503412,43.889564],"type":"Point"},"properties":{"osm_id":"7596160665","tag":{"amenity":"waste_basket"}},"type":"Feature"},
	{"geometry":{"coordinates":[-0.505819,43.888645],"type":"Point"},"properties":{"osm_id":"7596801350","tag":{"amenity":"waste_basket"}},"type":"Feature"},
	{"geometry":{"coordinates":[-0.505198,43.887853],"type":"Point"},"properties":{"osm_id":"7644297758","tag":{"amenity":"waste_basket"}},"type":"Feature"},
	{"geometry":{"coordinates":[-0.50467,43.887587],"type":"Point"},"properties":{"osm_id":"7644297759","tag":{"amenity":"waste_basket"}},"type":"Feature"},
	{"geometry":{"coordinates":[-0.507065,43.888471],"type":"Point"},"properties":{"osm_id":"7644297760","tag":{"amenity":"waste_basket"}},"type":"Feature"},
	{"geometry":{"coordinates":[-0.506679,43.889747],"type":"Point"},"properties":{"osm_id":"7644297770","tag":{"amenity":"waste_basket"}},"type":"Feature"},
	{"geometry":{"coordinates":[-0.505298,43.891746],"type":"Point"},"properties":{"osm_id":"7644324494","tag":{"amenity":"waste_basket"}},"type":"Feature"},
	{"geometry":{"coordinates":[-0.50492,43.891644],"type":"Point"},"properties":{"osm_id":"7644324497","tag":{"amenity":"waste_basket"}},"type":"Feature"},
	{"geometry":{"coordinates":[-0.505231,43.891551],"type":"Point"},"properties":{"osm_id":"7644324498","tag":{"amenity":"waste_basket"}},"type":"Feature"},
	{"geometry":{"coordinates":[-0.502278,43.891013],"type":"Point"},"properties":{"osm_id":"7644442391","tag":{"amenity":"waste_basket"}},"type":"Feature"},
	{"geometry":{"coordinates":[-0.499903,43.890406],"type":"Point"},"properties":{"osm_id":"7644442395","tag":{"amenity":"waste_basket"}},"type":"Feature"},
	{"geometry":{"coordinates":[-0.499802,43.890352],"type":"Point"},"properties":{"osm_id":"7644442396","tag":{"amenity":"waste_basket"}},"type":"Feature"},
	{"geometry":{"coordinates":[-0.494331,43.878614],"type":"Point"},"properties":{"osm_id":"7647320956","tag":{"amenity":"recycling","recycling_type":"container"}},"type":"Feature"},
	{"geometry":{"coordinates":[-0.489464,43.878198],"type":"Point"},"properties":{"osm_id":"7647342424","tag":{"amenity":"waste_basket"}},"type":"Feature"},
	{"geometry":{"coordinates":[-0.476866,43.882224],"type":"Point"},"properties":{"osm_id":"7656120194","tag":{"amenity":"waste_basket"}},"type":"Feature"},
	{"geometry":{"coordinates":[-0.459081,43.846796],"type":"Point"},"properties":{"osm_id":"7667697220","tag":{"amenity":"recycling","recycling_type":"container"}},"type":"Feature"},
	{"geometry":{"coordinates":[-0.49961,43.88682],"type":"Point"},"properties":{"osm_id":"7747158293","tag":{"amenity":"recycling","recycling_type":"container"}},"type":"Feature"},
	{"geometry":{"coordinates":[-0.518523,43.882486],"type":"Point"},"properties":{"osm_id":"7881760729","tag":{"amenity":"recycling","recycling_type":"container"}},"type":"Feature"},
	{"geometry":{"coordinates":[-0.518673,43.882383],"type":"Point"},"properties":{"osm_id":"7881760730","tag":{"amenity":"recycling","recycling_type":"container"}},"type":"Feature"}
]
}
