{
"type": "FeatureCollection",
"features": [
	{"geometry":{"coordinates":[-0.5019,43.153506],"type":"Point"},"properties":{"osm_id":"7945524867","tag":{"amenity":"recycling","recycling:clothes":"yes","recycling_type":"container"}},"type":"Feature"},
	{"geometry":{"coordinates":[-0.501874,43.153548],"type":"Point"},"properties":{"osm_id":"7945524868","tag":{"amenity":"recycling","recycling:glass":"yes","recycling:glass_bottles":"yes","recycling_type":"container"}},"type":"Feature"},
	{"geometry":{"coordinates":[-0.495004,43.154284],"type":"Point"},"properties":{"osm_id":"7945542437","tag":{"amenity":"waste_disposal","waste":"trash"}},"type":"Feature"},
	{"geometry":{"coordinates":[-0.49505,43.154307],"type":"Point"},"properties":{"osm_id":"7945542438","tag":{"amenity":"recycling","recycling:plastic":"yes","recycling:plastic_bottles":"yes","recycling_type":"container"}},"type":"Feature"},
	{"geometry":{"coordinates":[-0.507461,43.145135],"type":"Point"},"properties":{"osm_id":"7948923438","tag":{"amenity":"recycling","recycling:glass":"yes","recycling:glass_bottles":"yes","recycling_type":"container"}},"type":"Feature"},
	{"geometry":{"coordinates":[-0.501922,43.153483],"type":"Point"},"properties":{"name":"Container poubelles","osm_id":"8308564548","tag":{"amenity":"waste_disposal","fee":"no","operator":"Ville de Ogeu-les-Bains","water_point":"yes"}},"type":"Feature"}
]
}
