{
"type": "FeatureCollection",
"features": [
	{"geometry":{"coordinates":[9.419098,54.827092],"type":"Point"},"properties":{"osm_id":"858476779","tag":{"amenity":"recycling","opening_hours":"Mo-Sa 07:00-20:00","recycling:glass_bottles":"yes","recycling_type":"container","wheelchair":"limited"}},"type":"Feature"},
	{"geometry":{"coordinates":[9.479621,54.852481],"type":"Point"},"properties":{"osm_id":"5777698860","tag":{"amenity":"waste_basket"}},"type":"Feature"},
	{"geometry":{"coordinates":[9.41921,54.827016],"type":"Point"},"properties":{"osm_id":"7793941388","tag":{"amenity":"waste_basket","waste":"trash"}},"type":"Feature"},
	{"geometry":{"coordinates":[9.419132,54.827081],"type":"Point"},"properties":{"osm_id":"7793941390","tag":{"amenity":"waste_basket","waste":"trash"}},"type":"Feature"},
	{"geometry":{"coordinates":[9.419671,54.831721],"type":"Point"},"properties":{"osm_id":"8280064301","tag":{"amenity":"waste_basket"}},"type":"Feature"},
	{"geometry":{"coordinates":[9.414738,54.836349],"type":"Point"},"properties":{"osm_id":"9116007470","tag":{"amenity":"waste_basket","waste":"trash"}},"type":"Feature"},
	{"geometry":{"coordinates":[9.413687,54.835726],"type":"Point"},"properties":{"osm_id":"9116007477","tag":{"amenity":"waste_basket","waste":"trash"}},"type":"Feature"}
]
}
