{
"type": "FeatureCollection",
"features": [
	{"geometry":{"coordinates":[9.486801,53.910094],"type":"Point"},"properties":{"osm_id":"342924930","tag":{"amenity":"recycling","recycling:clothes":"yes","recycling:glass_bottles":"yes","recycling:shoes":"yes","recycling_type":"container"}},"type":"Feature"},
	{"geometry":{"coordinates":[9.483097,53.908705],"type":"Point"},"properties":{"osm_id":"549793503","tag":{"amenity":"recycling","recycling:clothes":"yes","recycling:glass_bottles":"yes","recycling:shoes":"yes","recycling_type":"container"}},"type":"Feature"},
	{"geometry":{"coordinates":[9.481504,53.904485],"type":"Point"},"properties":{"osm_id":"1360443084","tag":{"amenity":"waste_basket"}},"type":"Feature"},
	{"geometry":{"coordinates":[9.472424,53.905348],"type":"Point"},"properties":{"osm_id":"1389586882","tag":{"amenity":"waste_basket"}},"type":"Feature"},
	{"geometry":{"coordinates":[9.485754,53.93433],"type":"Point"},"properties":{"osm_id":"4875893756","tag":{"amenity":"recycling","recycling:clothes":"yes","recycling:shoes":"yes","recycling_type":"container"}},"type":"Feature"},
	{"geometry":{"coordinates":[9.45857,53.953579],"type":"Point"},"properties":{"osm_id":"5899106593","tag":{"amenity":"recycling","recycling:clothes":"yes","recycling:glass_bottles":"yes","recycling_type":"container"}},"type":"Feature"},
	{"geometry":{"coordinates":[9.458831,53.948178],"type":"Point"},"properties":{"osm_id":"6412172240","tag":{"amenity":"recycling","recycling:clothes":"yes","recycling:glass_bottles":"yes","recycling:shoes":"yes","recycling_type":"container"}},"type":"Feature"},
	{"geometry":{"coordinates":[9.424991,53.90707],"type":"Point"},"properties":{"osm_id":"6416576831","tag":{"amenity":"waste_basket","waste":"trash"}},"type":"Feature"},
	{"geometry":{"coordinates":[9.475259,53.908325],"type":"Point"},"properties":{"osm_id":"7947996483","tag":{"amenity":"waste_basket"}},"type":"Feature"},
	{"geometry":{"coordinates":[9.475159,53.908095],"type":"Point"},"properties":{"osm_id":"7947996484","tag":{"amenity":"waste_basket"}},"type":"Feature"},
	{"geometry":{"coordinates":[9.475634,53.907031],"type":"Point"},"properties":{"osm_id":"7948081720","tag":{"amenity":"waste_basket"}},"type":"Feature"},
	{"geometry":{"coordinates":[9.473429,53.907041],"type":"Point"},"properties":{"osm_id":"7948081733","tag":{"amenity":"waste_basket"}},"type":"Feature"},
	{"geometry":{"coordinates":[9.474161,53.906238],"type":"Point"},"properties":{"osm_id":"7948081748","tag":{"amenity":"waste_basket"}},"type":"Feature"}
]
}
