{
"type": "FeatureCollection",
"features": [
	{"geometry":{"coordinates":[9.43551,53.797485],"type":"Point"},"properties":{"osm_id":"336250175","tag":{"amenity":"recycling","recycling:clothes":"yes","recycling:glass_bottles":"yes","recycling_type":"container"}},"type":"Feature"},
	{"geometry":{"coordinates":[9.412874,53.794684],"type":"Point"},"properties":{"osm_id":"339448029","tag":{"amenity":"recycling","recycling:clothes":"yes","recycling:glass_bottles":"yes","recycling_type":"container"}},"type":"Feature"},
	{"geometry":{"coordinates":[9.41786,53.791236],"type":"Point"},"properties":{"osm_id":"343370736","tag":{"amenity":"recycling","recycling:clothes":"yes","recycling:glass_bottles":"yes","recycling_type":"container"}},"type":"Feature"},
	{"geometry":{"coordinates":[9.430848,53.788104],"type":"Point"},"properties":{"osm_id":"344135264","tag":{"amenity":"recycling","recycling:clothes":"yes","recycling:glass_bottles":"yes","recycling_type":"container"}},"type":"Feature"},
	{"geometry":{"coordinates":[9.436922,53.784076],"type":"Point"},"properties":{"osm_id":"394824567","tag":{"amenity":"recycling","recycling:clothes":"yes","recycling:glass_bottles":"yes","recycling_type":"container"}},"type":"Feature"},
	{"geometry":{"coordinates":[9.477427,53.761187],"type":"Point"},"properties":{"osm_id":"566225291","tag":{"amenity":"recycling","recycling:clothes":"yes","recycling:glass_bottles":"yes","recycling_type":"container"}},"type":"Feature"},
	{"geometry":{"coordinates":[9.424693,53.800565],"type":"Point"},"properties":{"osm_id":"749392791","tag":{"amenity":"recycling","recycling:clothes":"yes","recycling:glass_bottles":"yes","recycling_type":"container"}},"type":"Feature"},
	{"geometry":{"coordinates":[9.439717,53.774804],"type":"Point"},"properties":{"name":"Wertstoffhof Gl\u00c3\u00bcckstadt","osm_id":"1185999145","tag":{"addr:city":"Gl\u00c3\u00bcckstadt","addr:housenumber":"8","addr:postcode":"25348","addr:street":"Schmiedestra\u00c3\u009fe","amenity":"recycling","opening_hours":"Tu-Fr 08:00-17:00; week 2-52/2 Sa 08:00-14:00","phone":"+49 4124 60 43 85","recycling:batteries":"yes","recycling:clothes":"yes","recycling:computers":"yes","recycling:electrical_items":"yes","recycling:fluorescent_tubes":"yes","recycling:garden_waste":"yes","recycling:glass":"yes","recycling:low_energy_bulbs":"yes","recycling:mobile_phones":"yes","recycling:paper":"yes","recycling:printer_cartridges":"yes","recycling:scrap_metal":"yes","recycling_type":"centre","wheelchair":"yes"}},"type":"Feature"},
	{"geometry":{"coordinates":[9.480719,53.787813],"type":"Point"},"properties":{"osm_id":"1337304097","tag":{"amenity":"recycling","recycling:clothes":"yes","recycling:glass_bottles":"yes","recycling_type":"container"}},"type":"Feature"},
	{"geometry":{"coordinates":[9.435314,53.790059],"type":"Point"},"properties":{"osm_id":"1348265346","tag":{"amenity":"recycling","recycling:clothes":"yes","recycling:glass_bottles":"yes","recycling_type":"container"}},"type":"Feature"},
	{"geometry":{"coordinates":[9.484993,53.78689],"type":"Point"},"properties":{"osm_id":"1354624870","tag":{"amenity":"waste_basket"}},"type":"Feature"},
	{"geometry":{"coordinates":[9.48248,53.788714],"type":"Point"},"properties":{"osm_id":"1354624891","tag":{"amenity":"waste_basket"}},"type":"Feature"},
	{"geometry":{"coordinates":[9.427298,53.786092],"type":"Point"},"properties":{"osm_id":"4111744556","tag":{"amenity":"recycling","recycling:clothes":"yes","recycling:glass_bottles":"yes","recycling_type":"container"}},"type":"Feature"},
	{"geometry":{"coordinates":[9.484941,53.781981],"type":"Point"},"properties":{"osm_id":"5235000198","tag":{"amenity":"waste_basket"}},"type":"Feature"},
	{"geometry":{"coordinates":[9.48618,53.782312],"type":"Point"},"properties":{"osm_id":"5235000200","tag":{"amenity":"waste_basket"}},"type":"Feature"},
	{"geometry":{"coordinates":[9.407842,53.799707],"type":"Point"},"properties":{"osm_id":"6794622859","tag":{"amenity":"waste_basket"}},"type":"Feature"},
	{"geometry":{"coordinates":[9.413727,53.788094],"type":"Point"},"properties":{"osm_id":"6795543623","tag":{"amenity":"waste_basket"}},"type":"Feature"},
	{"geometry":{"coordinates":[9.409213,53.797054],"type":"Point"},"properties":{"osm_id":"6795543629","tag":{"amenity":"waste_basket"}},"type":"Feature"}
]
}
