{
"type": "FeatureCollection",
"features": [
	{"geometry":{"coordinates":[9.419413,53.594544],"type":"Point"},"properties":{"osm_id":"581148607","tag":{"amenity":"recycling","location":"overground","recycling:clothes":"yes","recycling:glass_bottles":"yes","recycling:paper":"yes","recycling:shoes":"yes","recycling_type":"container"}},"type":"Feature"},
	{"geometry":{"coordinates":[9.413285,53.599184],"type":"Point"},"properties":{"osm_id":"603229069","tag":{"amenity":"recycling","location":"underground","recycling:glass_bottles":"yes","recycling:paper":"yes","recycling_type":"container"}},"type":"Feature"},
	{"geometry":{"coordinates":[9.426543,53.595125],"type":"Point"},"properties":{"osm_id":"667450864","tag":{"amenity":"recycling","recycling:clothes":"yes","recycling:glass_bottles":"yes","recycling:paper":"yes","recycling:shoes":"yes","recycling_type":"container"}},"type":"Feature"},
	{"geometry":{"coordinates":[9.420605,53.594215],"type":"Point"},"properties":{"osm_id":"1725336467","tag":{"amenity":"recycling","recycling:clothes":"yes","recycling_type":"container"}},"type":"Feature"},
	{"geometry":{"coordinates":[9.472812,53.59466],"type":"Point"},"properties":{"osm_id":"1886669837","tag":{"amenity":"recycling","check_date:recycling":"2020-12-02","recycling:glass_bottles":"yes","recycling_type":"container"}},"type":"Feature"},
	{"geometry":{"coordinates":[9.469602,53.595445],"type":"Point"},"properties":{"osm_id":"2876924432","tag":{"amenity":"recycling","operator":"AWO","recycling:clothes":"yes","recycling:shoes":"yes","recycling_type":"container"}},"type":"Feature"},
	{"geometry":{"coordinates":[9.474525,53.61108],"type":"Point"},"properties":{"osm_id":"3134080122","tag":{"amenity":"recycling","recycling:clothes":"yes","recycling:glass_bottles":"yes","recycling:paper":"yes","recycling_type":"container"}},"type":"Feature"},
	{"geometry":{"coordinates":[9.432872,53.59617],"type":"Point"},"properties":{"osm_id":"3763192781","tag":{"amenity":"recycling","check_date":"2021-07-13","recycling:clothes":"yes","recycling:glass_bottles":"yes","recycling:paper":"yes","recycling_type":"container"}},"type":"Feature"},
	{"geometry":{"coordinates":[9.488035,53.600609],"type":"Point"},"properties":{"osm_id":"3763192787","tag":{"amenity":"recycling","recycling:glass_bottles":"yes","recycling:paper":"yes","recycling_type":"container"}},"type":"Feature"},
	{"geometry":{"coordinates":[9.474539,53.605241],"type":"Point"},"properties":{"osm_id":"4582274725","tag":{"amenity":"recycling","recycling:clothes":"yes","recycling_type":"container"}},"type":"Feature"},
	{"geometry":{"coordinates":[9.465665,53.595473],"type":"Point"},"properties":{"osm_id":"4802878463","tag":{"amenity":"recycling","check_date:recycling":"2021-02-21","operator":"Loop","recycling:clothes":"yes","recycling_type":"container"}},"type":"Feature"},
	{"geometry":{"coordinates":[9.465051,53.595329],"type":"Point"},"properties":{"osm_id":"4802878464","tag":{"amenity":"recycling","brand":"Deutsches Rotes Kreuz","operator":"DRK-Kreisverband Stade gGmbH","phone":"+49414180330","recycling:clothes":"yes","recycling_type":"container","website":"https://www.kv-stade.drk.de"}},"type":"Feature"},
	{"geometry":{"coordinates":[9.449322,53.602782],"type":"Point"},"properties":{"osm_id":"4802950145","tag":{"amenity":"recycling","recycling:clothes":"yes","recycling:glass_bottles":"yes","recycling:paper":"yes","recycling:shoes":"yes","recycling_type":"container"}},"type":"Feature"},
	{"geometry":{"coordinates":[9.447761,53.599898],"type":"Point"},"properties":{"osm_id":"4802950146","tag":{"amenity":"recycling","check_date":"2021-07-13","recycling:clothes":"yes","recycling:glass_bottles":"yes","recycling_type":"container"}},"type":"Feature"},
	{"geometry":{"coordinates":[9.481232,53.602524],"type":"Point"},"properties":{"osm_id":"4823617162","tag":{"amenity":"recycling","recycling:glass_bottles":"yes","recycling_type":"container"}},"type":"Feature"},
	{"geometry":{"coordinates":[9.473091,53.608821],"type":"Point"},"properties":{"osm_id":"4823617164","tag":{"amenity":"recycling","recycling:paper":"yes","recycling_type":"container"}},"type":"Feature"},
	{"geometry":{"coordinates":[9.449979,53.608034],"type":"Point"},"properties":{"osm_id":"5099342176","tag":{"amenity":"recycling","recycling:clothes":"yes","recycling:glass_bottles":"yes","recycling_type":"container"}},"type":"Feature"},
	{"geometry":{"coordinates":[9.480023,53.599118],"type":"Point"},"properties":{"osm_id":"5653626345","tag":{"amenity":"recycling","recycling:clothes":"yes","recycling:shoes":"yes","recycling_type":"container"}},"type":"Feature"},
	{"geometry":{"coordinates":[9.466585,53.602617],"type":"Point"},"properties":{"osm_id":"6032743608","tag":{"amenity":"waste_disposal"}},"type":"Feature"},
	{"geometry":{"coordinates":[9.476832,53.598329],"type":"Point"},"properties":{"osm_id":"6077505249","tag":{"amenity":"recycling","recycling:clothes":"yes","recycling:glass_bottles":"yes","recycling:shoes":"yes","recycling_type":"container"}},"type":"Feature"},
	{"geometry":{"coordinates":[9.429158,53.596884],"type":"Point"},"properties":{"osm_id":"6178987394","tag":{"amenity":"recycling","check_date:recycling":"2021-07-13","recycling:clothes":"yes","recycling_type":"container"}},"type":"Feature"},
	{"geometry":{"coordinates":[9.422527,53.598348],"type":"Point"},"properties":{"osm_id":"6180282215","tag":{"amenity":"recycling","recycling:clothes":"yes","recycling:glass_bottles":"yes","recycling:paper":"yes","recycling_type":"container"}},"type":"Feature"},
	{"geometry":{"coordinates":[9.422533,53.59824],"type":"Point"},"properties":{"osm_id":"6180282216","tag":{"amenity":"recycling","operator":"Johanniter","recycling:clothes":"yes","recycling_type":"container"}},"type":"Feature"},
	{"geometry":{"coordinates":[9.422729,53.59863],"type":"Point"},"properties":{"osm_id":"6180282217","tag":{"amenity":"recycling","recycling:clothes":"yes","recycling_type":"container"}},"type":"Feature"},
	{"geometry":{"coordinates":[9.475256,53.600018],"type":"Point"},"properties":{"osm_id":"6802383516","tag":{"amenity":"waste_basket","waste":"trash"}},"type":"Feature"},
	{"geometry":{"coordinates":[9.475224,53.600677],"type":"Point"},"properties":{"osm_id":"6802383518","tag":{"amenity":"waste_basket","waste":"trash"}},"type":"Feature"},
	{"geometry":{"coordinates":[9.476907,53.603883],"type":"Point"},"properties":{"osm_id":"6802383526","tag":{"amenity":"waste_basket","waste":"trash"}},"type":"Feature"},
	{"geometry":{"coordinates":[9.4761,53.603599],"type":"Point"},"properties":{"osm_id":"6802383527","tag":{"amenity":"waste_basket","waste":"trash"}},"type":"Feature"},
	{"geometry":{"coordinates":[9.476077,53.601075],"type":"Point"},"properties":{"osm_id":"6802383535","tag":{"amenity":"waste_basket","waste":"trash"}},"type":"Feature"},
	{"geometry":{"coordinates":[9.47482,53.601043],"type":"Point"},"properties":{"osm_id":"6802383536","tag":{"amenity":"waste_basket","waste":"trash"}},"type":"Feature"},
	{"geometry":{"coordinates":[9.473921,53.601419],"type":"Point"},"properties":{"osm_id":"6802383537","tag":{"amenity":"waste_basket","waste":"trash"}},"type":"Feature"},
	{"geometry":{"coordinates":[9.473196,53.601526],"type":"Point"},"properties":{"osm_id":"6802383538","tag":{"amenity":"waste_basket","waste":"trash"}},"type":"Feature"},
	{"geometry":{"coordinates":[9.475297,53.599793],"type":"Point"},"properties":{"osm_id":"6803765537","tag":{"amenity":"recycling","check_date:recycling":"2021-07-13","location":"underground","recycling:glass_bottles":"yes","recycling:paper":"yes","recycling_type":"container"}},"type":"Feature"},
	{"geometry":{"coordinates":[9.456083,53.598356],"type":"Point"},"properties":{"osm_id":"7671806970","tag":{"amenity":"waste_basket","waste":"trash"}},"type":"Feature"},
	{"geometry":{"coordinates":[9.46526,53.597728],"type":"Point"},"properties":{"osm_id":"7671836447","tag":{"amenity":"waste_basket","waste":"trash"}},"type":"Feature"},
	{"geometry":{"coordinates":[9.46434,53.597664],"type":"Point"},"properties":{"osm_id":"7671836449","tag":{"amenity":"waste_basket","waste":"trash"}},"type":"Feature"},
	{"geometry":{"coordinates":[9.460056,53.600181],"type":"Point"},"properties":{"osm_id":"7671836450","tag":{"amenity":"waste_basket","waste":"trash"}},"type":"Feature"},
	{"geometry":{"coordinates":[9.460446,53.593069],"type":"Point"},"properties":{"osm_id":"7725471904","tag":{"amenity":"waste_basket","waste":"trash"}},"type":"Feature"},
	{"geometry":{"coordinates":[9.463026,53.593627],"type":"Point"},"properties":{"osm_id":"7725471905","tag":{"amenity":"waste_basket","waste":"trash"}},"type":"Feature"},
	{"geometry":{"coordinates":[9.464168,53.594322],"type":"Point"},"properties":{"osm_id":"7725471906","tag":{"amenity":"waste_basket","waste":"trash"}},"type":"Feature"},
	{"geometry":{"coordinates":[9.464206,53.594842],"type":"Point"},"properties":{"osm_id":"7725471907","tag":{"amenity":"waste_basket","waste":"trash"}},"type":"Feature"},
	{"geometry":{"coordinates":[9.473831,53.601784],"type":"Point"},"properties":{"osm_id":"7725980185","tag":{"amenity":"waste_basket"}},"type":"Feature"}
]
}
