{
"type": "FeatureCollection",
"features": [
	{"geometry":{"coordinates":[9.460907,52.509583],"type":"Point"},"properties":{"osm_id":"493899442","tag":{"amenity":"recycling","recycling_type":"container"}},"type":"Feature"},
	{"geometry":{"coordinates":[9.455859,52.500497],"type":"Point"},"properties":{"osm_id":"550422816","tag":{"amenity":"recycling"}},"type":"Feature"},
	{"geometry":{"coordinates":[9.480664,52.507259],"type":"Point"},"properties":{"barrier":"gate","osm_id":"2101937851"},"type":"Feature"},
	{"geometry":{"coordinates":[9.481126,52.507611],"type":"Point"},"properties":{"barrier":"gate","osm_id":"2101937853"},"type":"Feature"},
	{"geometry":{"coordinates":[9.45471,52.499339],"type":"Point"},"properties":{"osm_id":"2885490704","tag":{"amenity":"recycling","recycling_type":"container"}},"type":"Feature"},
	{"geometry":{"coordinates":[9.455234,52.502841],"type":"Point"},"properties":{"osm_id":"2885490729","tag":{"amenity":"waste_basket"}},"type":"Feature"},
	{"geometry":{"coordinates":[9.453496,52.484436],"type":"Point"},"properties":{"name":"Deneke Recycling - Schrott- Metall- & Containerdienst GmbH","osm_id":"4371118197","tag":{"addr:city":"Neustadt am R\u00c3\u00bcbenberge","addr:housenumber":"8","addr:postcode":"31535","addr:street":"Moordorfer Stra\u00c3\u009fe","amenity":"recycling","contact:email":"info@deneke-recycling.de","opening_hours":"Mo-Fr 09:00-18:00, Sa 09:00-14:00","phone":"+49 5032 61001","recycling_type":"centre","website":"https://www.deneke-recycling.de/"}},"type":"Feature"}
]
}
