{
"type": "FeatureCollection",
"features": [
	{"geometry":{"coordinates":[9.449216,52.413263],"type":"Point"},"properties":{"osm_id":"789305535","tag":{"amenity":"waste_basket"}},"type":"Feature"},
	{"geometry":{"coordinates":[9.449615,52.413292],"type":"Point"},"properties":{"osm_id":"789305537","tag":{"amenity":"waste_basket"}},"type":"Feature"},
	{"geometry":{"coordinates":[9.449449,52.414256],"type":"Point"},"properties":{"osm_id":"789305539","tag":{"amenity":"waste_basket"}},"type":"Feature"},
	{"geometry":{"coordinates":[9.450373,52.413439],"type":"Point"},"properties":{"osm_id":"789305541","tag":{"amenity":"waste_basket"}},"type":"Feature"},
	{"geometry":{"coordinates":[9.450797,52.414118],"type":"Point"},"properties":{"osm_id":"789305543","tag":{"amenity":"waste_basket"}},"type":"Feature"},
	{"geometry":{"coordinates":[9.44945,52.414874],"type":"Point"},"properties":{"osm_id":"789305545","tag":{"amenity":"waste_basket"}},"type":"Feature"},
	{"geometry":{"coordinates":[9.450587,52.414563],"type":"Point"},"properties":{"osm_id":"789305547","tag":{"amenity":"waste_basket"}},"type":"Feature"},
	{"geometry":{"coordinates":[9.454377,52.414024],"type":"Point"},"properties":{"osm_id":"963783991","tag":{"amenity":"recycling"}},"type":"Feature"},
	{"geometry":{"coordinates":[9.477968,52.424702],"type":"Point"},"properties":{"osm_id":"1716410558","tag":{"amenity":"recycling","opening_hours":"24/7","recycling:glass":"yes","recycling:paper":"yes","recycling_type":"container"}},"type":"Feature"},
	{"geometry":{"coordinates":[9.483324,52.425679],"type":"Point"},"properties":{"osm_id":"1717522949","tag":{"amenity":"waste_basket"}},"type":"Feature"},
	{"geometry":{"coordinates":[9.449879,52.412949],"type":"Point"},"properties":{"osm_id":"1782502258","tag":{"amenity":"waste_basket"}},"type":"Feature"},
	{"geometry":{"coordinates":[9.447346,52.4143],"type":"Point"},"properties":{"osm_id":"1782502266","tag":{"amenity":"waste_basket"}},"type":"Feature"},
	{"geometry":{"coordinates":[9.448954,52.414383],"type":"Point"},"properties":{"osm_id":"1782502271","tag":{"amenity":"waste_basket"}},"type":"Feature"},
	{"geometry":{"coordinates":[9.454181,52.394006],"type":"Point"},"properties":{"osm_id":"2268316373","tag":{"amenity":"recycling"}},"type":"Feature"},
	{"geometry":{"coordinates":[9.473961,52.424269],"type":"Point"},"properties":{"osm_id":"6555552644","tag":{"amenity":"recycling","opening_hours":"24/7","recycling:cardboard":"yes","recycling:glass_bottles":"yes","recycling:paper":"yes","recycling_type":"container","wheelchair":"yes","wheelchair:description":"containers have a certain height"}},"type":"Feature"},
	{"geometry":{"coordinates":[9.472474,52.423434],"type":"Point"},"properties":{"osm_id":"7787853388","tag":{"amenity":"waste_basket","waste":"trash"}},"type":"Feature"},
	{"geometry":{"coordinates":[9.472451,52.423288],"type":"Point"},"properties":{"osm_id":"7787853439","tag":{"amenity":"waste_basket","waste":"trash"}},"type":"Feature"}
]
}
