{
"type": "FeatureCollection",
"features": [
	{"geometry":{"coordinates":[9.489811,51.860244],"type":"Point"},"properties":{"osm_id":"621618517","tag":{"amenity":"recycling","recycling:glass":"yes"}},"type":"Feature"},
	{"geometry":{"coordinates":[9.486684,51.857548],"type":"Point"},"properties":{"name":"Entsorgungszentrum Bevern","osm_id":"665066145","tag":{"addr:city":"Bevern","addr:country":"DE","addr:street":"Birkenweg","amenity":"recycling","recycling:batteries":"yes","recycling:cans":"yes","recycling:clothes":"yes","recycling:glass":"yes","recycling:paper":"yes","recycling:scrap_metal":"yes","recycling_type":"centre"}},"type":"Feature"},
	{"geometry":{"coordinates":[9.476379,51.843739],"type":"Point"},"properties":{"osm_id":"665750569","tag":{"amenity":"recycling","wood":"yes"}},"type":"Feature"},
	{"geometry":{"coordinates":[9.484264,51.856474],"type":"Point"},"properties":{"osm_id":"5742772698","tag":{"amenity":"recycling","recycling:glass":"yes","recycling_type":"container"}},"type":"Feature"}
]
}
