{
"type": "FeatureCollection",
"features": [
	{"geometry":{"coordinates":[9.418641,51.349323],"type":"Point"},"properties":{"osm_id":"1993138042","tag":{"amenity":"waste_basket"}},"type":"Feature"},
	{"geometry":{"coordinates":[9.453787,51.359117],"type":"Point"},"properties":{"osm_id":"2314964150","tag":{"amenity":"recycling","recycling:glass_bottles":"yes","recycling_type":"container"}},"type":"Feature"},
	{"geometry":{"coordinates":[9.444611,51.344624],"type":"Point"},"properties":{"osm_id":"2354032725","tag":{"amenity":"recycling","location":"overground","recycling:clothes":"yes","recycling:glass_bottles":"yes","recycling:paper":"yes","recycling_type":"container"}},"type":"Feature"},
	{"geometry":{"coordinates":[9.435295,51.361194],"type":"Point"},"properties":{"osm_id":"2396597289","tag":{"amenity":"waste_basket"}},"type":"Feature"},
	{"geometry":{"coordinates":[9.478584,51.344783],"type":"Point"},"properties":{"osm_id":"2682248217","tag":{"amenity":"recycling","recycling:clothes":"yes","recycling:paper":"yes","recycling:shoes":"yes"}},"type":"Feature"},
	{"geometry":{"coordinates":[9.488923,51.346413],"type":"Point"},"properties":{"osm_id":"2772047183","tag":{"amenity":"recycling","location":"overground","recycling:paper":"yes","recycling_type":"container"}},"type":"Feature"},
	{"geometry":{"coordinates":[9.464192,51.353778],"type":"Point"},"properties":{"osm_id":"3653128058","tag":{"amenity":"recycling","opening_hours":"24/7","recycling:glass_bottles":"yes","recycling_type":"container"}},"type":"Feature"},
	{"geometry":{"coordinates":[9.478205,51.365371],"type":"Point"},"properties":{"osm_id":"4209594399","tag":{"amenity":"recycling","recycling:glass_bottles":"yes","recycling_type":"container"}},"type":"Feature"},
	{"geometry":{"coordinates":[9.473083,51.362104],"type":"Point"},"properties":{"osm_id":"6013212239","tag":{"amenity":"waste_basket"}},"type":"Feature"},
	{"geometry":{"coordinates":[9.483267,51.349229],"type":"Point"},"properties":{"osm_id":"6223653046","tag":{"amenity":"waste_basket","waste":"trash"}},"type":"Feature"},
	{"geometry":{"coordinates":[9.467165,51.389889],"type":"Point"},"properties":{"osm_id":"6278228069","tag":{"amenity":"waste_basket","waste":"trash"}},"type":"Feature"},
	{"geometry":{"coordinates":[9.460642,51.391047],"type":"Point"},"properties":{"osm_id":"6278229297","tag":{"amenity":"waste_basket","waste":"trash"}},"type":"Feature"},
	{"geometry":{"coordinates":[9.469396,51.399159],"type":"Point"},"properties":{"osm_id":"6278235697","tag":{"amenity":"recycling","recycling:clothes":"yes","recycling_type":"container"}},"type":"Feature"},
	{"geometry":{"coordinates":[9.473093,51.398751],"type":"Point"},"properties":{"osm_id":"6278240602","tag":{"amenity":"recycling","recycling:clothes":"yes","recycling:glass":"yes","recycling_type":"container"}},"type":"Feature"},
	{"geometry":{"coordinates":[9.451612,51.344406],"type":"Point"},"properties":{"osm_id":"6497775609","tag":{"amenity":"recycling","recycling:paper":"yes","recycling_type":"container"}},"type":"Feature"},
	{"geometry":{"coordinates":[9.473593,51.36589],"type":"Point"},"properties":{"osm_id":"6508659665","tag":{"amenity":"recycling","recycling:clothes":"yes","recycling:glass_bottles":"yes","recycling_type":"container"}},"type":"Feature"},
	{"geometry":{"coordinates":[9.458494,51.346186],"type":"Point"},"properties":{"osm_id":"6508659673","tag":{"amenity":"recycling","recycling:cardboard":"yes","recycling:paper":"yes","recycling_type":"container"}},"type":"Feature"},
	{"geometry":{"coordinates":[9.44315,51.347127],"type":"Point"},"properties":{"osm_id":"6567463545","tag":{"amenity":"recycling","location":"overground","recycling:cardboard":"yes","recycling:paper":"yes","recycling_type":"container"}},"type":"Feature"},
	{"geometry":{"coordinates":[9.464547,51.346441],"type":"Point"},"properties":{"osm_id":"6570152929","tag":{"amenity":"recycling","recycling:clothes":"yes","recycling_type":"container"}},"type":"Feature"},
	{"geometry":{"coordinates":[9.477515,51.355468],"type":"Point"},"properties":{"osm_id":"6583717253","tag":{"amenity":"recycling","recycling:clothes":"yes","recycling:shoes":"yes"}},"type":"Feature"},
	{"geometry":{"coordinates":[9.449241,51.345117],"type":"Point"},"properties":{"osm_id":"6583720430","tag":{"amenity":"recycling","location":"overground","recycling:cardboard":"yes","recycling:paper":"yes","recycling_type":"container"}},"type":"Feature"},
	{"geometry":{"coordinates":[9.478432,51.365186],"type":"Point"},"properties":{"osm_id":"6727081098","tag":{"amenity":"waste_basket","waste":"trash"}},"type":"Feature"},
	{"geometry":{"coordinates":[9.416789,51.34959],"type":"Point"},"properties":{"osm_id":"6896625843","tag":{"amenity":"waste_basket","colour":"brown","material":"wood"}},"type":"Feature"},
	{"geometry":{"coordinates":[9.452443,51.359331],"type":"Point"},"properties":{"osm_id":"7269679066","tag":{"amenity":"waste_basket","waste":"trash"}},"type":"Feature"},
	{"geometry":{"coordinates":[9.43629,51.388021],"type":"Point"},"properties":{"osm_id":"7322093850","tag":{"amenity":"waste_basket"}},"type":"Feature"}
]
}
