{
"type": "FeatureCollection",
"features": [
	{"geometry":{"coordinates":[9.445003,50.625391],"type":"Point"},"properties":{"name":"Gemeindebauhof","osm_id":"302377075","tag":{"amenity":"recycling","opening_hours":"15:30-16:30","recycling:white_goods":"yes","recycling_type":"centre"}},"type":"Feature"},
	{"geometry":{"coordinates":[9.444843,50.625471],"type":"Point"},"properties":{"osm_id":"302377078","tag":{"amenity":"recycling","recycling:clothes":"yes","recycling:glass_bottles":"yes"}},"type":"Feature"},
	{"geometry":{"coordinates":[9.408808,50.638813],"type":"Point"},"properties":{"osm_id":"339409773","tag":{"amenity":"recycling","recycling:glass_bottles":"yes","recycling_type":"container"}},"type":"Feature"},
	{"geometry":{"coordinates":[9.439585,50.628683],"type":"Point"},"properties":{"osm_id":"1575253736","tag":{"amenity":"recycling","recycling:glass_bottles":"yes"}},"type":"Feature"},
	{"geometry":{"coordinates":[9.439663,50.628688],"type":"Point"},"properties":{"osm_id":"1575253739","tag":{"amenity":"recycling","recycling:clothes":"yes"}},"type":"Feature"},
	{"geometry":{"coordinates":[9.4052,50.638674],"type":"Point"},"properties":{"osm_id":"1609452266","tag":{"amenity":"recycling","recycling:glass_bottles":"yes","recycling_type":"container"}},"type":"Feature"},
	{"geometry":{"coordinates":[9.41302,50.64348],"type":"Point"},"properties":{"osm_id":"1618158001","tag":{"amenity":"recycling","recycling:shoes":"yes","recycling_type":"container"}},"type":"Feature"},
	{"geometry":{"coordinates":[9.408658,50.645675],"type":"Point"},"properties":{"osm_id":"1618158057","tag":{"amenity":"recycling","recycling:glass_bottles":"yes"}},"type":"Feature"},
	{"geometry":{"coordinates":[9.421475,50.677186],"type":"Point"},"properties":{"osm_id":"1823302652","tag":{"amenity":"recycling","recycling:glass_bottles":"yes","recycling_type":"container"}},"type":"Feature"}
]
}
