{
"type": "FeatureCollection",
"features": [
	{"geometry":{"coordinates":[9.480461,50.202201],"type":"Point"},"properties":{"highway":"bus_stop","name":"Spessartstra\u00c3\u009fe","osm_id":"2151777837","tag":{"amenity":"waste_basket","bench":"yes","bus":"yes","network":"RMV","public_transport":"platform","shelter":"yes"}},"type":"Feature"},
	{"geometry":{"coordinates":[9.472828,50.195655],"type":"Point"},"properties":{"highway":"bus_stop","name":"Apotheke","osm_id":"2151777852","tag":{"amenity":"waste_basket","bench":"yes","bus":"yes","network":"RMV","public_transport":"platform","shelter":"yes"}},"type":"Feature"},
	{"geometry":{"coordinates":[9.472976,50.191849],"type":"Point"},"properties":{"highway":"bus_stop","name":"Frankfurter Stra\u00c3\u009fe","osm_id":"2151777856","tag":{"amenity":"waste_basket","bench":"yes","bus":"yes","network":"RMV","public_transport":"platform","shelter":"yes"}},"type":"Feature"},
	{"geometry":{"coordinates":[9.473853,50.187082],"type":"Point"},"properties":{"highway":"bus_stop","name":"Lohrer Stra\u00c3\u009fe","osm_id":"2151777857","tag":{"amenity":"waste_basket","bench":"yes","bus":"yes","network":"RMV","public_transport":"platform","shelter":"yes"}},"type":"Feature"},
	{"geometry":{"coordinates":[9.477704,50.188213],"type":"Point"},"properties":{"osm_id":"6880944906","tag":{"amenity":"recycling","recycling:glass_bottles":"yes","recycling_type":"container"}},"type":"Feature"},
	{"geometry":{"coordinates":[9.473833,50.186993],"type":"Point"},"properties":{"osm_id":"6880944907","tag":{"amenity":"recycling","recycling:glass_bottles":"yes","recycling_type":"container"}},"type":"Feature"},
	{"geometry":{"coordinates":[9.479212,50.204419],"type":"Point"},"properties":{"osm_id":"7547133697","tag":{"amenity":"recycling","recycling:glass_bottles":"yes","recycling_type":"container"}},"type":"Feature"},
	{"geometry":{"coordinates":[9.482108,50.202776],"type":"Point"},"properties":{"osm_id":"7547133698","tag":{"amenity":"recycling","recycling_type":"container"}},"type":"Feature"},
	{"geometry":{"coordinates":[9.484073,50.20666],"type":"Point"},"properties":{"osm_id":"7837469726","tag":{"amenity":"waste_basket","material":"metal","waste":"trash"}},"type":"Feature"}
]
}
