{
"type": "FeatureCollection",
"features": [
	{"geometry":{"coordinates":[9.470201,49.611006],"type":"Point"},"properties":{"osm_id":"6621864327","tag":{"amenity":"waste_basket"}},"type":"Feature"},
	{"geometry":{"coordinates":[9.479551,49.616953],"type":"Point"},"properties":{"osm_id":"7047308452","tag":{"amenity":"waste_basket","direction":"270","support":"street_lamp","waste":"trash"}},"type":"Feature"},
	{"geometry":{"coordinates":[9.48049,49.617282],"type":"Point"},"properties":{"osm_id":"7047308456","tag":{"amenity":"recycling","recycling:glass_bottles:colour":"green","recycling_type":"container"}},"type":"Feature"},
	{"geometry":{"coordinates":[9.480512,49.617277],"type":"Point"},"properties":{"osm_id":"7047308457","tag":{"amenity":"recycling","recycling:glass_bottles:colour":"white","recycling_type":"container"}},"type":"Feature"},
	{"geometry":{"coordinates":[9.480535,49.617271],"type":"Point"},"properties":{"osm_id":"7047308458","tag":{"amenity":"recycling","recycling:glass_bottles:colour":"brown","recycling_type":"container"}},"type":"Feature"},
	{"geometry":{"coordinates":[9.481698,49.616708],"type":"Point"},"properties":{"osm_id":"7047308459","tag":{"amenity":"recycling","direction":"300","operator":"Deutsches Rotes Kreuz","recycling:clothes":"yes","recycling:shoes":"yes","recycling_type":"container"}},"type":"Feature"},
	{"geometry":{"coordinates":[9.481187,49.611927],"type":"Point"},"properties":{"osm_id":"7047308473","tag":{"amenity":"waste_basket","direction":"270","support":"pole","waste":"dog_excrement"}},"type":"Feature"},
	{"geometry":{"coordinates":[9.474681,49.614801],"type":"Point"},"properties":{"osm_id":"7047308486","tag":{"amenity":"waste_basket","waste":"trash"}},"type":"Feature"},
	{"geometry":{"coordinates":[9.470003,49.616393],"type":"Point"},"properties":{"osm_id":"7047308496","tag":{"amenity":"recycling","recycling:clothes":"yes","recycling:shoes":"yes","recycling_type":"container"}},"type":"Feature"},
	{"geometry":{"coordinates":[9.470023,49.616396],"type":"Point"},"properties":{"osm_id":"7047308497","tag":{"amenity":"recycling","recycling:clothes":"yes","recycling:shoes":"yes","recycling_type":"container"}},"type":"Feature"},
	{"geometry":{"coordinates":[9.46933,49.612771],"type":"Point"},"properties":{"osm_id":"7047308504","tag":{"amenity":"recycling","opening_hours":"Mo-Sa 07:00-19:00","recycling:glass_bottles":"yes","recycling:glass_bottles:colour":"green","recycling_type":"container"}},"type":"Feature"},
	{"geometry":{"coordinates":[9.469367,49.612769],"type":"Point"},"properties":{"osm_id":"7047308505","tag":{"amenity":"recycling","opening_hours":"Mo-Sa 07:00-19:00","recycling:glass_bottles":"yes","recycling:glass_bottles:colour":"white","recycling_type":"container"}},"type":"Feature"},
	{"geometry":{"coordinates":[9.467827,49.613301],"type":"Point"},"properties":{"osm_id":"7047308508","tag":{"amenity":"waste_basket","waste":"trash"}},"type":"Feature"},
	{"geometry":{"coordinates":[9.4694,49.612766],"type":"Point"},"properties":{"osm_id":"7047308510","tag":{"amenity":"recycling","opening_hours":"Mo-Sa 07:00-19:00","recycling:glass_bottles":"yes","recycling:glass_bottles:colour":"brown","recycling_type":"container"}},"type":"Feature"},
	{"geometry":{"coordinates":[9.470194,49.612496],"type":"Point"},"properties":{"osm_id":"7047308514","tag":{"amenity":"waste_basket","support":"pole","waste":"trash"}},"type":"Feature"},
	{"geometry":{"coordinates":[9.476501,49.616173],"type":"Point"},"properties":{"osm_id":"7047308573","tag":{"amenity":"waste_basket","waste":"trash"}},"type":"Feature"},
	{"geometry":{"coordinates":[9.47684,49.617192],"type":"Point"},"properties":{"osm_id":"7047308579","tag":{"amenity":"waste_basket","waste":"trash"}},"type":"Feature"},
	{"geometry":{"coordinates":[9.476797,49.617342],"type":"Point"},"properties":{"osm_id":"7047308583","tag":{"amenity":"waste_basket","support":"pole","waste":"dog_excrement"}},"type":"Feature"},
	{"geometry":{"coordinates":[9.467353,49.613849],"type":"Point"},"properties":{"osm_id":"7047308588","tag":{"amenity":"waste_basket","support":"pole","waste":"trash"}},"type":"Feature"},
	{"geometry":{"coordinates":[9.469261,49.615638],"type":"Point"},"properties":{"osm_id":"7047308609","tag":{"amenity":"waste_basket","waste":"trash"}},"type":"Feature"},
	{"geometry":{"coordinates":[9.469415,49.615425],"type":"Point"},"properties":{"osm_id":"7047308616","tag":{"amenity":"waste_basket","waste":"trash"}},"type":"Feature"},
	{"geometry":{"coordinates":[9.468931,49.615958],"type":"Point"},"properties":{"osm_id":"7047308624","tag":{"amenity":"waste_basket","waste":"trash"}},"type":"Feature"},
	{"geometry":{"coordinates":[9.472291,49.612656],"type":"Point"},"properties":{"osm_id":"7047308631","tag":{"amenity":"waste_basket","waste":"trash"}},"type":"Feature"},
	{"geometry":{"coordinates":[9.466516,49.615891],"type":"Point"},"properties":{"osm_id":"7047308772","tag":{"amenity":"waste_basket","waste":"trash"}},"type":"Feature"},
	{"geometry":{"coordinates":[9.466807,49.616306],"type":"Point"},"properties":{"osm_id":"7047308775","tag":{"amenity":"waste_basket","waste":"trash"}},"type":"Feature"},
	{"geometry":{"coordinates":[9.466601,49.61617],"type":"Point"},"properties":{"osm_id":"7047308776","tag":{"amenity":"waste_basket","waste":"trash"}},"type":"Feature"},
	{"geometry":{"coordinates":[9.468549,49.617657],"type":"Point"},"properties":{"osm_id":"7047308790","tag":{"amenity":"waste_basket","waste":"dog_excrement"}},"type":"Feature"},
	{"geometry":{"coordinates":[9.471255,49.611617],"type":"Point"},"properties":{"osm_id":"7070280661","tag":{"amenity":"waste_basket","direction":"60","waste":"trash"}},"type":"Feature"},
	{"geometry":{"coordinates":[9.476512,49.611201],"type":"Point"},"properties":{"osm_id":"7070280675","tag":{"amenity":"waste_basket","direction":"350","support":"pole","waste":"trash"}},"type":"Feature"},
	{"geometry":{"coordinates":[9.481267,49.623339],"type":"Point"},"properties":{"osm_id":"7070288448","tag":{"amenity":"waste_basket","direction":"240","waste":"trash"}},"type":"Feature"},
	{"geometry":{"coordinates":[9.478194,49.617954],"type":"Point"},"properties":{"osm_id":"7126112916","tag":{"amenity":"waste_basket","support":"pole","waste":"trash"}},"type":"Feature"},
	{"geometry":{"coordinates":[9.477717,49.618533],"type":"Point"},"properties":{"osm_id":"7126112923","tag":{"amenity":"waste_basket","waste":"trash"}},"type":"Feature"},
	{"geometry":{"coordinates":[9.477743,49.618473],"type":"Point"},"properties":{"osm_id":"7126112925","tag":{"amenity":"waste_basket","waste":"trash"}},"type":"Feature"},
	{"geometry":{"coordinates":[9.478029,49.61829],"type":"Point"},"properties":{"osm_id":"7126112927","tag":{"amenity":"waste_basket","waste":"trash"}},"type":"Feature"},
	{"geometry":{"coordinates":[9.478058,49.618217],"type":"Point"},"properties":{"osm_id":"7126112929","tag":{"amenity":"waste_basket","waste":"trash"}},"type":"Feature"},
	{"geometry":{"coordinates":[9.477328,49.618821],"type":"Point"},"properties":{"osm_id":"7126112939","tag":{"amenity":"waste_basket","waste":"trash"}},"type":"Feature"},
	{"geometry":{"coordinates":[9.477476,49.618745],"type":"Point"},"properties":{"osm_id":"7126112941","tag":{"amenity":"waste_basket","waste":"trash"}},"type":"Feature"},
	{"geometry":{"coordinates":[9.47751,49.618659],"type":"Point"},"properties":{"osm_id":"7126112943","tag":{"amenity":"waste_basket","waste":"trash"}},"type":"Feature"},
	{"geometry":{"coordinates":[9.476803,49.618918],"type":"Point"},"properties":{"osm_id":"7126146199","tag":{"amenity":"waste_basket","direction":"60","support":"mast","waste":"trash"}},"type":"Feature"},
	{"geometry":{"coordinates":[9.479778,49.61759],"type":"Point"},"properties":{"osm_id":"7253437647","tag":{"amenity":"waste_basket","waste":"trash"}},"type":"Feature"},
	{"geometry":{"coordinates":[9.479606,49.617617],"type":"Point"},"properties":{"osm_id":"7253437648","tag":{"amenity":"waste_basket","waste":"trash"}},"type":"Feature"},
	{"geometry":{"coordinates":[9.479425,49.617646],"type":"Point"},"properties":{"osm_id":"7253437649","tag":{"amenity":"waste_basket","waste":"trash"}},"type":"Feature"},
	{"geometry":{"coordinates":[9.474653,49.617632],"type":"Point"},"properties":{"osm_id":"7253437656","tag":{"amenity":"waste_basket","waste":"trash"}},"type":"Feature"},
	{"geometry":{"coordinates":[9.474195,49.61842],"type":"Point"},"properties":{"osm_id":"7253437664","tag":{"amenity":"recycling","opening_hours":"Mo-Sa 07:00-19:00","recycling:glass_bottles":"yes","recycling:glass_bottles:colour":"white","recycling_type":"container","wheelchair":"yes"}},"type":"Feature"},
	{"geometry":{"coordinates":[9.474197,49.618406],"type":"Point"},"properties":{"osm_id":"7253437665","tag":{"amenity":"recycling","opening_hours":"Mo-Sa 07:00-19:00","recycling:glass_bottles":"yes","recycling:glass_bottles:colour":"white","recycling_type":"container","wheelchair":"yes"}},"type":"Feature"},
	{"geometry":{"coordinates":[9.474214,49.618388],"type":"Point"},"properties":{"osm_id":"7253437666","tag":{"amenity":"recycling","opening_hours":"Mo-Sa 07:00-19:00","recycling:glass_bottles":"yes","recycling:glass_bottles:colour":"green","recycling_type":"container","wheelchair":"yes"}},"type":"Feature"},
	{"geometry":{"coordinates":[9.474232,49.618377],"type":"Point"},"properties":{"osm_id":"7253437667","tag":{"amenity":"recycling","opening_hours":"Mo-Sa 07:00-19:00","recycling:glass_bottles":"yes","recycling:glass_bottles:colour":"brown","recycling_type":"container","wheelchair":"yes"}},"type":"Feature"},
	{"geometry":{"coordinates":[9.474255,49.618366],"type":"Point"},"properties":{"osm_id":"7253437668","tag":{"amenity":"recycling","recycling:clothes":"yes","recycling:shoes":"yes","recycling_type":"container","wheelchair":"yes"}},"type":"Feature"},
	{"geometry":{"coordinates":[9.474272,49.618354],"type":"Point"},"properties":{"osm_id":"7253437669","tag":{"amenity":"recycling","recycling:clothes":"yes","recycling:shoes":"yes","recycling_type":"container","wheelchair":"yes"}},"type":"Feature"},
	{"geometry":{"coordinates":[9.474297,49.618348],"type":"Point"},"properties":{"osm_id":"7253437670","tag":{"amenity":"recycling","recycling:clothes":"yes","recycling:shoes":"yes","recycling_type":"container","wheelchair":"yes"}},"type":"Feature"},
	{"geometry":{"coordinates":[9.470281,49.611079],"type":"Point"},"properties":{"osm_id":"7253437748","tag":{"amenity":"waste_basket","support":"wall_mounted","waste":"trash"}},"type":"Feature"},
	{"geometry":{"coordinates":[9.472305,49.614352],"type":"Point"},"properties":{"osm_id":"7253437802","tag":{"amenity":"waste_basket","waste":"trash"}},"type":"Feature"},
	{"geometry":{"coordinates":[9.470484,49.6145],"type":"Point"},"properties":{"osm_id":"7253437818","tag":{"amenity":"recycling","opening_hours":"Mo-Sa 07:00-19:00","recycling:glass_bottles":"yes","recycling:glass_bottles:colour":"brown","recycling_type":"container"}},"type":"Feature"},
	{"geometry":{"coordinates":[9.470493,49.61449],"type":"Point"},"properties":{"osm_id":"7253437819","tag":{"amenity":"recycling","opening_hours":"Mo-Sa 07:00-19:00","recycling:glass_bottles":"yes","recycling:glass_bottles:colour":"green","recycling_type":"container"}},"type":"Feature"},
	{"geometry":{"coordinates":[9.470502,49.614476],"type":"Point"},"properties":{"osm_id":"7253437820","tag":{"amenity":"recycling","opening_hours":"Mo-Sa 07:00-19:00","recycling:glass_bottles":"yes","recycling:glass_bottles:colour":"white","recycling_type":"container"}},"type":"Feature"},
	{"geometry":{"coordinates":[9.473437,49.615143],"type":"Point"},"properties":{"osm_id":"7253437822","tag":{"amenity":"waste_basket","waste":"trash"}},"type":"Feature"},
	{"geometry":{"coordinates":[9.473629,49.610755],"type":"Point"},"properties":{"osm_id":"7255673657","tag":{"amenity":"waste_basket","support":"pole","waste":"trash"}},"type":"Feature"},
	{"geometry":{"coordinates":[9.473629,49.610755],"type":"Point"},"properties":{"osm_id":"7255673658","tag":{"amenity":"waste_basket","support":"pole","waste":"trash"}},"type":"Feature"},
	{"geometry":{"coordinates":[9.475068,49.610939],"type":"Point"},"properties":{"osm_id":"7255673660","tag":{"amenity":"waste_basket","direction":"350","support":"pole","waste":"trash"}},"type":"Feature"},
	{"geometry":{"coordinates":[9.475616,49.611043],"type":"Point"},"properties":{"osm_id":"7255673661","tag":{"amenity":"waste_basket","direction":"350","support":"pole","waste":"trash"}},"type":"Feature"}
]
}
