{
"type": "FeatureCollection",
"features": [
	{"geometry":{"coordinates":[9.492125,49.55405],"type":"Point"},"properties":{"osm_id":"165145646","tag":{"amenity":"recycling","recycling:glass_bottles":"yes","recycling_type":"container"}},"type":"Feature"},
	{"geometry":{"coordinates":[9.446636,49.565589],"type":"Point"},"properties":{"osm_id":"379896620","tag":{"amenity":"recycling","recycling:glass_bottles":"yes"}},"type":"Feature"},
	{"geometry":{"coordinates":[9.486167,49.576581],"type":"Point"},"properties":{"osm_id":"384955459","tag":{"amenity":"recycling","recycling:glass_bottles":"yes","recycling_type":"container"}},"type":"Feature"},
	{"geometry":{"coordinates":[9.435215,49.60535],"type":"Point"},"properties":{"osm_id":"1829588877","tag":{"amenity":"recycling","recycling:clothes":"yes","recycling_type":"container"}},"type":"Feature"},
	{"geometry":{"coordinates":[9.476212,49.609121],"type":"Point"},"properties":{"osm_id":"3381951384","tag":{"amenity":"recycling","recycling:clothes":"yes","recycling_type":"container"}},"type":"Feature"},
	{"geometry":{"coordinates":[9.469432,49.609611],"type":"Point"},"properties":{"osm_id":"7047308479","tag":{"amenity":"waste_basket","direction":"270","support":"pole","waste":"dog_excrement"}},"type":"Feature"},
	{"geometry":{"coordinates":[9.476984,49.610212],"type":"Point"},"properties":{"osm_id":"7047308685","tag":{"amenity":"waste_basket","support":"pole","waste":"trash"}},"type":"Feature"},
	{"geometry":{"coordinates":[9.473956,49.605971],"type":"Point"},"properties":{"osm_id":"7047308689","tag":{"amenity":"recycling","recycling:clothes":"no","recycling:shoes":"yes","recycling_type":"container"}},"type":"Feature"},
	{"geometry":{"coordinates":[9.473967,49.605965],"type":"Point"},"properties":{"osm_id":"7047308690","tag":{"amenity":"recycling","recycling:clothes":"yes","recycling:shoes":"yes","recycling_type":"container"}},"type":"Feature"},
	{"geometry":{"coordinates":[9.473977,49.605959],"type":"Point"},"properties":{"osm_id":"7047308691","tag":{"amenity":"recycling","recycling:clothes":"yes","recycling:shoes":"yes","recycling_type":"container"}},"type":"Feature"},
	{"geometry":{"coordinates":[9.473986,49.605953],"type":"Point"},"properties":{"osm_id":"7047308692","tag":{"amenity":"recycling","recycling:clothes":"yes","recycling:shoes":"yes","recycling_type":"container"}},"type":"Feature"},
	{"geometry":{"coordinates":[9.473995,49.605949],"type":"Point"},"properties":{"osm_id":"7047308693","tag":{"amenity":"recycling","recycling:clothes":"yes","recycling:shoes":"yes","recycling_type":"container"}},"type":"Feature"},
	{"geometry":{"coordinates":[9.475722,49.606874],"type":"Point"},"properties":{"osm_id":"7047308711","tag":{"amenity":"waste_basket","waste":"trash"}},"type":"Feature"},
	{"geometry":{"coordinates":[9.475232,49.607511],"type":"Point"},"properties":{"osm_id":"7047308721","tag":{"amenity":"waste_basket","waste":"trash"}},"type":"Feature"},
	{"geometry":{"coordinates":[9.475497,49.608456],"type":"Point"},"properties":{"osm_id":"7047308737","tag":{"amenity":"waste_basket","support":"street_lamp","waste":"trash"}},"type":"Feature"},
	{"geometry":{"coordinates":[9.475707,49.608495],"type":"Point"},"properties":{"osm_id":"7047308739","tag":{"amenity":"waste_basket","support":"street_lamp","waste":"trash"}},"type":"Feature"},
	{"geometry":{"coordinates":[9.475611,49.608268],"type":"Point"},"properties":{"osm_id":"7047308740","tag":{"amenity":"waste_basket","direction":"250","support":"street_lamp","waste":"trash"}},"type":"Feature"},
	{"geometry":{"coordinates":[9.475696,49.608644],"type":"Point"},"properties":{"osm_id":"7047308763","tag":{"amenity":"waste_basket","support":"pole","waste":"trash"}},"type":"Feature"},
	{"geometry":{"coordinates":[9.472218,49.610536],"type":"Point"},"properties":{"osm_id":"7070280666","tag":{"amenity":"waste_basket","direction":"170","waste":"trash"}},"type":"Feature"},
	{"geometry":{"coordinates":[9.473865,49.610662],"type":"Point"},"properties":{"osm_id":"7070301347","tag":{"amenity":"waste_basket","support":"pole","waste":"trash"}},"type":"Feature"},
	{"geometry":{"coordinates":[9.475511,49.609027],"type":"Point"},"properties":{"osm_id":"7253437599","tag":{"amenity":"waste_basket","support":"pole","waste":"trash"}},"type":"Feature"},
	{"geometry":{"coordinates":[9.475511,49.609027],"type":"Point"},"properties":{"osm_id":"7253437600","tag":{"amenity":"waste_basket","support":"pole","waste":"trash"}},"type":"Feature"},
	{"geometry":{"coordinates":[9.475358,49.6089],"type":"Point"},"properties":{"osm_id":"7253437626","tag":{"amenity":"waste_basket","support":"pole","waste":"trash"}},"type":"Feature"},
	{"geometry":{"coordinates":[9.475358,49.6089],"type":"Point"},"properties":{"osm_id":"7253437627","tag":{"amenity":"waste_basket","support":"pole","waste":"trash"}},"type":"Feature"},
	{"geometry":{"coordinates":[9.4746,49.608998],"type":"Point"},"properties":{"osm_id":"7253437628","tag":{"amenity":"waste_basket","support":"pole","waste":"trash"}},"type":"Feature"},
	{"geometry":{"coordinates":[9.4746,49.608998],"type":"Point"},"properties":{"osm_id":"7253437629","tag":{"amenity":"waste_basket","support":"pole","waste":"trash"}},"type":"Feature"},
	{"geometry":{"coordinates":[9.474653,49.608829],"type":"Point"},"properties":{"osm_id":"7253437630","tag":{"amenity":"waste_basket","support":"pole","waste":"trash"}},"type":"Feature"},
	{"geometry":{"coordinates":[9.474653,49.608829],"type":"Point"},"properties":{"osm_id":"7253437631","tag":{"amenity":"waste_basket","support":"pole","waste":"trash"}},"type":"Feature"},
	{"geometry":{"coordinates":[9.474812,49.608753],"type":"Point"},"properties":{"osm_id":"7253437632","tag":{"amenity":"waste_basket","support":"pole","waste":"trash"}},"type":"Feature"},
	{"geometry":{"coordinates":[9.474812,49.608753],"type":"Point"},"properties":{"osm_id":"7253437633","tag":{"amenity":"waste_basket","support":"pole","waste":"trash"}},"type":"Feature"},
	{"geometry":{"coordinates":[9.474979,49.608798],"type":"Point"},"properties":{"osm_id":"7253437634","tag":{"amenity":"waste_basket","support":"pole","waste":"trash"}},"type":"Feature"},
	{"geometry":{"coordinates":[9.474979,49.608798],"type":"Point"},"properties":{"osm_id":"7253437635","tag":{"amenity":"waste_basket","support":"pole","waste":"trash"}},"type":"Feature"},
	{"geometry":{"coordinates":[9.475093,49.608564],"type":"Point"},"properties":{"osm_id":"7253437636","tag":{"amenity":"waste_basket","support":"pole","waste":"trash"}},"type":"Feature"},
	{"geometry":{"coordinates":[9.475093,49.608564],"type":"Point"},"properties":{"osm_id":"7253437637","tag":{"amenity":"waste_basket","support":"pole","waste":"trash"}},"type":"Feature"},
	{"geometry":{"coordinates":[9.474967,49.608529],"type":"Point"},"properties":{"osm_id":"7253437638","tag":{"amenity":"waste_basket","support":"pole","waste":"trash"}},"type":"Feature"},
	{"geometry":{"coordinates":[9.476587,49.608797],"type":"Point"},"properties":{"osm_id":"7253437685","tag":{"amenity":"recycling","opening_hours":"Mo-Sa 07:00-19:00","recycling:glass_bottles":"yes","recycling:glass_bottles:colour":"white","recycling_type":"container","wheelchair":"yes"}},"type":"Feature"},
	{"geometry":{"coordinates":[9.476565,49.608788],"type":"Point"},"properties":{"osm_id":"7253437686","tag":{"amenity":"recycling","opening_hours":"Mo-Sa 07:00-19:00","recycling:glass_bottles":"yes","recycling:glass_bottles:colour":"green","recycling_type":"container","wheelchair":"yes"}},"type":"Feature"},
	{"geometry":{"coordinates":[9.476545,49.608779],"type":"Point"},"properties":{"osm_id":"7253437687","tag":{"amenity":"recycling","opening_hours":"Mo-Sa 07:00-19:00","recycling:glass_bottles":"yes","recycling:glass_bottles:colour":"brown","recycling_type":"container","wheelchair":"yes"}},"type":"Feature"},
	{"geometry":{"coordinates":[9.475227,49.609222],"type":"Point"},"properties":{"osm_id":"7253437707","tag":{"amenity":"waste_basket","support":"pole","waste":"trash"}},"type":"Feature"},
	{"geometry":{"coordinates":[9.474967,49.608529],"type":"Point"},"properties":{"osm_id":"7253437727","tag":{"amenity":"waste_basket","support":"pole","waste":"trash"}},"type":"Feature"},
	{"geometry":{"coordinates":[9.472261,49.609175],"type":"Point"},"properties":{"osm_id":"7253437738","tag":{"amenity":"waste_basket","support":"pole","waste":"trash"}},"type":"Feature"},
	{"geometry":{"coordinates":[9.47365,49.609945],"type":"Point"},"properties":{"osm_id":"7253437760","ref":"19","tag":{"amenity":"recycling","opening_hours":"Mo-Fr 07:00-19:00","recycling:glass_bottles":"yes","recycling:glass_bottles:colour":"brown","recycling_type":"container","wheelchair":"yes"}},"type":"Feature"},
	{"geometry":{"coordinates":[9.473681,49.609958],"type":"Point"},"properties":{"osm_id":"7253437761","ref":"456","tag":{"amenity":"recycling","opening_hours":"Mo-Fr 07:00-19:00","recycling:glass_bottles":"yes","recycling:glass_bottles:colour":"green","recycling_type":"container","wheelchair":"yes"}},"type":"Feature"},
	{"geometry":{"coordinates":[9.47367,49.609949],"type":"Point"},"properties":{"osm_id":"7253437762","ref":"458","tag":{"amenity":"recycling","opening_hours":"Mo-Fr 07:00-19:00","recycling:glass_bottles":"yes","recycling:glass_bottles:colour":"white","recycling_type":"container","wheelchair":"yes"}},"type":"Feature"},
	{"geometry":{"coordinates":[9.473916,49.608885],"type":"Point"},"properties":{"osm_id":"7255673607","tag":{"amenity":"waste_basket","support":"pole","waste":"trash"}},"type":"Feature"},
	{"geometry":{"coordinates":[9.473916,49.608885],"type":"Point"},"properties":{"osm_id":"7255673608","tag":{"amenity":"waste_basket","support":"pole","waste":"trash"}},"type":"Feature"},
	{"geometry":{"coordinates":[9.474065,49.608979],"type":"Point"},"properties":{"osm_id":"7255673609","tag":{"amenity":"waste_basket","support":"pole","waste":"trash"}},"type":"Feature"},
	{"geometry":{"coordinates":[9.474065,49.608979],"type":"Point"},"properties":{"osm_id":"7255673610","tag":{"amenity":"waste_basket","support":"pole","waste":"trash"}},"type":"Feature"},
	{"geometry":{"coordinates":[9.473521,49.610605],"type":"Point"},"properties":{"osm_id":"7255673659","tag":{"amenity":"waste_basket","support":"pole","waste":"trash"}},"type":"Feature"}
]
}
