{
"type": "FeatureCollection",
"features": [
	{"geometry":{"coordinates":[9.440347,48.951571],"type":"Point"},"properties":{"osm_id":"311382979","tag":{"amenity":"recycling","recycling:glass":"yes","recycling:paper":"yes","recycling_type":"container"}},"type":"Feature"},
	{"geometry":{"coordinates":[9.479071,48.928664],"type":"Point"},"properties":{"osm_id":"1286660023","tag":{"amenity":"waste_basket"}},"type":"Feature"},
	{"geometry":{"coordinates":[9.477661,48.930731],"type":"Point"},"properties":{"osm_id":"1286660028","tag":{"amenity":"waste_basket"}},"type":"Feature"},
	{"geometry":{"coordinates":[9.477134,48.930007],"type":"Point"},"properties":{"osm_id":"1286660038","tag":{"amenity":"waste_basket"}},"type":"Feature"},
	{"geometry":{"coordinates":[9.477654,48.929271],"type":"Point"},"properties":{"osm_id":"1301763530","tag":{"amenity":"waste_basket"}},"type":"Feature"},
	{"geometry":{"coordinates":[9.479214,48.930587],"type":"Point"},"properties":{"osm_id":"1301763539","tag":{"amenity":"waste_basket"}},"type":"Feature"},
	{"geometry":{"coordinates":[9.480539,48.967123],"type":"Point"},"properties":{"name":"Problemm\u00c3\u00bcllsammelstelle Backnang","osm_id":"1608564953","tag":{"amenity":"recycling","recycling_type":"centre"}},"type":"Feature"},
	{"geometry":{"coordinates":[9.48118,48.967363],"type":"Point"},"properties":{"osm_id":"1608565037","tag":{"amenity":"recycling","recycling:batteries":"yes","recycling:cans":"yes","recycling:clothes":"no","recycling:glass":"yes","recycling:paper":"yes","recycling:scrap_metal":"yes","recycling_type":"centre"}},"type":"Feature"},
	{"geometry":{"coordinates":[9.461204,48.973743],"type":"Point"},"properties":{"osm_id":"1608565291","tag":{"amenity":"recycling","mapillary":"L0k3N8uAmpoEmdOIh8PGZQ","recycling:glass":"no","recycling:glass_bottles":"yes","recycling:paper":"yes","recycling_type":"container","survey:date":"2017-07-08"}},"type":"Feature"},
	{"geometry":{"coordinates":[9.442139,48.975673],"type":"Point"},"properties":{"osm_id":"1608565395","tag":{"amenity":"recycling","recycling:glass":"yes","recycling:paper":"yes","recycling_type":"container"}},"type":"Feature"},
	{"geometry":{"coordinates":[9.447906,48.975986],"type":"Point"},"properties":{"osm_id":"1608565423","tag":{"amenity":"recycling","recycling:glass":"yes","recycling_type":"container"}},"type":"Feature"},
	{"geometry":{"coordinates":[9.459558,48.978416],"type":"Point"},"properties":{"osm_id":"1608565598","tag":{"amenity":"recycling","recycling:glass":"yes","recycling:paper":"yes"}},"type":"Feature"},
	{"geometry":{"coordinates":[9.444814,48.950373],"type":"Point"},"properties":{"osm_id":"1620077684","tag":{"amenity":"recycling","recycling:glass":"yes","recycling:paper":"yes","recycling_type":"container"}},"type":"Feature"},
	{"geometry":{"coordinates":[9.45097,48.951505],"type":"Point"},"properties":{"osm_id":"1620077717","tag":{"amenity":"recycling","recycling:glass":"yes","recycling:paper":"yes","recycling_type":"container"}},"type":"Feature"},
	{"geometry":{"coordinates":[9.435737,48.954168],"type":"Point"},"properties":{"osm_id":"1620077819","tag":{"amenity":"recycling","recycling:glass":"yes","recycling:paper":"yes","recycling_type":"container"}},"type":"Feature"},
	{"geometry":{"coordinates":[9.446892,48.954186],"type":"Point"},"properties":{"osm_id":"1620077832","tag":{"amenity":"recycling","recycling:clothes":"yes","recycling:glass":"yes","recycling:paper":"yes"}},"type":"Feature"},
	{"geometry":{"coordinates":[9.454793,48.954807],"type":"Point"},"properties":{"osm_id":"1620077859","tag":{"amenity":"recycling","recycling:glass":"yes","recycling:paper":"yes","recycling_type":"container"}},"type":"Feature"},
	{"geometry":{"coordinates":[9.437314,48.972587],"type":"Point"},"properties":{"osm_id":"1620078110","tag":{"amenity":"recycling","recycling:glass":"yes","recycling:paper":"yes","recycling_type":"container"}},"type":"Feature"},
	{"geometry":{"coordinates":[9.439167,48.941515],"type":"Point"},"properties":{"osm_id":"1621316923","tag":{"amenity":"recycling","recycling:glass":"yes","recycling:paper":"yes","recycling_type":"container"}},"type":"Feature"},
	{"geometry":{"coordinates":[9.459383,48.944387],"type":"Point"},"properties":{"osm_id":"1621317026","tag":{"amenity":"recycling","recycling:glass":"yes","recycling:paper":"yes","recycling_type":"container"}},"type":"Feature"},
	{"geometry":{"coordinates":[9.438524,48.945479],"type":"Point"},"properties":{"osm_id":"1621317048","tag":{"amenity":"recycling","recycling:glass":"yes","recycling:paper":"yes","recycling:shoes":"yes","recycling_type":"container"}},"type":"Feature"},
	{"geometry":{"coordinates":[9.475483,48.956985],"type":"Point"},"properties":{"osm_id":"1621317535","tag":{"amenity":"recycling","recycling:glass":"yes","recycling:paper":"yes","recycling_type":"container"}},"type":"Feature"},
	{"geometry":{"coordinates":[9.479153,48.958198],"type":"Point"},"properties":{"osm_id":"1621317648","tag":{"amenity":"recycling","recycling:glass":"yes","recycling:paper":"yes","recycling_type":"container"}},"type":"Feature"},
	{"geometry":{"coordinates":[9.433867,48.938499],"type":"Point"},"properties":{"osm_id":"1621605327","tag":{"amenity":"recycling","recycling:glass":"yes","recycling:paper":"yes","recycling_type":"container"}},"type":"Feature"},
	{"geometry":{"coordinates":[9.430078,48.94148],"type":"Point"},"properties":{"osm_id":"1621605936","tag":{"amenity":"recycling","recycling:glass":"yes","recycling:paper":"yes","recycling_type":"container"}},"type":"Feature"},
	{"geometry":{"coordinates":[9.43712,48.941812],"type":"Point"},"properties":{"osm_id":"1621606104","tag":{"amenity":"recycling","recycling:clothes":"yes","recycling:glass":"yes","recycling:paper":"yes","recycling_type":"container"}},"type":"Feature"},
	{"geometry":{"coordinates":[9.41916,48.947405],"type":"Point"},"properties":{"osm_id":"1621606689","tag":{"amenity":"recycling","recycling:glass":"yes","recycling:paper":"yes","recycling_type":"container"}},"type":"Feature"},
	{"geometry":{"coordinates":[9.424194,48.929178],"type":"Point"},"properties":{"osm_id":"1621707886","tag":{"amenity":"recycling","recycling:glass":"yes","recycling:paper":"yes","recycling_type":"container"}},"type":"Feature"},
	{"geometry":{"coordinates":[9.444001,48.936637],"type":"Point"},"properties":{"osm_id":"1621708271","tag":{"amenity":"recycling","recycling:glass":"yes","recycling:paper":"yes","recycling_type":"container"}},"type":"Feature"},
	{"geometry":{"coordinates":[9.42679,48.923226],"type":"Point"},"properties":{"osm_id":"1621830168","tag":{"amenity":"recycling","recycling:glass":"yes","recycling:paper":"yes","recycling_type":"container"}},"type":"Feature"},
	{"geometry":{"coordinates":[9.446212,48.923515],"type":"Point"},"properties":{"osm_id":"1621830194","tag":{"amenity":"recycling","recycling:glass_bottles":"yes","recycling:paper":"yes","recycling_type":"container"}},"type":"Feature"},
	{"geometry":{"coordinates":[9.422765,48.925463],"type":"Point"},"properties":{"osm_id":"1621830212","tag":{"amenity":"recycling","location":"overground","recycling:glass":"no","recycling:glass_bottles":"yes","recycling:paper":"yes","recycling_type":"container"}},"type":"Feature"},
	{"geometry":{"coordinates":[9.420696,48.942071],"type":"Point"},"properties":{"osm_id":"1621830234","tag":{"amenity":"recycling","location":"overground","recycling:glass":"yes","recycling:paper":"yes","recycling_type":"container"}},"type":"Feature"},
	{"geometry":{"coordinates":[9.437348,48.946687],"type":"Point"},"properties":{"osm_id":"1621830249","tag":{"amenity":"recycling","recycling:glass":"yes","recycling:paper":"yes","recycling_type":"container"}},"type":"Feature"},
	{"geometry":{"coordinates":[9.427047,48.946847],"type":"Point"},"properties":{"osm_id":"1621830250","tag":{"amenity":"recycling","recycling:clothes":"yes","recycling:glass":"yes","recycling:paper":"yes","recycling_type":"container"}},"type":"Feature"},
	{"geometry":{"coordinates":[9.41996,48.950368],"type":"Point"},"properties":{"osm_id":"1621830264","tag":{"amenity":"recycling","location":"overground","recycling:glass":"yes","recycling:paper":"yes","recycling_type":"container"}},"type":"Feature"},
	{"geometry":{"coordinates":[9.42336,48.95037],"type":"Point"},"properties":{"osm_id":"1621830265","tag":{"amenity":"recycling","location":"overground","recycling:glass":"yes","recycling:paper":"yes","recycling_type":"container"}},"type":"Feature"},
	{"geometry":{"coordinates":[9.433268,48.950608],"type":"Point"},"properties":{"osm_id":"1621830266","tag":{"amenity":"recycling","recycling:glass":"yes","recycling:paper":"yes","recycling_type":"container"}},"type":"Feature"},
	{"geometry":{"coordinates":[9.423213,48.952699],"type":"Point"},"properties":{"osm_id":"1621830268","tag":{"amenity":"recycling","recycling:glass":"yes","recycling:paper":"yes","recycling_type":"container"}},"type":"Feature"},
	{"geometry":{"coordinates":[9.420388,48.956276],"type":"Point"},"properties":{"osm_id":"1621830285","tag":{"amenity":"recycling","location":"overground","recycling:glass":"yes","recycling:paper":"yes","recycling_type":"container"}},"type":"Feature"},
	{"geometry":{"coordinates":[9.432455,48.95743],"type":"Point"},"properties":{"osm_id":"1621830292","tag":{"amenity":"recycling","location":"overground","mapillary":"loXCNCIyMXAx0eXgJj2mZA","recycling:glass":"no","recycling:glass_bottles":"yes","recycling:paper":"yes","recycling_type":"container","survey:date":"2019-08-12"}},"type":"Feature"},
	{"geometry":{"coordinates":[9.428199,48.958482],"type":"Point"},"properties":{"osm_id":"1621830297","tag":{"amenity":"recycling","location":"overground","recycling:glass":"yes","recycling:paper":"yes","recycling_type":"container"}},"type":"Feature"},
	{"geometry":{"coordinates":[9.481128,48.925788],"type":"Point"},"properties":{"osm_id":"1623016063","tag":{"amenity":"recycling","description":"Depotcontainer","recycling:glass":"yes","recycling:paper":"yes","recycling_type":"container"}},"type":"Feature"},
	{"geometry":{"coordinates":[9.484907,48.928714],"type":"Point"},"properties":{"osm_id":"1623016076","tag":{"amenity":"recycling","description":"Depotcontainer","recycling:glass":"yes","recycling:paper":"yes","recycling_type":"container"}},"type":"Feature"},
	{"geometry":{"coordinates":[9.47084,48.930279],"type":"Point"},"properties":{"osm_id":"1623016082","tag":{"amenity":"recycling","description":"Depotcontainer","recycling:glass":"yes","recycling:paper":"yes","recycling_type":"container"}},"type":"Feature"},
	{"geometry":{"coordinates":[9.45655,48.930763],"type":"Point"},"properties":{"osm_id":"1623016085","tag":{"amenity":"recycling","recycling:glass":"yes","recycling:paper":"yes","recycling_type":"container"}},"type":"Feature"},
	{"geometry":{"coordinates":[9.472554,48.931727],"type":"Point"},"properties":{"osm_id":"1623016127","tag":{"amenity":"recycling","description":"Depotcontainer","recycling:glass":"yes","recycling:paper":"yes","recycling_type":"container"}},"type":"Feature"},
	{"geometry":{"coordinates":[9.474304,48.935226],"type":"Point"},"properties":{"osm_id":"1623016155","tag":{"amenity":"recycling","description":"Depotcontainer","recycling:clothes":"yes","recycling:glass":"yes","recycling:paper":"yes","recycling_type":"container"}},"type":"Feature"},
	{"geometry":{"coordinates":[9.426946,48.941014],"type":"Point"},"properties":{"osm_id":"1848874554","tag":{"amenity":"waste_basket"}},"type":"Feature"},
	{"geometry":{"coordinates":[9.427257,48.942414],"type":"Point"},"properties":{"osm_id":"1848874576","tag":{"amenity":"waste_basket"}},"type":"Feature"},
	{"geometry":{"coordinates":[9.426891,48.94319],"type":"Point"},"properties":{"osm_id":"2045192256","tag":{"amenity":"waste_basket"}},"type":"Feature"},
	{"geometry":{"coordinates":[9.429765,48.943726],"type":"Point"},"properties":{"osm_id":"2045192257","tag":{"amenity":"waste_basket"}},"type":"Feature"},
	{"geometry":{"coordinates":[9.48274,48.932854],"type":"Point"},"properties":{"osm_id":"2156632225","tag":{"amenity":"waste_basket","traffic_sign":"DE:250;DE:1026-36"}},"type":"Feature"},
	{"geometry":{"coordinates":[9.431122,48.944093],"type":"Point"},"properties":{"osm_id":"2306948059","tag":{"amenity":"recycling","recycling:clothes":"yes","recycling_type":"container"}},"type":"Feature"},
	{"geometry":{"coordinates":[9.429974,48.946172],"type":"Point"},"properties":{"osm_id":"2331887185","tag":{"amenity":"waste_basket"}},"type":"Feature"},
	{"geometry":{"coordinates":[9.429411,48.946278],"type":"Point"},"properties":{"osm_id":"2331904179","tag":{"amenity":"waste_basket"}},"type":"Feature"},
	{"geometry":{"coordinates":[9.433668,48.965679],"type":"Point"},"properties":{"osm_id":"2757176747","tag":{"amenity":"waste_basket"}},"type":"Feature"},
	{"geometry":{"coordinates":[9.433901,48.975987],"type":"Point"},"properties":{"osm_id":"2757205763","tag":{"amenity":"waste_basket"}},"type":"Feature"},
	{"geometry":{"coordinates":[9.444617,48.946341],"type":"Point"},"properties":{"osm_id":"2857686534","tag":{"amenity":"recycling","recycling:clothes":"yes","recycling_type":"container"}},"type":"Feature"},
	{"geometry":{"coordinates":[9.47249,48.933975],"type":"Point"},"properties":{"osm_id":"2897893626","tag":{"amenity":"waste_basket"}},"type":"Feature"},
	{"geometry":{"coordinates":[9.479247,48.930007],"type":"Point"},"properties":{"osm_id":"2925060124","tag":{"amenity":"waste_basket"}},"type":"Feature"},
	{"geometry":{"coordinates":[9.469033,48.931991],"type":"Point"},"properties":{"osm_id":"2944346061","tag":{"amenity":"waste_basket"}},"type":"Feature"},
	{"geometry":{"coordinates":[9.470785,48.930311],"type":"Point"},"properties":{"osm_id":"2963054953","tag":{"amenity":"waste_basket"}},"type":"Feature"},
	{"geometry":{"coordinates":[9.477801,48.929172],"type":"Point"},"properties":{"osm_id":"3061639858","tag":{"amenity":"waste_basket"}},"type":"Feature"},
	{"geometry":{"coordinates":[9.477626,48.929629],"type":"Point"},"properties":{"osm_id":"3061639859","tag":{"amenity":"waste_basket"}},"type":"Feature"},
	{"geometry":{"coordinates":[9.485901,48.922574],"type":"Point"},"properties":{"osm_id":"3251007894","tag":{"amenity":"waste_basket"}},"type":"Feature"},
	{"geometry":{"coordinates":[9.471924,48.926886],"type":"Point"},"properties":{"osm_id":"3287951882","tag":{"amenity":"waste_basket"}},"type":"Feature"},
	{"geometry":{"coordinates":[9.463389,48.929979],"type":"Point"},"properties":{"osm_id":"3319138852","tag":{"amenity":"waste_basket"}},"type":"Feature"},
	{"geometry":{"coordinates":[9.478559,48.929544],"type":"Point"},"properties":{"osm_id":"3409181429","tag":{"amenity":"waste_basket"}},"type":"Feature"},
	{"geometry":{"coordinates":[9.478541,48.929559],"type":"Point"},"properties":{"osm_id":"3409181432","tag":{"amenity":"waste_basket"}},"type":"Feature"},
	{"geometry":{"coordinates":[9.479205,48.930608],"type":"Point"},"properties":{"osm_id":"3686702267","tag":{"amenity":"waste_basket"}},"type":"Feature"},
	{"geometry":{"coordinates":[9.483642,48.92344],"type":"Point"},"properties":{"osm_id":"3792908484","tag":{"amenity":"waste_basket"}},"type":"Feature"},
	{"geometry":{"coordinates":[9.483186,48.923867],"type":"Point"},"properties":{"osm_id":"3792908485","tag":{"amenity":"waste_basket"}},"type":"Feature"},
	{"geometry":{"coordinates":[9.467356,48.926082],"type":"Point"},"properties":{"osm_id":"3799598015","tag":{"amenity":"recycling","recycling:clothes":"yes","recycling_type":"container"}},"type":"Feature"},
	{"geometry":{"coordinates":[9.468335,48.92762],"type":"Point"},"properties":{"osm_id":"3799598186","tag":{"amenity":"recycling","recycling:clothes":"yes","recycling_type":"container"}},"type":"Feature"},
	{"geometry":{"coordinates":[9.477607,48.929242],"type":"Point"},"properties":{"osm_id":"3978392286","tag":{"amenity":"recycling","recycling:clothes":"yes","recycling_type":"container"}},"type":"Feature"},
	{"geometry":{"coordinates":[9.437409,48.938147],"type":"Point"},"properties":{"osm_id":"4081063551","tag":{"amenity":"recycling","recycling:clothes":"yes","recycling:shoes":"yes","recycling_type":"container"}},"type":"Feature"},
	{"geometry":{"coordinates":[9.475641,48.934946],"type":"Point"},"properties":{"osm_id":"4185411818","tag":{"amenity":"waste_basket"}},"type":"Feature"},
	{"geometry":{"coordinates":[9.475885,48.934953],"type":"Point"},"properties":{"osm_id":"4185411820","tag":{"amenity":"waste_basket"}},"type":"Feature"},
	{"geometry":{"coordinates":[9.480781,48.927683],"type":"Point"},"properties":{"osm_id":"4212695871","tag":{"amenity":"waste_basket"}},"type":"Feature"},
	{"geometry":{"coordinates":[9.480514,48.927709],"type":"Point"},"properties":{"osm_id":"4212695872","tag":{"amenity":"waste_basket"}},"type":"Feature"},
	{"geometry":{"coordinates":[9.485014,48.923378],"type":"Point"},"properties":{"osm_id":"4250335966","tag":{"amenity":"waste_basket"}},"type":"Feature"},
	{"geometry":{"coordinates":[9.430717,48.947176],"type":"Point"},"properties":{"osm_id":"4374454661","tag":{"amenity":"waste_basket"}},"type":"Feature"},
	{"geometry":{"coordinates":[9.429871,48.947939],"type":"Point"},"properties":{"osm_id":"4374552879","tag":{"amenity":"waste_basket"}},"type":"Feature"},
	{"geometry":{"coordinates":[9.410234,48.938503],"type":"Point"},"properties":{"osm_id":"4375493947","tag":{"amenity":"waste_basket"}},"type":"Feature"},
	{"geometry":{"coordinates":[9.412724,48.943435],"type":"Point"},"properties":{"osm_id":"4375493969","tag":{"amenity":"waste_basket"}},"type":"Feature"},
	{"geometry":{"coordinates":[9.438312,48.923191],"type":"Point"},"properties":{"osm_id":"4776241930","tag":{"amenity":"waste_basket"}},"type":"Feature"},
	{"geometry":{"coordinates":[9.427359,48.929599],"type":"Point"},"properties":{"osm_id":"4776486277","tag":{"amenity":"recycling","recycling:glass_bottles":"yes","recycling:paper":"yes","recycling_type":"container"}},"type":"Feature"},
	{"geometry":{"coordinates":[9.426671,48.930097],"type":"Point"},"properties":{"osm_id":"4776500088","tag":{"amenity":"waste_basket"}},"type":"Feature"},
	{"geometry":{"coordinates":[9.425199,48.946025],"type":"Point"},"properties":{"osm_id":"4789977123","tag":{"amenity":"waste_basket"}},"type":"Feature"},
	{"geometry":{"coordinates":[9.425986,48.94629],"type":"Point"},"properties":{"osm_id":"4789977124","tag":{"amenity":"waste_basket"}},"type":"Feature"},
	{"geometry":{"coordinates":[9.426263,48.945749],"type":"Point"},"properties":{"osm_id":"4789977125","tag":{"amenity":"waste_basket"}},"type":"Feature"},
	{"geometry":{"coordinates":[9.430003,48.940665],"type":"Point"},"properties":{"osm_id":"4790096656","tag":{"amenity":"waste_basket"}},"type":"Feature"},
	{"geometry":{"coordinates":[9.418279,48.926315],"type":"Point"},"properties":{"osm_id":"4944796154","tag":{"amenity":"recycling","description":"Altkleider-Container","last_checked":"2017-06","recycling:clothes":"yes","recycling_type":"container"}},"type":"Feature"},
	{"geometry":{"coordinates":[9.410436,48.963889],"type":"Point"},"properties":{"osm_id":"4958920085","tag":{"amenity":"waste_basket"}},"type":"Feature"},
	{"geometry":{"coordinates":[9.410549,48.963882],"type":"Point"},"properties":{"osm_id":"4958920087","tag":{"amenity":"waste_basket","vending":"excrement_bags","waste":"dog_excrement"}},"type":"Feature"},
	{"geometry":{"coordinates":[9.419296,48.963517],"type":"Point"},"properties":{"osm_id":"5602911495","tag":{"amenity":"waste_basket"}},"type":"Feature"},
	{"geometry":{"coordinates":[9.419653,48.963887],"type":"Point"},"properties":{"osm_id":"5602911496","tag":{"amenity":"waste_basket"}},"type":"Feature"},
	{"geometry":{"coordinates":[9.420338,48.965116],"type":"Point"},"properties":{"osm_id":"5602911515","tag":{"amenity":"waste_basket"}},"type":"Feature"},
	{"geometry":{"coordinates":[9.454142,48.94319],"type":"Point"},"properties":{"osm_id":"5822843615","tag":{"amenity":"waste_basket","waste":"dog_excrement"}},"type":"Feature"},
	{"geometry":{"coordinates":[9.455916,48.941218],"type":"Point"},"properties":{"osm_id":"5823129294","tag":{"amenity":"waste_basket"}},"type":"Feature"},
	{"geometry":{"coordinates":[9.457158,48.939113],"type":"Point"},"properties":{"osm_id":"5823129295","tag":{"amenity":"waste_basket"}},"type":"Feature"},
	{"geometry":{"coordinates":[9.448269,48.938448],"type":"Point"},"properties":{"osm_id":"5823129296","tag":{"amenity":"waste_basket"}},"type":"Feature"},
	{"geometry":{"coordinates":[9.464609,48.977869],"type":"Point"},"properties":{"osm_id":"6918673466","tag":{"amenity":"waste_basket"}},"type":"Feature"},
	{"geometry":{"coordinates":[9.464112,48.979365],"type":"Point"},"properties":{"osm_id":"6918679035","tag":{"amenity":"waste_basket"}},"type":"Feature"},
	{"geometry":{"coordinates":[9.486512,48.930314],"type":"Point"},"properties":{"osm_id":"7396248195","tag":{"amenity":"waste_basket"}},"type":"Feature"},
	{"geometry":{"coordinates":[9.49076,48.930852],"type":"Point"},"properties":{"osm_id":"7415152476","tag":{"amenity":"waste_basket"}},"type":"Feature"},
	{"geometry":{"coordinates":[9.489304,48.939708],"type":"Point"},"properties":{"osm_id":"7453399657","tag":{"amenity":"waste_basket"}},"type":"Feature"},
	{"geometry":{"coordinates":[9.445511,48.965832],"type":"Point"},"properties":{"osm_id":"7611308043","tag":{"amenity":"waste_basket","waste":"dog_excrement"}},"type":"Feature"},
	{"geometry":{"coordinates":[9.446214,48.971562],"type":"Point"},"properties":{"osm_id":"7611308066","tag":{"amenity":"waste_basket","waste":"trash"}},"type":"Feature"},
	{"geometry":{"coordinates":[9.446111,48.971596],"type":"Point"},"properties":{"osm_id":"7611308067","tag":{"amenity":"waste_basket","waste":"dog_excrement"}},"type":"Feature"},
	{"geometry":{"coordinates":[9.432713,48.946852],"type":"Point"},"properties":{"osm_id":"7843469632","tag":{"amenity":"waste_basket","material":"metal","waste":"trash"}},"type":"Feature"},
	{"geometry":{"coordinates":[9.433353,48.946351],"type":"Point"},"properties":{"osm_id":"7843469633","tag":{"amenity":"waste_basket","material":"metal","waste":"trash"}},"type":"Feature"},
	{"geometry":{"coordinates":[9.43354,48.946234],"type":"Point"},"properties":{"osm_id":"7843739958","tag":{"amenity":"waste_basket","waste":"dog_excrement"}},"type":"Feature"},
	{"geometry":{"coordinates":[9.431619,48.948044],"type":"Point"},"properties":{"osm_id":"7843739968","tag":{"amenity":"waste_basket","material":"metal","waste":"trash"}},"type":"Feature"},
	{"geometry":{"coordinates":[9.433725,48.946142],"type":"Point"},"properties":{"osm_id":"7843768687","tag":{"amenity":"waste_basket","material":"metal","waste":"trash"}},"type":"Feature"},
	{"geometry":{"coordinates":[9.433913,48.946343],"type":"Point"},"properties":{"osm_id":"7843768689","tag":{"amenity":"waste_basket","material":"metal","waste":"trash"}},"type":"Feature"},
	{"geometry":{"coordinates":[9.433992,48.946013],"type":"Point"},"properties":{"osm_id":"7843768705","tag":{"amenity":"waste_basket","material":"metal","waste":"trash"}},"type":"Feature"},
	{"geometry":{"coordinates":[9.434258,48.94623],"type":"Point"},"properties":{"osm_id":"7843768711","tag":{"amenity":"waste_basket","material":"metal","waste":"trash"}},"type":"Feature"},
	{"geometry":{"coordinates":[9.43456,48.946168],"type":"Point"},"properties":{"osm_id":"7843768715","tag":{"amenity":"waste_basket","material":"metal","waste":"trash"}},"type":"Feature"},
	{"geometry":{"coordinates":[9.434722,48.94577],"type":"Point"},"properties":{"osm_id":"7843768724","tag":{"amenity":"waste_basket","waste":"dog_excrement"}},"type":"Feature"}
]
}
