{
"type": "FeatureCollection",
"features": [
	{"geometry":{"coordinates":[9.455399,48.806955],"type":"Point"},"properties":{"osm_id":"32268482","tag":{"amenity":"recycling","recycling_type":"container"}},"type":"Feature"},
	{"geometry":{"coordinates":[9.412327,48.815134],"type":"Point"},"properties":{"osm_id":"365704150","tag":{"amenity":"waste_basket","waste":"trash"}},"type":"Feature"},
	{"geometry":{"coordinates":[9.412606,48.816235],"type":"Point"},"properties":{"osm_id":"365704153","tag":{"amenity":"recycling","recycling:clothes":"yes","recycling_type":"container"}},"type":"Feature"},
	{"geometry":{"coordinates":[9.411944,48.815766],"type":"Point"},"properties":{"name":"Recyclinghof Remshalden","osm_id":"365704155","tag":{"amenity":"recycling","opening_hours":"PH, Su-Fr off; Sa 08:30-11:30","operator":"AWG","recycling:batteries":"yes","recycling:cans":"yes","recycling:glass":"yes","recycling:paper":"yes","recycling:scrap_metal":"yes","recycling_type":"centre"}},"type":"Feature"},
	{"geometry":{"coordinates":[9.407883,48.851422],"type":"Point"},"properties":{"osm_id":"1543481457","tag":{"amenity":"recycling","recycling:clothes":"yes","recycling:glass":"yes","recycling:paper":"yes","recycling_type":"container"}},"type":"Feature"},
	{"geometry":{"coordinates":[9.411094,48.860666],"type":"Point"},"properties":{"osm_id":"1550275713","tag":{"amenity":"recycling","recycling:batteries":"yes","recycling:cans":"yes","recycling:glass":"yes","recycling:paper":"yes","recycling:scrap_metal":"yes","recycling_type":"centre"}},"type":"Feature"},
	{"geometry":{"coordinates":[9.429694,48.864039],"type":"Point"},"properties":{"osm_id":"1550275799","tag":{"amenity":"recycling","recycling:glass":"yes","recycling:paper":"yes","recycling_type":"container"}},"type":"Feature"},
	{"geometry":{"coordinates":[9.412777,48.852426],"type":"Point"},"properties":{"osm_id":"1550862003","tag":{"amenity":"recycling","recycling:clothes":"yes","recycling:glass":"yes","recycling:paper":"yes","recycling_type":"container"}},"type":"Feature"},
	{"geometry":{"coordinates":[9.470311,48.863113],"type":"Point"},"properties":{"osm_id":"1625565855","tag":{"amenity":"recycling","recycling:clothes":"yes","recycling:glass":"yes","recycling:paper":"yes","recycling_type":"container"}},"type":"Feature"},
	{"geometry":{"coordinates":[9.488213,48.851275],"type":"Point"},"properties":{"osm_id":"1625742176","tag":{"amenity":"recycling","recycling:clothes":"yes","recycling:glass":"yes","recycling:paper":"yes"}},"type":"Feature"},
	{"geometry":{"coordinates":[9.465019,48.852008],"type":"Point"},"properties":{"osm_id":"1631430467","tag":{"amenity":"recycling","recycling:glass":"yes","recycling:paper":"yes","recycling_type":"container"}},"type":"Feature"},
	{"geometry":{"coordinates":[9.46528,48.860026],"type":"Point"},"properties":{"osm_id":"1631430469","tag":{"amenity":"recycling","recycling:cans":"no","recycling:clothes":"yes","recycling:glass":"yes","recycling:paper":"yes","recycling_type":"container"}},"type":"Feature"},
	{"geometry":{"coordinates":[9.413462,48.825164],"type":"Point"},"properties":{"name":"H\u00c3\u00a4ckselplatz Grunbach","osm_id":"1671660361","tag":{"amenity":"recycling","recycling:green_waste":"yes","recycling_type":"centre"}},"type":"Feature"},
	{"geometry":{"coordinates":[9.413076,48.811095],"type":"Point"},"properties":{"osm_id":"1671660365","tag":{"amenity":"recycling","recycling:clothes":"yes","recycling:glass":"yes","recycling:paper":"yes","recycling_type":"container"}},"type":"Feature"},
	{"geometry":{"coordinates":[9.418284,48.814391],"type":"Point"},"properties":{"osm_id":"1671660366","tag":{"amenity":"recycling","recycling:glass":"yes","recycling:paper":"yes","recycling_type":"container"}},"type":"Feature"},
	{"geometry":{"coordinates":[9.439926,48.848214],"type":"Point"},"properties":{"osm_id":"1873585221","tag":{"amenity":"recycling","recycling:clothes":"yes","recycling:glass":"yes","recycling:paper":"yes"}},"type":"Feature"},
	{"geometry":{"coordinates":[9.44653,48.807917],"type":"Point"},"properties":{"osm_id":"2255842878","tag":{"amenity":"recycling","recycling_type":"container"}},"type":"Feature"},
	{"geometry":{"coordinates":[9.420707,48.813572],"type":"Point"},"properties":{"osm_id":"3195917812","tag":{"amenity":"recycling","recycling:clothes":"yes","recycling_type":"container"}},"type":"Feature"},
	{"geometry":{"coordinates":[9.466449,48.859141],"type":"Point"},"properties":{"osm_id":"3694478042","tag":{"amenity":"recycling","recycling:cans":"no","recycling:clothes":"yes","recycling:glass":"no","recycling:paper":"no","recycling_type":"container"}},"type":"Feature"},
	{"geometry":{"coordinates":[9.422809,48.845467],"type":"Point"},"properties":{"osm_id":"4591173439","tag":{"amenity":"recycling","recycling_type":"container"}},"type":"Feature"},
	{"geometry":{"coordinates":[9.421003,48.832938],"type":"Point"},"properties":{"osm_id":"4710030160","tag":{"amenity":"recycling","recycling:glass":"yes","recycling:paper":"yes","recycling_type":"container"}},"type":"Feature"},
	{"geometry":{"coordinates":[9.418425,48.810663],"type":"Point"},"properties":{"osm_id":"4711844324","tag":{"amenity":"waste_basket"}},"type":"Feature"},
	{"geometry":{"coordinates":[9.419939,48.818891],"type":"Point"},"properties":{"osm_id":"4718737367","tag":{"amenity":"recycling","recycling:clothes":"yes","recycling_type":"container"}},"type":"Feature"},
	{"geometry":{"coordinates":[9.418734,48.816415],"type":"Point"},"properties":{"osm_id":"4732315600","tag":{"amenity":"waste_basket"}},"type":"Feature"},
	{"geometry":{"coordinates":[9.418941,48.816069],"type":"Point"},"properties":{"osm_id":"4732315601","tag":{"amenity":"waste_basket"}},"type":"Feature"},
	{"geometry":{"coordinates":[9.419031,48.816315],"type":"Point"},"properties":{"osm_id":"4732315602","tag":{"amenity":"waste_basket"}},"type":"Feature"},
	{"geometry":{"coordinates":[9.418318,48.810698],"type":"Point"},"properties":{"osm_id":"4747262482","tag":{"amenity":"waste_basket","level":"-1"}},"type":"Feature"},
	{"geometry":{"coordinates":[9.418063,48.810214],"type":"Point"},"properties":{"osm_id":"4747262483","tag":{"amenity":"waste_basket"}},"type":"Feature"},
	{"geometry":{"coordinates":[9.41836,48.811797],"type":"Point"},"properties":{"osm_id":"4747449007","tag":{"amenity":"waste_basket"}},"type":"Feature"},
	{"geometry":{"coordinates":[9.40791,48.830356],"type":"Point"},"properties":{"osm_id":"4755318846","tag":{"amenity":"waste_basket"}},"type":"Feature"},
	{"geometry":{"coordinates":[9.412957,48.826021],"type":"Point"},"properties":{"osm_id":"4757710856","tag":{"amenity":"waste_basket"}},"type":"Feature"},
	{"geometry":{"coordinates":[9.418297,48.810606],"type":"Point"},"properties":{"osm_id":"4902047163","tag":{"amenity":"waste_basket","level":"-1"}},"type":"Feature"},
	{"geometry":{"coordinates":[9.444746,48.81014],"type":"Point"},"properties":{"osm_id":"5209345682","tag":{"amenity":"waste_basket"}},"type":"Feature"},
	{"geometry":{"coordinates":[9.422543,48.81041],"type":"Point"},"properties":{"osm_id":"5845605814","tag":{"amenity":"recycling","description":"Altkleidercontainer","recycling:clothes":"yes","recycling_type":"container"}},"type":"Feature"},
	{"geometry":{"coordinates":[9.436918,48.848253],"type":"Point"},"properties":{"name":"Hundekotstation","osm_id":"5913808146","tag":{"amenity":"waste_basket","waste":"dog_excrement"}},"type":"Feature"},
	{"geometry":{"coordinates":[9.445932,48.84257],"type":"Point"},"properties":{"name":"Hundekotstation","osm_id":"5913811789","tag":{"amenity":"waste_basket","waste":"dog_excrement"}},"type":"Feature"},
	{"geometry":{"coordinates":[9.441223,48.844079],"type":"Point"},"properties":{"name":"Hundekotstation","osm_id":"5913812774","tag":{"amenity":"waste_basket","waste":"dog_excrement"}},"type":"Feature"},
	{"geometry":{"coordinates":[9.418477,48.818952],"type":"Point"},"properties":{"osm_id":"5999294806","tag":{"amenity":"recycling","recycling:clothes":"yes","recycling:shoes":"yes","recycling_type":"container"}},"type":"Feature"},
	{"geometry":{"coordinates":[9.419583,48.810386],"type":"Point"},"properties":{"osm_id":"6015423457","tag":{"amenity":"waste_basket"}},"type":"Feature"},
	{"geometry":{"coordinates":[9.418769,48.810499],"type":"Point"},"properties":{"osm_id":"6015423460","tag":{"amenity":"waste_basket"}},"type":"Feature"},
	{"geometry":{"coordinates":[9.41905,48.81046],"type":"Point"},"properties":{"osm_id":"6015423470","tag":{"amenity":"waste_basket"}},"type":"Feature"},
	{"geometry":{"coordinates":[9.4194,48.810411],"type":"Point"},"properties":{"osm_id":"6015423471","tag":{"amenity":"waste_basket"}},"type":"Feature"},
	{"geometry":{"coordinates":[9.419757,48.810491],"type":"Point"},"properties":{"osm_id":"6015603059","tag":{"amenity":"waste_basket"}},"type":"Feature"},
	{"geometry":{"coordinates":[9.419425,48.810531],"type":"Point"},"properties":{"osm_id":"6015603062","tag":{"amenity":"waste_basket"}},"type":"Feature"},
	{"geometry":{"coordinates":[9.416589,48.834358],"type":"Point"},"properties":{"osm_id":"6161156202","tag":{"amenity":"waste_basket"}},"type":"Feature"},
	{"geometry":{"coordinates":[9.456006,48.846059],"type":"Point"},"properties":{"osm_id":"6215597165","tag":{"amenity":"recycling","recycling:books":"yes","recycling:cardboard":"yes","recycling:cartons":"yes","recycling:clothes":"yes","recycling:glass":"yes","recycling:glass_bottles":"yes","recycling:magazines":"yes","recycling:newspaper":"yes","recycling:paper":"yes","recycling:paper_packaging":"yes","recycling:shoes":"yes","recycling_type":"container"}},"type":"Feature"},
	{"geometry":{"coordinates":[9.448905,48.839218],"type":"Point"},"properties":{"osm_id":"7460178070","tag":{"amenity":"waste_basket","waste":"dog_excrement"}},"type":"Feature"},
	{"geometry":{"coordinates":[9.430667,48.808697],"type":"Point"},"properties":{"osm_id":"7475317178","tag":{"amenity":"recycling","opening_hours":"24/7","recycling:clothes":"yes","recycling:shoes":"yes","recycling_type":"container","wheelchair":"yes"}},"type":"Feature"},
	{"geometry":{"coordinates":[9.423753,48.810061],"type":"Point"},"properties":{"osm_id":"7475385159","tag":{"amenity":"waste_basket"}},"type":"Feature"}
]
}
