{
"type": "FeatureCollection",
"features": [
	{"geometry":{"coordinates":[9.488971,48.797233],"type":"Point"},"properties":{"osm_id":"370330263","tag":{"amenity":"recycling","recycling_type":"container"}},"type":"Feature"},
	{"geometry":{"coordinates":[9.48684,48.797704],"type":"Point"},"properties":{"osm_id":"413480220","tag":{"amenity":"recycling","recycling_type":"container"}},"type":"Feature"},
	{"geometry":{"coordinates":[9.483111,48.793127],"type":"Point"},"properties":{"osm_id":"427562829","tag":{"amenity":"recycling","location":"overground","recycling:glass_bottles":"yes","recycling:paper":"yes","recycling_type":"container"}},"type":"Feature"},
	{"geometry":{"coordinates":[9.483362,48.749185],"type":"Point"},"properties":{"osm_id":"441828997","tag":{"amenity":"recycling","recycling:clothes":"yes","recycling:glass":"yes","recycling_type":"container"}},"type":"Feature"},
	{"geometry":{"coordinates":[9.437958,48.749598],"type":"Point"},"properties":{"osm_id":"488577257","tag":{"amenity":"recycling","recycling:glass_bottles":"yes","recycling_type":"container"}},"type":"Feature"},
	{"geometry":{"coordinates":[9.446003,48.750972],"type":"Point"},"properties":{"osm_id":"489567623","tag":{"amenity":"recycling","recycling:clothes":"yes","recycling:glass_bottles":"yes","recycling_type":"container"}},"type":"Feature"},
	{"geometry":{"coordinates":[9.413543,48.801677],"type":"Point"},"properties":{"osm_id":"898043154","tag":{"amenity":"waste_basket"}},"type":"Feature"},
	{"geometry":{"coordinates":[9.442095,48.78527],"type":"Point"},"properties":{"osm_id":"898043250","tag":{"amenity":"waste_basket"}},"type":"Feature"},
	{"geometry":{"coordinates":[9.414493,48.801445],"type":"Point"},"properties":{"osm_id":"898043264","tag":{"amenity":"waste_basket"}},"type":"Feature"},
	{"geometry":{"coordinates":[9.418385,48.802156],"type":"Point"},"properties":{"osm_id":"1454475269","tag":{"amenity":"waste_basket"}},"type":"Feature"},
	{"geometry":{"coordinates":[9.456085,48.759913],"type":"Point"},"properties":{"osm_id":"1493502239","tag":{"amenity":"recycling","recycling:glass_bottles":"yes","recycling_type":"container"}},"type":"Feature"},
	{"geometry":{"coordinates":[9.457436,48.759983],"type":"Point"},"properties":{"osm_id":"1495994865","tag":{"amenity":"waste_basket"}},"type":"Feature"},
	{"geometry":{"coordinates":[9.458608,48.765508],"type":"Point"},"properties":{"osm_id":"1495994873","tag":{"amenity":"waste_basket"}},"type":"Feature"},
	{"geometry":{"coordinates":[9.459557,48.758635],"type":"Point"},"properties":{"osm_id":"1495996047","tag":{"amenity":"waste_basket"}},"type":"Feature"},
	{"geometry":{"coordinates":[9.463009,48.759297],"type":"Point"},"properties":{"osm_id":"1495996053","tag":{"amenity":"waste_basket"}},"type":"Feature"},
	{"geometry":{"coordinates":[9.445081,48.757369],"type":"Point"},"properties":{"osm_id":"1496776917","tag":{"amenity":"waste_basket"}},"type":"Feature"},
	{"geometry":{"coordinates":[9.44654,48.750184],"type":"Point"},"properties":{"osm_id":"1499549194","tag":{"amenity":"waste_basket"}},"type":"Feature"},
	{"geometry":{"coordinates":[9.442596,48.75046],"type":"Point"},"properties":{"osm_id":"1499549219","tag":{"amenity":"waste_basket"}},"type":"Feature"},
	{"geometry":{"coordinates":[9.444432,48.751722],"type":"Point"},"properties":{"barrier":"gate","osm_id":"1499549309","tag":{"bicycle":"yes","foot":"yes","motorcar":"yes","motorcycle":"yes"}},"type":"Feature"},
	{"geometry":{"coordinates":[9.45305,48.759871],"type":"Point"},"properties":{"osm_id":"1500855610","tag":{"amenity":"waste_basket"}},"type":"Feature"},
	{"geometry":{"coordinates":[9.453106,48.760092],"type":"Point"},"properties":{"osm_id":"1500855612","tag":{"amenity":"waste_basket"}},"type":"Feature"},
	{"geometry":{"coordinates":[9.442259,48.754366],"type":"Point"},"properties":{"osm_id":"1503496552","tag":{"amenity":"waste_basket"}},"type":"Feature"},
	{"geometry":{"coordinates":[9.452381,48.764478],"type":"Point"},"properties":{"osm_id":"1503496560","tag":{"amenity":"waste_basket"}},"type":"Feature"},
	{"geometry":{"coordinates":[9.444012,48.785393],"type":"Point"},"properties":{"osm_id":"1837019671","tag":{"amenity":"waste_basket"}},"type":"Feature"},
	{"geometry":{"coordinates":[9.468885,48.800918],"type":"Point"},"properties":{"osm_id":"2870498050","tag":{"amenity":"waste_basket"}},"type":"Feature"},
	{"geometry":{"coordinates":[9.439085,48.806579],"type":"Point"},"properties":{"osm_id":"2870544421","tag":{"amenity":"recycling","recycling:clothes":"yes","recycling:shoes":"yes","recycling_type":"container"}},"type":"Feature"},
	{"geometry":{"coordinates":[9.437003,48.806807],"type":"Point"},"properties":{"osm_id":"2870544422","tag":{"amenity":"waste_basket"}},"type":"Feature"},
	{"geometry":{"coordinates":[9.478658,48.758558],"type":"Point"},"properties":{"osm_id":"3327054734","tag":{"amenity":"waste_basket"}},"type":"Feature"},
	{"geometry":{"coordinates":[9.454862,48.805478],"type":"Point"},"properties":{"osm_id":"5859028530","tag":{"amenity":"waste_basket","waste":"trash"}},"type":"Feature"},
	{"geometry":{"coordinates":[9.459385,48.802799],"type":"Point"},"properties":{"osm_id":"5859028531","tag":{"amenity":"waste_basket","waste":"trash"}},"type":"Feature"},
	{"geometry":{"coordinates":[9.467421,48.803005],"type":"Point"},"properties":{"osm_id":"5859095462","tag":{"amenity":"waste_basket","waste":"trash"}},"type":"Feature"},
	{"geometry":{"coordinates":[9.470224,48.802985],"type":"Point"},"properties":{"osm_id":"5859096813","tag":{"amenity":"waste_basket","waste":"dog_excrement"}},"type":"Feature"},
	{"geometry":{"coordinates":[9.463734,48.801817],"type":"Point"},"properties":{"osm_id":"5859630924","tag":{"amenity":"waste_basket"}},"type":"Feature"},
	{"geometry":{"coordinates":[9.48556,48.754483],"type":"Point"},"properties":{"osm_id":"6839241735","tag":{"amenity":"recycling","recycling:clothes":"yes"}},"type":"Feature"},
	{"geometry":{"coordinates":[9.434296,48.803999],"type":"Point"},"properties":{"osm_id":"6913618895","tag":{"amenity":"recycling","opening_hours":"Mo-Sa 08:00-20:00; Su,PH off","operator":"ALBA","recycling:glass_bottles":"yes","recycling:paper":"yes","recycling_type":"container","wheelchair":"yes"}},"type":"Feature"},
	{"geometry":{"coordinates":[9.4343,48.80405],"type":"Point"},"properties":{"osm_id":"6913618896","tag":{"amenity":"waste_basket","waste":"trash"}},"type":"Feature"},
	{"geometry":{"coordinates":[9.436392,48.80686],"type":"Point"},"properties":{"osm_id":"7475303628","tag":{"amenity":"recycling","recycling:glass_bottles":"yes","recycling:paper":"yes"}},"type":"Feature"},
	{"geometry":{"coordinates":[9.439834,48.806401],"type":"Point"},"properties":{"osm_id":"7475369174","tag":{"amenity":"recycling","recycling:clothes":"yes"}},"type":"Feature"},
	{"geometry":{"coordinates":[9.405297,48.80664],"type":"Point"},"properties":{"osm_id":"7475416721","tag":{"amenity":"waste_basket"}},"type":"Feature"},
	{"geometry":{"coordinates":[9.405017,48.789879],"type":"Point"},"properties":{"osm_id":"7726966751","tag":{"amenity":"waste_basket","waste":"trash"}},"type":"Feature"},
	{"geometry":{"coordinates":[9.40765,48.7946],"type":"Point"},"properties":{"osm_id":"7726966753","tag":{"amenity":"waste_basket","waste":"trash"}},"type":"Feature"},
	{"geometry":{"coordinates":[9.405121,48.799578],"type":"Point"},"properties":{"osm_id":"7726966760","tag":{"amenity":"waste_basket","waste":"trash"}},"type":"Feature"},
	{"geometry":{"coordinates":[9.415149,48.796292],"type":"Point"},"properties":{"osm_id":"7726966764","tag":{"amenity":"waste_basket","waste":"trash"}},"type":"Feature"},
	{"geometry":{"coordinates":[9.407011,48.793768],"type":"Point"},"properties":{"osm_id":"7726966771","tag":{"amenity":"waste_basket","vending":"excrement_bags","waste":"trash"}},"type":"Feature"},
	{"geometry":{"coordinates":[9.406987,48.79365],"type":"Point"},"properties":{"osm_id":"7726966772","tag":{"amenity":"recycling","recycling:glass_bottles":"yes","recycling:magazines":"yes","recycling:newspaper":"yes","recycling:paper":"yes","recycling_type":"container"}},"type":"Feature"},
	{"geometry":{"coordinates":[9.404474,48.788679],"type":"Point"},"properties":{"osm_id":"7726966774","tag":{"amenity":"waste_basket","waste":"trash"}},"type":"Feature"},
	{"geometry":{"coordinates":[9.439395,48.80536],"type":"Point"},"properties":{"osm_id":"8153582239","tag":{"amenity":"waste_basket","covered":"yes","waste":"trash"}},"type":"Feature"},
	{"geometry":{"coordinates":[9.439852,48.805259],"type":"Point"},"properties":{"osm_id":"8153582258","tag":{"amenity":"waste_basket","waste":"trash"}},"type":"Feature"},
	{"geometry":{"coordinates":[9.439881,48.805273],"type":"Point"},"properties":{"osm_id":"8153582260","tag":{"amenity":"waste_basket","waste":"trash"}},"type":"Feature"},
	{"geometry":{"coordinates":[9.439634,48.805389],"type":"Point"},"properties":{"osm_id":"8153582262","tag":{"amenity":"waste_basket","level":"0","waste":"trash"}},"type":"Feature"},
	{"geometry":{"coordinates":[9.439797,48.805149],"type":"Point"},"properties":{"osm_id":"8153582264","tag":{"amenity":"waste_basket","level":"0","waste":"trash"}},"type":"Feature"},
	{"geometry":{"coordinates":[9.439231,48.805286],"type":"Point"},"properties":{"osm_id":"8153582273","tag":{"amenity":"waste_basket","level":"0","waste":"trash"}},"type":"Feature"},
	{"geometry":{"coordinates":[9.439574,48.805205],"type":"Point"},"properties":{"osm_id":"8153582279","tag":{"amenity":"waste_basket","level":"0","waste":"trash"}},"type":"Feature"},
	{"geometry":{"coordinates":[9.459161,48.779202],"type":"Point"},"properties":{"osm_id":"8434260260","tag":{"amenity":"waste_basket","material":"metal","waste":"trash"}},"type":"Feature"},
	{"geometry":{"coordinates":[9.479989,48.798868],"type":"Point"},"properties":{"osm_id":"8639856757","tag":{"amenity":"waste_basket","waste":"trash"}},"type":"Feature"},
	{"geometry":{"coordinates":[9.482823,48.798946],"type":"Point"},"properties":{"osm_id":"8639920082","tag":{"amenity":"waste_basket","waste":"trash"}},"type":"Feature"},
	{"geometry":{"coordinates":[9.479611,48.800045],"type":"Point"},"properties":{"osm_id":"8639945812","tag":{"amenity":"waste_basket","waste":"trash"}},"type":"Feature"},
	{"geometry":{"coordinates":[9.479421,48.799407],"type":"Point"},"properties":{"osm_id":"8639945814","tag":{"amenity":"waste_basket","waste":"trash"}},"type":"Feature"},
	{"geometry":{"coordinates":[9.477432,48.802143],"type":"Point"},"properties":{"osm_id":"9134577203","tag":{"entrance":"yes"}},"type":"Feature"},
	{"geometry":{"coordinates":[9.477177,48.802178],"type":"Point"},"properties":{"osm_id":"9134577204","tag":{"entrance":"yes"}},"type":"Feature"},
	{"geometry":{"coordinates":[9.477008,48.802214],"type":"Point"},"properties":{"osm_id":"9134577211","tag":{"amenity":"recycling","recycling_type":"container"}},"type":"Feature"}
]
}
