{
"type": "FeatureCollection",
"features": [
	{"geometry":{"coordinates":[9.433985,48.7079],"type":"Point"},"properties":{"osm_id":"255863986","tag":{"amenity":"recycling","recycling:clothes":"yes","recycling:glass":"yes"}},"type":"Feature"},
	{"geometry":{"coordinates":[9.412779,48.716749],"type":"Point"},"properties":{"osm_id":"286375652","tag":{"amenity":"recycling","recycling:glass_bottles":"yes"}},"type":"Feature"},
	{"geometry":{"coordinates":[9.429623,48.718211],"type":"Point"},"properties":{"osm_id":"302716423","tag":{"amenity":"recycling","recycling:clothes":"yes","recycling_type":"container"}},"type":"Feature"},
	{"geometry":{"coordinates":[9.428792,48.717494],"type":"Point"},"properties":{"osm_id":"302716446","tag":{"amenity":"recycling","location":"overground","recycling:glass_bottles":"yes","recycling_type":"container"}},"type":"Feature"},
	{"geometry":{"coordinates":[9.414572,48.708123],"type":"Point"},"properties":{"osm_id":"315820275","tag":{"addr:city":"Plochingen","amenity":"recycling","recycling:glass":"yes","recycling_type":"container"}},"type":"Feature"},
	{"geometry":{"coordinates":[9.471048,48.696101],"type":"Point"},"properties":{"osm_id":"321028265","tag":{"amenity":"recycling","recycling:clothes":"yes","recycling:glass":"yes"}},"type":"Feature"},
	{"geometry":{"coordinates":[9.448049,48.712352],"type":"Point"},"properties":{"osm_id":"322544309","tag":{"amenity":"recycling","recycling:glass_bottles":"yes","recycling_type":"container"}},"type":"Feature"},
	{"geometry":{"coordinates":[9.443821,48.713463],"type":"Point"},"properties":{"osm_id":"322545659","tag":{"amenity":"recycling","recycling:clothes":"yes","recycling:glass_bottles":"yes","recycling_type":"container"}},"type":"Feature"},
	{"geometry":{"coordinates":[9.466351,48.69376],"type":"Point"},"properties":{"osm_id":"330551562","tag":{"amenity":"recycling","location":"overground","recycling:clothes":"yes","recycling:glass_bottles":"yes","recycling_type":"container"}},"type":"Feature"},
	{"geometry":{"coordinates":[9.411786,48.696602],"type":"Point"},"properties":{"osm_id":"332669114","tag":{"amenity":"recycling","recycling:clothes":"yes","recycling_type":"container"}},"type":"Feature"},
	{"geometry":{"coordinates":[9.459173,48.712302],"type":"Point"},"properties":{"osm_id":"354969661","tag":{"amenity":"recycling","recycling:clothes":"yes","recycling_type":"container"}},"type":"Feature"},
	{"geometry":{"coordinates":[9.415099,48.714342],"type":"Point"},"properties":{"osm_id":"360362667","tag":{"amenity":"recycling","recycling:clothes":"yes","recycling:glass_bottles":"yes","recycling_type":"container"}},"type":"Feature"},
	{"geometry":{"coordinates":[9.418353,48.713595],"type":"Point"},"properties":{"osm_id":"360363392","tag":{"amenity":"recycling","recycling:glass_bottles":"yes","recycling_type":"container"}},"type":"Feature"},
	{"geometry":{"coordinates":[9.424349,48.71092],"type":"Point"},"properties":{"osm_id":"373463280","tag":{"amenity":"recycling","recycling:clothes":"yes","recycling:glass_bottles":"yes","recycling_type":"container"}},"type":"Feature"},
	{"geometry":{"coordinates":[9.418446,48.698471],"type":"Point"},"properties":{"osm_id":"418462011","tag":{"amenity":"recycling","recycling:clothes":"yes","recycling:glass_bottles":"yes","recycling_type":"container"}},"type":"Feature"},
	{"geometry":{"coordinates":[9.417829,48.692968],"type":"Point"},"properties":{"osm_id":"434105936","tag":{"amenity":"recycling","recycling:clothes":"yes","recycling:glass_bottles":"yes","recycling_type":"container"}},"type":"Feature"},
	{"geometry":{"coordinates":[9.42343,48.694649],"type":"Point"},"properties":{"osm_id":"434496507","tag":{"amenity":"recycling","recycling:clothes":"yes","recycling:glass":"yes","recycling:shoes":"yes"}},"type":"Feature"},
	{"geometry":{"coordinates":[9.42296,48.697848],"type":"Point"},"properties":{"osm_id":"440384910","tag":{"amenity":"recycling","recycling_type":"container"}},"type":"Feature"},
	{"geometry":{"coordinates":[9.480614,48.739012],"type":"Point"},"properties":{"osm_id":"440443436","tag":{"amenity":"recycling","recycling:cans":"yes","recycling:clothes":"yes","recycling:glass":"yes","recycling_type":"container"}},"type":"Feature"},
	{"geometry":{"coordinates":[9.413012,48.694108],"type":"Point"},"properties":{"osm_id":"440461089","tag":{"amenity":"recycling","recycling_type":"container"}},"type":"Feature"},
	{"geometry":{"coordinates":[9.417768,48.70152],"type":"Point"},"properties":{"barrier":"gate","osm_id":"458322846"},"type":"Feature"},
	{"geometry":{"coordinates":[9.42802,48.709669],"type":"Point"},"properties":{"osm_id":"600072745","tag":{"amenity":"recycling","recycling:clothes":"yes","recycling:glass_bottles":"yes"}},"type":"Feature"},
	{"geometry":{"coordinates":[9.456991,48.710622],"type":"Point"},"properties":{"osm_id":"1326074620","tag":{"amenity":"recycling","recycling:glass_bottles":"yes","recycling_type":"container"}},"type":"Feature"},
	{"geometry":{"coordinates":[9.481993,48.729438],"type":"Point"},"properties":{"name":"Gr\u00c3\u00bcnschnitt-Sammelplatz","osm_id":"1332750693","tag":{"amenity":"recycling","recycling:green_waste":"yes","recycling_type":"centre"}},"type":"Feature"},
	{"geometry":{"coordinates":[9.41247,48.714498],"type":"Point"},"properties":{"osm_id":"1347774772","tag":{"amenity":"recycling","designation":"Altglas Container","recycling:glass_bottles":"yes","recycling_type":"container"}},"type":"Feature"},
	{"geometry":{"coordinates":[9.443485,48.743584],"type":"Point"},"properties":{"osm_id":"1496690815","tag":{"amenity":"waste_basket"}},"type":"Feature"},
	{"geometry":{"coordinates":[9.438416,48.746421],"type":"Point"},"properties":{"osm_id":"1496768589","tag":{"amenity":"waste_basket"}},"type":"Feature"},
	{"geometry":{"coordinates":[9.411067,48.73875],"type":"Point"},"properties":{"osm_id":"1744501304","tag":{"amenity":"recycling","recycling:cds":"yes","recycling:small_appliances":"yes","recycling_type":"centre"}},"type":"Feature"},
	{"geometry":{"coordinates":[9.451803,48.737699],"type":"Point"},"properties":{"osm_id":"1749948055","tag":{"amenity":"waste_basket"}},"type":"Feature"},
	{"geometry":{"coordinates":[9.447504,48.737905],"type":"Point"},"properties":{"osm_id":"1749948109","tag":{"amenity":"waste_basket"}},"type":"Feature"},
	{"geometry":{"coordinates":[9.46603,48.708352],"type":"Point"},"properties":{"osm_id":"1799706760","tag":{"amenity":"recycling","recycling:clothes":"yes","recycling_type":"container"}},"type":"Feature"},
	{"geometry":{"coordinates":[9.473992,48.708973],"type":"Point"},"properties":{"osm_id":"1973407838","tag":{"amenity":"recycling","recycling:clothes":"yes","recycling_type":"container"}},"type":"Feature"},
	{"geometry":{"coordinates":[9.472495,48.715127],"type":"Point"},"properties":{"osm_id":"2665759262","tag":{"amenity":"recycling","recycling:glass_bottles":"yes","recycling_type":"container"}},"type":"Feature"},
	{"geometry":{"coordinates":[9.431723,48.714855],"type":"Point"},"properties":{"osm_id":"2750687859","tag":{"amenity":"recycling","recycling:clothes":"yes","recycling:glass_bottles":"yes","recycling_type":"container"}},"type":"Feature"},
	{"geometry":{"coordinates":[9.459416,48.708336],"type":"Point"},"properties":{"osm_id":"3012198325","tag":{"amenity":"recycling","recycling:clothes":"yes","recycling_type":"container"}},"type":"Feature"},
	{"geometry":{"coordinates":[9.472738,48.708858],"type":"Point"},"properties":{"osm_id":"3059037072","tag":{"amenity":"recycling","recycling:clothes":"yes","recycling_type":"container"}},"type":"Feature"},
	{"geometry":{"coordinates":[9.481663,48.748379],"type":"Point"},"properties":{"name":"Hundekot M\u00c3\u00bclleimer (kein T\u00c3\u00bctenspender)","osm_id":"3326567324","tag":{"amenity":"waste_basket"}},"type":"Feature"},
	{"geometry":{"coordinates":[9.419636,48.704432],"type":"Point"},"properties":{"osm_id":"3468319708","tag":{"amenity":"waste_basket"}},"type":"Feature"},
	{"geometry":{"coordinates":[9.41691,48.707387],"type":"Point"},"properties":{"osm_id":"3468340588","tag":{"amenity":"waste_basket"}},"type":"Feature"},
	{"geometry":{"coordinates":[9.415087,48.711374],"type":"Point"},"properties":{"osm_id":"3468994818","tag":{"amenity":"waste_basket"}},"type":"Feature"},
	{"geometry":{"coordinates":[9.415083,48.711711],"type":"Point"},"properties":{"osm_id":"3468994822","tag":{"amenity":"waste_basket"}},"type":"Feature"},
	{"geometry":{"coordinates":[9.411495,48.738395],"type":"Point"},"properties":{"name":"Wertstoffe","osm_id":"3526391910","tag":{"amenity":"recycling","recycling_type":"centre"}},"type":"Feature"},
	{"geometry":{"coordinates":[9.416151,48.71545],"type":"Point"},"properties":{"osm_id":"3729121351","tag":{"amenity":"recycling","operator":"Malteser","recycling:clothes":"yes","recycling:shoes":"yes","recycling_type":"container"}},"type":"Feature"},
	{"geometry":{"coordinates":[9.416174,48.71546],"type":"Point"},"properties":{"osm_id":"3729121352","ref":"ES-65","tag":{"amenity":"recycling","operator":"HuPS24 e.K.","recycling:clothes":"yes","recycling:shoes":"yes","recycling_type":"container"}},"type":"Feature"},
	{"geometry":{"coordinates":[9.41183,48.71182],"type":"Point"},"properties":{"osm_id":"4239393187","tag":{"amenity":"waste_basket"}},"type":"Feature"},
	{"geometry":{"coordinates":[9.411297,48.712349],"type":"Point"},"properties":{"osm_id":"4239395200","tag":{"amenity":"waste_basket","level":"0"}},"type":"Feature"},
	{"geometry":{"coordinates":[9.410994,48.712697],"type":"Point"},"properties":{"osm_id":"4239395202","tag":{"amenity":"waste_basket","level":"0"}},"type":"Feature"},
	{"geometry":{"coordinates":[9.410876,48.712751],"type":"Point"},"properties":{"osm_id":"4239395206","tag":{"amenity":"waste_basket","level":"0"}},"type":"Feature"},
	{"geometry":{"coordinates":[9.411175,48.712803],"type":"Point"},"properties":{"osm_id":"4239395209","tag":{"amenity":"waste_basket","level":"0"}},"type":"Feature"},
	{"geometry":{"coordinates":[9.411142,48.712841],"type":"Point"},"properties":{"osm_id":"4239395211","tag":{"amenity":"waste_basket","level":"0"}},"type":"Feature"},
	{"geometry":{"coordinates":[9.463727,48.708027],"type":"Point"},"properties":{"osm_id":"4239971500","tag":{"amenity":"waste_basket"}},"type":"Feature"},
	{"geometry":{"coordinates":[9.464115,48.70803],"type":"Point"},"properties":{"osm_id":"4239971501","tag":{"amenity":"waste_basket"}},"type":"Feature"},
	{"geometry":{"coordinates":[9.465068,48.708033],"type":"Point"},"properties":{"osm_id":"4239971504","tag":{"amenity":"waste_basket"}},"type":"Feature"},
	{"geometry":{"coordinates":[9.464513,48.708033],"type":"Point"},"properties":{"osm_id":"4239971505","tag":{"amenity":"waste_basket"}},"type":"Feature"},
	{"geometry":{"coordinates":[9.463909,48.707881],"type":"Point"},"properties":{"osm_id":"4240027137","tag":{"amenity":"waste_basket"}},"type":"Feature"},
	{"geometry":{"coordinates":[9.48284,48.710399],"type":"Point"},"properties":{"barrier":"kissing_gate","osm_id":"5168102407"},"type":"Feature"},
	{"geometry":{"coordinates":[9.420803,48.706341],"type":"Point"},"properties":{"osm_id":"6341580047","tag":{"amenity":"waste_basket"}},"type":"Feature"},
	{"geometry":{"coordinates":[9.425694,48.705038],"type":"Point"},"properties":{"osm_id":"6341580053","tag":{"amenity":"recycling","recycling:glass":"yes","recycling_type":"container"}},"type":"Feature"},
	{"geometry":{"coordinates":[9.480251,48.745191],"type":"Point"},"properties":{"osm_id":"7802901381","tag":{"amenity":"waste_basket","description":"Hundekot M\u00c3\u00bclleimer (kein T\u00c3\u00bctenspender)","waste":"dog_excrement"}},"type":"Feature"},
	{"geometry":{"coordinates":[9.476864,48.735268],"type":"Point"},"properties":{"osm_id":"7823260610","tag":{"amenity":"recycling","recycling:clothes":"yes","recycling:shoes":"yes","recycling_type":"container"}},"type":"Feature"}
]
}
