{
"type": "FeatureCollection",
"features": [
	{"geometry":{"coordinates":[9.433435,47.664358],"type":"Point"},"properties":{"osm_id":"158821250","tag":{"amenity":"recycling","recycling_type":"container"}},"type":"Feature"},
	{"geometry":{"coordinates":[9.451635,47.659041],"type":"Point"},"properties":{"osm_id":"289736281","tag":{"amenity":"recycling","recycling:glass_bottles":"yes"}},"type":"Feature"},
	{"geometry":{"coordinates":[9.483655,47.658298],"type":"Point"},"properties":{"osm_id":"298703412","tag":{"amenity":"recycling","location":"overground","recycling:glass_bottles":"yes","recycling:paper":"yes","recycling_type":"container"}},"type":"Feature"},
	{"geometry":{"coordinates":[9.484341,47.652429],"type":"Point"},"properties":{"osm_id":"306228207","tag":{"amenity":"recycling","location":"overground","recycling:cans":"yes","recycling:clothes":"yes","recycling:glass_bottles":"yes","recycling:shoes":"yes","recycling_type":"container"}},"type":"Feature"},
	{"geometry":{"coordinates":[9.488383,47.692063],"type":"Point"},"properties":{"osm_id":"366720541","tag":{"amenity":"waste_basket","recycling:aluminium":"yes","recycling:cans":"yes","recycling:clothes":"yes","recycling:glass_bottles":"yes","recycling:paper":"yes","recycling_type":"container"}},"type":"Feature"},
	{"geometry":{"coordinates":[9.4906,47.663263],"type":"Point"},"properties":{"osm_id":"600471260","tag":{"amenity":"recycling","location":"overground","recycling:glass_bottles":"yes","recycling:paper":"yes","recycling_type":"container"}},"type":"Feature"},
	{"geometry":{"coordinates":[9.463753,47.652538],"type":"Point"},"properties":{"osm_id":"603946749","tag":{"amenity":"recycling","recycling:glass_bottles":"yes","recycling_type":"container"}},"type":"Feature"},
	{"geometry":{"coordinates":[9.475707,47.65897],"type":"Point"},"properties":{"osm_id":"713845728","tag":{"amenity":"recycling","location":"overground","recycling:cans":"yes","recycling:glass_bottles":"yes","recycling:paper":"yes","recycling_type":"container"}},"type":"Feature"},
	{"geometry":{"coordinates":[9.467541,47.68643],"type":"Point"},"properties":{"osm_id":"746684817","tag":{"amenity":"recycling","recycling:cans":"yes","recycling:glass_bottles":"yes","recycling:paper":"yes","recycling_type":"container"}},"type":"Feature"},
	{"geometry":{"coordinates":[9.461614,47.681977],"type":"Point"},"properties":{"osm_id":"1039874751","tag":{"amenity":"recycling","recycling_type":"container"}},"type":"Feature"},
	{"geometry":{"coordinates":[9.457984,47.665704],"type":"Point"},"properties":{"osm_id":"1310462996","tag":{"amenity":"recycling","recycling_type":"container"}},"type":"Feature"},
	{"geometry":{"coordinates":[9.418342,47.671614],"type":"Point"},"properties":{"osm_id":"1368152617","tag":{"amenity":"recycling","recycling:cans":"yes","recycling:glass_bottles":"yes","recycling:paper":"yes","recycling_type":"container"}},"type":"Feature"},
	{"geometry":{"coordinates":[9.415856,47.673687],"type":"Point"},"properties":{"osm_id":"1368152621","tag":{"amenity":"recycling","recycling:clothes":"yes","recycling_type":"container"}},"type":"Feature"},
	{"geometry":{"coordinates":[9.470104,47.655657],"type":"Point"},"properties":{"osm_id":"1914353391","tag":{"amenity":"recycling","recycling:cans":"yes","recycling:glass_bottles":"yes","recycling_type":"container"}},"type":"Feature"},
	{"geometry":{"coordinates":[9.479402,47.650512],"type":"Point"},"properties":{"osm_id":"2392156961","tag":{"amenity":"waste_basket"}},"type":"Feature"},
	{"geometry":{"coordinates":[9.416428,47.688585],"type":"Point"},"properties":{"osm_id":"2641508991","tag":{"amenity":"recycling","recycling:paper":"yes","recycling_type":"container"}},"type":"Feature"},
	{"geometry":{"coordinates":[9.429214,47.664207],"type":"Point"},"properties":{"osm_id":"3120498656","tag":{"amenity":"waste_basket","level":"0","waste":"trash"}},"type":"Feature"},
	{"geometry":{"coordinates":[9.489012,47.667822],"type":"Point"},"properties":{"osm_id":"3184146980","tag":{"amenity":"recycling","recycling:clothes":"yes","recycling:glass_bottles":"yes","recycling:paper":"yes","recycling_type":"container"}},"type":"Feature"},
	{"geometry":{"coordinates":[9.438674,47.676097],"type":"Point"},"properties":{"osm_id":"3336908683","tag":{"amenity":"recycling","recycling:clothes":"yes","recycling_type":"container"}},"type":"Feature"},
	{"geometry":{"coordinates":[9.438659,47.676078],"type":"Point"},"properties":{"osm_id":"3336908684","tag":{"amenity":"recycling","recycling:glass_bottles":"yes","recycling_type":"container"}},"type":"Feature"},
	{"geometry":{"coordinates":[9.438693,47.676114],"type":"Point"},"properties":{"osm_id":"3366706065","tag":{"amenity":"recycling","recycling:cans":"yes","recycling:scrap_metal":"yes","recycling_type":"container"}},"type":"Feature"},
	{"geometry":{"coordinates":[9.416496,47.688586],"type":"Point"},"properties":{"osm_id":"3394324938","tag":{"amenity":"recycling","recycling:cans":"yes","recycling:scrap_metal":"no","recycling_type":"container"}},"type":"Feature"},
	{"geometry":{"coordinates":[9.41646,47.688586],"type":"Point"},"properties":{"osm_id":"3394324939","tag":{"amenity":"recycling","recycling:glass_bottles":"yes","recycling_type":"container"}},"type":"Feature"},
	{"geometry":{"coordinates":[9.441997,47.660428],"type":"Point"},"properties":{"osm_id":"3503578897","tag":{"amenity":"recycling","recycling:clothes":"yes","recycling:glass_bottles":"yes","recycling_type":"container"}},"type":"Feature"},
	{"geometry":{"coordinates":[9.48348,47.650118],"type":"Point"},"properties":{"osm_id":"3620787535","tag":{"amenity":"waste_basket"}},"type":"Feature"},
	{"geometry":{"coordinates":[9.491373,47.650703],"type":"Point"},"properties":{"osm_id":"3620807887","tag":{"amenity":"waste_basket","check_date":"2021-07-27"}},"type":"Feature"},
	{"geometry":{"coordinates":[9.431597,47.664371],"type":"Point"},"properties":{"osm_id":"3654083738","tag":{"amenity":"recycling","recycling:clothes":"yes","recycling_type":"container"}},"type":"Feature"},
	{"geometry":{"coordinates":[9.433682,47.670472],"type":"Point"},"properties":{"osm_id":"3701044437","tag":{"amenity":"recycling","recycling:glass_bottles":"yes","recycling_type":"container"}},"type":"Feature"},
	{"geometry":{"coordinates":[9.491835,47.673425],"type":"Point"},"properties":{"osm_id":"3733685559","tag":{"amenity":"recycling","check_date:recycling":"2021-09-17","recycling:clothes":"yes","recycling_type":"container"}},"type":"Feature"},
	{"geometry":{"coordinates":[9.426569,47.668697],"type":"Point"},"properties":{"osm_id":"3944775525","tag":{"amenity":"recycling","recycling:glass_bottles":"yes","recycling_type":"container"}},"type":"Feature"},
	{"geometry":{"coordinates":[9.463556,47.660079],"type":"Point"},"properties":{"osm_id":"3955658541","tag":{"amenity":"recycling","recycling:cans":"yes","recycling:glass_bottles":"yes","recycling_type":"container"}},"type":"Feature"},
	{"geometry":{"coordinates":[9.440567,47.675726],"type":"Point"},"properties":{"osm_id":"3955658544","tag":{"amenity":"recycling","recycling:clothes":"yes","recycling_type":"container"}},"type":"Feature"},
	{"geometry":{"coordinates":[9.46821,47.669657],"type":"Point"},"properties":{"osm_id":"3981918130","tag":{"amenity":"recycling","operator":"Deutsches Rotes Kreuz","recycling:clothes":"yes","recycling:shoes":"yes","recycling_type":"container"}},"type":"Feature"},
	{"geometry":{"coordinates":[9.468158,47.669675],"type":"Point"},"properties":{"osm_id":"3981918131","tag":{"amenity":"recycling","recycling:glass_bottles":"yes","recycling_type":"container"}},"type":"Feature"},
	{"geometry":{"coordinates":[9.468159,47.669711],"type":"Point"},"properties":{"osm_id":"3981918132","tag":{"amenity":"recycling","recycling:cans":"yes","recycling:scrap_metal":"yes","recycling_type":"container"}},"type":"Feature"},
	{"geometry":{"coordinates":[9.480836,47.657267],"type":"Point"},"properties":{"osm_id":"4078500441","tag":{"amenity":"recycling","recycling:clothes":"yes","recycling_type":"container"}},"type":"Feature"},
	{"geometry":{"coordinates":[9.475644,47.669832],"type":"Point"},"properties":{"osm_id":"4112310891","tag":{"amenity":"recycling","recycling:glass_bottles":"yes","recycling_type":"container"}},"type":"Feature"},
	{"geometry":{"coordinates":[9.479726,47.665928],"type":"Point"},"properties":{"osm_id":"4112310903","tag":{"amenity":"recycling","covered":"no","indoor":"no","recycling:cans":"yes","recycling:cardboard":"no","recycling:clothes":"yes","recycling:glass":"yes","recycling:glass_bottles":"yes","recycling:paper":"no","recycling:plastic":"no","recycling:plastic_bottles":"no","recycling:plastic_packaging":"no","recycling:waste":"no","recycling_type":"container"}},"type":"Feature"},
	{"geometry":{"coordinates":[9.475429,47.669843],"type":"Point"},"properties":{"osm_id":"4112320314","tag":{"amenity":"recycling","operator":"DRK","recycling:clothes":"yes","recycling_type":"container"}},"type":"Feature"},
	{"geometry":{"coordinates":[9.485563,47.667285],"type":"Point"},"properties":{"osm_id":"4394446085","tag":{"amenity":"waste_basket"}},"type":"Feature"},
	{"geometry":{"coordinates":[9.489085,47.670386],"type":"Point"},"properties":{"osm_id":"4394446274","tag":{"amenity":"waste_basket"}},"type":"Feature"},
	{"geometry":{"coordinates":[9.473758,47.652527],"type":"Point"},"properties":{"osm_id":"4398059459","tag":{"amenity":"waste_basket"}},"type":"Feature"},
	{"geometry":{"coordinates":[9.480213,47.672078],"type":"Point"},"properties":{"osm_id":"4536636400","tag":{"amenity":"recycling","recycling:glass_bottles":"yes","recycling_type":"container"}},"type":"Feature"},
	{"geometry":{"coordinates":[9.477161,47.656668],"type":"Point"},"properties":{"osm_id":"4640748663","tag":{"amenity":"recycling","location":"overground","recycling:clothes":"yes","recycling:glass_bottles":"yes","recycling:paper":"yes","recycling_type":"container"}},"type":"Feature"},
	{"geometry":{"coordinates":[9.48627,47.661318],"type":"Point"},"properties":{"osm_id":"4792962994","tag":{"amenity":"recycling","recycling:clothes":"yes","recycling_type":"container"}},"type":"Feature"},
	{"geometry":{"coordinates":[9.488323,47.662511],"type":"Point"},"properties":{"osm_id":"4793005028","tag":{"amenity":"waste_basket"}},"type":"Feature"},
	{"geometry":{"coordinates":[9.472783,47.652483],"type":"Point"},"properties":{"osm_id":"4802419435","tag":{"amenity":"waste_basket"}},"type":"Feature"},
	{"geometry":{"coordinates":[9.479565,47.651018],"type":"Point"},"properties":{"osm_id":"5316484476","tag":{"amenity":"waste_basket"}},"type":"Feature"},
	{"geometry":{"coordinates":[9.47912,47.65017],"type":"Point"},"properties":{"osm_id":"5316485696","tag":{"amenity":"waste_basket"}},"type":"Feature"},
	{"geometry":{"coordinates":[9.478933,47.64997],"type":"Point"},"properties":{"osm_id":"5316486131","tag":{"amenity":"waste_basket"}},"type":"Feature"},
	{"geometry":{"coordinates":[9.480095,47.650992],"type":"Point"},"properties":{"osm_id":"5316874448","tag":{"amenity":"waste_basket"}},"type":"Feature"},
	{"geometry":{"coordinates":[9.473743,47.651911],"type":"Point"},"properties":{"osm_id":"5321456514","tag":{"amenity":"waste_basket"}},"type":"Feature"},
	{"geometry":{"coordinates":[9.472989,47.651951],"type":"Point"},"properties":{"osm_id":"5321459764","tag":{"amenity":"waste_basket"}},"type":"Feature"},
	{"geometry":{"coordinates":[9.474956,47.66053],"type":"Point"},"properties":{"osm_id":"5960847545","tag":{"amenity":"waste_basket"}},"type":"Feature"},
	{"geometry":{"coordinates":[9.474146,47.659197],"type":"Point"},"properties":{"osm_id":"5960847546","tag":{"amenity":"waste_basket"}},"type":"Feature"},
	{"geometry":{"coordinates":[9.482605,47.650362],"type":"Point"},"properties":{"osm_id":"5983800510","tag":{"amenity":"waste_basket"}},"type":"Feature"},
	{"geometry":{"coordinates":[9.482579,47.671794],"type":"Point"},"properties":{"osm_id":"5992910488","tag":{"amenity":"waste_basket"}},"type":"Feature"},
	{"geometry":{"coordinates":[9.477817,47.663008],"type":"Point"},"properties":{"osm_id":"6399542355","tag":{"amenity":"waste_basket"}},"type":"Feature"},
	{"geometry":{"coordinates":[9.475795,47.661149],"type":"Point"},"properties":{"osm_id":"6399578534","tag":{"amenity":"waste_basket"}},"type":"Feature"},
	{"geometry":{"coordinates":[9.477081,47.660724],"type":"Point"},"properties":{"osm_id":"6410407203","tag":{"amenity":"waste_basket"}},"type":"Feature"},
	{"geometry":{"coordinates":[9.46102,47.651158],"type":"Point"},"properties":{"osm_id":"6412603773","tag":{"amenity":"waste_basket"}},"type":"Feature"},
	{"geometry":{"coordinates":[9.46398,47.650542],"type":"Point"},"properties":{"osm_id":"6412603774","tag":{"amenity":"waste_basket"}},"type":"Feature"},
	{"geometry":{"coordinates":[9.461634,47.650567],"type":"Point"},"properties":{"osm_id":"6412603841","tag":{"amenity":"waste_basket"}},"type":"Feature"},
	{"geometry":{"coordinates":[9.476595,47.662588],"type":"Point"},"properties":{"osm_id":"6412603846","tag":{"amenity":"waste_basket"}},"type":"Feature"},
	{"geometry":{"coordinates":[9.460768,47.651395],"type":"Point"},"properties":{"osm_id":"6412604846","tag":{"amenity":"waste_basket"}},"type":"Feature"},
	{"geometry":{"coordinates":[9.476664,47.663144],"type":"Point"},"properties":{"name":"Riedlewald","osm_id":"6412604853","tag":{"amenity":"waste_basket","hiking":"yes","information":"guidepost","tourism":"information"}},"type":"Feature"},
	{"geometry":{"coordinates":[9.443785,47.657287],"type":"Point"},"properties":{"osm_id":"6579914913","tag":{"amenity":"waste_basket"}},"type":"Feature"},
	{"geometry":{"coordinates":[9.465082,47.648359],"type":"Point"},"properties":{"osm_id":"6579914976","tag":{"amenity":"waste_basket"}},"type":"Feature"},
	{"geometry":{"coordinates":[9.465178,47.648405],"type":"Point"},"properties":{"osm_id":"6579914979","tag":{"amenity":"waste_basket"}},"type":"Feature"},
	{"geometry":{"coordinates":[9.475813,47.651551],"type":"Point"},"properties":{"osm_id":"6611061949","tag":{"amenity":"waste_basket"}},"type":"Feature"},
	{"geometry":{"coordinates":[9.473336,47.652909],"type":"Point"},"properties":{"osm_id":"6949812941","tag":{"amenity":"waste_basket"}},"type":"Feature"},
	{"geometry":{"coordinates":[9.474128,47.653147],"type":"Point"},"properties":{"osm_id":"7723448513","tag":{"amenity":"waste_basket","level":"0","waste":"trash"}},"type":"Feature"},
	{"geometry":{"coordinates":[9.474143,47.653289],"type":"Point"},"properties":{"osm_id":"7723448535","tag":{"amenity":"waste_basket","level":"0","waste":"trash"}},"type":"Feature"},
	{"geometry":{"coordinates":[9.474906,47.652883],"type":"Point"},"properties":{"osm_id":"7728026936","tag":{"amenity":"waste_basket","waste":"trash"}},"type":"Feature"},
	{"geometry":{"coordinates":[9.474821,47.652886],"type":"Point"},"properties":{"osm_id":"7728026937","tag":{"amenity":"waste_basket","waste":"trash"}},"type":"Feature"},
	{"geometry":{"coordinates":[9.429258,47.664352],"type":"Point"},"properties":{"osm_id":"7728410403","tag":{"amenity":"waste_basket","waste":"trash"}},"type":"Feature"},
	{"geometry":{"coordinates":[9.417906,47.67203],"type":"Point"},"properties":{"osm_id":"7730144982","tag":{"amenity":"waste_basket","waste":"trash"}},"type":"Feature"},
	{"geometry":{"coordinates":[9.4165,47.672842],"type":"Point"},"properties":{"osm_id":"7730149717","tag":{"amenity":"waste_basket","waste":"trash"}},"type":"Feature"},
	{"geometry":{"coordinates":[9.411081,47.667406],"type":"Point"},"properties":{"osm_id":"7885066414","tag":{"amenity":"waste_basket"}},"type":"Feature"},
	{"geometry":{"coordinates":[9.418379,47.666512],"type":"Point"},"properties":{"osm_id":"7885071639","tag":{"amenity":"waste_basket"}},"type":"Feature"},
	{"geometry":{"coordinates":[9.478635,47.649811],"type":"Point"},"properties":{"osm_id":"7992253965","tag":{"amenity":"waste_basket"}},"type":"Feature"},
	{"geometry":{"coordinates":[9.439351,47.679389],"type":"Point"},"properties":{"osm_id":"7997208471","tag":{"amenity":"waste_basket","material":"concrete","waste":"trash"}},"type":"Feature"},
	{"geometry":{"coordinates":[9.444114,47.670887],"type":"Point"},"properties":{"osm_id":"7997208474","tag":{"amenity":"waste_basket","material":"metal","waste":"trash"}},"type":"Feature"},
	{"geometry":{"coordinates":[9.484504,47.676141],"type":"Point"},"properties":{"osm_id":"8024968712","tag":{"amenity":"waste_basket"}},"type":"Feature"},
	{"geometry":{"coordinates":[9.460777,47.652261],"type":"Point"},"properties":{"osm_id":"8024990271","tag":{"amenity":"waste_basket"}},"type":"Feature"},
	{"geometry":{"coordinates":[9.489344,47.674986],"type":"Point"},"properties":{"osm_id":"8024990955","tag":{"amenity":"waste_basket"}},"type":"Feature"},
	{"geometry":{"coordinates":[9.489704,47.675522],"type":"Point"},"properties":{"osm_id":"8024994751","tag":{"amenity":"waste_basket"}},"type":"Feature"},
	{"geometry":{"coordinates":[9.489563,47.675321],"type":"Point"},"properties":{"osm_id":"8024998870","tag":{"amenity":"waste_basket"}},"type":"Feature"},
	{"geometry":{"coordinates":[9.484022,47.675471],"type":"Point"},"properties":{"osm_id":"8024999353","tag":{"amenity":"waste_basket"}},"type":"Feature"},
	{"geometry":{"coordinates":[9.489427,47.675124],"type":"Point"},"properties":{"osm_id":"8025001364","tag":{"amenity":"waste_basket"}},"type":"Feature"},
	{"geometry":{"coordinates":[9.460613,47.652183],"type":"Point"},"properties":{"osm_id":"8025001365","tag":{"amenity":"waste_basket"}},"type":"Feature"},
	{"geometry":{"coordinates":[9.409512,47.688107],"type":"Point"},"properties":{"osm_id":"8038892478","tag":{"amenity":"waste_basket","waste":"trash"}},"type":"Feature"},
	{"geometry":{"coordinates":[9.458656,47.652556],"type":"Point"},"properties":{"osm_id":"8041909475","tag":{"amenity":"waste_basket"}},"type":"Feature"},
	{"geometry":{"coordinates":[9.459976,47.65256],"type":"Point"},"properties":{"osm_id":"8041912507","tag":{"amenity":"waste_basket"}},"type":"Feature"},
	{"geometry":{"coordinates":[9.468282,47.654098],"type":"Point"},"properties":{"osm_id":"8041917650","tag":{"amenity":"waste_basket"}},"type":"Feature"},
	{"geometry":{"coordinates":[9.467854,47.653791],"type":"Point"},"properties":{"osm_id":"8041917651","tag":{"amenity":"waste_basket"}},"type":"Feature"},
	{"geometry":{"coordinates":[9.433707,47.670461],"type":"Point"},"properties":{"osm_id":"8279164173","tag":{"amenity":"recycling","recycling:clothes":"yes"}},"type":"Feature"},
	{"geometry":{"coordinates":[9.455689,47.65958],"type":"Point"},"properties":{"osm_id":"8279177608","tag":{"amenity":"recycling","recycling:clothes":"yes","recycling_type":"container"}},"type":"Feature"},
	{"geometry":{"coordinates":[9.431219,47.663054],"type":"Point"},"properties":{"osm_id":"8587366782","tag":{"amenity":"waste_basket"}},"type":"Feature"},
	{"geometry":{"coordinates":[9.486818,47.686562],"type":"Point"},"properties":{"osm_id":"8644197083","tag":{"amenity":"waste_basket"}},"type":"Feature"},
	{"geometry":{"coordinates":[9.489073,47.68603],"type":"Point"},"properties":{"name":"Nur Restm\u00c3\u00bcll","osm_id":"8644200694","tag":{"amenity":"waste_basket"}},"type":"Feature"},
	{"geometry":{"coordinates":[9.489095,47.686149],"type":"Point"},"properties":{"name":"Nur Restm\u00c3\u00bcll","osm_id":"8644208881","tag":{"amenity":"waste_basket"}},"type":"Feature"},
	{"geometry":{"coordinates":[9.485983,47.684398],"type":"Point"},"properties":{"osm_id":"8644221317","tag":{"amenity":"waste_basket"}},"type":"Feature"},
	{"geometry":{"coordinates":[9.48917,47.686176],"type":"Point"},"properties":{"osm_id":"8644267408","tag":{"amenity":"waste_basket"}},"type":"Feature"},
	{"geometry":{"coordinates":[9.433003,47.67132],"type":"Point"},"properties":{"osm_id":"8665828794","tag":{"amenity":"waste_basket"}},"type":"Feature"},
	{"geometry":{"coordinates":[9.432675,47.67172],"type":"Point"},"properties":{"osm_id":"8665880897","tag":{"amenity":"waste_basket"}},"type":"Feature"},
	{"geometry":{"coordinates":[9.44219,47.668846],"type":"Point"},"properties":{"osm_id":"8665882171","tag":{"amenity":"waste_basket"}},"type":"Feature"},
	{"geometry":{"coordinates":[9.429973,47.67004],"type":"Point"},"properties":{"osm_id":"8670880408","tag":{"amenity":"waste_basket"}},"type":"Feature"},
	{"geometry":{"coordinates":[9.430165,47.669873],"type":"Point"},"properties":{"osm_id":"8670900547","tag":{"amenity":"waste_basket"}},"type":"Feature"},
	{"geometry":{"coordinates":[9.408877,47.684793],"type":"Point"},"properties":{"osm_id":"8673236646","tag":{"amenity":"waste_basket"}},"type":"Feature"},
	{"geometry":{"coordinates":[9.409228,47.683317],"type":"Point"},"properties":{"osm_id":"8673511669","tag":{"amenity":"waste_basket"}},"type":"Feature"},
	{"geometry":{"coordinates":[9.474653,47.675214],"type":"Point"},"properties":{"osm_id":"8702994703","tag":{"amenity":"waste_basket"}},"type":"Feature"},
	{"geometry":{"coordinates":[9.470598,47.678838],"type":"Point"},"properties":{"osm_id":"8717974386","tag":{"amenity":"waste_basket"}},"type":"Feature"},
	{"geometry":{"coordinates":[9.472352,47.684401],"type":"Point"},"properties":{"osm_id":"8718158194","tag":{"amenity":"waste_basket"}},"type":"Feature"},
	{"geometry":{"coordinates":[9.431153,47.672595],"type":"Point"},"properties":{"osm_id":"8718702130","tag":{"amenity":"waste_basket"}},"type":"Feature"},
	{"geometry":{"coordinates":[9.489157,47.675168],"type":"Point"},"properties":{"osm_id":"8721289011","tag":{"amenity":"waste_basket"}},"type":"Feature"},
	{"geometry":{"coordinates":[9.48999,47.675959],"type":"Point"},"properties":{"osm_id":"8752939901","tag":{"amenity":"waste_basket"}},"type":"Feature"},
	{"geometry":{"coordinates":[9.441267,47.657186],"type":"Point"},"properties":{"osm_id":"8762176538","tag":{"amenity":"waste_basket"}},"type":"Feature"},
	{"geometry":{"coordinates":[9.477606,47.654195],"type":"Point"},"properties":{"osm_id":"8764122452","tag":{"amenity":"waste_basket"}},"type":"Feature"}
]
}
