{
"type": "FeatureCollection",
"features": [
	{"geometry":{"coordinates":[9.450579,47.499886],"type":"Point"},"properties":{"osm_id":"581935387","tag":{"amenity":"recycling"}},"type":"Feature"},
	{"geometry":{"coordinates":[9.416904,47.506928],"type":"Point"},"properties":{"osm_id":"617264460","tag":{"amenity":"recycling","recycling:glass_bottles":"yes","recycling_type":"container"}},"type":"Feature"},
	{"geometry":{"coordinates":[9.464965,47.475208],"type":"Point"},"properties":{"name":"Sammelstelle Rathaus","osm_id":"2466334321","tag":{"amenity":"recycling","recycling_type":"centre"}},"type":"Feature"},
	{"geometry":{"coordinates":[9.491695,47.477893],"type":"Point"},"properties":{"name":"A-Region","osm_id":"3346119463","tag":{"amenity":"recycling","phone":"+4171 841 22 22"}},"type":"Feature"},
	{"geometry":{"coordinates":[9.446863,47.502099],"type":"Point"},"properties":{"osm_id":"4126822310","tag":{"amenity":"recycling","mapillary":"59Jn8keLVwcaDBioDoQkXQ","recycling:glass_bottles":"yes","recycling_type":"container","survey:date":"2016-07-03"}},"type":"Feature"},
	{"geometry":{"coordinates":[9.470625,47.49267],"type":"Point"},"properties":{"osm_id":"4347725790","tag":{"amenity":"waste_disposal"}},"type":"Feature"},
	{"geometry":{"coordinates":[9.472802,47.487569],"type":"Point"},"properties":{"osm_id":"4467740236","tag":{"amenity":"waste_basket","waste":"dog_excrement"}},"type":"Feature"},
	{"geometry":{"coordinates":[9.455525,47.484029],"type":"Point"},"properties":{"osm_id":"4493865829","tag":{"amenity":"recycling","layer":"-1","recycling:clothes":"yes","recycling:glass_bottles":"yes","recycling:shoes":"yes"}},"type":"Feature"},
	{"geometry":{"coordinates":[9.484666,47.480215],"type":"Point"},"properties":{"osm_id":"4878367530","tag":{"amenity":"waste_basket"}},"type":"Feature"},
	{"geometry":{"coordinates":[9.484466,47.480607],"type":"Point"},"properties":{"osm_id":"4878367531","tag":{"amenity":"waste_basket"}},"type":"Feature"},
	{"geometry":{"coordinates":[9.485,47.480479],"type":"Point"},"properties":{"osm_id":"4878367627","tag":{"amenity":"waste_basket"}},"type":"Feature"},
	{"geometry":{"coordinates":[9.476663,47.485313],"type":"Point"},"properties":{"osm_id":"5019438332","tag":{"amenity":"waste_basket","waste":"dog_excrement"}},"type":"Feature"},
	{"geometry":{"coordinates":[9.470917,47.487602],"type":"Point"},"properties":{"osm_id":"5019438333","tag":{"amenity":"waste_basket","waste":"dog_excrement"}},"type":"Feature"},
	{"geometry":{"coordinates":[9.46799,47.489325],"type":"Point"},"properties":{"osm_id":"5019438334","tag":{"amenity":"waste_basket","waste":"dog_excrement"}},"type":"Feature"},
	{"geometry":{"coordinates":[9.466316,47.486336],"type":"Point"},"properties":{"osm_id":"5019438335","tag":{"amenity":"waste_basket","waste":"dog_excrement"}},"type":"Feature"},
	{"geometry":{"coordinates":[9.464466,47.491288],"type":"Point"},"properties":{"osm_id":"5019438336","tag":{"amenity":"waste_basket","waste":"dog_excrement"}},"type":"Feature"},
	{"geometry":{"coordinates":[9.462226,47.486114],"type":"Point"},"properties":{"osm_id":"5019438337","tag":{"amenity":"waste_basket","waste":"dog_excrement"}},"type":"Feature"},
	{"geometry":{"coordinates":[9.448605,47.472508],"type":"Point"},"properties":{"osm_id":"5246329472","tag":{"amenity":"recycling","recycling_type":"container"}},"type":"Feature"},
	{"geometry":{"coordinates":[9.406718,47.486218],"type":"Point"},"properties":{"osm_id":"5864987571","tag":{"amenity":"waste_basket"}},"type":"Feature"},
	{"geometry":{"coordinates":[9.409229,47.48793],"type":"Point"},"properties":{"osm_id":"5864987572","tag":{"amenity":"waste_basket"}},"type":"Feature"},
	{"geometry":{"coordinates":[9.410163,47.488914],"type":"Point"},"properties":{"osm_id":"5864987573","tag":{"amenity":"waste_disposal"}},"type":"Feature"},
	{"geometry":{"coordinates":[9.406559,47.488165],"type":"Point"},"properties":{"osm_id":"5865002096","tag":{"amenity":"waste_basket"}},"type":"Feature"},
	{"geometry":{"coordinates":[9.421578,47.498993],"type":"Point"},"properties":{"osm_id":"6447173398","tag":{"amenity":"waste_basket"}},"type":"Feature"},
	{"geometry":{"coordinates":[9.422698,47.509176],"type":"Point"},"properties":{"name":"Unterflurcontainer","osm_id":"7252698599","tag":{"amenity":"waste_disposal"}},"type":"Feature"},
	{"geometry":{"coordinates":[9.425584,47.5076],"type":"Point"},"properties":{"name":"Unterflurcontainer","osm_id":"7252698600","tag":{"amenity":"waste_disposal"}},"type":"Feature"},
	{"geometry":{"coordinates":[9.426927,47.506489],"type":"Point"},"properties":{"name":"Unterflurcontainer","osm_id":"7252698601","tag":{"amenity":"waste_disposal"}},"type":"Feature"},
	{"geometry":{"coordinates":[9.42653,47.509636],"type":"Point"},"properties":{"name":"Unterflurcontainer","osm_id":"7252698602","tag":{"amenity":"waste_disposal"}},"type":"Feature"},
	{"geometry":{"coordinates":[9.419773,47.508802],"type":"Point"},"properties":{"name":"Unterflurcontainer","osm_id":"7252698603","tag":{"amenity":"waste_disposal"}},"type":"Feature"},
	{"geometry":{"coordinates":[9.420485,47.510382],"type":"Point"},"properties":{"name":"Unterflurcontainer","osm_id":"7252868532","tag":{"amenity":"waste_disposal"}},"type":"Feature"},
	{"geometry":{"coordinates":[9.418174,47.51056],"type":"Point"},"properties":{"name":"Unterflurcontainer","osm_id":"7252868533","tag":{"amenity":"waste_disposal"}},"type":"Feature"},
	{"geometry":{"coordinates":[9.42027,47.511628],"type":"Point"},"properties":{"osm_id":"7252868534","tag":{"amenity":"waste_disposal"}},"type":"Feature"},
	{"geometry":{"coordinates":[9.411255,47.508085],"type":"Point"},"properties":{"osm_id":"7620323055","tag":{"amenity":"recycling","recycling_type":"container"}},"type":"Feature"}
]
}
