{
"type": "FeatureCollection",
"features": [
	{"geometry":{"coordinates":[9.412407,47.330478],"type":"Point"},"properties":{"osm_id":"793773399","tag":{"amenity":"recycling"}},"type":"Feature"},
	{"geometry":{"coordinates":[9.439867,47.3028],"type":"Point"},"properties":{"osm_id":"856509641","tag":{"amenity":"waste_basket"}},"type":"Feature"},
	{"geometry":{"coordinates":[9.429989,47.318672],"type":"Point"},"properties":{"osm_id":"856509909","tag":{"amenity":"waste_basket"}},"type":"Feature"},
	{"geometry":{"coordinates":[9.445715,47.302608],"type":"Point"},"properties":{"osm_id":"856510827","tag":{"amenity":"waste_basket"}},"type":"Feature"},
	{"geometry":{"coordinates":[9.429155,47.318822],"type":"Point"},"properties":{"osm_id":"856511058","tag":{"amenity":"waste_basket"}},"type":"Feature"},
	{"geometry":{"coordinates":[9.448649,47.318595],"type":"Point"},"properties":{"name":"Robidog","osm_id":"4585759136","tag":{"amenity":"waste_basket","vending":"excrement_bags"}},"type":"Feature"},
	{"geometry":{"coordinates":[9.468287,47.320354],"type":"Point"},"properties":{"name":"Robidog","osm_id":"4585759301","tag":{"amenity":"waste_basket","vending":"excrement_bags"}},"type":"Feature"},
	{"geometry":{"coordinates":[9.465787,47.321033],"type":"Point"},"properties":{"name":"Robidog","osm_id":"4585759303","tag":{"amenity":"waste_basket","vending":"excrement_bags"}},"type":"Feature"},
	{"geometry":{"coordinates":[9.47584,47.32964],"type":"Point"},"properties":{"osm_id":"4603843056","tag":{"amenity":"waste_basket"}},"type":"Feature"},
	{"geometry":{"coordinates":[9.407785,47.331352],"type":"Point"},"properties":{"osm_id":"7366526091","tag":{"amenity":"waste_basket","waste":"trash;dog_excrement"}},"type":"Feature"},
	{"geometry":{"coordinates":[9.409437,47.329274],"type":"Point"},"properties":{"osm_id":"8569010116","tag":{"amenity":"waste_basket","waste":"trash"}},"type":"Feature"},
	{"geometry":{"coordinates":[9.409161,47.329012],"type":"Point"},"properties":{"osm_id":"8569025919","tag":{"amenity":"waste_basket","waste":"trash"}},"type":"Feature"},
	{"geometry":{"coordinates":[9.409142,47.329369],"type":"Point"},"properties":{"osm_id":"8569025920","tag":{"amenity":"waste_basket","waste":"trash"}},"type":"Feature"},
	{"geometry":{"coordinates":[9.409233,47.328857],"type":"Point"},"properties":{"osm_id":"8569025923","tag":{"amenity":"waste_basket","waste":"trash"}},"type":"Feature"},
	{"geometry":{"coordinates":[9.409154,47.329203],"type":"Point"},"properties":{"osm_id":"8569025926","tag":{"amenity":"waste_basket","waste":"trash"}},"type":"Feature"},
	{"geometry":{"coordinates":[9.4092,47.328973],"type":"Point"},"properties":{"osm_id":"8569025927","tag":{"amenity":"waste_basket","waste":"trash"}},"type":"Feature"},
	{"geometry":{"coordinates":[9.40936,47.329164],"type":"Point"},"properties":{"osm_id":"8569038017","tag":{"amenity":"waste_basket","waste":"trash"}},"type":"Feature"},
	{"geometry":{"coordinates":[9.409628,47.33075],"type":"Point"},"properties":{"osm_id":"8569059749","tag":{"amenity":"waste_basket","waste":"trash;cigarettes"}},"type":"Feature"},
	{"geometry":{"coordinates":[9.408827,47.330757],"type":"Point"},"properties":{"osm_id":"8569059750","tag":{"amenity":"waste_basket","waste":"trash;cigarettes"}},"type":"Feature"},
	{"geometry":{"coordinates":[9.408862,47.330145],"type":"Point"},"properties":{"osm_id":"8569059756","tag":{"amenity":"waste_basket","waste":"trash"}},"type":"Feature"},
	{"geometry":{"coordinates":[9.409074,47.329735],"type":"Point"},"properties":{"osm_id":"8569059758","tag":{"amenity":"waste_basket","waste":"trash"}},"type":"Feature"},
	{"geometry":{"coordinates":[9.409826,47.330425],"type":"Point"},"properties":{"osm_id":"8569080985","tag":{"amenity":"waste_basket","waste":"trash;cigarettes"}},"type":"Feature"},
	{"geometry":{"coordinates":[9.410914,47.33092],"type":"Point"},"properties":{"osm_id":"8569081001","tag":{"amenity":"waste_basket","waste":"trash"}},"type":"Feature"},
	{"geometry":{"coordinates":[9.407139,47.331478],"type":"Point"},"properties":{"osm_id":"8569168482","tag":{"amenity":"waste_basket","waste":"trash;dog_excrement"}},"type":"Feature"},
	{"geometry":{"coordinates":[9.408082,47.331157],"type":"Point"},"properties":{"osm_id":"8601954113","tag":{"amenity":"waste_basket","waste":"trash;dog_excrement;cigarettes"}},"type":"Feature"}
]
}
