{
"type": "FeatureCollection",
"features": [
	{"geometry":{"coordinates":[9.404609,46.72441],"type":"Point"},"properties":{"osm_id":"1086624216","tag":{"amenity":"recycling","recycling:cans":"yes","recycling:glass":"yes"}},"type":"Feature"},
	{"geometry":{"coordinates":[9.410548,46.719487],"type":"Point"},"properties":{"osm_id":"1086624262","tag":{"amenity":"recycling","recycling:cans":"yes","recycling:glass":"yes","recycling:paper":"yes"}},"type":"Feature"},
	{"geometry":{"coordinates":[9.431738,46.720322],"type":"Point"},"properties":{"osm_id":"4339824689","tag":{"amenity":"recycling"}},"type":"Feature"},
	{"geometry":{"coordinates":[9.423232,46.691218],"type":"Point"},"properties":{"osm_id":"5011368122","tag":{"amenity":"waste_basket"}},"type":"Feature"},
	{"geometry":{"coordinates":[9.445584,46.713145],"type":"Point"},"properties":{"osm_id":"5284911144","tag":{"amenity":"waste_basket"}},"type":"Feature"},
	{"geometry":{"coordinates":[9.445793,46.712959],"type":"Point"},"properties":{"osm_id":"5284911145","tag":{"amenity":"waste_basket"}},"type":"Feature"},
	{"geometry":{"coordinates":[9.445962,46.712391],"type":"Point"},"properties":{"osm_id":"5284911155","tag":{"amenity":"waste_basket"}},"type":"Feature"},
	{"geometry":{"coordinates":[9.445701,46.712352],"type":"Point"},"properties":{"osm_id":"5284911169","tag":{"amenity":"waste_basket"}},"type":"Feature"},
	{"geometry":{"coordinates":[9.446113,46.712498],"type":"Point"},"properties":{"osm_id":"5284911170","tag":{"amenity":"waste_basket"}},"type":"Feature"},
	{"geometry":{"coordinates":[9.445947,46.71248],"type":"Point"},"properties":{"osm_id":"5284911171","tag":{"amenity":"waste_basket"}},"type":"Feature"},
	{"geometry":{"coordinates":[9.44572,46.712447],"type":"Point"},"properties":{"osm_id":"5284911172","tag":{"amenity":"waste_basket"}},"type":"Feature"},
	{"geometry":{"coordinates":[9.442072,46.733558],"type":"Point"},"properties":{"osm_id":"6387505358","tag":{"amenity":"recycling","opening_hours":"24/7","recycling:scrap_metal":"yes","recycling_type":"container","wheelchair":"limited"}},"type":"Feature"},
	{"geometry":{"coordinates":[9.444222,46.734637],"type":"Point"},"properties":{"osm_id":"6387505359","tag":{"amenity":"recycling","location":"underground","opening_hours":"24/7","recycling:aluminium":"yes","recycling:cans":"yes","recycling:clothes":"yes","recycling:coffee_capsules":"yes","recycling:cooking_oil":"yes","recycling:engine_oil":"yes","recycling:glass_bottles":"yes","recycling:shoes":"yes","recycling:waste":"yes","recycling_type":"container","wheelchair":"limited"}},"type":"Feature"},
	{"geometry":{"coordinates":[9.440252,46.733146],"type":"Point"},"properties":{"osm_id":"7326524624","tag":{"amenity":"waste_basket"}},"type":"Feature"},
	{"geometry":{"coordinates":[9.443118,46.721254],"type":"Point"},"properties":{"osm_id":"7326524626","tag":{"amenity":"waste_basket"}},"type":"Feature"}
]
}
