{
"type": "FeatureCollection",
"features": [
	{"geometry":{"coordinates":[9.422632,45.893529],"type":"Point"},"properties":{"osm_id":"2373326319","tag":{"amenity":"waste_basket"}},"type":"Feature"},
	{"geometry":{"coordinates":[9.422509,45.893599],"type":"Point"},"properties":{"osm_id":"2373326340","tag":{"amenity":"waste_basket"}},"type":"Feature"},
	{"geometry":{"coordinates":[9.419838,45.903017],"type":"Point"},"properties":{"osm_id":"3116694328","tag":{"amenity":"recycling","recycling:glass":"yes","recycling_type":"container"}},"type":"Feature"},
	{"geometry":{"coordinates":[9.444363,45.951084],"type":"Point"},"properties":{"osm_id":"3583840273","tag":{"amenity":"recycling","recycling:clothes":"yes","recycling_type":"container"}},"type":"Feature"},
	{"geometry":{"coordinates":[9.42349,45.895588],"type":"Point"},"properties":{"osm_id":"3763015567","tag":{"amenity":"recycling","recycling:clothes":"yes","recycling_type":"container"}},"type":"Feature"},
	{"geometry":{"coordinates":[9.424073,45.893714],"type":"Point"},"properties":{"osm_id":"3763074954","tag":{"amenity":"recycling","recycling:glass":"yes","recycling_type":"container"}},"type":"Feature"},
	{"geometry":{"coordinates":[9.425065,45.896396],"type":"Point"},"properties":{"osm_id":"3763075786","tag":{"amenity":"recycling","recycling:glass":"yes","recycling_type":"container"}},"type":"Feature"},
	{"geometry":{"coordinates":[9.438608,45.920627],"type":"Point"},"properties":{"osm_id":"4039020208","tag":{"amenity":"waste_basket"}},"type":"Feature"},
	{"geometry":{"coordinates":[9.43833,45.920695],"type":"Point"},"properties":{"osm_id":"4039020211","tag":{"amenity":"recycling","recycling:glass":"yes","recycling_type":"container"}},"type":"Feature"},
	{"geometry":{"coordinates":[9.438303,45.920698],"type":"Point"},"properties":{"osm_id":"4039020212","tag":{"amenity":"waste_disposal"}},"type":"Feature"},
	{"geometry":{"coordinates":[9.431737,45.9073],"type":"Point"},"properties":{"barrier":"gate","osm_id":"4422858369","tag":{"access":"customers"}},"type":"Feature"},
	{"geometry":{"coordinates":[9.430565,45.907021],"type":"Point"},"properties":{"osm_id":"4532908606","tag":{"amenity":"waste_basket"}},"type":"Feature"},
	{"geometry":{"coordinates":[9.434599,45.915586],"type":"Point"},"properties":{"osm_id":"4532910089","tag":{"amenity":"waste_basket"}},"type":"Feature"},
	{"geometry":{"coordinates":[9.433119,45.911679],"type":"Point"},"properties":{"osm_id":"4532910115","tag":{"amenity":"waste_basket"}},"type":"Feature"},
	{"geometry":{"coordinates":[9.430229,45.945223],"type":"Point"},"properties":{"osm_id":"4545627137","tag":{"amenity":"waste_basket","mapillary":"QY7NDRDjh2WSjK_5qrq-XQ"}},"type":"Feature"},
	{"geometry":{"coordinates":[9.467755,45.949519],"type":"Point"},"properties":{"osm_id":"5095437906","tag":{"amenity":"waste_basket"}},"type":"Feature"},
	{"geometry":{"coordinates":[9.443763,45.949344],"type":"Point"},"properties":{"osm_id":"5323970074","tag":{"amenity":"waste_basket","mapillary":"0izKThjWiH1Z9v_j8AEBGQ"}},"type":"Feature"},
	{"geometry":{"coordinates":[9.442219,45.9509],"type":"Point"},"properties":{"osm_id":"5387261573","tag":{"amenity":"waste_basket","mapillary":"AYOb1iiHquxaPw3Ug-hWfA"}},"type":"Feature"},
	{"geometry":{"coordinates":[9.442142,45.951011],"type":"Point"},"properties":{"osm_id":"5387261574","tag":{"amenity":"waste_basket","mapillary":"715PkUhpC0pSi8xSMrUaOA"}},"type":"Feature"},
	{"geometry":{"coordinates":[9.487706,45.932706],"type":"Point"},"properties":{"osm_id":"5763233764","tag":{"amenity":"waste_basket"}},"type":"Feature"},
	{"geometry":{"coordinates":[9.4864,45.932402],"type":"Point"},"properties":{"osm_id":"5763233966","tag":{"amenity":"waste_basket"}},"type":"Feature"},
	{"geometry":{"coordinates":[9.471742,45.943995],"type":"Point"},"properties":{"osm_id":"5793870248","tag":{"amenity":"waste_basket"}},"type":"Feature"},
	{"geometry":{"coordinates":[9.478537,45.934845],"type":"Point"},"properties":{"osm_id":"5986265452","tag":{"amenity":"waste_basket"}},"type":"Feature"},
	{"geometry":{"coordinates":[9.450471,45.921688],"type":"Point"},"properties":{"osm_id":"7618392096","tag":{"amenity":"waste_basket"}},"type":"Feature"},
	{"geometry":{"coordinates":[9.487799,45.932636],"type":"Point"},"properties":{"osm_id":"7857691636","tag":{"amenity":"waste_basket"}},"type":"Feature"},
	{"geometry":{"coordinates":[9.487907,45.932704],"type":"Point"},"properties":{"osm_id":"7857691637","tag":{"amenity":"waste_basket"}},"type":"Feature"},
	{"geometry":{"coordinates":[9.488024,45.932422],"type":"Point"},"properties":{"osm_id":"7857691638","tag":{"amenity":"waste_basket"}},"type":"Feature"},
	{"geometry":{"coordinates":[9.48797,45.932209],"type":"Point"},"properties":{"osm_id":"7857691643","tag":{"amenity":"waste_basket"}},"type":"Feature"},
	{"geometry":{"coordinates":[9.488697,45.931423],"type":"Point"},"properties":{"osm_id":"7857691644","tag":{"amenity":"waste_basket"}},"type":"Feature"},
	{"geometry":{"coordinates":[9.489585,45.931605],"type":"Point"},"properties":{"osm_id":"7857691654","tag":{"amenity":"waste_basket"}},"type":"Feature"}
]
}
