{
"type": "FeatureCollection",
"features": [
	{"geometry":{"coordinates":[9.479096,45.816044],"type":"Point"},"properties":{"osm_id":"1338312890","tag":{"amenity":"waste_basket"}},"type":"Feature"},
	{"geometry":{"coordinates":[9.454418,45.823798],"type":"Point"},"properties":{"osm_id":"1471333171","tag":{"amenity":"waste_basket","mapillary":"C6wg4Mu3i7cmhD2VnQyG4Q"}},"type":"Feature"},
	{"geometry":{"coordinates":[9.454391,45.828391],"type":"Point"},"properties":{"osm_id":"1471333379","tag":{"amenity":"waste_basket"}},"type":"Feature"},
	{"geometry":{"coordinates":[9.42017,45.816666],"type":"Point"},"properties":{"osm_id":"1828124859","tag":{"amenity":"recycling","recycling:glass":"yes","recycling_type":"container"}},"type":"Feature"},
	{"geometry":{"coordinates":[9.419909,45.816881],"type":"Point"},"properties":{"osm_id":"1828124872","tag":{"amenity":"recycling","operator":"Umanitaria Padana onlus","recycling:clothes":"yes","recycling_type":"container"}},"type":"Feature"},
	{"geometry":{"coordinates":[9.425491,45.812419],"type":"Point"},"properties":{"osm_id":"1852210910","tag":{"amenity":"waste_basket"}},"type":"Feature"},
	{"geometry":{"coordinates":[9.429456,45.812512],"type":"Point"},"properties":{"osm_id":"1852210937","tag":{"amenity":"waste_basket"}},"type":"Feature"},
	{"geometry":{"coordinates":[9.426015,45.812675],"type":"Point"},"properties":{"osm_id":"1852211005","tag":{"amenity":"recycling","recycling:clothes":"yes","recycling_type":"container"}},"type":"Feature"},
	{"geometry":{"coordinates":[9.429143,45.812105],"type":"Point"},"properties":{"osm_id":"4373758617","tag":{"amenity":"waste_basket"}},"type":"Feature"},
	{"geometry":{"coordinates":[9.428913,45.811747],"type":"Point"},"properties":{"osm_id":"4375660521","tag":{"amenity":"waste_basket"}},"type":"Feature"},
	{"geometry":{"coordinates":[9.451117,45.819865],"type":"Point"},"properties":{"osm_id":"5013874960","tag":{"amenity":"waste_basket"}},"type":"Feature"},
	{"geometry":{"coordinates":[9.454076,45.82584],"type":"Point"},"properties":{"osm_id":"5213219411","tag":{"amenity":"waste_basket","mapillary":"Q6tiRd0bLWKhJkOnzBP-jA"}},"type":"Feature"},
	{"geometry":{"coordinates":[9.454072,45.824437],"type":"Point"},"properties":{"osm_id":"5213219416","tag":{"amenity":"waste_basket","mapillary":"nOtTP8UccVXEeOrSrxTGTw"}},"type":"Feature"},
	{"geometry":{"coordinates":[9.453285,45.822429],"type":"Point"},"properties":{"osm_id":"5213226022","tag":{"amenity":"waste_basket","mapillary":"TtOg7X0tvMjpKYjA2sIlOg"}},"type":"Feature"},
	{"geometry":{"coordinates":[9.48346,45.807736],"type":"Point"},"properties":{"osm_id":"6612127825","tag":{"amenity":"waste_basket","waste":"trash"}},"type":"Feature"},
	{"geometry":{"coordinates":[9.482483,45.810484],"type":"Point"},"properties":{"osm_id":"6612127830","tag":{"amenity":"waste_basket","waste":"trash"}},"type":"Feature"},
	{"geometry":{"coordinates":[9.419288,45.792129],"type":"Point"},"properties":{"osm_id":"6955738486","tag":{"amenity":"waste_basket"}},"type":"Feature"},
	{"geometry":{"coordinates":[9.418871,45.793207],"type":"Point"},"properties":{"osm_id":"6955937285","tag":{"amenity":"waste_basket"}},"type":"Feature"},
	{"geometry":{"coordinates":[9.416188,45.783588],"type":"Point"},"properties":{"osm_id":"6955961558","tag":{"amenity":"waste_basket"}},"type":"Feature"},
	{"geometry":{"coordinates":[9.415731,45.783688],"type":"Point"},"properties":{"osm_id":"6955961559","tag":{"amenity":"waste_basket"}},"type":"Feature"},
	{"geometry":{"coordinates":[9.415833,45.783615],"type":"Point"},"properties":{"osm_id":"6955961560","tag":{"amenity":"waste_basket"}},"type":"Feature"},
	{"geometry":{"coordinates":[9.415776,45.783745],"type":"Point"},"properties":{"osm_id":"6955961561","tag":{"amenity":"waste_basket"}},"type":"Feature"},
	{"geometry":{"coordinates":[9.416305,45.783688],"type":"Point"},"properties":{"osm_id":"6955961568","tag":{"amenity":"waste_basket"}},"type":"Feature"},
	{"geometry":{"coordinates":[9.415526,45.783433],"type":"Point"},"properties":{"osm_id":"6955961571","tag":{"amenity":"waste_basket"}},"type":"Feature"},
	{"geometry":{"coordinates":[9.41554,45.783407],"type":"Point"},"properties":{"osm_id":"6955961572","tag":{"amenity":"waste_basket"}},"type":"Feature"}
]
}
