{
"type": "FeatureCollection",
"features": [
	{"geometry":{"coordinates":[9.427278,45.572821],"type":"Point"},"properties":{"osm_id":"2580000368","tag":{"amenity":"waste_basket"}},"type":"Feature"},
	{"geometry":{"coordinates":[9.427494,45.572963],"type":"Point"},"properties":{"osm_id":"2580000409","tag":{"amenity":"waste_basket"}},"type":"Feature"},
	{"geometry":{"coordinates":[9.448309,45.534088],"type":"Point"},"properties":{"barrier":"gate","osm_id":"4517032683"},"type":"Feature"},
	{"geometry":{"coordinates":[9.448243,45.534157],"type":"Point"},"properties":{"barrier":"gate","osm_id":"4517032688"},"type":"Feature"},
	{"geometry":{"coordinates":[9.465662,45.526527],"type":"Point"},"properties":{"osm_id":"4517286291","tag":{"amenity":"recycling","recycling:clothes":"yes","recycling_type":"container"}},"type":"Feature"},
	{"geometry":{"coordinates":[9.438375,45.552893],"type":"Point"},"properties":{"osm_id":"5380930089","tag":{"amenity":"waste_basket"}},"type":"Feature"},
	{"geometry":{"coordinates":[9.428809,45.552063],"type":"Point"},"properties":{"barrier":"lift_gate","osm_id":"6382603422","tag":{"motor_vehicle":"designated"}},"type":"Feature"},
	{"geometry":{"coordinates":[9.428392,45.551997],"type":"Point"},"properties":{"barrier":"lift_gate","osm_id":"6382603427","tag":{"motor_vehicle":"designated"}},"type":"Feature"},
	{"geometry":{"coordinates":[9.417896,45.554082],"type":"Point"},"properties":{"osm_id":"6432777028","tag":{"amenity":"waste_basket","waste":"dog_excrement"}},"type":"Feature"},
	{"geometry":{"coordinates":[9.417888,45.55415],"type":"Point"},"properties":{"osm_id":"6432777029","tag":{"amenity":"waste_basket"}},"type":"Feature"},
	{"geometry":{"coordinates":[9.434112,45.549515],"type":"Point"},"properties":{"osm_id":"6436952115","tag":{"amenity":"waste_basket"}},"type":"Feature"},
	{"geometry":{"coordinates":[9.437289,45.548656],"type":"Point"},"properties":{"osm_id":"6440682376","tag":{"amenity":"waste_basket"}},"type":"Feature"},
	{"geometry":{"coordinates":[9.432917,45.548785],"type":"Point"},"properties":{"osm_id":"6441296740","tag":{"amenity":"waste_basket"}},"type":"Feature"},
	{"geometry":{"coordinates":[9.437621,45.548498],"type":"Point"},"properties":{"osm_id":"6441499340","tag":{"amenity":"waste_basket"}},"type":"Feature"},
	{"geometry":{"coordinates":[9.435547,45.546708],"type":"Point"},"properties":{"osm_id":"6441499345","tag":{"amenity":"waste_basket"}},"type":"Feature"},
	{"geometry":{"coordinates":[9.436405,45.546947],"type":"Point"},"properties":{"osm_id":"6441499346","tag":{"amenity":"waste_basket"}},"type":"Feature"},
	{"geometry":{"coordinates":[9.433187,45.546374],"type":"Point"},"properties":{"osm_id":"6441499347","tag":{"amenity":"waste_basket"}},"type":"Feature"},
	{"geometry":{"coordinates":[9.432809,45.547163],"type":"Point"},"properties":{"osm_id":"6441515494","tag":{"amenity":"waste_basket","colour":"silver","material":"metal","support":"pole"}},"type":"Feature"},
	{"geometry":{"coordinates":[9.435718,45.553781],"type":"Point"},"properties":{"osm_id":"6447481075","tag":{"amenity":"waste_basket"}},"type":"Feature"},
	{"geometry":{"coordinates":[9.435412,45.553797],"type":"Point"},"properties":{"osm_id":"6447481076","tag":{"amenity":"waste_basket"}},"type":"Feature"},
	{"geometry":{"coordinates":[9.442488,45.545423],"type":"Point"},"properties":{"osm_id":"6451447490","tag":{"amenity":"waste_basket"}},"type":"Feature"},
	{"geometry":{"coordinates":[9.436322,45.547873],"type":"Point"},"properties":{"osm_id":"6469534761","tag":{"amenity":"waste_basket"}},"type":"Feature"},
	{"geometry":{"coordinates":[9.429779,45.567338],"type":"Point"},"properties":{"osm_id":"6603455494","tag":{"amenity":"waste_basket","colour":"black"}},"type":"Feature"},
	{"geometry":{"coordinates":[9.431757,45.560252],"type":"Point"},"properties":{"osm_id":"6620772145","tag":{"amenity":"waste_basket"}},"type":"Feature"},
	{"geometry":{"coordinates":[9.432108,45.560072],"type":"Point"},"properties":{"osm_id":"6620772146","tag":{"amenity":"waste_basket"}},"type":"Feature"},
	{"geometry":{"coordinates":[9.430476,45.560028],"type":"Point"},"properties":{"osm_id":"6620772147","tag":{"amenity":"waste_basket"}},"type":"Feature"},
	{"geometry":{"coordinates":[9.434756,45.557078],"type":"Point"},"properties":{"osm_id":"6647339910","tag":{"amenity":"waste_basket"}},"type":"Feature"},
	{"geometry":{"coordinates":[9.434762,45.556951],"type":"Point"},"properties":{"osm_id":"6647339911","tag":{"amenity":"waste_basket"}},"type":"Feature"},
	{"geometry":{"coordinates":[9.434742,45.55744],"type":"Point"},"properties":{"osm_id":"6647339912","tag":{"amenity":"waste_basket"}},"type":"Feature"},
	{"geometry":{"coordinates":[9.434743,45.557355],"type":"Point"},"properties":{"osm_id":"6647339913","tag":{"amenity":"waste_basket"}},"type":"Feature"},
	{"geometry":{"coordinates":[9.43161,45.557784],"type":"Point"},"properties":{"osm_id":"6647380850","tag":{"amenity":"waste_basket"}},"type":"Feature"},
	{"geometry":{"coordinates":[9.42893,45.557415],"type":"Point"},"properties":{"osm_id":"6647525516","tag":{"amenity":"waste_basket"}},"type":"Feature"},
	{"geometry":{"coordinates":[9.445185,45.544605],"type":"Point"},"properties":{"osm_id":"6654940882","tag":{"amenity":"waste_basket"}},"type":"Feature"},
	{"geometry":{"coordinates":[9.447873,45.545584],"type":"Point"},"properties":{"osm_id":"6654940883","tag":{"amenity":"waste_basket"}},"type":"Feature"},
	{"geometry":{"coordinates":[9.449649,45.545413],"type":"Point"},"properties":{"osm_id":"6654987822","tag":{"amenity":"waste_basket","waste":"dog_excrement"}},"type":"Feature"},
	{"geometry":{"coordinates":[9.449428,45.546118],"type":"Point"},"properties":{"osm_id":"6654987825","tag":{"amenity":"waste_basket"}},"type":"Feature"},
	{"geometry":{"coordinates":[9.487574,45.582818],"type":"Point"},"properties":{"osm_id":"6657830871","tag":{"amenity":"waste_basket"}},"type":"Feature"},
	{"geometry":{"coordinates":[9.487721,45.582752],"type":"Point"},"properties":{"osm_id":"6657830872","tag":{"amenity":"waste_basket"}},"type":"Feature"},
	{"geometry":{"coordinates":[9.487051,45.582767],"type":"Point"},"properties":{"osm_id":"6657893202","tag":{"amenity":"waste_basket"}},"type":"Feature"},
	{"geometry":{"coordinates":[9.444717,45.544302],"type":"Point"},"properties":{"osm_id":"6660379369","tag":{"amenity":"waste_basket"}},"type":"Feature"},
	{"geometry":{"coordinates":[9.444566,45.544151],"type":"Point"},"properties":{"osm_id":"6660534623","tag":{"amenity":"waste_basket"}},"type":"Feature"},
	{"geometry":{"coordinates":[9.443757,45.543965],"type":"Point"},"properties":{"osm_id":"6660534624","tag":{"amenity":"waste_basket"}},"type":"Feature"},
	{"geometry":{"coordinates":[9.436458,45.551113],"type":"Point"},"properties":{"osm_id":"6699270239","tag":{"amenity":"waste_basket"}},"type":"Feature"},
	{"geometry":{"coordinates":[9.434939,45.554704],"type":"Point"},"properties":{"osm_id":"6699424950","tag":{"amenity":"waste_basket"}},"type":"Feature"},
	{"geometry":{"coordinates":[9.43511,45.554693],"type":"Point"},"properties":{"osm_id":"6699424951","tag":{"amenity":"waste_basket"}},"type":"Feature"},
	{"geometry":{"coordinates":[9.433147,45.550071],"type":"Point"},"properties":{"osm_id":"6700670800","tag":{"amenity":"waste_basket"}},"type":"Feature"},
	{"geometry":{"coordinates":[9.434601,45.550917],"type":"Point"},"properties":{"osm_id":"6703073642","tag":{"amenity":"waste_basket"}},"type":"Feature"},
	{"geometry":{"coordinates":[9.433308,45.550521],"type":"Point"},"properties":{"osm_id":"6703085298","tag":{"amenity":"waste_basket"}},"type":"Feature"},
	{"geometry":{"coordinates":[9.432763,45.554013],"type":"Point"},"properties":{"osm_id":"6703085301","tag":{"amenity":"waste_basket"}},"type":"Feature"},
	{"geometry":{"coordinates":[9.43509,45.554312],"type":"Point"},"properties":{"osm_id":"6712192914","tag":{"amenity":"waste_basket"}},"type":"Feature"},
	{"geometry":{"coordinates":[9.434725,45.554638],"type":"Point"},"properties":{"osm_id":"6712192916","tag":{"amenity":"waste_basket"}},"type":"Feature"},
	{"geometry":{"coordinates":[9.434884,45.554464],"type":"Point"},"properties":{"osm_id":"6712192917","tag":{"amenity":"waste_basket"}},"type":"Feature"},
	{"geometry":{"coordinates":[9.434889,45.554405],"type":"Point"},"properties":{"osm_id":"6712192918","tag":{"amenity":"waste_basket"}},"type":"Feature"},
	{"geometry":{"coordinates":[9.427055,45.554773],"type":"Point"},"properties":{"osm_id":"6712192962","tag":{"amenity":"waste_basket"}},"type":"Feature"},
	{"geometry":{"coordinates":[9.430421,45.553513],"type":"Point"},"properties":{"osm_id":"6712192965","tag":{"amenity":"waste_basket"}},"type":"Feature"},
	{"geometry":{"coordinates":[9.430425,45.553512],"type":"Point"},"properties":{"osm_id":"6712192966","tag":{"amenity":"waste_basket"}},"type":"Feature"},
	{"geometry":{"coordinates":[9.439436,45.557577],"type":"Point"},"properties":{"osm_id":"6718443299","tag":{"amenity":"waste_basket"}},"type":"Feature"},
	{"geometry":{"coordinates":[9.439081,45.556258],"type":"Point"},"properties":{"osm_id":"6718443307","tag":{"amenity":"waste_basket"}},"type":"Feature"},
	{"geometry":{"coordinates":[9.436131,45.553223],"type":"Point"},"properties":{"osm_id":"6720676363","tag":{"amenity":"waste_basket"}},"type":"Feature"},
	{"geometry":{"coordinates":[9.435566,45.552621],"type":"Point"},"properties":{"osm_id":"6720676365","tag":{"amenity":"waste_basket"}},"type":"Feature"},
	{"geometry":{"coordinates":[9.438422,45.550287],"type":"Point"},"properties":{"osm_id":"6720676366","tag":{"amenity":"waste_basket"}},"type":"Feature"},
	{"geometry":{"coordinates":[9.444734,45.546092],"type":"Point"},"properties":{"osm_id":"6720676367","tag":{"amenity":"waste_basket"}},"type":"Feature"},
	{"geometry":{"coordinates":[9.43009,45.554373],"type":"Point"},"properties":{"osm_id":"6751045144","tag":{"amenity":"waste_basket"}},"type":"Feature"},
	{"geometry":{"coordinates":[9.434273,45.551086],"type":"Point"},"properties":{"osm_id":"6751045153","tag":{"amenity":"waste_basket"}},"type":"Feature"},
	{"geometry":{"coordinates":[9.437718,45.551424],"type":"Point"},"properties":{"osm_id":"7033189468","tag":{"amenity":"waste_basket"}},"type":"Feature"},
	{"geometry":{"coordinates":[9.437691,45.550949],"type":"Point"},"properties":{"osm_id":"7033189469","tag":{"amenity":"waste_basket"}},"type":"Feature"},
	{"geometry":{"coordinates":[9.434031,45.554057],"type":"Point"},"properties":{"osm_id":"7033504588","tag":{"amenity":"waste_basket"}},"type":"Feature"},
	{"geometry":{"coordinates":[9.43405,45.554576],"type":"Point"},"properties":{"osm_id":"7033504611","tag":{"amenity":"waste_basket"}},"type":"Feature"},
	{"geometry":{"coordinates":[9.457352,45.567307],"type":"Point"},"properties":{"osm_id":"7556318729","tag":{"amenity":"waste_basket"}},"type":"Feature"},
	{"geometry":{"coordinates":[9.433804,45.548124],"type":"Point"},"properties":{"osm_id":"7637901679","tag":{"amenity":"waste_basket","description":"Cestino a forma di orso","material":"plastic"}},"type":"Feature"},
	{"geometry":{"coordinates":[9.434092,45.547973],"type":"Point"},"properties":{"osm_id":"7637901680","tag":{"amenity":"waste_basket","description":"Cestino a forma di orso","material":"plastic"}},"type":"Feature"},
	{"geometry":{"coordinates":[9.446149,45.540736],"type":"Point"},"properties":{"osm_id":"7646698446","tag":{"amenity":"waste_basket"}},"type":"Feature"},
	{"geometry":{"coordinates":[9.446474,45.54052],"type":"Point"},"properties":{"osm_id":"7646698447","tag":{"amenity":"waste_basket"}},"type":"Feature"},
	{"geometry":{"coordinates":[9.433048,45.547656],"type":"Point"},"properties":{"osm_id":"7651483542","tag":{"amenity":"waste_basket","colour":"silver","material":"metal"}},"type":"Feature"},
	{"geometry":{"coordinates":[9.479252,45.538114],"type":"Point"},"properties":{"osm_id":"7707605592","tag":{"amenity":"waste_basket"}},"type":"Feature"},
	{"geometry":{"coordinates":[9.479412,45.538106],"type":"Point"},"properties":{"osm_id":"7707605593","tag":{"amenity":"waste_basket"}},"type":"Feature"},
	{"geometry":{"coordinates":[9.433277,45.553299],"type":"Point"},"properties":{"osm_id":"7721785002","tag":{"amenity":"waste_basket","material":"metal"}},"type":"Feature"},
	{"geometry":{"coordinates":[9.434367,45.553026],"type":"Point"},"properties":{"osm_id":"7721785003","tag":{"amenity":"waste_basket","colour":"silver","material":"metal"}},"type":"Feature"},
	{"geometry":{"coordinates":[9.434401,45.552689],"type":"Point"},"properties":{"osm_id":"7721785004","tag":{"amenity":"waste_basket","colour":"silver","material":"metal"}},"type":"Feature"},
	{"geometry":{"coordinates":[9.434489,45.55309],"type":"Point"},"properties":{"osm_id":"7721785005","tag":{"amenity":"waste_basket","colour":"silver","material":"metal"}},"type":"Feature"},
	{"geometry":{"coordinates":[9.436576,45.549971],"type":"Point"},"properties":{"osm_id":"7744586245","tag":{"amenity":"waste_basket","colour":"grey","material":"metal"}},"type":"Feature"},
	{"geometry":{"coordinates":[9.435753,45.54818],"type":"Point"},"properties":{"osm_id":"7839079596","tag":{"amenity":"waste_basket","material":"metal"}},"type":"Feature"},
	{"geometry":{"coordinates":[9.408718,45.533339],"type":"Point"},"properties":{"osm_id":"7845484429","tag":{"amenity":"waste_basket"}},"type":"Feature"},
	{"geometry":{"coordinates":[9.40819,45.532813],"type":"Point"},"properties":{"osm_id":"7845512812","tag":{"amenity":"waste_basket"}},"type":"Feature"},
	{"geometry":{"coordinates":[9.408368,45.532529],"type":"Point"},"properties":{"osm_id":"7845521103","tag":{"amenity":"waste_basket"}},"type":"Feature"},
	{"geometry":{"coordinates":[9.408729,45.532951],"type":"Point"},"properties":{"osm_id":"7845524740","tag":{"amenity":"waste_basket"}},"type":"Feature"},
	{"geometry":{"coordinates":[9.408473,45.532342],"type":"Point"},"properties":{"osm_id":"7845527586","tag":{"amenity":"waste_basket"}},"type":"Feature"},
	{"geometry":{"coordinates":[9.408255,45.53276],"type":"Point"},"properties":{"osm_id":"7845550042","tag":{"amenity":"waste_basket"}},"type":"Feature"},
	{"geometry":{"coordinates":[9.408808,45.532841],"type":"Point"},"properties":{"osm_id":"7845557597","tag":{"amenity":"waste_basket"}},"type":"Feature"},
	{"geometry":{"coordinates":[9.412666,45.535161],"type":"Point"},"properties":{"osm_id":"7852410298","tag":{"amenity":"waste_basket","material":"metal"}},"type":"Feature"},
	{"geometry":{"coordinates":[9.412761,45.535024],"type":"Point"},"properties":{"osm_id":"7852410299","tag":{"amenity":"waste_basket","material":"metal"}},"type":"Feature"},
	{"geometry":{"coordinates":[9.41284,45.534889],"type":"Point"},"properties":{"osm_id":"7852410300","tag":{"amenity":"waste_basket","material":"metal"}},"type":"Feature"},
	{"geometry":{"coordinates":[9.432738,45.549583],"type":"Point"},"properties":{"osm_id":"7856495226","tag":{"amenity":"waste_basket","material":"metal"}},"type":"Feature"},
	{"geometry":{"coordinates":[9.432369,45.554979],"type":"Point"},"properties":{"osm_id":"7862263446","tag":{"amenity":"waste_basket"}},"type":"Feature"},
	{"geometry":{"coordinates":[9.432708,45.554353],"type":"Point"},"properties":{"osm_id":"7862263450","tag":{"amenity":"waste_basket"}},"type":"Feature"},
	{"geometry":{"coordinates":[9.431551,45.553712],"type":"Point"},"properties":{"osm_id":"7876456395","tag":{"amenity":"waste_basket"}},"type":"Feature"},
	{"geometry":{"coordinates":[9.432201,45.55197],"type":"Point"},"properties":{"osm_id":"7876481295","tag":{"amenity":"waste_basket"}},"type":"Feature"}
]
}
