{
"type": "FeatureCollection",
"features": [
	{"geometry":{"coordinates":[-70.869972,42.812643],"type":"Point"},"properties":{"osm_id":"5276468260","tag":{"amenity":"waste_basket","source:amenity":"survey"}},"type":"Feature"},
	{"geometry":{"coordinates":[-70.86931,42.812883],"type":"Point"},"properties":{"osm_id":"5276468261","tag":{"amenity":"waste_basket","source:amenity":"survey"}},"type":"Feature"},
	{"geometry":{"coordinates":[-70.869973,42.812629],"type":"Point"},"properties":{"osm_id":"5276468262","tag":{"amenity":"recycling","recycling_type":"container"}},"type":"Feature"},
	{"geometry":{"coordinates":[-70.869912,42.812941],"type":"Point"},"properties":{"osm_id":"5276468263","tag":{"amenity":"waste_basket","source:amenity":"survey"}},"type":"Feature"},
	{"geometry":{"coordinates":[-70.87004,42.812285],"type":"Point"},"properties":{"osm_id":"5305277339","tag":{"amenity":"waste_basket","source:amenity":"survey"}},"type":"Feature"},
	{"geometry":{"coordinates":[-70.870984,42.813036],"type":"Point"},"properties":{"osm_id":"5322480126","tag":{"amenity":"waste_basket","source:amenity":"survey"}},"type":"Feature"},
	{"geometry":{"coordinates":[-70.870469,42.812999],"type":"Point"},"properties":{"osm_id":"5322480131","tag":{"amenity":"waste_basket","source:amenity":"survey"}},"type":"Feature"},
	{"geometry":{"coordinates":[-70.871502,42.813136],"type":"Point"},"properties":{"osm_id":"5322491086","tag":{"amenity":"waste_basket","source:amenity":"survey"}},"type":"Feature"},
	{"geometry":{"coordinates":[-70.871355,42.813116],"type":"Point"},"properties":{"osm_id":"5322491087","tag":{"amenity":"waste_basket","source:amenity":"survey"}},"type":"Feature"},
	{"geometry":{"coordinates":[-70.871526,42.813095],"type":"Point"},"properties":{"osm_id":"5322491088","tag":{"amenity":"recycling","recycling_type":"container"}},"type":"Feature"},
	{"geometry":{"coordinates":[-70.871552,42.81304],"type":"Point"},"properties":{"osm_id":"5322491089","tag":{"amenity":"waste_basket","source:amenity":"survey"}},"type":"Feature"},
	{"geometry":{"coordinates":[-70.870992,42.813036],"type":"Point"},"properties":{"osm_id":"5322491090","tag":{"amenity":"recycling","recycling_type":"container"}},"type":"Feature"},
	{"geometry":{"coordinates":[-70.871528,42.813092],"type":"Point"},"properties":{"osm_id":"5322491091","tag":{"amenity":"waste_basket","source:amenity":"survey"}},"type":"Feature"},
	{"geometry":{"coordinates":[-70.87155,42.813044],"type":"Point"},"properties":{"osm_id":"5322491092","tag":{"amenity":"recycling","recycling_type":"container"}},"type":"Feature"},
	{"geometry":{"coordinates":[-70.871228,42.8131],"type":"Point"},"properties":{"osm_id":"5322491093","tag":{"amenity":"waste_basket","source:amenity":"survey"}},"type":"Feature"},
	{"geometry":{"coordinates":[-70.86819,42.81273],"type":"Point"},"properties":{"osm_id":"5349320362","tag":{"amenity":"waste_basket","source:amenity":"survey"}},"type":"Feature"},
	{"geometry":{"coordinates":[-70.867895,42.812715],"type":"Point"},"properties":{"osm_id":"5349320369","tag":{"amenity":"waste_basket","source:amenity":"https://olsonlewis.com/portfolio_page/newburyport-harbormaster/"}},"type":"Feature"},
	{"geometry":{"coordinates":[-70.868381,42.811805],"type":"Point"},"properties":{"osm_id":"5355360358","tag":{"amenity":"recycling","recycling_type":"container"}},"type":"Feature"},
	{"geometry":{"coordinates":[-70.868374,42.811804],"type":"Point"},"properties":{"osm_id":"5355360359","tag":{"amenity":"waste_basket","source:amenity":"survey"}},"type":"Feature"},
	{"geometry":{"coordinates":[-70.910961,42.847398],"type":"Point"},"properties":{"name":"Recycling Drop Off","osm_id":"5412139900","tag":{"addr:housenumber":"100","addr:street":"Macy Street","addr:unit":"M","amenity":"recycling","location":"overground","recycling_type":"container"}},"type":"Feature"}
]
}
