{
"type": "FeatureCollection",
"features": [
	{"geometry":{"coordinates":[16.622849,52.473028],"type":"Point"},"properties":{"name":"G\u00c3\u00b3ra","osm_id":"957273353","tag":{"amenity":"waste_basket"}},"type":"Feature"},
	{"geometry":{"coordinates":[16.677926,52.45585],"type":"Point"},"properties":{"osm_id":"6703857395","tag":{"amenity":"waste_basket","waste":"trash"}},"type":"Feature"},
	{"geometry":{"coordinates":[16.677869,52.455741],"type":"Point"},"properties":{"osm_id":"6703857396","tag":{"amenity":"waste_basket","waste":"trash"}},"type":"Feature"},
	{"geometry":{"coordinates":[16.613953,52.457486],"type":"Point"},"properties":{"name":"Skup palet","osm_id":"7771362780","tag":{"amenity":"recycling","recycling_type":"centre"}},"type":"Feature"},
	{"geometry":{"coordinates":[16.695744,52.433573],"type":"Point"},"properties":{"osm_id":"8796157695","tag":{"amenity":"waste_basket","waste":"trash"}},"type":"Feature"},
	{"geometry":{"coordinates":[16.698891,52.432886],"type":"Point"},"properties":{"osm_id":"8796157698","tag":{"amenity":"waste_basket","waste":"trash"}},"type":"Feature"},
	{"geometry":{"coordinates":[16.698898,52.432886],"type":"Point"},"properties":{"osm_id":"8796157699","tag":{"amenity":"waste_basket","waste":"dog_excrement"}},"type":"Feature"},
	{"geometry":{"coordinates":[16.697987,52.432925],"type":"Point"},"properties":{"osm_id":"8796157700","tag":{"amenity":"waste_basket","waste":"trash"}},"type":"Feature"},
	{"geometry":{"coordinates":[16.696933,52.433073],"type":"Point"},"properties":{"osm_id":"8796157702","tag":{"amenity":"waste_basket","waste":"trash"}},"type":"Feature"},
	{"geometry":{"coordinates":[16.697568,52.43302],"type":"Point"},"properties":{"osm_id":"8796157703","tag":{"amenity":"waste_basket","waste":"trash"}},"type":"Feature"},
	{"geometry":{"coordinates":[16.645096,52.433752],"type":"Point"},"properties":{"osm_id":"8796253034","tag":{"amenity":"waste_basket","waste":"trash"}},"type":"Feature"},
	{"geometry":{"coordinates":[16.645216,52.429498],"type":"Point"},"properties":{"osm_id":"8822705998","tag":{"amenity":"waste_basket","waste":"trash"}},"type":"Feature"},
	{"geometry":{"coordinates":[16.648015,52.45129],"type":"Point"},"properties":{"osm_id":"8828298052","tag":{"amenity":"waste_basket","waste":"trash"}},"type":"Feature"},
	{"geometry":{"coordinates":[16.647647,52.451427],"type":"Point"},"properties":{"osm_id":"8828298054","tag":{"amenity":"waste_basket","waste":"trash"}},"type":"Feature"},
	{"geometry":{"coordinates":[16.647283,52.451561],"type":"Point"},"properties":{"osm_id":"8828298056","tag":{"amenity":"waste_basket","waste":"trash"}},"type":"Feature"},
	{"geometry":{"coordinates":[16.647542,52.451313],"type":"Point"},"properties":{"osm_id":"8828298068","tag":{"amenity":"waste_basket","waste":"trash"}},"type":"Feature"},
	{"geometry":{"coordinates":[16.647873,52.451192],"type":"Point"},"properties":{"osm_id":"8828298069","tag":{"amenity":"waste_basket","waste":"trash"}},"type":"Feature"},
	{"geometry":{"coordinates":[16.640306,52.454454],"type":"Point"},"properties":{"osm_id":"8828423254","tag":{"amenity":"waste_basket","waste":"trash"}},"type":"Feature"},
	{"geometry":{"coordinates":[16.620699,52.439464],"type":"Point"},"properties":{"osm_id":"8828558252","tag":{"amenity":"waste_basket","waste":"trash"}},"type":"Feature"},
	{"geometry":{"coordinates":[16.65002,52.429335],"type":"Point"},"properties":{"osm_id":"8955208448","tag":{"amenity":"waste_basket","waste":"trash"}},"type":"Feature"},
	{"geometry":{"coordinates":[16.645387,52.429391],"type":"Point"},"properties":{"osm_id":"8955208451","tag":{"amenity":"waste_basket","waste":"dog_excrement"}},"type":"Feature"},
	{"geometry":{"coordinates":[16.645182,52.430398],"type":"Point"},"properties":{"osm_id":"8955208452","tag":{"amenity":"waste_basket","waste":"trash"}},"type":"Feature"},
	{"geometry":{"coordinates":[16.699088,52.432993],"type":"Point"},"properties":{"osm_id":"9110872428","tag":{"amenity":"waste_basket","waste":"trash"}},"type":"Feature"}
]
}
