{
"type": "FeatureCollection",
"features": [
	{"geometry":{"coordinates":[16.659848,49.487681],"type":"Point"},"properties":{"osm_id":"2622144554","tag":{"amenity":"waste_basket"}},"type":"Feature"},
	{"geometry":{"coordinates":[16.660305,49.487824],"type":"Point"},"properties":{"osm_id":"2622144592","tag":{"amenity":"waste_basket"}},"type":"Feature"},
	{"geometry":{"coordinates":[16.659577,49.487844],"type":"Point"},"properties":{"osm_id":"2622144595","tag":{"amenity":"waste_basket"}},"type":"Feature"},
	{"geometry":{"coordinates":[16.66015,49.487896],"type":"Point"},"properties":{"osm_id":"2622144599","tag":{"amenity":"waste_basket"}},"type":"Feature"},
	{"geometry":{"coordinates":[16.619381,49.439932],"type":"Point"},"properties":{"osm_id":"2752715294","tag":{"amenity":"recycling","recycling:cartons":"yes","recycling:glass":"yes","recycling:organic":"yes","recycling:paper":"yes","recycling:plastic":"yes","recycling_type":"container"}},"type":"Feature"},
	{"geometry":{"coordinates":[16.64865,49.444646],"type":"Point"},"properties":{"osm_id":"2752715376","tag":{"amenity":"waste_basket"}},"type":"Feature"},
	{"geometry":{"coordinates":[16.661316,49.487302],"type":"Point"},"properties":{"osm_id":"2848838081","tag":{"amenity":"waste_basket"}},"type":"Feature"},
	{"geometry":{"coordinates":[16.679362,49.482959],"type":"Point"},"properties":{"osm_id":"3003491300","tag":{"amenity":"recycling","recycling_type":"container"}},"type":"Feature"},
	{"geometry":{"coordinates":[16.658363,49.486729],"type":"Point"},"properties":{"osm_id":"3959698403","tag":{"amenity":"recycling","recycling_type":"container"}},"type":"Feature"},
	{"geometry":{"coordinates":[16.660569,49.487308],"type":"Point"},"properties":{"osm_id":"3959698416","tag":{"amenity":"waste_basket"}},"type":"Feature"},
	{"geometry":{"coordinates":[16.660517,49.487364],"type":"Point"},"properties":{"osm_id":"3959698421","tag":{"amenity":"waste_basket"}},"type":"Feature"},
	{"geometry":{"coordinates":[16.660381,49.4874],"type":"Point"},"properties":{"osm_id":"3959698422","tag":{"amenity":"waste_basket"}},"type":"Feature"},
	{"geometry":{"coordinates":[16.652524,49.491227],"type":"Point"},"properties":{"osm_id":"5146839939","tag":{"amenity":"recycling","recycling:batteries":"yes","recycling:cooking_oil":"yes","recycling:glass_bottles":"yes","recycling:green_waste":"yes","recycling:paper":"yes","recycling:plastic":"yes","recycling:small_appliances":"yes","recycling_type":"container"}},"type":"Feature"},
	{"geometry":{"coordinates":[16.64974,49.490552],"type":"Point"},"properties":{"osm_id":"5827843519","tag":{"amenity":"waste_basket"}},"type":"Feature"},
	{"geometry":{"coordinates":[16.648902,49.490712],"type":"Point"},"properties":{"osm_id":"5827843522","tag":{"amenity":"waste_basket"}},"type":"Feature"},
	{"geometry":{"coordinates":[16.648545,49.49078],"type":"Point"},"properties":{"osm_id":"5827843524","tag":{"amenity":"waste_basket"}},"type":"Feature"},
	{"geometry":{"coordinates":[16.647272,49.491031],"type":"Point"},"properties":{"osm_id":"5827843525","tag":{"amenity":"waste_basket"}},"type":"Feature"},
	{"geometry":{"coordinates":[16.646704,49.491147],"type":"Point"},"properties":{"osm_id":"5827843527","tag":{"amenity":"waste_basket"}},"type":"Feature"},
	{"geometry":{"coordinates":[16.645588,49.491358],"type":"Point"},"properties":{"osm_id":"5827843528","tag":{"amenity":"waste_basket"}},"type":"Feature"},
	{"geometry":{"coordinates":[16.641787,49.490905],"type":"Point"},"properties":{"osm_id":"5827843536","tag":{"amenity":"recycling","recycling_type":"container"}},"type":"Feature"},
	{"geometry":{"coordinates":[16.624649,49.466155],"type":"Point"},"properties":{"osm_id":"5827845857","tag":{"amenity":"waste_basket"}},"type":"Feature"},
	{"geometry":{"coordinates":[16.617939,49.489632],"type":"Point"},"properties":{"osm_id":"5939582411","tag":{"amenity":"recycling","recycling_type":"container"}},"type":"Feature"},
	{"geometry":{"coordinates":[16.661012,49.486002],"type":"Point"},"properties":{"osm_id":"6655069302","tag":{"amenity":"recycling","recycling_type":"container"}},"type":"Feature"}
]
}
