{
"type": "FeatureCollection",
"features": [
	{"geometry":{"coordinates":[16.686566,68.49051],"type":"Point"},"properties":{"osm_id":"6560980574","tag":{"amenity":"recycling","opening_hours":"24/7","recycling:PET":"yes","recycling:cans":"yes","recycling:glass_bottles":"yes","recycling_type":"container","wheelchair":"yes"}},"type":"Feature"},
	{"geometry":{"coordinates":[16.687306,68.490507],"type":"Point"},"properties":{"osm_id":"6560980576","tag":{"amenity":"waste_basket","waste":"trash"}},"type":"Feature"},
	{"geometry":{"coordinates":[16.687939,68.490516],"type":"Point"},"properties":{"osm_id":"6560980578","tag":{"amenity":"recycling","opening_hours":"24/7","recycling:PET":"yes","recycling:cans":"yes","recycling:glass_bottles":"yes","recycling_type":"container","wheelchair":"yes"}},"type":"Feature"},
	{"geometry":{"coordinates":[16.687968,68.490516],"type":"Point"},"properties":{"osm_id":"6560980581","tag":{"amenity":"waste_basket","waste":"trash"}},"type":"Feature"},
	{"geometry":{"coordinates":[16.687224,68.490506],"type":"Point"},"properties":{"osm_id":"6560980582","tag":{"amenity":"waste_basket","waste":"trash"}},"type":"Feature"},
	{"geometry":{"coordinates":[16.686696,68.490601],"type":"Point"},"properties":{"osm_id":"6561012785","tag":{"amenity":"waste_basket","waste":"trash"}},"type":"Feature"},
	{"geometry":{"coordinates":[16.686918,68.490604],"type":"Point"},"properties":{"osm_id":"6561012786","tag":{"amenity":"waste_basket","waste":"trash"}},"type":"Feature"},
	{"geometry":{"coordinates":[16.68729,68.490507],"type":"Point"},"properties":{"osm_id":"6561012788","tag":{"amenity":"recycling","opening_hours":"24/7","recycling:PET":"yes","recycling:cans":"yes","recycling:glass_bottles":"yes","recycling_type":"container","wheelchair":"yes"}},"type":"Feature"},
	{"geometry":{"coordinates":[16.689047,68.490885],"type":"Point"},"properties":{"osm_id":"6561012796","tag":{"amenity":"waste_basket","waste":"trash"}},"type":"Feature"},
	{"geometry":{"coordinates":[16.686584,68.490511],"type":"Point"},"properties":{"osm_id":"6561012798","tag":{"amenity":"waste_basket","waste":"trash"}},"type":"Feature"},
	{"geometry":{"coordinates":[16.687209,68.490507],"type":"Point"},"properties":{"osm_id":"6561012801","tag":{"amenity":"recycling","opening_hours":"24/7","recycling:PET":"yes","recycling:cans":"yes","recycling:glass_bottles":"yes","recycling_type":"container","wheelchair":"yes"}},"type":"Feature"},
	{"geometry":{"coordinates":[16.68919,68.491163],"type":"Point"},"properties":{"osm_id":"6561029737","tag":{"amenity":"waste_basket","waste":"trash"}},"type":"Feature"},
	{"geometry":{"coordinates":[16.686636,68.49115],"type":"Point"},"properties":{"man_made":"surveillance","osm_id":"6561029741","tag":{"amenity":"waste_basket","camera:mount":"pole","camera:type":"fixed","surveillance":"outdoor","surveillance:type":"camera","waste":"trash"}},"type":"Feature"}
]
}
