{
"type": "FeatureCollection",
"lastupdate": "2020-08-02T00:00:00Z",
"features": [
	{"geometry":{"coordinates":[-93.611466,41.723854],"type":"Point"},"properties":{"name":"Ankeny Area Redemption Center","osm_id":"439978804","tag":{"addr:city":"Ankeny","addr:country":"US","addr:housenumber":"905","addr:postcode":"50023","addr:street":"Southwest Ordnance Road","amenity":"recycling","recycling:cans":"yes","recycling:glass_bottles":"yes","recycling:plastic_bottles":"yes"}},"type":"Feature"},
	{"geometry":{"coordinates":[-93.617404,41.728982],"type":"Point"},"properties":{"osm_id":"626110689","tag":{"amenity":"waste_basket"}},"type":"Feature"},
	{"geometry":{"coordinates":[-93.6384,41.742223],"type":"Point"},"properties":{"osm_id":"630234353","tag":{"amenity":"waste_basket"}},"type":"Feature"},
	{"geometry":{"coordinates":[-93.61623,41.743732],"type":"Point"},"properties":{"osm_id":"706665731","tag":{"amenity":"waste_basket"}},"type":"Feature"},
	{"geometry":{"coordinates":[-93.617343,41.744445],"type":"Point"},"properties":{"osm_id":"814324608","tag":{"amenity":"waste_basket"}},"type":"Feature"},
	{"geometry":{"coordinates":[-93.613839,41.744692],"type":"Point"},"properties":{"osm_id":"814376968","tag":{"amenity":"waste_basket"}},"type":"Feature"},
	{"geometry":{"coordinates":[-93.613203,41.743671],"type":"Point"},"properties":{"osm_id":"814377050","tag":{"amenity":"waste_basket"}},"type":"Feature"},
	{"geometry":{"coordinates":[-93.611181,41.742996],"type":"Point"},"properties":{"osm_id":"814392868","tag":{"amenity":"waste_basket"}},"type":"Feature"},
	{"geometry":{"coordinates":[-93.611246,41.742995],"type":"Point"},"properties":{"osm_id":"814393009","tag":{"amenity":"waste_basket"}},"type":"Feature"},
	{"geometry":{"coordinates":[-93.625536,41.711448],"type":"Point"},"properties":{"osm_id":"848336452","tag":{"amenity":"waste_basket"}},"type":"Feature"},
	{"geometry":{"coordinates":[-93.625072,41.712257],"type":"Point"},"properties":{"osm_id":"848337197","tag":{"amenity":"waste_basket"}},"type":"Feature"},
	{"geometry":{"coordinates":[-93.638577,41.742073],"type":"Point"},"properties":{"osm_id":"874377037","tag":{"amenity":"waste_basket"}},"type":"Feature"},
	{"geometry":{"coordinates":[-93.63849,41.742522],"type":"Point"},"properties":{"osm_id":"874377058","tag":{"amenity":"waste_basket"}},"type":"Feature"},
	{"geometry":{"coordinates":[-93.626001,41.74236],"type":"Point"},"properties":{"osm_id":"981877998","tag":{"amenity":"waste_basket"}},"type":"Feature"},
	{"geometry":{"coordinates":[-93.625946,41.742533],"type":"Point"},"properties":{"osm_id":"981878016","tag":{"amenity":"waste_basket"}},"type":"Feature"},
	{"geometry":{"coordinates":[-93.62639,41.742728],"type":"Point"},"properties":{"osm_id":"981878023","tag":{"amenity":"waste_basket"}},"type":"Feature"},
	{"geometry":{"coordinates":[-93.625896,41.742127],"type":"Point"},"properties":{"osm_id":"981878035","tag":{"amenity":"waste_basket"}},"type":"Feature"},
	{"geometry":{"coordinates":[-93.626373,41.742244],"type":"Point"},"properties":{"osm_id":"981878052","tag":{"amenity":"waste_basket"}},"type":"Feature"},
	{"geometry":{"coordinates":[-93.626421,41.742439],"type":"Point"},"properties":{"osm_id":"981878065","tag":{"amenity":"waste_basket"}},"type":"Feature"},
	{"geometry":{"coordinates":[-93.626151,41.742549],"type":"Point"},"properties":{"osm_id":"981878068","tag":{"amenity":"waste_basket"}},"type":"Feature"},
	{"geometry":{"coordinates":[-93.62657,41.74242],"type":"Point"},"properties":{"osm_id":"981878086","tag":{"amenity":"waste_basket"}},"type":"Feature"},
	{"geometry":{"coordinates":[-93.625909,41.743123],"type":"Point"},"properties":{"osm_id":"981878088","tag":{"amenity":"waste_basket"}},"type":"Feature"},
	{"geometry":{"coordinates":[-93.611679,41.730582],"type":"Point"},"properties":{"osm_id":"1203912554","tag":{"amenity":"waste_basket"}},"type":"Feature"},
	{"geometry":{"coordinates":[-93.619852,41.741103],"type":"Point"},"properties":{"osm_id":"1211541644","tag":{"amenity":"waste_basket"}},"type":"Feature"},
	{"geometry":{"coordinates":[-93.610629,41.705866],"type":"Point"},"properties":{"osm_id":"1712877426","tag":{"amenity":"waste_basket"}},"type":"Feature"}
]
}
