{
"type": "FeatureCollection",
"features": [
	{"geometry":{"coordinates":[11.610917,52.092884],"type":"Point"},"properties":{"osm_id":"287947654","tag":{"amenity":"recycling"}},"type":"Feature"},
	{"geometry":{"coordinates":[11.62469,52.087029],"type":"Point"},"properties":{"osm_id":"289178019","tag":{"amenity":"recycling"}},"type":"Feature"},
	{"geometry":{"coordinates":[11.620723,52.08488],"type":"Point"},"properties":{"osm_id":"292354828","tag":{"amenity":"recycling","recycling:clothes":"yes","recycling:glass":"yes","recycling:paper":"yes","recycling:plastic":"yes"}},"type":"Feature"},
	{"geometry":{"coordinates":[11.606216,52.093005],"type":"Point"},"properties":{"osm_id":"436368552","tag":{"amenity":"recycling","location":"overground","recycling_type":"container"}},"type":"Feature"},
	{"geometry":{"coordinates":[11.60581,52.091207],"type":"Point"},"properties":{"osm_id":"436368553","tag":{"amenity":"recycling","location":"overground","recycling_type":"container"}},"type":"Feature"},
	{"geometry":{"coordinates":[11.624719,52.099552],"type":"Point"},"properties":{"osm_id":"436368559","tag":{"amenity":"recycling","recycling:clothes":"yes","recycling:glass":"yes","recycling_type":"container"}},"type":"Feature"},
	{"geometry":{"coordinates":[11.622999,52.099717],"type":"Point"},"properties":{"osm_id":"445514430","tag":{"amenity":"recycling","recycling:clothes":"yes","recycling:glass":"yes","recycling_type":"container"}},"type":"Feature"},
	{"geometry":{"coordinates":[11.622924,52.101049],"type":"Point"},"properties":{"osm_id":"445514435","tag":{"amenity":"recycling","recycling:clothes":"yes","recycling:glass":"yes"}},"type":"Feature"},
	{"geometry":{"coordinates":[11.624018,52.096663],"type":"Point"},"properties":{"osm_id":"446194941","tag":{"amenity":"recycling","recycling:clothes":"yes","recycling:glass":"yes"}},"type":"Feature"},
	{"geometry":{"coordinates":[11.628575,52.10649],"type":"Point"},"properties":{"osm_id":"449301534","tag":{"amenity":"recycling"}},"type":"Feature"},
	{"geometry":{"coordinates":[11.64233,52.105693],"type":"Point"},"properties":{"osm_id":"876204757","tag":{"amenity":"recycling","recycling:clothes":"yes","recycling:glass":"yes"}},"type":"Feature"},
	{"geometry":{"coordinates":[11.640531,52.102749],"type":"Point"},"properties":{"osm_id":"1141155831","tag":{"amenity":"recycling"}},"type":"Feature"},
	{"geometry":{"coordinates":[11.657416,52.090141],"type":"Point"},"properties":{"osm_id":"1368318180","tag":{"amenity":"recycling","recycling:glass":"yes"}},"type":"Feature"},
	{"geometry":{"coordinates":[11.608721,52.10195],"type":"Point"},"properties":{"osm_id":"1735270250","tag":{"amenity":"recycling","recycling:clothes":"yes","recycling_type":"container"}},"type":"Feature"},
	{"geometry":{"coordinates":[11.605404,52.08475],"type":"Point"},"properties":{"osm_id":"1927786949","tag":{"amenity":"recycling","location":"overground","recycling_type":"container"}},"type":"Feature"},
	{"geometry":{"coordinates":[11.615326,52.090481],"type":"Point"},"properties":{"osm_id":"2534906590","tag":{"amenity":"recycling","recycling:glass_bottles":"yes","recycling_type":"container"}},"type":"Feature"},
	{"geometry":{"coordinates":[11.668732,52.074321],"type":"Point"},"properties":{"osm_id":"3679796881","tag":{"amenity":"recycling"}},"type":"Feature"},
	{"geometry":{"coordinates":[11.656449,52.077604],"type":"Point"},"properties":{"osm_id":"3938644504","tag":{"addr:city":"Magdeburg","addr:postcode":"39122","addr:street":"Ottersleber Stra\u00c3\u009fe","amenity":"recycling","recycling:cans":"no","recycling:clothes":"yes","recycling:glass":"yes","recycling:paper":"no","recycling:plastic":"no","recycling_type":"container"}},"type":"Feature"},
	{"geometry":{"coordinates":[11.663076,52.0875],"type":"Point"},"properties":{"osm_id":"4952703765","tag":{"amenity":"waste_disposal"}},"type":"Feature"},
	{"geometry":{"coordinates":[11.663036,52.08748],"type":"Point"},"properties":{"osm_id":"4952703766","tag":{"amenity":"waste_disposal"}},"type":"Feature"},
	{"geometry":{"coordinates":[11.662869,52.087834],"type":"Point"},"properties":{"osm_id":"4952703767","tag":{"amenity":"waste_disposal"}},"type":"Feature"},
	{"geometry":{"coordinates":[11.662812,52.087823],"type":"Point"},"properties":{"osm_id":"4952703768","tag":{"amenity":"waste_disposal"}},"type":"Feature"},
	{"geometry":{"coordinates":[11.664081,52.087244],"type":"Point"},"properties":{"osm_id":"5004846135","tag":{"amenity":"waste_disposal"}},"type":"Feature"},
	{"geometry":{"coordinates":[11.664258,52.086656],"type":"Point"},"properties":{"osm_id":"5004846136","tag":{"amenity":"waste_disposal"}},"type":"Feature"},
	{"geometry":{"coordinates":[11.664575,52.085472],"type":"Point"},"properties":{"osm_id":"5004846137","tag":{"amenity":"waste_disposal"}},"type":"Feature"},
	{"geometry":{"coordinates":[11.664485,52.085267],"type":"Point"},"properties":{"osm_id":"5004846138","tag":{"amenity":"waste_disposal"}},"type":"Feature"},
	{"geometry":{"coordinates":[11.654275,52.081337],"type":"Point"},"properties":{"osm_id":"5104918836","tag":{"amenity":"recycling"}},"type":"Feature"},
	{"geometry":{"coordinates":[11.626893,52.106096],"type":"Point"},"properties":{"osm_id":"5380557008","tag":{"amenity":"recycling","recycling:clothes":"yes","recycling:glass":"yes","recycling:glass_bottles":"yes","recycling_type":"container"}},"type":"Feature"},
	{"geometry":{"coordinates":[11.616409,52.099787],"type":"Point"},"properties":{"osm_id":"5380955280","tag":{"amenity":"recycling","recycling:clothes":"yes","recycling:glass":"yes","recycling_type":"container"}},"type":"Feature"},
	{"geometry":{"coordinates":[11.61333,52.100789],"type":"Point"},"properties":{"osm_id":"5390410908","tag":{"amenity":"recycling","recycling:clothes":"yes","recycling:glass":"yes","recycling_type":"container"}},"type":"Feature"},
	{"geometry":{"coordinates":[11.623214,52.098126],"type":"Point"},"properties":{"osm_id":"5390424911","tag":{"amenity":"recycling","recycling:clothes":"yes","recycling_type":"container"}},"type":"Feature"},
	{"geometry":{"coordinates":[11.626056,52.098093],"type":"Point"},"properties":{"osm_id":"5401492843","tag":{"amenity":"recycling","recycling:clothes":"yes","recycling_type":"container"}},"type":"Feature"},
	{"geometry":{"coordinates":[11.642557,52.104514],"type":"Point"},"properties":{"osm_id":"5465482550","tag":{"amenity":"recycling","recycling:clothes":"yes","recycling_type":"container"}},"type":"Feature"},
	{"geometry":{"coordinates":[11.651385,52.095578],"type":"Point"},"properties":{"osm_id":"5465482551","tag":{"amenity":"recycling","recycling:glass":"yes","recycling_type":"container"}},"type":"Feature"},
	{"geometry":{"coordinates":[11.622815,52.100585],"type":"Point"},"properties":{"osm_id":"5475496912","tag":{"amenity":"recycling","recycling:clothes":"yes","recycling_type":"container"}},"type":"Feature"},
	{"geometry":{"coordinates":[11.603983,52.099803],"type":"Point"},"properties":{"osm_id":"5539578670","tag":{"amenity":"recycling","recycling:clothes":"yes","recycling:glass":"yes","recycling_type":"container"}},"type":"Feature"},
	{"geometry":{"coordinates":[11.604704,52.102992],"type":"Point"},"properties":{"osm_id":"6004816995","tag":{"amenity":"recycling","recycling:clothes":"yes","recycling_type":"container"}},"type":"Feature"},
	{"geometry":{"coordinates":[11.668311,52.061417],"type":"Point"},"properties":{"osm_id":"6786564524","tag":{"amenity":"recycling","recycling:glass_bottles":"yes","recycling_type":"container"}},"type":"Feature"}
]
}
