{
"type": "FeatureCollection",
"lastupdate": "2020-08-05T00:00:00Z",
"features": [
	{"geometry":{"coordinates":[11.653767,50.362567],"type":"Point"},"properties":{"osm_id":"286259505","tag":{"amenity":"recycling"}},"type":"Feature"},
	{"geometry":{"coordinates":[11.66396,50.353172],"type":"Point"},"properties":{"osm_id":"1004331664","tag":{"amenity":"recycling","recycling:glass":"yes"}},"type":"Feature"},
	{"geometry":{"coordinates":[11.631978,50.362623],"type":"Point"},"properties":{"osm_id":"3403272172","tag":{"amenity":"waste_basket","description":"Abfallentsorgung"}},"type":"Feature"},
	{"geometry":{"coordinates":[11.644368,50.361368],"type":"Point"},"properties":{"osm_id":"4080450172","tag":{"amenity":"waste_basket"}},"type":"Feature"},
	{"geometry":{"coordinates":[11.650954,50.365273],"type":"Point"},"properties":{"osm_id":"4080450177","tag":{"amenity":"recycling","recycling:cans":"yes","recycling:clothes":"yes","recycling:glass_bottles":"yes","recycling:shoes":"yes","recycling_type":"container"}},"type":"Feature"},
	{"geometry":{"coordinates":[11.686324,50.366433],"type":"Point"},"properties":{"osm_id":"4080450186","tag":{"amenity":"waste_basket"}},"type":"Feature"},
	{"geometry":{"coordinates":[11.686278,50.366754],"type":"Point"},"properties":{"osm_id":"4080450187","tag":{"amenity":"waste_basket"}},"type":"Feature"},
	{"geometry":{"coordinates":[11.686694,50.360452],"type":"Point"},"properties":{"osm_id":"4082823078","tag":{"amenity":"waste_basket"}},"type":"Feature"},
	{"geometry":{"coordinates":[11.683422,50.35542],"type":"Point"},"properties":{"osm_id":"4085534254","tag":{"amenity":"recycling","recycling:cans":"yes","recycling:clothes":"yes","recycling:plastic_packaging":"yes","recycling:shoes":"yes","recycling_type":"container"}},"type":"Feature"},
	{"geometry":{"coordinates":[11.614679,50.363045],"type":"Point"},"properties":{"osm_id":"4792263601","tag":{"amenity":"recycling","recycling:glass":"yes","recycling:paper":"yes","recycling_type":"container"}},"type":"Feature"},
	{"geometry":{"coordinates":[11.617988,50.364127],"type":"Point"},"properties":{"osm_id":"5020771785","tag":{"amenity":"waste_basket"}},"type":"Feature"},
	{"geometry":{"coordinates":[11.67217,50.375857],"type":"Point"},"properties":{"osm_id":"6298681482","tag":{"amenity":"waste_basket"}},"type":"Feature"},
	{"geometry":{"coordinates":[11.636046,50.399557],"type":"Point"},"properties":{"osm_id":"6468313363","tag":{"amenity":"waste_basket"}},"type":"Feature"},
	{"geometry":{"coordinates":[11.671106,50.374257],"type":"Point"},"properties":{"osm_id":"6522635709","tag":{"amenity":"waste_basket","colour":"Gr\u00fcn"}},"type":"Feature"}
]
}
