{
"type": "FeatureCollection",
"lastupdate": "2020-08-02T00:00:00Z",
"features": [
	{"geometry":{"coordinates":[11.684867,47.795732],"type":"Point"},"properties":{"name":"Wertstoffhof Schaftlach","osm_id":"272066961","tag":{"addr:city":"Waakirchen","addr:country":"DE","addr:housenumber":"3","addr:postcode":"83666","addr:street":"Bahnhofstra\u00dfe","addr:suburb":"Schaftlach","amenity":"recycling"}},"type":"Feature"},
	{"geometry":{"coordinates":[11.683244,47.771766],"type":"Point"},"properties":{"osm_id":"272119259","tag":{"amenity":"recycling"}},"type":"Feature"},
	{"geometry":{"coordinates":[11.673009,47.772437],"type":"Point"},"properties":{"osm_id":"272119735","tag":{"amenity":"recycling","location":"underground","recycling_type":"container"}},"type":"Feature"},
	{"geometry":{"coordinates":[11.672675,47.773877],"type":"Point"},"properties":{"osm_id":"854881710","tag":{"amenity":"recycling","location":"overground","recycling_type":"container"}},"type":"Feature"},
	{"geometry":{"coordinates":[11.642983,47.808231],"type":"Point"},"properties":{"osm_id":"1656157358","tag":{"amenity":"recycling","recycling:clothes":"yes","recycling:glass":"yes","recycling_type":"container"}},"type":"Feature"},
	{"geometry":{"coordinates":[11.67238,47.775224],"type":"Point"},"properties":{"osm_id":"2302702094","tag":{"amenity":"recycling","recycling_type":"container"}},"type":"Feature"}
]
}
