{
"type": "FeatureCollection",
"features": [
	{"geometry":{"coordinates":[11.663102,46.716349],"type":"Point"},"properties":{"osm_id":"492213863","tag":{"amenity":"recycling","recycling:cans":"yes","recycling:glass":"yes","recycling:paper":"yes"}},"type":"Feature"},
	{"geometry":{"coordinates":[11.659044,46.718426],"type":"Point"},"properties":{"osm_id":"492213880","tag":{"amenity":"recycling","recycling:glass":"yes","recycling:paper":"yes"}},"type":"Feature"},
	{"geometry":{"coordinates":[11.658632,46.705157],"type":"Point"},"properties":{"osm_id":"767946589","tag":{"amenity":"recycling","recycling:cans":"yes","recycling:clothes":"no","recycling:glass":"yes","recycling:paper":"yes"}},"type":"Feature"},
	{"geometry":{"coordinates":[11.657871,46.706862],"type":"Point"},"properties":{"osm_id":"767946607","tag":{"amenity":"recycling","recycling:cans":"yes","recycling:clothes":"yes","recycling:glass":"yes","recycling:paper":"yes","recycling_type":"container"}},"type":"Feature"},
	{"geometry":{"coordinates":[11.662415,46.706697],"type":"Point"},"properties":{"osm_id":"767946648","tag":{"amenity":"recycling","recycling:batteries":"yes","recycling:cans":"yes","recycling:clothes":"yes","recycling:glass":"yes","recycling:paper":"yes","recycling:scrap_metal":"yes"}},"type":"Feature"},
	{"geometry":{"coordinates":[11.660539,46.708548],"type":"Point"},"properties":{"osm_id":"767946669","tag":{"access":"private","amenity":"recycling","recycling:cans":"no","recycling:glass":"no","recycling:paper":"no","recycling_type":"container"}},"type":"Feature"},
	{"geometry":{"coordinates":[11.662949,46.710651],"type":"Point"},"properties":{"osm_id":"767946691","tag":{"amenity":"recycling","recycling:cans":"yes","recycling:glass":"yes","recycling:paper":"yes"}},"type":"Feature"},
	{"geometry":{"coordinates":[11.66227,46.708765],"type":"Point"},"properties":{"osm_id":"767946693","tag":{"amenity":"recycling","recycling:clothes":"yes","recycling:paper":"yes"}},"type":"Feature"},
	{"geometry":{"coordinates":[11.664773,46.712453],"type":"Point"},"properties":{"osm_id":"767946701","tag":{"amenity":"recycling","recycling:glass":"yes","recycling:paper":"yes"}},"type":"Feature"},
	{"geometry":{"coordinates":[11.663174,46.714019],"type":"Point"},"properties":{"osm_id":"767946707","tag":{"amenity":"recycling","recycling:cans":"yes","recycling:glass":"yes","recycling:paper":"yes","recycling_type":"container"}},"type":"Feature"},
	{"geometry":{"coordinates":[11.667992,46.735436],"type":"Point"},"properties":{"osm_id":"897980055","tag":{"amenity":"recycling","recycling:batteries":"yes","recycling:cans":"yes","recycling:cooking_oil":"yes","recycling:glass_bottles":"yes","recycling:green_waste":"yes","recycling:paper":"yes","recycling:plastic":"no","recycling:plastic_packaging":"yes","recycling_type":"container"}},"type":"Feature"},
	{"geometry":{"coordinates":[11.651778,46.739164],"type":"Point"},"properties":{"osm_id":"1388892533","tag":{"amenity":"recycling","recycling_type":"container"}},"type":"Feature"},
	{"geometry":{"coordinates":[11.658165,46.717486],"type":"Point"},"properties":{"osm_id":"1930938977","tag":{"amenity":"recycling"}},"type":"Feature"},
	{"geometry":{"coordinates":[11.651205,46.712664],"type":"Point"},"properties":{"osm_id":"2398791900","tag":{"amenity":"recycling"}},"type":"Feature"},
	{"geometry":{"coordinates":[11.650897,46.717859],"type":"Point"},"properties":{"osm_id":"2399833457","tag":{"amenity":"recycling"}},"type":"Feature"},
	{"geometry":{"coordinates":[11.659797,46.714022],"type":"Point"},"properties":{"osm_id":"2427689337","tag":{"amenity":"recycling","recycling:cans":"yes","recycling:glass":"yes","recycling:paper":"yes","recycling_type":"container"}},"type":"Feature"},
	{"geometry":{"coordinates":[11.637437,46.687082],"type":"Point"},"properties":{"name":"Recyclinghof Brixen","osm_id":"2430375011","tag":{"amenity":"recycling","recycling_type":"centre"}},"type":"Feature"},
	{"geometry":{"coordinates":[11.654212,46.71525],"type":"Point"},"properties":{"osm_id":"2434521047","tag":{"amenity":"recycling","recycling:cans":"yes","recycling:glass":"yes","recycling:paper":"yes"}},"type":"Feature"},
	{"geometry":{"coordinates":[11.653738,46.7187],"type":"Point"},"properties":{"osm_id":"2466298456","tag":{"amenity":"recycling"}},"type":"Feature"},
	{"geometry":{"coordinates":[11.658792,46.715448],"type":"Point"},"properties":{"osm_id":"2476948913","tag":{"amenity":"recycling"}},"type":"Feature"},
	{"geometry":{"coordinates":[11.659308,46.708529],"type":"Point"},"properties":{"osm_id":"2509328229","tag":{"amenity":"recycling","recycling:cans":"yes","recycling:glass_bottles":"yes","recycling:paper":"yes","recycling_type":"container"}},"type":"Feature"},
	{"geometry":{"coordinates":[11.653432,46.71375],"type":"Point"},"properties":{"osm_id":"2534717132","tag":{"amenity":"recycling","recycling:cans":"yes","recycling:glass":"yes","recycling:paper":"yes"}},"type":"Feature"},
	{"geometry":{"coordinates":[11.65123,46.71522],"type":"Point"},"properties":{"osm_id":"2534717264","tag":{"amenity":"recycling","recycling:cans":"yes","recycling:glass":"yes","recycling:paper":"yes"}},"type":"Feature"},
	{"geometry":{"coordinates":[11.650064,46.721395],"type":"Point"},"properties":{"osm_id":"2544140298","tag":{"amenity":"recycling","recycling:cans":"yes","recycling:glass":"yes","recycling:paper":"yes","recycling_type":"container"}},"type":"Feature"},
	{"geometry":{"coordinates":[11.652493,46.719586],"type":"Point"},"properties":{"osm_id":"2544147005","tag":{"amenity":"recycling","recycling:cans":"yes","recycling:glass":"yes","recycling:paper":"yes","recycling_type":"container"}},"type":"Feature"},
	{"geometry":{"coordinates":[11.661563,46.712554],"type":"Point"},"properties":{"osm_id":"2556120391","tag":{"amenity":"recycling","recycling:glass":"yes","recycling:paper":"yes","recycling_type":"container"}},"type":"Feature"},
	{"geometry":{"coordinates":[11.658361,46.714977],"type":"Point"},"properties":{"osm_id":"3423192837","tag":{"amenity":"recycling","location":"underground","recycling_type":"container"}},"type":"Feature"},
	{"geometry":{"coordinates":[11.658292,46.712291],"type":"Point"},"properties":{"osm_id":"3423192843","tag":{"amenity":"recycling"}},"type":"Feature"},
	{"geometry":{"coordinates":[11.65246,46.720608],"type":"Point"},"properties":{"osm_id":"4777265406","tag":{"amenity":"recycling","description":"Kleidung nicht lose einwerfen!","recycling:clothes":"yes","recycling_type":"container"}},"type":"Feature"},
	{"geometry":{"coordinates":[11.658949,46.717317],"type":"Point"},"properties":{"osm_id":"5690748822","tag":{"amenity":"recycling","recycling_type":"container"}},"type":"Feature"},
	{"geometry":{"coordinates":[11.650537,46.717804],"type":"Point"},"properties":{"osm_id":"5690767373","tag":{"amenity":"waste_disposal"}},"type":"Feature"},
	{"geometry":{"coordinates":[11.653992,46.71691],"type":"Point"},"properties":{"osm_id":"5690941591","tag":{"amenity":"recycling","recycling_type":"container"}},"type":"Feature"},
	{"geometry":{"coordinates":[11.653843,46.717694],"type":"Point"},"properties":{"osm_id":"5690943106","tag":{"amenity":"recycling","recycling_type":"container"}},"type":"Feature"},
	{"geometry":{"coordinates":[11.643213,46.731387],"type":"Point"},"properties":{"osm_id":"5832947186","tag":{"amenity":"waste_disposal"}},"type":"Feature"},
	{"geometry":{"coordinates":[11.662137,46.716443],"type":"Point"},"properties":{"osm_id":"6877457855","tag":{"amenity":"recycling","recycling_type":"container"}},"type":"Feature"},
	{"geometry":{"coordinates":[11.651129,46.71792],"type":"Point"},"properties":{"osm_id":"6877460193","tag":{"amenity":"waste_basket"}},"type":"Feature"},
	{"geometry":{"coordinates":[11.655454,46.709125],"type":"Point"},"properties":{"osm_id":"6878558516","tag":{"amenity":"recycling","recycling_type":"container"}},"type":"Feature"},
	{"geometry":{"coordinates":[11.656908,46.723381],"type":"Point"},"properties":{"osm_id":"6878558522","tag":{"amenity":"recycling","recycling:cans":"yes","recycling:glass":"yes","recycling:green_waste":"yes","recycling:paper":"yes","recycling:waste":"yes","recycling_type":"container"}},"type":"Feature"},
	{"geometry":{"coordinates":[11.650626,46.709569],"type":"Point"},"properties":{"osm_id":"6878558526","tag":{"amenity":"recycling","recycling_type":"container"}},"type":"Feature"},
	{"geometry":{"coordinates":[11.649558,46.713861],"type":"Point"},"properties":{"osm_id":"6878558527","tag":{"amenity":"recycling","recycling_type":"container"}},"type":"Feature"},
	{"geometry":{"coordinates":[11.655799,46.725178],"type":"Point"},"properties":{"osm_id":"7732356199","tag":{"amenity":"waste_basket"}},"type":"Feature"},
	{"geometry":{"coordinates":[11.654706,46.726892],"type":"Point"},"properties":{"osm_id":"7732356205","tag":{"amenity":"waste_basket"}},"type":"Feature"},
	{"geometry":{"coordinates":[11.654381,46.727835],"type":"Point"},"properties":{"osm_id":"7732356209","tag":{"amenity":"waste_basket"}},"type":"Feature"},
	{"geometry":{"coordinates":[11.653827,46.731416],"type":"Point"},"properties":{"osm_id":"7732356218","tag":{"amenity":"waste_basket"}},"type":"Feature"},
	{"geometry":{"coordinates":[11.651189,46.724544],"type":"Point"},"properties":{"osm_id":"7785624871","tag":{"amenity":"recycling","recycling:aluminium":"yes","recycling:glass":"yes","recycling:paper":"yes","recycling:waste":"yes","recycling_type":"container"}},"type":"Feature"},
	{"geometry":{"coordinates":[11.655783,46.723494],"type":"Point"},"properties":{"osm_id":"7795206467","tag":{"amenity":"waste_basket","operator":"Stadtwerke Brixen / ASM Bressanone"}},"type":"Feature"},
	{"geometry":{"coordinates":[11.656693,46.724441],"type":"Point"},"properties":{"osm_id":"7795250669","tag":{"amenity":"recycling","recycling:organic":"yes","recycling:waste":"yes","recycling_type":"container"}},"type":"Feature"},
	{"geometry":{"coordinates":[11.655718,46.723236],"type":"Point"},"properties":{"osm_id":"7795251778","tag":{"amenity":"waste_basket","operator":"Stadtwerke Brixen / ASM Bressanone"}},"type":"Feature"},
	{"geometry":{"coordinates":[11.655324,46.723447],"type":"Point"},"properties":{"osm_id":"7795284993","tag":{"amenity":"waste_basket","operator":"Stadtwerke Brixen / ASM Bressanone"}},"type":"Feature"},
	{"geometry":{"coordinates":[11.655392,46.722927],"type":"Point"},"properties":{"osm_id":"7795297130","tag":{"amenity":"waste_basket","operator":"Stadtwerke Brixen / ASM Bressanone"}},"type":"Feature"},
	{"geometry":{"coordinates":[11.641071,46.687113],"type":"Point"},"properties":{"osm_id":"7795297693","tag":{"amenity":"waste_basket"}},"type":"Feature"},
	{"geometry":{"coordinates":[11.653232,46.723141],"type":"Point"},"properties":{"osm_id":"7795299407","tag":{"amenity":"waste_basket","operator":"Stadtwerke Brixen / ASM Bressanone"}},"type":"Feature"}
]
}
