{
"type": "FeatureCollection",
"features": [
	{"geometry":{"coordinates":[11.60783,45.462993],"type":"Point"},"properties":{"osm_id":"866544256","tag":{"amenity":"recycling","recycling_type":"centre"}},"type":"Feature"},
	{"geometry":{"coordinates":[11.607383,45.515598],"type":"Point"},"properties":{"barrier":"gate","osm_id":"1617501859"},"type":"Feature"},
	{"geometry":{"coordinates":[11.631269,45.515929],"type":"Point"},"properties":{"osm_id":"4597629510","tag":{"amenity":"waste_basket"}},"type":"Feature"},
	{"geometry":{"coordinates":[11.631853,45.515908],"type":"Point"},"properties":{"osm_id":"4597629511","tag":{"amenity":"waste_basket"}},"type":"Feature"},
	{"geometry":{"coordinates":[11.664705,45.496277],"type":"Point"},"properties":{"osm_id":"8243146932","tag":{"amenity":"waste_basket","waste":"trash"}},"type":"Feature"},
	{"geometry":{"coordinates":[11.617044,45.516623],"type":"Point"},"properties":{"osm_id":"8758118758","tag":{"amenity":"waste_basket","waste":"trash"}},"type":"Feature"},
	{"geometry":{"coordinates":[11.617592,45.516493],"type":"Point"},"properties":{"osm_id":"8758118759","tag":{"amenity":"waste_basket","waste":"trash"}},"type":"Feature"},
	{"geometry":{"coordinates":[11.617391,45.516537],"type":"Point"},"properties":{"osm_id":"8758118760","tag":{"amenity":"waste_basket","waste":"trash"}},"type":"Feature"},
	{"geometry":{"coordinates":[11.617525,45.516506],"type":"Point"},"properties":{"osm_id":"8758118761","tag":{"amenity":"waste_basket","waste":"trash"}},"type":"Feature"},
	{"geometry":{"coordinates":[11.617204,45.516581],"type":"Point"},"properties":{"osm_id":"8758118762","tag":{"amenity":"waste_basket","waste":"trash"}},"type":"Feature"}
]
}
