{
"type": "FeatureCollection",
"features": [
	{"geometry":{"coordinates":[11.643976,42.657641],"type":"Point"},"properties":{"osm_id":"2946106060","tag":{"amenity":"recycling","recycling:cans":"no","recycling:glass":"no","recycling:paper":"no","recycling:scrap_metal":"no","recycling_type":"container"}},"type":"Feature"},
	{"geometry":{"coordinates":[11.646165,42.657779],"type":"Point"},"properties":{"osm_id":"2946106061","tag":{"amenity":"recycling","recycling:cans":"no","recycling:glass":"no","recycling:paper":"yes","recycling:scrap_metal":"yes","recycling_type":"container"}},"type":"Feature"},
	{"geometry":{"coordinates":[11.658725,42.634759],"type":"Point"},"properties":{"osm_id":"5225367735","tag":{"amenity":"waste_basket"}},"type":"Feature"},
	{"geometry":{"coordinates":[11.646635,42.63335],"type":"Point"},"properties":{"osm_id":"5237243620","tag":{"amenity":"waste_basket"}},"type":"Feature"},
	{"geometry":{"coordinates":[11.661942,42.637725],"type":"Point"},"properties":{"osm_id":"5237276342","tag":{"amenity":"recycling","opening_hours":"24/7","recycling:glass":"no","recycling:glass_bottles":"yes","recycling:plastic":"yes","recycling:plastic_packaging":"no","recycling_type":"container"}},"type":"Feature"},
	{"geometry":{"coordinates":[11.648747,42.654426],"type":"Point"},"properties":{"osm_id":"5240114776","tag":{"amenity":"recycling","opening_hours":"24/7","recycling_type":"container"}},"type":"Feature"},
	{"geometry":{"coordinates":[11.670696,42.635081],"type":"Point"},"properties":{"osm_id":"5298357553","tag":{"amenity":"waste_basket"}},"type":"Feature"},
	{"geometry":{"coordinates":[11.67004,42.634857],"type":"Point"},"properties":{"osm_id":"5298357564","tag":{"amenity":"waste_basket","check_date":"2021-09-18"}},"type":"Feature"},
	{"geometry":{"coordinates":[11.669427,42.634925],"type":"Point"},"properties":{"osm_id":"5298357590","tag":{"amenity":"waste_basket"}},"type":"Feature"},
	{"geometry":{"coordinates":[11.672256,42.633397],"type":"Point"},"properties":{"osm_id":"5300002833","tag":{"amenity":"waste_basket"}},"type":"Feature"}
]
}
