{
"type": "FeatureCollection",
"features": [
	{"geometry":{"coordinates":[-0.35253,51.682399],"type":"Point"},"properties":{"osm_id":"746734667","tag":{"natural":"tree"}},"type":"Feature"},
	{"geometry":{"coordinates":[-0.35797,51.682333],"type":"Point"},"properties":{"osm_id":"746734683","tag":{"natural":"tree"}},"type":"Feature"},
	{"geometry":{"coordinates":[-0.357498,51.682645],"type":"Point"},"properties":{"osm_id":"746734699","tag":{"natural":"tree"}},"type":"Feature"},
	{"geometry":{"coordinates":[-0.357069,51.683051],"type":"Point"},"properties":{"osm_id":"746734712","tag":{"natural":"tree"}},"type":"Feature"},
	{"geometry":{"coordinates":[-0.352391,51.681295],"type":"Point"},"properties":{"osm_id":"746734768","tag":{"natural":"tree"}},"type":"Feature"},
	{"geometry":{"coordinates":[-0.352455,51.682053],"type":"Point"},"properties":{"osm_id":"746734773","tag":{"natural":"tree"}},"type":"Feature"},
	{"geometry":{"coordinates":[-0.418712,51.704944],"type":"Point"},"properties":{"osm_id":"2283701337","tag":{"natural":"tree"}},"type":"Feature"},
	{"geometry":{"coordinates":[-0.418475,51.705061],"type":"Point"},"properties":{"osm_id":"2283701341","tag":{"natural":"tree"}},"type":"Feature"},
	{"geometry":{"coordinates":[-0.418645,51.705118],"type":"Point"},"properties":{"osm_id":"2283701342","tag":{"natural":"tree"}},"type":"Feature"},
	{"geometry":{"coordinates":[-0.418305,51.705152],"type":"Point"},"properties":{"osm_id":"2283701345","tag":{"natural":"tree"}},"type":"Feature"},
	{"geometry":{"coordinates":[-0.418485,51.705197],"type":"Point"},"properties":{"osm_id":"2283701349","tag":{"natural":"tree"}},"type":"Feature"},
	{"geometry":{"coordinates":[-0.418335,51.705281],"type":"Point"},"properties":{"osm_id":"2283701353","tag":{"natural":"tree"}},"type":"Feature"},
	{"geometry":{"coordinates":[-0.417985,51.705306],"type":"Point"},"properties":{"name":"Peony Gardens","osm_id":"2283701357","tag":{"addr:housenumber":"43","addr:postcode":"WD5 0AA","addr:street":"High Street","amenity":"fast_food","contact:phone":"+44 (1923) 265006; +44 (1923) 270842","cuisine":"chinese","natural":"tree","opening_hours":"Su-Th 17:00-23:00; Fr-Sa 12:00-14:00,17:00-23:00"}},"type":"Feature"},
	{"geometry":{"coordinates":[-0.418414,51.705361],"type":"Point"},"properties":{"osm_id":"2283701360","tag":{"natural":"tree"}},"type":"Feature"},
	{"geometry":{"coordinates":[-0.417869,51.705376],"type":"Point"},"properties":{"osm_id":"2283701361","tag":{"natural":"tree"}},"type":"Feature"},
	{"geometry":{"coordinates":[-0.418172,51.705379],"type":"Point"},"properties":{"osm_id":"2283701362","tag":{"natural":"tree"}},"type":"Feature"},
	{"geometry":{"coordinates":[-0.418018,51.705448],"type":"Point"},"properties":{"osm_id":"2283701367","tag":{"natural":"tree"}},"type":"Feature"},
	{"geometry":{"coordinates":[-0.417893,51.705512],"type":"Point"},"properties":{"osm_id":"2283701374","tag":{"natural":"tree"}},"type":"Feature"},
	{"geometry":{"coordinates":[-0.417621,51.705542],"type":"Point"},"properties":{"osm_id":"2283701378","tag":{"natural":"tree"}},"type":"Feature"},
	{"geometry":{"coordinates":[-0.417522,51.705633],"type":"Point"},"properties":{"osm_id":"2283701387","tag":{"natural":"tree"}},"type":"Feature"},
	{"geometry":{"coordinates":[-0.417751,51.70565],"type":"Point"},"properties":{"osm_id":"2283701392","tag":{"natural":"tree"}},"type":"Feature"},
	{"geometry":{"coordinates":[-0.418176,51.705476],"type":"Point"},"properties":{"osm_id":"2284226439","tag":{"natural":"tree"}},"type":"Feature"},
	{"geometry":{"coordinates":[-0.363054,51.721053],"type":"Point"},"properties":{"osm_id":"2299015470","tag":{"natural":"tree"}},"type":"Feature"},
	{"geometry":{"coordinates":[-0.423802,51.704728],"type":"Point"},"properties":{"osm_id":"2309949008","tag":{"natural":"tree"}},"type":"Feature"},
	{"geometry":{"coordinates":[-0.424053,51.704902],"type":"Point"},"properties":{"osm_id":"2309949051","tag":{"natural":"tree"}},"type":"Feature"},
	{"geometry":{"coordinates":[-0.424301,51.705288],"type":"Point"},"properties":{"osm_id":"2309949076","tag":{"natural":"tree"}},"type":"Feature"},
	{"geometry":{"coordinates":[-0.406938,51.691076],"type":"Point"},"properties":{"osm_id":"2317807278","tag":{"natural":"tree"}},"type":"Feature"},
	{"geometry":{"coordinates":[-0.405433,51.691134],"type":"Point"},"properties":{"osm_id":"2317807281","tag":{"natural":"tree"}},"type":"Feature"},
	{"geometry":{"coordinates":[-0.405888,51.691383],"type":"Point"},"properties":{"osm_id":"2317807286","tag":{"natural":"tree"}},"type":"Feature"},
	{"geometry":{"coordinates":[-0.407201,51.691983],"type":"Point"},"properties":{"osm_id":"2317807343","tag":{"natural":"tree"}},"type":"Feature"},
	{"geometry":{"coordinates":[-0.415974,51.686377],"type":"Point"},"properties":{"osm_id":"2320879969","tag":{"natural":"tree"}},"type":"Feature"},
	{"geometry":{"coordinates":[-0.419765,51.685463],"type":"Point"},"properties":{"osm_id":"2320902993","tag":{"natural":"tree"}},"type":"Feature"},
	{"geometry":{"coordinates":[-0.419672,51.685485],"type":"Point"},"properties":{"osm_id":"2320902995","tag":{"natural":"tree"}},"type":"Feature"},
	{"geometry":{"coordinates":[-0.395268,51.710543],"type":"Point"},"properties":{"osm_id":"2323683313","tag":{"natural":"tree"}},"type":"Feature"},
	{"geometry":{"coordinates":[-0.38831,51.714092],"type":"Point"},"properties":{"osm_id":"2323683441","tag":{"natural":"tree"}},"type":"Feature"},
	{"geometry":{"coordinates":[-0.387295,51.7141],"type":"Point"},"properties":{"osm_id":"2323683442","tag":{"natural":"tree"}},"type":"Feature"},
	{"geometry":{"coordinates":[-0.388806,51.714447],"type":"Point"},"properties":{"osm_id":"2323683443","tag":{"natural":"tree"}},"type":"Feature"},
	{"geometry":{"coordinates":[-0.388924,51.714549],"type":"Point"},"properties":{"osm_id":"2323683444","tag":{"natural":"tree"}},"type":"Feature"},
	{"geometry":{"coordinates":[-0.389313,51.714852],"type":"Point"},"properties":{"osm_id":"2323683445","tag":{"natural":"tree"}},"type":"Feature"},
	{"geometry":{"coordinates":[-0.410711,51.706716],"type":"Point"},"properties":{"osm_id":"2324563412","tag":{"natural":"tree"}},"type":"Feature"},
	{"geometry":{"coordinates":[-0.410524,51.706725],"type":"Point"},"properties":{"osm_id":"2324563415","tag":{"natural":"tree"}},"type":"Feature"},
	{"geometry":{"coordinates":[-0.410371,51.706803],"type":"Point"},"properties":{"osm_id":"2324563427","tag":{"natural":"tree"}},"type":"Feature"},
	{"geometry":{"coordinates":[-0.410266,51.707592],"type":"Point"},"properties":{"osm_id":"2324563481","tag":{"natural":"tree"}},"type":"Feature"},
	{"geometry":{"coordinates":[-0.408603,51.708034],"type":"Point"},"properties":{"osm_id":"2324563521","tag":{"natural":"tree"}},"type":"Feature"},
	{"geometry":{"coordinates":[-0.409439,51.708452],"type":"Point"},"properties":{"osm_id":"2324563539","tag":{"natural":"tree"}},"type":"Feature"},
	{"geometry":{"coordinates":[-0.41008,51.708452],"type":"Point"},"properties":{"osm_id":"2324563542","tag":{"natural":"tree"}},"type":"Feature"},
	{"geometry":{"coordinates":[-0.408017,51.708465],"type":"Point"},"properties":{"osm_id":"2324563546","tag":{"natural":"tree"}},"type":"Feature"},
	{"geometry":{"coordinates":[-0.409639,51.709221],"type":"Point"},"properties":{"osm_id":"2324563580","tag":{"natural":"tree"}},"type":"Feature"},
	{"geometry":{"coordinates":[-0.40752,51.712142],"type":"Point"},"properties":{"osm_id":"2324563735","tag":{"natural":"tree"}},"type":"Feature"},
	{"geometry":{"coordinates":[-0.391805,51.701163],"type":"Point"},"properties":{"osm_id":"2456329106","tag":{"natural":"tree"}},"type":"Feature"},
	{"geometry":{"coordinates":[-0.387064,51.703174],"type":"Point"},"properties":{"osm_id":"2468142827","tag":{"natural":"tree"}},"type":"Feature"},
	{"geometry":{"coordinates":[-0.385482,51.703463],"type":"Point"},"properties":{"osm_id":"2468142835","tag":{"natural":"tree"}},"type":"Feature"},
	{"geometry":{"coordinates":[-0.386244,51.704235],"type":"Point"},"properties":{"osm_id":"2468142844","tag":{"natural":"tree"}},"type":"Feature"},
	{"geometry":{"coordinates":[-0.385669,51.704373],"type":"Point"},"properties":{"osm_id":"2468142846","tag":{"natural":"tree"}},"type":"Feature"},
	{"geometry":{"coordinates":[-0.426682,51.690989],"type":"Point"},"properties":{"osm_id":"4405019003","tag":{"natural":"tree"}},"type":"Feature"},
	{"geometry":{"coordinates":[-0.427642,51.691129],"type":"Point"},"properties":{"osm_id":"4405019004","tag":{"natural":"tree"}},"type":"Feature"},
	{"geometry":{"coordinates":[-0.425845,51.691149],"type":"Point"},"properties":{"osm_id":"4405019005","tag":{"natural":"tree"}},"type":"Feature"},
	{"geometry":{"coordinates":[-0.427143,51.691372],"type":"Point"},"properties":{"osm_id":"4405019007","tag":{"natural":"tree"}},"type":"Feature"},
	{"geometry":{"coordinates":[-0.429353,51.691382],"type":"Point"},"properties":{"osm_id":"4405019008","tag":{"natural":"tree"}},"type":"Feature"},
	{"geometry":{"coordinates":[-0.428935,51.691392],"type":"Point"},"properties":{"osm_id":"4405019009","tag":{"natural":"tree"}},"type":"Feature"},
	{"geometry":{"coordinates":[-0.428667,51.691412],"type":"Point"},"properties":{"osm_id":"4405019010","tag":{"natural":"tree"}},"type":"Feature"},
	{"geometry":{"coordinates":[-0.428575,51.692143],"type":"Point"},"properties":{"osm_id":"4405019045","tag":{"natural":"tree"}},"type":"Feature"},
	{"geometry":{"coordinates":[-0.428039,51.692207],"type":"Point"},"properties":{"osm_id":"4405019049","tag":{"natural":"tree"}},"type":"Feature"},
	{"geometry":{"coordinates":[-0.428339,51.692253],"type":"Point"},"properties":{"osm_id":"4405019054","tag":{"natural":"tree"}},"type":"Feature"},
	{"geometry":{"coordinates":[-0.424941,51.692772],"type":"Point"},"properties":{"osm_id":"4405019078","tag":{"natural":"tree"}},"type":"Feature"},
	{"geometry":{"coordinates":[-0.424268,51.692832],"type":"Point"},"properties":{"osm_id":"4405019080","tag":{"natural":"tree"}},"type":"Feature"},
	{"geometry":{"coordinates":[-0.424775,51.692853],"type":"Point"},"properties":{"osm_id":"4405019083","tag":{"natural":"tree"}},"type":"Feature"},
	{"geometry":{"coordinates":[-0.42448,51.692855],"type":"Point"},"properties":{"osm_id":"4405019084","tag":{"natural":"tree"}},"type":"Feature"},
	{"geometry":{"coordinates":[-0.423809,51.692918],"type":"Point"},"properties":{"osm_id":"4405019086","tag":{"natural":"tree"}},"type":"Feature"},
	{"geometry":{"coordinates":[-0.423914,51.692998],"type":"Point"},"properties":{"osm_id":"4405019692","tag":{"natural":"tree"}},"type":"Feature"},
	{"geometry":{"coordinates":[-0.424075,51.693041],"type":"Point"},"properties":{"osm_id":"4405019694","tag":{"natural":"tree"}},"type":"Feature"},
	{"geometry":{"coordinates":[-0.424579,51.693051],"type":"Point"},"properties":{"osm_id":"4405019695","tag":{"natural":"tree"}},"type":"Feature"},
	{"geometry":{"coordinates":[-0.427658,51.693191],"type":"Point"},"properties":{"osm_id":"4405019701","tag":{"natural":"tree"}},"type":"Feature"},
	{"geometry":{"coordinates":[-0.423503,51.693276],"type":"Point"},"properties":{"osm_id":"4405019704","tag":{"natural":"tree"}},"type":"Feature"},
	{"geometry":{"coordinates":[-0.424533,51.693327],"type":"Point"},"properties":{"osm_id":"4405019705","tag":{"natural":"tree"}},"type":"Feature"},
	{"geometry":{"coordinates":[-0.424839,51.693507],"type":"Point"},"properties":{"osm_id":"4405019711","tag":{"natural":"tree"}},"type":"Feature"},
	{"geometry":{"coordinates":[-0.424933,51.693587],"type":"Point"},"properties":{"osm_id":"4405019712","tag":{"natural":"tree"}},"type":"Feature"},
	{"geometry":{"coordinates":[-0.424592,51.693597],"type":"Point"},"properties":{"osm_id":"4405019713","tag":{"natural":"tree"}},"type":"Feature"},
	{"geometry":{"coordinates":[-0.42478,51.693616],"type":"Point"},"properties":{"osm_id":"4405019714","tag":{"natural":"tree"}},"type":"Feature"},
	{"geometry":{"coordinates":[-0.381875,51.678974],"type":"Point"},"properties":{"osm_id":"6343093613","tag":{"natural":"tree"}},"type":"Feature"},
	{"geometry":{"coordinates":[-0.381993,51.678841],"type":"Point"},"properties":{"osm_id":"6343093614","tag":{"natural":"tree"}},"type":"Feature"},
	{"geometry":{"coordinates":[-0.382175,51.679965],"type":"Point"},"properties":{"osm_id":"6343093615","tag":{"natural":"tree"}},"type":"Feature"},
	{"geometry":{"coordinates":[-0.382079,51.679835],"type":"Point"},"properties":{"osm_id":"6343093616","tag":{"natural":"tree"}},"type":"Feature"},
	{"geometry":{"coordinates":[-0.38209,51.679799],"type":"Point"},"properties":{"osm_id":"6343093617","tag":{"natural":"tree"}},"type":"Feature"},
	{"geometry":{"coordinates":[-0.382041,51.679772],"type":"Point"},"properties":{"osm_id":"6343093618","tag":{"natural":"tree"}},"type":"Feature"},
	{"geometry":{"coordinates":[-0.38202,51.679739],"type":"Point"},"properties":{"osm_id":"6343093619","tag":{"natural":"tree"}},"type":"Feature"},
	{"geometry":{"coordinates":[-0.381741,51.679466],"type":"Point"},"properties":{"osm_id":"6343093620","tag":{"natural":"tree"}},"type":"Feature"},
	{"geometry":{"coordinates":[-0.381517,51.679098],"type":"Point"},"properties":{"osm_id":"6343093621","tag":{"natural":"tree"}},"type":"Feature"},
	{"geometry":{"coordinates":[-0.381447,51.67899],"type":"Point"},"properties":{"osm_id":"6343093622","tag":{"natural":"tree"}},"type":"Feature"},
	{"geometry":{"coordinates":[-0.381549,51.67882],"type":"Point"},"properties":{"osm_id":"6343093623","tag":{"natural":"tree"}},"type":"Feature"},
	{"geometry":{"coordinates":[-0.382572,51.679107],"type":"Point"},"properties":{"osm_id":"6343093624","tag":{"natural":"tree"}},"type":"Feature"},
	{"geometry":{"coordinates":[-0.382846,51.67926],"type":"Point"},"properties":{"osm_id":"6343093625","tag":{"natural":"tree"}},"type":"Feature"},
	{"geometry":{"coordinates":[-0.383688,51.679742],"type":"Point"},"properties":{"osm_id":"6343093626","tag":{"natural":"tree"}},"type":"Feature"},
	{"geometry":{"coordinates":[-0.382278,51.680173],"type":"Point"},"properties":{"osm_id":"6343093661","tag":{"natural":"tree"}},"type":"Feature"},
	{"geometry":{"coordinates":[-0.382372,51.680399],"type":"Point"},"properties":{"osm_id":"6343093662","tag":{"natural":"tree"}},"type":"Feature"},
	{"geometry":{"coordinates":[-0.382463,51.680516],"type":"Point"},"properties":{"osm_id":"6343093663","tag":{"natural":"tree"}},"type":"Feature"},
	{"geometry":{"coordinates":[-0.382495,51.68065],"type":"Point"},"properties":{"osm_id":"6343093664","tag":{"natural":"tree"}},"type":"Feature"},
	{"geometry":{"coordinates":[-0.382586,51.680777],"type":"Point"},"properties":{"osm_id":"6343093665","tag":{"natural":"tree"}},"type":"Feature"},
	{"geometry":{"coordinates":[-0.379433,51.6813],"type":"Point"},"properties":{"osm_id":"6363611702","tag":{"natural":"tree"}},"type":"Feature"},
	{"geometry":{"coordinates":[-0.380484,51.681077],"type":"Point"},"properties":{"osm_id":"6363611730","tag":{"natural":"tree"}},"type":"Feature"},
	{"geometry":{"coordinates":[-0.380379,51.681026],"type":"Point"},"properties":{"osm_id":"6363611738","tag":{"natural":"tree"}},"type":"Feature"},
	{"geometry":{"coordinates":[-0.379408,51.681782],"type":"Point"},"properties":{"osm_id":"6363611746","tag":{"natural":"tree"}},"type":"Feature"},
	{"geometry":{"coordinates":[-0.379475,51.681815],"type":"Point"},"properties":{"osm_id":"6363611747","tag":{"natural":"tree"}},"type":"Feature"},
	{"geometry":{"coordinates":[-0.379675,51.680946],"type":"Point"},"properties":{"osm_id":"6363626275","tag":{"natural":"tree"}},"type":"Feature"},
	{"geometry":{"coordinates":[-0.379695,51.680906],"type":"Point"},"properties":{"osm_id":"6363626276","tag":{"natural":"tree"}},"type":"Feature"},
	{"geometry":{"coordinates":[-0.384225,51.681371],"type":"Point"},"properties":{"osm_id":"6363800250","tag":{"natural":"tree"}},"type":"Feature"},
	{"geometry":{"coordinates":[-0.384083,51.681332],"type":"Point"},"properties":{"osm_id":"6363800251","tag":{"natural":"tree"}},"type":"Feature"},
	{"geometry":{"coordinates":[-0.384346,51.681402],"type":"Point"},"properties":{"osm_id":"6363800252","tag":{"natural":"tree"}},"type":"Feature"},
	{"geometry":{"coordinates":[-0.384467,51.681435],"type":"Point"},"properties":{"osm_id":"6363800253","tag":{"natural":"tree"}},"type":"Feature"},
	{"geometry":{"coordinates":[-0.38459,51.681465],"type":"Point"},"properties":{"osm_id":"6363800254","tag":{"natural":"tree"}},"type":"Feature"},
	{"geometry":{"coordinates":[-0.385139,51.681605],"type":"Point"},"properties":{"osm_id":"6363800255","tag":{"natural":"tree"}},"type":"Feature"},
	{"geometry":{"coordinates":[-0.385035,51.681578],"type":"Point"},"properties":{"osm_id":"6363800256","tag":{"natural":"tree"}},"type":"Feature"},
	{"geometry":{"coordinates":[-0.384942,51.681555],"type":"Point"},"properties":{"osm_id":"6363800257","tag":{"natural":"tree"}},"type":"Feature"},
	{"geometry":{"coordinates":[-0.38483,51.681526],"type":"Point"},"properties":{"osm_id":"6363800258","tag":{"natural":"tree"}},"type":"Feature"},
	{"geometry":{"coordinates":[-0.384707,51.681495],"type":"Point"},"properties":{"osm_id":"6363800259","tag":{"natural":"tree"}},"type":"Feature"},
	{"geometry":{"coordinates":[-0.38164,51.709024],"type":"Point"},"properties":{"osm_id":"6489335941","tag":{"natural":"tree"}},"type":"Feature"},
	{"geometry":{"coordinates":[-0.439207,51.676318],"type":"Point"},"properties":{"osm_id":"7247800404","tag":{"natural":"tree"}},"type":"Feature"},
	{"geometry":{"coordinates":[-0.438757,51.67653],"type":"Point"},"properties":{"osm_id":"7247800405","tag":{"natural":"tree"}},"type":"Feature"},
	{"geometry":{"coordinates":[-0.438593,51.676363],"type":"Point"},"properties":{"osm_id":"7247800406","tag":{"natural":"tree"}},"type":"Feature"},
	{"geometry":{"coordinates":[-0.439082,51.676181],"type":"Point"},"properties":{"osm_id":"7247800407","tag":{"natural":"tree"}},"type":"Feature"},
	{"geometry":{"coordinates":[-0.439391,51.67646],"type":"Point"},"properties":{"osm_id":"7247800408","tag":{"natural":"tree"}},"type":"Feature"},
	{"geometry":{"coordinates":[-0.439116,51.675817],"type":"Point"},"properties":{"osm_id":"7247800409","tag":{"natural":"tree"}},"type":"Feature"},
	{"geometry":{"coordinates":[-0.438235,51.674008],"type":"Point"},"properties":{"osm_id":"7398411339","tag":{"natural":"tree"}},"type":"Feature"},
	{"geometry":{"coordinates":[-0.43843,51.674104],"type":"Point"},"properties":{"osm_id":"7398411340","tag":{"natural":"tree"}},"type":"Feature"},
	{"geometry":{"coordinates":[-0.438125,51.674223],"type":"Point"},"properties":{"osm_id":"7398411341","tag":{"natural":"tree"}},"type":"Feature"},
	{"geometry":{"coordinates":[-0.437821,51.674179],"type":"Point"},"properties":{"osm_id":"7398411342","tag":{"natural":"tree"}},"type":"Feature"},
	{"geometry":{"coordinates":[-0.43797,51.674056],"type":"Point"},"properties":{"osm_id":"7398411343","tag":{"natural":"tree"}},"type":"Feature"},
	{"geometry":{"coordinates":[-0.43826,51.674352],"type":"Point"},"properties":{"osm_id":"7398411344","tag":{"natural":"tree"}},"type":"Feature"},
	{"geometry":{"coordinates":[-0.438455,51.674262],"type":"Point"},"properties":{"osm_id":"7398411345","tag":{"natural":"tree"}},"type":"Feature"},
	{"geometry":{"coordinates":[-0.437067,51.674245],"type":"Point"},"properties":{"osm_id":"7398411346","tag":{"natural":"tree"}},"type":"Feature"},
	{"geometry":{"coordinates":[-0.436947,51.674216],"type":"Point"},"properties":{"osm_id":"7398411347","tag":{"natural":"tree"}},"type":"Feature"},
	{"geometry":{"coordinates":[-0.436002,51.674383],"type":"Point"},"properties":{"osm_id":"7398411348","tag":{"natural":"tree"}},"type":"Feature"},
	{"geometry":{"coordinates":[-0.436048,51.674516],"type":"Point"},"properties":{"osm_id":"7398411349","tag":{"natural":"tree"}},"type":"Feature"},
	{"geometry":{"coordinates":[-0.435807,51.674419],"type":"Point"},"properties":{"osm_id":"7398411350","tag":{"natural":"tree"}},"type":"Feature"},
	{"geometry":{"coordinates":[-0.435836,51.674522],"type":"Point"},"properties":{"osm_id":"7398411351","tag":{"natural":"tree"}},"type":"Feature"},
	{"geometry":{"coordinates":[-0.434745,51.674344],"type":"Point"},"properties":{"osm_id":"7398411366","tag":{"natural":"tree"}},"type":"Feature"},
	{"geometry":{"coordinates":[-0.434683,51.674314],"type":"Point"},"properties":{"osm_id":"7398411367","tag":{"natural":"tree"}},"type":"Feature"},
	{"geometry":{"coordinates":[-0.434611,51.674292],"type":"Point"},"properties":{"osm_id":"7398411368","tag":{"natural":"tree"}},"type":"Feature"},
	{"geometry":{"coordinates":[-0.434533,51.674264],"type":"Point"},"properties":{"osm_id":"7398411369","tag":{"natural":"tree"}},"type":"Feature"},
	{"geometry":{"coordinates":[-0.434991,51.674134],"type":"Point"},"properties":{"osm_id":"7398411370","tag":{"natural":"tree"}},"type":"Feature"},
	{"geometry":{"coordinates":[-0.434884,51.674119],"type":"Point"},"properties":{"osm_id":"7398411371","tag":{"natural":"tree"}},"type":"Feature"},
	{"geometry":{"coordinates":[-0.432486,51.674412],"type":"Point"},"properties":{"osm_id":"7398469493","tag":{"natural":"tree"}},"type":"Feature"},
	{"geometry":{"coordinates":[-0.432414,51.674384],"type":"Point"},"properties":{"osm_id":"7398469494","tag":{"natural":"tree"}},"type":"Feature"},
	{"geometry":{"coordinates":[-0.432175,51.674321],"type":"Point"},"properties":{"osm_id":"7398469495","tag":{"natural":"tree"}},"type":"Feature"},
	{"geometry":{"coordinates":[-0.432315,51.674347],"type":"Point"},"properties":{"osm_id":"7398469496","tag":{"natural":"tree"}},"type":"Feature"},
	{"geometry":{"coordinates":[-0.430214,51.673431],"type":"Point"},"properties":{"osm_id":"7398469530","tag":{"natural":"tree"}},"type":"Feature"},
	{"geometry":{"coordinates":[-0.434071,51.673612],"type":"Point"},"properties":{"osm_id":"7398469580","tag":{"natural":"tree"}},"type":"Feature"},
	{"geometry":{"coordinates":[-0.433984,51.6736],"type":"Point"},"properties":{"osm_id":"7398469581","tag":{"natural":"tree"}},"type":"Feature"},
	{"geometry":{"coordinates":[-0.433842,51.673586],"type":"Point"},"properties":{"osm_id":"7398469582","tag":{"natural":"tree"}},"type":"Feature"},
	{"geometry":{"coordinates":[-0.431486,51.674567],"type":"Point"},"properties":{"osm_id":"7398469583","tag":{"natural":"tree"}},"type":"Feature"},
	{"geometry":{"coordinates":[-0.431355,51.674575],"type":"Point"},"properties":{"osm_id":"7398469584","tag":{"natural":"tree"}},"type":"Feature"},
	{"geometry":{"coordinates":[-0.431416,51.675821],"type":"Point"},"properties":{"osm_id":"7398469629","tag":{"natural":"tree"}},"type":"Feature"},
	{"geometry":{"coordinates":[-0.430591,51.676414],"type":"Point"},"properties":{"osm_id":"7398469630","tag":{"natural":"tree"}},"type":"Feature"},
	{"geometry":{"coordinates":[-0.430517,51.676576],"type":"Point"},"properties":{"osm_id":"7398469631","tag":{"natural":"tree"}},"type":"Feature"},
	{"geometry":{"coordinates":[-0.430531,51.67669],"type":"Point"},"properties":{"osm_id":"7398469632","tag":{"natural":"tree"}},"type":"Feature"},
	{"geometry":{"coordinates":[-0.430598,51.677015],"type":"Point"},"properties":{"osm_id":"7398469633","tag":{"natural":"tree"}},"type":"Feature"},
	{"geometry":{"coordinates":[-0.430694,51.677086],"type":"Point"},"properties":{"osm_id":"7398469634","tag":{"natural":"tree"}},"type":"Feature"},
	{"geometry":{"coordinates":[-0.431212,51.677484],"type":"Point"},"properties":{"osm_id":"7398469635","tag":{"natural":"tree"}},"type":"Feature"},
	{"geometry":{"coordinates":[-0.430472,51.677224],"type":"Point"},"properties":{"osm_id":"7398469636","tag":{"natural":"tree"}},"type":"Feature"},
	{"geometry":{"coordinates":[-0.430458,51.677582],"type":"Point"},"properties":{"osm_id":"7398469637","tag":{"natural":"tree"}},"type":"Feature"},
	{"geometry":{"coordinates":[-0.43186,51.676791],"type":"Point"},"properties":{"osm_id":"7398482087","tag":{"natural":"tree"}},"type":"Feature"},
	{"geometry":{"coordinates":[-0.431792,51.676736],"type":"Point"},"properties":{"osm_id":"7398482088","tag":{"natural":"tree"}},"type":"Feature"},
	{"geometry":{"coordinates":[-0.431625,51.676686],"type":"Point"},"properties":{"osm_id":"7398482089","tag":{"natural":"tree"}},"type":"Feature"},
	{"geometry":{"coordinates":[-0.43059,51.67775],"type":"Point"},"properties":{"osm_id":"7398482090","tag":{"natural":"tree"}},"type":"Feature"},
	{"geometry":{"coordinates":[-0.432297,51.677754],"type":"Point"},"properties":{"osm_id":"7398482096","tag":{"natural":"tree"}},"type":"Feature"},
	{"geometry":{"coordinates":[-0.432223,51.677613],"type":"Point"},"properties":{"osm_id":"7398482097","tag":{"natural":"tree"}},"type":"Feature"},
	{"geometry":{"coordinates":[-0.432439,51.677242],"type":"Point"},"properties":{"osm_id":"7398482098","tag":{"natural":"tree"}},"type":"Feature"},
	{"geometry":{"coordinates":[-0.432248,51.677414],"type":"Point"},"properties":{"osm_id":"7398482099","tag":{"natural":"tree"}},"type":"Feature"},
	{"geometry":{"coordinates":[-0.432448,51.677391],"type":"Point"},"properties":{"osm_id":"7398482100","tag":{"natural":"tree"}},"type":"Feature"},
	{"geometry":{"coordinates":[-0.432725,51.677189],"type":"Point"},"properties":{"osm_id":"7398482101","tag":{"natural":"tree"}},"type":"Feature"},
	{"geometry":{"coordinates":[-0.433003,51.677261],"type":"Point"},"properties":{"osm_id":"7398482102","tag":{"natural":"tree"}},"type":"Feature"},
	{"geometry":{"coordinates":[-0.433819,51.677078],"type":"Point"},"properties":{"osm_id":"7398482103","tag":{"natural":"tree"}},"type":"Feature"},
	{"geometry":{"coordinates":[-0.433637,51.677013],"type":"Point"},"properties":{"osm_id":"7398482104","tag":{"natural":"tree"}},"type":"Feature"},
	{"geometry":{"coordinates":[-0.432879,51.67853],"type":"Point"},"properties":{"osm_id":"7398482105","tag":{"natural":"tree"}},"type":"Feature"},
	{"geometry":{"coordinates":[-0.433077,51.67789],"type":"Point"},"properties":{"osm_id":"7398482106","tag":{"natural":"tree"}},"type":"Feature"},
	{"geometry":{"coordinates":[-0.433141,51.677993],"type":"Point"},"properties":{"osm_id":"7398482107","tag":{"natural":"tree"}},"type":"Feature"},
	{"geometry":{"coordinates":[-0.433292,51.678186],"type":"Point"},"properties":{"osm_id":"7398482108","tag":{"natural":"tree"}},"type":"Feature"},
	{"geometry":{"coordinates":[-0.433619,51.678688],"type":"Point"},"properties":{"osm_id":"7398482109","tag":{"natural":"tree"}},"type":"Feature"},
	{"geometry":{"coordinates":[-0.433049,51.678836],"type":"Point"},"properties":{"osm_id":"7398482110","tag":{"natural":"tree"}},"type":"Feature"},
	{"geometry":{"coordinates":[-0.431216,51.679235],"type":"Point"},"properties":{"osm_id":"7398482112","tag":{"natural":"tree"}},"type":"Feature"},
	{"geometry":{"coordinates":[-0.431262,51.679107],"type":"Point"},"properties":{"osm_id":"7398482113","tag":{"natural":"tree"}},"type":"Feature"},
	{"geometry":{"coordinates":[-0.431253,51.678544],"type":"Point"},"properties":{"osm_id":"7398482153","tag":{"natural":"tree"}},"type":"Feature"},
	{"geometry":{"coordinates":[-0.431151,51.67841],"type":"Point"},"properties":{"osm_id":"7398482154","tag":{"natural":"tree"}},"type":"Feature"},
	{"geometry":{"coordinates":[-0.431685,51.679988],"type":"Point"},"properties":{"osm_id":"7398482155","tag":{"natural":"tree"}},"type":"Feature"},
	{"geometry":{"coordinates":[-0.434056,51.680623],"type":"Point"},"properties":{"osm_id":"7398498611","tag":{"natural":"tree"}},"type":"Feature"},
	{"geometry":{"coordinates":[-0.434186,51.680627],"type":"Point"},"properties":{"osm_id":"7398498612","tag":{"natural":"tree"}},"type":"Feature"},
	{"geometry":{"coordinates":[-0.43407,51.680711],"type":"Point"},"properties":{"osm_id":"7398498613","tag":{"natural":"tree"}},"type":"Feature"},
	{"geometry":{"coordinates":[-0.434212,51.680697],"type":"Point"},"properties":{"osm_id":"7398498614","tag":{"natural":"tree"}},"type":"Feature"},
	{"geometry":{"coordinates":[-0.433048,51.681016],"type":"Point"},"properties":{"osm_id":"7398498615","tag":{"natural":"tree"}},"type":"Feature"},
	{"geometry":{"coordinates":[-0.433007,51.681002],"type":"Point"},"properties":{"osm_id":"7398498616","tag":{"natural":"tree"}},"type":"Feature"},
	{"geometry":{"coordinates":[-0.432956,51.68099],"type":"Point"},"properties":{"osm_id":"7398498617","tag":{"natural":"tree"}},"type":"Feature"},
	{"geometry":{"coordinates":[-0.433161,51.680972],"type":"Point"},"properties":{"osm_id":"7398498618","tag":{"natural":"tree"}},"type":"Feature"},
	{"geometry":{"coordinates":[-0.433115,51.680952],"type":"Point"},"properties":{"osm_id":"7398498619","tag":{"natural":"tree"}},"type":"Feature"},
	{"geometry":{"coordinates":[-0.433071,51.680938],"type":"Point"},"properties":{"osm_id":"7398498620","tag":{"natural":"tree"}},"type":"Feature"},
	{"geometry":{"coordinates":[-0.434317,51.681623],"type":"Point"},"properties":{"osm_id":"7398498630","tag":{"natural":"tree"}},"type":"Feature"},
	{"geometry":{"coordinates":[-0.434478,51.681724],"type":"Point"},"properties":{"osm_id":"7398498631","tag":{"natural":"tree"}},"type":"Feature"},
	{"geometry":{"coordinates":[-0.434597,51.681945],"type":"Point"},"properties":{"osm_id":"7398498632","tag":{"natural":"tree"}},"type":"Feature"},
	{"geometry":{"coordinates":[-0.435739,51.681405],"type":"Point"},"properties":{"osm_id":"7398599817","tag":{"natural":"tree"}},"type":"Feature"},
	{"geometry":{"coordinates":[-0.434959,51.680318],"type":"Point"},"properties":{"osm_id":"7398599977","tag":{"natural":"tree"}},"type":"Feature"},
	{"geometry":{"coordinates":[-0.435033,51.680347],"type":"Point"},"properties":{"osm_id":"7398599978","tag":{"natural":"tree"}},"type":"Feature"},
	{"geometry":{"coordinates":[-0.433727,51.679752],"type":"Point"},"properties":{"osm_id":"7398599979","tag":{"natural":"tree"}},"type":"Feature"},
	{"geometry":{"coordinates":[-0.43395,51.679383],"type":"Point"},"properties":{"osm_id":"7398599980","tag":{"natural":"tree"}},"type":"Feature"},
	{"geometry":{"coordinates":[-0.434258,51.67702],"type":"Point"},"properties":{"osm_id":"7398599981","tag":{"natural":"tree"}},"type":"Feature"},
	{"geometry":{"coordinates":[-0.437249,51.677812],"type":"Point"},"properties":{"osm_id":"7398599989","tag":{"natural":"tree"}},"type":"Feature"},
	{"geometry":{"coordinates":[-0.437026,51.677799],"type":"Point"},"properties":{"osm_id":"7398599990","tag":{"natural":"tree"}},"type":"Feature"},
	{"geometry":{"coordinates":[-0.435882,51.677208],"type":"Point"},"properties":{"osm_id":"7398599991","tag":{"natural":"tree"}},"type":"Feature"},
	{"geometry":{"coordinates":[-0.433968,51.676798],"type":"Point"},"properties":{"osm_id":"7398599992","tag":{"natural":"tree"}},"type":"Feature"},
	{"geometry":{"coordinates":[-0.434208,51.675968],"type":"Point"},"properties":{"osm_id":"7398599999","tag":{"natural":"tree"}},"type":"Feature"},
	{"geometry":{"coordinates":[-0.433554,51.676715],"type":"Point"},"properties":{"osm_id":"7398600005","tag":{"natural":"tree"}},"type":"Feature"},
	{"geometry":{"coordinates":[-0.436194,51.67531],"type":"Point"},"properties":{"osm_id":"7398600012","tag":{"natural":"tree"}},"type":"Feature"},
	{"geometry":{"coordinates":[-0.438138,51.67665],"type":"Point"},"properties":{"osm_id":"7398600013","tag":{"natural":"tree"}},"type":"Feature"},
	{"geometry":{"coordinates":[-0.438647,51.676761],"type":"Point"},"properties":{"osm_id":"7398600014","tag":{"natural":"tree"}},"type":"Feature"},
	{"geometry":{"coordinates":[-0.43807,51.676934],"type":"Point"},"properties":{"osm_id":"7398600015","tag":{"natural":"tree"}},"type":"Feature"},
	{"geometry":{"coordinates":[-0.438434,51.677088],"type":"Point"},"properties":{"osm_id":"7398600016","tag":{"natural":"tree"}},"type":"Feature"},
	{"geometry":{"coordinates":[-0.438371,51.677325],"type":"Point"},"properties":{"osm_id":"7398600017","tag":{"natural":"tree"}},"type":"Feature"},
	{"geometry":{"coordinates":[-0.437999,51.677257],"type":"Point"},"properties":{"osm_id":"7398600018","tag":{"natural":"tree"}},"type":"Feature"},
	{"geometry":{"coordinates":[-0.437326,51.677276],"type":"Point"},"properties":{"osm_id":"7398600019","tag":{"natural":"tree"}},"type":"Feature"},
	{"geometry":{"coordinates":[-0.436881,51.677044],"type":"Point"},"properties":{"osm_id":"7398600020","tag":{"natural":"tree"}},"type":"Feature"},
	{"geometry":{"coordinates":[-0.438201,51.676475],"type":"Point"},"properties":{"osm_id":"7398600021","tag":{"natural":"tree"}},"type":"Feature"},
	{"geometry":{"coordinates":[-0.438392,51.676539],"type":"Point"},"properties":{"osm_id":"7398600022","tag":{"natural":"tree"}},"type":"Feature"},
	{"geometry":{"coordinates":[-0.439286,51.673414],"type":"Point"},"properties":{"osm_id":"7398649053","tag":{"natural":"tree"}},"type":"Feature"},
	{"geometry":{"coordinates":[-0.43735,51.673146],"type":"Point"},"properties":{"osm_id":"7398649095","tag":{"natural":"tree"}},"type":"Feature"},
	{"geometry":{"coordinates":[-0.438245,51.672972],"type":"Point"},"properties":{"osm_id":"7398649096","tag":{"natural":"tree"}},"type":"Feature"},
	{"geometry":{"coordinates":[-0.431642,51.67269],"type":"Point"},"properties":{"osm_id":"7398649117","tag":{"natural":"tree"}},"type":"Feature"},
	{"geometry":{"coordinates":[-0.431776,51.672655],"type":"Point"},"properties":{"osm_id":"7398649118","tag":{"natural":"tree"}},"type":"Feature"},
	{"geometry":{"coordinates":[-0.431406,51.672728],"type":"Point"},"properties":{"osm_id":"7398649119","tag":{"natural":"tree"}},"type":"Feature"},
	{"geometry":{"coordinates":[-0.427218,51.672853],"type":"Point"},"properties":{"osm_id":"7398651111","tag":{"natural":"tree"}},"type":"Feature"},
	{"geometry":{"coordinates":[-0.427204,51.672989],"type":"Point"},"properties":{"osm_id":"7398651112","tag":{"natural":"tree"}},"type":"Feature"},
	{"geometry":{"coordinates":[-0.427197,51.673228],"type":"Point"},"properties":{"osm_id":"7398651113","tag":{"natural":"tree"}},"type":"Feature"},
	{"geometry":{"coordinates":[-0.427232,51.673309],"type":"Point"},"properties":{"osm_id":"7398651114","tag":{"natural":"tree"}},"type":"Feature"},
	{"geometry":{"coordinates":[-0.42708,51.673342],"type":"Point"},"properties":{"osm_id":"7398651115","tag":{"natural":"tree"}},"type":"Feature"},
	{"geometry":{"coordinates":[-0.427215,51.673408],"type":"Point"},"properties":{"osm_id":"7398651116","tag":{"natural":"tree"}},"type":"Feature"},
	{"geometry":{"coordinates":[-0.427116,51.673494],"type":"Point"},"properties":{"osm_id":"7398651117","tag":{"natural":"tree"}},"type":"Feature"},
	{"geometry":{"coordinates":[-0.426496,51.67257],"type":"Point"},"properties":{"osm_id":"7398651118","tag":{"natural":"tree"}},"type":"Feature"},
	{"geometry":{"coordinates":[-0.426326,51.672723],"type":"Point"},"properties":{"osm_id":"7398651119","tag":{"natural":"tree"}},"type":"Feature"},
	{"geometry":{"coordinates":[-0.426418,51.672631],"type":"Point"},"properties":{"osm_id":"7398651120","tag":{"natural":"tree"}},"type":"Feature"},
	{"geometry":{"coordinates":[-0.426075,51.673781],"type":"Point"},"properties":{"osm_id":"7398651121","tag":{"natural":"tree"}},"type":"Feature"},
	{"geometry":{"coordinates":[-0.426298,51.673808],"type":"Point"},"properties":{"osm_id":"7398651122","tag":{"natural":"tree"}},"type":"Feature"},
	{"geometry":{"coordinates":[-0.42587,51.67386],"type":"Point"},"properties":{"osm_id":"7398651123","tag":{"natural":"tree"}},"type":"Feature"},
	{"geometry":{"coordinates":[-0.4273,51.67375],"type":"Point"},"properties":{"osm_id":"7398651124","tag":{"natural":"tree"}},"type":"Feature"},
	{"geometry":{"coordinates":[-0.427601,51.674433],"type":"Point"},"properties":{"osm_id":"7398651160","tag":{"natural":"tree"}},"type":"Feature"},
	{"geometry":{"coordinates":[-0.427781,51.674527],"type":"Point"},"properties":{"osm_id":"7398651161","tag":{"natural":"tree"}},"type":"Feature"},
	{"geometry":{"coordinates":[-0.43757,51.677286],"type":"Point"},"properties":{"osm_id":"7398685644","tag":{"natural":"tree"}},"type":"Feature"},
	{"geometry":{"coordinates":[-0.436693,51.676999],"type":"Point"},"properties":{"osm_id":"7398685645","tag":{"natural":"tree"}},"type":"Feature"},
	{"geometry":{"coordinates":[-0.437528,51.677095],"type":"Point"},"properties":{"osm_id":"7398685646","tag":{"natural":"tree"}},"type":"Feature"},
	{"geometry":{"coordinates":[-0.436594,51.677007],"type":"Point"},"properties":{"osm_id":"7398685647","tag":{"natural":"tree"}},"type":"Feature"},
	{"geometry":{"coordinates":[-0.436286,51.677031],"type":"Point"},"properties":{"osm_id":"7398685648","tag":{"natural":"tree"}},"type":"Feature"},
	{"geometry":{"coordinates":[-0.436183,51.677036],"type":"Point"},"properties":{"osm_id":"7398685649","tag":{"natural":"tree"}},"type":"Feature"},
	{"geometry":{"coordinates":[-0.413351,51.683541],"type":"Point"},"properties":{"osm_id":"7678320705","tag":{"natural":"tree"}},"type":"Feature"},
	{"geometry":{"coordinates":[-0.413158,51.683509],"type":"Point"},"properties":{"osm_id":"7678320706","tag":{"natural":"tree"}},"type":"Feature"},
	{"geometry":{"coordinates":[-0.412982,51.683487],"type":"Point"},"properties":{"osm_id":"7678320707","tag":{"natural":"tree"}},"type":"Feature"}
]
}
