{
"type": "FeatureCollection",
"features": [
	{"geometry":{"coordinates":[-123.342617,48.458379],"type":"Point"},"properties":{"osm_id":"290321177","tag":{"amenity":"waste_basket"}},"type":"Feature"},
	{"geometry":{"coordinates":[-123.344917,48.461291],"type":"Point"},"properties":{"osm_id":"290321181","tag":{"amenity":"waste_basket"}},"type":"Feature"},
	{"geometry":{"coordinates":[-123.347733,48.459441],"type":"Point"},"properties":{"osm_id":"290321189","tag":{"amenity":"waste_basket"}},"type":"Feature"},
	{"geometry":{"coordinates":[-123.371821,48.47972],"type":"Point"},"properties":{"osm_id":"290506096","tag":{"amenity":"waste_basket"}},"type":"Feature"},
	{"geometry":{"coordinates":[-123.37024,48.479995],"type":"Point"},"properties":{"osm_id":"290506097","tag":{"amenity":"waste_basket"}},"type":"Feature"},
	{"geometry":{"coordinates":[-123.368482,48.480424],"type":"Point"},"properties":{"osm_id":"290506227","tag":{"amenity":"waste_basket"}},"type":"Feature"},
	{"geometry":{"coordinates":[-123.37358,48.481446],"type":"Point"},"properties":{"osm_id":"290506343","tag":{"amenity":"waste_basket"}},"type":"Feature"},
	{"geometry":{"coordinates":[-123.378454,48.494612],"type":"Point"},"properties":{"osm_id":"290578969","tag":{"amenity":"waste_basket"}},"type":"Feature"},
	{"geometry":{"coordinates":[-123.38288,48.488473],"type":"Point"},"properties":{"osm_id":"290579751","tag":{"amenity":"waste_basket"}},"type":"Feature"},
	{"geometry":{"coordinates":[-123.382819,48.488298],"type":"Point"},"properties":{"osm_id":"290579752","tag":{"amenity":"waste_basket"}},"type":"Feature"},
	{"geometry":{"coordinates":[-123.383367,48.493404],"type":"Point"},"properties":{"osm_id":"290579762","tag":{"amenity":"waste_basket"}},"type":"Feature"},
	{"geometry":{"coordinates":[-123.370143,48.495051],"type":"Point"},"properties":{"osm_id":"290579767","tag":{"amenity":"waste_basket"}},"type":"Feature"},
	{"geometry":{"coordinates":[-123.373762,48.491784],"type":"Point"},"properties":{"osm_id":"290579768","tag":{"amenity":"waste_basket"}},"type":"Feature"},
	{"geometry":{"coordinates":[-123.373652,48.493685],"type":"Point"},"properties":{"osm_id":"290580237","tag":{"amenity":"waste_basket"}},"type":"Feature"},
	{"geometry":{"coordinates":[-123.358175,48.461449],"type":"Point"},"properties":{"osm_id":"411678392","tag":{"amenity":"waste_basket"}},"type":"Feature"},
	{"geometry":{"coordinates":[-123.355405,48.461621],"type":"Point"},"properties":{"osm_id":"411678470","tag":{"amenity":"waste_basket"}},"type":"Feature"},
	{"geometry":{"coordinates":[-123.356655,48.461688],"type":"Point"},"properties":{"osm_id":"411678525","tag":{"amenity":"waste_basket"}},"type":"Feature"},
	{"geometry":{"coordinates":[-123.357283,48.461803],"type":"Point"},"properties":{"osm_id":"411678668","tag":{"amenity":"waste_basket"}},"type":"Feature"},
	{"geometry":{"coordinates":[-123.326699,48.474384],"type":"Point"},"properties":{"osm_id":"1466024009","tag":{"amenity":"waste_basket"}},"type":"Feature"},
	{"geometry":{"coordinates":[-123.348893,48.471094],"type":"Point"},"properties":{"osm_id":"1494661585","tag":{"amenity":"waste_basket"}},"type":"Feature"},
	{"geometry":{"coordinates":[-123.326718,48.461424],"type":"Point"},"properties":{"osm_id":"1505539659","tag":{"amenity":"waste_basket"}},"type":"Feature"},
	{"geometry":{"coordinates":[-123.328192,48.461456],"type":"Point"},"properties":{"osm_id":"1505539665","tag":{"amenity":"waste_basket"}},"type":"Feature"},
	{"geometry":{"coordinates":[-123.326534,48.462078],"type":"Point"},"properties":{"osm_id":"1505539785","tag":{"amenity":"waste_basket"}},"type":"Feature"},
	{"geometry":{"coordinates":[-123.326883,48.465738],"type":"Point"},"properties":{"osm_id":"1505554886","tag":{"amenity":"waste_basket"}},"type":"Feature"},
	{"geometry":{"coordinates":[-123.35321,48.466597],"type":"Point"},"properties":{"osm_id":"1505868302","tag":{"amenity":"waste_basket"}},"type":"Feature"},
	{"geometry":{"coordinates":[-123.352897,48.467262],"type":"Point"},"properties":{"osm_id":"1505868356","tag":{"amenity":"waste_basket"}},"type":"Feature"},
	{"geometry":{"coordinates":[-123.36556,48.458629],"type":"Point"},"properties":{"osm_id":"1804499244","tag":{"amenity":"waste_basket"}},"type":"Feature"},
	{"geometry":{"coordinates":[-123.364492,48.458755],"type":"Point"},"properties":{"osm_id":"1804499256","tag":{"amenity":"waste_basket"}},"type":"Feature"},
	{"geometry":{"coordinates":[-123.377442,48.467536],"type":"Point"},"properties":{"osm_id":"1804499334","tag":{"amenity":"waste_basket"}},"type":"Feature"},
	{"geometry":{"coordinates":[-123.340085,48.472586],"type":"Point"},"properties":{"osm_id":"1834794411","tag":{"amenity":"waste_basket"}},"type":"Feature"},
	{"geometry":{"coordinates":[-123.338826,48.475238],"type":"Point"},"properties":{"osm_id":"1834794719","tag":{"amenity":"waste_basket"}},"type":"Feature"},
	{"geometry":{"coordinates":[-123.362568,48.467913],"type":"Point"},"properties":{"name":"South Saanich Return Centre","osm_id":"1913335507","tag":{"amenity":"recycling","recycling:glass_bottles":"yes","recycling:plastic_bottles":"yes","recycling_type":"centre"}},"type":"Feature"},
	{"geometry":{"coordinates":[-123.313918,48.465062],"type":"Point"},"properties":{"osm_id":"2351797344","tag":{"amenity":"waste_basket"}},"type":"Feature"},
	{"geometry":{"coordinates":[-123.310555,48.463901],"type":"Point"},"properties":{"osm_id":"2352636573","tag":{"amenity":"waste_basket"}},"type":"Feature"},
	{"geometry":{"coordinates":[-123.310833,48.463886],"type":"Point"},"properties":{"osm_id":"2352636595","tag":{"amenity":"waste_basket"}},"type":"Feature"},
	{"geometry":{"coordinates":[-123.311734,48.463803],"type":"Point"},"properties":{"osm_id":"2352636608","tag":{"amenity":"waste_basket"}},"type":"Feature"},
	{"geometry":{"coordinates":[-123.313065,48.463598],"type":"Point"},"properties":{"osm_id":"2352636657","tag":{"amenity":"waste_basket"}},"type":"Feature"},
	{"geometry":{"coordinates":[-123.382784,48.458752],"type":"Point"},"properties":{"osm_id":"2589658384","tag":{"amenity":"waste_basket"}},"type":"Feature"},
	{"geometry":{"coordinates":[-123.364006,48.49395],"type":"Point"},"properties":{"osm_id":"3351182563","tag":{"amenity":"waste_basket"}},"type":"Feature"},
	{"geometry":{"coordinates":[-123.389036,48.512882],"type":"Point"},"properties":{"osm_id":"4418258171","tag":{"amenity":"waste_basket"}},"type":"Feature"},
	{"geometry":{"coordinates":[-123.39649,48.487195],"type":"Point"},"properties":{"osm_id":"4433461801","tag":{"amenity":"waste_basket"}},"type":"Feature"},
	{"geometry":{"coordinates":[-123.396255,48.462653],"type":"Point"},"properties":{"osm_id":"4433486249","tag":{"amenity":"waste_basket"}},"type":"Feature"},
	{"geometry":{"coordinates":[-123.396339,48.462817],"type":"Point"},"properties":{"osm_id":"4433486255","tag":{"amenity":"waste_basket"}},"type":"Feature"},
	{"geometry":{"coordinates":[-123.390298,48.48885],"type":"Point"},"properties":{"osm_id":"4433630962","tag":{"amenity":"waste_basket"}},"type":"Feature"},
	{"geometry":{"coordinates":[-123.391986,48.489042],"type":"Point"},"properties":{"osm_id":"4433630968","tag":{"amenity":"waste_basket"}},"type":"Feature"},
	{"geometry":{"coordinates":[-123.391093,48.489481],"type":"Point"},"properties":{"osm_id":"4433631094","tag":{"amenity":"waste_basket"}},"type":"Feature"},
	{"geometry":{"coordinates":[-123.391545,48.489749],"type":"Point"},"properties":{"osm_id":"4433631098","tag":{"amenity":"waste_basket"}},"type":"Feature"},
	{"geometry":{"coordinates":[-123.395792,48.50786],"type":"Point"},"properties":{"osm_id":"4641398699","tag":{"amenity":"waste_basket"}},"type":"Feature"},
	{"geometry":{"coordinates":[-123.394999,48.507967],"type":"Point"},"properties":{"osm_id":"4641398700","tag":{"amenity":"waste_basket"}},"type":"Feature"},
	{"geometry":{"coordinates":[-123.394082,48.507566],"type":"Point"},"properties":{"osm_id":"4641398701","tag":{"amenity":"waste_basket"}},"type":"Feature"},
	{"geometry":{"coordinates":[-123.391812,48.509248],"type":"Point"},"properties":{"osm_id":"4641398702","tag":{"amenity":"waste_basket"}},"type":"Feature"},
	{"geometry":{"coordinates":[-123.391129,48.509606],"type":"Point"},"properties":{"osm_id":"4641398703","tag":{"amenity":"waste_basket"}},"type":"Feature"},
	{"geometry":{"coordinates":[-123.396336,48.503565],"type":"Point"},"properties":{"osm_id":"4707428784","tag":{"amenity":"waste_basket"}},"type":"Feature"},
	{"geometry":{"coordinates":[-123.395768,48.506772],"type":"Point"},"properties":{"osm_id":"4719469651","tag":{"amenity":"waste_basket"}},"type":"Feature"},
	{"geometry":{"coordinates":[-123.394517,48.508973],"type":"Point"},"properties":{"osm_id":"4731300769","tag":{"amenity":"waste_basket"}},"type":"Feature"},
	{"geometry":{"coordinates":[-123.397745,48.510822],"type":"Point"},"properties":{"osm_id":"4742303559","tag":{"amenity":"waste_basket"}},"type":"Feature"},
	{"geometry":{"coordinates":[-123.390225,48.509363],"type":"Point"},"properties":{"osm_id":"4783924077","tag":{"amenity":"recycling","recycling_type":"container"}},"type":"Feature"},
	{"geometry":{"coordinates":[-123.39022,48.509357],"type":"Point"},"properties":{"osm_id":"4783924078","tag":{"amenity":"waste_basket"}},"type":"Feature"},
	{"geometry":{"coordinates":[-123.391137,48.509609],"type":"Point"},"properties":{"osm_id":"4783924079","tag":{"amenity":"recycling","recycling_type":"container"}},"type":"Feature"},
	{"geometry":{"coordinates":[-123.390901,48.509125],"type":"Point"},"properties":{"osm_id":"4783924092","tag":{"amenity":"waste_basket"}},"type":"Feature"},
	{"geometry":{"coordinates":[-123.390488,48.509726],"type":"Point"},"properties":{"osm_id":"4783924433","tag":{"amenity":"waste_basket"}},"type":"Feature"},
	{"geometry":{"coordinates":[-123.385113,48.511612],"type":"Point"},"properties":{"osm_id":"4787593222","tag":{"amenity":"waste_basket"}},"type":"Feature"},
	{"geometry":{"coordinates":[-123.364904,48.476995],"type":"Point"},"properties":{"osm_id":"5794470630","tag":{"amenity":"waste_basket"}},"type":"Feature"},
	{"geometry":{"coordinates":[-123.373653,48.481012],"type":"Point"},"properties":{"osm_id":"6175572566","tag":{"amenity":"waste_basket"}},"type":"Feature"},
	{"geometry":{"coordinates":[-123.37332,48.480647],"type":"Point"},"properties":{"osm_id":"6175572569","tag":{"amenity":"waste_basket"}},"type":"Feature"},
	{"geometry":{"coordinates":[-123.341351,48.486341],"type":"Point"},"properties":{"osm_id":"6175577191","tag":{"amenity":"waste_basket"}},"type":"Feature"},
	{"geometry":{"coordinates":[-123.390159,48.50027],"type":"Point"},"properties":{"osm_id":"6175577202","tag":{"amenity":"waste_basket"}},"type":"Feature"},
	{"geometry":{"coordinates":[-123.319604,48.473206],"type":"Point"},"properties":{"osm_id":"6175577276","tag":{"amenity":"waste_basket"}},"type":"Feature"},
	{"geometry":{"coordinates":[-123.395037,48.458526],"type":"Point"},"properties":{"osm_id":"6744642146","tag":{"amenity":"waste_basket"}},"type":"Feature"},
	{"geometry":{"coordinates":[-123.332254,48.486762],"type":"Point"},"properties":{"osm_id":"7099985219","tag":{"amenity":"waste_basket","waste":"trash"}},"type":"Feature"},
	{"geometry":{"coordinates":[-123.333482,48.460451],"type":"Point"},"properties":{"osm_id":"7344775056","tag":{"amenity":"waste_basket"}},"type":"Feature"},
	{"geometry":{"coordinates":[-123.364356,48.508969],"type":"Point"},"properties":{"osm_id":"7345030999","tag":{"amenity":"waste_basket"}},"type":"Feature"},
	{"geometry":{"coordinates":[-123.36492,48.508215],"type":"Point"},"properties":{"osm_id":"7345031021","tag":{"amenity":"waste_basket"}},"type":"Feature"},
	{"geometry":{"coordinates":[-123.36577,48.507277],"type":"Point"},"properties":{"osm_id":"7345031043","tag":{"amenity":"waste_basket"}},"type":"Feature"},
	{"geometry":{"coordinates":[-123.393569,48.496905],"type":"Point"},"properties":{"osm_id":"7367914907","tag":{"amenity":"waste_basket"}},"type":"Feature"},
	{"geometry":{"coordinates":[-123.39506,48.46136],"type":"Point"},"properties":{"osm_id":"7368005943","tag":{"amenity":"waste_basket"}},"type":"Feature"},
	{"geometry":{"coordinates":[-123.394957,48.458957],"type":"Point"},"properties":{"osm_id":"7368005975","tag":{"amenity":"waste_basket"}},"type":"Feature"}
]
}
