{
"type": "FeatureCollection",
"features": [
	{"geometry":{"coordinates":[26.694895,60.85663],"type":"Point"},"properties":{"name":"Hy\u00c3\u00b6tyj\u00c3\u00a4tepiste, Tanhuantie","osm_id":"420793147","tag":{"amenity":"recycling","recycling:batteries":"yes","recycling:cans":"yes","recycling:electrical_appliances":"no","recycling:glass":"yes","recycling:glass_bottles":"yes","recycling:green_waste":"no","recycling:magazines":"yes","recycling:newspaper":"yes","recycling:paper":"yes","recycling:paper_packaging":"yes","recycling:scrap_metal":"yes","recycling:small_appliances":"no","recycling:waste":"no","recycling:wood":"no","recycling_type":"container"}},"type":"Feature"},
	{"geometry":{"coordinates":[26.704218,60.866965],"type":"Point"},"properties":{"osm_id":"525461821","tag":{"amenity":"waste_basket"}},"type":"Feature"},
	{"geometry":{"coordinates":[26.710382,60.865059],"type":"Point"},"properties":{"osm_id":"1257950257","tag":{"amenity":"waste_basket"}},"type":"Feature"},
	{"geometry":{"coordinates":[26.704523,60.867007],"type":"Point"},"properties":{"osm_id":"1490378029","tag":{"amenity":"waste_basket"}},"type":"Feature"},
	{"geometry":{"coordinates":[26.703908,60.86758],"type":"Point"},"properties":{"osm_id":"1490378067","tag":{"amenity":"waste_basket"}},"type":"Feature"},
	{"geometry":{"coordinates":[26.712635,60.869373],"type":"Point"},"properties":{"osm_id":"1498175928","tag":{"amenity":"waste_basket"}},"type":"Feature"},
	{"geometry":{"coordinates":[26.684383,60.86787],"type":"Point"},"properties":{"osm_id":"1620266081","tag":{"amenity":"recycling","recycling:batteries":"yes","recycling:books":"no","recycling:cans":"yes","recycling:clothes":"yes","recycling:electrical_appliances":"no","recycling:glass":"yes","recycling:glass_bottles":"yes","recycling:green_waste":"no","recycling:magazines":"yes","recycling:newspaper":"yes","recycling:paper":"yes","recycling:paper_packaging":"yes","recycling:scrap_metal":"yes","recycling:small_appliances":"no","recycling:waste":"no","recycling:wood":"no","recycling_type":"container"}},"type":"Feature"},
	{"geometry":{"coordinates":[26.704923,60.883032],"type":"Point"},"properties":{"osm_id":"1636477032","tag":{"amenity":"waste_basket"}},"type":"Feature"},
	{"geometry":{"coordinates":[26.704807,60.882979],"type":"Point"},"properties":{"name":"Hy\u00c3\u00b6tyj\u00c3\u00a4tepiste, Ravikyl\u00c3\u00a4","osm_id":"1636478099","tag":{"amenity":"recycling","recycling_type":"container"}},"type":"Feature"},
	{"geometry":{"coordinates":[26.694808,60.856635],"type":"Point"},"properties":{"osm_id":"1652720268","tag":{"amenity":"waste_basket"}},"type":"Feature"},
	{"geometry":{"coordinates":[26.707941,60.87253],"type":"Point"},"properties":{"osm_id":"1655573130","tag":{"amenity":"waste_basket"}},"type":"Feature"},
	{"geometry":{"coordinates":[26.70745,60.872266],"type":"Point"},"properties":{"osm_id":"1655573166","tag":{"amenity":"waste_basket"}},"type":"Feature"},
	{"geometry":{"coordinates":[26.707561,60.871983],"type":"Point"},"properties":{"osm_id":"1655573195","tag":{"amenity":"waste_basket"}},"type":"Feature"},
	{"geometry":{"coordinates":[26.709461,60.870609],"type":"Point"},"properties":{"osm_id":"1655855226","tag":{"amenity":"waste_basket"}},"type":"Feature"},
	{"geometry":{"coordinates":[26.71008,60.870477],"type":"Point"},"properties":{"osm_id":"1655855288","tag":{"amenity":"waste_basket"}},"type":"Feature"},
	{"geometry":{"coordinates":[26.705445,60.869615],"type":"Point"},"properties":{"highway":"street_lamp","osm_id":"1655855674","tag":{"amenity":"waste_basket"}},"type":"Feature"},
	{"geometry":{"coordinates":[26.707862,60.869007],"type":"Point"},"properties":{"osm_id":"1655946109","tag":{"amenity":"waste_basket"}},"type":"Feature"},
	{"geometry":{"coordinates":[26.708771,60.867384],"type":"Point"},"properties":{"osm_id":"1655946179","tag":{"amenity":"waste_basket"}},"type":"Feature"},
	{"geometry":{"coordinates":[26.698772,60.867721],"type":"Point"},"properties":{"osm_id":"1660211962","tag":{"amenity":"waste_basket"}},"type":"Feature"},
	{"geometry":{"coordinates":[26.698148,60.868073],"type":"Point"},"properties":{"osm_id":"1660211970","tag":{"amenity":"waste_basket"}},"type":"Feature"},
	{"geometry":{"coordinates":[26.702923,60.866525],"type":"Point"},"properties":{"osm_id":"1660476985","tag":{"amenity":"waste_basket"}},"type":"Feature"},
	{"geometry":{"coordinates":[26.70944,60.868022],"type":"Point"},"properties":{"name":"Hy\u00c3\u00b6tyj\u00c3\u00a4tepiste, Tunnelikatu","osm_id":"1660477053","tag":{"amenity":"recycling","recycling:batteries":"yes","recycling:cans":"yes","recycling:electrical_appliances":"no","recycling:glass":"yes","recycling:glass_bottles":"yes","recycling:green_waste":"no","recycling:magazines":"yes","recycling:newspaper":"yes","recycling:paper":"yes","recycling:scrap_metal":"yes","recycling:small_appliances":"no","recycling:waste":"no","recycling:wood":"no","recycling_type":"container"}},"type":"Feature"},
	{"geometry":{"coordinates":[26.709483,60.868069],"type":"Point"},"properties":{"highway":"street_light","osm_id":"1660477183","tag":{"amenity":"waste_basket"}},"type":"Feature"},
	{"geometry":{"coordinates":[26.702985,60.870791],"type":"Point"},"properties":{"osm_id":"1662140491","tag":{"amenity":"waste_basket"}},"type":"Feature"},
	{"geometry":{"coordinates":[26.701979,60.869995],"type":"Point"},"properties":{"osm_id":"1662140734","tag":{"amenity":"waste_basket"}},"type":"Feature"},
	{"geometry":{"coordinates":[26.658792,60.872893],"type":"Point"},"properties":{"name":"Hy\u00c3\u00b6tyj\u00c3\u00a4tepiste, Prisma","osm_id":"1663944744","tag":{"amenity":"recycling","recycling:cans":"yes","recycling:cardboard":"yes","recycling:cartons":"yes","recycling:clothes":"yes","recycling:electrical_appliances":"no","recycling:glass":"yes","recycling:glass_bottles":"yes","recycling:green_waste":"no","recycling:magazines":"yes","recycling:newspaper":"yes","recycling:paper":"yes","recycling:paper_packaging":"yes","recycling:plastic":"yes","recycling:plastic_bottles":"yes","recycling:scrap_metal":"yes","recycling:small_appliances":"no","recycling:waste":"no","recycling:wood":"no","recycling_type":"container"}},"type":"Feature"},
	{"geometry":{"coordinates":[26.711233,60.859636],"type":"Point"},"properties":{"osm_id":"1714245297","tag":{"amenity":"waste_basket"}},"type":"Feature"},
	{"geometry":{"coordinates":[26.710541,60.859238],"type":"Point"},"properties":{"osm_id":"1714245334","tag":{"amenity":"waste_basket"}},"type":"Feature"},
	{"geometry":{"coordinates":[26.662926,60.886982],"type":"Point"},"properties":{"osm_id":"1719142785","tag":{"amenity":"waste_basket"}},"type":"Feature"},
	{"geometry":{"coordinates":[26.65409,60.886189],"type":"Point"},"properties":{"name":"Hy\u00c3\u00b6tyj\u00c3\u00a4tepiste, M\u00c3\u00a4yr\u00c3\u00a4korpi","osm_id":"1719143114","tag":{"amenity":"recycling","recycling:cans":"yes","recycling:cardboard":"yes","recycling:cartons":"yes","recycling:clothes":"yes","recycling:glass":"yes","recycling:glass_bottles":"yes","recycling:magazines":"yes","recycling:newspaper":"yes","recycling:paper":"yes","recycling:paper_packaging":"yes","recycling_type":"container"}},"type":"Feature"},
	{"geometry":{"coordinates":[26.670039,60.886793],"type":"Point"},"properties":{"osm_id":"1719143421","tag":{"amenity":"waste_basket"}},"type":"Feature"},
	{"geometry":{"coordinates":[26.669384,60.887526],"type":"Point"},"properties":{"osm_id":"1719143696","tag":{"amenity":"waste_basket"}},"type":"Feature"},
	{"geometry":{"coordinates":[26.654037,60.886168],"type":"Point"},"properties":{"osm_id":"1719143956","tag":{"amenity":"waste_basket"}},"type":"Feature"},
	{"geometry":{"coordinates":[26.664645,60.88749],"type":"Point"},"properties":{"osm_id":"1719144145","tag":{"amenity":"waste_basket"}},"type":"Feature"},
	{"geometry":{"coordinates":[26.714869,60.870096],"type":"Point"},"properties":{"name":"Hy\u00c3\u00b6tyj\u00c3\u00a4tepiste, Salpaussel\u00c3\u00a4nkatu","osm_id":"1752312294","tag":{"amenity":"recycling","recycling:cans":"yes","recycling:glass":"yes","recycling:paper":"yes","recycling:plastic":"yes","recycling_type":"container"}},"type":"Feature"},
	{"geometry":{"coordinates":[26.703254,60.874544],"type":"Point"},"properties":{"name":"Hy\u00c3\u00b6tyj\u00c3\u00a4tepiste, Kauppalankatu","osm_id":"1752314306","tag":{"amenity":"recycling","recycling:batteries":"yes","recycling:cans":"yes","recycling:electrical_appliances":"no","recycling:glass":"yes","recycling:glass_bottles":"yes","recycling:green_waste":"no","recycling:magazines":"yes","recycling:newspaper":"yes","recycling:paper":"yes","recycling:paper_packaging":"yes","recycling:scrap_metal":"yes","recycling:small_appliances":"no","recycling_type":"container"}},"type":"Feature"},
	{"geometry":{"coordinates":[26.653541,60.87546],"type":"Point"},"properties":{"osm_id":"1909814914","tag":{"amenity":"recycling","level":"0","recycling:batteries":"yes","recycling:books":"no","recycling:cans":"no","recycling:cardboard":"no","recycling:cartons":"no","recycling:clothes":"no","recycling:electrical_appliances":"no","recycling:glass":"no","recycling:glass_bottles":"yes","recycling:green_waste":"no","recycling:magazines":"no","recycling:newspaper":"no","recycling:paper":"no","recycling:paper_packaging":"no","recycling:plastic":"no","recycling:plastic_bottles":"yes","recycling:plastic_packaging":"no","recycling:scrap_metal":"no","recycling:small_appliances":"no","recycling:waste":"no","recycling:wood":"no","recycling_type":"container"}},"type":"Feature"},
	{"geometry":{"coordinates":[26.707512,60.856096],"type":"Point"},"properties":{"osm_id":"1918510231","tag":{"amenity":"waste_basket"}},"type":"Feature"},
	{"geometry":{"coordinates":[26.707442,60.851915],"type":"Point"},"properties":{"osm_id":"1918510283","tag":{"amenity":"waste_basket"}},"type":"Feature"},
	{"geometry":{"coordinates":[26.707936,60.860698],"type":"Point"},"properties":{"osm_id":"1918510306","tag":{"amenity":"waste_basket"}},"type":"Feature"},
	{"geometry":{"coordinates":[26.714716,60.851722],"type":"Point"},"properties":{"osm_id":"1918510311","tag":{"amenity":"waste_basket"}},"type":"Feature"},
	{"geometry":{"coordinates":[26.714872,60.851725],"type":"Point"},"properties":{"osm_id":"1918510362","tag":{"amenity":"waste_basket"}},"type":"Feature"},
	{"geometry":{"coordinates":[26.708496,60.868339],"type":"Point"},"properties":{"osm_id":"1944056276","tag":{"amenity":"waste_basket"}},"type":"Feature"},
	{"geometry":{"coordinates":[26.707304,60.884246],"type":"Point"},"properties":{"osm_id":"1944056474","tag":{"amenity":"waste_basket"}},"type":"Feature"},
	{"geometry":{"coordinates":[26.708281,60.868803],"type":"Point"},"properties":{"osm_id":"1944056479","tag":{"amenity":"waste_basket"}},"type":"Feature"},
	{"geometry":{"coordinates":[26.690346,60.866549],"type":"Point"},"properties":{"osm_id":"1954815200","tag":{"amenity":"waste_basket"}},"type":"Feature"},
	{"geometry":{"coordinates":[26.690552,60.866555],"type":"Point"},"properties":{"osm_id":"1954815243","tag":{"amenity":"waste_basket"}},"type":"Feature"},
	{"geometry":{"coordinates":[26.689675,60.866849],"type":"Point"},"properties":{"osm_id":"1954815244","tag":{"amenity":"waste_basket"}},"type":"Feature"},
	{"geometry":{"coordinates":[26.688439,60.867478],"type":"Point"},"properties":{"osm_id":"1954815333","tag":{"amenity":"waste_basket"}},"type":"Feature"},
	{"geometry":{"coordinates":[26.708222,60.869474],"type":"Point"},"properties":{"osm_id":"1982603491","tag":{"amenity":"waste_basket"}},"type":"Feature"},
	{"geometry":{"coordinates":[26.708533,60.86949],"type":"Point"},"properties":{"osm_id":"1982603557","tag":{"amenity":"waste_basket"}},"type":"Feature"},
	{"geometry":{"coordinates":[26.710529,60.870135],"type":"Point"},"properties":{"osm_id":"1982603593","tag":{"amenity":"waste_basket"}},"type":"Feature"},
	{"geometry":{"coordinates":[26.708346,60.869394],"type":"Point"},"properties":{"osm_id":"1982603620","tag":{"amenity":"waste_basket"}},"type":"Feature"},
	{"geometry":{"coordinates":[26.710137,60.869394],"type":"Point"},"properties":{"osm_id":"1982603695","tag":{"amenity":"waste_basket"}},"type":"Feature"},
	{"geometry":{"coordinates":[26.697222,60.870199],"type":"Point"},"properties":{"osm_id":"1982727349","tag":{"amenity":"waste_basket"}},"type":"Feature"},
	{"geometry":{"coordinates":[26.70021,60.871406],"type":"Point"},"properties":{"osm_id":"1982727375","tag":{"amenity":"waste_basket"}},"type":"Feature"},
	{"geometry":{"coordinates":[26.697589,60.869963],"type":"Point"},"properties":{"osm_id":"1982727599","tag":{"amenity":"waste_basket"}},"type":"Feature"},
	{"geometry":{"coordinates":[26.714565,60.873818],"type":"Point"},"properties":{"osm_id":"1982770568","tag":{"amenity":"waste_basket"}},"type":"Feature"},
	{"geometry":{"coordinates":[26.696199,60.868071],"type":"Point"},"properties":{"osm_id":"1988228964","tag":{"amenity":"waste_basket"}},"type":"Feature"},
	{"geometry":{"coordinates":[26.696961,60.86853],"type":"Point"},"properties":{"osm_id":"1988228966","tag":{"amenity":"waste_basket"}},"type":"Feature"},
	{"geometry":{"coordinates":[26.697044,60.868229],"type":"Point"},"properties":{"highway":"street_lamp","osm_id":"1988228970","tag":{"amenity":"waste_basket"}},"type":"Feature"},
	{"geometry":{"coordinates":[26.696414,60.868246],"type":"Point"},"properties":{"osm_id":"1988229032","tag":{"amenity":"waste_basket"}},"type":"Feature"},
	{"geometry":{"coordinates":[26.70389,60.865922],"type":"Point"},"properties":{"osm_id":"2049557803","tag":{"amenity":"waste_basket"}},"type":"Feature"},
	{"geometry":{"coordinates":[26.705588,60.865349],"type":"Point"},"properties":{"osm_id":"2049557805","tag":{"amenity":"waste_basket"}},"type":"Feature"},
	{"geometry":{"coordinates":[26.705986,60.866034],"type":"Point"},"properties":{"osm_id":"2049557807","tag":{"amenity":"waste_basket"}},"type":"Feature"},
	{"geometry":{"coordinates":[26.704424,60.865288],"type":"Point"},"properties":{"osm_id":"2049557809","tag":{"amenity":"waste_basket"}},"type":"Feature"},
	{"geometry":{"coordinates":[26.70396,60.865713],"type":"Point"},"properties":{"osm_id":"2049557811","tag":{"amenity":"waste_basket"}},"type":"Feature"},
	{"geometry":{"coordinates":[26.705615,60.866016],"type":"Point"},"properties":{"osm_id":"2049557815","tag":{"amenity":"waste_basket"}},"type":"Feature"},
	{"geometry":{"coordinates":[26.704,60.865481],"type":"Point"},"properties":{"osm_id":"2049557817","tag":{"amenity":"waste_basket"}},"type":"Feature"},
	{"geometry":{"coordinates":[26.657154,60.877624],"type":"Point"},"properties":{"osm_id":"2061162880","tag":{"amenity":"waste_basket"}},"type":"Feature"},
	{"geometry":{"coordinates":[26.657746,60.877688],"type":"Point"},"properties":{"osm_id":"2061162887","tag":{"amenity":"waste_basket"}},"type":"Feature"},
	{"geometry":{"coordinates":[26.709008,60.851179],"type":"Point"},"properties":{"name":"Hy\u00c3\u00b6tyj\u00c3\u00a4tepiste, Eskolanm\u00c3\u00a4ki","osm_id":"2151753340","tag":{"amenity":"recycling","recycling_type":"container"}},"type":"Feature"},
	{"geometry":{"coordinates":[26.68051,60.857711],"type":"Point"},"properties":{"osm_id":"2151771663","tag":{"amenity":"waste_basket"}},"type":"Feature"},
	{"geometry":{"coordinates":[26.701536,60.868816],"type":"Point"},"properties":{"osm_id":"2160857493","tag":{"amenity":"waste_basket","level":"0"}},"type":"Feature"},
	{"geometry":{"coordinates":[26.702259,60.869245],"type":"Point"},"properties":{"osm_id":"2160857530","tag":{"amenity":"waste_basket","level":"0"}},"type":"Feature"},
	{"geometry":{"coordinates":[26.701422,60.868709],"type":"Point"},"properties":{"osm_id":"2162470564","tag":{"amenity":"waste_basket"}},"type":"Feature"},
	{"geometry":{"coordinates":[26.701735,60.868877],"type":"Point"},"properties":{"osm_id":"2162470574","tag":{"amenity":"waste_basket","level":"0"}},"type":"Feature"},
	{"geometry":{"coordinates":[26.697768,60.867867],"type":"Point"},"properties":{"osm_id":"2163537405","tag":{"amenity":"waste_basket"}},"type":"Feature"},
	{"geometry":{"coordinates":[26.700306,60.868302],"type":"Point"},"properties":{"highway":"street_lamp","osm_id":"2163537406","tag":{"amenity":"waste_basket"}},"type":"Feature"},
	{"geometry":{"coordinates":[26.700094,60.868396],"type":"Point"},"properties":{"highway":"street_lamp","osm_id":"2163537408","tag":{"amenity":"waste_basket"}},"type":"Feature"},
	{"geometry":{"coordinates":[26.69988,60.868488],"type":"Point"},"properties":{"highway":"street_lamp","osm_id":"2163537410","tag":{"amenity":"waste_basket"}},"type":"Feature"},
	{"geometry":{"coordinates":[26.700904,60.868754],"type":"Point"},"properties":{"osm_id":"2163537412","tag":{"amenity":"waste_basket"}},"type":"Feature"},
	{"geometry":{"coordinates":[26.711543,60.86869],"type":"Point"},"properties":{"osm_id":"2165305948","tag":{"amenity":"waste_basket"}},"type":"Feature"},
	{"geometry":{"coordinates":[26.710476,60.870334],"type":"Point"},"properties":{"osm_id":"2165305949","tag":{"amenity":"waste_basket"}},"type":"Feature"},
	{"geometry":{"coordinates":[26.709941,60.870272],"type":"Point"},"properties":{"osm_id":"2165305965","tag":{"amenity":"waste_basket"}},"type":"Feature"},
	{"geometry":{"coordinates":[26.710528,60.870192],"type":"Point"},"properties":{"osm_id":"2165305977","tag":{"amenity":"waste_basket"}},"type":"Feature"},
	{"geometry":{"coordinates":[26.710084,60.870377],"type":"Point"},"properties":{"osm_id":"2165306008","tag":{"amenity":"waste_basket"}},"type":"Feature"},
	{"geometry":{"coordinates":[26.7139,60.869047],"type":"Point"},"properties":{"osm_id":"2166554143","tag":{"amenity":"waste_basket"}},"type":"Feature"},
	{"geometry":{"coordinates":[26.684385,60.867844],"type":"Point"},"properties":{"osm_id":"2166698143","tag":{"amenity":"waste_basket"}},"type":"Feature"},
	{"geometry":{"coordinates":[26.673421,60.867878],"type":"Point"},"properties":{"osm_id":"2166856524","tag":{"amenity":"waste_basket"}},"type":"Feature"},
	{"geometry":{"coordinates":[26.708528,60.873047],"type":"Point"},"properties":{"osm_id":"2173125763","tag":{"amenity":"waste_basket"}},"type":"Feature"},
	{"geometry":{"coordinates":[26.700892,60.868614],"type":"Point"},"properties":{"highway":"street_lamp","osm_id":"2173300865","tag":{"amenity":"waste_basket"}},"type":"Feature"},
	{"geometry":{"coordinates":[26.700463,60.868807],"type":"Point"},"properties":{"highway":"street_lamp","osm_id":"2173300867","tag":{"amenity":"waste_basket"}},"type":"Feature"},
	{"geometry":{"coordinates":[26.709488,60.86064],"type":"Point"},"properties":{"osm_id":"2174786559","tag":{"amenity":"waste_basket"}},"type":"Feature"},
	{"geometry":{"coordinates":[26.688972,60.865601],"type":"Point"},"properties":{"osm_id":"2315707605","tag":{"amenity":"waste_basket"}},"type":"Feature"},
	{"geometry":{"coordinates":[26.689356,60.865647],"type":"Point"},"properties":{"osm_id":"2315707748","tag":{"amenity":"waste_basket"}},"type":"Feature"},
	{"geometry":{"coordinates":[26.701909,60.861205],"type":"Point"},"properties":{"highway":"street_light","osm_id":"2324242492","tag":{"amenity":"waste_basket"}},"type":"Feature"},
	{"geometry":{"coordinates":[26.687575,60.867975],"type":"Point"},"properties":{"osm_id":"2325130702","tag":{"amenity":"waste_basket"}},"type":"Feature"},
	{"geometry":{"coordinates":[26.688458,60.86722],"type":"Point"},"properties":{"osm_id":"2325130716","tag":{"amenity":"waste_basket"}},"type":"Feature"},
	{"geometry":{"coordinates":[26.706941,60.869258],"type":"Point"},"properties":{"osm_id":"2867985722","tag":{"amenity":"waste_basket"}},"type":"Feature"},
	{"geometry":{"coordinates":[26.705944,60.8694],"type":"Point"},"properties":{"highway":"street_lamp","osm_id":"2867985723","tag":{"amenity":"waste_basket","lamp_type":"electric"}},"type":"Feature"},
	{"geometry":{"coordinates":[26.715287,60.869257],"type":"Point"},"properties":{"osm_id":"2896633985","tag":{"amenity":"waste_basket"}},"type":"Feature"},
	{"geometry":{"coordinates":[26.706628,60.869271],"type":"Point"},"properties":{"osm_id":"2974294538","tag":{"amenity":"waste_basket"}},"type":"Feature"},
	{"geometry":{"coordinates":[26.700672,60.868715],"type":"Point"},"properties":{"highway":"street_lamp","osm_id":"3002531528","tag":{"amenity":"waste_basket"}},"type":"Feature"},
	{"geometry":{"coordinates":[26.704586,60.865754],"type":"Point"},"properties":{"osm_id":"3223027361","tag":{"amenity":"waste_basket"}},"type":"Feature"},
	{"geometry":{"coordinates":[26.703227,60.874547],"type":"Point"},"properties":{"osm_id":"3481099803","tag":{"amenity":"waste_basket"}},"type":"Feature"},
	{"geometry":{"coordinates":[26.695087,60.86874],"type":"Point"},"properties":{"osm_id":"3512801202","tag":{"amenity":"waste_basket"}},"type":"Feature"},
	{"geometry":{"coordinates":[26.69639,60.869455],"type":"Point"},"properties":{"osm_id":"3517075665","tag":{"amenity":"waste_basket"}},"type":"Feature"},
	{"geometry":{"coordinates":[26.696916,60.868955],"type":"Point"},"properties":{"osm_id":"3517075666","tag":{"amenity":"waste_basket"}},"type":"Feature"},
	{"geometry":{"coordinates":[26.697702,60.868673],"type":"Point"},"properties":{"osm_id":"3517075667","tag":{"amenity":"waste_basket"}},"type":"Feature"},
	{"geometry":{"coordinates":[26.709783,60.866943],"type":"Point"},"properties":{"osm_id":"3517393032","tag":{"amenity":"waste_basket"}},"type":"Feature"},
	{"geometry":{"coordinates":[26.714855,60.87372],"type":"Point"},"properties":{"highway":"street_lamp","osm_id":"3517497886","tag":{"amenity":"waste_basket","lamp_type":"electric"}},"type":"Feature"},
	{"geometry":{"coordinates":[26.714897,60.873431],"type":"Point"},"properties":{"highway":"street_lamp","osm_id":"3517497887","tag":{"amenity":"waste_basket","lamp_type":"electric"}},"type":"Feature"},
	{"geometry":{"coordinates":[26.703646,60.870362],"type":"Point"},"properties":{"osm_id":"3548390509","tag":{"amenity":"waste_basket"}},"type":"Feature"},
	{"geometry":{"coordinates":[26.697471,60.869898],"type":"Point"},"properties":{"osm_id":"3549616281","tag":{"amenity":"waste_basket"}},"type":"Feature"},
	{"geometry":{"coordinates":[26.698277,60.870341],"type":"Point"},"properties":{"osm_id":"3549617835","tag":{"amenity":"waste_basket"}},"type":"Feature"},
	{"geometry":{"coordinates":[26.69834,60.870314],"type":"Point"},"properties":{"osm_id":"3549617838","tag":{"amenity":"waste_basket"}},"type":"Feature"},
	{"geometry":{"coordinates":[26.698817,60.870535],"type":"Point"},"properties":{"osm_id":"3549617851","tag":{"amenity":"waste_basket"}},"type":"Feature"},
	{"geometry":{"coordinates":[26.698993,60.870657],"type":"Point"},"properties":{"osm_id":"3549617856","tag":{"amenity":"waste_basket"}},"type":"Feature"},
	{"geometry":{"coordinates":[26.702306,60.870209],"type":"Point"},"properties":{"osm_id":"3550682399","tag":{"amenity":"waste_basket"}},"type":"Feature"},
	{"geometry":{"coordinates":[26.702084,60.870199],"type":"Point"},"properties":{"osm_id":"3550682400","tag":{"amenity":"waste_basket"}},"type":"Feature"},
	{"geometry":{"coordinates":[26.703251,60.870445],"type":"Point"},"properties":{"osm_id":"3550682404","tag":{"amenity":"waste_basket"}},"type":"Feature"},
	{"geometry":{"coordinates":[26.705969,60.869658],"type":"Point"},"properties":{"highway":"street_lamp","osm_id":"3550735410","tag":{"amenity":"waste_basket","lamp_type":"electric"}},"type":"Feature"},
	{"geometry":{"coordinates":[26.707674,60.869776],"type":"Point"},"properties":{"highway":"street_lamp","osm_id":"3550735413","tag":{"amenity":"waste_basket","lamp_type":"electric"}},"type":"Feature"},
	{"geometry":{"coordinates":[26.707525,60.869633],"type":"Point"},"properties":{"highway":"street_lamp","osm_id":"3550735417","tag":{"amenity":"waste_basket","lamp_type":"electric"}},"type":"Feature"},
	{"geometry":{"coordinates":[26.704104,60.866505],"type":"Point"},"properties":{"osm_id":"4065024771","tag":{"amenity":"waste_basket"}},"type":"Feature"},
	{"geometry":{"coordinates":[26.704083,60.866728],"type":"Point"},"properties":{"osm_id":"4065024772","tag":{"amenity":"waste_basket"}},"type":"Feature"},
	{"geometry":{"coordinates":[26.704659,60.866285],"type":"Point"},"properties":{"osm_id":"4065024773","tag":{"amenity":"waste_basket"}},"type":"Feature"},
	{"geometry":{"coordinates":[26.703865,60.867776],"type":"Point"},"properties":{"osm_id":"4065024774","tag":{"amenity":"waste_basket"}},"type":"Feature"},
	{"geometry":{"coordinates":[26.702913,60.86669],"type":"Point"},"properties":{"osm_id":"4065024776","tag":{"amenity":"waste_basket"}},"type":"Feature"},
	{"geometry":{"coordinates":[26.649639,60.876645],"type":"Point"},"properties":{"osm_id":"4413659874","tag":{"amenity":"waste_basket"}},"type":"Feature"},
	{"geometry":{"coordinates":[26.65011,60.876701],"type":"Point"},"properties":{"osm_id":"4413659875","tag":{"amenity":"waste_basket"}},"type":"Feature"},
	{"geometry":{"coordinates":[26.653228,60.876892],"type":"Point"},"properties":{"osm_id":"4413659876","tag":{"amenity":"waste_basket"}},"type":"Feature"},
	{"geometry":{"coordinates":[26.706139,60.868897],"type":"Point"},"properties":{"osm_id":"4633373252","tag":{"amenity":"waste_basket"}},"type":"Feature"},
	{"geometry":{"coordinates":[26.712474,60.873094],"type":"Point"},"properties":{"osm_id":"5777666697","tag":{"amenity":"waste_basket"}},"type":"Feature"},
	{"geometry":{"coordinates":[26.712654,60.873024],"type":"Point"},"properties":{"osm_id":"5777666698","tag":{"amenity":"waste_basket"}},"type":"Feature"},
	{"geometry":{"coordinates":[26.641387,60.851449],"type":"Point"},"properties":{"osm_id":"6898572841","tag":{"amenity":"waste_basket","waste":"trash"}},"type":"Feature"},
	{"geometry":{"coordinates":[26.709129,60.86989],"type":"Point"},"properties":{"osm_id":"7566332976","tag":{"amenity":"waste_basket"}},"type":"Feature"}
]
}
