{
"type": "FeatureCollection",
"features": [
	{"geometry":{"coordinates":[98.342053,7.819306],"type":"Point"},"properties":{"osm_id":"571499907","tag":{"amenity":"recycling"}},"type":"Feature"},
	{"geometry":{"coordinates":[98.294904,7.823693],"type":"Point"},"properties":{"osm_id":"3907807709","tag":{"amenity":"waste_basket"}},"type":"Feature"},
	{"geometry":{"coordinates":[98.336454,7.832058],"type":"Point"},"properties":{"osm_id":"4595803189","tag":{"amenity":"waste_basket"}},"type":"Feature"},
	{"geometry":{"coordinates":[98.338535,7.846515],"type":"Point"},"properties":{"osm_id":"6637238897","tag":{"amenity":"recycling"}},"type":"Feature"},
	{"geometry":{"coordinates":[98.339359,7.816681],"type":"Point"},"properties":{"osm_id":"8096115117","tag":{"amenity":"recycling","name:en":"WhaleTailPhuket","name:ru":"\u00d0\u0090\u00d1\u0080\u00d1\u0082-\u00d1\u0081\u00d1\u0082\u00d1\u0083\u00d0\u00b4\u00d0\u00b8\u00d1\u008f \u00d0\u00bf\u00d0\u00be \u00d0\u00bf\u00d0\u00b5\u00d1\u0080\u00d0\u00b5\u00d1\u0080\u00d0\u00b0\u00d0\u00b1\u00d0\u00be\u00d1\u0082\u00d0\u00ba\u00d0\u00b5 \u00d0\u00bf\u00d0\u00bb\u00d0\u00b0\u00d1\u0081\u00d1\u0082\u00d0\u00b8\u00d0\u00ba\u00d0\u00b0","phone":"+66980585291","website":"https://instagram.com/whale_tail_phuket"}},"type":"Feature"},
	{"geometry":{"coordinates":[98.344481,7.860964],"type":"Point"},"properties":{"osm_id":"8265760917","tag":{"amenity":"recycling","name:en":"waste sorting point","name:ru":"\u00d0\u00bf\u00d1\u0080\u00d0\u00b8\u00d1\u0091\u00d0\u00bc \u00d0\u00b2\u00d1\u0082\u00d0\u00be\u00d1\u0080\u00d1\u0081\u00d1\u008b\u00d1\u0080\u00d1\u008c\u00d1\u008f"}},"type":"Feature"}
]
}
