{
"type": "FeatureCollection",
"lastupdate": "2020-08-01T00:00:00Z",
"features": [
	{"geometry":{"coordinates":[126.74069,35.983601],"type":"Point"},"properties":{"name":"\u00ec\u009d\u00bc\u00eb\u00b2\u0088\u00ec\u00a7\u0080 \u00ec\u009e\u0090\u00ec\u009b\u0090 (1Street Recycling)","osm_id":"2120468712","tag":{"amenity":"recycling","name:ko":"\uc77c\ubc88\uc9c0 \uc790\uc6d0 (1Street Recycling)","recycling:cans":"yes","recycling:glass":"yes","recycling_type":"centre"}},"type":"Feature"},
	{"geometry":{"coordinates":[126.745254,35.985565],"type":"Point"},"properties":{"name":"\u00ec\u0082\u00bc\u00ed\u0098\u00b8\u00ec\u009e\u0090\u00ec\u009b\u0090","osm_id":"2121156153","tag":{"amenity":"recycling","name:ko":"\uc0bc\ud638\uc790\uc6d0","recycling_type":"centre"}},"type":"Feature"},
	{"geometry":{"coordinates":[126.741405,35.982696],"type":"Point"},"properties":{"name":"\u00eb\u00a7\u008c\u00eb\u00ac\u00bc \u00ea\u00b3\u00a0\u00eb\u00ac\u00bc\u00ec\u0083\u0081","osm_id":"2121175373","tag":{"amenity":"recycling","name:ko":"\ub9cc\ubb3c \uace0\ubb3c\uc0c1","recycling_type":"centre"}},"type":"Feature"},
	{"geometry":{"coordinates":[126.740209,35.983989],"type":"Point"},"properties":{"name":"\u00ec\u00a4\u0091\u00ec\u0095\u0099 \u00ed\u008f\u0090\u00ec\u00b0\u00a8\u00ec\u009e\u00a5","osm_id":"2122093927","tag":{"amenity":"recycling","name:ko":"\uc911\uc559 \ud3d0\ucc28\uc7a5","recycling_type":"centre"}},"type":"Feature"}
]
}
