{
"type": "FeatureCollection",
"features": [
	{"geometry":{"coordinates":[-72.744553,41.812785],"type":"Point"},"properties":{"osm_id":"1649539288","tag":{"amenity":"waste_basket"}},"type":"Feature"},
	{"geometry":{"coordinates":[-72.729617,41.784562],"type":"Point"},"properties":{"osm_id":"4455302276","tag":{"addr:city":"West Hartford","addr:housenumber":"1678","addr:postcode":"06117","addr:state":"CT","addr:street":"Asylum Avenue","amenity":"waste_disposal"}},"type":"Feature"},
	{"geometry":{"coordinates":[-72.744534,41.787946],"type":"Point"},"properties":{"osm_id":"6910855558","tag":{"amenity":"waste_disposal"}},"type":"Feature"},
	{"geometry":{"coordinates":[-72.704311,41.785874],"type":"Point"},"properties":{"osm_id":"8365476857","tag":{"amenity":"waste_disposal"}},"type":"Feature"},
	{"geometry":{"coordinates":[-72.704305,41.785849],"type":"Point"},"properties":{"osm_id":"8365476858","tag":{"amenity":"waste_disposal"}},"type":"Feature"},
	{"geometry":{"coordinates":[-72.701477,41.783964],"type":"Point"},"properties":{"osm_id":"8493047080","tag":{"amenity":"recycling","recycling:clothes":"yes","recycling:shoes":"yes","recycling_type":"container"}},"type":"Feature"},
	{"geometry":{"coordinates":[-72.701453,41.783963],"type":"Point"},"properties":{"osm_id":"8493047081","tag":{"amenity":"recycling","recycling:clothes":"yes","recycling:shoes":"yes","recycling_type":"container"}},"type":"Feature"}
]
}
