{
"type": "FeatureCollection",
"features": [
	{"geometry":{"coordinates":[-72.714791,40.920985],"type":"Point"},"properties":{"osm_id":"2632688953","tag":{"amenity":"waste_disposal"}},"type":"Feature"},
	{"geometry":{"coordinates":[-72.717344,40.92211],"type":"Point"},"properties":{"osm_id":"2632688955","tag":{"amenity":"waste_disposal"}},"type":"Feature"},
	{"geometry":{"coordinates":[-72.719619,40.919542],"type":"Point"},"properties":{"osm_id":"2632688956","tag":{"amenity":"waste_disposal"}},"type":"Feature"},
	{"geometry":{"coordinates":[-72.716751,40.919118],"type":"Point"},"properties":{"osm_id":"2632688957","tag":{"amenity":"waste_disposal"}},"type":"Feature"},
	{"geometry":{"coordinates":[-72.719549,40.918885],"type":"Point"},"properties":{"osm_id":"2632688958","tag":{"amenity":"waste_disposal"}},"type":"Feature"},
	{"geometry":{"coordinates":[-72.718028,40.918816],"type":"Point"},"properties":{"osm_id":"2632688959","tag":{"amenity":"waste_disposal"}},"type":"Feature"},
	{"geometry":{"coordinates":[-72.715603,40.919591],"type":"Point"},"properties":{"osm_id":"2632688960","tag":{"amenity":"waste_disposal"}},"type":"Feature"},
	{"geometry":{"coordinates":[-72.718771,40.920955],"type":"Point"},"properties":{"osm_id":"2632688962","tag":{"amenity":"waste_disposal"}},"type":"Feature"},
	{"geometry":{"coordinates":[-72.71361,40.920667],"type":"Point"},"properties":{"osm_id":"2632714397","tag":{"amenity":"waste_disposal"}},"type":"Feature"},
	{"geometry":{"coordinates":[-72.713503,40.922466],"type":"Point"},"properties":{"osm_id":"2637598837","tag":{"access":"private","amenity":"waste_disposal"}},"type":"Feature"},
	{"geometry":{"coordinates":[-72.700756,40.925519],"type":"Point"},"properties":{"osm_id":"4586048361","tag":{"access":"private","amenity":"waste_disposal"}},"type":"Feature"}
]
}
