{
"type": "FeatureCollection",
"features": [
	{"geometry":{"coordinates":[-72.695203,19.443051],"type":"Point"},"properties":{"osm_id":"1000018921","tag":{"amenity":"waste_basket","operational_status":"open","operational_status_quality":"confirmed","operator_type":"private_non_profit"}},"type":"Feature"},
	{"geometry":{"coordinates":[-72.687522,19.453374],"type":"Point"},"properties":{"osm_id":"1155235880","tag":{"addr:city":"1er ruelle roland","amenity":"waste_basket","operational_status":"open","operational_status_quality":"confirmed","operator_id":"mairie des gonaives","operator_type":"government_facility-public","service_quality":"good"}},"type":"Feature"},
	{"geometry":{"coordinates":[-72.687039,19.455514],"type":"Point"},"properties":{"osm_id":"1155235911","tag":{"addr:city":"1er ruelle dupiton","amenity":"waste_basket","operational_status":"open","operational_status_quality":"confirmed","operator_id":"mairie des gonaives","operator_type":"government_facility-public","service_quality":"good"}},"type":"Feature"},
	{"geometry":{"coordinates":[-72.687416,19.455874],"type":"Point"},"properties":{"osm_id":"1155236970","tag":{"addr:city":"3em ruelle dupiton","amenity":"waste_basket","operational_status":"open","operational_status_quality":"confirmed","operator_type":"government_facility-public","service_quality":"good"}},"type":"Feature"},
	{"geometry":{"coordinates":[-72.68888,19.455616],"type":"Point"},"properties":{"osm_id":"1155237085","tag":{"addr:city":"2em ruelle dupiton","amenity":"waste_basket","operational_status":"open","operational_status_quality":"confirmed","operator_id":"mairie des gonaives","operator_type":"government_facility-public","service_quality":"good"}},"type":"Feature"},
	{"geometry":{"coordinates":[-72.689527,19.454183],"type":"Point"},"properties":{"osm_id":"1155237641","tag":{"addr:city":"rue christophe k-soley","amenity":"waste_basket","operational_status":"open","operational_status_quality":"confirmed","operator_id":"mairie des gonaives","operator_type":"government_facility-public","service_quality":"good"}},"type":"Feature"},
	{"geometry":{"coordinates":[-72.690726,19.442993],"type":"Point"},"properties":{"osm_id":"1159778184","tag":{"amenity":"waste_basket","operational_status":"open","operational_status_quality":"confirmed","operator_type":"government_facility-public","service_quality":"bad"}},"type":"Feature"},
	{"geometry":{"coordinates":[-72.69508,19.442781],"type":"Point"},"properties":{"osm_id":"1159778763","tag":{"addr:city":"gonaives","addr:street":"angle rue egalite et petion","amenity":"waste_basket","operational_status":"open","operational_status_quality":"confirmed","operator_type":"government_facility-public","service_quality":"bad"}},"type":"Feature"},
	{"geometry":{"coordinates":[-72.693985,19.442695],"type":"Point"},"properties":{"osm_id":"1159778946","tag":{"amenity":"waste_basket","operational_status":"open","operational_status_quality":"confirmed","operator_type":"government_facility-public","service_quality":"bad"}},"type":"Feature"},
	{"geometry":{"coordinates":[-72.69275,19.442639],"type":"Point"},"properties":{"osm_id":"1159779087","tag":{"addr:street":"rue jacques desmangles","amenity":"waste_basket","operational_status":"open","operational_status_quality":"confirmed","operator_type":"government_facility-public","service_quality":"bad"}},"type":"Feature"},
	{"geometry":{"coordinates":[-72.691892,19.442606],"type":"Point"},"properties":{"osm_id":"1159779832","tag":{"addr:full":"gonaives,rue jacques desmangles","amenity":"waste_basket","operational_status":"open","operational_status_quality":"confirmed","operator_type":"government_facility-public","service_quality":"bad"}},"type":"Feature"},
	{"geometry":{"coordinates":[-72.691032,19.442414],"type":"Point"},"properties":{"osm_id":"1159780105","tag":{"addr:full":"gonaives,rue christophe","amenity":"waste_basket","operational_status":"open","operational_status_quality":"confirmed","operator_type":"government_facility-public"}},"type":"Feature"},
	{"geometry":{"coordinates":[-72.691125,19.439979],"type":"Point"},"properties":{"osm_id":"1159780708","tag":{"amenity":"waste_basket","operational_status":"open","operational_status_quality":"confirmed","operator_type":"government_facility-public","service_quality":"bad"}},"type":"Feature"},
	{"geometry":{"coordinates":[-72.693584,19.461537],"type":"Point"},"properties":{"osm_id":"1159832306","tag":{"amenity":"waste_basket","operational_status":"open","operational_status_quality":"confirmed","operator_type":"government_facility-public","service_quality":"bad"}},"type":"Feature"},
	{"geometry":{"coordinates":[-72.68838,19.440208],"type":"Point"},"properties":{"osm_id":"1179850761","tag":{"amenity":"waste_basket","operational_status":"open","operational_status_quality":"confirmed","operator_type":"government_facility-public","service_quality":"medium"}},"type":"Feature"},
	{"geometry":{"coordinates":[-72.69222,19.440692],"type":"Point"},"properties":{"osm_id":"1183559373","tag":{"amenity":"waste_basket","operational_status":"open","operational_status_quality":"confirmed","operator":"mairie","operator_type":"government_facility-public","service_quality":"medium"}},"type":"Feature"},
	{"geometry":{"coordinates":[-72.691879,19.442471],"type":"Point"},"properties":{"osm_id":"1183576135","tag":{"amenity":"waste_basket","operational_status":"open","operational_status_quality":"confirmed","operator":"mairie","operator_type":"government_facility-public","service_quality":"medium"}},"type":"Feature"}
]
}
