{
"type": "FeatureCollection",
"features": [
	{"geometry":{"coordinates":[55.403148,25.343467],"type":"Point"},"properties":{"osm_id":"4926882988","tag":{"addr:street":"Mubasher Bin Abdulmunther Street","amenity":"recycling","recycling_type":"container"}},"type":"Feature"},
	{"geometry":{"coordinates":[55.401692,25.341279],"type":"Point"},"properties":{"osm_id":"4926882993","tag":{"addr:street":"Khalifah Bin Oday Street","amenity":"recycling","recycling_type":"container"}},"type":"Feature"},
	{"geometry":{"coordinates":[55.40222,25.340994],"type":"Point"},"properties":{"osm_id":"4926882994","tag":{"addr:street":"Khalifah Bin Oday Street","amenity":"recycling","recycling_type":"container"}},"type":"Feature"},
	{"geometry":{"coordinates":[55.403422,25.342488],"type":"Point"},"properties":{"osm_id":"4926959346","tag":{"addr:street":"Amr Bin Muath Street","amenity":"recycling","recycling_type":"container"}},"type":"Feature"},
	{"geometry":{"coordinates":[55.400051,25.343079],"type":"Point"},"properties":{"osm_id":"4927375311","tag":{"addr:street":"Tameem Bin Ya'ar Street","amenity":"recycling","recycling_type":"container"}},"type":"Feature"},
	{"geometry":{"coordinates":[55.400656,25.342739],"type":"Point"},"properties":{"osm_id":"4927375312","tag":{"addr:street":"Tameem Bin Ya'ar Street","amenity":"recycling","recycling_type":"container"}},"type":"Feature"},
	{"geometry":{"coordinates":[55.396931,25.337468],"type":"Point"},"properties":{"osm_id":"4929601543","tag":{"addr:street":"Aws Bin Thabet Street","amenity":"recycling","recycling_type":"container"}},"type":"Feature"},
	{"geometry":{"coordinates":[55.395448,25.337309],"type":"Point"},"properties":{"osm_id":"4929601574","tag":{"addr:street":"Suraqah Bin Ka'eb Street","amenity":"recycling","recycling_type":"container"}},"type":"Feature"},
	{"geometry":{"coordinates":[55.394627,25.337779],"type":"Point"},"properties":{"osm_id":"4931214755","tag":{"addr:street":"Othman Bin Madhoon Street","amenity":"recycling","recycling_type":"container"}},"type":"Feature"},
	{"geometry":{"coordinates":[55.397786,25.332488],"type":"Point"},"properties":{"osm_id":"4931575515","tag":{"addr:street":"Al Wahda Street","amenity":"recycling","recycling_type":"container"}},"type":"Feature"},
	{"geometry":{"coordinates":[55.3941,25.336887],"type":"Point"},"properties":{"osm_id":"4931575748","tag":{"addr:street":"Othman Bin Madhoon Street","amenity":"recycling","recycling_type":"container"}},"type":"Feature"},
	{"geometry":{"coordinates":[55.393346,25.334558],"type":"Point"},"properties":{"osm_id":"4931602121","tag":{"addr:street":"Iben Dhubai'ah Street","amenity":"recycling","recycling_type":"container"}},"type":"Feature"},
	{"geometry":{"coordinates":[55.397274,25.338048],"type":"Point"},"properties":{"osm_id":"4932480449","tag":{"addr:street":"Talaha Bin Obaid Allah Street","amenity":"recycling","recycling_type":"container"}},"type":"Feature"},
	{"geometry":{"coordinates":[55.398509,25.339219],"type":"Point"},"properties":{"osm_id":"4932480475","tag":{"addr:street":"Zayd Bin Aslam Street","amenity":"recycling","recycling:clothes":"yes","recycling_type":"container"}},"type":"Feature"},
	{"geometry":{"coordinates":[55.394397,25.335135],"type":"Point"},"properties":{"osm_id":"4932510389","tag":{"addr:street":"Iben Dhubai'ah Street","amenity":"recycling","recycling_type":"container"}},"type":"Feature"},
	{"geometry":{"coordinates":[55.392628,25.336071],"type":"Point"},"properties":{"osm_id":"4932595626","tag":{"addr:street":"Othman Bin Madhoon Street","amenity":"recycling","recycling_type":"container"}},"type":"Feature"},
	{"geometry":{"coordinates":[55.394427,25.333477],"type":"Point"},"properties":{"osm_id":"4932595628","tag":{"addr:street":"Sa'ad Bin Zayd Street","amenity":"recycling","recycling_type":"container"}},"type":"Feature"},
	{"geometry":{"coordinates":[55.39874,25.338375],"type":"Point"},"properties":{"osm_id":"4937036491","tag":{"addr:street":"Harethah Bin Al Nua'man Street","amenity":"recycling","recycling_type":"container"}},"type":"Feature"},
	{"geometry":{"coordinates":[55.391555,25.340609],"type":"Point"},"properties":{"osm_id":"4937144249","tag":{"addr:street":"Abdullab Bin Abed Manaf Street","amenity":"recycling","recycling_type":"container"}},"type":"Feature"},
	{"geometry":{"coordinates":[55.390384,25.340358],"type":"Point"},"properties":{"osm_id":"4937144272","tag":{"addr:street":"Suhail Bin Hunaif Street","amenity":"recycling","recycling_type":"container"}},"type":"Feature"},
	{"geometry":{"coordinates":[55.389924,25.338831],"type":"Point"},"properties":{"osm_id":"4937144283","tag":{"addr:street":"Abdullah Bin Rawaha Street","amenity":"recycling","recycling_type":"container"}},"type":"Feature"},
	{"geometry":{"coordinates":[55.395977,25.341607],"type":"Point"},"properties":{"osm_id":"4937300818","tag":{"addr:street":"Masoud Bin Rabee'ah Street","amenity":"recycling","recycling_type":"container"}},"type":"Feature"},
	{"geometry":{"coordinates":[55.394808,25.33991],"type":"Point"},"properties":{"osm_id":"4937362393","tag":{"addr:street":"Masoud Bin Rabee'ah Street","amenity":"recycling","recycling_type":"container"}},"type":"Feature"},
	{"geometry":{"coordinates":[55.393636,25.338215],"type":"Point"},"properties":{"osm_id":"4937362826","tag":{"addr:street":"Masoud Bin Rabee'ah Street","amenity":"recycling","recycling_type":"container"}},"type":"Feature"},
	{"geometry":{"coordinates":[55.39279,25.33436],"type":"Point"},"properties":{"osm_id":"4937491630","tag":{"addr:street":"Salem Bin Omair Street","amenity":"recycling","recycling_type":"container"}},"type":"Feature"},
	{"geometry":{"coordinates":[55.393883,25.33265],"type":"Point"},"properties":{"osm_id":"4937491650","tag":{"addr:street":"Salem Bin Omair Street","amenity":"recycling","recycling_type":"container"}},"type":"Feature"},
	{"geometry":{"coordinates":[55.395256,25.330476],"type":"Point"},"properties":{"osm_id":"4937491656","tag":{"addr:street":"Salem Bin Omair Street","amenity":"recycling","recycling_type":"container"}},"type":"Feature"},
	{"geometry":{"coordinates":[55.390596,25.340309],"type":"Point"},"properties":{"osm_id":"4937555353","tag":{"addr:street":"Suhail Bin Hunaif Street","amenity":"recycling","recycling_type":"container"}},"type":"Feature"},
	{"geometry":{"coordinates":[55.389731,25.339742],"type":"Point"},"properties":{"osm_id":"4937555359","tag":{"addr:street":"Abdullah Bin Rawaha Street","amenity":"recycling","recycling_type":"container"}},"type":"Feature"},
	{"geometry":{"coordinates":[55.389249,25.338867],"type":"Point"},"properties":{"osm_id":"4937555395","tag":{"addr:street":"King Faisal Street","amenity":"recycling","recycling_type":"container"}},"type":"Feature"},
	{"geometry":{"coordinates":[55.391595,25.336414],"type":"Point"},"properties":{"osm_id":"4937656212","tag":{"addr:street":"Salem Bin Omair Street","amenity":"recycling","recycling_type":"container"}},"type":"Feature"},
	{"geometry":{"coordinates":[55.394698,25.331772],"type":"Point"},"properties":{"osm_id":"4937656649","tag":{"addr:street":"Salem Bin Omair Street","amenity":"recycling","recycling_type":"container"}},"type":"Feature"},
	{"geometry":{"coordinates":[55.395762,25.330904],"type":"Point"},"properties":{"osm_id":"4937656650","tag":{"addr:street":"Sa'ad Bin Abi Waqas Street","amenity":"recycling","recycling_type":"container"}},"type":"Feature"},
	{"geometry":{"coordinates":[55.396599,25.345422],"type":"Point"},"properties":{"osm_id":"4937678671","tag":{"addr:street":"Al Hareth Bins Aws Street","amenity":"recycling","recycling_type":"container"}},"type":"Feature"},
	{"geometry":{"coordinates":[55.392815,25.34626],"type":"Point"},"properties":{"osm_id":"4937678703","tag":{"addr:street":"Khabab Bin Al Arat Street","amenity":"recycling","recycling_type":"container"}},"type":"Feature"},
	{"geometry":{"coordinates":[55.389655,25.345481],"type":"Point"},"properties":{"osm_id":"4938548775","tag":{"addr:street":"Abdullah Bin Suhail Street","amenity":"recycling","recycling_type":"container"}},"type":"Feature"},
	{"geometry":{"coordinates":[55.389027,25.344185],"type":"Point"},"properties":{"osm_id":"4938548793","tag":{"addr:street":"Abdullah Bin Omair Street","amenity":"recycling","recycling_type":"container"}},"type":"Feature"},
	{"geometry":{"coordinates":[55.390278,25.342206],"type":"Point"},"properties":{"osm_id":"4938666042","tag":{"addr:street":"Malik Bin Masoud Street","amenity":"recycling","recycling_type":"container"}},"type":"Feature"},
	{"geometry":{"coordinates":[55.391257,25.341645],"type":"Point"},"properties":{"osm_id":"4938666043","tag":{"addr:street":"Malik Bin Masoud Street","amenity":"recycling","recycling_type":"container"}},"type":"Feature"},
	{"geometry":{"coordinates":[55.392546,25.340887],"type":"Point"},"properties":{"osm_id":"4938666057","tag":{"addr:street":"Omair Bin All Hareth Street","amenity":"recycling","recycling_type":"container"}},"type":"Feature"},
	{"geometry":{"coordinates":[55.394309,25.342314],"type":"Point"},"properties":{"osm_id":"4938902322","tag":{"addr:street":"Bilal Bin Rabah Street","amenity":"recycling","recycling_type":"container"}},"type":"Feature"},
	{"geometry":{"coordinates":[55.3948,25.343229],"type":"Point"},"properties":{"osm_id":"4938902347","tag":{"addr:street":"Bilal Bin Rabah Street","amenity":"recycling","recycling_type":"container"}},"type":"Feature"},
	{"geometry":{"coordinates":[55.393711,25.343848],"type":"Point"},"properties":{"osm_id":"4938902362","tag":{"addr:street":"Obadah Bin Al Samet Street","amenity":"recycling","recycling_type":"container"}},"type":"Feature"},
	{"geometry":{"coordinates":[55.392704,25.344418],"type":"Point"},"properties":{"osm_id":"4938902372","tag":{"addr:street":"Obadah Bin Al Samet Street","amenity":"recycling","recycling_type":"container"}},"type":"Feature"},
	{"geometry":{"coordinates":[55.391522,25.343996],"type":"Point"},"properties":{"osm_id":"4938931042","tag":{"addr:street":"Ammar Bin Yaser Street","amenity":"recycling","recycling_type":"container"}},"type":"Feature"},
	{"geometry":{"coordinates":[55.392252,25.343687],"type":"Point"},"properties":{"osm_id":"4938931060","tag":{"addr:street":"Shuja'a Bin Wahab Street","amenity":"recycling","recycling_type":"container"}},"type":"Feature"},
	{"geometry":{"coordinates":[55.39326,25.343135],"type":"Point"},"properties":{"osm_id":"4938931076","tag":{"addr:street":"Shuja'a Bin Wahab Street","amenity":"recycling","recycling_type":"container"}},"type":"Feature"},
	{"geometry":{"coordinates":[55.393188,25.342874],"type":"Point"},"properties":{"osm_id":"4938958815","tag":{"addr:street":"Al Mundher Bin Amr Street","amenity":"recycling","recycling_type":"container"}},"type":"Feature"},
	{"geometry":{"coordinates":[55.393452,25.341187],"type":"Point"},"properties":{"osm_id":"4938959048","tag":{"addr:street":"Bilal Bin Rabah Street","amenity":"recycling","recycling_type":"container"}},"type":"Feature"},
	{"geometry":{"coordinates":[55.3931,25.340705],"type":"Point"},"properties":{"osm_id":"4938959057","tag":{"addr:street":"Bilal Bin Rabah Street","amenity":"recycling","recycling_type":"container"}},"type":"Feature"},
	{"geometry":{"coordinates":[55.392456,25.339808],"type":"Point"},"properties":{"osm_id":"4938959082","tag":{"addr:street":"Bilal Bin Rabah Street","amenity":"recycling","recycling_type":"container"}},"type":"Feature"},
	{"geometry":{"coordinates":[55.390739,25.339504],"type":"Point"},"properties":{"osm_id":"4939189841","tag":{"addr:street":"Abdullab Bin Abed Manaf Street","amenity":"recycling","recycling_type":"container"}},"type":"Feature"},
	{"geometry":{"coordinates":[55.39204,25.340284],"type":"Point"},"properties":{"osm_id":"4939189848","tag":{"addr:street":"Omair Bin All Hareth Street","amenity":"recycling","recycling_type":"container"}},"type":"Feature"},
	{"geometry":{"coordinates":[55.391699,25.341577],"type":"Point"},"properties":{"osm_id":"4939189878","tag":{"addr:street":"Amer Bin Lua'y Street","amenity":"recycling","recycling_type":"container"}},"type":"Feature"},
	{"geometry":{"coordinates":[55.391044,25.341949],"type":"Point"},"properties":{"osm_id":"4939189890","tag":{"addr:street":"Amer Bin Rabee'ah Street","amenity":"recycling","recycling_type":"container"}},"type":"Feature"},
	{"geometry":{"coordinates":[55.390412,25.342369],"type":"Point"},"properties":{"osm_id":"4939189961","tag":{"addr:street":"Ammar Bin Yaser Street","amenity":"recycling","recycling_type":"container"}},"type":"Feature"},
	{"geometry":{"coordinates":[55.392634,25.346294],"type":"Point"},"properties":{"osm_id":"4940508732","tag":{"addr:street":"Khabab Bin Al Arat Street","amenity":"recycling","recycling_type":"container"}},"type":"Feature"},
	{"geometry":{"coordinates":[55.393021,25.346372],"type":"Point"},"properties":{"osm_id":"4940508739","tag":{"addr:street":"Khabab Bin Al Arat Street","amenity":"recycling","recycling_type":"container"}},"type":"Feature"},
	{"geometry":{"coordinates":[55.394467,25.345551],"type":"Point"},"properties":{"osm_id":"4940508744","tag":{"addr:street":"Khabab Bin Al Arat Street","amenity":"recycling","recycling_type":"container"}},"type":"Feature"},
	{"geometry":{"coordinates":[55.389384,25.346171],"type":"Point"},"properties":{"osm_id":"4940824136","tag":{"addr:street":"Abdullah Bin Omair Street","amenity":"recycling","recycling_type":"container"}},"type":"Feature"},
	{"geometry":{"coordinates":[55.388811,25.345509],"type":"Point"},"properties":{"osm_id":"4940824152","tag":{"addr:street":"Abdullah Bin Omair Street","amenity":"recycling","recycling_type":"container"}},"type":"Feature"},
	{"geometry":{"coordinates":[55.389038,25.344568],"type":"Point"},"properties":{"osm_id":"4940824160","tag":{"addr:street":"Abdullah Bin Suhail Street","amenity":"recycling","recycling_type":"container"}},"type":"Feature"},
	{"geometry":{"coordinates":[55.389221,25.344066],"type":"Point"},"properties":{"osm_id":"4940824192","tag":{"addr:street":"Abdullah Bin Omair Street","amenity":"recycling","recycling_type":"container"}},"type":"Feature"},
	{"geometry":{"coordinates":[55.389552,25.343081],"type":"Point"},"properties":{"osm_id":"4940824193","tag":{"addr:street":"Abdullah Bin Omair Street","amenity":"recycling","recycling_type":"container"}},"type":"Feature"},
	{"geometry":{"coordinates":[55.393409,25.343926],"type":"Point"},"properties":{"osm_id":"4940882228","tag":{"addr:street":"Obadah Bin Al Samet Street","amenity":"recycling","recycling_type":"container"}},"type":"Feature"},
	{"geometry":{"coordinates":[55.391911,25.344549],"type":"Point"},"properties":{"osm_id":"4940912625","tag":{"addr:street":"Obadah Bin Al Samet Street","amenity":"recycling","recycling_type":"container"}},"type":"Feature"},
	{"geometry":{"coordinates":[55.393443,25.343025],"type":"Point"},"properties":{"osm_id":"4940912664","tag":{"addr:street":"Al Mundher Bin Amr Street","amenity":"recycling","recycling_type":"container"}},"type":"Feature"},
	{"geometry":{"coordinates":[55.392501,25.342669],"type":"Point"},"properties":{"osm_id":"4940948611","tag":{"addr:street":"Amer Bin Lua'y Street","amenity":"recycling","recycling_type":"container"}},"type":"Feature"},
	{"geometry":{"coordinates":[55.392114,25.342104],"type":"Point"},"properties":{"osm_id":"4940948612","tag":{"addr:street":"Amer Bin Lua'y Street","amenity":"recycling","recycling_type":"container"}},"type":"Feature"},
	{"geometry":{"coordinates":[55.392743,25.339993],"type":"Point"},"properties":{"osm_id":"4940948923","tag":{"addr:street":"Bilal Bin Rabah Street","amenity":"recycling","recycling_type":"container"}},"type":"Feature"},
	{"geometry":{"coordinates":[55.392351,25.339432],"type":"Point"},"properties":{"osm_id":"4940948936","tag":{"addr:street":"Bilal Bin Rabah Street","amenity":"recycling","recycling_type":"container"}},"type":"Feature"},
	{"geometry":{"coordinates":[55.391059,25.338416],"type":"Point"},"properties":{"osm_id":"4940948948","tag":{"addr:street":"Bilal Bin Rabah Street","amenity":"recycling","recycling_type":"container"}},"type":"Feature"},
	{"geometry":{"coordinates":[55.396071,25.336174],"type":"Point"},"properties":{"osm_id":"7106360187","tag":{"amenity":"waste_basket"}},"type":"Feature"},
	{"geometry":{"coordinates":[55.396115,25.336158],"type":"Point"},"properties":{"osm_id":"7106360188","tag":{"amenity":"recycling","name:en":"Sharjah Charity International"}},"type":"Feature"},
	{"geometry":{"coordinates":[55.396048,25.336069],"type":"Point"},"properties":{"osm_id":"7106415086","tag":{"amenity":"waste_basket"}},"type":"Feature"},
	{"geometry":{"coordinates":[55.395893,25.336251],"type":"Point"},"properties":{"osm_id":"7106415087","tag":{"amenity":"waste_disposal"}},"type":"Feature"},
	{"geometry":{"coordinates":[55.395946,25.335992],"type":"Point"},"properties":{"osm_id":"7106415185","tag":{"amenity":"waste_basket"}},"type":"Feature"}
]
}
