{
"type": "FeatureCollection",
"features": [
	{"geometry":{"coordinates":[55.457698,-20.881973],"type":"Point"},"properties":{"osm_id":"1542062895","tag":{"amenity":"recycling","recycling_type":"container"}},"type":"Feature"},
	{"geometry":{"coordinates":[55.456925,-20.900061],"type":"Point"},"properties":{"osm_id":"2376715567","tag":{"amenity":"recycling","recycling:glass":"yes"}},"type":"Feature"},
	{"geometry":{"coordinates":[55.4562,-20.896593],"type":"Point"},"properties":{"osm_id":"2376715580","tag":{"amenity":"waste_basket"}},"type":"Feature"},
	{"geometry":{"coordinates":[55.455507,-20.896959],"type":"Point"},"properties":{"osm_id":"2376715581","tag":{"amenity":"waste_basket"}},"type":"Feature"},
	{"geometry":{"coordinates":[55.455317,-20.897184],"type":"Point"},"properties":{"osm_id":"2376715582","tag":{"amenity":"waste_basket"}},"type":"Feature"},
	{"geometry":{"coordinates":[55.455691,-20.897255],"type":"Point"},"properties":{"osm_id":"2376715585","tag":{"amenity":"waste_basket"}},"type":"Feature"},
	{"geometry":{"coordinates":[55.448481,-20.896961],"type":"Point"},"properties":{"name":"D\u00c3\u00a9chetterie de Bellepierre","osm_id":"3240708385","tag":{"addr:city":"Saint-Denis","addr:postcode":"97400","addr:street":"Boulevard Gaston Monnerville","amenity":"recycling","phone":"+262 2 62 37 64 72","recycling_type":"centre"}},"type":"Feature"},
	{"geometry":{"coordinates":[55.41803,-20.886381],"type":"Point"},"properties":{"name":"D\u00c3\u00a9chetterie de la Montagne","osm_id":"3240708658","tag":{"addr:city":"Saint-Denis","addr:postcode":"97400","addr:street":"Chemin Neuf","amenity":"recycling","phone":"+262 2 62 23 69 06","recycling_type":"centre"}},"type":"Feature"},
	{"geometry":{"coordinates":[55.456006,-20.880449],"type":"Point"},"properties":{"osm_id":"4419808003","tag":{"amenity":"recycling","recycling:glass_bottles":"yes","recycling_type":"container"}},"type":"Feature"}
]
}
