{
"type": "FeatureCollection",
"features": [
	{"geometry":{"coordinates":[12.877143,56.662777],"type":"Point"},"properties":{"name":"Maxi","osm_id":"538548010","tag":{"amenity":"recycling","recycling:clothes":"yes","recycling:glass":"yes","recycling:paper":"yes","recycling:scrap_metal":"yes","recycling_type":"container"}},"type":"Feature"},
	{"geometry":{"coordinates":[12.862296,56.684745],"type":"Point"},"properties":{"osm_id":"1044668296","tag":{"amenity":"recycling","recycling:glass":"yes","recycling:paper":"yes","recycling_type":"container"}},"type":"Feature"},
	{"geometry":{"coordinates":[12.832598,56.676893],"type":"Point"},"properties":{"osm_id":"1666259732","tag":{"amenity":"recycling","location":"overground","recycling_type":"container"}},"type":"Feature"},
	{"geometry":{"coordinates":[12.84336,56.668492],"type":"Point"},"properties":{"osm_id":"1994436376","tag":{"amenity":"recycling","recycling_type":"container"}},"type":"Feature"},
	{"geometry":{"coordinates":[12.87497,56.664253],"type":"Point"},"properties":{"osm_id":"3204785323","tag":{"amenity":"waste_basket"}},"type":"Feature"},
	{"geometry":{"coordinates":[12.844475,56.663514],"type":"Point"},"properties":{"osm_id":"3495197866","tag":{"amenity":"waste_basket"}},"type":"Feature"},
	{"geometry":{"coordinates":[12.857457,56.667212],"type":"Point"},"properties":{"osm_id":"6233221552","tag":{"amenity":"waste_basket","waste":"trash"}},"type":"Feature"},
	{"geometry":{"coordinates":[12.849973,56.667888],"type":"Point"},"properties":{"osm_id":"6234342464","tag":{"amenity":"recycling","recycling:aluminium":"yes","recycling:cans":"yes","recycling:cardboard":"yes","recycling:glass":"yes","recycling:magazines":"yes","recycling:newspaper":"yes","recycling:paper":"yes","recycling:paper_packaging":"yes","recycling:plastic":"yes","recycling:shoes":"yes","recycling_type":"container"}},"type":"Feature"},
	{"geometry":{"coordinates":[12.864497,56.669116],"type":"Point"},"properties":{"osm_id":"6236229232","tag":{"amenity":"waste_basket","waste":"trash"}},"type":"Feature"},
	{"geometry":{"coordinates":[12.854186,56.688344],"type":"Point"},"properties":{"osm_id":"6661488079","tag":{"amenity":"waste_basket"}},"type":"Feature"},
	{"geometry":{"coordinates":[12.853566,56.688735],"type":"Point"},"properties":{"osm_id":"6661488084","tag":{"amenity":"waste_basket"}},"type":"Feature"},
	{"geometry":{"coordinates":[12.852569,56.68838],"type":"Point"},"properties":{"osm_id":"6666817960","tag":{"amenity":"waste_basket"}},"type":"Feature"},
	{"geometry":{"coordinates":[12.889998,56.674142],"type":"Point"},"properties":{"osm_id":"8940911322","tag":{"amenity":"waste_basket"}},"type":"Feature"},
	{"geometry":{"coordinates":[12.889055,56.673727],"type":"Point"},"properties":{"osm_id":"8940911323","tag":{"amenity":"waste_basket","colour":"Black","covered":"no","indoor":"no","material":"metal","waste":"trash"}},"type":"Feature"},
	{"geometry":{"coordinates":[12.888783,56.673818],"type":"Point"},"properties":{"osm_id":"8940911324","tag":{"amenity":"waste_basket","colour":"Black","covered":"no","indoor":"no","material":"metal","waste":"trash"}},"type":"Feature"},
	{"geometry":{"coordinates":[12.889388,56.674076],"type":"Point"},"properties":{"osm_id":"8940911335","tag":{"amenity":"waste_basket"}},"type":"Feature"},
	{"geometry":{"coordinates":[12.888719,56.673596],"type":"Point"},"properties":{"osm_id":"8940911340","tag":{"amenity":"waste_basket","colour":"Black","covered":"no","indoor":"no","material":"metal","waste":"trash"}},"type":"Feature"},
	{"geometry":{"coordinates":[12.888737,56.674019],"type":"Point"},"properties":{"osm_id":"8940951046","tag":{"amenity":"waste_basket","colour":"Black","covered":"no","indoor":"no","material":"metal","waste":"trash"}},"type":"Feature"},
	{"geometry":{"coordinates":[12.888464,56.674001],"type":"Point"},"properties":{"osm_id":"8940951050","tag":{"amenity":"waste_basket","colour":"Black","covered":"no","indoor":"no","material":"metal","waste":"trash"}},"type":"Feature"},
	{"geometry":{"coordinates":[12.861161,56.674863],"type":"Point"},"properties":{"osm_id":"8951533362","tag":{"amenity":"waste_basket"}},"type":"Feature"},
	{"geometry":{"coordinates":[12.860804,56.672778],"type":"Point"},"properties":{"osm_id":"8951533363","tag":{"amenity":"waste_basket"}},"type":"Feature"},
	{"geometry":{"coordinates":[12.860719,56.673476],"type":"Point"},"properties":{"osm_id":"8951533366","tag":{"amenity":"waste_basket"}},"type":"Feature"},
	{"geometry":{"coordinates":[12.869431,56.694307],"type":"Point"},"properties":{"osm_id":"8954899217","tag":{"amenity":"waste_basket","waste":"trash"}},"type":"Feature"},
	{"geometry":{"coordinates":[12.871306,56.693919],"type":"Point"},"properties":{"osm_id":"8954899218","tag":{"amenity":"waste_basket","waste":"trash"}},"type":"Feature"},
	{"geometry":{"coordinates":[12.870546,56.694159],"type":"Point"},"properties":{"osm_id":"8954899220","tag":{"amenity":"waste_basket","waste":"trash"}},"type":"Feature"},
	{"geometry":{"coordinates":[12.870733,56.693916],"type":"Point"},"properties":{"osm_id":"8954899224","tag":{"amenity":"waste_basket","waste":"trash"}},"type":"Feature"},
	{"geometry":{"coordinates":[12.869982,56.69415],"type":"Point"},"properties":{"osm_id":"8954899225","tag":{"amenity":"waste_basket","waste":"trash"}},"type":"Feature"},
	{"geometry":{"coordinates":[12.873011,56.684411],"type":"Point"},"properties":{"osm_id":"8957460534","tag":{"amenity":"waste_basket","colour":"Metal","covered":"no","indoor":"no","material":"metal","waste":"trash"}},"type":"Feature"},
	{"geometry":{"coordinates":[12.866414,56.681252],"type":"Point"},"properties":{"osm_id":"8957460536","tag":{"amenity":"waste_basket","colour":"Green","covered":"no","indoor":"no","material":"metal","waste":"trash"}},"type":"Feature"},
	{"geometry":{"coordinates":[12.865687,56.680233],"type":"Point"},"properties":{"osm_id":"8957460537","tag":{"amenity":"waste_basket","colour":"Black","covered":"no","indoor":"no","material":"metal","waste":"trash"}},"type":"Feature"},
	{"geometry":{"coordinates":[12.871713,56.691088],"type":"Point"},"properties":{"osm_id":"8973933555","tag":{"amenity":"waste_basket","waste":"trash"}},"type":"Feature"},
	{"geometry":{"coordinates":[12.862558,56.675224],"type":"Point"},"properties":{"osm_id":"8974042810","tag":{"amenity":"waste_basket"}},"type":"Feature"},
	{"geometry":{"coordinates":[12.861952,56.674524],"type":"Point"},"properties":{"osm_id":"8974042811","tag":{"amenity":"waste_basket"}},"type":"Feature"},
	{"geometry":{"coordinates":[12.86236,56.674892],"type":"Point"},"properties":{"osm_id":"8974053720","tag":{"amenity":"waste_basket"}},"type":"Feature"},
	{"geometry":{"coordinates":[12.8593,56.677605],"type":"Point"},"properties":{"osm_id":"8974053721","tag":{"amenity":"waste_basket"}},"type":"Feature"},
	{"geometry":{"coordinates":[12.871904,56.687948],"type":"Point"},"properties":{"osm_id":"9017971912","tag":{"amenity":"waste_basket","waste":"trash"}},"type":"Feature"},
	{"geometry":{"coordinates":[12.891535,56.688662],"type":"Point"},"properties":{"osm_id":"9029032071","tag":{"amenity":"waste_basket","waste":"trash"}},"type":"Feature"},
	{"geometry":{"coordinates":[12.877937,56.693012],"type":"Point"},"properties":{"osm_id":"9034372525","tag":{"amenity":"waste_basket","waste":"trash"}},"type":"Feature"},
	{"geometry":{"coordinates":[12.886806,56.69427],"type":"Point"},"properties":{"osm_id":"9034372526","tag":{"amenity":"waste_basket","waste":"trash"}},"type":"Feature"},
	{"geometry":{"coordinates":[12.872611,56.696201],"type":"Point"},"properties":{"osm_id":"9037739540","tag":{"amenity":"waste_basket","waste":"trash"}},"type":"Feature"},
	{"geometry":{"coordinates":[12.869761,56.694508],"type":"Point"},"properties":{"osm_id":"9037839354","tag":{"amenity":"waste_basket","waste":"trash"}},"type":"Feature"},
	{"geometry":{"coordinates":[12.882343,56.693516],"type":"Point"},"properties":{"osm_id":"9040857098","tag":{"amenity":"waste_basket","waste":"trash"}},"type":"Feature"},
	{"geometry":{"coordinates":[12.882861,56.693606],"type":"Point"},"properties":{"osm_id":"9040857099","tag":{"amenity":"waste_basket","waste":"trash"}},"type":"Feature"},
	{"geometry":{"coordinates":[12.883105,56.694147],"type":"Point"},"properties":{"osm_id":"9040857104","tag":{"amenity":"waste_basket","waste":"trash"}},"type":"Feature"},
	{"geometry":{"coordinates":[12.891374,56.692055],"type":"Point"},"properties":{"osm_id":"9042543472","tag":{"amenity":"waste_basket","waste":"trash"}},"type":"Feature"},
	{"geometry":{"coordinates":[12.850237,56.682787],"type":"Point"},"properties":{"osm_id":"9047600124","tag":{"amenity":"waste_basket","waste":"trash"}},"type":"Feature"},
	{"geometry":{"coordinates":[12.851306,56.684884],"type":"Point"},"properties":{"osm_id":"9047600125","tag":{"amenity":"waste_basket","waste":"trash"}},"type":"Feature"},
	{"geometry":{"coordinates":[12.851785,56.685844],"type":"Point"},"properties":{"osm_id":"9047600128","tag":{"amenity":"waste_basket","waste":"trash"}},"type":"Feature"},
	{"geometry":{"coordinates":[12.854605,56.683292],"type":"Point"},"properties":{"osm_id":"9047600129","tag":{"amenity":"waste_basket","waste":"trash"}},"type":"Feature"},
	{"geometry":{"coordinates":[12.850695,56.682672],"type":"Point"},"properties":{"osm_id":"9047600136","tag":{"amenity":"waste_basket","waste":"trash"}},"type":"Feature"},
	{"geometry":{"coordinates":[12.86184,56.687392],"type":"Point"},"properties":{"osm_id":"9050326265","tag":{"amenity":"waste_basket","waste":"trash"}},"type":"Feature"},
	{"geometry":{"coordinates":[12.856731,56.686041],"type":"Point"},"properties":{"osm_id":"9050326267","tag":{"amenity":"waste_basket","waste":"trash"}},"type":"Feature"},
	{"geometry":{"coordinates":[12.860613,56.676824],"type":"Point"},"properties":{"osm_id":"9053395903","tag":{"amenity":"waste_basket","waste":"trash"}},"type":"Feature"},
	{"geometry":{"coordinates":[12.861814,56.679319],"type":"Point"},"properties":{"osm_id":"9053395908","tag":{"amenity":"waste_basket","waste":"trash"}},"type":"Feature"},
	{"geometry":{"coordinates":[12.860516,56.676517],"type":"Point"},"properties":{"osm_id":"9053395909","tag":{"amenity":"waste_basket","waste":"trash"}},"type":"Feature"},
	{"geometry":{"coordinates":[12.863933,56.681638],"type":"Point"},"properties":{"osm_id":"9053395911","tag":{"amenity":"waste_basket","waste":"trash"}},"type":"Feature"},
	{"geometry":{"coordinates":[12.861088,56.678164],"type":"Point"},"properties":{"osm_id":"9053395912","tag":{"amenity":"waste_basket","waste":"trash"}},"type":"Feature"},
	{"geometry":{"coordinates":[12.870721,56.685595],"type":"Point"},"properties":{"osm_id":"9053395914","tag":{"amenity":"waste_basket","waste":"trash"}},"type":"Feature"},
	{"geometry":{"coordinates":[12.859994,56.675345],"type":"Point"},"properties":{"osm_id":"9053395915","tag":{"amenity":"waste_basket"}},"type":"Feature"},
	{"geometry":{"coordinates":[12.867378,56.683504],"type":"Point"},"properties":{"osm_id":"9053429420","tag":{"amenity":"waste_basket","waste":"trash"}},"type":"Feature"}
]
}
