{
"type": "FeatureCollection",
"features": [
	{"geometry":{"coordinates":[12.832112,52.916184],"type":"Point"},"properties":{"osm_id":"2399223487","tag":{"amenity":"recycling","recycling:cans":"no","recycling:clothes":"yes","recycling:glass":"yes","recycling:paper":"no"}},"type":"Feature"},
	{"geometry":{"coordinates":[12.854811,52.923219],"type":"Point"},"properties":{"osm_id":"2422115765","tag":{"amenity":"recycling","operator":"illegal","recycling:clothes":"yes","recycling_type":"container"}},"type":"Feature"},
	{"geometry":{"coordinates":[12.839174,52.952159],"type":"Point"},"properties":{"osm_id":"2836035005","tag":{"amenity":"recycling","operator":"illegal","recycling:clothes":"yes","recycling:glass":"yes","recycling_type":"container"}},"type":"Feature"},
	{"geometry":{"coordinates":[12.840216,52.935121],"type":"Point"},"properties":{"osm_id":"2836035104","tag":{"amenity":"recycling","operator":"Texaid","recycling:clothes":"yes","recycling:glass":"yes","recycling_type":"container"}},"type":"Feature"},
	{"geometry":{"coordinates":[12.832168,52.916287],"type":"Point"},"properties":{"osm_id":"3295648209","tag":{"amenity":"recycling","recycling:cans":"no","recycling:clothes":"yes","recycling:glass":"yes","recycling:paper":"no"}},"type":"Feature"},
	{"geometry":{"coordinates":[12.838974,52.951873],"type":"Point"},"properties":{"osm_id":"6935207538","tag":{"amenity":"recycling","operator":"Texaid","recycling:clothes":"yes","recycling_type":"container"}},"type":"Feature"},
	{"geometry":{"coordinates":[12.852066,52.944249],"type":"Point"},"properties":{"osm_id":"6935221554","tag":{"amenity":"recycling","operator":"DRK + Texaid","recycling:clothes":"yes","recycling_type":"container"}},"type":"Feature"}
]
}
