{
"type": "FeatureCollection",
"features": [
	{"geometry":{"coordinates":[12.911401,50.90196],"type":"Point"},"properties":{"osm_id":"1271029955","tag":{"amenity":"recycling","location":"overground","recycling_type":"container"}},"type":"Feature"},
	{"geometry":{"coordinates":[12.899438,50.881302],"type":"Point"},"properties":{"osm_id":"1271029996","tag":{"amenity":"recycling","recycling_type":"container"}},"type":"Feature"},
	{"geometry":{"coordinates":[12.897226,50.862901],"type":"Point"},"properties":{"osm_id":"1783874400","tag":{"amenity":"recycling","recycling:cans":"no","recycling:clothes":"yes"}},"type":"Feature"},
	{"geometry":{"coordinates":[12.8979,50.86305],"type":"Point"},"properties":{"osm_id":"1783874988","tag":{"amenity":"recycling","recycling:cans":"no","recycling:clothes":"yes","recycling:glass":"yes"}},"type":"Feature"},
	{"geometry":{"coordinates":[12.904892,50.865874],"type":"Point"},"properties":{"osm_id":"1783905282","tag":{"amenity":"recycling","recycling:clothes":"yes"}},"type":"Feature"},
	{"geometry":{"coordinates":[12.90734,50.8562],"type":"Point"},"properties":{"osm_id":"2255631290","tag":{"amenity":"recycling","recycling:glass_bottles":"yes","recycling_type":"container"}},"type":"Feature"},
	{"geometry":{"coordinates":[12.868212,50.899582],"type":"Point"},"properties":{"osm_id":"2677312367","tag":{"amenity":"recycling","recycling:glass":"yes","recycling_type":"container"}},"type":"Feature"},
	{"geometry":{"coordinates":[12.903955,50.866655],"type":"Point"},"properties":{"osm_id":"2774995518","tag":{"amenity":"recycling","recycling:cans":"no","recycling:clothes":"yes","recycling:glass":"yes","recycling:paper":"yes"}},"type":"Feature"},
	{"geometry":{"coordinates":[12.868286,50.864927],"type":"Point"},"properties":{"osm_id":"4344928239","tag":{"amenity":"waste_basket"}},"type":"Feature"},
	{"geometry":{"coordinates":[12.842768,50.879711],"type":"Point"},"properties":{"osm_id":"5503681120","tag":{"amenity":"waste_basket","waste":"trash"}},"type":"Feature"},
	{"geometry":{"coordinates":[12.842646,50.880469],"type":"Point"},"properties":{"osm_id":"5503682024","tag":{"amenity":"waste_basket","waste":"trash"}},"type":"Feature"},
	{"geometry":{"coordinates":[12.908791,50.848201],"type":"Point"},"properties":{"osm_id":"5679639803","tag":{"amenity":"waste_basket"}},"type":"Feature"},
	{"geometry":{"coordinates":[12.908335,50.84876],"type":"Point"},"properties":{"osm_id":"5679639804","tag":{"amenity":"waste_basket"}},"type":"Feature"},
	{"geometry":{"coordinates":[12.908903,50.848049],"type":"Point"},"properties":{"osm_id":"5679639805","tag":{"amenity":"waste_basket"}},"type":"Feature"},
	{"geometry":{"coordinates":[12.908603,50.848373],"type":"Point"},"properties":{"osm_id":"5679639806","tag":{"amenity":"waste_basket"}},"type":"Feature"},
	{"geometry":{"coordinates":[12.908689,50.848282],"type":"Point"},"properties":{"osm_id":"5679639807","tag":{"amenity":"waste_basket"}},"type":"Feature"},
	{"geometry":{"coordinates":[12.867187,50.863698],"type":"Point"},"properties":{"osm_id":"5866239326","tag":{"amenity":"waste_basket"}},"type":"Feature"},
	{"geometry":{"coordinates":[12.867119,50.863614],"type":"Point"},"properties":{"osm_id":"5866239329","tag":{"amenity":"waste_basket"}},"type":"Feature"},
	{"geometry":{"coordinates":[12.899876,50.851528],"type":"Point"},"properties":{"osm_id":"5910000395","tag":{"amenity":"waste_basket"}},"type":"Feature"},
	{"geometry":{"coordinates":[12.900487,50.852388],"type":"Point"},"properties":{"osm_id":"5910000404","tag":{"amenity":"waste_basket"}},"type":"Feature"},
	{"geometry":{"coordinates":[12.90641,50.85061],"type":"Point"},"properties":{"osm_id":"5910000412","tag":{"amenity":"waste_basket"}},"type":"Feature"},
	{"geometry":{"coordinates":[12.906465,50.850445],"type":"Point"},"properties":{"osm_id":"5910000420","tag":{"amenity":"waste_basket"}},"type":"Feature"},
	{"geometry":{"coordinates":[12.900158,50.852065],"type":"Point"},"properties":{"osm_id":"5910000421","tag":{"amenity":"waste_basket"}},"type":"Feature"},
	{"geometry":{"coordinates":[12.903822,50.848599],"type":"Point"},"properties":{"osm_id":"5910020285","tag":{"amenity":"waste_basket"}},"type":"Feature"},
	{"geometry":{"coordinates":[12.902559,50.847916],"type":"Point"},"properties":{"osm_id":"5910020288","tag":{"amenity":"waste_basket"}},"type":"Feature"},
	{"geometry":{"coordinates":[12.859901,50.859727],"type":"Point"},"properties":{"osm_id":"6158490932","tag":{"amenity":"recycling","recycling:clothes":"yes","recycling:glass_bottles":"yes","recycling:paper":"yes","recycling_type":"container"}},"type":"Feature"},
	{"geometry":{"coordinates":[12.83456,50.860906],"type":"Point"},"properties":{"osm_id":"6165338608","tag":{"amenity":"waste_basket"}},"type":"Feature"},
	{"geometry":{"coordinates":[12.834795,50.861133],"type":"Point"},"properties":{"osm_id":"6165338623","tag":{"amenity":"waste_basket"}},"type":"Feature"},
	{"geometry":{"coordinates":[12.834778,50.860759],"type":"Point"},"properties":{"osm_id":"6165338640","tag":{"amenity":"waste_basket"}},"type":"Feature"},
	{"geometry":{"coordinates":[12.903018,50.848061],"type":"Point"},"properties":{"osm_id":"6176471046","tag":{"amenity":"waste_basket"}},"type":"Feature"},
	{"geometry":{"coordinates":[12.904707,50.849161],"type":"Point"},"properties":{"osm_id":"6176471053","tag":{"amenity":"waste_basket"}},"type":"Feature"},
	{"geometry":{"coordinates":[12.916469,50.856115],"type":"Point"},"properties":{"osm_id":"6595972522","tag":{"amenity":"recycling","recycling:glass_bottles":"yes","recycling_type":"container"}},"type":"Feature"},
	{"geometry":{"coordinates":[12.900191,50.855127],"type":"Point"},"properties":{"osm_id":"6900027977","tag":{"amenity":"recycling","recycling:electrical_items":"yes","recycling:small_appliances":"yes","recycling_type":"container"}},"type":"Feature"},
	{"geometry":{"coordinates":[12.900169,50.8551],"type":"Point"},"properties":{"osm_id":"6900027978","tag":{"amenity":"recycling","recycling:glass_bottles":"yes","recycling_type":"container"}},"type":"Feature"},
	{"geometry":{"coordinates":[12.900144,50.855072],"type":"Point"},"properties":{"osm_id":"6900027979","tag":{"amenity":"recycling","recycling:clothes":"yes","recycling_type":"container"}},"type":"Feature"},
	{"geometry":{"coordinates":[12.891022,50.892658],"type":"Point"},"properties":{"osm_id":"7308406612","tag":{"amenity":"waste_basket"}},"type":"Feature"},
	{"geometry":{"coordinates":[12.911754,50.848769],"type":"Point"},"properties":{"osm_id":"7353372209","tag":{"amenity":"waste_basket"}},"type":"Feature"},
	{"geometry":{"coordinates":[12.911734,50.848618],"type":"Point"},"properties":{"osm_id":"7353377952","tag":{"amenity":"waste_basket"}},"type":"Feature"},
	{"geometry":{"coordinates":[12.891153,50.850026],"type":"Point"},"properties":{"osm_id":"7902663643","tag":{"amenity":"waste_basket","waste":"trash"}},"type":"Feature"},
	{"geometry":{"coordinates":[12.88792,50.848563],"type":"Point"},"properties":{"osm_id":"7902712381","tag":{"amenity":"waste_basket","waste":"trash"}},"type":"Feature"},
	{"geometry":{"coordinates":[12.888117,50.848488],"type":"Point"},"properties":{"osm_id":"7902712382","tag":{"amenity":"waste_basket","waste":"trash"}},"type":"Feature"}
]
}
