{
"type": "FeatureCollection",
"features": [
	{"geometry":{"coordinates":[12.872735,50.777661],"type":"Point"},"properties":{"osm_id":"297480268","tag":{"amenity":"recycling","location":"overground","recycling:glass":"yes","recycling_type":"container"}},"type":"Feature"},
	{"geometry":{"coordinates":[12.86423,50.776769],"type":"Point"},"properties":{"osm_id":"297697838","tag":{"amenity":"recycling","location":"overground","recycling:glass":"yes","recycling_type":"container"}},"type":"Feature"},
	{"geometry":{"coordinates":[12.860598,50.775738],"type":"Point"},"properties":{"osm_id":"297700219","tag":{"amenity":"recycling","recycling:glass":"yes","recycling_type":"container"}},"type":"Feature"},
	{"geometry":{"coordinates":[12.882443,50.78829],"type":"Point"},"properties":{"osm_id":"297891445","tag":{"amenity":"recycling","location":"overground","recycling_type":"container"}},"type":"Feature"},
	{"geometry":{"coordinates":[12.877469,50.783166],"type":"Point"},"properties":{"osm_id":"316121574","tag":{"amenity":"recycling","location":"overground","recycling_type":"container"}},"type":"Feature"},
	{"geometry":{"coordinates":[12.876026,50.781229],"type":"Point"},"properties":{"osm_id":"316122606","tag":{"amenity":"recycling","location":"overground","recycling:clothes":"yes","recycling:glass_bottles":"yes","recycling:shoes":"yes","recycling_type":"container"}},"type":"Feature"},
	{"geometry":{"coordinates":[12.88922,50.788136],"type":"Point"},"properties":{"osm_id":"357989091","tag":{"amenity":"recycling","recycling:glass":"yes","recycling:paper":"yes"}},"type":"Feature"},
	{"geometry":{"coordinates":[12.885211,50.784484],"type":"Point"},"properties":{"osm_id":"472314437","tag":{"amenity":"recycling","recycling:cans":"yes","recycling:glass":"yes","recycling:paper":"yes"}},"type":"Feature"},
	{"geometry":{"coordinates":[12.876466,50.75492],"type":"Point"},"properties":{"osm_id":"708959423","tag":{"amenity":"recycling","recycling:glass_bottles":"yes","recycling_type":"container"}},"type":"Feature"},
	{"geometry":{"coordinates":[12.875457,50.761523],"type":"Point"},"properties":{"osm_id":"778312898","tag":{"amenity":"recycling","location":"overground","recycling:glass":"yes","recycling_type":"container"}},"type":"Feature"},
	{"geometry":{"coordinates":[12.901487,50.779825],"type":"Point"},"properties":{"osm_id":"804888051","tag":{"amenity":"recycling","location":"overground","recycling:glass_bottles":"yes","recycling_type":"container"}},"type":"Feature"},
	{"geometry":{"coordinates":[12.88246,50.782538],"type":"Point"},"properties":{"osm_id":"804895622","tag":{"amenity":"recycling","location":"overground","recycling:cans":"no","recycling:clothes":"no","recycling:glass_bottles":"yes","recycling:paper":"no","recycling_type":"container"}},"type":"Feature"},
	{"geometry":{"coordinates":[12.864215,50.763707],"type":"Point"},"properties":{"osm_id":"1272974051","tag":{"amenity":"recycling","recycling:glass":"yes"}},"type":"Feature"},
	{"geometry":{"coordinates":[12.901556,50.787647],"type":"Point"},"properties":{"osm_id":"1343784558","tag":{"amenity":"recycling","recycling:electrical_appliances":"yes","recycling:glass":"yes","recycling_type":"container"}},"type":"Feature"},
	{"geometry":{"coordinates":[12.87339,50.783639],"type":"Point"},"properties":{"osm_id":"1425068159","tag":{"amenity":"recycling","recycling:cans":"yes","recycling:glass":"yes","recycling:glass_bottles":"yes","recycling_type":"container"}},"type":"Feature"},
	{"geometry":{"coordinates":[12.869704,50.777685],"type":"Point"},"properties":{"osm_id":"1631504428","tag":{"amenity":"recycling","operator":"Malteser","recycling:clothes":"yes","recycling_type":"container"}},"type":"Feature"},
	{"geometry":{"coordinates":[12.866956,50.779158],"type":"Point"},"properties":{"osm_id":"1631504450","tag":{"amenity":"waste_basket"}},"type":"Feature"},
	{"geometry":{"coordinates":[12.86431,50.779593],"type":"Point"},"properties":{"osm_id":"1632871621","tag":{"amenity":"waste_basket"}},"type":"Feature"},
	{"geometry":{"coordinates":[12.88237,50.772107],"type":"Point"},"properties":{"osm_id":"1690177122","tag":{"amenity":"recycling","recycling:glass_bottles":"yes"}},"type":"Feature"},
	{"geometry":{"coordinates":[12.886719,50.77832],"type":"Point"},"properties":{"osm_id":"1693410778","tag":{"amenity":"recycling","recycling:glass_bottles":"yes"}},"type":"Feature"},
	{"geometry":{"coordinates":[12.878045,50.785259],"type":"Point"},"properties":{"osm_id":"1782547604","tag":{"amenity":"waste_basket"}},"type":"Feature"},
	{"geometry":{"coordinates":[12.878078,50.785338],"type":"Point"},"properties":{"osm_id":"1782547606","tag":{"amenity":"waste_basket"}},"type":"Feature"},
	{"geometry":{"coordinates":[12.85645,50.755473],"type":"Point"},"properties":{"osm_id":"1881324179","tag":{"amenity":"recycling","recycling_type":"container"}},"type":"Feature"},
	{"geometry":{"coordinates":[12.854383,50.745459],"type":"Point"},"properties":{"osm_id":"1893919934","tag":{"amenity":"recycling","location":"overground","recycling_type":"container"}},"type":"Feature"},
	{"geometry":{"coordinates":[12.849778,50.742119],"type":"Point"},"properties":{"osm_id":"1893919940","tag":{"amenity":"waste_basket"}},"type":"Feature"},
	{"geometry":{"coordinates":[12.853383,50.781694],"type":"Point"},"properties":{"osm_id":"1895155718","tag":{"amenity":"recycling","recycling:glass":"yes"}},"type":"Feature"},
	{"geometry":{"coordinates":[12.848777,50.785777],"type":"Point"},"properties":{"osm_id":"1895156070","tag":{"amenity":"recycling","recycling:glass":"yes","recycling_type":"container"}},"type":"Feature"},
	{"geometry":{"coordinates":[12.848268,50.786455],"type":"Point"},"properties":{"osm_id":"1895156157","tag":{"amenity":"recycling","recycling:clothes":"yes","recycling_type":"container"}},"type":"Feature"},
	{"geometry":{"coordinates":[12.896982,50.770698],"type":"Point"},"properties":{"osm_id":"1964893809","tag":{"amenity":"recycling","recycling:glass":"yes","recycling_type":"container"}},"type":"Feature"},
	{"geometry":{"coordinates":[12.861563,50.753485],"type":"Point"},"properties":{"osm_id":"1978372520","tag":{"amenity":"recycling","location":"overground","recycling_type":"container"}},"type":"Feature"},
	{"geometry":{"coordinates":[12.87451,50.778168],"type":"Point"},"properties":{"osm_id":"2511713574","tag":{"amenity":"waste_basket"}},"type":"Feature"},
	{"geometry":{"coordinates":[12.895526,50.791516],"type":"Point"},"properties":{"osm_id":"2700339286","tag":{"amenity":"recycling","recycling:clothes":"yes","recycling:glass":"yes","recycling_type":"container"}},"type":"Feature"},
	{"geometry":{"coordinates":[12.882195,50.785808],"type":"Point"},"properties":{"osm_id":"2700394849","tag":{"amenity":"recycling","recycling:clothes":"yes","recycling_type":"container"}},"type":"Feature"},
	{"geometry":{"coordinates":[12.885588,50.788189],"type":"Point"},"properties":{"osm_id":"2725468731","tag":{"amenity":"waste_basket"}},"type":"Feature"},
	{"geometry":{"coordinates":[12.85309,50.774188],"type":"Point"},"properties":{"osm_id":"2966536327","tag":{"amenity":"waste_basket"}},"type":"Feature"},
	{"geometry":{"coordinates":[12.874972,50.776729],"type":"Point"},"properties":{"osm_id":"3176622962","tag":{"amenity":"recycling","recycling:glass":"yes","recycling_type":"container"}},"type":"Feature"},
	{"geometry":{"coordinates":[12.859278,50.769001],"type":"Point"},"properties":{"osm_id":"3450496928","tag":{"amenity":"waste_basket"}},"type":"Feature"},
	{"geometry":{"coordinates":[12.869673,50.77765],"type":"Point"},"properties":{"osm_id":"3450496930","tag":{"amenity":"waste_basket"}},"type":"Feature"},
	{"geometry":{"coordinates":[12.86969,50.777667],"type":"Point"},"properties":{"osm_id":"3450496931","tag":{"amenity":"recycling","recycling:glass":"yes","recycling:paper":"yes","recycling_type":"container"}},"type":"Feature"},
	{"geometry":{"coordinates":[12.835027,50.760341],"type":"Point"},"properties":{"osm_id":"4065108176","tag":{"amenity":"recycling","recycling:clothes":"yes","recycling:glass":"yes"}},"type":"Feature"},
	{"geometry":{"coordinates":[12.896439,50.788963],"type":"Point"},"properties":{"osm_id":"4805747087","tag":{"amenity":"waste_basket"}},"type":"Feature"},
	{"geometry":{"coordinates":[12.847881,50.73915],"type":"Point"},"properties":{"osm_id":"4936754671","tag":{"amenity":"recycling","recycling:clothes":"yes","recycling:glass_bottles":"yes","recycling_type":"container"}},"type":"Feature"},
	{"geometry":{"coordinates":[12.849033,50.779622],"type":"Point"},"properties":{"osm_id":"5225135834","tag":{"amenity":"waste_basket"}},"type":"Feature"},
	{"geometry":{"coordinates":[12.905033,50.790674],"type":"Point"},"properties":{"osm_id":"5235131057","tag":{"amenity":"recycling","recycling:cans":"no","recycling:clothes":"yes","recycling:glass":"yes","recycling:paper":"no","recycling_type":"container"}},"type":"Feature"},
	{"geometry":{"coordinates":[12.865768,50.772415],"type":"Point"},"properties":{"barrier":"gate","osm_id":"5623210689"},"type":"Feature"},
	{"geometry":{"coordinates":[12.865682,50.772508],"type":"Point"},"properties":{"barrier":"gate","osm_id":"5623210701"},"type":"Feature"},
	{"geometry":{"coordinates":[12.86872,50.77792],"type":"Point"},"properties":{"osm_id":"6795755823","tag":{"amenity":"waste_basket"}},"type":"Feature"},
	{"geometry":{"coordinates":[12.869046,50.777938],"type":"Point"},"properties":{"osm_id":"6795755824","tag":{"amenity":"waste_basket"}},"type":"Feature"},
	{"geometry":{"coordinates":[12.888095,50.769055],"type":"Point"},"properties":{"osm_id":"7051822045","tag":{"amenity":"waste_basket"}},"type":"Feature"},
	{"geometry":{"coordinates":[12.88931,50.769346],"type":"Point"},"properties":{"osm_id":"7051822046","tag":{"amenity":"waste_basket"}},"type":"Feature"},
	{"geometry":{"coordinates":[12.889123,50.769247],"type":"Point"},"properties":{"osm_id":"7051822047","tag":{"amenity":"waste_basket"}},"type":"Feature"},
	{"geometry":{"coordinates":[12.889441,50.768894],"type":"Point"},"properties":{"osm_id":"7051822048","tag":{"amenity":"waste_basket"}},"type":"Feature"},
	{"geometry":{"coordinates":[12.888641,50.768597],"type":"Point"},"properties":{"osm_id":"7051822049","tag":{"amenity":"waste_basket"}},"type":"Feature"},
	{"geometry":{"coordinates":[12.888452,50.768643],"type":"Point"},"properties":{"osm_id":"7051822050","tag":{"amenity":"waste_basket"}},"type":"Feature"},
	{"geometry":{"coordinates":[12.876738,50.78305],"type":"Point"},"properties":{"osm_id":"7179587784","tag":{"amenity":"waste_basket"}},"type":"Feature"},
	{"geometry":{"coordinates":[12.876538,50.782898],"type":"Point"},"properties":{"osm_id":"7179587785","tag":{"amenity":"waste_basket"}},"type":"Feature"},
	{"geometry":{"coordinates":[12.876317,50.782742],"type":"Point"},"properties":{"osm_id":"7179587786","tag":{"amenity":"waste_basket"}},"type":"Feature"},
	{"geometry":{"coordinates":[12.88078,50.785807],"type":"Point"},"properties":{"osm_id":"7179658652","tag":{"amenity":"waste_basket"}},"type":"Feature"},
	{"geometry":{"coordinates":[12.88062,50.785715],"type":"Point"},"properties":{"osm_id":"7179658655","tag":{"amenity":"waste_basket"}},"type":"Feature"},
	{"geometry":{"coordinates":[12.888607,50.769434],"type":"Point"},"properties":{"osm_id":"7569994368","tag":{"amenity":"waste_basket"}},"type":"Feature"}
]
}
