{
"type": "FeatureCollection",
"features": [
	{"geometry":{"coordinates":[12.875969,50.715206],"type":"Point"},"properties":{"osm_id":"1288060316","tag":{"amenity":"recycling","recycling:clothes":"yes","recycling_type":"container"}},"type":"Feature"},
	{"geometry":{"coordinates":[12.845136,50.698489],"type":"Point"},"properties":{"osm_id":"2091596771","tag":{"access":"yes","amenity":"recycling","recycling:glass_bottles":"yes","recycling_type":"container"}},"type":"Feature"},
	{"geometry":{"coordinates":[12.849176,50.706322],"type":"Point"},"properties":{"osm_id":"2128373878","tag":{"amenity":"recycling","recycling:clothes":"no","recycling:glass_bottles":"yes","recycling_type":"container"}},"type":"Feature"},
	{"geometry":{"coordinates":[12.85112,50.70271],"type":"Point"},"properties":{"osm_id":"2284309844","tag":{"amenity":"waste_basket"}},"type":"Feature"},
	{"geometry":{"coordinates":[12.851146,50.702818],"type":"Point"},"properties":{"osm_id":"2284309855","tag":{"amenity":"waste_basket"}},"type":"Feature"},
	{"geometry":{"coordinates":[12.851505,50.703272],"type":"Point"},"properties":{"osm_id":"2284309861","tag":{"amenity":"waste_basket"}},"type":"Feature"},
	{"geometry":{"coordinates":[12.867535,50.699727],"type":"Point"},"properties":{"osm_id":"2297560294","tag":{"amenity":"waste_basket"}},"type":"Feature"},
	{"geometry":{"coordinates":[12.882622,50.708425],"type":"Point"},"properties":{"osm_id":"2399709157","tag":{"amenity":"waste_basket"}},"type":"Feature"},
	{"geometry":{"coordinates":[12.846868,50.707409],"type":"Point"},"properties":{"osm_id":"2663380787","tag":{"amenity":"waste_basket"}},"type":"Feature"},
	{"geometry":{"coordinates":[12.884939,50.721317],"type":"Point"},"properties":{"osm_id":"2710016449","tag":{"amenity":"recycling","recycling:clothes":"yes","recycling:glass_bottles":"yes","recycling_type":"container"}},"type":"Feature"},
	{"geometry":{"coordinates":[12.842587,50.686305],"type":"Point"},"properties":{"osm_id":"2784300877","tag":{"amenity":"recycling","recycling:clothes":"yes","recycling:glass_bottles":"yes","recycling_type":"container"}},"type":"Feature"},
	{"geometry":{"coordinates":[12.861459,50.704713],"type":"Point"},"properties":{"osm_id":"2802390304","tag":{"amenity":"recycling","recycling:clothes":"yes","recycling:glass_bottles":"yes","recycling_type":"container"}},"type":"Feature"},
	{"geometry":{"coordinates":[12.849553,50.682921],"type":"Point"},"properties":{"osm_id":"2804575827","tag":{"amenity":"waste_basket"}},"type":"Feature"},
	{"geometry":{"coordinates":[12.84267,50.684233],"type":"Point"},"properties":{"osm_id":"2804575838","tag":{"amenity":"waste_basket"}},"type":"Feature"},
	{"geometry":{"coordinates":[12.866514,50.688957],"type":"Point"},"properties":{"osm_id":"2804895814","tag":{"amenity":"waste_basket"}},"type":"Feature"},
	{"geometry":{"coordinates":[12.870263,50.692662],"type":"Point"},"properties":{"osm_id":"2804895829","tag":{"amenity":"waste_basket"}},"type":"Feature"},
	{"geometry":{"coordinates":[12.865702,50.705634],"type":"Point"},"properties":{"osm_id":"2804895835","tag":{"amenity":"waste_basket"}},"type":"Feature"},
	{"geometry":{"coordinates":[12.833873,50.714821],"type":"Point"},"properties":{"osm_id":"2804974290","tag":{"amenity":"waste_basket"}},"type":"Feature"},
	{"geometry":{"coordinates":[12.834352,50.714902],"type":"Point"},"properties":{"osm_id":"2804974291","tag":{"amenity":"waste_basket"}},"type":"Feature"},
	{"geometry":{"coordinates":[12.840044,50.716452],"type":"Point"},"properties":{"osm_id":"2804974295","tag":{"amenity":"waste_basket"}},"type":"Feature"},
	{"geometry":{"coordinates":[12.832218,50.697815],"type":"Point"},"properties":{"osm_id":"2804983780","tag":{"amenity":"waste_basket"}},"type":"Feature"},
	{"geometry":{"coordinates":[12.850877,50.698534],"type":"Point"},"properties":{"osm_id":"2849487225","tag":{"amenity":"waste_basket"}},"type":"Feature"},
	{"geometry":{"coordinates":[12.841105,50.705468],"type":"Point"},"properties":{"osm_id":"2888266397","tag":{"amenity":"waste_basket"}},"type":"Feature"},
	{"geometry":{"coordinates":[12.841047,50.705564],"type":"Point"},"properties":{"osm_id":"2888266399","tag":{"amenity":"waste_basket"}},"type":"Feature"},
	{"geometry":{"coordinates":[12.874715,50.695988],"type":"Point"},"properties":{"osm_id":"2919466942","tag":{"amenity":"waste_basket"}},"type":"Feature"},
	{"geometry":{"coordinates":[12.880291,50.696801],"type":"Point"},"properties":{"osm_id":"2919466953","tag":{"amenity":"waste_basket"}},"type":"Feature"},
	{"geometry":{"coordinates":[12.882003,50.700107],"type":"Point"},"properties":{"osm_id":"2919466970","tag":{"amenity":"recycling","recycling:batteries":"no","recycling:cans":"no","recycling:clothes":"yes","recycling:glass":"no","recycling:paper":"no","recycling:scrap_metal":"no","recycling_type":"container"}},"type":"Feature"},
	{"geometry":{"coordinates":[12.836919,50.708629],"type":"Point"},"properties":{"osm_id":"2984710503","tag":{"amenity":"waste_basket"}},"type":"Feature"},
	{"geometry":{"coordinates":[12.845204,50.698469],"type":"Point"},"properties":{"osm_id":"3114834182","tag":{"access":"yes","amenity":"recycling","recycling:clothes":"yes","recycling_type":"container"}},"type":"Feature"},
	{"geometry":{"coordinates":[12.847676,50.698904],"type":"Point"},"properties":{"osm_id":"3132291724","tag":{"amenity":"waste_basket"}},"type":"Feature"},
	{"geometry":{"coordinates":[12.855408,50.703688],"type":"Point"},"properties":{"osm_id":"3236300177","tag":{"amenity":"recycling","recycling:clothes":"yes","recycling_type":"container"}},"type":"Feature"},
	{"geometry":{"coordinates":[12.852086,50.702072],"type":"Point"},"properties":{"osm_id":"3291233459","tag":{"amenity":"recycling","recycling:clothes":"yes","recycling:glass_bottles":"yes","recycling_type":"container"}},"type":"Feature"},
	{"geometry":{"coordinates":[12.849033,50.706283],"type":"Point"},"properties":{"osm_id":"3299155328","tag":{"amenity":"recycling","recycling:clothes":"yes","recycling_type":"container"}},"type":"Feature"},
	{"geometry":{"coordinates":[12.846341,50.697758],"type":"Point"},"properties":{"osm_id":"3346128786","tag":{"amenity":"waste_basket"}},"type":"Feature"},
	{"geometry":{"coordinates":[12.849217,50.701437],"type":"Point"},"properties":{"osm_id":"3382839593","tag":{"amenity":"waste_basket"}},"type":"Feature"},
	{"geometry":{"coordinates":[12.883498,50.696766],"type":"Point"},"properties":{"osm_id":"3389543743","tag":{"amenity":"recycling","recycling:glass_bottles":"yes","recycling_type":"container"}},"type":"Feature"},
	{"geometry":{"coordinates":[12.895384,50.695277],"type":"Point"},"properties":{"osm_id":"3389850210","tag":{"amenity":"recycling","recycling:clothes":"yes","recycling:glass_bottles":"yes","recycling_type":"container"}},"type":"Feature"},
	{"geometry":{"coordinates":[12.852618,50.703609],"type":"Point"},"properties":{"osm_id":"3443627731","tag":{"amenity":"waste_basket"}},"type":"Feature"},
	{"geometry":{"coordinates":[12.860913,50.706782],"type":"Point"},"properties":{"osm_id":"3443627739","tag":{"amenity":"recycling","recycling:glass_bottles":"yes","recycling_type":"container"}},"type":"Feature"},
	{"geometry":{"coordinates":[12.884055,50.719448],"type":"Point"},"properties":{"osm_id":"3452122624","tag":{"amenity":"waste_basket"}},"type":"Feature"},
	{"geometry":{"coordinates":[12.848915,50.696252],"type":"Point"},"properties":{"osm_id":"3666337847","tag":{"amenity":"waste_basket"}},"type":"Feature"},
	{"geometry":{"coordinates":[12.848989,50.696341],"type":"Point"},"properties":{"osm_id":"3666337848","tag":{"amenity":"waste_basket"}},"type":"Feature"},
	{"geometry":{"coordinates":[12.848042,50.699961],"type":"Point"},"properties":{"osm_id":"3710799784","tag":{"amenity":"waste_basket"}},"type":"Feature"},
	{"geometry":{"coordinates":[12.848284,50.700035],"type":"Point"},"properties":{"osm_id":"3710799785","tag":{"amenity":"waste_basket"}},"type":"Feature"},
	{"geometry":{"coordinates":[12.845043,50.698452],"type":"Point"},"properties":{"osm_id":"3964616308","tag":{"amenity":"waste_basket"}},"type":"Feature"},
	{"geometry":{"coordinates":[12.84739,50.692736],"type":"Point"},"properties":{"osm_id":"4095557400","tag":{"amenity":"waste_basket"}},"type":"Feature"},
	{"geometry":{"coordinates":[12.864189,50.708424],"type":"Point"},"properties":{"osm_id":"4179422819","tag":{"amenity":"waste_basket","waste":"dog_excrement"}},"type":"Feature"},
	{"geometry":{"coordinates":[12.865069,50.708619],"type":"Point"},"properties":{"osm_id":"4179422820","tag":{"amenity":"waste_basket"}},"type":"Feature"},
	{"geometry":{"coordinates":[12.849578,50.705624],"type":"Point"},"properties":{"osm_id":"4189867584","tag":{"amenity":"waste_basket"}},"type":"Feature"},
	{"geometry":{"coordinates":[12.847407,50.700505],"type":"Point"},"properties":{"osm_id":"4396253385","tag":{"amenity":"waste_basket"}},"type":"Feature"},
	{"geometry":{"coordinates":[12.848084,50.695403],"type":"Point"},"properties":{"osm_id":"4471457471","tag":{"amenity":"waste_basket"}},"type":"Feature"},
	{"geometry":{"coordinates":[12.848218,50.695574],"type":"Point"},"properties":{"osm_id":"4471457472","tag":{"amenity":"waste_basket"}},"type":"Feature"},
	{"geometry":{"coordinates":[12.848294,50.695915],"type":"Point"},"properties":{"osm_id":"4471457473","tag":{"amenity":"waste_basket"}},"type":"Feature"},
	{"geometry":{"coordinates":[12.904801,50.72568],"type":"Point"},"properties":{"osm_id":"4787006485","tag":{"amenity":"recycling","recycling:glass_bottles":"yes","recycling_type":"container"}},"type":"Feature"},
	{"geometry":{"coordinates":[12.915151,50.682661],"type":"Point"},"properties":{"osm_id":"4869685932","tag":{"amenity":"recycling","recycling:glass":"yes"}},"type":"Feature"},
	{"geometry":{"coordinates":[12.901384,50.691606],"type":"Point"},"properties":{"osm_id":"6538329965","tag":{"amenity":"recycling","recycling:clothes":"yes","recycling:glass_bottles":"yes","recycling_type":"container"}},"type":"Feature"},
	{"geometry":{"coordinates":[12.845595,50.696522],"type":"Point"},"properties":{"osm_id":"6984600715","tag":{"amenity":"waste_basket"}},"type":"Feature"},
	{"geometry":{"coordinates":[12.84788,50.70638],"type":"Point"},"properties":{"osm_id":"7126936135","tag":{"amenity":"waste_basket"}},"type":"Feature"},
	{"geometry":{"coordinates":[12.847808,50.706384],"type":"Point"},"properties":{"osm_id":"7126936137","tag":{"amenity":"waste_basket"}},"type":"Feature"},
	{"geometry":{"coordinates":[12.847524,50.706433],"type":"Point"},"properties":{"osm_id":"7126936138","tag":{"amenity":"waste_basket"}},"type":"Feature"},
	{"geometry":{"coordinates":[12.852535,50.704885],"type":"Point"},"properties":{"osm_id":"7603957453","tag":{"amenity":"waste_basket"}},"type":"Feature"}
]
}
