{
"type": "FeatureCollection",
"features": [
	{"geometry":{"coordinates":[7.325257,52.14275],"type":"Point"},"properties":{"osm_id":"366733600","tag":{"amenity":"recycling","mapillary":"zFyZJ2ddkVouKeQXmEDllg","recycling:clothes":"yes","recycling:glass":"yes","recycling_type":"container"}},"type":"Feature"},
	{"geometry":{"coordinates":[7.324869,52.14387],"type":"Point"},"properties":{"osm_id":"366733608","tag":{"amenity":"recycling","mapillary":"Wcy15LCe84sbWBCCqrMPwA","recycling:glass_bottles":"yes","recycling_type":"container"}},"type":"Feature"},
	{"geometry":{"coordinates":[7.335611,52.145049],"type":"Point"},"properties":{"osm_id":"369866064","tag":{"amenity":"recycling","recycling:clothes":"yes","recycling_type":"container"}},"type":"Feature"},
	{"geometry":{"coordinates":[7.337165,52.144759],"type":"Point"},"properties":{"osm_id":"1505087947","tag":{"amenity":"recycling","recycling:clothes":"yes","recycling_type":"container"}},"type":"Feature"},
	{"geometry":{"coordinates":[7.330933,52.147248],"type":"Point"},"properties":{"osm_id":"1505087985","tag":{"amenity":"recycling","operator:clothes":"DRK","recycling:cans":"no","recycling:clothes":"yes","recycling:glass_bottles":"yes","recycling:paper":"no","recycling:plastic":"no","recycling_type":"container"}},"type":"Feature"},
	{"geometry":{"coordinates":[7.314025,52.154724],"type":"Point"},"properties":{"osm_id":"1513344253","tag":{"amenity":"recycling","recycling:clothes":"yes","recycling_type":"container"}},"type":"Feature"},
	{"geometry":{"coordinates":[7.320926,52.142357],"type":"Point"},"properties":{"osm_id":"3104719064","tag":{"amenity":"waste_basket"}},"type":"Feature"},
	{"geometry":{"coordinates":[7.320763,52.142362],"type":"Point"},"properties":{"osm_id":"3104719065","tag":{"amenity":"waste_basket"}},"type":"Feature"},
	{"geometry":{"coordinates":[7.320502,52.142629],"type":"Point"},"properties":{"osm_id":"3104719093","tag":{"amenity":"waste_basket"}},"type":"Feature"},
	{"geometry":{"coordinates":[7.320539,52.142917],"type":"Point"},"properties":{"osm_id":"3104719111","tag":{"amenity":"waste_basket"}},"type":"Feature"},
	{"geometry":{"coordinates":[7.322671,52.142574],"type":"Point"},"properties":{"osm_id":"3105436154","tag":{"amenity":"waste_basket"}},"type":"Feature"},
	{"geometry":{"coordinates":[7.3227,52.142953],"type":"Point"},"properties":{"osm_id":"3105436161","tag":{"amenity":"waste_basket"}},"type":"Feature"},
	{"geometry":{"coordinates":[7.322223,52.142174],"type":"Point"},"properties":{"osm_id":"3121049723","tag":{"amenity":"waste_basket","mapillary":"HmxAQl2smORQTm7Gmf6FvQ"}},"type":"Feature"},
	{"geometry":{"coordinates":[7.321114,52.142599],"type":"Point"},"properties":{"osm_id":"3121049728","tag":{"amenity":"waste_basket","mapillary":"_iSyj7d1uui8cGfZ77t6GQ"}},"type":"Feature"},
	{"geometry":{"coordinates":[7.297615,52.10881],"type":"Point"},"properties":{"osm_id":"3135247018","tag":{"amenity":"recycling","recycling:glass":"yes","recycling:glass_bottles":"yes","recycling_type":"container"}},"type":"Feature"},
	{"geometry":{"coordinates":[7.323551,52.142668],"type":"Point"},"properties":{"osm_id":"4539700409","tag":{"amenity":"waste_basket","mapillary":"b1QAb0WOGO8PJSL9WcaJXA"}},"type":"Feature"},
	{"geometry":{"coordinates":[7.321285,52.142496],"type":"Point"},"properties":{"osm_id":"4919067412","tag":{"amenity":"waste_basket","mapillary":"XwOLXsONAFMRER-XnL0tfQ"}},"type":"Feature"},
	{"geometry":{"coordinates":[7.320544,52.142376],"type":"Point"},"properties":{"osm_id":"4919067581","tag":{"amenity":"waste_basket","mapillary":"xx5m0NCYWlqc4xfM-L4bCg"}},"type":"Feature"},
	{"geometry":{"coordinates":[7.320322,52.142153],"type":"Point"},"properties":{"osm_id":"4919661007","tag":{"amenity":"waste_basket","mapillary":"go11gDoQWplieEShml-zaw"}},"type":"Feature"},
	{"geometry":{"coordinates":[7.320768,52.142047],"type":"Point"},"properties":{"osm_id":"4919661025","tag":{"amenity":"waste_basket","mapillary":"ZqiMMsUhqKeqIFgS2qGX0Q"}},"type":"Feature"},
	{"geometry":{"coordinates":[7.319995,52.14284],"type":"Point"},"properties":{"osm_id":"4919661150","tag":{"amenity":"waste_basket","mapillary":"A_9-H-haunfFW9VifueAfQ"}},"type":"Feature"},
	{"geometry":{"coordinates":[7.321075,52.142599],"type":"Point"},"properties":{"osm_id":"4938289485","tag":{"amenity":"waste_basket","mapillary":"mlc0PzSf5bn7bccLf7JjYA"}},"type":"Feature"},
	{"geometry":{"coordinates":[7.321768,52.142606],"type":"Point"},"properties":{"osm_id":"4938967446","tag":{"amenity":"waste_basket","mapillary":"qaHNr1Mo8P9qBgLolxHihg"}},"type":"Feature"},
	{"geometry":{"coordinates":[7.375916,52.124873],"type":"Point"},"properties":{"name":"Altglascontainer","osm_id":"6161537962","tag":{"amenity":"recycling"}},"type":"Feature"}
]
}
