{
"type": "FeatureCollection",
"features": [
	{"geometry":{"coordinates":[7.333459,51.96383],"type":"Point"},"properties":{"osm_id":"738960384","tag":{"amenity":"recycling"}},"type":"Feature"},
	{"geometry":{"coordinates":[7.374944,51.954359],"type":"Point"},"properties":{"osm_id":"800886534","tag":{"amenity":"recycling","recycling:glass":"yes","recycling:glass_bottles":"yes","recycling_type":"container"}},"type":"Feature"},
	{"geometry":{"coordinates":[7.353262,51.955737],"type":"Point"},"properties":{"osm_id":"2638513125","tag":{"amenity":"waste_basket"}},"type":"Feature"},
	{"geometry":{"coordinates":[7.380412,51.957345],"type":"Point"},"properties":{"osm_id":"3098828236","tag":{"amenity":"waste_basket"}},"type":"Feature"},
	{"geometry":{"coordinates":[7.296915,51.981705],"type":"Point"},"properties":{"osm_id":"7529735285","tag":{"amenity":"waste_basket"}},"type":"Feature"},
	{"geometry":{"coordinates":[7.297201,51.981423],"type":"Point"},"properties":{"osm_id":"7529735286","tag":{"amenity":"waste_basket"}},"type":"Feature"},
	{"geometry":{"coordinates":[7.297311,51.981336],"type":"Point"},"properties":{"osm_id":"7529735289","tag":{"amenity":"waste_basket"}},"type":"Feature"},
	{"geometry":{"coordinates":[7.297807,51.98111],"type":"Point"},"properties":{"osm_id":"7529735300","tag":{"amenity":"waste_basket"}},"type":"Feature"},
	{"geometry":{"coordinates":[7.297536,51.981127],"type":"Point"},"properties":{"osm_id":"7529735301","tag":{"amenity":"waste_basket"}},"type":"Feature"},
	{"geometry":{"coordinates":[7.365885,51.950887],"type":"Point"},"properties":{"osm_id":"7576182784","tag":{"amenity":"waste_basket"}},"type":"Feature"},
	{"geometry":{"coordinates":[7.372093,51.954992],"type":"Point"},"properties":{"osm_id":"7576248486","tag":{"amenity":"waste_basket"}},"type":"Feature"},
	{"geometry":{"coordinates":[7.381115,51.951718],"type":"Point"},"properties":{"osm_id":"8004075613","tag":{"amenity":"waste_basket"}},"type":"Feature"},
	{"geometry":{"coordinates":[7.376417,51.960856],"type":"Point"},"properties":{"osm_id":"8004075625","tag":{"amenity":"waste_basket"}},"type":"Feature"},
	{"geometry":{"coordinates":[7.297346,51.978463],"type":"Point"},"properties":{"osm_id":"8513858968","tag":{"amenity":"recycling","recycling:clothes":"yes","recycling:glass_bottles":"yes","recycling_type":"container"}},"type":"Feature"},
	{"geometry":{"coordinates":[7.297383,51.978465],"type":"Point"},"properties":{"osm_id":"8513858969","tag":{"amenity":"recycling","recycling:electrical_items":"yes","recycling_type":"container"}},"type":"Feature"}
]
}
