{
"type": "FeatureCollection",
"features": [
	{"geometry":{"coordinates":[7.295615,51.835706],"type":"Point"},"properties":{"osm_id":"300118851","tag":{"amenity":"recycling","location":"overground","recycling_type":"container"}},"type":"Feature"},
	{"geometry":{"coordinates":[7.296946,51.830351],"type":"Point"},"properties":{"osm_id":"2715557920","tag":{"amenity":"recycling","mapillary":"IqbKmk6LNON7UmVIZGI1zQ","recycling:clothes":"yes","recycling_type":"container","survey:date":"2018-03-31"}},"type":"Feature"},
	{"geometry":{"coordinates":[7.295471,51.827555],"type":"Point"},"properties":{"osm_id":"8019267599","tag":{"amenity":"waste_basket"}},"type":"Feature"},
	{"geometry":{"coordinates":[7.295121,51.827368],"type":"Point"},"properties":{"osm_id":"8019267603","tag":{"amenity":"waste_basket"}},"type":"Feature"},
	{"geometry":{"coordinates":[7.295099,51.827356],"type":"Point"},"properties":{"osm_id":"8019267604","tag":{"amenity":"waste_basket"}},"type":"Feature"},
	{"geometry":{"coordinates":[7.294985,51.827289],"type":"Point"},"properties":{"osm_id":"8019267605","tag":{"amenity":"waste_basket"}},"type":"Feature"}
]
}
