{
"type": "FeatureCollection",
"features": [
	{"geometry":{"coordinates":[7.367344,51.506759],"type":"Point"},"properties":{"name":"Recyclinghof Marten","osm_id":"251189286","tag":{"addr:city":"Dortmund","addr:housenumber":"47","addr:postcode":"44379","addr:street":"Germaniastra\u00c3\u009fe","amenity":"recycling","email":"info@edg.de","opening_hours":"Tu 08:30-17:00; We-Fr 09:00-17:00; Sa 08:00-13:30; Su,Mo,PH off","operator":"Entsorgung Dortmund GmbH","payment:cash":"yes","payment:girocard":"yes","payment:maestro":"yes","phone":"+49 231 9111 111","recycling:aluminium":"yes","recycling:batteries":"yes","recycling:cans":"yes","recycling:cardboard":"yes","recycling:cartons":"yes","recycling:clothes":"yes","recycling:electrical_appliances":"yes","recycling:glass":"yes","recycling:green_waste":"yes","recycling:organic":"yes","recycling:paper":"yes","recycling:paper_packaging":"yes","recycling:plastic":"yes","recycling:plastic_packaging":"yes","recycling:scrap_metal":"yes","recycling:shoes":"yes","recycling:small_appliances":"yes","recycling:waste":"yes","recycling:wood":"yes","recycling_type":"centre","website":"https://www.edg.de/de/edg-konzern/betriebe-und-anlagen/recyclinghoefe.htm"}},"type":"Feature"},
	{"geometry":{"coordinates":[7.314485,51.505379],"type":"Point"},"properties":{"osm_id":"262282203","tag":{"amenity":"recycling","location":"overground","recycling:clothes":"yes","recycling:glass_bottles":"yes","recycling:paper":"yes","recycling_type":"container"}},"type":"Feature"},
	{"geometry":{"coordinates":[7.316928,51.49375],"type":"Point"},"properties":{"osm_id":"262282244","tag":{"amenity":"recycling","recycling:glass_bottles":"yes","recycling:paper":"yes","recycling_type":"container"}},"type":"Feature"},
	{"geometry":{"coordinates":[7.342741,51.496893],"type":"Point"},"properties":{"osm_id":"262282362","tag":{"amenity":"recycling","recycling_type":"container"}},"type":"Feature"},
	{"geometry":{"coordinates":[7.365905,51.489662],"type":"Point"},"properties":{"osm_id":"262784721","tag":{"amenity":"recycling","location":"overground","recycling:glass_bottles":"yes","recycling:paper":"yes","recycling_type":"container"}},"type":"Feature"},
	{"geometry":{"coordinates":[7.326045,51.506821],"type":"Point"},"properties":{"osm_id":"272241488","tag":{"amenity":"recycling","location":"overground","recycling:glass":"no","recycling:glass_bottles":"yes","recycling_type":"container"}},"type":"Feature"},
	{"geometry":{"coordinates":[7.299929,51.48519],"type":"Point"},"properties":{"osm_id":"291550083","tag":{"amenity":"recycling","recycling:clothes":"yes","recycling:glass":"yes","recycling_type":"container"}},"type":"Feature"},
	{"geometry":{"coordinates":[7.331338,51.466475],"type":"Point"},"properties":{"osm_id":"292521341","tag":{"amenity":"recycling","recycling:clothes":"yes","recycling:glass_bottles":"yes","recycling:shoes":"yes","recycling_type":"container"}},"type":"Feature"},
	{"geometry":{"coordinates":[7.359624,51.485742],"type":"Point"},"properties":{"osm_id":"295880437","tag":{"amenity":"recycling","location":"overground","recycling:clothes":"yes","recycling:glass_bottles":"yes","recycling:paper":"yes","recycling_type":"container"}},"type":"Feature"},
	{"geometry":{"coordinates":[7.378139,51.472345],"type":"Point"},"properties":{"osm_id":"299563101","tag":{"amenity":"recycling","location":"overground","operator":"AHE","recycling:cardboard":"yes","recycling:clothes":"yes","recycling:glass_bottles":"yes","recycling:paper":"yes","recycling:shoes":"yes","recycling_type":"container","wheelchair":"yes"}},"type":"Feature"},
	{"geometry":{"coordinates":[7.381187,51.486425],"type":"Point"},"properties":{"osm_id":"301215890","tag":{"amenity":"recycling","location":"overground","recycling:clothes":"yes","recycling:glass_bottles":"yes","recycling:paper":"yes","recycling_type":"container"}},"type":"Feature"},
	{"geometry":{"coordinates":[7.358315,51.466707],"type":"Point"},"properties":{"osm_id":"303759335","tag":{"amenity":"recycling","location":"overground","operator":"AHE","recycling:cardboard":"yes","recycling:glass_bottles":"yes","recycling:paper":"yes","recycling_type":"container","wheelchair":"yes"}},"type":"Feature"},
	{"geometry":{"coordinates":[7.358127,51.46789],"type":"Point"},"properties":{"osm_id":"303759336","tag":{"amenity":"recycling","location":"overground","operator":"AHE","recycling:cardboard":"yes","recycling:glass_bottles":"yes","recycling:paper":"yes","recycling_type":"container","wheelchair":"yes"}},"type":"Feature"},
	{"geometry":{"coordinates":[7.304454,51.460923],"type":"Point"},"properties":{"osm_id":"304509293","tag":{"amenity":"recycling","recycling:clothes":"yes","recycling:glass_bottles":"yes","recycling:paper":"yes","recycling_type":"container"}},"type":"Feature"},
	{"geometry":{"coordinates":[7.365915,51.464739],"type":"Point"},"properties":{"osm_id":"305900499","tag":{"amenity":"recycling","location":"overground","operator":"AHE","recycling:cardboard":"yes","recycling:clothes":"yes","recycling:glass_bottles":"yes","recycling:paper":"yes","recycling:shoes":"yes","recycling_type":"container","wheelchair":"yes"}},"type":"Feature"},
	{"geometry":{"coordinates":[7.351618,51.456106],"type":"Point"},"properties":{"osm_id":"305953017","tag":{"amenity":"recycling","image":"https://web.archive.org/web/20161030173926if_/https://d1cuyjsrcm0gby.cloudfront.net/RBnlV3MYeIypt96L431bCg/thumb-2048.jpg","location":"overground","mapillary":"RBnlV3MYeIypt96L431bCg","material":"metal","operator":"AHE;Deutsches Rotes Kreuz","recycling:cardboard":"yes","recycling:clothes":"yes","recycling:glass_bottles":"yes","recycling:paper":"yes","recycling:shoes":"yes","recycling_type":"container","wheelchair":"yes"}},"type":"Feature"},
	{"geometry":{"coordinates":[7.375096,51.50365],"type":"Point"},"properties":{"osm_id":"313749856","tag":{"amenity":"recycling","recycling:glass_bottles":"yes"}},"type":"Feature"},
	{"geometry":{"coordinates":[7.377091,51.487521],"type":"Point"},"properties":{"osm_id":"669074206","tag":{"amenity":"recycling","recycling:clothes":"yes"}},"type":"Feature"},
	{"geometry":{"coordinates":[7.30888,51.504747],"type":"Point"},"properties":{"osm_id":"675194306","tag":{"amenity":"recycling","location":"overground","recycling:glass_bottles":"yes","recycling_type":"container"}},"type":"Feature"},
	{"geometry":{"coordinates":[7.35473,51.495529],"type":"Point"},"properties":{"osm_id":"676411640","tag":{"amenity":"recycling","layer":"1","recycling:glass_bottles":"yes"}},"type":"Feature"},
	{"geometry":{"coordinates":[7.316934,51.504603],"type":"Point"},"properties":{"osm_id":"679480305","tag":{"amenity":"recycling","location":"overground","recycling:glass_bottles":"yes","recycling_type":"container"}},"type":"Feature"},
	{"geometry":{"coordinates":[7.365899,51.504699],"type":"Point"},"properties":{"osm_id":"685222250","tag":{"amenity":"recycling","recycling:clothes":"yes","recycling:glass_bottles":"yes","recycling:paper":"yes","recycling_type":"container"}},"type":"Feature"},
	{"geometry":{"coordinates":[7.327285,51.501597],"type":"Point"},"properties":{"osm_id":"689342204","tag":{"amenity":"recycling","recycling:clothes":"yes","recycling:glass_bottles":"yes","recycling:paper":"yes","recycling:shoes":"yes"}},"type":"Feature"},
	{"geometry":{"coordinates":[7.325822,51.493219],"type":"Point"},"properties":{"osm_id":"691570726","tag":{"amenity":"recycling","location":"overground","recycling_type":"container"}},"type":"Feature"},
	{"geometry":{"coordinates":[7.324918,51.504151],"type":"Point"},"properties":{"osm_id":"693417803","tag":{"amenity":"recycling","recycling:glass_bottles":"yes","recycling:paper":"yes"}},"type":"Feature"},
	{"geometry":{"coordinates":[7.337511,51.500978],"type":"Point"},"properties":{"osm_id":"693817740","tag":{"amenity":"recycling","recycling:glass_bottles":"yes","recycling:paper":"yes","recycling_type":"container"}},"type":"Feature"},
	{"geometry":{"coordinates":[7.332874,51.50156],"type":"Point"},"properties":{"osm_id":"693901988","tag":{"amenity":"recycling","recycling:glass_bottles":"yes"}},"type":"Feature"},
	{"geometry":{"coordinates":[7.342011,51.50053],"type":"Point"},"properties":{"osm_id":"693975763","tag":{"amenity":"recycling"}},"type":"Feature"},
	{"geometry":{"coordinates":[7.338288,51.503021],"type":"Point"},"properties":{"osm_id":"694285881","tag":{"amenity":"recycling","recycling:glass_bottles":"yes","recycling:paper":"yes"}},"type":"Feature"},
	{"geometry":{"coordinates":[7.350651,51.499768],"type":"Point"},"properties":{"osm_id":"695337169","tag":{"amenity":"recycling","location":"overground","recycling:clothes":"yes","recycling:glass_bottles":"yes","recycling:paper":"yes","recycling_type":"container"}},"type":"Feature"},
	{"geometry":{"coordinates":[7.376243,51.484865],"type":"Point"},"properties":{"osm_id":"698371559","tag":{"amenity":"recycling","location":"overground","recycling:glass_bottles":"yes","recycling_type":"container"}},"type":"Feature"},
	{"geometry":{"coordinates":[7.341499,51.507069],"type":"Point"},"properties":{"osm_id":"698789196","tag":{"amenity":"recycling","recycling:glass_bottles":"yes","recycling:paper":"yes"}},"type":"Feature"},
	{"geometry":{"coordinates":[7.338974,51.506839],"type":"Point"},"properties":{"osm_id":"698803783","tag":{"amenity":"recycling","recycling:glass_bottles":"yes","recycling:paper":"yes"}},"type":"Feature"},
	{"geometry":{"coordinates":[7.326647,51.496908],"type":"Point"},"properties":{"osm_id":"699688203","tag":{"amenity":"recycling","recycling:glass_bottles":"yes","recycling:paper":"yes"}},"type":"Feature"},
	{"geometry":{"coordinates":[7.324837,51.488814],"type":"Point"},"properties":{"osm_id":"701287995","tag":{"amenity":"recycling","location":"overground","recycling:clothes":"yes","recycling:paper":"yes","recycling_type":"container"}},"type":"Feature"},
	{"geometry":{"coordinates":[7.324766,51.48881],"type":"Point"},"properties":{"osm_id":"701847164","tag":{"amenity":"recycling","location":"overground","recycling:clothes":"yes","recycling_type":"container"}},"type":"Feature"},
	{"geometry":{"coordinates":[7.338463,51.496686],"type":"Point"},"properties":{"osm_id":"705008286","tag":{"amenity":"recycling","recycling:glass_bottles":"yes","recycling:paper":"yes","recycling_type":"container"}},"type":"Feature"},
	{"geometry":{"coordinates":[7.368219,51.499088],"type":"Point"},"properties":{"osm_id":"708872238","tag":{"amenity":"recycling","recycling:glass_bottles":"yes","recycling:paper":"yes"}},"type":"Feature"},
	{"geometry":{"coordinates":[7.348451,51.497466],"type":"Point"},"properties":{"osm_id":"710900963","tag":{"amenity":"recycling","recycling:glass_bottles":"yes","recycling:paper":"yes","recycling_type":"container"}},"type":"Feature"},
	{"geometry":{"coordinates":[7.379371,51.499893],"type":"Point"},"properties":{"osm_id":"713642375","tag":{"amenity":"recycling","recycling:glass_bottles":"yes","recycling:paper":"yes"}},"type":"Feature"},
	{"geometry":{"coordinates":[7.373101,51.507862],"type":"Point"},"properties":{"osm_id":"723346670","tag":{"amenity":"recycling","recycling:glass_bottles":"yes","recycling:paper":"yes","recycling_type":"container"}},"type":"Feature"},
	{"geometry":{"coordinates":[7.361561,51.498669],"type":"Point"},"properties":{"osm_id":"724522431","tag":{"amenity":"recycling","recycling:glass_bottles":"yes"}},"type":"Feature"},
	{"geometry":{"coordinates":[7.369223,51.484192],"type":"Point"},"properties":{"osm_id":"726697409","tag":{"amenity":"recycling","recycling:glass_bottles":"yes","recycling:paper":"yes"}},"type":"Feature"},
	{"geometry":{"coordinates":[7.381887,51.485894],"type":"Point"},"properties":{"osm_id":"745956064","tag":{"amenity":"recycling"}},"type":"Feature"},
	{"geometry":{"coordinates":[7.321868,51.464903],"type":"Point"},"properties":{"osm_id":"816428483","tag":{"amenity":"recycling","recycling:clothes":"yes","recycling:glass_bottles":"yes","recycling_type":"container"}},"type":"Feature"},
	{"geometry":{"coordinates":[7.30314,51.49626],"type":"Point"},"properties":{"osm_id":"824720877","tag":{"amenity":"recycling","recycling:clothes":"yes","recycling:glass_bottles":"yes","recycling_type":"container"}},"type":"Feature"},
	{"geometry":{"coordinates":[7.355563,51.503496],"type":"Point"},"properties":{"osm_id":"862181042","tag":{"amenity":"recycling","recycling:glass_bottles":"yes","recycling:paper":"yes"}},"type":"Feature"},
	{"geometry":{"coordinates":[7.362274,51.497783],"type":"Point"},"properties":{"osm_id":"866398624","tag":{"amenity":"recycling","recycling:clothes":"yes","recycling:shoes":"yes"}},"type":"Feature"},
	{"geometry":{"coordinates":[7.356904,51.497754],"type":"Point"},"properties":{"osm_id":"867230072","tag":{"amenity":"recycling","location":"overground","recycling:glass_bottles":"yes","recycling:paper":"yes","recycling_type":"container"}},"type":"Feature"},
	{"geometry":{"coordinates":[7.367978,51.470611],"type":"Point"},"properties":{"osm_id":"879033153","tag":{"amenity":"recycling","location":"overground","operator":"AHE;Deutsches Rotes Kreuz","recycling:cardboard":"yes","recycling:clothes":"yes","recycling:glass_bottles":"yes","recycling:paper":"yes","recycling:shoes":"yes","recycling_type":"container","wheelchair":"yes"}},"type":"Feature"},
	{"geometry":{"coordinates":[7.367208,51.507059],"type":"Point"},"properties":{"barrier":"gate","osm_id":"903140669"},"type":"Feature"},
	{"geometry":{"coordinates":[7.332798,51.499589],"type":"Point"},"properties":{"osm_id":"913971701","tag":{"amenity":"recycling","recycling:clothes":"yes","recycling:shoes":"yes"}},"type":"Feature"},
	{"geometry":{"coordinates":[7.32488,51.508537],"type":"Point"},"properties":{"osm_id":"915819035","tag":{"amenity":"recycling","location":"overground","recycling:paper":"yes","recycling_type":"container"}},"type":"Feature"},
	{"geometry":{"coordinates":[7.336909,51.456881],"type":"Point"},"properties":{"osm_id":"948095473","tag":{"amenity":"recycling","location":"overground","operator":"AHE","recycling:cardboard":"yes","recycling:clothes":"yes","recycling:glass_bottles":"yes","recycling:paper":"yes","recycling:shoes":"yes","recycling_type":"container","wheelchair":"yes"}},"type":"Feature"},
	{"geometry":{"coordinates":[7.318459,51.504463],"type":"Point"},"properties":{"osm_id":"1003169639","tag":{"amenity":"recycling","location":"overground","recycling:clothes":"yes","recycling:glass_bottles":"yes","recycling:paper":"yes","recycling:shoes":"yes","recycling_type":"container"}},"type":"Feature"},
	{"geometry":{"coordinates":[7.343509,51.490549],"type":"Point"},"properties":{"osm_id":"1028780580","tag":{"amenity":"recycling","recycling:clothes":"yes","recycling:shoes":"yes","recycling_type":"container"}},"type":"Feature"},
	{"geometry":{"coordinates":[7.34398,51.481551],"type":"Point"},"properties":{"osm_id":"1028780602","tag":{"amenity":"recycling","recycling:clothes":"yes","recycling:glass_bottles":"yes","recycling:shoes":"yes","recycling_type":"container"}},"type":"Feature"},
	{"geometry":{"coordinates":[7.328268,51.477315],"type":"Point"},"properties":{"osm_id":"1029447927","tag":{"amenity":"recycling","opening_hours":"Mo-Sa 07:00-20:00; PH off","recycling:glass_bottles":"yes","recycling:shoes":"yes","recycling_type":"container"}},"type":"Feature"},
	{"geometry":{"coordinates":[7.315503,51.480877],"type":"Point"},"properties":{"osm_id":"1029904576","tag":{"amenity":"recycling","recycling:clothes":"yes","recycling:glass_bottles":"yes","recycling:shoes":"yes","recycling_type":"container"}},"type":"Feature"},
	{"geometry":{"coordinates":[7.332186,51.48702],"type":"Point"},"properties":{"osm_id":"1038212654","tag":{"amenity":"recycling","recycling:clothes":"yes","recycling:glass_bottles":"yes","recycling:shoes":"yes","recycling_type":"container"}},"type":"Feature"},
	{"geometry":{"coordinates":[7.317733,51.455822],"type":"Point"},"properties":{"osm_id":"1310355163","tag":{"amenity":"recycling","location":"overground","opening_hours":"Mo-Sa 07:00-20:00; PH closed","operator":"AHE","recycling:cardboard":"yes","recycling:clothes":"yes","recycling:glass_bottles":"yes","recycling:paper":"yes","recycling:shoes":"yes","recycling_type":"container","wheelchair":"yes"}},"type":"Feature"},
	{"geometry":{"coordinates":[7.302547,51.456541],"type":"Point"},"properties":{"osm_id":"1351534413","tag":{"amenity":"waste_basket"}},"type":"Feature"},
	{"geometry":{"coordinates":[7.31977,51.462695],"type":"Point"},"properties":{"osm_id":"1641869366","tag":{"amenity":"recycling","recycling:clothes":"yes","recycling_type":"container"}},"type":"Feature"},
	{"geometry":{"coordinates":[7.324128,51.465761],"type":"Point"},"properties":{"osm_id":"1737375930","tag":{"amenity":"recycling","operator":"Profittex","recycling:clothes":"yes","recycling_type":"container"}},"type":"Feature"},
	{"geometry":{"coordinates":[7.324115,51.465768],"type":"Point"},"properties":{"osm_id":"1737375931","tag":{"amenity":"recycling","operator":"Profittex","recycling:shoes":"yes","recycling_type":"container"}},"type":"Feature"},
	{"geometry":{"coordinates":[7.308215,51.47032],"type":"Point"},"properties":{"osm_id":"1821088523","tag":{"amenity":"recycling","recycling:clothes":"yes","recycling:glass_bottles":"yes","recycling_type":"container"}},"type":"Feature"},
	{"geometry":{"coordinates":[7.305023,51.466713],"type":"Point"},"properties":{"osm_id":"1844004945","tag":{"amenity":"recycling","opening_hours":"Mo-Sa 07:00-20:00; PH closed","recycling:glass_bottles":"yes","recycling_type":"container"}},"type":"Feature"},
	{"geometry":{"coordinates":[7.338414,51.479708],"type":"Point"},"properties":{"osm_id":"1907544170","tag":{"amenity":"waste_basket"}},"type":"Feature"},
	{"geometry":{"coordinates":[7.343352,51.478589],"type":"Point"},"properties":{"osm_id":"1907556360","tag":{"amenity":"waste_basket"}},"type":"Feature"},
	{"geometry":{"coordinates":[7.348031,51.474189],"type":"Point"},"properties":{"osm_id":"1907561904","tag":{"amenity":"waste_basket"}},"type":"Feature"},
	{"geometry":{"coordinates":[7.349516,51.467361],"type":"Point"},"properties":{"osm_id":"1907571972","tag":{"amenity":"waste_basket"}},"type":"Feature"},
	{"geometry":{"coordinates":[7.345558,51.460803],"type":"Point"},"properties":{"osm_id":"1907604757","tag":{"amenity":"waste_basket","waste":"trash"}},"type":"Feature"},
	{"geometry":{"coordinates":[7.346567,51.462071],"type":"Point"},"properties":{"osm_id":"1907604764","tag":{"amenity":"waste_basket","waste":"trash"}},"type":"Feature"},
	{"geometry":{"coordinates":[7.297225,51.470855],"type":"Point"},"properties":{"osm_id":"1932339231","tag":{"amenity":"recycling","opening_hours":"Mo-Sa 07:00-20:00; PH closed","recycling:glass_bottles":"yes","recycling_type":"container"}},"type":"Feature"},
	{"geometry":{"coordinates":[7.365111,51.467224],"type":"Point"},"properties":{"osm_id":"2304627136","tag":{"amenity":"waste_basket"}},"type":"Feature"},
	{"geometry":{"coordinates":[7.365334,51.466736],"type":"Point"},"properties":{"osm_id":"2304627813","tag":{"amenity":"waste_basket"}},"type":"Feature"},
	{"geometry":{"coordinates":[7.365709,51.467067],"type":"Point"},"properties":{"osm_id":"2304632343","tag":{"amenity":"waste_basket"}},"type":"Feature"},
	{"geometry":{"coordinates":[7.365207,51.46715],"type":"Point"},"properties":{"osm_id":"2304633118","tag":{"amenity":"waste_basket"}},"type":"Feature"},
	{"geometry":{"coordinates":[7.373413,51.473402],"type":"Point"},"properties":{"osm_id":"2324579976","tag":{"amenity":"recycling","location":"overground","operator":"AHE;Deutsches Rotes Kreuz","recycling:cardboard":"yes","recycling:clothes":"yes","recycling:glass_bottles":"yes","recycling:paper":"yes","recycling:shoes":"yes","recycling_type":"container","wheelchair":"yes"}},"type":"Feature"},
	{"geometry":{"coordinates":[7.309797,51.476272],"type":"Point"},"properties":{"osm_id":"2346764199","tag":{"amenity":"recycling","opening_hours":"Mo-Sa 07:00-20:00; PH closed","recycling:glass_bottles":"yes","recycling_type":"container"}},"type":"Feature"},
	{"geometry":{"coordinates":[7.374015,51.456116],"type":"Point"},"properties":{"osm_id":"2348221121","tag":{"amenity":"recycling","location":"overground","operator":"AHE","recycling:cans":"no","recycling:cardboard":"yes","recycling:clothes":"yes","recycling:glass_bottles":"yes","recycling:paper":"yes","recycling:shoes":"yes","recycling_type":"container","wheelchair":"yes"}},"type":"Feature"},
	{"geometry":{"coordinates":[7.369512,51.481772],"type":"Point"},"properties":{"osm_id":"2457069632","tag":{"amenity":"recycling","colour":"silver","location":"overground","material":"metal","operator":"AHE","recycling:cardboard":"yes","recycling:glass_bottles":"yes","recycling:paper":"yes","recycling_type":"container","wheelchair":"yes"}},"type":"Feature"},
	{"geometry":{"coordinates":[7.370092,51.471006],"type":"Point"},"properties":{"osm_id":"2708136133","tag":{"amenity":"waste_basket"}},"type":"Feature"},
	{"geometry":{"coordinates":[7.338658,51.454796],"type":"Point"},"properties":{"osm_id":"2879045522","tag":{"amenity":"waste_basket","waste":"trash"}},"type":"Feature"},
	{"geometry":{"coordinates":[7.363596,51.467497],"type":"Point"},"properties":{"osm_id":"3161921480","tag":{"amenity":"recycling","location":"overground","operator":"Nepal-Schulprojekt","recycling:clothes":"yes","recycling:shoes":"yes","recycling_type":"container","wheelchair":"yes"}},"type":"Feature"},
	{"geometry":{"coordinates":[7.36606,51.46774],"type":"Point"},"properties":{"osm_id":"3161921512","tag":{"amenity":"waste_basket"}},"type":"Feature"},
	{"geometry":{"coordinates":[7.36829,51.46885],"type":"Point"},"properties":{"osm_id":"3161921524","tag":{"amenity":"waste_basket","operator":"Stadt Witten","operator:type":"public","operator:wikidata":"Q3764"}},"type":"Feature"},
	{"geometry":{"coordinates":[7.37262,51.471402],"type":"Point"},"properties":{"osm_id":"3161921674","tag":{"amenity":"waste_basket"}},"type":"Feature"},
	{"geometry":{"coordinates":[7.372605,51.471547],"type":"Point"},"properties":{"osm_id":"3161921676","tag":{"amenity":"waste_basket","operator":"Stadt Witten","operator:type":"public","operator:wikidata":"Q3764"}},"type":"Feature"},
	{"geometry":{"coordinates":[7.364504,51.472591],"type":"Point"},"properties":{"osm_id":"3163405361","tag":{"amenity":"waste_basket"}},"type":"Feature"},
	{"geometry":{"coordinates":[7.367146,51.472658],"type":"Point"},"properties":{"osm_id":"3163405369","tag":{"amenity":"waste_basket"}},"type":"Feature"},
	{"geometry":{"coordinates":[7.36761,51.472676],"type":"Point"},"properties":{"osm_id":"3163405372","tag":{"amenity":"recycling","location":"overground","operator":"AHE;Deutsches Rotes Kreuz","recycling:cardboard":"yes","recycling:clothes":"yes","recycling:glass_bottles":"yes","recycling:paper":"yes","recycling:shoes":"yes","recycling_type":"container","wheelchair":"yes"}},"type":"Feature"},
	{"geometry":{"coordinates":[7.369133,51.467418],"type":"Point"},"properties":{"osm_id":"3175282567","tag":{"amenity":"recycling","location":"overground","operator":"AHE;Deutsches Rotes Kreuz","recycling:cardboard":"yes","recycling:clothes":"yes","recycling:glass_bottles":"yes","recycling:paper":"yes","recycling:shoes":"yes","recycling_type":"container","wheelchair":"yes"}},"type":"Feature"},
	{"geometry":{"coordinates":[7.367305,51.470746],"type":"Point"},"properties":{"osm_id":"3175862982","tag":{"amenity":"waste_basket"}},"type":"Feature"},
	{"geometry":{"coordinates":[7.367437,51.470756],"type":"Point"},"properties":{"osm_id":"3175862983","tag":{"amenity":"waste_basket"}},"type":"Feature"},
	{"geometry":{"coordinates":[7.363544,51.46836],"type":"Point"},"properties":{"osm_id":"3176947708","tag":{"amenity":"waste_basket"}},"type":"Feature"},
	{"geometry":{"coordinates":[7.365731,51.468652],"type":"Point"},"properties":{"osm_id":"3176947727","tag":{"amenity":"waste_basket"}},"type":"Feature"},
	{"geometry":{"coordinates":[7.363655,51.468842],"type":"Point"},"properties":{"osm_id":"3176947741","tag":{"amenity":"waste_basket"}},"type":"Feature"},
	{"geometry":{"coordinates":[7.363234,51.469651],"type":"Point"},"properties":{"osm_id":"3176948273","tag":{"amenity":"waste_basket"}},"type":"Feature"},
	{"geometry":{"coordinates":[7.358173,51.468162],"type":"Point"},"properties":{"osm_id":"3178039863","tag":{"amenity":"recycling","colour":"red","location":"overground","material":"metal","opening_hours":"24/7","operator":"Deutsches Rotes Kreuz","operator:abbr":"DRK","operator:wikidata":"Q694104","recycling:clothes":"yes","recycling:shoes":"yes","recycling_type":"container","wheelchair":"yes"}},"type":"Feature"},
	{"geometry":{"coordinates":[7.363421,51.466281],"type":"Point"},"properties":{"osm_id":"3200706007","tag":{"amenity":"waste_basket"}},"type":"Feature"},
	{"geometry":{"coordinates":[7.360217,51.465424],"type":"Point"},"properties":{"osm_id":"3200804414","tag":{"amenity":"waste_basket","operator":"Stadt Witten","operator:type":"public","operator:wikidata":"Q3764"}},"type":"Feature"},
	{"geometry":{"coordinates":[7.36175,51.465628],"type":"Point"},"properties":{"osm_id":"3200804425","tag":{"amenity":"waste_basket"}},"type":"Feature"},
	{"geometry":{"coordinates":[7.362475,51.465855],"type":"Point"},"properties":{"osm_id":"3200804435","tag":{"amenity":"waste_basket"}},"type":"Feature"},
	{"geometry":{"coordinates":[7.358912,51.465892],"type":"Point"},"properties":{"osm_id":"3200804437","tag":{"amenity":"waste_basket"}},"type":"Feature"},
	{"geometry":{"coordinates":[7.358776,51.46603],"type":"Point"},"properties":{"osm_id":"3200804441","tag":{"amenity":"waste_basket","operator":"Stadt Witten","operator:type":"public","operator:wikidata":"Q3764"}},"type":"Feature"},
	{"geometry":{"coordinates":[7.358409,51.466425],"type":"Point"},"properties":{"osm_id":"3200804444","tag":{"amenity":"recycling","location":"overground","operator":"AHE;Deutsches Rotes Kreuz","recycling:cardboard":"yes","recycling:clothes":"yes","recycling:glass_bottles":"yes","recycling:paper":"yes","recycling:shoes":"yes","recycling_type":"container","wheelchair":"yes"}},"type":"Feature"},
	{"geometry":{"coordinates":[7.358037,51.466855],"type":"Point"},"properties":{"osm_id":"3200804448","tag":{"amenity":"waste_basket"}},"type":"Feature"},
	{"geometry":{"coordinates":[7.378926,51.459282],"type":"Point"},"properties":{"osm_id":"4121646929","tag":{"amenity":"waste_basket"}},"type":"Feature"},
	{"geometry":{"coordinates":[7.366927,51.46685],"type":"Point"},"properties":{"osm_id":"4151804776","tag":{"amenity":"waste_basket"}},"type":"Feature"},
	{"geometry":{"coordinates":[7.359042,51.467075],"type":"Point"},"properties":{"osm_id":"4151804781","tag":{"amenity":"waste_basket","support":"pole"}},"type":"Feature"},
	{"geometry":{"coordinates":[7.357214,51.467095],"type":"Point"},"properties":{"osm_id":"4151804782","tag":{"amenity":"waste_basket"}},"type":"Feature"},
	{"geometry":{"coordinates":[7.368113,51.468896],"type":"Point"},"properties":{"osm_id":"4151804785","tag":{"amenity":"waste_basket","colour":"silver","material":"metal","support":"pole"}},"type":"Feature"},
	{"geometry":{"coordinates":[7.371142,51.470732],"type":"Point"},"properties":{"osm_id":"4151805145","tag":{"amenity":"waste_basket","support":"pole"}},"type":"Feature"},
	{"geometry":{"coordinates":[7.371489,51.470791],"type":"Point"},"properties":{"osm_id":"4151805146","tag":{"amenity":"waste_basket"}},"type":"Feature"},
	{"geometry":{"coordinates":[7.373662,51.471993],"type":"Point"},"properties":{"osm_id":"4151805150","tag":{"amenity":"waste_basket","support":"pole"}},"type":"Feature"},
	{"geometry":{"coordinates":[7.373416,51.472007],"type":"Point"},"properties":{"osm_id":"4151805151","tag":{"amenity":"waste_basket","support":"pole"}},"type":"Feature"},
	{"geometry":{"coordinates":[7.317104,51.456003],"type":"Point"},"properties":{"osm_id":"4154261575","tag":{"amenity":"waste_basket","support":"pole","waste":"trash"}},"type":"Feature"},
	{"geometry":{"coordinates":[7.327085,51.455203],"type":"Point"},"properties":{"osm_id":"4159493421","tag":{"amenity":"waste_basket","waste":"trash"}},"type":"Feature"},
	{"geometry":{"coordinates":[7.349596,51.456785],"type":"Point"},"properties":{"osm_id":"4159493431","tag":{"amenity":"waste_basket"}},"type":"Feature"},
	{"geometry":{"coordinates":[7.376682,51.473652],"type":"Point"},"properties":{"osm_id":"4167969874","tag":{"amenity":"waste_basket","colour":"orange","material":"plastic","support":"pole"}},"type":"Feature"},
	{"geometry":{"coordinates":[7.376658,51.473791],"type":"Point"},"properties":{"osm_id":"4167969875","tag":{"amenity":"waste_basket","colour":"orange","material":"plastic","support":"pole"}},"type":"Feature"},
	{"geometry":{"coordinates":[7.338604,51.454396],"type":"Point"},"properties":{"osm_id":"4186203692","tag":{"amenity":"waste_basket","waste":"trash"}},"type":"Feature"},
	{"geometry":{"coordinates":[7.360837,51.469583],"type":"Point"},"properties":{"osm_id":"4200605863","tag":{"amenity":"waste_basket"}},"type":"Feature"},
	{"geometry":{"coordinates":[7.374485,51.455434],"type":"Point"},"properties":{"osm_id":"4250476712","tag":{"amenity":"waste_basket","colour":"silver","material":"metal","support":"pole"}},"type":"Feature"},
	{"geometry":{"coordinates":[7.372372,51.45946],"type":"Point"},"properties":{"osm_id":"4385320783","tag":{"amenity":"waste_basket","colour":"silver","material":"metal","support":"pole"}},"type":"Feature"},
	{"geometry":{"coordinates":[7.326836,51.455215],"type":"Point"},"properties":{"osm_id":"4475281341","tag":{"amenity":"waste_basket","colour":"silver","material":"metal","support":"pole","waste":"trash"}},"type":"Feature"},
	{"geometry":{"coordinates":[7.334199,51.500782],"type":"Point"},"properties":{"osm_id":"5235041633","tag":{"amenity":"waste_basket","level":"0"}},"type":"Feature"},
	{"geometry":{"coordinates":[7.319714,51.471243],"type":"Point"},"properties":{"osm_id":"5785174541","tag":{"amenity":"waste_basket"}},"type":"Feature"},
	{"geometry":{"coordinates":[7.319948,51.467013],"type":"Point"},"properties":{"osm_id":"5785177554","tag":{"amenity":"waste_basket"}},"type":"Feature"},
	{"geometry":{"coordinates":[7.301683,51.470514],"type":"Point"},"properties":{"osm_id":"5966414950","tag":{"amenity":"waste_basket"}},"type":"Feature"},
	{"geometry":{"coordinates":[7.306257,51.474572],"type":"Point"},"properties":{"osm_id":"6171190310","tag":{"amenity":"waste_basket","waste":"trash"}},"type":"Feature"},
	{"geometry":{"coordinates":[7.306146,51.474723],"type":"Point"},"properties":{"osm_id":"6171190311","tag":{"amenity":"waste_basket","waste":"trash"}},"type":"Feature"},
	{"geometry":{"coordinates":[7.319583,51.467995],"type":"Point"},"properties":{"osm_id":"6201809819","tag":{"amenity":"waste_basket"}},"type":"Feature"},
	{"geometry":{"coordinates":[7.319962,51.464669],"type":"Point"},"properties":{"osm_id":"6201809820","tag":{"amenity":"waste_basket"}},"type":"Feature"},
	{"geometry":{"coordinates":[7.319894,51.463854],"type":"Point"},"properties":{"osm_id":"6201809823","tag":{"amenity":"waste_basket"}},"type":"Feature"},
	{"geometry":{"coordinates":[7.320054,51.465356],"type":"Point"},"properties":{"osm_id":"6201809825","tag":{"amenity":"waste_basket"}},"type":"Feature"},
	{"geometry":{"coordinates":[7.319067,51.469446],"type":"Point"},"properties":{"osm_id":"6201809826","tag":{"amenity":"waste_basket"}},"type":"Feature"},
	{"geometry":{"coordinates":[7.308317,51.47141],"type":"Point"},"properties":{"osm_id":"6284499607","tag":{"amenity":"waste_basket","waste":"trash"}},"type":"Feature"},
	{"geometry":{"coordinates":[7.306255,51.471312],"type":"Point"},"properties":{"osm_id":"6284500240","tag":{"amenity":"waste_basket","waste":"trash"}},"type":"Feature"},
	{"geometry":{"coordinates":[7.347213,51.454181],"type":"Point"},"properties":{"osm_id":"6314835557","tag":{"amenity":"waste_disposal"}},"type":"Feature"},
	{"geometry":{"coordinates":[7.341843,51.454655],"type":"Point"},"properties":{"osm_id":"6314835565","tag":{"amenity":"waste_disposal"}},"type":"Feature"},
	{"geometry":{"coordinates":[7.343615,51.454904],"type":"Point"},"properties":{"osm_id":"6314835575","tag":{"amenity":"waste_disposal"}},"type":"Feature"},
	{"geometry":{"coordinates":[7.342615,51.45503],"type":"Point"},"properties":{"osm_id":"6314835576","tag":{"amenity":"waste_disposal"}},"type":"Feature"},
	{"geometry":{"coordinates":[7.342866,51.454991],"type":"Point"},"properties":{"osm_id":"6314835579","tag":{"amenity":"waste_disposal"}},"type":"Feature"},
	{"geometry":{"coordinates":[7.343572,51.4543],"type":"Point"},"properties":{"osm_id":"6314835580","tag":{"amenity":"waste_disposal"}},"type":"Feature"},
	{"geometry":{"coordinates":[7.344968,51.454371],"type":"Point"},"properties":{"osm_id":"6314835582","tag":{"amenity":"waste_disposal"}},"type":"Feature"},
	{"geometry":{"coordinates":[7.328898,51.490273],"type":"Point"},"properties":{"osm_id":"6316604545","tag":{"amenity":"waste_basket","waste":"trash"}},"type":"Feature"},
	{"geometry":{"coordinates":[7.32979,51.490181],"type":"Point"},"properties":{"osm_id":"6316604550","tag":{"amenity":"waste_basket","waste":"trash"}},"type":"Feature"},
	{"geometry":{"coordinates":[7.373651,51.459329],"type":"Point"},"properties":{"osm_id":"6406701498","tag":{"amenity":"waste_basket","colour":"orange","material":"plastic","support":"pole","waste":"trash"}},"type":"Feature"},
	{"geometry":{"coordinates":[7.305627,51.474927],"type":"Point"},"properties":{"osm_id":"6411053623","tag":{"amenity":"waste_basket","waste":"trash"}},"type":"Feature"},
	{"geometry":{"coordinates":[7.304986,51.466762],"type":"Point"},"properties":{"osm_id":"6473627317","tag":{"amenity":"recycling","opening_hours":"24/7","recycling:clothes":"yes","recycling:shoes":"yes","recycling_type":"container"}},"type":"Feature"},
	{"geometry":{"coordinates":[7.304416,51.475301],"type":"Point"},"properties":{"osm_id":"6478092939","tag":{"amenity":"waste_basket","waste":"trash"}},"type":"Feature"},
	{"geometry":{"coordinates":[7.303848,51.475595],"type":"Point"},"properties":{"osm_id":"6478092940","tag":{"amenity":"waste_basket","waste":"trash"}},"type":"Feature"},
	{"geometry":{"coordinates":[7.304104,51.475502],"type":"Point"},"properties":{"osm_id":"6478092941","tag":{"amenity":"waste_basket","waste":"trash"}},"type":"Feature"},
	{"geometry":{"coordinates":[7.304917,51.475322],"type":"Point"},"properties":{"osm_id":"6478100189","tag":{"amenity":"waste_basket","waste":"trash"}},"type":"Feature"},
	{"geometry":{"coordinates":[7.312825,51.463494],"type":"Point"},"properties":{"osm_id":"6495933387","tag":{"amenity":"recycling","opening_hours":"24/7","recycling:clothes":"yes","recycling:shoes":"yes","recycling_type":"container"}},"type":"Feature"},
	{"geometry":{"coordinates":[7.312764,51.4635],"type":"Point"},"properties":{"osm_id":"6495933388","tag":{"amenity":"recycling","opening_hours":"Mo-Sa 07:00-20:00; PH closed","recycling:glass_bottles":"yes","recycling_type":"container"}},"type":"Feature"},
	{"geometry":{"coordinates":[7.310813,51.460502],"type":"Point"},"properties":{"osm_id":"6496108584","tag":{"amenity":"waste_basket","waste":"trash"}},"type":"Feature"},
	{"geometry":{"coordinates":[7.309429,51.460791],"type":"Point"},"properties":{"osm_id":"6496122256","tag":{"amenity":"waste_basket","waste":"trash"}},"type":"Feature"},
	{"geometry":{"coordinates":[7.301705,51.463026],"type":"Point"},"properties":{"osm_id":"6506651812","tag":{"amenity":"recycling","opening_hours":"Mo-Sa 07:00-20:00; PH closed","recycling:glass_bottles":"yes","recycling_type":"container"}},"type":"Feature"},
	{"geometry":{"coordinates":[7.301718,51.463079],"type":"Point"},"properties":{"osm_id":"6506651813","tag":{"amenity":"recycling","opening_hours":"24/7","recycling:clothes":"yes","recycling:electrical_appliances":"no","recycling:shoes":"yes","recycling:waste":"no","recycling_type":"container"}},"type":"Feature"},
	{"geometry":{"coordinates":[7.299279,51.473669],"type":"Point"},"properties":{"osm_id":"6509722434","tag":{"amenity":"recycling","opening_hours":"Mo-Sa 07:00-20:00; PH closed","recycling:glass_bottles":"yes","recycling_type":"container"}},"type":"Feature"},
	{"geometry":{"coordinates":[7.299331,51.473674],"type":"Point"},"properties":{"osm_id":"6509722441","tag":{"amenity":"recycling","opening_hours":"24/7","recycling:clothes":"yes","recycling:electrical_appliances":"no","recycling:shoes":"yes","recycling:waste":"no","recycling_type":"container"}},"type":"Feature"},
	{"geometry":{"coordinates":[7.297212,51.470824],"type":"Point"},"properties":{"osm_id":"6509822853","tag":{"amenity":"recycling","opening_hours":"24/7","recycling:clothes":"yes","recycling:electrical_appliances":"no","recycling:shoes":"yes","recycling:waste":"no","recycling_type":"container"}},"type":"Feature"},
	{"geometry":{"coordinates":[7.322637,51.472449],"type":"Point"},"properties":{"osm_id":"6510976605","tag":{"amenity":"waste_basket"}},"type":"Feature"},
	{"geometry":{"coordinates":[7.315007,51.470846],"type":"Point"},"properties":{"osm_id":"6550365425","tag":{"amenity":"waste_basket","waste":"trash"}},"type":"Feature"},
	{"geometry":{"coordinates":[7.308591,51.470774],"type":"Point"},"properties":{"osm_id":"6550417508","tag":{"amenity":"waste_basket","waste":"trash"}},"type":"Feature"},
	{"geometry":{"coordinates":[7.301802,51.478185],"type":"Point"},"properties":{"osm_id":"6621683391","tag":{"amenity":"recycling","recycling:clothes":"yes","recycling:shoes":"yes","recycling_type":"container"}},"type":"Feature"},
	{"geometry":{"coordinates":[7.37817,51.488659],"type":"Point"},"properties":{"osm_id":"6740381250","tag":{"amenity":"waste_basket"}},"type":"Feature"},
	{"geometry":{"coordinates":[7.378152,51.488658],"type":"Point"},"properties":{"osm_id":"6740381251","tag":{"amenity":"waste_basket"}},"type":"Feature"},
	{"geometry":{"coordinates":[7.378399,51.488404],"type":"Point"},"properties":{"osm_id":"6758043153","tag":{"amenity":"waste_basket"}},"type":"Feature"},
	{"geometry":{"coordinates":[7.308497,51.469836],"type":"Point"},"properties":{"osm_id":"6859019920","tag":{"amenity":"waste_basket","waste":"trash"}},"type":"Feature"},
	{"geometry":{"coordinates":[7.315422,51.470485],"type":"Point"},"properties":{"osm_id":"6950528353","tag":{"amenity":"waste_basket","waste":"trash"}},"type":"Feature"},
	{"geometry":{"coordinates":[7.315262,51.470309],"type":"Point"},"properties":{"osm_id":"6950610027","tag":{"amenity":"waste_basket","waste":"trash"}},"type":"Feature"},
	{"geometry":{"coordinates":[7.315182,51.470329],"type":"Point"},"properties":{"osm_id":"6950610029","tag":{"amenity":"waste_basket","waste":"trash"}},"type":"Feature"},
	{"geometry":{"coordinates":[7.30819,51.493243],"type":"Point"},"properties":{"osm_id":"6972411988","tag":{"amenity":"waste_basket","waste":"trash"}},"type":"Feature"},
	{"geometry":{"coordinates":[7.308123,51.493363],"type":"Point"},"properties":{"osm_id":"6972411993","tag":{"amenity":"waste_basket","waste":"trash"}},"type":"Feature"},
	{"geometry":{"coordinates":[7.308105,51.493151],"type":"Point"},"properties":{"osm_id":"6972412014","tag":{"amenity":"waste_basket","waste":"trash"}},"type":"Feature"},
	{"geometry":{"coordinates":[7.303275,51.463107],"type":"Point"},"properties":{"osm_id":"7052754760","tag":{"amenity":"waste_basket","waste":"trash"}},"type":"Feature"},
	{"geometry":{"coordinates":[7.302994,51.464207],"type":"Point"},"properties":{"osm_id":"7052824045","tag":{"amenity":"waste_basket","waste":"trash"}},"type":"Feature"},
	{"geometry":{"coordinates":[7.34728,51.462381],"type":"Point"},"properties":{"osm_id":"7086665557","tag":{"amenity":"recycling","colour":"silver","material":"metal","operator":"AHE","operator:type":"private","recycling:cardboard":"yes","recycling:glass_bottles":"yes","recycling:paper":"yes","recycling_type":"container"}},"type":"Feature"},
	{"geometry":{"coordinates":[7.309736,51.476263],"type":"Point"},"properties":{"osm_id":"7111641093","tag":{"amenity":"recycling","opening_hours":"24/7","recycling:clothes":"yes","recycling:shoes":"yes","recycling_type":"container"}},"type":"Feature"},
	{"geometry":{"coordinates":[7.311663,51.471662],"type":"Point"},"properties":{"osm_id":"7136766775","tag":{"amenity":"waste_basket","waste":"trash"}},"type":"Feature"},
	{"geometry":{"coordinates":[7.329589,51.476442],"type":"Point"},"properties":{"osm_id":"7147215769","tag":{"amenity":"waste_basket","waste":"trash"}},"type":"Feature"},
	{"geometry":{"coordinates":[7.329906,51.476339],"type":"Point"},"properties":{"osm_id":"7147215774","tag":{"amenity":"waste_basket","waste":"trash"}},"type":"Feature"},
	{"geometry":{"coordinates":[7.329516,51.476513],"type":"Point"},"properties":{"osm_id":"7147218104","tag":{"amenity":"waste_basket","waste":"trash"}},"type":"Feature"},
	{"geometry":{"coordinates":[7.295711,51.468014],"type":"Point"},"properties":{"osm_id":"7196362063","tag":{"amenity":"waste_basket","waste":"trash"}},"type":"Feature"},
	{"geometry":{"coordinates":[7.296636,51.502414],"type":"Point"},"properties":{"osm_id":"7299903662","tag":{"amenity":"waste_basket","waste":"trash"}},"type":"Feature"},
	{"geometry":{"coordinates":[7.312894,51.48567],"type":"Point"},"properties":{"osm_id":"7347345677","tag":{"amenity":"waste_basket","waste":"trash"}},"type":"Feature"},
	{"geometry":{"coordinates":[7.309668,51.471778],"type":"Point"},"properties":{"osm_id":"7490338443","tag":{"amenity":"waste_basket","waste":"trash"}},"type":"Feature"},
	{"geometry":{"coordinates":[7.313789,51.463453],"type":"Point"},"properties":{"osm_id":"7490381399","tag":{"amenity":"waste_basket","waste":"trash"}},"type":"Feature"},
	{"geometry":{"coordinates":[7.382001,51.483677],"type":"Point"},"properties":{"osm_id":"7500438076","tag":{"amenity":"waste_basket","waste":"trash"}},"type":"Feature"},
	{"geometry":{"coordinates":[7.329818,51.489728],"type":"Point"},"properties":{"osm_id":"7500492991","tag":{"amenity":"waste_basket","waste":"trash"}},"type":"Feature"},
	{"geometry":{"coordinates":[7.330669,51.490034],"type":"Point"},"properties":{"osm_id":"7500492992","tag":{"amenity":"waste_basket","waste":"trash"}},"type":"Feature"},
	{"geometry":{"coordinates":[7.328603,51.489404],"type":"Point"},"properties":{"osm_id":"7501575657","tag":{"amenity":"waste_basket","waste":"trash"}},"type":"Feature"},
	{"geometry":{"coordinates":[7.361634,51.484017],"type":"Point"},"properties":{"osm_id":"7770675228","tag":{"access":"private","amenity":"waste_disposal","waste":"trash"}},"type":"Feature"},
	{"geometry":{"coordinates":[7.364132,51.484406],"type":"Point"},"properties":{"osm_id":"7770675236","tag":{"access":"private","amenity":"waste_disposal","waste":"trash"}},"type":"Feature"},
	{"geometry":{"coordinates":[7.363409,51.484248],"type":"Point"},"properties":{"osm_id":"7770675240","tag":{"access":"private","amenity":"waste_disposal","waste":"trash"}},"type":"Feature"},
	{"geometry":{"coordinates":[7.365011,51.485584],"type":"Point"},"properties":{"osm_id":"7770716307","tag":{"access":"private","amenity":"waste_disposal","waste":"trash"}},"type":"Feature"},
	{"geometry":{"coordinates":[7.364763,51.486011],"type":"Point"},"properties":{"osm_id":"7770716308","tag":{"access":"private","amenity":"waste_disposal","waste":"trash"}},"type":"Feature"},
	{"geometry":{"coordinates":[7.364625,51.485578],"type":"Point"},"properties":{"osm_id":"7770716309","tag":{"access":"private","amenity":"waste_disposal","waste":"trash"}},"type":"Feature"},
	{"geometry":{"coordinates":[7.364386,51.48522],"type":"Point"},"properties":{"osm_id":"7770716310","tag":{"access":"private","amenity":"waste_disposal","waste":"trash"}},"type":"Feature"},
	{"geometry":{"coordinates":[7.364108,51.484827],"type":"Point"},"properties":{"osm_id":"7770716311","tag":{"access":"private","amenity":"waste_disposal","waste":"trash"}},"type":"Feature"},
	{"geometry":{"coordinates":[7.364422,51.484687],"type":"Point"},"properties":{"osm_id":"7770716320","tag":{"access":"private","amenity":"waste_disposal","waste":"trash"}},"type":"Feature"},
	{"geometry":{"coordinates":[7.361635,51.486559],"type":"Point"},"properties":{"osm_id":"7770720127","tag":{"access":"private","amenity":"waste_disposal","waste":"trash"}},"type":"Feature"},
	{"geometry":{"coordinates":[7.364922,51.486441],"type":"Point"},"properties":{"osm_id":"7770720132","tag":{"access":"private","amenity":"waste_disposal","waste":"trash"}},"type":"Feature"},
	{"geometry":{"coordinates":[7.364776,51.48517],"type":"Point"},"properties":{"osm_id":"7770720139","tag":{"access":"private","amenity":"waste_disposal","waste":"trash"}},"type":"Feature"},
	{"geometry":{"coordinates":[7.362173,51.486928],"type":"Point"},"properties":{"osm_id":"7770720140","tag":{"access":"private","amenity":"waste_disposal","waste":"trash"}},"type":"Feature"},
	{"geometry":{"coordinates":[7.361564,51.485944],"type":"Point"},"properties":{"osm_id":"7770720153","tag":{"access":"private","amenity":"waste_disposal","waste":"trash"}},"type":"Feature"},
	{"geometry":{"coordinates":[7.361533,51.485325],"type":"Point"},"properties":{"osm_id":"7770720158","tag":{"access":"private","amenity":"waste_disposal","waste":"trash"}},"type":"Feature"},
	{"geometry":{"coordinates":[7.361411,51.484686],"type":"Point"},"properties":{"osm_id":"7770720163","tag":{"access":"private","amenity":"waste_disposal","waste":"trash"}},"type":"Feature"},
	{"geometry":{"coordinates":[7.361598,51.484491],"type":"Point"},"properties":{"osm_id":"7770720164","tag":{"access":"private","amenity":"waste_disposal","waste":"trash"}},"type":"Feature"},
	{"geometry":{"coordinates":[7.306726,51.483223],"type":"Point"},"properties":{"osm_id":"7872253225","tag":{"amenity":"recycling","recycling:glass":"yes"}},"type":"Feature"},
	{"geometry":{"coordinates":[7.308215,51.491361],"type":"Point"},"properties":{"osm_id":"7928021559","tag":{"amenity":"waste_basket"}},"type":"Feature"},
	{"geometry":{"coordinates":[7.309796,51.490844],"type":"Point"},"properties":{"osm_id":"7928025672","tag":{"amenity":"waste_basket"}},"type":"Feature"},
	{"geometry":{"coordinates":[7.308519,51.491126],"type":"Point"},"properties":{"osm_id":"7928030761","tag":{"amenity":"waste_basket"}},"type":"Feature"},
	{"geometry":{"coordinates":[7.309195,51.4909],"type":"Point"},"properties":{"osm_id":"7928037664","tag":{"amenity":"waste_basket"}},"type":"Feature"},
	{"geometry":{"coordinates":[7.309292,51.490941],"type":"Point"},"properties":{"osm_id":"7928052536","tag":{"amenity":"waste_basket"}},"type":"Feature"}
]
}
