{
"type": "FeatureCollection",
"features": [
	{"geometry":{"coordinates":[7.342046,51.397952],"type":"Point"},"properties":{"osm_id":"571953124","tag":{"amenity":"recycling","recycling:glass_bottles":"yes","recycling_type":"container"}},"type":"Feature"},
	{"geometry":{"coordinates":[7.351723,51.393549],"type":"Point"},"properties":{"osm_id":"1046725345","tag":{"amenity":"recycling","contact:website":"http://www.ahe.de","operator":"AHE","recycling:books":"yes","recycling:cardboard":"yes","recycling:magazines":"yes","recycling:newspaper":"yes","recycling:paper":"yes","recycling:paper_packaging":"yes","recycling_type":"container"}},"type":"Feature"},
	{"geometry":{"coordinates":[7.370912,51.36384],"type":"Point"},"properties":{"osm_id":"1328614134","tag":{"amenity":"recycling"}},"type":"Feature"},
	{"geometry":{"coordinates":[7.333335,51.35167],"type":"Point"},"properties":{"osm_id":"1502773060","tag":{"amenity":"recycling","recycling:glass_bottles":"yes","recycling_type":"container"}},"type":"Feature"},
	{"geometry":{"coordinates":[7.369922,51.378784],"type":"Point"},"properties":{"osm_id":"1588223903","tag":{"amenity":"recycling","recycling:glass_bottles":"yes","recycling_type":"container"}},"type":"Feature"},
	{"geometry":{"coordinates":[7.378597,51.364768],"type":"Point"},"properties":{"osm_id":"1662637522","tag":{"amenity":"recycling","recycling:cartons":"yes","recycling:magazines":"yes","recycling:newspaper":"yes","recycling_type":"container"}},"type":"Feature"},
	{"geometry":{"coordinates":[7.379078,51.36476],"type":"Point"},"properties":{"osm_id":"1662637523","tag":{"amenity":"recycling","recycling:glass":"yes","recycling:glass_bottles":"yes","recycling_type":"container"}},"type":"Feature"},
	{"geometry":{"coordinates":[7.350624,51.396234],"type":"Point"},"properties":{"osm_id":"1798404317","tag":{"amenity":"recycling","recycling:paper":"yes","recycling_type":"container"}},"type":"Feature"},
	{"geometry":{"coordinates":[7.373191,51.390419],"type":"Point"},"properties":{"osm_id":"2374723340","tag":{"amenity":"waste_basket"}},"type":"Feature"},
	{"geometry":{"coordinates":[7.301942,51.38772],"type":"Point"},"properties":{"osm_id":"2405439977","tag":{"amenity":"recycling","location":"overground","operator":"AHE","recycling:cardboard":"yes","recycling:glass_bottles":"yes","recycling:paper":"yes","recycling_type":"container","wheelchair":"yes"}},"type":"Feature"},
	{"geometry":{"coordinates":[7.330102,51.374913],"type":"Point"},"properties":{"osm_id":"2456677070","tag":{"amenity":"recycling","contact:website":"http://www.ahe.de","operator":"AHE","recycling:books":"yes","recycling:cardboard":"yes","recycling:magazines":"yes","recycling:newspaper":"yes","recycling:paper":"yes","recycling:paper_packaging":"yes","recycling_type":"container"}},"type":"Feature"},
	{"geometry":{"coordinates":[7.373317,51.384371],"type":"Point"},"properties":{"osm_id":"2465457270","tag":{"amenity":"recycling","recycling:glass_bottles":"yes","recycling_type":"container"}},"type":"Feature"},
	{"geometry":{"coordinates":[7.365547,51.363656],"type":"Point"},"properties":{"osm_id":"2466626517","tag":{"amenity":"recycling","recycling_type":"container"}},"type":"Feature"},
	{"geometry":{"coordinates":[7.338893,51.360748],"type":"Point"},"properties":{"osm_id":"2700991195","tag":{"amenity":"waste_basket"}},"type":"Feature"},
	{"geometry":{"coordinates":[7.343142,51.357127],"type":"Point"},"properties":{"osm_id":"2701016580","tag":{"amenity":"recycling","recycling:glass_bottles":"yes","recycling_type":"container"}},"type":"Feature"},
	{"geometry":{"coordinates":[7.305095,51.348976],"type":"Point"},"properties":{"osm_id":"2821415598","tag":{"amenity":"waste_basket"}},"type":"Feature"},
	{"geometry":{"coordinates":[7.309933,51.349761],"type":"Point"},"properties":{"osm_id":"2821417801","tag":{"amenity":"waste_basket"}},"type":"Feature"},
	{"geometry":{"coordinates":[7.298931,51.348183],"type":"Point"},"properties":{"osm_id":"2822276185","tag":{"amenity":"waste_basket"}},"type":"Feature"},
	{"geometry":{"coordinates":[7.375082,51.374559],"type":"Point"},"properties":{"osm_id":"2927871143","tag":{"amenity":"recycling","recycling:books":"yes","recycling:cartons":"yes","recycling:glass":"no","recycling:glass_bottles":"yes","recycling:magazines":"yes","recycling:newspaper":"yes","recycling:paper":"yes","recycling:paper_packaging":"yes","recycling_type":"container"}},"type":"Feature"},
	{"geometry":{"coordinates":[7.369593,51.377199],"type":"Point"},"properties":{"osm_id":"3029715602","tag":{"amenity":"recycling","contact:website":"http://www.ahe.de","operator":"AHE","recycling:glass_bottles":"yes","recycling_type":"container"}},"type":"Feature"},
	{"geometry":{"coordinates":[7.381874,51.374996],"type":"Point"},"properties":{"osm_id":"3336167865","tag":{"amenity":"waste_basket"}},"type":"Feature"},
	{"geometry":{"coordinates":[7.382066,51.375063],"type":"Point"},"properties":{"osm_id":"3336167867","tag":{"amenity":"waste_basket"}},"type":"Feature"},
	{"geometry":{"coordinates":[7.334308,51.397166],"type":"Point"},"properties":{"osm_id":"3337404079","tag":{"amenity":"recycling","recycling_type":"container"}},"type":"Feature"},
	{"geometry":{"coordinates":[7.38099,51.385468],"type":"Point"},"properties":{"osm_id":"3341990754","tag":{"amenity":"waste_basket"}},"type":"Feature"},
	{"geometry":{"coordinates":[7.361918,51.395148],"type":"Point"},"properties":{"osm_id":"3342010286","tag":{"amenity":"waste_basket"}},"type":"Feature"},
	{"geometry":{"coordinates":[7.358962,51.397195],"type":"Point"},"properties":{"osm_id":"3342010287","tag":{"amenity":"waste_basket"}},"type":"Feature"},
	{"geometry":{"coordinates":[7.36008,51.396399],"type":"Point"},"properties":{"osm_id":"3342010288","tag":{"amenity":"waste_basket"}},"type":"Feature"},
	{"geometry":{"coordinates":[7.365394,51.39238],"type":"Point"},"properties":{"osm_id":"3342031743","tag":{"amenity":"waste_basket"}},"type":"Feature"},
	{"geometry":{"coordinates":[7.30741,51.361704],"type":"Point"},"properties":{"osm_id":"3363158878","tag":{"amenity":"recycling","recycling_type":"container"}},"type":"Feature"},
	{"geometry":{"coordinates":[7.315255,51.371279],"type":"Point"},"properties":{"osm_id":"3363176751","tag":{"amenity":"recycling","operator":"Deutsches Rotes Kreuz","recycling:clothes":"yes","recycling:shoes":"yes","recycling_type":"container"}},"type":"Feature"},
	{"geometry":{"coordinates":[7.315272,51.371258],"type":"Point"},"properties":{"osm_id":"3363176752","tag":{"amenity":"recycling","operator":"AHE","recycling:glass_bottles":"yes","recycling_type":"container"}},"type":"Feature"},
	{"geometry":{"coordinates":[7.315264,51.371269],"type":"Point"},"properties":{"osm_id":"3363176753","tag":{"amenity":"recycling","operator":"AHE","recycling:glass_bottles":"yes","recycling_type":"container"}},"type":"Feature"},
	{"geometry":{"coordinates":[7.315277,51.371249],"type":"Point"},"properties":{"osm_id":"3363176755","tag":{"amenity":"recycling","contact:website":"http://www.ahe.de","operator":"AHE","recycling:books":"yes","recycling:cardboard":"yes","recycling:magazines":"yes","recycling:newspaper":"yes","recycling:paper":"yes","recycling_type":"container"}},"type":"Feature"},
	{"geometry":{"coordinates":[7.31532,51.37123],"type":"Point"},"properties":{"osm_id":"3363176756","tag":{"amenity":"waste_basket","check_date":"2021-02-05"}},"type":"Feature"},
	{"geometry":{"coordinates":[7.351585,51.377715],"type":"Point"},"properties":{"osm_id":"3400299346","tag":{"amenity":"waste_basket"}},"type":"Feature"},
	{"geometry":{"coordinates":[7.350513,51.375735],"type":"Point"},"properties":{"osm_id":"3400299349","tag":{"amenity":"waste_basket"}},"type":"Feature"},
	{"geometry":{"coordinates":[7.35029,51.38652],"type":"Point"},"properties":{"osm_id":"3400299356","tag":{"amenity":"waste_basket"}},"type":"Feature"},
	{"geometry":{"coordinates":[7.339813,51.380466],"type":"Point"},"properties":{"osm_id":"3400299361","tag":{"amenity":"waste_basket"}},"type":"Feature"},
	{"geometry":{"coordinates":[7.337679,51.379905],"type":"Point"},"properties":{"osm_id":"3400299364","tag":{"amenity":"waste_basket"}},"type":"Feature"},
	{"geometry":{"coordinates":[7.351824,51.380514],"type":"Point"},"properties":{"osm_id":"3400299365","tag":{"amenity":"waste_basket"}},"type":"Feature"},
	{"geometry":{"coordinates":[7.370937,51.363812],"type":"Point"},"properties":{"osm_id":"3523084941","tag":{"amenity":"recycling"}},"type":"Feature"},
	{"geometry":{"coordinates":[7.370927,51.363829],"type":"Point"},"properties":{"osm_id":"3523084942","tag":{"amenity":"recycling"}},"type":"Feature"},
	{"geometry":{"coordinates":[7.370888,51.36386],"type":"Point"},"properties":{"osm_id":"3523084943","tag":{"amenity":"recycling"}},"type":"Feature"},
	{"geometry":{"coordinates":[7.37087,51.363881],"type":"Point"},"properties":{"osm_id":"3523084946","tag":{"amenity":"recycling","mapillary":"Yw2ffYKS_4N-uEdMJ5WU-Q","recycling_type":"container","survey:date":"2018-07-22"}},"type":"Feature"},
	{"geometry":{"coordinates":[7.378462,51.364735],"type":"Point"},"properties":{"osm_id":"3544037907","tag":{"amenity":"recycling","opening_hours":"24/7","operator":"Malteser Hilfsdienst","recycling:clothes":"yes","recycling:shoes":"yes","recycling_type":"container"}},"type":"Feature"},
	{"geometry":{"coordinates":[7.378505,51.364745],"type":"Point"},"properties":{"osm_id":"3544037909","tag":{"amenity":"recycling","recycling:cartons":"yes","recycling:magazines":"yes","recycling:newspaper":"yes","recycling_type":"container"}},"type":"Feature"},
	{"geometry":{"coordinates":[7.37855,51.364758],"type":"Point"},"properties":{"osm_id":"3544037910","tag":{"amenity":"recycling","recycling:cartons":"yes","recycling:magazines":"yes","recycling:newspaper":"yes","recycling_type":"container"}},"type":"Feature"},
	{"geometry":{"coordinates":[7.378657,51.364766],"type":"Point"},"properties":{"osm_id":"3544037912","tag":{"amenity":"recycling","recycling:cartons":"yes","recycling:magazines":"yes","recycling:newspaper":"yes","recycling_type":"container"}},"type":"Feature"},
	{"geometry":{"coordinates":[7.379063,51.364785],"type":"Point"},"properties":{"osm_id":"3544037914","tag":{"amenity":"recycling","recycling:glass":"yes","recycling:glass_bottles":"yes","recycling_type":"container"}},"type":"Feature"},
	{"geometry":{"coordinates":[7.379053,51.364805],"type":"Point"},"properties":{"osm_id":"3544037918","tag":{"amenity":"recycling","recycling:glass":"yes","recycling:glass_bottles":"yes","recycling_type":"container"}},"type":"Feature"},
	{"geometry":{"coordinates":[7.37904,51.364827],"type":"Point"},"properties":{"osm_id":"3544037920","tag":{"amenity":"recycling","recycling:glass":"yes","recycling:glass_bottles":"yes","recycling_type":"container"}},"type":"Feature"},
	{"geometry":{"coordinates":[7.378979,51.364872],"type":"Point"},"properties":{"osm_id":"3544037926","tag":{"amenity":"recycling","recycling:glass":"yes","recycling:glass_bottles":"yes","recycling_type":"container"}},"type":"Feature"},
	{"geometry":{"coordinates":[7.365522,51.37334],"type":"Point"},"properties":{"osm_id":"3679244591","tag":{"amenity":"recycling","opening_hours":"24/7","operator":"Malteser Hilfsdienst","recycling:clothes":"yes","recycling:shoes":"yes","recycling_type":"container"}},"type":"Feature"},
	{"geometry":{"coordinates":[7.365517,51.373326],"type":"Point"},"properties":{"osm_id":"3679244593","tag":{"amenity":"recycling","recycling:glass_bottles":"yes","recycling_type":"container"}},"type":"Feature"},
	{"geometry":{"coordinates":[7.365518,51.373351],"type":"Point"},"properties":{"osm_id":"3679244596","tag":{"amenity":"recycling","recycling:paper":"yes","recycling_type":"container"}},"type":"Feature"},
	{"geometry":{"coordinates":[7.365514,51.373362],"type":"Point"},"properties":{"osm_id":"3679244598","tag":{"amenity":"recycling","recycling:paper":"yes","recycling_type":"container"}},"type":"Feature"},
	{"geometry":{"coordinates":[7.358173,51.369283],"type":"Point"},"properties":{"osm_id":"4031454103","tag":{"amenity":"waste_basket"}},"type":"Feature"},
	{"geometry":{"coordinates":[7.345271,51.365713],"type":"Point"},"properties":{"osm_id":"4031868383","tag":{"amenity":"waste_basket"}},"type":"Feature"},
	{"geometry":{"coordinates":[7.371168,51.371408],"type":"Point"},"properties":{"osm_id":"4235473474","tag":{"amenity":"recycling","opening_hours":"Mo-Sa 07:00-19:00","recycling:glass_bottles":"yes","recycling_type":"container"}},"type":"Feature"},
	{"geometry":{"coordinates":[7.371121,51.37141],"type":"Point"},"properties":{"osm_id":"4235473475","tag":{"amenity":"recycling","opening_hours":"Mo-Sa 07:00-19:00","recycling:glass_bottles":"yes","recycling_type":"container"}},"type":"Feature"},
	{"geometry":{"coordinates":[7.371143,51.371412],"type":"Point"},"properties":{"osm_id":"4235473476","tag":{"amenity":"recycling","opening_hours":"Mo-Sa 07:00-19:00","recycling:glass_bottles":"yes","recycling_type":"container"}},"type":"Feature"},
	{"geometry":{"coordinates":[7.3711,51.371413],"type":"Point"},"properties":{"osm_id":"4235473477","tag":{"amenity":"recycling","opening_hours":"Mo-Sa 07:00-19:00","recycling:glass_bottles":"yes","recycling_type":"container"}},"type":"Feature"},
	{"geometry":{"coordinates":[7.371068,51.37142],"type":"Point"},"properties":{"osm_id":"4235473478","tag":{"amenity":"recycling","opening_hours":"Mo-Sa 07:00-19:00","recycling:paper":"yes","recycling_type":"container"}},"type":"Feature"},
	{"geometry":{"coordinates":[7.371017,51.371425],"type":"Point"},"properties":{"osm_id":"4235473479","tag":{"amenity":"recycling","opening_hours":"Mo-Sa 07:00-19:00","recycling:paper":"yes","recycling_type":"container"}},"type":"Feature"},
	{"geometry":{"coordinates":[7.343147,51.357115],"type":"Point"},"properties":{"osm_id":"4238897116","tag":{"amenity":"recycling","recycling:glass_bottles":"yes","recycling_type":"container"}},"type":"Feature"},
	{"geometry":{"coordinates":[7.343133,51.357137],"type":"Point"},"properties":{"osm_id":"4238897117","tag":{"amenity":"recycling","recycling:glass_bottles":"yes","recycling_type":"container"}},"type":"Feature"},
	{"geometry":{"coordinates":[7.343129,51.357152],"type":"Point"},"properties":{"osm_id":"4238897118","tag":{"amenity":"recycling","recycling:glass_bottles":"yes","recycling_type":"container"}},"type":"Feature"},
	{"geometry":{"coordinates":[7.343131,51.357171],"type":"Point"},"properties":{"osm_id":"4238897119","tag":{"amenity":"recycling","recycling:paper":"yes","recycling_type":"container"}},"type":"Feature"},
	{"geometry":{"coordinates":[7.343121,51.357188],"type":"Point"},"properties":{"osm_id":"4238897120","tag":{"amenity":"recycling","recycling:paper":"yes","recycling_type":"container"}},"type":"Feature"},
	{"geometry":{"coordinates":[7.343803,51.359194],"type":"Point"},"properties":{"osm_id":"4239825486","tag":{"amenity":"recycling","recycling:paper":"yes","recycling_type":"container"}},"type":"Feature"},
	{"geometry":{"coordinates":[7.343773,51.3592],"type":"Point"},"properties":{"osm_id":"4239825487","tag":{"amenity":"recycling","recycling:paper":"yes","recycling_type":"container"}},"type":"Feature"},
	{"geometry":{"coordinates":[7.36314,51.358871],"type":"Point"},"properties":{"osm_id":"4307637614","tag":{"amenity":"recycling","recycling:paper":"yes","recycling_type":"container"}},"type":"Feature"},
	{"geometry":{"coordinates":[7.363164,51.35889],"type":"Point"},"properties":{"osm_id":"4307637615","tag":{"amenity":"recycling","recycling:paper":"yes","recycling_type":"container"}},"type":"Feature"},
	{"geometry":{"coordinates":[7.363197,51.358922],"type":"Point"},"properties":{"osm_id":"4307637617","tag":{"amenity":"recycling","recycling_type":"container"}},"type":"Feature"},
	{"geometry":{"coordinates":[7.363215,51.358937],"type":"Point"},"properties":{"osm_id":"4307637618","tag":{"amenity":"recycling","recycling_type":"container"}},"type":"Feature"},
	{"geometry":{"coordinates":[7.334344,51.397186],"type":"Point"},"properties":{"osm_id":"4516848180","tag":{"amenity":"recycling","opening_hours":"24/7","operator":"Deutsches Rotes Kreuz","recycling:clothes":"yes","recycling:shoes":"yes","recycling_type":"container"}},"type":"Feature"},
	{"geometry":{"coordinates":[7.3552,51.39466],"type":"Point"},"properties":{"osm_id":"4516853182","tag":{"amenity":"recycling","opening_hours":"24/7","operator":"Maltheser Hilfsdienst","recycling:clothes":"yes","recycling:shoes":"yes","recycling_type":"container"}},"type":"Feature"},
	{"geometry":{"coordinates":[7.326673,51.381559],"type":"Point"},"properties":{"osm_id":"4516857991","tag":{"amenity":"recycling","opening_hours":"24/7","operator":"Maltheser Hilfsdienst","recycling:clothes":"yes","recycling:shoes":"yes","recycling_type":"container"}},"type":"Feature"},
	{"geometry":{"coordinates":[7.373161,51.384345],"type":"Point"},"properties":{"osm_id":"4516863430","tag":{"amenity":"recycling","opening_hours":"24/7","operator":"Maltheser Hilfsdienst","recycling:clothes":"yes","recycling:shoes":"yes","recycling_type":"container"}},"type":"Feature"},
	{"geometry":{"coordinates":[7.378955,51.351504],"type":"Point"},"properties":{"osm_id":"4516912793","tag":{"amenity":"recycling","recycling_type":"container"}},"type":"Feature"},
	{"geometry":{"coordinates":[7.378963,51.351474],"type":"Point"},"properties":{"osm_id":"4516912794","tag":{"amenity":"recycling","opening_hours":"24/7","operator":"Deutsches Rotes Kreuz","recycling:clothes":"yes","recycling:shoes":"yes","recycling_type":"container"}},"type":"Feature"},
	{"geometry":{"coordinates":[7.371393,51.371399],"type":"Point"},"properties":{"osm_id":"4516995163","tag":{"amenity":"recycling","opening_hours":"24/7","operator":"Deutsches Rotes Kreuz","recycling:clothes":"yes","recycling:shoes":"yes","recycling_type":"container"}},"type":"Feature"},
	{"geometry":{"coordinates":[7.369876,51.378769],"type":"Point"},"properties":{"osm_id":"4516995164","tag":{"amenity":"recycling","opening_hours":"24/7","operator":"Malteser Hilfsdienst","recycling:clothes":"yes","recycling:shoes":"yes","recycling_type":"container"}},"type":"Feature"},
	{"geometry":{"coordinates":[7.369522,51.377212],"type":"Point"},"properties":{"osm_id":"4516995165","tag":{"amenity":"recycling","opening_hours":"24/7","operator":"Malteser Hilfsdienst","recycling:clothes":"yes","recycling:shoes":"yes","recycling_type":"container"}},"type":"Feature"},
	{"geometry":{"coordinates":[7.382603,51.372222],"type":"Point"},"properties":{"osm_id":"4517002003","tag":{"amenity":"recycling","opening_hours":"Mo-Sa 08:00-18:00","recycling:glass_bottles":"yes","recycling:paper":"yes","recycling_type":"container"}},"type":"Feature"},
	{"geometry":{"coordinates":[7.382684,51.372239],"type":"Point"},"properties":{"osm_id":"4517002004","tag":{"amenity":"recycling","opening_hours":"24/7","operator":"Malteser Hilfsdienst","recycling:clothes":"yes","recycling:shoes":"yes","recycling_type":"container"}},"type":"Feature"},
	{"geometry":{"coordinates":[7.330018,51.374876],"type":"Point"},"properties":{"osm_id":"4517105305","tag":{"amenity":"recycling","contact:website":"http://www.ahe.de","operator":"AHE","recycling:glass_bottles":"yes","recycling_type":"container"}},"type":"Feature"},
	{"geometry":{"coordinates":[7.375358,51.357152],"type":"Point"},"properties":{"osm_id":"4517110553","tag":{"amenity":"recycling","contact:website":"http://www.ahe.de","operator":"AHE","recycling:glass_bottles":"yes","recycling_type":"container"}},"type":"Feature"},
	{"geometry":{"coordinates":[7.375264,51.35714],"type":"Point"},"properties":{"osm_id":"4517110554","tag":{"amenity":"recycling","contact:website":"http://www.ahe.de","operator":"AHE","recycling:books":"yes","recycling:cardboard":"yes","recycling:magazines":"yes","recycling:newspaper":"yes","recycling:paper":"yes","recycling_type":"container"}},"type":"Feature"},
	{"geometry":{"coordinates":[7.375394,51.357156],"type":"Point"},"properties":{"osm_id":"4517110555","tag":{"amenity":"recycling","contact:website":"http://www.ahe.de","operator":"AHE","recycling:glass_bottles":"yes","recycling_type":"container"}},"type":"Feature"},
	{"geometry":{"coordinates":[7.369502,51.377177],"type":"Point"},"properties":{"osm_id":"4517166444","tag":{"amenity":"recycling","contact:website":"http://www.ahe.de","operator":"AHE","recycling:books":"yes","recycling:cardboard":"yes","recycling:magazines":"yes","recycling:newspaper":"yes","recycling:paper":"yes","recycling:paper_packaging":"yes","recycling_type":"container"}},"type":"Feature"},
	{"geometry":{"coordinates":[7.355208,51.394677],"type":"Point"},"properties":{"osm_id":"4584148618","tag":{"amenity":"recycling","recycling:glass_bottles":"yes","recycling_type":"container"}},"type":"Feature"},
	{"geometry":{"coordinates":[7.355213,51.39469],"type":"Point"},"properties":{"osm_id":"4584148619","tag":{"amenity":"recycling","recycling:glass_bottles":"yes","recycling_type":"container"}},"type":"Feature"},
	{"geometry":{"coordinates":[7.355205,51.394717],"type":"Point"},"properties":{"osm_id":"4584148620","tag":{"amenity":"recycling","recycling:paper":"yes","recycling_type":"container"}},"type":"Feature"},
	{"geometry":{"coordinates":[7.355184,51.39474],"type":"Point"},"properties":{"osm_id":"4584148621","tag":{"amenity":"recycling","recycling:paper":"yes","recycling_type":"container"}},"type":"Feature"},
	{"geometry":{"coordinates":[7.355173,51.394762],"type":"Point"},"properties":{"osm_id":"4584148622","tag":{"amenity":"recycling","recycling:paper":"yes","recycling_type":"container"}},"type":"Feature"},
	{"geometry":{"coordinates":[7.372954,51.384342],"type":"Point"},"properties":{"osm_id":"4585077644","tag":{"amenity":"recycling","recycling:paper":"yes","recycling_type":"container"}},"type":"Feature"},
	{"geometry":{"coordinates":[7.373089,51.384347],"type":"Point"},"properties":{"osm_id":"4585077645","tag":{"amenity":"recycling","recycling:paper":"yes","recycling_type":"container"}},"type":"Feature"},
	{"geometry":{"coordinates":[7.373221,51.384356],"type":"Point"},"properties":{"osm_id":"4585077646","tag":{"amenity":"recycling","recycling:paper":"yes","recycling_type":"container"}},"type":"Feature"},
	{"geometry":{"coordinates":[7.373255,51.384356],"type":"Point"},"properties":{"osm_id":"4585077647","tag":{"amenity":"recycling","recycling:glass_bottles":"yes","recycling_type":"container"}},"type":"Feature"},
	{"geometry":{"coordinates":[7.373275,51.384359],"type":"Point"},"properties":{"osm_id":"4585077648","tag":{"amenity":"recycling","recycling:glass_bottles":"yes","recycling_type":"container"}},"type":"Feature"},
	{"geometry":{"coordinates":[7.373295,51.384364],"type":"Point"},"properties":{"osm_id":"4585077649","tag":{"amenity":"recycling","recycling:glass_bottles":"yes","recycling_type":"container"}},"type":"Feature"},
	{"geometry":{"coordinates":[7.373124,51.384341],"type":"Point"},"properties":{"osm_id":"4585077650","tag":{"amenity":"recycling","opening_hours":"24/7","operator":"Maltheser Hilfsdienst","recycling:clothes":"yes","recycling:shoes":"yes","recycling_type":"container"}},"type":"Feature"},
	{"geometry":{"coordinates":[7.373145,51.384343],"type":"Point"},"properties":{"osm_id":"4585077651","tag":{"amenity":"recycling","opening_hours":"24/7","operator":"Maltheser Hilfsdienst","recycling:clothes":"yes","recycling:shoes":"yes","recycling_type":"container"}},"type":"Feature"},
	{"geometry":{"coordinates":[7.374499,51.387492],"type":"Point"},"properties":{"osm_id":"4585196846","tag":{"amenity":"recycling","recycling_type":"container"}},"type":"Feature"},
	{"geometry":{"coordinates":[7.374468,51.387482],"type":"Point"},"properties":{"osm_id":"4585196847","tag":{"amenity":"recycling","recycling:glass_bottles":"yes","recycling_type":"container"}},"type":"Feature"},
	{"geometry":{"coordinates":[7.374433,51.387472],"type":"Point"},"properties":{"osm_id":"4585196848","tag":{"amenity":"recycling","recycling_type":"container"}},"type":"Feature"},
	{"geometry":{"coordinates":[7.330064,51.374888],"type":"Point"},"properties":{"osm_id":"4605822178","tag":{"amenity":"recycling","contact:website":"http://www.ahe.de","operator":"AHE","recycling:glass_bottles":"yes","recycling_type":"container"}},"type":"Feature"},
	{"geometry":{"coordinates":[7.326808,51.381601],"type":"Point"},"properties":{"osm_id":"4607571973","tag":{"amenity":"recycling","contact:website":"http://www.ahe.de","operator":"AHE","recycling:glass_bottles":"yes","recycling_type":"container"}},"type":"Feature"},
	{"geometry":{"coordinates":[7.326781,51.381589],"type":"Point"},"properties":{"osm_id":"4607571974","tag":{"amenity":"recycling","contact:website":"http://www.ahe.de","operator":"AHE","recycling:glass_bottles":"yes","recycling_type":"container"}},"type":"Feature"},
	{"geometry":{"coordinates":[7.326729,51.381593],"type":"Point"},"properties":{"osm_id":"4607571975","tag":{"amenity":"recycling","contact:website":"http://www.ahe.de","operator":"AHE","recycling:books":"yes","recycling:cardboard":"yes","recycling:clothes":"yes","recycling:magazines":"yes","recycling:newspaper":"yes","recycling:paper":"yes","recycling:paper_packaging":"yes","recycling:shoes":"yes","recycling_type":"container"}},"type":"Feature"},
	{"geometry":{"coordinates":[7.326762,51.381615],"type":"Point"},"properties":{"osm_id":"4607571976","tag":{"amenity":"recycling","contact:website":"http://www.ahe.de","operator":"AHE","recycling:books":"yes","recycling:cardboard":"yes","recycling:clothes":"yes","recycling:magazines":"yes","recycling:newspaper":"yes","recycling:paper":"yes","recycling:paper_packaging":"yes","recycling:shoes":"yes","recycling_type":"container"}},"type":"Feature"},
	{"geometry":{"coordinates":[7.350563,51.396214],"type":"Point"},"properties":{"osm_id":"4644424453","tag":{"amenity":"recycling","recycling:glass_bottles":"yes","recycling_type":"container"}},"type":"Feature"},
	{"geometry":{"coordinates":[7.350576,51.396222],"type":"Point"},"properties":{"osm_id":"4644424454","tag":{"amenity":"recycling","recycling:glass_bottles":"yes","recycling_type":"container"}},"type":"Feature"},
	{"geometry":{"coordinates":[7.350606,51.396224],"type":"Point"},"properties":{"osm_id":"4644424455","tag":{"amenity":"recycling","recycling:paper":"yes","recycling_type":"container"}},"type":"Feature"},
	{"geometry":{"coordinates":[7.35177,51.393513],"type":"Point"},"properties":{"osm_id":"4644489365","tag":{"amenity":"recycling","contact:website":"http://www.ahe.de","operator":"AHE","recycling:books":"yes","recycling:cardboard":"yes","recycling:magazines":"yes","recycling:newspaper":"yes","recycling:paper":"yes","recycling:paper_packaging":"yes","recycling_type":"container"}},"type":"Feature"},
	{"geometry":{"coordinates":[7.351765,51.393538],"type":"Point"},"properties":{"osm_id":"4644489366","tag":{"amenity":"recycling","contact:website":"http://www.ahe.de","operator":"AHE","recycling:books":"yes","recycling:cardboard":"yes","recycling:magazines":"yes","recycling:newspaper":"yes","recycling:paper":"yes","recycling:paper_packaging":"yes","recycling_type":"container"}},"type":"Feature"},
	{"geometry":{"coordinates":[7.334129,51.397079],"type":"Point"},"properties":{"osm_id":"4644723043","tag":{"amenity":"recycling","recycling_type":"container"}},"type":"Feature"},
	{"geometry":{"coordinates":[7.334161,51.397102],"type":"Point"},"properties":{"osm_id":"4644723044","tag":{"amenity":"recycling","recycling_type":"container"}},"type":"Feature"},
	{"geometry":{"coordinates":[7.342001,51.397948],"type":"Point"},"properties":{"osm_id":"4647005875","tag":{"amenity":"recycling","recycling:clothes":"yes","recycling_type":"container"}},"type":"Feature"},
	{"geometry":{"coordinates":[7.342112,51.397921],"type":"Point"},"properties":{"osm_id":"4647005876","tag":{"amenity":"recycling","recycling:paper":"yes","recycling_type":"container"}},"type":"Feature"},
	{"geometry":{"coordinates":[7.342085,51.397924],"type":"Point"},"properties":{"osm_id":"4647005877","tag":{"amenity":"recycling","recycling:paper":"yes","recycling_type":"container"}},"type":"Feature"},
	{"geometry":{"coordinates":[7.342071,51.397953],"type":"Point"},"properties":{"osm_id":"4647005878","tag":{"amenity":"recycling","recycling:glass_bottles":"yes","recycling_type":"container"}},"type":"Feature"},
	{"geometry":{"coordinates":[7.380274,51.374074],"type":"Point"},"properties":{"osm_id":"4652079093","tag":{"amenity":"waste_basket"}},"type":"Feature"},
	{"geometry":{"coordinates":[7.333388,51.351695],"type":"Point"},"properties":{"osm_id":"4668499581","tag":{"amenity":"recycling","recycling:clothes":"yes","recycling_type":"container"}},"type":"Feature"},
	{"geometry":{"coordinates":[7.333353,51.351707],"type":"Point"},"properties":{"osm_id":"4668499582","tag":{"amenity":"recycling","recycling:paper":"yes","recycling_type":"container"}},"type":"Feature"},
	{"geometry":{"coordinates":[7.333328,51.351728],"type":"Point"},"properties":{"osm_id":"4668499583","tag":{"amenity":"recycling","recycling:paper":"yes","recycling_type":"container"}},"type":"Feature"},
	{"geometry":{"coordinates":[7.333371,51.351649],"type":"Point"},"properties":{"osm_id":"4668499584","tag":{"amenity":"recycling","recycling:glass_bottles":"yes","recycling_type":"container"}},"type":"Feature"},
	{"geometry":{"coordinates":[7.333376,51.351664],"type":"Point"},"properties":{"osm_id":"4668499585","tag":{"amenity":"recycling","recycling:glass_bottles":"yes","recycling_type":"container"}},"type":"Feature"},
	{"geometry":{"coordinates":[7.333332,51.351658],"type":"Point"},"properties":{"osm_id":"4668499586","tag":{"amenity":"recycling","recycling:glass_bottles":"yes","recycling_type":"container"}},"type":"Feature"},
	{"geometry":{"coordinates":[7.333297,51.351742],"type":"Point"},"properties":{"osm_id":"4668499587","tag":{"amenity":"recycling","recycling:paper":"yes","recycling_type":"container"}},"type":"Feature"},
	{"geometry":{"coordinates":[7.37003,51.372006],"type":"Point"},"properties":{"osm_id":"5573210998","tag":{"amenity":"waste_basket"}},"type":"Feature"},
	{"geometry":{"coordinates":[7.369992,51.372706],"type":"Point"},"properties":{"osm_id":"5573211004","tag":{"amenity":"waste_basket"}},"type":"Feature"},
	{"geometry":{"coordinates":[7.369693,51.373492],"type":"Point"},"properties":{"osm_id":"5573211006","tag":{"amenity":"waste_basket"}},"type":"Feature"},
	{"geometry":{"coordinates":[7.36552,51.373307],"type":"Point"},"properties":{"osm_id":"5750100214","tag":{"amenity":"recycling","recycling:glass_bottles":"yes","recycling_type":"container"}},"type":"Feature"},
	{"geometry":{"coordinates":[7.296553,51.346353],"type":"Point"},"properties":{"osm_id":"6042495759","tag":{"amenity":"recycling","operator":"Deutsches Rotes Kreuz","recycling:clothes":"yes","recycling:shoes":"yes","recycling_type":"container"}},"type":"Feature"},
	{"geometry":{"coordinates":[7.311138,51.3828],"type":"Point"},"properties":{"osm_id":"7451435073","tag":{"amenity":"waste_basket","waste":"trash"}},"type":"Feature"},
	{"geometry":{"coordinates":[7.377551,51.367225],"type":"Point"},"properties":{"osm_id":"8006218148","tag":{"amenity":"recycling","opening_hours":"Mo-Sa 08:00-18:00","recycling:glass_bottles":"yes","recycling:paper":"yes","recycling_type":"container"}},"type":"Feature"},
	{"geometry":{"coordinates":[7.335339,51.397959],"type":"Point"},"properties":{"osm_id":"8018921662","tag":{"amenity":"waste_basket","waste":"trash"}},"type":"Feature"},
	{"geometry":{"coordinates":[7.333212,51.396949],"type":"Point"},"properties":{"osm_id":"8018921663","tag":{"amenity":"waste_basket","waste":"trash"}},"type":"Feature"},
	{"geometry":{"coordinates":[7.332217,51.396608],"type":"Point"},"properties":{"osm_id":"8018921664","tag":{"amenity":"waste_basket","waste":"trash"}},"type":"Feature"},
	{"geometry":{"coordinates":[7.369951,51.378794],"type":"Point"},"properties":{"osm_id":"8256001856","tag":{"amenity":"recycling","recycling:glass_bottles":"yes","recycling_type":"container"}},"type":"Feature"},
	{"geometry":{"coordinates":[7.311983,51.383403],"type":"Point"},"properties":{"osm_id":"8761252161","tag":{"amenity":"waste_basket"}},"type":"Feature"}
]
}
