{
"type": "FeatureCollection",
"features": [
	{"geometry":{"coordinates":[7.305902,51.28107],"type":"Point"},"properties":{"osm_id":"506287706","tag":{"amenity":"recycling"}},"type":"Feature"},
	{"geometry":{"coordinates":[7.305601,51.284887],"type":"Point"},"properties":{"osm_id":"506289237","tag":{"amenity":"recycling","recycling:glass_bottles":"yes","recycling:paper":"yes","recycling_type":"container"}},"type":"Feature"},
	{"geometry":{"coordinates":[7.303289,51.28854],"type":"Point"},"properties":{"osm_id":"506289409","tag":{"amenity":"recycling","recycling:glass_bottles":"yes","recycling:paper":"yes","recycling_type":"container"}},"type":"Feature"},
	{"geometry":{"coordinates":[7.301752,51.284682],"type":"Point"},"properties":{"osm_id":"600508177","tag":{"amenity":"recycling","recycling:glass_bottles":"yes","recycling:paper":"yes","recycling_type":"container"}},"type":"Feature"},
	{"geometry":{"coordinates":[7.339673,51.289361],"type":"Point"},"properties":{"osm_id":"1262230216","tag":{"amenity":"recycling","recycling:glass_bottles":"yes","recycling:paper":"yes","recycling_type":"container"}},"type":"Feature"},
	{"geometry":{"coordinates":[7.312051,51.288844],"type":"Point"},"properties":{"osm_id":"1315205858","tag":{"amenity":"recycling","recycling:glass_bottles":"yes","recycling:paper":"yes","recycling_type":"container"}},"type":"Feature"},
	{"geometry":{"coordinates":[7.359695,51.285071],"type":"Point"},"properties":{"osm_id":"1389851484","tag":{"amenity":"recycling","recycling:clothes":"yes","recycling:glass_bottles":"yes","recycling:paper":"yes","recycling_type":"container"}},"type":"Feature"},
	{"geometry":{"coordinates":[7.305073,51.246203],"type":"Point"},"properties":{"osm_id":"1488585588","tag":{"amenity":"recycling","recycling_type":"container"}},"type":"Feature"},
	{"geometry":{"coordinates":[7.324105,51.259552],"type":"Point"},"properties":{"osm_id":"1488585592","tag":{"amenity":"recycling","recycling:cardboard":"yes","recycling:clothes":"yes","recycling:glass_bottles":"yes","recycling:paper":"yes","recycling_type":"container"}},"type":"Feature"},
	{"geometry":{"coordinates":[7.298098,51.287055],"type":"Point"},"properties":{"osm_id":"1557087050","tag":{"amenity":"recycling","recycling:clothes":"yes","recycling:glass_bottles":"yes","recycling:paper":"yes","recycling_type":"container"}},"type":"Feature"},
	{"geometry":{"coordinates":[7.354112,51.285736],"type":"Point"},"properties":{"osm_id":"2167824070","tag":{"amenity":"recycling","recycling:clothes":"yes","recycling:glass_bottles":"yes","recycling:paper":"yes","recycling_type":"container"}},"type":"Feature"},
	{"geometry":{"coordinates":[7.370833,51.250462],"type":"Point"},"properties":{"osm_id":"2518971819","tag":{"amenity":"waste_basket"}},"type":"Feature"},
	{"geometry":{"coordinates":[7.370114,51.250824],"type":"Point"},"properties":{"osm_id":"2518971826","tag":{"amenity":"waste_basket"}},"type":"Feature"},
	{"geometry":{"coordinates":[7.371386,51.250826],"type":"Point"},"properties":{"osm_id":"2518971828","tag":{"amenity":"waste_basket"}},"type":"Feature"},
	{"geometry":{"coordinates":[7.37273,51.251402],"type":"Point"},"properties":{"osm_id":"2518971854","tag":{"amenity":"waste_basket"}},"type":"Feature"},
	{"geometry":{"coordinates":[7.372567,51.252142],"type":"Point"},"properties":{"osm_id":"2518971897","tag":{"amenity":"waste_basket"}},"type":"Feature"},
	{"geometry":{"coordinates":[7.372354,51.252637],"type":"Point"},"properties":{"osm_id":"2518971901","tag":{"amenity":"waste_basket"}},"type":"Feature"},
	{"geometry":{"coordinates":[7.372277,51.25311],"type":"Point"},"properties":{"osm_id":"2518971903","tag":{"amenity":"waste_basket"}},"type":"Feature"},
	{"geometry":{"coordinates":[7.372876,51.25524],"type":"Point"},"properties":{"osm_id":"2518971916","tag":{"amenity":"waste_basket"}},"type":"Feature"},
	{"geometry":{"coordinates":[7.371004,51.255293],"type":"Point"},"properties":{"osm_id":"2518971919","tag":{"amenity":"waste_basket"}},"type":"Feature"},
	{"geometry":{"coordinates":[7.371511,51.255967],"type":"Point"},"properties":{"osm_id":"2518971946","tag":{"amenity":"waste_basket"}},"type":"Feature"},
	{"geometry":{"coordinates":[7.37385,51.256281],"type":"Point"},"properties":{"osm_id":"2518971975","tag":{"amenity":"waste_basket"}},"type":"Feature"},
	{"geometry":{"coordinates":[7.371403,51.256356],"type":"Point"},"properties":{"osm_id":"2518971995","tag":{"amenity":"waste_basket"}},"type":"Feature"},
	{"geometry":{"coordinates":[7.371212,51.256747],"type":"Point"},"properties":{"osm_id":"2518972010","tag":{"amenity":"waste_basket"}},"type":"Feature"},
	{"geometry":{"coordinates":[7.303869,51.279987],"type":"Point"},"properties":{"osm_id":"2640274137","tag":{"amenity":"recycling","recycling:cans":"no","recycling:clothes":"yes","recycling:glass_bottles":"yes","recycling:paper":"yes"}},"type":"Feature"},
	{"geometry":{"coordinates":[7.305952,51.280714],"type":"Point"},"properties":{"osm_id":"2642382994","tag":{"amenity":"recycling","recycling:cans":"no","recycling:glass_bottles":"yes","recycling:paper":"yes"}},"type":"Feature"},
	{"geometry":{"coordinates":[7.305762,51.280529],"type":"Point"},"properties":{"osm_id":"2642395161","tag":{"amenity":"waste_basket"}},"type":"Feature"},
	{"geometry":{"coordinates":[7.352065,51.288072],"type":"Point"},"properties":{"osm_id":"3529031971","tag":{"amenity":"recycling","recycling:glass_bottles":"yes","recycling:paper":"yes","recycling_type":"container"}},"type":"Feature"},
	{"geometry":{"coordinates":[7.30499,51.240916],"type":"Point"},"properties":{"osm_id":"3635657146","tag":{"amenity":"waste_basket"}},"type":"Feature"},
	{"geometry":{"coordinates":[7.295431,51.284184],"type":"Point"},"properties":{"osm_id":"4075259307","tag":{"amenity":"waste_basket"}},"type":"Feature"},
	{"geometry":{"coordinates":[7.295191,51.246205],"type":"Point"},"properties":{"osm_id":"4451978381","tag":{"addr:city":"Wuppertal","addr:postcode":"42399","addr:street":"Siegelberg","amenity":"recycling","operator":"AWG","recycling:books":"yes","recycling:cardboard":"yes","recycling:cartons":"yes","recycling:clothes":"yes","recycling:glass_bottles":"yes","recycling:magazines":"yes","recycling:newspaper":"yes","recycling:paper":"yes","recycling:shoes":"yes","recycling:small_electrical_appliances":"yes","recycling_type":"container"}},"type":"Feature"},
	{"geometry":{"coordinates":[7.302425,51.250299],"type":"Point"},"properties":{"osm_id":"5331594379","tag":{"amenity":"waste_basket","check_date":"2018-01-08"}},"type":"Feature"},
	{"geometry":{"coordinates":[7.295721,51.286031],"type":"Point"},"properties":{"osm_id":"6381825202","tag":{"amenity":"waste_basket","support":"pole"}},"type":"Feature"},
	{"geometry":{"coordinates":[7.301964,51.249206],"type":"Point"},"properties":{"osm_id":"6409855756","tag":{"amenity":"waste_basket","description":"Der M\u00c3\u00bclleimer steht etwas abseits der Bank."}},"type":"Feature"},
	{"geometry":{"coordinates":[7.295688,51.248725],"type":"Point"},"properties":{"osm_id":"6416048536","tag":{"amenity":"waste_basket","support":"pole"}},"type":"Feature"},
	{"geometry":{"coordinates":[7.298904,51.280083],"type":"Point"},"properties":{"osm_id":"7258873791","tag":{"amenity":"recycling","material":"metal","recycling_type":"container"}},"type":"Feature"}
]
}
