{
"type": "FeatureCollection",
"features": [
	{"geometry":{"coordinates":[7.37143,50.815743],"type":"Point"},"properties":{"osm_id":"1268841163","tag":{"amenity":"recycling"}},"type":"Feature"},
	{"geometry":{"coordinates":[7.308488,50.800575],"type":"Point"},"properties":{"osm_id":"1734662159","tag":{"amenity":"recycling","location":"overground","recycling:clothes":"yes","recycling:glass_bottles":"yes","recycling_type":"container"}},"type":"Feature"},
	{"geometry":{"coordinates":[7.3222,50.832585],"type":"Point"},"properties":{"osm_id":"4678824016","tag":{"amenity":"recycling","recycling:glass_bottles":"yes","recycling_type":"container"}},"type":"Feature"},
	{"geometry":{"coordinates":[7.353183,50.847139],"type":"Point"},"properties":{"osm_id":"4838487455","tag":{"amenity":"waste_basket"}},"type":"Feature"},
	{"geometry":{"coordinates":[7.347755,50.803066],"type":"Point"},"properties":{"osm_id":"7488881082","tag":{"amenity":"waste_basket"}},"type":"Feature"},
	{"geometry":{"coordinates":[7.316833,50.816122],"type":"Point"},"properties":{"osm_id":"7502976619","tag":{"amenity":"waste_basket","colour":"brown","material":"wood"}},"type":"Feature"},
	{"geometry":{"coordinates":[7.326928,50.815169],"type":"Point"},"properties":{"osm_id":"7515667643","tag":{"amenity":"recycling","recycling:clothes":"yes","recycling:glass_bottles":"yes","recycling_type":"container"}},"type":"Feature"},
	{"geometry":{"coordinates":[7.334686,50.822456],"type":"Point"},"properties":{"osm_id":"7515697449","tag":{"amenity":"recycling","recycling:clothes":"yes","recycling:glass_bottles":"yes","recycling_type":"container"}},"type":"Feature"},
	{"geometry":{"coordinates":[7.339717,50.803067],"type":"Point"},"properties":{"osm_id":"7549317704","tag":{"amenity":"waste_basket"}},"type":"Feature"},
	{"geometry":{"coordinates":[7.34004,50.802726],"type":"Point"},"properties":{"osm_id":"7549317705","tag":{"amenity":"waste_basket"}},"type":"Feature"},
	{"geometry":{"coordinates":[7.33849,50.843226],"type":"Point"},"properties":{"osm_id":"7552697424","tag":{"amenity":"waste_basket"}},"type":"Feature"},
	{"geometry":{"coordinates":[7.339436,50.842943],"type":"Point"},"properties":{"osm_id":"7552746832","tag":{"amenity":"waste_basket"}},"type":"Feature"},
	{"geometry":{"coordinates":[7.339924,50.842769],"type":"Point"},"properties":{"osm_id":"7552746839","tag":{"amenity":"waste_basket"}},"type":"Feature"},
	{"geometry":{"coordinates":[7.33811,50.843018],"type":"Point"},"properties":{"osm_id":"7559746200","tag":{"amenity":"waste_basket"}},"type":"Feature"},
	{"geometry":{"coordinates":[7.338652,50.842796],"type":"Point"},"properties":{"osm_id":"7560653603","tag":{"amenity":"waste_basket"}},"type":"Feature"},
	{"geometry":{"coordinates":[7.34022,50.842583],"type":"Point"},"properties":{"osm_id":"7590019979","tag":{"amenity":"waste_basket"}},"type":"Feature"},
	{"geometry":{"coordinates":[7.315342,50.805227],"type":"Point"},"properties":{"osm_id":"7613299528","tag":{"amenity":"waste_basket"}},"type":"Feature"},
	{"geometry":{"coordinates":[7.315658,50.80533],"type":"Point"},"properties":{"osm_id":"7613299544","tag":{"amenity":"waste_basket"}},"type":"Feature"},
	{"geometry":{"coordinates":[7.334502,50.839687],"type":"Point"},"properties":{"osm_id":"7616679888","tag":{"amenity":"waste_basket"}},"type":"Feature"},
	{"geometry":{"coordinates":[7.312678,50.804887],"type":"Point"},"properties":{"osm_id":"7640547789","tag":{"amenity":"recycling","recycling:glass_bottles":"yes","recycling_type":"container"}},"type":"Feature"},
	{"geometry":{"coordinates":[7.314963,50.804998],"type":"Point"},"properties":{"osm_id":"7640700758","tag":{"amenity":"waste_basket"}},"type":"Feature"},
	{"geometry":{"coordinates":[7.314618,50.80495],"type":"Point"},"properties":{"osm_id":"7640700768","tag":{"amenity":"waste_basket"}},"type":"Feature"},
	{"geometry":{"coordinates":[7.3143,50.805262],"type":"Point"},"properties":{"osm_id":"7640700772","tag":{"amenity":"waste_basket"}},"type":"Feature"},
	{"geometry":{"coordinates":[7.337723,50.843255],"type":"Point"},"properties":{"osm_id":"7774158732","tag":{"amenity":"waste_basket"}},"type":"Feature"},
	{"geometry":{"coordinates":[7.342492,50.846525],"type":"Point"},"properties":{"osm_id":"7779177808","tag":{"amenity":"recycling","recycling:clothes":"yes","recycling:glass_bottles":"yes","recycling_type":"container"}},"type":"Feature"},
	{"geometry":{"coordinates":[7.336871,50.843839],"type":"Point"},"properties":{"osm_id":"7798341268","tag":{"amenity":"waste_basket"}},"type":"Feature"},
	{"geometry":{"coordinates":[7.337382,50.843427],"type":"Point"},"properties":{"osm_id":"7798366089","tag":{"amenity":"waste_basket"}},"type":"Feature"},
	{"geometry":{"coordinates":[7.344221,50.840433],"type":"Point"},"properties":{"osm_id":"7798452193","tag":{"amenity":"waste_basket"}},"type":"Feature"},
	{"geometry":{"coordinates":[7.334256,50.844448],"type":"Point"},"properties":{"osm_id":"7862926501","tag":{"amenity":"waste_basket"}},"type":"Feature"},
	{"geometry":{"coordinates":[7.336105,50.82153],"type":"Point"},"properties":{"osm_id":"7881093088","tag":{"amenity":"waste_basket"}},"type":"Feature"},
	{"geometry":{"coordinates":[7.321466,50.80594],"type":"Point"},"properties":{"osm_id":"7881229689","tag":{"amenity":"waste_basket"}},"type":"Feature"},
	{"geometry":{"coordinates":[7.321551,50.806029],"type":"Point"},"properties":{"osm_id":"7881229717","tag":{"amenity":"waste_basket"}},"type":"Feature"}
]
}
