{
"type": "FeatureCollection",
"features": [
	{"geometry":{"coordinates":[7.356893,50.580799],"type":"Point"},"properties":{"osm_id":"476758867","tag":{"amenity":"recycling","recycling:glass":"yes"}},"type":"Feature"},
	{"geometry":{"coordinates":[7.373814,50.613425],"type":"Point"},"properties":{"osm_id":"995845016","tag":{"amenity":"recycling","recycling:glass":"yes"}},"type":"Feature"},
	{"geometry":{"coordinates":[7.333449,50.606924],"type":"Point"},"properties":{"osm_id":"1215186533","tag":{"amenity":"recycling","designation":"Glas"}},"type":"Feature"},
	{"geometry":{"coordinates":[7.339833,50.60684],"type":"Point"},"properties":{"osm_id":"1308101622","tag":{"amenity":"waste_basket"}},"type":"Feature"},
	{"geometry":{"coordinates":[7.348135,50.606215],"type":"Point"},"properties":{"osm_id":"1308101629","tag":{"amenity":"waste_basket"}},"type":"Feature"},
	{"geometry":{"coordinates":[7.357378,50.617708],"type":"Point"},"properties":{"osm_id":"1319531602","tag":{"amenity":"waste_basket"}},"type":"Feature"},
	{"geometry":{"coordinates":[7.355542,50.610827],"type":"Point"},"properties":{"osm_id":"1319959713","tag":{"amenity":"waste_basket"}},"type":"Feature"},
	{"geometry":{"coordinates":[7.372119,50.589101],"type":"Point"},"properties":{"osm_id":"1320798156","tag":{"amenity":"waste_basket"}},"type":"Feature"},
	{"geometry":{"coordinates":[7.339177,50.587475],"type":"Point"},"properties":{"osm_id":"1376600946","tag":{"amenity":"recycling","recycling:glass":"yes"}},"type":"Feature"},
	{"geometry":{"coordinates":[7.346773,50.590057],"type":"Point"},"properties":{"osm_id":"1376601630","tag":{"amenity":"recycling","recycling:glass_bottles":"yes","recycling_type":"container"}},"type":"Feature"},
	{"geometry":{"coordinates":[7.352534,50.595179],"type":"Point"},"properties":{"osm_id":"1376602443","tag":{"amenity":"recycling","recycling:glass":"yes","recycling:glass_bottles":"yes","recycling_type":"container"}},"type":"Feature"},
	{"geometry":{"coordinates":[7.346662,50.617616],"type":"Point"},"properties":{"osm_id":"1951302816","tag":{"amenity":"recycling","description":"Glascontainer","recycling:glass":"yes","recycling:glass_bottles":"yes","recycling_type":"container"}},"type":"Feature"},
	{"geometry":{"coordinates":[7.330096,50.604377],"type":"Point"},"properties":{"osm_id":"4737944093","tag":{"amenity":"waste_basket"}},"type":"Feature"},
	{"geometry":{"coordinates":[7.308366,50.618758],"type":"Point"},"properties":{"osm_id":"4758986810","tag":{"amenity":"waste_basket"}},"type":"Feature"},
	{"geometry":{"coordinates":[7.340847,50.619736],"type":"Point"},"properties":{"osm_id":"6128665065","tag":{"amenity":"recycling","description":"Glascontainer","recycling_type":"container"}},"type":"Feature"},
	{"geometry":{"coordinates":[7.336992,50.606376],"type":"Point"},"properties":{"osm_id":"6919511163","tag":{"amenity":"waste_basket","waste":"trash"}},"type":"Feature"},
	{"geometry":{"coordinates":[7.318484,50.609407],"type":"Point"},"properties":{"osm_id":"6919534961","tag":{"amenity":"waste_basket","waste":"trash"}},"type":"Feature"},
	{"geometry":{"coordinates":[7.31517,50.611091],"type":"Point"},"properties":{"osm_id":"6919534963","tag":{"amenity":"waste_basket","waste":"trash"}},"type":"Feature"},
	{"geometry":{"coordinates":[7.322683,50.612113],"type":"Point"},"properties":{"osm_id":"6919552792","tag":{"amenity":"waste_basket","waste":"trash"}},"type":"Feature"},
	{"geometry":{"coordinates":[7.330086,50.613552],"type":"Point"},"properties":{"osm_id":"6919559841","tag":{"amenity":"waste_basket","waste":"trash"}},"type":"Feature"},
	{"geometry":{"coordinates":[7.32426,50.608271],"type":"Point"},"properties":{"osm_id":"6919582311","tag":{"amenity":"waste_basket","waste":"trash"}},"type":"Feature"},
	{"geometry":{"coordinates":[7.35387,50.615603],"type":"Point"},"properties":{"osm_id":"7386384193","tag":{"amenity":"waste_basket"}},"type":"Feature"},
	{"geometry":{"coordinates":[7.326792,50.607769],"type":"Point"},"properties":{"osm_id":"7834949806","tag":{"amenity":"recycling","description":"Glascontainer","recycling_type":"container"}},"type":"Feature"},
	{"geometry":{"coordinates":[7.31632,50.615098],"type":"Point"},"properties":{"osm_id":"7834949807","tag":{"amenity":"recycling","description":"Glascontainer","recycling_type":"container"}},"type":"Feature"},
	{"geometry":{"coordinates":[7.317822,50.616455],"type":"Point"},"properties":{"osm_id":"7834949808","tag":{"amenity":"recycling","description":"Glascontainer","recycling_type":"container"}},"type":"Feature"}
]
}
