{
"type": "FeatureCollection",
"features": [
	{"geometry":{"coordinates":[7.326681,50.498332],"type":"Point"},"properties":{"osm_id":"414710538","tag":{"amenity":"recycling","location":"overground","recycling:clothes":"yes","recycling:glass":"yes","recycling_type":"container"}},"type":"Feature"},
	{"geometry":{"coordinates":[7.328321,50.50074],"type":"Point"},"properties":{"osm_id":"414710539","tag":{"amenity":"recycling","location":"overground","recycling:clothes":"yes","recycling:glass":"yes","recycling_type":"container"}},"type":"Feature"},
	{"geometry":{"coordinates":[7.301127,50.471834],"type":"Point"},"properties":{"osm_id":"449601181","tag":{"amenity":"recycling","recycling:glass":"yes"}},"type":"Feature"},
	{"geometry":{"coordinates":[7.335119,50.495957],"type":"Point"},"properties":{"osm_id":"469245672","tag":{"amenity":"recycling","location":"overground","recycling:clothes":"yes","recycling:glass":"yes","recycling_type":"container"}},"type":"Feature"},
	{"geometry":{"coordinates":[7.327399,50.487148],"type":"Point"},"properties":{"osm_id":"699988108","tag":{"amenity":"recycling","recycling:glass":"yes"}},"type":"Feature"},
	{"geometry":{"coordinates":[7.317974,50.50826],"type":"Point"},"properties":{"osm_id":"1269323782","tag":{"amenity":"recycling","recycling:clothes":"yes","recycling:glass":"yes"}},"type":"Feature"},
	{"geometry":{"coordinates":[7.328152,50.484066],"type":"Point"},"properties":{"osm_id":"1421908150","tag":{"amenity":"recycling","recycling:clothes":"yes","recycling:glass":"yes"}},"type":"Feature"},
	{"geometry":{"coordinates":[7.30616,50.502696],"type":"Point"},"properties":{"osm_id":"2125583734","tag":{"amenity":"recycling","recycling:clothes":"yes","recycling:glass":"yes","recycling:glass_bottles":"yes","recycling_type":"container"}},"type":"Feature"},
	{"geometry":{"coordinates":[7.342605,50.474638],"type":"Point"},"properties":{"osm_id":"2292653432","tag":{"amenity":"waste_basket"}},"type":"Feature"},
	{"geometry":{"coordinates":[7.31089,50.501439],"type":"Point"},"properties":{"osm_id":"4836838797","tag":{"amenity":"waste_basket"}},"type":"Feature"},
	{"geometry":{"coordinates":[7.308061,50.503948],"type":"Point"},"properties":{"osm_id":"4836838807","tag":{"amenity":"waste_basket"}},"type":"Feature"},
	{"geometry":{"coordinates":[7.327895,50.487352],"type":"Point"},"properties":{"osm_id":"4896997261","tag":{"amenity":"waste_basket"}},"type":"Feature"},
	{"geometry":{"coordinates":[7.327603,50.487643],"type":"Point"},"properties":{"osm_id":"4896997263","tag":{"amenity":"waste_basket"}},"type":"Feature"},
	{"geometry":{"coordinates":[7.328635,50.483033],"type":"Point"},"properties":{"osm_id":"4897011375","tag":{"amenity":"waste_basket"}},"type":"Feature"},
	{"geometry":{"coordinates":[7.305254,50.504401],"type":"Point"},"properties":{"osm_id":"6268653795","tag":{"amenity":"recycling","recycling:clothes":"yes","recycling_type":"container"}},"type":"Feature"},
	{"geometry":{"coordinates":[7.296723,50.512244],"type":"Point"},"properties":{"osm_id":"6549469886","tag":{"amenity":"waste_basket"}},"type":"Feature"},
	{"geometry":{"coordinates":[7.303247,50.508124],"type":"Point"},"properties":{"osm_id":"7865991862","tag":{"amenity":"waste_basket"}},"type":"Feature"}
]
}
