{
"type": "FeatureCollection",
"features": [
	{"geometry":{"coordinates":[7.335969,50.184974],"type":"Point"},"properties":{"osm_id":"4250000855","tag":{"amenity":"recycling","recycling:clothes":"yes","recycling:glass":"yes","recycling_type":"container"}},"type":"Feature"},
	{"geometry":{"coordinates":[7.338649,50.184615],"type":"Point"},"properties":{"osm_id":"4396531299","tag":{"amenity":"waste_basket"}},"type":"Feature"},
	{"geometry":{"coordinates":[7.339171,50.184418],"type":"Point"},"properties":{"osm_id":"4396538402","tag":{"amenity":"waste_basket"}},"type":"Feature"},
	{"geometry":{"coordinates":[7.340445,50.206011],"type":"Point"},"properties":{"osm_id":"4396666696","tag":{"amenity":"waste_basket"}},"type":"Feature"},
	{"geometry":{"coordinates":[7.339343,50.184235],"type":"Point"},"properties":{"osm_id":"4396674192","tag":{"amenity":"waste_basket"}},"type":"Feature"},
	{"geometry":{"coordinates":[7.338535,50.210355],"type":"Point"},"properties":{"osm_id":"4502959630","tag":{"amenity":"waste_basket"}},"type":"Feature"},
	{"geometry":{"coordinates":[7.336616,50.208584],"type":"Point"},"properties":{"osm_id":"4502959636","tag":{"amenity":"waste_basket"}},"type":"Feature"},
	{"geometry":{"coordinates":[7.336733,50.207624],"type":"Point"},"properties":{"osm_id":"4502959637","tag":{"amenity":"waste_basket"}},"type":"Feature"},
	{"geometry":{"coordinates":[7.33824,50.207647],"type":"Point"},"properties":{"osm_id":"4502959638","tag":{"amenity":"waste_basket"}},"type":"Feature"},
	{"geometry":{"coordinates":[7.336162,50.206356],"type":"Point"},"properties":{"osm_id":"4502959643","tag":{"amenity":"waste_basket"}},"type":"Feature"},
	{"geometry":{"coordinates":[7.334364,50.206572],"type":"Point"},"properties":{"osm_id":"4502959645","tag":{"amenity":"waste_basket"}},"type":"Feature"},
	{"geometry":{"coordinates":[7.334756,50.208882],"type":"Point"},"properties":{"osm_id":"4502959646","tag":{"amenity":"waste_basket"}},"type":"Feature"},
	{"geometry":{"coordinates":[7.352084,50.226047],"type":"Point"},"properties":{"osm_id":"5736282585","tag":{"amenity":"recycling","recycling:cans":"no","recycling:glass":"yes","recycling:paper":"yes","recycling_type":"container"}},"type":"Feature"},
	{"geometry":{"coordinates":[7.353044,50.201205],"type":"Point"},"properties":{"osm_id":"5808448340","tag":{"amenity":"waste_basket"}},"type":"Feature"},
	{"geometry":{"coordinates":[7.347787,50.20435],"type":"Point"},"properties":{"osm_id":"5808448341","tag":{"amenity":"waste_basket"}},"type":"Feature"},
	{"geometry":{"coordinates":[7.34548,50.20515],"type":"Point"},"properties":{"osm_id":"5808448342","tag":{"amenity":"waste_basket"}},"type":"Feature"},
	{"geometry":{"coordinates":[7.342374,50.206208],"type":"Point"},"properties":{"osm_id":"5808458679","tag":{"amenity":"waste_basket"}},"type":"Feature"},
	{"geometry":{"coordinates":[7.33973,50.206548],"type":"Point"},"properties":{"osm_id":"5808458680","tag":{"amenity":"waste_basket"}},"type":"Feature"},
	{"geometry":{"coordinates":[7.338812,50.206453],"type":"Point"},"properties":{"osm_id":"5808458681","tag":{"amenity":"waste_basket"}},"type":"Feature"},
	{"geometry":{"coordinates":[7.337721,50.20549],"type":"Point"},"properties":{"osm_id":"5808459012","tag":{"amenity":"waste_basket"}},"type":"Feature"},
	{"geometry":{"coordinates":[7.337015,50.205871],"type":"Point"},"properties":{"osm_id":"5808465406","tag":{"amenity":"waste_basket"}},"type":"Feature"},
	{"geometry":{"coordinates":[7.302029,50.182947],"type":"Point"},"properties":{"osm_id":"5862963536","tag":{"amenity":"waste_basket"}},"type":"Feature"},
	{"geometry":{"coordinates":[7.301285,50.181878],"type":"Point"},"properties":{"osm_id":"5862963560","tag":{"amenity":"waste_basket"}},"type":"Feature"},
	{"geometry":{"coordinates":[7.335042,50.194655],"type":"Point"},"properties":{"osm_id":"6110802877","tag":{"amenity":"recycling","recycling:glass_bottles":"yes","recycling_type":"container"}},"type":"Feature"},
	{"geometry":{"coordinates":[7.298773,50.178945],"type":"Point"},"properties":{"osm_id":"6407623950","tag":{"amenity":"recycling","brand":"Deutsches Rotes Kreuz","operator":"Deutsches Rotes Kreuz","recycling:clothes":"yes","recycling_type":"container"}},"type":"Feature"},
	{"geometry":{"coordinates":[7.298718,50.178957],"type":"Point"},"properties":{"osm_id":"6407623951","tag":{"amenity":"recycling","collection_times":"07:00-13:00,15:00-20:00","recycling:glass_bottles":"yes","recycling_type":"container"}},"type":"Feature"},
	{"geometry":{"coordinates":[7.369349,50.191356],"type":"Point"},"properties":{"osm_id":"7803123214","tag":{"amenity":"waste_basket"}},"type":"Feature"}
]
}
