{
"type": "FeatureCollection",
"features": [
	{"geometry":{"coordinates":[7.329682,48.998125],"type":"Point"},"properties":{"osm_id":"6328100761","tag":{"colour":"red","emergency":"fire_hydrant","fire_hydrant:type":"pillar","water_source":"main"}},"type":"Feature"},
	{"geometry":{"coordinates":[7.307253,48.992908],"type":"Point"},"properties":{"osm_id":"6328101364","tag":{"amenity":"waste_basket"}},"type":"Feature"},
	{"geometry":{"coordinates":[7.307216,48.993535],"type":"Point"},"properties":{"osm_id":"6328101367","tag":{"amenity":"waste_basket"}},"type":"Feature"},
	{"geometry":{"coordinates":[7.353314,48.987412],"type":"Point"},"properties":{"osm_id":"6328707444","tag":{"amenity":"waste_basket"}},"type":"Feature"},
	{"geometry":{"coordinates":[7.353265,48.9881],"type":"Point"},"properties":{"osm_id":"6328707445","tag":{"amenity":"waste_basket"}},"type":"Feature"},
	{"geometry":{"coordinates":[7.347092,48.986445],"type":"Point"},"properties":{"osm_id":"6328707809","tag":{"amenity":"waste_basket"}},"type":"Feature"},
	{"geometry":{"coordinates":[7.307314,48.993614],"type":"Point"},"properties":{"osm_id":"6346068778","tag":{"amenity":"waste_basket"}},"type":"Feature"},
	{"geometry":{"coordinates":[7.378986,48.996683],"type":"Point"},"properties":{"osm_id":"7652989332","tag":{"amenity":"waste_basket","material":"wood","operator":"Coll\u00c3\u00a8ge La Paraison"}},"type":"Feature"},
	{"geometry":{"coordinates":[7.379105,48.996974],"type":"Point"},"properties":{"osm_id":"7652989537","tag":{"amenity":"waste_basket","material":"wood","operator":"Coll\u00c3\u00a8ge La Paraison"}},"type":"Feature"}
]
}
