{
"type": "FeatureCollection",
"features": [
	{"geometry":{"coordinates":[7.312975,48.720189],"type":"Point"},"properties":{"osm_id":"260439541","tag":{"amenity":"recycling"}},"type":"Feature"},
	{"geometry":{"coordinates":[7.369062,48.738535],"type":"Point"},"properties":{"osm_id":"628587368","tag":{"amenity":"recycling","recycling:glass_bottles":"yes","recycling:paper":"yes","recycling_type":"container"}},"type":"Feature"},
	{"geometry":{"coordinates":[7.363744,48.73888],"type":"Point"},"properties":{"osm_id":"1377244925","tag":{"amenity":"waste_basket"}},"type":"Feature"},
	{"geometry":{"coordinates":[7.360683,48.739211],"type":"Point"},"properties":{"osm_id":"1377244936","tag":{"amenity":"recycling","recycling:glass_bottles":"yes","recycling:paper":"yes","recycling_type":"container"}},"type":"Feature"},
	{"geometry":{"coordinates":[7.362581,48.739753],"type":"Point"},"properties":{"osm_id":"1377244972","tag":{"amenity":"waste_basket"}},"type":"Feature"},
	{"geometry":{"coordinates":[7.359957,48.739799],"type":"Point"},"properties":{"osm_id":"1377244973","tag":{"amenity":"waste_basket"}},"type":"Feature"},
	{"geometry":{"coordinates":[7.34262,48.739214],"type":"Point"},"properties":{"osm_id":"1431746403","tag":{"amenity":"waste_basket"}},"type":"Feature"},
	{"geometry":{"coordinates":[7.322827,48.729418],"type":"Point"},"properties":{"osm_id":"1797618756","tag":{"amenity":"waste_basket"}},"type":"Feature"},
	{"geometry":{"coordinates":[7.338023,48.724089],"type":"Point"},"properties":{"osm_id":"3041017224","tag":{"amenity":"waste_basket"}},"type":"Feature"},
	{"geometry":{"coordinates":[7.338457,48.724439],"type":"Point"},"properties":{"osm_id":"3041017225","tag":{"amenity":"waste_basket"}},"type":"Feature"},
	{"geometry":{"coordinates":[7.338476,48.724809],"type":"Point"},"properties":{"osm_id":"3041017229","tag":{"amenity":"waste_basket"}},"type":"Feature"},
	{"geometry":{"coordinates":[7.33922,48.725403],"type":"Point"},"properties":{"osm_id":"3041021336","tag":{"amenity":"waste_basket"}},"type":"Feature"},
	{"geometry":{"coordinates":[7.360103,48.744139],"type":"Point"},"properties":{"osm_id":"3041043203","tag":{"amenity":"recycling","recycling:clothes":"yes","recycling:glass_bottles":"yes","recycling_type":"container"}},"type":"Feature"},
	{"geometry":{"coordinates":[7.374957,48.746248],"type":"Point"},"properties":{"name":"D\u00c3\u00a9cheterie Saverne","osm_id":"4515862432","tag":{"amenity":"recycling","recycling_type":"centre"}},"type":"Feature"},
	{"geometry":{"coordinates":[7.367027,48.742549],"type":"Point"},"properties":{"osm_id":"4922189593","tag":{"amenity":"waste_basket"}},"type":"Feature"},
	{"geometry":{"coordinates":[7.3676,48.742448],"type":"Point"},"properties":{"osm_id":"4922190964","tag":{"amenity":"recycling"}},"type":"Feature"},
	{"geometry":{"coordinates":[7.361087,48.741824],"type":"Point"},"properties":{"osm_id":"5445898858","tag":{"amenity":"waste_basket"}},"type":"Feature"},
	{"geometry":{"coordinates":[7.360334,48.741445],"type":"Point"},"properties":{"osm_id":"5445898860","tag":{"amenity":"waste_basket"}},"type":"Feature"},
	{"geometry":{"coordinates":[7.321579,48.723033],"type":"Point"},"properties":{"osm_id":"5445898865","tag":{"amenity":"waste_basket"}},"type":"Feature"},
	{"geometry":{"coordinates":[7.321102,48.722742],"type":"Point"},"properties":{"osm_id":"5445898868","tag":{"amenity":"waste_basket"}},"type":"Feature"},
	{"geometry":{"coordinates":[7.319472,48.722014],"type":"Point"},"properties":{"osm_id":"5445898871","tag":{"amenity":"waste_basket"}},"type":"Feature"},
	{"geometry":{"coordinates":[7.370388,48.698288],"type":"Point"},"properties":{"osm_id":"5733373891","tag":{"amenity":"recycling","recycling_type":"container"}},"type":"Feature"},
	{"geometry":{"coordinates":[7.3618,48.744308],"type":"Point"},"properties":{"osm_id":"6084293490","tag":{"amenity":"waste_basket"}},"type":"Feature"},
	{"geometry":{"coordinates":[7.362091,48.744355],"type":"Point"},"properties":{"osm_id":"6084311696","tag":{"amenity":"waste_basket"}},"type":"Feature"},
	{"geometry":{"coordinates":[7.362275,48.744534],"type":"Point"},"properties":{"osm_id":"6084311697","tag":{"amenity":"waste_basket"}},"type":"Feature"},
	{"geometry":{"coordinates":[7.362093,48.744508],"type":"Point"},"properties":{"osm_id":"6084317988","tag":{"amenity":"waste_basket"}},"type":"Feature"},
	{"geometry":{"coordinates":[7.362658,48.744503],"type":"Point"},"properties":{"osm_id":"6084317989","tag":{"amenity":"waste_basket"}},"type":"Feature"},
	{"geometry":{"coordinates":[7.361979,48.744592],"type":"Point"},"properties":{"osm_id":"6084317999","tag":{"amenity":"waste_basket"}},"type":"Feature"},
	{"geometry":{"coordinates":[7.361998,48.744533],"type":"Point"},"properties":{"osm_id":"6084318000","tag":{"amenity":"waste_basket"}},"type":"Feature"},
	{"geometry":{"coordinates":[7.369173,48.694918],"type":"Point"},"properties":{"osm_id":"6373558028","tag":{"amenity":"waste_basket"}},"type":"Feature"},
	{"geometry":{"coordinates":[7.378761,48.727524],"type":"Point"},"properties":{"osm_id":"6535074419","tag":{"amenity":"recycling","recycling_type":"container"}},"type":"Feature"},
	{"geometry":{"coordinates":[7.361985,48.717955],"type":"Point"},"properties":{"osm_id":"6551186011","tag":{"amenity":"recycling","recycling_type":"container"}},"type":"Feature"},
	{"geometry":{"coordinates":[7.370253,48.698305],"type":"Point"},"properties":{"osm_id":"7214450691","tag":{"amenity":"waste_basket"}},"type":"Feature"},
	{"geometry":{"coordinates":[7.367663,48.699569],"type":"Point"},"properties":{"osm_id":"7529688443","tag":{"amenity":"waste_basket"}},"type":"Feature"},
	{"geometry":{"coordinates":[7.362663,48.71711],"type":"Point"},"properties":{"osm_id":"7805647313","tag":{"amenity":"waste_basket"}},"type":"Feature"},
	{"geometry":{"coordinates":[7.359971,48.743701],"type":"Point"},"properties":{"osm_id":"7824150157","tag":{"amenity":"waste_basket"}},"type":"Feature"},
	{"geometry":{"coordinates":[7.371002,48.741495],"type":"Point"},"properties":{"osm_id":"9001660094","tag":{"amenity":"recycling","recycling:glass":"yes","recycling:glass_bottles":"yes","recycling_type":"container"}},"type":"Feature"}
]
}
