{
"type": "FeatureCollection",
"features": [
	{"geometry":{"coordinates":[7.365131,48.216818],"type":"Point"},"properties":{"osm_id":"4430508753","tag":{"amenity":"waste_disposal"}},"type":"Feature"},
	{"geometry":{"coordinates":[7.312102,48.166531],"type":"Point"},"properties":{"name":"D\u00c3\u00a9ch\u00c3\u00a8terie de Riquewihr","osm_id":"4532788449","tag":{"addr:city":"Riquewihr","addr:postcode":"68340","addr:street":"Rue des Pr\u00c3\u00a9s","amenity":"recycling","opening_hours":"Mo-Fr 08:00-12:00; Apr-Oct Sa 08:00-12:00,13:00-18:30; Nov-Mar Sa 08:00-12:00,13:00-17:30","recycling:aluminium":"yes","recycling:cartons":"yes","recycling:electrical_appliances":"yes","recycling:glass":"yes","recycling:green_waste":"yes","recycling:paper":"yes","recycling:plastic":"yes","recycling:scrap_metal":"yes","recycling:wood":"yes","recycling_type":"centre"}},"type":"Feature"},
	{"geometry":{"coordinates":[7.300108,48.16682],"type":"Point"},"properties":{"osm_id":"4792950392","tag":{"amenity":"recycling","recycling_type":"container"}},"type":"Feature"},
	{"geometry":{"coordinates":[7.331194,48.192838],"type":"Point"},"properties":{"osm_id":"6337996319","tag":{"amenity":"recycling","recycling_type":"container"}},"type":"Feature"},
	{"geometry":{"coordinates":[7.313256,48.19424],"type":"Point"},"properties":{"osm_id":"6337996320","tag":{"amenity":"recycling","recycling_type":"container"}},"type":"Feature"},
	{"geometry":{"coordinates":[7.33629,48.194875],"type":"Point"},"properties":{"osm_id":"6337996321","tag":{"amenity":"recycling","recycling:beverage_cartons":"yes","recycling:cans":"yes","recycling:glass_bottles":"yes","recycling:paper":"yes","recycling:plastic":"no","recycling:plastic_bottles":"yes","recycling:plastic_packaging":"no","recycling_type":"container"}},"type":"Feature"},
	{"geometry":{"coordinates":[7.335039,48.18869],"type":"Point"},"properties":{"osm_id":"6337996322","tag":{"amenity":"recycling","recycling_type":"container"}},"type":"Feature"},
	{"geometry":{"coordinates":[7.334502,48.194951],"type":"Point"},"properties":{"osm_id":"6337996323","tag":{"amenity":"recycling","recycling:cans":"yes","recycling:paper":"yes","recycling:plastic":"no","recycling:plastic_packaging":"yes","recycling_type":"container"}},"type":"Feature"},
	{"geometry":{"coordinates":[7.321304,48.195462],"type":"Point"},"properties":{"osm_id":"6337996324","tag":{"amenity":"recycling","recycling_type":"container"}},"type":"Feature"},
	{"geometry":{"coordinates":[7.316322,48.194672],"type":"Point"},"properties":{"osm_id":"6337996361","tag":{"amenity":"waste_basket","waste":"dog_excrement"}},"type":"Feature"},
	{"geometry":{"coordinates":[7.356552,48.217119],"type":"Point"},"properties":{"osm_id":"7827773534","tag":{"amenity":"recycling","recycling_type":"container"}},"type":"Feature"},
	{"geometry":{"coordinates":[7.318806,48.19511],"type":"Point"},"properties":{"osm_id":"8728311919","tag":{"amenity":"waste_basket"}},"type":"Feature"},
	{"geometry":{"coordinates":[7.319102,48.195029],"type":"Point"},"properties":{"osm_id":"8728322305","tag":{"amenity":"waste_basket"}},"type":"Feature"},
	{"geometry":{"coordinates":[7.313333,48.195103],"type":"Point"},"properties":{"osm_id":"8728369759","tag":{"amenity":"waste_basket","fee":"no","vending":"excrement_bags"}},"type":"Feature"},
	{"geometry":{"coordinates":[7.312408,48.1957],"type":"Point"},"properties":{"osm_id":"8728370929","tag":{"amenity":"waste_basket","fee":"no","vending":"excrement_bags"}},"type":"Feature"}
]
}
