{
"type": "FeatureCollection",
"features": [
	{"geometry":{"coordinates":[7.312296,47.730511],"type":"Point"},"properties":{"osm_id":"1178126813","tag":{"amenity":"waste_basket","waste":"trash"}},"type":"Feature"},
	{"geometry":{"coordinates":[7.314259,47.732478],"type":"Point"},"properties":{"osm_id":"1178127387","tag":{"amenity":"waste_basket","waste":"trash"}},"type":"Feature"},
	{"geometry":{"coordinates":[7.366554,47.749338],"type":"Point"},"properties":{"osm_id":"1458052058","tag":{"amenity":"waste_basket"}},"type":"Feature"},
	{"geometry":{"coordinates":[7.324682,47.749375],"type":"Point"},"properties":{"osm_id":"1572664689","tag":{"amenity":"recycling","recycling:glass_bottles":"yes","recycling:paper":"yes","recycling_type":"container"}},"type":"Feature"},
	{"geometry":{"coordinates":[7.314251,47.732976],"type":"Point"},"properties":{"osm_id":"1886725052","tag":{"amenity":"waste_basket","waste":"trash"}},"type":"Feature"},
	{"geometry":{"coordinates":[7.300274,47.696162],"type":"Point"},"properties":{"osm_id":"1924839998","tag":{"amenity":"recycling","recycling_type":"container"}},"type":"Feature"},
	{"geometry":{"coordinates":[7.356338,47.747596],"type":"Point"},"properties":{"osm_id":"2054310045","tag":{"amenity":"recycling","recycling_type":"container"}},"type":"Feature"},
	{"geometry":{"coordinates":[7.331863,47.737473],"type":"Point"},"properties":{"osm_id":"2117745585","tag":{"amenity":"recycling","recycling_type":"container"}},"type":"Feature"},
	{"geometry":{"coordinates":[7.323603,47.746928],"type":"Point"},"properties":{"osm_id":"2127859795","tag":{"amenity":"recycling","recycling:cartons":"yes","recycling:glass_bottles":"yes","recycling:newspaper":"yes","recycling:paper":"yes","recycling:plastic_bottles":"yes","recycling_type":"container"}},"type":"Feature"},
	{"geometry":{"coordinates":[7.332265,47.744192],"type":"Point"},"properties":{"osm_id":"2133892024","tag":{"amenity":"recycling","recycling:cartons":"yes","recycling:clothes":"yes","recycling:glass_bottles":"yes","recycling:magazines":"yes","recycling:newspaper":"yes","recycling:paper":"yes","recycling_type":"container"}},"type":"Feature"},
	{"geometry":{"coordinates":[7.349753,47.753037],"type":"Point"},"properties":{"osm_id":"2440425028","tag":{"amenity":"recycling","recycling_type":"container"}},"type":"Feature"},
	{"geometry":{"coordinates":[7.340911,47.748109],"type":"Point"},"properties":{"osm_id":"2558455440","tag":{"amenity":"recycling","recycling:batteries":"no","recycling:books":"no","recycling:cans":"yes","recycling:cardboard":"yes","recycling:cartons":"yes","recycling:clothes":"no","recycling:electrical_appliances":"no","recycling:glass":"no","recycling:glass_bottles":"yes","recycling:green_waste":"no","recycling:magazines":"yes","recycling:newspaper":"yes","recycling:paper":"yes","recycling:paper_packaging":"yes","recycling:plastic":"yes","recycling:plastic_bottles":"yes","recycling:plastic_packaging":"yes","recycling:scrap_metal":"yes","recycling:small_appliances":"no","recycling:waste":"yes","recycling:wood":"no","recycling_type":"container"}},"type":"Feature"},
	{"geometry":{"coordinates":[7.313813,47.731976],"type":"Point"},"properties":{"osm_id":"2775695322","tag":{"amenity":"waste_basket","waste":"trash"}},"type":"Feature"},
	{"geometry":{"coordinates":[7.341242,47.74436],"type":"Point"},"properties":{"osm_id":"3918436055","tag":{"amenity":"recycling","recycling:glass_bottles":"yes","recycling_type":"container"}},"type":"Feature"},
	{"geometry":{"coordinates":[7.31541,47.733519],"type":"Point"},"properties":{"osm_id":"4697159341","tag":{"amenity":"waste_basket","waste":"trash"}},"type":"Feature"},
	{"geometry":{"coordinates":[7.312092,47.730871],"type":"Point"},"properties":{"osm_id":"4698395727","tag":{"amenity":"waste_basket","waste":"trash"}},"type":"Feature"},
	{"geometry":{"coordinates":[7.314599,47.732373],"type":"Point"},"properties":{"osm_id":"4698395737","tag":{"amenity":"waste_basket","waste":"trash"}},"type":"Feature"},
	{"geometry":{"coordinates":[7.312863,47.73108],"type":"Point"},"properties":{"osm_id":"4698997009","tag":{"amenity":"waste_basket","waste":"trash"}},"type":"Feature"},
	{"geometry":{"coordinates":[7.312727,47.730899],"type":"Point"},"properties":{"osm_id":"4698997013","tag":{"amenity":"waste_basket","waste":"trash"}},"type":"Feature"},
	{"geometry":{"coordinates":[7.311806,47.730144],"type":"Point"},"properties":{"osm_id":"4699769310","tag":{"amenity":"waste_basket","waste":"trash"}},"type":"Feature"},
	{"geometry":{"coordinates":[7.320058,47.724519],"type":"Point"},"properties":{"osm_id":"4969150006","tag":{"amenity":"recycling","recycling_type":"container"}},"type":"Feature"},
	{"geometry":{"coordinates":[7.311824,47.730505],"type":"Point"},"properties":{"osm_id":"5752065671","tag":{"amenity":"waste_basket","waste":"trash"}},"type":"Feature"},
	{"geometry":{"coordinates":[7.311293,47.730141],"type":"Point"},"properties":{"osm_id":"5752065674","tag":{"amenity":"waste_basket","waste":"trash"}},"type":"Feature"},
	{"geometry":{"coordinates":[7.313234,47.731807],"type":"Point"},"properties":{"osm_id":"5752065705","tag":{"amenity":"waste_basket","waste":"trash"}},"type":"Feature"},
	{"geometry":{"coordinates":[7.312851,47.731385],"type":"Point"},"properties":{"osm_id":"5752065706","tag":{"amenity":"waste_basket","waste":"trash"}},"type":"Feature"},
	{"geometry":{"coordinates":[7.311629,47.730608],"type":"Point"},"properties":{"osm_id":"5752066434","tag":{"amenity":"waste_basket","waste":"trash"}},"type":"Feature"},
	{"geometry":{"coordinates":[7.337128,47.745268],"type":"Point"},"properties":{"osm_id":"5760726686","tag":{"amenity":"waste_basket"}},"type":"Feature"},
	{"geometry":{"coordinates":[7.338244,47.747007],"type":"Point"},"properties":{"osm_id":"5760827158","tag":{"amenity":"waste_basket"}},"type":"Feature"},
	{"geometry":{"coordinates":[7.346891,47.749418],"type":"Point"},"properties":{"osm_id":"6417307494","tag":{"amenity":"waste_basket"}},"type":"Feature"},
	{"geometry":{"coordinates":[7.346751,47.74929],"type":"Point"},"properties":{"osm_id":"6417307496","tag":{"amenity":"waste_basket"}},"type":"Feature"},
	{"geometry":{"coordinates":[7.348656,47.749713],"type":"Point"},"properties":{"osm_id":"6417307497","tag":{"amenity":"waste_disposal"}},"type":"Feature"},
	{"geometry":{"coordinates":[7.345449,47.749028],"type":"Point"},"properties":{"osm_id":"6417307498","tag":{"amenity":"waste_basket"}},"type":"Feature"},
	{"geometry":{"coordinates":[7.345758,47.748783],"type":"Point"},"properties":{"osm_id":"6417307500","tag":{"amenity":"waste_basket"}},"type":"Feature"},
	{"geometry":{"coordinates":[7.345702,47.748893],"type":"Point"},"properties":{"osm_id":"6417307502","tag":{"amenity":"waste_basket"}},"type":"Feature"},
	{"geometry":{"coordinates":[7.337371,47.745261],"type":"Point"},"properties":{"osm_id":"6425535987","tag":{"amenity":"waste_basket"}},"type":"Feature"},
	{"geometry":{"coordinates":[7.337401,47.745237],"type":"Point"},"properties":{"osm_id":"6425536891","tag":{"amenity":"waste_basket"}},"type":"Feature"},
	{"geometry":{"coordinates":[7.337257,47.745231],"type":"Point"},"properties":{"osm_id":"6425536892","tag":{"amenity":"waste_basket"}},"type":"Feature"},
	{"geometry":{"coordinates":[7.337179,47.744742],"type":"Point"},"properties":{"osm_id":"6425537286","tag":{"amenity":"waste_basket"}},"type":"Feature"},
	{"geometry":{"coordinates":[7.34282,47.742116],"type":"Point"},"properties":{"osm_id":"6487884986","tag":{"amenity":"waste_basket"}},"type":"Feature"},
	{"geometry":{"coordinates":[7.342569,47.741984],"type":"Point"},"properties":{"osm_id":"6487885187","tag":{"amenity":"waste_basket"}},"type":"Feature"},
	{"geometry":{"coordinates":[7.343014,47.742224],"type":"Point"},"properties":{"osm_id":"6487896185","tag":{"amenity":"waste_basket"}},"type":"Feature"},
	{"geometry":{"coordinates":[7.343501,47.742488],"type":"Point"},"properties":{"osm_id":"6487896485","tag":{"amenity":"waste_basket"}},"type":"Feature"},
	{"geometry":{"coordinates":[7.380845,47.751448],"type":"Point"},"properties":{"osm_id":"6685683669","tag":{"amenity":"waste_basket"}},"type":"Feature"},
	{"geometry":{"coordinates":[7.368599,47.741543],"type":"Point"},"properties":{"osm_id":"6744810508","tag":{"amenity":"waste_basket"}},"type":"Feature"},
	{"geometry":{"coordinates":[7.367934,47.742432],"type":"Point"},"properties":{"osm_id":"6744810511","tag":{"amenity":"waste_basket"}},"type":"Feature"},
	{"geometry":{"coordinates":[7.368539,47.74243],"type":"Point"},"properties":{"osm_id":"6745378798","tag":{"amenity":"waste_basket"}},"type":"Feature"},
	{"geometry":{"coordinates":[7.316162,47.74489],"type":"Point"},"properties":{"osm_id":"6745389262","tag":{"amenity":"waste_basket"}},"type":"Feature"},
	{"geometry":{"coordinates":[7.318277,47.745301],"type":"Point"},"properties":{"osm_id":"6754339086","tag":{"amenity":"waste_basket"}},"type":"Feature"},
	{"geometry":{"coordinates":[7.317553,47.745709],"type":"Point"},"properties":{"osm_id":"6754339112","tag":{"amenity":"waste_basket"}},"type":"Feature"},
	{"geometry":{"coordinates":[7.318456,47.745062],"type":"Point"},"properties":{"osm_id":"6754339135","tag":{"amenity":"recycling","recycling:glass_bottles":"yes","recycling_type":"container"}},"type":"Feature"},
	{"geometry":{"coordinates":[7.318893,47.745248],"type":"Point"},"properties":{"osm_id":"6754339172","tag":{"amenity":"waste_basket"}},"type":"Feature"},
	{"geometry":{"coordinates":[7.352012,47.743118],"type":"Point"},"properties":{"osm_id":"6754341613","tag":{"amenity":"waste_basket"}},"type":"Feature"},
	{"geometry":{"coordinates":[7.368341,47.741765],"type":"Point"},"properties":{"osm_id":"6773291155","tag":{"amenity":"waste_basket"}},"type":"Feature"},
	{"geometry":{"coordinates":[7.36288,47.751021],"type":"Point"},"properties":{"osm_id":"7209633319","tag":{"amenity":"waste_basket"}},"type":"Feature"},
	{"geometry":{"coordinates":[7.362506,47.736536],"type":"Point"},"properties":{"osm_id":"7616794847","tag":{"amenity":"recycling","operator":"Le Relais Est","operator:website":"https://www.relaisest.org/collecte","recycling:clothes":"yes","recycling_type":"container"}},"type":"Feature"},
	{"geometry":{"coordinates":[7.36252,47.736529],"type":"Point"},"properties":{"osm_id":"7616794848","tag":{"amenity":"recycling","operator":"Le Relais Est","operator:website":"https://www.relaisest.org/collecte","recycling:clothes":"yes","recycling_type":"container"}},"type":"Feature"},
	{"geometry":{"coordinates":[7.362497,47.736605],"type":"Point"},"properties":{"osm_id":"7616794849","tag":{"amenity":"recycling","recycling:glass_bottles":"yes","recycling_type":"container"}},"type":"Feature"},
	{"geometry":{"coordinates":[7.362514,47.736617],"type":"Point"},"properties":{"osm_id":"7616794850","tag":{"amenity":"recycling","recycling:glass_bottles":"yes","recycling_type":"container"}},"type":"Feature"},
	{"geometry":{"coordinates":[7.359692,47.736374],"type":"Point"},"properties":{"osm_id":"7616836203","tag":{"amenity":"waste_basket"}},"type":"Feature"},
	{"geometry":{"coordinates":[7.360218,47.736689],"type":"Point"},"properties":{"osm_id":"7616836204","tag":{"amenity":"waste_basket"}},"type":"Feature"},
	{"geometry":{"coordinates":[7.359834,47.737147],"type":"Point"},"properties":{"osm_id":"7616836206","tag":{"amenity":"waste_basket"}},"type":"Feature"},
	{"geometry":{"coordinates":[7.359998,47.737178],"type":"Point"},"properties":{"osm_id":"7616836209","tag":{"amenity":"waste_basket"}},"type":"Feature"},
	{"geometry":{"coordinates":[7.359909,47.736892],"type":"Point"},"properties":{"osm_id":"7616836210","tag":{"amenity":"waste_basket"}},"type":"Feature"},
	{"geometry":{"coordinates":[7.360246,47.736905],"type":"Point"},"properties":{"osm_id":"7616836213","tag":{"amenity":"waste_basket"}},"type":"Feature"},
	{"geometry":{"coordinates":[7.358732,47.73704],"type":"Point"},"properties":{"osm_id":"7617506590","tag":{"amenity":"waste_basket"}},"type":"Feature"},
	{"geometry":{"coordinates":[7.358434,47.736785],"type":"Point"},"properties":{"osm_id":"7617506594","tag":{"amenity":"waste_basket"}},"type":"Feature"},
	{"geometry":{"coordinates":[7.358586,47.736929],"type":"Point"},"properties":{"osm_id":"7617506595","tag":{"amenity":"waste_basket"}},"type":"Feature"},
	{"geometry":{"coordinates":[7.358747,47.736794],"type":"Point"},"properties":{"osm_id":"7617506603","tag":{"amenity":"waste_basket"}},"type":"Feature"},
	{"geometry":{"coordinates":[7.359012,47.73661],"type":"Point"},"properties":{"osm_id":"7617611083","tag":{"amenity":"waste_basket"}},"type":"Feature"},
	{"geometry":{"coordinates":[7.359441,47.737264],"type":"Point"},"properties":{"osm_id":"7617623540","tag":{"amenity":"waste_basket"}},"type":"Feature"},
	{"geometry":{"coordinates":[7.358213,47.736909],"type":"Point"},"properties":{"osm_id":"7637878996","tag":{"amenity":"waste_basket","material":"concrete"}},"type":"Feature"},
	{"geometry":{"coordinates":[7.3593,47.736152],"type":"Point"},"properties":{"osm_id":"7637879015","tag":{"amenity":"waste_basket","material":"concrete"}},"type":"Feature"},
	{"geometry":{"coordinates":[7.359463,47.736397],"type":"Point"},"properties":{"osm_id":"7638063207","tag":{"amenity":"waste_basket","material":"concrete"}},"type":"Feature"}
]
}
