{
"type": "FeatureCollection",
"features": [
	{"geometry":{"coordinates":[7.3436,47.274842],"type":"Point"},"properties":{"osm_id":"1723390956","tag":{"amenity":"recycling","recycling_type":"container"}},"type":"Feature"},
	{"geometry":{"coordinates":[7.359113,47.277696],"type":"Point"},"properties":{"osm_id":"1724588598","tag":{"amenity":"recycling","recycling_type":"container"}},"type":"Feature"},
	{"geometry":{"coordinates":[7.373117,47.276186],"type":"Point"},"properties":{"osm_id":"2198511204","tag":{"amenity":"waste_basket"}},"type":"Feature"},
	{"geometry":{"coordinates":[7.343872,47.241397],"type":"Point"},"properties":{"osm_id":"7914221270","tag":{"amenity":"recycling","recycling:cans":"yes","recycling:clothes":"yes","recycling:coffee_capsules":"yes","recycling:cooking_oil":"lane","recycling:glass_bottles":"yes","recycling_type":"container"}},"type":"Feature"},
	{"geometry":{"coordinates":[7.331926,47.239057],"type":"Point"},"properties":{"osm_id":"9104040017","tag":{"amenity":"waste_basket"}},"type":"Feature"},
	{"geometry":{"coordinates":[7.331145,47.23966],"type":"Point"},"properties":{"osm_id":"9104040156","tag":{"amenity":"waste_basket"}},"type":"Feature"}
]
}
