{
"type": "FeatureCollection",
"lastupdate": "2020-08-05T00:00:00Z",
"features": [
	{"geometry":{"coordinates":[7.343473,47.120386],"type":"Point"},"properties":{"osm_id":"1200368948","tag":{"amenity":"recycling","recycling:batteries":"yes","recycling:cans":"yes","recycling:glass":"yes"}},"type":"Feature"},
	{"geometry":{"coordinates":[7.351313,47.119925],"type":"Point"},"properties":{"osm_id":"1200370486","tag":{"amenity":"waste_basket"}},"type":"Feature"},
	{"geometry":{"coordinates":[7.355783,47.120404],"type":"Point"},"properties":{"osm_id":"1200377164","tag":{"amenity":"waste_basket"}},"type":"Feature"},
	{"geometry":{"coordinates":[7.367381,47.13967],"type":"Point"},"properties":{"name":"Recycling","osm_id":"2358230741","tag":{"amenity":"recycling","recycling_type":"container"}},"type":"Feature"},
	{"geometry":{"coordinates":[7.361062,47.143592],"type":"Point"},"properties":{"name":"Schlunegger Recycling","osm_id":"2358232763","tag":{"amenity":"recycling","recycling_type":"centre"}},"type":"Feature"},
	{"geometry":{"coordinates":[7.309225,47.154495],"type":"Point"},"properties":{"osm_id":"3743263585","tag":{"amenity":"waste_basket","fireplace":"yes","tourism":"picnic_site"}},"type":"Feature"},
	{"geometry":{"coordinates":[7.321591,47.151441],"type":"Point"},"properties":{"osm_id":"4590050330","tag":{"amenity":"recycling","collection_times":"8-17","recycling:cans":"yes","recycling:clothes":"yes","recycling:glass":"yes","recycling:glass_bottles":"yes","recycling:oil":"yes","recycling_type":"container"}},"type":"Feature"},
	{"geometry":{"coordinates":[7.375102,47.138515],"type":"Point"},"properties":{"osm_id":"4849163321","tag":{"amenity":"waste_basket"}},"type":"Feature"},
	{"geometry":{"coordinates":[7.375007,47.138236],"type":"Point"},"properties":{"osm_id":"4849163322","tag":{"amenity":"waste_basket"}},"type":"Feature"},
	{"geometry":{"coordinates":[7.340133,47.143462],"type":"Point"},"properties":{"osm_id":"5725785977","tag":{"amenity":"waste_basket"}},"type":"Feature"},
	{"geometry":{"coordinates":[7.307131,47.136562],"type":"Point"},"properties":{"osm_id":"5728459888","tag":{"amenity":"recycling","recycling:cans":"yes","recycling:clothes":"yes","recycling:cooking_oil":"yes","recycling:glass_bottles":"yes","recycling:paper":"yes"}},"type":"Feature"},
	{"geometry":{"coordinates":[7.336672,47.123638],"type":"Point"},"properties":{"osm_id":"6053243696","tag":{"amenity":"waste_basket"}},"type":"Feature"},
	{"geometry":{"coordinates":[7.336626,47.124154],"type":"Point"},"properties":{"osm_id":"6053243698","tag":{"amenity":"waste_basket"}},"type":"Feature"},
	{"geometry":{"coordinates":[7.340446,47.12168],"type":"Point"},"properties":{"osm_id":"6053254417","tag":{"amenity":"waste_basket"}},"type":"Feature"},
	{"geometry":{"coordinates":[7.379771,47.137393],"type":"Point"},"properties":{"osm_id":"6203823606","tag":{"amenity":"waste_basket"}},"type":"Feature"},
	{"geometry":{"coordinates":[7.312548,47.137419],"type":"Point"},"properties":{"osm_id":"7527101578","tag":{"amenity":"waste_basket"}},"type":"Feature"},
	{"geometry":{"coordinates":[7.312532,47.137554],"type":"Point"},"properties":{"osm_id":"7527101579","tag":{"amenity":"waste_basket"}},"type":"Feature"},
	{"geometry":{"coordinates":[7.333244,47.140871],"type":"Point"},"properties":{"osm_id":"7527231686","tag":{"amenity":"waste_basket"}},"type":"Feature"},
	{"geometry":{"coordinates":[7.334008,47.14097],"type":"Point"},"properties":{"osm_id":"7527231688","tag":{"amenity":"waste_basket"}},"type":"Feature"},
	{"geometry":{"coordinates":[7.331816,47.139311],"type":"Point"},"properties":{"osm_id":"7527231690","tag":{"amenity":"waste_basket"}},"type":"Feature"},
	{"geometry":{"coordinates":[7.300464,47.10126],"type":"Point"},"properties":{"osm_id":"7729173791","tag":{"amenity":"waste_basket"}},"type":"Feature"},
	{"geometry":{"coordinates":[7.318309,47.132007],"type":"Point"},"properties":{"osm_id":"7751474636","tag":{"amenity":"waste_basket"}},"type":"Feature"},
	{"geometry":{"coordinates":[7.31572,47.133846],"type":"Point"},"properties":{"osm_id":"7751480984","tag":{"amenity":"recycling","recycling:aluminium":"yes","recycling:cans":"yes","recycling:glass_bottles":"yes","recycling_type":"container"}},"type":"Feature"},
	{"geometry":{"coordinates":[7.315983,47.133771],"type":"Point"},"properties":{"osm_id":"7751486885","tag":{"amenity":"recycling","recycling:clothes":"yes","recycling_type":"container"}},"type":"Feature"}
]
}
