{
"type": "FeatureCollection",
"lastupdate": "2020-08-06T00:00:00Z",
"features": [
	{"geometry":{"coordinates":[7.32108,46.867839],"type":"Point"},"properties":{"osm_id":"1370155910","tag":{"amenity":"waste_basket"}},"type":"Feature"},
	{"geometry":{"coordinates":[7.379007,46.873709],"type":"Point"},"properties":{"osm_id":"2521047234","tag":{"amenity":"waste_basket"}},"type":"Feature"},
	{"geometry":{"coordinates":[7.378002,46.893342],"type":"Point"},"properties":{"osm_id":"5405303422","tag":{"amenity":"waste_basket"}},"type":"Feature"},
	{"geometry":{"coordinates":[7.323634,46.893853],"type":"Point"},"properties":{"osm_id":"5794129796","tag":{"amenity":"waste_basket"}},"type":"Feature"},
	{"geometry":{"coordinates":[7.328943,46.889068],"type":"Point"},"properties":{"name":"Labdoo Annahmestelle f\u00c3\u00bcr Laptops","osm_id":"6543285460","tag":{"addr:city":"Flamatt","addr:housenumber":"44","addr:postcode":"3175","addr:street":"Industriestrasse","amenity":"recycling","brand":"Labdoo","charity":"yes","description":"Bei Scout24 AG k\u00f6nnen zu den obigen Gesch\u00e4ftszeiten Laptops am Empfang mit dem Hinweis auf Labdoo / Marc Wenger deponiert werden.","location":"indoor","operator":"Scout24 Schweiz AG","recycling:computers":"yes","recycling:mobile_phones":"yes","service_times":"Mo-Fr 09:00-16:00","website":"https://www.labdoo.org/de/hub?h=43273"}},"type":"Feature"},
	{"geometry":{"coordinates":[7.33375,46.892836],"type":"Point"},"properties":{"osm_id":"6983778971","tag":{"amenity":"waste_basket","waste":"dog_excrement"}},"type":"Feature"}
]
}
