{
"type": "FeatureCollection",
"features": [
	{"geometry":{"coordinates":[7.374187,46.553319],"type":"Point"},"properties":{"name":"Hotel Post","osm_id":"262931002","tag":{"amenity":"recycling","tourism":"hostel"}},"type":"Feature"},
	{"geometry":{"coordinates":[7.371667,46.554221],"type":"Point"},"properties":{"osm_id":"2478404222","tag":{"amenity":"waste_basket"}},"type":"Feature"},
	{"geometry":{"coordinates":[7.29504,46.522434],"type":"Point"},"properties":{"osm_id":"8974648726","tag":{"amenity":"waste_basket"}},"type":"Feature"},
	{"geometry":{"coordinates":[7.311158,46.517511],"type":"Point"},"properties":{"osm_id":"8974648728","tag":{"amenity":"waste_basket"}},"type":"Feature"},
	{"geometry":{"coordinates":[7.305062,46.517536],"type":"Point"},"properties":{"osm_id":"8974648736","tag":{"amenity":"waste_basket"}},"type":"Feature"},
	{"geometry":{"coordinates":[7.297853,46.519302],"type":"Point"},"properties":{"osm_id":"8974648738","tag":{"amenity":"waste_basket"}},"type":"Feature"}
]
}
