{
"type": "FeatureCollection",
"features": [
	{"geometry":{"coordinates":[7.326177,46.203886],"type":"Point"},"properties":{"osm_id":"1415254362","tag":{"amenity":"waste_basket"}},"type":"Feature"},
	{"geometry":{"coordinates":[7.319878,46.22435],"type":"Point"},"properties":{"osm_id":"1763805346","tag":{"amenity":"waste_basket"}},"type":"Feature"},
	{"geometry":{"coordinates":[7.319878,46.224394],"type":"Point"},"properties":{"osm_id":"1763805349","tag":{"amenity":"recycling","recycling:glass":"yes"}},"type":"Feature"},
	{"geometry":{"coordinates":[7.348166,46.230079],"type":"Point"},"properties":{"osm_id":"2862894697","tag":{"amenity":"waste_basket"}},"type":"Feature"},
	{"geometry":{"coordinates":[7.380419,46.247271],"type":"Point"},"properties":{"osm_id":"2862899284","tag":{"amenity":"recycling","recycling:cans":"yes","recycling:clothes":"yes","recycling:glass":"yes","recycling:paper":"yes"}},"type":"Feature"},
	{"geometry":{"coordinates":[7.345946,46.227743],"type":"Point"},"properties":{"osm_id":"2895449132","tag":{"amenity":"waste_basket"}},"type":"Feature"},
	{"geometry":{"coordinates":[7.342195,46.225293],"type":"Point"},"properties":{"osm_id":"3234396944","tag":{"amenity":"waste_basket"}},"type":"Feature"},
	{"geometry":{"coordinates":[7.348277,46.252298],"type":"Point"},"properties":{"osm_id":"3390662558","tag":{"amenity":"recycling","recycling:paper":"yes"}},"type":"Feature"},
	{"geometry":{"coordinates":[7.348326,46.25228],"type":"Point"},"properties":{"osm_id":"3390662559","tag":{"amenity":"recycling","recycling:glass":"yes"}},"type":"Feature"},
	{"geometry":{"coordinates":[7.34015,46.23355],"type":"Point"},"properties":{"osm_id":"3394403877","tag":{"amenity":"waste_basket"}},"type":"Feature"},
	{"geometry":{"coordinates":[7.364703,46.234924],"type":"Point"},"properties":{"osm_id":"3417346820","tag":{"amenity":"waste_basket"}},"type":"Feature"},
	{"geometry":{"coordinates":[7.354557,46.228536],"type":"Point"},"properties":{"osm_id":"3874817054","tag":{"amenity":"waste_basket"}},"type":"Feature"},
	{"geometry":{"coordinates":[7.347879,46.228482],"type":"Point"},"properties":{"osm_id":"3874829673","tag":{"amenity":"waste_basket"}},"type":"Feature"},
	{"geometry":{"coordinates":[7.298547,46.248449],"type":"Point"},"properties":{"osm_id":"3951842442","tag":{"amenity":"recycling","recycling:glass_bottles":"yes","recycling:paper":"yes","recycling:waste":"yes","recycling_type":"container"}},"type":"Feature"},
	{"geometry":{"coordinates":[7.317431,46.22347],"type":"Point"},"properties":{"osm_id":"6497439769","tag":{"addr:street":"Rue des Taillis","amenity":"recycling","operator":"Ville de Sion","recycling_type":"centre"}},"type":"Feature"},
	{"geometry":{"coordinates":[7.331134,46.224023],"type":"Point"},"properties":{"osm_id":"6497995447","tag":{"amenity":"recycling","operator":"Ville de Sion","recycling_type":"centre"}},"type":"Feature"},
	{"geometry":{"coordinates":[7.377773,46.255164],"type":"Point"},"properties":{"name":"Molok","osm_id":"6511950409","tag":{"amenity":"recycling","operator":"Commune de Grimisuat","recycling_type":"centre"}},"type":"Feature"},
	{"geometry":{"coordinates":[7.36141,46.229385],"type":"Point"},"properties":{"osm_id":"6600996055","tag":{"amenity":"recycling","operator":"Ville de Sion","operator:type":"government","recycling:aluminium":"yes","recycling:batteries":"yes","recycling:cardboard":"yes","recycling:glass":"yes","recycling:oils":"yes","recycling:papers":"yes","recycling:textiles":"yes","recycling:tin_cans":"yes","recycling_type":"centre"}},"type":"Feature"},
	{"geometry":{"coordinates":[7.363851,46.232739],"type":"Point"},"properties":{"osm_id":"6715661813","tag":{"amenity":"recycling","recycling_type":"centre"}},"type":"Feature"},
	{"geometry":{"coordinates":[7.358816,46.225042],"type":"Point"},"properties":{"osm_id":"6937817415","tag":{"amenity":"recycling","operator":"Ville de Sion","operator:type":"government","recycling_type":"centre"}},"type":"Feature"},
	{"geometry":{"coordinates":[7.322158,46.248467],"type":"Point"},"properties":{"osm_id":"7635499622","tag":{"amenity":"waste_basket","waste":"dog_excrement"}},"type":"Feature"}
]
}
