{
"type": "FeatureCollection",
"features": [
	{"geometry":{"coordinates":[7.299311,44.817683],"type":"Point"},"properties":{"osm_id":"2290824751","tag":{"amenity":"recycling","operator":"Aceapinerolese","recycling_type":"container"}},"type":"Feature"},
	{"geometry":{"coordinates":[7.299299,44.81769],"type":"Point"},"properties":{"osm_id":"2290824752","tag":{"amenity":"recycling","operator":"Aceapinerolese","recycling_type":"container"}},"type":"Feature"},
	{"geometry":{"coordinates":[7.299286,44.817698],"type":"Point"},"properties":{"osm_id":"2290824753","tag":{"amenity":"recycling","operator":"Aceapinerolese","recycling_type":"container"}},"type":"Feature"},
	{"geometry":{"coordinates":[7.299271,44.817705],"type":"Point"},"properties":{"osm_id":"2290824754","tag":{"amenity":"recycling","operator":"Aceapinerolese","recycling_type":"container"}},"type":"Feature"},
	{"geometry":{"coordinates":[7.298745,44.816595],"type":"Point"},"properties":{"osm_id":"2290825778","tag":{"amenity":"recycling","operator":"Aceapinerolese","recycling_type":"container"}},"type":"Feature"},
	{"geometry":{"coordinates":[7.298735,44.816602],"type":"Point"},"properties":{"osm_id":"2290825779","tag":{"amenity":"recycling","operator":"Aceapinerolese","recycling_type":"container"}},"type":"Feature"},
	{"geometry":{"coordinates":[7.29872,44.816608],"type":"Point"},"properties":{"osm_id":"2290825780","tag":{"amenity":"recycling","operator":"Aceapinerolese","recycling_type":"container"}},"type":"Feature"},
	{"geometry":{"coordinates":[7.298708,44.816617],"type":"Point"},"properties":{"osm_id":"2290825782","tag":{"amenity":"recycling","operator":"Aceapinerolese","recycling_type":"container"}},"type":"Feature"},
	{"geometry":{"coordinates":[7.29586,44.817613],"type":"Point"},"properties":{"osm_id":"2290826418","tag":{"amenity":"recycling","operator":"Acea Pinerolese Industriale Spa","recycling:waste":"yes","recycling_type":"container","website":"https://www.aceapinerolese.it/"}},"type":"Feature"},
	{"geometry":{"coordinates":[7.29585,44.817607],"type":"Point"},"properties":{"osm_id":"5474955067","tag":{"amenity":"recycling","operator":"Acea Pinerolese Industriale Spa","recycling:waste":"yes","recycling_type":"container","website":"https://www.aceapinerolese.it/"}},"type":"Feature"},
	{"geometry":{"coordinates":[7.295871,44.817621],"type":"Point"},"properties":{"osm_id":"5474955068","tag":{"amenity":"recycling","operator":"Acea Pinerolese Industriale Spa","recycling:organic":"yes","recycling_type":"container","website":"https://www.aceapinerolese.it/"}},"type":"Feature"},
	{"geometry":{"coordinates":[7.295797,44.817569],"type":"Point"},"properties":{"osm_id":"5474957332","tag":{"amenity":"recycling","operator":"Acea Pinerolese Industriale Spa","recycling:garden_waste":"yes","recycling_type":"container","website":"https://www.aceapinerolese.it/"}},"type":"Feature"},
	{"geometry":{"coordinates":[7.295805,44.817575],"type":"Point"},"properties":{"osm_id":"5474957333","tag":{"amenity":"recycling","operator":"Acea Pinerolese Industriale Spa","recycling:garden_waste":"yes","recycling_type":"container","website":"https://www.aceapinerolese.it/"}},"type":"Feature"},
	{"geometry":{"coordinates":[7.295814,44.817582],"type":"Point"},"properties":{"osm_id":"5474957334","tag":{"amenity":"recycling","operator":"Acea Pinerolese Industriale Spa","recycling:glass":"yes","recycling_type":"container","website":"https://www.aceapinerolese.it/"}},"type":"Feature"},
	{"geometry":{"coordinates":[7.295823,44.817588],"type":"Point"},"properties":{"osm_id":"5474957335","tag":{"amenity":"recycling","operator":"Acea Pinerolese Industriale Spa","recycling:plastic":"yes","recycling_type":"container","website":"https://www.aceapinerolese.it/"}},"type":"Feature"},
	{"geometry":{"coordinates":[7.295832,44.817594],"type":"Point"},"properties":{"osm_id":"5474957336","tag":{"amenity":"recycling","operator":"Acea Pinerolese Industriale Spa","recycling:paper":"yes","recycling_type":"container","website":"https://www.aceapinerolese.it/"}},"type":"Feature"},
	{"geometry":{"coordinates":[7.295841,44.8176],"type":"Point"},"properties":{"osm_id":"5474957337","tag":{"amenity":"recycling","operator":"Acea Pinerolese Industriale Spa","recycling:paper":"yes","recycling_type":"container","website":"https://www.aceapinerolese.it/"}},"type":"Feature"},
	{"geometry":{"coordinates":[7.308949,44.825101],"type":"Point"},"properties":{"osm_id":"5493923015","tag":{"amenity":"recycling","operator":"Acea Pinerolese Industriale Spa","recycling:organic":"yes","recycling_type":"container","website":"https://www.aceapinerolese.it/"}},"type":"Feature"},
	{"geometry":{"coordinates":[7.308916,44.825115],"type":"Point"},"properties":{"osm_id":"5493923016","tag":{"amenity":"recycling","operator":"Acea Pinerolese Industriale Spa","recycling:waste":"yes","recycling_type":"container","website":"https://www.aceapinerolese.it/"}},"type":"Feature"},
	{"geometry":{"coordinates":[7.308878,44.825131],"type":"Point"},"properties":{"osm_id":"5493923017","tag":{"amenity":"recycling","operator":"Acea Pinerolese Industriale Spa","recycling:paper":"yes","recycling_type":"container","website":"https://www.aceapinerolese.it/"}},"type":"Feature"},
	{"geometry":{"coordinates":[7.308851,44.825142],"type":"Point"},"properties":{"osm_id":"5493923018","tag":{"amenity":"recycling","operator":"Acea Pinerolese Industriale Spa","recycling:plastic":"yes","recycling_type":"container","website":"https://www.aceapinerolese.it/"}},"type":"Feature"},
	{"geometry":{"coordinates":[7.308823,44.825154],"type":"Point"},"properties":{"osm_id":"5493923019","tag":{"amenity":"recycling","operator":"Acea Pinerolese Industriale Spa","recycling:glass":"yes","recycling_type":"container","website":"https://www.aceapinerolese.it/"}},"type":"Feature"},
	{"geometry":{"coordinates":[7.307176,44.824365],"type":"Point"},"properties":{"osm_id":"5498694279","tag":{"amenity":"recycling","operator":"Acea Pinerolese Industriale Spa","recycling:organic":"yes","recycling_type":"container","website":"https://www.aceapinerolese.it/"}},"type":"Feature"},
	{"geometry":{"coordinates":[7.307154,44.824366],"type":"Point"},"properties":{"osm_id":"5498694280","tag":{"amenity":"recycling","operator":"Acea Pinerolese Industriale Spa","recycling:organic":"yes","recycling_type":"container","website":"https://www.aceapinerolese.it/"}},"type":"Feature"},
	{"geometry":{"coordinates":[7.307131,44.824368],"type":"Point"},"properties":{"osm_id":"5498694281","tag":{"amenity":"recycling","operator":"Acea Pinerolese Industriale Spa","recycling:plastic":"yes","recycling_type":"container","website":"https://www.aceapinerolese.it/"}},"type":"Feature"},
	{"geometry":{"coordinates":[7.307109,44.824369],"type":"Point"},"properties":{"osm_id":"5498694282","tag":{"amenity":"recycling","operator":"Acea Pinerolese Industriale Spa","recycling:paper":"yes","recycling_type":"container","website":"https://www.aceapinerolese.it/"}},"type":"Feature"},
	{"geometry":{"coordinates":[7.307091,44.82437],"type":"Point"},"properties":{"osm_id":"5498694283","tag":{"amenity":"recycling","operator":"Acea Pinerolese Industriale Spa","recycling:waste":"yes","recycling_type":"container","website":"https://www.aceapinerolese.it/"}},"type":"Feature"},
	{"geometry":{"coordinates":[7.307077,44.82437],"type":"Point"},"properties":{"osm_id":"5498694284","tag":{"amenity":"recycling","operator":"Acea Pinerolese Industriale Spa","recycling:waste":"yes","recycling_type":"container","website":"https://www.aceapinerolese.it/"}},"type":"Feature"},
	{"geometry":{"coordinates":[7.299239,44.825605],"type":"Point"},"properties":{"osm_id":"5505653960","tag":{"amenity":"recycling","operator":"Acea Pinerolese Industriale Spa","recycling:glass":"yes","recycling_type":"container","website":"https://www.aceapinerolese.it/"}},"type":"Feature"},
	{"geometry":{"coordinates":[7.299248,44.825607],"type":"Point"},"properties":{"osm_id":"5505653961","tag":{"amenity":"recycling","operator":"Acea Pinerolese Industriale Spa","recycling:paper":"yes","recycling_type":"container","website":"https://www.aceapinerolese.it/"}},"type":"Feature"},
	{"geometry":{"coordinates":[7.299258,44.825609],"type":"Point"},"properties":{"osm_id":"5505653962","tag":{"amenity":"recycling","operator":"Acea Pinerolese Industriale Spa","recycling:plastic":"yes","recycling_type":"container","website":"https://www.aceapinerolese.it/"}},"type":"Feature"},
	{"geometry":{"coordinates":[7.299269,44.825612],"type":"Point"},"properties":{"osm_id":"5505653963","tag":{"amenity":"recycling","operator":"Acea Pinerolese Industriale Spa","recycling:waste":"yes","recycling_type":"container","website":"https://www.aceapinerolese.it/"}},"type":"Feature"},
	{"geometry":{"coordinates":[7.299278,44.825614],"type":"Point"},"properties":{"osm_id":"5505653964","tag":{"amenity":"recycling","operator":"Acea Pinerolese Industriale Spa","recycling:organic":"yes","recycling_type":"container","website":"https://www.aceapinerolese.it/"}},"type":"Feature"},
	{"geometry":{"coordinates":[7.298797,44.828837],"type":"Point"},"properties":{"osm_id":"5505763569","tag":{"amenity":"recycling","operator":"Acea Pinerolese Industriale Spa","recycling:plastic":"yes","recycling_type":"container","website":"https://www.aceapinerolese.it/"}},"type":"Feature"},
	{"geometry":{"coordinates":[7.298818,44.828841],"type":"Point"},"properties":{"osm_id":"5505763570","tag":{"amenity":"recycling","operator":"Acea Pinerolese Industriale Spa","recycling:paper":"yes","recycling_type":"container","website":"https://www.aceapinerolese.it/"}},"type":"Feature"},
	{"geometry":{"coordinates":[7.298833,44.828844],"type":"Point"},"properties":{"osm_id":"5505763571","tag":{"amenity":"recycling","operator":"Acea Pinerolese Industriale Spa","recycling:waste":"yes","recycling_type":"container","website":"https://www.aceapinerolese.it/"}},"type":"Feature"},
	{"geometry":{"coordinates":[7.298851,44.828847],"type":"Point"},"properties":{"osm_id":"5505763572","tag":{"amenity":"recycling","operator":"Acea Pinerolese Industriale Spa","recycling:glass":"yes","recycling_type":"container","website":"https://www.aceapinerolese.it/"}},"type":"Feature"},
	{"geometry":{"coordinates":[7.298868,44.828851],"type":"Point"},"properties":{"osm_id":"5505763573","tag":{"amenity":"recycling","operator":"Acea Pinerolese Industriale Spa","recycling:organic":"yes","recycling_type":"container","website":"https://www.aceapinerolese.it/"}},"type":"Feature"}
]
}
