{
"type": "FeatureCollection",
"lastupdate": "2020-08-02T00:00:00Z",
"features": [
	{"geometry":{"coordinates":[7.308122,44.498547],"type":"Point"},"properties":{"osm_id":"1536014831","tag":{"amenity":"recycling","recycling_type":"container"}},"type":"Feature"},
	{"geometry":{"coordinates":[7.382499,44.482382],"type":"Point"},"properties":{"osm_id":"1812995008","tag":{"amenity":"recycling","recycling_type":"container"}},"type":"Feature"},
	{"geometry":{"coordinates":[7.342691,44.512114],"type":"Point"},"properties":{"osm_id":"1830242533","tag":{"amenity":"recycling","recycling:glass_bottles":"yes","recycling:paper":"yes","recycling:plastic_packaging":"yes","recycling:waste":"yes","recycling_type":"container"}},"type":"Feature"},
	{"geometry":{"coordinates":[7.343085,44.51269],"type":"Point"},"properties":{"osm_id":"1830242544","tag":{"amenity":"recycling","recycling_type":"container"}},"type":"Feature"},
	{"geometry":{"coordinates":[7.363376,44.468794],"type":"Point"},"properties":{"osm_id":"3249596724","tag":{"amenity":"recycling"}},"type":"Feature"},
	{"geometry":{"coordinates":[7.361126,44.468515],"type":"Point"},"properties":{"osm_id":"3250733880","tag":{"amenity":"recycling"}},"type":"Feature"},
	{"geometry":{"coordinates":[7.379947,44.482657],"type":"Point"},"properties":{"osm_id":"3256975342","tag":{"amenity":"recycling","recycling_type":"container"}},"type":"Feature"},
	{"geometry":{"coordinates":[7.369951,44.46947],"type":"Point"},"properties":{"osm_id":"3261478444","tag":{"amenity":"recycling"}},"type":"Feature"},
	{"geometry":{"coordinates":[7.351473,44.467455],"type":"Point"},"properties":{"osm_id":"3265020192","tag":{"amenity":"recycling","recycling_type":"container"}},"type":"Feature"},
	{"geometry":{"coordinates":[7.355593,44.465313],"type":"Point"},"properties":{"osm_id":"3266049010","tag":{"amenity":"recycling"}},"type":"Feature"},
	{"geometry":{"coordinates":[7.342442,44.477041],"type":"Point"},"properties":{"osm_id":"3267344525","tag":{"amenity":"recycling"}},"type":"Feature"},
	{"geometry":{"coordinates":[7.341183,44.469802],"type":"Point"},"properties":{"osm_id":"3273446015","tag":{"amenity":"recycling","recycling_type":"container"}},"type":"Feature"},
	{"geometry":{"coordinates":[7.344505,44.471354],"type":"Point"},"properties":{"osm_id":"3273507966","tag":{"amenity":"recycling","recycling_type":"container"}},"type":"Feature"},
	{"geometry":{"coordinates":[7.34625,44.472178],"type":"Point"},"properties":{"osm_id":"3275065832","tag":{"amenity":"recycling","recycling_type":"container"}},"type":"Feature"},
	{"geometry":{"coordinates":[7.344778,44.472464],"type":"Point"},"properties":{"osm_id":"3275069465","tag":{"amenity":"recycling","recycling_type":"container"}},"type":"Feature"},
	{"geometry":{"coordinates":[7.344832,44.472897],"type":"Point"},"properties":{"osm_id":"3275069491","tag":{"amenity":"recycling","recycling_type":"container"}},"type":"Feature"},
	{"geometry":{"coordinates":[7.343623,44.47447],"type":"Point"},"properties":{"osm_id":"3275070050","tag":{"amenity":"recycling","recycling_type":"container"}},"type":"Feature"},
	{"geometry":{"coordinates":[7.348555,44.467722],"type":"Point"},"properties":{"osm_id":"3276951715","tag":{"amenity":"recycling","recycling_type":"container"}},"type":"Feature"},
	{"geometry":{"coordinates":[7.341495,44.473715],"type":"Point"},"properties":{"osm_id":"3277399420","tag":{"amenity":"recycling","recycling_type":"container"}},"type":"Feature"},
	{"geometry":{"coordinates":[7.338405,44.480204],"type":"Point"},"properties":{"osm_id":"3278266443","tag":{"amenity":"recycling"}},"type":"Feature"},
	{"geometry":{"coordinates":[7.342277,44.489711],"type":"Point"},"properties":{"osm_id":"3278266785","tag":{"amenity":"recycling"}},"type":"Feature"},
	{"geometry":{"coordinates":[7.314062,44.466104],"type":"Point"},"properties":{"osm_id":"5161509889","tag":{"amenity":"recycling","recycling_type":"container"}},"type":"Feature"},
	{"geometry":{"coordinates":[7.340978,44.47967],"type":"Point"},"properties":{"osm_id":"5697439295","tag":{"amenity":"recycling","recycling_type":"container"}},"type":"Feature"}
]
}
