{
"type": "FeatureCollection",
"features": [
	{"geometry":{"coordinates":[-4.767159,48.423413],"type":"Point"},"properties":{"osm_id":"475191861","tag":{"amenity":"recycling","recycling:cans":"yes","recycling:glass":"yes","recycling:paper":"yes"}},"type":"Feature"},
	{"geometry":{"coordinates":[-4.781051,48.429201],"type":"Point"},"properties":{"osm_id":"736442527","tag":{"amenity":"recycling","recycling:cans":"yes","recycling:glass":"yes","recycling:paper":"yes"}},"type":"Feature"},
	{"geometry":{"coordinates":[-4.784756,48.422347],"type":"Point"},"properties":{"osm_id":"736442528","tag":{"amenity":"recycling","recycling:cans":"yes","recycling:glass":"yes","recycling:paper":"yes"}},"type":"Feature"},
	{"geometry":{"coordinates":[-4.778432,48.442116],"type":"Point"},"properties":{"osm_id":"1842453895","tag":{"amenity":"waste_basket"}},"type":"Feature"},
	{"geometry":{"coordinates":[-4.778385,48.442219],"type":"Point"},"properties":{"osm_id":"1842453896","tag":{"amenity":"waste_basket","visual_Impairment":"Laisser la poubelle \u00c3\u00a0 droite pour vous engager sur la portion de sentier c\u00c3\u00b4tier bient\u00c3\u00b4t \u00c3\u00a9quip\u00c3\u00a9 d'une main courante"}},"type":"Feature"},
	{"geometry":{"coordinates":[-4.778438,48.44265],"type":"Point"},"properties":{"osm_id":"1842453897","tag":{"amenity":"waste_basket"}},"type":"Feature"},
	{"geometry":{"coordinates":[-4.772825,48.446634],"type":"Point"},"properties":{"osm_id":"2394132876","tag":{"amenity":"recycling"}},"type":"Feature"},
	{"geometry":{"coordinates":[-4.762112,48.447364],"type":"Point"},"properties":{"osm_id":"2398766480","tag":{"amenity":"waste_basket"}},"type":"Feature"},
	{"geometry":{"coordinates":[-4.763565,48.449405],"type":"Point"},"properties":{"osm_id":"2400429942","tag":{"amenity":"recycling"}},"type":"Feature"},
	{"geometry":{"coordinates":[-4.770526,48.444267],"type":"Point"},"properties":{"osm_id":"2404788029","tag":{"amenity":"waste_basket"}},"type":"Feature"},
	{"geometry":{"coordinates":[-4.768928,48.445736],"type":"Point"},"properties":{"osm_id":"2455851623","tag":{"amenity":"waste_basket"}},"type":"Feature"},
	{"geometry":{"coordinates":[-4.770036,48.445909],"type":"Point"},"properties":{"osm_id":"2455851656","tag":{"amenity":"waste_basket"}},"type":"Feature"},
	{"geometry":{"coordinates":[-4.781816,48.444101],"type":"Point"},"properties":{"osm_id":"4198421093","tag":{"amenity":"waste_basket"}},"type":"Feature"},
	{"geometry":{"coordinates":[-4.762889,48.448722],"type":"Point"},"properties":{"osm_id":"4242628851","tag":{"amenity":"waste_basket"}},"type":"Feature"}
]
}
