{
"type": "FeatureCollection",
"features": [
	{"geometry":{"coordinates":[-70.790029,43.002024],"type":"Point"},"properties":{"name":"Rye Transfer Station","osm_id":"4335791767","tag":{"amenity":"recycling","opening_hours":"Tu-Sa 07:00-15:45","operator":"Town of Rye","recycling:cans":"yes","recycling:cardboard":"yes","recycling:electrical_appliances":"yes","recycling:glass":"yes","recycling:glass_bottles":"yes","recycling:green_waste":"yes","recycling:paper":"yes","recycling:plastic":"yes","recycling:plastic_bottles":"yes","recycling:scrap_metal":"yes","recycling:shoes":"no","recycling:small_appliances":"yes","recycling:waste":"yes","recycling_type":"centre"}},"type":"Feature"},
	{"geometry":{"coordinates":[-70.782154,42.954729],"type":"Point"},"properties":{"osm_id":"6594618502","tag":{"amenity":"recycling","operator":"New Hampshire State Parks","recycling:cans":"yes","recycling:cardboard":"yes","recycling:glass":"yes","recycling:paper":"yes","recycling:plastic":"yes","recycling:waste":"yes","recycling_type":"container"}},"type":"Feature"},
	{"geometry":{"coordinates":[-70.781995,42.954689],"type":"Point"},"properties":{"osm_id":"6594618503","tag":{"amenity":"recycling","operator":"New Hampshire State Parks","recycling:cans":"yes","recycling:cardboard":"yes","recycling:glass":"yes","recycling:paper":"yes","recycling:plastic":"yes","recycling:waste":"yes","recycling_type":"container"}},"type":"Feature"},
	{"geometry":{"coordinates":[-70.816296,42.995392],"type":"Point"},"properties":{"osm_id":"8173810879","tag":{"amenity":"recycling","operator":"The Salvation Army","recycling:clothes":"yes","recycling_type":"container"}},"type":"Feature"},
	{"geometry":{"coordinates":[-70.816277,42.995411],"type":"Point"},"properties":{"osm_id":"8173810880","tag":{"amenity":"recycling","operator":"The Salvation Army","recycling:clothes":"yes","recycling_type":"container"}},"type":"Feature"},
	{"geometry":{"coordinates":[-70.833732,42.945597],"type":"Point"},"properties":{"osm_id":"8361635376","tag":{"amenity":"recycling","operator":"Planet Aid","recycling:clothes":"yes","recycling:shoes":"yes","recycling_type":"container"}},"type":"Feature"}
]
}
