{
"type": "FeatureCollection",
"lastupdate": "2020-08-03T00:00:00Z",
"features": [
	{"geometry":{"coordinates":[20.684133,48.196867],"type":"Point"},"properties":{"osm_id":"3437757063","tag":{"addr:street":"Egressy B\u00e9ni \u00fat","amenity":"recycling","source:date":"2012-05-18","url":"http://turistautak.hu/poi.php?id=73658"}},"type":"Feature"},
	{"geometry":{"coordinates":[20.654983,48.177533],"type":"Point"},"properties":{"osm_id":"3437757161","tag":{"addr:city":"Radosty\u00e1n","addr:street":"Kossuth Lajos utca","amenity":"recycling","source:date":"2012-05-18","url":"http://turistautak.hu/poi.php?id=49790"}},"type":"Feature"},
	{"geometry":{"coordinates":[20.739033,48.180817],"type":"Point"},"properties":{"osm_id":"3437757168","tag":{"addr:street":"De\u00e1k Ferenc utca","amenity":"recycling","source:date":"2012-05-18","url":"http://turistautak.hu/poi.php?id=72825"}},"type":"Feature"},
	{"geometry":{"coordinates":[20.67495,48.18295],"type":"Point"},"properties":{"osm_id":"3437757172","tag":{"addr:city":"Saj\u00f3l\u00e1szl\u00f3falva","addr:housenumber":"3","addr:postcode":"3773","addr:street":"Hunyadi utca","amenity":"recycling","source:date":"2012-05-18","url":"http://turistautak.hu/poi.php?id=47739"}},"type":"Feature"}
]
}
