{
"type": "FeatureCollection",
"features": [
	{"geometry":{"coordinates":[20.662795,48.114133],"type":"Point"},"properties":{"osm_id":"3258911371","tag":{"amenity":"recycling","recycling:cans":"yes","recycling:clothes":"no","recycling:glass":"yes","recycling:paper":"yes"}},"type":"Feature"},
	{"geometry":{"coordinates":[20.658033,48.11575],"type":"Point"},"properties":{"osm_id":"3437151345","tag":{"addr:city":"Miskolc","addr:street":"Herman Ott\u00c3\u00b3 eml\u00c3\u00a9kpark","amenity":"recycling","source:date":"2012-05-18","url":"http://turistautak.hu/poi.php?id=60217"}},"type":"Feature"},
	{"geometry":{"coordinates":[20.700233,48.116283],"type":"Point"},"properties":{"osm_id":"3437151347","tag":{"addr:city":"Miskolc","addr:street":"Ereny\u00c5\u0091 utca","amenity":"recycling","location":"overground","recycling_type":"container","source:date":"2012-05-18","url":"http://turistautak.hu/poi.php?id=60719"}},"type":"Feature"},
	{"geometry":{"coordinates":[20.656315,48.123982],"type":"Point"},"properties":{"osm_id":"3437151593","tag":{"amenity":"recycling","source:date":"2013-12-02","url":"http://turistautak.hu/poi.php?id=154081"}},"type":"Feature"},
	{"geometry":{"coordinates":[20.672917,48.130367],"type":"Point"},"properties":{"osm_id":"3437151605","tag":{"addr:city":"Miskolc","addr:street":"\u00c3\u0081llom\u00c3\u00a1s t\u00c3\u00a9r","amenity":"recycling","source:date":"2012-05-18","url":"http://turistautak.hu/poi.php?id=46110"}},"type":"Feature"},
	{"geometry":{"coordinates":[20.671455,48.108741],"type":"Point"},"properties":{"osm_id":"5588913236","tag":{"amenity":"recycling","recycling:metal":"yes","recycling:paper":"yes","recycling:plastic":"yes"}},"type":"Feature"}
]
}
