{
"type": "FeatureCollection",
"features": [
	{"geometry":{"coordinates":[20.691069,48.101902],"type":"Point"},"properties":{"osm_id":"1383290013","tag":{"amenity":"recycling","recycling:glass_bottles":"yes","recycling:metal":"yes","recycling:paper":"yes","recycling:plastic":"yes","recycling_type":"container"}},"type":"Feature"},
	{"geometry":{"coordinates":[20.705521,48.097837],"type":"Point"},"properties":{"osm_id":"2136213460","tag":{"amenity":"recycling"}},"type":"Feature"},
	{"geometry":{"coordinates":[20.6792,48.067817],"type":"Point"},"properties":{"osm_id":"3437150285","tag":{"addr:city":"Miskolc","addr:postcode":"3558","addr:street":"F\u00c5\u0091 \u00c3\u00bat","addr:suburb":"B\u00c3\u00bckkszentl\u00c3\u00a1sz\u00c3\u00b3","amenity":"recycling","source:date":"2013-12-02","url":"http://turistautak.hu/poi.php?id=42517"}},"type":"Feature"},
	{"geometry":{"coordinates":[20.733649,48.076891],"type":"Point"},"properties":{"osm_id":"3437150512","tag":{"amenity":"recycling","source:date":"2012-01-19","url":"http://turistautak.hu/poi.php?id=122688"}},"type":"Feature"},
	{"geometry":{"coordinates":[20.7247,48.078333],"type":"Point"},"properties":{"osm_id":"3437150520","tag":{"addr:city":"Miskolc","addr:housenumber":"18","addr:postcode":"3533","addr:street":"Olvaszt\u00c3\u00a1r utca","amenity":"recycling","source:date":"2012-05-18","url":"http://turistautak.hu/poi.php?id=47672"}},"type":"Feature"},
	{"geometry":{"coordinates":[20.7268,48.080467],"type":"Point"},"properties":{"osm_id":"3437150532","tag":{"addr:city":"Miskolc","addr:housenumber":"8","addr:postcode":"3533","addr:street":"Olvaszt\u00c3\u00a1r utca","amenity":"recycling","source:date":"2012-05-18","url":"http://turistautak.hu/poi.php?id=48602"}},"type":"Feature"},
	{"geometry":{"coordinates":[20.664133,48.080783],"type":"Point"},"properties":{"osm_id":"3437150536","tag":{"addr:city":"Miskolc","addr:postcode":"3558","addr:street":"F\u00c5\u0091 \u00c3\u00bat","addr:suburb":"B\u00c3\u00bckkszentl\u00c3\u00a1sz\u00c3\u00b3","amenity":"recycling","source:date":"2012-05-18","url":"http://turistautak.hu/poi.php?id=42516"}},"type":"Feature"},
	{"geometry":{"coordinates":[20.7222,48.083817],"type":"Point"},"properties":{"osm_id":"3437150558","tag":{"addr:city":"Miskolc","addr:housenumber":"38","addr:postcode":"3533","addr:street":"Szeder utca","amenity":"recycling","source:date":"2012-05-18","url":"http://turistautak.hu/poi.php?id=48184"}},"type":"Feature"},
	{"geometry":{"coordinates":[20.724583,48.090417],"type":"Point"},"properties":{"osm_id":"3437150713","tag":{"addr:city":"Miskolc","addr:housenumber":"15","addr:postcode":"3533","addr:street":"Kabar utca","amenity":"recycling","source:date":"2013-12-02","url":"http://turistautak.hu/poi.php?id=42552"}},"type":"Feature"},
	{"geometry":{"coordinates":[20.729167,48.094783],"type":"Point"},"properties":{"osm_id":"3437150753","tag":{"addr:city":"Miskolc","addr:housenumber":"2","addr:postcode":"3533","addr:street":"G\u00c3\u00b3zon Lajos utca","amenity":"recycling","source:date":"2012-05-18","url":"http://turistautak.hu/poi.php?id=47675"}},"type":"Feature"},
	{"geometry":{"coordinates":[20.707017,48.095],"type":"Point"},"properties":{"osm_id":"3437150758","tag":{"addr:city":"Miskolc","addr:street":"Gagarin utca","amenity":"recycling","source:date":"2011-07-04","url":"http://turistautak.hu/poi.php?id=80521"}},"type":"Feature"},
	{"geometry":{"coordinates":[20.694073,48.096813],"type":"Point"},"properties":{"osm_id":"3437150774","tag":{"addr:city":"Miskolc","addr:street":"Tokaji Ferenc utca","amenity":"recycling","source:date":"2012-05-18","url":"http://turistautak.hu/poi.php?id=64225"}},"type":"Feature"},
	{"geometry":{"coordinates":[20.703133,48.100383],"type":"Point"},"properties":{"osm_id":"3437150812","tag":{"addr:city":"Miskolc","addr:housenumber":"1","addr:postcode":"3534","addr:street":"Dorottya utca","amenity":"recycling","recycling_type":"container","source:date":"2012-05-18","url":"http://turistautak.hu/poi.php?id=47015"}},"type":"Feature"},
	{"geometry":{"coordinates":[20.722559,48.100595],"type":"Point"},"properties":{"osm_id":"3437150814","tag":{"addr:city":"Miskolc","addr:street":"Kilencedik utca","amenity":"recycling","source:date":"2012-05-18","url":"http://turistautak.hu/poi.php?id=76231"}},"type":"Feature"},
	{"geometry":{"coordinates":[20.679395,48.100608],"type":"Point"},"properties":{"osm_id":"3437150815","tag":{"amenity":"recycling","recycling:glass_bottles":"yes","recycling:metal":"yes","recycling:paper":"yes","recycling:plastic":"yes","recycling_type":"container","source:date":"2018-11-12"}},"type":"Feature"},
	{"geometry":{"coordinates":[20.681449,48.10307],"type":"Point"},"properties":{"osm_id":"3437150835","tag":{"addr:city":"Miskolc","addr:housenumber":"69","addr:postcode":"3535","addr:street":"Bart\u00c3\u00b3k B\u00c3\u00a9la utca","amenity":"recycling","recycling_type":"container","source:date":"2012-05-18","url":"http://turistautak.hu/poi.php?id=48915"}},"type":"Feature"},
	{"geometry":{"coordinates":[20.712133,48.103317],"type":"Point"},"properties":{"osm_id":"3437150837","tag":{"addr:city":"Miskolc","addr:street":"Stadion utca","amenity":"recycling","source:date":"2011-07-04","url":"http://turistautak.hu/poi.php?id=79767"}},"type":"Feature"},
	{"geometry":{"coordinates":[20.677267,48.103844],"type":"Point"},"properties":{"osm_id":"3437150844","tag":{"addr:city":"Miskolc","addr:street":"Endr\u00c5\u0091di S\u00c3\u00a1ndor utca","amenity":"recycling","source:date":"2012-05-18","url":"http://turistautak.hu/poi.php?id=56871"}},"type":"Feature"},
	{"geometry":{"coordinates":[20.687705,48.103893],"type":"Point"},"properties":{"osm_id":"3437150845","tag":{"amenity":"recycling","recycling:glass_bottles":"yes","recycling:metal":"yes","recycling:paper":"yes","recycling:plastic":"yes","recycling_type":"container","source:date":"2018-11-12","url":"http://turistautak.hu/poi.php?id=119838"}},"type":"Feature"},
	{"geometry":{"coordinates":[20.71435,48.103933],"type":"Point"},"properties":{"osm_id":"3437150847","tag":{"addr:city":"Miskolc","addr:street":"Fazola Henrik utca","amenity":"recycling","source:date":"2012-05-18","url":"http://turistautak.hu/poi.php?id=79768"}},"type":"Feature"},
	{"geometry":{"coordinates":[20.683183,48.104567],"type":"Point"},"properties":{"osm_id":"3437150854","tag":{"addr:city":"Miskolc","addr:street":"\u00c3\u0081rp\u00c3\u00a1d \u00c3\u00bat","amenity":"recycling","source:date":"2012-05-18","url":"http://turistautak.hu/poi.php?id=49560"}},"type":"Feature"},
	{"geometry":{"coordinates":[20.683626,48.105323],"type":"Point"},"properties":{"osm_id":"3437150861","tag":{"amenity":"recycling","location":"overground","recycling:cans":"yes","recycling:glass_bottles":"yes","recycling:paper":"yes","recycling:plastic":"yes","recycling_type":"container","source:date":"2011-07-04","url":"http://turistautak.hu/poi.php?id=120223"}},"type":"Feature"},
	{"geometry":{"coordinates":[20.740211,48.103664],"type":"Point"},"properties":{"osm_id":"6405925112","tag":{"amenity":"recycling","recycling:glass":"yes","recycling_type":"container"}},"type":"Feature"},
	{"geometry":{"coordinates":[20.710536,48.096095],"type":"Point"},"properties":{"osm_id":"7991902434","tag":{"amenity":"waste_basket","waste":"trash"}},"type":"Feature"},
	{"geometry":{"coordinates":[20.710391,48.096397],"type":"Point"},"properties":{"osm_id":"7991902435","tag":{"amenity":"waste_basket","waste":"trash"}},"type":"Feature"},
	{"geometry":{"coordinates":[20.71053,48.095934],"type":"Point"},"properties":{"osm_id":"7991902443","tag":{"amenity":"waste_basket","waste":"dog_excrement"}},"type":"Feature"},
	{"geometry":{"coordinates":[20.7104,48.095887],"type":"Point"},"properties":{"osm_id":"7991902444","tag":{"amenity":"waste_disposal"}},"type":"Feature"},
	{"geometry":{"coordinates":[20.710444,48.095209],"type":"Point"},"properties":{"osm_id":"7991902445","tag":{"amenity":"waste_disposal"}},"type":"Feature"},
	{"geometry":{"coordinates":[20.710402,48.095317],"type":"Point"},"properties":{"osm_id":"7991902446","tag":{"amenity":"waste_disposal"}},"type":"Feature"}
]
}
