{
"type": "FeatureCollection",
"features": [
	{"geometry":{"coordinates":[-90.489158,14.605625],"type":"Point"},"properties":{"osm_id":"612587629","tag":{"denotation":"single","leaf_cycle":"evergreen","leaf_type":"broadleaved","natural":"tree","species":"Ceiba"}},"type":"Feature"},
	{"geometry":{"coordinates":[-90.489293,14.60549],"type":"Point"},"properties":{"osm_id":"612587631","tag":{"natural":"tree"}},"type":"Feature"},
	{"geometry":{"coordinates":[-90.489425,14.605356],"type":"Point"},"properties":{"osm_id":"612587632","tag":{"natural":"tree"}},"type":"Feature"},
	{"geometry":{"coordinates":[-90.489359,14.605423],"type":"Point"},"properties":{"osm_id":"612587633","tag":{"natural":"tree"}},"type":"Feature"},
	{"geometry":{"coordinates":[-90.457318,14.60991],"type":"Point"},"properties":{"name":"Parque Hacienda Real","osm_id":"2428610866","tag":{"natural":"tree"}},"type":"Feature"},
	{"geometry":{"coordinates":[-90.505296,14.679417],"type":"Point"},"properties":{"osm_id":"5852832071","tag":{"natural":"tree"}},"type":"Feature"},
	{"geometry":{"coordinates":[-90.511256,14.604933],"type":"Point"},"properties":{"osm_id":"5958823908","tag":{"addr:city":"Cuidad de Guatemala","addr:country":"GT","addr:housenumber":"8-30","addr:state":"Guatemala","addr:street":"5 Avenida","natural":"tree"}},"type":"Feature"},
	{"geometry":{"coordinates":[-90.480116,14.615741],"type":"Point"},"properties":{"osm_id":"6388378280","tag":{"natural":"tree"}},"type":"Feature"},
	{"geometry":{"coordinates":[-90.484437,14.619942],"type":"Point"},"properties":{"osm_id":"7159760400","tag":{"natural":"tree"}},"type":"Feature"},
	{"geometry":{"coordinates":[-90.504773,14.679409],"type":"Point"},"properties":{"osm_id":"7202189005","tag":{"natural":"tree"}},"type":"Feature"},
	{"geometry":{"coordinates":[-90.503906,14.679203],"type":"Point"},"properties":{"osm_id":"7202189006","tag":{"natural":"tree"}},"type":"Feature"},
	{"geometry":{"coordinates":[-90.503998,14.679186],"type":"Point"},"properties":{"osm_id":"7202189007","tag":{"natural":"tree"}},"type":"Feature"},
	{"geometry":{"coordinates":[-90.504058,14.679117],"type":"Point"},"properties":{"osm_id":"7202189008","tag":{"natural":"tree"}},"type":"Feature"},
	{"geometry":{"coordinates":[-90.50393,14.679124],"type":"Point"},"properties":{"osm_id":"7202189009","tag":{"natural":"tree"}},"type":"Feature"},
	{"geometry":{"coordinates":[-90.504072,14.679023],"type":"Point"},"properties":{"osm_id":"7202189010","tag":{"natural":"tree"}},"type":"Feature"},
	{"geometry":{"coordinates":[-90.503957,14.679023],"type":"Point"},"properties":{"osm_id":"7202189011","tag":{"natural":"tree"}},"type":"Feature"},
	{"geometry":{"coordinates":[-90.50386,14.679065],"type":"Point"},"properties":{"osm_id":"7202189012","tag":{"natural":"tree"}},"type":"Feature"},
	{"geometry":{"coordinates":[-90.503621,14.678247],"type":"Point"},"properties":{"osm_id":"7202189013","tag":{"natural":"tree"}},"type":"Feature"},
	{"geometry":{"coordinates":[-90.50368,14.678594],"type":"Point"},"properties":{"osm_id":"7202189014","tag":{"natural":"tree"}},"type":"Feature"},
	{"geometry":{"coordinates":[-90.503644,14.678434],"type":"Point"},"properties":{"osm_id":"7202189015","tag":{"natural":"tree"}},"type":"Feature"},
	{"geometry":{"coordinates":[-90.503793,14.678331],"type":"Point"},"properties":{"osm_id":"7202189016","tag":{"natural":"tree"}},"type":"Feature"},
	{"geometry":{"coordinates":[-90.503892,14.678293],"type":"Point"},"properties":{"osm_id":"7202189017","tag":{"natural":"tree"}},"type":"Feature"},
	{"geometry":{"coordinates":[-90.503813,14.678105],"type":"Point"},"properties":{"osm_id":"7202189018","tag":{"natural":"tree"}},"type":"Feature"},
	{"geometry":{"coordinates":[-90.503753,14.678853],"type":"Point"},"properties":{"osm_id":"7202189019","tag":{"natural":"tree"}},"type":"Feature"},
	{"geometry":{"coordinates":[-90.503605,14.678129],"type":"Point"},"properties":{"osm_id":"7202189020","tag":{"natural":"tree"}},"type":"Feature"},
	{"geometry":{"coordinates":[-90.504166,14.678954],"type":"Point"},"properties":{"osm_id":"7202189037","tag":{"natural":"tree"}},"type":"Feature"},
	{"geometry":{"coordinates":[-90.504914,14.679383],"type":"Point"},"properties":{"osm_id":"7202189038","tag":{"natural":"tree"}},"type":"Feature"},
	{"geometry":{"coordinates":[-90.505588,14.679327],"type":"Point"},"properties":{"osm_id":"7202189039","tag":{"natural":"tree"}},"type":"Feature"},
	{"geometry":{"coordinates":[-90.505637,14.679248],"type":"Point"},"properties":{"osm_id":"7202189040","tag":{"natural":"tree"}},"type":"Feature"},
	{"geometry":{"coordinates":[-90.50567,14.679128],"type":"Point"},"properties":{"osm_id":"7202189041","tag":{"natural":"tree"}},"type":"Feature"},
	{"geometry":{"coordinates":[-90.505695,14.679025],"type":"Point"},"properties":{"osm_id":"7202189042","tag":{"natural":"tree"}},"type":"Feature"},
	{"geometry":{"coordinates":[-90.505719,14.678961],"type":"Point"},"properties":{"osm_id":"7202189043","tag":{"natural":"tree"}},"type":"Feature"},
	{"geometry":{"coordinates":[-90.505728,14.678874],"type":"Point"},"properties":{"osm_id":"7202189044","tag":{"natural":"tree"}},"type":"Feature"},
	{"geometry":{"coordinates":[-90.505053,14.679208],"type":"Point"},"properties":{"osm_id":"7202189045","tag":{"natural":"tree"}},"type":"Feature"},
	{"geometry":{"coordinates":[-90.505053,14.679152],"type":"Point"},"properties":{"osm_id":"7202189046","tag":{"natural":"tree"}},"type":"Feature"},
	{"geometry":{"coordinates":[-90.505103,14.679319],"type":"Point"},"properties":{"osm_id":"7202189047","tag":{"natural":"tree"}},"type":"Feature"},
	{"geometry":{"coordinates":[-90.505201,14.679385],"type":"Point"},"properties":{"osm_id":"7202189048","tag":{"natural":"tree"}},"type":"Feature"},
	{"geometry":{"coordinates":[-90.503755,14.677968],"type":"Point"},"properties":{"osm_id":"7202189049","tag":{"natural":"tree"}},"type":"Feature"},
	{"geometry":{"coordinates":[-90.504724,14.679493],"type":"Point"},"properties":{"osm_id":"7202189050","tag":{"natural":"tree"}},"type":"Feature"},
	{"geometry":{"coordinates":[-90.504633,14.679508],"type":"Point"},"properties":{"osm_id":"7202189051","tag":{"natural":"tree"}},"type":"Feature"},
	{"geometry":{"coordinates":[-90.504563,14.679482],"type":"Point"},"properties":{"osm_id":"7202189052","tag":{"natural":"tree"}},"type":"Feature"},
	{"geometry":{"coordinates":[-90.504901,14.679342],"type":"Point"},"properties":{"osm_id":"7202189053","tag":{"natural":"tree"}},"type":"Feature"},
	{"geometry":{"coordinates":[-90.512874,14.641943],"type":"Point"},"properties":{"osm_id":"7293753547","tag":{"natural":"tree"}},"type":"Feature"},
	{"geometry":{"coordinates":[-90.512862,14.642014],"type":"Point"},"properties":{"osm_id":"7293753548","tag":{"natural":"tree"}},"type":"Feature"},
	{"geometry":{"coordinates":[-90.51285,14.642086],"type":"Point"},"properties":{"osm_id":"7293753549","tag":{"natural":"tree"}},"type":"Feature"},
	{"geometry":{"coordinates":[-90.512837,14.642155],"type":"Point"},"properties":{"osm_id":"7293753550","tag":{"natural":"tree"}},"type":"Feature"},
	{"geometry":{"coordinates":[-90.512825,14.642225],"type":"Point"},"properties":{"osm_id":"7293753551","tag":{"natural":"tree"}},"type":"Feature"},
	{"geometry":{"coordinates":[-90.51268,14.642215],"type":"Point"},"properties":{"osm_id":"7293753556","tag":{"natural":"tree"}},"type":"Feature"},
	{"geometry":{"coordinates":[-90.512692,14.642143],"type":"Point"},"properties":{"osm_id":"7293753557","tag":{"natural":"tree"}},"type":"Feature"},
	{"geometry":{"coordinates":[-90.5127,14.642095],"type":"Point"},"properties":{"osm_id":"7293753558","tag":{"natural":"tree"}},"type":"Feature"},
	{"geometry":{"coordinates":[-90.512686,14.642177],"type":"Point"},"properties":{"osm_id":"7293753559","tag":{"natural":"tree"}},"type":"Feature"},
	{"geometry":{"coordinates":[-90.512731,14.641904],"type":"Point"},"properties":{"osm_id":"7293753560","tag":{"natural":"tree"}},"type":"Feature"},
	{"geometry":{"coordinates":[-90.512715,14.642005],"type":"Point"},"properties":{"osm_id":"7293753561","tag":{"natural":"tree"}},"type":"Feature"},
	{"geometry":{"coordinates":[-90.512708,14.642046],"type":"Point"},"properties":{"osm_id":"7293753562","tag":{"natural":"tree"}},"type":"Feature"},
	{"geometry":{"coordinates":[-90.512746,14.642224],"type":"Point"},"properties":{"osm_id":"7293753563","tag":{"natural":"tree"}},"type":"Feature"},
	{"geometry":{"coordinates":[-90.512754,14.64218],"type":"Point"},"properties":{"osm_id":"7293753564","tag":{"natural":"tree"}},"type":"Feature"},
	{"geometry":{"coordinates":[-90.512767,14.642109],"type":"Point"},"properties":{"osm_id":"7293753565","tag":{"natural":"tree"}},"type":"Feature"},
	{"geometry":{"coordinates":[-90.51278,14.642039],"type":"Point"},"properties":{"osm_id":"7293753566","tag":{"natural":"tree"}},"type":"Feature"},
	{"geometry":{"coordinates":[-90.512773,14.642075],"type":"Point"},"properties":{"osm_id":"7293753567","tag":{"natural":"tree"}},"type":"Feature"},
	{"geometry":{"coordinates":[-90.513562,14.642051],"type":"Point"},"properties":{"osm_id":"7293790488","tag":{"natural":"tree"}},"type":"Feature"},
	{"geometry":{"coordinates":[-90.513549,14.642123],"type":"Point"},"properties":{"osm_id":"7293790489","tag":{"natural":"tree"}},"type":"Feature"},
	{"geometry":{"coordinates":[-90.513537,14.642194],"type":"Point"},"properties":{"osm_id":"7293790490","tag":{"natural":"tree"}},"type":"Feature"},
	{"geometry":{"coordinates":[-90.513525,14.642264],"type":"Point"},"properties":{"osm_id":"7293790491","tag":{"natural":"tree"}},"type":"Feature"},
	{"geometry":{"coordinates":[-90.513513,14.642334],"type":"Point"},"properties":{"osm_id":"7293790492","tag":{"natural":"tree"}},"type":"Feature"},
	{"geometry":{"coordinates":[-90.495992,14.642427],"type":"Point"},"properties":{"osm_id":"7579089966","tag":{"diameter":"0.5","height":"4","leaf_type":"broadleaved","natural":"tree"}},"type":"Feature"},
	{"geometry":{"coordinates":[-90.491669,14.607293],"type":"Point"},"properties":{"osm_id":"7697625049","tag":{"leaf_cycle":"evergreen","leaf_type":"broadleaved","natural":"tree","species":"Ceiba"}},"type":"Feature"},
	{"geometry":{"coordinates":[-90.513411,14.606441],"type":"Point"},"properties":{"osm_id":"7710965265","tag":{"leaf_type":"broadleaved","natural":"tree"}},"type":"Feature"},
	{"geometry":{"coordinates":[-90.513249,14.606566],"type":"Point"},"properties":{"osm_id":"7710965266","tag":{"natural":"tree"}},"type":"Feature"},
	{"geometry":{"coordinates":[-90.512707,14.605617],"type":"Point"},"properties":{"osm_id":"7710965269","tag":{"natural":"tree"}},"type":"Feature"},
	{"geometry":{"coordinates":[-90.511956,14.606146],"type":"Point"},"properties":{"osm_id":"7710965270","tag":{"natural":"tree"}},"type":"Feature"}
]
}
