{
"type": "FeatureCollection",
"features": [
	{"geometry":{"coordinates":[-97.734242,30.350372],"type":"Point"},"properties":{"osm_id":"3163082849","tag":{"amenity":"waste_basket"}},"type":"Feature"},
	{"geometry":{"coordinates":[-97.732011,30.353935],"type":"Point"},"properties":{"osm_id":"3163082853","tag":{"amenity":"waste_basket"}},"type":"Feature"},
	{"geometry":{"coordinates":[-97.730063,30.358573],"type":"Point"},"properties":{"osm_id":"3163082860","tag":{"amenity":"waste_basket"}},"type":"Feature"},
	{"geometry":{"coordinates":[-97.729599,30.360519],"type":"Point"},"properties":{"osm_id":"3163089565","tag":{"amenity":"waste_basket"}},"type":"Feature"},
	{"geometry":{"coordinates":[-97.728756,30.363536],"type":"Point"},"properties":{"osm_id":"3163089569","tag":{"amenity":"waste_basket"}},"type":"Feature"},
	{"geometry":{"coordinates":[-97.726804,30.371024],"type":"Point"},"properties":{"osm_id":"3163089575","tag":{"amenity":"waste_basket"}},"type":"Feature"},
	{"geometry":{"coordinates":[-97.727056,30.371124],"type":"Point"},"properties":{"osm_id":"3168596601","tag":{"amenity":"waste_basket"}},"type":"Feature"},
	{"geometry":{"coordinates":[-97.73041,30.35838],"type":"Point"},"properties":{"osm_id":"3168848203","tag":{"amenity":"waste_basket"}},"type":"Feature"},
	{"geometry":{"coordinates":[-97.729811,30.360482],"type":"Point"},"properties":{"osm_id":"3168848207","tag":{"amenity":"waste_basket"}},"type":"Feature"},
	{"geometry":{"coordinates":[-97.728889,30.36411],"type":"Point"},"properties":{"osm_id":"3168848211","tag":{"amenity":"waste_basket"}},"type":"Feature"},
	{"geometry":{"coordinates":[-97.728069,30.36716],"type":"Point"},"properties":{"osm_id":"3168848214","tag":{"amenity":"waste_basket"}},"type":"Feature"},
	{"geometry":{"coordinates":[-97.728942,30.354858],"type":"Point"},"properties":{"osm_id":"3169506247","tag":{"amenity":"waste_basket"}},"type":"Feature"},
	{"geometry":{"coordinates":[-97.732942,30.310696],"type":"Point"},"properties":{"osm_id":"3205332701","tag":{"amenity":"waste_basket"}},"type":"Feature"},
	{"geometry":{"coordinates":[-97.732258,30.314731],"type":"Point"},"properties":{"osm_id":"3205332704","tag":{"amenity":"waste_basket"}},"type":"Feature"},
	{"geometry":{"coordinates":[-97.730873,30.318448],"type":"Point"},"properties":{"osm_id":"3206212598","tag":{"amenity":"waste_basket"}},"type":"Feature"},
	{"geometry":{"coordinates":[-97.729097,30.321316],"type":"Point"},"properties":{"osm_id":"3206212602","tag":{"amenity":"waste_basket"}},"type":"Feature"},
	{"geometry":{"coordinates":[-97.727344,30.324097],"type":"Point"},"properties":{"osm_id":"3206212608","tag":{"amenity":"waste_basket"}},"type":"Feature"},
	{"geometry":{"coordinates":[-97.726366,30.32566],"type":"Point"},"properties":{"osm_id":"3206212620","tag":{"amenity":"waste_basket"}},"type":"Feature"},
	{"geometry":{"coordinates":[-97.723502,30.330201],"type":"Point"},"properties":{"osm_id":"3206249856","tag":{"amenity":"waste_basket"}},"type":"Feature"},
	{"geometry":{"coordinates":[-97.721194,30.33388],"type":"Point"},"properties":{"osm_id":"3206249859","tag":{"amenity":"waste_basket"}},"type":"Feature"},
	{"geometry":{"coordinates":[-97.719517,30.33654],"type":"Point"},"properties":{"osm_id":"3206250362","tag":{"amenity":"waste_basket"}},"type":"Feature"},
	{"geometry":{"coordinates":[-97.717774,30.339265],"type":"Point"},"properties":{"osm_id":"3206274224","tag":{"amenity":"waste_basket"}},"type":"Feature"},
	{"geometry":{"coordinates":[-97.716552,30.341168],"type":"Point"},"properties":{"osm_id":"3206274231","tag":{"amenity":"waste_basket"}},"type":"Feature"},
	{"geometry":{"coordinates":[-97.714893,30.343834],"type":"Point"},"properties":{"osm_id":"3206274235","tag":{"amenity":"waste_basket"}},"type":"Feature"},
	{"geometry":{"coordinates":[-97.712114,30.350177],"type":"Point"},"properties":{"osm_id":"3207010765","tag":{"amenity":"waste_basket"}},"type":"Feature"},
	{"geometry":{"coordinates":[-97.711578,30.348295],"type":"Point"},"properties":{"osm_id":"3207784332","tag":{"amenity":"waste_basket"}},"type":"Feature"},
	{"geometry":{"coordinates":[-97.705715,30.353125],"type":"Point"},"properties":{"osm_id":"3207784339","tag":{"amenity":"waste_basket"}},"type":"Feature"},
	{"geometry":{"coordinates":[-97.702924,30.355184],"type":"Point"},"properties":{"osm_id":"3207784348","tag":{"amenity":"waste_basket"}},"type":"Feature"},
	{"geometry":{"coordinates":[-97.701234,30.356416],"type":"Point"},"properties":{"osm_id":"3207784351","tag":{"amenity":"waste_basket"}},"type":"Feature"},
	{"geometry":{"coordinates":[-97.699646,30.358141],"type":"Point"},"properties":{"osm_id":"3207808415","tag":{"amenity":"waste_basket"}},"type":"Feature"},
	{"geometry":{"coordinates":[-97.698494,30.360248],"type":"Point"},"properties":{"osm_id":"3207808418","tag":{"amenity":"waste_basket"}},"type":"Feature"},
	{"geometry":{"coordinates":[-97.698422,30.363914],"type":"Point"},"properties":{"osm_id":"3209823836","tag":{"amenity":"waste_basket"}},"type":"Feature"},
	{"geometry":{"coordinates":[-97.698491,30.363943],"type":"Point"},"properties":{"osm_id":"3209823839","tag":{"amenity":"waste_basket"}},"type":"Feature"},
	{"geometry":{"coordinates":[-97.700669,30.364973],"type":"Point"},"properties":{"osm_id":"3209823846","tag":{"amenity":"waste_basket"}},"type":"Feature"},
	{"geometry":{"coordinates":[-97.703988,30.366555],"type":"Point"},"properties":{"osm_id":"3209823850","tag":{"amenity":"waste_basket"}},"type":"Feature"},
	{"geometry":{"coordinates":[-97.706617,30.367682],"type":"Point"},"properties":{"osm_id":"3209823855","tag":{"amenity":"waste_basket"}},"type":"Feature"},
	{"geometry":{"coordinates":[-97.710375,30.369281],"type":"Point"},"properties":{"osm_id":"3209823859","tag":{"amenity":"waste_basket"}},"type":"Feature"},
	{"geometry":{"coordinates":[-97.715181,30.37166],"type":"Point"},"properties":{"osm_id":"3215076490","tag":{"amenity":"waste_basket"}},"type":"Feature"},
	{"geometry":{"coordinates":[-97.698522,30.363701],"type":"Point"},"properties":{"osm_id":"3215850273","tag":{"amenity":"waste_basket"}},"type":"Feature"},
	{"geometry":{"coordinates":[-97.698674,30.363753],"type":"Point"},"properties":{"osm_id":"3215850281","tag":{"amenity":"waste_basket"}},"type":"Feature"},
	{"geometry":{"coordinates":[-97.701923,30.365334],"type":"Point"},"properties":{"osm_id":"3215850307","tag":{"amenity":"waste_basket"}},"type":"Feature"},
	{"geometry":{"coordinates":[-97.704088,30.36635],"type":"Point"},"properties":{"osm_id":"3215850319","tag":{"amenity":"waste_basket"}},"type":"Feature"},
	{"geometry":{"coordinates":[-97.706462,30.367384],"type":"Point"},"properties":{"osm_id":"3215850327","tag":{"amenity":"waste_basket"}},"type":"Feature"},
	{"geometry":{"coordinates":[-97.710069,30.368867],"type":"Point"},"properties":{"osm_id":"3215850343","tag":{"amenity":"waste_basket"}},"type":"Feature"},
	{"geometry":{"coordinates":[-97.706104,30.35314],"type":"Point"},"properties":{"osm_id":"3215894187","tag":{"amenity":"waste_basket"}},"type":"Feature"},
	{"geometry":{"coordinates":[-97.703094,30.35535],"type":"Point"},"properties":{"osm_id":"3215894240","tag":{"amenity":"waste_basket"}},"type":"Feature"},
	{"geometry":{"coordinates":[-97.701133,30.356788],"type":"Point"},"properties":{"osm_id":"3215894251","tag":{"amenity":"waste_basket"}},"type":"Feature"},
	{"geometry":{"coordinates":[-97.699319,30.359304],"type":"Point"},"properties":{"osm_id":"3215894306","tag":{"amenity":"waste_basket"}},"type":"Feature"},
	{"geometry":{"coordinates":[-97.697937,30.361771],"type":"Point"},"properties":{"osm_id":"3215894313","tag":{"amenity":"waste_basket"}},"type":"Feature"},
	{"geometry":{"coordinates":[-97.697896,30.361845],"type":"Point"},"properties":{"osm_id":"3215894318","tag":{"amenity":"waste_basket"}},"type":"Feature"},
	{"geometry":{"coordinates":[-97.726354,30.326157],"type":"Point"},"properties":{"osm_id":"3216026048","tag":{"amenity":"waste_basket"}},"type":"Feature"},
	{"geometry":{"coordinates":[-97.725215,30.327932],"type":"Point"},"properties":{"osm_id":"3216026051","tag":{"amenity":"waste_basket"}},"type":"Feature"},
	{"geometry":{"coordinates":[-97.72363,30.330443],"type":"Point"},"properties":{"osm_id":"3216026055","tag":{"amenity":"waste_basket"}},"type":"Feature"},
	{"geometry":{"coordinates":[-97.721313,30.33412],"type":"Point"},"properties":{"osm_id":"3216031072","tag":{"amenity":"waste_basket"}},"type":"Feature"},
	{"geometry":{"coordinates":[-97.720007,30.336197],"type":"Point"},"properties":{"osm_id":"3216031078","tag":{"amenity":"waste_basket"}},"type":"Feature"},
	{"geometry":{"coordinates":[-97.718986,30.337956],"type":"Point"},"properties":{"osm_id":"3216031094","tag":{"amenity":"waste_basket"}},"type":"Feature"},
	{"geometry":{"coordinates":[-97.71793,30.339591],"type":"Point"},"properties":{"osm_id":"3216031103","tag":{"amenity":"waste_basket"}},"type":"Feature"},
	{"geometry":{"coordinates":[-97.715671,30.343177],"type":"Point"},"properties":{"osm_id":"3216031140","tag":{"amenity":"waste_basket"}},"type":"Feature"},
	{"geometry":{"coordinates":[-97.729393,30.321306],"type":"Point"},"properties":{"osm_id":"3216047608","tag":{"amenity":"waste_basket"}},"type":"Feature"},
	{"geometry":{"coordinates":[-97.727565,30.324202],"type":"Point"},"properties":{"osm_id":"3216047619","tag":{"amenity":"waste_basket"}},"type":"Feature"},
	{"geometry":{"coordinates":[-97.732998,30.311108],"type":"Point"},"properties":{"osm_id":"3216081561","tag":{"amenity":"waste_basket"}},"type":"Feature"},
	{"geometry":{"coordinates":[-97.73255,30.314595],"type":"Point"},"properties":{"osm_id":"3216081568","tag":{"amenity":"waste_basket"}},"type":"Feature"},
	{"geometry":{"coordinates":[-97.732529,30.314675],"type":"Point"},"properties":{"osm_id":"3216081575","tag":{"amenity":"waste_basket"}},"type":"Feature"},
	{"geometry":{"coordinates":[-97.733502,30.357195],"type":"Point"},"properties":{"osm_id":"3231562160","tag":{"amenity":"waste_basket"}},"type":"Feature"},
	{"geometry":{"coordinates":[-97.734333,30.299207],"type":"Point"},"properties":{"osm_id":"3241228128","tag":{"amenity":"waste_basket"}},"type":"Feature"},
	{"geometry":{"coordinates":[-97.732828,30.301547],"type":"Point"},"properties":{"osm_id":"3241228129","tag":{"amenity":"waste_basket"}},"type":"Feature"},
	{"geometry":{"coordinates":[-97.729609,30.306612],"type":"Point"},"properties":{"osm_id":"3241228133","tag":{"amenity":"waste_basket"}},"type":"Feature"},
	{"geometry":{"coordinates":[-97.728703,30.308059],"type":"Point"},"properties":{"osm_id":"3241228135","tag":{"amenity":"waste_basket"}},"type":"Feature"},
	{"geometry":{"coordinates":[-97.729205,30.309133],"type":"Point"},"properties":{"osm_id":"3242653758","tag":{"amenity":"waste_basket"}},"type":"Feature"},
	{"geometry":{"coordinates":[-97.731883,30.310436],"type":"Point"},"properties":{"osm_id":"3242654361","tag":{"amenity":"waste_basket"}},"type":"Feature"},
	{"geometry":{"coordinates":[-97.733454,30.311255],"type":"Point"},"properties":{"osm_id":"3242654365","tag":{"amenity":"waste_basket"}},"type":"Feature"},
	{"geometry":{"coordinates":[-97.733598,30.327557],"type":"Point"},"properties":{"osm_id":"3247698367","tag":{"amenity":"waste_basket"}},"type":"Feature"},
	{"geometry":{"coordinates":[-97.732676,30.328972],"type":"Point"},"properties":{"osm_id":"3247736269","tag":{"amenity":"waste_basket"}},"type":"Feature"},
	{"geometry":{"coordinates":[-97.731577,30.330731],"type":"Point"},"properties":{"osm_id":"3247736285","tag":{"amenity":"waste_basket"}},"type":"Feature"},
	{"geometry":{"coordinates":[-97.726598,30.340156],"type":"Point"},"properties":{"osm_id":"3247911043","tag":{"amenity":"waste_basket"}},"type":"Feature"},
	{"geometry":{"coordinates":[-97.724989,30.342829],"type":"Point"},"properties":{"osm_id":"3247911046","tag":{"amenity":"waste_basket"}},"type":"Feature"},
	{"geometry":{"coordinates":[-97.72362,30.352799],"type":"Point"},"properties":{"osm_id":"3248160159","tag":{"amenity":"waste_basket"}},"type":"Feature"},
	{"geometry":{"coordinates":[-97.726235,30.354038],"type":"Point"},"properties":{"osm_id":"3248162363","tag":{"amenity":"waste_basket"}},"type":"Feature"},
	{"geometry":{"coordinates":[-97.728275,30.355018],"type":"Point"},"properties":{"osm_id":"3248162370","tag":{"amenity":"waste_basket"}},"type":"Feature"},
	{"geometry":{"coordinates":[-97.723406,30.352463],"type":"Point"},"properties":{"osm_id":"3248705099","tag":{"amenity":"waste_basket"}},"type":"Feature"},
	{"geometry":{"coordinates":[-97.727653,30.354477],"type":"Point"},"properties":{"osm_id":"3248705105","tag":{"amenity":"waste_basket"}},"type":"Feature"},
	{"geometry":{"coordinates":[-97.731606,30.331018],"type":"Point"},"properties":{"osm_id":"3249303893","tag":{"amenity":"waste_basket"}},"type":"Feature"},
	{"geometry":{"coordinates":[-97.730703,30.333664],"type":"Point"},"properties":{"osm_id":"3249303898","tag":{"amenity":"waste_basket"}},"type":"Feature"},
	{"geometry":{"coordinates":[-97.72945,30.335938],"type":"Point"},"properties":{"osm_id":"3249303902","tag":{"amenity":"waste_basket"}},"type":"Feature"},
	{"geometry":{"coordinates":[-97.72847,30.337486],"type":"Point"},"properties":{"osm_id":"3249303906","tag":{"amenity":"waste_basket"}},"type":"Feature"},
	{"geometry":{"coordinates":[-97.727382,30.339223],"type":"Point"},"properties":{"osm_id":"3249303910","tag":{"amenity":"waste_basket"}},"type":"Feature"},
	{"geometry":{"coordinates":[-97.725905,30.341525],"type":"Point"},"properties":{"osm_id":"3249303914","tag":{"amenity":"waste_basket"}},"type":"Feature"},
	{"geometry":{"coordinates":[-97.725148,30.343017],"type":"Point"},"properties":{"osm_id":"3249303918","tag":{"amenity":"waste_basket"}},"type":"Feature"},
	{"geometry":{"coordinates":[-97.732951,30.328875],"type":"Point"},"properties":{"osm_id":"3249334931","tag":{"amenity":"waste_basket"}},"type":"Feature"},
	{"geometry":{"coordinates":[-97.733139,30.301425],"type":"Point"},"properties":{"osm_id":"3249420716","tag":{"amenity":"waste_basket"}},"type":"Feature"},
	{"geometry":{"coordinates":[-97.731811,30.303515],"type":"Point"},"properties":{"osm_id":"3249420720","tag":{"amenity":"waste_basket"}},"type":"Feature"},
	{"geometry":{"coordinates":[-97.731774,30.303573],"type":"Point"},"properties":{"osm_id":"3249420728","tag":{"amenity":"waste_basket"}},"type":"Feature"},
	{"geometry":{"coordinates":[-97.729807,30.30664],"type":"Point"},"properties":{"osm_id":"3249420730","tag":{"amenity":"waste_basket"}},"type":"Feature"},
	{"geometry":{"coordinates":[-97.728675,30.30837],"type":"Point"},"properties":{"osm_id":"3249420734","tag":{"amenity":"waste_basket"}},"type":"Feature"},
	{"geometry":{"coordinates":[-97.730404,30.309548],"type":"Point"},"properties":{"osm_id":"3249420736","tag":{"amenity":"waste_basket"}},"type":"Feature"},
	{"geometry":{"coordinates":[-97.732592,30.310602],"type":"Point"},"properties":{"osm_id":"3249420738","tag":{"amenity":"waste_basket"}},"type":"Feature"},
	{"geometry":{"coordinates":[-97.734127,30.299838],"type":"Point"},"properties":{"osm_id":"3249613879","tag":{"amenity":"waste_basket"}},"type":"Feature"},
	{"geometry":{"coordinates":[-97.733891,30.302169],"type":"Point"},"properties":{"osm_id":"4499112795","tag":{"amenity":"waste_basket","vending":"excrement_bags","waste":"dog_excrement"}},"type":"Feature"},
	{"geometry":{"coordinates":[-97.727585,30.307763],"type":"Point"},"properties":{"osm_id":"4500830007","tag":{"amenity":"waste_basket","vending":"excrement_bags","waste":"dog_excrement"}},"type":"Feature"},
	{"geometry":{"coordinates":[-97.718763,30.341583],"type":"Point"},"properties":{"osm_id":"4709191299","tag":{"amenity":"waste_basket","operator":"Crestview HOA"}},"type":"Feature"},
	{"geometry":{"coordinates":[-97.721925,30.328149],"type":"Point"},"properties":{"osm_id":"6400768370","tag":{"amenity":"waste_basket"}},"type":"Feature"},
	{"geometry":{"coordinates":[-97.723147,30.327235],"type":"Point"},"properties":{"osm_id":"6401674562","tag":{"amenity":"waste_basket"}},"type":"Feature"},
	{"geometry":{"coordinates":[-97.723208,30.327051],"type":"Point"},"properties":{"osm_id":"6401674564","tag":{"amenity":"waste_basket"}},"type":"Feature"},
	{"geometry":{"coordinates":[-97.722627,30.326695],"type":"Point"},"properties":{"osm_id":"6401674568","tag":{"amenity":"waste_basket"}},"type":"Feature"},
	{"geometry":{"coordinates":[-97.722213,30.326365],"type":"Point"},"properties":{"osm_id":"6401674575","tag":{"amenity":"waste_basket"}},"type":"Feature"},
	{"geometry":{"coordinates":[-97.7232,30.327976],"type":"Point"},"properties":{"osm_id":"6473076381","tag":{"amenity":"waste_basket"}},"type":"Feature"},
	{"geometry":{"coordinates":[-97.723442,30.327679],"type":"Point"},"properties":{"osm_id":"6473080585","tag":{"amenity":"waste_basket"}},"type":"Feature"},
	{"geometry":{"coordinates":[-97.702704,30.301136],"type":"Point"},"properties":{"osm_id":"6997957218","tag":{"amenity":"recycling","recycling:aluminium":"yes","recycling:glass":"yes","recycling:paper":"yes","recycling_type":"container"}},"type":"Feature"},
	{"geometry":{"coordinates":[-97.702707,30.301131],"type":"Point"},"properties":{"osm_id":"6997957219","tag":{"amenity":"waste_basket"}},"type":"Feature"},
	{"geometry":{"coordinates":[-97.702922,30.301385],"type":"Point"},"properties":{"osm_id":"6997957223","tag":{"amenity":"recycling","recycling_type":"container"}},"type":"Feature"},
	{"geometry":{"coordinates":[-97.702918,30.301393],"type":"Point"},"properties":{"osm_id":"6997957224","tag":{"amenity":"waste_basket","material":"metal"}},"type":"Feature"},
	{"geometry":{"coordinates":[-97.703241,30.300246],"type":"Point"},"properties":{"osm_id":"6997957227","tag":{"amenity":"waste_basket"}},"type":"Feature"},
	{"geometry":{"coordinates":[-97.703231,30.300255],"type":"Point"},"properties":{"osm_id":"6997957228","tag":{"amenity":"recycling","recycling_type":"container"}},"type":"Feature"},
	{"geometry":{"coordinates":[-97.702517,30.300104],"type":"Point"},"properties":{"osm_id":"6997957233","tag":{"amenity":"waste_basket"}},"type":"Feature"},
	{"geometry":{"coordinates":[-97.702508,30.300113],"type":"Point"},"properties":{"osm_id":"6997957234","tag":{"amenity":"recycling","recycling_type":"container"}},"type":"Feature"},
	{"geometry":{"coordinates":[-97.702221,30.301082],"type":"Point"},"properties":{"osm_id":"6997957238","tag":{"amenity":"waste_basket"}},"type":"Feature"},
	{"geometry":{"coordinates":[-97.702228,30.301089],"type":"Point"},"properties":{"osm_id":"6997957239","tag":{"amenity":"recycling","recycling_type":"container"}},"type":"Feature"},
	{"geometry":{"coordinates":[-97.702823,30.3011],"type":"Point"},"properties":{"osm_id":"6997957241","tag":{"amenity":"waste_basket","waste":"dog_excrement"}},"type":"Feature"},
	{"geometry":{"coordinates":[-97.716828,30.343462],"type":"Point"},"properties":{"osm_id":"7890798992","tag":{"amenity":"waste_basket"}},"type":"Feature"}
]
}
