{
"type": "FeatureCollection",
"features": [
	{"geometry":{"coordinates":[-76.301542,39.46478],"type":"Point"},"properties":{"osm_id":"6311959020","tag":{"amenity":"waste_disposal"}},"type":"Feature"},
	{"geometry":{"coordinates":[-76.301497,39.46477],"type":"Point"},"properties":{"osm_id":"6311959021","tag":{"amenity":"waste_disposal"}},"type":"Feature"},
	{"geometry":{"coordinates":[-76.325471,39.49849],"type":"Point"},"properties":{"osm_id":"6505202560","tag":{"amenity":"recycling","recycling:clothes":"yes","recycling:shoes":"yes","recycling_type":"container"}},"type":"Feature"},
	{"geometry":{"coordinates":[-76.309413,39.476141],"type":"Point"},"properties":{"osm_id":"6507298331","tag":{"amenity":"recycling","recycling:clothes":"yes","recycling:shoes":"yes","recycling_type":"container"}},"type":"Feature"},
	{"geometry":{"coordinates":[-76.309417,39.476155],"type":"Point"},"properties":{"osm_id":"6507298332","tag":{"amenity":"recycling","recycling:clothes":"yes","recycling:shoes":"yes","recycling_type":"container"}},"type":"Feature"},
	{"geometry":{"coordinates":[-76.299495,39.473627],"type":"Point"},"properties":{"osm_id":"6543318451","tag":{"amenity":"waste_basket","waste":"dog_excrement"}},"type":"Feature"},
	{"geometry":{"coordinates":[-76.309976,39.46444],"type":"Point"},"properties":{"osm_id":"6543763161","tag":{"amenity":"waste_basket","colour":"dark green","material":"plastic","operator":"Izaak Walton League of America, Harford County Chapter"}},"type":"Feature"},
	{"geometry":{"coordinates":[-76.301466,39.465266],"type":"Point"},"properties":{"osm_id":"6543763177","tag":{"amenity":"waste_basket","waste":"dog_excrement"}},"type":"Feature"},
	{"geometry":{"coordinates":[-76.30435,39.465284],"type":"Point"},"properties":{"osm_id":"6543763180","tag":{"amenity":"waste_basket","waste":"dog_excrement"}},"type":"Feature"},
	{"geometry":{"coordinates":[-76.302346,39.463581],"type":"Point"},"properties":{"osm_id":"6543783499","tag":{"amenity":"waste_basket","waste":"dog_excrement"}},"type":"Feature"},
	{"geometry":{"coordinates":[-76.301818,39.463451],"type":"Point"},"properties":{"osm_id":"6543783500","tag":{"amenity":"waste_disposal"}},"type":"Feature"},
	{"geometry":{"coordinates":[-76.301787,39.463447],"type":"Point"},"properties":{"osm_id":"6543783501","tag":{"amenity":"waste_disposal"}},"type":"Feature"},
	{"geometry":{"coordinates":[-76.301302,39.463351],"type":"Point"},"properties":{"osm_id":"6543783502","tag":{"amenity":"waste_basket","waste":"dog_excrement"}},"type":"Feature"},
	{"geometry":{"coordinates":[-76.307038,39.437318],"type":"Point"},"properties":{"osm_id":"6604209422","tag":{"amenity":"recycling","colour":"yellow","operator":"Planet Aid","recycling:clothes":"yes","recycling:shoes":"yes","recycling_type":"container"}},"type":"Feature"},
	{"geometry":{"coordinates":[-76.298684,39.472669],"type":"Point"},"properties":{"osm_id":"6621500596","tag":{"amenity":"waste_basket","waste":"dog_excrement"}},"type":"Feature"},
	{"geometry":{"coordinates":[-76.295261,39.472004],"type":"Point"},"properties":{"osm_id":"6621500601","tag":{"amenity":"waste_basket","waste":"dog_excrement"}},"type":"Feature"},
	{"geometry":{"coordinates":[-76.309042,39.479909],"type":"Point"},"properties":{"osm_id":"6621503715","tag":{"amenity":"recycling","colour":"red","recycling:clothes":"yes","recycling:shoes":"yes","recycling_type":"container"}},"type":"Feature"},
	{"geometry":{"coordinates":[-76.309041,39.479916],"type":"Point"},"properties":{"osm_id":"6621503716","tag":{"amenity":"recycling","colour":"red","recycling:clothes":"yes","recycling:shoes":"yes","recycling_type":"container"}},"type":"Feature"},
	{"geometry":{"coordinates":[-76.296555,39.473746],"type":"Point"},"properties":{"osm_id":"6634563671","tag":{"amenity":"waste_basket","waste":"dog_excrement"}},"type":"Feature"},
	{"geometry":{"coordinates":[-76.296037,39.471821],"type":"Point"},"properties":{"osm_id":"6634628435","tag":{"amenity":"waste_basket"}},"type":"Feature"},
	{"geometry":{"coordinates":[-76.299107,39.471003],"type":"Point"},"properties":{"osm_id":"6634633131","tag":{"amenity":"waste_basket"}},"type":"Feature"},
	{"geometry":{"coordinates":[-76.30985,39.466521],"type":"Point"},"properties":{"osm_id":"6634664197","tag":{"amenity":"waste_basket"}},"type":"Feature"},
	{"geometry":{"coordinates":[-76.309474,39.466648],"type":"Point"},"properties":{"osm_id":"6634664199","tag":{"amenity":"waste_basket"}},"type":"Feature"},
	{"geometry":{"coordinates":[-76.312681,39.468127],"type":"Point"},"properties":{"osm_id":"6668846664","tag":{"amenity":"waste_basket"}},"type":"Feature"},
	{"geometry":{"coordinates":[-76.312718,39.46805],"type":"Point"},"properties":{"osm_id":"6668846665","tag":{"amenity":"waste_basket"}},"type":"Feature"},
	{"geometry":{"coordinates":[-76.312884,39.46591],"type":"Point"},"properties":{"osm_id":"6668880591","tag":{"amenity":"waste_basket"}},"type":"Feature"},
	{"geometry":{"coordinates":[-76.313044,39.466298],"type":"Point"},"properties":{"osm_id":"6668880592","tag":{"amenity":"waste_basket"}},"type":"Feature"},
	{"geometry":{"coordinates":[-76.313156,39.466545],"type":"Point"},"properties":{"osm_id":"6668880593","tag":{"amenity":"waste_basket"}},"type":"Feature"},
	{"geometry":{"coordinates":[-76.313254,39.466785],"type":"Point"},"properties":{"osm_id":"6668880594","tag":{"amenity":"waste_basket"}},"type":"Feature"},
	{"geometry":{"coordinates":[-76.313257,39.466928],"type":"Point"},"properties":{"osm_id":"6668880595","tag":{"amenity":"waste_basket"}},"type":"Feature"},
	{"geometry":{"coordinates":[-76.313118,39.467225],"type":"Point"},"properties":{"osm_id":"6668880596","tag":{"amenity":"waste_basket"}},"type":"Feature"},
	{"geometry":{"coordinates":[-76.313065,39.467341],"type":"Point"},"properties":{"osm_id":"6668880597","tag":{"amenity":"waste_basket"}},"type":"Feature"},
	{"geometry":{"coordinates":[-76.313012,39.467452],"type":"Point"},"properties":{"osm_id":"6668880598","tag":{"amenity":"waste_basket"}},"type":"Feature"},
	{"geometry":{"coordinates":[-76.31291,39.467667],"type":"Point"},"properties":{"osm_id":"6668880599","tag":{"amenity":"waste_basket"}},"type":"Feature"},
	{"geometry":{"coordinates":[-76.31219,39.4666],"type":"Point"},"properties":{"osm_id":"6668880600","tag":{"amenity":"recycling","colour":"blue","recycling:clothes":"yes","recycling:shoes":"yes","recycling_type":"container"}},"type":"Feature"},
	{"geometry":{"coordinates":[-76.302967,39.46968],"type":"Point"},"properties":{"osm_id":"6668900522","tag":{"amenity":"waste_disposal"}},"type":"Feature"},
	{"geometry":{"coordinates":[-76.301774,39.467371],"type":"Point"},"properties":{"osm_id":"6668900530","tag":{"amenity":"waste_disposal"}},"type":"Feature"},
	{"geometry":{"coordinates":[-76.301801,39.46736],"type":"Point"},"properties":{"osm_id":"6668900531","tag":{"amenity":"waste_disposal"}},"type":"Feature"},
	{"geometry":{"coordinates":[-76.302317,39.469329],"type":"Point"},"properties":{"osm_id":"6668900532","tag":{"amenity":"waste_disposal"}},"type":"Feature"},
	{"geometry":{"coordinates":[-76.304193,39.4699],"type":"Point"},"properties":{"osm_id":"6668900549","tag":{"amenity":"waste_disposal"}},"type":"Feature"},
	{"geometry":{"coordinates":[-76.304262,39.469944],"type":"Point"},"properties":{"osm_id":"6668900550","tag":{"amenity":"waste_disposal"}},"type":"Feature"},
	{"geometry":{"coordinates":[-76.303752,39.463774],"type":"Point"},"properties":{"osm_id":"6668911876","tag":{"amenity":"waste_disposal"}},"type":"Feature"},
	{"geometry":{"coordinates":[-76.303748,39.463748],"type":"Point"},"properties":{"osm_id":"6668911877","tag":{"amenity":"waste_disposal"}},"type":"Feature"},
	{"geometry":{"coordinates":[-76.304911,39.463994],"type":"Point"},"properties":{"osm_id":"6668920689","tag":{"amenity":"waste_basket","waste":"dog_excrement"}},"type":"Feature"},
	{"geometry":{"coordinates":[-76.305434,39.464416],"type":"Point"},"properties":{"osm_id":"6668920698","tag":{"amenity":"waste_disposal"}},"type":"Feature"},
	{"geometry":{"coordinates":[-76.30545,39.464384],"type":"Point"},"properties":{"osm_id":"6668920699","tag":{"amenity":"waste_disposal"}},"type":"Feature"},
	{"geometry":{"coordinates":[-76.303376,39.465175],"type":"Point"},"properties":{"osm_id":"6668920700","tag":{"amenity":"waste_disposal"}},"type":"Feature"},
	{"geometry":{"coordinates":[-76.303388,39.465135],"type":"Point"},"properties":{"osm_id":"6668920701","tag":{"amenity":"waste_disposal"}},"type":"Feature"},
	{"geometry":{"coordinates":[-76.30441,39.464724],"type":"Point"},"properties":{"osm_id":"6668920710","tag":{"amenity":"waste_basket","waste":"dog_excrement"}},"type":"Feature"},
	{"geometry":{"coordinates":[-76.300871,39.464218],"type":"Point"},"properties":{"osm_id":"6670684289","tag":{"amenity":"waste_disposal"}},"type":"Feature"},
	{"geometry":{"coordinates":[-76.300824,39.46421],"type":"Point"},"properties":{"osm_id":"6670684290","tag":{"amenity":"waste_disposal"}},"type":"Feature"},
	{"geometry":{"coordinates":[-76.319641,39.482648],"type":"Point"},"properties":{"osm_id":"6673048341","tag":{"amenity":"waste_disposal"}},"type":"Feature"},
	{"geometry":{"coordinates":[-76.319607,39.482648],"type":"Point"},"properties":{"osm_id":"6673048342","tag":{"amenity":"waste_disposal"}},"type":"Feature"},
	{"geometry":{"coordinates":[-76.319518,39.483631],"type":"Point"},"properties":{"osm_id":"6673048346","tag":{"amenity":"waste_disposal"}},"type":"Feature"},
	{"geometry":{"coordinates":[-76.320028,39.482065],"type":"Point"},"properties":{"osm_id":"6673048348","tag":{"amenity":"waste_disposal"}},"type":"Feature"},
	{"geometry":{"coordinates":[-76.318941,39.484405],"type":"Point"},"properties":{"osm_id":"6673048350","tag":{"amenity":"waste_disposal"}},"type":"Feature"},
	{"geometry":{"coordinates":[-76.318532,39.480114],"type":"Point"},"properties":{"osm_id":"6673077493","tag":{"amenity":"waste_disposal"}},"type":"Feature"},
	{"geometry":{"coordinates":[-76.318509,39.481858],"type":"Point"},"properties":{"osm_id":"6673077500","tag":{"amenity":"waste_disposal"}},"type":"Feature"},
	{"geometry":{"coordinates":[-76.328606,39.482636],"type":"Point"},"properties":{"osm_id":"6677198732","tag":{"amenity":"waste_disposal"}},"type":"Feature"},
	{"geometry":{"coordinates":[-76.316866,39.470206],"type":"Point"},"properties":{"osm_id":"6677277239","tag":{"amenity":"waste_disposal"}},"type":"Feature"},
	{"geometry":{"coordinates":[-76.316728,39.467879],"type":"Point"},"properties":{"osm_id":"6677277246","tag":{"amenity":"waste_disposal"}},"type":"Feature"},
	{"geometry":{"coordinates":[-76.317091,39.467902],"type":"Point"},"properties":{"osm_id":"6677277251","tag":{"amenity":"waste_disposal"}},"type":"Feature"},
	{"geometry":{"coordinates":[-76.317795,39.469044],"type":"Point"},"properties":{"osm_id":"6677277258","tag":{"amenity":"waste_disposal"}},"type":"Feature"},
	{"geometry":{"coordinates":[-76.316964,39.468786],"type":"Point"},"properties":{"osm_id":"6677277265","tag":{"amenity":"waste_disposal"}},"type":"Feature"},
	{"geometry":{"coordinates":[-76.317342,39.469195],"type":"Point"},"properties":{"osm_id":"6677277270","tag":{"amenity":"waste_disposal"}},"type":"Feature"},
	{"geometry":{"coordinates":[-76.319724,39.473454],"type":"Point"},"properties":{"osm_id":"6677277282","tag":{"amenity":"waste_basket","waste":"dog_excrement"}},"type":"Feature"},
	{"geometry":{"coordinates":[-76.322379,39.475958],"type":"Point"},"properties":{"osm_id":"6677287120","tag":{"amenity":"waste_basket","waste":"dog_excrement"}},"type":"Feature"},
	{"geometry":{"coordinates":[-76.31202,39.467009],"type":"Point"},"properties":{"osm_id":"6678104350","tag":{"access":"private","amenity":"waste_disposal"}},"type":"Feature"},
	{"geometry":{"coordinates":[-76.312008,39.46708],"type":"Point"},"properties":{"osm_id":"6678104355","tag":{"access":"private","amenity":"waste_disposal"}},"type":"Feature"},
	{"geometry":{"coordinates":[-76.312015,39.467145],"type":"Point"},"properties":{"osm_id":"6678104356","tag":{"amenity":"recycling","colour":"blue","recycling:clothes":"yes","recycling:shoes":"yes","recycling_type":"container"}},"type":"Feature"},
	{"geometry":{"coordinates":[-76.302306,39.447645],"type":"Point"},"properties":{"osm_id":"6685117673","tag":{"amenity":"recycling","colour":"yellow","material":"metal","operator":"Planet Aid","recycling:clothes":"yes","recycling:shoes":"yes","recycling_type":"container"}},"type":"Feature"},
	{"geometry":{"coordinates":[-76.302311,39.447654],"type":"Point"},"properties":{"osm_id":"6685117674","tag":{"amenity":"recycling","colour":"yellow","material":"metal","operator":"Planet Aid","recycling:clothes":"yes","recycling:shoes":"yes","recycling_type":"container"}},"type":"Feature"},
	{"geometry":{"coordinates":[-76.309218,39.468966],"type":"Point"},"properties":{"osm_id":"6701735743","tag":{"access":"private","amenity":"waste_disposal"}},"type":"Feature"},
	{"geometry":{"coordinates":[-76.309206,39.469004],"type":"Point"},"properties":{"osm_id":"6701735744","tag":{"access":"private","amenity":"waste_disposal"}},"type":"Feature"},
	{"geometry":{"coordinates":[-76.308816,39.469502],"type":"Point"},"properties":{"osm_id":"6701735750","tag":{"access":"private","amenity":"waste_disposal"}},"type":"Feature"},
	{"geometry":{"coordinates":[-76.309738,39.468713],"type":"Point"},"properties":{"osm_id":"6701735751","tag":{"access":"private","amenity":"waste_disposal"}},"type":"Feature"},
	{"geometry":{"coordinates":[-76.331832,39.474596],"type":"Point"},"properties":{"osm_id":"6716300115","tag":{"amenity":"waste_basket","waste":"dog_excrement"}},"type":"Feature"},
	{"geometry":{"coordinates":[-76.332697,39.469724],"type":"Point"},"properties":{"osm_id":"6716300135","tag":{"amenity":"waste_basket","waste":"dog_excrement"}},"type":"Feature"},
	{"geometry":{"coordinates":[-76.318416,39.488976],"type":"Point"},"properties":{"osm_id":"6720067066","tag":{"amenity":"recycling","colour":"green","recycling:clothes":"yes","recycling:shoes":"yes","recycling_type":"container"}},"type":"Feature"},
	{"geometry":{"coordinates":[-76.331271,39.467401],"type":"Point"},"properties":{"osm_id":"6724574861","tag":{"amenity":"waste_basket","waste":"dog_excrement"}},"type":"Feature"},
	{"geometry":{"coordinates":[-76.329928,39.471343],"type":"Point"},"properties":{"osm_id":"6724595479","tag":{"amenity":"waste_basket","waste":"dog_excrement"}},"type":"Feature"},
	{"geometry":{"coordinates":[-76.309762,39.445668],"type":"Point"},"properties":{"osm_id":"6767974820","tag":{"amenity":"recycling","colour":"yellow","operator":"Planet Aid","recycling:clothes":"yes","recycling:shoes":"yes","recycling_type":"container"}},"type":"Feature"},
	{"geometry":{"coordinates":[-76.309735,39.445682],"type":"Point"},"properties":{"osm_id":"6767974821","tag":{"access":"private","amenity":"waste_disposal"}},"type":"Feature"},
	{"geometry":{"coordinates":[-76.301862,39.461962],"type":"Point"},"properties":{"osm_id":"6813314237","tag":{"amenity":"waste_disposal"}},"type":"Feature"},
	{"geometry":{"coordinates":[-76.303674,39.461043],"type":"Point"},"properties":{"osm_id":"6813314238","tag":{"amenity":"waste_disposal"}},"type":"Feature"},
	{"geometry":{"coordinates":[-76.306145,39.459491],"type":"Point"},"properties":{"osm_id":"6813314239","tag":{"amenity":"waste_disposal"}},"type":"Feature"},
	{"geometry":{"coordinates":[-76.3055,39.46057],"type":"Point"},"properties":{"osm_id":"6813314240","tag":{"amenity":"waste_disposal"}},"type":"Feature"},
	{"geometry":{"coordinates":[-76.304654,39.460167],"type":"Point"},"properties":{"osm_id":"6813314264","tag":{"amenity":"waste_disposal"}},"type":"Feature"},
	{"geometry":{"coordinates":[-76.303047,39.461595],"type":"Point"},"properties":{"osm_id":"6813377739","tag":{"amenity":"waste_disposal"}},"type":"Feature"},
	{"geometry":{"coordinates":[-76.295817,39.44926],"type":"Point"},"properties":{"osm_id":"6814465530","tag":{"access":"private","amenity":"waste_disposal"}},"type":"Feature"},
	{"geometry":{"coordinates":[-76.296484,39.481905],"type":"Point"},"properties":{"osm_id":"7103634815","tag":{"amenity":"waste_disposal"}},"type":"Feature"},
	{"geometry":{"coordinates":[-76.295785,39.483001],"type":"Point"},"properties":{"osm_id":"7103634820","tag":{"amenity":"waste_disposal"}},"type":"Feature"},
	{"geometry":{"coordinates":[-76.318417,39.458703],"type":"Point"},"properties":{"osm_id":"7700639904","tag":{"access":"private","amenity":"waste_disposal"}},"type":"Feature"},
	{"geometry":{"coordinates":[-76.318425,39.458728],"type":"Point"},"properties":{"osm_id":"7700639905","tag":{"amenity":"waste_disposal"}},"type":"Feature"}
]
}
