{
"type": "FeatureCollection",
"features": [
	{"geometry":{"coordinates":[-76.338337,39.373435],"type":"Point"},"properties":{"osm_id":"6504728514","tag":{"amenity":"waste_basket"}},"type":"Feature"},
	{"geometry":{"coordinates":[-76.320771,39.434587],"type":"Point"},"properties":{"osm_id":"6536130206","tag":{"amenity":"recycling","colour":"pink","recycling:clothes":"yes","recycling:shoes":"yes","recycling_type":"container"}},"type":"Feature"},
	{"geometry":{"coordinates":[-76.327728,39.432634],"type":"Point"},"properties":{"osm_id":"6545848913","tag":{"amenity":"recycling","colour":"blue","recycling:clothes":"yes","recycling:shoes":"yes","recycling_type":"container"}},"type":"Feature"},
	{"geometry":{"coordinates":[-76.327027,39.430777],"type":"Point"},"properties":{"osm_id":"6545848918","tag":{"amenity":"waste_basket","operator":"Woodbridge Center Homeowners Association"}},"type":"Feature"},
	{"geometry":{"coordinates":[-76.299537,39.426367],"type":"Point"},"properties":{"osm_id":"6648728940","tag":{"amenity":"recycling","colour":"yellow","material":"wood","recycling:clothes":"yes","recycling:shoes":"yes","recycling_type":"container"}},"type":"Feature"},
	{"geometry":{"coordinates":[-76.298042,39.427482],"type":"Point"},"properties":{"osm_id":"6673011049","tag":{"amenity":"recycling","colour":"blue","recycling:clothes":"yes","recycling:shoes":"yes","recycling_type":"container"}},"type":"Feature"},
	{"geometry":{"coordinates":[-76.298026,39.427494],"type":"Point"},"properties":{"osm_id":"6673011050","tag":{"amenity":"recycling","colour":"blue","recycling:clothes":"yes","recycling:shoes":"yes","recycling_type":"container"}},"type":"Feature"},
	{"geometry":{"coordinates":[-76.298009,39.427505],"type":"Point"},"properties":{"osm_id":"6673011051","tag":{"amenity":"recycling","colour":"blue","recycling:clothes":"yes","recycling:shoes":"yes","recycling_type":"container"}},"type":"Feature"},
	{"geometry":{"coordinates":[-76.299558,39.426385],"type":"Point"},"properties":{"osm_id":"6673011076","tag":{"amenity":"recycling","colour":"yellow","material":"wood","recycling:clothes":"yes","recycling:shoes":"yes","recycling_type":"container"}},"type":"Feature"},
	{"geometry":{"coordinates":[-76.312073,39.424754],"type":"Point"},"properties":{"osm_id":"6780205361","tag":{"amenity":"recycling","colour":"yellow","operator":"Planet Aid","recycling:clothes":"yes","recycling:shoes":"yes","recycling_type":"container"}},"type":"Feature"},
	{"geometry":{"coordinates":[-76.312485,39.424964],"type":"Point"},"properties":{"osm_id":"6780205372","tag":{"amenity":"recycling","colour":"yellow","operator":"Planet Aid","recycling:clothes":"yes","recycling:shoes":"yes","recycling_type":"container"}},"type":"Feature"},
	{"geometry":{"coordinates":[-76.368768,39.4238],"type":"Point"},"properties":{"osm_id":"7391180237","tag":{"amenity":"waste_disposal"}},"type":"Feature"},
	{"geometry":{"coordinates":[-76.367861,39.422739],"type":"Point"},"properties":{"osm_id":"7391180243","tag":{"amenity":"waste_disposal"}},"type":"Feature"},
	{"geometry":{"coordinates":[-76.370277,39.423362],"type":"Point"},"properties":{"osm_id":"7391180244","tag":{"amenity":"waste_disposal"}},"type":"Feature"},
	{"geometry":{"coordinates":[-76.369055,39.422388],"type":"Point"},"properties":{"osm_id":"7391180245","tag":{"amenity":"waste_disposal"}},"type":"Feature"},
	{"geometry":{"coordinates":[-76.35497,39.417811],"type":"Point"},"properties":{"osm_id":"7396157956","tag":{"amenity":"waste_disposal"}},"type":"Feature"},
	{"geometry":{"coordinates":[-76.354984,39.417772],"type":"Point"},"properties":{"osm_id":"7396157957","tag":{"amenity":"waste_disposal"}},"type":"Feature"}
]
}
